state,county,permno,ptype,pdate,pdescription,jvalue,jsqfeet,jaddr,jcity,jstate,jzip,jsubdiv,jlotno,aname,aaddr,acity,astate,azip,aphone,atype,aurl,afax,aprimarycontact,aemail,bldcode,units,bldgs,ctype,legal,contractor,caddress,ccity,cstate,czip,cphone,curl,cfax,cprimarycontact,cemail
TX,HARRIS,18037242,"Churches & Other Religious",7/22/2020,Addition,980699,,"13833 RICHMOND AVE",HOUSTON,TX,77082,,,"LIVING WORD CHAPEL","13833 RICHMOND AVE",HOUSTON,TX,77082,"(281) 497-9673",Owner,,,,,OWNER,,,,,OWNER,,,,,,,,,
TX,GALVESTON,2019-2867,"Churches & Other Religious",6/15/2020,,9500000,,"4201 FM 528",FRIENDSWOOD,TX,77546,,,CONTRACTOR,,,,,,,,,,,"GAMMA CONSTRUCTION",,,,,"GAMMA CONSTRUCTION","2808 JOANEL ST",HOUSTON,TX,77027-5306,"(713) 963-0086",http://www.gammaconst.com,,,info@gammaconst.com
TX,HARRIS,20041916,"Commercial Swimming Pool & Spas",7/21/2020,,60000,,"1 POTOMAC DR BLDG",HOUSTON,TX,77057,,,CONTRACTOR,,,,,,,,,,,"WATTS POOL COMPANY",,,,,"WATTS POOL COMPANY","11150 KATY FWY",HOUSTON,TX,77043-4628,"(713) 461-7300",http://www.wattspool.com,"(713) 461-8382","KRISTEN WATTS",sales@wattspool.com
TX,HARRIS,20031339,"Educational Institution",7/24/2020,Renovation,237000,,"6500 MAIN ST FL",HOUSTON,TX,77030,,,CONTRACTOR,,,,,,,,,,,"DPR CONSTRUCTION",,,,,"DPR CONSTRUCTION","3131 MCKINNEY AVE STE 210",DALLAS,TX,75204-2475,"(214) 979-9900",,,,
TX,HARRIS,2002250125,"Educational Institution",7/16/2020,,48500,1025,"14901 WELCOME LN",HOUSTON,TX,77356,,,"NORTHWOOD MONTESSORI SCHOOL","14901 WELCOME LN",HOUSTON,TX,77356,,Owner,,,,,OWNER,,,,,OWNER,,,,,,,,,
TX,HARRIS,20039384,"Hospital & Other Medical",7/22/2020,Renovation,75000,,"22710 PROFESSIONAL DR",HOUSTON,TX,77339,,,"EWING KENNETH","22710 PROFESSIONAL DR",HOUSTON,TX,77339,"(281) 253-3614",Applicant,,,,,OWNER,,,,,OWNER,,,,,,,,,
TX,HARRIS,19141356,"Hospital & Other Medical",7/23/2020,Addition,40000,,"2450 FONDREN RD",HOUSTON,TX,77063,,,"NAJA FADY","211 BAKER ST",HOUSTON,TX,77077,"(713) 603-9820",Applicant,,,,,OWNER,,,,,OWNER,,,,,,,,,
TX,HARRIS,20051931,"Hospital & Other Medical",7/21/2020,,175000,,"120 WESTHEIMER RD",HOUSTON,TX,77006,,,CONTRACTOR,,,,,,,,,,,"RICCHI GROUP TOWER",,,,,"RICCHI GROUP TOWER","1111 MOCKINGBIRD LN",DALLAS,TX,75247,"(214) 630-3012",,,,
TX,HARRIS,20069149,"Multi Family Apartments & Condos",7/24/2020,Renovation,50000,,"5100 SAN FELIPE ST",HOUSTON,TX,77056,,,"LUAN PETE","5100 SAN FELIPE ST",HOUSTON,TX,77056,,Owner,,,,,"MEDRANO ARTURO",,,,,"MEDRANO ARTURO","6421 WHITTON",HOUSTON,TX,77085,"(832) 661-9490",,,,
TX,HARRIS,2004090052,"Multi Family Apartments & Condos",7/16/2020,,2200000,27852,"9300 N SAM HOUSTON PKWY E",HOUSTON,TX,77356,GROVE,,CONTRACTOR,,,,,,,,,,,"ALLEN HARRISON CONSTRUCTION",,,,,"ALLEN HARRISON CONSTRUCTION","1800 AUGUSTA DR",HOUSTON,TX,77057-3149,"(713) 808-1234",http://allenharrisonco.com,,,info@allenharrisonco.com
TX,GALVESTON,2020-1752,"Multi Family Apartments & Condos",6/17/2020,,150000,,"103 E SHADOWBEND",FRIENDSWOOD,TX,77546,,,CONTRACTOR,,,,,,,,,,,"DEEM COMMERCIAL CONSTRUCTION",,,,,"DEEM COMMERCIAL CONSTRUCTION","3422 SWENSEN RD STE 102",PEARLAND,TX,77581-4879,"(281) 485-5950",,,,
TX,HARRIS,20067039,"Multi Family Renovations & Additions",7/21/2020,Renovation,100000,,"3433 WESTHEIMER RD FL",HOUSTON,TX,77027,,,"THE RIVER OAKS","3433 WESTHEIMER RD FL",HOUSTON,TX,77027,,Owner,,,,,"BASIC BUILDERS",,,,,"BASIC BUILDERS","10118 TALLEY LN",HOUSTON,TX,77041-6130,"(713) 460-3991",http://basicbuildersonline.com/,"(713) 460-3991",,info@basicbuilders.net
TX,HARRIS,20009711,"Offices, R&D, & Professional",7/21/2020,Addition,65900,,"3100 LAURA KOPPE",HOUSTON,TX,77093,,,CONTRACTOR,,,,,,,,,,,"AIR CLEANING TECHNOLOGIES",,,,,"AIR CLEANING TECHNOLOGIES","44966 FALCON PL STE 190",STERLING,VA,20166,"(703) 547-1680",,,,
TX,HARRIS,20020114,"Offices, R&D, & Professional",7/23/2020,Addition,35700,,"6222 RICHMOND AVE",HOUSTON,TX,77057,,,CONTRACTOR,,,,,,,,,,,"BENITEZ REMODELING & NEW CONSTRUCTION",,,,,"BENITEZ REMODELING & NEW CONSTRUCTION","7027 HENDON LN",HOUSTON,TX,77074-4729,"(713) 386-9080",,,,
TX,HARRIS,20031793,"Offices, R&D, & Professional",7/21/2020,Renovation,351837,,"16225 PARK TEN PLACE",HOUSTON,TX,77084,,,CONTRACTOR,,,,,,,,,,,"BYRD INTERIOR CONSTRUCTION",,,,,"BYRD INTERIOR CONSTRUCTION","2123 W GOVERNORS CIR # 100",HOUSTON,TX,77092-8746,"(713) 688-8850",http://www.byrdinterior.com/,,"JOHN BYRD",jbyrd@byrdinterior.com
TX,HARRIS,20043993,"Offices, R&D, & Professional",7/23/2020,Renovation,42000,,"909 FANNIN ST",HOUSTON,TX,77010,,,CONTRACTOR,,,,,,,,,,,"DI-CASS CONSTRUCTION",,,,,"DI-CASS CONSTRUCTION","12615 JONES ROAD, SUITE 100",HOUSTON,TX,77070,"(281) 894-4105",,,,info@dicass.net
TX,HARRIS,20059673,"Offices, R&D, & Professional",7/24/2020,Renovation,400000,,"8030 EL RIO",HOUSTON,TX,77054,,,CONTRACTOR,,,,,,,,,,,"DPR CONSTRUCTION",,,,,"DPR CONSTRUCTION","3131 MCKINNEY AVE STE 210",DALLAS,TX,75204-2475,"(214) 979-9900",,,,
TX,HARRIS,20035392,"Offices, R&D, & Professional",7/22/2020,Renovation,1360000,,"747 N SHEPHERD DR",HOUSTON,TX,77007,,,CONTRACTOR,,,,,,,,,,,"HITT CONTRACTING",,,,,"HITT CONTRACTING","9300 BAMBOO RD",HOUSTON,TX,77041,"(713) 688-9496",https://hitt.com/,,,
TX,HARRIS,20055545,"Offices, R&D, & Professional",7/22/2020,Renovation,350000,,"1221 MCKINNEY ST",HOUSTON,TX,77010,,,CONTRACTOR,,,,,,,,,,,"HITT CONTRACTING",,,,,"HITT CONTRACTING","9300 BAMBOO RD",HOUSTON,TX,77041,"(713) 688-9496",https://hitt.com/,,,
TX,HARRIS,20040256,"Offices, R&D, & Professional",7/22/2020,Renovation,30000,,"700 LOUISIANA ST FL",HOUSTON,TX,77002,,,CONTRACTOR,,,,,,,,,,,"HITT CONTRACTING",,,,,"HITT CONTRACTING","9300 BAMBOO RD",HOUSTON,TX,77041,"(713) 688-9496",https://hitt.com/,,,
TX,HARRIS,19127583,"Offices, R&D, & Professional",7/22/2020,,800000,,"10920 HAZELHURST DR BLD",HOUSTON,TX,77043,,,CONTRACTOR,,,,,,,,,,,"METHOD CONSTRUCTION",,,,,"METHOD CONSTRUCTION","1776 YORKTOWN ST SUITE 300",HOUSTON,TX,77056-4182,"(713) 621-0708",,,,
TX,HARRIS,20046766,"Offices, R&D, & Professional",7/21/2020,Renovation,160000,,"3200 SOUTHWEST FWY FL",HOUSTON,TX,77027,,,CONTRACTOR,,,,,,,,,,,"SNIDER CONSTRUCTION",,,,,"SNIDER CONSTRUCTION","8862 HIGHWAY 290 W",AUSTIN,TX,78736-7805,"(512) 288-6030",,,"PAUL SNIDER",
TX,HARRIS,20057882,"Offices, R&D, & Professional",7/22/2020,Renovation,171500,,"500 DALLAS ST",HOUSTON,TX,77002,,,CONTRACTOR,,,,,,,,,,,"ODONNELL SNIDER CONSTRUCTION",,,,,"ODONNELL SNIDER CONSTRUCTION","1900 WEST LOOP S",HOUSTON,TX,77027-3214,"(346) 352-3098",http://odonnellsnider.com/,,,
TX,HARRIS,20060764,"Offices, R&D, & Professional",7/21/2020,Renovation,486700,,"5444 WESTHEIMER RD",HOUSTON,TX,77056,,,CONTRACTOR,,,,,,,,,,,"SCOTT & REID GENERAL",,,,,"SCOTT & REID GENERAL","5100 WESTHEIMER RD STE 200",HOUSTON,TX,77056-5597,"(469) 374-3400",http://www.scottandreid.com,"(469) 374-0060","PHIL VANDERHILL",email@scottandreid.com
TX,HARRIS,19088494,"Offices, R&D, & Professional",7/24/2020,Renovation,1411000,,"4010 CANAL",HOUSTON,TX,77003,,,CONTRACTOR,,,,,,,,,,,"TEXANA BUILDERS",,,,,"TEXANA BUILDERS","8945 LONG POINT RD STE 212",HOUSTON,TX,77055-3009,"(713) 681-2747",http://www.texanabuilders.com/,,,info@texanabuilders.com
TX,HARRIS,19131114,"Offices, R&D, & Professional",7/24/2020,,241050,,"11237 SOUTHWEST FWY",HOUSTON,TX,77031,,,CONTRACTOR,,,,,,,,,,,"ENTERPRISE LOGIC",,,,,"ENTERPRISE LOGIC","7457, HARWIN DRIVE, SUITE 208",HOUSTON,TX,77036,"(832) 252-6777",http://www.enterprise-logic.com/,,,info@enterprise-logic.com
TX,HARRIS,2001070018,"Offices, R&D, & Professional",7/16/2020,,150000,2000,"23801 CYPRESSWOOD DR",HOUSTON,TX,77356,,,"A2Z STORAGE","23801 CYPRESSWOOD DR",HOUSTON,TX,77356,,Owner,,,,,OWNER,,,,,OWNER,,,,,,,,,
TX,HARRIS,2004210124,"Offices, R&D, & Professional",7/16/2020,,496650,6622,"8303 THORA LN",HOUSTON,TX,77356,,,CONTRACTOR,,,,,,,,,,,W-INDUSTRIES,,,,,W-INDUSTRIES,"11500 CHARLES RD","JERSEY VILLAGE",TX,77041,"(713) 466-9463",,,,
TX,GALVESTON,2020-1923,"Offices, R&D, & Professional",6/26/2020,,100000,,"505 S FRIENDSWOOD DR 319",FRIENDSWOOD,TX,77546,,,CONTRACTOR,,,,,,,,,,,"TANNOS CONSTRUCTION & DEVELOPMENT",,,,,"TANNOS CONSTRUCTION & DEVELOPMENT","112 LAFAYETTE LN","LEAGUE CITY",TX,77573-1934,"(281) 724-9065",,,"LOUIS TANNOS",
TX,HARRIS,2004210111,"Other Commercial",7/16/2020,,900000,12000,"13310 TELGE RD",HOUSTON,TX,77356,,,"SUT-MAZZ-1 LTD","13310 TELGE RD",HOUSTON,TX,77356,,Owner,,,,,OWNER,,,,,OWNER,,,,,,,,,
TX,HARRIS,2004210112,"Other Commercial",7/16/2020,,750000,10000,"13320 TELGE RD",HOUSTON,TX,77356,,,SUT-MAZZ-1,"13320 TELGE RD",HOUSTON,TX,77356,,Owner,,,,,OWNER,,,,,OWNER,,,,,,,,,
TX,HARRIS,2004210114,"Other Commercial",7/16/2020,,750000,10000,"13350 TELGE RD",HOUSTON,TX,77356,,,SUT-MAZZ-1,"13350 TELGE RD",HOUSTON,TX,77356,,Owner,,,,,OWNER,,,,,OWNER,,,,,,,,,
TX,HARRIS,2004210115,"Other Commercial",7/16/2020,,900000,12000,"13360 TELGE RD",HOUSTON,TX,77356,,,SUT-MAZZ-1,"13360 TELGE RD",HOUSTON,TX,77356,,Owner,,,,,OWNER,,,,,OWNER,,,,,,,,,
TX,HARRIS,19068532,"Parking Structures & Carports",7/22/2020,,45800,,"8109 CREEKBEND DR",HOUSTON,TX,77071,,,"CLUBCREEK NEW LIFE COMMUNITY","8109 CREEKBEND DR",HOUSTON,TX,77071,"(713) 772-1348",Owner,,,,,OWNER,,,,,OWNER,,,,,,,,,
TX,HARRIS,20047891,"Parks, Recreation, Entertainment, & RV Park",7/24/2020,,40000,,"1 POTOMAC DR BLDG",HOUSTON,TX,77377,,,"MORRIS RICHARD","11814 RUE LA FOUNTAINE",HOUSTON,TX,77377,"(713) 458-0231",Applicant,,,,,OWNER,,,,,OWNER,,,,,,,,,
TX,HARRIS,19007086,"Residential Garages & Carports",7/23/2020,Addition,42000,,"5231 ARIEL",HOUSTON,TX,77096,,,"BELLAIRE METHODIST CHURCH","5231 ARIEL",HOUSTON,TX,77096,,Owner,,,,,"HOUSE OF HODGES",,,,,"HOUSE OF HODGES","312 W 11TH ST",HOUSTON,TX,77008-6810,"(713) 818-9635",,,"NICK HODGES",
TX,HARRIS,20055629,"Residential Garages & Carports",7/21/2020,,35000,,"2203 STONEY BROOK",HOUSTON,TX,77063,,,"JOHNSON ALEX","2203 STONEY BROOK",HOUSTON,TX,77063,,Owner,,,,,"BAYOU RENOVATIONS",,,,,"BAYOU RENOVATIONS","14727 OAK",HOUSTON,TX,77079,"(713) 825-8539",,,"THORNTON CHRIS",
TX,HARRIS,20051376,"Residential Garages & Carports",7/21/2020,,75000,,"202 E 23RD",HOUSTON,TX,77008,,,"RIOS BERNARDO","202 E 23RD",HOUSTON,TX,77008,"(832) 287-1153",Applicant,,,,,OWNER,,,,,OWNER,,,,,,,,,
TX,HARRIS,20059275,"Residential Renovations & Additions",7/21/2020,Renovation,63000,,"1839 LATEXO",HOUSTON,TX,77018,,,"BALL KENNETH","1839 LATEXO",HOUSTON,TX,77018,,Owner,,,,,OWNER,,,,,OWNER,,,,,,,,,
TX,HARRIS,20057076,"Residential Renovations & Additions",7/21/2020,Addition,60000,,"13519 PEBBLEBROOK",HOUSTON,TX,77079,,,"BRANDON L AND TABATHA URECH","13519 PEBBLEBROOK",HOUSTON,TX,77079,,Owner,,,,,"WILEY HOMES",,,,,"WILEY HOMES","1411 UPLAND DR",HOUSTON,TX,77043-4720,"(713) 397-8487",,,"CADE WILEY",
TX,HARRIS,20064503,"Residential Renovations & Additions",7/23/2020,Addition,49905,,"7751 ALPERTON",HOUSTON,TX,77088,,,"BROUSSARD ZEE","7751 ALPERTON",HOUSTON,TX,77088,,Owner,,,,,"JONES MARC",,,,,"JONES MARC","11221 M C",HOUSTON,TX,70471,"(832) 778-4926",,,,
TX,HARRIS,20065432,"Residential Renovations & Additions",7/23/2020,Addition,80000,,"1823 MILLWOOD",HOUSTON,TX,77008,,,"BYLER JULIE","1823 MILLWOOD",HOUSTON,TX,77008,,Owner,,,,,OWNER,,,,,OWNER,,,,,,,,,
TX,HARRIS,20062692,"Residential Renovations & Additions",7/21/2020,Renovation,900000,,"3970 INVERNESS",HOUSTON,TX,77019,,,CONTRACTOR,,,,,,,,,,,"CJ PERMITS",,,,,"CJ PERMITS","6627 LIBERTY VALLEY DR",KATY,TX,77449-4204,"(281) 660-1319",,,,
TX,HARRIS,20067721,"Residential Renovations & Additions",7/22/2020,Addition,33000,,"7422 DALLAS",HOUSTON,TX,77011,,,"GONZALEZ JUAN","7422 DALLAS",HOUSTON,TX,77011,,Owner,,,,,"FREEDOM FOREVER TX",,,,,"FREEDOM FOREVER TX","15550 VICKERY DR",HOUSTON,TX,77032-2581,"(281) 714-8992",,,,
TX,HARRIS,20065253,"Residential Renovations & Additions",7/24/2020,Addition,38806,,"7223 WINDVINE",HOUSTON,TX,77072,,,"KUHN MD","7223 WINDVINE",HOUSTON,TX,77072,,Owner,,,,,"JONES MARC",,,,,"JONES MARC","11221 M C",HOUSTON,TX,70471,"(832) 778-4926",,,,
TX,HARRIS,20068053,"Residential Renovations & Additions",7/24/2020,Renovation,88000,,"2511 KINGS FOREST",HOUSTON,TX,77339,,,"MENDOZA ROBERT","2511 KINGS FOREST",HOUSTON,TX,77339,,Owner,,,,,"DAVANTI HOMES",,,,,"DAVANTI HOMES","PO BOX 1567",SPRING,TX,77383-1567,"(713) 962-8681",http://davanti-homes.com/,"(281) 453-0856",,info@davanti-homes.com
TX,HARRIS,20053559,"Residential Renovations & Additions",7/21/2020,Addition,48391,,"10918 BRITOAK",HOUSTON,TX,77079,,,"MONTEVERDE BRANDI SCOTT","10918 BRITOAK",HOUSTON,TX,77079,,Owner,,,,,"BUSTER & COGDELL",,,,,"BUSTER & COGDELL","1221 LUMPKIN RD",HOUSTON,TX,77043,"(713) 783-1192",,,,
TX,HARRIS,20062047,"Residential Renovations & Additions",7/21/2020,Renovation,60000,,"809 BAYLAND",HOUSTON,TX,77009,,,"ROSSY ROBERT & HANNA","809 BAYLAND",HOUSTON,TX,77009,,Owner,,,,,"OLD SCHOOL BUILDERS",,,,,"OLD SCHOOL BUILDERS","6025 EDGEMOOR DRIVE # B",HOUSTON,TX,77005,"(281) 960-0043",,,,
TX,HARRIS,20055341,"Residential Renovations & Additions",7/22/2020,Addition,120000,,"714 W FRIAR TUCK",HOUSTON,TX,77024,,,"STEIN ALLEN & ELIZABETH","714 W FRIAR TUCK",HOUSTON,TX,77024,,Owner,,,,,"PREMIER PROPERTY SERVICES",,,,,"PREMIER PROPERTY SERVICES","9225 KATY FWY STE 426",HOUSTON,TX,77024-1531,"(713) 463-9994",http://www.premierps.net/,"(713) 463-7233",,atroscher@premierps.net
TX,HARRIS,20045745,"Residential Renovations & Additions",7/24/2020,Renovation,34500,,"1030 ASHLAND",HOUSTON,TX,77008,,,"WAGNER MARC","1030 ASHLAND",HOUSTON,TX,77008,,Owner,,,,,"MCCRIGHT ZACKERY",,,,,"MCCRIGHT ZACKERY","2810 BEAUCHAMP",HOUSTON,TX,77009,"(832) 359-7661",,,,
TX,HARRIS,2005290058,"Residential Renovations & Additions",7/16/2020,Renovation,30000,,"16042 GLENBROOK KNOLL LN",HOUSTON,TX,77356,,,"CHASTITY MCCOLLUM","16042 GLENBROOK KNOLL LN",HOUSTON,TX,77356,,Owner,,,,,OWNER,,,,,OWNER,,,,,,,,,
TX,GALVESTON,2020-1708,"Residential Renovations & Additions",6/17/2020,Renovation,120000,,"202 CHARLESTON DR",FRIENDSWOOD,TX,77546,,,"FAHEY BENJAMIN SPELL","202 CHARLESTON DR",FRIENDSWOOD,TX,77546,,Owner,,,,,OWNER,,,,,OWNER,,,,,,,,,
TX,GALVESTON,2020-1760,"Residential Renovations & Additions",6/23/2020,Renovation,65000,,"905 W VIEJO DR",FRIENDSWOOD,TX,77546,,,"HUDSON HANKS","905 W VIEJO DR",FRIENDSWOOD,TX,77546,,Owner,,,,,"STERLING BUILDERS",,,,,"STERLING BUILDERS","1506 WINDING WAY DR STE 301",FRIENDSWOOD,TX,77546-5391,"(281) 482-3034",http://sterling-builders.com/,"(281) 996-8087",,
TX,GALVESTON,2020-1792,"Residential Renovations & Additions",6/30/2020,Renovation,120000,,"22 EL DORADO DR",FRIENDSWOOD,TX,77546,,,"BRENT BELL","22 EL DORADO DR",FRIENDSWOOD,TX,77546,,Owner,,,,,"RIDGEWATER HOMES",,,,,"RIDGEWATER HOMES","401 STUDEWOOD ST",HOUSTON,TX,77007-2794,"(281) 898-1033",http://www.ridgewaterhomesinc.com/,,,
TX,GALVESTON,2020-1856,"Residential Renovations & Additions",6/23/2020,Renovation,199950,,"509 CEDARWOOD DR",FRIENDSWOOD,TX,77546,,,"THOMPSON CODY WAGONER","509 CEDARWOOD DR",FRIENDSWOOD,TX,77546,,Owner,,,,,"MYSTIQUE HOMES",,,,,"MYSTIQUE HOMES","226 QUAIL RIDGE LN",DICKINSON,TX,77539-8308,"(832) 279-9540",,,,
TX,GALVESTON,2020-2026,"Residential Renovations & Additions",6/30/2020,Renovation,100000,,"404 SEDORA DR",FRIENDSWOOD,TX,77546,,,CONTRACTOR,,,,,,,,,,,"STERLING BUILDERS",,,,,"STERLING BUILDERS","1506 WINDING WAY DR STE 301",FRIENDSWOOD,TX,77546-5391,"(281) 482-3034",http://sterling-builders.com/,"(281) 996-8087",,
TX,MONTGOMERY,173699-20,"Residential Renovations & Additions",7/8/2020,,30000,,"27099 DIAMOND T",HOUSTON,TX,77356,"HOLIDAY OAKS",,"SAUL NAVARRETE","27963 SOUTHLAND DR",SPLENDORA,TX,77376,,Owner,,,,,OWNER,,,,,OWNER,,,,,,,,,
TX,MONTGOMERY,173630-20,"Residential Renovations & Additions",7/7/2020,Addition,200000,,"4214 MAPLE RAPIDS LN",HOUSTON,TX,77356,"BENDERS LANDING ESTATES",,CONTRACTOR,,,,,,,,,,,"TWO SONS ENVIRONMENTAL SERVICES",,,,,"TWO SONS ENVIRONMENTAL SERVICES","23565 FM 1314 RD",PORTER,TX,77365-3724,"(281) 354-9284",http://www.two-sons.net,"(281) 354-2107",,twosonsenvironmental@yahoo.com
TX,MONTGOMERY,174156-20,"Residential Renovations & Additions",7/16/2020,Renovation,30000,,"20719 TORTUGA CIRCLE",HOUSTON,TX,77356,"GRAND SAN JACINTO",,"REYNALDO RODRIGUEZ","11911 NORTHWEST FWY APT 900",HOUSTON,TX,77356,,Owner,,,,,OWNER,,,,,OWNER,,,,,,,,,
TX,HARRIS,20066156,"Residential Swimming Pools & Spas",7/22/2020,,30000,,"3202 WYNDHAM FALLS",HOUSTON,TX,77365,,,"ARANDA JOSHUA","3202 WYNDHAM FALLS",HOUSTON,TX,77365,,Owner,,,,,OWNER,,,,,OWNER,,,,,,,,,
TX,HARRIS,20054433,"Residential Swimming Pools & Spas",7/23/2020,,38000,,"519 HIGHLAND",HOUSTON,TX,77009,,,"BENITEZ VICTOR","519 HIGHLAND",HOUSTON,TX,77009,,Owner,,,,,"REFLECTION POOLS & SPAS",,,,,"REFLECTION POOLS & SPAS","7941 KATY FWY # 177",HOUSTON,TX,77024-1924,"(713) 559-1100",http://www.reflectionpoolsandspas.com/,,,reflectionpools@yahoo.com
TX,HARRIS,20059264,"Residential Swimming Pools & Spas",7/23/2020,,74716,,"501 OXFORD",HOUSTON,TX,77007,,,"BOULMAY VALERIE","501 OXFORD",HOUSTON,TX,77007,,Owner,,,,,"C3 BUILDING SOLUTIONS",,,,,"C3 BUILDING SOLUTIONS","4500 BLALOCK",HOUSTON,TX,77041,"(281) 870-1600",http://www.c3buildingsolutions.com,,,
TX,HARRIS,20063484,"Residential Swimming Pools & Spas",7/23/2020,,55000,,"5830 BEACON FALLS",HOUSTON,TX,77345,,,"BOYER CHRIS","5830 BEACON FALLS",HOUSTON,TX,77345,,Owner,,,,,"ALL STAR POOLS",,,,,"ALL STAR POOLS","10008 SUMMER RIDGE LN",CONROE,TX,77302-5530,"(281) 354-3780",,,,
TX,HARRIS,20067063,"Residential Swimming Pools & Spas",7/23/2020,,66809,,"6148 IMOGENE",HOUSTON,TX,77074,,,"BUCHHOLTZ MATTHEW","6148 IMOGENE",HOUSTON,TX,77074,,Owner,,,,,"RICHARD TOTAL BACKYARD SOLUTI",,,,,"RICHARD TOTAL BACKYARD SOLUTI","1701 S HIGHWAY",HOUSTON,TX,77007,"(713) 369-0925",,,,
TX,HARRIS,20056655,"Residential Swimming Pools & Spas",7/24/2020,,53200,,"12415 BARRYKNOLL",HOUSTON,TX,77024,,,"CHAU TONTHAT","12415 BARRYKNOLL",HOUSTON,TX,77024,,Owner,,,,,"SMITH CUSTOM POOLS",,,,,"SMITH CUSTOM POOLS","9310 PECOS ST",HOUSTON,TX,77055-4410,"(713) 494-9290",,,,
TX,HARRIS,20043922,"Residential Swimming Pools & Spas",7/24/2020,,30000,,"2511 WILLOWICK RD",HOUSTON,TX,77027,,,CONTRACTOR,,,,,,,,,,,"HOAR CONSTRUCTION",,,,,"HOAR CONSTRUCTION","3700 W SAM HOUSTON PKWY S #220",HOUSTON,TX,77042,"(713) 244-2200",,,,
TX,HARRIS,20053508,"Residential Swimming Pools & Spas",7/21/2020,,234000,,"1475 GEARS",HOUSTON,TX,77067,,,"MONCADA RUDY","13313 N LOUISE",HOUSTON,TX,77086,"(281) 827-4225",Applicant,,,,,OWNER,,,,,OWNER,,,,,,,,,
TX,HARRIS,20061875,"Residential Swimming Pools & Spas",7/23/2020,,65000,,"703 BISON",HOUSTON,TX,77079,,,CONTRACTOR,,,,,,,,,,,"ROCHA POOL PLASTER",,,,,"ROCHA POOL PLASTER","22200 MOSSY OAKS RD",SPRING,TX,77389-4611,"(832) 309-6246",,,,rochapoolsplaster@sbcglobal.net
TX,HARRIS,20043095,"Residential Swimming Pools & Spas",7/22/2020,,110000,,"419 E FRIAR TUCK",HOUSTON,TX,77024,,,CONTRACTOR,,,,,,,,,,,"SUNSHINE POOLS",,,,,"SUNSHINE POOLS","1739 N BELT LINE RD",MESQUITE,TX,75149-1720,"(972) 289-2000",http://www.sunshine-pools.com/,,"DANI VASSAR",dani.vassar@sunshine-pools.com
TX,HARRIS,20052969,"Residential Swimming Pools & Spas",7/21/2020,,49000,,"3509 ELGIN ST BLD",HOUSTON,TX,77004,,,CONTRACTOR,,,,,,,,,,,"SOUTH POOL & SPA",,,,,"SOUTH POOL & SPA","9010 RIPPLING FIELDS DR",HOUSTON,TX,77064-4857,"(713) 423-4663",http://www.southpoolandspa.net/,"(832) 237-3860","MIKE TELLO",mike@southpoolandspa.net
TX,HARRIS,20067058,"Residential Swimming Pools & Spas",7/23/2020,,47859,,"14115 KINGSRIDE",HOUSTON,TX,77079,,,"EALAND GREG S","14115 KINGSRIDE",HOUSTON,TX,77079,,Owner,,,,,"ANTHONY & SYLVAN POOLS",,,,,"ANTHONY & SYLVAN POOLS","1424 W SAM HOUSTON PKWY N",HOUSTON,TX,77043-3193,"(713) 467-6458",http://www.anthonysylvan.com/,,,
TX,HARRIS,20067679,"Residential Swimming Pools & Spas",7/24/2020,,50727,,"2115 BARTLETT",HOUSTON,TX,77098,,,"ERIKSSON FEDRICK","2115 BARTLETT",HOUSTON,TX,77098,,Owner,,,,,"HOUSTON COOL POOLS",,,,,"HOUSTON COOL POOLS","21902 STATE HIGHWAY 249",HOUSTON,TX,77070-1526,"(281) 645-6631",http://www.houstoncoolpools.com/,,"MIKE LOPEZ",info@houstoncoolpools.com
TX,HARRIS,20063064,"Residential Swimming Pools & Spas",7/24/2020,,50213,,"831 W 41ST",HOUSTON,TX,77018,,,"FALEYE TERRY","831 W 41ST",HOUSTON,TX,77018,,Owner,,,,,"HOUSTON COOL POOLS",,,,,"HOUSTON COOL POOLS","21902 STATE HIGHWAY 249",HOUSTON,TX,77070-1526,"(281) 645-6631",http://www.houstoncoolpools.com/,,"MIKE LOPEZ",info@houstoncoolpools.com
TX,HARRIS,20061785,"Residential Swimming Pools & Spas",7/24/2020,,40000,,"1735 LAMONTE",HOUSTON,TX,77018,,,"FITTS WILL","1735 LAMONTE",HOUSTON,TX,77018,,Owner,,,,,"REGAL POOL & DESIGN",,,,,"REGAL POOL & DESIGN","11950 SPRING CYPRESS RD STE 109",TOMBALL,TX,77377-8086,"(713) 922-5111",http://www.regalpooldesign.com/,,,regalpooldesign@gmail.com
TX,HARRIS,20054285,"Residential Swimming Pools & Spas",7/21/2020,,107442,,"14111 JADE COVE",HOUSTON,TX,77077,,,"FORBES JOSEPH","14111 JADE COVE ",HOUSTON,TX,77077,,Owner,,,,,"NEWTON ETHAN",,,,,"NEWTON ETHAN","1910 GLOSRIDGE",HOUSTON,TX,77055,"(713) 470-8731",,,,
TX,HARRIS,20062832,"Residential Swimming Pools & Spas",7/23/2020,,90750,,"1347 WAKEFIELD",HOUSTON,TX,77018,,,"FULTZ MIKE STEPHANIE","1347 WAKEFIELD",HOUSTON,TX,77018,,Owner,,,,,"DOWNUNDA POOLS & OUTDOORS",,,,,"DOWNUNDA POOLS & OUTDOORS","19111 PLAYER PARK DR",HUMBLE,TX,77346-6149,"(281) 236-4344",http://www.downundapools.com/,,"BRETT HATFIELD",swim@downundapools.com
TX,HARRIS,20049258,"Residential Swimming Pools & Spas",7/23/2020,,74600,,"3322 LOCKRIDGE HARBOR",HOUSTON,TX,77365,,,"HILL BRETT","3322 LOCKRIDGE HARBOR",HOUSTON,TX,77365,,Owner,,,,,"AQUATIC INSPIRATIONS POOLS",,,,,"AQUATIC INSPIRATIONS POOLS","12710 SMOKEY MOUNTAIN CT",HUMBLE,TX,77346-3035,"(281) 250-8600",http://aquaticinspirationspoolsinc.com/,,"PAUL SMITH",aquaticinspirations@centurylink.net
TX,HARRIS,20029539,"Residential Swimming Pools & Spas",7/22/2020,,34000,,"1611 KNOX",HOUSTON,TX,77007,,,"HOTHO MICHAEL","1611 KNOX",HOUSTON,TX,77007,,Owner,,,,,"ANTHONY & SYLVAN POOLS",,,,,"ANTHONY & SYLVAN POOLS","1424 W SAM HOUSTON PKWY N",HOUSTON,TX,77043-3193,"(713) 467-6458",http://www.anthonysylvan.com/,,,
TX,HARRIS,20062468,"Residential Swimming Pools & Spas",7/21/2020,,5700,,"12211 KIMBERLEY",HOUSTON,TX,77024,,,"HUANG JILL","12211 KIMBERLEY",HOUSTON,TX,77024,,Owner,,,,,"PLATINUM POOLS",,,,,"PLATINUM POOLS","4500 BLALOCK RD",HOUSTON,TX,77041-9121,"(281) 870-1600",,,,
TX,HARRIS,20061154,"Residential Swimming Pools & Spas",7/22/2020,,48527,,"7822 HOPEWELL",HOUSTON,TX,77071,,,"KESLER ANDREW &  MOLLY","7822 HOPEWELL",HOUSTON,TX,77071,,Owner,,,,,"AQUAMARINE POOLS",,,,,"AQUAMARINE POOLS","25730 INTERSTATE 45",HOUSTON,TX,77386,"(281) 734-2543",,,,
TX,HARRIS,20065220,"Residential Swimming Pools & Spas",7/23/2020,,60750,,"1214 W DREW",HOUSTON,TX,77006,,,"KOULOUMBRIS CHRISTOS","1214 W DREW",HOUSTON,TX,77006,,Owner,,,,,"PLATINUM POOLS",,,,,"PLATINUM POOLS","4500 BLALOCK RD",HOUSTON,TX,77041-9121,"(281) 870-1600",,,,
TX,HARRIS,20057967,"Residential Swimming Pools & Spas",7/21/2020,,40000,,"1110 HEATHWOOD",HOUSTON,TX,77077,,,"KUEHNER HANS","1110 HEATHWOOD",HOUSTON,TX,77077,,Owner,,,,,"AGUA BLUE POOL SERVICE",,,,,"AGUA BLUE POOL SERVICE","1127 ELDRIDGE PKWY STE 300",HOUSTON,TX,77077-1772,"(281) 531-5072",,,,aguabluepools@gmail.com
TX,HARRIS,20066323,"Residential Swimming Pools & Spas",7/21/2020,,46500,,"10731 WALL FERN",HOUSTON,TX,77034,,,"LESNIEWSKI JASON","10731 WALL FERN",HOUSTON,TX,77034,,Owner,,,,,"PREMIER POOLS & SPAS",,,,,"PREMIER POOLS & SPAS","2810 BUSINESS CENTER DR STE 126",PEARLAND,TX,77584-9783,"(713) 436-4944",,"(713) 436-0081","BILL UNGER",bunger@ppas.com
TX,HARRIS,20059807,"Residential Swimming Pools & Spas",7/23/2020,,99885,,"6154 MEADOW LAKE",HOUSTON,TX,77057,,,"LUKEHART JOHN","6154 MEADOW LAKE",HOUSTON,TX,77057,,Owner,,,,,"DOWNUNDA POOLS & OUTDOORS",,,,,"DOWNUNDA POOLS & OUTDOORS","19111 PLAYER PARK DR",HUMBLE,TX,77346-6149,"(281) 236-4344",http://www.downundapools.com/,,"BRETT HATFIELD",swim@downundapools.com
TX,HARRIS,20064483,"Residential Swimming Pools & Spas",7/22/2020,,74000,,"1011 LAMONTE",HOUSTON,TX,77018,,,"MAGEE JEFFREY","1011 LAMONTE",HOUSTON,TX,77018,,Owner,,,,,"SUNSHINE POOLS",,,,,"SUNSHINE POOLS","1800 AUGUSTA DR STE 140",HOUSTON,TX,77057-3268,"(713) 975-8899",http://www.sunshine-pools.com/,,,
TX,HARRIS,20064101,"Residential Swimming Pools & Spas",7/23/2020,,25000,,"1315 CHELSEA",HOUSTON,TX,77339,,,"MARY THOREN & SUZANNE COULTER","1315 CHELSEA",HOUSTON,TX,77339,,Owner,,,,,"EASTEX POOLS",,,,,"EASTEX POOLS","2907 CLEAR RIDGE",HOUSTON,TX,77339,"(713) 819-7969",http://www.eastexcompany.com/,"(281) 360-6553",,Web@EastexCompany.com
TX,HARRIS,20063645,"Residential Swimming Pools & Spas",7/21/2020,,50000,,"901 W 9TH",HOUSTON,TX,77007,,,"MCCARTY RICH","901 W 9TH",HOUSTON,TX,77007,,Owner,,,,,"PREMIER PERMITS & CONSULTANTS",,,,,"PREMIER PERMITS & CONSULTANTS","12831 MADERA CANYON LN",TOMBALL,TX,77377,"(832) 797-0183",,,"WILLIAMS JR JOHN",
TX,HARRIS,20064923,"Residential Swimming Pools & Spas",7/22/2020,,15000,,"15755 FOXGATE",HOUSTON,TX,77079,,,"MENDEZ HECTOR & LUCIA","15755 FOXGATE",HOUSTON,TX,77079,,Owner,,,,,OWNER,,,,,OWNER,,,,,,,,,
TX,HARRIS,20060132,"Residential Swimming Pools & Spas",7/22/2020,,43000,,"4322 MARLBOROUGH",HOUSTON,TX,77092,,,"MOELLER JULIE","4322 MARLBOROUGH",HOUSTON,TX,77092,,Owner,,,,,"AQUA CLEAN POOL SERVICE",,,,,"AQUA CLEAN POOL SERVICE","4514 ELLA BLVD",HOUSTON,TX,77018-3110,"(832) 766-2244",http://www.aquacleanpoolservice.net,,"MATHEW DAVIS",
TX,HARRIS,20060245,"Residential Swimming Pools & Spas",7/23/2020,,67197,,"4514 VIKING",HOUSTON,TX,77092,,,"MOORE DUSTEN","4514 VIKING",HOUSTON,TX,77092,,Owner,,,,,"ULTRA CUSTOM POOLS",,,,,"ULTRA CUSTOM POOLS","12915 CYPRESS NORTH HOUSTON RD",CYPRESS,TX,77429-3145,"(281) 241-9126",https://ultrapoolstx.com/,,,
TX,HARRIS,20036684,"Residential Swimming Pools & Spas",7/23/2020,,52323,,"4103 FALKIRK",HOUSTON,TX,77025,,,"NELSON AARON","4103 FALKIRK",HOUSTON,TX,77025,,Owner,,,,,"CODY POOLS",,,,,"CODY POOLS","26615 I45 NORTH",HOUSTON,TX,77380,"(713) 422-3266",http://www.codypools.com,,,
TX,HARRIS,20059177,"Residential Swimming Pools & Spas",7/24/2020,,64604,,"14538 BASALT",HOUSTON,TX,77077,,,"POERSCHKE RANDALL","14538 BASALT ",HOUSTON,TX,77077,,Owner,,,,,"HOUSTON COOL POOLS",,,,,"HOUSTON COOL POOLS","21902 STATE HIGHWAY 249",HOUSTON,TX,77070-1526,"(281) 645-6631",http://www.houstoncoolpools.com/,,"MIKE LOPEZ",info@houstoncoolpools.com
TX,HARRIS,20063338,"Residential Swimming Pools & Spas",7/22/2020,,65000,,"52 E BROAD OAKS",HOUSTON,TX,77056,,,"RATHE LAURA LEE","52 E BROAD OAKS",HOUSTON,TX,77056,,Owner,,,,,"SUNSHINE POOLS",,,,,"SUNSHINE POOLS","1800 AUGUSTA DR STE 140",HOUSTON,TX,77057-3268,"(713) 975-8899",http://www.sunshine-pools.com/,,,
TX,HARRIS,20059754,"Residential Swimming Pools & Spas",7/24/2020,,120000,,"3726 TURNBERRY",HOUSTON,TX,77025,,,"SHEINBEIN DAVID","3726 TURNBERRY",HOUSTON,TX,77025,,Owner,,,,,"INDIGO BLUE CUSTOM POOLS",,,,,"INDIGO BLUE CUSTOM POOLS","1304 COHN ST",HOUSTON,TX,77007,"(832) 792-3535",https://www.indigobluecustompools.com/,,,indigobluecustompools@gmail.com
TX,HARRIS,20063163,"Residential Swimming Pools & Spas",7/21/2020,,71000,,"8719 LINKFAIR",HOUSTON,TX,77025,,,"SKAGG DAVID","8719 LINKFAIR",HOUSTON,TX,77025,,Owner,,,,,"PREMIER POOLS & SPAS",,,,,"PREMIER POOLS & SPAS","2810 BUSINESS CENTER DR STE 126",PEARLAND,TX,77584-9783,"(713) 436-4944",,"(713) 436-0081","BILL UNGER",bunger@ppas.com
TX,HARRIS,20060960,"Residential Swimming Pools & Spas",7/22/2020,,63000,,"13427 GOLDEN FIELD",HOUSTON,TX,77059,,,"THOMPSON RICHARD","13427 GOLDEN FIELD",HOUSTON,TX,77059,,Owner,,,,,"STEWART POOLS",,,,,"STEWART POOLS","7542 KATHY LN",BENBROOK,TX,76126-2107,"(817) 386-7665",https://stewartpools.com/,"(817) 386-7669",,
TX,HARRIS,20062433,"Residential Swimming Pools & Spas",7/23/2020,,50000,,"2202 HEATHER GREEN",HOUSTON,TX,77062,,,"VANHORNE THOMAS","2202 HEATHER GREEN",HOUSTON,TX,77062,,Owner,,,,,"PREMIER POOLS & SPAS",,,,,"PREMIER POOLS & SPAS","2810 BUSINESS CENTER DR STE 126",PEARLAND,TX,77584-9783,"(713) 436-4944",,"(713) 436-0081","BILL UNGER",bunger@ppas.com
TX,HARRIS,20062553,"Residential Swimming Pools & Spas",7/21/2020,,51121,,"6217 CAREW",HOUSTON,TX,77074,,,"VILLAFAN JOSE","6217 CAREW",HOUSTON,TX,77074,,Owner,,,,,"RICHARD'S TOTAL BACKYARD SOLUTIONS ",,,,,"RICHARD'S TOTAL BACKYARD SOLUTIONS ","1701 HIGHWAY 6 S",HOUSTON,TX,77077-2803,"(713) 777-7665",http://richardstbs.com/,,"JULIE RICHARD",info@totalbackyardsolutions.com
TX,HARRIS,20062135,"Residential Swimming Pools & Spas",7/24/2020,,42632,,"605 CORTLANDT",HOUSTON,TX,77007,,,"WILCOX LAURA","605 CORTLANDT",HOUSTON,TX,77007,,Owner,,,,,"HOUSTON COOL POOLS",,,,,"HOUSTON COOL POOLS","21902 STATE HIGHWAY 249",HOUSTON,TX,77070-1526,"(281) 645-6631",http://www.houstoncoolpools.com/,,"MIKE LOPEZ",info@houstoncoolpools.com
TX,HARRIS,20054149,"Residential Swimming Pools & Spas",7/24/2020,,35000,,"22624 E SHOREWOOD",HOUSTON,TX,77336,,,"ZWAHR JEREMY","22624 E SHOREWOOD",HOUSTON,TX,77336,,Owner,,,,,"RODRIGUEZ POOL CONSTRUCTION",,,,,"RODRIGUEZ POOL CONSTRUCTION","24430 SUNNY GLEN DR",HUFFMAN,TX,77336-2861,"(832) 715-1434",http://www.rpc-pools.com/,,"PEDRO RODRIGUEZ",rodriguezpoolconstruction@yahoo.com
TX,HARRIS,2006030053,"Residential Swimming Pools & Spas",7/16/2020,,70000,,"14703 MORGAN STABLE CT",HOUSTON,TX,77356,"SUMMER LAKE RANCH",,"MATTHEW WETZEL","14703 MORGAN STABLE CT",HOUSTON,TX,77356,,Owner,,,,,OWNER,,,,,OWNER,,,,,,,,,
TX,HARRIS,2006080156,"Residential Swimming Pools & Spas",7/16/2020,,36950,,"21919 BLOSSOM GROVE LN",HOUSTON,TX,77356,"SPRING TERRACE",,"ISRAEL TORRES","21919 BLOSSOM GROVE LN",HOUSTON,TX,77356,,Owner,,,,,OWNER,,,,,OWNER,,,,,,,,,
TX,HARRIS,2006080160,"Residential Swimming Pools & Spas",7/16/2020,,35000,,"22011 CASCADE HOLLOW LN",HOUSTON,TX,77356,"SPRING TERRACE",,"STUART TRAHAN","22011 CASCADE HOLLOW LN",HOUSTON,TX,77356,,Owner,,,,,OWNER,,,,,OWNER,,,,,,,,,
TX,HARRIS,2005260106,"Residential Swimming Pools & Spas",7/16/2020,,36500,,"3739 BRIGHT MOON CT",HOUSTON,TX,77356,"BRIDGEWATER MEADOW",,CONTRACTOR,,,,,,,,,,,"BLUE HAVEN POOLS",,,,,"BLUE HAVEN POOLS","2201 HIGHWAY 6 S",HOUSTON,TX,77077-4321,"(281) 497-5711",,,,
TX,HARRIS,2005180149,"Residential Swimming Pools & Spas",7/16/2020,,62500,,"723 WINCHESTER BND",HOUSTON,TX,77356,"COMMONS OF LAKE",,"JULIO TORRES","723 WINCHESTER BND",HOUSTON,TX,77356,,Owner,,,,,OWNER,,,,,OWNER,,,,,,,,,
TX,HARRIS,2006040168,"Residential Swimming Pools & Spas",7/16/2020,,44000,,"12818 RAVENS ROOST DR",HOUSTON,TX,77356,"RAVENSWAY LAKE",,CONTRACTOR,,,,,,,,,,,"BLUE HAVEN POOLS",,,,,"BLUE HAVEN POOLS","2201 HIGHWAY 6 S",HOUSTON,TX,77077-4321,"(281) 497-5711",,,,
TX,HARRIS,2006090089,"Residential Swimming Pools & Spas",7/16/2020,,62143,,"20826 CAMEO ROSE DR",HOUSTON,TX,77356,"FAIRFIELD VILLAGE",,"AMY AND THOMAS MITCHELL","20826 CAMEO ROSE DR",HOUSTON,TX,77356,,Owner,,,,,OWNER,,,,,OWNER,,,,,,,,,
TX,HARRIS,2005220115,"Residential Swimming Pools & Spas",7/16/2020,,72397,,"16214 CEDAR LAKE VIEW CT",HOUSTON,TX,77356,"BRIDGELAND PARKLAND VILLAGE",,BOUDREAUX,"16214 CEDAR LAKE VIEW CT",HOUSTON,TX,77356,,Owner,,,,,OWNER,,,,,OWNER,,,,,,,,,
TX,HARRIS,2005220139,"Residential Swimming Pools & Spas",7/16/2020,,63000,,"17111 COVEY TRL",HOUSTON,TX,77356,"BRIDGELAND HIDDEN CREEK",,WILLIAMS,"17111 COVEY TRL",HOUSTON,TX,77356,,Owner,,,,,OWNER,,,,,OWNER,,,,,,,,,
TX,HARRIS,2005280046,"Residential Swimming Pools & Spas",7/16/2020,,61000,,"9518 THREE STONE LN",HOUSTON,TX,77356,"INVERNESS ESTATES",,"STEPHEN AND ANGELICA LE BLANC","9518 THREE STONE LN",HOUSTON,TX,77356,,Owner,,,,,OWNER,,,,,OWNER,,,,,,,,,
TX,HARRIS,2005280077,"Residential Swimming Pools & Spas",7/16/2020,,65000,,"14119 SUNRISE ARBOR LN",HOUSTON,TX,77356,,,"ASHLI BRAGGS AND PATRICK DAVIS","14119 SUNRISE ARBOR LN",HOUSTON,TX,77356,,Owner,,,,,OWNER,,,,,OWNER,,,,,,,,,
TX,HARRIS,2005270066,"Residential Swimming Pools & Spas",7/16/2020,,66000,,"2419 RANDAL POINT CT",HOUSTON,TX,77356,"LAKES OF CYPRESS FOREST",,CONTRACTOR,,,,,,,,,,,"PIERCE POOLS & OUTDOOR VISION",,,,,"PIERCE POOLS & OUTDOOR VISION","10410 CLUBHOUSE CIR",MAGNOLIA,TX,77354-6916,"(281) 830-5404",http://www.piercepoolsco.com,"(281) 520-4240",,info@piercepoolsco.com
TX,HARRIS,2005270159,"Residential Swimming Pools & Spas",7/16/2020,,82500,,"5915 ELDRIDGE GLEN DR",HOUSTON,TX,77356,,,"TONY KUEHL","5915 ELDRIDGE GLEN DR",HOUSTON,TX,77356,,Owner,,,,,OWNER,,,,,OWNER,,,,,,,,,
TX,HARRIS,2005150122,"Residential Swimming Pools & Spas",7/16/2020,,110000,,"15710 CASCADE CAVERNS CT",HOUSTON,TX,77356,,,"CHRISTIAN BELL","15710 CASCADE CAVERNS CT",HOUSTON,TX,77356,,Owner,,,,,OWNER,,,,,OWNER,,,,,,,,,
TX,HARRIS,2005180050,"Residential Swimming Pools & Spas",7/16/2020,,30000,,"1309 WOLF RD",HOUSTON,TX,77356,,,"DEANNA PARSONS","1309 WOLF RD",HOUSTON,TX,77356,,Owner,,,,,OWNER,,,,,OWNER,,,,,,,,,
TX,HARRIS,2006080177,"Residential Swimming Pools & Spas",7/16/2020,,41500,,"7618 CARRIAGE CREST DR",HOUSTON,TX,77356,"LAUREL PARK",,"DANIEL DELGADO","7618 CARRIAGE CREST DR",HOUSTON,TX,77356,,Owner,,,,,OWNER,,,,,OWNER,,,,,,,,,
TX,HARRIS,2006110025,"Residential Swimming Pools & Spas",7/16/2020,,60000,,"9927 KIRKSTONE TERRACE DR",HOUSTON,TX,77356,"NORTH LAKE AT GLEANNLOCH",,"DAVID & MELINDA HALE","9927 KIRKSTONE TERRACE DR",HOUSTON,TX,77356,,Owner,,,,,OWNER,,,,,OWNER,,,,,,,,,
TX,HARRIS,2006150012,"Residential Swimming Pools & Spas",7/16/2020,,44000,,"25602 COLONIAL PINES CT",HOUSTON,TX,77356,"AUGUSTA PINES",,"DIZ AGUSTIN C","25602 COLONIAL PINES CT",HOUSTON,TX,77356,,Owner,,,,,OWNER,,,,,OWNER,,,,,,,,,
TX,HARRIS,2005300004,"Residential Swimming Pools & Spas",7/16/2020,,62342,,"11707 RIVER VINE CT",HOUSTON,TX,77356,,,"ANGIE GASAWAY","11707 RIVER VINE CT",HOUSTON,TX,77356,,Owner,,,,,OWNER,,,,,OWNER,,,,,,,,,
TX,HARRIS,2005300005,"Residential Swimming Pools & Spas",7/16/2020,,59200,,"16103 SOMMERALL CREEK LN",HOUSTON,TX,77356,,,"CATHERINE WALKER","16103 SOMMERALL CREEK LN",HOUSTON,TX,77356,,Owner,,,,,OWNER,,,,,OWNER,,,,,,,,,
TX,HARRIS,2005300007,"Residential Swimming Pools & Spas",7/16/2020,,51951,,"15403 PALMER MANOR DR",HOUSTON,TX,77356,"CYPRESS LANDING",,"JEFFERY LEDET","15403 PALMER MANOR DR",HOUSTON,TX,77356,,Owner,,,,,OWNER,,,,,OWNER,,,,,,,,,
TX,HARRIS,2006050155,"Residential Swimming Pools & Spas",7/16/2020,,43746,,"23511 VERONA RIVER DR",HOUSTON,TX,77356,"VENTANA LAKES",,CONTRACTOR,,,,,,,,,,,"BOLIN DESIGNS POOLS & PATIOS",,,,,"BOLIN DESIGNS POOLS & PATIOS","16423 W YELLOW BUD CT",CYPRESS,TX,77433-6104,"(832) 815-2892",https://www.custompools.net,,,Randall@bolindesigns.com
TX,HARRIS,2006050032,"Residential Swimming Pools & Spas",7/16/2020,,35000,,"915 SKYMONT STREAM TRL",HOUSTON,TX,77356,"EAGLE LANDING",,CONTRACTOR,,,,,,,,,,,"ANTHONY & SYLVAN POOLS",,,,,"ANTHONY & SYLVAN POOLS","1424 W SAM HOUSTON PKWY N",HOUSTON,TX,77043-3193,"(713) 467-6458",http://www.anthonysylvan.com/,,,
TX,HARRIS,2006050038,"Residential Swimming Pools & Spas",7/16/2020,,66529,,"9319 STOCKPORT DR",HOUSTON,TX,77356,"CHAMPION FOREST",,CONTRACTOR,,,,,,,,,,,"ANTHONY & SYLVAN POOLS",,,,,"ANTHONY & SYLVAN POOLS","1424 W SAM HOUSTON PKWY N",HOUSTON,TX,77043-3193,"(713) 467-6458",http://www.anthonysylvan.com/,,,
TX,HARRIS,2006050039,"Residential Swimming Pools & Spas",7/16/2020,,58393,,"12018 PINE SANDHILL TRL",HOUSTON,TX,77356,GROVES,,CONTRACTOR,,,,,,,,,,,"ANTHONY & SYLVAN POOLS",,,,,"ANTHONY & SYLVAN POOLS","1424 W SAM HOUSTON PKWY N",HOUSTON,TX,77043-3193,"(713) 467-6458",http://www.anthonysylvan.com/,,,
TX,HARRIS,2006050037,"Residential Swimming Pools & Spas",7/16/2020,,54898,,"12410 BRUNS GLEN LN",HOUSTON,TX,77356,TREELINE,,CONTRACTOR,,,,,,,,,,,"ANTHONY & SYLVAN POOLS",,,,,"ANTHONY & SYLVAN POOLS","1424 W SAM HOUSTON PKWY N",HOUSTON,TX,77043-3193,"(713) 467-6458",http://www.anthonysylvan.com/,,,
TX,HARRIS,2006050035,"Residential Swimming Pools & Spas",7/16/2020,,52999,,"16858 RAMSAY CASCADES DR",HOUSTON,TX,77356,GROVES,,CONTRACTOR,,,,,,,,,,,"ANTHONY & SYLVAN POOLS",,,,,"ANTHONY & SYLVAN POOLS","1424 W SAM HOUSTON PKWY N",HOUSTON,TX,77043-3193,"(713) 467-6458",http://www.anthonysylvan.com/,,,
TX,HARRIS,2006110053,"Residential Swimming Pools & Spas",7/16/2020,,50000,,"4343 TRECCIA CT",HOUSTON,TX,77356,"VENTANA LAKES",,"RUBEN LONGORIA","4343 TRECCIA CT",HOUSTON,TX,77356,,Owner,,,,,OWNER,,,,,OWNER,,,,,,,,,
TX,HARRIS,2006050051,"Residential Swimming Pools & Spas",7/16/2020,,74632,,"16514 BASTON CREEK DR",HOUSTON,TX,77356,"FALLS AT DRY CREEK",,"WALTER RODRIGUEZ","16514 BASTON CREEK DR",HOUSTON,TX,77356,,Owner,,,,,"TEXAS POOL CHAMPIONS",,,,,"TEXAS POOL CHAMPIONS","29318 DEER CRK",MAGNOLIA,TX,77355-6520,"(346) 222-1111",https://texaspoolchampions.com,,,info@texaspoolchampions.com
TX,HARRIS,2006030051,"Residential Swimming Pools & Spas",7/16/2020,,91037,,"123 N THATCHER BEND CIR",HOUSTON,TX,77356,"CREEKSIDE PARK",,"MELANIE ROMERO","123 N THATCHER BEND CIR",HOUSTON,TX,77356,,Owner,,,,,OWNER,,,,,OWNER,,,,,,,,,
TX,HARRIS,2006040180,"Residential Swimming Pools & Spas",7/16/2020,,70583,,"11019 LEIGH WOODS DR",HOUSTON,TX,77356,"CYPRESS CREEK LAKES",,"WALID AND AMIRA DAHCHE","11019 LEIGH WOODS DR",HOUSTON,TX,77356,,Owner,,,,,OWNER,,,,,OWNER,,,,,,,,,
TX,HARRIS,2005220181,"Residential Swimming Pools & Spas",7/16/2020,,40000,,"4618 SANTA SIENNA DR",HOUSTON,TX,77356,"VENTANA LAKES",,CONTRACTOR,,,,,,,,,,,"RIVIERA POOLS & SPAS",,,,,"RIVIERA POOLS & SPAS","21310 REDCREST MANOR DR",RICHMOND,TX,77406-3792,"(832) 392-6567",,,,
TX,HARRIS,2005200007,"Residential Swimming Pools & Spas",7/16/2020,,5000,,"9901 CYPRESS NORTH HOUSTON RD",HOUSTON,TX,77356,"FLYING ACRES",,CONTRACTOR,,,,,,,,,,,"RIVAS POOLS DESIGN",,,,,"RIVAS POOLS DESIGN","11007 GLENORA DR",HOUSTON,TX,77065-3538,"(832) 279-1233",,,,
TX,HARRIS,2005270074,"Residential Swimming Pools & Spas",7/16/2020,,100000,609,"19606 HICKORY HEIGHTS DR",HOUSTON,TX,77356,"TOWNE LAKE",,"MEGAN URIAS","19606 HICKORY HEIGHTS DR",HOUSTON,TX,77356,,Owner,,,,,OWNER,,,,,OWNER,,,,,,,,,
TX,HARRIS,2005270093,"Residential Swimming Pools & Spas",7/16/2020,,51687,,"10118 PEYTONS GRACE LN",HOUSTON,TX,77356,"CYPRESS CREEK LAKES",,"TONI HA","10118 PEYTONS GRACE LN",HOUSTON,TX,77356,,Owner,,,,,OWNER,,,,,OWNER,,,,,,,,,
TX,HARRIS,2006030163,"Residential Swimming Pools & Spas",7/16/2020,,82000,,"9923 KIRKSTONE TERRACE DR",HOUSTON,TX,77356,"NORTH LAKE AT GLEANNLOCH",,"MICHEAL & ERICA CLEVELAND","9923 KIRKSTONE TERRACE DR",HOUSTON,TX,77356,,Owner,,,,,OWNER,,,,,OWNER,,,,,,,,,
TX,HARRIS,2006030032,"Residential Swimming Pools & Spas",7/16/2020,,69150,,"8023 BOSPHORUS ST",HOUSTON,TX,77356,"BRIDGES ON LAKE",,CONTRACTOR,,,,,,,,,,,"BLUE HAVEN POOLS",,,,,"BLUE HAVEN POOLS","2201 HIGHWAY 6 S",HOUSTON,TX,77077-4321,"(281) 497-5711",,,,
TX,GALVESTON,2020-1454,"Residential Swimming Pools & Spas",6/4/2020,,53500,,"1910 PAMPAS TRAIL DR",FRIENDSWOOD,TX,77546,,,CONTRACTOR,,,,,,,,,,,"MCKINNEY CUSTOM POOLS",,,,,"MCKINNEY CUSTOM POOLS","15718 PARK CENTER WAY",HOUSTON,TX,77059-4050,"(281) 489-9800",http://www.mckinneycustompools.net,,,
TX,GALVESTON,2020-1577,"Residential Swimming Pools & Spas",6/15/2020,,57001,,"1 MARY'S CREEK LN",FRIENDSWOOD,TX,77546,,,CONTRACTOR,,,,,,,,,,,"PEARLAND POOLS",,,,,"PEARLAND POOLS","5510 MAGNOLIA",HOUSTON,TX,77584,"(281) 412-6445",http://www.pearlandpools.com/,"(281) 412-2791",,info@pearlandpools.com
TX,GALVESTON,2020-1619,"Residential Swimming Pools & Spas",6/8/2020,,100425,,"1910 SANTA MARIA DR",FRIENDSWOOD,TX,77546,,,CONTRACTOR,,,,,,,,,,,"SOUTHERN CHARM POOLS",,,,,"SOUTHERN CHARM POOLS","417 LADDINGFORD LN","LEAGUE CITY",TX,77573-1846,"(281) 595-7665",http://www.southerncharmpools.net/,,,Chris@Southerncharmpools.Net
TX,GALVESTON,2020-1620,"Residential Swimming Pools & Spas",6/8/2020,,62000,,"2432 PEBBLE LODGE LN",FRIENDSWOOD,TX,77546,,,"BRIAN & BROOKE HRACH","2432 PEBBLE LODGE LN",FRIENDSWOOD,TX,77546,,Owner,,,,,"WATERPOINTE POOLS",,,,,"WATERPOINTE POOLS","1612 BENTLAKE LN",PEARLAND,TX,77581-6557,"(832) 693-0011",https://www.waterpointepools.com/,,"JAY MURAS",jay@waterpointepools.com
TX,GALVESTON,2020-1621,"Residential Swimming Pools & Spas",6/3/2020,,56000,,"2224 PLEASANT HILL DR",FRIENDSWOOD,TX,77546,,,"STEPHANIE FOSTER","2224 PLEASANT HILL DR",FRIENDSWOOD,TX,77546,,Owner,,,,,"GREATER HOUSTON OUTDOOR LIVING",,,,,"GREATER HOUSTON OUTDOOR LIVING","3606 PINE VALLEY DR # 3606",PEARLAND,TX,77581-8825,"(832) 704-9225",http://www.ghoutdoorliving.com,,,thekang001@sbcglobal.net
TX,GALVESTON,2020-1630,"Residential Swimming Pools & Spas",6/8/2020,,56500,,"1544 GARDEN LAKES DR",FRIENDSWOOD,TX,77546,,,"NATALIE & KELLY FREEMAN","1544 GARDEN LAKES DR",FRIENDSWOOD,TX,77546,,Owner,,,,,"MCKINNEY CUSTOM POOLS",,,,,"MCKINNEY CUSTOM POOLS","15718 PARK CENTER WAY",HOUSTON,TX,77059-4050,"(281) 489-9800",http://www.mckinneycustompools.net,,,
TX,GALVESTON,2020-1656,"Residential Swimming Pools & Spas",6/22/2020,,51500,,"601 FAIRDALE",FRIENDSWOOD,TX,77546,,,"TRISHA PREJEAN","601 FAIRDALE",FRIENDSWOOD,TX,77546,,Owner,,,,,"DEATON CUSTOM POOLS",,,,,"DEATON CUSTOM POOLS","PO BOX 1908",FRIENDSWOOD,TX,77549-1908,"(713) 724-8857",https://www.deatoncustompools.com/,,,
TX,GALVESTON,2020-1671,"Residential Swimming Pools & Spas",6/22/2020,,57192,,"304 GARDEN DR",FRIENDSWOOD,TX,77546,,,"SUE COLLARD","304 GARDEN DR",FRIENDSWOOD,TX,77546,,Owner,,,,,"ANTHONY & SYLVAN POOLS",,,,,"ANTHONY & SYLVAN POOLS","1424 W SAM HOUSTON PKWY N",HOUSTON,TX,77043-3193,"(713) 467-6458",http://www.anthonysylvan.com/,,,
TX,GALVESTON,2020-1722,"Residential Swimming Pools & Spas",6/12/2020,,30000,,"913 EMBER HILLS LN",FRIENDSWOOD,TX,77546,,,"JOHN CIMINA","913 EMBER HILLS LN",FRIENDSWOOD,TX,77546,,Owner,,,,,"BACKYARD AMENITIES",,,,,"BACKYARD AMENITIES","11163 OLD NEEDLEPOINT RD STE 100",BAYTOWN,TX,77523-9784,"(281) 837-8234",http://www.backyardamenities.com,,,info@backyardamenities.com
TX,GALVESTON,2020-1724,"Residential Swimming Pools & Spas",6/12/2020,,30000,,"1606 WHITE WING CIR",FRIENDSWOOD,TX,77546,,,"JAMES THOMPSON","1606 WHITE WING CIR",FRIENDSWOOD,TX,77546,,Owner,,,,,"BACKYARD AMENITIES",,,,,"BACKYARD AMENITIES","11163 OLD NEEDLEPOINT RD STE 100",BAYTOWN,TX,77523-9784,"(281) 837-8234",http://www.backyardamenities.com,,,info@backyardamenities.com
TX,GALVESTON,2020-1726,"Residential Swimming Pools & Spas",6/12/2020,,83000,,"1804 ANNA WAY",FRIENDSWOOD,TX,77546,,,"CHRISTOPHER YANDELL","1804 ANNA WAY",FRIENDSWOOD,TX,77546,,Owner,,,,,"TIPTON SPIRES DESIGN BUILD",,,,,"TIPTON SPIRES DESIGN BUILD","1100 E NASA PKWY STE 108",HOUSTON,TX,77058,"(281) 335-8316",,,,
TX,GALVESTON,2020-1731,"Residential Swimming Pools & Spas",6/12/2020,,50000,,"1101 BOB WHITE DR",FRIENDSWOOD,TX,77546,,,"DUSTIN BEAN","1101 BOB WHITE DR",FRIENDSWOOD,TX,77546,,Owner,,,,,"AQUATIC POOLS & HOT TUBS",,,,,"AQUATIC POOLS & HOT TUBS","5301 GULF FWY","LA MARQUE",TX,77568-2703,"(409) 986-7600",,,,
TX,GALVESTON,2020-1794,"Residential Swimming Pools & Spas",6/17/2020,,,,"5014 PENNYSTONE WAY",FRIENDSWOOD,TX,77546,,,"MELLISSA SHEPPARD","5014 PENNYSTONE WAY",FRIENDSWOOD,TX,77546,,Owner,,,,,OWNER,,,,,OWNER,,,,,,,,,
TX,GALVESTON,2020-1821,"Residential Swimming Pools & Spas",6/23/2020,,70000,,"309 W SPREADING OAKS",FRIENDSWOOD,TX,77546,,,"ARDEN HILL","309 W SPREADING OAKS",FRIENDSWOOD,TX,77546,,Owner,,,,,"GREATER HOUSTON OUTDOOR LIVING",,,,,"GREATER HOUSTON OUTDOOR LIVING","3606 PINE VALLEY DR # 3606",PEARLAND,TX,77581-8825,"(832) 704-9225",http://www.ghoutdoorliving.com,,,thekang001@sbcglobal.net
TX,GALVESTON,2020-1851,"Residential Swimming Pools & Spas",6/22/2020,,65000,,"924 GADSTON PARK",FRIENDSWOOD,TX,77546,,,"RICHARD AND KRISTEN DEE","924 GADSTON PARK",FRIENDSWOOD,TX,77546,,Owner,,,,,"BAY COAST CONSTRUCTION AND POOLS",,,,,"BAY COAST CONSTRUCTION AND POOLS","2104 ORCHARD SPRING DR",PEARLAND,TX,77581-2267,"(832) 398-3081",http://baycoastconstruction.com/,,,info@baycoastconstruction.com
TX,GALVESTON,2020-1854,"Residential Swimming Pools & Spas",6/22/2020,,64500,,"2408 WEST RANCH DR",FRIENDSWOOD,TX,77546,,,"DUSTIN AND TARA UPTON","2408 WEST RANCH DR",HOUSTON,TX,77546,,Owner,,,,,"BELLA OASIS POOLS",,,,,"BELLA OASIS POOLS","264 WESTWOOD DR","LEAGUE CITY",TX,77573-3488,"(832) 632-2645",http://www.bellaoasispools.com/,"(832) 632-2703",,
TX,GALVESTON,2020-1855,"Residential Swimming Pools & Spas",6/24/2020,,65000,,"1708 WHITE WING CIR",FRIENDSWOOD,TX,77546,,,"HUGO HERNANDEZ","1708 WHITE WING CIR",FRIENDSWOOD,TX,77546,,Owner,,,,,"AQUASPORT POOLS",,,,,"AQUASPORT POOLS","105 W HERITAGE DR",FRIENDSWOOD,TX,77546-3916,"(281) 480-7665",,,,
TX,GALVESTON,2020-1866,"Residential Swimming Pools & Spas",6/22/2020,,66800,,"2876 LOVE LN",FRIENDSWOOD,TX,77546,,,"CHAD KELLY","2876 LOVE LN",FRIENDSWOOD,TX,77546,,Owner,,,,,"ROCHA'S POOL PLASTER",,,,,"ROCHA'S POOL PLASTER","22200 MOSSY OAK",HOUSTON,TX,77389,"(832) 309-6246",http://rochaspoolplaster.net/,,"JIMENEZ JESUS",contact@rochaspoolplaster.net
TX,GALVESTON,2020-1868,"Residential Swimming Pools & Spas",6/23/2020,,50000,,"1900 JILLIAN TERRACE",FRIENDSWOOD,TX,77546,,,"KEVIN BEARD","1900 JILLIAN TERRACE",FRIENDSWOOD,TX,77546,,Owner,,,,,OWNER,,,,,OWNER,,,,,,,,,
TX,GALVESTON,2020-1876,"Residential Swimming Pools & Spas",6/22/2020,,129930,,"1705 HUNTERS COVE",FRIENDSWOOD,TX,77546,,,"MEAGHAN BROWN","1705 HUNTERS COVE",FRIENDSWOOD,TX,77546,,Owner,,,,,"TIPTON SPIRES DESIGN BUILD",,,,,"TIPTON SPIRES DESIGN BUILD","1100 E NASA PKWY STE 108",HOUSTON,TX,77058,"(281) 335-8316",,,,
TX,GALVESTON,2020-1912,"Residential Swimming Pools & Spas",6/30/2020,,64500,,"203 W SHADOWBEND",FRIENDSWOOD,TX,77546,,,"JON LEWIS","203 W SHADOWBEND",FRIENDSWOOD,TX,77546,,Owner,,,,,"MCKINNEY CUSTOM POOLS",,,,,"MCKINNEY CUSTOM POOLS","15718 PARK CENTER WAY",HOUSTON,TX,77059-4050,"(281) 489-9800",http://www.mckinneycustompools.net,,,
TX,GALVESTON,2020-1959,"Residential Swimming Pools & Spas",6/26/2020,,30000,,"1664 LONGWOOD GLEN LN",FRIENDSWOOD,TX,77546,,,"SCOTT BRADLEY","1664 LONGWOOD GLEN LN",FRIENDSWOOD,TX,77546,,Owner,,,,,"AQUA LUXE",,,,,"AQUA LUXE","601 N GREAT SOUTHWEST PKWY",ARLINGTON,TX,76011-5424,"(972) 523-0073",,,,
TX,GALVESTON,2020-1960,"Residential Swimming Pools & Spas",6/26/2020,,30000,,"2508 SCENIC HILLS DR",FRIENDSWOOD,TX,77546,,,"MOLHAM ALDEIRI","2508 SCENIC HILLS DR",FRIENDSWOOD,TX,77546,,Owner,,,,,"AQUA LUXE",,,,,"AQUA LUXE","601 N GREAT SOUTHWEST PKWY",ARLINGTON,TX,76011-5424,"(972) 523-0073",,,,
TX,GALVESTON,2020-1988,"Residential Swimming Pools & Spas",6/30/2020,,60000,,"1708 KEYSTONE DR",FRIENDSWOOD,TX,77546,,,"JAMES BIFFLE","1708 KEYSTONE DR",FRIENDSWOOD,TX,77546,,Owner,,,,,"KB CONSTRUCTION",,,,,"KB CONSTRUCTION","13431 CARRUTH LANE",HOUSTON,TX,77083,"(281) 879-5938",,,,
TX,HARRIS,20200,"Residential Swimming Pools & Spas",7/28/2020,,40000,,"219 PINE SHADOWS","TAYLOR LAKE VILLAGE",TX,77586,,,CONTRACTOR,,,,,,,,,,,"BACKYARD AMENITIES",,,,,"BACKYARD AMENITIES","11163 OLD NEEDLEPOINT RD STE 100",BAYTOWN,TX,77523-9784,"(281) 837-8234",http://www.backyardamenities.com,,,info@backyardamenities.com
TX,BELL,2020-5917,"Residential Swimming Pools & Spas",7/1/2020,,48000,,"3212 WILDCATTER DR",BELTON,TX,76513,,,CONTRACTOR,,,,,,,,,,,"MAXIMUS POOLS",,,,,"MAXIMUS POOLS","608 S MAIN ST",BELTON,TX,76513-3464,"(254) 613-4436",http://www.maximuspools.com/,,,info@maximuspools.com
TX,BELL,2020-5875,"Residential Swimming Pools & Spas",7/2/2020,,90000,,"4051 PECAN MEADOW DR",BELTON,TX,76513,,,CONTRACTOR,,,,,,,,,,,"BLUE LAGOON POOLS OF TEXAS",,,,,"BLUE LAGOON POOLS OF TEXAS","526 KINGWOOD DR",KINGWOOD,TX,77339-4473,"(281) 359-7946",http://www.bluelagoonpoolsoftexas.com/,,,bluelagoonpoolsoftexas@yahoo.com
TX,BELL,2020-6022,"Residential Swimming Pools & Spas",7/29/2020,,40700,,"1742 LACY RIDGE DR",BELTON,TX,76513,,,CONTRACTOR,,,,,,,,,,,"AQUAMARINE POOLS",,,,,"AQUAMARINE POOLS","25730 INTERSTATE 45",HOUSTON,TX,77386,"(281) 734-2543",,,,
TX,MONTGOMERY,174169-20,"Residential Swimming Pools & Spas",7/17/2020,,163995,,"209 STALWART HILL TR",HOUSTON,TX,77356,"BLACK OAK",,CONTRACTOR,,,,,,,,,,,"RAUSCH COLEMAN HOMES",,,,,"RAUSCH COLEMAN HOMES","9504 N IH35 STE 310","SAN ANTONIO",TX,78233,"(210) 231-0703",https://www.rauschcolemanhomes.com/,,,
TX,HARRIS,19124999,"Restaurant and Bar",7/21/2020,Renovation,750000,,"10101 S POST OAK",HOUSTON,TX,77096,,,CONTRACTOR,,,,,,,,,,,"SANITAS MEYERLAND",,,,,"SANITAS MEYERLAND","10101 S POST OAK RD.",HOUSTON,TX,77096,"(713) 804-5964",,,,
TX,HARRIS,19114425,"Restaurant and Bar",7/21/2020,Renovation,105500,,"2607 GRANT",HOUSTON,TX,77006,,,CONTRACTOR,,,,,,,,,,,"JENIFER POOL",,,,,"JENIFER POOL","8129 SIGNET ST",HOUSTON,TX,77029-3861,"(713) 672-9345",,,,
TX,HARRIS,20067488,"Restaurant and Bar",7/22/2020,Renovation,33500,,"1205 RICHMOND",HOUSTON,TX,77006,,,"SAMBROOKS MANAGEMENT COMPANY","4306 YOAKUM BLVD",HOUSTON,TX,77006,"(832) 265-0063",Applicant,,,,,OWNER,,,,,OWNER,,,,,,,,,
TX,HARRIS,19131115,"Restaurant and Bar",7/24/2020,,98400,,"11235 SOUTHWEST FWY",HOUSTON,TX,77031,,,CONTRACTOR,,,,,,,,,,,"ENTERPRISE LOGIC",,,,,"ENTERPRISE LOGIC","7457, HARWIN DRIVE, SUITE 208",HOUSTON,TX,77036,"(832) 252-6777",http://www.enterprise-logic.com/,,,info@enterprise-logic.com
TX,HARRIS,19145101,Retail,7/23/2020,,121250,,"12803 HIRAM CLARKE RD",HOUSTON,TX,77045,,,"EAGLE FOOD MARKET","12803 HIRAM CLARKE RD",HOUSTON,TX,77045,"(713) 283-9946",Owner,,,,,OWNER,,,,,OWNER,,,,,,,,,
TX,HARRIS,20006901,Retail,7/21/2020,Renovation,276000,,"1150 BUNKER HILL",HOUSTON,TX,77055,,,CONTRACTOR,,,,,,,,,,,"CLIMATE PROS",,,,,"CLIMATE PROS","55 N BRANDON DR #2024","GLEN HIGHTS",IL,60139,"(630) 893-8511",,,,
TX,HARRIS,20053978,Retail,7/23/2020,,400000,,"6429 WESTHEIMER",HOUSTON,TX,77057,,,CONTRACTOR,,,,,,,,,,,"IBC BUILDERS",,,,,"IBC BUILDERS","7918 FAIRVIEW ST",HOUSTON,TX,77041-2118,"(713) 849-3050",http://www.ibcbuilders.com/,"(713) 849-3060",,
TX,HARRIS,19063870,Retail,7/24/2020,,35600,,"1010 EDGEBROOK",HOUSTON,TX,77034,,,CONTRACTOR,,,,,,,,,,,"LA REYNA MEAT MARKET",,,,,"LA REYNA MEAT MARKET","350 NORTH MIDLAND DRIVE D",MIDLAND,TX,79703,"(432) 262-2098",,,,
TX,HARRIS,19112025,Retail,7/21/2020,,135000,,"2205 N MAIN",HOUSTON,TX,77009,,,"REALLIANCE INVESTMENTS","8147 LONG POINT RD",HOUSTON,TX,77055,"(281) 543-4732",Applicant,,,,,OWNER,,,,,OWNER,,,,,,,,,
TX,HARRIS,19074553,Retail,7/23/2020,,437500,,"6317 W FUQUA",HOUSTON,TX,77489,,,CONTRACTOR,,,,,,,,,,,"TN ASSOCIATES",,,,,"TN ASSOCIATES","2825 WILCREST DR #616",HOUSTON,TX,77042,"(713) 541-3195",,,,
TX,HARRIS,20049541,Retail,7/22/2020,,40000,,"10610 FONDREN RD",HOUSTON,TX,77096,,,"TOOR ESTATE LLC","5127 MANZANILA VIEW",HOUSTON,TX,77479,"(409) 554-2545",Applicant,,,,,OWNER,,,,,OWNER,,,,,,,,,
TX,GALVESTON,2020-1373,Retail,6/4/2020,,150000,,"1765 S FRIENDSWOOD DR 103",FRIENDSWOOD,TX,77576,,,"CLUB PILATES FRIENDSWOOD","1765 S FRIENDSWOOD DR 103",FRIENDSWOOD,TX,77576,"(832) 862-2023",Owner,,,,,OWNER,,,,,OWNER,,,,,,,,,
TX,GALVESTON,2020-1594,Retail,6/9/2020,,2200000,,"505 S FRIENDSWOOD DR 301",FRIENDSWOOD,TX,77546,,,CONTRACTOR,,,,,,,,,,,"TANNOS CONSTRUCTION & DEVELOPMENT",,,,,"TANNOS CONSTRUCTION & DEVELOPMENT","112 LAFAYETTE LN","LEAGUE CITY",TX,77573-1934,"(281) 724-9065",,,"LOUIS TANNOS",
TX,GALVESTON,2020-1720,Retail,6/17/2020,,248782,,"1501 W PARKWOOD AVE 107",FRIENDSWOOD,TX,77546,,,CONTRACTOR,,,,,,,,,,,"MED-TECH CONSTRUCTION",,,,,"MED-TECH CONSTRUCTION","4202 BOBTOWN RD",GARLAND,TX,75043-4003,"(972) 226-3332",,,"HEATH HILL",
TX,MONTGOMERY,174151-20,Retail,7/16/2020,,850000,,"30402 DOBBIN HUFFSMITH ROAD",HOUSTON,TX,77356,"OAKWOOD ACRES",,CONTRACTOR,,,,,,,,,,,"MJM ARCHITECTS",,,,,"MJM ARCHITECTS","712 4TH AVE S",NASHVILLE,TN,37210-2022,"(615) 244-8170",http://www.retailarchitecture.com/,"(615) 244-8141","GARY CONWAY",
TX,HARRIS,20058153,"Single Family Homes",7/22/2020,,240000,,"2505 REPPART",HOUSTON,TX,77008,,,CONTRACTOR,,,,,,,,,,,"ANNE'S PERMIT",,,,,"ANNE'S PERMIT","2617C W HOLCOMBE BLVD",HOUSTON,TX,77025,"(713) 666-2025",,,,
TX,HARRIS,20062148,"Single Family Homes",7/21/2020,,202000,,"2603 ZEMMER",HOUSTON,TX,77008,,,CONTRACTOR,,,,,,,,,,,"ANNE'S PERMIT",,,,,"ANNE'S PERMIT","2617C W HOLCOMBE BLVD",HOUSTON,TX,77025,"(713) 666-2025",,,,
TX,HARRIS,20062147,"Single Family Homes",7/21/2020,,190000,,"5219 CARTERS BANK",HOUSTON,TX,77018,,,CONTRACTOR,,,,,,,,,,,"ANNE'S PERMIT",,,,,"ANNE'S PERMIT","2617C W HOLCOMBE BLVD",HOUSTON,TX,77025,"(713) 666-2025",,,,
TX,HARRIS,20042599,"Single Family Homes",7/22/2020,,450000,,"3618 W CLAY",HOUSTON,TX,77019,,,"BALLENT THEODORE","3618 W CLAY",HOUSTON,TX,77019,,Owner,,,,,"BALLARD BUILDING COMPANY",,,,,"BALLARD BUILDING COMPANY","14780 MEMORIAL DR STE 225",HOUSTON,TX,77079-5284,"(832) 309-5435",,,,
TX,HARRIS,20049568,"Single Family Homes",7/23/2020,,122000,,"214 N DRENNAN",HOUSTON,TX,77003,,,CONTRACTOR,,,,,,,,,,,"ACCESSO VENTURES",,,,,"ACCESSO VENTURES","1021 MAIN STREET, SUITE 1920",HOUSTON,TX,77002,"(713) 255-0849",https://accessopartners.com/,,,
TX,HARRIS,20049567,"Single Family Homes",7/23/2020,,122000,,"218 N DRENNAN",HOUSTON,TX,77003,,,CONTRACTOR,,,,,,,,,,,"ACCESSO VENTURES",,,,,"ACCESSO VENTURES","1021 MAIN STREET, SUITE 1920",HOUSTON,TX,77002,"(713) 255-0849",https://accessopartners.com/,,,
TX,HARRIS,20060847,"Single Family Homes",7/22/2020,,322000,,"6019 GRANITE SHADOW",HOUSTON,TX,77365,,,CONTRACTOR,,,,,,,,,,,"ASHTON WOODS HOMES",,,,,"ASHTON WOODS HOMES","10110 W SAM HOUSTON PKWY N",HOUSTON,TX,77064-7508,"(832) 478-9028",,,,
TX,HARRIS,20060852,"Single Family Homes",7/22/2020,,275000,,"6023 GRANITE SHADOW",HOUSTON,TX,77365,,,CONTRACTOR,,,,,,,,,,,"ASHTON WOODS HOMES",,,,,"ASHTON WOODS HOMES","10110 W SAM HOUSTON PKWY N",HOUSTON,TX,77064-7508,"(832) 478-9028",,,,
TX,HARRIS,20055765,"Single Family Homes",7/22/2020,,164000,,"619 THORNTON OAKS",HOUSTON,TX,77018,,,CONTRACTOR,,,,,,,,,,,"CHAMPIONS REAL ESTATE GROUP",,,,,"CHAMPIONS REAL ESTATE GROUP","2323 S VOSS RD STE 120",HOUSTON,TX,77057-3827,"(760) 936-5212",,,"ATTA SHAY",
TX,HARRIS,20052806,"Single Family Homes",7/22/2020,,196565,,"14206 COUTURIE FOREST",HOUSTON,TX,77045,,,CONTRACTOR,,,,,,,,,,,"BRIGHTON HOMES & PARKWOOD",,,,,"BRIGHTON HOMES & PARKWOOD","13111 NORTHWEST FWY",HOUSTON,TX,77040-6318,"(713) 460-6279",,,,
TX,HARRIS,20060083,"Single Family Homes",7/22/2020,,190509,,"7714 JOSHUA STONE",HOUSTON,TX,77016,,,CONTRACTOR,,,,,,,,,,,"BRIGHTON HOMES & PARKWOOD",,,,,"BRIGHTON HOMES & PARKWOOD","13111 NORTHWEST FWY",HOUSTON,TX,77040-6318,"(713) 460-6279",,,,
TX,HARRIS,20037294,"Single Family Homes",7/24/2020,,178484,,"875 MARCOLIN",HOUSTON,TX,77008,,,CONTRACTOR,,,,,,,,,,,"BURGHLI HOMES",,,,,"BURGHLI HOMES","4615 NORTH FREEWAY",HOUSTON,TX,77022,"(713) 691-3948",http://burghlihomes.com/,,,
TX,HARRIS,20061637,"Single Family Homes",7/23/2020,,225990,,"718 COBALT CREST",HOUSTON,TX,77336,,,CONTRACTOR,,,,,,,,,,,"CENTURY CUSTOM HOMES",,,,,"CENTURY CUSTOM HOMES","1710 S DAIRY ASHFORD RD STE 212",HOUSTON,TX,77077-3859,"(281) 960-8048",http://cchomeshouston.com/,"(281) 920-9499","REZA SHOAEE",rshoaee@cchomeshouston.com
TX,HARRIS,20061638,"Single Family Homes",7/23/2020,,192990,,"719 COBALT CREST",HOUSTON,TX,77336,,,CONTRACTOR,,,,,,,,,,,"CENTURY CUSTOM HOMES",,,,,"CENTURY CUSTOM HOMES","1710 S DAIRY ASHFORD RD STE 212",HOUSTON,TX,77077-3859,"(281) 960-8048",http://cchomeshouston.com/,"(281) 920-9499","REZA SHOAEE",rshoaee@cchomeshouston.com
TX,HARRIS,20062687,"Single Family Homes",7/23/2020,,202990,,"714 COBALT CREST",HOUSTON,TX,77336,,,CONTRACTOR,,,,,,,,,,,"CENTURY COMMUNITIES",,,,,"CENTURY COMMUNITIES","4700 W SAM HOUSTON PKWY N STE 130",HOUSTON,TX,77041-8219,"(281) 741-8946",https://www.centurycommunities.com/,,,
TX,HARRIS,20059029,"Single Family Homes",7/21/2020,,173097,,"6808 TROYA",HOUSTON,TX,77092,,,CONTRACTOR,,,,,,,,,,,"CONTEMPO BUILDER",,,,,"CONTEMPO BUILDER","1808 SNAKE RIVER RD STE D",KATY,TX,77449-7746,"(832) 275-2469",http://www.contempobuilder.com,"(281) 596-4376","JULIO FERNANDEZ",julio@contempobuilder.com
TX,HARRIS,20059028,"Single Family Homes",7/21/2020,,190188,,"6810 TROYA ",HOUSTON,TX,77092,,,CONTRACTOR,,,,,,,,,,,"CONTEMPO BUILDER",,,,,"CONTEMPO BUILDER","1808 SNAKE RIVER RD STE D",KATY,TX,77449-7746,"(832) 275-2469",http://www.contempobuilder.com,"(281) 596-4376","JULIO FERNANDEZ",julio@contempobuilder.com
TX,HARRIS,20041717,"Single Family Homes",7/23/2020,,324800,,"541 W 23RD ST",HOUSTON,TX,77008,,,CONTRACTOR,,,,,,,,,,,"ENTERRA HOMES",,,,,"ENTERRA HOMES","7155 OLD KATY RD STE N210",HOUSTON,TX,77024-2273,"(281) 850-2845",http://www.enterrahomes.com/,"(832) 266-1638","MICHAEL VAN",mvan@enterrahomes.com
TX,HARRIS,20063523,"Single Family Homes",7/23/2020,,225990,,"10703 STELLA POND",HOUSTON,TX,77016,,,CONTRACTOR,,,,,,,,,,,"FIRST AMERICA HOMES",,,,,"FIRST AMERICA HOMES","1400 WOODLOCH FOREST DR STE 200","THE WOODLANDS",TX,77380-1179,"(713) 452-1700",http://www.firstamericahomes.com/,,,info@firstamericahomes.com
TX,HARRIS,20063528,"Single Family Homes",7/24/2020,,188990,,"10755 NYLA SPRING",HOUSTON,TX,77016,,,CONTRACTOR,,,,,,,,,,,"FIRST AMERICA HOMES",,,,,"FIRST AMERICA HOMES","1400 WOODLOCH FOREST DR STE 200","THE WOODLANDS",TX,77380-1179,"(713) 452-1700",http://www.firstamericahomes.com/,,,info@firstamericahomes.com
TX,HARRIS,20059859,"Single Family Homes",7/22/2020,,199990,,"10759 NYLA SPRING",HOUSTON,TX,77016,,,CONTRACTOR,,,,,,,,,,,"FIRST AMERICA HOMES",,,,,"FIRST AMERICA HOMES","1400 WOODLOCH FOREST DR STE 200","THE WOODLANDS",TX,77380-1179,"(713) 452-1700",http://www.firstamericahomes.com/,,,info@firstamericahomes.com
TX,HARRIS,20063526,"Single Family Homes",7/23/2020,,225990,,"7603 AIIDEN  RIDGE",HOUSTON,TX,77016,,,CONTRACTOR,,,,,,,,,,,"FIRST AMERICA HOMES",,,,,"FIRST AMERICA HOMES","1400 WOODLOCH FOREST DR STE 200","THE WOODLANDS",TX,77380-1179,"(713) 452-1700",http://www.firstamericahomes.com/,,,info@firstamericahomes.com
TX,HARRIS,20063527,"Single Family Homes",7/24/2020,,188990,,"7706 AIIDEN RIDGE",HOUSTON,TX,77016,,,CONTRACTOR,,,,,,,,,,,"FIRST AMERICA HOMES",,,,,"FIRST AMERICA HOMES","1400 WOODLOCH FOREST DR STE 200","THE WOODLANDS",TX,77380-1179,"(713) 452-1700",http://www.firstamericahomes.com/,,,info@firstamericahomes.com
TX,HARRIS,20063532,"Single Family Homes",7/24/2020,,191990,,"7734 NEVAEH CREST",HOUSTON,TX,77016,,,CONTRACTOR,,,,,,,,,,,"FIRST AMERICA HOMES",,,,,"FIRST AMERICA HOMES","1400 WOODLOCH FOREST DR STE 200","THE WOODLANDS",TX,77380-1179,"(713) 452-1700",http://www.firstamericahomes.com/,,,info@firstamericahomes.com
TX,HARRIS,17017283,"Single Family Homes",7/21/2020,,136914,,"6062 WILLOW GLEN",HOUSTON,TX,77033,,,CONTRACTOR,,,,,,,,,,,"GVS CONSTRUCTION",,,,,"GVS CONSTRUCTION","1105 S 17TH ST","COPPERAS COVE",TX,76522-3416,"(254) 547-5500",,,,
TX,HARRIS,20021319,"Single Family Homes",7/21/2020,,650000,,"5031 YARWELL",HOUSTON,TX,77096,,,CONTRACTOR,,,,,,,,,,,"ASHER HADAD",,,,,"ASHER HADAD","4974 DUMFRIES DR",HOUSTON,TX,77096-4230,"(832) 526-6618",,,,
TX,HARRIS,20060591,"Single Family Homes",7/22/2020,,275925,,"3210 BELLWICK CHASE",HOUSTON,TX,77365,,,CONTRACTOR,,,,,,,,,,,"PERRY HOMES",,,,,"PERRY HOMES","9000 GULF FWY",HOUSTON,TX,77017-7018,"(713) 417-1396",,,,
TX,HARRIS,20059063,"Single Family Homes",7/21/2020,,287925,,"3230 BELLWICK CHASE",HOUSTON,TX,77365,,,CONTRACTOR,,,,,,,,,,,"PERRY HOMES",,,,,"PERRY HOMES","9000 GULF FWY",HOUSTON,TX,77017-7018,"(713) 417-1396",,,,
TX,HARRIS,20011621,"Single Family Homes",7/24/2020,,288161,,"2729 MAXROY",HOUSTON,TX,77007,,,CONTRACTOR,,,,,,,,,,,"INTOWN HOMES",,,,,"INTOWN HOMES","1520 OLIVER ST",HOUSTON,TX,77007,"(713) 961-3877",http://www.intown-homes.com/,,,
TX,HARRIS,19032111,"Single Family Homes",7/24/2020,,244928,,"4945 RUSK",HOUSTON,TX,77023,,,CONTRACTOR,,,,,,,,,,,"INTOWN HOMES",,,,,"INTOWN HOMES","1520 OLIVER ST",HOUSTON,TX,77007,"(713) 961-3877",http://www.intown-homes.com/,,,
TX,HARRIS,19032112,"Single Family Homes",7/24/2020,,279329,,"4947 RUSK",HOUSTON,TX,77023,,,CONTRACTOR,,,,,,,,,,,"INTOWN HOMES",,,,,"INTOWN HOMES","1520 OLIVER ST",HOUSTON,TX,77007,"(713) 961-3877",http://www.intown-homes.com/,,,
TX,HARRIS,19035584,"Single Family Homes",7/24/2020,,247368,,"5003 RUSK",HOUSTON,TX,77023,,,CONTRACTOR,,,,,,,,,,,"INTOWN HOMES",,,,,"INTOWN HOMES","1520 OLIVER ST",HOUSTON,TX,77007,"(713) 961-3877",http://www.intown-homes.com/,,,
TX,HARRIS,18113202,"Single Family Homes",7/22/2020,,227518,,"6008 MATTHEW OAKS",HOUSTON,TX,77007,,,CONTRACTOR,,,,,,,,,,,"INTOWN HOMES",,,,,"INTOWN HOMES","1520 OLIVER ST",HOUSTON,TX,77007,"(713) 961-3877",http://www.intown-homes.com/,,,
TX,HARRIS,18113203,"Single Family Homes",7/22/2020,,173687,,"6010 MATTHEW OAKS",HOUSTON,TX,77007,,,CONTRACTOR,,,,,,,,,,,"INTOWN HOMES",,,,,"INTOWN HOMES","1520 OLIVER ST",HOUSTON,TX,77007,"(713) 961-3877",http://www.intown-homes.com/,,,
TX,HARRIS,18113204,"Single Family Homes",7/22/2020,,227433,,"6012 MATTHEW OAKS",HOUSTON,TX,77007,,,CONTRACTOR,,,,,,,,,,,"INTOWN HOMES",,,,,"INTOWN HOMES","1520 OLIVER ST",HOUSTON,TX,77007,"(713) 961-3877",http://www.intown-homes.com/,,,
TX,HARRIS,19147061,"Single Family Homes",7/21/2020,,150000,,"12906 MOSSCREST",HOUSTON,TX,77048,,,CONTRACTOR,,,,,,,,,,,"KB HOME",,,,,"KB HOME","11314 RICHMOND AVE",HOUSTON,TX,77082-2616,"(281) 668-3800",,,,
TX,HARRIS,20062489,"Single Family Homes",7/23/2020,,251000,,"3311 BELLWICK CHASE",HOUSTON,TX,77365,,,CONTRACTOR,,,,,,,,,,,"LENNAR HOMES",,,,,"LENNAR HOMES","550 GREENS PKWY",HOUSTON,TX,77067-4537,"(281) 875-1000",http://www.lennar.com/,,,
TX,HARRIS,20022233,"Single Family Homes",7/21/2020,,65000,,"7514 GLASS",HOUSTON,TX,77016,,,CONTRACTOR,,,,,,,,,,,"MAXWELL SLADE",,,,,"MAXWELL SLADE","2100 W LOOP S #800",HOUSTON,TX,77027,"(713) 501-1730",https://www.maxwellslade.com/,,,contact@maxwellslade.com
TX,HARRIS,20059471,"Single Family Homes",7/23/2020,,163455,,"5422 ORIENTE",HOUSTON,TX,77023,,,CONTRACTOR,,,,,,,,,,,"MERITAGE HOMES",,,,,"MERITAGE HOMES","2901 W SAM HOUSTON PKWY N",HOUSTON,TX,77043-1630,"(713) 357-1184",,,,
TX,HARRIS,20032452,"Single Family Homes",7/22/2020,,176970,,"5507 CUERTA",HOUSTON,TX,77023,,,CONTRACTOR,,,,,,,,,,,"MERITAGE HOMES",,,,,"MERITAGE HOMES","2901 W SAM HOUSTON PKWY N",HOUSTON,TX,77043-1630,"(713) 357-1184",,,,
TX,HARRIS,20060449,"Single Family Homes",7/23/2020,,201620,,"5511 CAMAGUEY",HOUSTON,TX,77023,,,CONTRACTOR,,,,,,,,,,,"MERITAGE HOMES",,,,,"MERITAGE HOMES","2901 W SAM HOUSTON PKWY N",HOUSTON,TX,77043-1630,"(713) 357-1184",,,,
TX,HARRIS,20045882,"Single Family Homes",7/24/2020,,222000,,"4115 MARINA",HOUSTON,TX,77007,,,CONTRACTOR,,,,,,,,,,,"MILLENI, LLC",,,,,"MILLENI, LLC","3440 RILEY FUZZEL",HOUSTON,TX,77386,"(832) 517-1907",,,,
TX,HARRIS,20045883,"Single Family Homes",7/24/2020,,222000,,"4119 MARINA",HOUSTON,TX,77007,,,CONTRACTOR,,,,,,,,,,,"MILLENI, LLC",,,,,"MILLENI, LLC","3440 RILEY FUZZEL",HOUSTON,TX,77386,"(832) 517-1907",,,,
TX,HARRIS,20029419,"Single Family Homes",7/24/2020,,156000,,"559 WHITE OAK",HOUSTON,TX,77336,,,CONTRACTOR,,,,,,,,,,,"NEIGHBORLY HOME BUILDERS",,,,,"NEIGHBORLY HOME BUILDERS","2031 SAXON DR",HOUSTON,TX,77018,"(832) 844-9579",https://neighborlyhomebuilders.com/,,,
TX,HARRIS,19069538,"Single Family Homes",7/21/2020,,200000,,"2413 PEASE ST",HOUSTON,TX,77003,,,"RAMIREZ ALEJANDRA","2413 PEASE ST",HOUSTON,TX,77003,"(713) 419-2653",Applicant,,,,,OWNER,,,,,OWNER,,,,,,,,,
TX,HARRIS,20007811,"Single Family Homes",7/23/2020,,167875,,"5502 ROSSLYN",HOUSTON,TX,77091,,,CONTRACTOR,,,,,,,,,,,"RDZ LAND DEVELOPMENT & CONSTRUCTION",,,,,"RDZ LAND DEVELOPMENT & CONSTRUCTION","1710 RUELLEN",HOUSTON,TX,77038,"(713) 823-4747",,,,
TX,HARRIS,20007810,"Single Family Homes",7/23/2020,,178415,,"5504 ROSSLYN",HOUSTON,TX,77091,,,CONTRACTOR,,,,,,,,,,,"RDZ LAND DEVELOPMENT & CONSTRUCTION",,,,,"RDZ LAND DEVELOPMENT & CONSTRUCTION","1710 RUELLEN",HOUSTON,TX,77038,"(713) 823-4747",,,,
TX,HARRIS,20007809,"Single Family Homes",7/23/2020,,173315,,"5506 ROSSLYN",HOUSTON,TX,77091,,,CONTRACTOR,,,,,,,,,,,"RDZ LAND DEVELOPMENT & CONSTRUCTION",,,,,"RDZ LAND DEVELOPMENT & CONSTRUCTION","1710 RUELLEN",HOUSTON,TX,77038,"(713) 823-4747",,,,
TX,HARRIS,20007808,"Single Family Homes",7/23/2020,,173315,,"5508 ROSSLYN",HOUSTON,TX,77091,,,CONTRACTOR,,,,,,,,,,,"RDZ LAND DEVELOPMENT & CONSTRUCTION",,,,,"RDZ LAND DEVELOPMENT & CONSTRUCTION","1710 RUELLEN",HOUSTON,TX,77038,"(713) 823-4747",,,,
TX,HARRIS,20007807,"Single Family Homes",7/23/2020,,173315,,"5510 ROSSLYN",HOUSTON,TX,77091,,,CONTRACTOR,,,,,,,,,,,"RDZ LAND DEVELOPMENT & CONSTRUCTION",,,,,"RDZ LAND DEVELOPMENT & CONSTRUCTION","1710 RUELLEN",HOUSTON,TX,77038,"(713) 823-4747",,,,
TX,HARRIS,20007806,"Single Family Homes",7/23/2020,,202470,,"5512 ROSSLYN",HOUSTON,TX,77091,,,CONTRACTOR,,,,,,,,,,,"RDZ LAND DEVELOPMENT & CONSTRUCTION",,,,,"RDZ LAND DEVELOPMENT & CONSTRUCTION","1710 RUELLEN",HOUSTON,TX,77038,"(713) 823-4747",,,,
TX,HARRIS,20007805,"Single Family Homes",7/23/2020,,202470,,"5514 ROSSLYN",HOUSTON,TX,77091,,,CONTRACTOR,,,,,,,,,,,"RDZ LAND DEVELOPMENT & CONSTRUCTION",,,,,"RDZ LAND DEVELOPMENT & CONSTRUCTION","1710 RUELLEN",HOUSTON,TX,77038,"(713) 823-4747",,,,
TX,HARRIS,20007804,"Single Family Homes",7/23/2020,,202470,,"5516 ROSSLYN",HOUSTON,TX,77091,,,CONTRACTOR,,,,,,,,,,,"RDZ LAND DEVELOPMENT & CONSTRUCTION",,,,,"RDZ LAND DEVELOPMENT & CONSTRUCTION","1710 RUELLEN",HOUSTON,TX,77038,"(713) 823-4747",,,,
TX,HARRIS,20007803,"Single Family Homes",7/23/2020,,202470,,"5518 ROSSLYN",HOUSTON,TX,77091,,,CONTRACTOR,,,,,,,,,,,"RDZ LAND DEVELOPMENT & CONSTRUCTION",,,,,"RDZ LAND DEVELOPMENT & CONSTRUCTION","1710 RUELLEN",HOUSTON,TX,77038,"(713) 823-4747",,,,
TX,HARRIS,20007802,"Single Family Homes",7/23/2020,,202470,,"5520 ROSSLYN",HOUSTON,TX,77091,,,CONTRACTOR,,,,,,,,,,,"RDZ LAND DEVELOPMENT & CONSTRUCTION",,,,,"RDZ LAND DEVELOPMENT & CONSTRUCTION","1710 RUELLEN",HOUSTON,TX,77038,"(713) 823-4747",,,,
TX,HARRIS,20007801,"Single Family Homes",7/23/2020,,202470,,"5522 ROSSLYN",HOUSTON,TX,77091,,,CONTRACTOR,,,,,,,,,,,"RDZ LAND DEVELOPMENT & CONSTRUCTION",,,,,"RDZ LAND DEVELOPMENT & CONSTRUCTION","1710 RUELLEN",HOUSTON,TX,77038,"(713) 823-4747",,,,
TX,HARRIS,20007800,"Single Family Homes",7/23/2020,,202470,,"5524 ROSSLYN",HOUSTON,TX,77091,,,CONTRACTOR,,,,,,,,,,,"RDZ LAND DEVELOPMENT & CONSTRUCTION",,,,,"RDZ LAND DEVELOPMENT & CONSTRUCTION","1710 RUELLEN",HOUSTON,TX,77038,"(713) 823-4747",,,,
TX,HARRIS,20007799,"Single Family Homes",7/23/2020,,202470,,"5526 ROSSLYN",HOUSTON,TX,77091,,,CONTRACTOR,,,,,,,,,,,"RDZ LAND DEVELOPMENT & CONSTRUCTION",,,,,"RDZ LAND DEVELOPMENT & CONSTRUCTION","1710 RUELLEN",HOUSTON,TX,77038,"(713) 823-4747",,,,
TX,HARRIS,20007798,"Single Family Homes",7/23/2020,,202470,,"5528 ROSSLYN",HOUSTON,TX,77091,,,CONTRACTOR,,,,,,,,,,,"RDZ LAND DEVELOPMENT & CONSTRUCTION",,,,,"RDZ LAND DEVELOPMENT & CONSTRUCTION","1710 RUELLEN",HOUSTON,TX,77038,"(713) 823-4747",,,,
TX,HARRIS,20057453,"Single Family Homes",7/22/2020,,732000,,"614 PINEHAVEN",HOUSTON,TX,77024,,,CONTRACTOR,,,,,,,,,,,"RSG ENGINEERING",,,,,"RSG ENGINEERING","2825 WILCREST DR STE 678",HOUSTON,TX,77042-6007,"(281) 777-7985",http://rsgcompanies.com,,,Info@rsgcompanies.com
TX,HARRIS,20020390,"Single Family Homes",7/21/2020,,285000,,"1131 ROBBIE",HOUSTON,TX,77009,,,CONTRACTOR,,,,,,,,,,,"SANDCASTLE HOMES",,,,,"SANDCASTLE HOMES","1405 DURHAM DR",HOUSTON,TX,77007-3462,"(713) 864-9190",http://www.sandcastlehouston.com/,"(713) 864-9134","MIKE DISHBERGER",dishberger@sandcastlehouston.com
TX,HARRIS,20019112,"Single Family Homes",7/22/2020,,183697,,"1407 BOSWELL",HOUSTON,TX,77009,,,CONTRACTOR,,,,,,,,,,,"STONEWORKS BUILDING GROUP",,,,,"STONEWORKS BUILDING GROUP","6343 SKYLINE DR STE 200",HOUSTON,TX,77057-6940,"(832) 774-0482",,,,
TX,HARRIS,20019111,"Single Family Homes",7/22/2020,,183697,,"1411 BOSWELL",HOUSTON,TX,77009,,,CONTRACTOR,,,,,,,,,,,"STONEWORKS BUILDING GROUP",,,,,"STONEWORKS BUILDING GROUP","6343 SKYLINE DR STE 200",HOUSTON,TX,77057-6940,"(832) 774-0482",,,,
TX,HARRIS,20049471,"Single Family Homes",7/23/2020,,110000,,"6710 KNOX",HOUSTON,TX,77091,,,CONTRACTOR,,,,,,,,,,,"SXG CAPITAL GROUP",,,,,"SXG CAPITAL GROUP","24938 CLOVER",HOUSTON,TX,77494,"(713) 501-4582",,,,
TX,HARRIS,20049469,"Single Family Homes",7/23/2020,,110000,,"6736 KNOX",HOUSTON,TX,77091,,,CONTRACTOR,,,,,,,,,,,"SXG CAPITAL GROUP",,,,,"SXG CAPITAL GROUP","24938 CLOVER",HOUSTON,TX,77494,"(713) 501-4582",,,,
TX,HARRIS,20049833,"Single Family Homes",7/22/2020,,174760,,"7806 KING",HOUSTON,TX,77028,,,"TIERRA LIBERTAD HOLDINGS","7806 KING",HOUSTON,TX,77028,"(832) 851-8775",Applicant,,,,,OWNER,,,,,OWNER,,,,,,,,,
TX,HARRIS,20061904,"Single Family Homes",7/21/2020,,393720,,"4009 STARBRIGHT ",HOUSTON,TX,77018,,,CONTRACTOR,,,,,,,,,,,"VARGAS MARIA",,,,,"VARGAS MARIA","1311 BROADFIELD",HOUSTON,TX,77084,"(281) 529-9127",,,,
TX,HARRIS,20061905,"Single Family Homes",7/21/2020,,357290,,"5132 EMMA FOREST",HOUSTON,TX,77018,,,CONTRACTOR,,,,,,,,,,,"VARGAS MARIA",,,,,"VARGAS MARIA","1311 BROADFIELD",HOUSTON,TX,77084,"(281) 529-9127",,,,
TX,HARRIS,20043928,"Single Family Homes",7/22/2020,,387870,,"5135 EMMA FOREST",HOUSTON,TX,77018,,,CONTRACTOR,,,,,,,,,,,"VARGAS MARIA",,,,,"VARGAS MARIA","1311 BROADFIELD",HOUSTON,TX,77084,"(281) 529-9127",,,,
TX,HARRIS,20027174,"Single Family Homes",7/21/2020,,382220,,"1905 MONACO MEMORIAL",HOUSTON,TX,77043,,,CONTRACTOR,,,,,,,,,,,"VARGAS MARIA",,,,,"VARGAS MARIA","1311 BROADFIELD",HOUSTON,TX,77084,"(281) 529-9127",,,,
TX,HARRIS,20027576,"Single Family Homes",7/21/2020,,375250,,"1909 MONACO MEMORIAL",HOUSTON,TX,77043,,,CONTRACTOR,,,,,,,,,,,"VARGAS MARIA",,,,,"VARGAS MARIA","1311 BROADFIELD",HOUSTON,TX,77084,"(281) 529-9127",,,,
TX,HARRIS,20060742,"Single Family Homes",7/23/2020,,216980,,"7035 PIPER RIDGE",HOUSTON,TX,77075,,,CONTRACTOR,,,,,,,,,,,"VARGAS MARIA",,,,,"VARGAS MARIA","1311 BROADFIELD",HOUSTON,TX,77084,"(281) 529-9127",,,,
TX,HARRIS,20060744,"Single Family Homes",7/24/2020,,229690,,"7039 PIPER RIDGE",HOUSTON,TX,77075,,,CONTRACTOR,,,,,,,,,,,"VARGAS MARIA",,,,,"VARGAS MARIA","1311 BROADFIELD",HOUSTON,TX,77084,"(281) 529-9127",,,,
TX,HARRIS,20017127,"Single Family Homes",7/23/2020,,368550,,"1814 CALABASAS ",HOUSTON,TX,77080,,,CONTRACTOR,,,,,,,,,,,"VARGAS MARIA",,,,,"VARGAS MARIA","1311 BROADFIELD",HOUSTON,TX,77084,"(281) 529-9127",,,,
TX,HARRIS,20029154,"Single Family Homes",7/24/2020,,111446,,"3709 EASY",HOUSTON,TX,77026,,,CONTRACTOR,,,,,,,,,,,"WILLIAMS HEATHER",,,,,"WILLIAMS HEATHER","14215 MARY",HOUSTON,TX,77006,"(832) 929-7736",,,,
TX,HARRIS,20058381,"Single Family Homes",7/21/2020,,156400,,"8216 EASTER",HOUSTON,TX,77088,,,"CRUZ ELIGIO","3500 LITTLE YORK",HOUSTON,TX,77091,"(832) 486-0829",Applicant,,,,,OWNER,,,,,OWNER,,,,,,,,,
TX,HARRIS,20012886,"Single Family Homes",7/24/2020,,162310,,"7747 AVENUE",HOUSTON,TX,77012,,,"DE LA CRUZ MARIA","7747 AVENUE",HOUSTON,TX,77012,,Owner,,,,,"DSW HOMES",,,,,"DSW HOMES","12607 N",HOUSTON,TX,77034,"(832) 385-0069",http://www.dswhomes.com/,,,
TX,HARRIS,20032949,"Single Family Homes",7/23/2020,,220000,,"5013 EAST",HOUSTON,TX,77020,,,"GODINE ARSLEE","5013 EAST",HOUSTON,TX,77020,,Owner,,,,,"AMBASSADOR BUILDING GROUP",,,,,"AMBASSADOR BUILDING GROUP","4771 SWEETWATER BLVD #110","SUGAR LAND",TX,77479,"(832) 605-6400",,,,
TX,HARRIS,20058861,"Single Family Homes",7/23/2020,,160860,,"7108 HOFFMAN",HOUSTON,TX,77028,,,"GREATER SAINT LUKES BAPTIST CHURCH","7108 HOFFMAN",HOUSTON,TX,77028,,Owner,,,,,"MAYBERRY HOMES",,,,,"MAYBERRY HOMES","4412 ALMEDA RD",HOUSTON,TX,77004-4902,"(713) 523-8585",http://www.mayberryhomes.net,,,
TX,HARRIS,20045325,"Single Family Homes",7/21/2020,,119000,,"8125 CHATEAU",HOUSTON,TX,77028,,,"HERNANDEZ DIANA","8125 CHATEAU",HOUSTON,TX,77028,,Owner,,,,,"WESTWOOD FENCE",,,,,"WESTWOOD FENCE","8403 HOWTON ST",HOUSTON,TX,77028-4800,"(713) 674-3277",http://westwoodfenceco.com/,,,Info@westwoodfenceco.com
TX,HARRIS,20035954,"Single Family Homes",7/23/2020,,700000,,"9615 CEDARHURST",HOUSTON,TX,77096,,,"LINDSEY LONGEROT AND MARK LONGEROT","9615 CEDARHURST",HOUSTON,TX,77096,,Owner,,,,,"RAYMARK CONSTRUCTION",,,,,"RAYMARK CONSTRUCTION","PO BOX 310464",HOUSTON,TX,77231-0464,"(832) 895-9835",https://www.raymarkconstruction.com,,,info@raymarkconstruction.com
TX,HARRIS,20033092,"Single Family Homes",7/24/2020,,143912,,"6627 ANNUNCIATION",HOUSTON,TX,77016,,,"MEJIA GUADALUPE ADRIANA","6627 ANNUNCIATION",HOUSTON,TX,77016,"(832) 453-5211",Owner,,,,,OWNER,,,,,OWNER,,,,,,,,,
TX,HARRIS,19098924,"Single Family Homes",7/22/2020,,120000,,"5824 GLEN LEE",HOUSTON,TX,77396,,,"NAVARRO GABRIEL","5824 GLEN LEE",HOUSTON,TX,77396,,Owner,,,,,NAVARRO,,,,,NAVARRO,"4939 ANTOINE",HOUSTON,TX,77092,"(713) 677-0975",,,,
TX,HARRIS,19024731,"Single Family Homes",7/25/2020,,110520,,"4503 BENNINGTON",HOUSTON,TX,77016,,,"NEWHOUSE PATRICIA","4503 BENNINGTON",HOUSTON,TX,77016,,Owner,,,,,OWNER,,,,,OWNER,,,,,,,,,
TX,HARRIS,19039928,"Single Family Homes",7/24/2020,,143227,,"414 TITE",HOUSTON,TX,77029,,,"NORTON BILLY","414 TITE",HOUSTON,TX,77029,,Owner,,,,,SLSCO,,,,,SLSCO,"6702 6702 BROADWAY ST ST",HOUSTON,TX,77554,"(409) 515-9237",,,,
TX,HARRIS,20036018,"Single Family Homes",7/21/2020,,325000,,"163 HARKNESS",HOUSTON,TX,77076,,,"ORELLANA DINA S","163 HARKNESS",HOUSTON,TX,77076,"(713) 423-9515",Owner,,,,,OWNER,,,,,OWNER,,,,,,,,,
TX,HARRIS,20036520,"Single Family Homes",7/24/2020,Addition,120000,,"1303 ANSBURY",HOUSTON,TX,77018,,,"PAULIS JAMES","1303 ANSBURY",HOUSTON,TX,77018,,Owner,,,,,"SCM CONSTRUCTION SERVICES",,,,,"SCM CONSTRUCTION SERVICES","1301 E PARKERVILLE RD STE A",DESOTO,TX,75115-6420,"(972) 274-5151",,"(972) 274-5157",,sam@scmconstructionllc.com
TX,HARRIS,20005166,"Single Family Homes",7/24/2020,,150000,,"7124 BANYAN",HOUSTON,TX,77028,,,"PLEITEZ HECTOR","7124 BANYAN",HOUSTON,TX,77028,"(281) 932-3143",Owner,,,,,OWNER,,,,,OWNER,,,,,,,,,
TX,HARRIS,19147900,"Single Family Homes",7/23/2020,,120950,,"4101 EUROPA",HOUSTON,TX,77022,,,"POTTS VERNA","4101 EUROPA",HOUSTON,TX,77022,,Owner,,,,,"CROWN RIDGE BUILDERS",,,,,"CROWN RIDGE BUILDERS","28618 FM 2920",HOUSTON,TX,77484,"(281) 682-5593",,,,
TX,HARRIS,20048232,"Single Family Homes",7/22/2020,,200000,,"12927 DONEGAL",HOUSTON,TX,77047,,,"ROSARIO JOSE","12927 DONEGAL",HOUSTON,TX,77047,,Owner,,,,,"ALONSO ANA",,,,,"ALONSO ANA","6909 HILLCROFT ST",HOUSTON,TX,77081,"(832) 276-3675",,,,
TX,HARRIS,20052278,"Single Family Homes",7/21/2020,Addition,340000,,"3638 WICKERSHAM",HOUSTON,TX,77027,,,"TRAYLOR CHAMPION","3638 WICKERSHAM",HOUSTON,TX,77027,"(713) 520-0932",Owner,,,,,OWNER,,,,,OWNER,,,,,,,,,
TX,HARRIS,20000961,"Single Family Homes",7/21/2020,,180000,,"1703 WIPPRECHT",HOUSTON,TX,77020,,,"WOOLSEY ROGER","4713 NEW ORLEANS",HOUSTON,TX,77356,,Owner,,,,,"ROYAL TOUCH DESIGN",,,,,"ROYAL TOUCH DESIGN","4771 SWEETWATER",HOUSTON,TX,77479,"(832) 605-6400",,,"ROYAL TASHA",
TX,HARRIS,20000970,"Single Family Homes",7/21/2020,,180000,,"4713 NEW ORLEANS",HOUSTON,TX,77356,,,"WOOLSEY ROGER","4713 NEW ORLEANS",HOUSTON,TX,77356,,Owner,,,,,"ROYAL TOUCH DESIGN",,,,,"ROYAL TOUCH DESIGN","4771 SWEETWATER",HOUSTON,TX,77479,"(832) 605-6400",,,"ROYAL TASHA",
TX,HARRIS,20000971,"Single Family Homes",7/21/2020,,180000,,"4715 NEW ORLEANS",HOUSTON,TX,77020,,,"WOOLSEY ROGER","4713 NEW ORLEANS",HOUSTON,TX,77356,,Owner,,,,,"ROYAL TOUCH DESIGN",,,,,"ROYAL TOUCH DESIGN","4771 SWEETWATER",HOUSTON,TX,77479,"(832) 605-6400",,,"ROYAL TASHA",
TX,HARRIS,2006120127,"Single Family Homes",7/16/2020,,191000,2942,"4326 MOSSY BANKS LN",HOUSTON,TX,77356,"CYPRESS CREEK LANDING",,CONTRACTOR,,,,,,,,,,,"KB HOME",,,,,"KB HOME","11314 RICHMOND AVE",HOUSTON,TX,77082-2616,"(281) 668-3800",,,,
TX,HARRIS,2006150150,"Single Family Homes",7/16/2020,,153000,2360,"14614 GULLY RUN CT",HOUSTON,TX,77356,"CYPRESS CREEK LANDING",,CONTRACTOR,,,,,,,,,,,"KB HOME",,,,,"KB HOME","11314 RICHMOND AVE",HOUSTON,TX,77082-2616,"(281) 668-3800",,,,
TX,HARRIS,2006160011,"Single Family Homes",7/16/2020,,153000,2360,"4151 MOSSY BANKS LN",HOUSTON,TX,77356,"CYPRESS CREEK LANDING",,CONTRACTOR,,,,,,,,,,,"KB HOME",,,,,"KB HOME","11314 RICHMOND AVE",HOUSTON,TX,77082-2616,"(281) 668-3800",,,,
TX,HARRIS,2003170176,"Single Family Homes",7/16/2020,,1687500,8691,"18603 CHAMPION FOREST DR",HOUSTON,TX,77356,,,CONTRACTOR,,,,,,,,,,,"JETEC PROPERTIES",,,,,"JETEC PROPERTIES","19923 STANDING CYPRESS DR",SPRING,TX,77379,"(832) 813-5000",,,"JENNIE SHIRLEY",
TX,HARRIS,2006170078,"Single Family Homes",7/16/2020,,76160,2176,"19535 SHADY HIKE LN",HOUSTON,TX,77356,,,CONTRACTOR,,,,,,,,,,,"DAVID WEEKLEY HOMES",,,,,"DAVID WEEKLEY HOMES","14444 NORTHWEST",HOUSTON,TX,77040,"(713) 570-5021",http://www.davidweekleyhomes.com/,,,
TX,HARRIS,2005190045,"Single Family Homes",7/16/2020,,97090,2709,"18511 GRATIFICATION LN",HOUSTON,TX,77356,"BRIDGELAND PARKLAND VILLAGE",,CONTRACTOR,,,,,,,,,,,"DAVID WEEKLEY HOMES",,,,,"DAVID WEEKLEY HOMES","14444 NORTHWEST",HOUSTON,TX,77040,"(713) 570-5021",http://www.davidweekleyhomes.com/,,,
TX,HARRIS,2006040027,"Single Family Homes",7/16/2020,,245925,2620,"6222 MILBRIDGE CREEK LN",HOUSTON,TX,77356,ELYSON,,CONTRACTOR,,,,,,,,,,,"PERRY HOMES",,,,,"PERRY HOMES","9000 GULF FWY",HOUSTON,TX,77017-7018,"(713) 417-1396",,,,
TX,HARRIS,2006100070,"Single Family Homes",7/16/2020,,154800,1720,"31211 BIRCH MILLS DR",HOUSTON,TX,77356,DELLROSE,,CONTRACTOR,,,,,,,,,,,"EHT OF TEXAS LP",,,,,"EHT OF TEXAS LP","10235 LITTLE",HOUSTON,TX,77040,"(713) 557-3685",,,,
TX,HARRIS,2006100153,"Single Family Homes",7/16/2020,,154800,1720,"17311 OAKDALE SPRINGS CT",HOUSTON,TX,77356,DELLROSE,,CONTRACTOR,,,,,,,,,,,"EHT OF TEXAS LP",,,,,"EHT OF TEXAS LP","10235 LITTLE",HOUSTON,TX,77040,"(713) 557-3685",,,,
TX,HARRIS,2006100166,"Single Family Homes",7/16/2020,,138600,1540,"31231 ALBANY BROOK LN",HOUSTON,TX,77356,DELLROSE,,CONTRACTOR,,,,,,,,,,,"EHT OF TEXAS LP",,,,,"EHT OF TEXAS LP","10235 LITTLE",HOUSTON,TX,77040,"(713) 557-3685",,,,
TX,HARRIS,2006120102,"Single Family Homes",7/16/2020,,126280,3157,"19010 COURSER FIELD CT",HOUSTON,TX,77356,AMIRA,,CONTRACTOR,,,,,,,,,,,"BEAZER HOMES ",,,,,"BEAZER HOMES ","10235 W LITTLE YORK",HOUSTON,TX,77040,"(713) 849-2252",http://www.beazer.com/,,,
TX,HARRIS,2006120105,"Single Family Homes",7/16/2020,,92400,2310,"6722 SCARLET SAGEBRUSH ST",HOUSTON,TX,77356,LANTANA,,CONTRACTOR,,,,,,,,,,,"BEAZER HOMES ",,,,,"BEAZER HOMES ","10235 W LITTLE YORK",HOUSTON,TX,77040,"(713) 849-2252",http://www.beazer.com/,,,
TX,HARRIS,2006150130,"Single Family Homes",7/16/2020,,106160,2654,"19038 PASO FINO PRAIRIE LN",HOUSTON,TX,77356,AMIRA,,CONTRACTOR,,,,,,,,,,,"BEAZER HOMES ",,,,,"BEAZER HOMES ","10235 W LITTLE YORK",HOUSTON,TX,77040,"(713) 849-2252",http://www.beazer.com/,,,
TX,HARRIS,2006150134,"Single Family Homes",7/16/2020,,106160,2654,"19026 PASO FINO PRAIRIE LN",HOUSTON,TX,77356,AMIRA,,CONTRACTOR,,,,,,,,,,,"BEAZER HOMES ",,,,,"BEAZER HOMES ","10235 W LITTLE YORK",HOUSTON,TX,77040,"(713) 849-2252",http://www.beazer.com/,,,
TX,HARRIS,2006150136,"Single Family Homes",7/16/2020,,110920,2773,"19027 PASO FINO PRAIRIE LN",HOUSTON,TX,77356,AMIRA,,CONTRACTOR,,,,,,,,,,,"BEAZER HOMES ",,,,,"BEAZER HOMES ","10235 W LITTLE YORK",HOUSTON,TX,77040,"(713) 849-2252",http://www.beazer.com/,,,
TX,HARRIS,2006150141,"Single Family Homes",7/16/2020,,65000,1625,"6723 SCARLET SAGEBRUSH ST",HOUSTON,TX,77356,LANTANA,,CONTRACTOR,,,,,,,,,,,"BEAZER HOMES ",,,,,"BEAZER HOMES ","10235 W LITTLE YORK",HOUSTON,TX,77040,"(713) 849-2252",http://www.beazer.com/,,,
TX,HARRIS,2006150143,"Single Family Homes",7/16/2020,,111480,2787,"6822 SCARLET SAGEBRUSH ST",HOUSTON,TX,77356,LANTANA,,CONTRACTOR,,,,,,,,,,,"BEAZER HOMES ",,,,,"BEAZER HOMES ","10235 W LITTLE YORK",HOUSTON,TX,77040,"(713) 849-2252",http://www.beazer.com/,,,
TX,HARRIS,2006160038,"Single Family Homes",7/16/2020,,92400,2310,"6818 SCARLET SAGEBRUSH ST",HOUSTON,TX,77356,LANTANA,,CONTRACTOR,,,,,,,,,,,"BEAZER HOMES ",,,,,"BEAZER HOMES ","10235 W LITTLE YORK",HOUSTON,TX,77040,"(713) 849-2252",http://www.beazer.com/,,,
TX,HARRIS,2006030071,"Single Family Homes",7/16/2020,,96495,2692,"18514 GRATIFICATION LN",HOUSTON,TX,77356,"BRIDGELAND PARKLAND VILLAGE",,CONTRACTOR,,,,,,,,,,,"DAVID WEEKLEY HOMES",,,,,"DAVID WEEKLEY HOMES","14444 NORTHWEST",HOUSTON,TX,77040,"(713) 570-5021",http://www.davidweekleyhomes.com/,,,
TX,HARRIS,2005200138,"Single Family Homes",7/16/2020,,79640,1585,"21439 HAWTHORN HARVEST CIR",HOUSTON,TX,77356,LANTANA,,CONTRACTOR,,,,,,,,,,,"BEAZER HOMES ",,,,,"BEAZER HOMES ","10235 W LITTLE YORK",HOUSTON,TX,77040,"(713) 849-2252",http://www.beazer.com/,,,
TX,HARRIS,2006080112,"Single Family Homes",7/16/2020,,178490,2746,"16631 POLLETTS COVE CT",HOUSTON,TX,77356,GROVES,,CONTRACTOR,,,,,,,,,,,"TRENDMAKER HOMES",,,,,"TRENDMAKER HOMES","16340 PARK TEN PL STE 250",HOUSTON,TX,77084-5144,"(281) 675-3200",,"(281) 675-3251","MARTIN EVANS",
TX,HARRIS,2006120022,"Single Family Homes",7/16/2020,,138001,2247,"16434 APACHE WOODS WAY",HOUSTON,TX,77356,GROVES,,CONTRACTOR,,,,,,,,,,,"CHESMAR HOMES",,,,,"CHESMAR HOMES","450 GEARS RD STE 400",HOUSTON,TX,77067-4513,"(281) 598-1111",http://chesmar.com,"(281) 598-1115",,customerservice.houston@chesmar.com
TX,HARRIS,2006120032,"Single Family Homes",7/16/2020,,138301,2247,"16403 LITTLE PINE CREEK DR",HOUSTON,TX,77356,GROVES,,CONTRACTOR,,,,,,,,,,,"CHESMAR HOMES",,,,,"CHESMAR HOMES","450 GEARS RD STE 400",HOUSTON,TX,77067-4513,"(281) 598-1111",http://chesmar.com,"(281) 598-1115",,customerservice.houston@chesmar.com
TX,HARRIS,2006160083,"Single Family Homes",7/16/2020,,153955,2587,"21215 REYNOLDS RESERVE WAY",HOUSTON,TX,77356,"ROSEHILL RESERVE",,CONTRACTOR,,,,,,,,,,,"CHESMAR HOMES",,,,,"CHESMAR HOMES","450 GEARS RD STE 400",HOUSTON,TX,77067-4513,"(281) 598-1111",http://chesmar.com,"(281) 598-1115",,customerservice.houston@chesmar.com
TX,HARRIS,2006050081,"Single Family Homes",7/16/2020,,278912,1489,"219 SAINT CHARLES ST",HOUSTON,TX,77356,"ARCADIAN GARDENS",,CONTRACTOR,,,,,,,,,,,"BRIZO CONSTRUCTION",,,,,"BRIZO CONSTRUCTION","1908 AVENUE L","SANTA FE",TX,77510-8917,"(409) 316-4762",,,,
TX,HARRIS,2006120068,"Single Family Homes",7/16/2020,,503500,3100,"10631 HAZEL HILLS DR",HOUSTON,TX,77356,"TOWNE LAKE",,CONTRACTOR,,,,,,,,,,,"CALDWELL HOMES",,,,,"CALDWELL HOMES","18127 TWILIGHT SHORES LN",CYPRESS,TX,77433-7046,"(281) 378-3364",http://caldwellhomes.com/,,,info@caldwellhomes.com
TX,HARRIS,2006160052,"Single Family Homes",7/16/2020,,82500,1687,"21811 BLACK OWL DR",HOUSTON,TX,77356,"ARBOR TRAILS",,CONTRACTOR,,,,,,,,,,,"COLINA HOMES",,,,,"COLINA HOMES","1314 N DURHAM DR",HOUSTON,TX,77008-3734,"(281) 528-9090",http://colinahomes.com/,,,postmaster@colinahomes.com
TX,HARRIS,2006120027,"Single Family Homes",7/16/2020,,146643,2425,"16410 SUNDEW BEND DR",HOUSTON,TX,77356,GROVES,,CONTRACTOR,,,,,,,,,,,"CHESMAR HOMES",,,,,"CHESMAR HOMES","450 GEARS RD STE 400",HOUSTON,TX,77067-4513,"(281) 598-1111",http://chesmar.com,"(281) 598-1115",,customerservice.houston@chesmar.com
TX,HARRIS,2006160115,"Single Family Homes",7/16/2020,,116000,2113,"703 FERRARI DR",HOUSTON,TX,77356,"ATASCOCITA SPRINGS",,CONTRACTOR,,,,,,,,,,,"LEGEND HOMES",,,,,"LEGEND HOMES","10410 WINDAMERE LAKES BLVD",HOUSTON,TX,77065-4996,"(281) 671-9060",http://legendhomecorp.com/,"(281) 671-9055",,
TX,HARRIS,2006110024,"Single Family Homes",7/16/2020,,111555,1877,"2411 ALLENDALE GARDEN LN",HOUSTON,TX,77356,BRECKENRIDGE,,CONTRACTOR,,,,,,,,,,,"DR HORTON",,,,,"DR HORTON","14100 SOUTHWEST",HOUSTON,TX,77478,"(281) 201-5559",,,,
TX,HARRIS,2006170032,"Single Family Homes",7/16/2020,,132885,2225,"23506 TREELINE BLUFF TRL",HOUSTON,TX,77356,BRECKENRIDGE,,CONTRACTOR,,,,,,,,,,,"DR HORTON",,,,,"DR HORTON","14100 SOUTHWEST",HOUSTON,TX,77478,"(281) 201-5559",,,,
TX,HARRIS,2006170035,"Single Family Homes",7/16/2020,,107460,2388,"23510 TREELINE BLUFF TRL",HOUSTON,TX,77356,BRECKENRIDGE,,CONTRACTOR,,,,,,,,,,,"DR HORTON",,,,,"DR HORTON","14100 SOUTHWEST",HOUSTON,TX,77478,"(281) 201-5559",,,,
TX,HARRIS,2006170037,"Single Family Homes",7/16/2020,,100800,2240,"23514 TREELINE BLUFF TRL",HOUSTON,TX,77356,BRECKENRIDGE,,CONTRACTOR,,,,,,,,,,,"DR HORTON",,,,,"DR HORTON","14100 SOUTHWEST",HOUSTON,TX,77478,"(281) 201-5559",,,,
TX,HARRIS,2006120013,"Single Family Homes",7/16/2020,,335000,2883,"12107 RICHARDSON FORT WAY",HOUSTON,TX,77356,GROVES,,CONTRACTOR,,,,,,,,,,,"HIGHLAND HOMES",,,,,"HIGHLAND HOMES","10930 W SAM HOUSTON PKWY N STE 100",HOUSTON,TX,77064-6331,"(281) 517-9800",,,,
TX,HARRIS,2006160053,"Single Family Homes",7/16/2020,,270000,2500,"16315 APACHE WOODS WAY",HOUSTON,TX,77356,GROVES,,CONTRACTOR,,,,,,,,,,,"HIGHLAND HOMES",,,,,"HIGHLAND HOMES","10930 W SAM HOUSTON PKWY N STE 100",HOUSTON,TX,77064-6331,"(281) 517-9800",,,,
TX,HARRIS,2006170034,"Single Family Homes",7/16/2020,,270000,2500,"16411 LITTLE PINE CREEK DR",HOUSTON,TX,77356,GROVES,,CONTRACTOR,,,,,,,,,,,"HIGHLAND HOMES",,,,,"HIGHLAND HOMES","10930 W SAM HOUSTON PKWY N STE 100",HOUSTON,TX,77064-6331,"(281) 517-9800",,,,
TX,HARRIS,2005280122,"Single Family Homes",7/16/2020,,314663,2797,"13603 NUECES BASIN CT",HOUSTON,TX,77356,"COPPER RIDGE AT INDIAN",,CONTRACTOR,,,,,,,,,,,"PERRY HOMES",,,,,"PERRY HOMES","9000 GULF FWY",HOUSTON,TX,77017-7018,"(713) 417-1396",,,,
TX,HARRIS,2005300014,"Single Family Homes",7/16/2020,,227175,2424,"6218 MILBRIDGE CREEK LN",HOUSTON,TX,77356,ELYSON,,CONTRACTOR,,,,,,,,,,,"PERRY HOMES",,,,,"PERRY HOMES","9000 GULF FWY",HOUSTON,TX,77017-7018,"(713) 417-1396",,,,
TX,HARRIS,2005120060,"Single Family Homes",7/16/2020,,60000,1200,"11714 INDIAN OAKS LN",HOUSTON,TX,77356,"RED BUD ACRES",,"JUDITH JIMMENEZ","11714 INDIAN OAKS LN",HOUSTON,TX,77356,,Owner,,,,,OWNER,,,,,OWNER,,,,,,,,,
TX,HARRIS,2006010099,"Single Family Homes",7/16/2020,,150434,2140,"16806 LANTANA VALLEY PL",HOUSTON,TX,77356,GROVES,,CONTRACTOR,,,,,,,,,,,"CHESMAR HOMES",,,,,"CHESMAR HOMES","450 GEARS RD STE 400",HOUSTON,TX,77067-4513,"(281) 598-1111",http://chesmar.com,"(281) 598-1115",,customerservice.houston@chesmar.com
TX,HARRIS,2005220125,"Single Family Homes",7/16/2020,,450000,3918,"25118 W TARA PLANTATION DR",HOUSTON,TX,77356,"TWELVE OAKS",,"GRANT SPEER","25118 W TARA PLANTATION DR",HOUSTON,TX,77356,,Owner,,,,,OWNER,,,,,OWNER,,,,,,,,,
TX,HARRIS,2005280127,"Single Family Homes",7/16/2020,,331200,2944,"14238 BASALT SPRING LN",HOUSTON,TX,77356,"COPPER RIDGE AT INDIAN",,CONTRACTOR,,,,,,,,,,,"PERRY HOMES",,,,,"PERRY HOMES","9000 GULF FWY",HOUSTON,TX,77017-7018,"(713) 417-1396",,,,
TX,HARRIS,2006010108,"Single Family Homes",7/16/2020,,320625,2850,"19638 MIER EXPEDITION DR",HOUSTON,TX,77356,"BRIDGELAND PARKLAND VILLAGE",,CONTRACTOR,,,,,,,,,,,"PERRY HOMES",,,,,"PERRY HOMES","9000 GULF FWY",HOUSTON,TX,77017-7018,"(713) 417-1396",,,,
TX,HARRIS,2006020082,"Single Family Homes",7/16/2020,,318530,2071,"15014 BUSHY BLUESTEM CT",HOUSTON,TX,77356,"BRIDGELAND PARKLAND VILLAGE",,CONTRACTOR,,,,,,,,,,,"HIGHLAND HOMES",,,,,"HIGHLAND HOMES","10930 W SAM HOUSTON PKWY N STE 100",HOUSTON,TX,77064-6331,"(281) 517-9800",,,,
TX,HARRIS,2006030014,"Single Family Homes",7/16/2020,,219000,4951,"15602 PACIFIC LOON CT",HOUSTON,TX,77356,"BRIDGELAND PARKLAND VILLAGE",,CONTRACTOR,,,,,,,,,,,"VILLAGE BUILDERS",,,,,"VILLAGE BUILDERS","550 GREENS PKWY STE 210",HOUSTON,TX,77067-4538,"(281) 873-4663",,,,
TX,HARRIS,2006010157,"Single Family Homes",7/16/2020,,89000,1907,"18434 WHITE STALLION LN",HOUSTON,TX,77356,"BECKER MEADOWS",,CONTRACTOR,,,,,,,,,,,"LENNAR HOMES",,,,,"LENNAR HOMES","550 GREENS PKWY",HOUSTON,TX,77067-4537,"(281) 875-1000",http://www.lennar.com/,,,
TX,HARRIS,2006020152,"Single Family Homes",7/16/2020,,113400,2835,"20339 GRAY YEARLING TRL",HOUSTON,TX,77356,AMIRA,,CONTRACTOR,,,,,,,,,,,"BEAZER HOMES ",,,,,"BEAZER HOMES ","10235 W LITTLE YORK",HOUSTON,TX,77040,"(713) 849-2252",http://www.beazer.com/,,,
TX,HARRIS,2006020153,"Single Family Homes",7/16/2020,,124160,3104,"20342 GRAY YEARLING TRL",HOUSTON,TX,77356,AMIRA,,CONTRACTOR,,,,,,,,,,,"BEAZER HOMES ",,,,,"BEAZER HOMES ","10235 W LITTLE YORK",HOUSTON,TX,77040,"(713) 849-2252",http://www.beazer.com/,,,
TX,HARRIS,2006020154,"Single Family Homes",7/16/2020,,126280,3157,"20338 GRAY YEARLING TRL",HOUSTON,TX,77356,AMIRA,,CONTRACTOR,,,,,,,,,,,"BEAZER HOMES ",,,,,"BEAZER HOMES ","10235 W LITTLE YORK",HOUSTON,TX,77040,"(713) 849-2252",http://www.beazer.com/,,,
TX,HARRIS,2006020156,"Single Family Homes",7/16/2020,,146080,3652,"19107 STABLE HILL CT",HOUSTON,TX,77356,AMIRA,,CONTRACTOR,,,,,,,,,,,"BEAZER HOMES ",,,,,"BEAZER HOMES ","10235 W LITTLE YORK",HOUSTON,TX,77040,"(713) 849-2252",http://www.beazer.com/,,,
TX,HARRIS,2006020157,"Single Family Homes",7/16/2020,,146080,3652,"19111 STABLE HILL",HOUSTON,TX,77356,AMIRA,,CONTRACTOR,,,,,,,,,,,"BEAZER HOMES ",,,,,"BEAZER HOMES ","10235 W LITTLE YORK",HOUSTON,TX,77040,"(713) 849-2252",http://www.beazer.com/,,,
TX,HARRIS,2006020158,"Single Family Homes",7/16/2020,,117120,2928,"9006 BLUE STAR LN",HOUSTON,TX,77356,"ASHBEL CROSSING ",,CONTRACTOR,,,,,,,,,,,"BEAZER HOMES ",,,,,"BEAZER HOMES ","10235 W LITTLE YORK",HOUSTON,TX,77040,"(713) 849-2252",http://www.beazer.com/,,,
TX,HARRIS,2006020162,"Single Family Homes",7/16/2020,,106160,2654,"19106 WILD CAVE CT",HOUSTON,TX,77356,"BRIDGELAND PARKLAND VILLAGE",,CONTRACTOR,,,,,,,,,,,"BEAZER HOMES ",,,,,"BEAZER HOMES ","10235 W LITTLE YORK",HOUSTON,TX,77040,"(713) 849-2252",http://www.beazer.com/,,,
TX,HARRIS,2006020163,"Single Family Homes",7/16/2020,,126280,3157,"19102 WILD CAVE CT",HOUSTON,TX,77356,"BRIDGELAND PARKLAND VILLAGE",,CONTRACTOR,,,,,,,,,,,"BEAZER HOMES ",,,,,"BEAZER HOMES ","10235 W LITTLE YORK",HOUSTON,TX,77040,"(713) 849-2252",http://www.beazer.com/,,,
TX,HARRIS,2006020164,"Single Family Homes",7/16/2020,,73240,1831,"21415 HAWTHORN HARVEST CIR",HOUSTON,TX,77356,LANTANA,,CONTRACTOR,,,,,,,,,,,"BEAZER HOMES ",,,,,"BEAZER HOMES ","10235 W LITTLE YORK",HOUSTON,TX,77040,"(713) 849-2252",http://www.beazer.com/,,,
TX,HARRIS,2006020165,"Single Family Homes",7/16/2020,,110920,2773,"4606 CEDAR SAGE DR",HOUSTON,TX,77356,"ASHBEL CROSSING",,CONTRACTOR,,,,,,,,,,,"BEAZER HOMES ",,,,,"BEAZER HOMES ","10235 W LITTLE YORK",HOUSTON,TX,77040,"(713) 849-2252",http://www.beazer.com/,,,
TX,HARRIS,2005280117,"Single Family Homes",7/16/2020,,272700,2424,"19414 TROTTER CAMP TRL",HOUSTON,TX,77356,AMIRA,,CONTRACTOR,,,,,,,,,,,"PERRY HOMES",,,,,"PERRY HOMES","9000 GULF FWY",HOUSTON,TX,77017-7018,"(713) 417-1396",,,,
TX,HARRIS,2005220164,"Single Family Homes",7/16/2020,,379688,3375,"19219 WALKING PONY TRL",HOUSTON,TX,77356,AMIRA,,CONTRACTOR,,,,,,,,,,,"PERRY HOMES",,,,,"PERRY HOMES","9000 GULF FWY",HOUSTON,TX,77017-7018,"(713) 417-1396",,,,
TX,HARRIS,2006030069,"Single Family Homes",7/16/2020,,331200,2944,"20343 GRAY YEARLING TRL",HOUSTON,TX,77356,AMIRA,,CONTRACTOR,,,,,,,,,,,"PERRY HOMES",,,,,"PERRY HOMES","9000 GULF FWY",HOUSTON,TX,77017-7018,"(713) 417-1396",,,,
TX,HARRIS,2006030073,"Single Family Homes",7/16/2020,,185810,1649,"24063 PRAIRIE DUST LN",HOUSTON,TX,77356,WINDROW,,CONTRACTOR,,,,,,,,,,,"PULTE HOMES",,,,,"PULTE HOMES","16670 PARK ROW",HOUSTON,TX,77084-6866,"(281) 749-8000",,,,
TX,HARRIS,2006030082,"Single Family Homes",7/16/2020,,183030,1930,"24039 PRAIRIE DUST DR",HOUSTON,TX,77356,WINDROW,,CONTRACTOR,,,,,,,,,,,"PULTE HOMES",,,,,"PULTE HOMES","16670 PARK ROW",HOUSTON,TX,77084-6866,"(281) 749-8000",,,,
TX,HARRIS,2006030083,"Single Family Homes",7/16/2020,,129263,2718,"11922 BAZLEY KNOLL DR",HOUSTON,TX,77356,BALMORAL,,CONTRACTOR,,,,,,,,,,,"TAYLOR MORRISON OF TEXAS",,,,,"TAYLOR MORRISON OF TEXAS","5353 W SAM HOUSTON PKWY N STE 190",HOUSTON,TX,77041-5186,"(281) 598-3000",,,,
TX,HARRIS,2006030089,"Single Family Homes",7/16/2020,,221680,1510,"24035 PRAIRIE DUST DR",HOUSTON,TX,77356,WINDROW,,CONTRACTOR,,,,,,,,,,,"PULTE HOMES",,,,,"PULTE HOMES","16670 PARK ROW",HOUSTON,TX,77084-6866,"(281) 749-8000",,,,
TX,HARRIS,2006010014,"Single Family Homes",7/16/2020,,126000,2917,"6919 NORTHCHESTER DR",HOUSTON,TX,77356,"KATY LAKES",,CONTRACTOR,,,,,,,,,,,"GEHAN HOMES",,,,,"GEHAN HOMES","2050 W SAM HOUSTON PKWY S",HOUSTON,TX,77042-2079,"(713) 243-3545",http://www.gehanhomes.com,,,
TX,HARRIS,2006010019,"Single Family Homes",7/16/2020,,127000,3450,"31727 CASA LINDA DR",HOUSTON,TX,77356,"STONE CREEK RANCH",,CONTRACTOR,,,,,,,,,,,"GEHAN HOMES",,,,,"GEHAN HOMES","2050 W SAM HOUSTON PKWY S",HOUSTON,TX,77042-2079,"(713) 243-3545",http://www.gehanhomes.com,,,
TX,HARRIS,2005280152,"Single Family Homes",7/16/2020,,234965,2684,"9210 REVIVAL DR",HOUSTON,TX,77356,"BRIDGE CREEK",,CONTRACTOR,,,,,,,,,,,"TAYLOR MORRISON OF TEXAS",,,,,"TAYLOR MORRISON OF TEXAS","5353 W SAM HOUSTON PKWY N STE 190",HOUSTON,TX,77041-5186,"(281) 598-3000",,,,
TX,HARRIS,2005290120,"Single Family Homes",7/16/2020,,230497,3407,"9206 REVIVAL DR",HOUSTON,TX,77356,"BRIDGE CREEK",,CONTRACTOR,,,,,,,,,,,"TAYLOR MORRISON OF TEXAS",,,,,"TAYLOR MORRISON OF TEXAS","5353 W SAM HOUSTON PKWY N STE 190",HOUSTON,TX,77041-5186,"(281) 598-3000",,,,
TX,HARRIS,2005280142,"Single Family Homes",7/16/2020,,122535,2723,"22914 GINOSA TRL",HOUSTON,TX,77356,"VENTANA LAKES",,CONTRACTOR,,,,,,,,,,,"DR HORTON",,,,,"DR HORTON","14100 SOUTHWEST",HOUSTON,TX,77478,"(281) 201-5559",,,,
TX,HARRIS,2006030107,"Single Family Homes",7/16/2020,,126000,2800,"18210 BAYONNE CHANNEL CT",HOUSTON,TX,77356,"BRIDGES ON LAKE",,CONTRACTOR,,,,,,,,,,,"DR HORTON",,,,,"DR HORTON","14100 SOUTHWEST",HOUSTON,TX,77478,"(281) 201-5559",,,,
TX,HARRIS,2006030108,"Single Family Homes",7/16/2020,,134145,2981,"18214 BAYONNE CHANNEL CT",HOUSTON,TX,77356,"BRIDGES ON LAKE",,CONTRACTOR,,,,,,,,,,,"DR HORTON",,,,,"DR HORTON","14100 SOUTHWEST",HOUSTON,TX,77478,"(281) 201-5559",,,,
TX,HARRIS,2006030111,"Single Family Homes",7/16/2020,,151560,3368,"18219 BAYONNE CHANNEL CT",HOUSTON,TX,77356,"BRIDGES ON LAKE",,CONTRACTOR,,,,,,,,,,,"DR HORTON",,,,,"DR HORTON","14100 SOUTHWEST",HOUSTON,TX,77478,"(281) 201-5559",,,,
TX,HARRIS,2006030114,"Single Family Homes",7/16/2020,,128745,2861,"18215 BAYONNE CHANNEL CT",HOUSTON,TX,77356,"BRIDGES ON LAKE",,CONTRACTOR,,,,,,,,,,,"DR HORTON",,,,,"DR HORTON","14100 SOUTHWEST",HOUSTON,TX,77478,"(281) 201-5559",,,,
TX,HARRIS,2006030116,"Single Family Homes",7/16/2020,,103995,2311,"18207 BAYONNE CHANNEL CT",HOUSTON,TX,77356,"BRIDGES ON LAKE",,CONTRACTOR,,,,,,,,,,,"DR HORTON",,,,,"DR HORTON","14100 SOUTHWEST",HOUSTON,TX,77478,"(281) 201-5559",,,,
TX,HARRIS,2006150058,"Single Family Homes",7/16/2020,,147017,2425,"6026 BRISTOL SPUR LN",HOUSTON,TX,77356,ELYSON,,CONTRACTOR,,,,,,,,,,,"CHESMAR HOMES",,,,,"CHESMAR HOMES","450 GEARS RD STE 400",HOUSTON,TX,77067-4513,"(281) 598-1111",http://chesmar.com,"(281) 598-1115",,customerservice.houston@chesmar.com
TX,HARRIS,2006150059,"Single Family Homes",7/16/2020,,120830,1702,"6027 BRISTOL SPUR LN",HOUSTON,TX,77356,ELYSON,,CONTRACTOR,,,,,,,,,,,"CHESMAR HOMES",,,,,"CHESMAR HOMES","450 GEARS RD STE 400",HOUSTON,TX,77067-4513,"(281) 598-1111",http://chesmar.com,"(281) 598-1115",,customerservice.houston@chesmar.com
TX,HARRIS,2006090113,"Single Family Homes",7/16/2020,,273600,2432,"19419 PACERS GAIT LN",HOUSTON,TX,77356,AMIRA,,CONTRACTOR,,,,,,,,,,,"PERRY HOMES",,,,,"PERRY HOMES","9000 GULF FWY",HOUSTON,TX,77017-7018,"(713) 417-1396",,,,
TX,HARRIS,2006090106,"Single Family Homes",7/16/2020,,248963,2213,"19434 FILLY CHASE CT",HOUSTON,TX,77356,AMIRA,,CONTRACTOR,,,,,,,,,,,"PERRY HOMES",,,,,"PERRY HOMES","9000 GULF FWY",HOUSTON,TX,77017-7018,"(713) 417-1396",,,,
TX,HARRIS,2006040028,"Single Family Homes",7/16/2020,,235463,2093,"20010 WILD HORSE HOLLOW LN",HOUSTON,TX,77356,AMIRA,,CONTRACTOR,,,,,,,,,,,"PERRY HOMES",,,,,"PERRY HOMES","9000 GULF FWY",HOUSTON,TX,77017-7018,"(713) 417-1396",,,,
TX,HARRIS,2006090137,"Single Family Homes",7/16/2020,,273600,2432,"20111 WILD HORSE HOLLOW LN",HOUSTON,TX,77356,AMIRA,,CONTRACTOR,,,,,,,,,,,"PERRY HOMES",,,,,"PERRY HOMES","9000 GULF FWY",HOUSTON,TX,77017-7018,"(713) 417-1396",,,,
TX,HARRIS,2006090042,"Single Family Homes",7/16/2020,,235463,2093,"20023 WILD HORSE HOLLOW LN",HOUSTON,TX,77356,AMIRA,,CONTRACTOR,,,,,,,,,,,"PERRY HOMES",,,,,"PERRY HOMES","9000 GULF FWY",HOUSTON,TX,77017-7018,"(713) 417-1396",,,,
TX,HARRIS,2006100093,"Single Family Homes",7/16/2020,,280013,2489,"19811 LONE PADDOCK CIR",HOUSTON,TX,77356,AMIRA,,CONTRACTOR,,,,,,,,,,,"PERRY HOMES",,,,,"PERRY HOMES","9000 GULF FWY",HOUSTON,TX,77017-7018,"(713) 417-1396",,,,
TX,HARRIS,2006080031,"Single Family Homes",7/16/2020,,272700,2424,"19810 LONE PADDOCK CIR",HOUSTON,TX,77356,AMIRA,,CONTRACTOR,,,,,,,,,,,"PERRY HOMES",,,,,"PERRY HOMES","9000 GULF FWY",HOUSTON,TX,77017-7018,"(713) 417-1396",,,,
TX,HARRIS,2006080045,"Single Family Homes",7/16/2020,,416025,3698,"21438 MARTIN TEA TRL",HOUSTON,TX,77356,"ROSEHILL RESERVE",,CONTRACTOR,,,,,,,,,,,"PERRY HOMES",,,,,"PERRY HOMES","9000 GULF FWY",HOUSTON,TX,77017-7018,"(713) 417-1396",,,,
TX,HARRIS,2006120006,"Single Family Homes",7/16/2020,,65000,2806,"3047 BUGATTI DR",HOUSTON,TX,77356,"MORTON CREEK RANCH",,CONTRACTOR,,,,,,,,,,,"LONG LAKE HOMES",,,,,"LONG LAKE HOMES","15915 KATY FWY STE 405",HOUSTON,TX,77094-1710,"(281) 646-1727",http://www.longlakeltd.com/,,"DAVID BIGLER",
TX,HARRIS,2006120016,"Single Family Homes",7/16/2020,,80000,3186,"23915 CAPUCHIN DR",HOUSTON,TX,77356,"MORTON CREEK RANCH",,CONTRACTOR,,,,,,,,,,,"LONG LAKE HOMES",,,,,"LONG LAKE HOMES","15915 KATY FWY STE 405",HOUSTON,TX,77094-1710,"(281) 646-1727",http://www.longlakeltd.com/,,"DAVID BIGLER",
TX,HARRIS,2006120018,"Single Family Homes",7/16/2020,,66000,1940,"14707 RUDDY DUCK LN",HOUSTON,TX,77356,"EDGEWOOD VILLAGE",,CONTRACTOR,,,,,,,,,,,"LONG LAKE HOMES",,,,,"LONG LAKE HOMES","15915 KATY FWY STE 405",HOUSTON,TX,77094-1710,"(281) 646-1727",http://www.longlakeltd.com/,,"DAVID BIGLER",
TX,HARRIS,2006120019,"Single Family Homes",7/16/2020,,80000,3186,"8323 NORTHERN PINTAIL DR",HOUSTON,TX,77356,"EDGEWOOD VILLAGE",,CONTRACTOR,,,,,,,,,,,"LONG LAKE HOMES",,,,,"LONG LAKE HOMES","15915 KATY FWY STE 405",HOUSTON,TX,77094-1710,"(281) 646-1727",http://www.longlakeltd.com/,,"DAVID BIGLER",
TX,HARRIS,2006120023,"Single Family Homes",7/16/2020,,80000,3238,"8319 NORTHERN PINTAIL DR",HOUSTON,TX,77356,"EDGEWOOD VILLAGE",,CONTRACTOR,,,,,,,,,,,"LONG LAKE HOMES",,,,,"LONG LAKE HOMES","15915 KATY FWY STE 405",HOUSTON,TX,77094-1710,"(281) 646-1727",http://www.longlakeltd.com/,,"DAVID BIGLER",
TX,HARRIS,2006120026,"Single Family Homes",7/16/2020,,79000,3197,"1083 RANCH OAK DR",HOUSTON,TX,77356,"REMINGTON CREEK RANCH",,CONTRACTOR,,,,,,,,,,,"LONG LAKE HOMES",,,,,"LONG LAKE HOMES","15915 KATY FWY STE 405",HOUSTON,TX,77094-1710,"(281) 646-1727",http://www.longlakeltd.com/,,"DAVID BIGLER",
TX,HARRIS,2006120031,"Single Family Homes",7/16/2020,,80000,3238,"15106 LONGLEAF FOREST DR",HOUSTON,TX,77356,"EAGLE LANDING",,CONTRACTOR,,,,,,,,,,,"LONG LAKE HOMES",,,,,"LONG LAKE HOMES","15915 KATY FWY STE 405",HOUSTON,TX,77094-1710,"(281) 646-1727",http://www.longlakeltd.com/,,"DAVID BIGLER",
TX,HARRIS,2006120037,"Single Family Homes",7/16/2020,,72000,3005,"15607 EASTERN HEMLOCK LN",HOUSTON,TX,77356,"TELGE RANCH",,CONTRACTOR,,,,,,,,,,,"LONG LAKE HOMES",,,,,"LONG LAKE HOMES","15915 KATY FWY STE 405",HOUSTON,TX,77094-1710,"(281) 646-1727",http://www.longlakeltd.com/,,"DAVID BIGLER",
TX,HARRIS,2006120084,"Single Family Homes",7/16/2020,,71000,2650,"18903 GREATER OAKS CT",HOUSTON,TX,77356,"GRAND OAKS",,CONTRACTOR,,,,,,,,,,,"LONG LAKE HOMES",,,,,"LONG LAKE HOMES","15915 KATY FWY STE 405",HOUSTON,TX,77094-1710,"(281) 646-1727",http://www.longlakeltd.com/,,"DAVID BIGLER",
TX,HARRIS,2006120086,"Single Family Homes",7/16/2020,,68000,2794,"4607 RICHARDS RILL CT",HOUSTON,TX,77356,"GRAND OAKS",,CONTRACTOR,,,,,,,,,,,"LONG LAKE HOMES",,,,,"LONG LAKE HOMES","15915 KATY FWY STE 405",HOUSTON,TX,77094-1710,"(281) 646-1727",http://www.longlakeltd.com/,,"DAVID BIGLER",
TX,HARRIS,2006120087,"Single Family Homes",7/16/2020,,96000,4187,"4414 BUENTELLO DR",HOUSTON,TX,77356,"WESTFIELD RANCH",,CONTRACTOR,,,,,,,,,,,"LONG LAKE HOMES",,,,,"LONG LAKE HOMES","15915 KATY FWY STE 405",HOUSTON,TX,77094-1710,"(281) 646-1727",http://www.longlakeltd.com/,,"DAVID BIGLER",
TX,HARRIS,2006120088,"Single Family Homes",7/16/2020,,64000,2177,"20719 IRON TIMBER LN",HOUSTON,TX,77356,"WESTFIELD RANCH",,CONTRACTOR,,,,,,,,,,,"LONG LAKE HOMES",,,,,"LONG LAKE HOMES","15915 KATY FWY STE 405",HOUSTON,TX,77094-1710,"(281) 646-1727",http://www.longlakeltd.com/,,"DAVID BIGLER",
TX,HARRIS,2006120090,"Single Family Homes",7/16/2020,,66000,1940,"4222 SWAYING TREE LN",HOUSTON,TX,77356,"WESTFIELD RANCH",,CONTRACTOR,,,,,,,,,,,"LONG LAKE HOMES",,,,,"LONG LAKE HOMES","15915 KATY FWY STE 405",HOUSTON,TX,77094-1710,"(281) 646-1727",http://www.longlakeltd.com/,,"DAVID BIGLER",
TX,HARRIS,2006150009,"Single Family Homes",7/16/2020,,72000,3003,"15314 KINORD RUN DR",HOUSTON,TX,77356,BALMORAL,,CONTRACTOR,,,,,,,,,,,"LONG LAKE HOMES",,,,,"LONG LAKE HOMES","15915 KATY FWY STE 405",HOUSTON,TX,77094-1710,"(281) 646-1727",http://www.longlakeltd.com/,,"DAVID BIGLER",
TX,HARRIS,2006150010,"Single Family Homes",7/16/2020,,64000,2177,"15414 CRATHIE BEND DR",HOUSTON,TX,77356,BALMORAL,,CONTRACTOR,,,,,,,,,,,"LONG LAKE HOMES",,,,,"LONG LAKE HOMES","15915 KATY FWY STE 405",HOUSTON,TX,77094-1710,"(281) 646-1727",http://www.longlakeltd.com/,,"DAVID BIGLER",
TX,HARRIS,2003260091,"Single Family Homes",7/16/2020,,315675,3676,"6318 BLUESTEM MEADOW TRCE",HOUSTON,TX,77356,ELYSON,,CONTRACTOR,,,,,,,,,,,"PERRY HOMES",,,,,"PERRY HOMES","9000 GULF FWY",HOUSTON,TX,77017-7018,"(713) 417-1396",,,,
TX,HARRIS,2006100180,"Single Family Homes",7/16/2020,,100800,2240,"21614 ANDERWOOD BAY LN",HOUSTON,TX,77356,"JASMINE HEIGHTS",,CONTRACTOR,,,,,,,,,,,"DR HORTON",,,,,"DR HORTON","14100 SOUTHWEST",HOUSTON,TX,77478,"(281) 201-5559",,,,
TX,HARRIS,2006100181,"Single Family Homes",7/16/2020,,89505,1957,"21618 ANDERWOOD BAY LN",HOUSTON,TX,77356,"JASMINE HEIGHTS",,CONTRACTOR,,,,,,,,,,,"DR HORTON",,,,,"DR HORTON","14100 SOUTHWEST",HOUSTON,TX,77478,"(281) 201-5559",,,,
TX,HARRIS,2006110011,"Single Family Homes",7/16/2020,,95130,2114,"4718 ALBA ASH LN",HOUSTON,TX,77356,"VENTANA LAKES",,CONTRACTOR,,,,,,,,,,,"DR HORTON",,,,,"DR HORTON","14100 SOUTHWEST",HOUSTON,TX,77478,"(281) 201-5559",,,,
TX,HARRIS,2006120078,"Single Family Homes",7/16/2020,,216000,3326,"13035 MILLS GROVE DR",HOUSTON,TX,77356,"MILLS CREEK CROSSING",,CONTRACTOR,,,,,,,,,,,"KB HOME",,,,,"KB HOME","11314 RICHMOND AVE",HOUSTON,TX,77082-2616,"(281) 668-3800",,,,
TX,HARRIS,2006120071,"Single Family Homes",7/16/2020,,135000,2070,"5243 CRIMSON FLAGG CT",HOUSTON,TX,77356,"KATY MANOR",,CONTRACTOR,,,,,,,,,,,"KB HOME",,,,,"KB HOME","11314 RICHMOND AVE",HOUSTON,TX,77082-2616,"(281) 668-3800",,,,
TX,HARRIS,2006120069,"Single Family Homes",7/16/2020,,180000,2770,"5250 CRIMSON FLAGG CT",HOUSTON,TX,77356,"KATY MANOR",,CONTRACTOR,,,,,,,,,,,"KB HOME",,,,,"KB HOME","11314 RICHMOND AVE",HOUSTON,TX,77082-2616,"(281) 668-3800",,,,
TX,HARRIS,2006120062,"Single Family Homes",7/16/2020,,109000,1679,"5218 CRIMSON FLAGG CT",HOUSTON,TX,77356,"KATY MANOR",,CONTRACTOR,,,,,,,,,,,"KB HOME",,,,,"KB HOME","11314 RICHMOND AVE",HOUSTON,TX,77082-2616,"(281) 668-3800",,,,
TX,HARRIS,2006120058,"Single Family Homes",7/16/2020,,199000,3062,"16506 LIVE OAK CANYON DR",HOUSTON,TX,77356,"HILLSDALE CREEK",,CONTRACTOR,,,,,,,,,,,"KB HOME",,,,,"KB HOME","11314 RICHMOND AVE",HOUSTON,TX,77082-2616,"(281) 668-3800",,,,
TX,HARRIS,2006120034,"Single Family Homes",7/16/2020,,,4145,"16230 WHITEOAK CANYON DR",HOUSTON,TX,77356,GROVES,,CONTRACTOR,,,,,,,,,,,"WESTIN HOMES",,,,,"WESTIN HOMES","1 SUGAR CREEK CENTER BLVD STE 600","SUGAR LAND",TX,77478-3787,"(281) 240-1551",http://www.westin-homes.com,,,
TX,HARRIS,2006050173,"Single Family Homes",7/16/2020,,111000,1692,"602 BIG DEER DR",HOUSTON,TX,77356,"HAPPY HIDE A WAY",,"CASH VAN NESS","602 BIG DEER DR",HOUSTON,TX,77356,,Owner,,,,,OWNER,,,,,OWNER,,,,,,,,,
TX,HARRIS,2006100117,"Single Family Homes",7/16/2020,,121000,2429,"12739 GALLOWHILL DR",HOUSTON,TX,77356,BALMORAL,,CONTRACTOR,,,,,,,,,,,"CENSEO HOMES",,,,,"CENSEO HOMES","1800 AUGUSTA DR",HOUSTON,TX,77057-3149,"(281) 932-5303",,,,
TX,HARRIS,2006150025,"Single Family Homes",7/16/2020,,155840,2208,"13751 EVANSDALE LN",HOUSTON,TX,77356,"ELDRIDGE PARK",,CONTRACTOR,,,,,,,,,,,"K HOVNANIAN HOMES",,,,,"K HOVNANIAN HOMES","13111 NORTHWEST FWY STE 200",HOUSTON,TX,77040-6311,"(713) 460-0264",,,,
TX,HARRIS,2006100165,"Single Family Homes",7/16/2020,,80652,1826,"21019 SOLSTICE POINT DR",HOUSTON,TX,77356,"BAUER LANDING",,CONTRACTOR,,,,,,,,,,,"LGI HOMES",,,,,"LGI HOMES","1450 LAKE ROBBINS SUITE 430",CONROE,TX,77380,"(210) 563-4648",,"(281) 210-2601",,
TX,HARRIS,2006100169,"Single Family Homes",7/16/2020,,89065,2213,"21015 SOLSTICE POINT DR",HOUSTON,TX,77356,"BAUER LANDING",,CONTRACTOR,,,,,,,,,,,"LGI HOMES",,,,,"LGI HOMES","1450 LAKE ROBBINS SUITE 430",CONROE,TX,77380,"(210) 563-4648",,"(281) 210-2601",,
TX,HARRIS,2006100171,"Single Family Homes",7/16/2020,,91878,2262,"21011 SOLSTICE POINT RD",HOUSTON,TX,77356,"BAUER LANDING",,CONTRACTOR,,,,,,,,,,,"LGI HOMES",,,,,"LGI HOMES","1450 LAKE ROBBINS SUITE 430",CONROE,TX,77380,"(210) 563-4648",,"(281) 210-2601",,
TX,HARRIS,2006100172,"Single Family Homes",7/16/2020,,80652,1826,"21007 SOLSTICE POINT DR",HOUSTON,TX,77356,"BAUER LANDING",,CONTRACTOR,,,,,,,,,,,"LGI HOMES",,,,,"LGI HOMES","1450 LAKE ROBBINS SUITE 430",CONROE,TX,77380,"(210) 563-4648",,"(281) 210-2601",,
TX,HARRIS,2006100176,"Single Family Homes",7/16/2020,,89065,2213,"21003 SOLSTICE POINT DR",HOUSTON,TX,77356,"BAUER LANDING",,CONTRACTOR,,,,,,,,,,,"LGI HOMES",,,,,"LGI HOMES","1450 LAKE ROBBINS SUITE 430",CONROE,TX,77380,"(210) 563-4648",,"(281) 210-2601",,
TX,HARRIS,2006090024,"Single Family Homes",7/16/2020,,120000,2544,"642 BATTEN WAY",HOUSTON,TX,77356,NEWPORT,,CONTRACTOR,,,,,,,,,,,"GEHAN HOMES",,,,,"GEHAN HOMES","2050 W SAM HOUSTON PKWY S",HOUSTON,TX,77042-2079,"(713) 243-3545",http://www.gehanhomes.com,,,
TX,HARRIS,2006090027,"Single Family Homes",7/16/2020,,101000,2409,"526 NARVIK BAY CT",HOUSTON,TX,77356,NEWPORT,,CONTRACTOR,,,,,,,,,,,"GEHAN HOMES",,,,,"GEHAN HOMES","2050 W SAM HOUSTON PKWY S",HOUSTON,TX,77042-2079,"(713) 243-3545",http://www.gehanhomes.com,,,
TX,HARRIS,2006110069,"Single Family Homes",7/16/2020,,112000,2360,"12819 SILVERBANK RUN DR",HOUSTON,TX,77356,BALMORAL,,CONTRACTOR,,,,,,,,,,,"GEHAN HOMES",,,,,"GEHAN HOMES","2050 W SAM HOUSTON PKWY S",HOUSTON,TX,77042-2079,"(713) 243-3545",http://www.gehanhomes.com,,,
TX,HARRIS,2006110071,"Single Family Homes",7/16/2020,,96000,2110,"12707 GALLOWHILL DR",HOUSTON,TX,77356,BALMORAL,,CONTRACTOR,,,,,,,,,,,"GEHAN HOMES",,,,,"GEHAN HOMES","2050 W SAM HOUSTON PKWY S",HOUSTON,TX,77042-2079,"(713) 243-3545",http://www.gehanhomes.com,,,
TX,HARRIS,2006120109,"Single Family Homes",7/16/2020,,114730,2086,"24034 FARMSTEAD DR",HOUSTON,TX,77356,WINDROW,,CONTRACTOR,,,,,,,,,,,"CASTLEROCK COMMUNITIES",,,,,"CASTLEROCK COMMUNITIES","7670 WOODWAY DR STE 300",HOUSTON,TX,77063-1520,"(713) 600-7000",http://c-rock.com,"(713) 600-0000",,
TX,HARRIS,2006120123,"Single Family Homes",7/16/2020,,108185,1967,"17927 DAISY TERRACE DR",HOUSTON,TX,77356,WINDROW,,CONTRACTOR,,,,,,,,,,,"CASTLEROCK COMMUNITIES",,,,,"CASTLEROCK COMMUNITIES","7670 WOODWAY DR STE 300",HOUSTON,TX,77063-1520,"(713) 600-7000",http://c-rock.com,"(713) 600-0000",,
TX,HARRIS,2006120130,"Single Family Homes",7/16/2020,,100130,1766,"24030 FARMSTEAD DR",HOUSTON,TX,77356,WINDROW,,CONTRACTOR,,,,,,,,,,,"CASTLEROCK COMMUNITIES",,,,,"CASTLEROCK COMMUNITIES","7670 WOODWAY DR STE 300",HOUSTON,TX,77063-1520,"(713) 600-7000",http://c-rock.com,"(713) 600-0000",,
TX,HARRIS,2006040054,"Single Family Homes",7/16/2020,,208170,2313,"31206 BIRCH MILLS DR",HOUSTON,TX,77356,DELLROSE,,CONTRACTOR,,,,,,,,,,,"EHT OF TEXAS LP",,,,,"EHT OF TEXAS LP","10235 LITTLE",HOUSTON,TX,77040,"(713) 557-3685",,,,
TX,HARRIS,2006080025,"Single Family Homes",7/16/2020,,138600,1540,"31215 BIRCH MILLS DR",HOUSTON,TX,77356,DELLROSE,,CONTRACTOR,,,,,,,,,,,"EHT OF TEXAS LP",,,,,"EHT OF TEXAS LP","10235 LITTLE",HOUSTON,TX,77040,"(713) 557-3685",,,,
TX,HARRIS,2006100126,"Single Family Homes",7/16/2020,,138600,1540,"17442 TIDEWATER CYPRESS TRL",HOUSTON,TX,77356,DELLROSE,,CONTRACTOR,,,,,,,,,,,"EHT OF TEXAS LP",,,,,"EHT OF TEXAS LP","10235 LITTLE",HOUSTON,TX,77040,"(713) 557-3685",,,,
TX,HARRIS,2005190059,"Single Family Homes",7/16/2020,,110000,2100,"24510 KATEX BLVD",HOUSTON,TX,77356,KATEX,,"ARTURO & JOSEFINA RODRIGUEZ","24510 KATEX BLVD",HOUSTON,TX,77356,,Owner,,,,,OWNER,,,,,OWNER,,,,,,,,,
TX,HARRIS,2006120139,"Single Family Homes",7/16/2020,,100130,1766,"24022 FARMSTEAD DR",HOUSTON,TX,77356,WINDROW,,CONTRACTOR,,,,,,,,,,,"CASTLEROCK COMMUNITIES",,,,,"CASTLEROCK COMMUNITIES","7670 WOODWAY DR STE 300",HOUSTON,TX,77063-1520,"(713) 600-7000",http://c-rock.com,"(713) 600-0000",,
TX,HARRIS,2006120145,"Single Family Homes",7/16/2020,,126555,2301,"24039 FARMSTEAD DR",HOUSTON,TX,77356,WINDROW,,CONTRACTOR,,,,,,,,,,,"CASTLEROCK COMMUNITIES",,,,,"CASTLEROCK COMMUNITIES","7670 WOODWAY DR STE 300",HOUSTON,TX,77063-1520,"(713) 600-7000",http://c-rock.com,"(713) 600-0000",,
TX,HARRIS,2006050126,"Single Family Homes",7/16/2020,,112515,2501,"4734 LOMBARDY FIRE TRL",HOUSTON,TX,77356,"VENTANA LAKES",,CONTRACTOR,,,,,,,,,,,"DR HORTON",,,,,"DR HORTON","14100 SOUTHWEST",HOUSTON,TX,77478,"(281) 201-5559",,,,
TX,HARRIS,2006100123,"Single Family Homes",7/15/2020,,132885,2225,"5402 BETHEL CHASE LN",HOUSTON,TX,77356,"JASMINE HEIGHTS",,CONTRACTOR,,,,,,,,,,,"DR HORTON",,,,,"DR HORTON","14100 SOUTHWEST",HOUSTON,TX,77478,"(281) 201-5559",,,,
TX,HARRIS,2006100141,"Single Family Homes",7/16/2020,,132975,2132,"5406 BETHEL CHASE LN",HOUSTON,TX,77356,"JASMINE HEIGHTS",,CONTRACTOR,,,,,,,,,,,"DR HORTON",,,,,"DR HORTON","14100 SOUTHWEST",HOUSTON,TX,77478,"(281) 201-5559",,,,
TX,HARRIS,2006100147,"Single Family Homes",7/16/2020,,96525,2165,"5414 BETHEL CHASE LN",HOUSTON,TX,77356,"JASMINE HEIGHTS",,CONTRACTOR,,,,,,,,,,,"DR HORTON",,,,,"DR HORTON","14100 SOUTHWEST",HOUSTON,TX,77478,"(281) 201-5559",,,,
TX,HARRIS,2006100150,"Single Family Homes",7/16/2020,,132975,2132,"21603 WARIALDA MANOR LN",HOUSTON,TX,77356,"JASMINE HEIGHTS",,CONTRACTOR,,,,,,,,,,,"DR HORTON",,,,,"DR HORTON","14100 SOUTHWEST",HOUSTON,TX,77478,"(281) 201-5559",,,,
TX,HARRIS,2006100151,"Single Family Homes",7/16/2020,,96525,2145,"21607 WARIALDA MANOR LN",HOUSTON,TX,77356,"JASMINE HEIGHTS",,CONTRACTOR,,,,,,,,,,,"DR HORTON",,,,,"DR HORTON","14100 SOUTHWEST",HOUSTON,TX,77478,"(281) 201-5559",,,,
TX,HARRIS,2006100158,"Single Family Homes",7/16/2020,,100800,2240,"21615 WARIALDA MANOR LN",HOUSTON,TX,77356,"JASMINE HEIGHTS",,CONTRACTOR,,,,,,,,,,,"DR HORTON",,,,,"DR HORTON","14100 SOUTHWEST",HOUSTON,TX,77478,"(281) 201-5559",,,,
TX,HARRIS,2006100160,"Single Family Homes",7/16/2020,,107460,2390,"21619 WARIALDA MANOR LN",HOUSTON,TX,77356,"JASMINE HEIGHTS",,CONTRACTOR,,,,,,,,,,,"DR HORTON",,,,,"DR HORTON","14100 SOUTHWEST",HOUSTON,TX,77478,"(281) 201-5559",,,,
TX,HARRIS,2006100162,"Single Family Homes",7/16/2020,,110700,2460,"21502 ANDERWOOD BAY LN",HOUSTON,TX,77356,"JASMINE HEIGHTS",,CONTRACTOR,,,,,,,,,,,"DR HORTON",,,,,"DR HORTON","14100 SOUTHWEST",HOUSTON,TX,77478,"(281) 201-5559",,,,
TX,HARRIS,2006100167,"Single Family Homes",7/16/2020,,89505,1957,"21506 ANDERWOOD BAY LN",HOUSTON,TX,77356,"JASMINE HEIGHTS",,CONTRACTOR,,,,,,,,,,,"DR HORTON",,,,,"DR HORTON","14100 SOUTHWEST",HOUSTON,TX,77478,"(281) 201-5559",,,,
TX,HARRIS,2006100168,"Single Family Homes",7/16/2020,,96525,2165,"21510 ANDERWOOD BAY LN",HOUSTON,TX,77356,"JASMINE HEIGHTS",,CONTRACTOR,,,,,,,,,,,"DR HORTON",,,,,"DR HORTON","14100 SOUTHWEST",HOUSTON,TX,77478,"(281) 201-5559",,,,
TX,HARRIS,2006100170,"Single Family Homes",7/16/2020,,132975,2141,"21514 ANDERWOOD BAY LN",HOUSTON,TX,77356,"JASMINE HEIGHTS",,CONTRACTOR,,,,,,,,,,,"DR HORTON",,,,,"DR HORTON","14100 SOUTHWEST",HOUSTON,TX,77478,"(281) 201-5559",,,,
TX,HARRIS,2006100175,"Single Family Homes",7/16/2020,,107460,2390,"21518 ANDERWOOD BAY LN",HOUSTON,TX,77356,"JASMINE HEIGHTS",,CONTRACTOR,,,,,,,,,,,"DR HORTON",,,,,"DR HORTON","14100 SOUTHWEST",HOUSTON,TX,77478,"(281) 201-5559",,,,
TX,HARRIS,2006100177,"Single Family Homes",7/16/2020,,89505,1989,"21602 ANDERWOOD BAY LN",HOUSTON,TX,77356,"JASMINE HEIGHTS",,CONTRACTOR,,,,,,,,,,,"DR HORTON",,,,,"DR HORTON","14100 SOUTHWEST",HOUSTON,TX,77478,"(281) 201-5559",,,,
TX,HARRIS,2006100178,"Single Family Homes",7/16/2020,,96525,2145,"21606 ANDERWOOD BAY LN",HOUSTON,TX,77356,"JASMINE HEIGHTS",,CONTRACTOR,,,,,,,,,,,"DR HORTON",,,,,"DR HORTON","14100 SOUTHWEST",HOUSTON,TX,77478,"(281) 201-5559",,,,
TX,HARRIS,2006100179,"Single Family Homes",7/16/2020,,110700,2480,"21610 ANDERWOOD BAY LN",HOUSTON,TX,77356,"JASMINE HEIGHTS",,CONTRACTOR,,,,,,,,,,,"DR HORTON",,,,,"DR HORTON","14100 SOUTHWEST",HOUSTON,TX,77478,"(281) 201-5559",,,,
TX,HARRIS,2006100209,"Single Family Homes",7/16/2020,,103050,2290,"4727 ALBA ASH LN",HOUSTON,TX,77356,"VENTANA LAKES",,CONTRACTOR,,,,,,,,,,,"DR HORTON",,,,,"DR HORTON","14100 SOUTHWEST",HOUSTON,TX,77478,"(281) 201-5559",,,,
TX,HARRIS,2006120135,"Single Family Homes",7/16/2020,,90540,2012,"2423 ALLENDALE GARDEN LN",HOUSTON,TX,77356,BRECKENRIDGE,,CONTRACTOR,,,,,,,,,,,"DR HORTON",,,,,"DR HORTON","14100 SOUTHWEST",HOUSTON,TX,77478,"(281) 201-5559",,,,
TX,HARRIS,2006150001,"Single Family Homes",7/16/2020,,124110,1935,"23131 SPRUCE SUMMIT TRL",HOUSTON,TX,77356,BRECKENRIDGE,,CONTRACTOR,,,,,,,,,,,"DR HORTON",,,,,"DR HORTON","14100 SOUTHWEST",HOUSTON,TX,77478,"(281) 201-5559",,,,
TX,HARRIS,2006150002,"Single Family Homes",7/16/2020,,86580,1924,"2419 ALLENDALE GARDEN LN",HOUSTON,TX,77356,BRECKENRIDGE,,CONTRACTOR,,,,,,,,,,,"DR HORTON",,,,,"DR HORTON","14100 SOUTHWEST",HOUSTON,TX,77478,"(281) 201-5559",,,,
TX,HARRIS,2006150004,"Single Family Homes",7/16/2020,,124110,1935,"2431 ALLENDALE GARDEN LN",HOUSTON,TX,77356,BRECKENRIDGE,,CONTRACTOR,,,,,,,,,,,"DR HORTON",,,,,"DR HORTON","14100 SOUTHWEST",HOUSTON,TX,77478,"(281) 201-5559",,,,
TX,HARRIS,2006150005,"Single Family Homes",7/16/2020,,86580,1924,"2435 ALLENDALE GARDEN LN",HOUSTON,TX,77356,BRECKENRIDGE,,CONTRACTOR,,,,,,,,,,,"DR HORTON",,,,,"DR HORTON","14100 SOUTHWEST",HOUSTON,TX,77478,"(281) 201-5559",,,,
TX,HARRIS,2006110115,"Single Family Homes",7/16/2020,,360500,3578,"16623 LITTLE WOODSTAR CT",HOUSTON,TX,77356,GROVES,,CONTRACTOR,,,,,,,,,,,"PERRY HOMES",,,,,"PERRY HOMES","9000 GULF FWY",HOUSTON,TX,77017-7018,"(713) 417-1396",,,,
TX,HARRIS,2006110008,"Single Family Homes",7/16/2020,,241800,3720,"2 FRINGETREE BARK CT",HOUSTON,TX,77356,"THE WOODLANDS CREEKSIDE PARK",,CONTRACTOR,,,,,,,,,,,"TRENDMAKER HOMES",,,,,"TRENDMAKER HOMES","16340 PARK TEN PL STE 250",HOUSTON,TX,77084-5144,"(281) 675-3200",,"(281) 675-3251","MARTIN EVANS",
TX,HARRIS,2006120100,"Single Family Homes",7/16/2020,,280000,1900,"16402 LITTLE PINE CREEK DR",HOUSTON,TX,77356,GROVES,,CONTRACTOR,,,,,,,,,,,"HIGHLAND HOMES",,,,,"HIGHLAND HOMES","10930 W SAM HOUSTON PKWY N STE 100",HOUSTON,TX,77064-6331,"(281) 517-9800",,,,
TX,HARRIS,2006110058,"Single Family Homes",7/16/2020,,129845,2841,"16223 NEFF PARK DR",HOUSTON,TX,77356,"STONE CREEK RANCH",,CONTRACTOR,,,,,,,,,,,"DR HORTON",,,,,"DR HORTON","14100 SOUTHWEST",HOUSTON,TX,77478,"(281) 201-5559",,,,
TX,HARRIS,2006110059,"Single Family Homes",7/16/2020,,123255,2739,"16210 NEFF PARK DR",HOUSTON,TX,77356,"STONE CREEK RANCH",,CONTRACTOR,,,,,,,,,,,"DR HORTON",,,,,"DR HORTON","14100 SOUTHWEST",HOUSTON,TX,77478,"(281) 201-5559",,,,
TX,HARRIS,2006110060,"Single Family Homes",7/16/2020,,128655,2859,"16214 NEFF PARK DR",HOUSTON,TX,77356,"STONE CREEK RANCH",,CONTRACTOR,,,,,,,,,,,"DR HORTON",,,,,"DR HORTON","14100 SOUTHWEST",HOUSTON,TX,77478,"(281) 201-5559",,,,
TX,HARRIS,2006110061,"Single Family Homes",7/16/2020,,149670,3326,"16035 BRYCE PECAN WAY",HOUSTON,TX,77356,"STONE CREEK RANCH",,CONTRACTOR,,,,,,,,,,,"DR HORTON",,,,,"DR HORTON","14100 SOUTHWEST",HOUSTON,TX,77478,"(281) 201-5559",,,,
TX,HARRIS,2006110119,"Single Family Homes",7/16/2020,,527030,5326,"17935 BLUE RIDGE SHORES DR",HOUSTON,TX,77356,"TOWNE LAKE",,CONTRACTOR,,,,,,,,,,,"PARTNERS IN BUILDING",,,,,"PARTNERS IN BUILDING","2901 W SAM HOUSTON PKWY N STE C250",HOUSTON,TX,77043-1624,"(713) 937-1121",http://www.partnersinbuilding.com,"(713) 937-1145",,
TX,HARRIS,2005290114,"Single Family Homes",7/16/2020,,345330,2810,"19555 SHADY HIKE LN",HOUSTON,TX,77356,"BRIDGELAND PARKLAND VILLAGE",,CONTRACTOR,,,,,,,,,,,"HIGHLAND HOMES",,,,,"HIGHLAND HOMES","10930 W SAM HOUSTON PKWY N STE 100",HOUSTON,TX,77064-6331,"(281) 517-9800",,,,
TX,HARRIS,2006010013,"Single Family Homes",7/16/2020,,171820,1649,"24054 PRARIE DUST DR",HOUSTON,TX,77356,WINDROW,,CONTRACTOR,,,,,,,,,,,"PULTE HOMES",,,,,"PULTE HOMES","16670 PARK ROW",HOUSTON,TX,77084-6866,"(281) 749-8000",,,,
TX,HARRIS,2006010016,"Single Family Homes",7/16/2020,,195000,1951,"24031 PRARIE DUST LN",HOUSTON,TX,77356,WINDROW,,CONTRACTOR,,,,,,,,,,,"PULTE HOMES",,,,,"PULTE HOMES","16670 PARK ROW",HOUSTON,TX,77084-6866,"(281) 749-8000",,,,
TX,HARRIS,2006010022,"Single Family Homes",7/16/2020,,205000,1436,"24046 PRARIE DUST DR",HOUSTON,TX,77356,WINDROW,,CONTRACTOR,,,,,,,,,,,"PULTE HOMES",,,,,"PULTE HOMES","16670 PARK ROW",HOUSTON,TX,77084-6866,"(281) 749-8000",,,,
TX,HARRIS,2006010027,"Single Family Homes",7/16/2020,,214370,1284,"24059 PRA DR",HOUSTON,TX,77356,WINDROW,,CONTRACTOR,,,,,,,,,,,"PULTE HOMES",,,,,"PULTE HOMES","16670 PARK ROW",HOUSTON,TX,77084-6866,"(281) 749-8000",,,,
TX,HARRIS,2005180158,"Single Family Homes",7/16/2020,,105000,2139,"3914 MARBLING SISTO LN",HOUSTON,TX,77356,"CAMILLO LAKES",,CONTRACTOR,,,,,,,,,,,"LEGEND HOMES",,,,,"LEGEND HOMES","10410 WINDAMERE LAKES BLVD",HOUSTON,TX,77065-4996,"(281) 671-9060",http://legendhomecorp.com/,"(281) 671-9055",,
TX,HARRIS,2002190070,"Single Family Homes",7/16/2020,,60000,,"11712 INDIAN OAKS LN",HOUSTON,TX,77356,,,"JUDITH JIMINEZ","11712 INDIAN OAKS LN",HOUSTON,TX,77356,,Owner,,,,,OWNER,,,,,OWNER,,,,,,,,,
TX,HARRIS,2005270077,"Single Family Homes",7/16/2020,,321165,4941,"19102 GLENMAR DR",HOUSTON,TX,77356,"BRIDGELAND PARKLAND VILLAGE",,CONTRACTOR,,,,,,,,,,,"TRENDMAKER HOMES",,,,,"TRENDMAKER HOMES","16340 PARK TEN PL STE 250",HOUSTON,TX,77084-5144,"(281) 675-3200",,"(281) 675-3251","MARTIN EVANS",
TX,HARRIS,2005200037,"Single Family Homes",7/16/2020,,132031,2754,"6339 WINTHROP TERRACE TRL",HOUSTON,TX,77356,ELYSON,,CONTRACTOR,,,,,,,,,,,"TAYLOR MORRISON OF TEXAS",,,,,"TAYLOR MORRISON OF TEXAS","5353 W SAM HOUSTON PKWY N STE 190",HOUSTON,TX,77041-5186,"(281) 598-3000",,,,
TX,HARRIS,2006010058,"Single Family Homes",7/16/2020,,250600,2301,"12110 MCKAVETT FORT DR",HOUSTON,TX,77356,GROVES,,CONTRACTOR,,,,,,,,,,,"PERRY HOMES",,,,,"PERRY HOMES","9000 GULF FWY",HOUSTON,TX,77017-7018,"(713) 417-1396",,,,
TX,HARRIS,2005280002,"Single Family Homes",7/16/2020,,155840,2208,"13735 EVANSDALE",HOUSTON,TX,77356,"ELDRIDGE PARK",,CONTRACTOR,,,,,,,,,,,"K HOVNANIAN HOMES",,,,,"K HOVNANIAN HOMES","13111 NORTHWEST FWY STE 200",HOUSTON,TX,77040-6311,"(713) 460-0264",,,,
TX,HARRIS,2005280155,"Single Family Homes",7/16/2020,,143080,2439,"15019 STARRY HILLS CT",HOUSTON,TX,77356,"SUNSET RIDGE",,CONTRACTOR,,,,,,,,,,,"K HOVNANIAN HOMES",,,,,"K HOVNANIAN HOMES","13111 NORTHWEST FWY STE 200",HOUSTON,TX,77040-6311,"(713) 460-0264",,,,
TX,HARRIS,2005310024,"Single Family Homes",7/16/2020,,97300,2764,"24214 WILD BRAMBLE RD",HOUSTON,TX,77356,"KATY POINTE",,CONTRACTOR,,,,,,,,,,,"K HOVNANIAN HOMES",,,,,"K HOVNANIAN HOMES","13111 NORTHWEST FWY STE 200",HOUSTON,TX,77040-6311,"(713) 460-0264",,,,
TX,HARRIS,2005310026,"Single Family Homes",7/16/2020,,116200,2046,"24230 WILD BRAMBLE RD",HOUSTON,TX,77356,"KATY POINTE ",,CONTRACTOR,,,,,,,,,,,"K HOVNANIAN HOMES",,,,,"K HOVNANIAN HOMES","13111 NORTHWEST FWY STE 200",HOUSTON,TX,77040-6311,"(713) 460-0264",,,,
TX,HARRIS,2005310028,"Single Family Homes",7/16/2020,,161000,2724,"24234 WILD BRAMBLE RD",HOUSTON,TX,77356,"KATY POINTE ",,CONTRACTOR,,,,,,,,,,,"K HOVNANIAN HOMES",,,,,"K HOVNANIAN HOMES","13111 NORTHWEST FWY STE 200",HOUSTON,TX,77040-6311,"(713) 460-0264",,,,
TX,HARRIS,2005310031,"Single Family Homes",7/16/2020,,161000,2724,"4403 SANDHILL TERRACE LN",HOUSTON,TX,77356,"KATY POINTE",,CONTRACTOR,,,,,,,,,,,"K HOVNANIAN HOMES",,,,,"K HOVNANIAN HOMES","13111 NORTHWEST FWY STE 200",HOUSTON,TX,77040-6311,"(713) 460-0264",,,,
TX,HARRIS,2005310033,"Single Family Homes",7/16/2020,,116200,2046,"4414 LOW MEADOW LN",HOUSTON,TX,77356,"KATY POINTE",,CONTRACTOR,,,,,,,,,,,"K HOVNANIAN HOMES",,,,,"K HOVNANIAN HOMES","13111 NORTHWEST FWY STE 200",HOUSTON,TX,77040-6311,"(713) 460-0264",,,,
TX,HARRIS,2005310034,"Single Family Homes",7/16/2020,,186210,3167,"4318 UPLAND STREAM LN",HOUSTON,TX,77356,"KATY POINTE",,CONTRACTOR,,,,,,,,,,,"K HOVNANIAN HOMES",,,,,"K HOVNANIAN HOMES","13111 NORTHWEST FWY STE 200",HOUSTON,TX,77040-6311,"(713) 460-0264",,,,
TX,HARRIS,2005290186,"Single Family Homes",7/16/2020,,310238,2790,"19323 HACKBERRY HOLLOW TRL",HOUSTON,TX,77356,"BRIDGELAND PARKLAND VILLAGE",,CONTRACTOR,,,,,,,,,,,"NEWMARK HOMES",,,,,"NEWMARK HOMES","10455 BRIAR FOREST SUITE 200",HOUSTON,TX,77042,"(713) 346-0200",http://www.newmarkhomes.com/,"(713) 346-0226",,
TX,HARRIS,2005290192,"Single Family Homes",7/16/2020,,283089,3162,"14247 ARCHER COUNTRY TRL",HOUSTON,TX,77356,"COPPER RIDGE AT INDIAN",,CONTRACTOR,,,,,,,,,,,"NEWMARK HOMES",,,,,"NEWMARK HOMES","10455 BRIAR FOREST SUITE 200",HOUSTON,TX,77042,"(713) 346-0200",http://www.newmarkhomes.com/,"(713) 346-0226",,
TX,HARRIS,2006010021,"Single Family Homes",7/16/2020,,344790,2250,"19523 SHADY HIKE LN",HOUSTON,TX,77356,"BRIDGELAND PARKLAND VILLAGE",,CONTRACTOR,,,,,,,,,,,"HIGHLAND HOMES",,,,,"HIGHLAND HOMES","10930 W SAM HOUSTON PKWY N STE 100",HOUSTON,TX,77064-6331,"(281) 517-9800",,,,
TX,HARRIS,2006010023,"Single Family Homes",7/16/2020,,355950,2647,"19547 SHADY HIKE LN",HOUSTON,TX,77356,"BRIDGELAND PARKLAND VILLAGE",,CONTRACTOR,,,,,,,,,,,"HIGHLAND HOMES",,,,,"HIGHLAND HOMES","10930 W SAM HOUSTON PKWY N STE 100",HOUSTON,TX,77064-6331,"(281) 517-9800",,,,
TX,HARRIS,2006010060,"Single Family Homes",7/16/2020,,347010,2380,"19539 SHADY HIKE LN",HOUSTON,TX,77356,"BRIDGELAND PARKLAND VILLAGE",,CONTRACTOR,,,,,,,,,,,"HIGHLAND HOMES",,,,,"HIGHLAND HOMES","10930 W SAM HOUSTON PKWY N STE 100",HOUSTON,TX,77064-6331,"(281) 517-9800",,,,
TX,HARRIS,2006010106,"Single Family Homes",7/16/2020,,201380,2047,"4439 RUSHING RIDGE CT",HOUSTON,TX,77356,"RETREAT AT CHAMPIONS LANDING",,CONTRACTOR,,,,,,,,,,,"PULTE HOMES",,,,,"PULTE HOMES","16670 PARK ROW",HOUSTON,TX,77084-6866,"(281) 749-8000",,,,
TX,HARRIS,2005290046,"Single Family Homes",7/16/2020,,322260,2437,"23930 NORTHWOOD TERRACE LN",HOUSTON,TX,77356,ELYSON,,CONTRACTOR,,,,,,,,,,,"PULTE HOMES",,,,,"PULTE HOMES","16670 PARK ROW",HOUSTON,TX,77084-6866,"(281) 749-8000",,,,
TX,HARRIS,2006010113,"Single Family Homes",7/16/2020,,183000,4074,"18019 COWBOY CREEK TRL",HOUSTON,TX,77356,"TOWNE LAKE",,CONTRACTOR,,,,,,,,,,,"VILLAGE BUILDERS",,,,,"VILLAGE BUILDERS","550 GREENS PKWY STE 210",HOUSTON,TX,77067-4538,"(281) 873-4663",,,,
TX,HARRIS,2005270038,"Single Family Homes",7/16/2020,,243000,3690,"9006 CAPROCK BLUFF LN",HOUSTON,TX,77356,MIRAMESA,,CONTRACTOR,,,,,,,,,,,"WESTIN HOMES",,,,,"WESTIN HOMES","1 SUGAR CREEK CENTER BLVD STE 600","SUGAR LAND",TX,77478-3787,"(281) 240-1551",http://www.westin-homes.com,,,
TX,HARRIS,2006010107,"Single Family Homes",7/16/2020,,137000,3013,"15202 QUEENS WATCHDOG CT",HOUSTON,TX,77356,"BRIDGELAND PARKLAND VILLAGE",,CONTRACTOR,,,,,,,,,,,"LENNAR HOMES",,,,,"LENNAR HOMES","550 GREENS PKWY",HOUSTON,TX,77067-4537,"(281) 875-1000",http://www.lennar.com/,,,
TX,HARRIS,2006010110,"Single Family Homes",7/16/2020,,157000,2847,"8919 BEACON MILL DR",HOUSTON,TX,77356,MIRAMESA,,CONTRACTOR,,,,,,,,,,,"LENNAR HOMES",,,,,"LENNAR HOMES","550 GREENS PKWY",HOUSTON,TX,77067-4537,"(281) 875-1000",http://www.lennar.com/,,,
TX,HARRIS,2006010111,"Single Family Homes",7/16/2020,,154000,3245,"20127 NEW SUNRISE TRL",HOUSTON,TX,77356,MIRAMESA,,CONTRACTOR,,,,,,,,,,,"LENNAR HOMES",,,,,"LENNAR HOMES","550 GREENS PKWY",HOUSTON,TX,77067-4537,"(281) 875-1000",http://www.lennar.com/,,,
TX,HARRIS,2005290162,"Single Family Homes",7/16/2020,,130900,2521,"3106 ATASCOCITA VALE DR",HOUSTON,TX,77356,"ATASCOCITA SPRINGS",,CONTRACTOR,,,,,,,,,,,"LEGEND HOMES",,,,,"LEGEND HOMES","10410 WINDAMERE LAKES BLVD",HOUSTON,TX,77065-4996,"(281) 671-9060",http://legendhomecorp.com/,"(281) 671-9055",,
TX,HARRIS,2005290213,"Single Family Homes",7/16/2020,,132000,2474,"7210 LAGUNA LAKE DR",HOUSTON,TX,77356,"LAUREL PARK",,CONTRACTOR,,,,,,,,,,,"LEGEND HOMES",,,,,"LEGEND HOMES","10410 WINDAMERE LAKES BLVD",HOUSTON,TX,77065-4996,"(281) 671-9060",http://legendhomecorp.com/,"(281) 671-9055",,
TX,HARRIS,2005310001,"Single Family Homes",7/16/2020,,185000,3690,"7422 EVELYN GROVE DR",HOUSTON,TX,77356,"LAUREL PARK",,CONTRACTOR,,,,,,,,,,,"LEGEND HOMES",,,,,"LEGEND HOMES","10410 WINDAMERE LAKES BLVD",HOUSTON,TX,77065-4996,"(281) 671-9060",http://legendhomecorp.com/,"(281) 671-9055",,
TX,HARRIS,2005310002,"Single Family Homes",7/16/2020,,185000,3690,"20818 STONEBREAK LN",HOUSTON,TX,77356,"LAUREL PARK",,CONTRACTOR,,,,,,,,,,,"LEGEND HOMES",,,,,"LEGEND HOMES","10410 WINDAMERE LAKES BLVD",HOUSTON,TX,77065-4996,"(281) 671-9060",http://legendhomecorp.com/,"(281) 671-9055",,
TX,HARRIS,2005310003,"Single Family Homes",7/16/2020,,137000,2527,"20930 BRADLEY GARDENS DR",HOUSTON,TX,77356,"LAUREL PARK",,CONTRACTOR,,,,,,,,,,,"LEGEND HOMES",,,,,"LEGEND HOMES","10410 WINDAMERE LAKES BLVD",HOUSTON,TX,77065-4996,"(281) 671-9060",http://legendhomecorp.com/,"(281) 671-9055",,
TX,HARRIS,2005310004,"Single Family Homes",7/16/2020,,180000,3704,"20839 SHERWOOD PASS LN",HOUSTON,TX,77356,"LAUREL PARK",,CONTRACTOR,,,,,,,,,,,"LEGEND HOMES",,,,,"LEGEND HOMES","10410 WINDAMERE LAKES BLVD",HOUSTON,TX,77065-4996,"(281) 671-9060",http://legendhomecorp.com/,"(281) 671-9055",,
TX,HARRIS,2005290127,"Single Family Homes",7/16/2020,,100000,2000,"21506 SAFRANO ST",HOUSTON,TX,77356,"ROSEHILL RESERVE",,CONTRACTOR,,,,,,,,,,,"M/I HOMES",,,,,"M/I HOMES","10910 NORTH SAM HOUSTON PKWY W",HOUSTON,TX,77064,"(832) 912-1012",,,,
TX,HARRIS,2005290124,"Single Family Homes",7/16/2020,,100000,2000,"21615 ALBERTINE DR",HOUSTON,TX,77356,"ROSEHILL RESERVE",,CONTRACTOR,,,,,,,,,,,"M/I HOMES",,,,,"M/I HOMES","10910 NORTH SAM HOUSTON PKWY W",HOUSTON,TX,77064,"(832) 912-1012",,,,
TX,HARRIS,2005290074,"Single Family Homes",7/16/2020,,100000,1800,"19219 SALMON PINK PL",HOUSTON,TX,77356,"ROSEHILL RESERVE",,CONTRACTOR,,,,,,,,,,,"M/I HOMES",,,,,"M/I HOMES","10910 NORTH SAM HOUSTON PKWY W",HOUSTON,TX,77064,"(832) 912-1012",,,,
TX,HARRIS,2005290045,"Single Family Homes",7/16/2020,,144000,3200,"16027 BRYCE PECAN WAY",HOUSTON,TX,77356,"STONE CREEK RANCH",,CONTRACTOR,,,,,,,,,,,"DR HORTON",,,,,"DR HORTON","14100 SOUTHWEST",HOUSTON,TX,77478,"(281) 201-5559",,,,
TX,HARRIS,2005290073,"Single Family Homes",7/16/2020,,118440,2527,"16211 NEFF PARK DR",HOUSTON,TX,77356,"STONE CREEK RANCH",,CONTRACTOR,,,,,,,,,,,"DR HORTON",,,,,"DR HORTON","14100 SOUTHWEST",HOUSTON,TX,77478,"(281) 201-5559",,,,
TX,HARRIS,2005290077,"Single Family Homes",7/16/2020,,122535,2723,"16215 NEFF PARK DR",HOUSTON,TX,77356,"STONE CREEK RANCH",,CONTRACTOR,,,,,,,,,,,"DR HORTON",,,,,"DR HORTON","14100 SOUTHWEST",HOUSTON,TX,77478,"(281) 201-5559",,,,
TX,HARRIS,2005290080,"Single Family Homes",7/16/2020,,130275,2895,"16219 NEFF PARK DR",HOUSTON,TX,77356,"STONE CREEK RANCH",,CONTRACTOR,,,,,,,,,,,"DR HORTON",,,,,"DR HORTON","14100 SOUTHWEST",HOUSTON,TX,77478,"(281) 201-5559",,,,
TX,HARRIS,2006020032,"Single Family Homes",7/16/2020,,117000,2600,"2415 GEORGINA FALLS DR",HOUSTON,TX,77356,BRECKENRIDGE,,CONTRACTOR,,,,,,,,,,,"DR HORTON",,,,,"DR HORTON","14100 SOUTHWEST",HOUSTON,TX,77478,"(281) 201-5559",,,,
TX,HARRIS,2006100137,"Single Family Homes",7/16/2020,,139555,2147,"21327 ECHO MANOR DR",HOUSTON,TX,77356,"BAUER LANDING",,CONTRACTOR,,,,,,,,,,,"LGI HOMES",,,,,"LGI HOMES","1450 LAKE ROBBINS SUITE 430",CONROE,TX,77380,"(210) 563-4648",,"(281) 210-2601",,
TX,HARRIS,2006100138,"Single Family Homes",7/16/2020,,183495,2823,"21331 ECHO MANOR DR",HOUSTON,TX,77356,"BAUER LANDING",,CONTRACTOR,,,,,,,,,,,"LGI HOMES",,,,,"LGI HOMES","1450 LAKE ROBBINS SUITE 430",CONROE,TX,77380,"(210) 563-4648",,"(281) 210-2601",,
TX,HARRIS,2006100140,"Single Family Homes",7/16/2020,,139555,2147,"21334 ECHO MANOR DR",HOUSTON,TX,77356,"BAUER LANDING",,CONTRACTOR,,,,,,,,,,,"LGI HOMES",,,,,"LGI HOMES","1450 LAKE ROBBINS SUITE 430",CONROE,TX,77380,"(210) 563-4648",,"(281) 210-2601",,
TX,HARRIS,2006100143,"Single Family Homes",7/16/2020,,183495,2823,"21330 ECHO MANOR DR",HOUSTON,TX,77356,"BAUER LANDING",,CONTRACTOR,,,,,,,,,,,"LGI HOMES",,,,,"LGI HOMES","1450 LAKE ROBBINS SUITE 430",CONROE,TX,77380,"(210) 563-4648",,"(281) 210-2601",,
TX,HARRIS,2006100144,"Single Family Homes",7/16/2020,,151125,2325,"21326 ECHO MANOR DR",HOUSTON,TX,77356,"BAUER LANDING",,CONTRACTOR,,,,,,,,,,,"LGI HOMES",,,,,"LGI HOMES","1450 LAKE ROBBINS SUITE 430",CONROE,TX,77380,"(210) 563-4648",,"(281) 210-2601",,
TX,HARRIS,2006100146,"Single Family Homes",7/16/2020,,139555,2147,"21322 ECHO MANOR DR",HOUSTON,TX,77356,"BAUER LANDING",,CONTRACTOR,,,,,,,,,,,"LGI HOMES",,,,,"LGI HOMES","1450 LAKE ROBBINS SUITE 430",CONROE,TX,77380,"(210) 563-4648",,"(281) 210-2601",,
TX,HARRIS,2006100148,"Single Family Homes",7/16/2020,,151125,2325,"21318 ECHO MANOR DR",HOUSTON,TX,77356,"BAUER LANDING",,CONTRACTOR,,,,,,,,,,,"LGI HOMES",,,,,"LGI HOMES","1450 LAKE ROBBINS SUITE 430",CONROE,TX,77380,"(210) 563-4648",,"(281) 210-2601",,
TX,HARRIS,2006100155,"Single Family Homes",7/16/2020,,183495,2823,"21314 ECHO MANOR DR",HOUSTON,TX,77356,"BAUER LANDING",,CONTRACTOR,,,,,,,,,,,"LGI HOMES",,,,,"LGI HOMES","1450 LAKE ROBBINS SUITE 430",CONROE,TX,77380,"(210) 563-4648",,"(281) 210-2601",,
TX,HARRIS,2006100156,"Single Family Homes",7/16/2020,,139555,2147,"21310 ECHO MANOR DR",HOUSTON,TX,77356,"BAUER LANDING",,CONTRACTOR,,,,,,,,,,,"LGI HOMES",,,,,"LGI HOMES","1450 LAKE ROBBINS SUITE 430",CONROE,TX,77380,"(210) 563-4648",,"(281) 210-2601",,
TX,HARRIS,2006100157,"Single Family Homes",7/16/2020,,183495,2823,"21306 ECHO MANOR DR",HOUSTON,TX,77356,"BAUER LANDING",,CONTRACTOR,,,,,,,,,,,"LGI HOMES",,,,,"LGI HOMES","1450 LAKE ROBBINS SUITE 430",CONROE,TX,77380,"(210) 563-4648",,"(281) 210-2601",,
TX,HARRIS,2006100112,"Single Family Homes",7/16/2020,,183040,2816,"21203 ECHO MANOR DR",HOUSTON,TX,77356,"BAUER LANDING",,CONTRACTOR,,,,,,,,,,,"LGI HOMES",,,,,"LGI HOMES","1450 LAKE ROBBINS SUITE 430",CONROE,TX,77380,"(210) 563-4648",,"(281) 210-2601",,
TX,HARRIS,2006080163,"Single Family Homes",7/16/2020,,84860,4243,"13702 GREENWOOD GABLE",HOUSTON,TX,77356,"ENCLAVE AT LONGWOOD",,CONTRACTOR,,,,,,,,,,,"MHI MCGUYER HOMEBUILDERS",,,,,"MHI MCGUYER HOMEBUILDERS","7676 WOODWAY DR",HOUSTON,TX,77063-1526,"(713) 260-4107",,,,
TX,HARRIS,2006080162,"Single Family Homes",7/16/2020,,68880,3444,"13706 GREENWOOD GABLE LN",HOUSTON,TX,77356,"ENCLAVE AT LONGWOOD",,CONTRACTOR,,,,,,,,,,,"MHI MCGUYER HOMEBUILDERS",,,,,"MHI MCGUYER HOMEBUILDERS","7676 WOODWAY DR",HOUSTON,TX,77063-1526,"(713) 260-4107",,,,
TX,HARRIS,2005260023,"Single Family Homes",7/16/2020,,61300,3065,"13910 OAKDALE GLEN TRCE",HOUSTON,TX,77356,"ENCLAVE AT LONGWOOD",,CONTRACTOR,,,,,,,,,,,"MHI MCGUYER HOMEBUILDERS",,,,,"MHI MCGUYER HOMEBUILDERS","7676 WOODWAY DR",HOUSTON,TX,77063-1526,"(713) 260-4107",,,,
TX,HARRIS,2005180098,"Single Family Homes",7/16/2020,,61300,3065,"17903 COWBOY CREEK",HOUSTON,TX,77356,"TOWNE LAKE",,CONTRACTOR,,,,,,,,,,,"MHI MCGUYER HOMEBUILDERS",,,,,"MHI MCGUYER HOMEBUILDERS","7676 WOODWAY DR",HOUSTON,TX,77063-1526,"(713) 260-4107",,,,
TX,HARRIS,2006080169,"Single Family Homes",7/16/2020,,61300,3065,"17911 HORSESHOE KNOLL CT",HOUSTON,TX,77356,"TOWNE LAKE",,CONTRACTOR,,,,,,,,,,,"MHI MCGUYER HOMEBUILDERS",,,,,"MHI MCGUYER HOMEBUILDERS","7676 WOODWAY DR",HOUSTON,TX,77063-1526,"(713) 260-4107",,,,
TX,HARRIS,2006080168,"Single Family Homes",7/16/2020,,68880,3444,"18011 ZAGRANSKI CEDAR CT",HOUSTON,TX,77356,"TOWNE LAKE",,CONTRACTOR,,,,,,,,,,,"MHI MCGUYER HOMEBUILDERS",,,,,"MHI MCGUYER HOMEBUILDERS","7676 WOODWAY DR",HOUSTON,TX,77063-1526,"(713) 260-4107",,,,
TX,HARRIS,2005290177,"Single Family Homes",7/16/2020,,59480,2974,"31614 ALMOND VALLEY LN",HOUSTON,TX,77356,DELLROSE,,CONTRACTOR,,,,,,,,,,,"MHI MCGUYER HOMEBUILDERS",,,,,"MHI MCGUYER HOMEBUILDERS","7676 WOODWAY DR",HOUSTON,TX,77063-1526,"(713) 260-4107",,,,
TX,HARRIS,2005180138,"Single Family Homes",7/16/2020,,97380,4669,"12819 S PALOMINO LAKE CIR",HOUSTON,TX,77356,BRIDLECREEK,,CONTRACTOR,,,,,,,,,,,"MHI MCGUYER HOMEBUILDERS",,,,,"MHI MCGUYER HOMEBUILDERS","7676 WOODWAY DR",HOUSTON,TX,77063-1526,"(713) 260-4107",,,,
TX,HARRIS,2005290189,"Single Family Homes",7/16/2020,,71580,3379,"12819 PINTO BOND LN",HOUSTON,TX,77356,BRIDLECREEK,,CONTRACTOR,,,,,,,,,,,"MHI MCGUYER HOMEBUILDERS",,,,,"MHI MCGUYER HOMEBUILDERS","7676 WOODWAY DR",HOUSTON,TX,77063-1526,"(713) 260-4107",,,,
TX,HARRIS,2005200061,"Single Family Homes",7/16/2020,,83980,4199,"17727 WICHITA RIVER WAY",HOUSTON,TX,77356,"TOWNE LAKE",,CONTRACTOR,,,,,,,,,,,"MHI MCGUYER HOMEBUILDERS",,,,,"MHI MCGUYER HOMEBUILDERS","7676 WOODWAY DR",HOUSTON,TX,77063-1526,"(713) 260-4107",,,,
TX,HARRIS,2005290164,"Single Family Homes",7/16/2020,,93300,4465,"9710 SABINAL RIVER CT",HOUSTON,TX,77356,"TOWNE LAKE",,CONTRACTOR,,,,,,,,,,,"MHI MCGUYER HOMEBUILDERS",,,,,"MHI MCGUYER HOMEBUILDERS","7676 WOODWAY DR",HOUSTON,TX,77063-1526,"(713) 260-4107",,,,
TX,HARRIS,2005290172,"Single Family Homes",7/16/2020,,99360,4968,"11206 BRIGHTWOOD HEIGHTS CT",HOUSTON,TX,77356,"TOWNE LAKE",,CONTRACTOR,,,,,,,,,,,"MHI MCGUYER HOMEBUILDERS",,,,,"MHI MCGUYER HOMEBUILDERS","7676 WOODWAY DR",HOUSTON,TX,77063-1526,"(713) 260-4107",,,,
TX,HARRIS,2005190053,"Single Family Homes",7/16/2020,,97965,2799,"15806 DEDICATION DR",HOUSTON,TX,77356,"BRIDGELAND PARKLAND VILLAGE",,CONTRACTOR,,,,,,,,,,,"DAVID WEEKLEY HOMES",,,,,"DAVID WEEKLEY HOMES","14444 NORTHWEST",HOUSTON,TX,77040,"(713) 570-5021",http://www.davidweekleyhomes.com/,,,
TX,HARRIS,2006080166,"Single Family Homes",7/16/2020,,98140,4707,"11219 CHESTNUT RIVER LN",HOUSTON,TX,77356,"TOWNE LAKE",,CONTRACTOR,,,,,,,,,,,"MHI MCGUYER HOMEBUILDERS",,,,,"MHI MCGUYER HOMEBUILDERS","7676 WOODWAY DR",HOUSTON,TX,77063-1526,"(713) 260-4107",,,,
TX,HARRIS,2005290183,"Single Family Homes",7/16/2020,,40180,2009,"5118 MINT ORCHARD DR",HOUSTON,TX,77356,TRACES,,CONTRACTOR,,,,,,,,,,,"MHI MCGUYER HOMEBUILDERS",,,,,"MHI MCGUYER HOMEBUILDERS","7676 WOODWAY DR",HOUSTON,TX,77063-1526,"(713) 260-4107",,,,
TX,HARRIS,2006030134,"Single Family Homes",7/16/2020,,52320,2616,"5010 MINT ORCHARD DR",HOUSTON,TX,77356,TRACES,,CONTRACTOR,,,,,,,,,,,"MHI MCGUYER HOMEBUILDERS",,,,,"MHI MCGUYER HOMEBUILDERS","7676 WOODWAY DR",HOUSTON,TX,77063-1526,"(713) 260-4107",,,,
TX,HARRIS,2005190050,"Single Family Homes",7/16/2020,,105630,3018,"15902 DEDICATION DR",HOUSTON,TX,77356,"BRIDGELAND PARKLAND VILLAGE",,CONTRACTOR,,,,,,,,,,,"DAVID WEEKLEY HOMES",,,,,"DAVID WEEKLEY HOMES","14444 NORTHWEST",HOUSTON,TX,77040,"(713) 570-5021",http://www.davidweekleyhomes.com/,,,
TX,HARRIS,2006030020,"Single Family Homes",7/16/2020,,85000,1634,"10635 LOGGER PINE TR",HOUSTON,TX,77356,"VILLA NORTH",,"GENARO RIVERA","10635 LOGGER PINE TR",HOUSTON,TX,77356,,Owner,,,,,OWNER,,,,,OWNER,,,,,,,,,
TX,HARRIS,2006050090,"Single Family Homes",7/16/2020,,305997,3593,"13802 PAWNEE TRAILS DR",HOUSTON,TX,77356,"COPPER RIDGE AT INDIAN",,CONTRACTOR,,,,,,,,,,,"NEWMARK HOMES",,,,,"NEWMARK HOMES","10455 BRIAR FOREST SUITE 200",HOUSTON,TX,77042,"(713) 346-0200",http://www.newmarkhomes.com/,"(713) 346-0226",,
TX,HARRIS,2006030017,"Single Family Homes",7/16/2020,,85000,1634,"10627 LOGGER PINE TRAILS",HOUSTON,TX,77356,"VILLA NORTH",,"BERNARDINO SANCHEZ","10627 LOGGER PINE TR",HOUSTON,TX,77356,,Owner,,,,,OWNER,,,,,OWNER,,,,,,,,,
TX,HARRIS,2006050145,"Single Family Homes",7/16/2020,,296569,2992,"19311 HACKBERRY HOLLOW TRL",HOUSTON,TX,77356,"BRIDGELAND PARKLAND VILLAGE",,CONTRACTOR,,,,,,,,,,,"NEWMARK HOMES",,,,,"NEWMARK HOMES","10455 BRIAR FOREST SUITE 200",HOUSTON,TX,77042,"(713) 346-0200",http://www.newmarkhomes.com/,"(713) 346-0226",,
TX,HARRIS,2006050176,"Single Family Homes",7/16/2020,,277762,3023,"14226 BASALT SPRING LN",HOUSTON,TX,77356,"COPPER RIDGE AT INDIAN",,CONTRACTOR,,,,,,,,,,,"NEWMARK HOMES",,,,,"NEWMARK HOMES","10455 BRIAR FOREST SUITE 200",HOUSTON,TX,77042,"(713) 346-0200",http://www.newmarkhomes.com/,"(713) 346-0226",,
TX,HARRIS,2006050177,"Single Family Homes",7/16/2020,,331681,3924,"11831 DEEPWATER RIDGE WAY",HOUSTON,TX,77356,"TOWNE LAKE",,CONTRACTOR,,,,,,,,,,,"NEWMARK HOMES",,,,,"NEWMARK HOMES","10455 BRIAR FOREST SUITE 200",HOUSTON,TX,77042,"(713) 346-0200",http://www.newmarkhomes.com/,"(713) 346-0226",,
TX,HARRIS,2006050178,"Single Family Homes",7/16/2020,,290382,3087,"14215 ARCHER COUNTRY TRL",HOUSTON,TX,77356,"COPPER RIDGE AT INDIAN",,CONTRACTOR,,,,,,,,,,,"NEWMARK HOMES",,,,,"NEWMARK HOMES","10455 BRIAR FOREST SUITE 200",HOUSTON,TX,77042,"(713) 346-0200",http://www.newmarkhomes.com/,"(713) 346-0226",,
TX,HARRIS,2006050180,"Single Family Homes",7/16/2020,,294079,3383,"11722 LOST MAPLES SPRINGS DR",HOUSTON,TX,77356,"TOWNE LAKE",,CONTRACTOR,,,,,,,,,,,"NEWMARK HOMES",,,,,"NEWMARK HOMES","10455 BRIAR FOREST SUITE 200",HOUSTON,TX,77042,"(713) 346-0200",http://www.newmarkhomes.com/,"(713) 346-0226",,
TX,HARRIS,2006050181,"Single Family Homes",7/16/2020,,490718,4956,"19502 PECAN FLATS PL",HOUSTON,TX,77356,"BRIDGELAND PARKLAND VILLAGE",,CONTRACTOR,,,,,,,,,,,"NEWMARK HOMES",,,,,"NEWMARK HOMES","10455 BRIAR FOREST SUITE 200",HOUSTON,TX,77042,"(713) 346-0200",http://www.newmarkhomes.com/,"(713) 346-0226",,
TX,HARRIS,2006050182,"Single Family Homes",7/16/2020,,488667,5088,"19523 BIRD BLIND LN",HOUSTON,TX,77356,"BRIDGELAND PARKLAND VILLAGE",,CONTRACTOR,,,,,,,,,,,"NEWMARK HOMES",,,,,"NEWMARK HOMES","10455 BRIAR FOREST SUITE 200",HOUSTON,TX,77042,"(713) 346-0200",http://www.newmarkhomes.com/,"(713) 346-0226",,
TX,HARRIS,2006050183,"Single Family Homes",7/16/2020,,522832,5025,"11223 OAKCREST MANOR LN",HOUSTON,TX,77356,"TOWNE LAKE",,CONTRACTOR,,,,,,,,,,,"NEWMARK HOMES",,,,,"NEWMARK HOMES","10455 BRIAR FOREST SUITE 200",HOUSTON,TX,77042,"(713) 346-0200",http://www.newmarkhomes.com/,"(713) 346-0226",,
TX,HARRIS,2006090050,"Single Family Homes",7/16/2020,,285178,3318,"14219 BASALT SPRING LN",HOUSTON,TX,77356,"COPPER RIDGE AT INDIAN",,CONTRACTOR,,,,,,,,,,,"NEWMARK HOMES",,,,,"NEWMARK HOMES","10455 BRIAR FOREST SUITE 200",HOUSTON,TX,77042,"(713) 346-0200",http://www.newmarkhomes.com/,"(713) 346-0226",,
TX,HARRIS,2006100068,"Single Family Homes",7/16/2020,,542766,5583,"17707 WICHITA RIVER WAY",HOUSTON,TX,77356,"TOWNE LAKE",,CONTRACTOR,,,,,,,,,,,"NEWMARK HOMES",,,,,"NEWMARK HOMES","10455 BRIAR FOREST SUITE 200",HOUSTON,TX,77042,"(713) 346-0200",http://www.newmarkhomes.com/,"(713) 346-0226",,
TX,HARRIS,2006100076,"Single Family Homes",7/16/2020,,316986,3741,"11803 DEEPWATER RIDGE WAY",HOUSTON,TX,77356,"TOWNE LAKE",,CONTRACTOR,,,,,,,,,,,"NEWMARK HOMES",,,,,"NEWMARK HOMES","10455 BRIAR FOREST SUITE 200",HOUSTON,TX,77042,"(713) 346-0200",http://www.newmarkhomes.com/,"(713) 346-0226",,
TX,HARRIS,2006100080,"Single Family Homes",7/16/2020,,320536,3919,"18414 WINDING WILLOW OAK WAY",HOUSTON,TX,77356,"TOWNE LAKE",,CONTRACTOR,,,,,,,,,,,"NEWMARK HOMES",,,,,"NEWMARK HOMES","10455 BRIAR FOREST SUITE 200",HOUSTON,TX,77042,"(713) 346-0200",http://www.newmarkhomes.com/,"(713) 346-0226",,
TX,HARRIS,2006100083,"Single Family Homes",7/16/2020,,501989,5687,"17803 WICHITA RIVER WAY",HOUSTON,TX,77356,"TOWNE LAKE",,CONTRACTOR,,,,,,,,,,,"NEWMARK HOMES",,,,,"NEWMARK HOMES","10455 BRIAR FOREST SUITE 200",HOUSTON,TX,77042,"(713) 346-0200",http://www.newmarkhomes.com/,"(713) 346-0226",,
TX,HARRIS,2006110145,"Single Family Homes",7/16/2020,,472757,5037,"19615 MAHOGANY RIDGE CT",HOUSTON,TX,77356,"TOWNE LAKE",,CONTRACTOR,,,,,,,,,,,"NEWMARK HOMES",,,,,"NEWMARK HOMES","10455 BRIAR FOREST SUITE 200",HOUSTON,TX,77042,"(713) 346-0200",http://www.newmarkhomes.com/,"(713) 346-0226",,
TX,HARRIS,2006100072,"Single Family Homes",7/16/2020,,306195,3181,"6407 WINTHROP TERRACE TRL",HOUSTON,TX,77356,ELYSON,,CONTRACTOR,,,,,,,,,,,"DREES CUSTOM HOMES",,,,,"DREES CUSTOM HOMES","9720 CYPRESSWOOD DR",HOUSTON,TX,77070-3355,"(281) 653-8850",http://www.dreeshomes.com,,,
TX,HARRIS,2006120095,"Single Family Homes",7/16/2020,,313499,2656,"24423 MORNINGSIDE TERRACE CT",HOUSTON,TX,77356,"LAKES AT CREEKSIDE",,CONTRACTOR,,,,,,,,,,,"DAVID WEEKLEY HOMES",,,,,"DAVID WEEKLEY HOMES","14444 NORTHWEST",HOUSTON,TX,77040,"(713) 570-5021",http://www.davidweekleyhomes.com/,,,
TX,HARRIS,2006110027,"Single Family Homes",7/16/2020,,138732,3027,"21546 RESERVE HILL LN",HOUSTON,TX,77356,"ROSEHILL RESERVE",,CONTRACTOR,,,,,,,,,,,"GEHAN HOMES",,,,,"GEHAN HOMES","2050 W SAM HOUSTON PKWY S",HOUSTON,TX,77042-2079,"(713) 243-3545",http://www.gehanhomes.com,,,
TX,HARRIS,2006110032,"Single Family Homes",7/16/2020,,214758,4213,"21322 ROSE LOCH LN",HOUSTON,TX,77356,"ROSEHILL RESERVE",,CONTRACTOR,,,,,,,,,,,"GEHAN HOMES",,,,,"GEHAN HOMES","2050 W SAM HOUSTON PKWY S",HOUSTON,TX,77042-2079,"(713) 243-3545",http://www.gehanhomes.com,,,
TX,HARRIS,2006120099,"Single Family Homes",7/16/2020,,228990,2034,"11318 SAWATCH LN",HOUSTON,TX,77356,"GROVE LANDING",,CONTRACTOR,,,,,,,,,,,"DAVID WEEKLEY HOMES",,,,,"DAVID WEEKLEY HOMES","14444 NORTHWEST",HOUSTON,TX,77040,"(713) 570-5021",http://www.davidweekleyhomes.com/,,,
TX,HARRIS,2006100110,"Single Family Homes",7/16/2020,,103050,2507,"24615 CHARLTON GREEN LN",HOUSTON,TX,77356,"DOVERSHIRE PLACE",,CONTRACTOR,,,,,,,,,,,"DR HORTON",,,,,"DR HORTON","14100 SOUTHWEST",HOUSTON,TX,77478,"(281) 201-5559",,,,
TX,HARRIS,2006100115,"Single Family Homes",7/16/2020,,112515,2717,"24619 CHARLTON GREEN LN",HOUSTON,TX,77356,"DOVERSHIRE PLACE",,CONTRACTOR,,,,,,,,,,,"DR HORTON",,,,,"DR HORTON","14100 SOUTHWEST",HOUSTON,TX,77478,"(281) 201-5559",,,,
TX,HARRIS,2006100067,"Single Family Homes",7/16/2020,,275000,2300,"12130 TEXAS TRUMPET TRL",HOUSTON,TX,77356,GROVES,,CONTRACTOR,,,,,,,,,,,"HIGHLAND HOMES",,,,,"HIGHLAND HOMES","10930 W SAM HOUSTON PKWY N STE 100",HOUSTON,TX,77064-6331,"(281) 517-9800",,,,
TX,HARRIS,2006100154,"Single Family Homes",7/16/2020,,89505,1957,"21611 WARIALDA MANOR LN",HOUSTON,TX,77356,"JASMINE HEIGHTS",,CONTRACTOR,,,,,,,,,,,"DR HORTON",,,,,"DR HORTON","14100 SOUTHWEST",HOUSTON,TX,77478,"(281) 201-5559",,,,
TX,HARRIS,2006100198,"Single Family Homes",7/16/2020,,107550,2390,"22826 GINOSA TRL",HOUSTON,TX,77356,"VENTANA LAKES",,CONTRACTOR,,,,,,,,,,,"DR HORTON",,,,,"DR HORTON","14100 SOUTHWEST",HOUSTON,TX,77478,"(281) 201-5559",,,,
TX,HARRIS,2006100121,"Single Family Homes",7/16/2020,,263165,2637,"5070 KLEIN ORCHARD DR",HOUSTON,TX,77356,TRACES,,CONTRACTOR,,,,,,,,,,,"HIGHLAND HOMES",,,,,"HIGHLAND HOMES","10930 W SAM HOUSTON PKWY N STE 100",HOUSTON,TX,77064-6331,"(281) 517-9800",,,,
TX,HARRIS,2005290215,"Single Family Homes",7/16/2020,,360000,2700,"419 LAGO TRACE DR",HOUSTON,TX,77356,"COMMONS OF LAKE",,"CODY AND AUBREE WERNER","419 LAGO TRACE DR",HOUSTON,TX,77356,,Owner,,,,,OWNER,,,,,OWNER,,,,,,,,,
TX,HARRIS,2006100125,"Single Family Homes",7/16/2020,,229155,2071,"5110 MINT ORCHARD DR",HOUSTON,TX,77356,TRACES,,CONTRACTOR,,,,,,,,,,,"HIGHLAND HOMES",,,,,"HIGHLAND HOMES","10930 W SAM HOUSTON PKWY N STE 100",HOUSTON,TX,77064-6331,"(281) 517-9800",,,,
TX,HARRIS,2006090010,"Single Family Homes",7/16/2020,,171500,2146,"16711 SCENIC GARDENS PLAZA AVE",HOUSTON,TX,77356,"SCENIC GARDENS PLAZA",,"SG LOUETTA LLC","16711 SCENIC GARDENS PLAZA AVE",HOUSTON,TX,77356,,Owner,,,,,OWNER,,,,,OWNER,,,,,,,,,
TX,HARRIS,2006110063,"Single Family Homes",7/16/2020,,223990,1853,"11318 RAVEN CLAW DR",HOUSTON,TX,77356,"GROVE LANDING",,CONTRACTOR,,,,,,,,,,,"DAVID WEEKLEY HOMES",,,,,"DAVID WEEKLEY HOMES","14444 NORTHWEST",HOUSTON,TX,77040,"(713) 570-5021",http://www.davidweekleyhomes.com/,,,
TX,HARRIS,2006110065,"Single Family Homes",7/16/2020,,279490,2083,"9406 KINGFORD VALLEY CT",HOUSTON,TX,77356,"LAKES AT CREEKSIDE",,CONTRACTOR,,,,,,,,,,,"DAVID WEEKLEY HOMES",,,,,"DAVID WEEKLEY HOMES","14444 NORTHWEST",HOUSTON,TX,77040,"(713) 570-5021",http://www.davidweekleyhomes.com/,,,
TX,HARRIS,2006110070,"Single Family Homes",7/16/2020,,265999,1888,"9511 ALIAGA TERRACE CT",HOUSTON,TX,77356,"LAKES AT CREEKSIDE",,CONTRACTOR,,,,,,,,,,,"DAVID WEEKLEY HOMES",,,,,"DAVID WEEKLEY HOMES","14444 NORTHWEST",HOUSTON,TX,77040,"(713) 570-5021",http://www.davidweekleyhomes.com/,,,
TX,HARRIS,2006110034,"Single Family Homes",7/16/2020,,125640,2754,"15323 DINNET BERM DR",HOUSTON,TX,77356,BALMORAL,,CONTRACTOR,,,,,,,,,,,"DR HORTON",,,,,"DR HORTON","14100 SOUTHWEST",HOUSTON,TX,77478,"(281) 201-5559",,,,
TX,HARRIS,2006110035,"Single Family Homes",7/16/2020,,95130,2114,"15319 DINNET BERM DR",HOUSTON,TX,77356,BALMORAL,,CONTRACTOR,,,,,,,,,,,"DR HORTON",,,,,"DR HORTON","14100 SOUTHWEST",HOUSTON,TX,77478,"(281) 201-5559",,,,
TX,HARRIS,2006110036,"Single Family Homes",7/16/2020,,132885,2971,"15315 DINNET BERM DR",HOUSTON,TX,77356,BALMORAL,,CONTRACTOR,,,,,,,,,,,"DR HORTON",,,,,"DR HORTON","14100 SOUTHWEST",HOUSTON,TX,77478,"(281) 201-5559",,,,
TX,HARRIS,2006110037,"Single Family Homes",7/16/2020,,103050,2290,"15311 DINNET BERM DR",HOUSTON,TX,77356,BALMORAL,,CONTRACTOR,,,,,,,,,,,"DR HORTON",,,,,"DR HORTON","14100 SOUTHWEST",HOUSTON,TX,77478,"(281) 201-5559",,,,
TX,HARRIS,2006110039,"Single Family Homes",7/16/2020,,121455,2699,"15218 DINNET BERM DR",HOUSTON,TX,77356,BALMORAL,,CONTRACTOR,,,,,,,,,,,"DR HORTON",,,,,"DR HORTON","14100 SOUTHWEST",HOUSTON,TX,77478,"(281) 201-5559",,,,
TX,HARRIS,2006110043,"Single Family Homes",7/16/2020,,149670,3326,"18211 BAYONNE CHANNEL CT",HOUSTON,TX,77356,"BRIDGES ON LAKE",,CONTRACTOR,,,,,,,,,,,"DR HORTON",,,,,"DR HORTON","14100 SOUTHWEST",HOUSTON,TX,77478,"(281) 201-5559",,,,
TX,HARRIS,2006110046,"Single Family Homes",7/16/2020,,127620,2836,"18206 BAYONNE CHANNEL CT",HOUSTON,TX,77356,"BRIDGES ON LAKE",,CONTRACTOR,,,,,,,,,,,"DR HORTON",,,,,"DR HORTON","14100 SOUTHWEST",HOUSTON,TX,77478,"(281) 201-5559",,,,
TX,HARRIS,2006110048,"Single Family Homes",7/16/2020,,177840,4142,"9130 GANTER RIVER TRL",HOUSTON,TX,77356,"BRIDGES ON LAKE",,CONTRACTOR,,,,,,,,,,,"DR HORTON",,,,,"DR HORTON","14100 SOUTHWEST",HOUSTON,TX,77478,"(281) 201-5559",,,,
TX,HARRIS,2006110049,"Single Family Homes",7/16/2020,,128745,2861,"9126 GANTER RIVER TRL",HOUSTON,TX,77356,"BRIDGES ON LAKE",,CONTRACTOR,,,,,,,,,,,"DR HORTON",,,,,"DR HORTON","14100 SOUTHWEST",HOUSTON,TX,77478,"(281) 201-5559",,,,
TX,HARRIS,2006110050,"Single Family Homes",7/16/2020,,126000,2800,"9122 GANTER RIVER TRL",HOUSTON,TX,77356,"BRIDGES ON LAKE",,CONTRACTOR,,,,,,,,,,,"DR HORTON",,,,,"DR HORTON","14100 SOUTHWEST",HOUSTON,TX,77478,"(281) 201-5559",,,,
TX,HARRIS,2006110052,"Single Family Homes",7/16/2020,,151560,3368,"9118 GANTER RIVER TRL",HOUSTON,TX,77356,"BRIDGES ON LAKE",,CONTRACTOR,,,,,,,,,,,"DR HORTON",,,,,"DR HORTON","14100 SOUTHWEST",HOUSTON,TX,77478,"(281) 201-5559",,,,
TX,HARRIS,2006110056,"Single Family Homes",7/16/2020,,134145,2981,"9114 GANTER RIVER TRL",HOUSTON,TX,77356,"BRIDGES ON LAKE",,CONTRACTOR,,,,,,,,,,,"DR HORTON",,,,,"DR HORTON","14100 SOUTHWEST",HOUSTON,TX,77478,"(281) 201-5559",,,,
TX,HARRIS,2005190098,"Single Family Homes",7/16/2020,,315000,2909,"11313 SRALLA RD",HOUSTON,TX,77356,,,"CLINT & HANNAH LARIVE","11313 SRALLA RD",HOUSTON,TX,77356,,Owner,,,,,OWNER,,,,,OWNER,,,,,,,,,
TX,HARRIS,2006090144,"Single Family Homes",7/16/2020,,90000,2000,"24231 BUCKBRUSH LN",HOUSTON,TX,77356,"KATY POINTE ",,CONTRACTOR,,,,,,,,,,,"MERITAGE HOMES",,,,,"MERITAGE HOMES","2901 W SAM HOUSTON PKWY N",HOUSTON,TX,77043-1630,"(713) 357-1184",,,,
TX,HARRIS,2006100062,"Single Family Homes",7/16/2020,,199500,1930,"24051 PRAIRIE DUST DR",HOUSTON,TX,77356,WINDROW,,CONTRACTOR,,,,,,,,,,,"PULTE HOMES",,,,,"PULTE HOMES","16670 PARK ROW",HOUSTON,TX,77084-6866,"(281) 749-8000",,,,
TX,HARRIS,2006100089,"Single Family Homes",7/16/2020,,211140,1262,"4423 RUSHING RIDGE CT",HOUSTON,TX,77356,"RETREAT AT CHAMPIONS LANDING",,CONTRACTOR,,,,,,,,,,,"PULTE HOMES",,,,,"PULTE HOMES","16670 PARK ROW",HOUSTON,TX,77084-6866,"(281) 749-8000",,,,
TX,HARRIS,2006080139,"Single Family Homes",7/16/2020,,128070,2846,"12770 LANDON LIGHT LN",HOUSTON,TX,77356,FORESTWOOD,,CONTRACTOR,,,,,,,,,,,"DR HORTON",,,,,"DR HORTON","14100 SOUTHWEST",HOUSTON,TX,77478,"(281) 201-5559",,,,
TX,HARRIS,2005070124,"Single Family Homes",7/16/2020,,139555,2147,"21207 ECHO MANOR DR",HOUSTON,TX,77356,"BAUER LANDING",,CONTRACTOR,,,,,,,,,,,"LGI HOMES",,,,,"LGI HOMES","1450 LAKE ROBBINS SUITE 430",CONROE,TX,77380,"(210) 563-4648",,"(281) 210-2601",,
TX,HARRIS,2005070158,"Single Family Homes",7/16/2020,,183495,2823,"21202 ECHO MANOR DR",HOUSTON,TX,77356,"BAUER LANDING",,CONTRACTOR,,,,,,,,,,,"LGI HOMES",,,,,"LGI HOMES","1450 LAKE ROBBINS SUITE 430",CONROE,TX,77380,"(210) 563-4648",,"(281) 210-2601",,
TX,HARRIS,2005070156,"Single Family Homes",7/16/2020,,139555,2147,"21206 ECHO MANOR DR",HOUSTON,TX,77356,"BAUER LANDING",,CONTRACTOR,,,,,,,,,,,"LGI HOMES",,,,,"LGI HOMES","1450 LAKE ROBBINS SUITE 430",CONROE,TX,77380,"(210) 563-4648",,"(281) 210-2601",,
TX,HARRIS,2005070153,"Single Family Homes",7/16/2020,,183495,2823,"21210 ECHO MANOR DR",HOUSTON,TX,77356,"BAUER LANDING",,CONTRACTOR,,,,,,,,,,,"LGI HOMES",,,,,"LGI HOMES","1450 LAKE ROBBINS SUITE 430",CONROE,TX,77380,"(210) 563-4648",,"(281) 210-2601",,
TX,HARRIS,2005070152,"Single Family Homes",7/16/2020,,151125,2325,"21214 ECHO MANOR DR",HOUSTON,TX,77356,"BAUER LANDING",,CONTRACTOR,,,,,,,,,,,"LGI HOMES",,,,,"LGI HOMES","1450 LAKE ROBBINS SUITE 430",CONROE,TX,77380,"(210) 563-4648",,"(281) 210-2601",,
TX,HARRIS,2005070150,"Single Family Homes",7/16/2020,,139555,2147,"21218 ECHO MANOR DR",HOUSTON,TX,77356,"BAUER LANDING",,CONTRACTOR,,,,,,,,,,,"LGI HOMES",,,,,"LGI HOMES","1450 LAKE ROBBINS SUITE 430",CONROE,TX,77380,"(210) 563-4648",,"(281) 210-2601",,
TX,HARRIS,2005070148,"Single Family Homes",7/16/2020,,151125,2325,"21222 ECHO MANOR DR",HOUSTON,TX,77356,"BAUER LANDING",,CONTRACTOR,,,,,,,,,,,"LGI HOMES",,,,,"LGI HOMES","1450 LAKE ROBBINS SUITE 430",CONROE,TX,77380,"(210) 563-4648",,"(281) 210-2601",,
TX,HARRIS,2005070147,"Single Family Homes",7/16/2020,,183495,2823,"21226 ECHO MANOR DR",HOUSTON,TX,77356,"BAUER LANDING",,CONTRACTOR,,,,,,,,,,,"LGI HOMES",,,,,"LGI HOMES","1450 LAKE ROBBINS SUITE 430",CONROE,TX,77380,"(210) 563-4648",,"(281) 210-2601",,
TX,HARRIS,2005070145,"Single Family Homes",7/16/2020,,139555,2147,"21230 ECHO MANOR DR",HOUSTON,TX,77356,"BAUER LANDING",,CONTRACTOR,,,,,,,,,,,"LGI HOMES",,,,,"LGI HOMES","1450 LAKE ROBBINS SUITE 430",CONROE,TX,77380,"(210) 563-4648",,"(281) 210-2601",,
TX,HARRIS,2005070142,"Single Family Homes",7/16/2020,,201045,3093,"21227 ECHO MANOR DR",HOUSTON,TX,77356,"BAUER LANDING",,CONTRACTOR,,,,,,,,,,,"LGI HOMES",,,,,"LGI HOMES","1450 LAKE ROBBINS SUITE 430",CONROE,TX,77380,"(210) 563-4648",,"(281) 210-2601",,
TX,HARRIS,2005070138,"Single Family Homes",7/16/2020,,151125,2325,"21223 ECHO MANOR DR",HOUSTON,TX,77356,"BAUER LANDING",,CONTRACTOR,,,,,,,,,,,"LGI HOMES",,,,,"LGI HOMES","1450 LAKE ROBBINS SUITE 430",CONROE,TX,77380,"(210) 563-4648",,"(281) 210-2601",,
TX,HARRIS,2005070132,"Single Family Homes",7/16/2020,,139555,2147,"21219 ECHO MANOR DR",HOUSTON,TX,77356,"BAUER LANDING",,CONTRACTOR,,,,,,,,,,,"LGI HOMES",,,,,"LGI HOMES","1450 LAKE ROBBINS SUITE 430",CONROE,TX,77380,"(210) 563-4648",,"(281) 210-2601",,
TX,HARRIS,2005070128,"Single Family Homes",7/16/2020,,151125,2325,"21211 ECHO MANOR DR",HOUSTON,TX,77356,"BAUER LANDING",,CONTRACTOR,,,,,,,,,,,"LGI HOMES",,,,,"LGI HOMES","1450 LAKE ROBBINS SUITE 430",CONROE,TX,77380,"(210) 563-4648",,"(281) 210-2601",,
TX,HARRIS,2006100122,"Single Family Homes",7/16/2020,,183495,2823,"21214 TIMBERLAND FIELD DR",HOUSTON,TX,77356,"BAUER LANDING",,CONTRACTOR,,,,,,,,,,,"LGI HOMES",,,,,"LGI HOMES","1450 LAKE ROBBINS SUITE 430",CONROE,TX,77380,"(210) 563-4648",,"(281) 210-2601",,
TX,HARRIS,2006100124,"Single Family Homes",7/16/2020,,151125,2325,"21210 TIMBERLAND FIELD DR",HOUSTON,TX,77356,"BAUER LANDING",,CONTRACTOR,,,,,,,,,,,"LGI HOMES",,,,,"LGI HOMES","1450 LAKE ROBBINS SUITE 430",CONROE,TX,77380,"(210) 563-4648",,"(281) 210-2601",,
TX,HARRIS,2006100128,"Single Family Homes",7/16/2020,,139555,2147,"21303 ECHO MANOR DR",HOUSTON,TX,77356,"BAUER LANDING",,CONTRACTOR,,,,,,,,,,,"LGI HOMES",,,,,"LGI HOMES","1450 LAKE ROBBINS SUITE 430",CONROE,TX,77380,"(210) 563-4648",,"(281) 210-2601",,
TX,HARRIS,2006100129,"Single Family Homes",7/16/2020,,183495,2823,"21307 ECHO MANOR DR",HOUSTON,TX,77356,"BAUER LANDING",,CONTRACTOR,,,,,,,,,,,"LGI HOMES",,,,,"LGI HOMES","1450 LAKE ROBBINS SUITE 430",CONROE,TX,77380,"(210) 563-4648",,"(281) 210-2601",,
TX,HARRIS,2006100131,"Single Family Homes",7/16/2020,,151125,2325,"21315 ECHO MANOR DR",HOUSTON,TX,77356,"BAUER LANDING",,CONTRACTOR,,,,,,,,,,,"LGI HOMES",,,,,"LGI HOMES","1450 LAKE ROBBINS SUITE 430",CONROE,TX,77380,"(210) 563-4648",,"(281) 210-2601",,
TX,HARRIS,2006100134,"Single Family Homes",7/16/2020,,183495,2823,"21319 ECHO MANOR DR",HOUSTON,TX,77356,"BAUER LANDING",,CONTRACTOR,,,,,,,,,,,"LGI HOMES",,,,,"LGI HOMES","1450 LAKE ROBBINS SUITE 430",CONROE,TX,77380,"(210) 563-4648",,"(281) 210-2601",,
TX,HARRIS,2006100135,"Single Family Homes",7/16/2020,,151125,2325,"21323 ECHO MANOR DR",HOUSTON,TX,77356,"BAUER LANDING",,CONTRACTOR,,,,,,,,,,,"LGI HOMES",,,,,"LGI HOMES","1450 LAKE ROBBINS SUITE 430",CONROE,TX,77380,"(210) 563-4648",,"(281) 210-2601",,
TX,BRAZORIA,81100090000,"Single Family Homes",7/8/2020,,110000,,"106 SAVE B",FREEPORT,TX,77541,,,"WILLIE GARCIA","1508 NAVE R",NEWPORT,TX,77541,,Applicant,,,,,OWNER,,,,,OWNER,,,,,,,,,
TX,BRAZORIA,81103530001,"Single Family Homes",7/8/2020,,110000,,"1508 NAVE R",FREEPORT,TX,77541,,,"WILLIE GARCIA","1508 NAVE R",NEWPORT,TX,77541,,Owner,,,,,OWNER,,,,,OWNER,,,,,,,,,
TX,BRAZORIA,81103530000,"Single Family Homes",7/8/2020,,110000,,"1512 NAVE R",FREEPORT,TX,77541,,,"WILLIE GARCIA","1508 NAVE R",NEWPORT,TX,77541,,Owner,,,,,OWNER,,,,,OWNER,,,,,,,,,
TX,GALVESTON,2020-1106,"Single Family Homes",6/10/2020,,148811,,"1503 HARVEST VINE CT",FRIENDSWOOD,TX,77546,,,CONTRACTOR,,,,,,,,,,,"DR HORTON",,,,,"DR HORTON","14100 SOUTHWEST",HOUSTON,TX,77478,"(281) 201-5559",,,,
TX,GALVESTON,2020-1518,"Single Family Homes",6/3/2020,,148811,,"1551 HARVEST VINE CT",FRIENDSWOOD,TX,77546,,,CONTRACTOR,,,,,,,,,,,"DR HORTON",,,,,"DR HORTON","14100 SOUTHWEST",HOUSTON,TX,77478,"(281) 201-5559",,,,
TX,GALVESTON,2020-1519,"Single Family Homes",6/3/2020,,152611,,"1571 HARVEST VINE CT",FRIENDSWOOD,TX,77546,,,CONTRACTOR,,,,,,,,,,,"DR HORTON",,,,,"DR HORTON","14100 SOUTHWEST",HOUSTON,TX,77478,"(281) 201-5559",,,,
TX,GALVESTON,2020-1520,"Single Family Homes",6/3/2020,,165851,,"1559 HARVEST VINE CT",FRIENDSWOOD,TX,77546,,,CONTRACTOR,,,,,,,,,,,"DR HORTON",,,,,"DR HORTON","14100 SOUTHWEST",HOUSTON,TX,77478,"(281) 201-5559",,,,
TX,GALVESTON,2020-1521,"Single Family Homes",6/3/2020,,163914,,"1592 HARVEST VINE CT",FRIENDSWOOD,TX,77546,,,CONTRACTOR,,,,,,,,,,,"DR HORTON",,,,,"DR HORTON","14100 SOUTHWEST",HOUSTON,TX,77478,"(281) 201-5559",,,,
TX,GALVESTON,2020-1522,"Single Family Homes",6/3/2020,,163914,,"1547 HARVEST VINE CT",FRIENDSWOOD,TX,77546,,,CONTRACTOR,,,,,,,,,,,"DR HORTON",,,,,"DR HORTON","14100 SOUTHWEST",HOUSTON,TX,77478,"(281) 201-5559",,,,
TX,GALVESTON,2020-1523,"Single Family Homes",6/3/2020,,131057,,"1563 HARVEST VINE CT",FRIENDSWOOD,TX,77546,,,CONTRACTOR,,,,,,,,,,,"DR HORTON",,,,,"DR HORTON","14100 SOUTHWEST",HOUSTON,TX,77478,"(281) 201-5559",,,,
TX,GALVESTON,2020-1524,"Single Family Homes",6/3/2020,,196725,,"2513 AUSTIN TR",FRIENDSWOOD,TX,77546,,,CONTRACTOR,,,,,,,,,,,"DR HORTON",,,,,"DR HORTON","14100 SOUTHWEST",HOUSTON,TX,77478,"(281) 201-5559",,,,
TX,GALVESTON,2020-1525,"Single Family Homes",6/3/2020,,163914,,"1567 HARVEST VINE CT",FRIENDSWOOD,TX,77546,,,CONTRACTOR,,,,,,,,,,,"DR HORTON",,,,,"DR HORTON","14100 SOUTHWEST",HOUSTON,TX,77478,"(281) 201-5559",,,,
TX,GALVESTON,2020-1526,"Single Family Homes",6/3/2020,,166186,,"2512 RAVENNA CT",FRIENDSWOOD,TX,77546,,,CONTRACTOR,,,,,,,,,,,"DR HORTON",,,,,"DR HORTON","14100 SOUTHWEST",HOUSTON,TX,77478,"(281) 201-5559",,,,
TX,GALVESTON,2020-1535,"Single Family Homes",6/24/2020,,240000,,"16802 DAVID GLEN DR",FRIENDSWOOD,TX,77546,,,CONTRACTOR,,,,,,,,,,,"CURRAN BUILDING SOLUTIONS",,,,,"CURRAN BUILDING SOLUTIONS","514 PACKER CT",WEBSTER,TX,77598,"(208) 318-6717",,,,
TX,GALVESTON,2020-1639,"Single Family Homes",6/10/2020,,220000,,"2521 AUSTIN TR",FRIENDSWOOD,TX,77546,,,CONTRACTOR,,,,,,,,,,,"DR HORTON",,,,,"DR HORTON","14100 SOUTHWEST",HOUSTON,TX,77478,"(281) 201-5559",,,,
TX,GALVESTON,2020-1640,"Single Family Homes",6/10/2020,,156733,,"2517 AUSTIN TR",FRIENDSWOOD,TX,77546,,,CONTRACTOR,,,,,,,,,,,"DR HORTON",,,,,"DR HORTON","14100 SOUTHWEST",HOUSTON,TX,77478,"(281) 201-5559",,,,
TX,GALVESTON,2020-1692,"Single Family Homes",6/10/2020,,152858,,"2509 AUSTIN TR",FRIENDSWOOD,TX,77546,,,CONTRACTOR,,,,,,,,,,,"DR HORTON",,,,,"DR HORTON","14100 SOUTHWEST",HOUSTON,TX,77478,"(281) 201-5559",,,,
TX,GALVESTON,2020-1693,"Single Family Homes",6/10/2020,,131057,,"1527 HARVEST VINE CT",FRIENDSWOOD,TX,77546,,,CONTRACTOR,,,,,,,,,,,"DR HORTON",,,,,"DR HORTON","14100 SOUTHWEST",HOUSTON,TX,77478,"(281) 201-5559",,,,
TX,GALVESTON,2020-1777,"Single Family Homes",6/15/2020,,380000,,"1923 SANTA MARIA DR",FRIENDSWOOD,TX,77546,,,CONTRACTOR,,,,,,,,,,,"STERLING BUILDERS",,,,,"STERLING BUILDERS","1506 WINDING WAY DR STE 301",FRIENDSWOOD,TX,77546-5391,"(281) 482-3034",http://sterling-builders.com/,"(281) 996-8087",,
TX,GALVESTON,2020-1841,"Single Family Homes",6/25/2020,,220000,,"2515 RAVENNA CT",FRIENDSWOOD,TX,77546,,,CONTRACTOR,,,,,,,,,,,"DR HORTON",,,,,"DR HORTON","14100 SOUTHWEST",HOUSTON,TX,77478,"(281) 201-5559",,,,
TX,GALVESTON,2020-1842,"Single Family Homes",6/24/2020,,148811,,"1579 HARVEST VINE CT",FRIENDSWOOD,TX,77546,,,CONTRACTOR,,,,,,,,,,,"DR HORTON",,,,,"DR HORTON","14100 SOUTHWEST",HOUSTON,TX,77478,"(281) 201-5559",,,,
TX,GALVESTON,2020-1846,"Single Family Homes",6/25/2020,,196725,,"2519 RAVENNA CT",FRIENDSWOOD,TX,77546,,,CONTRACTOR,,,,,,,,,,,"DR HORTON",,,,,"DR HORTON","14100 SOUTHWEST",HOUSTON,TX,77478,"(281) 201-5559",,,,
TX,GALVESTON,2020-1847,"Single Family Homes",6/25/2020,,152611,,"1531 HARVEST VINE CT",FRIENDSWOOD,TX,77546,,,CONTRACTOR,,,,,,,,,,,"DR HORTON",,,,,"DR HORTON","14100 SOUTHWEST",HOUSTON,TX,77478,"(281) 201-5559",,,,
TX,GALVESTON,2020-1848,"Single Family Homes",6/24/2020,,152611,,"2612 FRIENDSHIP LN",FRIENDSWOOD,TX,77546,,,CONTRACTOR,,,,,,,,,,,"DR HORTON",,,,,"DR HORTON","14100 SOUTHWEST",HOUSTON,TX,77478,"(281) 201-5559",,,,
TX,GALVESTON,2020-1884,"Single Family Homes",6/25/2020,,152858,,"2527 RAVENNA CT",FRIENDSWOOD,TX,77546,,,CONTRACTOR,,,,,,,,,,,"DR HORTON",,,,,"DR HORTON","14100 SOUTHWEST",HOUSTON,TX,77478,"(281) 201-5559",,,,
TX,GALVESTON,2020-1885,"Single Family Homes",6/25/2020,,180837,,"2531 RAVENNA CT",FRIENDSWOOD,TX,77546,,,CONTRACTOR,,,,,,,,,,,"DR HORTON",,,,,"DR HORTON","14100 SOUTHWEST",HOUSTON,TX,77478,"(281) 201-5559",,,,
TX,GALVESTON,2020-1887,"Single Family Homes",6/25/2020,,144148,,"2529 AUSTIN TR",FRIENDSWOOD,TX,77546,,,CONTRACTOR,,,,,,,,,,,"DR HORTON",,,,,"DR HORTON","14100 SOUTHWEST",HOUSTON,TX,77478,"(281) 201-5559",,,,
TX,GALVESTON,2020-1888,"Single Family Homes",6/25/2020,,216059,,"2525 AUSTIN TR",FRIENDSWOOD,TX,77546,,,CONTRACTOR,,,,,,,,,,,"DR HORTON",,,,,"DR HORTON","14100 SOUTHWEST",HOUSTON,TX,77478,"(281) 201-5559",,,,
TX,GALVESTON,2020-1892,"Single Family Homes",6/26/2020,,161971,,"2523 RAVENNA CT",FRIENDSWOOD,TX,77546,,,CONTRACTOR,,,,,,,,,,,"DR HORTON",,,,,"DR HORTON","14100 SOUTHWEST",HOUSTON,TX,77478,"(281) 201-5559",,,,
TX,GALVESTON,2020-1895,"Single Family Homes",6/25/2020,,123225,,"1555 HARVEST VINE CT",FRIENDSWOOD,TX,77546,,,CONTRACTOR,,,,,,,,,,,"DR HORTON",,,,,"DR HORTON","14100 SOUTHWEST",HOUSTON,TX,77478,"(281) 201-5559",,,,
TX,MONTGOMERY,173709-20,"Single Family Homes",7/8/2020,,403435,,"28372 STERLING OAK DR",HOUSTON,TX,77356,"WOODSON'S RESERVE",,CONTRACTOR,,,,,,,,,,,"PERRY HOMES",,,,,"PERRY HOMES","9000 GULF FWY",HOUSTON,TX,77017-7018,"(713) 417-1396",,,,
TX,MONTGOMERY,173767-20,"Single Family Homes",7/9/2020,,335813,,"27109 BLUE PASEO DR",HOUSTON,TX,77356,NORTHGROVE,,CONTRACTOR,,,,,,,,,,,"PERRY HOMES",,,,,"PERRY HOMES","9000 GULF FWY",HOUSTON,TX,77017-7018,"(713) 417-1396",,,,
TX,MONTGOMERY,173845-20,"Single Family Homes",7/10/2020,,221925,,"330 TOPPER PINES DR",HOUSTON,TX,77356,WOODFOREST,,CONTRACTOR,,,,,,,,,,,"PERRY HOMES",,,,,"PERRY HOMES","9000 GULF FWY",HOUSTON,TX,77017-7018,"(713) 417-1396",,,,
TX,MONTGOMERY,173846-20,"Single Family Homes",7/10/2020,,212925,,"337 TOPPER PINES DR",HOUSTON,TX,77356,WOODFOREST,,CONTRACTOR,,,,,,,,,,,"PERRY HOMES",,,,,"PERRY HOMES","9000 GULF FWY",HOUSTON,TX,77017-7018,"(713) 417-1396",,,,
TX,MONTGOMERY,173847-20,"Single Family Homes",7/10/2020,,294750,,"346 TOPPER PINES DR",HOUSTON,TX,77356,WOODFOREST,,CONTRACTOR,,,,,,,,,,,"PERRY HOMES",,,,,"PERRY HOMES","9000 GULF FWY",HOUSTON,TX,77017-7018,"(713) 417-1396",,,,
TX,MONTGOMERY,173848-20,"Single Family Homes",7/10/2020,,236250,,"345 TOPPER PINES DR",HOUSTON,TX,77356,WOODFOREST,,CONTRACTOR,,,,,,,,,,,"PERRY HOMES",,,,,"PERRY HOMES","9000 GULF FWY",HOUSTON,TX,77017-7018,"(713) 417-1396",,,,
TX,MONTGOMERY,173851-20,"Single Family Homes",7/10/2020,,359925,,"4521 SILVER PINE CT",HOUSTON,TX,77356,"WOOD.SON'S RESERVE",,CONTRACTOR,,,,,,,,,,,"PERRY HOMES",,,,,"PERRY HOMES","9000 GULF FWY",HOUSTON,TX,77017-7018,"(713) 417-1396",,,,
TX,MONTGOMERY,173594-20,"Single Family Homes",7/6/2020,,360500,,"123 DARTMOOR LN",HOUSTON,TX,77356,"DEL WEBB",,CONTRACTOR,,,,,,,,,,,"PULTE HOMES",,,,,"PULTE HOMES","16670 PARK ROW",HOUSTON,TX,77084-6866,"(281) 749-8000",,,,
TX,MONTGOMERY,173595-20,"Single Family Homes",7/6/2020,,400000,,"351 BELGIAN COURT",HOUSTON,TX,77356,"DEL WEBB",,CONTRACTOR,,,,,,,,,,,"PULTE HOMES",,,,,"PULTE HOMES","16670 PARK ROW",HOUSTON,TX,77084-6866,"(281) 749-8000",,,,
TX,MONTGOMERY,173596-20,"Single Family Homes",7/6/2020,,528370,,"332 BELGIAN CT",HOUSTON,TX,77356,"DEL WEBB",,CONTRACTOR,,,,,,,,,,,"PULTE HOMES",,,,,"PULTE HOMES","16670 PARK ROW",HOUSTON,TX,77084-6866,"(281) 749-8000",,,,
TX,MONTGOMERY,173597-20,"Single Family Homes",7/6/2020,,271500,,"4379 IMPERIAL GARDENS DR",HOUSTON,TX,77356,"HARMONY VILLAGE",,CONTRACTOR,,,,,,,,,,,"PULTE HOMES",,,,,"PULTE HOMES","16670 PARK ROW",HOUSTON,TX,77084-6866,"(281) 749-8000",,,,
TX,MONTGOMERY,173724-20,"Single Family Homes",7/8/2020,,100000,,"16630 EAST IVANHOE",HOUSTON,TX,77356,"LAKE CONROE VILLAGE",,"JUAN RAMIREZ","89 TUPELO LN",CONROE,TX,77304,,Owner,,,,,OWNER,,,,,OWNER,,,,,,,,,
TX,MONTGOMERY,173629-20,"Single Family Homes",7/7/2020,,291000,,"196 COURAGEOUS SIDE WAY",HOUSTON,TX,77356,"BLACK OAK",,CONTRACTOR,,,,,,,,,,,"RAUSCH COLEMAN HOMES",,,,,"RAUSCH COLEMAN HOMES","9504 N IH35 STE 310","SAN ANTONIO",TX,78233,"(210) 231-0703",https://www.rauschcolemanhomes.com/,,,
TX,MONTGOMERY,173631-20,"Single Family Homes",7/7/2020,,254000,,"8007 DAUNTLESS DR",HOUSTON,TX,77356,"BLACK OAK",,CONTRACTOR,,,,,,,,,,,"RAUSCH COLEMAN HOMES",,,,,"RAUSCH COLEMAN HOMES","9504 N IH35 STE 310","SAN ANTONIO",TX,78233,"(210) 231-0703",https://www.rauschcolemanhomes.com/,,,
TX,MONTGOMERY,173745-20,"Single Family Homes",7/8/2020,,161980,,"8019 DAUNTLESS DR",HOUSTON,TX,77356,"BLACK OAK",,CONTRACTOR,,,,,,,,,,,"RAUSCH COLEMAN HOMES",,,,,"RAUSCH COLEMAN HOMES","9504 N IH35 STE 310","SAN ANTONIO",TX,78233,"(210) 231-0703",https://www.rauschcolemanhomes.com/,,,
TX,MONTGOMERY,173746-20,"Single Family Homes",7/8/2020,,161980,,"170 COURAGEOUS SIDE WAY",HOUSTON,TX,77356,"BLACK OAK",,CONTRACTOR,,,,,,,,,,,"RAUSCH COLEMAN HOMES",,,,,"RAUSCH COLEMAN HOMES","9504 N IH35 STE 310","SAN ANTONIO",TX,78233,"(210) 231-0703",https://www.rauschcolemanhomes.com/,,,
TX,MONTGOMERY,173600-20,"Single Family Homes",7/6/2020,,120000,,"22310 CINDY LYNN LN",HOUSTON,TX,77356,"TOMWOOD ESTATES",,"ANDREW ROSS","PO BOX 1167",PINEHURST,TX,77362,,Owner,,,,,OWNER,,,,,OWNER,,,,,,,,,
TX,MONTGOMERY,173616-20,"Single Family Homes",7/6/2020,,300000,,"6406 SUGARBUSH DR",HOUSTON,TX,77356,WESTWOOD,,"ANDREW ROSS","PO BOX 1167",PINEHURST,TX,77362,,Owner,,,,,OWNER,,,,,OWNER,,,,,,,,,
TX,MONTGOMERY,173832-20,"Single Family Homes",7/10/2020,,350000,,"26284 RED OAK LN",HOUSTON,TX,77356,"RED OAKS",,"ANDREW ROSS","PO BOX 1167",PINEHURST,TX,77362,,Owner,,,,,OWNER,,,,,OWNER,,,,,,,,,
TX,MONTGOMERY,173833-20,"Single Family Homes",7/10/2020,,275000,,"259 ARGOSY LN",HOUSTON,TX,77356,"RIDGELAKE SHORES",,"ANDREW ROSS","PO BOX 1167",PINEHURST,TX,77362,,Owner,,,,,OWNER,,,,,OWNER,,,,,,,,,
TX,MONTGOMERY,173735-20,"Single Family Homes",7/8/2020,,494286,,"26215 LAUREN'S CT",HOUSTON,TX,77356,"CROWN RANCH",,CONTRACTOR,,,,,,,,,,,"RVISION HOMES ",,,,,"RVISION HOMES ","9511 FERN WOOD FRST",HOUSTON,TX,77040-6895,"(832) 466-3162",,,"RYAN ROGERS",ryanrogers2011@yahoo.com
TX,MONTGOMERY,173697-20,"Single Family Homes",7/8/2020,,500000,,"11585 RENAISSANCE DR",HOUSTON,TX,77356,"THE ISLAND AT GRAND HARBOR",,CONTRACTOR,,,,,,,,,,,"SCHENCK BUILDERS",,,,,"SCHENCK BUILDERS","1527 CAFE DUMONDE",CONROE,TX,77304-4933,"(936) 648-4823",http://schenckbuilders.com/,"(832) 218-0805","YVETTE SCHENCK",info@schenckbuilders.com
TX,MONTGOMERY,173751-20,"Single Family Homes",7/9/2020,,280000,,"27180 ALLEGRETTO DR",HOUSTON,TX,77356,"VIVACE AT HARMONY",,CONTRACTOR,,,,,,,,,,,"SHEA HOMES HOUSTON",,,,,"SHEA HOMES HOUSTON","8300 CYPRESS CREEK PKWY STE 400",HOUSTON,TX,77070-5643,"(832) 869-4007",http://www.sheahomes.com/,,,
TX,MONTGOMERY,173752-20,"Single Family Homes",7/9/2020,,220000,,"2908 LIBRETTO REACH DR",HOUSTON,TX,77356,"VIVACE AT HARMONY",,CONTRACTOR,,,,,,,,,,,"SHEA HOMES HOUSTON",,,,,"SHEA HOMES HOUSTON","8300 CYPRESS CREEK PKWY STE 400",HOUSTON,TX,77070-5643,"(832) 869-4007",http://www.sheahomes.com/,,,
TX,MONTGOMERY,173753-20,"Single Family Homes",7/9/2020,,200000,,"22088 VOLANTE DR",HOUSTON,TX,77356,"VIVACE AT HARMONY",,CONTRACTOR,,,,,,,,,,,"SHEA HOMES HOUSTON",,,,,"SHEA HOMES HOUSTON","8300 CYPRESS CREEK PKWY STE 400",HOUSTON,TX,77070-5643,"(832) 869-4007",http://www.sheahomes.com/,,,
TX,MONTGOMERY,"173754 20","Single Family Homes",7/9/2020,,235000,,"2804 ANDANTE GREEN DR",HOUSTON,TX,77356,"VIVACE AT HARMONY",,CONTRACTOR,,,,,,,,,,,"SHEA HOMES HOUSTON",,,,,"SHEA HOMES HOUSTON","8300 CYPRESS CREEK PKWY STE 400",HOUSTON,TX,77070-5643,"(832) 869-4007",http://www.sheahomes.com/,,,
TX,MONTGOMERY,"173755 20","Single Family Homes",7/9/2020,,220000,,"2853 ANDANTE GREEN DR",HOUSTON,TX,77356,"VIVACE AT HARMONY",,CONTRACTOR,,,,,,,,,,,"SHEA HOMES HOUSTON",,,,,"SHEA HOMES HOUSTON","8300 CYPRESS CREEK PKWY STE 400",HOUSTON,TX,77070-5643,"(832) 869-4007",http://www.sheahomes.com/,,,
TX,MONTGOMERY,173828-20,"Single Family Homes",7/9/2020,,60000,,"801 OMEARA",HOUSTON,TX,77356,"LAKE CONROE VILLAGE",,CONTRACTOR,,,,,,,,,,,"SJP CAPITAL LLC",,,,,"SJP CAPITAL LLC","2905 LAUREL CHERRY WAY",SPRING,TX,77380-4004,"(713) 489-3878",,,,
TX,MONTGOMERY,"173829 20","Single Family Homes",7/9/2020,,85000,,"202 NORTHLAWN",HOUSTON,TX,77356,"LAKE CONROE VILLAGE",,CONTRACTOR,,,,,,,,,,,"SJP CAPITAL LLC",,,,,"SJP CAPITAL LLC","2905 LAUREL CHERRY WAY",SPRING,TX,77380-4004,"(713) 489-3878",,,,
TX,MONTGOMERY,173830-20,"Single Family Homes",7/9/2020,,70000,,"805 OMEARA",HOUSTON,TX,77356,"LAKE CONROE VILLAGE",,CONTRACTOR,,,,,,,,,,,"SJP CAPITAL LLC",,,,,"SJP CAPITAL LLC","2905 LAUREL CHERRY WAY",SPRING,TX,77380-4004,"(713) 489-3878",,,,
TX,MONTGOMERY,173623-20,"Single Family Homes",7/6/2020,,75000,,"1330 ASHWAY",HOUSTON,TX,77356,"LAKE CHATEAU WOOD",,CONTRACTOR,,,,,,,,,,,"SOVANN PRAK INVESTMENTS",,,,,"SOVANN PRAK INVESTMENTS"," 2512 HANCOCK JOB CIRCLE ",HOUSTON,TX,77001,"(713) 992-7272",,,,
TX,MONTGOMERY,173807-20,"Single Family Homes",7/9/2020,,241533,,"3855 CHAPMAN BLUFF DR",HOUSTON,TX,77356,"ALLEGRO AT HARMONY",,CONTRACTOR,,,,,,,,,,,"TAYLOR MORRISON OF TEXAS",,,,,"TAYLOR MORRISON OF TEXAS","5353 W SAM HOUSTON PKWY N STE 190",HOUSTON,TX,77041-5186,"(281) 598-3000",,,,
TX,MONTGOMERY,173634-20,"Single Family Homes",7/7/2020,,100000,,"19318 CABANGO DR",HOUSTON,TX,77356,RIVERWALK,,CONTRACTOR,,,,,,,,,,,"TWO SONS ENVIRONMENTAL SERVICES",,,,,"TWO SONS ENVIRONMENTAL SERVICES","23565 FM 1314 RD",PORTER,TX,77365-3724,"(281) 354-9284",http://www.two-sons.net,"(281) 354-2107",,twosonsenvironmental@yahoo.com
TX,MONTGOMERY,173734-20,"Single Family Homes",7/8/2020,,100000,,"11511 MOCKINGBIRD HILL",HOUSTON,TX,77356,,,CONTRACTOR,,,,,,,,,,,"TWO SONS ENVIRONMENTAL SERVICES",,,,,"TWO SONS ENVIRONMENTAL SERVICES","23565 FM 1314 RD",PORTER,TX,77365-3724,"(281) 354-9284",http://www.two-sons.net,"(281) 354-2107",,twosonsenvironmental@yahoo.com
TX,MONTGOMERY,173659-20,"Single Family Homes",7/7/2020,,266630,,"608 ASPEN TRACE LN",HOUSTON,TX,77356,WOODTRACE,,CONTRACTOR,,,,,,,,,,,"VILLAGE BUILDERS",,,,,"VILLAGE BUILDERS","550 GREENS PKWY STE 210",HOUSTON,TX,77067-4538,"(281) 873-4663",,,,
TX,MONTGOMERY,173796-20,"Single Family Homes",7/9/2020,,193440,,"525 SAGE TIMBERS LN",HOUSTON,TX,77356,WOODTRACE,,CONTRACTOR,,,,,,,,,,,"VILLAGE BUILDERS",,,,,"VILLAGE BUILDERS","550 GREENS PKWY STE 210",HOUSTON,TX,77067-4538,"(281) 873-4663",,,,
TX,MONTGOMERY,173797-20,"Single Family Homes",7/9/2020,,177320,,"1007 HAVENSHIRE RIDGE LN",HOUSTON,TX,77356,WOODTRACE,,CONTRACTOR,,,,,,,,,,,"VILLAGE BUILDERS",,,,,"VILLAGE BUILDERS","550 GREENS PKWY STE 210",HOUSTON,TX,77067-4538,"(281) 873-4663",,,,
TX,MONTGOMERY,173601-20,"Single Family Homes",7/6/2020,,259000,,"25240 AUTUMN WATER ST",HOUSTON,TX,77356,"WOODRIDGE FOREST",,CONTRACTOR,,,,,,,,,,,"WESTIN HOMES",,,,,"WESTIN HOMES","1 SUGAR CREEK CENTER BLVD STE 600","SUGAR LAND",TX,77478-3787,"(281) 240-1551",http://www.westin-homes.com,,,
TX,MONTGOMERY,173602-20,"Single Family Homes",7/6/2020,,215000,,"439 AUBURN PINES DR",HOUSTON,TX,77356,WOODFOREST,,CONTRACTOR,,,,,,,,,,,"WESTIN HOMES",,,,,"WESTIN HOMES","1 SUGAR CREEK CENTER BLVD STE 600","SUGAR LAND",TX,77478-3787,"(281) 240-1551",http://www.westin-homes.com,,,
TX,MONTGOMERY,173603-20,"Single Family Homes",7/6/2020,,194000,,"18975 ROSEWOOD TERRACE DR",HOUSTON,TX,77356,TAVOLA,,CONTRACTOR,,,,,,,,,,,"WESTIN HOMES",,,,,"WESTIN HOMES","1 SUGAR CREEK CENTER BLVD STE 600","SUGAR LAND",TX,77478-3787,"(281) 240-1551",http://www.westin-homes.com,,,
TX,MONTGOMERY,173611-20,"Single Family Homes",7/6/2020,,235000,,"18947 ROSEWOOD TERRACE DR",HOUSTON,TX,77356,TAVOLA,,CONTRACTOR,,,,,,,,,,,"WESTIN HOMES",,,,,"WESTIN HOMES","1 SUGAR CREEK CENTER BLVD STE 600","SUGAR LAND",TX,77478-3787,"(281) 240-1551",http://www.westin-homes.com,,,
TX,MONTGOMERY,173612-20,"Single Family Homes",7/6/2020,,251000,,"15131 BOTANICAL GARDEN DR",HOUSTON,TX,77356,ARTAVIA,,CONTRACTOR,,,,,,,,,,,"WESTIN HOMES",,,,,"WESTIN HOMES","1 SUGAR CREEK CENTER BLVD STE 600","SUGAR LAND",TX,77478-3787,"(281) 240-1551",http://www.westin-homes.com,,,
TX,MONTGOMERY,173613-20,"Single Family Homes",7/6/2020,,220000,,"15010 LA STRADA DR",HOUSTON,TX,77356,ARTAVIA,,CONTRACTOR,,,,,,,,,,,"WESTIN HOMES",,,,,"WESTIN HOMES","1 SUGAR CREEK CENTER BLVD STE 600","SUGAR LAND",TX,77478-3787,"(281) 240-1551",http://www.westin-homes.com,,,
TX,MONTGOMERY,173708-20,"Single Family Homes",7/8/2020,,215000,,"423 AUBURN PINES DR",HOUSTON,TX,77356,WOODFOREST,,CONTRACTOR,,,,,,,,,,,"WESTIN HOMES",,,,,"WESTIN HOMES","1 SUGAR CREEK CENTER BLVD STE 600","SUGAR LAND",TX,77478-3787,"(281) 240-1551",http://www.westin-homes.com,,,
TX,MONTGOMERY,173710-20,"Single Family Homes",7/8/2020,,251000,,"452 AUBURN PINES DR",HOUSTON,TX,77356,WOODFOREST,,CONTRACTOR,,,,,,,,,,,"WESTIN HOMES",,,,,"WESTIN HOMES","1 SUGAR CREEK CENTER BLVD STE 600","SUGAR LAND",TX,77478-3787,"(281) 240-1551",http://www.westin-homes.com,,,
TX,MONTGOMERY,173711-20,"Single Family Homes",7/8/2020,,242000,,"18967 ROSEWOOD TERRACE DR",HOUSTON,TX,77356,TAVOLA,,CONTRACTOR,,,,,,,,,,,"WESTIN HOMES",,,,,"WESTIN HOMES","1 SUGAR CREEK CENTER BLVD STE 600","SUGAR LAND",TX,77478-3787,"(281) 240-1551",http://www.westin-homes.com,,,
TX,MONTGOMERY,173712-20,"Single Family Homes",7/8/2020,,242000,,"18952 ROSEWOOD TERRACE DR",HOUSTON,TX,77356,TAVOLA,,CONTRACTOR,,,,,,,,,,,"WESTIN HOMES",,,,,"WESTIN HOMES","1 SUGAR CREEK CENTER BLVD STE 600","SUGAR LAND",TX,77478-3787,"(281) 240-1551",http://www.westin-homes.com,,,
TX,MONTGOMERY,173713-20,"Single Family Homes",7/8/2020,,199000,,"18971 ROSEWOOD TERRACE DR",HOUSTON,TX,77356,TAVOLA,,CONTRACTOR,,,,,,,,,,,"WESTIN HOMES",,,,,"WESTIN HOMES","1 SUGAR CREEK CENTER BLVD STE 600","SUGAR LAND",TX,77478-3787,"(281) 240-1551",http://www.westin-homes.com,,,
TX,MONTGOMERY,173714-20,"Single Family Homes",7/8/2020,,200000,,"15122 BOTANICAL GARDEN DR",HOUSTON,TX,77356,ARTAVIA,,CONTRACTOR,,,,,,,,,,,"WESTIN HOMES",,,,,"WESTIN HOMES","1 SUGAR CREEK CENTER BLVD STE 600","SUGAR LAND",TX,77478-3787,"(281) 240-1551",http://www.westin-homes.com,,,
TX,MONTGOMERY,173715-20,"Single Family Homes",7/8/2020,,270000,,"15115 BOTANICAL GARDEN DR",HOUSTON,TX,77356,ARTAVIA,,CONTRACTOR,,,,,,,,,,,"WESTIN HOMES",,,,,"WESTIN HOMES","1 SUGAR CREEK CENTER BLVD STE 600","SUGAR LAND",TX,77478-3787,"(281) 240-1551",http://www.westin-homes.com,,,
TX,MONTGOMERY,173716-20,"Single Family Homes",7/8/2020,,205000,,"15119 BOTANICAL GARDEN DR",HOUSTON,TX,77356,ARTAVIA,,CONTRACTOR,,,,,,,,,,,"WESTIN HOMES",,,,,"WESTIN HOMES","1 SUGAR CREEK CENTER BLVD STE 600","SUGAR LAND",TX,77478-3787,"(281) 240-1551",http://www.westin-homes.com,,,
TX,MONTGOMERY,173717-20,"Single Family Homes",7/8/2020,,220000,,"27114 SPANISH WIND CT",HOUSTON,TX,77356,NORTHGROVE,,CONTRACTOR,,,,,,,,,,,"WESTIN HOMES",,,,,"WESTIN HOMES","1 SUGAR CREEK CENTER BLVD STE 600","SUGAR LAND",TX,77478-3787,"(281) 240-1551",http://www.westin-homes.com,,,
TX,MONTGOMERY,173599-20,"Single Family Homes",7/6/2020,,316018,,"12149 CREEKSIDE VILLAS CT",HOUSTON,TX,77356,"VILLAS AT WHITE OAK RANCH",,CONTRACTOR,,,,,,,,,,,"WOODFALLS DEVELOPMENT GROUP LLC",,,,,"WOODFALLS DEVELOPMENT GROUP LLC","12675 LONGMIRE WAY",CONROE,TX,77304-1077,"(936) 703-5445",https://www.woodfallstx.com,"(936) 703-5272",,
TX,MONTGOMERY,"173838 20","Single Family Homes",7/10/2020,,381949,,"12137 CREEKSIDE VILLAS CT",HOUSTON,TX,77356,"VILLAS AT WHITE OAK RANCH",,CONTRACTOR,,,,,,,,,,,"WOODFALLS DEVELOPMENT GROUP LLC",,,,,"WOODFALLS DEVELOPMENT GROUP LLC","12675 LONGMIRE WAY",CONROE,TX,77304-1077,"(936) 703-5445",https://www.woodfallstx.com,"(936) 703-5272",,
TX,MONTGOMERY,173854-20,"Single Family Homes",7/10/2020,,248200,,"1957 CLANCY LN",HOUSTON,TX,77356,"WOODMILL CREEK",,CONTRACTOR,,,,,,,,,,,"PELICAN BUILDERS",,,,,"PELICAN BUILDERS","4265 SAN FELIPE ST STE 720",HOUSTON,TX,77027-2956,"(713) 877-8170",http://www.pelicanbuilders.com/,"(713) 871-0798",,info@pelicanbuilders.com
TX,MONTGOMERY,173855-20,"Single Family Homes",7/10/2020,,231100,,"25217 CALHOUN CREEK DR",HOUSTON,TX,77356,"WOODMILL CREEK",,CONTRACTOR,,,,,,,,,,,"PELICAN BUILDERS",,,,,"PELICAN BUILDERS","4265 SAN FELIPE ST STE 720",HOUSTON,TX,77027-2956,"(713) 877-8170",http://www.pelicanbuilders.com/,"(713) 871-0798",,info@pelicanbuilders.com
TX,MONTGOMERY,173856-20,"Single Family Homes",7/10/2020,,231100,,"25246 CALHOUN CREEK DR",HOUSTON,TX,77356,"WOODMILL CREEK",,CONTRACTOR,,,,,,,,,,,"PELICAN BUILDERS",,,,,"PELICAN BUILDERS","4265 SAN FELIPE ST STE 720",HOUSTON,TX,77027-2956,"(713) 877-8170",http://www.pelicanbuilders.com/,"(713) 871-0798",,info@pelicanbuilders.com
TX,BELL,2020-5939,"Single Family Homes",7/6/2020,,252000,2913,"413 HOLSTEIN DR",BELTON,TX,76513,,,CONTRACTOR,,,,,,,,,,,"CAROTHERS EXECUTIVE HOMES",,,,,"CAROTHERS EXECUTIVE HOMES","50 S WHEAT RD",BELTON,TX,76513-8220,"(254) 773-0600",http://carothersexecutivehomes.com/,"(254) 791-0323","DAVID SOUTHERLAND",
TX,BELL,2020-5940,"Single Family Homes",7/6/2020,,255000,2913,"404 HOLSTEIN DR",BELTON,TX,76513,,,CONTRACTOR,,,,,,,,,,,"CAROTHERS EXECUTIVE HOMES",,,,,"CAROTHERS EXECUTIVE HOMES","50 S WHEAT RD",BELTON,TX,76513-8220,"(254) 773-0600",http://carothersexecutivehomes.com/,"(254) 791-0323","DAVID SOUTHERLAND",
TX,BELL,2020-5941,"Single Family Homes",7/13/2020,,215000,2195,"720 HOLSTEIN DR",BELTON,TX,76513,,,CONTRACTOR,,,,,,,,,,,"CAROTHERS EXECUTIVE HOMES",,,,,"CAROTHERS EXECUTIVE HOMES","50 S WHEAT RD",BELTON,TX,76513-8220,"(254) 773-0600",http://carothersexecutivehomes.com/,"(254) 791-0323","DAVID SOUTHERLAND",
TX,BELL,2020-5965,"Single Family Homes",7/10/2020,,245000,2713,"513 HOLSTEIN DR",BELTON,TX,76513,,,CONTRACTOR,,,,,,,,,,,"CAROTHERS EXECUTIVE HOMES",,,,,"CAROTHERS EXECUTIVE HOMES","50 S WHEAT RD",BELTON,TX,76513-8220,"(254) 773-0600",http://carothersexecutivehomes.com/,"(254) 791-0323","DAVID SOUTHERLAND",
TX,BELL,2020-5968,"Single Family Homes",7/15/2020,,389000,3293,"3210 INGRAM CIRCLE",BELTON,TX,76513,,,CONTRACTOR,,,,,,,,,,,"CAROTHERS EXECUTIVE HOMES",,,,,"CAROTHERS EXECUTIVE HOMES","50 S WHEAT RD",BELTON,TX,76513-8220,"(254) 773-0600",http://carothersexecutivehomes.com/,"(254) 791-0323","DAVID SOUTHERLAND",
TX,BELL,2020-6005,"Single Family Homes",7/21/2020,,,3551,"3226 TRINITY DR",BELTON,TX,76513,,,CONTRACTOR,,,,,,,,,,,"OMEGA HOMEBUILDERS",,,,,"OMEGA HOMEBUILDERS","7353 W ADAMS AVE",TEMPLE,TX,76502-5539,"(254) 773-9966",http://www.omegabuilders.com/,,"JOHN HOWE",
TX,BELL,2020-6008,"Single Family Homes",7/29/2020,,357000,3603,"330 OAK DR",BELTON,TX,76513,,,CONTRACTOR,,,,,,,,,,,"ORCHARD VALLEY HOMES",,,,,"ORCHARD VALLEY HOMES","13497 ORCHARD LN",HOLLAND,TX,76534,"(254) 290-2926",,,,
TX,MONTGOMERY,174027-20,"Single Family Homes",7/15/2020,,103050,,"13836 ROCK ISLAND TRAIL",HOUSTON,TX,77356,"FOSTERS RIDGE",,CONTRACTOR,,,,,,,,,,,"DR HORTON",,,,,"DR HORTON","14100 SOUTHWEST",HOUSTON,TX,77478,"(281) 201-5559",,,,
TX,MONTGOMERY,174028-20,"Single Family Homes",7/15/2020,,157050,,"13832 ROCK ISLAND TR",HOUSTON,TX,77356,"FOSTERS RIDGE",,CONTRACTOR,,,,,,,,,,,"DR HORTON",,,,,"DR HORTON","14100 SOUTHWEST",HOUSTON,TX,77478,"(281) 201-5559",,,,
TX,MONTGOMERY,174029-20,"Single Family Homes",7/15/2020,,169650,,"13810 ROCK ISLAND TR",HOUSTON,TX,77356,"FOSTERS RIDGE",,CONTRACTOR,,,,,,,,,,,"DR HORTON",,,,,"DR HORTON","14100 SOUTHWEST",HOUSTON,TX,77478,"(281) 201-5559",,,,
TX,MONTGOMERY,174030-20,"Single Family Homes",7/15/2020,,157050,,"14223 KINGS CANYON LN",HOUSTON,TX,77356,"FOSTERS RIDGE",,CONTRACTOR,,,,,,,,,,,"DR HORTON",,,,,"DR HORTON","14100 SOUTHWEST",HOUSTON,TX,77478,"(281) 201-5559",,,,
TX,MONTGOMERY,174031-20,"Single Family Homes",7/15/2020,,103050,,"14219 KINGS CANYON LN",HOUSTON,TX,77356,"FOSTERS RIDGE",,CONTRACTOR,,,,,,,,,,,"DR HORTON",,,,,"DR HORTON","14100 SOUTHWEST",HOUSTON,TX,77478,"(281) 201-5559",,,,
TX,MONTGOMERY,174032-20,"Single Family Homes",7/15/2020,,112515,,"14215 KINGS CANYON LN",HOUSTON,TX,77356,"FOSTERS RIDGE",,CONTRACTOR,,,,,,,,,,,"DR HORTON",,,,,"DR HORTON","14100 SOUTHWEST",HOUSTON,TX,77478,"(281) 201-5559",,,,
TX,MONTGOMERY,174033-20,"Single Family Homes",7/15/2020,,95130,,"14211 KINGS CANYON LN",HOUSTON,TX,77356,"FOSTERS RIDGE",,CONTRACTOR,,,,,,,,,,,"DR HORTON",,,,,"DR HORTON","14100 SOUTHWEST",HOUSTON,TX,77478,"(281) 201-5559",,,,
TX,MONTGOMERY,174034-20,"Single Family Homes",7/15/2020,,107550,,"14207 KINGS CANYON LN",HOUSTON,TX,77356,"FOSTERS RIDGE",,CONTRACTOR,,,,,,,,,,,"DR HORTON",,,,,"DR HORTON","14100 SOUTHWEST",HOUSTON,TX,77478,"(281) 201-5559",,,,
TX,MONTGOMERY,174035-20,"Single Family Homes",7/15/2020,,125640,,"14203 KINGS CANYON LN",HOUSTON,TX,77356,"FOSTERS RIDGE",,CONTRACTOR,,,,,,,,,,,"DR HORTON",,,,,"DR HORTON","14100 SOUTHWEST",HOUSTON,TX,77478,"(281) 201-5559",,,,
TX,MONTGOMERY,174036-20,"Single Family Homes",7/15/2020,,157050,,"13864 ROCK ISLAND TR",HOUSTON,TX,77356,"FOSTERS RIDGE",,CONTRACTOR,,,,,,,,,,,"DR HORTON",,,,,"DR HORTON","14100 SOUTHWEST",HOUSTON,TX,77478,"(281) 201-5559",,,,
TX,MONTGOMERY,174037-20,"Single Family Homes",7/15/2020,,112515,,"13860 ROCK ISLAND TR",HOUSTON,TX,77356,"FOSTERS RIDGE",,CONTRACTOR,,,,,,,,,,,"DR HORTON",,,,,"DR HORTON","14100 SOUTHWEST",HOUSTON,TX,77478,"(281) 201-5559",,,,
TX,MONTGOMERY,174038-20,"Single Family Homes",7/15/2020,,132885,,"13854 ROCK ISLAND TRAIL",HOUSTON,TX,77356,"FOSTERS RIDGE",,CONTRACTOR,,,,,,,,,,,"DR HORTON",,,,,"DR HORTON","14100 SOUTHWEST",HOUSTON,TX,77478,"(281) 201-5559",,,,
TX,MONTGOMERY,174039-20,"Single Family Homes",7/15/2020,,122500,,"13842 ROCK ISLAND TR",HOUSTON,TX,77356,"FOSTERS RIDGE",,CONTRACTOR,,,,,,,,,,,"DR HORTON",,,,,"DR HORTON","14100 SOUTHWEST",HOUSTON,TX,77478,"(281) 201-5559",,,,
TX,MONTGOMERY,174040-20,"Single Family Homes",7/15/2020,,125640,,"13824 ROCK ISLAND TR",HOUSTON,TX,77356,"FOSTERS RIDGE",,CONTRACTOR,,,,,,,,,,,"DR HORTON",,,,,"DR HORTON","14100 SOUTHWEST",HOUSTON,TX,77478,"(281) 201-5559",,,,
TX,MONTGOMERY,174041-20,"Single Family Homes",7/15/2020,,103050,,"13818 ROCK ISLAND TR",HOUSTON,TX,77356,"FOSTERS RIDGE",,CONTRACTOR,,,,,,,,,,,"DR HORTON",,,,,"DR HORTON","14100 SOUTHWEST",HOUSTON,TX,77478,"(281) 201-5559",,,,
TX,MONTGOMERY,174213-20,"Single Family Homes",7/17/2020,,98000,,"15517 BIG BOW BEND",HOUSTON,TX,77356,"ARROWHEAD LAKES",,"LUIS MARTINEZ","1015 RIDGEWAY DR",CONROE,TX,77303,,Owner,,,,,OWNER,,,,,OWNER,,,,,,,,,
TX,MONTGOMERY,171107-20,"Single Family Homes",7/15/2020,,357990,,"15248 HEMINGWAY HEIGHTS",HOUSTON,TX,77356,ARTAVIA,,CONTRACTOR,,,,,,,,,,,"MHI MCGUYER HOMEBUILDERS",,,,,"MHI MCGUYER HOMEBUILDERS","7676 WOODWAY DR",HOUSTON,TX,77063-1526,"(713) 260-4107",,,,
TX,MONTGOMERY,174108-20,"Single Family Homes",7/15/2020,,263990,,"17409 CHESTNUT COVE DR",HOUSTON,TX,77356,ARTAVIA,,CONTRACTOR,,,,,,,,,,,"MHI MCGUYER HOMEBUILDERS",,,,,"MHI MCGUYER HOMEBUILDERS","7676 WOODWAY DR",HOUSTON,TX,77063-1526,"(713) 260-4107",,,,
TX,MONTGOMERY,174109-20,"Single Family Homes",7/15/2020,,298990,,"17574 SUNSET SKIES ROAD",HOUSTON,TX,77356,ARTAVIA,,CONTRACTOR,,,,,,,,,,,"MHI MCGUYER HOMEBUILDERS",,,,,"MHI MCGUYER HOMEBUILDERS","7676 WOODWAY DR",HOUSTON,TX,77063-1526,"(713) 260-4107",,,,
TX,MONTGOMERY,174110-20,"Single Family Homes",7/15/2020,,299990,,"17549 SUNSET SKIES ROAD",HOUSTON,TX,77356,ARTAVIA,,CONTRACTOR,,,,,,,,,,,"MHI MCGUYER HOMEBUILDERS",,,,,"MHI MCGUYER HOMEBUILDERS","7676 WOODWAY DR",HOUSTON,TX,77063-1526,"(713) 260-4107",,,,
TX,MONTGOMERY,174111-20,"Single Family Homes",7/15/2020,,261990,,"2606 FOREST COVE CT",HOUSTON,TX,77356,"MEADOW AT IMPERIAL OAKS",,CONTRACTOR,,,,,,,,,,,"MHI MCGUYER HOMEBUILDERS",,,,,"MHI MCGUYER HOMEBUILDERS","7676 WOODWAY DR",HOUSTON,TX,77063-1526,"(713) 260-4107",,,,
TX,MONTGOMERY,174112-20,"Single Family Homes",7/15/2020,,265990,,"2754 HIDDEN HOLLOW LN",HOUSTON,TX,77356,"MEADOWS AT IMPERIAL OAKS",,CONTRACTOR,,,,,,,,,,,"MHI MCGUYER HOMEBUILDERS",,,,,"MHI MCGUYER HOMEBUILDERS","7676 WOODWAY DR",HOUSTON,TX,77063-1526,"(713) 260-4107",,,,
TX,MONTGOMERY,174113-20,"Single Family Homes",7/15/2020,,338990,,"32152 PARK PLAINS DR",HOUSTON,TX,77356,"MEADOWS AT IMPERIAL OAKS",,CONTRACTOR,,,,,,,,,,,"MHI MCGUYER HOMEBUILDERS",,,,,"MHI MCGUYER HOMEBUILDERS","7676 WOODWAY DR",HOUSTON,TX,77063-1526,"(713) 260-4107",,,,
TX,MONTGOMERY,174114-20,"Single Family Homes",7/15/2020,,215990,,"2914 YAUPON GROVE LN",HOUSTON,TX,77356,"MEADOWS AT IMPERIAL OAKS",,CONTRACTOR,,,,,,,,,,,"MHI MCGUYER HOMEBUILDERS",,,,,"MHI MCGUYER HOMEBUILDERS","7676 WOODWAY DR",HOUSTON,TX,77063-1526,"(713) 260-4107",,,,
TX,MONTGOMERY,174115-20,"Single Family Homes",7/15/2020,,201990,,"32014 QUAIL TERRACE LN",HOUSTON,TX,77356,"MEADOWS AT IMPERIAL OAKS",,CONTRACTOR,,,,,,,,,,,"MHI MCGUYER HOMEBUILDERS",,,,,"MHI MCGUYER HOMEBUILDERS","7676 WOODWAY DR",HOUSTON,TX,77063-1526,"(713) 260-4107",,,,
TX,MONTGOMERY,174116-20,"Single Family Homes",7/15/2020,,206990,,"32074 QUAIL TERRACE LN",HOUSTON,TX,77356,"MEADOWS AT IMPERIAL OAKS",,CONTRACTOR,,,,,,,,,,,"MHI MCGUYER HOMEBUILDERS",,,,,"MHI MCGUYER HOMEBUILDERS","7676 WOODWAY DR",HOUSTON,TX,77063-1526,"(713) 260-4107",,,,
TX,MONTGOMERY,174117-20,"Single Family Homes",7/15/2020,,236990,,"2783 HIDDEN HOLLOW LN",HOUSTON,TX,77356,"MEADOWS AT IMPERIAL OAKS",,CONTRACTOR,,,,,,,,,,,"MHI MCGUYER HOMEBUILDERS",,,,,"MHI MCGUYER HOMEBUILDERS","7676 WOODWAY DR",HOUSTON,TX,77063-1526,"(713) 260-4107",,,,
TX,MONTGOMERY,174118-20,"Single Family Homes",7/15/2020,,234990,,"2790 HIDDEN HOLLOW LN",HOUSTON,TX,77356,"MEADOWS AT IMPERIAL OAKS",,CONTRACTOR,,,,,,,,,,,"MHI MCGUYER HOMEBUILDERS",,,,,"MHI MCGUYER HOMEBUILDERS","7676 WOODWAY DR",HOUSTON,TX,77063-1526,"(713) 260-4107",,,,
TX,MONTGOMERY,174119-20,"Single Family Homes",7/15/2020,,206990,,"32062 QUAIL TERRACE LN",HOUSTON,TX,77356,"MEADOWS AT IMPERIAL OAKS",,CONTRACTOR,,,,,,,,,,,"MHI MCGUYER HOMEBUILDERS",,,,,"MHI MCGUYER HOMEBUILDERS","7676 WOODWAY DR",HOUSTON,TX,77063-1526,"(713) 260-4107",,,,
TX,MONTGOMERY,174121-20,"Single Family Homes",7/15/2020,,215990,,"32070 QUAIL TERRACE LN",HOUSTON,TX,77356,"MEADOWS AT IMPERIAL OAKS",,CONTRACTOR,,,,,,,,,,,"MHI MCGUYER HOMEBUILDERS",,,,,"MHI MCGUYER HOMEBUILDERS","7676 WOODWAY DR",HOUSTON,TX,77063-1526,"(713) 260-4107",,,,
TX,MONTGOMERY,"174122 20","Single Family Homes",7/15/2020,,236990,,"2775 HIDDEN HOLLOW DR",HOUSTON,TX,77356,"MEADOWS AT IMPERIAL OAKS",,CONTRACTOR,,,,,,,,,,,"MHI MCGUYER HOMEBUILDERS",,,,,"MHI MCGUYER HOMEBUILDERS","7676 WOODWAY DR",HOUSTON,TX,77063-1526,"(713) 260-4107",,,,
TX,MONTGOMERY,174023-20,"Single Family Homes",7/14/2020,,182307,,"1309 SWEET GUM ST",HOUSTON,TX,77356,"LAKE CHATEAU WOODS",,CONTRACTOR,,,,,,,,,,,"NOVUS BUILDING & DESIGN",,,,,"NOVUS BUILDING & DESIGN","9803 HWY 242, STE 200-261",CONROE,TX,77373,"(713) 805-9513",,,"AMANDA TATE",
TX,MONTGOMERY,173948-20,"Single Family Homes",7/14/2020,,585000,,"3311 ATWOOD CREEK COURT",HOUSTON,TX,77356,"FALLS AT IMPERIAL OAKS",,CONTRACTOR,,,,,,,,,,,"PARTNERS IN BUILDING",,,,,"PARTNERS IN BUILDING","2901 W SAM HOUSTON PKWY N STE C250",HOUSTON,TX,77043-1624,"(713) 937-1121",http://www.partnersinbuilding.com,"(713) 937-1145",,
TX,MONTGOMERY,173869-20,"Single Family Homes",7/13/2020,,228713,,"231 CREST EDGE ST",HOUSTON,TX,77356,WOODFOREST,,CONTRACTOR,,,,,,,,,,,"PERRY HOMES",,,,,"PERRY HOMES","9000 GULF FWY",HOUSTON,TX,77017-7018,"(713) 417-1396",,,,
TX,MONTGOMERY,173870-20,"Single Family Homes",7/13/2020,,253238,,"247 CREST EDGE ST",HOUSTON,TX,77356,WOODFOREST,,CONTRACTOR,,,,,,,,,,,"PERRY HOMES",,,,,"PERRY HOMES","9000 GULF FWY",HOUSTON,TX,77017-7018,"(713) 417-1396",,,,
TX,MONTGOMERY,173876-20,"Single Family Homes",7/13/2020,,326475,,"4509 SILVER PINE CT",HOUSTON,TX,77356,"WOODSON'S RESERVE",,CONTRACTOR,,,,,,,,,,,"PERRY HOMES",,,,,"PERRY HOMES","9000 GULF FWY",HOUSTON,TX,77017-7018,"(713) 417-1396",,,,
TX,MONTGOMERY,174070-20,"Single Family Homes",7/15/2020,,299925,,"19236 YELLOW CHESTNUT LN",HOUSTON,TX,77356,TAVOLA,,CONTRACTOR,,,,,,,,,,,"PERRY HOMES",,,,,"PERRY HOMES","9000 GULF FWY",HOUSTON,TX,77017-7018,"(713) 417-1396",,,,
TX,MONTGOMERY,174073-20,"Single Family Homes",7/15/2020,,341175,,"28237 WOODLAND BEND CT",HOUSTON,TX,77356,"WOODSON'S RESERVE",,CONTRACTOR,,,,,,,,,,,"PERRY HOMES",,,,,"PERRY HOMES","9000 GULF FWY",HOUSTON,TX,77017-7018,"(713) 417-1396",,,,
TX,MONTGOMERY,174074-20,"Single Family Homes",7/15/2020,,326952,,"4509 WOODLAND BEND CT",HOUSTON,TX,77356,"WOODSON'S RESERVE",,CONTRACTOR,,,,,,,,,,,"PERRY HOMES",,,,,"PERRY HOMES","9000 GULF FWY",HOUSTON,TX,77017-7018,"(713) 417-1396",,,,
TX,MONTGOMERY,173990-20,"Single Family Homes",7/14/2020,,299000,,"415 CONNEMARA DR",HOUSTON,TX,77356,"DEL WEBB",,CONTRACTOR,,,,,,,,,,,"PULTE HOMES",,,,,"PULTE HOMES","16670 PARK ROW",HOUSTON,TX,77084-6866,"(281) 749-8000",,,,
TX,MONTGOMERY,173992-20,"Single Family Homes",7/14/2020,,324000,,"152 DARTMOOR LN",HOUSTON,TX,77356,"DEL WEBB",,CONTRACTOR,,,,,,,,,,,"PULTE HOMES",,,,,"PULTE HOMES","16670 PARK ROW",HOUSTON,TX,77084-6866,"(281) 749-8000",,,,
TX,MONTGOMERY,173993-20,"Single Family Homes",7/14/2020,,258000,,"4300 IMPERIAL GARDENS DR",HOUSTON,TX,77356,"HARMONY VILLAGE",,CONTRACTOR,,,,,,,,,,,"PULTE HOMES",,,,,"PULTE HOMES","16670 PARK ROW",HOUSTON,TX,77084-6866,"(281) 749-8000",,,,
TX,MONTGOMERY,173996-20,"Single Family Homes",7/14/2020,,240000,,"4308 HEAVENLY WOODS DR",HOUSTON,TX,77356,"HARMONY VILLAGE",,CONTRACTOR,,,,,,,,,,,"PULTE HOMES",,,,,"PULTE HOMES","16670 PARK ROW",HOUSTON,TX,77084-6866,"(281) 749-8000",,,,
TX,MONTGOMERY,174007-20,"Single Family Homes",7/14/2020,,321500,,"156 DARTMOOR LN",HOUSTON,TX,77356,"DEL WEBB",,CONTRACTOR,,,,,,,,,,,"PULTE HOMES",,,,,"PULTE HOMES","16670 PARK ROW",HOUSTON,TX,77084-6866,"(281) 749-8000",,,,
TX,MONTGOMERY,174008-20,"Single Family Homes",7/14/2020,,502000,,"229 SILVER DAPPLE",HOUSTON,TX,77356,"DEL WEBB",,CONTRACTOR,,,,,,,,,,,"PULTE HOMES",,,,,"PULTE HOMES","16670 PARK ROW",HOUSTON,TX,77084-6866,"(281) 749-8000",,,,
TX,MONTGOMERY,174009-20,"Single Family Homes",7/14/2020,,529000,,"348 BELGIAN CT",HOUSTON,TX,77356,"DEL WEBB",,CONTRACTOR,,,,,,,,,,,"PULTE HOMES",,,,,"PULTE HOMES","16670 PARK ROW",HOUSTON,TX,77084-6866,"(281) 749-8000",,,,
TX,MONTGOMERY,174010-20,"Single Family Homes",7/14/2020,,287000,,"4317 HEAVENLY WOODS DR",HOUSTON,TX,77356,"HARMONY VILLAGE",,CONTRACTOR,,,,,,,,,,,"PULTE HOMES",,,,,"PULTE HOMES","16670 PARK ROW",HOUSTON,TX,77084-6866,"(281) 749-8000",,,,
TX,MONTGOMERY,174167-20,"Single Family Homes",7/17/2020,,210470,,"142 COURAGEOUS SIDE WAY",HOUSTON,TX,77356,"BLACK OAK",,CONTRACTOR,,,,,,,,,,,"RAUSCH COLEMAN HOMES",,,,,"RAUSCH COLEMAN HOMES","9504 N IH35 STE 310","SAN ANTONIO",TX,78233,"(210) 231-0703",https://www.rauschcolemanhomes.com/,,,
TX,MONTGOMERY,174171-20,"Single Family Homes",7/17/2020,,205299,,"253 STALWART HILL TRAIL",HOUSTON,TX,77356,"BLACK OAK",,CONTRACTOR,,,,,,,,,,,"RAUSCH COLEMAN HOMES",,,,,"RAUSCH COLEMAN HOMES","9504 N IH35 STE 310","SAN ANTONIO",TX,78233,"(210) 231-0703",https://www.rauschcolemanhomes.com/,,,
TX,MONTGOMERY,174173-20,"Single Family Homes",7/17/2020,,179010,,"150 VALIANT RIDGE TR",HOUSTON,TX,77356,"BLACK OAK",,CONTRACTOR,,,,,,,,,,,"RAUSCH COLEMAN HOMES",,,,,"RAUSCH COLEMAN HOMES","9504 N IH35 STE 310","SAN ANTONIO",TX,78233,"(210) 231-0703",https://www.rauschcolemanhomes.com/,,,
TX,MONTGOMERY,174175-20,"Single Family Homes",7/17/2020,,205299,,"130 VALIANT RIDGE TR",HOUSTON,TX,77356,"BLACK OAK",,CONTRACTOR,,,,,,,,,,,"RAUSCH COLEMAN HOMES",,,,,"RAUSCH COLEMAN HOMES","9504 N IH35 STE 310","SAN ANTONIO",TX,78233,"(210) 231-0703",https://www.rauschcolemanhomes.com/,,,
TX,MONTGOMERY,174004-20,"Single Family Homes",7/14/2020,,250000,,"22830 RIO GRANDE DR",HOUSTON,TX,77356,,,CONTRACTOR,,,,,,,,,,,"ROCHA BUILDERS",,,,,"ROCHA BUILDERS","14346 SE VISTA HEIGHTS ST","HAPPY VALLEY",OR,77365,"(503) 957-7156",http://rochabuilders.com/,,"CHARLES CATES",charles@rochabuilders.com
TX,MONTGOMERY,"174006 20","Single Family Homes",7/14/2020,,220000,,"22916 RIO GRANDE DR",HOUSTON,TX,77356,RIVERWALK,,CONTRACTOR,,,,,,,,,,,"ROCHA BUILDERS",,,,,"ROCHA BUILDERS","14346 SE VISTA HEIGHTS ST","HAPPY VALLEY",OR,77365,"(503) 957-7156",http://rochabuilders.com/,,"CHARLES CATES",charles@rochabuilders.com
TX,MONTGOMERY,173903-20,"Single Family Homes",7/13/2020,,280000,,"301 CAMDEN HILLS DR",HOUSTON,TX,77356,BENTWATER,,CONTRACTOR,,,,,,,,,,,"ROYAL TEXAN HOMES",,,,,"ROYAL TEXAN HOMES","15885 HIGHWAY 105 W",MONTGOMERY,TX,77356-5662,"(936) 271-4425",http://www.royaltexan.com/,,,
TX,MONTGOMERY,173949-20,"Single Family Homes",7/14/2020,,384000,,"31612 JOHLKE ROAD",HOUSTON,TX,77356,"MEADOW POINT",,CONTRACTOR,,,,,,,,,,,"RVISION HOMES ",,,,,"RVISION HOMES ","9511 FERN WOOD FRST",HOUSTON,TX,77040-6895,"(832) 466-3162",,,"RYAN ROGERS",ryanrogers2011@yahoo.com
TX,MONTGOMERY,173950-20,"Single Family Homes",7/14/2020,,365000,,"31608 JOHLKE ROAD",HOUSTON,TX,77356,"MEADOW POINT",,CONTRACTOR,,,,,,,,,,,"RVISION HOMES ",,,,,"RVISION HOMES ","9511 FERN WOOD FRST",HOUSTON,TX,77040-6895,"(832) 466-3162",,,"RYAN ROGERS",ryanrogers2011@yahoo.com
TX,MONTGOMERY,173924-20,"Single Family Homes",7/13/2020,,190000,,"3251 PINE ROAD",HOUSTON,TX,77356,,,"BRANDI SAINZ","112 SHERBROOK CIRCLE",CONROE,TX,77385,,Owner,,,,,OWNER,,,,,OWNER,,,,,,,,,
TX,HARRIS,20055897,"Warehouse & Manufacturing",7/23/2020,Addition,2513993,,"9649 W WINGFOOT",HOUSTON,TX,77041,,,CONTRACTOR,,,,,,,,,,,"BRANDT COMPANIES",,,,,"BRANDT COMPANIES","8848 N SAM HOUSTON PARKWAY W SUITE 410",HOUSTON,TX,77064,"(832) 714-3200",https://www.brandt.us/,,,Houstoninfo@brandt.us
