state,county,permno,ptype,pdate,pdescription,jvalue,jsqfeet,jaddr,jcity,jstate,jzip,jsubdiv,jlotno,aname,aaddr,acity,astate,azip,aphone,atype,aurl,afax,aprimarycontact,aemail,bldcode,units,bldgs,ctype,legal,contractor,caddress,ccity,cstate,czip,cphone,curl,cfax,cprimarycontact,cemail
TX,HARRIS,20018791,"Auto Sales & Services",7/15/2020,Renovation,1400000,,"9633 WESTHEIMER RD",HOUSTON,TX,77063,,,CONTRACTOR,,,,,,,,,,,"DLP CONSTRUCTION",,,,,"DLP CONSTRUCTION","PO BOX 29049",DALLAS,TX,75229-0049,"(972) 252-9979",,"(972) 252-9759",,
TX,MONTGOMERY,200361,"Auto Sales & Services",6/15/2020,,130000,30910,"28075 ROBINSON RD",CONROE,TX,77385,,,CONTRACTOR,,,,,,,,,,,"TERRA FIRMA DEVELOPMENT",,,,,"TERRA FIRMA DEVELOPMENT","7 SWITCHBUD PL",SPRING,TX,77380-3700,"(832) 813-0055",http://dev.terrafirmadevelopment.com/,"(281) 466-8004",,
TX,"FORT BEND",20200410,"Auto Sales & Services",6/18/2020,,32000,2245,"3950 GREENBRIAR",STAFFORD,TX,77477,,,CONTRACTOR,,,,,,,,,,,"HORIZON BUILDERS",,,,,"HORIZON BUILDERS","2121 BRITTMOORE RD",HOUSTON,TX,77043-2200,"(713) 460-9940",http://www.horizonbuilders.com,"(713) 460-9941",,
TX,HARRIS,18037242,"Churches & Other Religious",7/22/2020,Addition,980699,,"13833 RICHMOND AVE",HOUSTON,TX,77082,,,"LIVING WORD CHAPEL","13833 RICHMOND AVE",HOUSTON,TX,77082,"(281) 497-9673",Owner,,,,,OWNER,,,,,OWNER,,,,,,,,,
TX,HARRIS,20040413,"Commercial Swimming Pool & Spas",6/15/2020,,306075,,"15500 MIDDLEBROOK DR",HOUSTON,TX,77058,,,CONTRACTOR,,,,,,,,,,,"TEXAS COAST FOUNTAINS & POOLS",,,,,"TEXAS COAST FOUNTAINS & POOLS","7449 LARGE AVE",MANVEL,TX,77578-4744,"(281) 692-0784",,,"MIKE REDMAN",
TX,HARRIS,19084357,"Duplex, Triplex, & Fourplex",7/15/2020,,179900,,"209 GANS",HOUSTON,TX,77356,,,"AMENDARIZ  ANA S","209 GANS",HOUSTON,TX,77356,,Owner,,,,,OWNER,,,,,OWNER,,,,,,,,,
TX,HARRIS,20014416,"Duplex, Triplex, & Fourplex",7/16/2020,,282058,,"5036 VAN FLEET ST",HOUSTON,TX,77033,,,CONTRACTOR,,,,,,,,,,,"CHAMPION CUSTOM HOMES",,,,,"CHAMPION CUSTOM HOMES","2600 FM 476W","SAN ANTONIO",TX,78065,"(210) 294-4541",,,,
TX,HARRIS,20049310,"Duplex, Triplex, & Fourplex",7/17/2020,,230000,,"8626 WILLIAMSDELL ST A",HOUSTON,TX,77088,,,CONTRACTOR,,,,,,,,,,,"OLVERA DESIGNS",,,,,"OLVERA DESIGNS","2505 BROADWAY ST APT 30",HOUSTON,TX,77012-3826,"(281) 850-8877",,,,
TX,HARRIS,20053426,"Duplex, Triplex, & Fourplex",7/14/2020,,159460,,"8234 CONSTELLATION LN A",HOUSTON,TX,77075,,,"ANORGA JOEL","8234 CONSTELLATION LN A",HOUSTON,TX,77075,"(832) 885-9212",Applicant,,,,,OWNER,,,,,OWNER,,,,,,,,,
TX,HARRIS,20028463,"Duplex, Triplex, & Fourplex",7/17/2020,,304309,,"10022 MOROCCO RD A",HOUSTON,TX,77041,,,CONTRACTOR,,,,,,,,,,,"O GUERRERO CONSTRUCTION",,,,,"O GUERRERO CONSTRUCTION","19635 RIVER BOTTOM RD",KATY,TX,77449-7315,"(281) 960-6729",,,,
TX,HARRIS,20034050,"Duplex, Triplex, & Fourplex",7/14/2020,,50000,,"2418 MANN ST A",HOUSTON,TX,77093,,,"MORALES DIEGO","2418 MANN ST A",HOUSTON,TX,77093,"(832) 248-1055",Applicant,,,,,OWNER,,,,,OWNER,,,,,,,,,
TX,"FORT BEND",19-00104294,"Educational Institution",6/8/2020,,116248,,"321 SEVENTH ST","SUGAR LAND",TX,77478,,,CONTRACTOR,,,,,,,,,,,"E CONTRACTORS USA",,,,,"E CONTRACTORS USA","7120 GRAND BLVD STE 200",HOUSTON,TX,77054-3411,"(713) 842-3313",,,"KARUN SREERAMA",
TX,"FORT BEND",19-00104296,"Educational Institution",6/8/2020,,117206,,"4200 ELKINS RD","SUGAR LAND",TX,77478,,,CONTRACTOR,,,,,,,,,,,"E CONTRACTORS USA",,,,,"E CONTRACTORS USA","7120 GRAND BLVD STE 200",HOUSTON,TX,77054-3411,"(713) 842-3313",,,"KARUN SREERAMA",
TX,HARRIS,20031339,"Educational Institution",7/24/2020,Renovation,237000,,"6500 MAIN ST FL",HOUSTON,TX,77030,,,CONTRACTOR,,,,,,,,,,,"DPR CONSTRUCTION",,,,,"DPR CONSTRUCTION","5051 WESTHEMIER RD",HOUSTON,TX,77056,"(713) 386-1399",,,,
TX,HARRIS,20057933,"Hospital & Other Medical",7/17/2020,,2813312,,"1504 TAUB",HOUSTON,TX,77030,,,CONTRACTOR,,,,,,,,,,,"VAUGHN CONSTRUCTION",,,,,"VAUGHN CONSTRUCTION","152 CARRIE ST",HOUSTON,TX,77047-4014,"(713) 589-7400",,,,
TX,"FORT BEND",20200590,"Hospital & Other Medical",6/9/2020,,250000,2814,"428 FM 1092 #100 ",STAFFORD,TX,77477,,,CONTRACTOR,,,,,,,,,,,"ANLARR CONSTRUCTION",,,,,"ANLARR CONSTRUCTION","7207 REGENCY SQUARE BLVD",HOUSTON,TX,77036-3188,"(832) 849-0048",http://www.anlarrconstruction.com/,,,info@anlarrconstruction.com
TX,"FORT BEND",20200453,"Hospital & Other Medical",6/17/2020,,350000,5020,"12603 SOUTHWEST FREEWAY STE 315 ",STAFFORD,TX,77477,,,CONTRACTOR,,,,,,,,,,,"MERIDIAN CONSTRUCTORS",,,,,"MERIDIAN CONSTRUCTORS","6105 BRITTMOORE RD STE B",HOUSTON,TX,77041-5695,"(281) 759-1200",http://www.meridianconstructors.com,"(281) 759-1230",,development@meridianconstructors.com
TX,HARRIS,19141356,"Hospital & Other Medical",7/23/2020,Addition,40000,,"2450 FONDREN RD",HOUSTON,TX,77063,,,"NAJA FADY","211 BAKER ST",HOUSTON,TX,77077,"(713) 603-9820",Applicant,,,,,OWNER,,,,,OWNER,,,,,,,,,
TX,HARRIS,20040083,"Hotel, Motel & Assisted Living",7/17/2020,Renovation,2700000,,"1300 LAMAR ST FL",HOUSTON,TX,77010,,,CONTRACTOR,,,,,,,,,,,"TURNER CONSTRUCTION",,,,,"TURNER CONSTRUCTION","4263 DACOMA ST",HOUSTON,TX,77092-8607,"(713) 840-8441",,,,
TX,"FORT BEND",20-00103079,"Hotel, Motel & Assisted Living",6/23/2020,,196000,,"14444 SOUTHWEST FWY","SUGAR LAND",TX,77479,,,CONTRACTOR,,,,,,,,,,,"LOGANS GENERAL CONTRACTING",,,,,"LOGANS GENERAL CONTRACTING","3907 PANORAMA DRIVE","MISSOURI CITY",TX,77459,"(281) 460-1587",https://logansgeneralcontracting.com/,,,
TX,"FORT BEND","20 00101361","Multi Family Apartments & Condos",6/9/2020,,945000,,"18710 UNIVERSITY BLVD LEVEL 1","SUGAR LAND",TX,77479,,,CONTRACTOR,,,,,,,,,,,"VMV CONSTRUCTION",,,,,"VMV CONSTRUCTION","2910 GATEWAY BLVD E","EL PASO",TX,79905-1013,"(915) 491-4422",,,"OMAR VELIZ",
TX,HARRIS,20059692,"Offices, R&D, & Professional",7/17/2020,Renovation,48250,,"4400 POST OAK PKY",HOUSTON,TX,77027,,,CONTRACTOR,,,,,,,,,,,"BYRD INTERIOR CONSTRUCTION",,,,,"BYRD INTERIOR CONSTRUCTION","2123 W GOVERNORS CIR # 100",HOUSTON,TX,77092-8746,"(713) 688-8850",http://www.byrdinterior.com/,,"JOHN BYRD",jbyrd@byrdinterior.com
TX,HARRIS,20058915,"Offices, R&D, & Professional",7/14/2020,Renovation,312550,,"3737 BUFFALO SPEEDWAY",HOUSTON,TX,77098,,,CONTRACTOR,,,,,,,,,,,"BYRD INTERIOR CONSTRUCTION",,,,,"BYRD INTERIOR CONSTRUCTION","2123 W GOVERNORS CIR # 100",HOUSTON,TX,77092-8746,"(713) 688-8850",http://www.byrdinterior.com/,,"JOHN BYRD",jbyrd@byrdinterior.com
TX,HARRIS,20056989,"Offices, R&D, & Professional",7/17/2020,,105385,,"1155 DAIRY ASHFORD RD",HOUSTON,TX,77079,,,CONTRACTOR,,,,,,,,,,,"COMMERCIAL TENANT CONSTRUCTION",,,,,"COMMERCIAL TENANT CONSTRUCTION","6001 CENTRALCREST ST",HOUSTON,TX,77092-7009,"(713) 956-1086",http://www.commercial-tenant.com,"(713) 956-1086","MIKE SCHULTZ",mike@commercial-tenant.com
TX,HARRIS,20036484,"Offices, R&D, & Professional",7/15/2020,,30000,,"720 N POST OAK RD",HOUSTON,TX,77024,,,CONTRACTOR,,,,,,,,,,,"G BUILDING & DEVELOPMENT",,,,,"G BUILDING & DEVELOPMENT","2006 LIBBEY DRIVE",HOUSTON,TX,77018,"(713) 894-8739",,,,
TX,HARRIS,20050244,"Offices, R&D, & Professional",7/17/2020,Renovation,1330000,,"3700 BUFFALO SPEEDWAY",HOUSTON,TX,77098,,,CONTRACTOR,,,,,,,,,,,"HARVEY CLEARY BUILDERS",,,,,"HARVEY CLEARY BUILDERS","3630 WESTCHASE DR",HOUSTON,TX,77042-5224,"(713) 783-7919",http://www.harvey-cleary.com/,,,
TX,HARRIS,20058586,"Offices, R&D, & Professional",7/16/2020,Renovation,43554,,"16441 SPACE CENTER BLVD",HOUSTON,TX,77058,,,CONTRACTOR,,,,,,,,,,,"TED JOPLIN CONSTRUCTION",,,,,"TED JOPLIN CONSTRUCTION","4026 STRAWBERRY CT",DICKINSON,TX,77539-6296,"(214) 718-8591",,,,
TX,HARRIS,20062755,"Offices, R&D, & Professional",7/15/2020,Renovation,800017,,"600 TRAVIS ST",HOUSTON,TX,77002,,,CONTRACTOR,,,,,,,,,,,"ODONNELL SNIDER CONSTRUCTION",,,,,"ODONNELL SNIDER CONSTRUCTION","1900 WEST LOOP S",HOUSTON,TX,77027-3214,"(346) 352-3098",http://odonnellsnider.com/,,,
TX,HARRIS,20066310,"Offices, R&D, & Professional",7/17/2020,Renovation,350000,,"909 FANNIN ST FL",HOUSTON,TX,77010,,,CONTRACTOR,,,,,,,,,,,"ODONNELL SNIDER CONSTRUCTION",,,,,"ODONNELL SNIDER CONSTRUCTION","1900 WEST LOOP S",HOUSTON,TX,77027-3214,"(346) 352-3098",http://odonnellsnider.com/,,,
TX,HARRIS,20059015,"Offices, R&D, & Professional",7/16/2020,Renovation,540000,,"1700 WEST LOOP SOUTH",HOUSTON,TX,77027,,,CONTRACTOR,,,,,,,,,,,"ODONNELL SNIDER CONSTRUCTION",,,,,"ODONNELL SNIDER CONSTRUCTION","1900 WEST LOOP S",HOUSTON,TX,77027-3214,"(346) 352-3098",http://odonnellsnider.com/,,,
TX,HARRIS,20059349,"Offices, R&D, & Professional",7/17/2020,Renovation,42337,,"800 BERING DR",HOUSTON,TX,77057,,,CONTRACTOR,,,,,,,,,,,"PREFERRED CONTRACTING SERVICES",,,,,"PREFERRED CONTRACTING SERVICES","1151 BRITTMOORE RD STE C",HOUSTON,TX,77043-5035,"(713) 983-6990",,,,
TX,HARRIS,20044434,"Offices, R&D, & Professional",7/15/2020,Renovation,265000,,"200 WESTLAKE PARK BLVD",HOUSTON,TX,77079,,,CONTRACTOR,,,,,,,,,,,"PINNACLE TENANT",,,,,"PINNACLE TENANT","3010 BRIARPARK DRIVE # 190",HOUSTON,TX,77042,"(713) 783-3010",,,,
TX,HARRIS,20060059,"Offices, R&D, & Professional",7/16/2020,Renovation,410000,,"3773 RICHMOND AVE",HOUSTON,TX,77046,,,CONTRACTOR,,,,,,,,,,,"TI CONSTRUCTORS",,,,,"TI CONSTRUCTORS","4321 DIRECTORS ROW",HOUSTON,TX,77092-8742,"(281) 414-1580",,,,
TX,HARRIS,19070228,"Offices, R&D, & Professional",6/11/2020,,1000500,,"2145 ALABAMA",PASADENA,TX,77503,,,CONTRACTOR,,,,,,,,,,,WAY-TECH,,,,,WAY-TECH,"6124 WESTVIEW DR",HOUSTON,TX,77055-5422,"(216) 781-9144",http://www.way-tech.net,"(713) 956-7306","ERNIE FLOHR",eflohr@way-tech.net
TX,HARRIS,20050650,"Offices, R&D, & Professional",6/12/2020,Renovation,75000,,"4320 CRENSHAW RD",PASADENA,TX,77504,,,CONTRACTOR,,,,,,,,,,,"BROWN & ROOT",,,,,"BROWN & ROOT","2600 CITIPLACE CT","BATON ROUGE",LA,70808-2711,"(225) 778-7655",http://www.brownandroot.com,,,
TX,"FORT BEND",20-00102293,"Offices, R&D, & Professional",6/23/2020,,366877,,"1600 STATE HWY 6 STE 100","SUGAR LAND",TX,77479,,,CONTRACTOR,,,,,,,,,,,"CDI CONTRACTORS",,,,,"CDI CONTRACTORS","121 STACY RD",MCKINNEY,TX,75069-1519,"(972) 886-4073",,,,
TX,"FORT BEND","20 00102309","Offices, R&D, & Professional",6/3/2020,,284783,,"12300 DAIRY ASHFORD RD STE 400","SUGAR LAND",TX,77479,,,CONTRACTOR,,,,,,,,,,,"ANGLER CONSTRUCTION",,,,,"ANGLER CONSTRUCTION","5005 WOODWAY",HOUSTON,TX,77056,"(713) 629-5860",http://anglerco.com/,,,
TX,"FORT BEND",20-00102398,"Offices, R&D, & Professional",6/23/2020,,254867,,"17520 W GRAND PKWY S STE 430","SUGAR LAND",TX,77479,,,CONTRACTOR,,,,,,,,,,,"BYRD INTERIOR CONSTRUCTION",,,,,"BYRD INTERIOR CONSTRUCTION","2123 W GOVERNORS CIR # 100",HOUSTON,TX,77092-8746,"(713) 688-8850",http://www.byrdinterior.com/,,"JOHN BYRD",jbyrd@byrdinterior.com
TX,"FORT BEND",20-00102513,"Offices, R&D, & Professional",6/1/2020,,72893,,"14100 SOUTHWEST FWY STE 205","SUGAR LAND",TX,77479,,,CONTRACTOR,,,,,,,,,,,"RUPPEL CONSTRUCTION",,,,,"RUPPEL CONSTRUCTION","1830 S KIRKWOOD RD STE 200",HOUSTON,TX,77077-5032,"(281) 531-6336",http://www.ruppelconstruction.com/,"(281) 531-6336",,info@ruppelconstruction.com
TX,"FORT BEND",20-00102514,"Offices, R&D, & Professional",6/1/2020,,77976,,"14100 SOUTHWEST FWY STE 480","SUGAR LAND",TX,77479,,,CONTRACTOR,,,,,,,,,,,"RUPPEL CONSTRUCTION",,,,,"RUPPEL CONSTRUCTION","1830 S KIRKWOOD RD STE 200",HOUSTON,TX,77077-5032,"(281) 531-6336",http://www.ruppelconstruction.com/,"(281) 531-6336",,info@ruppelconstruction.com
TX,"FORT BEND",20-00102515,"Offices, R&D, & Professional",6/1/2020,,76059,,"14100 SOUTHWEST FWY STE 470","SUGAR LAND",TX,77479,,,CONTRACTOR,,,,,,,,,,,"RUPPEL CONSTRUCTION",,,,,"RUPPEL CONSTRUCTION","1830 S KIRKWOOD RD STE 200",HOUSTON,TX,77077-5032,"(281) 531-6336",http://www.ruppelconstruction.com/,"(281) 531-6336",,info@ruppelconstruction.com
TX,"FORT BEND","20 00102516","Offices, R&D, & Professional",6/1/2020,,87194,,"14100 SOUTHWEST FWY STE 460","SUGAR LAND",TX,77479,,,CONTRACTOR,,,,,,,,,,,"RUPPEL CONSTRUCTION",,,,,"RUPPEL CONSTRUCTION","1830 S KIRKWOOD RD STE 200",HOUSTON,TX,77077-5032,"(281) 531-6336",http://www.ruppelconstruction.com/,"(281) 531-6336",,info@ruppelconstruction.com
TX,"FORT BEND",20-00102519,"Offices, R&D, & Professional",6/15/2020,,616784,,"14141 SOUTHWEST FWY LEVEL 5","SUGAR LAND",TX,77479,,,CONTRACTOR,,,,,,,,,,,"GOLDEN SANDS GENERAL CONTRACTORS",,,,,"GOLDEN SANDS GENERAL CONTRACTORS","3063 OUTLET CENTER DR",SEALY,TX,77474-8205,"(979) 885-1919",,,,
TX,"FORT BEND",20200388,"Offices, R&D, & Professional",6/19/2020,,2500000,3330,"11213 WEST AIRPORT BLVD",STAFFORD,TX,77477,,,CONTRACTOR,,,,,,,,,,,"MG ARCHITECTS",,,,,"MG ARCHITECTS","14333 GRISBY RD",HOUSTON,TX,77079,"(713) 552-0707",,,,
TX,HARRIS,20009711,"Offices, R&D, & Professional",7/21/2020,Addition,65900,,"3100 LAURA KOPPE",HOUSTON,TX,77093,,,CONTRACTOR,,,,,,,,,,,"AIR CLEANING TECHNOLOGIES",,,,,"AIR CLEANING TECHNOLOGIES","44966 FALCON PL STE 190",STERLING,VA,20166,"(703) 547-1680",,,,
TX,HARRIS,20020114,"Offices, R&D, & Professional",7/23/2020,Addition,35700,,"6222 RICHMOND AVE",HOUSTON,TX,77057,,,CONTRACTOR,,,,,,,,,,,"BENITEZ REMODELING & NEW CONSTRUCTION",,,,,"BENITEZ REMODELING & NEW CONSTRUCTION","7027 HENDON LN",HOUSTON,TX,77074-4729,"(713) 386-9080",,,,
TX,HARRIS,20031793,"Offices, R&D, & Professional",7/21/2020,Renovation,351837,,"16225 PARK TEN PLACE",HOUSTON,TX,77084,,,CONTRACTOR,,,,,,,,,,,"BYRD INTERIOR CONSTRUCTION",,,,,"BYRD INTERIOR CONSTRUCTION","2123 W GOVERNORS CIR # 100",HOUSTON,TX,77092-8746,"(713) 688-8850",http://www.byrdinterior.com/,,"JOHN BYRD",jbyrd@byrdinterior.com
TX,HARRIS,20043993,"Offices, R&D, & Professional",7/23/2020,Renovation,42000,,"909 FANNIN ST",HOUSTON,TX,77010,,,CONTRACTOR,,,,,,,,,,,"DI-CASS CONSTRUCTION",,,,,"DI-CASS CONSTRUCTION","12615 JONES ROAD, SUITE 100",HOUSTON,TX,77070,"(281) 894-4105",,,,info@dicass.net
TX,HARRIS,20059673,"Offices, R&D, & Professional",7/24/2020,Renovation,400000,,"8030 EL RIO",HOUSTON,TX,77054,,,CONTRACTOR,,,,,,,,,,,"DPR CONSTRUCTION",,,,,"DPR CONSTRUCTION","5051 WESTHEMIER RD",HOUSTON,TX,77056,"(713) 386-1399",,,,
TX,HARRIS,20035392,"Offices, R&D, & Professional",7/22/2020,,1360000,,"747 N SHEPHERD DR",HOUSTON,TX,77007,,,CONTRACTOR,,,,,,,,,,,"HITT CONTRACTING",,,,,"HITT CONTRACTING","9300 BAMBOO RD",HOUSTON,TX,77041,"(713) 688-9496",https://hitt.com/,,,
TX,HARRIS,20055545,"Offices, R&D, & Professional",7/22/2020,Renovation,350000,,"1221 MCKINNEY ST",HOUSTON,TX,77010,,,CONTRACTOR,,,,,,,,,,,"HITT CONTRACTING",,,,,"HITT CONTRACTING","2900 FAIRVIEW PARK",HOUSTON,TX,22042,"(832) 390-3450",,,,
TX,HARRIS,20040256,"Offices, R&D, & Professional",7/22/2020,Renovation,30000,,"700 LOUISIANA ST FL",HOUSTON,TX,77002,,,CONTRACTOR,,,,,,,,,,,"HITT CONTRACTING",,,,,"HITT CONTRACTING","2900 FAIRVIEW PARK",HOUSTON,TX,22042,"(832) 390-3450",,,,
TX,HARRIS,19127583,"Offices, R&D, & Professional",7/22/2020,,800000,,"10920 HAZELHURST DR BLD",HOUSTON,TX,77043,,,CONTRACTOR,,,,,,,,,,,"METHOD CONSTRUCTION",,,,,"METHOD CONSTRUCTION","1776 YORKTOWN ST SUITE 300",HOUSTON,TX,77056-4182,"(713) 621-0708",,,,
TX,HARRIS,20046766,"Offices, R&D, & Professional",7/21/2020,Renovation,160000,,"3200 SOUTHWEST FWY FL",HOUSTON,TX,77027,,,CONTRACTOR,,,,,,,,,,,"ODONNELL SNIDER CONSTRUCTION",,,,,"ODONNELL SNIDER CONSTRUCTION","1900 WEST LOOP S",HOUSTON,TX,77027-3214,"(346) 352-3098",http://odonnellsnider.com/,,,
TX,HARRIS,20057882,"Offices, R&D, & Professional",7/22/2020,Renovation,171500,,"500 DALLAS ST",HOUSTON,TX,77002,,,CONTRACTOR,,,,,,,,,,,"ODONNELL SNIDER CONSTRUCTION",,,,,"ODONNELL SNIDER CONSTRUCTION","1900 WEST LOOP S",HOUSTON,TX,77027-3214,"(346) 352-3098",http://odonnellsnider.com/,,,
TX,HARRIS,19088494,"Offices, R&D, & Professional",7/24/2020,Renovation,1411000,,"4010 CANAL",HOUSTON,TX,77003,,,CONTRACTOR,,,,,,,,,,,"TEXANA BUILDERS",,,,,"TEXANA BUILDERS","8945 LONG POINT RD STE 212",HOUSTON,TX,77055-3009,"(713) 681-2747",http://www.texanabuilders.com/,,,info@texanabuilders.com
TX,"FORT BEND",19-00104299,"Other Commercial",6/24/2020,,170227,,"2100 SQUIRE DOBBINS DR","SUGAR LAND",TX,77479,,,CONTRACTOR,,,,,,,,,,,"AMERICAN MECHANICAL SERVICES OF HOUSTON",,,,,"AMERICAN MECHANICAL SERVICES OF HOUSTON","13627 STAFFORD ROAD",STAFFORD,TX,77477,"(281) 403-1701",https://www.amsofusa.com/,,,
TX,"FORT BEND",19-00104301,"Other Commercial",6/24/2020,,94571,,"4909 COMMONWEALTH BLVD","SUGAR LAND",TX,77479,,,CONTRACTOR,,,,,,,,,,,"AMERICAN MECHANICAL SERVICES OF HOUSTON",,,,,"AMERICAN MECHANICAL SERVICES OF HOUSTON","13627 STAFFORD ROAD",STAFFORD,TX,77477,"(281) 403-1701",https://www.amsofusa.com/,,,
TX,"FORT BEND",20-00102612,"Other Commercial",6/23/2020,,97000,,"120 INDUSTRIAL BLVD","SUGAR LAND",TX,77479,,,DETECTACHEM,"4100 GREENBRIAR DR #180",STAFFORD,TX,77477,"(855) 573-3537",Applicant,,,,,OWNER,,,,,OWNER,,,,,,,,,
TX,"FORT BEND","20- 00102723","Other Commercial",6/4/2020,,47424,,"9722 US HWY 90A STE L OS -A","SUGAR LAND",TX,77479,,,CONTRACTOR,,,,,,,,,,,"JTX CONSTRUCTION",,,,,"JTX CONSTRUCTION","1712 WYOMING AVENUE","EL PASO",TX,79902,"(915) 351-8771",,,,
TX,"FORT BEND",20-00103355,"Other Commercial",6/25/2020,,53540,,"14090 SOUTHWEST FWY STE 450","SUGAR LAND",TX,77479,,,CONTRACTOR,,,,,,,,,,,"GARRISON CONSTRUCTION GROUP",,,,,"GARRISON CONSTRUCTION GROUP","4234 SOUTHWESTERN ST",HOUSTON,TX,77005-3555,"(281) 451-6987",https://garrisonconstructiongroup.com/,,,info@garrisonconstructiongroup.com
TX,HARRIS,20047891,"Parks, Recreation, Entertainment, & RV Park",7/24/2020,,40000,,"1 POTOMAC DR BLDG",HOUSTON,TX,77057,,,"MORRIS RICHARD","11814 RUE LA FOUNTAINE",HOUSTON,TX,77377,"(713) 458-0231",Applicant,,,,,OWNER,,,,,OWNER,,,,,,,,,
TX,HARRIS,19007086,"Residential Garages & Carports",7/23/2020,Addition,42000,,"5231 ARIEL",HOUSTON,TX,77096,,,"BELLAIRE METHODIST CHURCH","5231 ARIEL",HOUSTON,TX,77096,,Owner,,,,,"HOUSE OF HODGES",,,,,"HOUSE OF HODGES","312 W 11TH",HOUSTON,TX,77008,"(713) 818-9635",https://hofhconstruction.com/,,,
TX,HARRIS,20055051,"Residential Renovations & Additions",7/16/2020,Renovation,30000,,"13702 SLATE CREEK",HOUSTON,TX,77077,,,"AHUJA OMPRAKASH","13702 SLATE CREEK ",HOUSTON,TX,77077,,Owner,,,,,"MAVERICK ENGINEERING",,,,,"MAVERICK ENGINEERING","9730 TOWN PARK DR STE 11",HOUSTON,TX,77036-2336,"(713) 271-1941",http://maverickeng.com/,"(713) 271-1946",,info@maverickeng.com
TX,HARRIS,20058462,"Residential Renovations & Additions",7/15/2020,Renovation,80000,,"7903 MEADOWVALE",HOUSTON,TX,77063,,,"PECHMANN VON","7903 MEADOWVALE",HOUSTON,TX,77063,,Owner,,,,,"CONDO 81",,,,,"CONDO 81","5001 MARSHALLS HARBOR DRIVE","LAGO VISTA",TX,78645-0000,"(713) 304-4984",,,,
TX,HARRIS,20057168,"Residential Renovations & Additions",7/14/2020,Addition,139414,,"1518 DROXFORD",HOUSTON,TX,77356,,,"CARTER GREGORY","1518 DROXFORD",HOUSTON,TX,77008,,Owner,,,,,"BROOKS CONSTRUCTION GROUP",,,,,"BROOKS CONSTRUCTION GROUP","1419 VANDER WILT LN",KATY,TX,77449,"(832) 630-9803",,,,
TX,HARRIS,20063192,"Residential Renovations & Additions",7/16/2020,Addition,78826,,"5006 CHAPMAN",HOUSTON,TX,77009,,,"CAVAZOS JOSE","5006 CHAPMAN",HOUSTON,TX,77009,,Owner,,,,,"GREEN LIGHT SOLAR",,,,,"GREEN LIGHT SOLAR","5750 N SAM HOUSTON PKWY E",HOUSTON,TX,77032-4090,"(518) 536-2806",,,,
TX,HARRIS,20061513,"Residential Renovations & Additions",7/17/2020,Addition,85000,,"2231 HAVERHILL",HOUSTON,TX,77008,,,"MEGAN & MATTHEW SHIRLEY","2231 HAVERHILL",HOUSTON,TX,77008,,Owner,,,,,"LUXURY OAK BUILDER",,,,,"LUXURY OAK BUILDER","8930 SUNNY POINT DR",SPRING,TX,77379-6358,"(281) 620-9454",,,,
TX,HARRIS,20059203,"Residential Renovations & Additions",7/15/2020,Renovation,184735,,"5847 SAN FELIPE ST",HOUSTON,TX,77057,,,CONTRACTOR,,,,,,,,,,,"GRAND PARKWAY PROPERTIES",,,,,"GRAND PARKWAY PROPERTIES","11026 DELLROSE CROSSING DR",RICHMOND,TX,77406-3955,"(832) 471-6233",,,"PATRICK ISIBOR",
TX,HARRIS,20038307,"Residential Renovations & Additions",7/16/2020,Addition,48500,,"326 KRESS ST",HOUSTON,TX,77020,,,"CRUZ JOSEFINA & JUAN","326 KRESS ST",HOUSTON,TX,77020,"(832) 931-3294",Applicant,,,,,OWNER,,,,,OWNER,,,,,,,,,
TX,HARRIS,20057940,"Residential Renovations & Additions",7/14/2020,Addition,30228,,"11310 COURTSHIRE",HOUSTON,TX,77076,,,"FUENTES CHRISTOPHER","11310 COURTSHIRE",HOUSTON,TX,77076,,Owner,,,,,"JONES MARC",,,,,"JONES MARC","11221 M C",HOUSTON,TX,70471,"(832) 778-4926",,,,
TX,HARRIS,20056339,"Residential Renovations & Additions",7/15/2020,Addition,52350,,"205 VINCENT",HOUSTON,TX,77009,,,"ARYN WIEGAND","205 VINCENT",HOUSTON,TX,77009,,Owner,,,,,"LEGAL EAGLE CONTRACTORS",,,,,"LEGAL EAGLE CONTRACTORS","5008 LOCUST ST,",BELLAIRE,TX,77401-3313,"(713) 723-8850",http://www.legaleaglecontractors.com,"(713) 729-7125",,dbawden@legaleaglecontractors.com
TX,HARRIS,20051372,"Residential Renovations & Additions",7/14/2020,Addition,150000,,"414 OMAR ST",HOUSTON,TX,77009,,,"RIOS BERNARDO","414 OMAR ST",HOUSTON,TX,77009,"(832) 287-1153",Applicant,,,,,OWNER,,,,,OWNER,,,,,,,,,
TX,HARRIS,20062883,"Residential Renovations & Additions",7/14/2020,Addition,36000,,"2302 PARANA",HOUSTON,TX,77080,,,"JAMES KEHLHOF","2302 PARANA",HOUSTON,TX,77080,,Owner,,,,,"FREEDOM FOREVER TX",,,,,"FREEDOM FOREVER TX","15550 VICKERY DR",HOUSTON,TX,77032-2581,"(281) 714-8992",,,,
TX,HARRIS,20053851,"Residential Renovations & Additions",7/15/2020,Renovation,80000,,"12110 RHETT",HOUSTON,TX,77024,,,"PHILIP JOHNSON","12110 RHETT",HOUSTON,TX,77024,,Owner,,,,,"STEVE HOOD COMPANY",,,,,"STEVE HOOD COMPANY","9301 SOUTHWEST FWY STE 250",HOUSTON,TX,77074-1587,"(713) 272-9255",http://www.stevehoodcompany.com/,"(713) 272-9273","STEVE HOOD",steve@stevehoodcompany.com
TX,HARRIS,20066724,"Residential Renovations & Additions",7/16/2020,Renovation,31000,,"305 MILWAUKEE",HOUSTON,TX,77009,,,CONTRACTOR,,,,,,,,,,,"KANDI CONTEMPORARY",,,,,"KANDI CONTEMPORARY","1824, SPRING STREET SUITE #1A",HOUSTON,TX,77007,"(832) 641-9922",,,,
TX,HARRIS,20053686,"Residential Renovations & Additions",7/14/2020,Addition,75000,,"3809 ELLA LEE",HOUSTON,TX,77027,,,"LEE BRYANT PAUL","3809 ELLA LEE",HOUSTON,TX,77027,,Owner,,,,,"PARK LANE BUILDERS ",,,,,"PARK LANE BUILDERS ","2444 TIMES BLVD STE 230",HOUSTON,TX,77005-3253,"(713) 524-6200",http://www.parklanebuilders.com/,,,
TX,HARRIS,20059094,"Residential Renovations & Additions",7/16/2020,Renovation,78000,,"1007 NANTUCKET",HOUSTON,TX,77057,,,"JACQUELINE & JULIE MAYBECK","1007 NANTUCKET",HOUSTON,TX,77057,,Owner,,,,,"WOODSTONE BUILDERS",,,,,"WOODSTONE BUILDERS","11 CRESTWOOD",HOUSTON,TX,77007,"(832) 752-2907",http://www.woodstonebuilders.com/,,,
TX,HARRIS,20055698,"Residential Renovations & Additions",7/16/2020,Addition,78475,,"4814 HAZELTON",HOUSTON,TX,77035,,,"WENDY TAI","4814 HAZELTON",HOUSTON,TX,77035,,Owner,,,,,"HOUSTON PLANS & PERMITS",,,,,"HOUSTON PLANS & PERMITS","1415 NORTH LOOP W STE 750",HOUSTON,TX,77008-1666,"(281) 372-1555",http://www.plansandpermits.net/,,,
TX,HARRIS,20062518,"Residential Renovations & Additions",7/16/2020,Renovation,977000,,"2300 PINE VALLEY",HOUSTON,TX,77019,,,CONTRACTOR,,,,,,,,,,,"STETZER BUILDERS",,,,,"STETZER BUILDERS","5 CAM CT",HOUSTON,TX,77055-4822,"(832) 527-6968",http://www.stetzerbuilders.com/,"(281) 974-4694",,info@stetzerbuilders.com
TX,HARRIS,20065676,"Residential Renovations & Additions",7/16/2020,Renovation,55000,,"5303 BLUE CREEK",HOUSTON,TX,77345,,,"MULLIGAN MICHAEL","5303 BLUE CREEK",HOUSTON,TX,77345,,Owner,,,,,OWNER,,,,,OWNER,,,,,,,,,
TX,HARRIS,20057973,"Residential Renovations & Additions",7/16/2020,Addition,45047,,"5427 HIALEAH",HOUSTON,TX,77092,,,"MUNDY CASE","5427 HIALEAH",HOUSTON,TX,77092,,Owner,,,,,"SUNSHINE RENEWABLE SOLUTIONS",,,,,"SUNSHINE RENEWABLE SOLUTIONS","4011 VALLEY GREEN CT",HOUSTON,TX,77059-5557,"(832) 280-8838",,,,
TX,HARRIS,20064444,"Residential Renovations & Additions",7/16/2020,Addition,45000,,"7830 LUDINGTON",HOUSTON,TX,77071,,,"DANIEL PICKELNER","7830 LUDINGTON",HOUSTON,TX,77071,,Owner,,,,,"FREEDOM FOREVER TX",,,,,"FREEDOM FOREVER TX","15550 VICKERY DR",HOUSTON,TX,77032-2581,"(281) 714-8992",,,,
TX,HARRIS,20020146,"Residential Renovations & Additions",7/17/2020,Addition,180000,,"6234 QUEENSWOOD",HOUSTON,TX,77008,,,"REX PEARCE","6234 QUEENSWOOD",HOUSTON,TX,77008,,Owner,,,,,"CJ PERMITS",,,,,"CJ PERMITS","6627 LIBERTY VALLEY DR",KATY,TX,77449-4204,"(281) 660-1319",,,,
TX,HARRIS,20064105,"Residential Renovations & Additions",7/17/2020,Renovation,176405,,"5631 DARNELL",HOUSTON,TX,77096,,,"JOHN & PRISCILLA CHAUVIN","5631 DARNELL",HOUSTON,TX,77096,,Owner,,,,,"LEGAL EAGLE CONTRACTORS",,,,,"LEGAL EAGLE CONTRACTORS","5008 LOCUST ST,",BELLAIRE,TX,77401-3313,"(713) 723-8850",http://www.legaleaglecontractors.com,"(713) 729-7125",,dbawden@legaleaglecontractors.com
TX,HARRIS,20060130,"Residential Renovations & Additions",7/14/2020,Addition,66000,,"11811 DELLFERN",HOUSTON,TX,77035,,,"EZEKWESIRI UVUKANSI","11811 DELLFERN",HOUSTON,TX,77035,,Owner,,,,,"TORRES PATRICIA",,,,,"TORRES PATRICIA","15550 VICKERY DR",HOUSTON,TX,77032,"(281) 714-8992",,,,
TX,HARRIS,20056454,"Residential Renovations & Additions",7/14/2020,Addition,31331,,"8403 LANHAM",HOUSTON,TX,77075,,,"WILLIS MELVIN","8403 LANHAM",HOUSTON,TX,77075,,Owner,,,,,"JONES MARC",,,,,"JONES MARC","11221 M C",HOUSTON,TX,70471,"(832) 778-4926",,,,
TX,MONTGOMERY,200344,"Residential Renovations & Additions",6/9/2020,Addition,,906,"26806 EASTWOOD DR","OAK RIDGE NORTH",TX,77386,,,"DAVID & JOHNNIE MILLER","26806 EASTWOOD DR","OAK RIDGE NORTH",TX,77386,,Owner,,,,,"MGV SERVICES",,,,,"MGV SERVICES","157 TREASURE DR",HOUSTON,TX,77076-3627,"(281) 907-2314",http://www.mgvservices.com/,,,
TX,"FORT BEND","RES 2002719","Residential Renovations & Additions",6/30/2020,Renovation,35000,,"2703 SPRING PLACE DR","MISSOURI CITY",TX,77489,,,CONTRACTOR,,,,,,,,,,,"MHS CONSTRUCTION & DESIGN",,,,,"MHS CONSTRUCTION & DESIGN","920 FM 1092 RD STE-A",STAFFORD,TX,77477,"(713) 459-9105",,,,
TX,BRAZORIA,733,"Residential Renovations & Additions",6/16/2020,Renovation,51770,,"611 MAGNOLIA","LAKE JACKSON",TX,77566,,,"MATULA RODNEY & JANA","611 MAGNOLIA","LAKE JACKSON",TX,77566,,Owner,,,,,OWNER,,,,,OWNER,,,,,,,,,
TX,BRAZORIA,734,"Residential Renovations & Additions",6/16/2020,Renovation,79898,,"59 SOUTHERNWOOD CT","LAKE JACKSON",TX,77566,,,"WALLS MICHAEL & ADRIANNE","59 SOUTHERNWOOD CT","LAKE JACKSON",TX,77566,,Owner,,,,,OWNER,,,,,OWNER,,,,,,,,,
TX,BRAZORIA,779,"Residential Renovations & Additions",7/15/2020,Renovation,48575,779,"205 BOUGAINVILLEA","LAKE JACKSON",TX,77566,,,"MACALLISTER SEAN & LINDSEY","205 BOUGAINVILLEA","LAKE JACKSON",TX,77566,,Owner,,,,,OWNER,,,,,OWNER,,,,,,,,,
TX,BRAZORIA,825,"Residential Renovations & Additions",6/16/2020,Renovation,50000,825,"55 DEERWOOD CT","LAKE JACKSON",TX,77566,,,"KING LOREN & ANNA","55 DEERWOOD CT","LAKE JACKSON",TX,77566,,Owner,,,,,OWNER,,,,,OWNER,,,,,,,,,
TX,BRAZORIA,828,"Residential Renovations & Additions",6/16/2020,Renovation,35000,828,"306 CAMELLIA","LAKE JACKSON",TX,77566,,,"RUIZ LEONEL","306 CAMELLIA","LAKE JACKSON",TX,77566,,Owner,,,,,OWNER,,,,,OWNER,,,,,,,,,
TX,BRAZORIA,835,"Residential Renovations & Additions",6/16/2020,Renovation,53178,,"210 ARROW WOOD","LAKE JACKSON",TX,77566,,,"STOWERS JOEY","210 ARROW WOOD","LAKE JACKSON",TX,77566,,Owner,,,,,OWNER,,,,,OWNER,,,,,,,,,
TX,BRAZORIA,855,"Residential Renovations & Additions",6/16/2020,Renovation,935400,,"417 GARDENIA","LAKE JACKSON",TX,77566,,,"KALISCHKO JAMES","417 GARDENIA","LAKE JACKSON",TX,77566,,Owner,,,,,OWNER,,,,,OWNER,,,,,,,,,
TX,BRAZORIA,915,"Residential Renovations & Additions",6/16/2020,Renovation,51000,,"519 OAK DR","LAKE JACKSON",TX,77566,,,"KELLEY BRANDON","519 OAK DR","LAKE JACKSON",TX,77566,,Owner,,,,,OWNER,,,,,OWNER,,,,,,,,,
TX,BRAZORIA,939,"Residential Renovations & Additions",6/16/2020,Renovation,46000,,"124 SPANISH OAK CIRCLE","LAKE JACKSON",TX,77566,,,"VERSLUIS MATTHEW & DONNA","124 SPANISH OAK CIRCLE","LAKE JACKSON",TX,77566,,Owner,,,,,OWNER,,,,,OWNER,,,,,,,,,
TX,HARRIS,20050096,"Residential Renovations & Additions",6/8/2020,Renovation,167942,,"1214 DORSETSHIRE DR",PASADENA,TX,77504,,,"RAUL & CARMEN FUENTES","1214 DORSETSHIRE DR",PASADENA,TX,77504,,Owner,,,,,"JENKINS RESTORATIONS",,,,,"JENKINS RESTORATIONS","3012 AVENUE E EAST","GRAND PRAIRIE",TX,76011,"(682) 305-6288",,,,
TX,HARRIS,20050443,"Residential Renovations & Additions",6/8/2020,Renovation,30000,,"434 TRICHELLE ST",PASADENA,TX,77506,,,CONTRACTOR,,,,,,,,,,,"JB HOME INVESTMENTS",,,,,"JB HOME INVESTMENTS","1143 ANDOVER DRIVE",PEARLAND,TX,77584,"(713) 265-8658",,,,
TX,HARRIS,20050692,"Residential Renovations & Additions",6/2/2020,Renovation,32500,,"2118 BLUEBERRY LN",PASADENA,TX,77502,,,"CHARLYNE GREENWOOD","2118 BLUEBERRY LN",PASADENA,TX,77502,,Owner,,,,,"FC BETTER HOMES",,,,,"FC BETTER HOMES","2104 VERONA DR",PEARLAND,TX,77581-4762,"(281) 484-2203",,,,
TX,HARRIS,20050778,"Residential Renovations & Additions",6/15/2020,Renovation,45000,,"4749 NASA RD 1 # 50",PASADENA,TX,77586,,,CONTRACTOR,,,,,,,,,,,"ALL AMERICAN TILE & REMODELING",,,,,"ALL AMERICAN TILE & REMODELING","4240 BLUEBONNET DR",STAFFORD,TX,77477-2911,"(281) 302-8978",,,,
TX,HARRIS,20060013,"Residential Renovations & Additions",6/17/2020,Renovation,98370,,"4507 AUGUSTA DR",PASADENA,TX,77505,,,"ROBERT & KAREN ZALUD","4507 AUGUSTA DR",PASADENA,TX,77505,,Owner,,,,,"HNI SERVICES",,,,,"HNI SERVICES","2951 MARINA BAY DR STE 130-420","LEAGUE CITY",TX,77573-2735,"(281) 488-8201",http://www.hniservices.com/,"(281) 488-8213",,
TX,HARRIS,20059275,"Residential Renovations & Additions",7/21/2020,Renovation,63000,,"1839 LATEXO",HOUSTON,TX,77018,,,"BALL KENNETH","1839 LATEXO",HOUSTON,TX,77018,,Owner,,,,,"IVISON CONSTRUCTION",,,,,"IVISON CONSTRUCTION","4305 VALERIE ST",HOUSTON,TX,77401,"(832) 524-6730",,,,
TX,HARRIS,20057076,"Residential Renovations & Additions",7/21/2020,Addition,60000,,"13519 PEBBLEBROOK",HOUSTON,TX,77079,,,"BRANDON L AND TABATHA URECH","13519 PEBBLEBROOK",HOUSTON,TX,77079,,Owner,,,,,"WILEY HOMES",,,,,"WILEY HOMES","1411 UPLAND DR",HOUSTON,TX,77043-4720,"(713) 397-8487",,,"CADE WILEY",
TX,HARRIS,20064503,"Residential Renovations & Additions",7/23/2020,Renovation,49905,,"7751 ALPERTON",HOUSTON,TX,77088,,,"BROUSSARD ZEE","7751 ALPERTON",HOUSTON,TX,77088,,Owner,,,,,"JONES MARC",,,,,"JONES MARC","11221 M C",HOUSTON,TX,70471,"(832) 778-4926",,,,
TX,HARRIS,20065432,"Residential Renovations & Additions",7/23/2020,Addition,80000,,"1823 MILLWOOD",HOUSTON,TX,77008,,,"BYLER JULIE","1823 MILLWOOD",HOUSTON,TX,77008,,Owner,,,,,OWNER,,,,,OWNER,,,,,,,,,
TX,HARRIS,20062692,"Residential Renovations & Additions",7/21/2020,Renovation,900000,,"3970 INVERNESS",HOUSTON,TX,77019,,,CONTRACTOR,,,,,,,,,,,"CJ PERMITS",,,,,"CJ PERMITS","6627 LIBERTY VALLEY DR",KATY,TX,77449-4204,"(281) 660-1319",,,,
TX,HARRIS,20055463,"Residential Swimming Pools & Spas",7/16/2020,,41700,,"1038 W 41ST",HOUSTON,TX,77356,,,"BATISTA DIEGO","1038 W 41ST",HOUSTON,TX,77356,,Owner,,,,,"LIVING WATER POOL",,,,,"LIVING WATER POOL","1614 CLAYTONS BEND CT",SPRING,TX,77386-3174,"(281) 728-5995",,,"NOLAN HEARN",nolanhearn@gmail.com
TX,HARRIS,20060171,"Residential Swimming Pools & Spas",7/17/2020,,43750,,"3631 BURNING PALMS",HOUSTON,TX,77042,,,"BAVERMAN DEBRA","3631 BURNING PALMS",HOUSTON,TX,77042,,Owner,,,,,"PREMIER POOLS & SPAS",,,,,"PREMIER POOLS & SPAS","2810 BUSINESS CENTER DR STE 126",PEARLAND,TX,77584-9783,"(713) 436-4944",,"(713) 436-0081","BILL UNGER",bunger@ppas.com
TX,HARRIS,20055185,"Residential Swimming Pools & Spas",7/16/2020,,63000,,"1822 CHIPPENDALE",HOUSTON,TX,77018,,,"BEDRE LINDA","1822 CHIPPENDALE",HOUSTON,TX,77018,,Owner,,,,,"PREMIER POOLS & SPAS",,,,,"PREMIER POOLS & SPAS","2810 BUSINESS CENTER DR STE 126",PEARLAND,TX,77584-9783,"(713) 436-4944",,"(713) 436-0081","BILL UNGER",bunger@ppas.com
TX,HARRIS,20053827,"Residential Swimming Pools & Spas",7/17/2020,,35000,,"2001 W 14TH ST",HOUSTON,TX,77008,,,CONTRACTOR,,,,,,,,,,,"KB CUSTOM POOLS",,,,,"KB CUSTOM POOLS","12507 W HIGHWAY 71","BEE CAVE",TX,78738-6521,"(512) 268-9990",,,,
TX,HARRIS,20061443,"Residential Swimming Pools & Spas",7/16/2020,,61000,,"4071 MERRICK",HOUSTON,TX,77025,,,CONTRACTOR,,,,,,,,,,,"FRANKEL BUILDING GROUP",,,,,"FRANKEL BUILDING GROUP","5701 WOODWAY DR STE 200",HOUSTON,TX,77057-1505,"(713) 623-4646",http://www.frankelbuildinggroup.com/,,"BRIAN ADAMS",
TX,HARRIS,20053095,"Residential Swimming Pools & Spas",7/14/2020,,48200,,"514 CARRIAGE VIEW",HOUSTON,TX,77336,,,"JAVIER & HERLINDA MINOR","514 CARRIAGE VIEW",HOUSTON,TX,77336,,Owner,,,,,"PRECISION POOLS & SPAS",,,,,"PRECISION POOLS & SPAS","16230 WEST BELLFORT",HOUSTON,TX,77498,"(281) 265-2774",https://www.precisionswimmingpools.com,,,
TX,HARRIS,20061645,"Residential Swimming Pools & Spas",7/14/2020,,60000,,"4823 JASON",HOUSTON,TX,77096,,,"SHELLY & RICHARD BUTLER","4823 JASON",HOUSTON,TX,77096,,Owner,,,,,"LUSH OUTDOOR LIVING",,,,,"LUSH OUTDOOR LIVING","2200 SOUTHWEST FWY STE 602",HOUSTON,TX,77098-4713,"(713) 444-2339",http://lushoutdoors.com/,,"MASON BOSWELL",info@lushoutdoors.com
TX,HARRIS,20064582,"Residential Swimming Pools & Spas",7/17/2020,,106381,,"12226 PEBBLEBROOK",HOUSTON,TX,77024,,,"PERSIS DEAN","12226 PEBBLEBROOK",HOUSTON,TX,77024,,Owner,,,,,"THE POOL MAN",,,,,"THE POOL MAN","19111 CYPRESS ROSE",HOUSTON,TX,77377,"(713) 781-0760",http://www.poolmaninc.com,,,
TX,HARRIS,20061648,"Residential Swimming Pools & Spas",7/16/2020,,125368,,"10935 BRITOAK",HOUSTON,TX,77079,,,"GREEN JOSHUA","10935 BRITOAK",HOUSTON,TX,77079,,Owner,,,,,"TEXAS POOLS",,,,,"TEXAS POOLS","2408 TIMBERLOCH PL STE 85","THE WOODLANDS",TX,77380-1012,"(281) 367-4660",http://www.texaspools.com,"(281) 367-8053","PAUL RYAN",info@texaspools.com
TX,HARRIS,20062536,"Residential Swimming Pools & Spas",7/17/2020,,63871,,"4223 APOLLO",HOUSTON,TX,77018,,,CONTRACTOR,,,,,,,,,,,"PLATINUM POOLS",,,,,"PLATINUM POOLS","4500 BLALOCK RD",HOUSTON,TX,77041-9121,"(281) 870-1600",,,,
TX,HARRIS,20063289,"Residential Swimming Pools & Spas",7/16/2020,,52502,,"4710 BRIAN HAVEN",HOUSTON,TX,77018,,,"KYLIE GREENFIELD","4710 BRIAN HAVEN",HOUSTON,TX,77018,,Owner,,,,,"PRECISION POOLS & SPAS",,,,,"PRECISION POOLS & SPAS","16230 WEST BELLFORT",HOUSTON,TX,77498,"(281) 265-2774",https://www.precisionswimmingpools.com,,,
TX,HARRIS,20059709,"Residential Swimming Pools & Spas",7/14/2020,,44000,,"6135 QUEENSWOOD",HOUSTON,TX,77008,,,"CHRIS ICONOS","6135 QUEENSWOOD",HOUSTON,TX,77008,,Owner,,,,,"MIDTOWN DESIGN GROUP",,,,,"MIDTOWN DESIGN GROUP","5535 MEMORIAL DR STE F-322",HOUSTON,TX,77007-8021,"(832) 754-5628",,,,
TX,HARRIS,20061156,"Residential Swimming Pools & Spas",7/15/2020,,40000,,"2323 CARLEEN",HOUSTON,TX,77018,,,"MCCLUAN CATHERINE KEVIN","2323 CARLEEN",HOUSTON,TX,77018,,Owner,,,,,"POOLS INFINITE",,,,,"POOLS INFINITE","6564 T C JESTER BLVD",HOUSTON,TX,77091-1513,"(832) 416-5174",http://www.poolsinfinite.com/,,"ELISEO ESPINOZA",
TX,HARRIS,20063789,"Residential Swimming Pools & Spas",7/17/2020,,33000,,"10743 VILLA LEA",HOUSTON,TX,77071,,,"KEVIN BLACKWELL","10743 VILLA LEA",HOUSTON,TX,77071,,Owner,,,,,"PRECISION POOLS & SPAS",,,,,"PRECISION POOLS & SPAS","16230 WEST BELLFORT",HOUSTON,TX,77498,"(281) 265-2774",https://www.precisionswimmingpools.com,,,
TX,HARRIS,20056895,"Residential Swimming Pools & Spas",7/14/2020,,73884,,"423 HIGHLAND",HOUSTON,TX,77009,,,"NANCY HARRIS","423 HIGHLAND",HOUSTON,TX,77009,,Owner,,,,,"TEXAS POOLS",,,,,"TEXAS POOLS","2408 TIMBERLOCH PL STE 85","THE WOODLANDS",TX,77380-1012,"(281) 367-4660",http://www.texaspools.com,"(281) 367-8053","PAUL RYAN",info@texaspools.com
TX,HARRIS,20037149,"Residential Swimming Pools & Spas",7/15/2020,,20000,,"15 WARRENTON",HOUSTON,TX,77024,,,"RICHARD ENHARDT","15 WARRENTON",HOUSTON,TX,77024,,Owner,,,,,OWNER,,,,,OWNER,,,,,,,,,
TX,HARRIS,20054595,"Residential Swimming Pools & Spas",7/16/2020,,61514,,"10943 BRITOAK",HOUSTON,TX,77079,,,"MEYER MARK","10943 BRITOAK",HOUSTON,TX,77079,"(823) 519-4629",Applicant,,,,,OWNER,,,,,OWNER,,,,,,,,,
TX,HARRIS,20063912,"Residential Swimming Pools & Spas",7/17/2020,,56738,,"4627 RUSK ",HOUSTON,TX,77023,,,"JORGE RUIZ","4627 RUSK ",HOUSTON,TX,77023,,Owner,,,,,"ANTHONY & SYLVAN POOLS",,,,,"ANTHONY & SYLVAN POOLS","1424 W SAM HOUSTON PKWY N",HOUSTON,TX,77043-3193,"(713) 467-6458",http://www.anthonysylvan.com/,,,
TX,HARRIS,20061654,"Residential Swimming Pools & Spas",7/17/2020,,45955,,"15623 TINDARY MEADOW",HOUSTON,TX,77044,,,"MARIO & LESLIE SOJO","15623 TINDARY MEADOW",HOUSTON,TX,77044,,Owner,,,,,"ANTHONY & SYLVAN POOLS",,,,,"ANTHONY & SYLVAN POOLS","1424 W SAM HOUSTON PKWY N",HOUSTON,TX,77043-3193,"(713) 467-6458",http://www.anthonysylvan.com/,,,
TX,HARRIS,20063111,"Residential Swimming Pools & Spas",7/14/2020,,97300,,"5730 BALCONES RIDGE",HOUSTON,TX,77059,,,"SYED JAVAIRIA","5730 BALCONES RIDGE",HOUSTON,TX,77059,,Owner,,,,,"BLUE HAVEN POOLS",,,,,"BLUE HAVEN POOLS","2201 HIGHWAY 6 S",HOUSTON,TX,77077-4321,"(281) 497-5711",,,,
TX,HARRIS,20063910,"Residential Swimming Pools & Spas",7/17/2020,,76000,,"2242 PELHAM",HOUSTON,TX,77019,,,"TORIGIAN JOHN","2242 PELHAM",HOUSTON,TX,77019,,Owner,,,,,"POOL CRAFT",,,,,"POOL CRAFT","5103 CEDAR",HOUSTON,TX,77401,"(713) 660-7728",http://www.poolcraftofhouston.net/,,,
TX,HARRIS,20063915,"Residential Swimming Pools & Spas",7/17/2020,,45250,,"2109 ROSENTHAL",HOUSTON,TX,77080,,,"RAMIRO & GEORGINA VIGIL","2109 ROSENTHAL",HOUSTON,TX,77080,,Owner,,,,,"ANTHONY & SYLVAN POOLS",,,,,"ANTHONY & SYLVAN POOLS","1424 W SAM HOUSTON PKWY N",HOUSTON,TX,77043-3193,"(713) 467-6458",http://www.anthonysylvan.com/,,,
TX,HARRIS,20059750,"Residential Swimming Pools & Spas",7/14/2020,,85000,,"1908 W 14TH",HOUSTON,TX,77008,,,"WELLS RYAN C","1908 W 14TH",HOUSTON,TX,77008,,Owner,,,,,"MIDTOWN DESIGN GROUP",,,,,"MIDTOWN DESIGN GROUP","5535 MEMORIAL DR STE F-322",HOUSTON,TX,77007-8021,"(832) 754-5628",,,,
TX,BELL,2020-5782,"Residential Swimming Pools & Spas",6/4/2020,,109134,,"3204 SPRING CANYON RD",BELTON,TX,76513,,,"DAVID & CATHERINE SAGE","3204 SPRING CANYON RD",BELTON,TX,76513,,Owner,,,,,"OCEAN QUEST POOLS",,,,,"OCEAN QUEST POOLS","10208 N FM 620",AUSTIN,TX,78726-2214,"(512) 450-0595",http://www.oceanquest.com/,"(512) 258-7379","DAN HARTNETT",danh@oceanquest.com
TX,MONTGOMERY,200351,"Residential Swimming Pools & Spas",6/10/2020,,70881,,"28267 NANCY LN","OAK RIDGE NORTH",TX,77385,,,"RICARDO & TRACI VILLARREAL","28267 NANCY LN","OAK RIDGE NORTH",TX,77385,,Owner,,,,,"NORTHSTAR POOLS",,,,,"NORTHSTAR POOLS","7703 PENROSE POINT DR",HOUSTON,TX,77095-1708,"(281) 858-7760",http://www.northstarpools.com,,,
TX,HARRIS,20172,"Residential Swimming Pools & Spas",6/22/2020,,250000,,"474 KIRBY RD","TAYLOR LAKE VILLAGE",TX,77586,,,"KEVIN BRADY","474 KIRBY RD","TAYLOR LAKE VILLAGE",TX,77586,,Owner,,,,,"MILLER BUILDERS",,,,,"MILLER BUILDERS","12813 WEBERCREST RD",HOUSTON,TX,77048-4304,"(713) 991-6767",http://www.mbconcrete.com,"(713) 991-4947",,
TX,HARRIS,19081107,"Residential Swimming Pools & Spas",6/4/2020,,40000,,"531 PAMPA ST",PASADENA,TX,77504,,,"RUBEN PENA","531 PAMPA ST",PASADENA,TX,77504,,Owner,,,,,"RIVIERA CUSTOM POOLS",,,,,"RIVIERA CUSTOM POOLS","6305 OBAN ST BLDG 2",HOUSTON,TX,77085-3621,"(713) 551-9247",http://rivieracustompoolshouston.com/,,"LUIS RAMIREZ",
TX,HARRIS,20040294,"Residential Swimming Pools & Spas",6/2/2020,,50775,,"5518 SIERRA CT",PASADENA,TX,77505,,,CONTRACTOR,,,,,,,,,,,"ANTHONY & SYLVAN POOLS",,,,,"ANTHONY & SYLVAN POOLS","1424 W SAM HOUSTON PKWY N",HOUSTON,TX,77043-3193,"(713) 467-6458",http://www.anthonysylvan.com/,,,
TX,HARRIS,20050204,"Residential Swimming Pools & Spas",6/3/2020,,68500,,"4107 WALNUT POND DR",PASADENA,TX,77059,,,CONTRACTOR,,,,,,,,,,,"MCKINNEY CUSTOM POOLS",,,,,"MCKINNEY CUSTOM POOLS","15718 PARK CENTER WAY",HOUSTON,TX,77059-4050,"(281) 489-9800",http://www.mckinneycustompools.net,,,
TX,HARRIS,20050247,"Residential Swimming Pools & Spas",6/29/2020,,30000,,"7110 REDWOOD FALLS DR",PASADENA,TX,77505,,,"RYAN & DEANNA MARSALIS","7110 REDWOOD FALLS DR",PASADENA,TX,77505,,Owner,,,,,"BACKYARD AMENITIES",,,,,"BACKYARD AMENITIES","11163 OLD NEEDLEPOINT RD STE 100",BAYTOWN,TX,77523-9784,"(281) 837-8234",http://www.backyardamenities.com,,,info@backyardamenities.com
TX,HARRIS,20050248,"Residential Swimming Pools & Spas",6/24/2020,,30000,,"4323 GREEN TREE",PASADENA,TX,77505,,,"JOHN & DENISE MALONE","4323 GREEN TREE",PASADENA,TX,77505,,Owner,,,,,"BACKYARD AMENITIES",,,,,"BACKYARD AMENITIES","11163 OLD NEEDLEPOINT RD STE 100",BAYTOWN,TX,77523-9784,"(281) 837-8234",http://www.backyardamenities.com,,,info@backyardamenities.com
TX,HARRIS,20060064,"Residential Swimming Pools & Spas",6/18/2020,,63463,,"5503 SIERRA CT",PASADENA,TX,77505,,,CONTRACTOR,,,,,,,,,,,"MEYER RANCH CUSTOM POOLS",,,,,"MEYER RANCH CUSTOM POOLS","1230 W 21ST ST",HOUSTON,TX,77008-3324,"(713) 864-3808",http://www.meyerranchpools.com/,,"MARK MEYER",mark@meyerranchpools.com
TX,HARRIS,20060137,"Residential Swimming Pools & Spas",6/18/2020,,30000,,"7503 MERRITT LN",PASADENA,TX,77505,,,CONTRACTOR,,,,,,,,,,,"AQUAMARINE POOLS",,,,,"AQUAMARINE POOLS","25730 INTERSTATE 45",HOUSTON,TX,77386,"(281) 734-2543",,,,
TX,HARRIS,2006180044,"Residential Swimming Pools & Spas",6/16/2020,,45000,,"23002 VERONA VISTA DR",HOUSTON,TX,77356,"VENTANA LAKES",,"CLARE BROUILLETTE","23002 VERONA VISTA DR",HOUSTON,TX,77356,,Owner,,,,,OWNER,,,,,OWNER,,,,,,,,,
TX,HARRIS,20066156,"Residential Swimming Pools & Spas",7/22/2020,,30000,,"3202 WYNDHAM FALLS",HOUSTON,TX,77365,,,"ARANDA JOSHUA","3202 WYNDHAM FALLS",HOUSTON,TX,77365,,Owner,,,,,OWNER,,,,,OWNER,,,,,,,,,
TX,HARRIS,20054433,"Residential Swimming Pools & Spas",7/23/2020,,38000,,"519 HIGHLAND",HOUSTON,TX,77009,,,"BENITEZ VICTOR","519 HIGHLAND",HOUSTON,TX,77009,,Owner,,,,,"REFLECTION POOLS & SPAS",,,,,"REFLECTION POOLS & SPAS","7941 KATY FWY # 177",HOUSTON,TX,77024-1924,"(713) 559-1100",http://www.reflectionpoolsandspas.com/,,,reflectionpools@yahoo.com
TX,HARRIS,20059264,"Residential Swimming Pools & Spas",7/23/2020,,74716,,"501 OXFORD",HOUSTON,TX,77007,,,"BOULMAY VALERIE","501 OXFORD",HOUSTON,TX,77007,,Owner,,,,,"C3 BUILDING SOLUTIONS",,,,,"C3 BUILDING SOLUTIONS","4500 BLALOCK",HOUSTON,TX,77041,"(281) 870-1600",http://www.c3buildingsolutions.com,,,
TX,HARRIS,20063484,"Residential Swimming Pools & Spas",7/23/2020,,55000,,"5830 BEACON FALLS",HOUSTON,TX,77345,,,"BAJALIEH EDDIE","10008 SUMMER",HOUSTON,TX,77302,"(936) 827-8990",Owner,,,,,OWNER,,,,,OWNER,,,,,,,,,
TX,HARRIS,20067063,"Residential Swimming Pools & Spas",7/23/2020,,66809,,"6148 IMOGENE",HOUSTON,TX,77074,,,"BUCHHOLTZ MATTHEW","6148 IMOGENE",HOUSTON,TX,77074,,Owner,,,,,"RICHARD TOTAL BACKYARD SOLUTI",,,,,"RICHARD TOTAL BACKYARD SOLUTI","1701 S HIGHWAY",HOUSTON,TX,77007,"(713) 369-0925",,,,
TX,HARRIS,20056655,"Residential Swimming Pools & Spas",7/24/2020,,53200,,"12415 BARRYKNOLL",HOUSTON,TX,77024,,,"CHAU TONTHAT","12415 BARRYKNOLL",HOUSTON,TX,77024,,Owner,,,,,"SMITH CUSTOM POOLS",,,,,"SMITH CUSTOM POOLS","9320 WESTVIEW DR STE 1",HOUSTON,TX,77055-6414,"(281) 701-3280",,,,
TX,HARRIS,20043922,"Residential Swimming Pools & Spas",7/24/2020,,30000,,"2511 WILLOWICK RD",HOUSTON,TX,77027,,,CONTRACTOR,,,,,,,,,,,"HOAR CONSTRUCTION",,,,,"HOAR CONSTRUCTION","1300 W SAM HOUSTON PKWY S STE 220",HOUSTON,TX,77042-2453,"(713) 244-2200",http://www.hoarllc.com/,,,
TX,HARRIS,20053508,"Residential Swimming Pools & Spas",7/21/2020,,234000,,"1475 GEARS",HOUSTON,TX,77067,,,"MONCADA RUDY","13313 N LOUISE",HOUSTON,TX,77086,"(281) 827-4225",Applicant,,,,,OWNER,,,,,OWNER,,,,,,,,,
TX,HARRIS,20043095,"Residential Swimming Pools & Spas",7/22/2020,,110000,,"419 E FRIAR TUCK",HOUSTON,TX,77024,,,CONTRACTOR,,,,,,,,,,,"SUNSHINE POOLS",,,,,"SUNSHINE POOLS","1739 N BELT LINE RD",MESQUITE,TX,75149-1720,"(972) 289-2000",http://www.sunshine-pools.com/,,"DANI VASSAR",dani.vassar@sunshine-pools.com
TX,HARRIS,20052969,"Residential Swimming Pools & Spas",7/21/2020,,49000,,"3509 ELGIN ST BLD",HOUSTON,TX,77004,,,CONTRACTOR,,,,,,,,,,,"SOUTH POOL & SPA",,,,,"SOUTH POOL & SPA","9010 RIPPLING FIELDS DR",HOUSTON,TX,77064-4857,"(713) 423-4663",http://www.southpoolandspa.net/,"(832) 237-3860","MIKE TELLO",mike@southpoolandspa.net
TX,HARRIS,19013671,"Restaurant and Bar",7/16/2020,Renovation,100000,,"505 BAY AREA",HOUSTON,TX,77058,,,CONTRACTOR,,,,,,,,,,,"AMERICAN NATIONAL CONSTRUCTION",,,,,"AMERICAN NATIONAL CONSTRUCTION","10619 GRANT RD",HOUSTON,TX,77070-4429,"(281) 370-8404",,,,
TX,HARRIS,19083928,"Restaurant and Bar",7/15/2020,,120000,,"1806 LITTLE YORK RD BLD",HOUSTON,TX,77093,,,CONTRACTOR,,,,,,,,,,,"ASTRO BUILDERS",,,,,"ASTRO BUILDERS","9011 STERLING POINT LN",HOUSTON,TX,77044-2574,"(281) 458-7010",,,,
TX,HARRIS,20015743,"Restaurant and Bar",7/16/2020,,800000,,"2201 LEELAND",HOUSTON,TX,77003,,,CONTRACTOR,,,,,,,,,,,"CONTEXT3 DESIGN",,,,,"CONTEXT3 DESIGN","9039 KATY FWY STE 333",HOUSTON,TX,77024-1621,"(713) 880-8000",,,,
TX,HARRIS,19125851,"Restaurant and Bar",7/16/2020,Renovation,48500,,"2022 ALLEN GENOA",HOUSTON,TX,77017,,,CONTRACTOR,,,,,,,,,,,"GOLDEN HOUSE BUILDERS",,,,,"GOLDEN HOUSE BUILDERS","22931 BANQUERO",HOUSTON,TX,77373,"(832) 969-8254",,,,
TX,HARRIS,20025302,"Restaurant and Bar",7/14/2020,,8000000,,"401 FRANKLIN ST",HOUSTON,TX,77002,,,CONTRACTOR,,,,,,,,,,,"HARVEY CLEARY BUILDERS",,,,,"HARVEY CLEARY BUILDERS","3630 WESTCHASE DR",HOUSTON,TX,77042-5224,"(713) 783-7919",http://www.harvey-cleary.com/,,,
TX,HARRIS,20043793,"Restaurant and Bar",7/14/2020,Renovation,49000,,"7607 W TIDWELL",HOUSTON,TX,77040,,,CONTRACTOR,,,,,,,,,,,"CONCEPT E&Y",,,,,"CONCEPT E&Y","27323 ONSLOW RUN DR",KATY,TX,77494-6388,"(210) 255-9850",,,,
TX,HARRIS,19080828,"Restaurant and Bar",6/19/2020,Renovation,45000,,"5300 GENOA RED BLUFF RD",PASADENA,TX,77505,,,CONTRACTOR,,,,,,,,,,,"PETRO TANK SOLUTIONS",,,,,"PETRO TANK SOLUTIONS","4234 BLUEBONNET DRIVE",STAFFORD,TX,77477,"(512) 781-9202",,,,
TX,"FORT BEND","19- 00107600","Restaurant and Bar",6/18/2020,,214827,,"19900 SOUTHWEST FWY","SUGAR LAND",TX,77479,,,CONTRACTOR,,,,,,,,,,,"CB CENTRAL BUILDERS",,,,,"CB CENTRAL BUILDERS","11800 NACOGDOCHES",HOUSTON,TX,78217,"(210) 590-0235",http://www.centralbuilders.net/,,,
TX,HARRIS,19124999,"Restaurant and Bar",7/21/2020,Renovation,750000,,"10101 S POST OAK",HOUSTON,TX,77096,,,CONTRACTOR,,,,,,,,,,,"SANITAS MEYERLAND",,,,,"SANITAS MEYERLAND","10101 S POST OAK RD.",HOUSTON,TX,77096,"(713) 804-5964",,,,
TX,HARRIS,19114425,"Restaurant and Bar",7/21/2020,Renovation,105500,,"2607 GRANT",HOUSTON,TX,77006,,,CONTRACTOR,,,,,,,,,,,"JENIFER POOL",,,,,"JENIFER POOL","8129 SIGNET ST",HOUSTON,TX,77029-3861,"(713) 672-9345",,,,
TX,HARRIS,20014200,Retail,7/15/2020,,1000000,,"1206 BARKER CYPRESS",HOUSTON,TX,77084,,,"7 ELEVEN","3200 HACKBERRY RD",IRVING,TX,75063,"(214) 496-0622",Applicant,,,,,OWNER,,,,,OWNER,,,,,,,,,
TX,HARRIS,20007247,Retail,7/14/2020,,49613,,"600 N SHEPHERD DR",HOUSTON,TX,77007,,,CONTRACTOR,,,,,,,,,,,"DUNHILL DEVELOPMENT & CONSTRUCTION",,,,,"DUNHILL DEVELOPMENT & CONSTRUCTION","2400 AUGUSTA DR STE 340",HOUSTON,TX,77057-4964,"(713) 493-0177",http://www.dunhilldevelopment.com/,"(713) 457-5214","AARON POLATSEK",info@dunhilldevelopment.com
TX,HARRIS,20054253,Retail,7/16/2020,Renovation,125000,,"2525 S SHEPHERD",HOUSTON,TX,77019,,,CONTRACTOR,,,,,,,,,,,"LANDMARK INDUSTRIES",,,,,"LANDMARK INDUSTRIES","11111 WILCREST GREEN DR STE 100",HOUSTON,TX,77042-4739,"(713) 789-0310",http://www.landmarkindustries.com,"(713) 789-2907",,info@landmarkindustries.com
TX,HARRIS,20027002,Retail,7/14/2020,,140673,,"6057 SOUTH LOOP EAST",HOUSTON,TX,77087,,,"SHEPHERD NEW INTEREST","8191 SOUTHWEST FREEWAY",HOUSTON,TX,77074,"(713) 256-5202",Applicant,,,,,OWNER,,,,,OWNER,,,,,,,,,
TX,"FORT BEND",COM2001824,Retail,6/22/2020,,35000,,"9612 HWY 6 # 130","MISSOURI CITY",TX,77459,,,CONTRACTOR,,,,,,,,,,,"EXTREME POWER SERVICES",,,,,"EXTREME POWER SERVICES","13202 WEIMAN RD",HOUSTON,TX,77041,"(832) 467-8800",,,,
TX,HARRIS,19010433,Retail,6/26/2020,,500000,,"2727 CHERRYBROOK LN",PASADENA,TX,77502,,,CONTRACTOR,,,,,,,,,,,"JJH CONSTRUCTION",,,,,"JJH CONSTRUCTION","1838 COTTAGE LANDING LN",HOUSTON,TX,77077-1925,"(713) 516-4040",,,,
TX,HARRIS,19120762,Retail,6/30/2020,,800000,,"4646 SPENCER HWY",PASADENA,TX,77504,,,CONTRACTOR,,,,,,,,,,,"Z CONSTRUCTORS NATIONWIDE",,,,,"Z CONSTRUCTORS NATIONWIDE","11886 GREENVILLE AVE 122 D",DALLAS,TX,75243,"(972) 682-1435",,"(972) 682-1439",,
TX,HARRIS,20030278,Retail,6/16/2020,Renovation,175000,,"1107 SHAVER ST",PASADENA,TX,77506,,,CONTRACTOR,,,,,,,,,,,"POWERHOUSE RETAIL SERVICES",,,,,"POWERHOUSE RETAIL SERVICES","812 CROWLEY RD",HOUSTON,TX,76036,"(903) 513-4172",http://www.powerhouseretailservices.com,,,
TX,HARRIS,20030519,Retail,6/15/2020,Renovation,45750,,"5858 FAIRMONT",PASADENA,TX,77505,,,CONTRACTOR,,,,,,,,,,,DAVACO,,,,,DAVACO,"4050 VALLEY VIEW LN",HOUSTON,TX,75038,"(214) 373-4700",http://www.davacoinc.com/,,,
TX,HARRIS,20040496,Retail,6/29/2020,Renovation,45000,,"3532 SPENCER",PASADENA,TX,77504,,,CONTRACTOR,,,,,,,,,,,"MRDI CONSTRUCTION",,,,,"MRDI CONSTRUCTION","18306 REDOAK MANOR LANE",CYPRESS,TX,77433,"(281) 730-3679",,,,
TX,"FORT BEND","19- 00107601",Retail,6/18/2020,,314841,,"530 STATE HWY 6","SUGAR LAND",TX,77479,,,CONTRACTOR,,,,,,,,,,,"CB CENTRAL BUILDERS",,,,,"CB CENTRAL BUILDERS","11800 NACOGDOCHES",HOUSTON,TX,78217,"(210) 590-0235",http://www.centralbuilders.net/,,,
TX,HARRIS,20053978,Retail,7/23/2020,,400000,,"6429 WESTHEIMER",HOUSTON,TX,77057,,,CONTRACTOR,,,,,,,,,,,"IBC BUILDERS",,,,,"IBC BUILDERS","7918 FAIRVIEW ST",HOUSTON,TX,77041-2118,"(713) 849-3050",http://www.ibcbuilders.com/,"(713) 849-3060",,
TX,HARRIS,20049814,"Single Family Homes",7/16/2020,,267240,,"3269 HOLMAN",HOUSTON,TX,77004,,,"ABDULLAH RASHID","3269 HOLMAN",HOUSTON,TX,77004,,Owner,,,,,OWNER,,,,,OWNER,,,,,,,,,
TX,HARRIS,20059484,"Single Family Homes",7/14/2020,,183000,,"1423 BIONDO ",HOUSTON,TX,77356,,,"ANNE'S PERMIT","2617C W HOLCOMBE BLVD",HOUSTON,TX,77025,,Owner,,,,,OWNER,,,,,OWNER,,,,,,,,,
TX,HARRIS,20059483,"Single Family Homes",7/16/2020,,182000,,"1520 CALLAKING ",HOUSTON,TX,77356,,,"ANNE'S PERMIT","2617C W HOLCOMBE BLVD",HOUSTON,TX,77356,,Owner,,,,,OWNER,,,,,OWNER,,,,,,,,,
TX,HARRIS,20050719,"Single Family Homes",7/14/2020,,120000,,"7525 SPRINGDALE",HOUSTON,TX,77356,,,"CARRILLO OLIVA VERONICA","7525 SPRINGDALE",HOUSTON,TX,77356,,Owner,,,,,"ORTIZ JOSE",,,,,"ORTIZ JOSE","7840 MEADOWLARK",HOUSTON,TX,77423,"(832) 748-0900",,,,
TX,HARRIS,19101514,"Single Family Homes",7/15/2020,,144500,,"3502 AJAX",HOUSTON,TX,77022,,,CONTRACTOR,,,,,,,,,,,NEWERALIV,,,,,NEWERALIV,"11403 BARKER CYPRESS RD, STE J #101",CYPRESS,TX,77433,"(832) 848-2330",,,,info@NewEraliv.com
TX,HARRIS,19121830,"Single Family Homes",7/16/2020,,173000,,"500 VINCENT",HOUSTON,TX,77009,,,CONTRACTOR,,,,,,,,,,,"MECCA HOMES",,,,,"MECCA HOMES","2650 FOUNTAIN VIEW DR STE 200",HOUSTON,TX,77057-7618,"(281) 501-3058",http://www.mecca-homes.com,"(281) 605-5888",,
TX,HARRIS,19121828,"Single Family Homes",7/16/2020,,180000,,"504 VINCENT ST",HOUSTON,TX,77009,,,CONTRACTOR,,,,,,,,,,,"MECCA HOMES",,,,,"MECCA HOMES","2650 FOUNTAIN VIEW DR STE 200",HOUSTON,TX,77057-7618,"(281) 501-3058",http://www.mecca-homes.com,"(281) 605-5888",,
TX,HARRIS,20055627,"Single Family Homes",7/16/2020,,176295,,"12908 MARCIANO",HOUSTON,TX,77048,,,CONTRACTOR,,,,,,,,,,,"COLINA HOMES",,,,,"COLINA HOMES","1314 N DURHAM DR",HOUSTON,TX,77008-3734,"(281) 528-9090",http://colinahomes.com/,,,postmaster@colinahomes.com
TX,HARRIS,15046035,"Single Family Homes",7/17/2020,,236988,,"1133 W 17TH ST",HOUSTON,TX,77008,,,CONTRACTOR,,,,,,,,,,,"PREBISCH HOMES",,,,,"PREBISCH HOMES","2500 E T C JESTER BLVD",HOUSTON,TX,77008-1365,"(281) 693-0640",http://prebischhomes.com/,,"ALEJANDRO PREBISCH",
TX,HARRIS,20053044,"Single Family Homes",7/15/2020,,215826,,"14222 COUTURIE FOREST",HOUSTON,TX,77045,,,CONTRACTOR,,,,,,,,,,,"BRIGHTON HOMES & PARKWOOD",,,,,"BRIGHTON HOMES & PARKWOOD","13111 NORTHWEST FWY",HOUSTON,TX,77040-6318,"(713) 460-6279",,,,
TX,HARRIS,20058006,"Single Family Homes",7/16/2020,,167211,,"2810 PAINTED SUNRISE",HOUSTON,TX,77045,,,CONTRACTOR,,,,,,,,,,,"BRIGHTON HOMES & PARKWOOD",,,,,"BRIGHTON HOMES & PARKWOOD","13111 NORTHWEST FWY",HOUSTON,TX,77040-6318,"(713) 460-6279",,,,
TX,HARRIS,20055914,"Single Family Homes",7/14/2020,,156024,,"11919 OAKMONT VALLEY",HOUSTON,TX,77051,,,CONTRACTOR,,,,,,,,,,,"BRIGHTON HOMES & PARKWOOD",,,,,"BRIGHTON HOMES & PARKWOOD","13111 NORTHWEST FWY",HOUSTON,TX,77040-6318,"(713) 460-6279",,,,
TX,HARRIS,20054295,"Single Family Homes",7/14/2020,,201612,,"12005 RIDGEWOOD HILL",HOUSTON,TX,77051,,,CONTRACTOR,,,,,,,,,,,"BRIGHTON HOMES & PARKWOOD",,,,,"BRIGHTON HOMES & PARKWOOD","13111 NORTHWEST FWY",HOUSTON,TX,77040-6318,"(713) 460-6279",,,,
TX,HARRIS,20054249,"Single Family Homes",7/15/2020,,270834,,"2024 GROVELAND GLEN",HOUSTON,TX,77051,,,CONTRACTOR,,,,,,,,,,,"BRIGHTON HOMES & PARKWOOD",,,,,"BRIGHTON HOMES & PARKWOOD","13111 NORTHWEST FWY",HOUSTON,TX,77040-6318,"(713) 460-6279",,,,
TX,HARRIS,20055915,"Single Family Homes",7/14/2020,,235676,,"12011 RIDGEWOOD HILL",HOUSTON,TX,77051,,,CONTRACTOR,,,,,,,,,,,"BRIGHTON HOMES & PARKWOOD",,,,,"BRIGHTON HOMES & PARKWOOD","13111 NORTHWEST FWY",HOUSTON,TX,77040-6318,"(713) 460-6279",,,,
TX,HARRIS,20059016,"Single Family Homes",7/16/2020,,230125,,"12007 RIDGEWOOD HILL",HOUSTON,TX,77051,,,CONTRACTOR,,,,,,,,,,,"BRIGHTON HOMES & PARKWOOD",,,,,"BRIGHTON HOMES & PARKWOOD","13111 NORTHWEST FWY",HOUSTON,TX,77040-6318,"(713) 460-6279",,,,
TX,HARRIS,20054293,"Single Family Homes",7/14/2020,,230125,,"12009 RIDGEWOOD HILL",HOUSTON,TX,77051,,,CONTRACTOR,,,,,,,,,,,"BRIGHTON HOMES & PARKWOOD",,,,,"BRIGHTON HOMES & PARKWOOD","13111 NORTHWEST FWY",HOUSTON,TX,77040-6318,"(713) 460-6279",,,,
TX,HARRIS,20059122,"Single Family Homes",7/16/2020,,156276,,"11921 OAKMONT VALLEY ",HOUSTON,TX,77051,,,CONTRACTOR,,,,,,,,,,,"BRIGHTON HOMES & PARKWOOD",,,,,"BRIGHTON HOMES & PARKWOOD","13111 NORTHWEST FWY",HOUSTON,TX,77040-6318,"(713) 460-6279",,,,
TX,HARRIS,18126554,"Single Family Homes",7/14/2020,,139000,,"6425 HIGHLAND PINE ",HOUSTON,TX,77091,,,CONTRACTOR,,,,,,,,,,,"CALIDAD BUILDERS",,,,,"CALIDAD BUILDERS","10519 NORMONT DR",HOUSTON,TX,77070-2951,"(713) 201-8626",http://www.calidadbuilders.com/,,"SERGIO SALAZAR",contact@calidadbuilders.com
TX,HARRIS,18126553,"Single Family Homes",7/14/2020,,148000,,"6427 HIGHLAND PINE",HOUSTON,TX,77091,,,CONTRACTOR,,,,,,,,,,,"CALIDAD BUILDERS",,,,,"CALIDAD BUILDERS","10519 NORMONT DR",HOUSTON,TX,77070-2951,"(713) 201-8626",http://www.calidadbuilders.com/,,"SERGIO SALAZAR",contact@calidadbuilders.com
TX,HARRIS,18126555,"Single Family Homes",7/14/2020,,139000,,"6423 HIGHLAND PINE",HOUSTON,TX,77091,,,CONTRACTOR,,,,,,,,,,,"CALIDAD BUILDERS",,,,,"CALIDAD BUILDERS","10519 NORMONT DR",HOUSTON,TX,77070-2951,"(713) 201-8626",http://www.calidadbuilders.com/,,"SERGIO SALAZAR",contact@calidadbuilders.com
TX,HARRIS,20042870,"Single Family Homes",7/16/2020,,261100,,"4521 ROSEMONT",HOUSTON,TX,77051,,,CONTRACTOR,,,,,,,,,,,"CASTLEROCK COMMUNITIES",,,,,"CASTLEROCK COMMUNITIES","7670 WOODWAY DR STE 300",HOUSTON,TX,77063-1520,"(713) 600-7000",http://c-rock.com,"(713) 600-0000",,
TX,HARRIS,20058031,"Single Family Homes",7/16/2020,,186000,,"9705 TURNBOW",HOUSTON,TX,77029,,,CONTRACTOR,,,,,,,,,,,"CENSEO HOMES",,,,,"CENSEO HOMES","1800 AUGUSTA DR",HOUSTON,TX,77057-3149,"(281) 932-5303",,,,
TX,HARRIS,20057633,"Single Family Homes",7/16/2020,,189990,,"24806 WINEMA WOODS",HOUSTON,TX,77336,,,CONTRACTOR,,,,,,,,,,,"CENTURY COMMUNITIES",,,,,"CENTURY COMMUNITIES","4700 W SAM HOUSTON PKWY N STE 130",HOUSTON,TX,77041-8219,"(281) 741-8946",https://www.centurycommunities.com/,,,
TX,HARRIS,20055633,"Single Family Homes",7/16/2020,,176295,,"12812 MARCIANO",HOUSTON,TX,77048,,,CONTRACTOR,,,,,,,,,,,"COLINA HOMES",,,,,"COLINA HOMES","1314 N DURHAM DR",HOUSTON,TX,77008-3734,"(281) 528-9090",http://colinahomes.com/,,,postmaster@colinahomes.com
TX,HARRIS,20059804,"Single Family Homes",7/16/2020,,176295,,"5106 ITIEL",HOUSTON,TX,77048,,,CONTRACTOR,,,,,,,,,,,"COLINA HOMES",,,,,"COLINA HOMES","1314 N DURHAM DR",HOUSTON,TX,77008-3734,"(281) 528-9090",http://colinahomes.com/,,,postmaster@colinahomes.com
TX,HARRIS,20056127,"Single Family Homes",7/16/2020,,195556,,"5109 ITIEL",HOUSTON,TX,77048,,,CONTRACTOR,,,,,,,,,,,"COLINA HOMES",,,,,"COLINA HOMES","1314 N DURHAM DR",HOUSTON,TX,77008-3734,"(281) 528-9090",http://colinahomes.com/,,,postmaster@colinahomes.com
TX,HARRIS,20047564,"Single Family Homes",7/15/2020,,159893,,"14930 ABERDEEN MEADOW",HOUSTON,TX,77053,,,CONTRACTOR,,,,,,,,,,,"COLINA HOMES",,,,,"COLINA HOMES","1314 N DURHAM DR",HOUSTON,TX,77008-3734,"(281) 528-9090",http://colinahomes.com/,,,postmaster@colinahomes.com
TX,HARRIS,20051922,"Single Family Homes",7/15/2020,,188827,,"14919 CARDIFF CLIFF",HOUSTON,TX,77053,,,CONTRACTOR,,,,,,,,,,,"COLINA HOMES",,,,,"COLINA HOMES","1314 N DURHAM DR",HOUSTON,TX,77008-3734,"(281) 528-9090",http://colinahomes.com/,,,postmaster@colinahomes.com
TX,HARRIS,20057867,"Single Family Homes",7/17/2020,,209990,,"2822 BETHNAL GARDEN",HOUSTON,TX,77047,,,CONTRACTOR,,,,,,,,,,,"DR HORTON",,,,,"DR HORTON","14100 SOUTHWEST",HOUSTON,TX,77478,"(281) 201-5559",,,,
TX,HARRIS,19132256,"Single Family Homes",7/15/2020,,540000,,"12623 PEBBLEBROOK",HOUSTON,TX,77024,,,CONTRACTOR,,,,,,,,,,,"DAVID WEEKLEY HOMES",,,,,"DAVID WEEKLEY HOMES","14444 NORTHWEST",HOUSTON,TX,77040,"(713) 570-5021",http://www.davidweekleyhomes.com/,,,
TX,HARRIS,20052534,"Single Family Homes",7/16/2020,,196990,,"7715 JOSHUA STONE",HOUSTON,TX,77016,,,CONTRACTOR,,,,,,,,,,,"FIRST AMERICA HOMES",,,,,"FIRST AMERICA HOMES","1400 WOODLOCH FOREST DR STE 200","THE WOODLANDS",TX,77380-1179,"(713) 452-1700",http://www.firstamericahomes.com/,,,info@firstamericahomes.com
TX,HARRIS,20059716,"Single Family Homes",7/14/2020,,194990,,"7722 JOSHUA STONE",HOUSTON,TX,77016,,,CONTRACTOR,,,,,,,,,,,"FIRST AMERICA HOMES",,,,,"FIRST AMERICA HOMES","1400 WOODLOCH FOREST DR STE 200","THE WOODLANDS",TX,77380-1179,"(713) 452-1700",http://www.firstamericahomes.com/,,,info@firstamericahomes.com
TX,HARRIS,19110516,"Single Family Homes",7/14/2020,,240554,,"2412 COMMERCE",HOUSTON,TX,77003,,,CONTRACTOR,,,,,,,,,,,"INTERURBAN CONSTRUCTION",,,,,"INTERURBAN CONSTRUCTION","1631 S WATER ST",ROCKPORT,TX,78382-2123,"(512) 994-7540",,,,
TX,HARRIS,19110517,"Single Family Homes",7/14/2020,,240554,,"2414 COMMERCE",HOUSTON,TX,77003,,,CONTRACTOR,,,,,,,,,,,"INTERURBAN CONSTRUCTION",,,,,"INTERURBAN CONSTRUCTION","4512 MONTROSE BLVD",HOUSTON,TX,77006-5828,"(713) 522-6441",,,,
TX,HARRIS,20013303,"Single Family Homes",7/14/2020,,170407,,"2416 COMMERCE",HOUSTON,TX,77003,,,CONTRACTOR,,,,,,,,,,,"INTERURBAN CONSTRUCTION",,,,,"INTERURBAN CONSTRUCTION","1631 S WATER ST",ROCKPORT,TX,78382-2123,"(512) 994-7540",,,,
TX,HARRIS,19147060,"Single Family Homes",7/17/2020,,206000,,"12904 MOSSCREST",HOUSTON,TX,77048,,,CONTRACTOR,,,,,,,,,,,"KB HOME",,,,,"KB HOME","11314 RICHMOND AVE",HOUSTON,TX,77082-2616,"(281) 668-3800",,,,
TX,HARRIS,19144244,"Single Family Homes",7/17/2020,,184000,,"5004 JONINA",HOUSTON,TX,77048,,,CONTRACTOR,,,,,,,,,,,"KB HOME",,,,,"KB HOME","11314 RICHMOND AVE",HOUSTON,TX,77082-2616,"(281) 668-3800",,,,
TX,HARRIS,20058429,"Single Family Homes",7/15/2020,,181342,,"6243 EL COBRE",HOUSTON,TX,77048,,,CONTRACTOR,,,,,,,,,,,"LGI HOMES",,,,,"LGI HOMES","1450 LAKE ROBBINS SUITE 430",CONROE,TX,77380,"(210) 563-4648",,"(281) 210-2601",,
TX,HARRIS,20058433,"Single Family Homes",7/15/2020,,181342,,"6255 EL COBRE",HOUSTON,TX,77048,,,CONTRACTOR,,,,,,,,,,,"LGI HOMES",,,,,"LGI HOMES","1450 LAKE ROBBINS SUITE 430",CONROE,TX,77380,"(210) 563-4648",,"(281) 210-2601",,
TX,HARRIS,20058445,"Single Family Homes",7/15/2020,,205649,,"6242 EL COBRE",HOUSTON,TX,77048,,,CONTRACTOR,,,,,,,,,,,"LGI HOMES",,,,,"LGI HOMES","1450 LAKE ROBBINS SUITE 430",CONROE,TX,77380,"(210) 563-4648",,"(281) 210-2601",,
TX,HARRIS,20058425,"Single Family Homes",7/15/2020,,241732,,"6219 EL COBRE",HOUSTON,TX,77048,,,CONTRACTOR,,,,,,,,,,,"LGI HOMES",,,,,"LGI HOMES","1450 LAKE ROBBINS SUITE 430",CONROE,TX,77380,"(210) 563-4648",,"(281) 210-2601",,
TX,HARRIS,20058426,"Single Family Homes",7/15/2020,,205649,,"6223 EL COBRE",HOUSTON,TX,77048,,,CONTRACTOR,,,,,,,,,,,"LGI HOMES",,,,,"LGI HOMES","1450 LAKE ROBBINS SUITE 430",CONROE,TX,77380,"(210) 563-4648",,"(281) 210-2601",,
TX,HARRIS,20035224,"Single Family Homes",7/15/2020,,235508,,"4705 FEAGAN",HOUSTON,TX,77007,,,CONTRACTOR,,,,,,,,,,,"LITTLE VERONICA",,,,,"LITTLE VERONICA","10023 WESTVIEW",HOUSTON,TX,77055,"(713) 861-1601",,,,
TX,HARRIS,20035225,"Single Family Homes",7/15/2020,,235508,,"4707 FEAGAN",HOUSTON,TX,77007,,,CONTRACTOR,,,,,,,,,,,"LITTLE VERONICA",,,,,"LITTLE VERONICA","10023 WESTVIEW",HOUSTON,TX,77055,"(713) 861-1601",,,,
TX,HARRIS,20051361,"Single Family Homes",7/15/2020,,150000,,"3317 DELHI",HOUSTON,TX,77022,,,CONTRACTOR,,,,,,,,,,,"MAKENZIE HOMES",,,,,"MAKENZIE HOMES","1501 RONSON RD",HOUSTON,TX,77055-3219,"(713) 443-7108",,,,
TX,HARRIS,20051360,"Single Family Homes",7/15/2020,,150000,,"3319 DELHI",HOUSTON,TX,77022,,,CONTRACTOR,,,,,,,,,,,"MAKENZIE HOMES",,,,,"MAKENZIE HOMES","1501 RONSON RD",HOUSTON,TX,77055-3219,"(713) 443-7108",,,,
TX,HARRIS,20053713,"Single Family Homes",7/14/2020,,201620,,"5402 CUERTA",HOUSTON,TX,77023,,,CONTRACTOR,,,,,,,,,,,"MERITAGE HOMES",,,,,"MERITAGE HOMES","2901 W SAM HOUSTON PKWY N",HOUSTON,TX,77043-1630,"(713) 357-1184",,,,
TX,HARRIS,20055500,"Single Family Homes",7/16/2020,,176970,,"5406 CUERTA",HOUSTON,TX,77023,,,CONTRACTOR,,,,,,,,,,,"MERITAGE HOMES",,,,,"MERITAGE HOMES","2901 W SAM HOUSTON PKWY N",HOUSTON,TX,77043-1630,"(713) 357-1184",,,,
TX,HARRIS,20057650,"Single Family Homes",7/14/2020,,176970,,"3114 FLOWER MARKET ",HOUSTON,TX,77080,,,CONTRACTOR,,,,,,,,,,,"MERITAGE HOMES",,,,,"MERITAGE HOMES","2901 W SAM HOUSTON PKWY N",HOUSTON,TX,77043-1630,"(713) 357-1184",,,,
TX,HARRIS,20057649,"Single Family Homes",7/14/2020,,187170,,"3116 FLOWER MARKET",HOUSTON,TX,77080,,,CONTRACTOR,,,,,,,,,,,"MERITAGE HOMES",,,,,"MERITAGE HOMES","2901 W SAM HOUSTON PKWY N",HOUSTON,TX,77043-1630,"(713) 357-1184",,,,
TX,HARRIS,20057651,"Single Family Homes",7/16/2020,,176970,,"3117 FLOWER MARKET",HOUSTON,TX,77080,,,CONTRACTOR,,,,,,,,,,,"MERITAGE HOMES",,,,,"MERITAGE HOMES","2901 W SAM HOUSTON PKWY N",HOUSTON,TX,77043-1630,"(713) 357-1184",,,,
TX,HARRIS,20026704,"Single Family Homes",7/15/2020,,224825,,"3206 CRAFTSMAN",HOUSTON,TX,77080,,,CONTRACTOR,,,,,,,,,,,"MERITAGE HOMES",,,,,"MERITAGE HOMES","2901 W SAM HOUSTON PKWY N",HOUSTON,TX,77043-1630,"(713) 357-1184",,,,
TX,HARRIS,20040017,"Single Family Homes",7/15/2020,,120445,,"9218 RHODE ISLAND",HOUSTON,TX,77029,,,CONTRACTOR,,,,,,,,,,,NAULS,,,,,NAULS,"4642 MALLOW ST",HOUSTON,TX,77051-2840,"(713) 822-6449",http://www.naulsinc.com,"(713) 731-9444",,
TX,HARRIS,20016904,"Single Family Homes",7/16/2020,,103875,,"9115 E AVENUE",HOUSTON,TX,77012,,,CONTRACTOR,,,,,,,,,,,"OPEN MIND GROUP",,,,,"OPEN MIND GROUP","18906 W DE VACA",HOUSTON,TX,77554,"(832) 919-0660",,,,
TX,HARRIS,20051816,"Single Family Homes",7/16/2020,,259760,,"3809 OLDE BOURBON",HOUSTON,TX,77018,,,CONTRACTOR,,,,,,,,,,,"ROC HOMES",,,,,"ROC HOMES","4151 SOUTHWEST FWY STE 700",HOUSTON,TX,77027-7307,"(713) 661-7624",http://www.roc-homes.com/,,,info@roc-homes.com
TX,HARRIS,20036680,"Single Family Homes",7/18/2020,,600000,,"1523 MICHIGAN",HOUSTON,TX,77006,,,CONTRACTOR,,,,,,,,,,,"ROSEMONT GROUP",,,,,"ROSEMONT GROUP","4625 FRANKFORD RD STE 342",DALLAS,TX,75287-7108,"(800) 701-5770",http://rosemontinc.com,,,info@rosemontinc.com
TX,HARRIS,20024926,"Single Family Homes",7/14/2020,,450000,,"13815 WINDWARD HARBOR",HOUSTON,TX,77059,,,CONTRACTOR,,,,,,,,,,,"TRENDMAKER HOMES",,,,,"TRENDMAKER HOMES","16340 PARK TEN PL STE 250",HOUSTON,TX,77084-5144,"(281) 675-3200",,"(281) 675-3251","MARTIN EVANS",
TX,HARRIS,20024923,"Single Family Homes",7/14/2020,,506000,,"13811 WINDWARD HARBOR",HOUSTON,TX,77059,,,CONTRACTOR,,,,,,,,,,,"TRENDMAKER HOMES",,,,,"TRENDMAKER HOMES","16340 PARK TEN PL STE 250",HOUSTON,TX,77084-5144,"(281) 675-3200",,"(281) 675-3251","MARTIN EVANS",
TX,HARRIS,20060520,"Single Family Homes",7/17/2020,,496000,,"14002 MULBERRY RIVER",HOUSTON,TX,77059,,,CONTRACTOR,,,,,,,,,,,"TRENDMAKER HOMES",,,,,"TRENDMAKER HOMES","16340 PARK TEN PL STE 250",HOUSTON,TX,77084-5144,"(281) 675-3200",,"(281) 675-3251","MARTIN EVANS",
TX,HARRIS,20024932,"Single Family Homes",7/14/2020,,356000,,"5939 WEDGEWOOD HEIGHTS",HOUSTON,TX,77059,,,CONTRACTOR,,,,,,,,,,,"TRENDMAKER HOMES",,,,,"TRENDMAKER HOMES","16340 PARK TEN PL STE 250",HOUSTON,TX,77084-5144,"(281) 675-3200",,"(281) 675-3251","MARTIN EVANS",
TX,HARRIS,20008538,"Single Family Homes",7/14/2020,,395000,,"14202 WYNDHAM TERRACE",HOUSTON,TX,77059,,,CONTRACTOR,,,,,,,,,,,"TRENDMAKER HOMES",,,,,"TRENDMAKER HOMES","16340 PARK TEN PL STE 250",HOUSTON,TX,77084-5144,"(281) 675-3200",,"(281) 675-3251","MARTIN EVANS",
TX,HARRIS,20058340,"Single Family Homes",7/16/2020,,586926,,"502 REGENTVIEW",HOUSTON,TX,77079,,,CONTRACTOR,,,,,,,,,,,"TRINITY ESTATE HOMES",,,,,"TRINITY ESTATE HOMES","14201 MEMORIAL DR",HOUSTON,TX,77079-6742,"(832) 598-2733",http://www.trinityestatehomes.com/,,,
TX,HARRIS,20043915,"Single Family Homes",7/16/2020,,388810,,"5133 EMMA FOREST",HOUSTON,TX,77018,,,CONTRACTOR,,,,,,,,,,,"VARGAS MARIA",,,,,"VARGAS MARIA","1311 BROADFIELD",HOUSTON,TX,77084,"(281) 529-9127",,,,
TX,HARRIS,20060733,"Single Family Homes",7/17/2020,,193990,,"10223 CLEARTIDE",HOUSTON,TX,77034,,,CONTRACTOR,,,,,,,,,,,"VARGAS MARIA",,,,,"VARGAS MARIA","1311 BROADFIELD",HOUSTON,TX,77084,"(281) 529-9127",,,,
TX,HARRIS,20060732,"Single Family Homes",7/17/2020,,242730,,"10219 CLEARTIDE",HOUSTON,TX,77034,,,CONTRACTOR,,,,,,,,,,,"VARGAS MARIA",,,,,"VARGAS MARIA","1311 BROADFIELD",HOUSTON,TX,77084,"(281) 529-9127",,,,
TX,HARRIS,20060737,"Single Family Homes",7/17/2020,,236040,,"10227 CLEARTIDE",HOUSTON,TX,77034,,,CONTRACTOR,,,,,,,,,,,"VARGAS MARIA",,,,,"VARGAS MARIA","1311 BROADFIELD",HOUSTON,TX,77084,"(281) 529-9127",,,,
TX,HARRIS,20043886,"Single Family Homes",7/17/2020,,222240,,"12819 CLEARCROFT",HOUSTON,TX,77034,,,CONTRACTOR,,,,,,,,,,,"VARGAS MARIA",,,,,"VARGAS MARIA","1311 BROADFIELD",HOUSTON,TX,77084,"(281) 529-9127",,,,
TX,HARRIS,20060725,"Single Family Homes",7/17/2020,,324790,,"3415 AVONDALE VIEW",HOUSTON,TX,77054,,,CONTRACTOR,,,,,,,,,,,"VARGAS MARIA",,,,,"VARGAS MARIA","1311 BROADFIELD",HOUSTON,TX,77084,"(281) 529-9127",,,,
TX,HARRIS,20060730,"Single Family Homes",7/17/2020,,342030,,"3419 AVONDALE VIEW",HOUSTON,TX,77054,,,CONTRACTOR,,,,,,,,,,,"VARGAS MARIA",,,,,"VARGAS MARIA","1311 BROADFIELD",HOUSTON,TX,77084,"(281) 529-9127",,,,
TX,HARRIS,20031003,"Single Family Homes",7/14/2020,,411690,,"3122 LONGLEAF MEADOWS ",HOUSTON,TX,77063,,,CONTRACTOR,,,,,,,,,,,"VARGAS MARIA",,,,,"VARGAS MARIA","1311 BROADFIELD",HOUSTON,TX,77084,"(281) 529-9127",,,,
TX,HARRIS,20038108,"Single Family Homes",7/15/2020,,149248,,"8972 ZURCHER",HOUSTON,TX,77080,,,CONTRACTOR,,,,,,,,,,,"WEST POINT CONSTRUCTION",,,,,"WEST POINT CONSTRUCTION","1121 DELANO ST",HOUSTON,TX,77003-3713,"(713) 494-0013",,,,
TX,HARRIS,20038107,"Single Family Homes",7/15/2020,,199320,,"8974 ZURCHER",HOUSTON,TX,77080,,,CONTRACTOR,,,,,,,,,,,"WEST POINT CONSTRUCTION",,,,,"WEST POINT CONSTRUCTION","1121 DELANO ST",HOUSTON,TX,77003-3713,"(713) 494-0013",,,,
TX,HARRIS,20038106,"Single Family Homes",7/15/2020,,149248,,"8976 ZURCHER",HOUSTON,TX,77080,,,CONTRACTOR,,,,,,,,,,,"WEST POINT CONSTRUCTION",,,,,"WEST POINT CONSTRUCTION","1121 DELANO ST",HOUSTON,TX,77003-3713,"(713) 494-0013",,,,
TX,HARRIS,20045298,"Single Family Homes",7/17/2020,,115000,,"214 N SUPER",HOUSTON,TX,77011,,,CONTRACTOR,,,,,,,,,,,"WILLIAMS HEATHER",,,,,"WILLIAMS HEATHER","14215 MARY",HOUSTON,TX,77006,"(832) 929-7736",,,,
TX,HARRIS,19110130,"Single Family Homes",7/14/2020,,136384,,"4123 GROTON",HOUSTON,TX,77047,,,CONTRACTOR,,,,,,,,,,,"GVS CONSTRUCTION",,,,,"GVS CONSTRUCTION","12508 STONEY CREEK",HOUSTON,TX,77584,"(832) 274-1588",,,,
TX,HARRIS,20000400,"Single Family Homes",7/15/2020,,148000,,"7815 DETROIT",HOUSTON,TX,77017,,,"FERNANDEZ LEWIS","7815 DETROIT",HOUSTON,TX,77017,"(832) 288-6309",Applicant,,,,,OWNER,,,,,OWNER,,,,,,,,,
TX,HARRIS,20024916,"Single Family Homes",7/14/2020,,254000,,"4515 INKER",HOUSTON,TX,77007,,,"FLORES ROBERTO","4515 INKER",HOUSTON,TX,77007,,Owner,,,,,OWNER,,,,,OWNER,,,,,,,,,
TX,HARRIS,20045318,"Single Family Homes",7/16/2020,,119000,,"6012 BACHER",HOUSTON,TX,77028,,,CONTRACTOR,,,,,,,,,,,"WESTWOOD FENCE",,,,,"WESTWOOD FENCE","8403 HOWTON ST",HOUSTON,TX,77028-4800,"(713) 674-3277",http://westwoodfenceco.com/,,,Info@westwoodfenceco.com
TX,HARRIS,20045319,"Single Family Homes",7/17/2020,,119000,,"6016 BACHER",HOUSTON,TX,77028,,,CONTRACTOR,,,,,,,,,,,"WESTWOOD FENCE",,,,,"WESTWOOD FENCE","8403 HOWTON ST",HOUSTON,TX,77028-4800,"(713) 674-3277",http://westwoodfenceco.com/,,,Info@westwoodfenceco.com
TX,HARRIS,20045321,"Single Family Homes",7/17/2020,,119000,,"8132 ETHEL",HOUSTON,TX,77028,,,CONTRACTOR,,,,,,,,,,,"WESTWOOD FENCE",,,,,"WESTWOOD FENCE","8403 HOWTON ST",HOUSTON,TX,77028-4800,"(713) 674-3277",http://westwoodfenceco.com/,,,Info@westwoodfenceco.com
TX,HARRIS,20046552,"Single Family Homes",7/15/2020,,180795,,"13012 DONEGAL",HOUSTON,TX,77047,,,CONTRACTOR,,,,,,,,,,,"METRO LIVING",,,,,"METRO LIVING","9610 LONG POINT ST",HOUSTON,TX,77085,"(281) 685-9961",,,,
TX,HARRIS,20046553,"Single Family Homes",7/15/2020,,180795,,"13014 DONEGAL",HOUSTON,TX,77047,,,CONTRACTOR,,,,,,,,,,,"METRO LIVING",,,,,"METRO LIVING","9610 LONG POINT ST",HOUSTON,TX,77085,"(281) 685-9961",,,,
TX,HARRIS,20027034,"Single Family Homes",7/17/2020,,227854,,"5008 GOLDEN FOREST",HOUSTON,TX,77091,,,CONTRACTOR,,,,,,,,,,,"MARTINO THOMAS",,,,,"MARTINO THOMAS","8318 BRIGHTON",HOUSTON,TX,77095,"(561) 909-5355",,,,
TX,HARRIS,20033140,"Single Family Homes",7/14/2020,,100000,,"5537 MARGARITA",HOUSTON,TX,77020,,,"RODRIGUEZ RONY","4515 OATS ST",HOUSTON,TX,77020,"(832) 805-4136",Applicant,,,,,OWNER,,,,,OWNER,,,,,,,,,
TX,HARRIS,20047780,"Single Family Homes",7/17/2020,,800000,,"303 ELECTRA",HOUSTON,TX,77024,,,CONTRACTOR,,,,,,,,,,,"243 BUILDERS",,,,,"243 BUILDERS","17339 MORGAN",HOUSTON,TX,77443,"(713) 875-7750",http://243builders.com,,,
TX,HARRIS,20059139,"Single Family Homes",7/16/2020,,262035,,"1754 DU BARRY",HOUSTON,TX,77018,,,"TRUETT PAUL M 111","1754 DU BARRY",HOUSTON,TX,77018,,Owner,,,,,"JACOB BUCKWALTER",,,,,"JACOB BUCKWALTER","9597 JONES RD",HOUSTON,TX,77065-4815,"(832) 272-8423",,,,
TX,HARRIS,18096902,"Single Family Homes",7/14/2020,,465296,,"4023 ABERDEEN",HOUSTON,TX,77025,,,CONTRACTOR,,,,,,,,,,,"WEBER MICHAEL",,,,,"WEBER MICHAEL","4023 ABERDEEN WAY",HOUSTON,TX,77025,"(713) 661-9151",,,,
TX,HARRIS,19125469,"Single Family Homes",7/17/2020,,237308,,"7402 ALLSUP",HOUSTON,TX,77061,,,"YANEZ FLORENCIO","7402 ALLSUP ST",HOUSTON,TX,77061,"(281) 781-5088",Applicant,,,,,OWNER,,,,,OWNER,,,,,,,,,
TX,HARRIS,19116899,"Single Family Homes",7/17/2020,,150000,,"4729 TERRELL",HOUSTON,TX,77093,,,"YANEZ JAVIER","4729 TERRELL",HOUSTON,TX,77093,,Owner,,,,,"JL TREVINO & ASSOCIATES",,,,,"JL TREVINO & ASSOCIATES","9800 NORTHWEST FWY STE 500",HOUSTON,TX,77092-8834,"(281) 713-4300",,,"FLORENTIN GONZALEZ",
TX,BRAZORIA,"20 - 0138","Single Family Homes",6/9/2020,,212066,,"23406 BORDEAUX DR",ALVIN,TX,77511,,,CONTRACTOR,,,,,,,,,,,"CASTLEROCK COMMUNITIES",,,,,"CASTLEROCK COMMUNITIES","7670 WOODWAY DR STE 300",HOUSTON,TX,77063-1520,"(713) 600-7000",http://c-rock.com,"(713) 600-0000",,
TX,BRAZORIA,"20 - 0337","Single Family Homes",6/9/2020,,218307,,"326 BURGUNDY DR",ALVIN,TX,77511,,,CONTRACTOR,,,,,,,,,,,"CASTLEROCK COMMUNITIES",,,,,"CASTLEROCK COMMUNITIES","7670 WOODWAY DR STE 300",HOUSTON,TX,77063-1520,"(713) 600-7000",http://c-rock.com,"(713) 600-0000",,
TX,BRAZORIA,"20 - 0406","Single Family Homes",6/11/2020,,172099,,"1534 BARRAS ST",ALVIN,TX,77511,,,CONTRACTOR,,,,,,,,,,,"CASTLEROCK COMMUNITIES",,,,,"CASTLEROCK COMMUNITIES","7670 WOODWAY DR STE 300",HOUSTON,TX,77063-1520,"(713) 600-7000",http://c-rock.com,"(713) 600-0000",,
TX,BRAZORIA,"20 - 0773","Single Family Homes",6/3/2020,,90000,,"303 S 4TH ST",ALVIN,TX,77511,,,"STEVEN JACKSON","303 S 4TH ST",ALVIN,TX,77511,,Owner,,,,,OWNER,,,,,OWNER,,,,,,,,,
TX,BRAZORIA,"20 - 0941","Single Family Homes",6/9/2020,,188048,,"1511 SHANNON ST",ALVIN,TX,77511,,,CONTRACTOR,,,,,,,,,,,"CASTLEROCK COMMUNITIES",,,,,"CASTLEROCK COMMUNITIES","7670 WOODWAY DR STE 300",HOUSTON,TX,77063-1520,"(713) 600-7000",http://c-rock.com,"(713) 600-0000",,
TX,BRAZORIA,"20 - 0942","Single Family Homes",6/8/2020,,154321,,"1845 ALYSSA WAY",ALVIN,TX,77511,,,CONTRACTOR,,,,,,,,,,,"K HOVNANIAN HOMES",,,,,"K HOVNANIAN HOMES","13111 NORTHWEST FWY STE 200",HOUSTON,TX,77040-6311,"(713) 460-0264",,,,
TX,BRAZORIA,"20 - 0943","Single Family Homes",6/2/2020,,127908,,"217 ASHLEY WAY",ALVIN,TX,77511,,,CONTRACTOR,,,,,,,,,,,"K HOVNANIAN HOMES",,,,,"K HOVNANIAN HOMES","13111 NORTHWEST FWY STE 200",HOUSTON,TX,77040-6311,"(713) 460-0264",,,,
TX,BRAZORIA,"20 - 0944","Single Family Homes",6/2/2020,,207338,,"220 GIGI PL",ALVIN,TX,77511,,,CONTRACTOR,,,,,,,,,,,"K HOVNANIAN HOMES",,,,,"K HOVNANIAN HOMES","13111 NORTHWEST FWY STE 200",HOUSTON,TX,77040-6311,"(713) 460-0264",,,,
TX,BRAZORIA,"20 - 1029","Single Family Homes",6/4/2020,,176448,,"5181 ARBOR COVE CT",ALVIN,TX,77511,,,CONTRACTOR,,,,,,,,,,,"DEVON STREET HOMES",,,,,"DEVON STREET HOMES","4545 POST OAK PLACE DR STE 345",HOUSTON,TX,77027-3198,"(713) 622-1009",http://www.devonstreethomes.com,"(713) 622-1094",,
TX,BRAZORIA,"20 - 1051","Single Family Homes",6/15/2020,,158671,,"641 E FAIRWAY LAKE",ALVIN,TX,77511,,,CONTRACTOR,,,,,,,,,,,"RAUSCH COLEMAN HOMES",,,,,"RAUSCH COLEMAN HOMES","9504 N IH35 STE 310","SAN ANTONIO",TX,78233,"(210) 231-0703",https://www.rauschcolemanhomes.com/,,,
TX,BRAZORIA,"20 - 1052","Single Family Homes",6/15/2020,,158671,,"633 E FAIRWAY LAKE DR",ALVIN,TX,77511,,,CONTRACTOR,,,,,,,,,,,"RAUSCH COLEMAN HOMES",,,,,"RAUSCH COLEMAN HOMES","9504 N IH35 STE 310","SAN ANTONIO",TX,78233,"(210) 231-0703",https://www.rauschcolemanhomes.com/,,,
TX,BRAZORIA,"20 - 1084","Single Family Homes",6/16/2020,,166362,,"1743 SHANE TRAIL DR",ALVIN,TX,77511,,,CONTRACTOR,,,,,,,,,,,"K HOVNANIAN HOMES",,,,,"K HOVNANIAN HOMES","13111 NORTHWEST FWY STE 200",HOUSTON,TX,77040-6311,"(713) 460-0264",,,,
TX,BRAZORIA,"20 - 1104","Single Family Homes",6/18/2020,,215218,,"23202 BORDEAUX DR",ALVIN,TX,77511,,,CONTRACTOR,,,,,,,,,,,"ANGLIA HOMES",,,,,"ANGLIA HOMES","17510 RED OAK DR",HOUSTON,TX,77090,"(281) 943-5288",http://www.angliahomeslp.com/,,,
TX,BRAZORIA,"20 - 1105","Single Family Homes",6/29/2020,,167497,,"1269 STEED BLUFF DR",ALVIN,TX,77511,,,CONTRACTOR,,,,,,,,,,,"M/I HOMES",,,,,"M/I HOMES","10910 NORTH SAM HOUSTON PKWY W",HOUSTON,TX,77064,"(832) 912-1012",,,,
TX,BRAZORIA,"20 - 1106","Single Family Homes",6/29/2020,,163840,,"1225 STEED BLUFF DR",ALVIN,TX,77511,,,CONTRACTOR,,,,,,,,,,,"M/I HOMES",,,,,"M/I HOMES","10910 NORTH SAM HOUSTON PKWY W",HOUSTON,TX,77064,"(832) 912-1012",,,,
TX,BRAZORIA,"20 - 1123","Single Family Homes",6/16/2020,,171847,,"384 KENDALL CREST DR",ALVIN,TX,77511,,,CONTRACTOR,,,,,,,,,,,"DEVON STREET HOMES",,,,,"DEVON STREET HOMES","4545 POST OAK PLACE DR STE 345",HOUSTON,TX,77027-3198,"(713) 622-1009",http://www.devonstreethomes.com,"(713) 622-1094",,
TX,BRAZORIA,"20 - 1147","Single Family Homes",6/18/2020,,158293,,"23130 BORDEAUX DR",ALVIN,TX,77511,,,CONTRACTOR,,,,,,,,,,,"ANGLIA HOMES",,,,,"ANGLIA HOMES","17510 RED OAK DR",HOUSTON,TX,77090,"(281) 943-5288",http://www.angliahomeslp.com/,,,
TX,BRAZORIA,"20 - 1149","Single Family Homes",6/30/2020,,163273,,"23214 BORDEAUX DR",ALVIN,TX,77511,,,CONTRACTOR,,,,,,,,,,,"CASTLEROCK COMMUNITIES",,,,,"CASTLEROCK COMMUNITIES","7670 WOODWAY DR STE 300",HOUSTON,TX,77063-1520,"(713) 600-7000",http://c-rock.com,"(713) 600-0000",,
TX,BRAZORIA,"20 - 1150","Single Family Homes",6/25/2020,,160058,,"1841 BELLE PL",ALVIN,TX,77511,,,CONTRACTOR,,,,,,,,,,,"K HOVNANIAN HOMES",,,,,"K HOVNANIAN HOMES","13111 NORTHWEST FWY STE 200",HOUSTON,TX,77040-6311,"(713) 460-0264",,,,
TX,BRAZORIA,"20 - 1164","Single Family Homes",6/23/2020,,137112,,"5184 DRY HOLLOW DR",ALVIN,TX,77511,,,CONTRACTOR,,,,,,,,,,,"DEVON STREET HOMES",,,,,"DEVON STREET HOMES","4545 POST OAK PLACE DR STE 345",HOUSTON,TX,77027-3198,"(713) 622-1009",http://www.devonstreethomes.com,"(713) 622-1094",,
TX,BRAZORIA,"20 - 1187","Single Family Homes",6/29/2020,,172729,,"23126 BORDEAUX DR",ALVIN,TX,77511,,,CONTRACTOR,,,,,,,,,,,"ANGLIA HOMES",,,,,"ANGLIA HOMES","17510 RED OAK DR",HOUSTON,TX,77090,"(281) 943-5288",http://www.angliahomeslp.com/,,,
TX,BRAZORIA,"20 - 1198","Single Family Homes",6/25/2020,,131123,,"628 E FAIRWAY LAKE DR",ALVIN,TX,77511,,,CONTRACTOR,,,,,,,,,,,"RAUSCH COLEMAN HOMES",,,,,"RAUSCH COLEMAN HOMES","9504 N IH35 STE 310","SAN ANTONIO",TX,78233,"(210) 231-0703",https://www.rauschcolemanhomes.com/,,,
TX,BRAZORIA,"20 - 1199","Single Family Homes",6/25/2020,,145874,,"643 E FAIRWAY LAKE DR",ALVIN,TX,77511,,,CONTRACTOR,,,,,,,,,,,"RAUSCH COLEMAN HOMES",,,,,"RAUSCH COLEMAN HOMES","9504 N IH35 STE 310","SAN ANTONIO",TX,78233,"(210) 231-0703",https://www.rauschcolemanhomes.com/,,,
TX,BELL,2020-5845,"Single Family Homes",6/17/2020,,169900,2794,"3215 JAMES RIDGE DR",BELTON,TX,76513,,,CONTRACTOR,,,,,,,,,,,"ASHFORD HOMES",,,,,"ASHFORD HOMES","3800 E STAN SCHLUETER LOOP STE 107",KILLEEN,TX,76542-4558,"(254) 699-8485",,,,
TX,BELL,2020-5848,"Single Family Homes",6/11/2020,,199900,3220,"3301 JAMES RIDGE DR",BELTON,TX,76513,,,CONTRACTOR,,,,,,,,,,,"ASHFORD HOMES",,,,,"ASHFORD HOMES","3800 E STAN SCHLUETER LOOP STE 107",KILLEEN,TX,76542-4558,"(254) 699-8485",,,,
TX,BRAZORIA,"20 - 1200","Single Family Homes",6/25/2020,,168379,,"645 W FAIRWAY LAKE DR",ALVIN,TX,77511,,,CONTRACTOR,,,,,,,,,,,"RAUSCH COLEMAN HOMES",,,,,"RAUSCH COLEMAN HOMES","9504 N IH35 STE 310","SAN ANTONIO",TX,78233,"(210) 231-0703",https://www.rauschcolemanhomes.com/,,,
TX,BELL,2020-5849,"Single Family Homes",6/18/2020,,189900,3115,"3211 JAMES RIDGE DR",BELTON,TX,76513,,,CONTRACTOR,,,,,,,,,,,"ASHFORD HOMES",,,,,"ASHFORD HOMES","3800 E STAN SCHLUETER LOOP STE 107",KILLEEN,TX,76542-4558,"(254) 699-8485",,,,
TX,BELL,2020-5850,"Single Family Homes",,,189900,3040,"3219 JAMES RIDGE DR",BELTON,TX,76513,,,CONTRACTOR,,,,,,,,,,,"ASHFORD HOMES",,,,,"ASHFORD HOMES","3800 E STAN SCHLUETER LOOP STE 107",KILLEEN,TX,76542-4558,"(254) 699-8485",,,,
TX,BELL,2020-5851,"Single Family Homes",6/18/2020,,149900,2452,"3223 JAMES RIDGE DR",BELTON,TX,76513,,,CONTRACTOR,,,,,,,,,,,"ASHFORD HOMES",,,,,"ASHFORD HOMES","3800 E STAN SCHLUETER LOOP STE 107",KILLEEN,TX,76542-4558,"(254) 699-8485",,,,
TX,BELL,2020-5870,"Single Family Homes",6/23/2020,,169900,2794,"3305 JAMES RIDGE DR",BELTON,TX,76513,,,CONTRACTOR,,,,,,,,,,,"ASHFORD HOMES",,,,,"ASHFORD HOMES","3800 E STAN SCHLUETER LOOP STE 107",KILLEEN,TX,76542-4558,"(254) 699-8485",,,,
TX,BELL,2020-5871,"Single Family Homes",6/23/2020,,189900,3115,"3309 JAMES RIDGE DR",BELTON,TX,76513,,,CONTRACTOR,,,,,,,,,,,"ASHFORD HOMES",,,,,"ASHFORD HOMES","3800 E STAN SCHLUETER LOOP STE 107",KILLEEN,TX,76542-4558,"(254) 699-8485",,,,
TX,BELL,2020-5872,"Single Family Homes",6/23/2020,,149900,2452,"3313 JAMES RIDGE DR",BELTON,TX,76513,,,CONTRACTOR,,,,,,,,,,,"ASHFORD HOMES",,,,,"ASHFORD HOMES","3800 E STAN SCHLUETER LOOP STE 107",KILLEEN,TX,76542-4558,"(254) 699-8485",,,,
TX,BELL,2020-5873,"Single Family Homes",6/23/2020,,199900,3220,"3317 JAMES RIDGE DR",BELTON,TX,76513,,,CONTRACTOR,,,,,,,,,,,"ASHFORD HOMES",,,,,"ASHFORD HOMES","3800 E STAN SCHLUETER LOOP STE 107",KILLEEN,TX,76542-4558,"(254) 699-8485",,,,
TX,BELL,2020-5874,"Single Family Homes",6/23/2020,,179900,2908,"3321 JAMES RIDGE DR",BELTON,TX,76513,,,CONTRACTOR,,,,,,,,,,,"ASHFORD HOMES",,,,,"ASHFORD HOMES","3800 E STAN SCHLUETER LOOP STE 107",KILLEEN,TX,76542-4558,"(254) 699-8485",,,,
TX,BELL,2020-5893,"Single Family Homes",6/19/2020,,217700,2655,"812 DAMASCUS DR",BELTON,TX,76513,,,CONTRACTOR,,,,,,,,,,,"PRECISION VALUE HOMES",,,,,"PRECISION VALUE HOMES","14304 E BUSINESS 190","COPPERAS COVE",TX,76522-6267,"(254) 290-7826",http://www.pvhtx.com/,"(254) 518-1130","BO HOLLOMAN",pvhtx@yahoo.com
TX,BELL,2020-5895,"Single Family Homes",6/19/2020,,218100,2580,"816 DAMASCUS DR",BELTON,TX,76513,,,CONTRACTOR,,,,,,,,,,,"PRECISION VALUE HOMES",,,,,"PRECISION VALUE HOMES","14304 E BUSINESS 190","COPPERAS COVE",TX,76522-6267,"(254) 290-7826",http://www.pvhtx.com/,"(254) 518-1130","BO HOLLOMAN",pvhtx@yahoo.com
TX,BELL,2020-5896,"Single Family Homes",6/19/2020,,234950,2996,"904 DAMASCUS DR",BELTON,TX,76513,,,CONTRACTOR,,,,,,,,,,,"PRECISION VALUE HOMES",,,,,"PRECISION VALUE HOMES","14304 E BUSINESS 190","COPPERAS COVE",TX,76522-6267,"(254) 290-7826",http://www.pvhtx.com/,"(254) 518-1130","BO HOLLOMAN",pvhtx@yahoo.com
TX,BELL,2020-5897,"Single Family Homes",6/19/2020,,217000,2665,"908 DAMASCUS DR",BELTON,TX,76513,,,CONTRACTOR,,,,,,,,,,,"PRECISION VALUE HOMES",,,,,"PRECISION VALUE HOMES","14304 E BUSINESS 190","COPPERAS COVE",TX,76522-6267,"(254) 290-7826",http://www.pvhtx.com/,"(254) 518-1130","BO HOLLOMAN",pvhtx@yahoo.com
TX,"FORT BEND","RES 2002632","Single Family Homes",6/3/2020,,140630,,"3106 DRY CREEK DR","MISSOURI CITY",TX,77459,,,CONTRACTOR,,,,,,,,,,,"IES RESIDENTIAL",,,,,"IES RESIDENTIAL","10203 MULA CIR",STAFFORD,TX,77477-3326,"(281) 498-2212",https://www.iesresidential.com,,,
TX,"FORT BEND","RES 2002647","Single Family Homes",6/3/2020,,140630,,"3046 SADIE CT","MISSOURI CITY",TX,77459,,,CONTRACTOR,,,,,,,,,,,"IES RESIDENTIAL",,,,,"IES RESIDENTIAL","10203 MULA CIR",STAFFORD,TX,77477-3326,"(281) 498-2212",https://www.iesresidential.com,,,
TX,"FORT BEND","RES 2002648","Single Family Homes",6/3/2020,,221690,,"3030 MATTHEW AARON CT","MISSOURI CITY",TX,77459,,,CONTRACTOR,,,,,,,,,,,"IES RESIDENTIAL",,,,,"IES RESIDENTIAL","10203 MULA CIR",STAFFORD,TX,77477-3326,"(281) 498-2212",https://www.iesresidential.com,,,
TX,"FORT BEND","RES 2002688","Single Family Homes",6/25/2020,,137800,,"2226 GOLD BEACH DR","MISSOURI CITY",TX,77459,,,CONTRACTOR,,,,,,,,,,,"RAUSCH COLEMAN HOMES",,,,,"RAUSCH COLEMAN HOMES","9504 N IH35 STE 310","SAN ANTONIO",TX,78233,"(210) 231-0703",https://www.rauschcolemanhomes.com/,,,
TX,BRAZORIA,764,"Single Family Homes",6/16/2020,,317420,764,"58 SUN DROP CT","LAKE JACKSON",TX,77566,,,CONTRACTOR,,,,,,,,,,,"BRAZOSPORT CREEKSIDE LLC",,,,,"BRAZOSPORT CREEKSIDE LLC","1008 MOCKINGBIRD LN",RICHWOOD,TX,77531-2237,"(979) 265-8663",,,,
TX,BRAZORIA,845,"Single Family Homes",6/16/2020,,440347,845,"121 SUN DROP LN","LAKE JACKSON",TX,77566,,,CONTRACTOR,,,,,,,,,,,"BRAZOSPORT CREEKSIDE LLC",,,,,"BRAZOSPORT CREEKSIDE LLC","1008 MOCKINGBIRD LN",RICHWOOD,TX,77531-2237,"(979) 265-8663",,,,
TX,BRAZORIA,869,"Single Family Homes",6/16/2020,,359812,869,"206 CREEKSIDE LN","LAKE JACKSON",TX,77566,,,CONTRACTOR,,,,,,,,,,,"BRAZOSPORT CREEKSIDE LLC",,,,,"BRAZOSPORT CREEKSIDE LLC","1008 MOCKINGBIRD LN",RICHWOOD,TX,77531-2237,"(979) 265-8663",,,,
TX,BRAZORIA,912,"Single Family Homes",6/16/2020,,377232,,"220 CREEKSIDE LN","LAKE JACKSON",TX,77566,,,CONTRACTOR,,,,,,,,,,,"BRAZOSPORT CREEKSIDE LLC",,,,,"BRAZOSPORT CREEKSIDE LLC","1008 MOCKINGBIRD LN",RICHWOOD,TX,77531-2237,"(979) 265-8663",,,,
TX,HARRIS,20050362,"Single Family Homes",6/23/2020,,140000,,"609 GARRETT ST",PASADENA,TX,77506,,,CONTRACTOR,,,,,,,,,,,"ARKITEKTURA DEVELOPMENT",,,,,"ARKITEKTURA DEVELOPMENT","1500 MARINA BAY DR BLDG 122B",KEMAH,TX,77565-2575,"(832) 385-0106",,,,
TX,HARRIS,20050363,"Single Family Homes",6/23/2020,,140000,,"900 PALMETTO DR",PASADENA,TX,77506,,,CONTRACTOR,,,,,,,,,,,"ARKITEKTURA DEVELOPMENT",,,,,"ARKITEKTURA DEVELOPMENT","1500 MARINA BAY DR BLDG 122B",KEMAH,TX,77565-2575,"(832) 385-0106",,,,
TX,MONTGOMERY,20-0398,"Single Family Homes",7/7/2020,,132145,2259,"13627  COLLIER PARK LN",WILLIS,TX,77378,"SOUTH MEADOWS",23,CONTRACTOR,,,,,,,,,,,"LEGEND HOMES",,,,,"LEGEND HOMES","10410 WINDAMERE LAKES BLVD",HOUSTON,TX,77065-4996,"(281) 671-9060",http://legendhomecorp.com/,"(281) 671-9055",,
TX,MONTGOMERY,20-0400,"Single Family Homes",7/7/2020,,155565,2615,"13611 COLLIER PARK LN",WILLIS,TX,77378,"SOUTH MEADOWS",,CONTRACTOR,,,,,,,,,,,"LEGEND HOMES",,,,,"LEGEND HOMES","10410 WINDAMERE LAKES BLVD",HOUSTON,TX,77065-4996,"(281) 671-9060",http://legendhomecorp.com/,"(281) 671-9055",,
TX,MONTGOMERY,20-0404,"Single Family Homes",7/7/2020,,108080,1872,"13603 COLLIER PARK LN",WILLIS,TX,76063,"SOUTH MEADOWS",,CONTRACTOR,,,,,,,,,,,"LEGEND HOMES",,,,,"LEGEND HOMES","10410 WINDAMERE LAKES BLVD",HOUSTON,TX,77065-4996,"(281) 671-9060",http://legendhomecorp.com/,"(281) 671-9055",,
TX,MONTGOMERY,20-0407,"Single Family Homes",7/7/2020,,152965,2566,"13619 COLLIER PARK LN",WILLIS,TX,76063,"SOUTH MEADOWS",,CONTRACTOR,,,,,,,,,,,"LEGEND HOMES",,,,,"LEGEND HOMES","10410 WINDAMERE LAKES BLVD",HOUSTON,TX,77065-4996,"(281) 671-9060",http://legendhomecorp.com/,"(281) 671-9055",,
TX,HARRIS,2006240092,"Single Family Homes",6/16/2020,,273600,2432,"20027 WILD HORSE HOLLOW LN",HOUSTON,TX,77356,AMIRA,,CONTRACTOR,,,,,,,,,,,"PERRY HOMES",,,,,"PERRY HOMES","9000 GULF FWY",HOUSTON,TX,77017-7018,"(713) 417-1396",,,,
TX,HARRIS,2006110262,"Single Family Homes",6/16/2020,,417938,3715,"21419 CHESTNUT ROSE RD",HOUSTON,TX,77356,"ROSEHILL RESERVE",,CONTRACTOR,,,,,,,,,,,"PERRY HOMES",,,,,"PERRY HOMES","9000 GULF FWY",HOUSTON,TX,77017-7018,"(713) 417-1396",,,,
TX,HARRIS,2006110272,"Single Family Homes",6/16/2020,,285750,2540,"24402 CEDAR THICKET CIR",HOUSTON,TX,77356,"LAKES AT CREEKSIDE",,CONTRACTOR,,,,,,,,,,,"PERRY HOMES",,,,,"PERRY HOMES","9000 GULF FWY",HOUSTON,TX,77017-7018,"(713) 417-1396",,,,
TX,HARRIS,2006110273,"Single Family Homes",6/16/2020,,294750,2620,"24627 SONGLARK BEND DR",HOUSTON,TX,77356,"LAKES AT CREEKSIDE",,CONTRACTOR,,,,,,,,,,,"PERRY HOMES",,,,,"PERRY HOMES","9000 GULF FWY",HOUSTON,TX,77017-7018,"(713) 417-1396",,,,
TX,HARRIS,2006110167,"Single Family Homes",6/16/2020,,314663,2797,"19018 ANDALUSIAN GLEN LN",HOUSTON,TX,77356,AMIRA,,CONTRACTOR,,,,,,,,,,,"PERRY HOMES",,,,,"PERRY HOMES","9000 GULF FWY",HOUSTON,TX,77017-7018,"(713) 417-1396",,,,
TX,HARRIS,2006110144,"Single Family Homes",6/16/2020,,335813,2985,"20334 GRAY YEARLING TRL",HOUSTON,TX,77356,AMIRA,,CONTRACTOR,,,,,,,,,,,"PERRY HOMES",,,,,"PERRY HOMES","9000 GULF FWY",HOUSTON,TX,77017-7018,"(713) 417-1396",,,,
TX,HARRIS,2006290070,"Single Family Homes",6/16/2020,,73240,1831,"5214 SUNWAY DR",HOUSTON,TX,77356,MARISOL,,CONTRACTOR,,,,,,,,,,,"BEAZER HOMES ",,,,,"BEAZER HOMES ","10235 W LITTLE YORK",HOUSTON,TX,77040,"(713) 849-2252",http://www.beazer.com/,,,
TX,HARRIS,2006290073,"Single Family Homes",6/16/2020,,85920,2148,"5127 YELLOW RAYS TRL",HOUSTON,TX,77356,MARISOL,,CONTRACTOR,,,,,,,,,,,"BEAZER HOMES ",,,,,"BEAZER HOMES ","10235 W LITTLE YORK",HOUSTON,TX,77040,"(713) 849-2252",http://www.beazer.com/,,,
TX,HARRIS,2005200145,"Single Family Homes",6/16/2020,,66240,1656,"5227 YELLOW RAYS TRL",HOUSTON,TX,77356,MARISOL,,CONTRACTOR,,,,,,,,,,,"BEAZER HOMES ",,,,,"BEAZER HOMES ","10235 W LITTLE YORK",HOUSTON,TX,77040,"(713) 849-2252",http://www.beazer.com/,,,
TX,HARRIS,2005200144,"Single Family Homes",6/16/2020,,56400,1402,"5222 SUNWAY RD",HOUSTON,TX,77356,MARISOL,,CONTRACTOR,,,,,,,,,,,"BEAZER HOMES ",,,,,"BEAZER HOMES ","10235 W LITTLE YORK",HOUSTON,TX,77040,"(713) 849-2252",http://www.beazer.com/,,,
TX,HARRIS,2005200143,"Single Family Homes",6/16/2020,,63400,1585,"5231 SUNWAY DR",HOUSTON,TX,77356,MARISOL,,CONTRACTOR,,,,,,,,,,,"BEAZER HOMES ",,,,,"BEAZER HOMES ","10235 W LITTLE YORK",HOUSTON,TX,77040,"(713) 849-2252",http://www.beazer.com/,,,
TX,HARRIS,2005200142,"Single Family Homes",6/16/2020,,56400,1410,"5235 SUNWAY DR",HOUSTON,TX,77356,MARISOL,,CONTRACTOR,,,,,,,,,,,"BEAZER HOMES ",,,,,"BEAZER HOMES ","10235 W LITTLE YORK",HOUSTON,TX,77040,"(713) 849-2252",http://www.beazer.com/,,,
TX,HARRIS,2006230150,"Single Family Homes",6/16/2020,,118645,2455,"1442 GREEN HIGHLAND DR",HOUSTON,TX,77356,"HIGHLAND GLEN",,CONTRACTOR,,,,,,,,,,,"ANGLIA HOMES",,,,,"ANGLIA HOMES","17510 RED OAK DR",HOUSTON,TX,77090,"(281) 943-5288",http://www.angliahomeslp.com/,,,
TX,HARRIS,2006250153,"Single Family Homes",6/16/2020,,616235,5195,"13019 MUSTANG RIVER DR",HOUSTON,TX,77356,BRIDLECREEK,,CONTRACTOR,,,,,,,,,,,"PARTNERS IN BUILDING",,,,,"PARTNERS IN BUILDING","1803 RANCH ROAD 620 N",LAKEWAY,TX,78734-2611,"(512) 266-6701",http://www.partnersinbuilding.com,"(713) 937-1445",,info@partnersinbuilding.com
TX,HARRIS,2006250110,"Single Family Homes",6/16/2020,,97300,1764,"13615 ALASKAN BROWN BEAR TRL",HOUSTON,TX,77356,"KODIAK CROSSING",,CONTRACTOR,,,,,,,,,,,"K HOVNANIAN HOMES",,,,,"K HOVNANIAN HOMES","13111 NORTHWEST FWY STE 200",HOUSTON,TX,77040-6311,"(713) 460-0264",,,,
TX,HARRIS,2006250112,"Single Family Homes",6/16/2020,,112910,2003,"13619 ALASKAN BROWN BEAR TRL",HOUSTON,TX,77356,"KODIAK CROSSING",,CONTRACTOR,,,,,,,,,,,"K HOVNANIAN HOMES",,,,,"K HOVNANIAN HOMES","13111 NORTHWEST FWY STE 200",HOUSTON,TX,77040-6311,"(713) 460-0264",,,,
TX,HARRIS,2006250114,"Single Family Homes",6/16/2020,,128940,2228,"13623 ALASKAN BROWN BEAR TRL",HOUSTON,TX,77356,"KODIAK CROSSING",,CONTRACTOR,,,,,,,,,,,"K HOVNANIAN HOMES",,,,,"K HOVNANIAN HOMES","13111 NORTHWEST FWY STE 200",HOUSTON,TX,77040-6311,"(713) 460-0264",,,,
TX,HARRIS,2006250117,"Single Family Homes",6/16/2020,,140630,2402,"13627 ALASKAN BROWN BEAR TRL",HOUSTON,TX,77356,"KODIAK CROSSING",,CONTRACTOR,,,,,,,,,,,"K HOVNANIAN HOMES",,,,,"K HOVNANIAN HOMES","13111 NORTHWEST FWY STE 200",HOUSTON,TX,77040-6311,"(713) 460-0264",,,,
TX,HARRIS,2006250122,"Single Family Homes",6/16/2020,,143080,2439,"13703 ALASKAN BROWN BEAR TRL",HOUSTON,TX,77356,"KODIAK CROSSING",,CONTRACTOR,,,,,,,,,,,"K HOVNANIAN HOMES",,,,,"K HOVNANIAN HOMES","13111 NORTHWEST FWY STE 200",HOUSTON,TX,77040-6311,"(713) 460-0264",,,,
TX,HARRIS,2006250123,"Single Family Homes",6/16/2020,,155750,2613,"13707 ALASKAN BROWN BEAR TRL",HOUSTON,TX,77356,"KODIAK CROSSING ",,CONTRACTOR,,,,,,,,,,,"K HOVNANIAN HOMES",,,,,"K HOVNANIAN HOMES","13111 NORTHWEST FWY STE 200",HOUSTON,TX,77040-6311,"(713) 460-0264",,,,
TX,HARRIS,20058153,"Single Family Homes",7/22/2020,,240000,,"2505 REPPART",HOUSTON,TX,77008,,,CONTRACTOR,,,,,,,,,,,"ANNE'S PERMIT",,,,,"ANNE'S PERMIT","2617C W HOLCOMBE BLVD",HOUSTON,TX,77025,"(713) 666-2025",,,,
TX,HARRIS,20062148,"Single Family Homes",7/21/2020,,202000,,"2603 ZEMMER",HOUSTON,TX,77008,,,CONTRACTOR,,,,,,,,,,,"ANNE'S PERMIT",,,,,"ANNE'S PERMIT","2617C W HOLCOMBE BLVD",HOUSTON,TX,77025,"(713) 666-2025",,,,
TX,HARRIS,20062147,"Single Family Homes",7/21/2020,,190000,,"5219 CARTERS BANK",HOUSTON,TX,77018,,,CONTRACTOR,,,,,,,,,,,"ANNE'S PERMIT",,,,,"ANNE'S PERMIT","2617C W HOLCOMBE BLVD",HOUSTON,TX,77025,"(713) 666-2025",,,,
TX,HARRIS,20042599,"Single Family Homes",7/22/2020,,450000,,"3618 W CLAY",HOUSTON,TX,77019,,,"BALLENT THEODORE","3618 W CLAY",HOUSTON,TX,77019,,Owner,,,,,"BALLARD BUILDING COMPANY",,,,,"BALLARD BUILDING COMPANY","14780 MEMORIAL DR STE 225",HOUSTON,TX,77079-5284,"(832) 309-5435",,,,
TX,HARRIS,20049568,"Single Family Homes",7/23/2020,,122000,,"214 N DRENNAN",HOUSTON,TX,77003,,,CONTRACTOR,,,,,,,,,,,"ACCESSO VENTURES",,,,,"ACCESSO VENTURES","1021 MAIN STREET, SUITE 1920",HOUSTON,TX,77002,"(713) 255-0849",https://accessopartners.com/,,,
TX,HARRIS,20049567,"Single Family Homes",7/23/2020,,122000,,"218 N DRENNAN",HOUSTON,TX,77003,,,CONTRACTOR,,,,,,,,,,,"ACCESSO VENTURES",,,,,"ACCESSO VENTURES","1021 MAIN STREET, SUITE 1920",HOUSTON,TX,77002,"(713) 255-0849",https://accessopartners.com/,,,
TX,HARRIS,20060847,"Single Family Homes",7/22/2020,,322000,,"6019 GRANITE SHADOW",HOUSTON,TX,77365,,,CONTRACTOR,,,,,,,,,,,"ASHTON WOODS HOMES",,,,,"ASHTON WOODS HOMES","10110 W SAM HOUSTON PKWY N",HOUSTON,TX,77064-7508,"(832) 478-9028",,,,
TX,HARRIS,20060852,"Single Family Homes",7/22/2020,,275000,,"6023 GRANITE SHADOW",HOUSTON,TX,77365,,,CONTRACTOR,,,,,,,,,,,"ASHTON WOODS HOMES",,,,,"ASHTON WOODS HOMES","10110 W SAM HOUSTON PKWY N",HOUSTON,TX,77064-7508,"(832) 478-9028",,,,
TX,HARRIS,20052806,"Single Family Homes",7/22/2020,,196565,,"14206 COUTURIE FOREST ",HOUSTON,TX,77045,,,CONTRACTOR,,,,,,,,,,,"BRIGHTON HOMES & PARKWOOD",,,,,"BRIGHTON HOMES & PARKWOOD","13111 NORTHWEST FWY",HOUSTON,TX,77040-6318,"(713) 460-6279",,,,
TX,HARRIS,20060083,"Single Family Homes",7/22/2020,,190509,,"7714 JOSHUA STONE",HOUSTON,TX,77016,,,CONTRACTOR,,,,,,,,,,,"BRIGHTON HOMES & PARKWOOD",,,,,"BRIGHTON HOMES & PARKWOOD","13111 NORTHWEST FWY",HOUSTON,TX,77040-6318,"(713) 460-6279",,,,
TX,HARRIS,20037294,"Single Family Homes",7/24/2020,,178484,,"875 MARCOLIN",HOUSTON,TX,77088,,,CONTRACTOR,,,,,,,,,,,"BURGHLI HOMES",,,,,"BURGHLI HOMES","4615 NORTH FREEWAY",HOUSTON,TX,77022,"(713) 691-3948",http://burghlihomes.com/,,,
TX,HARRIS,20061637,"Single Family Homes",7/23/2020,,225990,,"718 COBALT CREST",HOUSTON,TX,77336,,,CONTRACTOR,,,,,,,,,,,"CENTURY COMMUNITIES",,,,,"CENTURY COMMUNITIES","4700 W SAM HOUSTON PKWY N STE 130",HOUSTON,TX,77041-8219,"(281) 741-8946",https://www.centurycommunities.com/,,,
TX,HARRIS,20061638,"Single Family Homes",7/23/2020,,192990,,"719 COBALT CREST",HOUSTON,TX,77336,,,CONTRACTOR,,,,,,,,,,,"CENTURY COMMUNITIES",,,,,"CENTURY COMMUNITIES","4700 W SAM HOUSTON PKWY N STE 130",HOUSTON,TX,77041-8219,"(281) 741-8946",https://www.centurycommunities.com/,,,
TX,HARRIS,20006901,"Single Family Homes",7/21/2020,,276000,,"1150 BUNKER HILL",HOUSTON,TX,77055,,,CONTRACTOR,,,,,,,,,,,"CLIMATE PROS",,,,,"CLIMATE PROS","55 N BRANDON DR #2024","GLEN HIGHTS",IL,60139,"(630) 893-8511",,,,
TX,HARRIS,20062687,"Single Family Homes",7/23/2020,,202990,,"714 COBALT CREST",HOUSTON,TX,77356,,,CONTRACTOR,,,,,,,,,,,"CENTURY COMMUNITIES",,,,,"CENTURY COMMUNITIES","4700 W SAM HOUSTON PKWY N STE 130",HOUSTON,TX,77041-8219,"(281) 741-8946",https://www.centurycommunities.com/,,,
TX,HARRIS,20059029,"Single Family Homes",7/21/2020,,173097,,"6808 TROYA ",HOUSTON,TX,77092,,,CONTRACTOR,,,,,,,,,,,"CONTEMPO BUILDER",,,,,"CONTEMPO BUILDER","1808 SNAKE RIVER RD STE D",KATY,TX,77449-7746,"(832) 275-2469",http://www.contempobuilder.com,"(281) 596-4376","JULIO FERNANDEZ",julio@contempobuilder.com
TX,HARRIS,20059028,"Single Family Homes",7/21/2020,,190188,,"6810 TROYA ",HOUSTON,TX,77092,,,CONTRACTOR,,,,,,,,,,,"CONTEMPO BUILDER",,,,,"CONTEMPO BUILDER","1808 SNAKE RIVER RD STE D",KATY,TX,77449-7746,"(832) 275-2469",http://www.contempobuilder.com,"(281) 596-4376","JULIO FERNANDEZ",julio@contempobuilder.com
TX,HARRIS,20041717,"Single Family Homes",7/23/2020,,324800,,"541 W 23RD ST",HOUSTON,TX,77008,,,CONTRACTOR,,,,,,,,,,,"ENTERRA HOMES",,,,,"ENTERRA HOMES","7155 OLD KATY RD STE N210",HOUSTON,TX,77024-2273,"(281) 850-2845",http://www.enterrahomes.com/,"(832) 266-1638","MICHAEL VAN",mvan@enterrahomes.com
TX,HARRIS,20063523,"Single Family Homes",7/23/2020,,225990,,"10703 STELLA POND",HOUSTON,TX,77016,,,CONTRACTOR,,,,,,,,,,,"FIRST AMERICA HOMES",,,,,"FIRST AMERICA HOMES","1400 WOODLOCH FOREST DR STE 200","THE WOODLANDS",TX,77380-1179,"(713) 452-1700",http://www.firstamericahomes.com/,,,info@firstamericahomes.com
TX,HARRIS,20063528,"Single Family Homes",7/24/2020,,188990,,"10755 NYLA SPRING",HOUSTON,TX,77016,,,CONTRACTOR,,,,,,,,,,,"FIRST AMERICA HOMES",,,,,"FIRST AMERICA HOMES","1400 WOODLOCH FOREST DR STE 200","THE WOODLANDS",TX,77380-1179,"(713) 452-1700",http://www.firstamericahomes.com/,,,info@firstamericahomes.com
TX,HARRIS,20059859,"Single Family Homes",7/22/2020,,199990,,"10759 NYLA SPRING",HOUSTON,TX,77016,,,CONTRACTOR,,,,,,,,,,,"FIRST AMERICA HOMES",,,,,"FIRST AMERICA HOMES","1400 WOODLOCH FOREST DR STE 200","THE WOODLANDS",TX,77380-1179,"(713) 452-1700",http://www.firstamericahomes.com/,,,info@firstamericahomes.com
TX,HARRIS,20063526,"Single Family Homes",7/23/2020,,225990,,"7603 AIIDEN  RIDGE",HOUSTON,TX,77016,,,CONTRACTOR,,,,,,,,,,,"FIRST AMERICA HOMES",,,,,"FIRST AMERICA HOMES","1400 WOODLOCH FOREST DR STE 200","THE WOODLANDS",TX,77380-1179,"(713) 452-1700",http://www.firstamericahomes.com/,,,info@firstamericahomes.com
TX,HARRIS,20063527,"Single Family Homes",7/24/2020,,188990,,"7706 AIIDEN RIDGE",HOUSTON,TX,77016,,,CONTRACTOR,,,,,,,,,,,"FIRST AMERICA HOMES",,,,,"FIRST AMERICA HOMES","1400 WOODLOCH FOREST DR STE 200","THE WOODLANDS",TX,77380-1179,"(713) 452-1700",http://www.firstamericahomes.com/,,,info@firstamericahomes.com
TX,HARRIS,20063532,"Single Family Homes",7/24/2020,,191990,,"7734 NEVAEH CREST",HOUSTON,TX,77016,,,CONTRACTOR,,,,,,,,,,,"FIRST AMERICA HOMES",,,,,"FIRST AMERICA HOMES","1400 WOODLOCH FOREST DR STE 200","THE WOODLANDS",TX,77380-1179,"(713) 452-1700",http://www.firstamericahomes.com/,,,info@firstamericahomes.com
TX,HARRIS,17017283,"Single Family Homes",7/21/2020,,136914,,"6062 WILLOW GLEN",HOUSTON,TX,77033,,,CONTRACTOR,,,,,,,,,,,"GVS CONSTRUCTION",,,,,"GVS CONSTRUCTION","12508 STONEY CREEK",HOUSTON,TX,77584,"(832) 274-1588",,,,
TX,HARRIS,20021319,"Single Family Homes",7/21/2020,,650000,,"5031 YARWELL",HOUSTON,TX,77096,,,CONTRACTOR,,,,,,,,,,,"ASHER HADAD",,,,,"ASHER HADAD","4974 DUMFRIES DRIVE",HOUSTON,TX,77096,"(832) 526-6618",,,,
TX,HARRIS,20060591,"Single Family Homes",7/22/2020,,275925,,"3210 BELLWICK CHASE",HOUSTON,TX,77365,,,CONTRACTOR,,,,,,,,,,,"PERRY HOMES",,,,,"PERRY HOMES","9000 GULF FWY",HOUSTON,TX,77017-7018,"(713) 417-1396",,,,
TX,HARRIS,20059063,"Single Family Homes",7/21/2020,,287925,,"3230 BELLWICK CHASE",HOUSTON,TX,77365,,,CONTRACTOR,,,,,,,,,,,"PERRY HOMES",,,,,"PERRY HOMES","9000 GULF FWY",HOUSTON,TX,77017-7018,"(713) 417-1396",,,,
TX,HARRIS,20011621,"Single Family Homes",7/24/2020,,288161,,"2729 MAXROY",HOUSTON,TX,77007,,,CONTRACTOR,,,,,,,,,,,"INTOWN HOMES",,,,,"INTOWN HOMES","1520 OLIVER ST",HOUSTON,TX,77007,"(713) 961-3877",http://www.intown-homes.com/,,,
TX,HARRIS,19032111,"Single Family Homes",7/24/2020,,244928,,"4945 RUSK",HOUSTON,TX,77023,,,CONTRACTOR,,,,,,,,,,,"INTOWN HOMES",,,,,"INTOWN HOMES","1520 OLIVER ST",HOUSTON,TX,77007,"(713) 961-3877",http://www.intown-homes.com/,,,
TX,HARRIS,19032112,"Single Family Homes",7/24/2020,,279329,,"4947 RUSK",HOUSTON,TX,77023,,,CONTRACTOR,,,,,,,,,,,"INTOWN HOMES",,,,,"INTOWN HOMES","1520 OLIVER ST",HOUSTON,TX,77007,"(713) 961-3877",http://www.intown-homes.com/,,,
TX,HARRIS,19035584,"Single Family Homes",7/24/2020,,247368,,"5003 RUSK",HOUSTON,TX,77023,,,CONTRACTOR,,,,,,,,,,,"INTOWN HOMES",,,,,"INTOWN HOMES","1520 OLIVER ST",HOUSTON,TX,77007,"(713) 961-3877",http://www.intown-homes.com/,,,
TX,HARRIS,18113202,"Single Family Homes",7/22/2020,,227518,,"6008 MATTHEW OAKS ",HOUSTON,TX,77007,,,CONTRACTOR,,,,,,,,,,,"INTOWN HOMES",,,,,"INTOWN HOMES","1520 OLIVER ST",HOUSTON,TX,77007,"(713) 961-3877",http://www.intown-homes.com/,,,
TX,HARRIS,18113203,"Single Family Homes",7/22/2020,,173687,,"6010 MATTHEW OAKS ",HOUSTON,TX,77007,,,CONTRACTOR,,,,,,,,,,,"INTOWN HOMES",,,,,"INTOWN HOMES","1520 OLIVER ST",HOUSTON,TX,77007,"(713) 961-3877",http://www.intown-homes.com/,,,
TX,HARRIS,18113204,"Single Family Homes",7/22/2020,,227433,,"6012 MATTHEW OAKS ",HOUSTON,TX,77007,,,CONTRACTOR,,,,,,,,,,,"INTOWN HOMES",,,,,"INTOWN HOMES","1520 OLIVER ST",HOUSTON,TX,77007,"(713) 961-3877",http://www.intown-homes.com/,,,
TX,HARRIS,19147061,"Single Family Homes",7/21/2020,,150000,,"12906 MOSSCREST",HOUSTON,TX,77048,,,CONTRACTOR,,,,,,,,,,,"KB HOME",,,,,"KB HOME","11314 RICHMOND AVE",HOUSTON,TX,77082-2616,"(281) 668-3800",,,,
TX,HARRIS,20062489,"Single Family Homes",7/23/2020,,251000,,"3311 BELLWICK CHASE",HOUSTON,TX,77365,,,CONTRACTOR,,,,,,,,,,,"LENNAR HOMES",,,,,"LENNAR HOMES","550 GREENS PKWY",HOUSTON,TX,77067-4537,"(281) 875-1000",http://www.lennar.com/,,,
TX,HARRIS,20022233,"Single Family Homes",7/21/2020,,65000,,"7514 GLASS",HOUSTON,TX,77016,,,CONTRACTOR,,,,,,,,,,,"MAXWELL SLADE",,,,,"MAXWELL SLADE","2100 W LOOP S #800",HOUSTON,TX,77027,"(713) 501-1730",https://www.maxwellslade.com/,,,contact@maxwellslade.com
TX,HARRIS,20059471,"Single Family Homes",7/23/2020,,163455,,"5422 ORIENTE ",HOUSTON,TX,77023,,,CONTRACTOR,,,,,,,,,,,"MERITAGE HOMES",,,,,"MERITAGE HOMES","2901 W SAM HOUSTON PKWY N",HOUSTON,TX,77043-1630,"(713) 357-1184",,,,
TX,HARRIS,20032452,"Single Family Homes",7/22/2020,,176970,,"5507 CUERTA",HOUSTON,TX,77023,,,CONTRACTOR,,,,,,,,,,,"MERITAGE HOMES",,,,,"MERITAGE HOMES","2901 W SAM HOUSTON PKWY N",HOUSTON,TX,77043-1630,"(713) 357-1184",,,,
TX,HARRIS,20060449,"Single Family Homes",7/23/2020,,201620,,"5511 CAMAGUEY",HOUSTON,TX,77023,,,CONTRACTOR,,,,,,,,,,,"MERITAGE HOMES",,,,,"MERITAGE HOMES","2901 W SAM HOUSTON PKWY N",HOUSTON,TX,77043-1630,"(713) 357-1184",,,,
TX,HARRIS,20045882,"Single Family Homes",7/24/2020,,222000,,"4115 MARINA",HOUSTON,TX,77007,,,CONTRACTOR,,,,,,,,,,,"MILLENI, LLC",,,,,"MILLENI, LLC","3440 RILEY FUZZEL RD",HOUSTON,TX,77386,"(832) 517-1907",,,,
TX,HARRIS,20045883,"Single Family Homes",7/24/2020,,222000,,"4119 MARINA",HOUSTON,TX,77007,,,CONTRACTOR,,,,,,,,,,,"MILLENI, LLC",,,,,"MILLENI, LLC","3440 RILEY FUZZEL RD",HOUSTON,TX,77386,"(832) 517-1907",,,,
TX,HARRIS,20029419,"Single Family Homes",7/24/2020,,156000,,"559 WHITE OAK",HOUSTON,TX,77336,,,CONTRACTOR,,,,,,,,,,,"NEIGHBORLY HOME BUILDERS",,,,,"NEIGHBORLY HOME BUILDERS","2031 SAXON DR",HOUSTON,TX,77018,"(832) 844-9579",https://neighborlyhomebuilders.com/,,,
TX,HARRIS,19069538,"Single Family Homes",7/21/2020,,200000,,"2413 PEASE",HOUSTON,TX,77003,,,"RAMIREZ ALEJANDRA","2413 PEASE",HOUSTON,TX,77003,"(713) 419-2653",Applicant,,,,,OWNER,,,,,OWNER,,,,,,,,,
TX,HARRIS,20007811,"Single Family Homes",7/23/2020,,167875,,"5502 ROSSLYN",HOUSTON,TX,77091,,,CONTRACTOR,,,,,,,,,,,"RDZ LAND DEVELOPMENT & CONSTRUCTION",,,,,"RDZ LAND DEVELOPMENT & CONSTRUCTION","1710 RUELLEN",HOUSTON,TX,77038,"(713) 823-4747",,,,
TX,HARRIS,20007810,"Single Family Homes",7/23/2020,,178415,,"5504 ROSSLYN",HOUSTON,TX,77091,,,CONTRACTOR,,,,,,,,,,,"RDZ LAND DEVELOPMENT & CONSTRUCTION",,,,,"RDZ LAND DEVELOPMENT & CONSTRUCTION","1710 RUELLEN",HOUSTON,TX,77038,"(713) 823-4747",,,,
TX,HARRIS,20007809,"Single Family Homes",7/23/2020,,173315,,"5506 ROSSLYN",HOUSTON,TX,77091,,,CONTRACTOR,,,,,,,,,,,"RDZ LAND DEVELOPMENT & CONSTRUCTION",,,,,"RDZ LAND DEVELOPMENT & CONSTRUCTION","1710 RUELLEN",HOUSTON,TX,77038,"(713) 823-4747",,,,
TX,HARRIS,20007808,"Single Family Homes",7/23/2020,,173315,,"5508 ROSSLYN",HOUSTON,TX,77091,,,CONTRACTOR,,,,,,,,,,,"RDZ LAND DEVELOPMENT & CONSTRUCTION",,,,,"RDZ LAND DEVELOPMENT & CONSTRUCTION","1710 RUELLEN",HOUSTON,TX,77038,"(713) 823-4747",,,,
TX,HARRIS,20007807,"Single Family Homes",7/23/2020,,173315,,"5510 ROSSLYN",HOUSTON,TX,77091,,,CONTRACTOR,,,,,,,,,,,"RDZ LAND DEVELOPMENT & CONSTRUCTION",,,,,"RDZ LAND DEVELOPMENT & CONSTRUCTION","1710 RUELLEN",HOUSTON,TX,77038,"(713) 823-4747",,,,
TX,HARRIS,20007806,"Single Family Homes",7/23/2020,,202470,,"5512 ROSSLYN",HOUSTON,TX,77091,,,CONTRACTOR,,,,,,,,,,,"RDZ LAND DEVELOPMENT & CONSTRUCTION",,,,,"RDZ LAND DEVELOPMENT & CONSTRUCTION","1710 RUELLEN",HOUSTON,TX,77038,"(713) 823-4747",,,,
TX,HARRIS,20007805,"Single Family Homes",7/23/2020,,202470,,"5514 ROSSLYN",HOUSTON,TX,77091,,,CONTRACTOR,,,,,,,,,,,"RDZ LAND DEVELOPMENT & CONSTRUCTION",,,,,"RDZ LAND DEVELOPMENT & CONSTRUCTION","1710 RUELLEN",HOUSTON,TX,77038,"(713) 823-4747",,,,
TX,HARRIS,20007804,"Single Family Homes",7/23/2020,,202470,,"5516 ROSSLYN",HOUSTON,TX,77091,,,CONTRACTOR,,,,,,,,,,,"RDZ LAND DEVELOPMENT & CONSTRUCTION",,,,,"RDZ LAND DEVELOPMENT & CONSTRUCTION","1710 RUELLEN",HOUSTON,TX,77038,"(713) 823-4747",,,,
TX,HARRIS,20007803,"Single Family Homes",7/23/2020,,202470,,"5518 ROSSLYN",HOUSTON,TX,77091,,,CONTRACTOR,,,,,,,,,,,"RDZ LAND DEVELOPMENT & CONSTRUCTION",,,,,"RDZ LAND DEVELOPMENT & CONSTRUCTION","1710 RUELLEN",HOUSTON,TX,77038,"(713) 823-4747",,,,
TX,HARRIS,20007802,"Single Family Homes",7/23/2020,,202470,,"5520 ROSSLYN",HOUSTON,TX,77091,,,CONTRACTOR,,,,,,,,,,,"RDZ LAND DEVELOPMENT & CONSTRUCTION",,,,,"RDZ LAND DEVELOPMENT & CONSTRUCTION","1710 RUELLEN",HOUSTON,TX,77038,"(713) 823-4747",,,,
TX,HARRIS,20007801,"Single Family Homes",7/23/2020,,202470,,"5522 ROSSLYN",HOUSTON,TX,77091,,,CONTRACTOR,,,,,,,,,,,"RDZ LAND DEVELOPMENT & CONSTRUCTION",,,,,"RDZ LAND DEVELOPMENT & CONSTRUCTION","1710 RUELLEN",HOUSTON,TX,77038,"(713) 823-4747",,,,
TX,HARRIS,20007800,"Single Family Homes",7/23/2020,,202470,,"5524 ROSSLYN",HOUSTON,TX,77091,,,CONTRACTOR,,,,,,,,,,,"RDZ LAND DEVELOPMENT & CONSTRUCTION",,,,,"RDZ LAND DEVELOPMENT & CONSTRUCTION","1710 RUELLEN",HOUSTON,TX,77038,"(713) 823-4747",,,,
TX,HARRIS,20019112,"Single Family Homes",7/22/2020,,183697,,"1407 BOSWELL",HOUSTON,TX,77009,,,CONTRACTOR,,,,,,,,,,,"STONEWORKS BUILDING GROUP",,,,,"STONEWORKS BUILDING GROUP","2040 NORTH LOOP W",HOUSTON,TX,77018-8127,"(713) 242-8598",,,,
TX,HARRIS,20019111,"Single Family Homes",7/22/2020,,183697,,"1411 BOSWELL",HOUSTON,TX,77009,,,CONTRACTOR,,,,,,,,,,,"STONEWORKS BUILDING GROUP",,,,,"STONEWORKS BUILDING GROUP","2040 NORTH LOOP W",HOUSTON,TX,77018-8127,"(713) 242-8598",,,,
TX,HARRIS,20049471,"Single Family Homes",7/23/2020,,110000,,"6710 KNOX",HOUSTON,TX,77091,,,CONTRACTOR,,,,,,,,,,,"SXG CAPITAL GROUP",,,,,"SXG CAPITAL GROUP","24938 CLOVER",HOUSTON,TX,77494,"(713) 501-4582",,,,
TX,HARRIS,20049469,"Single Family Homes",7/23/2020,,110000,,"6736 KNOX",HOUSTON,TX,77091,,,CONTRACTOR,,,,,,,,,,,"SXG CAPITAL GROUP",,,,,"SXG CAPITAL GROUP","24938 CLOVER",HOUSTON,TX,77494,"(713) 501-4582",,,,
TX,GALVESTON,SFD2020-0122,"Single Family Homes",6/24/2020,,175186,,"344 BONITA ST",WEATHERFORD,TX,76087,LOCKWOOD,,CONTRACTOR,,,,,,,,,,,"LILLIAN CUSTOM HOMES",,,,,"LILLIAN CUSTOM HOMES","509 FERRIS AVE",WAXAHACHIE,TX,75165-3343,"(972) 937-8990",http://lilliancustomhomes.com/,,,
TX,HARRIS,20065541,"Warehouse & Manufacturing",7/17/2020,,1999822,,"11525 TODD",HOUSTON,TX,77055,,,CONTRACTOR,,,,,,,,,,,"BELDON ROOFING",,,,,"BELDON ROOFING","5039 WEST AVE","SAN ANTONIO",TX,78213-2711,"(210) 341-3100",,,,
TX,HARRIS,19115098,"Warehouse & Manufacturing",7/17/2020,,150000,,"8730 WINDSWEPT LN",HOUSTON,TX,77063,,,"BRICEJ ERRY","8730 WINDSWEPT LN",HOUSTON,TX,77063,"(713) 874-4509",Owner,,,,,OWNER,,,,,OWNER,,,,,,,,,
TX,HARRIS,20050989,"Warehouse & Manufacturing",7/17/2020,,299000,,"4120 CONSULATE PLAZA DR",HOUSTON,TX,77032,,,CONTRACTOR,,,,,,,,,,,"OS INTERIOR SYSTEMS",,,,,"OS INTERIOR SYSTEMS","3665 WALNUT BEND LN",HOUSTON,TX,77042-4818,"(713) 780-9050",http://www.osinterior.com,"(713) 780-1376",,
TX,HARRIS,19110859,"Warehouse & Manufacturing",6/11/2020,,2300000,,"8007 RED BLUFF RD",PASADENA,TX,77505,,,CONTRACTOR,,,,,,,,,,,"GOSS BUILDING",,,,,"GOSS BUILDING","2455 W CARDINAL DR",BEAUMONT,TX,77705,"(409) 842-4988",,,,
TX,HARRIS,19110860,"Warehouse & Manufacturing",6/11/2020,,5600000,,"8003 RED BLUFF RD",PASADENA,TX,77505,,,CONTRACTOR,,,,,,,,,,,"GOSS BUILDING",,,,,"GOSS BUILDING","2455 W CARDINAL DR",BEAUMONT,TX,77705,"(409) 842-4988",,,,
TX,"FORT BEND",20-00101177,"Warehouse & Manufacturing",6/4/2020,,2110436,,"757 INDUSTRIAL BLVD","SUGAR LAND",TX,77479,,,CONTRACTOR,,,,,,,,,,,"KINGHAM DALTON WILSON ",,,,,"KINGHAM DALTON WILSON ","5858 WESTHEIMER RD STE 150",HOUSTON,TX,77057-5631,"(713) 541-5070",http://www.kdwltd.com/,"(713) 541-5072",,info@kdwltd.com
TX,"FORT BEND",20-00102465,"Warehouse & Manufacturing",6/18/2020,,3020804,,"11177 SOUTH STADIUM DR","SUGAR LAND",TX,77479,,,CONTRACTOR,,,,,,,,,,,"GALLANT BUILDERS",,,,,"GALLANT BUILDERS","6990 PORTWEST DR STE 170",HOUSTON,TX,77024-8088,"(713) 275-9900",https://www.gallantbuilders.com/,"(713) 275-9901",,
TX,"FORT BEND",20-00102593,"Warehouse & Manufacturing",6/22/2020,,46000,,"77 SUGAR CREEK CENTER BLVD STE 420","SUGAR LAND",TX,77479,,,CONTRACTOR,,,,,,,,,,,"CANNON ENTERPRISES",,,,,"CANNON ENTERPRISES","230 RILEY FUZZEL RD",SPRING,TX,77373,"(281) 353-6868",,,,
TX,HARRIS,20055897,"Warehouse & Manufacturing",7/23/2020,Addition,2513993,,"9649 W WINGFOOT",HOUSTON,TX,77041,,,CONTRACTOR,,,,,,,,,,,"THE BRANDT COMPANIES",,,,,"THE BRANDT COMPANIES","1340 AIRPORT COMMERCE DR STE 575",AUSTIN,TX,78741-6837,"(512) 491-9100",,,,
