state,county,permno,ptype,pdate,pdescription,jvalue,jsqfeet,jaddr,jcity,jstate,jzip,jsubdiv,jlotno,aname,aaddr,acity,astate,azip,aphone,atype,aurl,afax,aprimarycontact,aemail,bldcode,units,bldgs,ctype,legal,contractor,caddress,ccity,cstate,czip,cphone,curl,cfax,cprimarycontact,cemail
TX,HARRIS,20033971,"Churches & Other Religious",9/15/2020,,4800000,,"3826 WHEELER",HOUSTON,TX,77004,,,CONTRACTOR,,,,,,,,,,,"TELLEPSEN BUILDERS",,,,,"TELLEPSEN BUILDERS","777 BENMAR DR STE 400",HOUSTON,TX,77060-3607,"(281) 447-8100",,"(281) 447-8177","HOWARD TELLEPSEN",
TX,HARRIS,000075246,"Duplex, Triplex, & Fourplex",8/20/2020,,100000,2036,"409 2ND STREET","SOUTH HOUSTON",TX,77301,,,CONTRACTOR,,,,,,,,,,,"INFINITE CUSTOM HOMES",,,,,"INFINITE CUSTOM HOMES","14403 TWISTED CANYON DR",CYPRESS,TX,77429-4240,"(713) 557-9524",,,,
TX,HARRIS,20066602,"Duplex, Triplex, & Fourplex",9/15/2020,,177000,,"4210 ALVIN ST 1",HOUSTON,TX,77051,,,"JMACK ARCHITECTS","5353 WEST ALABAMA, SUITE 695",HOUSTON,TX,77056,"(713) 524-9524",Architect,,,,,OWNER,,,,,OWNER,,,,,,,,,
TX,HARRIS,20078302,"Duplex, Triplex, & Fourplex",9/17/2020,,149000,,"9732 CARGILL ST A",HOUSTON,TX,77029,,,CONTRACTOR,,,,,,,,,,,"MOHR PARTNERS",,,,,"MOHR PARTNERS","14643 DALLAS PARKWAY, SUITE 1000",DALLAS,TX,75254,"(972) 239-0394",,,,
TX,HARRIS,20074547,"Duplex, Triplex, & Fourplex",9/17/2020,,149000,,"5314 NORTHRIDGE DR",HOUSTON,TX,77033,,,CONTRACTOR,,,,,,,,,,,"MOHR PARTNERS",,,,,"MOHR PARTNERS","14643 DALLAS PARKWAY, SUITE 1000",DALLAS,TX,75254,"(972) 239-0394",,,,
TX,HARRIS,20080109,"Duplex, Triplex, & Fourplex",9/18/2020,,149000,,"9205 KENTSHIRE DR",HOUSTON,TX,77078,,,CONTRACTOR,,,,,,,,,,,"MOHR PARTNERS",,,,,"MOHR PARTNERS","14643 DALLAS PARKWAY, SUITE 1000",DALLAS,TX,75254,"(972) 239-0394",,,,
TX,HARRIS,20072961,"Duplex, Triplex, & Fourplex",9/17/2020,,190000,,"514 E SUNNYSIDE",HOUSTON,TX,77076,,,"HERNANDEZ FRANCISCO AND VERONICA","514 E SUNNYSIDE",HOUSTON,TX,77076,,Owner,,,,,OWNER,,,,,OWNER,,,,,,,,,
TX,HARRIS,20077848,"Duplex, Triplex, & Fourplex",9/18/2020,,200600,,"4405 MALLOW ST A",HOUSTON,TX,77051,,,"JOHNSON RYAN","4405 MALLOW ST A",HOUSTON,TX,77051,,Owner,,,,,"PLAN EXPRESS",,,,,"PLAN EXPRESS","107 N MILBY ST STE B",HOUSTON,TX,77003-1930,"(832) 407-4879",https://www.plan-express.com/,,,
TX,MONTGOMERY,20-0588,"Hospital & Other Medical",8/11/2020,"Finish Out",309112,2382,"9851 FM 1097 RD STE 190",WILLIS,TX,77318,,,CONTRACTOR,,,,,,,,,,,"GENERAL CONTRACTORS PERMIT SERVICE",,,,,"GENERAL CONTRACTORS PERMIT SERVICE","970 CHAMBOARD LN",HOUSTON,TX,77018-3200,"(713) 812-0306",,,"CRISTY GAVLICK",
TX,HARRIS,20079314,"Hospital & Other Medical",9/16/2020,Renovation,129000,,"1900 NORTH LOOP WEST",HOUSTON,TX,77018,,,CONTRACTOR,,,,,,,,,,,"MERIDIAN CONSTRUCTORS",,,,,"MERIDIAN CONSTRUCTORS","6105 BRITTMOORE RD STE B",HOUSTON,TX,77041-5695,"(281) 759-1200",http://www.meridianconstructors.com,"(281) 759-1230",,development@meridianconstructors.com
TX,BRAZORIA,1128,"Multi Family Apartments & Condos",8/15/2020,,1086290,,"128 W PLANTATION DR","LAKE JACKSON",TX,77566,,,CONTRACTOR,,,,,,,,,,,"SONOMA HOUSING ADVISORS",,,,,"SONOMA HOUSING ADVISORS","16812 DALLAS PARKWAY",DALLAS,TX,75248,"(972) 701-5571",http://sonomaadvisors.com/,,,INFO@SONOMAADVISORS.COM
TX,HARRIS,20084231,"Multi Family Apartments & Condos",9/18/2020,,61335,,"2255 BRAESWOOD PARK DR BLD",HOUSTON,TX,77030,,,CONTRACTOR,,,,,,,,,,,"CHURCH FOUNDATION REPAIR",,,,,"CHURCH FOUNDATION REPAIR","1260 BRITTMOORE RD",HOUSTON,TX,77043-4002,"(713) 468-8400",,,,
TX,HARRIS,19086990,"Multi Family Apartments & Condos",9/18/2020,,2500000,,"1620 OAK TREE",HOUSTON,TX,77080,,,CONTRACTOR,,,,,,,,,,,HUDCON,,,,,HUDCON,"448 W 19TH ST STE",HOUSTON,TX,77008,"(619) 405-6375",,,"CASSANDRA WILLIAMS",
TX,HARRIS,000075272,"Offices, R&D, & Professional",8/26/2020,,30000,1264,"801 S ALLEN GENOA","SOUTH HOUSTON",TX,77587,,,"LINEBACKER PROPERTY","801 S ALLEN GENOA","SOUTH HOUSTON",TX,77587,,Applicant,,,,,OWNER,,,,,OWNER,,,,,,,,,
TX,BRAZOS,CSHL2020-000011,"Offices, R&D, & Professional",8/31/2020,,474750,9000,"4438 STATE HIGHWAY 6 S BLDG 1","COLLEGE STATION",TX,77845,,,CONTRACTOR,,,,,,,,,,,"MILES CONSTRUCTION CORPORATION",,,,,"MILES CONSTRUCTION CORPORATION","3091 UNIVERSITY DR E STE 120",BRYAN,TX,77802-3494,"(979) 777-4675",http://www.milesconstructioncorp.com/,"(979) 690-8100","BO MILES",info@milesconstructioncorp.com
TX,BRAZOS,CSHL2020-000015,"Offices, R&D, & Professional",8/31/2020,,356000,6750,"4438 STATE HIGHWAY 6 S BLDG 5","COLLEGE STATION",TX,77845,,,CONTRACTOR,,,,,,,,,,,"MILES CONSTRUCTION CORPORATION",,,,,"MILES CONSTRUCTION CORPORATION","3091 UNIVERSITY DR E STE 120",BRYAN,TX,77802-3494,"(979) 777-4675",http://www.milesconstructioncorp.com/,"(979) 690-8100","BO MILES",info@milesconstructioncorp.com
TX,BRAZOS,RMDL2020-000095,"Offices, R&D, & Professional",9/3/2020,Renovation,3750000,4360,"2501 EARL RUDDER FWY S","COLLEGE STATION",TX,77845,,,CONTRACTOR,,,,,,,,,,,"G-CON MANUFACTURING",,,,,"G-CON MANUFACTURING","6161 IMPERIAL LOOP DR","COLLEGE STATION",TX,77845,"(979) 431-0700",,,,
TX,BRAZORIA,1128,"Offices, R&D, & Professional",8/15/2020,Renovation,52000,,"207 B THAT WAY","LAKE JACKSON",TX,77566,,,CONTRACTOR,,,,,,,,,,,"MEGA REALTY",,,,,"MEGA REALTY","129 CIRCLE WAY A","LAKE JACKSON",TX,77566,"(979) 297-6000",,,,
TX,HARRIS,20082803,"Offices, R&D, & Professional",9/15/2020,Renovation,102400,,"3555 TIMMONS LN",HOUSTON,TX,77027,,,CONTRACTOR,,,,,,,,,,,"ANGLER CONSTRUCTION",,,,,"ANGLER CONSTRUCTION","5005 WOODWAY",HOUSTON,TX,77056,"(713) 629-5860",http://anglerco.com/,,,
TX,HARRIS,20083379,"Offices, R&D, & Professional",9/17/2020,Renovation,70000,,"1800 BERING DR",HOUSTON,TX,77057,,,"AMB ARCHITECTS","5051 WESTHEIMER RD, SUITE 430",HOUSTON,TX,77056,"(713) 350-3408",Architect,,,,,OWNER,,,,,OWNER,,,,,,,,,
TX,HARRIS,20071914,"Offices, R&D, & Professional",9/16/2020,,150000,,"1207 W 34TH ST",HOUSTON,TX,77018,,,CONTRACTOR,,,,,,,,,,,"APEX MANAGEMENT GROUP",,,,,"APEX MANAGEMENT GROUP","23222 LIDSTONE POINT CT",KATY,TX,77494-3510,"(281) 630-3292",http://apexmgroup.com,,,info@apexmgroup.com
TX,HARRIS,20053129,"Offices, R&D, & Professional",9/16/2020,,100000,,"990 TOWN & COUNTRY BLVD",HOUSTON,TX,77024,,,CONTRACTOR,,,,,,,,,,,"CATON CONSULTING",,,,,"CATON CONSULTING","8300 CYPRESS CREEK PKWY #200",HOUSTON,TX,77070,"(832) 688-8929",,,,
TX,HARRIS,20085041,"Offices, R&D, & Professional",9/17/2020,Renovation,35000,,"2000 CRAWFORD ST FL",HOUSTON,TX,77002,,,CONTRACTOR,,,,,,,,,,,"JEM CONSTRUCTION",,,,,"JEM CONSTRUCTION","16107 KENSINGTON DR # 471","SUGAR LAND",TX,77479-4224,"(281) 494-7712",http://jemconstructiongroup.com/,,,rward@jemconstructiongroup.com
TX,HARRIS,20075598,"Offices, R&D, & Professional",9/16/2020,Renovation,192000,,"7324 SOUTHWEST FWY",HOUSTON,TX,77074,,,CONTRACTOR,,,,,,,,,,,"JEM CONSTRUCTION",,,,,"JEM CONSTRUCTION","16107 KENSINGTON DR # 471","SUGAR LAND",TX,77479-4224,"(281) 494-7712",http://jemconstructiongroup.com/,,,rward@jemconstructiongroup.com
TX,HARRIS,19119544,"Offices, R&D, & Professional",9/15/2020,,376142,,"1530 WEST SAM HOUSTON NORTH PKY",HOUSTON,TX,77002,,,CONTRACTOR,,,,,,,,,,,"MEGACENTER WESTWAY",,,,,"MEGACENTER WESTWAY","10700 HAMMERLY BLVD",HOUSTON,TX,77043,"(832) 688-6342",,,,
TX,HARRIS,20025106,"Offices, R&D, & Professional",9/16/2020,,6975626,,"14018 AESTHETIC",HOUSTON,TX,77009,,,CONTRACTOR,,,,,,,,,,,"SNIDER CONSTRUCTION",,,,,"SNIDER CONSTRUCTION","8862 HIGHWAY 290 W",AUSTIN,TX,78736-7805,"(512) 288-6030",,,"PAUL SNIDER",
TX,HARRIS,20077240,"Offices, R&D, & Professional",9/16/2020,Renovation,50000,,"4801 WOODWAY DR",HOUSTON,TX,77056,,,CONTRACTOR,,,,,,,,,,,BUILDPRO,,,,,BUILDPRO,"4427 HORIZON VIEW CIR","SUGAR LAND",TX,77479-3421,"(713) 401-6395",http://www.buildprotx.com/,,,kalexander@buildprotx.com
TX,HARRIS,20036395,"Offices, R&D, & Professional",9/16/2020,Renovation,30000,,"2414 TANGLEY ST BLD",HOUSTON,TX,77005,,,CONTRACTOR,,,,,,,,,,,"FAST TRACK REMODELING",,,,,"FAST TRACK REMODELING","10333 HARWIN DR STE 322",HOUSTON,TX,77036-1532,"(832) 742-9992",http://fast-trackrr.com/,,,info@fasttrackremodeling.com
TX,HARRIS,20047875,"Offices, R&D, & Professional",9/16/2020,Renovation,30000,,"1901 HOLLISTER",HOUSTON,TX,77080,,,"GREGG REYES","1901 HOLLISTER",HOUSTON,TX,77080,"(512) 680-7362",Applicant,,,,,OWNER,,,,,OWNER,,,,,,,,,
TX,HARRIS,20081878,"Offices, R&D, & Professional",9/15/2020,Renovation,150980,,"10370 RICHMOND AVE",HOUSTON,TX,77042,,,CONTRACTOR,,,,,,,,,,,"PRIDE SERVICES",,,,,"PRIDE SERVICES","17802 E HARDY RD",HOUSTON,TX,77073-3902,"(281) 821-7383",,,"BENNIE BARROW",
TX,HARRIS,20082077,"Offices, R&D, & Professional",9/16/2020,Renovation,100000,,"5065 WESTHEIMER RD",HOUSTON,TX,77056,,,CONTRACTOR,,,,,,,,,,,"THREE GALLERIA OFFICE BUILDING",,,,,"THREE GALLERIA OFFICE BUILDING","5065 WESTHEIMER RD",HOUSTON,TX,77056,"(713) 396-7282",,,,
TX,HARRIS,20080481,"Offices, R&D, & Professional",9/18/2020,Renovation,400000,,"600 TRAVIS ST",HOUSTON,TX,77002,,,CONTRACTOR,,,,,,,,,,,"TURNER CONSTRUCTION",,,,,"TURNER CONSTRUCTION","4263 DACOMA ST",HOUSTON,TX,77092-8607,"(713) 840-8441",,,,
TX,MONTGOMERY,175476-20,"Offices, R&D, & Professional",8/20/2020,,90000,,"33109 FOREST WEST STREET BLDG",HOUSTON,TX,77356,,,"MARCELA WEST","5300 HOLLISTER RD. STE. 301",HOUSTON,TX,77356,,Owner,,,,,OWNER,,,,,OWNER,,,,,,,,,
TX,HARRIS,200868,"Offices, R&D, & Professional",8/19/2020,,2988110,,"2014 S HOUSTON AVE",HUMBLE,TX,77396,,,CONTRACTOR,,,,,,,,,,,"CONCEPT BUILDING & DESIGN",,,,,"CONCEPT BUILDING & DESIGN","8825 SOLON ROAD E5",HOUSTON,TX,77064,"(281) 894-2444",,,,
TX,BRAZOS,CSHL2020-000004,"Other Commercial",8/7/2020,,1100000,13464,"4003 STATE HIGHWAY 6 S","COLLEGE STATION",TX,77845,,,CONTRACTOR,,,,,,,,,,,"BRAZOS CONTRACTORS & DEVELOPMENT",,,,,"BRAZOS CONTRACTORS & DEVELOPMENT","515 WISCONSIN ST","SOUTH HOUSTON",TX,77587-4958,"(713) 947-9700",http://brazoscontractors.com,"(713) 944-9599",,info@brazoscontractors.com
TX,MONTGOMERY,20-0594,"Other Commercial",8/12/2020,,,6000,"13802 N 75 HWY",WILLIS,TX,77378,,,CONTRACTOR,,,,,,,,,,,"PURGE RITE",,,,,"PURGE RITE","13802 TX-75",WILLIS,TX,77378,"(936) 344-6210",,,,
TX,HARRIS,20060911,"Parking Structures & Carports",9/16/2020,Addition,350000,,"12959 FONDREN RD",HOUSTON,TX,77035,,,CONTRACTOR,,,,,,,,,,,"MAISAH CONSTRUCTION",,,,,"MAISAH CONSTRUCTION","PO BOX 298","SOUTH HOUSTON",TX,77587-0298,"(713) 240-2153",,,,
TX,BRAZOS,RADD2020-000025,"Residential Garages & Carports",9/4/2020,,30000,455,"3405 LOCHBURY CT","COLLEGE STATION",TX,77845,"SWEETWATER FOREST",,"ERIC & JAMIE SOUTH","3405 LOCHBURY CT","COLLEGE STATION",TX,77845,,Owner,,,,,"FLAGSHIP CUSTOM HOMES",,,,,"FLAGSHIP CUSTOM HOMES","14391 S DOWLING RD","COLLEGE STATION",TX,77845-3473,"(203) 667-4581",http://wordpress.flagshiptx.com/,,,info@flagshiptx.com
TX,HARRIS,20020833,"Residential Garages & Carports",9/15/2020,,187545,,"6018 TRESCON DR",HOUSTON,TX,77048,,,"DONALD SPECHT","6018 TRESCON",HOUSTON,TX,77048,,Owner,,,,,OWNER,,,,,OWNER,,,,,,,,,
TX,HARRIS,000075245,"Residential Renovations & Additions",8/19/2020,Renovation,40000,1296,"603 MISSISSIPPI SOUTH","SOUTH HOUSTON",TX,77340,,,CONTRACTOR,,,,,,,,,,,"BENCHMARK CONSTRUCTION",,,,,"BENCHMARK CONSTRUCTION","1121 NW RENFRO ST",BURLESON,TX,76028-3333,"(817) 253-0699",http://www.benchmarkhouston.com/,,,
TX,HARRIS,000075268,"Residential Renovations & Additions",8/26/2020,Renovation,50000,1989,"912 VIRGINIA","SOUTH HOUSTON",TX,77356,,,"DILIAM POSADAS","912 VIRGINIA","SOUTH HOUSTON",TX,77356,,Owner,,,,,OWNER,,,,,OWNER,,,,,,,,,
TX,HARRIS,0000008433,"Residential Renovations & Additions",8/11/2020,Renovation,38220,58,"16210 SINGAPORE","JERSEY VILLAGE",TX,77040,,,"ELIZABETH & STEPHEN EARNEST","16210 SINGAPORE","JERSEY VILLAGE",TX,77040,,Owner,,,,,"STAC CONSTRUCTION & DESIGN",,,,,"STAC CONSTRUCTION & DESIGN","11222 BANDIT TRAIL DR",HOUSTON,TX,77095,"(281) 731-6878",https://stacconstructionanddesign.com/,,"JULIEN ANDRE",
TX,HARRIS,0000008484,"Residential Renovations & Additions",8/31/2020,Renovation,38104,,"16110 ST HELIER ST","JERSEY VILLAGE",TX,77077,,,CONTRACTOR,,,,,,,,,,,"ALL SEASON LANDSCAPING",,,,,"ALL SEASON LANDSCAPING","1300 HUGH RD",HOUSTON,TX,77067-1521,"(281) 248-4640",,,,
TX,BRAZOS,RADD2020-000024,"Residential Renovations & Additions",8/14/2020,Addition,286000,4499,"311 SUFFOLK AVE","COLLEGE STATION",TX,77840,"SOUTH OAKWOOD",,"ROBERT & BARBARA SCHMID","311 SUFFOLK AVE","COLLEGE STATION",TX,77840,,Owner,,,,,"DAN CLARK CONSTRUCTION",,,,,"DAN CLARK CONSTRUCTION","2151 HARVEY MITCHELL PKWY S STE 227","COLLEGE STATION",TX,77840-5242,"(979) 693-7672",,,"DAN CLARK",
TX,BRAZOS,RMDL2020-000092,"Residential Renovations & Additions",8/14/2020,Renovation,50000,500,"11749 DURRAND ST","COLLEGE STATION",TX,77845,"GREAT OAKS",,"ANTHONY & CARRIE GILETTO","11749 DURRAND ST","COLLEGE STATION",TX,77845,,Owner,,,,,"BLUESTONE PARTNERS",,,,,"BLUESTONE PARTNERS","2913 OVERLAND TRAIL #100",SHERMAN,TX,75092,"(903) 813-1415",http://www.bluestone.ws,"(903) 893-2124","JIM CROSS",jimcross@bluestone.ws
TX,BRAZOS,RADD2020-000028,"Residential Renovations & Additions",8/26/2020,Addition,40000,160,"2809 CIMARRON CT","COLLEGE STATION",TX,77845,"SOUTHWOOD VALLEY",,"WILLIAM & MELINDA HYER","2809 CIMARRON CT","COLLEGE STATION",TX,77845,,Owner,,,,,"KEYS & WALSH CONSTRUCTION",,,,,"KEYS & WALSH CONSTRUCTION","12633 STATE HIGHWAY 30","COLLEGE STATION",TX,77845-7736,"(979) 774-3600",http://www.keysandwalsh.com/,"(979) 774-3611",,
TX,HARRIS,20200382,"Residential Renovations & Additions",8/18/2020,Renovation,,225,"11606 MONICA LN",HOUSTON,TX,77024,,,"AVA MARKOWITZ","11606 MONICA LN",HOUSTON,TX,77024,,Owner,,,,,OWNER,,,,,OWNER,,,,,,,,,
TX,HARRIS,20200394,"Residential Renovations & Additions",8/26/2020,Renovation,381300,2007,"11702 BROKEN BOUGH CIR",HOUSTON,TX,77024,,,"CRAIG PARKS","11702 BROKEN BOUGH CIR",HOUSTON,TX,77024,,Owner,,,,,"LY CUSTOM HOMES",,,,,"LY CUSTOM HOMES","718 BUNKER HILL RD",HOUSTON,TX,77024-4406,"(972) 965-7738",,,,
TX,BRAZORIA,1151,"Residential Renovations & Additions",8/15/2020,Renovation,57000,,"708 WALNUT ST","LAKE JACKSON",TX,77566,,,"ERIN & LISA WHEELER","708 WALNUT ST","LAKE JACKSON",TX,77566,,Owner,,,,,OWNER,,,,,OWNER,,,,,,,,,
TX,HARRIS,20066073,"Residential Renovations & Additions",9/15/2020,Addition,91125,,"2022 MARNEL RD",HOUSTON,TX,77055,,,"ACOSTA OSCAR","2022 MARNEL RD",HOUSTON,TX,77055,"(832) 291-6633",Applicant,,,,,OWNER,,,,,OWNER,,,,,,,,,
TX,HARRIS,20083893,"Residential Renovations & Additions",9/18/2020,Addition,33540,,"13830 ALDACO",HOUSTON,TX,77045,,,"ALVAREZ SILVIA","13830 ALDACO",HOUSTON,TX,77045,,Owner,,,,,"GREEN LIGHT SOLAR",,,,,"GREEN LIGHT SOLAR","5750 N SAM HOUSTON PKWY E",HOUSTON,TX,77032-4090,"(518) 536-2806",,,,
TX,HARRIS,20020145,"Residential Renovations & Additions",9/18/2020,Renovation,30000,,"14110 WHITLOCK",HOUSTON,TX,77062,,,"CARLSON DEBORAH","14110 WHITLOCK",HOUSTON,TX,77062,,Owner,,,,,"ALPHA1 RESTORATIONS",,,,,"ALPHA1 RESTORATIONS","303 EAST MAIN ST STE 160","LEAGUE CITY",TX,77573,"(281) 766-7177",,,,
TX,HARRIS,20079087,"Residential Renovations & Additions",9/18/2020,Addition,39900,,"5711 BELL CLIFF",HOUSTON,TX,77059,,,"ZHAOMING & SUSAN SONG","5711 BELL CLIFF",HOUSTON,TX,77059,,Owner,,,,,"CONSTELLATION CONSTRUCTION",,,,,"CONSTELLATION CONSTRUCTION","11811 NORTH FWY",HOUSTON,TX,77060,"(281) 460-2314",,,,
TX,HARRIS,20075286,"Residential Renovations & Additions",9/15/2020,Renovation,100000,,"1123 W COTTAGE",HOUSTON,TX,77009,,,"URBANO ARCHITECTS","1234 MAIN ST",HOUSTON,TX,55555,"(832) 444-0012",Architect,,,,,"ANDRES UTTING",,,,,"ANDRES UTTING","1129 W COTTAGE ST",HOUSTON,TX,77008,"(917) 445-9299",,,,
TX,HARRIS,20017906,"Residential Renovations & Additions",9/18/2020,Renovation,70000,,"1517 VICTOR",HOUSTON,TX,77019,,,CONTRACTOR,,,,,,,,,,,"MILLBROOK CONSTRUCTION",,,,,"MILLBROOK CONSTRUCTION","906 E 23RD ST",HOUSTON,TX,77009-2404,"(713) 423-4790",http://www.millbrook-construction.com,,,
TX,HARRIS,19134095,"Residential Renovations & Additions",9/15/2020,Renovation,30000,,"5814 PERSHING",HOUSTON,TX,77033,,,"ANDRES MORALES","1043 MCMURTRY RIDGE DR",HOUSTON,TX,77494,"(281) 772-6055",Applicant,,,,,OWNER,,,,,OWNER,,,,,,,,,
TX,HARRIS,20071958,"Residential Renovations & Additions",9/16/2020,Addition,51400,,"3307 SAUER",HOUSTON,TX,77004,,,"DAVIS JACQUELYN","3307 SAUER",HOUSTON,TX,77004,,Owner,,,,,OWNER,,,,,OWNER,,,,,,,,,
TX,HARRIS,20073154,"Residential Renovations & Additions",9/18/2020,Addition,35887,,"13927 KIMBERLEY",HOUSTON,TX,77079,,,"WILLIAM ENSZER","13927 KIMBERLEY",HOUSTON,TX,77079,,Owner,,,,,"PIAZZA SIGNATURE POOLSCAPES",,,,,"PIAZZA SIGNATURE POOLSCAPES","12003 MOORCREEK DR",HOUSTON,TX,77070-2433,"(281) 320-1996",http://piazzapoolscapes.com/,"(281) 826-3858",,piazzaoriginal@att.net
TX,HARRIS,20083562,"Residential Renovations & Additions",9/18/2020,Addition,43520,,"5114 EL BUEY",HOUSTON,TX,77017,,,"TONY FERNANDEZ","5114 EL BUEY",HOUSTON,TX,77017,,Owner,,,,,"GREEN LIGHT SOLAR",,,,,"GREEN LIGHT SOLAR","5750 N SAM HOUSTON PKWY E",HOUSTON,TX,77032-4090,"(518) 536-2806",,,,
TX,HARRIS,20075186,"Residential Renovations & Additions",9/15/2020,Addition,31861,,"719 E 10TH 1/2",HOUSTON,TX,77008,,,"TYLER FORSYTH","719 E 10TH 1/2",HOUSTON,TX,77008,,Owner,,,,,"FREEDOM SOLAR POWER",,,,,"FREEDOM SOLAR POWER","4111 TODD LN # 100",AUSTIN,TX,78744-1149,"(800) 504-2337",http://www.freedomsolarpower.com/,,,
TX,HARRIS,20082698,"Residential Renovations & Additions",9/17/2020,Addition,102000,,"2627 DROXFORD",HOUSTON,TX,77008,,,"RENE GALDAMEZ","2627 DROXFORD",HOUSTON,TX,77008,,Owner,,,,,OWNER,,,,,OWNER,,,,,,,,,
TX,HARRIS,20084822,"Residential Renovations & Additions",9/17/2020,Renovation,30000,,"5503 STILLBROOKE",HOUSTON,TX,77096,,,"GONZALES DANIEL","5503 STILLBROOKE",HOUSTON,TX,77096,,Owner,,,,,"LMM ROOFING",,,,,"LMM ROOFING","480 W PARKER RD APT 85",HOUSTON,TX,77091,"(281) 571-9553",http://lmmroofing.com/,,,
TX,HARRIS,20078698,"Residential Renovations & Additions",9/16/2020,Addition,50000,,"8049 JULIABORA",HOUSTON,TX,77017,,,"JOHN DELEPLANK","8049 JULIABORA",HOUSTON,TX,77017,,Owner,,,,,"TATOM BRIAN",,,,,"TATOM BRIAN","41 COUNTY ROAD",HOUSTON,TX,77535,"(832) 309-2902",,,,
TX,HARRIS,20079890,"Residential Renovations & Additions",9/15/2020,Addition,55480,,"13403 PEBBLEBROOK",HOUSTON,TX,77079,,,"JULIA ROWLAND & JOHN HAMPTON","13403 PEBBLEBROOK",HOUSTON,TX,77079,,Owner,,,,,"JACOB BUCKWALTER",,,,,"JACOB BUCKWALTER","9597 JONES RD",HOUSTON,TX,77065-4815,"(832) 272-8423",,,,
TX,HARRIS,20047306,"Residential Renovations & Additions",9/16/2020,Addition,350000,,"12207 COBBLESTONE",HOUSTON,TX,77024,,,"AMANDA LIPINSKI","12207 COBBLESTONE",HOUSTON,TX,77024,,Owner,,,,,"TELL PROJECTS",,,,,"TELL PROJECTS","5328 PRUDENCE DR",HOUSTON,TX,77045-5117,"(832) 591-7991",,,,
TX,HARRIS,20075810,"Residential Renovations & Additions",9/17/2020,Addition,46200,,"1324 ALTHEA",HOUSTON,TX,77018,,,"JONATHAN LOWE","1324 ALTHEA",HOUSTON,TX,77018,,Owner,,,,,"SUNSHINE RENEWABLE SOLUTIONS",,,,,"SUNSHINE RENEWABLE SOLUTIONS","4011 VALLEY GREEN CT",HOUSTON,TX,77059-5557,"(832) 280-8838",,,,
TX,HARRIS,20076753,"Residential Renovations & Additions",9/17/2020,Addition,33680,,"11201 GLORIA",HOUSTON,TX,77013,,,"MARTINEZ JUAN","11201 GLORIA",HOUSTON,TX,77013,"(907) 227-4528",Owner,,,,,OWNER,,,,,OWNER,,,,,,,,,
TX,HARRIS,20080301,"Residential Renovations & Additions",9/18/2020,Addition,30000,,"6534 WYNNWOOD",HOUSTON,TX,77008,,,"MCWHORTER SEAN PHILLIP","6534 WYNNWOOD",HOUSTON,TX,77008,,Owner,,,,,"FIVE STAR PAINTING & REMODELING",,,,,"FIVE STAR PAINTING & REMODELING","3906 BROOKWOODS DR",HOUSTON,TX,77092-8322,"(713) 688-1654",,,,
TX,HARRIS,20082719,"Residential Renovations & Additions",9/15/2020,Addition,34000,,"12211 WOODCLIFF",HOUSTON,TX,77013,,,"NASH  FRANCES","12211 WOODCLIFF",HOUSTON,TX,77013,,Owner,,,,,"PATRICIA TORRES",,,,,"PATRICIA TORRES","43445 BUSINESS PARK DR",HOUSTON,TX,92590,"(281) 714-8992",,,,
TX,HARRIS,20078695,"Residential Renovations & Additions",9/20/2020,Renovation,100000,,"4329 KINGFISHER",HOUSTON,TX,77035,,,"O'BRYAN JON-MICHAEL","4329 KINGFISHER",HOUSTON,TX,77035,,Owner,,,,,OWNER,,,,,OWNER,,,,,,,,,
TX,HARRIS,20041714,"Residential Renovations & Additions",9/16/2020,Addition,65000,,"114 NORVIEW",HOUSTON,TX,77022,,,"JUAN REYES","26202 OAK RIDGE",HOUSTON,TX,77380,,Owner,,,,,OWNER,,,,,OWNER,,,,,,,,,
TX,HARRIS,20079093,"Residential Renovations & Additions",9/20/2020,Addition,39589,,"2019 GROVE LAKE",HOUSTON,TX,77339,,,"TRACY PETERS","2019 GROVE LAKE",HOUSTON,TX,77339,,Owner,,,,,"SUNPRO SOLAR",,,,,"SUNPRO SOLAR","2724 KIPLING ST APT 224",HOUSTON,TX,77098-1551,"(866) 450-1012",,,,
TX,HARRIS,20067778,"Residential Renovations & Additions",9/15/2020,Addition,45000,,"15403 WOODHORN",HOUSTON,TX,77062,,,"PULLEN JEANNIE GAUDIANO","15403 WOODHORN",HOUSTON,TX,77062,"(832) 758-8784",Owner,,,,,OWNER,,,,,OWNER,,,,,,,,,
TX,HARRIS,20067769,"Residential Renovations & Additions",9/15/2020,Addition,137000,,"922 COLUMBIA",HOUSTON,TX,77008,,,"RAY JENNIFER","922 COLUMBIA",HOUSTON,TX,77008,,Owner,,,,,OWNER,,,,,OWNER,,,,,,,,,
TX,HARRIS,20082519,"Residential Renovations & Additions",9/16/2020,Addition,51163,,"5853 SOUTHLEA",HOUSTON,TX,77033,,,"SIMPSON MICHELLE","5853 SOUTHLEA",HOUSTON,TX,77033,,Owner,,,,,"LAWRENCE CRAIG ALAN",,,,,"LAWRENCE CRAIG ALAN","7930 BREEN",HOUSTON,TX,95765,"(346) 970-1512",,,,
TX,HARRIS,20084731,"Residential Renovations & Additions",9/18/2020,Renovation,60000,,"1007 BRIARPARK",HOUSTON,TX,77042,,,"SPRING JONATHAN","1007 BRIARPARK",HOUSTON,TX,77042,,Owner,,,,,"MALDONADO EBERT",,,,,"MALDONADO EBERT","3610 BROOKFIELD",HOUSTON,TX,77045,"(832) 279-1221",,,,
TX,HARRIS,20069735,"Residential Renovations & Additions",9/15/2020,Addition,45000,,"503 AVONDALE",HOUSTON,TX,77006,,,"STAVA CHARLES","503 AVONDALE",HOUSTON,TX,77006,,Owner,,,,,OWNER,,,,,OWNER,,,,,,,,,
TX,HARRIS,20064643,"Residential Renovations & Additions",9/15/2020,Renovation,450000,,"1330 POST OAK",HOUSTON,TX,77056,,,"TIAA-CREF FOUR OAKS PLACE","1330 POST OAK",HOUSTON,TX,77056,,Owner,,,,,"ODONNELL SNIDER CONSTRUCTION",,,,,"ODONNELL SNIDER CONSTRUCTION","1900 WEST LOOP S",HOUSTON,TX,77027-3214,"(346) 352-3098",http://odonnellsnider.com/,,,
TX,HARRIS,20083378,"Residential Renovations & Additions",9/17/2020,Addition,34028,,"9022 JACKWOOD",HOUSTON,TX,77036,,,"IMILSIS VEGA","9022 JACKWOOD",HOUSTON,TX,77036,,Owner,,,,,"HICKS PATRICK",,,,,"HICKS PATRICK","12560 REED RD","SUGAR LAND",TX,77478-3379,"(832) 763-6018",,,,
TX,MONTGOMERY,174895-20,"Residential Renovations & Additions",8/6/2020,Renovation,38000,,"1003 DECKER FOREST BLVD",HOUSTON,TX,77356,"DECKER FOREST",,"JAMES BUCKINGHAM","5315 B FM 1960 W #414",HOUSTON,TX,770356,,Owner,,,,,OWNER,,,,,OWNER,,,,,,,,,
TX,MONTGOMERY,174839-20,"Residential Renovations & Additions",8/5/2020,Renovation,30000,,"8024 ELISE NICOLE DR",HOUSTON,TX,77356,"FOREST TRACE",,"ABNER RAMOS ","8020 MUNN ST",HOUSTON,TX,77029,,Owner,,,,,OWNER,,,,,OWNER,,,,,,,,,
TX,MONTGOMERY,175279-20,"Residential Renovations & Additions",8/17/2020,Renovation,30000,,"8360 OLD HWY 105 W",HOUSTON,TX,77356,,,"JIMMY BRISCOE","12232 TAURUS DR",WILLIS,TX,77318,,Owner,,,,,OWNER,,,,,OWNER,,,,,,,,,
TX,HARRIS,2000905,"Residential Swimming Pools & Spas",8/6/2020,,,900,"1426 LAKE MIJA COURT",SEABROOK,TX,77586,,,"BRAD & MEAGAN RENFRO","1426 LAKE MIJA COURT",SEABROOK,TX,77586,,Owner,,,,,"KSB CONSTRUCTION",,,,,"KSB CONSTRUCTION","425 CREEKPOINT CT",DICKINSON,TX,77539-6340,"(281) 808-3362",,,,
TX,HARRIS,2000906,"Residential Swimming Pools & Spas",8/6/2020,,,420,"1813 WALLINGTON LN",SEABROOK,TX,77586,,,"JOHN ANKENMAN","1813 WALLINGTON LN",SEABROOK,TX,77586,,Owner,,,,,"AQUAMARINE POOLS",,,,,"AQUAMARINE POOLS","25730 INTERSTATE 45",HOUSTON,TX,77386,"(281) 734-2543",,,,
TX,HARRIS,2000915,"Residential Swimming Pools & Spas",8/7/2020,,,840,"3805 CORAL CIRCLE",SEABROOK,TX,77586,,,"PHILLIP GRAHAM","3805 CORAL CIRCLE",SEABROOK,TX,77586,,Owner,,,,,"AQUASCAPES POOLS & SPAS",,,,,"AQUASCAPES POOLS & SPAS","25310 FM 2978 RD",TOMBALL,TX,77375-2506,"(713) 349-4353",,,,
TX,HARRIS,2000932,"Residential Swimming Pools & Spas",8/12/2020,,,463,"2727 SANDPEBBLE DR",SEABROOK,TX,77586,,,"CHRISTOPHER & AMBER STJEAN","2727 SANDPEBBLE DR",SEABROOK,TX,77586,,Owner,,,,,"MERMAID POOLS & SPAS",,,,,"MERMAID POOLS & SPAS","2333 SEDONA CT","LEAGUE CITY",TX,77573-1573,"(832) 387-0739",http://www.mermaidpools-spas.com/,,,dougsworkmail@sbcglobal.net
TX,HARRIS,2000971,"Residential Swimming Pools & Spas",8/21/2020,,,470,"2321 ORLEANS LN",SEABROOK,TX,77586,,,"DAVID & TRICIA GIBBS","2321 ORLEANS LN",SEABROOK,TX,77586,,Owner,,,,,"PREMIER POOLS & SPAS",,,,,"PREMIER POOLS & SPAS","2810 BUSINESS CENTER DR STE 126",PEARLAND,TX,77584-9783,"(713) 436-4944",,"(713) 436-0081","BILL UNGER",bunger@ppas.com
TX,BELL,2020-6077,"Residential Swimming Pools & Spas",8/13/2020,,,,"2006 YTURRIA DR",BELTON,TX,78513,,,"JENNIFER & JOHN GONZALEZ","2006 YTURRIA DR",BELTON,TX,78513,,Owner,,,,,"AQUAMARINE POOLS",,,,,"AQUAMARINE POOLS","25730 INTERSTATE 45",HOUSTON,TX,77386,"(281) 734-2543",,,,
TX,BELL,2020-6102,"Residential Swimming Pools & Spas",8/24/2020,,,,"3201 BREAKERS COVE",BELTON,TX,78513,,,CONTRACTOR,,,,,,,,,,,"MOONLIGHT POOL AND SPA",,,,,"MOONLIGHT POOL AND SPA","3950 TX-95",TEMPLE,TX,76502,"(254) 760-3464",,,,
TX,BRAZOS,POOL2020-000025,"Residential Swimming Pools & Spas",8/4/2020,,67300,,"4079 CROOKED CREEK PATH","COLLEGE STATION",TX,77845,"CREEK MEADOWS",,"THOMAS MEEK","4079 CROOKED CREEK PATH","COLLEGE STATION",TX,77845,,Owner,,,,,"PREMIER POOLS & SPAS",,,,,"PREMIER POOLS & SPAS","2810 BUSINESS CENTER DR STE 126",PEARLAND,TX,77584-9783,"(713) 436-4944",,"(713) 436-0081","BILL UNGER",bunger@ppas.com
TX,BRAZOS,POOL2020-000074,"Residential Swimming Pools & Spas",8/13/2020,,60000,,"5023 TRUMPETER SWAN DR","COLLEGE STATION",TX,77845,BIRDPOND,,"JASON & SABRINA BOLEY","5023 TRUMPETER SWAN DR","COLLEGE STATION",TX,77845,,Owner,,,,,"SUNSHINE FUN POOLS ",,,,,"SUNSHINE FUN POOLS ","4200 STATE HIGHWAY 6 S","COLLEGE STATION",TX,77845-8966,"(979) 690-3343",,,,
TX,BRAZOS,POOL2020-000076,"Residential Swimming Pools & Spas",8/14/2020,,40000,,"8405 WILDEWOOD CIR","COLLEGE STATION",TX,77845,"EMERALD FOREST",,"DAVID & NATALIE WRIGHT","8405 WILDEWOOD CIR","COLLEGE STATION",TX,77845,,Owner,,,,,"SUNSHINE FUN POOLS ",,,,,"SUNSHINE FUN POOLS ","4200 STATE HIGHWAY 6 S","COLLEGE STATION",TX,77845-8966,"(979) 690-3343",,,,
TX,BRAZOS,POOL2020-000078,"Residential Swimming Pools & Spas",8/18/2020,,35000,,"2507 ANTIETAM DR","COLLEGE STATION",TX,77845,RAINTREE,,"FLOYD & KATHLEEN MARTIN","2507 ANTIETAM DR","COLLEGE STATION",TX,77845,,Owner,,,,,"AQUAMARINE POOLS",,,,,"AQUAMARINE POOLS","25730 INTERSTATE 45",HOUSTON,TX,77386,"(281) 734-2543",,,,
TX,BRAZOS,POOL2020-000079,"Residential Swimming Pools & Spas",8/25/2020,,82000,,"4446 WOODLAND RIDGE CT","COLLEGE STATION",TX,77845,"WOODLAND HILLS",,"RONALD & ERIN PRICE","4446 WOODLAND RIDGE CT","COLLEGE STATION",TX,77845,,Owner,,,,,"MOBLEY POOLS",,,,,"MOBLEY POOLS","2004 E VILLA MARIA RD",BRYAN,TX,77802-2540,"(979) 776-5557",http://www.mobleypools.com/,"(979) 776-5290","JASON FOSTER",Jason@mobleypools.com
TX,BRAZOS,POOL2020-000075,"Residential Swimming Pools & Spas",8/28/2020,,25000,,"1702 BRIAR ROSE CT","COLLEGE STATION",TX,77845,"EMERALD FOREST",,"JOHN & MARY JACOBS","1702 BRIAR ROSE CT","COLLEGE STATION",TX,77845,,Owner,,,,,"TODD HOMES",,,,,"TODD HOMES","3988 GREENS PRAIRIE RD W","COLLEGE STATION",TX,77845-7339,"(979) 220-7835",http://www.toddhomes.com/,,,
TX,BRAZOS,POOL2020-000073,"Residential Swimming Pools & Spas",8/31/2020,,62000,,"4909 WILLIAMS RIDGE CT","COLLEGE STATION",TX,77845,"WILLIAMS CREEK",,"WILLIAM & ASHLEY SAUNDERS","4909 WILLIAMS RIDGE CT","COLLEGE STATION",TX,77845,,Owner,,,,,"THE POOL GUY",,,,,"THE POOL GUY","2151 HARVEY MITCHELL PKWY S STE 313","COLLEGE STATION",TX,77840-5243,"(979) 575-6200",,,,
TX,HARRIS,20074281,"Residential Swimming Pools & Spas",9/17/2020,,61000,,"10322 SHADY RIVER",HOUSTON,TX,77042,,,"ARGUELLO GABRIEL","10322 SHADY RIVER",HOUSTON,TX,77042,,Owner,,,,,"NAHRCO CONSTRUCTION COMPANY",,,,,"NAHRCO CONSTRUCTION COMPANY","9111 KATY FWY. STE 335",HOUSTON,TX,77024,"(713) 461-0000",,,,
TX,HARRIS,20072498,"Residential Swimming Pools & Spas",9/18/2020,,45000,,"12919 BUTTERFLY",HOUSTON,TX,77024,,,CONTRACTOR,,,,,,,,,,,"COYOTE CLEANUP SERVICE",,,,,"COYOTE CLEANUP SERVICE","21611 W. CHAMPAGNE CIRCLE",TOMBALL,TX,77377,"(832) 563-0619",,,,
TX,HARRIS,20084999,"Residential Swimming Pools & Spas",9/17/2020,,40000,,"1519 ALDANA PLACE",HOUSTON,TX,77055,,,"JAMES & SAMANTHA DORFF","1519 ALDANA PLACE",HOUSTON,TX,77055,,Owner,,,,,"RICHARD'S TOTAL BACKYARD SOLUTIONS ",,,,,"RICHARD'S TOTAL BACKYARD SOLUTIONS ","1701 HIGHWAY 6 S",HOUSTON,TX,77077-2803,"(713) 777-7665",http://richardstbs.com/,,"JULIE RICHARD",info@totalbackyardsolutions.com
TX,HARRIS,20079665,"Residential Swimming Pools & Spas",9/17/2020,,71552,,"1405 OVERHILL",HOUSTON,TX,77018,,,"PAUL CROWLEY","1405 OVERHILL",HOUSTON,TX,77018,,Owner,,,,,"CUSTOM LUXURY POOLS",,,,,"CUSTOM LUXURY POOLS","18915 PHILLIP WAY","NEW CANEY",TX,77357,"(281) 813-7078",,,,
TX,HARRIS,20082847,"Residential Swimming Pools & Spas",9/15/2020,,62000,,"10042 BRIARWILD",HOUSTON,TX,77080,,,"JUAN GONZALEZ","10042 BRIARWILD",HOUSTON,TX,77080,,Owner,,,,,"PREMIER POOLS & SPAS",,,,,"PREMIER POOLS & SPAS","2810 BUSINESS CENTER DR STE 126",PEARLAND,TX,77584-9783,"(713) 436-4944",,"(713) 436-0081","BILL UNGER",bunger@ppas.com
TX,HARRIS,20080374,"Residential Swimming Pools & Spas",9/15/2020,,55000,,"418 W 24TH",HOUSTON,TX,77008,,,"HAYNES TRAVIS","418 W 24TH",HOUSTON,TX,77008,,Owner,,,,,"REGAL POOLS",,,,,"REGAL POOLS","6425 FM 2920 RD",SPRING,TX,77379-2535,"(281) 251-0044",,,,
TX,HARRIS,20084855,"Residential Swimming Pools & Spas",9/17/2020,,52943,,"1725 LIBBEY",HOUSTON,TX,77018,,,"CARLA NEWMAN","1725 LIBBEY",HOUSTON,TX,55555,,Owner,,,,,"ARTISTIC POOLS OF HOUSTON",,,,,"ARTISTIC POOLS OF HOUSTON","18915 SUN PASS DR",TOMBALL,TX,77377-7631,"(713) 823-1580",http://www.artisticpoolsofhouston.com/,"(713) 758-0392","TOM STOWELL",artistictom@comcast.net
TX,HARRIS,20078888,"Residential Swimming Pools & Spas",9/16/2020,,68610,,"725 E 7TH",HOUSTON,TX,77007,,,"PATEL ANUJ","725 E 7TH",HOUSTON,TX,77007,,Owner,,,,,"SIMONTON POOL CONSULTANTS",,,,,"SIMONTON POOL CONSULTANTS","6867 MUEGGE",HOUSTON,TX,77474,"(281) 831-6787",http://www.simontonpoolconsultants.com/,,,
TX,HARRIS,20084748,"Residential Swimming Pools & Spas",9/17/2020,,78606,,"7719 BRYKERWOODS",HOUSTON,TX,77055,,,"ANNE RAPPOLD","7719 BRYKERWOODS",HOUSTON,TX,77055,,Owner,,,,,"PLATINUM POOLS",,,,,"PLATINUM POOLS","4500 BLALOCK RD",HOUSTON,TX,77041-9121,"(281) 870-1600",,,,
TX,HARRIS,20082500,"Residential Swimming Pools & Spas",9/15/2020,,35000,,"6501 CLAWSON",HOUSTON,TX,77055,,,"REDLINGER THOMAS MICHAEL","6501 CLAWSON",HOUSTON,TX,77055,,Owner,,,,,"ALBERTO VACA",,,,,"ALBERTO VACA","16726 LAURELWOOD",HOUSTON,TX,77530,"(832) 868-6312",,,,
TX,HARRIS,20078785,"Residential Swimming Pools & Spas",9/17/2020,,50000,,"6223 HURST",HOUSTON,TX,77008,,,"REYNOLDS TIMOTHY JAMES","6223 HURST",HOUSTON,TX,77008,,Owner,,,,,"JEREMY HOUSTON",,,,,"JEREMY HOUSTON","5927 ALMEDA RD",HOUSTON,TX,77004,"(832) 372-6042",,,,
TX,HARRIS,20084968,"Residential Swimming Pools & Spas",9/18/2020,,70000,,"6103 WIGTON",HOUSTON,TX,77096,,,"RODRIGUEZ  LESLIE","6103 WIGTON",HOUSTON,TX,77096,,Owner,,,,,"PLATINUM POOLS",,,,,"PLATINUM POOLS","4500 BLALOCK RD",HOUSTON,TX,77041-9121,"(281) 870-1600",,,,
TX,HARRIS,20082596,"Residential Swimming Pools & Spas",9/20/2020,,35000,,"9719 MOORBERRY",HOUSTON,TX,77080,,,"RODRIGUEZ OFELIA","9719 MOORBERRY",HOUSTON,TX,77080,,Owner,,,,,"ESBIN AGUILAR MASON CONTRACTOR",,,,,"ESBIN AGUILAR MASON CONTRACTOR","1026 W 21ST ST",HOUSTON,TX,77008-3320,"(713) 819-1662",,,"ESBIN AGUILAR",
TX,HARRIS,20082649,"Residential Swimming Pools & Spas",9/17/2020,,61334,,"1603 LAKESHORE ",HOUSTON,TX,77077,,,"SYED SHERE","1603 LAKESHORE ",HOUSTON,TX,77077,,Owner,,,,,"RICHARD TOTAL BACKYARD SOLUTI",,,,,"RICHARD TOTAL BACKYARD SOLUTI","1701 S HIGHWAY",HOUSTON,TX,77007,"(713) 369-0925",,,,
TX,HARRIS,20081630,"Residential Swimming Pools & Spas",9/17/2020,,58864,,"1418 LYNNVIEW",HOUSTON,TX,77055,,,"SMITH CHRISTOPHER","1418 LYNNVIEW",HOUSTON,TX,77055,,Owner,,,,,"MAK ELIZABETH",,,,,"MAK ELIZABETH","13918 SAINT MARYS LN",HOUSTON,TX,77079-3307,"(832) 861-9014",,,,
TX,HARRIS,20074762,"Residential Swimming Pools & Spas",9/15/2020,,632,,"5946 WEDGEWOOD HEIGHTS ",HOUSTON,TX,77059,,,CONTRACTOR,,,,,,,,,,,"TIPTON SPIRES DESIGN BUILD",,,,,"TIPTON SPIRES DESIGN BUILD","1100 E NASA PKWY STE 108",HOUSTON,TX,77058,"(281) 335-8316",,,,
TX,HARRIS,20082702,"Residential Swimming Pools & Spas",9/16/2020,,63750,,"5522 BENNING",HOUSTON,TX,77096,,,"JAMES WILLIAMS","5522 BENNING",HOUSTON,TX,77096,,Owner,,,,,"C3 BUILDING SOLUTIONS",,,,,"C3 BUILDING SOLUTIONS","5535 MEMORIAL DRIVE",HOUSTON,TX,77007,"(713) 369-0925",http://www.c3buildingsolutions.com,,,
TX,HARRIS,20059002,"Residential Swimming Pools & Spas",9/16/2020,,40000,,"11030 WAXWING",HOUSTON,TX,77035,,,"ZAMARRIPA  GEORGE","11030 WAXWING",HOUSTON,TX,77035,,Owner,,,,,"OUTSIDE THE LINES",,,,,"OUTSIDE THE LINES","3350 HWY 6 SUITE 238",SUGARLAND,TX,77478,"(281) 685-7579",http://otl-inc.com/,,,
TX,BRAZOS,RMDL2020-000088,"Restaurant and Bar",8/20/2020,Renovation,72940,2075,"1501 UNIVERSITY DR E # 600","COLLEGE STATION",TX,77840,GATEWAY,,CONTRACTOR,,,,,,,,,,,"PRESTO FOODS",,,,,"PRESTO FOODS","1790 NW 96TH AVE.",DORAL,FL,33172,"(305) 470-2735",http://www.presto-foods.com/,,,info@presto-foods.com
TX,BRAZOS,CNEW2020-000018,"Restaurant and Bar",9/2/2020,,350000,862,"12065 FM 2154","COLLEGE STATION",TX,77866,"CROSSING AT WELLBORN",,CONTRACTOR,,,,,,,,,,,"WYATT MANAGEMENT",,,,,"WYATT MANAGEMENT","3336 SPRING STUEBNER RD",SPRING,TX,77389-4782,"(281) 907-7661",,,,
TX,HARRIS,20026147,"Restaurant and Bar",9/16/2020,,700000,,"2003 W 34TH ST STE",HOUSTON,TX,77018,,,CONTRACTOR,,,,,,,,,,,"JOSEPH FOWLER",,,,,"JOSEPH FOWLER","13800 WESTFAIR EAST DR",HOUSTON,TX,77041-1101,"(281) 808-9998",,,,
TX,HARRIS,20003165,"Restaurant and Bar",9/20/2020,Renovation,49000,,"5370 W 34TH",HOUSTON,TX,77092,,,CONTRACTOR,,,,,,,,,,,"T&L DESIGNS",,,,,"T&L DESIGNS","13115 PENTACLE LN",HOUSTON,TX,77085-5213,"(832) 367-3670",,,,
TX,HARRIS,19124574,"Restaurant and Bar",9/17/2020,Addition,30000,,"4702 ENNIS",HOUSTON,TX,77004,,,"THE LOCKER ROOM","4702 ENNIS ST",HOUSTON,TX,77004,"(832) 506-5304",Owner,,,,,OWNER,,,,,OWNER,,,,,,,,,
TX,MONTGOMERY,174873-20,"Restaurant and Bar",8/5/2020,,85000,,"32823 TAMINA ROAD",HOUSTON,TX,77356,WESTWOOD,,"CRAIG LOBEL","32907 TAMINA RD",MAGNOLIA,TX,77354,,Owner,,,,,OWNER,,,,,OWNER,,,,,,,,,
TX,HARRIS,000075174,Retail,8/5/2020,,169168,,"315 STATE SOUTH","SOUTH HOUSTON",TX,77356,,,"USA INDUSTRIES","302 STATE ST","SOUTH HOUSTON",TX,77587,"(713) 941-3797",Applicant,,,,,OWNER,,,,,OWNER,,,,,,,,,
TX,BRAZOS,RMDL2020-000031,Retail,8/25/2020,Renovation,50000,1747,"1712 SOUTHWEST PKWY # 103","COLLEGE STATION",TX,77840,,,CONTRACTOR,,,,,,,,,,,"JASPER COHEN CONSTRUCTION",,,,,"JASPER COHEN CONSTRUCTION","4422 SPRING MEADOWS DR","COLLEGE STATION",TX,77845-1944,"(097) 957-4382",,,"GREG JASPER",
TX,BRAZORIA,1153,Retail,8/15/2020,Renovation,200000,,"121 W HWY 332","LAKE JACKSON",TX,77566,,,CONTRACTOR,,,,,,,,,,,"WALMART REAL ESTATE BUSINESS TRUST",,,,,"WALMART REAL ESTATE BUSINESS TRUST","2001 SE 10TH ST",BENTONVILLE,AR,72712-6489,"(479) 273-4000",,,,
TX,HARRIS,20074723,Retail,9/18/2020,Addition,638195,,"14056 MEMORIAL",HOUSTON,TX,77079,,,"BARRETT BRIAN","2024 CORTLANDT",HOUSTON,TX,77008,"(713) 628-5812",Applicant,,,,,OWNER,,,,,OWNER,,,,,,,,,
TX,HARRIS,20018816,Retail,9/17/2020,Renovation,38000,,"700 BAYBROOK MALL",HOUSTON,TX,77546,,,CONTRACTOR,,,,,,,,,,,"MIDTOWN CONTRACTING & CONSULING",,,,,"MIDTOWN CONTRACTING & CONSULING","1100 METROPOLITAN AVE",CHARLOTTE,NC,28204-3351,"(803) 280-0301",,,,
TX,HARRIS,20048824,Retail,9/15/2020,Renovation,535653,,"9099 WESTHEIMER",HOUSTON,TX,77063,,,CONTRACTOR,,,,,,,,,,,"INDEPENDENCE COMMERCIAL REAL ESTATE",,,,,"INDEPENDENCE COMMERCIAL REAL ESTATE","3266 HESTER WAY",SALADO,TX,76571,"(713) 817-0171",,,"Ford Jones",ford@ind-re.com
TX,HARRIS,19029202,Retail,9/17/2020,,750000,,"10769 EASTEX FWY",HOUSTON,TX,77093,,,CONTRACTOR,,,,,,,,,,,"SUNDANCE CONSTRUCTION",,,,,"SUNDANCE CONSTRUCTION","655 INDUSTRIAL BLVD","SUGAR LAND",TX,77478-2819,"(281) 277-1000",,"(281) 277-1001",,
TX,HARRIS,200875,Retail,8/21/2020,Renovation,54000,,"168 1ST ST W",HUMBLE,TX,77338,,,CONTRACTOR,,,,,,,,,,,"DAVID Z MAFRIGE INTERESTS",,,,,"DAVID Z MAFRIGE INTERESTS","9219 KATY FWY STE 291",HOUSTON,TX,77024,"(713) 468-5005",,,,
TX,WALKER,2020-02009,"Single Family Homes",8/20/2020,,216525,,"201 BLANCO DR",HUNTSVILLE,TX,77340,,,CONTRACTOR,,,,,,,,,,,"DR HORTON",,,,,"DR HORTON","14100 SOUTHWEST",HOUSTON,TX,77478,"(281) 201-5559",,,,
TX,WALKER,2020-02012,"Single Family Homes",8/20/2020,,202900,,"110 BLANCO DR",HUNTSVILLE,TX,77340,,,CONTRACTOR,,,,,,,,,,,"DR HORTON",,,,,"DR HORTON","14100 SOUTHWEST",HOUSTON,TX,77478,"(281) 201-5559",,,,
TX,WALKER,2020-02015,"Single Family Homes",8/20/2020,,195900,,"118 ROCKBRIDGE DR",HUNTSVILLE,TX,77340,,,CONTRACTOR,,,,,,,,,,,"DR HORTON",,,,,"DR HORTON","14100 SOUTHWEST",HOUSTON,TX,77478,"(281) 201-5559",,,,
TX,WALKER,2020-02018,"Single Family Homes",8/20/2020,,195900,,"112 BLANCO DR",HUNTSVILLE,TX,77340,,,CONTRACTOR,,,,,,,,,,,"DR HORTON",,,,,"DR HORTON","14100 SOUTHWEST",HOUSTON,TX,77478,"(281) 201-5559",,,,
TX,WALKER,2020-02023,"Single Family Homes",8/19/2020,,193175,,"117 ROCKBRIDGE DR",HUNTSVILLE,TX,77340,,,CONTRACTOR,,,,,,,,,,,"DR HORTON",,,,,"DR HORTON","14100 SOUTHWEST",HOUSTON,TX,77478,"(281) 201-5559",,,,
TX,WALKER,2020-02026,"Single Family Homes",8/19/2020,,193175,,"113 BLANCO DR",HUNTSVILLE,TX,77340,,,CONTRACTOR,,,,,,,,,,,"DR HORTON",,,,,"DR HORTON","14100 SOUTHWEST",HOUSTON,TX,77478,"(281) 201-5559",,,,
TX,WALKER,2020-02029,"Single Family Homes",8/20/2020,,174900,,"116 ROCKBRIDGE DR",HUNTSVILLE,TX,77340,,,CONTRACTOR,,,,,,,,,,,"DR HORTON",,,,,"DR HORTON","14100 SOUTHWEST",HOUSTON,TX,77478,"(281) 201-5559",,,,
TX,WALKER,2020-02033,"Single Family Homes",8/20/2020,,175175,,"117 BLANCO DR",HUNTSVILLE,TX,77340,,,CONTRACTOR,,,,,,,,,,,"DR HORTON",,,,,"DR HORTON","14100 SOUTHWEST",HOUSTON,TX,77478,"(281) 201-5559",,,,
TX,WALKER,2020-02037,"Single Family Homes",8/19/2020,,194900,,"115 ROCKBRIDGE DR",HUNTSVILLE,TX,77340,,,CONTRACTOR,,,,,,,,,,,"DR HORTON",,,,,"DR HORTON","14100 SOUTHWEST",HOUSTON,TX,77478,"(281) 201-5559",,,,
TX,WALKER,2020-02040,"Single Family Homes",8/20/2020,,184900,,"114 ROCKBRIDGE DR",HUNTSVILLE,TX,77340,,,CONTRACTOR,,,,,,,,,,,"DR HORTON",,,,,"DR HORTON","14100 SOUTHWEST",HOUSTON,TX,77478,"(281) 201-5559",,,,
TX,WALKER,2020-02043,"Single Family Homes",8/20/2020,,175900,,"113 ROCKBRIDGE DR",HUNTSVILLE,TX,77340,,,CONTRACTOR,,,,,,,,,,,"DR HORTON",,,,,"DR HORTON","14100 SOUTHWEST",HOUSTON,TX,77478,"(281) 201-5559",,,,
TX,WALKER,2020-02046,"Single Family Homes",8/20/2020,,179125,,"104 BLANCO DR",HUNTSVILLE,TX,77340,,,CONTRACTOR,,,,,,,,,,,"DR HORTON",,,,,"DR HORTON","14100 SOUTHWEST",HOUSTON,TX,77478,"(281) 201-5559",,,,
TX,WALKER,2020-02049,"Single Family Homes",8/20/2020,,178550,,"204 COMAL LN",HUNTSVILLE,TX,77340,,,CONTRACTOR,,,,,,,,,,,"DR HORTON",,,,,"DR HORTON","14100 SOUTHWEST",HOUSTON,TX,77478,"(281) 201-5559",,,,
TX,WALKER,2020-02052,"Single Family Homes",8/20/2020,,175900,,"108 ROCKBRIDGE DR",HUNTSVILLE,TX,77340,,,CONTRACTOR,,,,,,,,,,,"DR HORTON",,,,,"DR HORTON","14100 SOUTHWEST",HOUSTON,TX,77478,"(281) 201-5559",,,,
TX,WALKER,2020-02061,"Single Family Homes",8/9/2020,,233625,,"201 COMAL DR",HUNTSVILLE,TX,77340,,,CONTRACTOR,,,,,,,,,,,"DR HORTON",,,,,"DR HORTON","14100 SOUTHWEST",HOUSTON,TX,77478,"(281) 201-5559",,,,
TX,WALKER,2020-02064,"Single Family Homes",8/20/2020,,207825,,"202 COMAL DR",HUNTSVILLE,TX,77340,,,CONTRACTOR,,,,,,,,,,,"DR HORTON",,,,,"DR HORTON","14100 SOUTHWEST",HOUSTON,TX,77478,"(281) 201-5559",,,,
TX,WALKER,2020-02067,"Single Family Homes",8/20/2020,,211600,,"205 COMAL DR",HUNTSVILLE,TX,77340,,,CONTRACTOR,,,,,,,,,,,"DR HORTON",,,,,"DR HORTON","14100 SOUTHWEST",HOUSTON,TX,77478,"(281) 201-5559",,,,
TX,WALKER,2020-02070,"Single Family Homes",8/19/2020,,220200,,"208 COMAL DR",HUNTSVILLE,TX,77340,,,CONTRACTOR,,,,,,,,,,,"DR HORTON",,,,,"DR HORTON","14100 SOUTHWEST",HOUSTON,TX,77478,"(281) 201-5559",,,,
TX,WALKER,2020-02073,"Single Family Homes",8/19/2020,,232525,,"202 ROCKBRIDGE DR",HUNTSVILLE,TX,77340,,,CONTRACTOR,,,,,,,,,,,"DR HORTON",,,,,"DR HORTON","14100 SOUTHWEST",HOUSTON,TX,77478,"(281) 201-5559",,,,
TX,WALKER,2020-02087,"Single Family Homes",8/20/2020,,184900,,"119 ROCKBRIDGE DR",HUNTSVILLE,TX,77340,,,CONTRACTOR,,,,,,,,,,,"DR HORTON",,,,,"DR HORTON","14100 SOUTHWEST",HOUSTON,TX,77478,"(281) 201-5559",,,,
TX,HARRIS,000075175,"Single Family Homes",8/6/2020,,70000,1027,"1108 1/2 PALESTINE","SOUTH HOUSTON",TX,77301,,,CONTRACTOR,,,,,,,,,,,"INFINITE CUSTOM HOMES",,,,,"INFINITE CUSTOM HOMES","14403 TWISTED CANYON DR",CYPRESS,TX,77429-4240,"(713) 557-9524",,,,
TX,HARRIS,000075180,"Single Family Homes",8/6/2020,,70000,1960,"502 TEXAS ST","SOUTH HOUSTON",TX,77301,,,CONTRACTOR,,,,,,,,,,,"FC BETTER HOMES",,,,,"FC BETTER HOMES","2104 VERONA DR",PEARLAND,TX,77581-4762,"(281) 484-2203",,,,
TX,HARRIS,000075251,"Single Family Homes",8/20/2020,,90000,1984,"118 WELDON SOUTH","SOUTH HOUSTON",TX,77301,,,"PERLA RODRIGUEZ","118 WELDON SOUTH",HOUSTON,TX,77301,,Owner,,,,,OWNER,,,,,OWNER,,,,,,,,,
TX,HARRIS,2000964,"Single Family Homes",8/19/2020,,,3243,"1633 E. MEYER",SEABROOK,TX,77586,,,CONTRACTOR,,,,,,,,,,,"T&W BUILDERS",,,,,"T&W BUILDERS","401 STUDEWOOD",HOUSTON,TX,77007,"(281) 773-2001",,,,
TX,HARRIS,2000966,"Single Family Homes",8/19/2020,,,3243,"1637 E. MEYER AVE",SEABROOK,TX,77586,,,CONTRACTOR,,,,,,,,,,,"T&W BUILDERS",,,,,"T&W BUILDERS","401 STUDEWOOD",HOUSTON,TX,77007,"(281) 773-2001",,,,
TX,HARRIS,2000967,"Single Family Homes",8/20/2020,,,3490,"1556 LAKE MIJA CIRCLE",SEABROOK,TX,77586,,,CONTRACTOR,,,,,,,,,,,"BAYWAY HOMES",,,,,"BAYWAY HOMES","1414 S FRIENDSWOOD DR",FRIENDSWOOD,TX,77546-4831,"(281) 648-2425",,,,
TX,HARRIS,2000968,"Single Family Homes",8/20/2020,,,3732,"1465 LAKE MIJA CT",SEABROOK,TX,77586,,,CONTRACTOR,,,,,,,,,,,"BAYWAY HOMES",,,,,"BAYWAY HOMES","1414 S FRIENDSWOOD DR",FRIENDSWOOD,TX,77546-4831,"(281) 648-2425",,,,
TX,HARRIS,2000969,"Single Family Homes",8/20/2020,,,4053,"1466 LAKE MIJA CT",SEABROOK,TX,77586,,,CONTRACTOR,,,,,,,,,,,"BAYWAY HOMES",,,,,"BAYWAY HOMES","1414 S FRIENDSWOOD DR",FRIENDSWOOD,TX,77546-4831,"(281) 648-2425",,,,
TX,HARRIS,2000979,"Single Family Homes",8/21/2020,,,660,"626 N. FLAMINGO",SEABROOK,TX,77586,,,CONTRACTOR,,,,,,,,,,,"UNITED FRAMING",,,,,"UNITED FRAMING","14781 MEMORIAL DR # 111",HOUSTON,TX,77079-5210,"(832) 372-0533",http://unitedframingtx.itssoldhouston.com/,"(866) 617-4772",,
TX,HARRIS,0000008469,"Single Family Homes",8/24/2020,,64700,,"16017 WALL ST","JERSEY VILLAGE",TX,77077,,,CONTRACTOR,,,,,,,,,,,"RKD STRUCTURES",,,,,"RKD STRUCTURES","12503 EXCHANGE DR STE 506",STAFFORD,TX,77477-3607,"(281) 342-1994",,,,
TX,MONTGOMERY,2020-9,"Single Family Homes",8/17/2020,,285000,1909,"16003 WESTWARD HO",STAGECOACH,TX,77355,,,CONTRACTOR,,,,,,,,,,,"TEXAS TIMELESS DESIGNS",,,,,"TEXAS TIMELESS DESIGNS","1850 OLD HOLZWARTH RD",SPRING,TX,77388-4800,"(979) 733-4450",,,,
TX,BELL,2020-5944,"Single Family Homes",8/17/2020,,463000,,"3218 INGRAM CIRCLE",BELTON,TX,76513,,,CONTRACTOR,,,,,,,,,,,"CAROTHERS EXECUTIVE HOMES",,,,,"CAROTHERS EXECUTIVE HOMES","50 S WHEAT RD",BELTON,TX,76513-8220,"(254) 773-0600",http://carothersexecutivehomes.com/,"(254) 791-0323","DAVID SOUTHERLAND",
TX,BELL,2020-5945,"Single Family Homes",8/17/2020,,407500,3899,"3206 INGRAM",BELTON,TX,76513,,,CONTRACTOR,,,,,,,,,,,"CAROTHERS EXECUTIVE HOMES",,,,,"CAROTHERS EXECUTIVE HOMES","50 S WHEAT RD",BELTON,TX,76513-8220,"(254) 773-0600",http://carothersexecutivehomes.com/,"(254) 791-0323","DAVID SOUTHERLAND",
TX,BELL,2020-5947,"Single Family Homes",8/17/2020,,429000,4033,"3120 INGRAM CIRCLE",BELTON,TX,76513,,,CONTRACTOR,,,,,,,,,,,"CAROTHERS EXECUTIVE HOMES",,,,,"CAROTHERS EXECUTIVE HOMES","50 S WHEAT RD",BELTON,TX,76513-8220,"(254) 773-0600",http://carothersexecutivehomes.com/,"(254) 791-0323","DAVID SOUTHERLAND",
TX,BELL,2020-5952,"Single Family Homes",8/17/2020,,325000,3159,"3408 LONGFELLOW DR",BELTON,TX,78513,,,CONTRACTOR,,,,,,,,,,,"CAROTHERS EXECUTIVE HOMES",,,,,"CAROTHERS EXECUTIVE HOMES","50 S WHEAT RD",BELTON,TX,76513-8220,"(254) 773-0600",http://carothersexecutivehomes.com/,"(254) 791-0323","DAVID SOUTHERLAND",
TX,BELL,2020-5968,"Single Family Homes",8/17/2020,,389000,3293,"3210 INGRAM CIRCLE",BELTON,TX,78513,,,CONTRACTOR,,,,,,,,,,,"CAROTHERS EXECUTIVE HOMES",,,,,"CAROTHERS EXECUTIVE HOMES","50 S WHEAT RD",BELTON,TX,76513-8220,"(254) 773-0600",http://carothersexecutivehomes.com/,"(254) 791-0323","DAVID SOUTHERLAND",
TX,BELL,2020-6025,"Single Family Homes",8/17/2020,,379000,3535,"3214 INGRAM CIRCLE",BELTON,TX,76513,,,CONTRACTOR,,,,,,,,,,,"CAROTHERS EXECUTIVE HOMES",,,,,"CAROTHERS EXECUTIVE HOMES","50 S WHEAT RD",BELTON,TX,76513-8220,"(254) 773-0600",http://carothersexecutivehomes.com/,"(254) 791-0323","DAVID SOUTHERLAND",
TX,BELL,2020-6026,"Single Family Homes",8/17/2020,,342500,2886,"3404 LONGFELLOW DR",BELTON,TX,78513,,,CONTRACTOR,,,,,,,,,,,"CAROTHERS EXECUTIVE HOMES",,,,,"CAROTHERS EXECUTIVE HOMES","50 S WHEAT RD",BELTON,TX,76513-8220,"(254) 773-0600",http://carothersexecutivehomes.com/,"(254) 791-0323","DAVID SOUTHERLAND",
TX,BELL,2020-6039,"Single Family Homes",8/12/2020,,149900,2452,"608 DAMASCUS DR",BELTON,TX,78513,,,CONTRACTOR,,,,,,,,,,,"ASHFORD HOMES",,,,,"ASHFORD HOMES","3800 E STAN SCHLUETER LOOP STE 107",KILLEEN,TX,76542-4558,"(254) 699-8485",,,,
TX,BELL,2020-6044,"Single Family Homes",8/13/2020,,214000,2993,"3201 CHARBRAY DR",BELTON,TX,78513,,,CONTRACTOR,,,,,,,,,,,"BELL COUNTY VICTORY HOMES",,,,,"BELL COUNTY VICTORY HOMES","973 GEORGE WILSON RD",BELTON,TX,76513-4212,"(254) 721-7831",,,,
TX,BELL,2020-6079,"Single Family Homes",8/20/2020,,236000,2296,"708 HOLSTEIN DR",BELTON,TX,78513,,,CONTRACTOR,,,,,,,,,,,"CAROTHERS EXECUTIVE HOMES",,,,,"CAROTHERS EXECUTIVE HOMES","50 S WHEAT RD",BELTON,TX,76513-8220,"(254) 773-0600",http://carothersexecutivehomes.com/,"(254) 791-0323","DAVID SOUTHERLAND",
TX,BELL,2020-6080,"Single Family Homes",8/20/2020,,265000,2948,"716 HOLSTEIN DR",BELTON,TX,78513,,,CONTRACTOR,,,,,,,,,,,"CAROTHERS EXECUTIVE HOMES",,,,,"CAROTHERS EXECUTIVE HOMES","50 S WHEAT RD",BELTON,TX,76513-8220,"(254) 773-0600",http://carothersexecutivehomes.com/,"(254) 791-0323","DAVID SOUTHERLAND",
TX,BELL,2020-6085,"Single Family Homes",8/14/2020,,185000,3040,"413 DAMASCUS DR",BELTON,TX,78513,,,CONTRACTOR,,,,,,,,,,,"EAGLE HOMES",,,,,"EAGLE HOMES","1202 MILDRED LEE LN","HARKER HEIGHTS",TX,76548-1535,"(254) 393-0055",,,,
TX,BELL,2020-6086,"Single Family Homes",8/14/2020,,190000,3205,"417 DAMASCUS DR",BELTON,TX,78513,,,CONTRACTOR,,,,,,,,,,,"EAGLE HOMES",,,,,"EAGLE HOMES","1202 MILDRED LEE LN","HARKER HEIGHTS",TX,76548-1535,"(254) 393-0055",,,,
TX,BELL,2020-6097,"Single Family Homes",8/21/2020,,187900,2655,"1425 FOSSIL TR",BELTON,TX,78513,,,CONTRACTOR,,,,,,,,,,,"PRECISION VALUE HOMES",,,,,"PRECISION VALUE HOMES","14304 E BUSINESS 190","COPPERAS COVE",TX,76522-6267,"(254) 290-7826",http://www.pvhtx.com/,"(254) 518-1130","BO HOLLOMAN",pvhtx@yahoo.com
TX,BELL,2020-6098,"Single Family Homes",8/21/2020,,187600,2608,"1507 FOSSIL TR",BELTON,TX,78513,,,CONTRACTOR,,,,,,,,,,,"PRECISION VALUE HOMES",,,,,"PRECISION VALUE HOMES","14304 E BUSINESS 190","COPPERAS COVE",TX,76522-6267,"(254) 290-7826",http://www.pvhtx.com/,"(254) 518-1130","BO HOLLOMAN",pvhtx@yahoo.com
TX,BELL,2020-6099,"Single Family Homes",8/21/2020,,192300,2580,"1511 FOSSIL TR",BELTON,TX,78513,,,CONTRACTOR,,,,,,,,,,,"PRECISION VALUE HOMES",,,,,"PRECISION VALUE HOMES","14304 E BUSINESS 190","COPPERAS COVE",TX,76522-6267,"(254) 290-7826",http://www.pvhtx.com/,"(254) 518-1130","BO HOLLOMAN",pvhtx@yahoo.com
TX,BELL,2020-6103,"Single Family Homes",8/24/2020,,210500,3064,"1503 FOSSIL TR",BELTON,TX,78513,,,CONTRACTOR,,,,,,,,,,,"PRECISION VALUE HOMES",,,,,"PRECISION VALUE HOMES","14304 E BUSINESS 190","COPPERAS COVE",TX,76522-6267,"(254) 290-7826",http://www.pvhtx.com/,"(254) 518-1130","BO HOLLOMAN",pvhtx@yahoo.com
TX,BELL,2020-6107,"Single Family Homes",8/24/2020,,235000,2355,"712 HOLSTEIN DR",BELTON,TX,78513,,,CONTRACTOR,,,,,,,,,,,"CAROTHERS EXECUTIVE HOMES",,,,,"CAROTHERS EXECUTIVE HOMES","50 S WHEAT RD",BELTON,TX,76513-8220,"(254) 773-0600",http://carothersexecutivehomes.com/,"(254) 791-0323","DAVID SOUTHERLAND",
TX,BELL,2020-6123,"Single Family Homes",8/19/2020,,249900,6533,"1310 AYHAM TR",BELTON,TX,78513,,,CONTRACTOR,,,,,,,,,,,"KB HOME",,,,,"KB HOME","11314 RICHMOND AVE",HOUSTON,TX,77082-2616,"(281) 668-3800",,,,
TX,BELL,2020-6140,"Single Family Homes",8/20/2020,,510000,4409,"3615 O'CONNOR PLACE",BELTON,TX,78513,,,CONTRACTOR,,,,,,,,,,,"CAROTHERS EXECUTIVE HOMES",,,,,"CAROTHERS EXECUTIVE HOMES","50 S WHEAT RD",BELTON,TX,76513-8220,"(254) 773-0600",http://carothersexecutivehomes.com/,"(254) 791-0323","DAVID SOUTHERLAND",
TX,BELL,2020-6143,"Single Family Homes",8/20/2020,,319000,2718,"3420 LONGFELLOW DR",BELTON,TX,76513,,,CONTRACTOR,,,,,,,,,,,"CAROTHERS EXECUTIVE HOMES",,,,,"CAROTHERS EXECUTIVE HOMES","50 S WHEAT RD",BELTON,TX,76513-8220,"(254) 773-0600",http://carothersexecutivehomes.com/,"(254) 791-0323","DAVID SOUTHERLAND",
TX,BELL,2020-6144,"Single Family Homes",8/20/2020,,262500,2913,"3321 DIGBY DR",BELTON,TX,76513,,,CONTRACTOR,,,,,,,,,,,"CAROTHERS EXECUTIVE HOMES",,,,,"CAROTHERS EXECUTIVE HOMES","50 S WHEAT RD",BELTON,TX,76513-8220,"(254) 773-0600",http://carothersexecutivehomes.com/,"(254) 791-0323","DAVID SOUTHERLAND",
TX,BELL,2020-6146,"Single Family Homes",8/20/2020,,,2792,"459 COMAL COVE",BELTON,TX,76153,,,CONTRACTOR,,,,,,,,,,,"OMEGA HOMEBUILDERS",,,,,"OMEGA HOMEBUILDERS","7353 W ADAMS AVE",TEMPLE,TX,76502-5539,"(254) 773-9966",http://www.omegabuilders.com/,,"JOHN HOWE",
TX,BELL,2020-6149,"Single Family Homes",8/27/2020,,160000,2380,"301 MITCHELL ST",BELTON,TX,78513,,,CONTRACTOR,,,,,,,,,,,"JOEL DURAN HOMES",,,,,"JOEL DURAN HOMES","718 COUNTY ROAD 4807","COPPERAS COVE",TX,76522-6138,"(254) 290-5140",,"(254) 547-1249",,
TX,BELL,2020-6150,"Single Family Homes",8/27/2020,,175000,2767,"420 DAMASCUS DR",BELTON,TX,78513,,,CONTRACTOR,,,,,,,,,,,"JLB CONSTRUCTION",,,,,"JLB CONSTRUCTION","9202 SUMMERBELL LN",HOUSTON,TX,77074-1341,"(214) 536-6464",,,"JOE BOLIN",
TX,BELL,2020-6151,"Single Family Homes",8/28/2020,,175000,2735,"416 DAMASCUS DR",BELTON,TX,78513,,,CONTRACTOR,,,,,,,,,,,"JLB CONSTRUCTION",,,,,"JLB CONSTRUCTION","9202 SUMMERBELL LN",HOUSTON,TX,77074-1341,"(214) 536-6464",,,"JOE BOLIN",
TX,BELL,2020-6154,"Single Family Homes",8/31/2020,,130000,3029,"2542 BELLE HUBBARD TR",BELTON,TX,78513,,,CONTRACTOR,,,,,,,,,,,"JUBILEE HOMES",,,,,"JUBILEE HOMES","125 E BEELINE LN","HARKER HEIGHTS",TX,76548-1261,"(254) 699-0010",,,,
TX,BELL,2020-6165,"Single Family Homes",8/26/2020,,,4145,"3206 TRINITY DR",BELTON,TX,76513,,,CONTRACTOR,,,,,,,,,,,"OMEGA HOMEBUILDERS",,,,,"OMEGA HOMEBUILDERS","7353 W ADAMS AVE",TEMPLE,TX,76502-5539,"(254) 773-9966",http://www.omegabuilders.com/,,"JOHN HOWE",
TX,BELL,2020-6168,"Single Family Homes",8/27/2020,,365000,3264,"3405 LONGFELLOW DR",BELTON,TX,78513,,,CONTRACTOR,,,,,,,,,,,"CAROTHERS EXECUTIVE HOMES",,,,,"CAROTHERS EXECUTIVE HOMES","50 S WHEAT RD",BELTON,TX,76513-8220,"(254) 773-0600",http://carothersexecutivehomes.com/,"(254) 791-0323","DAVID SOUTHERLAND",
TX,BELL,2020-6169,"Single Family Homes",8/27/2020,,351000,4107,"3409 LONGFELLOW DR",BELTON,TX,78513,,,CONTRACTOR,,,,,,,,,,,"CAROTHERS EXECUTIVE HOMES",,,,,"CAROTHERS EXECUTIVE HOMES","50 S WHEAT RD",BELTON,TX,76513-8220,"(254) 773-0600",http://carothersexecutivehomes.com/,"(254) 791-0323","DAVID SOUTHERLAND",
TX,BELL,2020-6174,"Single Family Homes",8/28/2020,,,3379,"2124 OAK DRAW CT",BELTON,TX,78513,,,CONTRACTOR,,,,,,,,,,,"KIELLA HOMEBUILDERS",,,,,"KIELLA HOMEBUILDERS","7462 W ADAMS AVE",TEMPLE,TX,76502-5558,"(254) 778-0092",,,,
TX,BELL,2020-6175,"Single Family Homes",8/28/2020,,,3346,"2116 OAK DRAW CT",BELTON,TX,78513,,,CONTRACTOR,,,,,,,,,,,"KIELLA HOMEBUILDERS",,,,,"KIELLA HOMEBUILDERS","7462 W ADAMS AVE",TEMPLE,TX,76502-5558,"(254) 778-0092",,,,
TX,BELL,2020-6176,"Single Family Homes",8/28/2020,,309000,2703,"3412 LONGFELLOW DR",BELTON,TX,78513,,,CONTRACTOR,,,,,,,,,,,"CAROTHERS EXECUTIVE HOMES",,,,,"CAROTHERS EXECUTIVE HOMES","50 S WHEAT RD",BELTON,TX,76513-8220,"(254) 773-0600",http://carothersexecutivehomes.com/,"(254) 791-0323","DAVID SOUTHERLAND",
TX,BELL,2020-6177,"Single Family Homes",8/28/2020,,325500,3133,"3416 LONGFELLOW DR",BELTON,TX,78513,,,CONTRACTOR,,,,,,,,,,,"CAROTHERS EXECUTIVE HOMES",,,,,"CAROTHERS EXECUTIVE HOMES","50 S WHEAT RD",BELTON,TX,76513-8220,"(254) 773-0600",http://carothersexecutivehomes.com/,"(254) 791-0323","DAVID SOUTHERLAND",
TX,BELL,2020-6178,"Single Family Homes",8/28/2020,,369000,3631,"3417 LONGFELLOW DR",BELTON,TX,78513,,,CONTRACTOR,,,,,,,,,,,"CAROTHERS EXECUTIVE HOMES",,,,,"CAROTHERS EXECUTIVE HOMES","50 S WHEAT RD",BELTON,TX,76513-8220,"(254) 773-0600",http://carothersexecutivehomes.com/,"(254) 791-0323","DAVID SOUTHERLAND",
TX,BELL,2020-6179,"Single Family Homes",8/28/2020,,182900,3019,"2597 BELLE HUBBARD TR",BELTON,TX,78513,,,CONTRACTOR,,,,,,,,,,,"ASHFORD HOMES",,,,,"ASHFORD HOMES","3800 E STAN SCHLUETER LOOP STE 107",KILLEEN,TX,76542-4558,"(254) 699-8485",,,,
TX,BRAZOS,RES2020-000243,"Single Family Homes",8/3/2020,,305631,4863,"4810 CRYSTAL RIDGE CT","COLLEGE STATION",TX,77845,"GREENS PRAIRIE RESERVE",,CONTRACTOR,,,,,,,,,,,"SCHAEFER CUSTOM HOMES",,,,,"SCHAEFER CUSTOM HOMES","200 S MAIN ST STE 200",BRYAN,TX,77803-3993,"(979) 575-4180",http://schaefercustomhomes.net/,"(979) 690-8229",,mschaefer@schaefercustomhomes.net
TX,BRAZOS,RES2020-000246,"Single Family Homes",8/3/2020,,286060,3595,"1736 BLANCO BEND DR","COLLEGE STATION",TX,77845,"MISSION RANCH",,CONTRACTOR,,,,,,,,,,,"CLASSIC HOMES BY MARIOTT",,,,,"CLASSIC HOMES BY MARIOTT","209 ROCK PRAIRIE RD","COLLEGE STATION",TX,77845-8796,"(979) 696-1787",,"(979) 680-1966",,
TX,BRAZOS,RES2020-000249,"Single Family Homes",8/4/2020,,325000,4755,"2712 CAINHORN CT","COLLEGE STATION",TX,77845,CASTLEGATE,,CONTRACTOR,,,,,,,,,,,"BLACKSTONE HANDCRAFTED HOMES",,,,,"BLACKSTONE HANDCRAFTED HOMES","2900 CAIN RD","COLLEGE STATION",TX,77845-6224,"(979) 696-4663",http://blackstonehandcrafted.com/,"(979) 696-4664","MATTHEW JOHNSON",
TX,BRAZOS,RES2020-000252,"Single Family Homes",8/10/2020,,231880,3740,"4102 BROOKLAND CT","COLLEGE STATION",TX,77845,BRIDGEWOOD,,CONTRACTOR,,,,,,,,,,,"STYLECRAFT BUILDERS ",,,,,"STYLECRAFT BUILDERS ","4090 STATE HIGHWAY 6 S","COLLEGE STATION",TX,77845-8962,"(979) 764-9900",,"(979) 690-3069","TANNER BREWSTER",tabrewster@stylecraft-builders.com
TX,BRAZOS,RES2020-000253,"Single Family Homes",8/12/2020,,125364,2022,"3812 STILL CREEK LOOP","COLLEGE STATION",TX,77845,"CREEK MEADOWS",,CONTRACTOR,,,,,,,,,,,"STYLECRAFT BUILDERS ",,,,,"STYLECRAFT BUILDERS ","4090 STATE HIGHWAY 6 S","COLLEGE STATION",TX,77845-8962,"(979) 764-9900",,"(979) 690-3069","TANNER BREWSTER",tabrewster@stylecraft-builders.com
TX,BRAZOS,RES2020-000254,"Single Family Homes",8/12/2020,,95670,2126,"3814 STILL CREEK LOOP","COLLEGE STATION",TX,77845,"CREEK MEADOWS",,CONTRACTOR,,,,,,,,,,,"STYLECRAFT BUILDERS ",,,,,"STYLECRAFT BUILDERS ","4090 STATE HIGHWAY 6 S","COLLEGE STATION",TX,77845-8962,"(979) 764-9900",,"(979) 690-3069","TANNER BREWSTER",tabrewster@stylecraft-builders.com
TX,BRAZOS,RES2020-000255,"Single Family Homes",8/13/2020,,302000,2928,"4004 CROOKED CREEK PATH","COLLEGE STATION",TX,77845,"CREEK MEADOWS",,CONTRACTOR,,,,,,,,,,,"OAKWOOD CUSTOM HOMES",,,,,"OAKWOOD CUSTOM HOMES","4060 STATE HIGHWAY 6 S ","COLLEGE STATION",TX,77845-8962,"(979) 690-1504",http://oakchb.com/,"(979) 690-2504",,sales@oakchb.com
TX,BRAZOS,RES2020-000256,"Single Family Homes",8/14/2020,,250000,4223,"1416 ROYAL ADELADE LOOP","COLLEGE STATION",TX,77845,"PEBBLE CREEK",,CONTRACTOR,,,,,,,,,,,"MAGRUDER PORTER CONSTRUCTION",,,,,"MAGRUDER PORTER CONSTRUCTION","14996 LIVE OAK","COLLEGE STATION",TX,77845,"(936) 615-1754",,,,
TX,BRAZOS,RES2020-000258,"Single Family Homes",8/13/2020,,194184,3132,"6319 SOUTHERN CROSS DR","COLLEGE STATION",TX,77845,"SOUTHERN POINTE",,CONTRACTOR,,,,,,,,,,,"STYLECRAFT BUILDERS ",,,,,"STYLECRAFT BUILDERS ","4090 STATE HIGHWAY 6 S","COLLEGE STATION",TX,77845-8962,"(979) 764-9900",,"(979) 690-3069","TANNER BREWSTER",tabrewster@stylecraft-builders.com
TX,BRAZOS,RES2020-000260,"Single Family Homes",8/14/2020,,135964,2496,"6310 ELDORA DR","COLLEGE STATION",TX,77845,"SOUTHERN POINTE",,CONTRACTOR,,,,,,,,,,,"OMEGA BUILDERS GROUP",,,,,"OMEGA BUILDERS GROUP","7353 W ADAMS AVE",TEMPLE,TX,76502-5539,"(254) 773-9966",,,,
TX,BRAZOS,RES2020-000251,"Single Family Homes",8/17/2020,,107852,1828,"1310 MCQUEENY DR","COLLEGE STATION",TX,77845,,,CONTRACTOR,,,,,,,,,,,"DR HORTON",,,,,"DR HORTON","14100 SOUTHWEST",HOUSTON,TX,77478,"(281) 201-5559",,,,
TX,BRAZOS,RES2020-000239,"Single Family Homes",8/18/2020,,261170,5745,"5205 HAWKS RIDGE DR","COLLEGE STATION",TX,77845,"PEBBLE CREEK",,CONTRACTOR,,,,,,,,,,,"HEATH TOWNSEND HOMES",,,,,"HEATH TOWNSEND HOMES","2306 KENDAL GREEN CIR","COLLEGE STATION",TX,77845-4840,"(979) 574-0374",http://heathtownsendhomes.com/,,,heath@heathtownsendhomes.com
TX,BRAZOS,RES2020-000257,"Single Family Homes",8/20/2020,,149226,2845,"1104 ROBINSVILLE CT","COLLEGE STATION",TX,77845,SHENANDOAH,,CONTRACTOR,,,,,,,,,,,"ED FROEHLING BUILDERS ",,,,,"ED FROEHLING BUILDERS ","3887 HIGH LONESOME","COLLEGE STATION",TX,77845-9443,"(979) 694-0565",http://edfroehlingbuilder.com,,,
TX,BRAZOS,RES2020-000259,"Single Family Homes",8/20/2020,,270000,3726,"4814 PEARL RIVER CT","COLLEGE STATION",TX,77845,"GREENS PRAIRIE RESERVE",,CONTRACTOR,,,,,,,,,,,"PITMAN CUSTOM HOMES",,,,,"PITMAN CUSTOM HOMES","1401 SEBESTA RD","COLLEGE STATION",TX,77845-5527,"(979) 693-6699",http://www.pitmancustomhomes.com,,JIMMY,
TX,BRAZOS,RES2020-000265,"Single Family Homes",8/21/2020,,261144,3224,"1900 COTTONWOOD TERRACE CT","COLLEGE STATION",TX,77803,"MISSION RANCH",,CONTRACTOR,,,,,,,,,,,"REECE HOMES",,,,,"REECE HOMES","1818 TAYLOR",HOUSTON,TX,77545,"(713) 826-7262",http://www.reece-homes.com/,,,
TX,BRAZOS,RES2020-000263,"Single Family Homes",8/24/2020,,225000,2619,"3725 SIENNA SPRINGS DR","COLLEGE STATION",TX,77845,"MISSION RANCH",,CONTRACTOR,,,,,,,,,,,"BLACKSTONE HANDCRAFTED HOMES",,,,,"BLACKSTONE HANDCRAFTED HOMES","2900 CAIN RD","COLLEGE STATION",TX,77845-6224,"(979) 696-4663",http://blackstonehandcrafted.com/,"(979) 696-4664","MATTHEW JOHNSON",
TX,BRAZOS,RES2020-000264,"Single Family Homes",8/26/2020,,320000,3272,"3622 HARDIN HILLS DR","COLLEGE STATION",TX,77845,"MISSION RANCH",,CONTRACTOR,,,,,,,,,,,"CALDWELL HOMES",,,,,"CALDWELL HOMES","18127 TWILIGHT SHORES LN",CYPRESS,TX,77433-7046,"(281) 378-3364",http://caldwellhomes.com/,,,info@caldwellhomes.com
TX,BRAZOS,RES2020-000267,"Single Family Homes",8/28/2020,,225000,2833,"3729 SIENNA SPRINGS DR","COLLEGE STATION",TX,77845,"MISSION RANCH",,CONTRACTOR,,,,,,,,,,,"BLACKSTONE HANDCRAFTED HOMES",,,,,"BLACKSTONE HANDCRAFTED HOMES","2900 CAIN RD","COLLEGE STATION",TX,77845-6224,"(979) 696-4663",http://blackstonehandcrafted.com/,"(979) 696-4664","MATTHEW JOHNSON",
TX,BRAZOS,RES2020-000261,"Single Family Homes",8/31/2020,,279000,3387,"3907 ESKEW DR","COLLEGE STATION",TX,77845,"BREWSTER POINTE",,CONTRACTOR,,,,,,,,,,,"HEATH TOWNSEND HOMES",,,,,"HEATH TOWNSEND HOMES","2306 KENDAL GREEN CIR","COLLEGE STATION",TX,77845-4840,"(979) 574-0374",http://heathtownsendhomes.com/,,,heath@heathtownsendhomes.com
TX,BRAZOS,RES2020-000262,"Single Family Homes",8/31/2020,,225000,2463,"3619 HARDIN HILLS DR","COLLEGE STATION",TX,77845,"MISSION RANCH",,CONTRACTOR,,,,,,,,,,,"BLACKSTONE HANDCRAFTED HOMES",,,,,"BLACKSTONE HANDCRAFTED HOMES","2900 CAIN RD","COLLEGE STATION",TX,77845-6224,"(979) 696-4663",http://blackstonehandcrafted.com/,"(979) 696-4664","MATTHEW JOHNSON",
TX,BRAZOS,RES2020-000276,"Single Family Homes",8/31/2020,,229520,3799,"6316 SPARTAN DR","COLLEGE STATION",TX,77845,"SOUTHERN POINTE",,CONTRACTOR,,,,,,,,,,,"OMEGA BUILDERS GROUP",,,,,"OMEGA BUILDERS GROUP","7353 W ADAMS AVE",TEMPLE,TX,76502-5539,"(254) 773-9966",,,,
TX,BRAZOS,RES2020-000139,"Single Family Homes",9/2/2020,,173812,2523,"408 ASH ST","COLLEGE STATION",TX,77840,"COLLEGE VISTA",,CONTRACTOR,,,,,,,,,,,"HANCOCK CUSTOM HOMES",,,,,"HANCOCK CUSTOM HOMES","PO BOX 11214","COLLEGE STATION",TX,77842-1214,"(979) 412-6301",http://www.homesbyhancock.com/,,,info@homesbyhancock.com
TX,BRAZOS,RES2020-000268,"Single Family Homes",9/2/2020,,420000,5005,"3712 COOPER CT","COLLEGE STATION",TX,77845,"MISSION RANCH",,CONTRACTOR,,,,,,,,,,,"PITMAN CUSTOM HOMES",,,,,"PITMAN CUSTOM HOMES","1401 SEBESTA RD","COLLEGE STATION",TX,77845-5527,"(979) 693-6699",http://www.pitmancustomhomes.com,,JIMMY,
TX,BRAZOS,RES2020-000278,"Single Family Homes",9/4/2020,,191691,2533,"6325 ROCKFORD DR","COLLEGE STATION",TX,77845,"SOUTHERN POINTE",,CONTRACTOR,,,,,,,,,,,"KALEO HOMES",,,,,"KALEO HOMES","4109 WOODCREST DR",BRYAN,TX,77802-3649,"(979) 575-2182",,,,
TX,BRAZOS,RES2020-000279,"Single Family Homes",9/3/2020,,126232,2036,"3824 STILL CREEK LOOP","COLLEGE STATION",TX,77845,"CREEK MEADOWS",,CONTRACTOR,,,,,,,,,,,"STYLECRAFT BUILDERS ",,,,,"STYLECRAFT BUILDERS ","4090 STATE HIGHWAY 6 S","COLLEGE STATION",TX,77845-8962,"(979) 764-9900",,"(979) 690-3069","TANNER BREWSTER",tabrewster@stylecraft-builders.com
TX,BRAZOS,RES2020-000281,"Single Family Homes",9/3/2020,,131812,1593,"3840 STILL CREEK LOOP","COLLEGE STATION",TX,77845,"CREEK MEADOWS",,CONTRACTOR,,,,,,,,,,,"STYLECRAFT BUILDERS ",,,,,"STYLECRAFT BUILDERS ","4090 STATE HIGHWAY 6 S","COLLEGE STATION",TX,77845-8962,"(979) 764-9900",,"(979) 690-3069","TANNER BREWSTER",tabrewster@stylecraft-builders.com
TX,BRAZOS,RES2020-000283,"Single Family Homes",9/3/2020,,155558,2509,"6315 SPARTAN DR","COLLEGE STATION",TX,77845,"SOUTHERN POINTE",,CONTRACTOR,,,,,,,,,,,"STYLECRAFT BUILDERS ",,,,,"STYLECRAFT BUILDERS ","4090 STATE HIGHWAY 6 S","COLLEGE STATION",TX,77845-8962,"(979) 764-9900",,"(979) 690-3069","TANNER BREWSTER",tabrewster@stylecraft-builders.com
TX,BRAZORIA,1169,"Single Family Homes",8/15/2020,,460081,,"217 ARROWHEAD DR","LAKE JACKSON",TX,77566,,,CONTRACTOR,,,,,,,,,,,"BENCHMARK INVESTING",,,,,"BENCHMARK INVESTING","327 FM 2004 RD","LAKE JACKSON",TX,77566-4980,"(979) 230-2935",,,"ARCH H APLIN",
TX,BRAZORIA,1189,"Single Family Homes",8/15/2020,,297221,,"115 SUN DROP LANE","LAKE JACKSON",TX,77566,,,CONTRACTOR,,,,,,,,,,,"BRAZOSPORT CREEKSIDE LLC",,,,,"BRAZOSPORT CREEKSIDE LLC","1008 MOCKINGBIRD LN",RICHWOOD,TX,77531-2237,"(979) 265-8663",,,,
TX,BRAZORIA,1236,"Single Family Homes",8/15/2020,,354989,,"60 SUN DROP CT","LAKE JACKSON",TX,77566,,,CONTRACTOR,,,,,,,,,,,"BRAZOSPORT CREEKSIDE LLC",,,,,"BRAZOSPORT CREEKSIDE LLC","1008 MOCKINGBIRD LN",RICHWOOD,TX,77531-2237,"(979) 265-8663",,,,
TX,HARRIS,20081520,"Single Family Homes",9/16/2020,,182000,,"1414 CALLAKING",HOUSTON,TX,77008,,,CONTRACTOR,,,,,,,,,,,"ANNE'S PERMIT",,,,,"ANNE'S PERMIT","2617C W HOLCOMBE BLVD",HOUSTON,TX,77025,"(713) 666-2025",,,,
TX,HARRIS,20009058,"Single Family Homes",9/15/2020,,179000,,"2606 SPENCE",HOUSTON,TX,77093,,,CONTRACTOR,,,,,,,,,,,"C3 BUILDING SOLUTIONS",,,,,"C3 BUILDING SOLUTIONS","5535 MEMORIAL DRIVE",HOUSTON,TX,77007,"(713) 369-0925",http://www.c3buildingsolutions.com,,,
TX,HARRIS,20067591,"Single Family Homes",9/18/2020,,256608,,"1523 BAGGETT LN",HOUSTON,TX,77055,,,CONTRACTOR,,,,,,,,,,,"CITIQUEST PROPERTIES",,,,,"CITIQUEST PROPERTIES","2050 NORTH LOOP W STE 227",HOUSTON,TX,77018-8111,"(713) 581-6000",,"(713) 581-6001",,
TX,HARRIS,20041829,"Single Family Homes",9/17/2020,,185360,,"10905 FIRE CREEK",HOUSTON,TX,77043,,,CONTRACTOR,,,,,,,,,,,"CITIQUEST PROPERTIES",,,,,"CITIQUEST PROPERTIES","2050 NORTH LOOP W STE 227",HOUSTON,TX,77018-8111,"(713) 581-6000",,"(713) 581-6001",,
TX,HARRIS,20041828,"Single Family Homes",9/17/2020,,185360,,"10909 FIRE CREEK",HOUSTON,TX,77043,,,CONTRACTOR,,,,,,,,,,,"CITIQUEST PROPERTIES",,,,,"CITIQUEST PROPERTIES","2050 NORTH LOOP W STE 227",HOUSTON,TX,77018-8111,"(713) 581-6000",,"(713) 581-6001",,
TX,HARRIS,20041827,"Single Family Homes",9/17/2020,,185360,,"10913 FIRE CREEK",HOUSTON,TX,77043,,,CONTRACTOR,,,,,,,,,,,"CITIQUEST PROPERTIES",,,,,"CITIQUEST PROPERTIES","2050 NORTH LOOP W STE 227",HOUSTON,TX,77018-8111,"(713) 581-6000",,"(713) 581-6001",,
TX,HARRIS,20041826,"Single Family Homes",9/17/2020,,185360,,"10917 FIRE CREEK",HOUSTON,TX,77043,,,CONTRACTOR,,,,,,,,,,,"CITIQUEST PROPERTIES",,,,,"CITIQUEST PROPERTIES","2050 NORTH LOOP W STE 227",HOUSTON,TX,77018-8111,"(713) 581-6000",,"(713) 581-6001",,
TX,HARRIS,20041825,"Single Family Homes",9/17/2020,,185360,,"10921 FIRE CREEK",HOUSTON,TX,77043,,,CONTRACTOR,,,,,,,,,,,"CITIQUEST PROPERTIES",,,,,"CITIQUEST PROPERTIES","2050 NORTH LOOP W STE 227",HOUSTON,TX,77018-8111,"(713) 581-6000",,"(713) 581-6001",,
TX,HARRIS,20041824,"Single Family Homes",9/17/2020,,185360,,"10925 FIRE CREEK",HOUSTON,TX,77043,,,CONTRACTOR,,,,,,,,,,,"CITIQUEST PROPERTIES",,,,,"CITIQUEST PROPERTIES","2050 NORTH LOOP W STE 227",HOUSTON,TX,77018-8111,"(713) 581-6000",,"(713) 581-6001",,
TX,HARRIS,20041823,"Single Family Homes",9/17/2020,,164240,,"10929 FIRE CREEK",HOUSTON,TX,77043,,,CONTRACTOR,,,,,,,,,,,"CITIQUEST PROPERTIES",,,,,"CITIQUEST PROPERTIES","2050 NORTH LOOP W STE 227",HOUSTON,TX,77018-8111,"(713) 581-6000",,"(713) 581-6001",,
TX,HARRIS,20041822,"Single Family Homes",9/17/2020,,164240,,"10933 FIRE CREEK",HOUSTON,TX,77043,,,CONTRACTOR,,,,,,,,,,,"CITIQUEST PROPERTIES",,,,,"CITIQUEST PROPERTIES","2050 NORTH LOOP W STE 227",HOUSTON,TX,77018-8111,"(713) 581-6000",,"(713) 581-6001",,
TX,HARRIS,20041821,"Single Family Homes",9/17/2020,,164240,,"10937 FIRE CREEK",HOUSTON,TX,77043,,,CONTRACTOR,,,,,,,,,,,"CITIQUEST PROPERTIES",,,,,"CITIQUEST PROPERTIES","2050 NORTH LOOP W STE 227",HOUSTON,TX,77018-8111,"(713) 581-6000",,"(713) 581-6001",,
TX,HARRIS,20041820,"Single Family Homes",9/17/2020,,164240,,"10941 FIRE CREEK",HOUSTON,TX,77043,,,CONTRACTOR,,,,,,,,,,,"CITIQUEST PROPERTIES",,,,,"CITIQUEST PROPERTIES","2050 NORTH LOOP W STE 227",HOUSTON,TX,77018-8111,"(713) 581-6000",,"(713) 581-6001",,
TX,HARRIS,20041819,"Single Family Homes",9/17/2020,,164240,,"10945 FIRE CREEK",HOUSTON,TX,77043,,,CONTRACTOR,,,,,,,,,,,"CITIQUEST PROPERTIES",,,,,"CITIQUEST PROPERTIES","2050 NORTH LOOP W STE 227",HOUSTON,TX,77018-8111,"(713) 581-6000",,"(713) 581-6001",,
TX,HARRIS,20041818,"Single Family Homes",9/17/2020,,185360,,"10953 FIRE CREEK",HOUSTON,TX,77043,,,CONTRACTOR,,,,,,,,,,,"CITIQUEST PROPERTIES",,,,,"CITIQUEST PROPERTIES","2050 NORTH LOOP W STE 227",HOUSTON,TX,77018-8111,"(713) 581-6000",,"(713) 581-6001",,
TX,HARRIS,20041817,"Single Family Homes",9/17/2020,,185360,,"10957 FIRE CREEK",HOUSTON,TX,77043,,,CONTRACTOR,,,,,,,,,,,"CITIQUEST PROPERTIES",,,,,"CITIQUEST PROPERTIES","2050 NORTH LOOP W STE 227",HOUSTON,TX,77018-8111,"(713) 581-6000",,"(713) 581-6001",,
TX,HARRIS,20041816,"Single Family Homes",9/17/2020,,185360,,"10961 FIRE CREEK",HOUSTON,TX,77043,,,CONTRACTOR,,,,,,,,,,,"BC INVESTMENT",,,,,"BC INVESTMENT","11406 MEMORIAL DR",HOUSTON,TX,77024-7527,"(281) 818-5609",,,,
TX,HARRIS,20041815,"Single Family Homes",9/17/2020,,185360,,"10965 FIRE CREEK",HOUSTON,TX,77043,,,CONTRACTOR,,,,,,,,,,,"CITIQUEST PROPERTIES",,,,,"CITIQUEST PROPERTIES","2050 NORTH LOOP W STE 227",HOUSTON,TX,77018-8111,"(713) 581-6000",,"(713) 581-6001",,
TX,HARRIS,20074941,"Single Family Homes",9/18/2020,,138446,,"8526 DOSIA",HOUSTON,TX,77051,,,CONTRACTOR,,,,,,,,,,,"HOUSTON BUSINESS DEVELOPMENT",,,,,"HOUSTON BUSINESS DEVELOPMENT","5330 GRIGGS RD",HOUSTON,TX,77021-3700,"(713) 845-2400",http://www.hbdi.org,"(713) 645-2830",,info@hbdinc.org
TX,HARRIS,20079497,"Single Family Homes",9/16/2020,,149127,,"6414 WENLOCK",HOUSTON,TX,77048,,,CONTRACTOR,,,,,,,,,,,"COLINA HOMES",,,,,"COLINA HOMES","1314 N DURHAM DR",HOUSTON,TX,77008-3734,"(281) 528-9090",http://colinahomes.com/,,,postmaster@colinahomes.com
TX,HARRIS,20080579,"Single Family Homes",9/16/2020,,159893,,"13309 COLBY MEADOW",HOUSTON,TX,77048,,,CONTRACTOR,,,,,,,,,,,"COLINA HOMES",,,,,"COLINA HOMES","1314 N DURHAM DR",HOUSTON,TX,77008-3734,"(281) 528-9090",http://colinahomes.com/,,,postmaster@colinahomes.com
TX,HARRIS,20080598,"Single Family Homes",9/16/2020,,188827,,"13305 ARDERY MEADOW",HOUSTON,TX,77048,,,CONTRACTOR,,,,,,,,,,,"COLINA HOMES",,,,,"COLINA HOMES","1314 N DURHAM DR",HOUSTON,TX,77008-3734,"(281) 528-9090",http://colinahomes.com/,,,postmaster@colinahomes.com
TX,HARRIS,20080565,"Single Family Homes",9/16/2020,,188826,,"13322 COLBY MEADOW",HOUSTON,TX,77048,,,CONTRACTOR,,,,,,,,,,,"COLINA HOMES",,,,,"COLINA HOMES","1314 N DURHAM DR",HOUSTON,TX,77008-3734,"(281) 528-9090",http://colinahomes.com/,,,postmaster@colinahomes.com
TX,HARRIS,20080569,"Single Family Homes",9/16/2020,,188826,,"13317 ARDERY MEADOW",HOUSTON,TX,77048,,,CONTRACTOR,,,,,,,,,,,"COLINA HOMES",,,,,"COLINA HOMES","1314 N DURHAM DR",HOUSTON,TX,77008-3734,"(281) 528-9090",http://colinahomes.com/,,,postmaster@colinahomes.com
TX,HARRIS,20079642,"Single Family Homes",9/16/2020,,204219,,"14227 COUTURIE FOREST",HOUSTON,TX,77045,,,CONTRACTOR,,,,,,,,,,,"BRIGHTON HOMES & PARKWOOD",,,,,"BRIGHTON HOMES & PARKWOOD","13111 NORTHWEST FWY",HOUSTON,TX,77040-6318,"(713) 460-6279",,,,
TX,HARRIS,20080903,"Single Family Homes",9/16/2020,,194546,,"10735 NYLA SPRING",HOUSTON,TX,77016,,,CONTRACTOR,,,,,,,,,,,"BRIGHTON HOMES & PARKWOOD",,,,,"BRIGHTON HOMES & PARKWOOD","13111 NORTHWEST FWY",HOUSTON,TX,77040-6318,"(713) 460-6279",,,,
TX,HARRIS,20075955,"Single Family Homes",9/15/2020,,156024,,"10604 CENTRE GLADE",HOUSTON,TX,77043,,,CONTRACTOR,,,,,,,,,,,"BRIGHTON HOMES & PARKWOOD",,,,,"BRIGHTON HOMES & PARKWOOD","13111 NORTHWEST FWY",HOUSTON,TX,77040-6318,"(713) 460-6279",,,,
TX,HARRIS,20080491,"Single Family Homes",9/16/2020,,190761,,"10627 CENTRE GREEN",HOUSTON,TX,77043,,,CONTRACTOR,,,,,,,,,,,"BRIGHTON HOMES & PARKWOOD",,,,,"BRIGHTON HOMES & PARKWOOD","13111 NORTHWEST FWY",HOUSTON,TX,77040-6318,"(713) 460-6279",,,,
TX,HARRIS,20080412,"Single Family Homes",9/16/2020,,182350,,"2915 PALM OAKS",HOUSTON,TX,77045,,,CONTRACTOR,,,,,,,,,,,"BRIGHTON HOMES & PARKWOOD",,,,,"BRIGHTON HOMES & PARKWOOD","13111 NORTHWEST FWY",HOUSTON,TX,77040-6318,"(713) 460-6279",,,,
TX,HARRIS,20080166,"Single Family Homes",9/15/2020,,224574,,"2002 MILLBRIDGE SPRING",HOUSTON,TX,77051,,,CONTRACTOR,,,,,,,,,,,"BRIGHTON HOMES & PARKWOOD",,,,,"BRIGHTON HOMES & PARKWOOD","13111 NORTHWEST FWY",HOUSTON,TX,77040-6318,"(713) 460-6279",,,,
TX,HARRIS,20079189,"Single Family Homes",9/15/2020,,230125,,"12003 RIDGEWOOD HILL",HOUSTON,TX,77051,,,CONTRACTOR,,,,,,,,,,,"BRIGHTON HOMES & PARKWOOD",,,,,"BRIGHTON HOMES & PARKWOOD","13111 NORTHWEST FWY",HOUSTON,TX,77040-6318,"(713) 460-6279",,,,
TX,HARRIS,20078933,"Single Family Homes",9/16/2020,,190509,,"7619 TRAVIS PARK",HOUSTON,TX,77016,,,CONTRACTOR,,,,,,,,,,,"BRIGHTON HOMES & PARKWOOD",,,,,"BRIGHTON HOMES & PARKWOOD","13111 NORTHWEST FWY",HOUSTON,TX,77040-6318,"(713) 460-6279",,,,
TX,HARRIS,19129643,"Single Family Homes",9/18/2020,,230000,,"3116 COLUMBIA",HOUSTON,TX,77018,,,CONTRACTOR,,,,,,,,,,,"G&J CLEANING SERVICES",,,,,"G&J CLEANING SERVICES","18026 BAMBRIAR DR",HOUSTON,TX,77090,"(281) 781-8341",,,,
TX,HARRIS,20068142,"Single Family Homes",9/15/2020,,131000,,"8614 AMADWE",HOUSTON,TX,77051,,,CONTRACTOR,,,,,,,,,,,"CENSEO HOMES",,,,,"CENSEO HOMES","1800 AUGUSTA DR",HOUSTON,TX,77057-3149,"(281) 932-5303",,,,
TX,HARRIS,20080589,"Single Family Homes",9/16/2020,,149127,,"13311 ARDERY MEADOW",HOUSTON,TX,77048,,,CONTRACTOR,,,,,,,,,,,"COLINA HOMES",,,,,"COLINA HOMES","1314 N DURHAM DR",HOUSTON,TX,77008-3734,"(281) 528-9090",http://colinahomes.com/,,,postmaster@colinahomes.com
TX,HARRIS,20080571,"Single Family Homes",9/16/2020,,149127,,"13315 COLBY MEADOW",HOUSTON,TX,77048,,,CONTRACTOR,,,,,,,,,,,"COLINA HOMES",,,,,"COLINA HOMES","1314 N DURHAM DR",HOUSTON,TX,77008-3734,"(281) 528-9090",http://colinahomes.com/,,,postmaster@colinahomes.com
TX,HARRIS,20080663,"Single Family Homes",9/16/2020,,149127,,"13320 ARDERY MEADOW",HOUSTON,TX,77048,,,CONTRACTOR,,,,,,,,,,,"COLINA HOMES",,,,,"COLINA HOMES","1314 N DURHAM DR",HOUSTON,TX,77008-3734,"(281) 528-9090",http://colinahomes.com/,,,postmaster@colinahomes.com
TX,HARRIS,20079898,"Single Family Homes",9/16/2020,,149127,,"6422 WENLOCK",HOUSTON,TX,77048,,,CONTRACTOR,,,,,,,,,,,"COLINA HOMES",,,,,"COLINA HOMES","1314 N DURHAM DR",HOUSTON,TX,77008-3734,"(281) 528-9090",http://colinahomes.com/,,,postmaster@colinahomes.com
TX,HARRIS,20080577,"Single Family Homes",9/16/2020,,166286,,"13307 COLBY MEADOW",HOUSTON,TX,77048,,,CONTRACTOR,,,,,,,,,,,"COLINA HOMES",,,,,"COLINA HOMES","1314 N DURHAM DR",HOUSTON,TX,77008-3734,"(281) 528-9090",http://colinahomes.com/,,,postmaster@colinahomes.com
TX,HARRIS,20080574,"Single Family Homes",9/16/2020,,166286,,"13313 COLBY MEADOW",HOUSTON,TX,77048,,,CONTRACTOR,,,,,,,,,,,"COLINA HOMES",,,,,"COLINA HOMES","1314 N DURHAM DR",HOUSTON,TX,77008-3734,"(281) 528-9090",http://colinahomes.com/,,,postmaster@colinahomes.com
TX,HARRIS,20080562,"Single Family Homes",9/16/2020,,195555,,"13303 ARDERY MEADOW",HOUSTON,TX,77048,,,CONTRACTOR,,,,,,,,,,,"COLINA HOMES",,,,,"COLINA HOMES","1314 N DURHAM DR",HOUSTON,TX,77008-3734,"(281) 528-9090",http://colinahomes.com/,,,postmaster@colinahomes.com
TX,HARRIS,20080592,"Single Family Homes",9/16/2020,,195556,,"13322 ARDERY MEADOW",HOUSTON,TX,77048,,,CONTRACTOR,,,,,,,,,,,"COLINA HOMES",,,,,"COLINA HOMES","1314 N DURHAM DR",HOUSTON,TX,77008-3734,"(281) 528-9090",http://colinahomes.com/,,,postmaster@colinahomes.com
TX,HARRIS,20080564,"Single Family Homes",9/16/2020,,195555,,"13323 COLBY MEADOW",HOUSTON,TX,77048,,,CONTRACTOR,,,,,,,,,,,"COLINA HOMES",,,,,"COLINA HOMES","1314 N DURHAM DR",HOUSTON,TX,77008-3734,"(281) 528-9090",http://colinahomes.com/,,,postmaster@colinahomes.com
TX,HARRIS,20068913,"Single Family Homes",9/16/2020,,201527,,"13323 ARDERY MEADOW",HOUSTON,TX,77048,,,CONTRACTOR,,,,,,,,,,,"COLINA HOMES",,,,,"COLINA HOMES","1314 N DURHAM DR",HOUSTON,TX,77008-3734,"(281) 528-9090",http://colinahomes.com/,,,postmaster@colinahomes.com
TX,HARRIS,20079445,"Single Family Homes",9/16/2020,,201528,,"6420 WENLOCK",HOUSTON,TX,77048,,,CONTRACTOR,,,,,,,,,,,"COLINA HOMES",,,,,"COLINA HOMES","1314 N DURHAM DR",HOUSTON,TX,77008-3734,"(281) 528-9090",http://colinahomes.com/,,,postmaster@colinahomes.com
TX,HARRIS,20059230,"Single Family Homes",9/18/2020,,169990,,"2835 CHANCERY SUMMIT",HOUSTON,TX,77047,,,CONTRACTOR,,,,,,,,,,,"DR HORTON",,,,,"DR HORTON","14100 SOUTHWEST",HOUSTON,TX,77478,"(281) 201-5559",,,,
TX,HARRIS,20075622,"Single Family Homes",9/16/2020,,200990,,"12527 COLCHESTER CREEK",HOUSTON,TX,77047,,,CONTRACTOR,,,,,,,,,,,"DR HORTON",,,,,"DR HORTON","14100 SOUTHWEST",HOUSTON,TX,77478,"(281) 201-5559",,,,
TX,HARRIS,20057202,"Single Family Homes",9/18/2020,,195990,,"12616 FLEET RIVER",HOUSTON,TX,77047,,,CONTRACTOR,,,,,,,,,,,"DR HORTON",,,,,"DR HORTON","14100 SOUTHWEST",HOUSTON,TX,77478,"(281) 201-5559",,,,
TX,HARRIS,20075610,"Single Family Homes",9/16/2020,,225990,,"12522 COLCHESTER CREEK",HOUSTON,TX,77047,,,CONTRACTOR,,,,,,,,,,,"DR HORTON",,,,,"DR HORTON","14100 SOUTHWEST",HOUSTON,TX,77478,"(281) 201-5559",,,,
TX,HARRIS,20072471,"Single Family Homes",9/16/2020,,225990,,"12547 FLEET RIVER",HOUSTON,TX,77047,,,CONTRACTOR,,,,,,,,,,,"DR HORTON",,,,,"DR HORTON","14100 SOUTHWEST",HOUSTON,TX,77478,"(281) 201-5559",,,,
TX,HARRIS,20059255,"Single Family Homes",9/16/2020,,169990,,"2862 KENNET MANOR",HOUSTON,TX,77047,,,CONTRACTOR,,,,,,,,,,,"DR HORTON",,,,,"DR HORTON","14100 SOUTHWEST",HOUSTON,TX,77478,"(281) 201-5559",,,,
TX,HARRIS,20075614,"Single Family Homes",9/16/2020,,235990,,"12530 COLCHESTER CREEK",HOUSTON,TX,77047,,,CONTRACTOR,,,,,,,,,,,"DR HORTON",,,,,"DR HORTON","14100 SOUTHWEST",HOUSTON,TX,77478,"(281) 201-5559",,,,
TX,HARRIS,20075616,"Single Family Homes",9/16/2020,,219990,,"12534 COLCHESTER CREEK",HOUSTON,TX,77047,,,CONTRACTOR,,,,,,,,,,,"DR HORTON",,,,,"DR HORTON","14100 SOUTHWEST",HOUSTON,TX,77478,"(281) 201-5559",,,,
TX,HARRIS,20063227,"Single Family Homes",9/16/2020,,220990,,"2810 BETHNAL GARDEN",HOUSTON,TX,77047,,,CONTRACTOR,,,,,,,,,,,"DR HORTON",,,,,"DR HORTON","14100 SOUTHWEST",HOUSTON,TX,77478,"(281) 201-5559",,,,
TX,HARRIS,20072469,"Single Family Homes",9/16/2020,,220990,,"12539 FLEET RIVER",HOUSTON,TX,77047,,,CONTRACTOR,,,,,,,,,,,"DR HORTON",,,,,"DR HORTON","14100 SOUTHWEST",HOUSTON,TX,77478,"(281) 201-5559",,,,
TX,HARRIS,20020797,"Single Family Homes",9/16/2020,,220000,,"7207 ENGLAND",HOUSTON,TX,77021,,,"SANJAY DESAI","9193 WINKLER DR",HOUSTON,TX,77017-5091,"(832) 428-5460",Applicant,,,,,OWNER,,,,,OWNER,,,,,,,,,
TX,HARRIS,20079261,"Single Family Homes",9/16/2020,,385965,,"6514 WHARTON",HOUSTON,TX,77055,,,CONTRACTOR,,,,,,,,,,,"DISTINCTIVE LIVING",,,,,"DISTINCTIVE LIVING","113 EAST 4TH",HOUSTON,TX,77007,"(832) 461-5598",,,,
TX,HARRIS,20049869,"Single Family Homes",9/18/2020,,191939,,"6342 CULBERSON",HOUSTON,TX,77021,,,CONTRACTOR,,,,,,,,,,,"KERSI FALI ENGINEER",,,,,"KERSI FALI ENGINEER","9668 WESTHEIMER RD., # 200-707",HOUSTON,TX,77063,"(713) 553-5151",,,,
TX,HARRIS,20049863,"Single Family Homes",9/18/2020,,187734,,"6338 CULBERSON",HOUSTON,TX,77021,,,CONTRACTOR,,,,,,,,,,,"KERSI FALI ENGINEER",,,,,"KERSI FALI ENGINEER","9668 WESTHEIMER RD., # 200-707",HOUSTON,TX,77063,"(713) 553-5151",,,,
TX,HARRIS,20049861,"Single Family Homes",9/18/2020,,187734,,"6334 CULBERSON",HOUSTON,TX,77021,,,CONTRACTOR,,,,,,,,,,,"KERSI FALI ENGINEER",,,,,"KERSI FALI ENGINEER","9668 WESTHEIMER RD., # 200-707",HOUSTON,TX,77063,"(713) 553-5151",,,,
TX,HARRIS,20082309,"Single Family Homes",9/18/2020,,196990,,"10738 NATHANIEL VALLEY",HOUSTON,TX,77016,,,CONTRACTOR,,,,,,,,,,,"FIRST AMERICA HOMES",,,,,"FIRST AMERICA HOMES","1400 WOODLOCH FOREST DR STE 200","THE WOODLANDS",TX,77380-1179,"(713) 452-1700",http://www.firstamericahomes.com/,,,info@firstamericahomes.com
TX,HARRIS,20082307,"Single Family Homes",9/18/2020,,198990,,"7742 NEVAEH CREST",HOUSTON,TX,77016,,,CONTRACTOR,,,,,,,,,,,"FIRST AMERICA HOMES",,,,,"FIRST AMERICA HOMES","1400 WOODLOCH FOREST DR STE 200","THE WOODLANDS",TX,77380-1179,"(713) 452-1700",http://www.firstamericahomes.com/,,,info@firstamericahomes.com
TX,HARRIS,20049314,"Single Family Homes",9/16/2020,,275990,,"4416 SANTORINI ",HOUSTON,TX,77045,,,CONTRACTOR,,,,,,,,,,,"FIRST AMERICA HOMES",,,,,"FIRST AMERICA HOMES","1400 WOODLOCH FOREST DR STE 200","THE WOODLANDS",TX,77380-1179,"(713) 452-1700",http://www.firstamericahomes.com/,,,info@firstamericahomes.com
TX,HARRIS,20049867,"Single Family Homes",9/18/2020,,182855,,"6344 CULBERSON",HOUSTON,TX,77021,,,"CAMERON ARCHITECTS","1535 WEST LOOP SOUTH, SUITE 322",HOUSTON,TX,77027,"(713) 666-2185",Architect,,,,,OWNER,,,,,OWNER,,,,,,,,,
TX,HARRIS,20040773,"Single Family Homes",9/16/2020,,187680,,"2707 ROSALIE",HOUSTON,TX,77004,,,CONTRACTOR,,,,,,,,,,,METROLIVINGSTUDIO,,,,,METROLIVINGSTUDIO,"9610 LONG POINT RD SUITE 220",HOUSTON,TX,77068,"(832) 742-9572",,,,
TX,HARRIS,20040770,"Single Family Homes",9/16/2020,,187680,,"3011 NAGLE",HOUSTON,TX,77004,,,CONTRACTOR,,,,,,,,,,,METROLIVINGSTUDIO,,,,,METROLIVINGSTUDIO,"9610 LONG POINT RD SUITE 220",HOUSTON,TX,77068,"(832) 742-9572",,,,
TX,HARRIS,20076913,"Single Family Homes",9/16/2020,,91000,,"8117 SAINT LOUIS",HOUSTON,TX,77028,,,CONTRACTOR,,,,,,,,,,,"MOHR PARTNERS",,,,,"MOHR PARTNERS","14643 DALLAS PARKWAY, SUITE 1000",DALLAS,TX,75254,"(972) 239-0394",,,,
TX,HARRIS,20067795,"Single Family Homes",9/17/2020,,120000,,"8521 DOSIA",HOUSTON,TX,77051,,,CONTRACTOR,,,,,,,,,,,"MOHR PARTNERS",,,,,"MOHR PARTNERS","14643 DALLAS PARKWAY, SUITE 1000",DALLAS,TX,75254,"(972) 239-0394",,,,
TX,HARRIS,20057502,"Single Family Homes",9/18/2020,,70000,,"9943 VALLEY WIND",HOUSTON,TX,77078,,,CONTRACTOR,,,,,,,,,,,"MOHR PARTNERS",,,,,"MOHR PARTNERS","14643 DALLAS PARKWAY, SUITE 1000",DALLAS,TX,75254,"(972) 239-0394",,,,
TX,HARRIS,20059816,"Single Family Homes",9/17/2020,,263138,,"919 W 21ST",HOUSTON,TX,77008,,,CONTRACTOR,,,,,,,,,,,"JOHN MICHAEL HOMES",,,,,"JOHN MICHAEL HOMES","31 PENDLETON PARK",HOUSTON,TX,77382-1678,"(281) 917-3155",,,,
TX,HARRIS,20059818,"Single Family Homes",9/17/2020,,263138,,"921 W 21ST",HOUSTON,TX,77008,,,CONTRACTOR,,,,,,,,,,,"JOHN MICHAEL HOMES",,,,,"JOHN MICHAEL HOMES","31 PENDLETON PARK",HOUSTON,TX,77382-1678,"(281) 917-3155",,,,
TX,HARRIS,20047732,"Single Family Homes",9/18/2020,,137000,,"7962 JOY",HOUSTON,TX,77028,,,"MANUEL GUZMAN","11923 5 HT ST",HOUSTON,TX,77072,"(281) 850-1808",Applicant,,,,,OWNER,,,,,OWNER,,,,,,,,,
TX,HARRIS,20057280,"Single Family Homes",9/15/2020,,128268,,"6716 AVENUE",HOUSTON,TX,77011,,,CONTRACTOR,,,,,,,,,,,"HORIZON DEVELOPMENT",,,,,"HORIZON DEVELOPMENT","8562 KATY FWY",HOUSTON,TX,77024-1846,"(713) 783-1192",,,,tbuster@busterandcogdellbuilders.com
TX,HARRIS,20033990,"Single Family Homes",9/17/2020,,300000,,"619 W 26TH",HOUSTON,TX,77008,,,CONTRACTOR,,,,,,,,,,,"TITAN URBAN DEVELOPMENT",,,,,"TITAN URBAN DEVELOPMENT","7026 OLD KATY RD STE 231",HOUSTON,TX,77024-2139,"(832) 491-1725",,,,
TX,HARRIS,20076354,"Single Family Homes",9/15/2020,,356000,,"5914 VINEYARD CREEK",HOUSTON,TX,77365,,,CONTRACTOR,,,,,,,,,,,"LENNAR HOMES",,,,,"LENNAR HOMES","550 GREENS PKWY",HOUSTON,TX,77067-4537,"(281) 875-1000",http://www.lennar.com/,,,
TX,HARRIS,20080602,"Single Family Homes",9/16/2020,,167715,,"13321 ARDERY MEADOW",HOUSTON,TX,77048,,,CONTRACTOR,,,,,,,,,,,"LEXINGTON 26",,,,,"LEXINGTON 26","11102 FALCONWING DR",SPRING,TX,77381-4491,"(281) 719-8455",,,,
TX,HARRIS,20069647,"Single Family Homes",9/15/2020,,200000,,"3436 HADLEY",HOUSTON,TX,77004,,,CONTRACTOR,,,,,,,,,,,"LUIS MARTINEZ",,,,,"LUIS MARTINEZ","1015 RIDGEWAY DR",CONROE,TX,77303-1552,"(936) 537-3485",,,,
TX,HARRIS,20074433,"Single Family Homes",9/16/2020,,169797,,"4527 KEYSTONE",HOUSTON,TX,77021,,,CONTRACTOR,,,,,,,,,,,"MAYBERRY HOMES",,,,,"MAYBERRY HOMES","4412 ALMEDA RD",HOUSTON,TX,77004-4902,"(713) 523-8585",http://www.mayberryhomes.net,,,
TX,HARRIS,20078679,"Single Family Homes",9/18/2020,,201620,,"5402 CAMAGUEY",HOUSTON,TX,77023,,,CONTRACTOR,,,,,,,,,,,"MERITAGE HOMES",,,,,"MERITAGE HOMES","2901 W SAM HOUSTON PKWY N",HOUSTON,TX,77043-1630,"(713) 357-1184",,,,
TX,HARRIS,20079145,"Single Family Homes",9/18/2020,,176970,,"5507 CAMAGUEY",HOUSTON,TX,77023,,,CONTRACTOR,,,,,,,,,,,"MERITAGE HOMES",,,,,"MERITAGE HOMES","2901 W SAM HOUSTON PKWY N",HOUSTON,TX,77043-1630,"(713) 357-1184",,,,
TX,HARRIS,19117935,"Single Family Homes",9/16/2020,,161000,,"2009 TURKANA ",HOUSTON,TX,77055,,,CONTRACTOR,,,,,,,,,,,"IGNACIO PEREZ",,,,,"IGNACIO PEREZ","25511 BUDDE RD",HOUSTON,TX,77380,"(832) 491-4405",,,,
TX,HARRIS,19117933,"Single Family Homes",9/16/2020,,161000,,"2007 TURKANA",HOUSTON,TX,77055,,,CONTRACTOR,,,,,,,,,,,"IGNACIO PEREZ",,,,,"IGNACIO PEREZ","25511 BUDDE RD",HOUSTON,TX,77380,"(832) 491-4405",,,,
TX,HARRIS,19117920,"Single Family Homes",9/16/2020,,161000,,"7707 KIVU",HOUSTON,TX,77055,,,CONTRACTOR,,,,,,,,,,,"IGNACIO PEREZ",,,,,"IGNACIO PEREZ","25511 BUDDE RD",HOUSTON,TX,77380,"(832) 491-4405",,,,
TX,HARRIS,19117925,"Single Family Homes",9/16/2020,,161000,,"7709 KIVU",HOUSTON,TX,77055,,,CONTRACTOR,,,,,,,,,,,"IGNACIO PEREZ",,,,,"IGNACIO PEREZ","25511 BUDDE RD",HOUSTON,TX,77380,"(832) 491-4405",,,,
TX,HARRIS,19117928,"Single Family Homes",9/16/2020,,161000,,"7711 KIVU",HOUSTON,TX,77055,,,CONTRACTOR,,,,,,,,,,,"IGNACIO PEREZ",,,,,"IGNACIO PEREZ","25511 BUDDE RD",HOUSTON,TX,77380,"(832) 491-4405",,,,
TX,HARRIS,19143222,"Single Family Homes",9/16/2020,,166000,,"7713 KIVU",HOUSTON,TX,77055,,,CONTRACTOR,,,,,,,,,,,"IGNACIO PEREZ",,,,,"IGNACIO PEREZ","25511 BUDDE RD",HOUSTON,TX,77380,"(832) 491-4405",,,,
TX,HARRIS,20037295,"Single Family Homes",9/17/2020,,178484,,"8310 FLINTRIDGE",HOUSTON,TX,77028,,,CONTRACTOR,,,,,,,,,,,"BURGHLI HOMES",,,,,"BURGHLI HOMES","4615 NORTH FREEWAY",HOUSTON,TX,77022,"(713) 691-3948",http://burghlihomes.com/,,,
TX,HARRIS,20067222,"Single Family Homes",9/17/2020,,214030,,"6304 ILLINOIS",HOUSTON,TX,77021,,,CONTRACTOR,,,,,,,,,,,"CREATIVE DESIGN STUDIO",,,,,"CREATIVE DESIGN STUDIO","6520 RADCLIFFE ST",HOUSTON,TX,77091-2250,"(832) 646-2405",http://www.creativedesignstudiousa.com/,,,
TX,HARRIS,20067224,"Single Family Homes",9/17/2020,,204850,,"3414 DIXIE",HOUSTON,TX,77021,,,CONTRACTOR,,,,,,,,,,,"CREATIVE DESIGN STUDIO",,,,,"CREATIVE DESIGN STUDIO","6520 RADCLIFFE ST",HOUSTON,TX,77091-2250,"(832) 646-2405",http://www.creativedesignstudiousa.com/,,,
TX,HARRIS,20067225,"Single Family Homes",9/17/2020,,204850,,"3416 DIXIE",HOUSTON,TX,77021,,,CONTRACTOR,,,,,,,,,,,"CREATIVE DESIGN STUDIO",,,,,"CREATIVE DESIGN STUDIO","6520 RADCLIFFE ST",HOUSTON,TX,77091-2250,"(832) 646-2405",http://www.creativedesignstudiousa.com/,,,
TX,HARRIS,20067221,"Single Family Homes",9/17/2020,,214030,,"6308 ILLINOIS",HOUSTON,TX,77021,,,CONTRACTOR,,,,,,,,,,,"CREATIVE DESIGN STUDIO",,,,,"CREATIVE DESIGN STUDIO","6520 RADCLIFFE ST",HOUSTON,TX,77091-2250,"(832) 646-2405",http://www.creativedesignstudiousa.com/,,,
TX,HARRIS,20066664,"Single Family Homes",9/18/2020,,200990,,"7715 NEVAEH CREST",HOUSTON,TX,77016,,,CONTRACTOR,,,,,,,,,,,"SIGNORELLI HOMES",,,,,"SIGNORELLI HOMES","1400 WOODLOCK FOREST",HOUSTON,TX,77380,"(713) 476-8772",http://www.signorellihomes.com/,,,
TX,HARRIS,17124159,"Single Family Homes",9/17/2020,,190000,,"2320 LUCAS",HOUSTON,TX,77026,,,CONTRACTOR,,,,,,,,,,,"URBAN MERIDIAN GROUP",,,,,"URBAN MERIDIAN GROUP","4808 GIBSON ST",HOUSTON,TX,77007-5480,"(713) 869-4815",http://urbanmeridian.com,,,justin@urbanmeridian.com
TX,HARRIS,19127333,"Single Family Homes",9/15/2020,,231471,,"3305 TIMBERGROVE OAKS",HOUSTON,TX,77008,,,CONTRACTOR,,,,,,,,,,,"INTOWN HOMES",,,,,"INTOWN HOMES","1520 OLIVER ST",HOUSTON,TX,77007,"(713) 961-3877",http://www.intown-homes.com/,,,
TX,HARRIS,19127332,"Single Family Homes",9/15/2020,,184201,,"3307 TIMBERGROVE OAKS",HOUSTON,TX,77008,,,CONTRACTOR,,,,,,,,,,,"INTOWN HOMES",,,,,"INTOWN HOMES","1520 OLIVER ST",HOUSTON,TX,77007,"(713) 961-3877",http://www.intown-homes.com/,,,
TX,HARRIS,19127331,"Single Family Homes",9/15/2020,,254601,,"3309 TIMBERGROVE OAKS",HOUSTON,TX,77008,,,CONTRACTOR,,,,,,,,,,,"INTOWN HOMES",,,,,"INTOWN HOMES","1520 OLIVER ST",HOUSTON,TX,77007,"(713) 961-3877",http://www.intown-homes.com/,,,
TX,HARRIS,20037167,"Single Family Homes",9/15/2020,,169961,,"105 W WHITNEY ST",HOUSTON,TX,77018,,,CONTRACTOR,,,,,,,,,,,"XCEL HOMES",,,,,"XCEL HOMES","1311 RAINTREE CIR",HOUSTON,TX,77479,"(832) 298-6167",https://xcel-homes.com/,,,info@xcel-homes.com
TX,HARRIS,20037160,"Single Family Homes",9/15/2020,,169961,,"107 W WHITNEY ST",HOUSTON,TX,77018,,,CONTRACTOR,,,,,,,,,,,"XCEL HOMES",,,,,"XCEL HOMES","1311 RAINTREE CIR",HOUSTON,TX,77479,"(832) 298-6167",https://xcel-homes.com/,,,info@xcel-homes.com
TX,HARRIS,18132885,"Single Family Homes",9/17/2020,,226424,,"4005 UNIVERSITY GROVE",HOUSTON,TX,77023,,,CONTRACTOR,,,,,,,,,,,"INTOWN HOMES",,,,,"INTOWN HOMES","1520 OLIVER ST",HOUSTON,TX,77007,"(713) 961-3877",http://www.intown-homes.com/,,,
TX,HARRIS,20062401,"Single Family Homes",9/17/2020,,246947,,"4007 UNIVERSITY GROVE",HOUSTON,TX,77023,,,CONTRACTOR,,,,,,,,,,,"INTOWN HOMES",,,,,"INTOWN HOMES","1520 OLIVER ST",HOUSTON,TX,77007,"(713) 961-3877",http://www.intown-homes.com/,,,
TX,HARRIS,20080552,"Single Family Homes",9/18/2020,,209990,,"10203 CLEARTIDE",HOUSTON,TX,77034,,,CONTRACTOR,,,,,,,,,,,"MARIA VARGAS",,,,,"MARIA VARGAS","1311 BROADFIELD BLVD",HOUSTON,TX,77084-5186,"(281) 529-9127",,,,
TX,HARRIS,20069066,"Single Family Homes",9/18/2020,,317515,,"13735 NUBENBROOK LAKE",HOUSTON,TX,77044,,,CONTRACTOR,,,,,,,,,,,"WESTIN HOMES",,,,,"WESTIN HOMES","1 SUGAR CREEK CENTER BLVD STE 600","SUGAR LAND",TX,77478-3787,"(281) 240-1551",http://www.westin-homes.com,,,
TX,HARRIS,20014793,"Single Family Homes",9/16/2020,,117502,,"5214 CARMEN",HOUSTON,TX,77033,,,CONTRACTOR,,,,,,,,,,,"WILLIAMS HEATHER",,,,,"WILLIAMS HEATHER","14215 MARY",HOUSTON,TX,77006,"(832) 929-7736",,,,
TX,HARRIS,20070119,"Single Family Homes",9/18/2020,,172000,,"709 CARRIAGE KNOLLS",HOUSTON,TX,77008,,,CONTRACTOR,,,,,,,,,,,"CITY CHOICE GROUP",,,,,"CITY CHOICE GROUP","1314 ROY ST",HOUSTON,TX,77007-3343,"(713) 681-5858",http://citychoicehomes.com,,,
TX,HARRIS,20070120,"Single Family Homes",9/18/2020,,182000,,"711 CARRIAGE KNOLLS",HOUSTON,TX,77008,,,CONTRACTOR,,,,,,,,,,,"CITY CHOICE GROUP",,,,,"CITY CHOICE GROUP","1314 ROY ST",HOUSTON,TX,77007-3343,"(713) 681-5858",http://citychoicehomes.com,,,
TX,HARRIS,20070121,"Single Family Homes",9/18/2020,,166000,,"713 CARRIAGE KNOLLS",HOUSTON,TX,77008,,,CONTRACTOR,,,,,,,,,,,"CITY CHOICE GROUP",,,,,"CITY CHOICE GROUP","1314 ROY ST",HOUSTON,TX,77007-3343,"(713) 681-5858",http://citychoicehomes.com,,,
TX,HARRIS,20060314,"Single Family Homes",9/16/2020,,174000,,"6303 PADDINGTON BEND",HOUSTON,TX,77008,,,CONTRACTOR,,,,,,,,,,,"CITY CHOICE GROUP",,,,,"CITY CHOICE GROUP","1314 ROY ST",HOUSTON,TX,77007-3343,"(713) 681-5858",http://citychoicehomes.com,,,
TX,HARRIS,20060315,"Single Family Homes",9/16/2020,,178000,,"6305 PADDINGTON BEND",HOUSTON,TX,77008,,,CONTRACTOR,,,,,,,,,,,"CITY CHOICE GROUP",,,,,"CITY CHOICE GROUP","1314 ROY ST",HOUSTON,TX,77007-3343,"(713) 681-5858",http://citychoicehomes.com,,,
TX,HARRIS,20060319,"Single Family Homes",9/16/2020,,170000,,"6321 PADDINGTON BEND",HOUSTON,TX,77008,,,CONTRACTOR,,,,,,,,,,,"CITY CHOICE GROUP",,,,,"CITY CHOICE GROUP","1314 ROY ST",HOUSTON,TX,77007-3343,"(713) 681-5858",http://citychoicehomes.com,,,
TX,HARRIS,20060320,"Single Family Homes",9/16/2020,,188000,,"6323 PADDINGTON BEND",HOUSTON,TX,77008,,,CONTRACTOR,,,,,,,,,,,"CITY CHOICE GROUP",,,,,"CITY CHOICE GROUP","1314 ROY ST",HOUSTON,TX,77007-3343,"(713) 681-5858",http://citychoicehomes.com,,,
TX,HARRIS,20060321,"Single Family Homes",9/16/2020,,172000,,"6325 PADDINGTON BEND",HOUSTON,TX,77008,,,CONTRACTOR,,,,,,,,,,,"CITY CHOICE GROUP",,,,,"CITY CHOICE GROUP","1314 ROY ST",HOUSTON,TX,77007-3343,"(713) 681-5858",http://citychoicehomes.com,,,
TX,HARRIS,20019685,"Single Family Homes",9/17/2020,,160000,,"5162 WICKVIEW",HOUSTON,TX,77053,,,"COVARRUBIAS FRANCISCO","5162 WICKVIEW",HOUSTON,TX,77053,,Owner,,,,,"LANDA REMODELING",,,,,"LANDA REMODELING","6520 WHITTON DR",HOUSTON,TX,77085-4130,"(832) 397-0164",,,,
TX,HARRIS,19127257,"Single Family Homes",9/17/2020,,100000,,"15272 CHIPMAN",HOUSTON,TX,77060,,,"DIAZ LUIS","15272 CHIPMAN",HOUSTON,TX,77060,"(832) 270-7393",Owner,,,,,OWNER,,,,,OWNER,,,,,,,,,
TX,HARRIS,20073626,"Single Family Homes",9/16/2020,,523000,,"2201 BRANARD",HOUSTON,TX,77098,,,"DUNN JOHN","2201 BRANARD",HOUSTON,TX,77098,,Owner,,,,,"MATT POWERS CUSTOM HOMES",,,,,"MATT POWERS CUSTOM HOMES","2450 FONDREN RD STE 111",HOUSTON,TX,77063-2314,"(713) 787-6709",http://www.mattpowerscustomhomes.com,"(713) 787-6719",,info@mattpowerscustomhomes.com
TX,HARRIS,20045256,"Single Family Homes",9/16/2020,,97000,,"4815 SCHURMIER",HOUSTON,TX,77048,,,"GILMORE TALENA","4815 SCHURMIER",HOUSTON,TX,77048,,Owner,,,,,"JW TURNER CONSTRUCTION",,,,,"JW TURNER CONSTRUCTION","14215 MARY JANE LN",TOMBALL,TX,77377-6356,"(281) 290-9011",,,,
TX,HARRIS,20063233,"Single Family Homes",9/17/2020,,137186,,"10906 SOUTHVIEW",HOUSTON,TX,77047,,,"GOFF FAITH","10906 SOUTHVIEW",HOUSTON,TX,77047,,Owner,,,,,"J PARLE CONSTRUCTION",,,,,"J PARLE CONSTRUCTION","8111 CICADA DR","MISSOURI CITY",TX,77459,"(832) 731-3030",,,,
TX,HARRIS,19079219,"Single Family Homes",9/16/2020,,183080,,"9443 CONGER",HOUSTON,TX,77075,,,"GOMEZ CARLOS","9443 CONGER",HOUSTON,TX,77075,,Owner,,,,,"GVS CONSTRUCTION",,,,,"GVS CONSTRUCTION","12508 STONEY CREEK",HOUSTON,TX,77584,"(832) 274-1588",,,,
TX,HARRIS,20054959,"Single Family Homes",9/17/2020,,1009305,,"3003 VIRGINIA",HOUSTON,TX,77098,,,"JUNG CALVIN","3003 VIRGINIA",HOUSTON,TX,77098,,Owner,,,,,"DESIGNFAB CONSTRUCTION",,,,,"DESIGNFAB CONSTRUCTION","611 TIMBER TERRACE RD",HOUSTON,TX,77024-3422,"(713) 410-4986",,,"RUSSELL HRUSKA",russell.hruska@designfabconstruction.com
TX,HARRIS,20076408,"Single Family Homes",9/17/2020,,190100,,"108 N CAROLINA",HOUSTON,TX,77029,,,"LAMBARRIA ERIKA","108 N CAROLINA",HOUSTON,TX,77029,,Owner,,,,,"THE BOSS CONSTRUCTION COMPANY",,,,,"THE BOSS CONSTRUCTION COMPANY","702 BROADWAY ST.",HOUSTON,TX,77012,"(281) 808-0704",,,,
TX,HARRIS,20035329,"Single Family Homes",9/17/2020,,120000,,"4524 STANFORD",HOUSTON,TX,77041,,,"LE VAN","4524 STANFORD",HOUSTON,TX,77041,,Owner,,,,,"NB CONTRACTORS",,,,,"NB CONTRACTORS","5029 TALINA WAY",HOUSTON,TX,77041,"(281) 850-5018",,,,
TX,HARRIS,19146014,"Single Family Homes",9/17/2020,,600000,,"4003 PORTSMOUTH",HOUSTON,TX,77027,,,"MC2 ARCHITECTS & CONSTRUCTION","5600 ROSE ST,",HOUSTON,TX,77007,"(713) 802-2305",Architect,,,,,OWNER,,,,,OWNER,,,,,,,,,
TX,HARRIS,20062138,"Single Family Homes",9/17/2020,,158700,,"7925 TOWER",HOUSTON,TX,77088,,,"RIDEAUX  FREDRICK","7925 TOWER",HOUSTON,TX,77088,,Owner,,,,,OWNER,,,,,OWNER,,,,,,,,,
TX,HARRIS,20037210,"Single Family Homes",9/17/2020,,178484,,"7008 FAIRWAY",HOUSTON,TX,77087,,,"RUIZ MIGUEL MARIA","7008 FAIRWAY",HOUSTON,TX,77087,,Owner,,,,,"BURGHLI HOMES",,,,,"BURGHLI HOMES","4615 NORTH FREEWAY",HOUSTON,TX,77022,"(713) 691-3948",http://burghlihomes.com/,,,
TX,HARRIS,20036246,"Single Family Homes",9/16/2020,,92000,,"8045 PARKER",HOUSTON,TX,77078,,,"SANCHEZ DAVID","8045 PARKER",HOUSTON,TX,77078,,Owner,,,,,"PEREZ ANGEL",,,,,"PEREZ ANGEL","22402 INDIAN RIDGE DR DR UNIT",HOUSTON,TX,77450,"(713) 269-5949",,,,
TX,HARRIS,20075234,"Single Family Homes",9/17/2020,,207000,,"6639 HOFFMAN",HOUSTON,TX,77028,,,"ANTIGUA GT INVESTMENTS","201 VANDERPOOL",HOUSTON,TX,77024,"(832) 630-7000",Applicant,,,,,OWNER,,,,,OWNER,,,,,,,,,
TX,HARRIS,20056396,"Single Family Homes",9/18/2020,,97600,,"2705 CRESTON",HOUSTON,TX,77026,,,"SERRANO JOSE","2705 CRESTON",HOUSTON,TX,77026,,Owner,,,,,"OC PLANS & PERMITS",,,,,"OC PLANS & PERMITS","4022 BYTRAIL COURT",HUMBLE,TX,77346,"(281) 570-7270",,,,
TX,HARRIS,20023347,"Single Family Homes",9/17/2020,,123550,,"4814 ENGLEWOOD",HOUSTON,TX,77026,,,SULLIVAN,"4814 ENGLEWOOD",HOUSTON,TX,77026,,Owner,,,,,"YBARRA DYLAN",,,,,"YBARRA DYLAN","1311 RAINTREE CIR",HOUSTON,TX,77479,"(409) 515-9237",,,,
TX,HARRIS,19100151,"Single Family Homes",9/20/2020,,135000,,"3411 BUCK",HOUSTON,TX,77020,,,"VEGA KIMBERLY","3411 BUCK",HOUSTON,TX,77020,"(832) 896-0823",Owner,,,,,OWNER,,,,,OWNER,,,,,,,,,
TX,MONTGOMERY,174908-20,"Single Family Homes",8/6/2020,,250000,,"12580 SAGITTARIUS EAST",HOUSTON,TX,77356,"POINT AQUARIUS",,CONTRACTOR,,,,,,,,,,,"ARCHER CLASSIC HOMES",,,,,"ARCHER CLASSIC HOMES","7927 WOODED WAY DR",SPRING,TX,77389-4162,"(713) 516-2939",https://archerclassichomes.com/,,,
TX,MONTGOMERY,174934-20,"Single Family Homes",8/7/2020,,75000,,"14951 COLT LN",HOUSTON,TX,77356,"FRONTIER LAKES",,CONTRACTOR,,,,,,,,,,,"ASGI HOMES",,,,,"ASGI HOMES","2257 N LOOP 336 W STE 140-370",CONROE,TX,77304-3566,"(888) 991-0005",http://www.asgihomes.com,,,
TX,MONTGOMERY,174935-20,"Single Family Homes",8/7/2020,,75000,,"14943 COLT LN",HOUSTON,TX,77356,"FRONTIER LAKES",,CONTRACTOR,,,,,,,,,,,"ASGI HOMES",,,,,"ASGI HOMES","2257 N LOOP 336 W STE 140-370",CONROE,TX,77304-3566,"(888) 991-0005",http://www.asgihomes.com,,,
TX,MONTGOMERY,174936-20,"Single Family Homes",8/7/2020,,75000,,"3300 FRONTIER ROAD",HOUSTON,TX,77356,"FRONTIER LAKES",,CONTRACTOR,,,,,,,,,,,"ASGI HOMES",,,,,"ASGI HOMES","2257 N LOOP 336 W STE 140-370",CONROE,TX,77304-3566,"(888) 991-0005",http://www.asgihomes.com,,,
TX,MONTGOMERY,174739-20,"Single Family Homes",8/3/2020,,62145,,"25226 SANITAS VALLEY DR",HOUSTON,TX,77356,"BROOKLYN TRAILS",,CONTRACTOR,,,,,,,,,,,"CAMILLO PROPERTIES",,,,,"CAMILLO PROPERTIES","6707 GESSNER RD",HOUSTON,TX,77040-4017,"(832) 500-0284",http://www.camillorentalhomes.com/,"(281) 325-0245",,
TX,MONTGOMERY,174740-20,"Single Family Homes",8/3/2020,,91755,,"25211 SANITAS VALLEY DR",HOUSTON,TX,77356,"BROOKLYN TRAILS",,CONTRACTOR,,,,,,,,,,,"CAMILLO PROPERTIES",,,,,"CAMILLO PROPERTIES","6707 GESSNER RD",HOUSTON,TX,77040-4017,"(832) 500-0284",http://www.camillorentalhomes.com/,"(281) 325-0245",,
TX,MONTGOMERY,174741-20,"Single Family Homes",8/3/2020,,62145,,"25215 SANITAS VALLEY DR",HOUSTON,TX,77356,"BROOKLYN TRAILS",,CONTRACTOR,,,,,,,,,,,"CAMILLO PROPERTIES",,,,,"CAMILLO PROPERTIES","6707 GESSNER RD",HOUSTON,TX,77040-4017,"(832) 500-0284",http://www.camillorentalhomes.com/,"(281) 325-0245",,
TX,MONTGOMERY,174742-20,"Single Family Homes",8/3/2020,,84150,,"25230 SANITAS VALLEY DR",HOUSTON,TX,77070,"BROOKLYN TRAILS",,CONTRACTOR,,,,,,,,,,,"CAMILLO PROPERTIES",,,,,"CAMILLO PROPERTIES","6707 GESSNER RD",HOUSTON,TX,77040-4017,"(832) 500-0284",http://www.camillorentalhomes.com/,"(281) 325-0245",,
TX,MONTGOMERY,174743-20,"Single Family Homes",8/3/2020,,55755,,"25219 SANITAS VALLEY DR",HOUSTON,TX,77356,"BROOKLYN TRAILS",,CONTRACTOR,,,,,,,,,,,"CAMILLO PROPERTIES",,,,,"CAMILLO PROPERTIES","6707 GESSNER RD",HOUSTON,TX,77040-4017,"(832) 500-0284",http://www.camillorentalhomes.com/,"(281) 325-0245",,
TX,MONTGOMERY,174744-20,"Single Family Homes",8/3/2020,,55755,,"25234 SANITAS VALLEY DR",HOUSTON,TX,77356,"BROOKLYN TRAILS",,CONTRACTOR,,,,,,,,,,,"CAMILLO PROPERTIES",,,,,"CAMILLO PROPERTIES","6707 GESSNER RD",HOUSTON,TX,77040-4017,"(832) 500-0284",http://www.camillorentalhomes.com/,"(281) 325-0245",,
TX,MONTGOMERY,174745-20,"Single Family Homes",8/3/2020,,79965,,"25223 SANITAS VALLEY DR",HOUSTON,TX,77356,"BROOKLYN TRAILS",,CONTRACTOR,,,,,,,,,,,"CAMILLO PROPERTIES",,,,,"CAMILLO PROPERTIES","6707 GESSNER RD",HOUSTON,TX,77040-4017,"(832) 500-0284",http://www.camillorentalhomes.com/,"(281) 325-0245",,
TX,MONTGOMERY,174746-20,"Single Family Homes",8/3/2020,,58815,,"25227 SANITAS VALLEY DR",HOUSTON,TX,77356,"BROOKLYN TRAILS",,CONTRACTOR,,,,,,,,,,,"CAMILLO PROPERTIES",,,,,"CAMILLO PROPERTIES","6707 GESSNER RD",HOUSTON,TX,77040-4017,"(832) 500-0284",http://www.camillorentalhomes.com/,"(281) 325-0245",,
TX,MONTGOMERY,174747-20,"Single Family Homes",8/3/2020,,79965,,"25238 SANITAS VALLEY DR",HOUSTON,TX,77356,"BROOKLYN TRAILS",,CONTRACTOR,,,,,,,,,,,"CAMILLO PROPERTIES",,,,,"CAMILLO PROPERTIES","6707 GESSNER RD",HOUSTON,TX,77040-4017,"(832) 500-0284",http://www.camillorentalhomes.com/,"(281) 325-0245",,
TX,MONTGOMERY,174748-20,"Single Family Homes",8/3/2020,,58815,,"25242 SANITAS VALLEY DR",HOUSTON,TX,77356,"BROOKLYN TRAILS",,CONTRACTOR,,,,,,,,,,,"CAMILLO PROPERTIES",,,,,"CAMILLO PROPERTIES","6707 GESSNER RD",HOUSTON,TX,77040-4017,"(832) 500-0284",http://www.camillorentalhomes.com/,"(281) 325-0245",,
TX,MONTGOMERY,"174757- 20","Single Family Homes",8/3/2020,,55755,,"25210 SANITAS VALLEY DR",HOUSTON,TX,77356,"BROOKLYN TRAILS",,CONTRACTOR,,,,,,,,,,,"CAMILLO PROPERTIES",,,,,"CAMILLO PROPERTIES","6707 GESSNER RD",HOUSTON,TX,77040-4017,"(832) 500-0284",http://www.camillorentalhomes.com/,"(281) 325-0245",,
TX,MONTGOMERY,174758-20,"Single Family Homes",8/3/2020,,64125,,"25206 SANITAS VALLEY DR",HOUSTON,TX,77356,"BROOKLYN TRAILS",,CONTRACTOR,,,,,,,,,,,"CAMILLO PROPERTIES",,,,,"CAMILLO PROPERTIES","6707 GESSNER RD",HOUSTON,TX,77040-4017,"(832) 500-0284",http://www.camillorentalhomes.com/,"(281) 325-0245",,
TX,MONTGOMERY,174759-20,"Single Family Homes",8/3/2020,,71505,,"25214 SANITAS VALLEY DR",HOUSTON,TX,77356,"BROOKLYN TRAILS",,CONTRACTOR,,,,,,,,,,,"CAMILLO PROPERTIES",,,,,"CAMILLO PROPERTIES","6707 GESSNER RD",HOUSTON,TX,77040-4017,"(832) 500-0284",http://www.camillorentalhomes.com/,"(281) 325-0245",,
TX,MONTGOMERY,174760-20,"Single Family Homes",8/3/2020,,58815,,"25218 SANITAS VALLEY DR",HOUSTON,TX,77356,"BROOKLYN TRAILS",,CONTRACTOR,,,,,,,,,,,"CAMILLO PROPERTIES",,,,,"CAMILLO PROPERTIES","6707 GESSNER RD",HOUSTON,TX,77040-4017,"(832) 500-0284",http://www.camillorentalhomes.com/,"(281) 325-0245",,
TX,MONTGOMERY,174761-20,"Single Family Homes",8/3/2020,,63615,,"25202 SANITAS VALLEY DR",HOUSTON,TX,77356,"BROOKLYN TRAILS",,CONTRACTOR,,,,,,,,,,,"CAMILLO PROPERTIES",,,,,"CAMILLO PROPERTIES","6707 GESSNER RD",HOUSTON,TX,77040-4017,"(832) 500-0284",http://www.camillorentalhomes.com/,"(281) 325-0245",,
TX,MONTGOMERY,174762-20,"Single Family Homes",8/3/2020,,58815,,"22055 CASCADED MOUNTAIN DR",HOUSTON,TX,77356,"BROOLYN TRAILS",,CONTRACTOR,,,,,,,,,,,"CAMILLO PROPERTIES",,,,,"CAMILLO PROPERTIES","6707 GESSNER RD",HOUSTON,TX,77040-4017,"(832) 500-0284",http://www.camillorentalhomes.com/,"(281) 325-0245",,
TX,MONTGOMERY,174763-20,"Single Family Homes",8/3/2020,,91755,,"25258 SANITAS VALLEY DR",HOUSTON,TX,77356,"BROOKLYN TRAILS",,CONTRACTOR,,,,,,,,,,,"CAMILLO PROPERTIES",,,,,"CAMILLO PROPERTIES","6707 GESSNER RD",HOUSTON,TX,77040-4017,"(832) 500-0284",http://www.camillorentalhomes.com/,"(281) 325-0245",,
TX,MONTGOMERY,174764-20,"Single Family Homes",8/3/2020,,62145,,"25239 SANITAS VALLEY DR",HOUSTON,TX,77356,"BROOKLYN TRAILS",,CONTRACTOR,,,,,,,,,,,"CAMILLO PROPERTIES",,,,,"CAMILLO PROPERTIES","6707 GESSNER RD",HOUSTON,TX,77040-4017,"(832) 500-0284",http://www.camillorentalhomes.com/,"(281) 325-0245",,
TX,MONTGOMERY,174765-20,"Single Family Homes",8/3/2020,,75915,,"25203 SANITAS VALLEY DR",HOUSTON,TX,77356,"BROOKLYN TRAILS",,CONTRACTOR,,,,,,,,,,,"CAMILLO PROPERTIES",,,,,"CAMILLO PROPERTIES","6707 GESSNER RD",HOUSTON,TX,77040-4017,"(832) 500-0284",http://www.camillorentalhomes.com/,"(281) 325-0245",,
TX,MONTGOMERY,174768-20,"Single Family Homes",8/3/2020,,91755,,"25222 SANITAS VALLEY DR",HOUSTON,TX,77356,"BROOKLYN TRAILS",,CONTRACTOR,,,,,,,,,,,"CAMILLO PROPERTIES",,,,,"CAMILLO PROPERTIES","6707 GESSNER RD",HOUSTON,TX,77040-4017,"(832) 500-0284",http://www.camillorentalhomes.com/,"(281) 325-0245",,
TX,MONTGOMERY,174773-20,"Single Family Homes",8/4/2020,,62145,,"22087 CASCADE MOUNTAIN DR",HOUSTON,TX,77356,"BROOKLYN TRAILS",,CONTRACTOR,,,,,,,,,,,"CAMILLO PROPERTIES",,,,,"CAMILLO PROPERTIES","6707 GESSNER RD",HOUSTON,TX,77040-4017,"(832) 500-0284",http://www.camillorentalhomes.com/,"(281) 325-0245",,
TX,MONTGOMERY,174774-20,"Single Family Homes",8/4/2020,,58815,,"22091 CASCADE MOUNTAIN DR",HOUSTON,TX,77356,"BROOKLYN TRAILS",,CONTRACTOR,,,,,,,,,,,"CAMILLO PROPERTIES",,,,,"CAMILLO PROPERTIES","6707 GESSNER RD",HOUSTON,TX,77040-4017,"(832) 500-0284",http://www.camillorentalhomes.com/,"(281) 325-0245",,
TX,MONTGOMERY,174775-20,"Single Family Homes",8/4/2020,,55755,,"22095 CASCADE MOUNTAIN DR",HOUSTON,TX,77356,"BROOKLYN TRAILS",,CONTRACTOR,,,,,,,,,,,"CAMILLO PROPERTIES",,,,,"CAMILLO PROPERTIES","6707 GESSNER RD",HOUSTON,TX,77040-4017,"(832) 500-0284",http://www.camillorentalhomes.com/,"(281) 325-0245",,
TX,MONTGOMERY,174776-20,"Single Family Homes",8/4/2020,,58815,,"22071 CASCADE MOUNTAIN DR",HOUSTON,TX,77356,"BROOKLYN TRAILS",,CONTRACTOR,,,,,,,,,,,"CAMILLO PROPERTIES",,,,,"CAMILLO PROPERTIES","6707 GESSNER RD",HOUSTON,TX,77040-4017,"(832) 500-0284",http://www.camillorentalhomes.com/,"(281) 325-0245",,
TX,MONTGOMERY,174777-20,"Single Family Homes",8/4/2020,,55755,,"22079 CASCADE MOUNTAIN DR",HOUSTON,TX,77356,"BROOKLYN TRAILS",,CONTRACTOR,,,,,,,,,,,"CAMILLO PROPERTIES",,,,,"CAMILLO PROPERTIES","6707 GESSNER RD",HOUSTON,TX,77040-4017,"(832) 500-0284",http://www.camillorentalhomes.com/,"(281) 325-0245",,
TX,MONTGOMERY,174778-20,"Single Family Homes",8/4/2020,,91755,,"22366 PORTER MOUNTAIN TR",HOUSTON,TX,77356,"BROOKLYN TRAILS",,CONTRACTOR,,,,,,,,,,,"CAMILLO PROPERTIES",,,,,"CAMILLO PROPERTIES","6707 GESSNER RD",HOUSTON,TX,77040-4017,"(832) 500-0284",http://www.camillorentalhomes.com/,"(281) 325-0245",,
TX,MONTGOMERY,174779-20,"Single Family Homes",8/4/2020,,71505,,"22083 CASCADE VALLEY DR",HOUSTON,TX,77356,"BROOKLYN TRAILS",,CONTRACTOR,,,,,,,,,,,"CAMILLO PROPERTIES",,,,,"CAMILLO PROPERTIES","6707 GESSNER RD",HOUSTON,TX,77040-4017,"(832) 500-0284",http://www.camillorentalhomes.com/,"(281) 325-0245",,
TX,MONTGOMERY,174780-20,"Single Family Homes",8/4/2020,,55755,,"22063 CASCADE MOUTAIN DR",HOUSTON,TX,77356,"BROOKLYN TRAILS",,CONTRACTOR,,,,,,,,,,,"CAMILLO PROPERTIES",,,,,"CAMILLO PROPERTIES","6707 GESSNER RD",HOUSTON,TX,77040-4017,"(832) 500-0284",http://www.camillorentalhomes.com/,"(281) 325-0245",,
TX,MONTGOMERY,174781-20,"Single Family Homes",8/4/2020,,62145,,"25246 SANITAS VALLEY DR",HOUSTON,TX,77356,"BROOKLYN TRAILS",,CONTRACTOR,,,,,,,,,,,"CAMILLO PROPERTIES",,,,,"CAMILLO PROPERTIES","6707 GESSNER RD",HOUSTON,TX,77040-4017,"(832) 500-0284",http://www.camillorentalhomes.com/,"(281) 325-0245",,
TX,MONTGOMERY,174783-20,"Single Family Homes",8/4/2020,,71505,,"25250 SANITAS VALLEY DR",HOUSTON,TX,77356,"BROOKLYN TRAILS",,CONTRACTOR,,,,,,,,,,,"CAMILLO PROPERTIES",,,,,"CAMILLO PROPERTIES","6707 GESSNER RD",HOUSTON,TX,77040-4017,"(832) 500-0284",http://www.camillorentalhomes.com/,"(281) 325-0245",,
TX,MONTGOMERY,174784-20,"Single Family Homes",8/4/2020,,101115,,"22099 CASCADE MOUNTAIN DR",HOUSTON,TX,77356,"BROOKLYN TRAILS",,CONTRACTOR,,,,,,,,,,,"CAMILLO PROPERTIES",,,,,"CAMILLO PROPERTIES","6707 GESSNER RD",HOUSTON,TX,77040-4017,"(832) 500-0284",http://www.camillorentalhomes.com/,"(281) 325-0245",,
TX,MONTGOMERY,174785-20,"Single Family Homes",8/4/2020,,62145,,"25259 SANITAS VALLEY DR",HOUSTON,TX,77356,"BROOKLYN TRAILS",,CONTRACTOR,,,,,,,,,,,"CAMILLO PROPERTIES",,,,,"CAMILLO PROPERTIES","6707 GESSNER RD",HOUSTON,TX,77040-4017,"(832) 500-0284",http://www.camillorentalhomes.com/,"(281) 325-0245",,
TX,MONTGOMERY,"174787- 20","Single Family Homes",8/4/2020,,63315,,"22075 CASCADE MOUNTAIN DR",HOUSTON,TX,77536,"BROOKLYN TRAILS",,CONTRACTOR,,,,,,,,,,,"CAMILLO PROPERTIES",,,,,"CAMILLO PROPERTIES","6707 GESSNER RD",HOUSTON,TX,77040-4017,"(832) 500-0284",http://www.camillorentalhomes.com/,"(281) 325-0245",,
TX,MONTGOMERY,174788-20,"Single Family Homes",8/4/2020,,71505,,"25231 SANITAS VALLEY DR",HOUSTON,TX,77356,"BROOKLYN TRAILS",,CONTRACTOR,,,,,,,,,,,"CAMILLO PROPERTIES",,,,,"CAMILLO PROPERTIES","6707 GESSNER RD",HOUSTON,TX,77040-4017,"(832) 500-0284",http://www.camillorentalhomes.com/,"(281) 325-0245",,
TX,MONTGOMERY,174789-20,"Single Family Homes",8/4/2020,,62145,,"22067 CASCADE MOUNTAIN DR",HOUSTON,TX,77356,"BROOKLYN TRAILS",,CONTRACTOR,,,,,,,,,,,"CAMILLO PROPERTIES",,,,,"CAMILLO PROPERTIES","6707 GESSNER RD",HOUSTON,TX,77040-4017,"(832) 500-0284",http://www.camillorentalhomes.com/,"(281) 325-0245",,
TX,MONTGOMERY,174790-20,"Single Family Homes",8/4/2020,,84150,,"25255 SANITAS VALLEY DR",HOUSTON,TX,77356,"BROOKLYN TRAILS",,CONTRACTOR,,,,,,,,,,,"CAMILLO PROPERTIES",,,,,"CAMILLO PROPERTIES","6707 GESSNER RD",HOUSTON,TX,77040-4017,"(832) 500-0284",http://www.camillorentalhomes.com/,"(281) 325-0245",,
TX,MONTGOMERY,174791-20,"Single Family Homes",8/4/2020,,55755,,"25243 SANITAS VALLEY DR",HOUSTON,TX,77356,"BROOKLYN TRAILS",,CONTRACTOR,,,,,,,,,,,"CAMILLO PROPERTIES",,,,,"CAMILLO PROPERTIES","6707 GESSNER RD",HOUSTON,TX,77040-4017,"(832) 500-0284",http://www.camillorentalhomes.com/,"(281) 325-0245",,
TX,MONTGOMERY,174792-20,"Single Family Homes",8/4/2020,,64125,,"25247 SANITAS VALLEY DR",HOUSTON,TX,77356,"BROOKLYN TRAILS",,CONTRACTOR,,,,,,,,,,,"CAMILLO PROPERTIES",,,,,"CAMILLO PROPERTIES","6707 GESSNER RD",HOUSTON,TX,77040-4017,"(832) 500-0284",http://www.camillorentalhomes.com/,"(281) 325-0245",,
TX,MONTGOMERY,174794-20,"Single Family Homes",8/4/2020,,58815,,"25251 SANITAS VALLEY DR",HOUSTON,TX,77356,"BROOKLYN TRAILS",,CONTRACTOR,,,,,,,,,,,"CAMILLO PROPERTIES",,,,,"CAMILLO PROPERTIES","6707 GESSNER RD",HOUSTON,TX,77040-4017,"(832) 500-0284",http://www.camillorentalhomes.com/,"(281) 325-0245",,
TX,MONTGOMERY,174795-20,"Single Family Homes",8/4/2020,,91755,,"25235 SANITAS VALLEY DR",HOUSTON,TX,77356,"BROOKLYN TRAILS",,CONTRACTOR,,,,,,,,,,,"CAMILLO PROPERTIES",,,,,"CAMILLO PROPERTIES","6707 GESSNER RD",HOUSTON,TX,77040-4017,"(832) 500-0284",http://www.camillorentalhomes.com/,"(281) 325-0245",,
TX,MONTGOMERY,174797-20,"Single Family Homes",8/4/2020,,55755,,"25254 SANITAS VALLEY DR",HOUSTON,TX,77356,"BROOKLYN TRAILS",,CONTRACTOR,,,,,,,,,,,"CAMILLO PROPERTIES",,,,,"CAMILLO PROPERTIES","6707 GESSNER RD",HOUSTON,TX,77040-4017,"(832) 500-0284",http://www.camillorentalhomes.com/,"(281) 325-0245",,
TX,MONTGOMERY,174798-20,"Single Family Homes",8/4/2020,,75915,,"22059 CASCADE MOUNTAIN DR",HOUSTON,TX,77356,"BROOKLYN TRAILS",,CONTRACTOR,,,,,,,,,,,"CAMILLO PROPERTIES",,,,,"CAMILLO PROPERTIES","6707 GESSNER RD",HOUSTON,TX,77040-4017,"(832) 500-0284",http://www.camillorentalhomes.com/,"(281) 325-0245",,
TX,MONTGOMERY,174723-20,"Single Family Homes",8/3/2020,,179270,,"2426 HARMONY VALLEY LN",HOUSTON,TX,77356,"SOLSTICE AT HARMONY",,CONTRACTOR,,,,,,,,,,,"CASTLEROCK COMMUNITIES",,,,,"CASTLEROCK COMMUNITIES","7670 WOODWAY DR STE 300",HOUSTON,TX,77063-1520,"(713) 600-7000",http://c-rock.com,"(713) 600-0000",,
TX,MONTGOMERY,174750-20,"Single Family Homes",8/3/2020,,121657,,"336 NORTH SPOTTED FERN DR",HOUSTON,TX,77356,WOODFOREST,,CONTRACTOR,,,,,,,,,,,"CHESMAR HOMES",,,,,"CHESMAR HOMES","450 GEARS RD STE 400",HOUSTON,TX,77067-4513,"(281) 598-1111",http://chesmar.com,"(281) 598-1115",,customerservice.houston@chesmar.com
TX,MONTGOMERY,174751-20,"Single Family Homes",8/3/2020,,122317,,"320 NORTH SPOTTED FERN DR",HOUSTON,TX,77356,WOODFOREST,,CONTRACTOR,,,,,,,,,,,"CHESMAR HOMES",,,,,"CHESMAR HOMES","450 GEARS RD STE 400",HOUSTON,TX,77067-4513,"(281) 598-1111",http://chesmar.com,"(281) 598-1115",,customerservice.houston@chesmar.com
TX,MONTGOMERY,174752-20,"Single Family Homes",8/3/2020,,127917,,"324 NORTH SPOTTED FERN DR",HOUSTON,TX,77356,WOODFOREST,,CONTRACTOR,,,,,,,,,,,"CHESMAR HOMES",,,,,"CHESMAR HOMES","450 GEARS RD STE 400",HOUSTON,TX,77067-4513,"(281) 598-1111",http://chesmar.com,"(281) 598-1115",,customerservice.houston@chesmar.com
TX,MONTGOMERY,174754-20,"Single Family Homes",8/3/2020,,121657,,"340 NORTH SPOTTED FERN DR",HOUSTON,TX,77356,WOODFOREST,,CONTRACTOR,,,,,,,,,,,"CHESMAR HOMES",,,,,"CHESMAR HOMES","450 GEARS RD STE 400",HOUSTON,TX,77067-4513,"(281) 598-1111",http://chesmar.com,"(281) 598-1115",,customerservice.houston@chesmar.com
TX,MONTGOMERY,174998-20,"Single Family Homes",8/7/2020,,125338,,"8009 WHISPER GROVE DR",HOUSTON,TX,77356,NORTHGROVE,,CONTRACTOR,,,,,,,,,,,"CHESMAR HOMES",,,,,"CHESMAR HOMES","450 GEARS RD STE 400",HOUSTON,TX,77067-4513,"(281) 598-1111",http://chesmar.com,"(281) 598-1115",,customerservice.houston@chesmar.com
TX,MONTGOMERY,174999-20,"Single Family Homes",8/7/2020,,158334,,"332 NORTH SPOTTED FERN",HOUSTON,TX,77356,WOODFOREST,,CONTRACTOR,,,,,,,,,,,"CHESMAR HOMES",,,,,"CHESMAR HOMES","450 GEARS RD STE 400",HOUSTON,TX,77067-4513,"(281) 598-1111",http://chesmar.com,"(281) 598-1115",,customerservice.houston@chesmar.com
TX,MONTGOMERY,174819-20,"Single Family Homes",8/4/2020,,70000,,"9600 PIONEER TRACE DR",HOUSTON,TX,77356,"PIONEER RIDGE",,"MARIANA CHIBLI ","2477 FM 1488 APT 236",CONROE,TX,77384,,Owner,,,,,OWNER,,,,,OWNER,,,,,,,,,
TX,MONTGOMERY,174755-20,"Single Family Homes",8/3/2020,,443200,,"11721 GRAND VIEW DR",HOUSTON,TX,77356,"GRAND HARBOR",,"DILLON CONLEY ","PO BOX 273",CONROE,TX,77305,,Owner,,,,,OWNER,,,,,OWNER,,,,,,,,,
TX,MONTGOMERY,174854-20,"Single Family Homes",8/5/2020,,119565,,"9505 MOUNTAIN MAPLE PLACE",HOUSTON,TX,77356,"HARPER'S PRESERVE",,CONTRACTOR,,,,,,,,,,,"DR HORTON",,,,,"DR HORTON","14100 SOUTHWEST",HOUSTON,TX,77478,"(281) 201-5559",,,,
TX,MONTGOMERY,174855-20,"Single Family Homes",8/5/2020,,120000,,"9513 MOUNTAIN MAPLE PLACE",HOUSTON,TX,77356,"HARPER'S PRESERVE",,CONTRACTOR,,,,,,,,,,,"DR HORTON",,,,,"DR HORTON","14100 SOUTHWEST",HOUSTON,TX,77478,"(281) 201-5559",,,,
TX,MONTGOMERY,174939-20,"Single Family Homes",8/7/2020,,123525,,"14120 EMORY PEAK CT",HOUSTON,TX,77356,"FOSTERS RIDGE",,CONTRACTOR,,,,,,,,,,,"DR HORTON",,,,,"DR HORTON","14100 SOUTHWEST",HOUSTON,TX,77478,"(281) 201-5559",,,,
TX,MONTGOMERY,174941-20,"Single Family Homes",8/7/2020,,142245,,"13997 LEIGH LAKE LN",HOUSTON,TX,77356,"FOSTERS RIDGE",,CONTRACTOR,,,,,,,,,,,"DR HORTON",,,,,"DR HORTON","14100 SOUTHWEST",HOUSTON,TX,77478,"(281) 201-5559",,,,
TX,MONTGOMERY,174942-20,"Single Family Homes",8/7/2020,,151560,,"13993 LEIGH LAKE LN",HOUSTON,TX,77356,"FOSTERS RIDGE",,CONTRACTOR,,,,,,,,,,,"DR HORTON",,,,,"DR HORTON","14100 SOUTHWEST",HOUSTON,TX,77478,"(281) 201-5559",,,,
TX,MONTGOMERY,174944-20,"Single Family Homes",8/7/2020,,122535,,"13989 LEIGH LAKE LN",HOUSTON,TX,77356,"FOSTERS RIDGE",,CONTRACTOR,,,,,,,,,,,"DR HORTON",,,,,"DR HORTON","14100 SOUTHWEST",HOUSTON,TX,77478,"(281) 201-5559",,,,
TX,MONTGOMERY,174945-20,"Single Family Homes",8/7/2020,,118440,,"14132 EMORY PEAK CT",HOUSTON,TX,77356,"FOSTERS RIDGE",,CONTRACTOR,,,,,,,,,,,"DR HORTON",,,,,"DR HORTON","14100 SOUTHWEST",HOUSTON,TX,77478,"(281) 201-5559",,,,
TX,MONTGOMERY,174946-20,"Single Family Homes",8/7/2020,,130500,,"14124 EMORY PEAK CT",HOUSTON,TX,77356,"FOSTERS RIDGE",,CONTRACTOR,,,,,,,,,,,"DR HORTON",,,,,"DR HORTON","14100 SOUTHWEST",HOUSTON,TX,77478,"(281) 201-5559",,,,
TX,MONTGOMERY,174948-20,"Single Family Homes",8/7/2020,,122715,,"14116 EMORY PEAK CT",HOUSTON,TX,77356,"FOSTERS RIDGE",,CONTRACTOR,,,,,,,,,,,"DR HORTON",,,,,"DR HORTON","14100 SOUTHWEST",HOUSTON,TX,77478,"(281) 201-5559",,,,
TX,MONTGOMERY,174949-20,"Single Family Homes",8/7/2020,,133110,,"14112 EMORY PEAK CT",HOUSTON,TX,77356,"FOSTERS RIDGE",,CONTRACTOR,,,,,,,,,,,"DR HORTON",,,,,"DR HORTON","14100 SOUTHWEST",HOUSTON,TX,77478,"(281) 201-5559",,,,
TX,MONTGOMERY,174951-20,"Single Family Homes",8/7/2020,,103050,,"13876 ROCK ISLAND TR",HOUSTON,TX,77356,"FOSTERS RIDGE",,CONTRACTOR,,,,,,,,,,,"DR HORTON",,,,,"DR HORTON","14100 SOUTHWEST",HOUSTON,TX,77478,"(281) 201-5559",,,,
TX,MONTGOMERY,174952-20,"Single Family Homes",8/7/2020,,147690,,"14107 TOWER PEAK CT",HOUSTON,TX,77356,"FOSTERS RIDGE",,CONTRACTOR,,,,,,,,,,,"DR HORTON",,,,,"DR HORTON","14100 SOUTHWEST",HOUSTON,TX,77478,"(281) 201-5559",,,,
TX,MONTGOMERY,174953-20,"Single Family Homes",8/7/2020,,147690,,"14103 TOWER PEAK CT",HOUSTON,TX,77356,"FOSTERS RIDGE",,CONTRACTOR,,,,,,,,,,,"DR HORTON",,,,,"DR HORTON","14100 SOUTHWEST",HOUSTON,TX,77478,"(281) 201-5559",,,,
TX,MONTGOMERY,174954-20,"Single Family Homes",8/7/2020,,171360,,"14237 CASTOLON CT",HOUSTON,TX,77356,"FOSTERS RIDGE",,CONTRACTOR,,,,,,,,,,,"DR HORTON",,,,,"DR HORTON","14100 SOUTHWEST",HOUSTON,TX,77478,"(281) 201-5559",,,,
TX,MONTGOMERY,174955-20,"Single Family Homes",8/7/2020,,146565,,"14233 CASTOLON CT",HOUSTON,TX,77356,"FOSTERS RIDGE",,CONTRACTOR,,,,,,,,,,,"DR HORTON",,,,,"DR HORTON","14100 SOUTHWEST",HOUSTON,TX,77478,"(281) 201-5559",,,,
TX,MONTGOMERY,174956-20,"Single Family Homes",8/7/2020,,179865,,"14229 CASTOLON CT",HOUSTON,TX,77356,"FOSTERS RIDGE",,CONTRACTOR,,,,,,,,,,,"DR HORTON",,,,,"DR HORTON","14100 SOUTHWEST",HOUSTON,TX,77478,"(281) 201-5559",,,,
TX,MONTGOMERY,174957-20,"Single Family Homes",8/7/2020,,160830,,"14226 CASTOLON CT",HOUSTON,TX,77356,"FOSTERS RIDGE",,CONTRACTOR,,,,,,,,,,,"DR HORTON",,,,,"DR HORTON","14100 SOUTHWEST",HOUSTON,TX,77478,"(281) 201-5559",,,,
TX,MONTGOMERY,174958-20,"Single Family Homes",8/7/2020,,147690,,"14222 CASTOLON CT",HOUSTON,TX,77356,"FOSTERS RIDGE",,CONTRACTOR,,,,,,,,,,,"DR HORTON",,,,,"DR HORTON","14100 SOUTHWEST",HOUSTON,TX,77478,"(281) 201-5559",,,,
TX,MONTGOMERY,174959-20,"Single Family Homes",8/7/2020,,158265,,"14218 CASTOLON CT",HOUSTON,TX,77356,"FOSTERS RIDGE",,CONTRACTOR,,,,,,,,,,,"DR HORTON",,,,,"DR HORTON","14100 SOUTHWEST",HOUSTON,TX,77478,"(281) 201-5559",,,,
TX,MONTGOMERY,174960-20,"Single Family Homes",8/7/2020,,171360,,"14214 CASTOLON CT",HOUSTON,TX,77356,"FOSTERS RIDGE",,CONTRACTOR,,,,,,,,,,,"DR HORTON",,,,,"DR HORTON","14100 SOUTHWEST",HOUSTON,TX,77478,"(281) 201-5559",,,,
TX,MONTGOMERY,174961-20,"Single Family Homes",8/7/2020,,179865,,"14210 CASTOLON CT",HOUSTON,TX,77356,"FOSTERS RIDGE",,CONTRACTOR,,,,,,,,,,,"DR HORTON",,,,,"DR HORTON","14100 SOUTHWEST",HOUSTON,TX,77478,"(281) 201-5559",,,,
TX,MONTGOMERY,174962-20,"Single Family Homes",8/7/2020,,160830,,"14206 CASTOLON CT",HOUSTON,TX,77356,"FOSTERS RIDGE",,CONTRACTOR,,,,,,,,,,,"DR HORTON",,,,,"DR HORTON","14100 SOUTHWEST",HOUSTON,TX,77478,"(281) 201-5559",,,,
TX,MONTGOMERY,174963-20,"Single Family Homes",8/7/2020,,147690,,"14202 CASTOLON CT",HOUSTON,TX,77356,"FOSTERS RIDGE",,CONTRACTOR,,,,,,,,,,,"DR HORTON",,,,,"DR HORTON","14100 SOUTHWEST",HOUSTON,TX,77478,"(281) 201-5559",,,,
TX,MONTGOMERY,174964-20,"Single Family Homes",8/7/2020,,112545,,"13996 LEIGH LAKE LN",HOUSTON,TX,77356,"FOSTERS RIDGE",,CONTRACTOR,,,,,,,,,,,"DR HORTON",,,,,"DR HORTON","14100 SOUTHWEST",HOUSTON,TX,77478,"(281) 201-5559",,,,
TX,MONTGOMERY,174965-20,"Single Family Homes",8/7/2020,,123930,,"13992 LEIGH I,AKE LN",HOUSTON,TX,77356,"FOSTERS RIDGE",,CONTRACTOR,,,,,,,,,,,"DR HORTON",,,,,"DR HORTON","14100 SOUTHWEST",HOUSTON,TX,77478,"(281) 201-5559",,,,
TX,MONTGOMERY,174966-20,"Single Family Homes",8/7/2020,,103050,,"13988 LEIGH LAKE LN",HOUSTON,TX,77356,"FOSTERS RIDGE",,CONTRACTOR,,,,,,,,,,,"DR HORTON",,,,,"DR HORTON","14100 SOUTHWEST",HOUSTON,TX,77478,"(281) 201-5559",,,,
TX,MONTGOMERY,174967-20,"Single Family Homes",8/7/2020,,95130,,"13985 LEIGH LAKE LN",HOUSTON,TX,77356,"FOSTERS RIDGE",,CONTRACTOR,,,,,,,,,,,"DR HORTON",,,,,"DR HORTON","14100 SOUTHWEST",HOUSTON,TX,77478,"(281) 201-5559",,,,
TX,MONTGOMERY,174968-20,"Single Family Homes",8/7/2020,,107460,,"13984 LEIGH LAKE LN",HOUSTON,TX,77356,"FOSTERS RIDGE",,CONTRACTOR,,,,,,,,,,,"DR HORTON",,,,,"DR HORTON","14100 SOUTHWEST",HOUSTON,TX,77478,"(281) 201-5559",,,,
TX,MONTGOMERY,174969-20,"Single Family Homes",8/7/2020,,112545,,"13981 LEIGH LAKE LN",HOUSTON,TX,77356,"FOSTERS RIDGE",,CONTRACTOR,,,,,,,,,,,"DR HORTON",,,,,"DR HORTON","14100 SOUTHWEST",HOUSTON,TX,77478,"(281) 201-5559",,,,
TX,MONTGOMERY,174971-20,"Single Family Homes",8/7/2020,,103050,,"13977 LEIGH LAKE LN",HOUSTON,TX,77356,"FOSTERS RIDGE",,CONTRACTOR,,,,,,,,,,,"DR HORTON",,,,,"DR HORTON","14100 SOUTHWEST",HOUSTON,TX,77478,"(281) 201-5559",,,,
TX,MONTGOMERY,174972-20,"Single Family Homes",8/7/2020,,107460,,"13973 LEIGH LAKE LN",HOUSTON,TX,77356,"FOSTERS RIDGE",,CONTRACTOR,,,,,,,,,,,"DR HORTON",,,,,"DR HORTON","14100 SOUTHWEST",HOUSTON,TX,77478,"(281) 201-5559",,,,
TX,MONTGOMERY,174973-20,"Single Family Homes",8/7/2020,,133695,,"13967 LEIGH LAKE LN",HOUSTON,TX,77356,"FOSTERS RIDGE",,CONTRACTOR,,,,,,,,,,,"DR HORTON",,,,,"DR HORTON","14100 SOUTHWEST",HOUSTON,TX,77478,"(281) 201-5559",,,,
TX,MONTGOMERY,174974-20,"Single Family Homes",8/7/2020,,123930,,"13963 LEIGH LAKE LN",HOUSTON,TX,77356,"FOSTERS RIDGE",,CONTRACTOR,,,,,,,,,,,"DR HORTON",,,,,"DR HORTON","14100 SOUTHWEST",HOUSTON,TX,77478,"(281) 201-5559",,,,
TX,MONTGOMERY,174975-20,"Single Family Homes",8/7/2020,,112545,,"13959 LEIGH LAKE LN",HOUSTON,TX,77356,"FOSTERS RIDGE",,CONTRACTOR,,,,,,,,,,,"DR HORTON",,,,,"DR HORTON","14100 SOUTHWEST",HOUSTON,TX,77478,"(281) 201-5559",,,,
TX,MONTGOMERY,174976-20,"Single Family Homes",8/7/2020,,122535,,"13955 LEIGH LAKE LN",HOUSTON,TX,77356,"FOSTERS RIDGE",,CONTRACTOR,,,,,,,,,,,"DR HORTON",,,,,"DR HORTON","14100 SOUTHWEST",HOUSTON,TX,77478,"(281) 201-5559",,,,
TX,MONTGOMERY,174977-20,"Single Family Homes",8/7/2020,,151560,,"13951 LEIGH LAKE LN",HOUSTON,TX,77356,"FOSTERS RIDGE",,CONTRACTOR,,,,,,,,,,,"DR HORTON",,,,,"DR HORTON","14100 SOUTHWEST",HOUSTON,TX,77478,"(281) 201-5559",,,,
TX,MONTGOMERY,174899-20,"Single Family Homes",8/6/2020,,241533,,"3846 CHAPMAN BLUFF DR",HOUSTON,TX,77356,"ALLEGRO AT HARMONY",,CONTRACTOR,,,,,,,,,,,"DARLING HOMES",,,,,"DARLING HOMES","10255 RICHMOND AVE STE 150",HOUSTON,TX,77042-4382,"(713) 690-6902",http://www.darlinghomes.com/,,,
TX,MONTGOMERY,174900-20,"Single Family Homes",8/6/2020,,241533,,"28027 RAMONES DR",HOUSTON,TX,77356,"ALLEGRO AT HARMONY",,CONTRACTOR,,,,,,,,,,,"DARLING HOMES",,,,,"DARLING HOMES","10255 RICHMOND AVE STE 150",HOUSTON,TX,77042-4382,"(713) 690-6902",http://www.darlinghomes.com/,,,
TX,MONTGOMERY,174902-20,"Single Family Homes",8/6/2020,,241533,,"28002 WITHERS DR",HOUSTON,TX,77356,"ALLEGRO AT HARMONY",,CONTRACTOR,,,,,,,,,,,"DARLING HOMES",,,,,"DARLING HOMES","10255 RICHMOND AVE STE 150",HOUSTON,TX,77042-4382,"(713) 690-6902",http://www.darlinghomes.com/,,,
TX,MONTGOMERY,174903-20,"Single Family Homes",8/6/2020,,241533,,"28032 LENNON LN",HOUSTON,TX,77356,"ALLEGRO AT HARMONY",,CONTRACTOR,,,,,,,,,,,"DARLING HOMES",,,,,"DARLING HOMES","10255 RICHMOND AVE STE 150",HOUSTON,TX,77042-4382,"(713) 690-6902",http://www.darlinghomes.com/,,,
TX,MONTGOMERY,174904-20,"Single Family Homes",8/6/2020,,241533,,"28023 RAMONES DR",HOUSTON,TX,77356,"ALLEGRO AT HARMONY",,CONTRACTOR,,,,,,,,,,,"DARLING HOMES",,,,,"DARLING HOMES","10255 RICHMOND AVE STE 150",HOUSTON,TX,77042-4382,"(713) 690-6902",http://www.darlinghomes.com/,,,
TX,MONTGOMERY,174905-20,"Single Family Homes",8/6/2020,,241533,,"28035 LENNON LN",HOUSTON,TX,77356,"ALLEGRO AT HARMONY",,CONTRACTOR,,,,,,,,,,,"DARLING HOMES",,,,,"DARLING HOMES","10255 RICHMOND AVE STE 150",HOUSTON,TX,77042-4382,"(713) 690-6902",http://www.darlinghomes.com/,,,
TX,MONTGOMERY,174906-20,"Single Family Homes",8/6/2020,,241533,,"28026 RAMONES DR",HOUSTON,TX,77356,"ALLEGRO AT HARMONY",,CONTRACTOR,,,,,,,,,,,"DARLING HOMES",,,,,"DARLING HOMES","10255 RICHMOND AVE STE 150",HOUSTON,TX,77042-4382,"(713) 690-6902",http://www.darlinghomes.com/,,,
TX,MONTGOMERY,174907-20,"Single Family Homes",8/6/2020,,272588,,"40 VUE COVE DR",HOUSTON,TX,77356,"LAKE WOODLANDS EAST SHORE",,CONTRACTOR,,,,,,,,,,,"DARLING HOMES",,,,,"DARLING HOMES","10255 RICHMOND AVE STE 150",HOUSTON,TX,77042-4382,"(713) 690-6902",http://www.darlinghomes.com/,,,
TX,MONTGOMERY,174909-20,"Single Family Homes",8/6/2020,,272588,,"123 VUE POINT PLACE",HOUSTON,TX,77356,"VILLAGE OF GROGANS MILL",,CONTRACTOR,,,,,,,,,,,"DARLING HOMES",,,,,"DARLING HOMES","10255 RICHMOND AVE STE 150",HOUSTON,TX,77042-4382,"(713) 690-6902",http://www.darlinghomes.com/,,,
TX,MONTGOMERY,174782-20,"Single Family Homes",8/4/2020,,306990,,"6445 ROLLING HILLS ROAD",HOUSTON,TX,77356,"DEER TRAIL ESTATES",,CONTRACTOR,,,,,,,,,,,"FIRST AMERICA HOMES",,,,,"FIRST AMERICA HOMES","1400 WOODLOCH FOREST DR STE 200","THE WOODLANDS",TX,77380-1179,"(713) 452-1700",http://www.firstamericahomes.com/,,,info@firstamericahomes.com
TX,MONTGOMERY,174801-20,"Single Family Homes",8/4/2020,,192990,,"13938 KATLIN ROAD",HOUSTON,TX,77356,"WAUKEGAN WAY",,CONTRACTOR,,,,,,,,,,,"FIRST AMERICA HOMES",,,,,"FIRST AMERICA HOMES","1400 WOODLOCH FOREST DR STE 200","THE WOODLANDS",TX,77380-1179,"(713) 452-1700",http://www.firstamericahomes.com/,,,info@firstamericahomes.com
TX,MONTGOMERY,174802-20,"Single Family Homes",8/4/2020,,212990,,"13986 KATLIN ROAD",HOUSTON,TX,77356,"WAUKEGAN WAY",,CONTRACTOR,,,,,,,,,,,"FIRST AMERICA HOMES",,,,,"FIRST AMERICA HOMES","1400 WOODLOCH FOREST DR STE 200","THE WOODLANDS",TX,77380-1179,"(713) 452-1700",http://www.firstamericahomes.com/,,,info@firstamericahomes.com
TX,MONTGOMERY,174980-20,"Single Family Homes",8/7/2020,,280990,,"6232 ROLLING HILLS RD",HOUSTON,TX,77356,,,CONTRACTOR,,,,,,,,,,,"FIRST AMERICA HOMES",,,,,"FIRST AMERICA HOMES","1400 WOODLOCH FOREST DR STE 200","THE WOODLANDS",TX,77380-1179,"(713) 452-1700",http://www.firstamericahomes.com/,,,info@firstamericahomes.com
TX,MONTGOMERY,174984-20,"Single Family Homes",8/7/2020,,272990,,"6240 ROLLING HILLS ROAD",HOUSTON,TX,77356,"DEER TRAIL ESTATES",,CONTRACTOR,,,,,,,,,,,"FIRST AMERICA HOMES",,,,,"FIRST AMERICA HOMES","1400 WOODLOCH FOREST DR STE 200","THE WOODLANDS",TX,77380-1179,"(713) 452-1700",http://www.firstamericahomes.com/,,,info@firstamericahomes.com
TX,MONTGOMERY,174987-20,"Single Family Homes",8/7/2020,,304990,,"16134 HIDALGO STREET",HOUSTON,TX,77356,"DEER PINES",,CONTRACTOR,,,,,,,,,,,"FIRST AMERICA HOMES",,,,,"FIRST AMERICA HOMES","1400 WOODLOCH FOREST DR STE 200","THE WOODLANDS",TX,77380-1179,"(713) 452-1700",http://www.firstamericahomes.com/,,,info@firstamericahomes.com
TX,MONTGOMERY,175001-20,"Single Family Homes",8/7/2020,,217990,,"14165 HARLEQUIN DR",HOUSTON,TX,77356,"TEAL CROSSING",,CONTRACTOR,,,,,,,,,,,"FIRST AMERICA HOMES",,,,,"FIRST AMERICA HOMES","1400 WOODLOCH FOREST DR STE 200","THE WOODLANDS",TX,77380-1179,"(713) 452-1700",http://www.firstamericahomes.com/,,,info@firstamericahomes.com
TX,MONTGOMERY,175002-20,"Single Family Homes",8/7/2020,,206990,,"14169 HARLEQUIN DR",HOUSTON,TX,77356,"TEAL CROSSING",,CONTRACTOR,,,,,,,,,,,"FIRST AMERICA HOMES",,,,,"FIRST AMERICA HOMES","1400 WOODLOCH FOREST DR STE 200","THE WOODLANDS",TX,77380-1179,"(713) 452-1700",http://www.firstamericahomes.com/,,,info@firstamericahomes.com
TX,MONTGOMERY,175003-20,"Single Family Homes",8/7/2020,,192990,,"14686 EAST PINE HEART DR",HOUSTON,TX,77356,"GRANGER PINES",,CONTRACTOR,,,,,,,,,,,"FIRST AMERICA HOMES",,,,,"FIRST AMERICA HOMES","1400 WOODLOCH FOREST DR STE 200","THE WOODLANDS",TX,77380-1179,"(713) 452-1700",http://www.firstamericahomes.com/,,,info@firstamericahomes.com
TX,MONTGOMERY,175004-20,"Single Family Homes",8/7/2020,,180990,,"14465 SUGAR PINES DR",HOUSTON,TX,77356,"GRANGER PINES",,CONTRACTOR,,,,,,,,,,,"FIRST AMERICA HOMES",,,,,"FIRST AMERICA HOMES","1400 WOODLOCH FOREST DR STE 200","THE WOODLANDS",TX,77380-1179,"(713) 452-1700",http://www.firstamericahomes.com/,,,info@firstamericahomes.com
TX,MONTGOMERY,175005-20,"Single Family Homes",8/7/2020,,191990,,"14601 EAS'L' PINE HEART DR",HOUSTON,TX,77356,"GRANGER PINES",,CONTRACTOR,,,,,,,,,,,"FIRST AMERICA HOMES",,,,,"FIRST AMERICA HOMES","1400 WOODLOCH FOREST DR STE 200","THE WOODLANDS",TX,77380-1179,"(713) 452-1700",http://www.firstamericahomes.com/,,,info@firstamericahomes.com
TX,MONTGOMERY,175006-20,"Single Family Homes",8/7/2020,,181990,,"14690 EAST PINE HEART DR",HOUSTON,TX,77356,"GRANGER PINES",,CONTRACTOR,,,,,,,,,,,"FIRST AMERICA HOMES",,,,,"FIRST AMERICA HOMES","1400 WOODLOCH FOREST DR STE 200","THE WOODLANDS",TX,77380-1179,"(713) 452-1700",http://www.firstamericahomes.com/,,,info@firstamericahomes.com
TX,MONTGOMERY,174849-20,"Single Family Homes",8/5/2020,,70000,,"528 DRAYLON DR",HOUSTON,TX,77356,"CROCKETT TRACE ESTATES",,"ELSA FUENTES LEMUS","241 WATERGATE CIRCLE",CONROE,TX,77304,,Owner,,,,,OWNER,,,,,OWNER,,,,,,,,,
TX,MONTGOMERY,174995-20,"Single Family Homes",8/7/2020,,102896,,"22452 BRASS BELL DR",HOUSTON,TX,77356,"WOODRIDGE FOREST",,CONTRACTOR,,,,,,,,,,,"GEHAN HOMES",,,,,"GEHAN HOMES","2050 W SAM HOUSTON PKWY S",HOUSTON,TX,77042-2079,"(713) 243-3545",http://www.gehanhomes.com,,,
TX,MONTGOMERY,174871-20,"Single Family Homes",8/5/2020,,169000,,"12954 CENTAURUS CT",HOUSTON,TX,77356,"POINT AQUARIUS",,"JIM GENTRY","PO BOX 2177",CONROE,TX,77305,,Owner,,,,,OWNER,,,,,OWNER,,,,,,,,,
TX,MONTGOMERY,174921-20,"Single Family Homes",8/6/2020,,179000,,"12413 MAVERICK CT",HOUSTON,TX,77356,"TEXAS NATIONAL",,"GLEN GILMORE","PO BOX 537",MAGNOLIA,TX,77353,,Owner,,,,,OWNER,,,,,OWNER,,,,,,,,,
TX,MONTGOMERY,174926-20,"Single Family Homes",8/6/2020,,481802,,"32402 TALL OAKS WAY",HOUSTON,TX,77356,"THOUSAND OAKS",,CONTRACTOR,,,,,,,,,,,"HARRISBURG HOMES",,,,,"HARRISBURG HOMES","21615 FIREMIST WAY",CYPRESS,TX,77433-3507,"(713) 249-8196",http://www.harrisburgtx.com/,,SHAWN,info@harrisburgtx.com
TX,MONTGOMERY,174914-20,"Single Family Homes",8/6/2020,,465754,,"11903 WEST BORDER OAK DR",HOUSTON,TX,77356,"THOUSAND OAKS",,CONTRACTOR,,,,,,,,,,,"HARRISBURG HOMES",,,,,"HARRISBURG HOMES","21615 FIREMIST WAY",CYPRESS,TX,77433-3507,"(713) 249-8196",http://www.harrisburgtx.com/,,SHAWN,info@harrisburgtx.com
TX,MONTGOMERY,174865-20,"Single Family Homes",8/5/2020,,380000,,"154 SUGAR PINE",HOUSTON,TX,77356,WOODFOREST,,CONTRACTOR,,,,,,,,,,,"HIGHLAND HOMES",,,,,"HIGHLAND HOMES","10930 W SAM HOUSTON PKWY N STE 100",HOUSTON,TX,77064-6331,"(281) 517-9800",,,,
TX,MONTGOMERY,174880-20,"Single Family Homes",8/6/2020,,500000,,"27531 SOUTH LAZY MEADOW WAY",HOUSTON,TX,77356,"BENDERS LANDING ESTATES",,CONTRACTOR,,,,,,,,,,,"ICONIC CUSTOM HOME BUILDERS",,,,,"ICONIC CUSTOM HOME BUILDERS","25511 OAKHURST DRIVE",SPRING,TX,77386,"(832) 510-7298",,,,
TX,MONTGOMERY,174732-20,"Single Family Homes",8/3/2020,,360000,,"302 MILL CREEK ROAD",HOUSTON,TX,77356,WOODTRACE,,CONTRACTOR,,,,,,,,,,,"J PATRICK HOMES",,,,,"J PATRICK HOMES","9700 RICHMOND AVE STE 162",HOUSTON,TX,77042-4698,"(713) 789-8004",,,,
TX,MONTGOMERY,174737-20,"Single Family Homes",8/3/2020,,360000,,"406 MILL CREEK ROAD",HOUSTON,TX,77356,WOODTRACE,,CONTRACTOR,,,,,,,,,,,"J PATRICK HOMES",,,,,"J PATRICK HOMES","9700 RICHMOND AVE STE 162",HOUSTON,TX,77042-4698,"(713) 789-8004",,,,
TX,MONTGOMERY,174738-20,"Single Family Homes",8/3/2020,,362000,,"322 MILL CREEK RD",HOUSTON,TX,77356,WOODTRACE,,CONTRACTOR,,,,,,,,,,,"J PATRICK HOMES",,,,,"J PATRICK HOMES","9700 RICHMOND AVE STE 162",HOUSTON,TX,77042-4698,"(713) 789-8004",,,,
TX,MONTGOMERY,174864-20,"Single Family Homes",8/5/2020,,140630,,"18864 ASPEN BRIAR CIRCLE",HOUSTON,TX,77356,"GLEN OAKS",,CONTRACTOR,,,,,,,,,,,"K HOVNANIAN HOMES",,,,,"K HOVNANIAN HOMES","13111 NORTHWEST FWY STE 200",HOUSTON,TX,77040-6311,"(713) 460-0264",,,,
TX,MONTGOMERY,174829-20,"Single Family Homes",8/5/2020,,328000,,"10401 DAW COLLINS ROAD",HOUSTON,TX,77356,,,"WALTER KAHLER","22070 MISSION CANYON LN",PORTER,TX,77356,,Owner,,,,,OWNER,,,,,OWNER,,,,,,,,,
TX,MONTGOMERY,174720-20,"Single Family Homes",8/3/2020,,150000,,"29491 WESTHOPE DR",HOUSTON,TX,77356,"LEGENDS TRACE",,CONTRACTOR,,,,,,,,,,,"LEGEND HOMES",,,,,"LEGEND HOMES","10410 WINDAMERE LAKES BLVD",HOUSTON,TX,77065-4996,"(281) 671-9060",http://legendhomecorp.com/,"(281) 671-9055",,
TX,MONTGOMERY,174721-20,"Single Family Homes",8/3/2020,,158000,,"29666 KYNNDAL SHORE DR",HOUSTON,TX,77356,"LEGEND TRACE",,CONTRACTOR,,,,,,,,,,,"LEGEND HOMES",,,,,"LEGEND HOMES","10410 WINDAMERE LAKES BLVD",HOUSTON,TX,77065-4996,"(281) 671-9060",http://legendhomecorp.com/,"(281) 671-9055",,
TX,MONTGOMERY,174722-20,"Single Family Homes",8/3/2020,,136000,,"29450 WESTHOPE DR",HOUSTON,TX,77356,"LEGENDS TRACE",,CONTRACTOR,,,,,,,,,,,"LEGEND HOMES",,,,,"LEGEND HOMES","10410 WINDAMERE LAKES BLVD",HOUSTON,TX,77065-4996,"(281) 671-9060",http://legendhomecorp.com/,"(281) 671-9055",,
TX,MONTGOMERY,174726-20,"Single Family Homes",8/3/2020,,136000,,"29631 KYNNDAL SHORE DR",HOUSTON,TX,77356,"LEGENDS TRACE",,CONTRACTOR,,,,,,,,,,,"LEGEND HOMES",,,,,"LEGEND HOMES","10410 WINDAMERE LAKES BLVD",HOUSTON,TX,77065-4996,"(281) 671-9060",http://legendhomecorp.com/,"(281) 671-9055",,
TX,MONTGOMERY,174724-20,"Single Family Homes",8/3/2020,,120000,,"18929 COLLINA WAY",HOUSTON,TX,77356,TAVOLA,,CONTRACTOR,,,,,,,,,,,"LENNAR HOMES",,,,,"LENNAR HOMES","550 GREENS PKWY",HOUSTON,TX,77067-4537,"(281) 875-1000",http://www.lennar.com/,,,
TX,MONTGOMERY,174727-20,"Single Family Homes",8/3/2020,,120000,,"18925 COLLINA WAY",HOUSTON,TX,77356,TAVOLA,,CONTRACTOR,,,,,,,,,,,"LENNAR HOMES",,,,,"LENNAR HOMES","550 GREENS PKWY",HOUSTON,TX,77067-4537,"(281) 875-1000",http://www.lennar.com/,,,
TX,MONTGOMERY,174731-20,"Single Family Homes",8/3/2020,,,,"1320 WINDING WILLOW DR",HOUSTON,TX,77356,"ARBOR TRACE",,CONTRACTOR,,,,,,,,,,,"LENNAR HOMES",,,,,"LENNAR HOMES","550 GREENS PKWY",HOUSTON,TX,77067-4537,"(281) 875-1000",http://www.lennar.com/,,,
TX,MONTGOMERY,174862-20,"Single Family Homes",8/5/2020,,152000,,"1319 WINDING WILLOW DR",HOUSTON,TX,77356,"ARBOR TRACE",,CONTRACTOR,,,,,,,,,,,"LENNAR HOMES",,,,,"LENNAR HOMES","550 GREENS PKWY",HOUSTON,TX,77067-4537,"(281) 875-1000",http://www.lennar.com/,,,
TX,MONTGOMERY,174863-20,"Single Family Homes",8/5/2020,,99060,,"1316 WINDING WILLOW DR",HOUSTON,TX,77356,"ARBOR TRACE",,CONTRACTOR,,,,,,,,,,,"LENNAR HOMES",,,,,"LENNAR HOMES","550 GREENS PKWY",HOUSTON,TX,77067-4537,"(281) 875-1000",http://www.lennar.com/,,,
TX,MONTGOMERY,174923-20,"Single Family Homes",8/6/2020,,100000,,"26140 HALS DR",HOUSTON,TX,77356,"WILLIAMS TRACE",,CONTRACTOR,,,,,,,,,,,"LGI HOMES",,,,,"LGI HOMES","1450 LAKE ROBBINS SUITE 430",CONROE,TX,77380,"(210) 563-4648",,"(281) 210-2601",,
TX,MONTGOMERY,174924-20,"Single Family Homes",8/6/2020,,73912,,"26124 HALS DR",HOUSTON,TX,77356,"WILLIAMS TRACE",,CONTRACTOR,,,,,,,,,,,"LGI HOMES",,,,,"LGI HOMES","1450 LAKE ROBBINS SUITE 430",CONROE,TX,77380,"(210) 563-4648",,"(281) 210-2601",,
TX,MONTGOMERY,174925-20,"Single Family Homes",8/6/2020,,93314,,"26136 HALS DR",HOUSTON,TX,77356,"WILLIAMS TRACE",,CONTRACTOR,,,,,,,,,,,"LGI HOMES",,,,,"LGI HOMES","1450 LAKE ROBBINS SUITE 430",CONROE,TX,77380,"(210) 563-4648",,"(281) 210-2601",,
TX,MONTGOMERY,174928-20,"Single Family Homes",8/6/2020,,100000,,"26128 HALS DR",HOUSTON,TX,77356,"WILLIAMS TRACE",,CONTRACTOR,,,,,,,,,,,"LGI HOMES",,,,,"LGI HOMES","1450 LAKE ROBBINS SUITE 430",CONROE,TX,77380,"(210) 563-4648",,"(281) 210-2601",,
TX,MONTGOMERY,174929-20,"Single Family Homes",8/6/2020,,73912,,"26132 HALS DR",HOUSTON,TX,77356,"WILLIAMS TRACE",,CONTRACTOR,,,,,,,,,,,"LGI HOMES",,,,,"LGI HOMES","1450 LAKE ROBBINS SUITE 430",CONROE,TX,77380,"(210) 563-4648",,"(281) 210-2601",,
TX,MONTGOMERY,174930-20,"Single Family Homes",8/6/2020,,90334,,"26144 HALS DR",HOUSTON,TX,77356,"WILLIAMS TRACE",,CONTRACTOR,,,,,,,,,,,"LGI HOMES",,,,,"LGI HOMES","1450 LAKE ROBBINS SUITE 430",CONROE,TX,77380,"(210) 563-4648",,"(281) 210-2601",,
TX,MONTGOMERY,174866-20,"Single Family Homes",8/5/2020,,72000,,"2214 YELLOW FERN PATH",HOUSTON,TX,77356,"FOREST VILLAGE",,CONTRACTOR,,,,,,,,,,,"LONG LAKE HOMES",,,,,"LONG LAKE HOMES","15915 KATY FWY STE 405",HOUSTON,TX,77094-1710,"(281) 646-1727",http://www.longlakeltd.com/,,"DAVID BIGLER",
TX,MONTGOMERY,174868-20,"Single Family Homes",8/5/2020,,70000,,"2206 YELLOW FERN PATH",HOUSTON,TX,77356,"FOREST VILLAGE",,CONTRACTOR,,,,,,,,,,,"LONG LAKE HOMES",,,,,"LONG LAKE HOMES","15915 KATY FWY STE 405",HOUSTON,TX,77094-1710,"(281) 646-1727",http://www.longlakeltd.com/,,"DAVID BIGLER",
TX,MONTGOMERY,174874-20,"Single Family Homes",8/5/2020,,313347,,"10011 LEONIDAS HORTON ROAD",HOUSTON,TX,77356,,,CONTRACTOR,,,,,,,,,,,"M DAIGLE CUSTOM HOMES",,,,,"M DAIGLE CUSTOM HOMES","PO BOX 1000",WILLIS,TX,77378-1000,"(281) 636-3054",http://www.mdaiglehomes.com/,,,info@mdaiglehomes.com
TX,MONTGOMERY,174847-20,"Single Family Homes",8/5/2020,,434025,,"226 TAYLER RIDGE WAY",HOUSTON,TX,77356,WOODFOREST,,CONTRACTOR,,,,,,,,,,,"PERRY HOMES",,,,,"PERRY HOMES","9000 GULF FWY",HOUSTON,TX,77017-7018,"(713) 417-1396",,,,
TX,MONTGOMERY,174848-20,"Single Family Homes",8/5/2020,,475988,,"225 TAYLER RIDGE WAY",HOUSTON,TX,77356,WOODFOREST,,CONTRACTOR,,,,,,,,,,,"PERRY HOMES",,,,,"PERRY HOMES","9000 GULF FWY",HOUSTON,TX,77017-7018,"(713) 417-1396",,,,
TX,MONTGOMERY,174891-20,"Single Family Homes",8/6/2020,,270450,,"4304 IMPERIAL GARDENS DR",HOUSTON,TX,77356,"HARMONY VILLAGE",,CONTRACTOR,,,,,,,,,,,"PULTE HOMES",,,,,"PULTE HOMES","16670 PARK ROW",HOUSTON,TX,77084-6866,"(281) 749-8000",,,,
TX,MONTGOMERY,174892-20,"Single Family Homes",8/6/2020,,285000,,"27825 ELLIE OAK LN",HOUSTON,TX,77356,"HARMONY VILLAGE",,CONTRACTOR,,,,,,,,,,,"PULTE HOMES",,,,,"PULTE HOMES","16670 PARK ROW",HOUSTON,TX,77084-6866,"(281) 749-8000",,,,
TX,MONTGOMERY,174893-20,"Single Family Homes",8/6/2020,,352000,,"27820 ELLIE OAK LN",HOUSTON,TX,77356,"HARMONY VILLAGE",,CONTRACTOR,,,,,,,,,,,"PULTE HOMES",,,,,"PULTE HOMES","16670 PARK ROW",HOUSTON,TX,77084-6866,"(281) 749-8000",,,,
TX,MONTGOMERY,174894-20,"Single Family Homes",8/6/2020,,297000,,"4321 HEAVENLY WOODS DR",HOUSTON,TX,77356,"HARMONY VILLAGE",,CONTRACTOR,,,,,,,,,,,"PULTE HOMES",,,,,"PULTE HOMES","16670 PARK ROW",HOUSTON,TX,77084-6866,"(281) 749-8000",,,,
TX,MONTGOMERY,174822-20,"Single Family Homes",8/5/2020,,150410,,"8019 DAUNTLESS DR",HOUSTON,TX,77356,"BLACK OAK",,CONTRACTOR,,,,,,,,,,,"RAUSCH COLEMAN HOMES",,,,,"RAUSCH COLEMAN HOMES","9504 N IH35 STE 310","SAN ANTONIO",TX,78233,"(210) 231-0703",https://www.rauschcolemanhomes.com/,,,
TX,MONTGOMERY,174713-20,"Single Family Homes",8/3/2020,,300000,,"14603 STEEDE ROAD",HOUSTON,TX,77356,,,"JODY RYAN ","14603 STEEDE ROAD",MONTGOMERY,TX,77356,,Owner,,,,,OWNER,,,,,OWNER,,,,,,,,,
TX,MONTGOMERY,174978-20,"Single Family Homes",8/7/2020,,100000,,"10618 MEACHEN ROAD",HOUSTON,TX,77356,,,"RODGER SAWYER","10618 MEACHEN ROAD",HOUSTON,TX,77356,,Owner,,,,,OWNER,,,,,OWNER,,,,,,,,,
TX,MONTGOMERY,174753-20,"Single Family Homes",8/3/2020,,100000,,"6911 DILLON DR",HOUSTON,TX,77356,"WOODLAND OAKS",,CONTRACTOR,,,,,,,,,,,"ENVIRONMENTAL ALLIES",,,,,"ENVIRONMENTAL ALLIES","9625 WINDFERN RD",HOUSTON,TX,77064-6601,"(281) 442-4112",http://www.environmentalallies.com/,"(512) 383-9208",,info@environmentalallies.com
TX,MONTGOMERY,174917-20,"Single Family Homes",8/6/2020,,300000,,"2920 LIBRETTO REACH DR",HOUSTON,TX,77356,"VIVACE AT HARMONY",,CONTRACTOR,,,,,,,,,,,"SHEA HOMES HOUSTON",,,,,"SHEA HOMES HOUSTON","8300 CYPRESS CREEK PKWY STE 400",HOUSTON,TX,77070-5643,"(832) 869-4007",http://www.sheahomes.com/,,,
TX,MONTGOMERY,174804-20,"Single Family Homes",8/4/2020,,233220,,"303 HIDDEN BEND CT",HOUSTON,TX,77356,"MAGNOLIA RESERVE",,CONTRACTOR,,,,,,,,,,,"TERRATA HOMES",,,,,"TERRATA HOMES","1450 LAKE ROBBINS DR STE 430","THE WOODLANDS",TX,77380-3294,"(830) 538-9500",http://terratahomes.com/,,,
TX,MONTGOMERY,174805-20,"Single Family Homes",8/4/2020,,313000,,"307 HIDDEN BEND CT",HOUSTON,TX,77356,"MAGNOLIA RESERVE",,CONTRACTOR,,,,,,,,,,,"TERRATA HOMES",,,,,"TERRATA HOMES","1450 LAKE ROBBINS DR STE 430","THE WOODLANDS",TX,77380-3294,"(830) 538-9500",http://terratahomes.com/,,,
TX,MONTGOMERY,174806-20,"Single Family Homes",8/4/2020,,288340,,"311 HIDDEN BEND CT",HOUSTON,TX,77356,"MAGNOLIA RESERVE",,CONTRACTOR,,,,,,,,,,,"TERRATA HOMES",,,,,"TERRATA HOMES","1450 LAKE ROBBINS DR STE 430","THE WOODLANDS",TX,77380-3294,"(830) 538-9500",http://terratahomes.com/,,,
TX,MONTGOMERY,174807-20,"Single Family Homes",8/4/2020,,301340,,"315 HIDDEN BEND CT",HOUSTON,TX,77356,"MAGNOLIA RESERVE",,CONTRACTOR,,,,,,,,,,,"TERRATA HOMES",,,,,"TERRATA HOMES","1450 LAKE ROBBINS DR STE 430","THE WOODLANDS",TX,77380-3294,"(830) 538-9500",http://terratahomes.com/,,,
TX,MONTGOMERY,174808-20,"Single Family Homes",8/4/2020,,288340,,"319 HIDDEN BEND CT",HOUSTON,TX,77356,"MAGNOLIA RESERVE",,CONTRACTOR,,,,,,,,,,,"TERRATA HOMES",,,,,"TERRATA HOMES","1450 LAKE ROBBINS DR STE 430","THE WOODLANDS",TX,77380-3294,"(830) 538-9500",http://terratahomes.com/,,,
TX,MONTGOMERY,174809-20,"Single Family Homes",8/4/2020,,264680,,"318 HIDDEN BEND CT",HOUSTON,TX,77356,"MAGNOLIA RESERVE",,CONTRACTOR,,,,,,,,,,,"TERRATA HOMES",,,,,"TERRATA HOMES","1450 LAKE ROBBINS DR STE 430","THE WOODLANDS",TX,77380-3294,"(830) 538-9500",http://terratahomes.com/,,,
TX,MONTGOMERY,174970-20,"Single Family Homes",8/7/2020,,350000,,"10912 BOURBON ST",HOUSTON,TX,77356,"FRENCH QUARTER",,CONTRACTOR,,,,,,,,,,,"TILSON HOMES",,,,,"TILSON HOMES","411 DURHAM DR STE 209",HOUSTON,TX,77007-7240,"(512) 217-1360",,,,
TX,MONTGOMERY,174915-20,"Single Family Homes",8/6/2020,,120400,,"5047 WOODED LAKE DR",HOUSTON,TX,77356,"WOODSONS RESERVE",,CONTRACTOR,,,,,,,,,,,"TOLL BROTHERS",,,,,"TOLL BROTHERS","10110 W SAM HOUSTON PKWY N STE 350",HOUSTON,TX,77064-7508,"(281) 664-7255",,,,
TX,MONTGOMERY,174916-20,"Single Family Homes",8/6/2020,,120700,,"28223 EMERALD BEND DR",HOUSTON,TX,77356,"WOODSONS RESERVE",,CONTRACTOR,,,,,,,,,,,"TOLL BROTHERS",,,,,"TOLL BROTHERS","10110 W SAM HOUSTON PKWY N STE 350",HOUSTON,TX,77064-7508,"(281) 664-7255",,,,
TX,MONTGOMERY,174886-20,"Single Family Homes",8/6/2020,,110000,,"22701 LERMA CT",HOUSTON,TX,77356,RIVERWALK,,CONTRACTOR,,,,,,,,,,,"TWO SONS ENVIRONMENTAL SERVICES",,,,,"TWO SONS ENVIRONMENTAL SERVICES","23565 FM 1314 RD",PORTER,TX,77365-3724,"(281) 354-9284",http://www.two-sons.net,"(281) 354-2107",,twosonsenvironmental@yahoo.com
TX,MONTGOMERY,174910-20,"Single Family Homes",8/6/2020,,100000,,"315 GOODE CT",HOUSTON,TX,77356,"GOODE CITY",,CONTRACTOR,,,,,,,,,,,"TWO SONS ENVIRONMENTAL SERVICES",,,,,"TWO SONS ENVIRONMENTAL SERVICES","23565 FM 1314 RD",PORTER,TX,77365-3724,"(281) 354-9284",http://www.two-sons.net,"(281) 354-2107",,twosonsenvironmental@yahoo.com
TX,MONTGOMERY,174919-20,"Single Family Homes",8/6/2020,,125000,,"16804 OLD DANVILLE ROAD",HOUSTON,TX,77356,,,CONTRACTOR,,,,,,,,,,,"TWO SONS ENVIRONMENTAL SERVICES",,,,,"TWO SONS ENVIRONMENTAL SERVICES","23565 FM 1314 RD",PORTER,TX,77365-3724,"(281) 354-9284",http://www.two-sons.net,"(281) 354-2107",,twosonsenvironmental@yahoo.com
TX,MONTGOMERY,174729-20,"Single Family Homes",8/3/2020,,315705,,"2006 ANGEL SHIRES CT",HOUSTON,TX,77356,WOODTRACE,,CONTRACTOR,,,,,,,,,,,"VILLAGE BUILDERS",,,,,"VILLAGE BUILDERS","550 GREENS PKWY STE 210",HOUSTON,TX,77067-4538,"(281) 873-4663",,,,
TX,MONTGOMERY,174730-20,"Single Family Homes",8/3/2020,,158730,,"516 SAGE TIMBERS LN",HOUSTON,TX,77356,"WOOD TRACE",,CONTRACTOR,,,,,,,,,,,"VILLAGE BUILDERS",,,,,"VILLAGE BUILDERS","550 GREENS PKWY STE 210",HOUSTON,TX,77067-4538,"(281) 873-4663",,,,
TX,MONTGOMERY,174861-20,"Single Family Homes",8/5/2020,,207350,,"513 SAGE TIMBERS LN",HOUSTON,TX,77356,WOODTRACE,,CONTRACTOR,,,,,,,,,,,"VILLAGE BUILDERS",,,,,"VILLAGE BUILDERS","550 GREENS PKWY STE 210",HOUSTON,TX,77067-4538,"(281) 873-4663",,,,
TX,MONTGOMERY,174857-20,"Single Family Homes",8/5/2020,,241000,,"8203 BARRISTIAN BLUFFS CT",HOUSTON,TX,77356,NORTHGROVE,,CONTRACTOR,,,,,,,,,,,"WESTIN HOMES",,,,,"WESTIN HOMES","1 SUGAR CREEK CENTER BLVD STE 600","SUGAR LAND",TX,77478-3787,"(281) 240-1551",http://www.westin-homes.com,,,
TX,MONTGOMERY,174858-20,"Single Family Homes",8/5/2020,,251000,,"17630 BLUSHING MEADOW CT",HOUSTON,TX,77356,ARTAVIA,,CONTRACTOR,,,,,,,,,,,"WESTIN HOMES",,,,,"WESTIN HOMES","1 SUGAR CREEK CENTER BLVD STE 600","SUGAR LAND",TX,77478-3787,"(281) 240-1551",http://www.westin-homes.com,,,
TX,MONTGOMERY,174859-20,"Single Family Homes",8/5/2020,,205000,,"18904 ROSEWOOD TERRACE DR",HOUSTON,TX,77356,TAVOLA.,,CONTRACTOR,,,,,,,,,,,"WESTIN HOMES",,,,,"WESTIN HOMES","1 SUGAR CREEK CENTER BLVD STE 600","SUGAR LAND",TX,77478-3787,"(281) 240-1551",http://www.westin-homes.com,,,
TX,MONTGOMERY,174996-20,"Single Family Homes",8/7/2020,,259000,,"8211 BARRISTAN BLUFFS CT",HOUSTON,TX,77356,NORTHGROVE,,CONTRACTOR,,,,,,,,,,,"WESTIN HOMES",,,,,"WESTIN HOMES","1 SUGAR CREEK CENTER BLVD STE 600","SUGAR LAND",TX,77478-3787,"(281) 240-1551",http://www.westin-homes.com,,,
TX,MONTGOMERY,174997-20,"Single Family Homes",8/7/2020,,225000,,"18826 CAPALONA CT",HOUSTON,TX,77356,TAVOLA,,CONTRACTOR,,,,,,,,,,,"WESTIN HOMES",,,,,"WESTIN HOMES","1 SUGAR CREEK CENTER BLVD STE 600","SUGAR LAND",TX,77478-3787,"(281) 240-1551",http://www.westin-homes.com,,,
TX,MONTGOMERY,174837-20,"Single Family Homes",8/5/2020,,200000,,"9871 TWIN SHORES DR",WILLIS,TX,77318,"TWIN SHORES",,"DUSTIN WHITAKER","9871 TWIN SHORES DR",WILLIS,TX,77318,,Owner,,,,,OWNER,,,,,OWNER,,,,,,,,,
TX,MONTGOMERY,174922-20,"Single Family Homes",8/6/2020,,150000,,"18145 FIREPINE LN",HOUSTON,TX,77356,"MARVINS GARDENS",,"GEARY YOUNG ","18145 FIREPINE LN",MONTGOMERY,TX,77316,,Owner,,,,,OWNER,,,,,OWNER,,,,,,,,,
TX,MONTGOMERY,175513-20,"Single Family Homes",8/21/2020,,240000,,"40211 GARWOOD CT",HOUSTON,TX,77356,"COUNTRY FOREST",,"SUBAEL ALEGRIA ","29603 SWEETWATERS",MAGNOLIA,TX,77354,,Owner,,,,,OWNER,,,,,OWNER,,,,,,,,,
TX,MONTGOMERY,175305-20,"Single Family Homes",8/17/2020,,280000,,"12308 NORTH CHESTNUT HILLS DR",HOUSTON,TX,77356,"DEER TRAIL ESTATES",,CONTRACTOR,,,,,,,,,,,"ALTA DEVELOPMENT GROUP",,,,,"ALTA DEVELOPMENT GROUP","3915 W DAVIS STE 130",CONROE,TX,77304,"(956) 578-2704",,,,
TX,MONTGOMERY,175281-20,"Single Family Homes",8/17/2020,,75000,,"14790 BOWIE LN",HOUSTON,TX,77356,"FRONTIER LAKES",,CONTRACTOR,,,,,,,,,,,"ASGI HOMES",,,,,"ASGI HOMES","2257 N LOOP 336 W STE 140-370",CONROE,TX,77304-3566,"(888) 991-0005",http://www.asgihomes.com,,,
TX,MONTGOMERY,175517-20,"Single Family Homes",8/20/2020,,75000,,"15064 ARROWHEAD LOOP EAST",HOUSTON,TX,77356,"ARROWHEAD LAKES",,CONTRACTOR,,,,,,,,,,,"ASGI HOMES",,,,,"ASGI HOMES","2257 N LOOP 336 W STE 140-370",CONROE,TX,77304-3566,"(888) 991-0005",http://www.asgihomes.com,,,
TX,MONTGOMERY,175528-20,"Single Family Homes",8/21/2020,,75000,,"3071 CADDO",HOUSTON,TX,77356,"ARROWHEAD LAKES",,CONTRACTOR,,,,,,,,,,,"ASGI HOMES",,,,,"ASGI HOMES","2257 N LOOP 336 W STE 140-370",CONROE,TX,77304-3566,"(888) 991-0005",http://www.asgihomes.com,,,
TX,MONTGOMERY,175531-20,"Single Family Homes",8/21/2020,,75000,,"15200 CROCKETT ROAD",HOUSTON,TX,77356,"FRONTIER LAKES",,CONTRACTOR,,,,,,,,,,,"ASGI HOMES",,,,,"ASGI HOMES","2257 N LOOP 336 W STE 140-370",CONROE,TX,77304-3566,"(888) 991-0005",http://www.asgihomes.com,,,
TX,MONTGOMERY,175542-20,"Single Family Homes",8/21/2020,,75000,,"14935 COLT LN",HOUSTON,TX,77356,"FRONTIER LAKES",,CONTRACTOR,,,,,,,,,,,"ASGI HOMES",,,,,"ASGI HOMES","2257 N LOOP 336 W STE 140-370",CONROE,TX,77304-3566,"(888) 991-0005",http://www.asgihomes.com,,,
TX,MONTGOMERY,175546-20,"Single Family Homes",8/21/2020,,75000,,"4079 FRONTIER ROAD",HOUSTON,TX,77356,"FRONTIER LAKES",,CONTRACTOR,,,,,,,,,,,"ASGI HOMES",,,,,"ASGI HOMES","2257 N LOOP 336 W STE 140-370",CONROE,TX,77304-3566,"(888) 991-0005",http://www.asgihomes.com,,,
TX,MONTGOMERY,175547-20,"Single Family Homes",8/21/2020,,75000,,"15747 PECAN DR",HOUSTON,TX,77356,"HIDDEN FOREST ESTATES",,CONTRACTOR,,,,,,,,,,,"ASGI HOMES",,,,,"ASGI HOMES","2257 N LOOP 336 W STE 140-370",CONROE,TX,77304-3566,"(888) 991-0005",http://www.asgihomes.com,,,
TX,MONTGOMERY,175289-20,"Single Family Homes",8/17/2020,,65000,,"11703 LINGER LN",HOUSTON,TX,77356,"CRYSTAL CREEK",,"DANIEL BARK","11703 LINGER LN",HOUSTON,TX,77356,,Owner,,,,,OWNER,,,,,OWNER,,,,,,,,,
TX,MONTGOMERY,175516-20,"Single Family Homes",8/20/2020,,950000,,"14890 PINE TREE ROAD",HOUSTON,TX,77356,WOODCREEK,,"JAMES BLASZCZAK","118 DUDLEY ROAD",MONTGOMERY,TX,77356,,Owner,,,,,OWNER,,,,,OWNER,,,,,,,,,
TX,MONTGOMERY,175550-20,"Single Family Homes",8/21/2020,,75000,,"19012 TURTLE CREEK WAY",HOUSTON,TX,77356,"TURTLE CREEK",,"CECILIA BONNICKSON ","19010 TURTLE CREEK WAY",MAGNOLIA,TX,77356,,Owner,,,,,OWNER,,,,,OWNER,,,,,,,,,
TX,MONTGOMERY,175434-20,"Single Family Homes",8/19/2020,,99990,,"29442 WESTHOPE DR",HOUSTON,TX,77356,"LEGENDS TRACE",,CONTRACTOR,,,,,,,,,,,"CAMILLO PROPERTIES",,,,,"CAMILLO PROPERTIES","6707 GESSNER RD",HOUSTON,TX,77040-4017,"(832) 500-0284",http://www.camillorentalhomes.com/,"(281) 325-0245",,
TX,MONTGOMERY,175435-20,"Single Family Homes",8/19/2020,,102190,,"29439 WESTHOPE DR",HOUSTON,TX,77356,"LEGENDS TRACE",,CONTRACTOR,,,,,,,,,,,"CAMILLO PROPERTIES",,,,,"CAMILLO PROPERTIES","6707 GESSNER RD",HOUSTON,TX,77040-4017,"(832) 500-0284",http://www.camillorentalhomes.com/,"(281) 325-0245",,
TX,MONTGOMERY,175436-20,"Single Family Homes",8/19/2020,,134145,,"29438 WESTHOPE DR",HOUSTON,TX,77356,"LEGENDS TRACE",,CONTRACTOR,,,,,,,,,,,"CAMILLO PROPERTIES",,,,,"CAMILLO PROPERTIES","6707 GESSNER RD",HOUSTON,TX,77040-4017,"(832) 500-0284",http://www.camillorentalhomes.com/,"(281) 325-0245",,
TX,MONTGOMERY,175439-20,"Single Family Homes",8/19/2020,,94930,,"29610 YAUPON SHORE DR",HOUSTON,TX,77356,"LEGENDS TRACE",,CONTRACTOR,,,,,,,,,,,"CAMILLO PROPERTIES",,,,,"CAMILLO PROPERTIES","6707 GESSNER RD",HOUSTON,TX,77040-4017,"(832) 500-0284",http://www.camillorentalhomes.com/,"(281) 325-0245",,
TX,MONTGOMERY,175441-20,"Single Family Homes",8/19/2020,,111595,,"29435 WESTHOPE DR",HOUSTON,TX,77356,"LEGENDS TRACE",,CONTRACTOR,,,,,,,,,,,"CAMILLO PROPERTIES",,,,,"CAMILLO PROPERTIES","6707 GESSNER RD",HOUSTON,TX,77040-4017,"(832) 500-0284",http://www.camillorentalhomes.com/,"(281) 325-0245",,
TX,MONTGOMERY,175442-20,"Single Family Homes",8/19/2020,,108900,,"29631 YAUPON SHORE DR",HOUSTON,TX,77356,"LEGENDS TRACE",,CONTRACTOR,,,,,,,,,,,"CAMILLO PROPERTIES",,,,,"CAMILLO PROPERTIES","6707 GESSNER RD",HOUSTON,TX,77040-4017,"(832) 500-0284",http://www.camillorentalhomes.com/,"(281) 325-0245",,
TX,MONTGOMERY,175444-20,"Single Family Homes",8/19/2020,,99990,,"29630 YAUPON SHORE DR",HOUSTON,TX,77356,"LEGENDS TRACE",,CONTRACTOR,,,,,,,,,,,"CAMILLO PROPERTIES",,,,,"CAMILLO PROPERTIES","6707 GESSNER RD",HOUSTON,TX,77040-4017,"(832) 500-0284",http://www.camillorentalhomes.com/,"(281) 325-0245",,
TX,MONTGOMERY,175445-20,"Single Family Homes",8/19/2020,,94930,,"29623 KYNNDAL SHORE DR",HOUSTON,TX,77356,"LEGENDS TRACE",,CONTRACTOR,,,,,,,,,,,"CAMILLO PROPERTIES",,,,,"CAMILLO PROPERTIES","6707 GESSNER RD",HOUSTON,TX,77040-4017,"(832) 500-0284",http://www.camillorentalhomes.com/,"(281) 325-0245",,
TX,MONTGOMERY,175447-20,"Single Family Homes",8/19/2020,,115390,,"29619 YAUPON SHORE DR",HOUSTON,TX,77356,"LEGENDS TRACE",,CONTRACTOR,,,,,,,,,,,"CAMILLO PROPERTIES",,,,,"CAMILLO PROPERTIES","6707 GESSNER RD",HOUSTON,TX,77040-4017,"(832) 500-0284",http://www.camillorentalhomes.com/,"(281) 325-0245",,
TX,MONTGOMERY,175454-20,"Single Family Homes",8/20/2020,,71505,,"22315 PORTER MOUNTAIN TR",HOUSTON,TX,77356,"BROOKLYN TRAILS",,CONTRACTOR,,,,,,,,,,,"CAMILLO PROPERTIES",,,,,"CAMILLO PROPERTIES","6707 GESSNER RD",HOUSTON,TX,77040-4017,"(832) 500-0284",http://www.camillorentalhomes.com/,"(281) 325-0245",,
TX,MONTGOMERY,175456-20,"Single Family Homes",8/20/2020,,84150,,"22318 PORTER MOUNTAIN TR",HOUSTON,TX,77356,"BROOKLYN TRAILS",,CONTRACTOR,,,,,,,,,,,"CAMILLO PROPERTIES",,,,,"CAMILLO PROPERTIES","6707 GESSNER RD",HOUSTON,TX,77040-4017,"(832) 500-0284",http://www.camillorentalhomes.com/,"(281) 325-0245",,
TX,MONTGOMERY,175458-20,"Single Family Homes",8/20/2020,,75915,,"22314 PORTER MOUNTAIN TR",HOUSTON,TX,77356,"BROOKLYN TRAILS",,CONTRACTOR,,,,,,,,,,,"CAMILLO PROPERTIES",,,,,"CAMILLO PROPERTIES","6707 GESSNER RD",HOUSTON,TX,77040-4017,"(832) 500-0284",http://www.camillorentalhomes.com/,"(281) 325-0245",,
TX,MONTGOMERY,175465-20,"Single Family Homes",8/20/2020,,62145,,"22307 PORTER MOUNTAIN TR",HOUSTON,TX,77356,"BROOKLYN TRAILS",,CONTRACTOR,,,,,,,,,,,"CAMILLO PROPERTIES",,,,,"CAMILLO PROPERTIES","6707 GESSNER RD",HOUSTON,TX,77040-4017,"(832) 500-0284",http://www.camillorentalhomes.com/,"(281) 325-0245",,
TX,MONTGOMERY,175467-20,"Single Family Homes",8/20/2020,,91755,,"22311 PORTER MOUNTAIN TR",HOUSTON,TX,77356,"BROOKLYN TRAILS",,CONTRACTOR,,,,,,,,,,,"CAMILLO PROPERTIES",,,,,"CAMILLO PROPERTIES","6707 GESSNER RD",HOUSTON,TX,77040-4017,"(832) 500-0284",http://www.camillorentalhomes.com/,"(281) 325-0245",,
TX,MONTGOMERY,175469-20,"Single Family Homes",8/20/2020,,55755,,"22310 PORTER MOUNTAIN TR",HOUSTON,TX,77356,"BROOKLYN TRAILS",,CONTRACTOR,,,,,,,,,,,"CAMILLO PROPERTIES",,,,,"CAMILLO PROPERTIES","6707 GESSNER RD",HOUSTON,TX,77040-4017,"(832) 500-0284",http://www.camillorentalhomes.com/,"(281) 325-0245",,
TX,MONTGOMERY,175563-20,"Single Family Homes",8/21/2020,,271555,,"18634 BLUE SPRUCE LN",HOUSTON,TX,77356,"GLEN OAKS",,CONTRACTOR,,,,,,,,,,,"CASTLEROCK COMMUNITIES",,,,,"CASTLEROCK COMMUNITIES","7670 WOODWAY DR STE 300",HOUSTON,TX,77063-1520,"(713) 600-7000",http://c-rock.com,"(713) 600-0000",,
TX,MONTGOMERY,175564-20,"Single Family Homes",8/21/2020,,142545,,"18642 BLUE SPRUCE LN",HOUSTON,TX,77356,"GLEN OAKS",,CONTRACTOR,,,,,,,,,,,"CASTLEROCK COMMUNITIES",,,,,"CASTLEROCK COMMUNITIES","7670 WOODWAY DR STE 300",HOUSTON,TX,77063-1520,"(713) 600-7000",http://c-rock.com,"(713) 600-0000",,
TX,MONTGOMERY,175280-20,"Single Family Homes",8/17/2020,,90000,,"16421 FARMVIEW DR",HOUSTON,TX,77356,"CROCKETT TRACE ESTATES",,"ORLBIN CASTRO","500 ADKINS ST",CONROE,TX,77301,,Owner,,,,,OWNER,,,,,OWNER,,,,,,,,,
TX,MONTGOMERY,175543-20,"Single Family Homes",8/21/2020,,183000,,"21008 CRINET SQUARE ST",HOUSTON,TX,77356,"KINGS MILL",,CONTRACTOR,,,,,,,,,,,"CENSEO HOMES",,,,,"CENSEO HOMES","1800 AUGUSTA DR",HOUSTON,TX,77057-3149,"(281) 932-5303",,,,
TX,MONTGOMERY,175544-20,"Single Family Homes",8/21/2020,,132000,,"21005 CRINET SQUARE ST",HOUSTON,TX,77356,"KINGS MILL",,CONTRACTOR,,,,,,,,,,,"CENSEO HOMES",,,,,"CENSEO HOMES","1800 AUGUSTA DR",HOUSTON,TX,77057-3149,"(281) 932-5303",,,,
TX,MONTGOMERY,175545-20,"Single Family Homes",8/21/2020,,117000,,"21004 CRINET SQUARE ST",HOUSTON,TX,77356,"KINGS MILL",,CONTRACTOR,,,,,,,,,,,"CENSEO HOMES",,,,,"CENSEO HOMES","1800 AUGUSTA DR",HOUSTON,TX,77057-3149,"(281) 932-5303",,,,
TX,MONTGOMERY,175315-20,"Single Family Homes",8/18/2020,,160602,,"9824 PRESERVE WAY",HOUSTON,TX,77356,"HARPERS PRESERVE",,CONTRACTOR,,,,,,,,,,,"CHESMAR HOMES",,,,,"CHESMAR HOMES","450 GEARS RD STE 400",HOUSTON,TX,77067-4513,"(281) 598-1111",http://chesmar.com,"(281) 598-1115",,customerservice.houston@chesmar.com
TX,MONTGOMERY,175317-20,"Single Family Homes",8/18/2020,,118983,,"339 N SPOTTED FERN DR",HOUSTON,TX,77356,WOODFOREST,,CONTRACTOR,,,,,,,,,,,"CHESMAR HOMES",,,,,"CHESMAR HOMES","450 GEARS RD STE 400",HOUSTON,TX,77067-4513,"(281) 598-1111",http://chesmar.com,"(281) 598-1115",,customerservice.houston@chesmar.com
TX,MONTGOMERY,175320-20,"Single Family Homes",8/18/2020,,128215,,"335 N SPTTED FERN DR",HOUSTON,TX,77356,WOODFOREST,,CONTRACTOR,,,,,,,,,,,"CHESMAR HOMES",,,,,"CHESMAR HOMES","450 GEARS RD STE 400",HOUSTON,TX,77067-4513,"(281) 598-1111",http://chesmar.com,"(281) 598-1115",,customerservice.houston@chesmar.com
TX,MONTGOMERY,175561-20,"Single Family Homes",8/21/2020,,149577,,"7814 AXIS RIDGE DR",HOUSTON,TX,77356,NORTHGROVE,,CONTRACTOR,,,,,,,,,,,"CHESMAR HOMES",,,,,"CHESMAR HOMES","450 GEARS RD STE 400",HOUSTON,TX,77067-4513,"(281) 598-1111",http://chesmar.com,"(281) 598-1115",,customerservice.houston@chesmar.com
TX,MONTGOMERY,175303-20,"Single Family Homes",8/17/2020,,128500,,"16899 BALMORAL ST",HOUSTON,TX,77356,"LAKE CONROE VILLAGE",,CONTRACTOR,,,,,,,,,,,"CLEARLAKE ASSET MANAGEMENT LLC",,,,,"CLEARLAKE ASSET MANAGEMENT LLC","2019 ENTERPRISE AVE","LEAGUE CITY",TX,77573-2902,"(281) 334-7618",,,,
TX,MONTGOMERY,175302-20,"Single Family Homes",8/17/2020,,350000,,"12136 AMBER JACK",HOUSTON,TX,77356,"HILL CREEK",,"DILLON CONLEY","PO BOX 273",CONROE,TX,77305,,Applicant,,,,,OWNER,,,,,OWNER,,,,,,,,,
TX,MONTGOMERY,175494-20,"Single Family Homes",8/20/2020,,160000,,"18633 PINE SHADOW CIRCLE",HOUSTON,TX,77356,"COUNTRY VILLAGE",,"DILLON CONLEY","PO BOX 273",CONROE,TX,77305,,Owner,,,,,OWNER,,,,,OWNER,,,,,,,,,
TX,MONTGOMERY,175498-20,"Single Family Homes",8/20/2020,,200000,,"16990 LEXINGTON DR",HOUSTON,TX,77356,"DOGWOOD FOREST",,"DILLON CONLEY","PO BOX 273",CONROE,TX,77305,,Owner,,,,,OWNER,,,,,OWNER,,,,,,,,,
TX,MONTGOMERY,175318-20,"Single Family Homes",8/18/2020,,140000,,"13485 3RD ST",HOUSTON,TX,77356,"HARVEST ACRES",,CONTRACTOR,,,,,,,,,,,"CP DIRT WORKS",,,,,"CP DIRT WORKS","405 S FRANKLIN AVE",CLEVELAND,TX,77327,"(281) 659-0309",,,,
TX,MONTGOMERY,175344-20,"Single Family Homes",8/18/2020,,144000,,"17028 WINTER BENT PLACE",HOUSTON,TX,77356,"HARPERS PRESERVE",,CONTRACTOR,,,,,,,,,,,"DR HORTON",,,,,"DR HORTON","14100 SOUTHWEST",HOUSTON,TX,77478,"(281) 201-5559",,,,
TX,MONTGOMERY,175345-20,"Single Family Homes",8/18/2020,,132000,,"17024 WINTER BENT PLACE",HOUSTON,TX,77356,"HARPERS PRESERVE",,CONTRACTOR,,,,,,,,,,,"DR HORTON",,,,,"DR HORTON","14100 SOUTHWEST",HOUSTON,TX,77478,"(281) 201-5559",,,,
TX,MONTGOMERY,175347-20,"Single Family Homes",8/18/2020,,1119000,,"17027 WINTER BENT PLACE",HOUSTON,TX,77356,"HARPERS PRESERVE",,CONTRACTOR,,,,,,,,,,,"DR HORTON",,,,,"DR HORTON","14100 SOUTHWEST",HOUSTON,TX,77478,"(281) 201-5559",,,,
TX,MONTGOMERY,175348-20,"Single Family Homes",8/18/2020,,117000,,"17020 WINTER BENT PLACE",HOUSTON,TX,77356,"HARPERS PRESERVE",,CONTRACTOR,,,,,,,,,,,"DR HORTON",,,,,"DR HORTON","14100 SOUTHWEST",HOUSTON,TX,77478,"(281) 201-5559",,,,
TX,MONTGOMERY,175349-20,"Single Family Homes",8/18/2020,,132885,,"14502 MONTCLAIR WAY",HOUSTON,TX,77356,"MILL CREEK ESTATES",,CONTRACTOR,,,,,,,,,,,"DR HORTON",,,,,"DR HORTON","14100 SOUTHWEST",HOUSTON,TX,77478,"(281) 201-5559",,,,
TX,MONTGOMERY,175350-20,"Single Family Homes",8/18/2020,,132975,,"40398 BLOSSOM VALLEY LN",HOUSTON,TX,77356,"MILL CREEK ESTATES",,CONTRACTOR,,,,,,,,,,,"DR HORTON",,,,,"DR HORTON","14100 SOUTHWEST",HOUSTON,TX,77478,"(281) 201-5559",,,,
TX,MONTGOMERY,175351-20,"Single Family Homes",8/18/2020,,86580,,"16909 RICH PINES DR",HOUSTON,TX,77356,"GRANGER PINES",,CONTRACTOR,,,,,,,,,,,"DR HORTON",,,,,"DR HORTON","14100 SOUTHWEST",HOUSTON,TX,77478,"(281) 201-5559",,,,
TX,MONTGOMERY,175352-20,"Single Family Homes",8/18/2020,,86580,,"16913 RICH PINES DR",HOUSTON,TX,77356,"GRANGER PINES",,CONTRACTOR,,,,,,,,,,,"DR HORTON",,,,,"DR HORTON","14100 SOUTHWEST",HOUSTON,TX,77478,"(281) 201-5559",,,,
TX,MONTGOMERY,175354-20,"Single Family Homes",8/18/2020,,94095,,"16941 RICH PINES DR",HOUSTON,TX,77356,"GRANGER PINES",,CONTRACTOR,,,,,,,,,,,"DR HORTON",,,,,"DR HORTON","14100 SOUTHWEST",HOUSTON,TX,77478,"(281) 201-5559",,,,
TX,MONTGOMERY,175367-20,"Single Family Homes",8/19/2020,,110700,,"14566 MONTCLAIR WAY",HOUSTON,TX,77356,"MILL CREEK ESTATES",,CONTRACTOR,,,,,,,,,,,"DR HORTON",,,,,"DR HORTON","14100 SOUTHWEST",HOUSTON,TX,77478,"(281) 201-5559",,,,
TX,MONTGOMERY,175368-20,"Single Family Homes",8/19/2020,,107460,,"14562 MONTCLAIR WAY",HOUSTON,TX,77356,"MILL CREEK ESTATES",,CONTRACTOR,,,,,,,,,,,"DR HORTON",,,,,"DR HORTON","14100 SOUTHWEST",HOUSTON,TX,77478,"(281) 201-5559",,,,
TX,MONTGOMERY,175369-20,"Single Family Homes",8/19/2020,,89505,,"14542 MONTCLAIR WAY",HOUSTON,TX,77356,"MILL CREEK ESTATES",,CONTRACTOR,,,,,,,,,,,"DR HORTON",,,,,"DR HORTON","14100 SOUTHWEST",HOUSTON,TX,77478,"(281) 201-5559",,,,
TX,MONTGOMERY,175370-20,"Single Family Homes",8/19/2020,,103050,,"18217 CASCADIA MILL CT",HOUSTON,TX,77356,"PORTER'S MILL",,CONTRACTOR,,,,,,,,,,,"DR HORTON",,,,,"DR HORTON","14100 SOUTHWEST",HOUSTON,TX,77478,"(281) 201-5559",,,,
TX,MONTGOMERY,175372-20,"Single Family Homes",8/19/2020,,110700,,"14534 MONTCLAIR WAY",HOUSTON,TX,77356,"MILL CREEK ESTATES",,CONTRACTOR,,,,,,,,,,,"DR HORTON",,,,,"DR HORTON","14100 SOUTHWEST",HOUSTON,TX,77478,"(281) 201-5559",,,,
TX,MONTGOMERY,175375-20,"Single Family Homes",8/19/2020,,107460,,"14530 MONTCLAIR WAY",HOUSTON,TX,77356,"MILL CREEK ESTATES",,CONTRACTOR,,,,,,,,,,,"DR HORTON",,,,,"DR HORTON","14100 SOUTHWEST",HOUSTON,TX,77478,"(281) 201-5559",,,,
TX,MONTGOMERY,175376-20,"Single Family Homes",8/19/2020,,96525,,"14526 MONTCLAIR WAY",HOUSTON,TX,77356,"MILL CREEK ESTATES",,CONTRACTOR,,,,,,,,,,,"DR HORTON",,,,,"DR HORTON","14100 SOUTHWEST",HOUSTON,TX,77478,"(281) 201-5559",,,,
TX,MONTGOMERY,175377-20,"Single Family Homes",8/19/2020,,132885,,"14529 MONTCLAIR WAY",HOUSTON,TX,77356,"MILL CREEK ESTATES",,CONTRACTOR,,,,,,,,,,,"DR HORTON",,,,,"DR HORTON","14100 SOUTHWEST",HOUSTON,TX,77478,"(281) 201-5559",,,,
TX,MONTGOMERY,175378-20,"Single Family Homes",8/19/2020,,132975,,"14522 MONTCLAIR WAY",HOUSTON,TX,77356,"MILL CREEK ESTATES",,CONTRACTOR,,,,,,,,,,,"DR HORTON",,,,,"DR HORTON","14100 SOUTHWEST",HOUSTON,TX,77478,"(281) 201-5559",,,,
TX,MONTGOMERY,175379-20,"Single Family Homes",8/19/2020,,100800,,"14518 MONTCLAIR WAY",HOUSTON,TX,77356,"MILL CREEK ESTATES",,CONTRACTOR,,,,,,,,,,,"DR HORTON",,,,,"DR HORTON","14100 SOUTHWEST",HOUSTON,TX,77478,"(281) 201-5559",,,,
TX,MONTGOMERY,175380-20,"Single Family Homes",8/19/2020,,110700,,"14523 MONTCLAIR WAY",HOUSTON,TX,77356,"MILL CREEK ESTATES",,CONTRACTOR,,,,,,,,,,,"DR HORTON",,,,,"DR HORTON","14100 SOUTHWEST",HOUSTON,TX,77478,"(281) 201-5559",,,,
TX,MONTGOMERY,175381-20,"Single Family Homes",8/19/2020,,89505,,"14514 MONTCLAIR WAY",HOUSTON,TX,77356,"MILL CREEK ESTATES",,CONTRACTOR,,,,,,,,,,,"DR HORTON",,,,,"DR HORTON","14100 SOUTHWEST",HOUSTON,TX,77478,"(281) 201-5559",,,,
TX,MONTGOMERY,175382-20,"Single Family Homes",8/19/2020,,107460,,"14517 MONTCLAIR WAY",HOUSTON,TX,77356,"MILL CREEK ESTATES",,CONTRACTOR,,,,,,,,,,,"DR HORTON",,,,,"DR HORTON","14100 SOUTHWEST",HOUSTON,TX,77478,"(281) 201-5559",,,,
TX,MONTGOMERY,175383-20,"Single Family Homes",8/19/2020,,110700,,"14510 MONTCLAIR WAY",HOUSTON,TX,77356,"MILL CREEK ESTATES",,CONTRACTOR,,,,,,,,,,,"DR HORTON",,,,,"DR HORTON","14100 SOUTHWEST",HOUSTON,TX,77478,"(281) 201-5559",,,,
TX,MONTGOMERY,175384-20,"Single Family Homes",8/19/2020,,100800,,"14550 MONTCLAIR WAY",HOUSTON,TX,77356,"MILL CREEK ESTATES",,CONTRACTOR,,,,,,,,,,,"DR HORTON",,,,,"DR HORTON","14100 SOUTHWEST",HOUSTON,TX,77478,"(281) 201-5559",,,,
TX,MONTGOMERY,175385-20,"Single Family Homes",8/19/2020,,141660,,"14557 MONTCLAIR WAY",HOUSTON,TX,77356,"MILL CREEK ESTATES",,CONTRACTOR,,,,,,,,,,,"DR HORTON",,,,,"DR HORTON","14100 SOUTHWEST",HOUSTON,TX,77478,"(281) 201-5559",,,,
TX,MONTGOMERY,175386-20,"Single Family Homes",8/19/2020,,96525,,"14537 MONTCLAIR WAY",HOUSTON,TX,77356,"MILL CREEK ESTATES",,CONTRACTOR,,,,,,,,,,,"DR HORTON",,,,,"DR HORTON","14100 SOUTHWEST",HOUSTON,TX,77478,"(281) 201-5559",,,,
TX,MONTGOMERY,175387-20,"Single Family Homes",8/19/2020,,132975,,"14545 MONTCLAIR WAY",HOUSTON,TX,77356,"MILL CREEK ESTATES",,CONTRACTOR,,,,,,,,,,,"DR HORTON",,,,,"DR HORTON","14100 SOUTHWEST",HOUSTON,TX,77478,"(281) 201-5559",,,,
TX,MONTGOMERY,175388-20,"Single Family Homes",8/19/2020,,96525,,"40389 BLOSSOM VALLEY LN",HOUSTON,TX,77356,"MILL CREEK ESTATES",,CONTRACTOR,,,,,,,,,,,"DR HORTON",,,,,"DR HORTON","14100 SOUTHWEST",HOUSTON,TX,77478,"(281) 201-5559",,,,
TX,MONTGOMERY,"175390 20","Single Family Homes",8/19/2020,,110700,,"14541 MONTCLAIR WAY",HOUSTON,TX,77356,"MILL CREEK ESTATES",,CONTRACTOR,,,,,,,,,,,"DR HORTON",,,,,"DR HORTON","14100 SOUTHWEST",HOUSTON,TX,77478,"(281) 201-5559",,,,
TX,MONTGOMERY,175391-20,"Single Family Homes",8/19/2020,,89505,,"14533 MONTCLAIR WAY",HOUSTON,TX,77356,"MILL CREEK ESTATES",,CONTRACTOR,,,,,,,,,,,"DR HORTON",,,,,"DR HORTON","14100 SOUTHWEST",HOUSTON,TX,77478,"(281) 201-5559",,,,
TX,MONTGOMERY,175392-20,"Single Family Homes",8/19/2020,,107460,,"14551 MONTCLAIR WAY",HOUSTON,TX,77356,"MILL CREEK ESTATES",,CONTRACTOR,,,,,,,,,,,"DR HORTON",,,,,"DR HORTON","14100 SOUTHWEST",HOUSTON,TX,77478,"(281) 201-5559",,,,
TX,MONTGOMERY,175393-20,"Single Family Homes",8/19/2020,,100800,,"40383 BLOSSOM VALLEY LN",HOUSTON,TX,77356,"MILL CREEK ESTATES",,CONTRACTOR,,,,,,,,,,,"DR HORTON",,,,,"DR HORTON","14100 SOUTHWEST",HOUSTON,TX,77478,"(281) 201-5559",,,,
TX,MONTGOMERY,175397-20,"Single Family Homes",8/19/2020,,89505,,"40377 BLOSSOM VALLEY LN",HOUSTON,TX,77356,"MILL CREEK ESTATES",,CONTRACTOR,,,,,,,,,,,"DR HORTON",,,,,"DR HORTON","14100 SOUTHWEST",HOUSTON,TX,77478,"(281) 201-5559",,,,
TX,MONTGOMERY,175399-20,"Single Family Homes",8/19/2020,,110700,,"40371 BLOSSOM VALLEY LN",HOUSTON,TX,77356,"MILL CREEK ESTATES",,CONTRACTOR,,,,,,,,,,,"DR HORTON",,,,,"DR HORTON","14100 SOUTHWEST",HOUSTON,TX,77478,"(281) 201-5559",,,,
TX,MONTGOMERY,175402-20,"Single Family Homes",8/19/2020,,100800,,"14567 MONTCLAIR WAY",HOUSTON,TX,77356,"MILL CREEK ESTATES",,CONTRACTOR,,,,,,,,,,,"DR HORTON",,,,,"DR HORTON","14100 SOUTHWEST",HOUSTON,TX,77478,"(281) 201-5559",,,,
TX,MONTGOMERY,175403-20,"Single Family Homes",8/19/2020,,96525,,"14563 MONTCLAIR WAY",HOUSTON,TX,77356,"MILL CREEK ESTATES",,CONTRACTOR,,,,,,,,,,,"DR HORTON",,,,,"DR HORTON","14100 SOUTHWEST",HOUSTON,TX,77478,"(281) 201-5559",,,,
TX,MONTGOMERY,175407-20,"Single Family Homes",8/19/2020,,90540,,"16790 LONELY PINES DR",HOUSTON,TX,77356,"GRANGER PINES",,CONTRACTOR,,,,,,,,,,,"DR HORTON",,,,,"DR HORTON","14100 SOUTHWEST",HOUSTON,TX,77478,"(281) 201-5559",,,,
TX,MONTGOMERY,175408-20,"Single Family Homes",8/19/2020,,93510,,"16782 LONELY PINES DR",HOUSTON,TX,77356,"GRANGER PINES",,CONTRACTOR,,,,,,,,,,,"DR HORTON",,,,,"DR HORTON","14100 SOUTHWEST",HOUSTON,TX,77478,"(281) 201-5559",,,,
TX,MONTGOMERY,175409-20,"Single Family Homes",8/19/2020,,124110,,"16949 RICH PINES DR",HOUSTON,TX,77356,"GRANGER PINES",,CONTRACTOR,,,,,,,,,,,"DR HORTON",,,,,"DR HORTON","14100 SOUTHWEST",HOUSTON,TX,77478,"(281) 201-5559",,,,
TX,MONTGOMERY,175410-20,"Single Family Homes",8/19/2020,,90540,,"16973 RICH PINES DR",HOUSTON,TX,77356,"GRANGER PINES",,CONTRACTOR,,,,,,,,,,,"DR HORTON",,,,,"DR HORTON","14100 SOUTHWEST",HOUSTON,TX,77478,"(281) 201-5559",,,,
TX,MONTGOMERY,175411-20,"Single Family Homes",8/19/2020,,119250,,"16781 LONELY PINES DR",HOUSTON,TX,77356,"GRANGER PINES",,CONTRACTOR,,,,,,,,,,,"DR HORTON",,,,,"DR HORTON","14100 SOUTHWEST",HOUSTON,TX,77478,"(281) 201-5559",,,,
TX,MONTGOMERY,175412-20,"Single Family Homes",8/19/2020,,86580,,"16785 LONELY PINES DR",HOUSTON,TX,77356,"GRANGER PINES",,CONTRACTOR,,,,,,,,,,,"DR HORTON",,,,,"DR HORTON","14100 SOUTHWEST",HOUSTON,TX,77478,"(281) 201-5559",,,,
TX,MONTGOMERY,175413-20,"Single Family Homes",8/19/2020,,94095,,"16793 LONELY PINES DR",HOUSTON,TX,77356,"GRANGER PINES",,CONTRACTOR,,,,,,,,,,,"DR HORTON",,,,,"DR HORTON","14100 SOUTHWEST",HOUSTON,TX,77478,"(281) 201-5559",,,,
TX,MONTGOMERY,175414-20,"Single Family Homes",8/19/2020,,100800,,"14538 MONTCLAIR WAY",HOUSTON,TX,77356,"MILL CREEK ESTATES",,CONTRACTOR,,,,,,,,,,,"DR HORTON",,,,,"DR HORTON","14100 SOUTHWEST",HOUSTON,TX,77478,"(281) 201-5559",,,,
TX,MONTGOMERY,175416-20,"Single Family Homes",8/19/2020,,89505,,"14558 MONTCLAIR WAY",HOUSTON,TX,77356,"MILL CREEK ESTATES",,CONTRACTOR,,,,,,,,,,,"DR HORTON",,,,,"DR HORTON","14100 SOUTHWEST",HOUSTON,TX,77478,"(281) 201-5559",,,,
TX,MONTGOMERY,175417-20,"Single Family Homes",8/19/2020,,132975,,"14554 MONTCLAIR WAY",HOUSTON,TX,77356,"MILIL CREEK ESTATES",,CONTRACTOR,,,,,,,,,,,"DR HORTON",,,,,"DR HORTON","14100 SOUTHWEST",HOUSTON,TX,77478,"(281) 201-5559",,,,
TX,MONTGOMERY,175418-20,"Single Family Homes",8/19/2020,,96525,,"14546 MONTCLAIR WAY",HOUSTON,TX,77356,"MILL CREEK ESTATES",,CONTRACTOR,,,,,,,,,,,"DR HORTON",,,,,"DR HORTON","14100 SOUTHWEST",HOUSTON,TX,77478,"(281) 201-5559",,,,
TX,MONTGOMERY,175426-20,"Single Family Homes",8/19/2020,,93510,,"16797 LONELY PINES DR",HOUSTON,TX,77356,"GRANGER PINES",,CONTRACTOR,,,,,,,,,,,"DR HORTON",,,,,"DR HORTON","14100 SOUTHWEST",HOUSTON,TX,77478,"(281) 201-5559",,,,
TX,MONTGOMERY,175427-20,"Single Family Homes",8/19/2020,,86580,,"16801 LONELY PINES DR",HOUSTON,TX,77356,"GRANGER PINES",,CONTRACTOR,,,,,,,,,,,"DR HORTON",,,,,"DR HORTON","14100 SOUTHWEST",HOUSTON,TX,77478,"(281) 201-5559",,,,
TX,MONTGOMERY,175428-20,"Single Family Homes",8/19/2020,,111555,,"16809 LONELY PINES DR",HOUSTON,TX,77356,"GRANGER PINES",,CONTRACTOR,,,,,,,,,,,"DR HORTON",,,,,"DR HORTON","14100 SOUTHWEST",HOUSTON,TX,77478,"(281) 201-5559",,,,
TX,MONTGOMERY,175429-20,"Single Family Homes",8/19/2020,,86580,,"16813 LONELY PINES DR",HOUSTON,TX,77356,"GRANGER PINES",,CONTRACTOR,,,,,,,,,,,"DR HORTON",,,,,"DR HORTON","14100 SOUTHWEST",HOUSTON,TX,77478,"(281) 201-5559",,,,
TX,MONTGOMERY,175430-20,"Single Family Homes",8/19/2020,,94095,,"14413 SUGAR PINES DR",HOUSTON,TX,77356,"GRANGER PINES",,CONTRACTOR,,,,,,,,,,,"DR HORTON",,,,,"DR HORTON","14100 SOUTHWEST",HOUSTON,TX,77478,"(281) 201-5559",,,,
TX,MONTGOMERY,175431-20,"Single Family Homes",8/19/2020,,124110,,"14421 SUGAR PINES DR",HOUSTON,TX,77356,"GRANGER PINES",,CONTRACTOR,,,,,,,,,,,"DR HORTON",,,,,"DR HORTON","14100 SOUTHWEST",HOUSTON,TX,77478,"(281) 201-5559",,,,
TX,MONTGOMERY,175529-20,"Single Family Homes",8/21/2020,,132975,,"15355 TIMBER PRESERVE LN",HOUSTON,TX,77356,"HARRINGTON TRAILS",,CONTRACTOR,,,,,,,,,,,"DR HORTON",,,,,"DR HORTON","14100 SOUTHWEST",HOUSTON,TX,77478,"(281) 201-5559",,,,
TX,MONTGOMERY,175530-20,"Single Family Homes",8/21/2020,,96525,,"15553 MALLOW CT",HOUSTON,TX,77356,"HARRINGTON TRAILS",,CONTRACTOR,,,,,,,,,,,"DR HORTON",,,,,"DR HORTON","14100 SOUTHWEST",HOUSTON,TX,77478,"(281) 201-5559",,,,
TX,MONTGOMERY,175534-20,"Single Family Homes",8/21/2020,,141660,,"15556 MALLOW CT",HOUSTON,TX,77356,"HARRINGTON TRAILS",,CONTRACTOR,,,,,,,,,,,"DR HORTON",,,,,"DR HORTON","14100 SOUTHWEST",HOUSTON,TX,77478,"(281) 201-5559",,,,
TX,MONTGOMERY,175535-20,"Single Family Homes",8/21/2020,,179865,,"14131 TOWER PEAK CT",HOUSTON,TX,77356,"FOSTERS RIDGE",,CONTRACTOR,,,,,,,,,,,"DR HORTON",,,,,"DR HORTON","14100 SOUTHWEST",HOUSTON,TX,77478,"(281) 201-5559",,,,
TX,MONTGOMERY,175536-20,"Single Family Homes",8/21/2020,,144315,,"13923 CIBOLA FOREST LN",HOUSTON,TX,77356,"FOSTERS RIDGE",,CONTRACTOR,,,,,,,,,,,"DR HORTON",,,,,"DR HORTON","14100 SOUTHWEST",HOUSTON,TX,77478,"(281) 201-5559",,,,
TX,MONTGOMERY,175554-20,"Single Family Homes",8/21/2020,,159435,,"14113 TOWER PEAK CT",HOUSTON,TX,77356,"FOSTERS RIDGE",,CONTRACTOR,,,,,,,,,,,"DR HORTON",,,,,"DR HORTON","14100 SOUTHWEST",HOUSTON,TX,77478,"(281) 201-5559",,,,
TX,MONTGOMERY,175525-20,"Single Family Homes",8/21/2020,,350000,,"22021 CISSYS LN",HOUSTON,TX,77356,,,CONTRACTOR,,,,,,,,,,,"DATE CONSTRUCTION",,,,,"DATE CONSTRUCTION","2 OLDE ROSE CT","THE WOODLANDS",TX,77382-5374,"(281) 924-6749",,,,
TX,MONTGOMERY,175346-20,"Single Family Homes",8/18/2020,,727990,,"144 EAST SHELL PORT SQUARE",HOUSTON,TX,77356,"LAKE WOODLANDS EAST SHORE",,CONTRACTOR,,,,,,,,,,,"DAVID WEEKLEY HOMES",,,,,"DAVID WEEKLEY HOMES","14444 NORTHWEST",HOUSTON,TX,77040,"(713) 570-5021",http://www.davidweekleyhomes.com/,,,
TX,MONTGOMERY,175312-20,"Single Family Homes",8/18/2020,,422827,,"18515 NORTH FM 149",HOUSTON,TX,77356,,,CONTRACTOR,,,,,,,,,,,"DUNN & STONE BUILDERS",,,,,"DUNN & STONE BUILDERS","33926 THOUSAND OAKS BLVD",MAGNOLIA,TX,77354-6268,"(281) 259-3577",http://www.dunnandstonebuilders.com,,,
TX,MONTGOMERY,175314-20,"Single Family Homes",8/18/2020,,304210,,"276 ARGOSY LN",HOUSTON,TX,77356,"RIDGELAKE SHORES",,CONTRACTOR,,,,,,,,,,,"DUNN & STONE BUILDERS",,,,,"DUNN & STONE BUILDERS","33926 THOUSAND OAKS BLVD",MAGNOLIA,TX,77354-6268,"(281) 259-3577",http://www.dunnandstonebuilders.com,,,
TX,MONTGOMERY,175365-20,"Single Family Homes",8/18/2020,,280000,,"4002 HIDDEN WINDS DR",HOUSTON,TX,77356,"BENDERS LANDING",,CONTRACTOR,,,,,,,,,,,"ENVIRONMENTAL RESOURCES",,,,,"ENVIRONMENTAL RESOURCES","112 SHERBROOK CIR",CONROE,TX,77385-7749,"(936) 672-7025",,,,
TX,MONTGOMERY,175455-20,"Single Family Homes",8/20/2020,,211990,,"26166 MORGAN CEMETERY ROAD",HOUSTON,TX,77356,"LIBERTY ESTATES",,CONTRACTOR,,,,,,,,,,,"FIRST AMERICA HOMES",,,,,"FIRST AMERICA HOMES","1400 WOODLOCH FOREST DR STE 200","THE WOODLANDS",TX,77380-1179,"(713) 452-1700",http://www.firstamericahomes.com/,,,info@firstamericahomes.com
TX,MONTGOMERY,175457-20,"Single Family Homes",8/20/2020,,203990,,"26174 MORGAN CEMETERYROAD",HOUSTON,TX,77356,"LIBERTY ESTATES",,CONTRACTOR,,,,,,,,,,,"FIRST AMERICA HOMES",,,,,"FIRST AMERICA HOMES","1400 WOODLOCH FOREST DR STE 200","THE WOODLANDS",TX,77380-1179,"(713) 452-1700",http://www.firstamericahomes.com/,,,info@firstamericahomes.com
TX,MONTGOMERY,175459-20,"Single Family Homes",8/20/2020,,189990,,"26182 MORGAN CEMETERY ROAD",HOUSTON,TX,77356,"LIBERTY ESTATES",,CONTRACTOR,,,,,,,,,,,"FIRST AMERICA HOMES",,,,,"FIRST AMERICA HOMES","1400 WOODLOCH FOREST DR STE 200","THE WOODLANDS",TX,77380-1179,"(713) 452-1700",http://www.firstamericahomes.com/,,,info@firstamericahomes.com
TX,MONTGOMERY,175460-20,"Single Family Homes",8/20/2020,,191990,,"26190 MORGAN CEMETERY ROAD",HOUSTON,TX,77356,"LIBERTY ESTATES",,CONTRACTOR,,,,,,,,,,,"FIRST AMERICA HOMES",,,,,"FIRST AMERICA HOMES","1400 WOODLOCH FOREST DR STE 200","THE WOODLANDS",TX,77380-1179,"(713) 452-1700",http://www.firstamericahomes.com/,,,info@firstamericahomes.com
TX,MONTGOMERY,175461-20,"Single Family Homes",8/20/2020,,196990,,"26198 MORGAN CEMETERY ROAD",HOUSTON,TX,77356,"LIBERTY ESTATES",,CONTRACTOR,,,,,,,,,,,"FIRST AMERICA HOMES",,,,,"FIRST AMERICA HOMES","1400 WOODLOCH FOREST DR STE 200","THE WOODLANDS",TX,77380-1179,"(713) 452-1700",http://www.firstamericahomes.com/,,,info@firstamericahomes.com
TX,MONTGOMERY,175462-20,"Single Family Homes",8/20/2020,,200990,,"10908 INDEPENDENCE ROAD",HOUSTON,TX,77356,"LIBERTY ESTATES",,CONTRACTOR,,,,,,,,,,,"FIRST AMERICA HOMES",,,,,"FIRST AMERICA HOMES","1400 WOODLOCH FOREST DR STE 200","THE WOODLANDS",TX,77380-1179,"(713) 452-1700",http://www.firstamericahomes.com/,,,info@firstamericahomes.com
TX,MONTGOMERY,175464-20,"Single Family Homes",8/20/2020,,185990,,"12902 LAKE CONROE BAY",HOUSTON,TX,77356,"SORRENTO BAY",,CONTRACTOR,,,,,,,,,,,"FIRST AMERICA HOMES",,,,,"FIRST AMERICA HOMES","1400 WOODLOCH FOREST DR STE 200","THE WOODLANDS",TX,77380-1179,"(713) 452-1700",http://www.firstamericahomes.com/,,,info@firstamericahomes.com
TX,MONTGOMERY,175438-20,"Single Family Homes",8/19/2020,,225000,,"15475 CONROE DR",HOUSTON,TX,77356,"MONTGOMERY PLACE",,"REYMUNDO GARCIA","15476 CONROE DR",CONROE,TX,77384,,Owner,,,,,OWNER,,,,,OWNER,,,,,,,,,
TX,MONTGOMERY,175448-20,"Single Family Homes",8/19/2020,,200000,,"270 MAGNOLIA RESERVE LOOP",HOUSTON,TX,77356,"MAGNOLIA RESERVE",,CONTRACTOR,,,,,,,,,,,"GRACEPOINT HOMES",,,,,"GRACEPOINT HOMES","33300 EGYPT LN STE 100",MAGNOLIA,TX,77354-2739,"(281) 681-0400",http://www.gracepointhomes.com/,"(281) 681-0402",,Info@gracepointhomes.com
TX,MONTGOMERY,175500-20,"Single Family Homes",8/20/2020,,950000,,"15118 WALDEN ROAD",HOUSTON,TX,77356,"WALDEN ROAD ESTATES",,"RICH GROBLEBEN","165 LONESTAR PARKWAY STE 210",MONTGOMERY,TX,77356,,Owner,,,,,OWNER,,,,,OWNER,,,,,,,,,
TX,MONTGOMERY,175452-20,"Single Family Homes",8/20/2020,,269990,,"9856 PRESERVE WAY",HOUSTON,TX,77356,"HARPERS PRESERVE",,CONTRACTOR,,,,,,,,,,,"HISTORY MAKER HOMES",,,,,"HISTORY MAKER HOMES","9001 AIRPORT FWY SUITE 400","NORTH RICHLAND HILLS",TX,76180-7769,"(817) 429-8008",http://www.historymaker.com/,"(817) 507-1102","JILL BARFIELD",
TX,MONTGOMERY,175453-20,"Single Family Homes",8/20/2020,,323990,,"9800 PRESERVE WAY",HOUSTON,TX,77356,"HARPERS PRESERVE",,CONTRACTOR,,,,,,,,,,,"HISTORY MAKER HOMES",,,,,"HISTORY MAKER HOMES","9001 AIRPORT FWY SUITE 400","NORTH RICHLAND HILLS",TX,76180-7769,"(817) 429-8008",http://www.historymaker.com/,"(817) 507-1102","JILL BARFIELD",
TX,MONTGOMERY,175515-20,"Single Family Homes",8/20/2020,,375000,,"15573 ZOE LOOP DR",HOUSTON,TX,77356,"GRAND LAKE ESTATES",,CONTRACTOR,,,,,,,,,,,"INFINITY CLASSIC HOMES",,,,,"INFINITY CLASSIC HOMES","17240 HUFFMEISTER RD STE 106",CYPRESS,TX,77429-4694,"(281) 213-4063",http://www.infinityclassichomes.com/,"(281) 213-4067",,
TX,MONTGOMERY,175451-20,"Single Family Homes",8/20/2020,,344110,,"17430 ORCHID FALLS LN",HOUSTON,TX,77356,ARTAVIA,,CONTRACTOR,,,,,,,,,,,"J PATRICK HOMES",,,,,"J PATRICK HOMES","9700 RICHMOND AVE STE 162",HOUSTON,TX,77042-4698,"(713) 789-8004",,,,
TX,MONTGOMERY,175499-20,"Single Family Homes",8/20/2020,,169000,,"14938 COALTOWN ROAD",HOUSTON,TX,77356,"ARROWHEAD LAKES",,CONTRACTOR,,,,,,,,,,,"JIM GENTRY BUILDER",,,,,"JIM GENTRY BUILDER","PO BOX 2177",CONROE,TX,77305-2177,"(936) 756-1315",,,"James Gentry",
TX,MONTGOMERY,175466-20,"Single Family Homes",8/20/2020,,220000,,"20663 KINGS CLIFF PLACE",HOUSTON,TX,77356,"BROOKWOOD FOREST",,CONTRACTOR,,,,,,,,,,,"KB HOME",,,,,"KB HOME","11314 RICHMOND AVE",HOUSTON,TX,77082-2616,"(281) 668-3800",,,,
TX,MONTGOMERY,175468-20,"Single Family Homes",8/20/2020,,161000,,"25636 RAMSEY HEIGHTS WAY",HOUSTON,TX,77356,"BROOKWOOD FOREST",,CONTRACTOR,,,,,,,,,,,"KB HOME",,,,,"KB HOME","11314 RICHMOND AVE",HOUSTON,TX,77082-2616,"(281) 668-3800",,,,
TX,MONTGOMERY,175470-20,"Single Family Homes",8/20/2020,,127000,,"20881 LANGWORTH PLACE",HOUSTON,TX,77356,"BROOKWOOD FOREST",,CONTRACTOR,,,,,,,,,,,"KB HOME",,,,,"KB HOME","11314 RICHMOND AVE",HOUSTON,TX,77082-2616,"(281) 668-3800",,,,
TX,MONTGOMERY,175472-20,"Single Family Homes",8/20/2020,,199000,,"8744 UTE CREEK LN",HOUSTON,TX,77356,"CIMARRON CREEK",,CONTRACTOR,,,,,,,,,,,"KB HOME",,,,,"KB HOME","11314 RICHMOND AVE",HOUSTON,TX,77082-2616,"(281) 668-3800",,,,
TX,MONTGOMERY,175537-20,"Single Family Homes",8/21/2020,,155000,,"25672 RAMSEY HEIGHTS WAY",HOUSTON,TX,77356,"BROOKWOOD FOREST",,CONTRACTOR,,,,,,,,,,,"KB HOME",,,,,"KB HOME","11314 RICHMOND AVE",HOUSTON,TX,77082-2616,"(281) 668-3800",,,,
TX,MONTGOMERY,175538-20,"Single Family Homes",8/21/2020,,229000,,"8788 UTE CREEK LN",HOUSTON,TX,77356,"CIMARRON CREEK",,CONTRACTOR,,,,,,,,,,,"KB HOME",,,,,"KB HOME","11314 RICHMOND AVE",HOUSTON,TX,77082-2616,"(281) 668-3800",,,,
TX,MONTGOMERY,175283-20,"Single Family Homes",8/17/2020,,110000,,"29655 KYNNDAL SHORE DR",HOUSTON,TX,77356,"LEGENDS TRACE",,CONTRACTOR,,,,,,,,,,,"LEGEND HOMES",,,,,"LEGEND HOMES","10410 WINDAMERE LAKES BLVD",HOUSTON,TX,77065-4996,"(281) 671-9060",http://legendhomecorp.com/,"(281) 671-9055",,
TX,MONTGOMERY,175284-20,"Single Family Homes",8/17/2020,,122000,,"29635 KYNNDAL SHORE DR",HOUSTON,TX,77356,"LEGENDS TRACE",,CONTRACTOR,,,,,,,,,,,"LEGEND HOMES",,,,,"LEGEND HOMES","10410 WINDAMERE LAKES BLVD",HOUSTON,TX,77065-4996,"(281) 671-9060",http://legendhomecorp.com/,"(281) 671-9055",,
TX,MONTGOMERY,"175285 20","Single Family Homes",8/17/2020,,115000,,"29638 KYNNDAL SHORE DR",HOUSTON,TX,77356,"LEGENDS TRACE",,CONTRACTOR,,,,,,,,,,,"LEGEND HOMES",,,,,"LEGEND HOMES","10410 WINDAMERE LAKES BLVD",HOUSTON,TX,77065-4996,"(281) 671-9060",http://legendhomecorp.com/,"(281) 671-9055",,
TX,MONTGOMERY,175292-20,"Single Family Homes",8/17/2020,,112000,,"5830 ROSEHILL FOREST LN",HOUSTON,TX,77356,"COUNTRY COLONY",,CONTRACTOR,,,,,,,,,,,"LENNAR HOMES",,,,,"LENNAR HOMES","550 GREENS PKWY",HOUSTON,TX,77067-4537,"(281) 875-1000",http://www.lennar.com/,,,
TX,MONTGOMERY,175293-20,"Single Family Homes",8/17/2020,,172000,,"11024 NORTH LAKE MIST LN",HOUSTON,TX,77356,"LAKE BREEZE",,CONTRACTOR,,,,,,,,,,,"LENNAR HOMES",,,,,"LENNAR HOMES","550 GREENS PKWY",HOUSTON,TX,77067-4537,"(281) 875-1000",http://www.lennar.com/,,,
TX,MONTGOMERY,175294-20,"Single Family Homes",8/17/2020,,144000,,"18924 COLLINA WAY",HOUSTON,TX,77356,TAVOLA,,CONTRACTOR,,,,,,,,,,,"LENNAR HOMES",,,,,"LENNAR HOMES","550 GREENS PKWY",HOUSTON,TX,77067-4537,"(281) 875-1000",http://www.lennar.com/,,,
TX,MONTGOMERY,175298-20,"Single Family Homes",8/17/2020,,97100,,"19030 CICERONE CT",HOUSTON,TX,77356,TAVOLA,,CONTRACTOR,,,,,,,,,,,"LENNAR HOMES",,,,,"LENNAR HOMES","550 GREENS PKWY",HOUSTON,TX,77067-4537,"(281) 875-1000",http://www.lennar.com/,,,
TX,MONTGOMERY,175299-20,"Single Family Homes",8/17/2020,,97000,,"19014 CICERONE CT",HOUSTON,TX,77356,TAVOLA,,CONTRACTOR,,,,,,,,,,,"LENNAR HOMES",,,,,"LENNAR HOMES","550 GREENS PKWY",HOUSTON,TX,77067-4537,"(281) 875-1000",http://www.lennar.com/,,,
TX,MONTGOMERY,175300-20,"Single Family Homes",8/17/2020,,97100,,"19034 CICERONE CT",HOUSTON,TX,77356,TAVOLA,,CONTRACTOR,,,,,,,,,,,"LENNAR HOMES",,,,,"LENNAR HOMES","550 GREENS PKWY",HOUSTON,TX,77067-4537,"(281) 875-1000",http://www.lennar.com/,,,
TX,MONTGOMERY,175321-20,"Single Family Homes",8/18/2020,,149000,,"24019 CHERRY BIRCH LN",HOUSTON,TX,77356,TAVOLA,,CONTRACTOR,,,,,,,,,,,"LENNAR HOMES",,,,,"LENNAR HOMES","550 GREENS PKWY",HOUSTON,TX,77067-4537,"(281) 875-1000",http://www.lennar.com/,,,
TX,MONTGOMERY,175323-20,"Single Family Homes",8/18/2020,,108000,,"11028 NORTH LAKE MIST LN",HOUSTON,TX,77356,"LAKE BREEZE",,CONTRACTOR,,,,,,,,,,,"LENNAR HOMES",,,,,"LENNAR HOMES","550 GREENS PKWY",HOUSTON,TX,77067-4537,"(281) 875-1000",http://www.lennar.com/,,,
TX,MONTGOMERY,175398-20,"Single Family Homes",8/19/2020,,169000,,"23850 VIA CAMINO LN",HOUSTON,TX,77356,TAVOLA,,CONTRACTOR,,,,,,,,,,,"LENNAR HOMES",,,,,"LENNAR HOMES","550 GREENS PKWY",HOUSTON,TX,77067-4537,"(281) 875-1000",http://www.lennar.com/,,,
TX,MONTGOMERY,175400-20,"Single Family Homes",8/19/2020,,147900,,"11032 NORTH LAKE MIST LN",HOUSTON,TX,77356,"LAKE BREEZE",,CONTRACTOR,,,,,,,,,,,"LENNAR HOMES",,,,,"LENNAR HOMES","550 GREENS PKWY",HOUSTON,TX,77067-4537,"(281) 875-1000",http://www.lennar.com/,,,
TX,MONTGOMERY,175401-20,"Single Family Homes",8/19/2020,,152000,,"23854 VIA CAMINO LN",HOUSTON,TX,77356,TAVOLA,,CONTRACTOR,,,,,,,,,,,"LENNAR HOMES",,,,,"LENNAR HOMES","550 GREENS PKWY",HOUSTON,TX,77067-4537,"(281) 875-1000",http://www.lennar.com/,,,
TX,MONTGOMERY,175506-20,"Single Family Homes",8/20/2020,,1349000,,"5815 ROSEHILL FOREST LN",HOUSTON,TX,77356,"COUNTRY COLONY",,CONTRACTOR,,,,,,,,,,,"LENNAR HOMES",,,,,"LENNAR HOMES","550 GREENS PKWY",HOUSTON,TX,77067-4537,"(281) 875-1000",http://www.lennar.com/,,,
TX,MONTGOMERY,175532-20,"Single Family Homes",8/21/2020,,250000,,"28230 EMERALD BEND",HOUSTON,TX,77356,"WOODSONS RESERVE",,CONTRACTOR,,,,,,,,,,,"LENNAR HOMES",,,,,"LENNAR HOMES","550 GREENS PKWY",HOUSTON,TX,77067-4537,"(281) 875-1000",http://www.lennar.com/,,,
TX,MONTGOMERY,175533-20,"Single Family Homes",8/21/2020,,250000,,"28234 EMERALD BEND",HOUSTON,TX,77356,"WOODSONS RESERVE",,CONTRACTOR,,,,,,,,,,,"LENNAR HOMES",,,,,"LENNAR HOMES","550 GREENS PKWY",HOUSTON,TX,77067-4537,"(281) 875-1000",http://www.lennar.com/,,,
TX,MONTGOMERY,175509-20,"Single Family Homes",8/20/2020,,65000,,"16515 ROCK WREN TR",HOUSTON,TX,77356,"MONTGOMERY CREEK RANCH",,CONTRACTOR,,,,,,,,,,,"LONG LAKE HOMES",,,,,"LONG LAKE HOMES","15915 KATY FWY STE 405",HOUSTON,TX,77094-1710,"(281) 646-1727",http://www.longlakeltd.com/,,"DAVID BIGLER",
TX,MONTGOMERY,175510-20,"Single Family Homes",8/20/2020,,64000,,"2149 ARTIC LOON DR",HOUSTON,TX,77356,"MONTGOMERY CREEK RANCH",,CONTRACTOR,,,,,,,,,,,"LONG LAKE HOMES",,,,,"LONG LAKE HOMES","15915 KATY FWY STE 405",HOUSTON,TX,77094-1710,"(281) 646-1727",http://www.longlakeltd.com/,,"DAVID BIGLER",
TX,MONTGOMERY,175511-20,"Single Family Homes",8/20/2020,,80000,,"16392 SNOWY EGRET LN",HOUSTON,TX,77356,"MONTGOMERY CREEK RANCH",,CONTRACTOR,,,,,,,,,,,"LONG LAKE HOMES",,,,,"LONG LAKE HOMES","15915 KATY FWY STE 405",HOUSTON,TX,77094-1710,"(281) 646-1727",http://www.longlakeltd.com/,,"DAVID BIGLER",
TX,MONTGOMERY,175309-20,"Single Family Homes",8/18/2020,,215000,,"23855 VIA CAMINO LN",HOUSTON,TX,77356,TAVOLA,,CONTRACTOR,,,,,,,,,,,"MERITAGE HOMES",,,,,"MERITAGE HOMES","2901 W SAM HOUSTON PKWY N",HOUSTON,TX,77043-1630,"(713) 357-1184",,,,
TX,MONTGOMERY,175311-20,"Single Family Homes",8/18/2020,,223000,,"23847 VIA CAMINO LN",HOUSTON,TX,77356,TAVOLA,,CONTRACTOR,,,,,,,,,,,"MERITAGE HOMES",,,,,"MERITAGE HOMES","2901 W SAM HOUSTON PKWY N",HOUSTON,TX,77043-1630,"(713) 357-1184",,,,
TX,MONTGOMERY,175331-20,"Single Family Homes",8/18/2020,,209000,,"23827 VIA CAMINO LN",HOUSTON,TX,77356,TAVOLA,,CONTRACTOR,,,,,,,,,,,"MERITAGE HOMES",,,,,"MERITAGE HOMES","2901 W SAM HOUSTON PKWY N",HOUSTON,TX,77043-1630,"(713) 357-1184",,,,
TX,MONTGOMERY,175332-20,"Single Family Homes",8/18/2020,,211000,,"19022 CICERONE CT",HOUSTON,TX,77356,TAVOLA,,CONTRACTOR,,,,,,,,,,,"MERITAGE HOMES",,,,,"MERITAGE HOMES","2901 W SAM HOUSTON PKWY N",HOUSTON,TX,77043-1630,"(713) 357-1184",,,,
TX,MONTGOMERY,175333-20,"Single Family Homes",8/18/2020,,233000,,"19038 CICERONE CT",HOUSTON,TX,77356,TAVOLA,,CONTRACTOR,,,,,,,,,,,"MERITAGE HOMES",,,,,"MERITAGE HOMES","2901 W SAM HOUSTON PKWY N",HOUSTON,TX,77043-1630,"(713) 357-1184",,,,
TX,MONTGOMERY,175334-20,"Single Family Homes",8/18/2020,,211000,,"19042 CICERONE CT",HOUSTON,TX,77356,TAVOLA,,CONTRACTOR,,,,,,,,,,,"MERITAGE HOMES",,,,,"MERITAGE HOMES","2901 W SAM HOUSTON PKWY N",HOUSTON,TX,77043-1630,"(713) 357-1184",,,,
TX,MONTGOMERY,175335-20,"Single Family Homes",8/18/2020,,241000,,"19058 CICERONE CT",HOUSTON,TX,77356,TAVOLA,,CONTRACTOR,,,,,,,,,,,"MERITAGE HOMES",,,,,"MERITAGE HOMES","2901 W SAM HOUSTON PKWY N",HOUSTON,TX,77043-1630,"(713) 357-1184",,,,
TX,MONTGOMERY,175336-20,"Single Family Homes",8/18/2020,,209000,,"19026 CICERONE CT",HOUSTON,TX,77356,TAVOLA,,CONTRACTOR,,,,,,,,,,,"MERITAGE HOMES",,,,,"MERITAGE HOMES","2901 W SAM HOUSTON PKWY N",HOUSTON,TX,77043-1630,"(713) 357-1184",,,,
TX,MONTGOMERY,175341-20,"Single Family Homes",8/18/2020,,215000,,"19069 CICERONE CT",HOUSTON,TX,77356,TAVOLA,,CONTRACTOR,,,,,,,,,,,"MERITAGE HOMES",,,,,"MERITAGE HOMES","2901 W SAM HOUSTON PKWY N",HOUSTON,TX,77043-1630,"(713) 357-1184",,,,
TX,MONTGOMERY,175342-20,"Single Family Homes",8/18/2020,,209000,,"19066 CICERONE CT",HOUSTON,TX,77356,TAVOLA,,CONTRACTOR,,,,,,,,,,,"MERITAGE HOMES",,,,,"MERITAGE HOMES","2901 W SAM HOUSTON PKWY N",HOUSTON,TX,77043-1630,"(713) 357-1184",,,,
TX,MONTGOMERY,175343-20,"Single Family Homes",8/18/2020,,211000,,"19062 CICERONE CT",HOUSTON,TX,77356,TAVOLA,,CONTRACTOR,,,,,,,,,,,"MERITAGE HOMES",,,,,"MERITAGE HOMES","2901 W SAM HOUSTON PKWY N",HOUSTON,TX,77043-1630,"(713) 357-1184",,,,
TX,MONTGOMERY,175353-20,"Single Family Homes",8/18/2020,,211000,,"23816 FLORA ROSSO WAY",HOUSTON,TX,77356,TAVOLA,,CONTRACTOR,,,,,,,,,,,"MERITAGE HOMES",,,,,"MERITAGE HOMES","2901 W SAM HOUSTON PKWY N",HOUSTON,TX,77043-1630,"(713) 357-1184",,,,
TX,MONTGOMERY,175355-20,"Single Family Homes",8/18/2020,,215000,,"23815 VIA CAMINO LN",HOUSTON,TX,77356,TAVOLA,,CONTRACTOR,,,,,,,,,,,"MERITAGE HOMES",,,,,"MERITAGE HOMES","2901 W SAM HOUSTON PKWY N",HOUSTON,TX,77043-1630,"(713) 357-1184",,,,
TX,MONTGOMERY,"175357 20","Single Family Homes",8/18/2020,,233000,,"23812 FLORA ROSSO WAY",HOUSTON,TX,77356,TAVOLA,,CONTRACTOR,,,,,,,,,,,"MERITAGE HOMES",,,,,"MERITAGE HOMES","2901 W SAM HOUSTON PKWY N",HOUSTON,TX,77043-1630,"(713) 357-1184",,,,
TX,MONTGOMERY,175361-20,"Single Family Homes",8/18/2020,,211000,,"23822 VIA CAMINO LN",HOUSTON,TX,77356,TAVOLA,,CONTRACTOR,,,,,,,,,,,"MERITAGE HOMES",,,,,"MERITAGE HOMES","2901 W SAM HOUSTON PKWY N",HOUSTON,TX,77043-1630,"(713) 357-1184",,,,
TX,MONTGOMERY,175362-20,"Single Family Homes",8/18/2020,,233000,,"23838 VIA CAMINO LN",HOUSTON,TX,77356,TAVOLA,,CONTRACTOR,,,,,,,,,,,"MERITAGE HOMES",,,,,"MERITAGE HOMES","2901 W SAM HOUSTON PKWY N",HOUSTON,TX,77043-1630,"(713) 357-1184",,,,
TX,MONTGOMERY,175364-20,"Single Family Homes",8/18/2020,,241000,,"23819 VIA CAMINO LN",HOUSTON,TX,77356,TAVOLA,,CONTRACTOR,,,,,,,,,,,"MERITAGE HOMES",,,,,"MERITAGE HOMES","2901 W SAM HOUSTON PKWY N",HOUSTON,TX,77043-1630,"(713) 357-1184",,,,
TX,MONTGOMERY,175324-20,"Single Family Homes",8/18/2020,,369990,,"2763 STERLING HEIGHTS LN",HOUSTON,TX,77356,"THE MEADOWS AT IMPERIAL OAKS",,CONTRACTOR,,,,,,,,,,,"MHI MCGUYER HOMEBUILDERS",,,,,"MHI MCGUYER HOMEBUILDERS","7676 WOODWAY DR",HOUSTON,TX,77063-1526,"(713) 260-4107",,,,
TX,MONTGOMERY,175330-20,"Single Family Homes",8/18/2020,,235990,,"2611 FOREST COVE CT",HOUSTON,TX,77356,"THE MEADOW AT IMPERIAL OAKS",,CONTRACTOR,,,,,,,,,,,"MHI MCGUYER HOMEBUILDERS",,,,,"MHI MCGUYER HOMEBUILDERS","7676 WOODWAY DR",HOUSTON,TX,77063-1526,"(713) 260-4107",,,,
TX,MONTGOMERY,175539-20,"Single Family Homes",8/21/2020,,210990,,"2933 YAUPON GROVE LN",HOUSTON,TX,77356,"MEADOWS AT IMPERIAL OAKS",,CONTRACTOR,,,,,,,,,,,"MHI MCGUYER HOMEBUILDERS",,,,,"MHI MCGUYER HOMEBUILDERS","7676 WOODWAY DR",HOUSTON,TX,77063-1526,"(713) 260-4107",,,,
TX,MONTGOMERY,175359-20,"Single Family Homes",8/18/2020,,475500,,"27547 SOUTH LAZY MEADOW WAY",HOUSTON,TX,77356,"BENDERS LANDING ESTATES",,CONTRACTOR,,,,,,,,,,,"PARTNERS IN BUILDING",,,,,"PARTNERS IN BUILDING","2901 W SAM HOUSTON PKWY N STE C250",HOUSTON,TX,77043-1624,"(713) 937-1121",http://www.partnersinbuilding.com,"(713) 937-1145",,
TX,MONTGOMERY,175373-20,"Single Family Homes",8/19/2020,,479425,,"3314 ATWOOD CREEK CT",HOUSTON,TX,77356,"FALLS AT IMPERIAL OAKS",,CONTRACTOR,,,,,,,,,,,"PARTNERS IN BUILDING",,,,,"PARTNERS IN BUILDING","2901 W SAM HOUSTON PKWY N STE C250",HOUSTON,TX,77043-1624,"(713) 937-1121",http://www.partnersinbuilding.com,"(713) 937-1145",,
TX,MONTGOMERY,175374-20,"Single Family Homes",8/19/2020,,491000,,"31424 CREEKSIDE OAKS LN",HOUSTON,TX,77356,"FALLS AT IMPERIAL OAKS",,CONTRACTOR,,,,,,,,,,,"PARTNERS IN BUILDING",,,,,"PARTNERS IN BUILDING","2901 W SAM HOUSTON PKWY N STE C250",HOUSTON,TX,77043-1624,"(713) 937-1121",http://www.partnersinbuilding.com,"(713) 937-1145",,
TX,MONTGOMERY,175271-20,"Single Family Homes",8/17/2020,,397925,,"4516 WOODLAND BEND CT",HOUSTON,TX,77356,"WOODSONS RESERVE",,CONTRACTOR,,,,,,,,,,,"PERRY HOMES",,,,,"PERRY HOMES","9000 GULF FWY",HOUSTON,TX,77017-7018,"(713) 417-1396",,,,
TX,MONTGOMERY,175272-20,"Single Family Homes",8/17/2020,,220425,,"17146 CRIMSON CREST DR",HOUSTON,TX,77356,ARTAVIA,,CONTRACTOR,,,,,,,,,,,"PERRY HOMES",,,,,"PERRY HOMES","9000 GULF FWY",HOUSTON,TX,77017-7018,"(713) 417-1396",,,,
TX,MONTGOMERY,175562-20,"Single Family Homes",8/21/2020,,252675,,"19000 ROSEWOOD TERRACE DR",HOUSTON,TX,77356,TAVOLA,,CONTRACTOR,,,,,,,,,,,"PERRY HOMES",,,,,"PERRY HOMES","9000 GULF FWY",HOUSTON,TX,77017-7018,"(713) 417-1396",,,,
TX,HARRIS,20036635,"Warehouse & Manufacturing",9/18/2020,Renovation,37294,,"1302 TELEPHONE",HOUSTON,TX,77023,,,CONTRACTOR,,,,,,,,,,,"ARGO REALTY",,,,,"ARGO REALTY","2000 S DAIRY ASHFORD # 250",HOUSTON,TX,77077,"(713) 299-8725",,,"DIANE MUNSON",
TX,HARRIS,20044558,"Warehouse & Manufacturing",9/18/2020,Renovation,35000,,"37 LYERLY",HOUSTON,TX,77022,,,"DAN SUGLAS","37 LYERLY",HOUSTON,TX,77022,"(281) 850-3047",Applicant,,,,,OWNER,,,,,OWNER,,,,,,,,,
TX,HARRIS,20057838,"Warehouse & Manufacturing",9/18/2020,Addition,1577988,,"6650 PINE VISTA",HOUSTON,TX,77092,,,CONTRACTOR,,,,,,,,,,,"THORNTON CRISTY",,,,,"THORNTON CRISTY","2004 PARK",HOUSTON,TX,77565,"(210) 425-3381",,,,
