state,county,permno,ptype,pdate,pdescription,jvalue,jsqfeet,jaddr,jcity,jstate,jzip,jsubdiv,jlotno,aname,aaddr,acity,astate,azip,aphone,atype,aurl,afax,aprimarycontact,aemail,bldcode,units,bldgs,ctype,legal,contractor,caddress,ccity,cstate,czip,cphone,curl,cfax,cprimarycontact,cemail
TX,HARRIS,1912180141,"Auto Sales & Services",6/16/2020,,450000,6000,"17203 PREMIUM DR",HOUSTON,TX,77356,,,"AUZ MATERIALS COMPANY LLC","17203 PREMIUM DR",HOUSTON,TX,77356,,Owner,,,,,OWNER,,,,,OWNER,,,,,,,,,
TX,HARRIS,20041762,"Auto Sales & Services",6/30/2020,,878452,,"10050 SOUTHWEST",HOUSTON,TX,77074,,,CONTRACTOR,,,,,,,,,,,"WD PARTNERS",,,,,"WD PARTNERS","7007 DISCOVERY BLVD",DUBLIN,OH,43017-3218,"(614) 634-7345",http://www.wdpartners.com/,"(614) 634-7777",,
TX,HARRIS,20032348,"Commercial Swimming Pool & Spas",7/2/2020,,40000,,"3015 WESLAYAN ST BLDG",HOUSTON,TX,77027,,,CONTRACTOR,,,,,,,,,,,"MAPLE MULTI FAMILY CONTRACTOR",,,,,"MAPLE MULTI FAMILY CONTRACTOR","3889 MAPLE AVE STE 200",DALLAS,TX,75219-3916,"(214) 922-8400",,,,
TX,HARRIS,20000153,"Commercial Swimming Pool & Spas",6/30/2020,,64800,,"6400 WASHINGTON AVE BLD",HOUSTON,TX,77007,,,CONTRACTOR,,,,,,,,,,,"PATIO POOLS OF HOUSTON",,,,,"PATIO POOLS OF HOUSTON","5904 FAIRDALE LN",HOUSTON,TX,77057-6307,"(713) 789-1710",http://www.patio-pools.com/,"(713) 789-0715",,info@patio-pools.com
TX,HARRIS,20013885,"Duplex, Triplex, & Fourplex",6/30/2020,,137500,,"5201 WYLIE ST 1 &",HOUSTON,TX,77026,,,"THOMPSON-REID BRENT","5201 WYLIE ST 1 &",HOUSTON,TX,77026,,Owner,,,,,"ROGERS KEVIN",,,,,"ROGERS KEVIN","5330 GRIGGS",HOUSTON,TX,77016,"(713) 489-3694",,,,
TX,HARRIS,20026685,"Duplex, Triplex, & Fourplex",7/3/2020,,167033,,"8213 GRANDVIEW ST A",HOUSTON,TX,77051,,,CONTRACTOR,,,,,,,,,,,"ORIGINAL CONSTRUCTORS",,,,,"ORIGINAL CONSTRUCTORS","9634 BUFFUM ST",HOUSTON,TX,77051-3014,"(713) 701-9787",,,,
TX,HARRIS,20012729,"Educational Institution",6/26/2020,Renovation,57960,,"1 RAIDER CIRCLE",HOUSTON,TX,77080,,,CONTRACTOR,,,,,,,,,,,"SATTERFIELD & PONTIKES CONSTRUCTION",,,,,"SATTERFIELD & PONTIKES CONSTRUCTION","11000 EQUITY DR",HOUSTON,TX,77041-8234,"(713) 961-1300",http://satpon.com/,,,
TX,HARRIS,20033712,"Educational Institution",6/24/2020,Renovation,7300000,,"6100 MAIN",HOUSTON,TX,77005,,,CONTRACTOR,,,,,,,,,,,"WS BELLOWS CONSTRUCTION",,,,,"WS BELLOWS CONSTRUCTION","1906 AFTON ST",HOUSTON,TX,77055-2209,"(713) 680-2132",http://www.wsbellows.com/,"(713) 812-2687",,wsbcc@wsbellows.com
TX,HARRIS,1910220114,"Educational Institution",6/16/2020,,13500000,48324,"13300 WILL CLAYTON PKWY",HOUSTON,TX,77356,,,"HUMBLE INDEPENDENT SCHOOL DISTRICT","13300 WILL CLAYTON PKWY",HOUSTON,TX,77356,,Owner,,,,,OWNER,,,,,OWNER,,,,,,,,,
TX,HARRIS,20042546,"Educational Institution",7/1/2020,Renovation,46905,,"1301 ALABAMA ST",HOUSTON,TX,77004,,,"HOUSTON COMMUNITY COLLEGE","3100 MAIN STREET",HOUSTON,TX,77002,"(713) 718-5001",Applicant,,,,,OWNER,,,,,OWNER,,,,,,,,,
TX,HARRIS,2003120156,"Hotel, Motel & Assisted Living",6/16/2020,,1844475,25025,"7602 GARTH RD",HOUSTON,TX,77356,"PALACE INN",,"SOMBHAI BHIKABHAI","7602 GARTH RD",HOUSTON,TX,77356,,Owner,,,,,OWNER,,,,,OWNER,,,,,,,,,
TX,HARRIS,1911210174,"Multi Family Apartments & Condos",6/16/2020,,4802400,48024,"23420 KINGSLAND BLVD",HOUSTON,TX,77356,,,"KINGSLAND PARK","23420 KINGSLAND BLVD",HOUSTON,TX,77356,,Owner,,,,,OWNER,,,,,OWNER,,,,,,,,,
TX,HARRIS,1912030145,"Multi Family Apartments & Condos",6/18/2020,,2363230,27606,"1700 KATY FORT BEND RD",HOUSTON,TX,77356,,,"AMCAL EQUITIES LLC","1700 KATY FORT BEND RD",HOUSTON,TX,77356,,Owner,,,,,OWNER,,,,,OWNER,,,,,,,,,
TX,HARRIS,20014406,"Multi Family Apartments & Condos",7/1/2020,,2449114,,"7925 W LITTLE YORK RD BLD",HOUSTON,TX,77040,,,CONTRACTOR,,,,,,,,,,,"BLAZER BUILDING",,,,,"BLAZER BUILDING","4001 W SAM HOUSTON PKWY N STE 100",HOUSTON,TX,77043-1236,"(713) 829-9200",http://www.blazerbuilding.com/,"(713) 914-9292",,info@blazerbuilding.com
TX,HARRIS,20058642,"Offices, R&D, & Professional",6/29/2020,Renovation,49680,,"11914 ASTORIA BLVD",HOUSTON,TX,77089,,,CONTRACTOR,,,,,,,,,,,"SOUTH COAST CONSTRUCTION SERVICES",,,,,"SOUTH COAST CONSTRUCTION SERVICES","8935 KNIGHT RD",HOUSTON,TX,77054-4303,"(713) 222-2308",http://www.sccsi.net/contactus.html,"(713) 222-7107",,jbarrow@sccsi.net
TX,HARRIS,20058250,"Offices, R&D, & Professional",6/30/2020,Renovation,135000,,"2700 POST OAK BLVD",HOUSTON,TX,77056,,,CONTRACTOR,,,,,,,,,,,"THREE GALLERIA OFFICE BUILDING",,,,,"THREE GALLERIA OFFICE BUILDING","5065 WESTHEIMER RD",HOUSTON,TX,77056,"(713) 396-7282",,,,
TX,HARRIS,000074836,"Offices, R&D, & Professional",6/4/2020,"Finish Out",48000,,"1101 SPENCER E # I","SOUTH HOUSTON",TX,77587,,,CONTRACTOR,,,,,,,,,,,"PROMINENT CONSTRUCTION",,,,,"PROMINENT CONSTRUCTION","8107 GOLDEN TRACE CT",HOUSTON,TX,77083-6941,"(281) 865-4243",,,,
TX,HARRIS,20024888,"Offices, R&D, & Professional",7/2/2020,Renovation,1310420,,"717 FRANKLIN",HOUSTON,TX,77002,,,CONTRACTOR,,,,,,,,,,,"ZENITH CONSTRUCTION",,,,,"ZENITH CONSTRUCTION","7818 HILLMONT ST",HOUSTON,TX,77040-6108,"(713) 365-0690",http://www.zenith-construction.com/,,,
TX,HARRIS,20018126,"Offices, R&D, & Professional",7/2/2020,Renovation,50000,,"110 S WAYSIDE",HOUSTON,TX,77011,,,CONTRACTOR,,,,,,,,,,,"BKT CONSTRUCTION ",,,,,"BKT CONSTRUCTION ","2300 VALLEY VIEW",HOUSTON,TX,75062,"(317) 414-2031",,,,
TX,HARRIS,20031788,"Offices, R&D, & Professional",7/1/2020,Renovation,3870000,,"16800 GREENSPOINT PARK DR",HOUSTON,TX,77060,,,CONTRACTOR,,,,,,,,,,,"BYRD INTERIOR CONSTRUCTION",,,,,"BYRD INTERIOR CONSTRUCTION","2123 W GOVERNORS CIR # 100",HOUSTON,TX,77092-8746,"(713) 688-8850",http://www.byrdinterior.com/,,"JOHN BYRD",jbyrd@byrdinterior.com
TX,HARRIS,20056209,"Offices, R&D, & Professional",7/2/2020,Renovation,811000,,"24 GREENWAY PLAZA",HOUSTON,TX,77046,,,CONTRACTOR,,,,,,,,,,,"BYRD INTERIOR CONSTRUCTION",,,,,"BYRD INTERIOR CONSTRUCTION","2123 W GOVERNORS CIR",HOUSTON,TX,77092-8746,"(713) 688-8850",,,,
TX,HARRIS,20025788,"Offices, R&D, & Professional",7/1/2020,Renovation,90000,,"16945 NORTHCHASE DR",HOUSTON,TX,77060,,,CONTRACTOR,,,,,,,,,,,"CANNON ENTERPRISES",,,,,"CANNON ENTERPRISES","230 RILEY FUZZEL RD",SPRING,TX,77373,"(281) 353-6868",,,,
TX,HARRIS,20060462,"Offices, R&D, & Professional",7/1/2020,Renovation,48000,,"1800 BERING DR",HOUSTON,TX,77057,,,CONTRACTOR,,,,,,,,,,,"CANNON ENTERPRISES",,,,,"CANNON ENTERPRISES","230 RILEY FUZZEL RD",SPRING,TX,77373,"(281) 353-6868",,,,
TX,HARRIS,20011616,"Offices, R&D, & Professional",7/1/2020,Renovation,68000,,"5300 W GULF BANK",HOUSTON,TX,77088,,,CONTRACTOR,,,,,,,,,,,"E & A CONTRACTORS",,,,,"E & A CONTRACTORS","2404 CREST RIDGE",HOUSTON,TX,75228,"(469) 463-5566",,,,
TX,HARRIS,20041220,"Offices, R&D, & Professional",7/2/2020,,233000,,"575 N DAIRY ASHFORD RD",HOUSTON,TX,77079,,,CONTRACTOR,,,,,,,,,,,"REED CONSTRUCTION",,,,,"REED CONSTRUCTION","2212 MANADA TRL","CEDAR PARK",TX,78641-2740,"(832) 397-9038",,,,
TX,HARRIS,20060881,"Offices, R&D, & Professional",7/1/2020,Renovation,48000,,"9805 KATY FWY",HOUSTON,TX,77356,,,CONTRACTOR,,,,,,,,,,,"ENDURANCE BUILDERS",,,,,"ENDURANCE BUILDERS","2190 NORTH LOOP W STE 300",HOUSTON,TX,77018-8006,"(832) 623-7351",http://www.endbs.com/,,"BOB FLOWERS",
TX,HARRIS,20061631,"Offices, R&D, & Professional",7/2/2020,Renovation,100000,,"1400 POST OAK BLVD FL",HOUSTON,TX,77056,,,CONTRACTOR,,,,,,,,,,,"ENDURANCE BUILDERS",,,,,"ENDURANCE BUILDERS","2190 NORTH LOOP W STE 300",HOUSTON,TX,77018-8006,"(832) 623-7351",http://www.endbs.com/,,"BOB FLOWERS",
TX,HARRIS,20026388,"Offices, R&D, & Professional",7/1/2020,Renovation,509381,,"1704 TOWNHURST",HOUSTON,TX,77043,,,CONTRACTOR,,,,,,,,,,,"ANGLER CONSTRUCTION",,,,,"ANGLER CONSTRUCTION","5005 WOODWAY DR",HOUSTON,TX,77056-1740,"(713) 629-5860",http://anglerco.com/,"(713) 629-5799",,thawkins@anglerco.com
TX,HARRIS,20055773,"Offices, R&D, & Professional",7/1/2020,Renovation,1100000,,"500 DALLAS ST",HOUSTON,TX,77002,,,CONTRACTOR,,,,,,,,,,,"GALLANT BUILDERS",,,,,"GALLANT BUILDERS","6990 PORTWEST DR",HOUSTON,TX,77024-8039,"(713) 275-9900",http://www.gallantbuilders.com/,,,
TX,HARRIS,20048254,"Offices, R&D, & Professional",7/1/2020,Renovation,400000,,"11757 KATY FWY",HOUSTON,TX,77079,,,"GEMINI ROSEMONT COMMERCIAL RE","11757 KATY FWY STE 110",HOUSTON,TX,77079,"(713) 400-0012",Applicant,https://geminirosemont.com/,,,adam.ross@streamrealty.com,OWNER,,,,,OWNER,,,,,,,,,
TX,HARRIS,20029174,"Offices, R&D, & Professional",7/6/2020,,250000,,"7915 WESTGLEN",HOUSTON,TX,77063,,,"INDUS ADMINISTRATIVE SERVICES","6601 HARBOR TOWN DR",HOUSTON,TX,77036,"(713) 774-5618",Applicant,,,,,OWNER,,,,,OWNER,,,,,,,,,
TX,HARRIS,20048917,"Offices, R&D, & Professional",7/2/2020,Renovation,3832125,,"1500 POST OAK BLVD",HOUSTON,TX,77056,,,CONTRACTOR,,,,,,,,,,,"DE HARVEY BUILDERS",,,,,"DE HARVEY BUILDERS","3630 WESTCHASE DR",HOUSTON,TX,77042-5224,"(713) 783-8710",,,,
TX,HARRIS,20024157,"Offices, R&D, & Professional",7/6/2020,,150000,,"3351 WESTPARK DR",HOUSTON,TX,77027,,,"RETAIL DESIGN SERVICES","130 N BOND ST STE201 ",BELAIR,MD,21014,"(410) 836-0944",Architect,,,"(410) 836-0944",,OWNER,,,,,OWNER,,,,,,,,,
TX,HARRIS,20058634,"Offices, R&D, & Professional",7/6/2020,Renovation,100300,,"1400 POST OAK BLVD",HOUSTON,TX,77056,,,CONTRACTOR,,,,,,,,,,,"RYAN CONSTRUCTION",,,,,"RYAN CONSTRUCTION","901 CURTIN ST",HOUSTON,TX,77018-3247,"(713) 686-2321",,,"GERALD RYAN",
TX,HARRIS,1910240088,"Other Commercial",6/16/2020,,637500,8500,"12730 CYPRESS VALLEY RD",HOUSTON,TX,77356,"CYPRESS VALLEY",,"CYPRESS VALLEY PARTNERS LLC","12730 CYPRESS VALLEY RD",HOUSTON,TX,77356,,Owner,,,,,OWNER,,,,,OWNER,,,,,,,,,
TX,HARRIS,1910240086,"Other Commercial",6/16/2020,,450000,6000,"12728 CYPRESS VALLEY RD",HOUSTON,TX,77356,"CYPRESS VALLEY",,"CYPRESS VALLEY PARTNERS LLC","12728 CYPRESS VALLEY RD",HOUSTON,TX,77356,,Owner,,,,,OWNER,,,,,OWNER,,,,,,,,,
TX,HARRIS,1910240082,"Other Commercial",6/16/2020,,577500,7700,"12726 CYPRESS VALLEY",HOUSTON,TX,77356,"CYPRESS VALLEY",,"CYPRESS VALLEY PARTNERS LLC","12726 CYPRESS VALLEY",HOUSTON,TX,77356,,Owner,,,,,OWNER,,,,,OWNER,,,,,,,,,
TX,HARRIS,1910240079,"Other Commercial",6/16/2020,,577500,7700,"12724 CYPRESS VALLEY",HOUSTON,TX,77356,,,"CYPRESS VALLEY PARTNERS LLC","12724 CYPRESS VALLEY",HOUSTON,TX,77356,,Owner,,,,,OWNER,,,,,OWNER,,,,,,,,,
TX,HARRIS,1910240073,"Other Commercial",6/16/2020,,405000,5400,"12722 CYPRESS VALLEY RD",HOUSTON,TX,77356,"CYPRESS VALLEY",,"CYPRESS VALLEY PARTNERS LLC","12722 CYPRESS VALLEY RD",HOUSTON,TX,77356,,Owner,,,,,OWNER,,,,,OWNER,,,,,,,,,
TX,HARRIS,1910240068,"Other Commercial",6/16/2020,,573750,7650,"12720 CYPRESS VALLEY RD",HOUSTON,TX,77356,"CYPRESS VALLEY",,"CYPRESS VALLEY PARTNERS LLC","12720 CYPRESS VALLEY RD",HOUSTON,TX,77356,,Owner,,,,,OWNER,,,,,OWNER,,,,,,,,,
TX,HARRIS,2001200056,"Other Commercial",6/16/2020,,1400000,28000,"24130 TOMBALL PKWY",HOUSTON,TX,77356,,,"CORPORATE MANAGING SYSTEMS","24130 TOMBALL PKWY",HOUSTON,TX,77356,,Owner,,,,,OWNER,,,,,OWNER,,,,,,,,,
TX,HARRIS,2005060119,"Other Commercial",6/16/2020,,771375,10285,"20338 TELGE RD",HOUSTON,TX,77356,,,"AME BUSINESS PARK WAREHOUSE","20338 TELGE RD",HOUSTON,TX,77356,,Owner,,,,,OWNER,,,,,OWNER,,,,,,,,,
TX,HARRIS,2003270052,"Other Commercial",6/16/2020,,2261250,30150,"23027 ELKANA DEANE LN",HOUSTON,TX,77356,,,CONTRACTOR,,,,,,,,,,,"DEXCO POLYMERS",,,,,"DEXCO POLYMERS","12012 WICKCHESTER LN # 280",HOUSTON,TX,77079,"(281) 754-5800",,,,
TX,HARRIS,1908150107,"Other Commercial",6/16/2020,,858150,11442,"3833 BARKER CYPRESS RD",HOUSTON,TX,77356,"TOWER OAKS CENTER",,"TRIG MACHINE INC","3833 BARKER CYPRESS RD",HOUSTON,TX,77356,,Owner,,,,,OWNER,,,,,OWNER,,,,,,,,,
TX,HARRIS,20003969,"Parks, Recreation, Entertainment, & RV Park",7/6/2020,,80000,,"1801 S DAIRY ASHFORD RD",HOUSTON,TX,77077,,,"RJS ARCHITECTS","9219 KATY FWY",HOUSTON,TX,77082,"(713) 467-6279",Architect,,,,,OWNER,,,,,OWNER,,,,,,,,,
TX,HARRIS,19123195,"Parks, Recreation, Entertainment, & RV Park",7/1/2020,,85000,,"2710 STEEL",HOUSTON,TX,77098,,,CONTRACTOR,,,,,,,,,,,"WATTS POOL COMPANY",,,,,"WATTS POOL COMPANY","11150 KATY FWY",HOUSTON,TX,77043-4628,"(713) 461-7300",http://www.wattspool.com,"(713) 461-8382","KRISTEN WATTS",sales@wattspool.com
TX,HARRIS,20054342,"Residential Renovations & Additions",6/26/2020,Renovation,117838,,"4916 PARK",HOUSTON,TX,77023,,,CONTRACTOR,,,,,,,,,,,"VECINO HOMES",,,,,"VECINO HOMES","4007 WALKER STREET",HOUSTON,TX,77023,"(713) 370-0308",https://www.vecinohomes.com/,,,
TX,HARRIS,20057044,"Residential Renovations & Additions",6/24/2020,Addition,35543,,"10503 CLEARWOOD CROSSING",HOUSTON,TX,77075,,,"CRUZ EDITH","10503 CLEARWOOD CROSSING",HOUSTON,TX,77075,,Owner,,,,,"SYNAPTIC SOLAR",,,,,"SYNAPTIC SOLAR","1140 INTERNATIONAL PKWY",RICHARDSON,TX,75081-2334,"(972) 643-8655",,,,
TX,HARRIS,20040912,"Residential Renovations & Additions",6/26/2020,Renovation,150000,,"710 CORDELL",HOUSTON,TX,77009,,,"DAVISON CHRISTOPHER","902 CLEVELAND",HOUSTON,TX,77009,"(281) 919-7929",Applicant,,,,,OWNER,,,,,OWNER,,,,,,,,,
TX,HARRIS,20048752,"Residential Renovations & Additions",6/25/2020,Addition,39700,,"918 FRIO",HOUSTON,TX,77012,,,"DIAZ LUIS","918 FRIO",HOUSTON,TX,77012,,Owner,,,,,OWNER,,,,,OWNER,,,,,,,,,
TX,HARRIS,20057389,"Residential Renovations & Additions",6/23/2020,Addition,40000,,"6007 HAIGHT",HOUSTON,TX,77028,,,"JAMES R. WILLIE","6007 HAIGHT",HOUSTON,TX,77028,,Owner,,,,,"FREEDOM FOREVER",,,,,"FREEDOM FOREVER","43445 BUSINESS PARK DRIVE, STE 110",TEMECULA,CA,92590,"(888) 557-6431",,,,
TX,HARRIS,20053651,"Residential Renovations & Additions",6/24/2020,Renovation,40000,,"3210 TAMPA",HOUSTON,TX,77021,,,"JOHNSON ALVIN","3210 TAMPA",HOUSTON,TX,77021,,Owner,,,,,"PDS DESIGN BUILD",,,,,"PDS DESIGN BUILD","8921 EDGAR ST",HOUSTON,TX,77051-2725,"(832) 265-6864",,,,
TX,HARRIS,20029215,"Residential Renovations & Additions",6/26/2020,Addition,130000,,"9814 SHADOW WOOD",HOUSTON,TX,77080,,,"LOEWEN COLLIN AND  SUSNA","9814 SHADOW WOOD",HOUSTON,TX,77080,,Owner,,,,,"JENE SIMMONS",,,,,"JENE SIMMONS","9817 SHADOW WOOD DR",HOUSTON,TX,77080-7107,"(832) 524-7199",,,,
TX,HARRIS,20046580,"Residential Renovations & Additions",6/25/2020,Renovation,65535,,"6830 KELLER",HOUSTON,TX,77087,,,"MARTINEZ JAVIER","6830 KELLER",HOUSTON,TX,77008,"(281) 652-7690",Applicant,,,,,OWNER,,,,,OWNER,,,,,,,,,
TX,HARRIS,20059491,"Residential Renovations & Additions",6/30/2020,Renovation,48125,,"723 WAX MYRTLE",HOUSTON,TX,77079,,,"MELANCON QUINTON","723 WAX MYRTLE",HOUSTON,TX,77079,,Owner,,,,,"KICKERILLO COMPANIES",,,,,"KICKERILLO COMPANIES","1306 SOUTH FRY BOULEVARD",HOUSTON,TX,77450-4372,"(713) 951-0666",http://kickerillo.com/,"(281) 492-2018",,
TX,HARRIS,20033268,"Residential Renovations & Additions",6/23/2020,Renovation,30311,,"10123 GLENMAWR",HOUSTON,TX,77075,,,"NGUYEN VIVIAN","10123 GLENMARW",HOUSTON,TX,77075,,Owner,,,,,OWNER,,,,,OWNER,,,,,,,,,
TX,HARRIS,20042608,"Residential Renovations & Additions",6/24/2020,Addition,93000,,"1228 CANDLELIGHT",HOUSTON,TX,77018,,,"NOWAK KEVIN T","1228 CANDLELIGHT",HOUSTON,TX,77018,,Owner,,,,,OWNER,,,,,OWNER,,,,,,,,,
TX,HARRIS,20054636,"Residential Renovations & Additions",6/29/2020,Addition,266000,,"5539 CRANBROOK",HOUSTON,TX,77056,,,"PYE CHRISTOPHER HARRIS","5539 CRANBROOK",HOUSTON,TX,77056,,Owner,,,,,"PARK LANE BUILDERS ",,,,,"PARK LANE BUILDERS ","2444 TIMES BLVD STE 230",HOUSTON,TX,77005-3253,"(713) 524-6200",http://www.parklanebuilders.com/,,,
TX,HARRIS,20044484,"Residential Renovations & Additions",6/30/2020,Renovation,250000,,"4906 CANDLECREST",HOUSTON,TX,77018,,,"RANDALL BRETT","4906 CANDLECREST",HOUSTON,TX,77018,,Owner,,,,,"WAMHOFF DEVELOPMENT",,,,,"WAMHOFF DEVELOPMENT","21638 STATE HIGHWAY 249 STE D",HOUSTON,TX,77070-1891,"(281) 635-4005",http://www.wamhoffdevelopment.com/,,"GREG WAMHOFF",greg@wamhoffdevelopment.com
TX,HARRIS,20039444,"Residential Renovations & Additions",6/29/2020,Addition,30000,,"13719 PINEROCK",HOUSTON,TX,77079,,,"RICHARDSON ANDREW","13719 PINEROCK",HOUSTON,TX,77079,,Owner,,,,,"GRALL GENERAL CONTRACTORS",,,,,"GRALL GENERAL CONTRACTORS","1717 ELMVIEW DR",HOUSTON,TX,77080-7224,"(713) 973-8602",,,"RICHARD GRALL",
TX,HARRIS,20058747,"Residential Renovations & Additions",6/30/2020,Addition,70992,,"5409 COCHRAN",HOUSTON,TX,77009,,,"SALGADO JOSE RAUL","5409 COCHRAN",HOUSTON,TX,77009,,Owner,,,,,"SYNAPTIC SOLAR",,,,,"SYNAPTIC SOLAR","1140 INTERNATIONAL PKWY",RICHARDSON,TX,75081-2334,"(972) 643-8655",,,,
TX,HARRIS,20053429,"Residential Renovations & Additions",6/29/2020,Addition,49000,,"10130 HOLLYGLEN",HOUSTON,TX,77016,,,"SAMPSON BENJAMIN & SONDRIA","10130 HOLLYGLEN",HOUSTON,TX,77016,,Owner,,,,,"TORRES PATRICIA",,,,,"TORRES PATRICIA","15550 VICKERY DR",HOUSTON,TX,77032,"(281) 714-8992",,,,
TX,HARRIS,20050738,"Residential Renovations & Additions",6/24/2020,Renovation,45000,,"10502 HADDINGTON",HOUSTON,TX,77043,,,"SAMUEL MARSHALL","10502 HADDINGTON",HOUSTON,TX,77043,,Owner,,,,,OWNER,,,,,OWNER,,,,,,,,,
TX,HARRIS,20057018,"Residential Renovations & Additions",6/25/2020,Addition,31236,,"8714 CADAWAC",HOUSTON,TX,77074,,,"SANTOS JOSE","8714 CADAWAC",HOUSTON,TX,77074,,Owner,,,,,"HICKS PATRICK",,,,,"HICKS PATRICK","12560 REED RD","SUGAR LAND",TX,77478-3379,"(832) 763-6018",,,,
TX,HARRIS,20052739,"Residential Renovations & Additions",6/26/2020,Addition,42544,,"6035 YALE",HOUSTON,TX,77076,,,"SOLANO REINEL","6035 YALE",HOUSTON,TX,77076,,Owner,,,,,"FREEDOM SOLAR POWER",,,,,"FREEDOM SOLAR POWER","4801 FREIDRICH LN STE 100",AUSTIN,TX,78744-2703,"(512) 220-8220",,,,
TX,HARRIS,20026159,"Residential Renovations & Additions",6/29/2020,Addition,48000,,"10422 CHAMBERS",HOUSTON,TX,77034,,,"VELA EDUARDO","10422 CHAMBERS",HOUSTON,TX,77034,,Owner,,,,,OWNER,,,,,OWNER,,,,,,,,,
TX,MONTGOMERY,172627-20,"Residential Renovations & Additions",5/27/2020,Renovation,43000,,"23952 HONEYSUCKLE DR",HOUSTON,TX,77356,"SUMMER HILLS",,"ISMELDA RIVERA","18664 JAY COURT",PORTER,TX,77365,,Owner,,,,,OWNER,,,,,OWNER,,,,,,,,,
TX,HARRIS,2006010090,"Residential Renovations & Additions",6/16/2020,Renovation,40000,,"12630 BEAUMONT HIGHWAY",HOUSTON,TX,77356,,,"LEOPOLDO & LAURENTINA MARROQUIN","12630 BEAUMONT HIGHWAY",HOUSTON,TX,77356,,Owner,,,,,OWNER,,,,,OWNER,,,,,,,,,
TX,HARRIS,2006180089,"Residential Renovations & Additions",6/16/2020,Renovation,40000,,"43 E HULLWOOD CIR",HOUSTON,TX,77356,,,"BRAIN & CATHERINE POWER","43 E HULLWOOD CIR",HOUSTON,TX,77356,,Owner,,,,,OWNER,,,,,OWNER,,,,,,,,,
TX,HARRIS,20045628,"Residential Renovations & Additions",7/2/2020,Addition,70000,,"167 STONEY CREEK",HOUSTON,TX,77024,,,"STEPHEN & CHRISTINA MORSE","167 STONEY CREEK",HOUSTON,TX,77024,,Owner,,,,,"ANNE'S PERMIT",,,,,"ANNE'S PERMIT","2617C W HOLCOMBE BLVD",HOUSTON,TX,77025,"(713) 666-2025",,,,
TX,HARRIS,20042250,"Residential Renovations & Additions",7/2/2020,Addition,30000,,"501 WHITE WING",HOUSTON,TX,77079,,,"RICHARD & STACY CLARK","501 WHITE WING",HOUSTON,TX,77079,,Owner,,,,,"ANNE'S PERMIT",,,,,"ANNE'S PERMIT","2617C W HOLCOMBE BLVD",HOUSTON,TX,77025,"(713) 666-2025",,,,
TX,HARRIS,20060168,"Residential Renovations & Additions",7/2/2020,Addition,43300,,"1510 CHESTNUT RIDGE",HOUSTON,TX,77339,,,"BARTLEY JAMES","1510 CHESTNUT RIDGE",HOUSTON,TX,77339,,Owner,,,,,"PATRICIA TORRES",,,,,"PATRICIA TORRES","43445 BUSINESS PARK DR",HOUSTON,TX,92590,"(281) 714-8992",,,,
TX,HARRIS,20025711,"Residential Renovations & Additions",6/30/2020,Addition,100000,,"1134 E 14TH",HOUSTON,TX,77009,,,"BONNER YVONNE NAVARRO","1134 E 14TH",HOUSTON,TX,77009,"(713) 702-0527",Owner,,,,,OWNER,,,,,OWNER,,,,,,,,,
TX,HARRIS,20044791,"Residential Renovations & Additions",7/2/2020,Addition,120000,,"2207 BRIMBERRY",HOUSTON,TX,77018,,,"ELAINE VINKLAREK","2207 BRIMBERRY",HOUSTON,TX,77018,,Owner,,,,,"RUSSO BUILDERS",,,,,"RUSSO BUILDERS","7815 MEADOWGLEN LN",HOUSTON,TX,77063-4727,"(713) 562-2672",,,"BROEREN RUSSO",
TX,HARRIS,20054033,"Residential Renovations & Additions",7/1/2020,Addition,150000,,"5218 LIBBEY",HOUSTON,TX,77092,,,"CUNNINGHAM BARBARA","5218 LIBBEY",HOUSTON,TX,77092,,Owner,,,,,"STAC CONSTRUCTION & DESIGN",,,,,"STAC CONSTRUCTION & DESIGN","11222 BANDIT TRAIL DR",HOUSTON,TX,77095,"(281) 731-6878",https://stacconstructionanddesign.com/,,"JULIEN ANDRE",
TX,HARRIS,20048051,"Residential Renovations & Additions",7/1/2020,Renovation,42475,,"14107 PECAN HILL",HOUSTON,TX,77048,,,"DELEON JUAN D","14107 PECAN HILL",HOUSTON,TX,77048,,Owner,,,,,OWNER,,,,,OWNER,,,,,,,,,
TX,HARRIS,20060598,"Residential Renovations & Additions",7/1/2020,Renovation,40000,,"1046 CURTIN",HOUSTON,TX,77018,,,"JAEGER WARREN","1046 CURTIN",HOUSTON,TX,77018,,Owner,,,,,"J F FERRELL",,,,,"J F FERRELL","5403 SAXON DR",HOUSTON,TX,77092,"(832) 326-2632",,,"FERRELL GLENN",
TX,HARRIS,20060296,"Residential Renovations & Additions",7/2/2020,Renovation,30000,,"807 AXILDA",HOUSTON,TX,77017,,,"JOHNSON CECILIA & BRANDON","807 AXILDA",HOUSTON,TX,77017,,Owner,,,,,"PATRICIA TORRES",,,,,"PATRICIA TORRES","43445 BUSINESS PARK DR",HOUSTON,TX,92590,"(281) 714-8992",,,,
TX,HARRIS,20049884,"Residential Renovations & Additions",7/1/2020,Addition,71820,,"8717 VARNER",HOUSTON,TX,77080,,,"LARA MARIBEL","8717 VARNER",HOUSTON,TX,77080,,Owner,,,,,"MCR GENERAL CONTRACTORS",,,,,"MCR GENERAL CONTRACTORS","3206 MOHAWK ST",HOUSTON,TX,77093,"(281) 670-3395",,,"MUNGUIA ISMAEL",ismael@mcrgeneralcontractors.com
TX,HARRIS,20031768,"Residential Renovations & Additions",7/1/2020,Addition,61048,,"7315 IMPERIAL POINT",HOUSTON,TX,77072,,,"LOPER ALFRED","7315 IMPERIAL POINT",HOUSTON,TX,77072,,Owner,,,,,"SHERWOOD RICHARD",,,,,"SHERWOOD RICHARD","800 TOWN AND COUNTRY",HOUSTON,TX,77024,"(832) 724-7182",,,,
TX,HARRIS,20058468,"Residential Renovations & Additions",7/6/2020,Addition,84000,,"5750 MAIN",HOUSTON,TX,77005,,,"MOSLEY JOHN","5750 MAIN",HOUSTON,TX,77005,,Owner,,,,,OWNER,,,,,OWNER,,,,,,,,,
TX,HARRIS,20032442,"Residential Renovations & Additions",7/6/2020,Renovation,250000,,"11826 VILLAGE PARK ",HOUSTON,TX,77024,,,"ROBERT E THOMPSON","11826 VILLAGE PARK ",HOUSTON,TX,77024,"(281) 441-4444",Owner,,,,,OWNER,,,,,OWNER,,,,,,,,,
TX,HARRIS,20050340,"Residential Renovations & Additions",7/1/2020,Addition,30000,,"2614 EVA",HOUSTON,TX,77093,,,"SONTOYO SERGIO","2614 EVA",HOUSTON,TX,77093,"(832) 276-3675",Owner,,,,,OWNER,,,,,OWNER,,,,,,,,,
TX,HARRIS,20058944,"Residential Renovations & Additions",7/1/2020,Renovation,46700,,"2922 MANILA",HOUSTON,TX,77043,,,"WOLFRAM WILLIAM","2922 MANILA",HOUSTON,TX,77043,,Owner,,,,,"DENNIS CHERNOV",,,,,"DENNIS CHERNOV","9505 YUPONDALE 5",HOUSTON,TX,77080,"(281) 726-2542",,,,
TX,HARRIS,2004260006,"Residential Swimming Pools & Spas",6/16/2020,,85000,1450,"24350 STUEBNER AIRLINE RD",HOUSTON,TX,77356,,,"ERIC MARTINEZ","24350 STUEBNER AIRLINE RD",HOUSTON,TX,77356,,Owner,,,,,OWNER,,,,,OWNER,,,,,,,,,
TX,HARRIS,20034655,"Residential Swimming Pools & Spas",6/23/2020,,39995,,"14215 DUNSMORE LANDING",HOUSTON,TX,77059,,,"EGRANOV DANIIL","14215 DUNSMORE LANDING",HOUSTON,TX,77059,,Owner,,,,,"ANTHONY & SYLVAN POOLS",,,,,"ANTHONY & SYLVAN POOLS","1424 W SAM HOUSTON PKWY N",HOUSTON,TX,77043-3193,"(713) 467-6458",http://www.anthonysylvan.com/,,,
TX,HARRIS,20049179,"Residential Swimming Pools & Spas",6/24/2020,,28000,,"826 ALEXANDER",HOUSTON,TX,77007,,,"HAAS GEOFFREY AND LAURA","826 ALEXANDER",HOUSTON,TX,77007,,Owner,,,,,"CENTENARIO POOL & SPA",,,,,"CENTENARIO POOL & SPA","847 ISETTA LN",HOUSTON,TX,77060-5626,"(832) 881-8884",http://cpooldesign.com/,"(281) 820-3978",,centenario.pools@yahoo.com
TX,HARRIS,20044044,"Residential Swimming Pools & Spas",6/26/2020,,30000,,"720 W 26TH ST BLD",HOUSTON,TX,77008,,,"HEIGHTS SLATE","720 W 26TH ST BLD",HOUSTON,TX,77008,"(832) 919-8230",Owner,,,,,OWNER,,,,,OWNER,,,,,,,,,
TX,HARRIS,20051716,"Residential Swimming Pools & Spas",6/30/2020,,107300,,"511 E 25TH",HOUSTON,TX,77008,,,"HOSMAN MITCH","511 E 25TH",HOUSTON,TX,77008,,Owner,,,,,"PARAGON POOLS",,,,,"PARAGON POOLS","20220 HEMPSTEAD RD STE 42",HOUSTON,TX,77065-5665,"(713) 869-7946",http://paragonpool.com/,"(281) 897-9556",,inquiry@paragonpool.com
TX,HARRIS,20047563,"Residential Swimming Pools & Spas",6/26/2020,,168951,,"422 BUCKINGHAM",HOUSTON,TX,77024,,,"JAMES & JULIE BROOKSHIRE","422 BUCKINGHAM",HOUSTON,TX,77024,,Owner,,,,,"TEXAS POOLS",,,,,"TEXAS POOLS","2408 TIMBERLOCH PL STE 85","THE WOODLANDS",TX,77380-1012,"(281) 367-4660",http://www.texaspools.com,"(281) 367-8053","PAUL RYAN",info@texaspools.com
TX,HARRIS,20053030,"Residential Swimming Pools & Spas",6/24/2020,,49528,,"1203 WAGNER",HOUSTON,TX,77007,,,"KLUMP EDWARD","1203 WAGNER",HOUSTON,TX,77007,,Owner,,,,,"RICHARD'S TOTAL BACKYARD SOLUTIONS ",,,,,"RICHARD'S TOTAL BACKYARD SOLUTIONS ","1701 HIGHWAY 6 S",HOUSTON,TX,77077-2803,"(713) 777-7665",http://richardstbs.com/,,"JULIE RICHARD",info@totalbackyardsolutions.com
TX,HARRIS,20045370,"Residential Swimming Pools & Spas",6/29/2020,,40000,,"5210 APPLEVALE",HOUSTON,TX,77345,,,"LAUREN N WHITE","5210 APPLEVALE",HOUSTON,TX,77345,,Owner,,,,,"POOLS INFINITE",,,,,"POOLS INFINITE","6564 T C JESTER BLVD",HOUSTON,TX,77091-1513,"(832) 416-5174",http://www.poolsinfinite.com/,,"ELISEO ESPINOZA",
TX,HARRIS,20049692,"Residential Swimming Pools & Spas",6/25/2020,,98000,,"10111 SHADY RIVER",HOUSTON,TX,77042,,,"LEDET JARED","10111 SHADY RIVER",HOUSTON,TX,77042,,Owner,,,,,"SUPREME POOLS & SPAS",,,,,"SUPREME POOLS & SPAS","22626 KUYKENDAHL RD",SPRING,TX,77389-5121,"(281) 350-4410",http://www.supremepoolsandspas.net/,"(281) 370-4474",,info@supremepoolsandspas.net
TX,HARRIS,20055162,"Residential Swimming Pools & Spas",6/30/2020,,52000,,"5139 JACKWOOD",HOUSTON,TX,77096,,,"MARCEL DE DIOS","5139 JACKWOOD",HOUSTON,TX,77096,,Owner,,,,,"PLATINUM POOLS",,,,,"PLATINUM POOLS","4500 BLALOCK RD",HOUSTON,TX,77041-9121,"(281) 870-1600",,,,
TX,HARRIS,20057127,"Residential Swimming Pools & Spas",6/26/2020,,62000,,"13809 NORTH LAKE BRANCH",HOUSTON,TX,77044,,,"MCGRATH DANIELLE MAREE","13809 NORTH LAKE BRANCH",HOUSTON,TX,77044,,Owner,,,,,OWNER,,,,,OWNER,,,,,,,,,
TX,HARRIS,20056180,"Residential Swimming Pools & Spas",6/23/2020,,49337,,"109 GOLDENROD",HOUSTON,TX,77009,,,"MICHAEL A. LARGENT","109 GOLDENROD",HOUSTON,TX,77009,,Owner,,,,,"HOUSTON COOL POOLS",,,,,"HOUSTON COOL POOLS","21902 STATE HIGHWAY 249",HOUSTON,TX,77070-1526,"(281) 645-6631",http://www.houstoncoolpools.com/,,"MIKE LOPEZ",info@houstoncoolpools.com
TX,HARRIS,20048427,"Residential Swimming Pools & Spas",6/23/2020,,65000,,"16645 CONNER CREEK",HOUSTON,TX,77346,,,"MOLINA KEVIN","16645 CONNER CREEK",HOUSTON,TX,77346,,Owner,,,,,"C3 BUILDING SOLUTIONS",,,,,"C3 BUILDING SOLUTIONS","8403 WESTGLEN DR",HOUSTON,TX,77063-6311,"(713) 369-0925",http://www.c3buildingsolutions.com,,,
TX,HARRIS,20050228,"Residential Swimming Pools & Spas",6/30/2020,,52613,,"12119 OLD OAKS",HOUSTON,TX,77024,,,"MONTALBANO VINCENT &  STEPHANIE","12119 OLD OAKS",HOUSTON,TX,77024,,Owner,,,,,"PLATINUM POOLS",,,,,"PLATINUM POOLS","4500 BLALOCK RD",HOUSTON,TX,77041-9121,"(281) 870-1600",,,,
TX,HARRIS,20054731,"Residential Swimming Pools & Spas",6/30/2020,,90000,,"5910 TWILIGHT SHADOW",HOUSTON,TX,77059,,,"RAUSCH TIFFANY","5910 TWILIGHT SHADOW",HOUSTON,TX,77059,,Owner,,,,,"PREMIER POOLS & SPAS",,,,,"PREMIER POOLS & SPAS","2810 BUSINESS CENTER DR STE 126",PEARLAND,TX,77584-9783,"(713) 436-4944",,"(713) 436-0081","BILL UNGER",bunger@ppas.com
TX,HARRIS,20055094,"Residential Swimming Pools & Spas",6/30/2020,,42000,,"14323 CINDYWOOD",HOUSTON,TX,77079,,,"RUMP RACHEL","14323 CINDYWOOD",HOUSTON,TX,77079,,Owner,,,,,"PLATINUM POOLS",,,,,"PLATINUM POOLS","4500 BLALOCK RD",HOUSTON,TX,77041-9121,"(281) 870-1600",,,,
TX,HARRIS,20057484,"Residential Swimming Pools & Spas",6/24/2020,,46265,,"1237 CHIPPENDALE",HOUSTON,TX,77018,,,"SEEMA PATEL AND MITAL","1237 CHIPPENDALE",HOUSTON,TX,77018,"(823) 519-4629",Owner,,,,,OWNER,,,,,OWNER,,,,,,,,,
TX,HARRIS,20056901,"Residential Swimming Pools & Spas",6/24/2020,,60183,,"711 W 17TH",HOUSTON,TX,77008,,,"SIMON KELLY","711 W 17TH",HOUSTON,TX,77008,,Owner,,,,,"RICHARD'S TOTAL BACKYARD SOLUTIONS ",,,,,"RICHARD'S TOTAL BACKYARD SOLUTIONS ","1701 HIGHWAY 6 S",HOUSTON,TX,77077-2803,"(713) 777-7665",http://richardstbs.com/,,"JULIE RICHARD",info@totalbackyardsolutions.com
TX,HARRIS,20057861,"Residential Swimming Pools & Spas",6/30/2020,,34966,,"12323 SHADOW GREEN ",HOUSTON,TX,77082,,,"STRUZIK THOMAS P","12323 SHADOW GREEN ",HOUSTON,TX,77082,,Owner,,,,,"RICHARD'S TOTAL BACKYARD SOLUTIONS ",,,,,"RICHARD'S TOTAL BACKYARD SOLUTIONS ","1701 HIGHWAY 6 S",HOUSTON,TX,77077-2803,"(713) 777-7665",http://richardstbs.com/,,"JULIE RICHARD",info@totalbackyardsolutions.com
TX,HARRIS,20049792,"Residential Swimming Pools & Spas",6/30/2020,,106520,,"3014 DEL MONTE",HOUSTON,TX,77019,,,"TRACEY SEAN","3014 DEL MONTE",HOUSTON,TX,77019,,Owner,,,,,"TEXAS POOLS",,,,,"TEXAS POOLS","2408 TIMBERLOCH PL STE 85","THE WOODLANDS",TX,77380-1012,"(281) 367-4660",http://www.texaspools.com,"(281) 367-8053","PAUL RYAN",info@texaspools.com
TX,HARRIS,20053149,"Residential Swimming Pools & Spas",6/25/2020,,36400,,"5544 JESSAMINE",HOUSTON,TX,77081,,,"WHITE DOUG","5544 JESSAMINE",HOUSTON,TX,77081,,Owner,,,,,"POOL CRAFT",,,,,"POOL CRAFT","5103 CEDAR",HOUSTON,TX,77401,"(713) 660-7728",http://www.poolcraftofhouston.net/,,,
TX,HARRIS,20057129,"Residential Swimming Pools & Spas",6/30/2020,,55000,,"13815 KIMBERLEY",HOUSTON,TX,77079,,,"YOUNG ANYA","13815 KIMBERLEY",HOUSTON,TX,77079,,Owner,,,,,"BIG DIAMOND CONSTRUCTION",,,,,"BIG DIAMOND CONSTRUCTION","8406 COLONY OAKS CT",SPRING,TX,77379-6355,"(832) 808-9037",,,,
TX,HARRIS,2004280078,"Residential Swimming Pools & Spas",6/16/2020,,5000,,"24119 CANE FIELDS RD",HOUSTON,TX,77356,"KATY OAKS",,"OSEAN DELGADO","24119 CANE FIELDS RD",HOUSTON,TX,77356,,Owner,,,,,OWNER,,,,,OWNER,,,,,,,,,
TX,HARRIS,2004140110,"Residential Swimming Pools & Spas",6/16/2020,,69250,,"24015 BRIDGE WAY",HOUSTON,TX,77356,"NORTHHAMPTON FOREST",,"JUSTIN & KRISTY TYSON","24015 BRIDGE WAY",HOUSTON,TX,77356,,Owner,,,,,OWNER,,,,,OWNER,,,,,,,,,
TX,HARRIS,2006090057,"Residential Swimming Pools & Spas",6/16/2020,,25000,,"1814 ELK RIVER DR",HOUSTON,TX,77356,"PONDEROSA TRAILS",,"GREGORY CRAIG","1814 ELK RIVER DR",HOUSTON,TX,77356,,Owner,,,,,OWNER,,,,,OWNER,,,,,,,,,
TX,HARRIS,2005290216,"Residential Swimming Pools & Spas",6/16/2020,,50000,630,"26703 SILHOUETTE CT",HOUSTON,TX,77356,"KATY LAKE ESTATES",,"MICHAEL AND CYNTHIA DARDEN","26703 SILHOUETTE CT",HOUSTON,TX,77356,,Owner,,,,,OWNER,,,,,OWNER,,,,,,,,,
TX,HARRIS,2005260086,"Residential Swimming Pools & Spas",6/16/2020,,42000,,"24510 CORBRIDGE CREEK CT",HOUSTON,TX,77356,,,"KAREN COATES","24510 CORBRIDGE CREEK CT",HOUSTON,TX,77356,,Owner,,,,,OWNER,,,,,OWNER,,,,,,,,,
TX,HARRIS,2005250002,"Residential Swimming Pools & Spas",6/16/2020,,59660,270,"11 S LOCHWOOD WAY",HOUSTON,TX,77356,"CREEKSIDE PARK",,"SHYREE AND GEREK THOMAS","11 S LOCHWOOD WAY",HOUSTON,TX,77356,,Owner,,,,,OWNER,,,,,OWNER,,,,,,,,,
TX,HARRIS,2006180090,"Residential Swimming Pools & Spas",6/16/2020,,40000,,"23 S LOCHWOOD WAY",HOUSTON,TX,77356,"THE WOODLANDS CREEKSIDE PARK",,"ASLIGUL CHIN","23 S LOCHWOOD WAY",HOUSTON,TX,77356,,Owner,,,,,OWNER,,,,,OWNER,,,,,,,,,
TX,HARRIS,2006080066,"Residential Swimming Pools & Spas",6/16/2020,,5200,,"25022 KARACABEY CT",HOUSTON,TX,77356,,,"SCOTT AND KIM MCCULLOUGH","25022 KARACABEY CT",HOUSTON,TX,77356,,Owner,,,,,OWNER,,,,,OWNER,,,,,,,,,
TX,HARRIS,2006110277,"Residential Swimming Pools & Spas",6/16/2020,,40000,,"14415 BENNINGCREST LN",HOUSTON,TX,77356,"BRUNSWICK MEADOWS",,"TAMEKA THOMAS","14415 BENNINGCREST LN",HOUSTON,TX,77356,,Owner,,,,,"BLUE HAVEN POOLS",,,,,"BLUE HAVEN POOLS","2201 HIGHWAY 6 S",HOUSTON,TX,77077-4321,"(281) 497-5711",,,,
TX,HARRIS,2006170043,"Residential Swimming Pools & Spas",6/16/2020,,58000,,"25019 ARCOLA CT",HOUSTON,TX,77356,"SHADOW CREEK",,"MICHEL TOTAH","25019 ARCOLA CT",HOUSTON,TX,77356,,Owner,,,,,OWNER,,,,,OWNER,,,,,,,,,
TX,HARRIS,2005270143,"Residential Swimming Pools & Spas",6/16/2020,,53000,,"8603 CAMBER BROOK DR",HOUSTON,TX,77356,"CLEAR BROOK MEADOWS",,"DANIEL HERNANDEZ","8603 CAMBER BROOK DR",HOUSTON,TX,77356,,Owner,,,,,OWNER,,,,,OWNER,,,,,,,,,
TX,HARRIS,2005290028,"Residential Swimming Pools & Spas",6/16/2020,,43000,,"11211 PUCKETT RIVER DR",HOUSTON,TX,77356,"TOWNE LAKE",,"ALONA REVA","11211 PUCKETT RIVER DR",HOUSTON,TX,77356,,Owner,,,,,"ANTHONY & SYLVAN POOLS",,,,,"ANTHONY & SYLVAN POOLS","1424 W SAM HOUSTON PKWY N",HOUSTON,TX,77043-3193,"(713) 467-6458",http://www.anthonysylvan.com/,,,
TX,HARRIS,2006090125,"Residential Swimming Pools & Spas",6/16/2020,,65000,,"25023 JENNIFER HEIGHTS CT",HOUSTON,TX,77356,"SHADOW CREEK",,"SKIP MCLINDEN","25023 JENNIFER HEIGHTS CT",HOUSTON,TX,77356,,Owner,,,,,OWNER,,,,,OWNER,,,,,,,,,
TX,HARRIS,20056592,"Residential Swimming Pools & Spas",7/1/2020,,35000,,"5619 CRAIG",HOUSTON,TX,77023,,,"ALVAREZ TYLER","5619 CRAIG",HOUSTON,TX,77023,,Owner,,,,,"BLUE HAVEN POOLS",,,,,"BLUE HAVEN POOLS","2201 HIGHWAY 6 S",HOUSTON,TX,77077-4321,"(281) 497-5711",,,,
TX,HARRIS,20057492,"Residential Swimming Pools & Spas",7/2/2020,,68000,,"5211 PAISLEY",HOUSTON,TX,77096,,,"ANDERSON JOEY","5211 PAISLEY",HOUSTON,TX,77096,,Owner,,,,,"SUNSHINE POOLS",,,,,"SUNSHINE POOLS","1800 AUGUSTA DR STE 140",HOUSTON,TX,77057-3268,"(713) 975-8899",http://www.sunshine-pools.com/,,,
TX,HARRIS,20047929,"Residential Swimming Pools & Spas",7/6/2020,,53572,,"3614 VALLEY HAVEN",HOUSTON,TX,77339,,,"BAILEY MICAH & LISA","3614 VALLEY HAVEN",HOUSTON,TX,77339,,Owner,,,,,"DAZZLING POOLS",,,,,"DAZZLING POOLS","20403 NEW MOON TRL",CROSBY,TX,77532-3539,"(281) 728-2216",,,,
TX,HARRIS,20055699,"Residential Swimming Pools & Spas",6/30/2020,,39672,,"439 WILCHESTER",HOUSTON,TX,77079,,,"BAZIRGAN MATTHEW","439 WILCHESTER",HOUSTON,TX,77079,,Owner,,,,,"PLATINUM POOLS",,,,,"PLATINUM POOLS","4500 BLALOCK RD",HOUSTON,TX,77041-9121,"(281) 870-1600",,,,
TX,HARRIS,20054313,"Residential Swimming Pools & Spas",6/30/2020,,40000,,"3127 SOFT FERN",HOUSTON,TX,77339,,,"CHANCEY PAT","3127 SOFT FERN",HOUSTON,TX,77339,"(832) 807-4401",Owner,,,,,OWNER,,,,,OWNER,,,,,,,,,
TX,HARRIS,20059632,"Residential Swimming Pools & Spas",7/6/2020,,60500,,"818 IVY WALL",HOUSTON,TX,77079,,,"COLMAN CHRIS","818 IVY WALL",HOUSTON,TX,77079,,Owner,,,,,"C3 BUILDING SOLUTIONS",,,,,"C3 BUILDING SOLUTIONS","8403 WESTGLEN DR",HOUSTON,TX,77063-6311,"(713) 369-0925",http://www.c3buildingsolutions.com,,,
TX,HARRIS,20058026,"Residential Swimming Pools & Spas",7/1/2020,,35000,,"6212 DOLIVER",HOUSTON,TX,77057,,,CONTRACTOR,,,,,,,,,,,"POOLS BY GENESIS ONE",,,,,"POOLS BY GENESIS ONE","16732 ALIEF CLODINE RD",HOUSTON,TX,77082-2708,"(832) 258-2494",http://poolsbygenesisone.com/,,,
TX,HARRIS,20058872,"Residential Swimming Pools & Spas",7/2/2020,,120000,,"733 E 6TH 1/2",HOUSTON,TX,77007,,,CONTRACTOR,,,,,,,,,,,"POOL FACTS",,,,,"POOL FACTS","5554 S PEEK RD",KATY,TX,77450,"(832) 437-7305",https://www.poolhouston.com/,,"JAMES BURKHART",
TX,HARRIS,19118806,"Residential Swimming Pools & Spas",7/6/2020,,96400,,"9843 MOCKING BIRD HILL",HOUSTON,TX,77080,,,CONTRACTOR,,,,,,,,,,,"CAMERON BUILDERS",,,,,"CAMERON BUILDERS","1446 CAMPBELL RD",HOUSTON,TX,77055-4604,"(713) 973-1050",http://www.cameronpools.com/,"(713) 973-9799",,
TX,HARRIS,20044070,"Residential Swimming Pools & Spas",7/6/2020,,81000,,"1250 LEONA ST",HOUSTON,TX,77009,,,CONTRACTOR,,,,,,,,,,,"PATIO POOLS OF HOUSTON",,,,,"PATIO POOLS OF HOUSTON","5904 FAIRDALE LN",HOUSTON,TX,77057-6307,"(713) 789-1710",http://www.patio-pools.com/,"(713) 789-0715",,info@patio-pools.com
TX,HARRIS,19074909,"Residential Swimming Pools & Spas",7/2/2020,,50622,,"2115 VILLAGE DALE",HOUSTON,TX,77059,,,"JOHN & EMILY MATTHEW","2115 VILLAGE DALE",HOUSTON,TX,77059,,Owner,,,,,"MERMAID POOLS & SPAS",,,,,"MERMAID POOLS & SPAS","2333 SEDONA CT","LEAGUE CITY",TX,77573-1573,"(832) 387-0739",http://www.mermaidpools-spas.com/,,,dougsworkmail@sbcglobal.net
TX,HARRIS,20057999,"Residential Swimming Pools & Spas",7/2/2020,,45000,,"2219 DUNRAVEN",HOUSTON,TX,77019,,,CONTRACTOR,,,,,,,,,,,"SUNSHINE POOLS",,,,,"SUNSHINE POOLS","1800 AUGUSTA DR STE 140",HOUSTON,TX,77057-3268,"(713) 975-8899",http://www.sunshine-pools.com/,,,
TX,HARRIS,20055089,"Residential Swimming Pools & Spas",7/6/2020,,82207,,"12431 SHADOWKNOLL",HOUSTON,TX,77082,,,CONTRACTOR,,,,,,,,,,,"PLATINUM POOLS",,,,,"PLATINUM POOLS","4500 BLALOCK RD",HOUSTON,TX,77041-9121,"(281) 870-1600",,,,
TX,HARRIS,20052600,"Residential Swimming Pools & Spas",7/1/2020,,49581,,"14311 RIVER FOREST",HOUSTON,TX,77079,,,"DONNELL ANDREW","14311 RIVER FOREST",HOUSTON,TX,77079,,Owner,,,,,"PRECISION POOLS & SPAS",,,,,"PRECISION POOLS & SPAS","16230 WEST BELLFORT",HOUSTON,TX,77498,"(281) 265-2774",https://www.precisionswimmingpools.com,,,
TX,HARRIS,20057230,"Residential Swimming Pools & Spas",7/3/2020,,42650,,"1723 CORNELIUS TRACE ",HOUSTON,TX,77055,,,"ERGIN EREN","1723 CORNELIUS TRACE ",HOUSTON,TX,77055,,Owner,,,,,"CAMERON BUILDERS",,,,,"CAMERON BUILDERS","1446 CAMPBELL RD",HOUSTON,TX,77055-4604,"(713) 973-1050",http://www.cameronpools.com/,"(713) 973-9799",,
TX,HARRIS,20052228,"Residential Swimming Pools & Spas",6/30/2020,,150000,,"5310 WILLERS",HOUSTON,TX,77056,,,"FORD JARED","5310 WILLERS",HOUSTON,TX,77056,"(281) 630-4520",Owner,,,,,OWNER,,,,,OWNER,,,,,,,,,
TX,HARRIS,20058600,"Residential Swimming Pools & Spas",6/30/2020,,56924,,"2206 SUMMERBLOSSOM ",HOUSTON,TX,77077,,,"GAZET SONIA","2206 SUMMERBLOSSOM ",HOUSTON,TX,77077,,Owner,,,,,"BLUE HAVEN POOLS",,,,,"BLUE HAVEN POOLS","2201 HIGHWAY 6 S",HOUSTON,TX,77077-4321,"(281) 497-5711",,,,
TX,HARRIS,20057605,"Residential Swimming Pools & Spas",6/30/2020,,49000,,"3408 CASTOR",HOUSTON,TX,77022,,,"HENNESSY HEATHER C","3408 CASTOR",HOUSTON,TX,77022,,Owner,,,,,"GREAT ESCAPE CUSTOM POOLS",,,,,"GREAT ESCAPE CUSTOM POOLS","14919 STONEMEADE PL",HOUSTON,TX,77429,"(713) 882-1268",https://www.greatescapescypress.com/,,,
TX,HARRIS,20055167,"Residential Swimming Pools & Spas",6/30/2020,,40000,,"15191 DIANA",HOUSTON,TX,77062,,,"HORTON STEPHEN","15191 DIANA",HOUSTON,TX,77062,"(713) 369-0925",Owner,,,,,OWNER,,,,,OWNER,,,,,,,,,
TX,HARRIS,20057231,"Residential Swimming Pools & Spas",7/3/2020,,58500,,"7607 EDGEWAY",HOUSTON,TX,77055,,,"MCCONN CHRISTOPHER & LINDSAY","7607 EDGEWAY",HOUSTON,TX,77055,"(281) 413-5064",Owner,,,,,OWNER,,,,,OWNER,,,,,,,,,
TX,HARRIS,20060436,"Residential Swimming Pools & Spas",7/6/2020,,85000,,"5455 REDSTART",HOUSTON,TX,77096,,,"NEU MARK","5455 REDSTART",HOUSTON,TX,77096,,Owner,,,,,"LAGUNA POOLS & DESIGNS",,,,,"LAGUNA POOLS & DESIGNS","1010 GREENBUSCH RD",KATY,TX,77494-5602,"(281) 392-8833",http://www.lagunapools.com,"(281) 392-0261",,info@lagunapools.com
TX,HARRIS,20059637,"Residential Swimming Pools & Spas",7/6/2020,,56635,,"3651 DUMBARTON",HOUSTON,TX,77025,,,"ROBERSON CHRISTOPHER","3651 DUMBARTON",HOUSTON,TX,77025,,Owner,,,,,"C3 BUILDING SOLUTIONS",,,,,"C3 BUILDING SOLUTIONS","8403 WESTGLEN DR",HOUSTON,TX,77063-6311,"(713) 369-0925",http://www.c3buildingsolutions.com,,,
TX,HARRIS,19114332,"Residential Swimming Pools & Spas",6/30/2020,,62700,,"922 T C JESTER",HOUSTON,TX,77008,,,"ROHAN BEIRAT","922 T C JESTER",HOUSTON,TX,77008,,Owner,,,,,"MEYER RANCH CUSTOM POOLS",,,,,"MEYER RANCH CUSTOM POOLS","1230 W 21ST ST",HOUSTON,TX,77008-3324,"(713) 864-3808",http://www.meyerranchpools.com/,,"MARK MEYER",mark@meyerranchpools.com
TX,HARRIS,20058963,"Residential Swimming Pools & Spas",7/1/2020,,66852,,"1403 EBONY",HOUSTON,TX,77018,,,CONTRACTOR,,,,,,,,,,,"ARTISTIC POOLS OF HOUSTON",,,,,"ARTISTIC POOLS OF HOUSTON","18915 SUN PASS DR",TOMBALL,TX,77377-7631,"(713) 823-1580",http://www.artisticpoolsofhouston.com/,"(713) 758-0392","TOM STOWELL",artistictom@comcast.net
TX,HARRIS,20053025,"Residential Swimming Pools & Spas",6/30/2020,,52789,,"5322 LYNBROOK",HOUSTON,TX,77056,,,"SCOGGINS DREW","5322 LYNBROOK",HOUSTON,TX,77056,,Owner,,,,,"PLATINUM POOLS",,,,,"PLATINUM POOLS","4500 BLALOCK RD",HOUSTON,TX,77041-9121,"(281) 870-1600",,,,
TX,HARRIS,20058810,"Residential Swimming Pools & Spas",7/1/2020,,58614,,"12743 MEMORIAL",HOUSTON,TX,77024,,,"TAI FAISAL","12743 MEMORIAL",HOUSTON,TX,77024,,Owner,,,,,"PRECISION POOLS & SPAS",,,,,"PRECISION POOLS & SPAS","16230 WEST BELLFORT",HOUSTON,TX,77498,"(281) 265-2774",https://www.precisionswimmingpools.com,,,
TX,HARRIS,20059034,"Residential Swimming Pools & Spas",7/6/2020,,51997,,"1323 ALTHEA",HOUSTON,TX,77018,,,"TILLEY MARK","1323 ALTHEA",HOUSTON,TX,77018,"(823) 519-4629",Owner,,,,,OWNER,,,,,OWNER,,,,,,,,,
TX,HARRIS,20054668,"Residential Swimming Pools & Spas",7/2/2020,,30000,,"3229 FLORAL GARDEN",HOUSTON,TX,77365,,,"WHEELER LARRY BEVERLY","3229 FLORAL GARDEN",HOUSTON,TX,77365,,Owner,,,,,"SOUTHERN POOLS SERVICE & SPAS",,,,,"SOUTHERN POOLS SERVICE & SPAS","1151 OLD NEW ULM RD ","NEW ULM",TX,78950,"(979) 992-3085",,,,
TX,HARRIS,19107550,"Restaurant and Bar",6/30/2020,,800000,,"8015 W F M",HOUSTON,TX,77070,,,CONTRACTOR,,,,,,,,,,,"SCHAFFER CONSTRUCTION",,,,,"SCHAFFER CONSTRUCTION","2601 NETWORK BLVD STE 413",FRISCO,TX,75034-1912,"(214) 888-6923",,,,
TX,HARRIS,2001080056,"Restaurant and Bar",6/16/2020,,300000,2407,"6245 BARKER CYPRESS RD",HOUSTON,TX,77356,,,"CSM FOODS LLC","6245 BARKER CYPRESS RD",HOUSTON,TX,77356,,Owner,,,,,OWNER,,,,,OWNER,,,,,,,,,
TX,HARRIS,2006030156,"Restaurant and Bar",6/16/2020,,1000000,4425,"21910 FRANZ RD",HOUSTON,TX,77356,,,"GEORGE & CHRISTOS BATSIOS","21910 FRANZ RD",HOUSTON,TX,77356,,Owner,,,,,OWNER,,,,,OWNER,,,,,,,,,
TX,HARRIS,1912180151,"Restaurant and Bar",6/16/2020,,1800000,2866,"10950 LOUETTA RD",HOUSTON,TX,77356,,,"HS LOUETTA LLC","10950 LOUETTA RD",HOUSTON,TX,77356,,Owner,,,,,OWNER,,,,,OWNER,,,,,,,,,
TX,HARRIS,19118611,"Restaurant and Bar",7/2/2020,Renovation,122000,,"5015 WESTHEIMER RD",HOUSTON,TX,77002,,,CONTRACTOR,,,,,,,,,,,"MCLEOD CONSTRUCTION",,,,,"MCLEOD CONSTRUCTION","6515 HIGHWAY 105 W",HOUSTON,TX,77304,"(936) 215-1766",,,,
TX,HARRIS,20012196,Retail,6/23/2020,Renovation,164790,,"3633 HILLCROFT",HOUSTON,TX,77057,,,"URBAN AREA ARCHITECTS","114 S. FLICKERING SUN CIRCLE","THE WOODLANDS",TX,77382,"(832) 274-2146",Architect,,,,,OWNER,,,,,OWNER,,,,,,,,,
TX,MONTGOMERY,173027-20,Retail,6/11/2020,,700000,,"19062 FM 1485",HOUSTON,TX,77356,,,"IMRAN ALI","6607 AUGUSTA PINES PKWY E",SPRING,TX,77356,,Owner,,,,,OWNER,,,,,OWNER,,,,,,,,,
TX,HARRIS,20042530,Retail,7/1/2020,Renovation,150000,,"1141 E 11TH",HOUSTON,TX,77009,,,"TRACEY CONWELL","1203 HEIGHTS BLVD",HOUSTON,TX,77008,"(713) 869-8817",Applicant,,,,,OWNER,,,,,OWNER,,,,,,,,,
TX,HARRIS,19116793,Retail,6/30/2020,,1600000,,"3705 ALLEN PKY STE",HOUSTON,TX,77019,,,CONTRACTOR,,,,,,,,,,,"R S CONSTRUCTION",,,,,"R S CONSTRUCTION","2757 FM 517 S","SAN LEON",TX,77539-8640,"(281) 876-7476",,,"ROBERT SALDIERNA",saldierna2677@gmail.com
TX,HARRIS,20033136,Retail,7/1/2020,Renovation,42000,,"9710 KATY",HOUSTON,TX,77055,,,"HEB GROCERY COMPANY","1222 NORTH MAIN AVE 9",HOUSTON,TX,77584,"(210) 938-7994",Applicant,,,,,OWNER,,,,,OWNER,,,,,,,,,
TX,HARRIS,18112840,Retail,7/1/2020,,1500000,,"8102 CULLEN",HOUSTON,TX,77051,,,"HIRA KHAN","9894 BISSONNET DR",HOUSTON,TX,77036,"(832) 659-5651",Owner,,,,,OWNER,,,,,OWNER,,,,,,,,,
TX,HARRIS,2004300045,"Single Family Homes",6/16/2020,,110700,2460,"5503 KINGSTON CREST LN",HOUSTON,TX,77356,"JASMINE HEIGHTS",,CONTRACTOR,,,,,,,,,,,"DR HORTON",,,,,"DR HORTON","14100 SOUTHWEST",HOUSTON,TX,77478,"(281) 201-5559",,,,
TX,HARRIS,2004300048,"Single Family Homes",6/19/2020,,132975,2955,"5507 KINGSTON CREST LN",HOUSTON,TX,77356,"JASMINE HEIGHTS",,CONTRACTOR,,,,,,,,,,,"DR HORTON",,,,,"DR HORTON","14100 SOUTHWEST",HOUSTON,TX,77478,"(281) 201-5559",,,,
TX,HARRIS,2004300058,"Single Family Homes",6/19/2020,,89505,1989,"5511 KINGSTON CREST LN",HOUSTON,TX,77356,"JASMINE HEIGHTS",,CONTRACTOR,,,,,,,,,,,"DR HORTON",,,,,"DR HORTON","14100 SOUTHWEST",HOUSTON,TX,77478,"(281) 201-5559",,,,
TX,HARRIS,2004300062,"Single Family Homes",6/15/2020,,100800,2240,"5515 KINGSTON CREST LN",HOUSTON,TX,77356,"JASMINE HEIGHTS",,CONTRACTOR,,,,,,,,,,,"DR HORTON",,,,,"DR HORTON","14100 SOUTHWEST",HOUSTON,TX,77478,"(281) 201-5559",,,,
TX,HARRIS,2004300063,"Single Family Homes",6/19/2020,,96525,2145,"5519 KINGSTON CREST LN",HOUSTON,TX,77356,"JASMINE HEIGHTS",,CONTRACTOR,,,,,,,,,,,"DR HORTON",,,,,"DR HORTON","14100 SOUTHWEST",HOUSTON,TX,77478,"(281) 201-5559",,,,
TX,HARRIS,2004300065,"Single Family Homes",6/16/2020,,107460,2388,"5523 KINGSTON CREST LN",HOUSTON,TX,77356,"JASMINE HEIGHTS",,CONTRACTOR,,,,,,,,,,,"DR HORTON",,,,,"DR HORTON","14100 SOUTHWEST",HOUSTON,TX,77478,"(281) 201-5559",,,,
TX,HARRIS,2004300068,"Single Family Homes",6/16/2020,,100800,2240,"5527 KINGSTON CREST LN",HOUSTON,TX,77356,"JASMINE HEIGHTS",,CONTRACTOR,,,,,,,,,,,"DR HORTON",,,,,"DR HORTON","14100 SOUTHWEST",HOUSTON,TX,77478,"(281) 201-5559",,,,
TX,HARRIS,2004300069,"Single Family Homes",6/16/2020,,103050,2290,"22903 PETRIZZI LN",HOUSTON,TX,77356,"VENTANA LAKES",,CONTRACTOR,,,,,,,,,,,"DR HORTON",,,,,"DR HORTON","14100 SOUTHWEST",HOUSTON,TX,77478,"(281) 201-5559",,,,
TX,HARRIS,2004300072,"Single Family Homes",6/16/2020,,95130,2114,"22835 PETRIZZI LN",HOUSTON,TX,77356,"VENTANA LAKES",,CONTRACTOR,,,,,,,,,,,"DR HORTON",,,,,"DR HORTON","14100 SOUTHWEST",HOUSTON,TX,77478,"(281) 201-5559",,,,
TX,HARRIS,2004300074,"Single Family Homes",6/16/2020,,107550,2390,"22907 PETRIZZI LN",HOUSTON,TX,77356,"VENTANA LAKES",,CONTRACTOR,,,,,,,,,,,"DR HORTON",,,,,"DR HORTON","14100 SOUTHWEST",HOUSTON,TX,77478,"(281) 201-5559",,,,
TX,HARRIS,2004300097,"Single Family Homes",6/16/2020,,103050,2290,"4414 FOLLINA TRL",HOUSTON,TX,77356,"VENTANA LAKES",,CONTRACTOR,,,,,,,,,,,"DR HORTON",,,,,"DR HORTON","14100 SOUTHWEST",HOUSTON,TX,77478,"(281) 201-5559",,,,
TX,HARRIS,2005010029,"Single Family Homes",6/16/2020,,95130,2114,"4418 FOLLINA TRL",HOUSTON,TX,77356,"VENTANA LAKES",,CONTRACTOR,,,,,,,,,,,"DR HORTON",,,,,"DR HORTON","14100 SOUTHWEST",HOUSTON,TX,77478,"(281) 201-5559",,,,
TX,HARRIS,2005010041,"Single Family Homes",6/16/2020,,122500,2723,"4422 FOLLINA TRL",HOUSTON,TX,77356,"VENTANA LAKES",,CONTRACTOR,,,,,,,,,,,"DR HORTON",,,,,"DR HORTON","14100 SOUTHWEST",HOUSTON,TX,77478,"(281) 201-5559",,,,
TX,HARRIS,2005010092,"Single Family Homes",6/15/2020,,107550,2390,"4426 FOLLINA TRL",HOUSTON,TX,77356,"VENTANA LAKES",,CONTRACTOR,,,,,,,,,,,"DR HORTON",,,,,"DR HORTON","14100 SOUTHWEST",HOUSTON,TX,77478,"(281) 201-5559",,,,
TX,HARRIS,2005010098,"Single Family Homes",6/16/2020,,103050,2290,"4430 FOLLINA TRL",HOUSTON,TX,77356,"VENTANA LAKES",,CONTRACTOR,,,,,,,,,,,"DR HORTON",,,,,"DR HORTON","14100 SOUTHWEST",HOUSTON,TX,77478,"(281) 201-5559",,,,
TX,HARRIS,2005010101,"Single Family Homes",6/16/2020,,123640,2800,"4434 FOLLINA TRL",HOUSTON,TX,77356,"VENTANA LAKES",,CONTRACTOR,,,,,,,,,,,"DR HORTON",,,,,"DR HORTON","14100 SOUTHWEST",HOUSTON,TX,77478,"(281) 201-5559",,,,
TX,HARRIS,2005010102,"Single Family Homes",6/16/2020,,112515,2501,"4438 FOLLINA TRL",HOUSTON,TX,77356,"VENTANA LAKES",,CONTRACTOR,,,,,,,,,,,"DR HORTON",,,,,"DR HORTON","14100 SOUTHWEST",HOUSTON,TX,77478,"(281) 201-5559",,,,
TX,HARRIS,2004270030,"Single Family Homes",6/16/2020,,132885,2953,"2330 GEORGINA FALLS DR",HOUSTON,TX,77356,BRECKENRIDGE,,CONTRACTOR,,,,,,,,,,,"DR HORTON",,,,,"DR HORTON","14100 SOUTHWEST",HOUSTON,TX,77478,"(281) 201-5559",,,,
TX,HARRIS,2004270031,"Single Family Homes",6/16/2020,,107460,2388,"2334 GEORGINA FALLS DR",HOUSTON,TX,77356,BRECKENRIDGE,,CONTRACTOR,,,,,,,,,,,"DR HORTON",,,,,"DR HORTON","14100 SOUTHWEST",HOUSTON,TX,77478,"(281) 201-5559",,,,
TX,HARRIS,2004270032,"Single Family Homes",6/16/2020,,141660,3148,"2338 GEORGINA FALLS DR",HOUSTON,TX,77356,BRECKENRIDGE,,CONTRACTOR,,,,,,,,,,,"DR HORTON",,,,,"DR HORTON","14100 SOUTHWEST",HOUSTON,TX,77478,"(281) 201-5559",,,,
TX,HARRIS,2004270038,"Single Family Homes",6/16/2020,,107460,2388,"2423 GEORGINA FALLS DR",HOUSTON,TX,77356,BRECKENRIDGE,,CONTRACTOR,,,,,,,,,,,"DR HORTON",,,,,"DR HORTON","14100 SOUTHWEST",HOUSTON,TX,77478,"(281) 201-5559",,,,
TX,HARRIS,2004270039,"Single Family Homes",6/16/2020,,132975,2955,"2419 GEORGINA FALLS DR",HOUSTON,TX,77356,BRECKENRIDGE,,CONTRACTOR,,,,,,,,,,,"DR HORTON",,,,,"DR HORTON","14100 SOUTHWEST",HOUSTON,TX,77478,"(281) 201-5559",,,,
TX,HARRIS,2004300114,"Single Family Homes",6/16/2020,,117630,3614,"25718 PINYON HILL TRL",HOUSTON,TX,77356,"FAIRWAY FARMS",,CONTRACTOR,,,,,,,,,,,"DR HORTON",,,,,"DR HORTON","14100 SOUTHWEST",HOUSTON,TX,77478,"(281) 201-5559",,,,
TX,HARRIS,2004300115,"Single Family Homes",6/16/2020,,152370,3386,"25519 PINYON HILL TRL",HOUSTON,TX,77356,"FAIRWAY FARMS",,CONTRACTOR,,,,,,,,,,,"DR HORTON",,,,,"DR HORTON","14100 SOUTHWEST",HOUSTON,TX,77478,"(281) 201-5559",,,,
TX,HARRIS,2004300116,"Single Family Homes",6/16/2020,,140400,3120,"25515 PINYON HILL TRL",HOUSTON,TX,77356,"FAIRWAY FARMS",,CONTRACTOR,,,,,,,,,,,"DR HORTON",,,,,"DR HORTON","14100 SOUTHWEST",HOUSTON,TX,77478,"(281) 201-5559",,,,
TX,HARRIS,2004300117,"Single Family Homes",6/16/2020,,139185,3093,"25511 PINYON HILL TRL",HOUSTON,TX,77356,"FAIRWAY FARMS",,CONTRACTOR,,,,,,,,,,,"DR HORTON",,,,,"DR HORTON","14100 SOUTHWEST",HOUSTON,TX,77478,"(281) 201-5559",,,,
TX,HARRIS,2004300119,"Single Family Homes",6/16/2020,,142740,3172,"12042 LOCH MUICK DR",HOUSTON,TX,77356,BALMORAL,,CONTRACTOR,,,,,,,,,,,"DR HORTON",,,,,"DR HORTON","14100 SOUTHWEST",HOUSTON,TX,77478,"(281) 201-5559",,,,
TX,HARRIS,20003438,"Single Family Homes",6/24/2020,,295000,,"902 E 23RD ST",HOUSTON,TX,77009,,,CONTRACTOR,,,,,,,,,,,"SANDCASTLE HOMES",,,,,"SANDCASTLE HOMES","1405 DURHAM DR",HOUSTON,TX,77007-3462,"(713) 864-9190",http://www.sandcastlehouston.com/,"(713) 864-9134","MIKE DISHBERGER",dishberger@sandcastlehouston.com
TX,HARRIS,19138767,"Single Family Homes",6/25/2020,,149175,,"1055 W 22ND",HOUSTON,TX,77008,,,CONTRACTOR,,,,,,,,,,,"SHEER HOMES",,,,,"SHEER HOMES","1431 WIRT RD",HOUSTON,TX,77055-4916,"(281) 948-7560",http://sheerhomes.com,,,Rafiq@sheerhomes.com
TX,HARRIS,20027717,"Single Family Homes",6/30/2020,,166080,,"902 MARTIN ST",HOUSTON,TX,77018,,,CONTRACTOR,,,,,,,,,,,"SUMMERTON HOMES",,,,,"SUMMERTON HOMES","5813 PETTY ST",HOUSTON,TX,77007,"(713) 530-7445",,,,
TX,HARRIS,20043873,"Single Family Homes",6/23/2020,,233860,,"10227 CANNONS RUN",HOUSTON,TX,77034,,,CONTRACTOR,,,,,,,,,,,"VARGAS MARIA",,,,,"VARGAS MARIA","1311 BROADFIELD",HOUSTON,TX,77084,"(281) 529-9127",,,,
TX,HARRIS,20043153,"Single Family Homes",6/23/2020,,230690,,"10239 CANNONS RUN",HOUSTON,TX,77034,,,CONTRACTOR,,,,,,,,,,,"VARGAS MARIA",,,,,"VARGAS MARIA","1311 BROADFIELD",HOUSTON,TX,77084,"(281) 529-9127",,,,
TX,HARRIS,20033308,"Single Family Homes",6/23/2020,,194640,,"12823 CLEARCROFT",HOUSTON,TX,77034,,,CONTRACTOR,,,,,,,,,,,"VARGAS MARIA",,,,,"VARGAS MARIA","1311 BROADFIELD",HOUSTON,TX,77084,"(281) 529-9127",,,,
TX,HARRIS,20020363,"Single Family Homes",6/25/2020,,335290,,"10963 CANNES MEMORIAL ",HOUSTON,TX,77043,,,CONTRACTOR,,,,,,,,,,,"VARGAS MARIA",,,,,"VARGAS MARIA","1311 BROADFIELD",HOUSTON,TX,77084,"(281) 529-9127",,,,
TX,HARRIS,20027148,"Single Family Homes",6/23/2020,,350230,,"10968 CANNES MEMORIAL ",HOUSTON,TX,77043,,,CONTRACTOR,,,,,,,,,,,"VARGAS MARIA",,,,,"VARGAS MARIA","1311 BROADFIELD",HOUSTON,TX,77084,"(281) 529-9127",,,,
TX,HARRIS,20020360,"Single Family Homes",6/30/2020,,336110,,"10971 CANNES MEMORIAL ",HOUSTON,TX,77043,,,CONTRACTOR,,,,,,,,,,,"VARGAS MARIA",,,,,"VARGAS MARIA","1311 BROADFIELD",HOUSTON,TX,77084,"(281) 529-9127",,,,
TX,HARRIS,20043869,"Single Family Homes",6/23/2020,,340140,,"3417 AVONDALE VIEW ",HOUSTON,TX,77054,,,CONTRACTOR,,,,,,,,,,,"VARGAS MARIA",,,,,"VARGAS MARIA","1311 BROADFIELD",HOUSTON,TX,77084,"(281) 529-9127",,,,
TX,HARRIS,20050593,"Single Family Homes",6/23/2020,,357910,,"3419 AVONDALE VIEW ",HOUSTON,TX,77054,,,CONTRACTOR,,,,,,,,,,,"VARGAS MARIA",,,,,"VARGAS MARIA","1311 BROADFIELD",HOUSTON,TX,77084,"(281) 529-9127",,,,
TX,HARRIS,20050595,"Single Family Homes",6/23/2020,,390650,,"3421 AVONDALE VIEW",HOUSTON,TX,77054,,,CONTRACTOR,,,,,,,,,,,"VARGAS MARIA",,,,,"VARGAS MARIA","1311 BROADFIELD",HOUSTON,TX,77084,"(281) 529-9127",,,,
TX,HARRIS,20050599,"Single Family Homes",6/23/2020,,401210,,"3427 AVONDALE VIEW ",HOUSTON,TX,77054,,,CONTRACTOR,,,,,,,,,,,"VARGAS MARIA",,,,,"VARGAS MARIA","1311 BROADFIELD",HOUSTON,TX,77084,"(281) 529-9127",,,,
TX,HARRIS,20043478,"Single Family Homes",6/23/2020,,354770,,"3429 AVONDALE VIEW ",HOUSTON,TX,77054,,,CONTRACTOR,,,,,,,,,,,"VARGAS MARIA",,,,,"VARGAS MARIA","1311 BROADFIELD",HOUSTON,TX,77084,"(281) 529-9127",,,,
TX,HARRIS,20037776,"Single Family Homes",6/23/2020,,216380,,"10802 FALL MILL",HOUSTON,TX,77075,,,CONTRACTOR,,,,,,,,,,,"VARGAS MARIA",,,,,"VARGAS MARIA","1311 BROADFIELD",HOUSTON,TX,77084,"(281) 529-9127",,,,
TX,HARRIS,20041803,"Single Family Homes",6/25/2020,,235290,,"10802 JAXWELL",HOUSTON,TX,77075,,,CONTRACTOR,,,,,,,,,,,"VARGAS MARIA",,,,,"VARGAS MARIA","1311 BROADFIELD",HOUSTON,TX,77084,"(281) 529-9127",,,,
TX,HARRIS,20037764,"Single Family Homes",6/24/2020,,262680,,"10806 CLOVERDUST",HOUSTON,TX,77075,,,CONTRACTOR,,,,,,,,,,,"VARGAS MARIA",,,,,"VARGAS MARIA","1311 BROADFIELD",HOUSTON,TX,77084,"(281) 529-9127",,,,
TX,HARRIS,20043252,"Single Family Homes",6/23/2020,,215510,,"10807 FALL MILL",HOUSTON,TX,77075,,,CONTRACTOR,,,,,,,,,,,"VARGAS MARIA",,,,,"VARGAS MARIA","1311 BROADFIELD",HOUSTON,TX,77084,"(281) 529-9127",,,,
TX,HARRIS,20016093,"Single Family Homes",6/23/2020,,253330,,"10809 FORBES BROOK",HOUSTON,TX,77075,,,CONTRACTOR,,,,,,,,,,,"VARGAS MARIA",,,,,"VARGAS MARIA","1311 BROADFIELD",HOUSTON,TX,77084,"(281) 529-9127",,,,
TX,HARRIS,20037753,"Single Family Homes",6/23/2020,,252340,,"10810 JAXWELL",HOUSTON,TX,77075,,,CONTRACTOR,,,,,,,,,,,"VARGAS MARIA",,,,,"VARGAS MARIA","1311 BROADFIELD",HOUSTON,TX,77084,"(281) 529-9127",,,,
TX,HARRIS,20037780,"Single Family Homes",6/23/2020,,250990,,"10820 FORBES BROOK",HOUSTON,TX,77075,,,CONTRACTOR,,,,,,,,,,,"VARGAS MARIA",,,,,"VARGAS MARIA","1311 BROADFIELD",HOUSTON,TX,77084,"(281) 529-9127",,,,
TX,HARRIS,20041809,"Single Family Homes",6/23/2020,,210790,,"10827 FALL MILL",HOUSTON,TX,77075,,,CONTRACTOR,,,,,,,,,,,"VARGAS MARIA",,,,,"VARGAS MARIA","1311 BROADFIELD",HOUSTON,TX,77084,"(281) 529-9127",,,,
TX,HARRIS,20041811,"Single Family Homes",6/23/2020,,207880,,"10846 FALL MILL",HOUSTON,TX,77075,,,CONTRACTOR,,,,,,,,,,,"VARGAS MARIA",,,,,"VARGAS MARIA","1311 BROADFIELD",HOUSTON,TX,77084,"(281) 529-9127",,,,
TX,HARRIS,20016086,"Single Family Homes",6/23/2020,,257910,,"7002 HOBBY WIND RIDGE",HOUSTON,TX,77075,,,CONTRACTOR,,,,,,,,,,,"VARGAS MARIA",,,,,"VARGAS MARIA","1311 BROADFIELD",HOUSTON,TX,77084,"(281) 529-9127",,,,
TX,HARRIS,20041796,"Single Family Homes",6/23/2020,,193850,,"7003 PIPER RIDGE",HOUSTON,TX,77075,,,CONTRACTOR,,,,,,,,,,,"VARGAS MARIA",,,,,"VARGAS MARIA","1311 BROADFIELD",HOUSTON,TX,77084,"(281) 529-9127",,,,
TX,HARRIS,20037782,"Single Family Homes",6/23/2020,,193140,,"7006 HOBBY MILL",HOUSTON,TX,77075,,,CONTRACTOR,,,,,,,,,,,"VARGAS MARIA",,,,,"VARGAS MARIA","1311 BROADFIELD",HOUSTON,TX,77084,"(281) 529-9127",,,,
TX,HARRIS,20043914,"Single Family Homes",6/23/2020,,226470,,"7010 HOBBY MILL",HOUSTON,TX,77075,,,CONTRACTOR,,,,,,,,,,,"VARGAS MARIA",,,,,"VARGAS MARIA","1311 BROADFIELD",HOUSTON,TX,77084,"(281) 529-9127",,,,
TX,HARRIS,20036464,"Single Family Homes",6/23/2020,,194260,,"7018 HOBBY MILL",HOUSTON,TX,77075,,,CONTRACTOR,,,,,,,,,,,"VARGAS MARIA",,,,,"VARGAS MARIA","1311 BROADFIELD",HOUSTON,TX,77084,"(281) 529-9127",,,,
TX,HARRIS,20041797,"Single Family Homes",6/23/2020,,230450,,"7019 PIPER RIDGE",HOUSTON,TX,77075,,,CONTRACTOR,,,,,,,,,,,"VARGAS MARIA",,,,,"VARGAS MARIA","1311 BROADFIELD",HOUSTON,TX,77084,"(281) 529-9127",,,,
TX,HARRIS,20041798,"Single Family Homes",6/23/2020,,232290,,"7022 HOBBY MILL",HOUSTON,TX,77075,,,CONTRACTOR,,,,,,,,,,,"VARGAS MARIA",,,,,"VARGAS MARIA","1311 BROADFIELD",HOUSTON,TX,77084,"(281) 529-9127",,,,
TX,HARRIS,20041800,"Single Family Homes",6/23/2020,,215890,,"7042 HOBBY MILL",HOUSTON,TX,77075,,,CONTRACTOR,,,,,,,,,,,"VARGAS MARIA",,,,,"VARGAS MARIA","1311 BROADFIELD",HOUSTON,TX,77084,"(281) 529-9127",,,,
TX,HARRIS,20041801,"Single Family Homes",6/23/2020,,192000,,"7042 PIPER RIDGE",HOUSTON,TX,77075,,,CONTRACTOR,,,,,,,,,,,"VARGAS MARIA",,,,,"VARGAS MARIA","1311 BROADFIELD",HOUSTON,TX,77084,"(281) 529-9127",,,,
TX,HARRIS,20041802,"Single Family Homes",6/23/2020,,206760,,"7046 PIPER RIDGE",HOUSTON,TX,77075,,,CONTRACTOR,,,,,,,,,,,"VARGAS MARIA",,,,,"VARGAS MARIA","1311 BROADFIELD",HOUSTON,TX,77084,"(281) 529-9127",,,,
TX,HARRIS,20024646,"Single Family Homes",6/23/2020,,360830,,"1821 CALABASAS ",HOUSTON,TX,77080,,,CONTRACTOR,,,,,,,,,,,"VARGAS MARIA",,,,,"VARGAS MARIA","1311 BROADFIELD",HOUSTON,TX,77084,"(281) 529-9127",,,,
TX,HARRIS,20001627,"Single Family Homes",6/26/2020,,382000,,"595 WYCLIFFE",HOUSTON,TX,77079,,,CONTRACTOR,,,,,,,,,,,"WALKER RESIDENTIAL",,,,,"WALKER RESIDENTIAL","13131 KIMBERLEY LN",HOUSTON,TX,77079-6128,"(713) 303-8808",http://walkerresidential.net,,,russ@walkerresidential.net
TX,HARRIS,20001615,"Single Family Homes",6/26/2020,,385000,,"593 WYCLIFFE",HOUSTON,TX,77079,,,CONTRACTOR,,,,,,,,,,,"WALKER RESIDENTIAL",,,,,"WALKER RESIDENTIAL","13131 KIMBERLEY LN",HOUSTON,TX,77079-6128,"(713) 303-8808",http://walkerresidential.net,,,russ@walkerresidential.net
TX,HARRIS,20009573,"Single Family Homes",6/29/2020,,117418,,"3019 LIVE OAK",HOUSTON,TX,77004,,,CONTRACTOR,,,,,,,,,,,"WILLIAMS HEATHER",,,,,"WILLIAMS HEATHER","14215 MARY",HOUSTON,TX,77006,"(832) 929-7736",,,,
TX,HARRIS,20027947,"Single Family Homes",6/26/2020,,177418,,"951 GREEN MEADOW",HOUSTON,TX,77091,,,CONTRACTOR,,,,,,,,,,,"WILLIAMS HEATHER",,,,,"WILLIAMS HEATHER","14215 MARY",HOUSTON,TX,77006,"(832) 929-7736",,,,
TX,HARRIS,19114185,"Single Family Homes",6/30/2020,,125000,,"3918 BILLINGSLEY",HOUSTON,TX,77009,,,"CORTEZ RAMIRO","3918 BILLINGSLEY",HOUSTON,TX,77009,,Owner,,,,,MALATOVIA,,,,,MALATOVIA,"1127 ELDRIDGE PKWY ST",HOUSTON,TX,77077,"(832) 231-5295",,,,
TX,HARRIS,20025069,"Single Family Homes",6/24/2020,,650000,,"5219 PIPING ROCK",HOUSTON,TX,77056,,,"DIAZPEREZ ERNESTO","5219 PIPING ROCK",HOUSTON,TX,77056,,Owner,,,,,OWNER,,,,,OWNER,,,,,,,,,
TX,HARRIS,19046010,"Single Family Homes",6/23/2020,,189000,,"6827 HERON",HOUSTON,TX,77087,,,"DURAN LEON JOSE","6827 HERON",HOUSTON,TX,77087,,Owner,,,,,OWNER,,,,,OWNER,,,,,,,,,
TX,HARRIS,20043295,"Single Family Homes",6/24/2020,,409200,,"3819 S BRAESWOOD",HOUSTON,TX,77025,,,"ERMOLI ALFONSO","3819 S BRAESWOOD",HOUSTON,TX,77025,,Owner,,,,,"HABITAT CONSTRUCTION",,,,,"HABITAT CONSTRUCTION","10228 MIDWAY RD",DALLAS,TX,75229-6231,"(972) 596-3769",,,,
TX,HARRIS,19027821,"Single Family Homes",6/29/2020,,277000,,"2207 HOLMAN",HOUSTON,TX,77004,,,"FORNACA FRANK","2207 HOLMAN",HOUSTON,TX,77004,,Owner,,,,,OWNER,,,,,OWNER,,,,,,,,,
TX,HARRIS,19027811,"Single Family Homes",6/29/2020,,275000,,"3415 HUTCHINS",HOUSTON,TX,77004,,,"FORNACA FRANK","2207 HOLMAN",HOUSTON,TX,77004,,Owner,,,,,"FRK INVESTMENTS",,,,,"FRK INVESTMENTS","636 OLD SPANISH TRL",HOUSTON,TX,77021,"(760) 533-3240",,,"FORNACA FRANK",
TX,HARRIS,20044531,"Single Family Homes",6/26/2020,,667333,,"612 E 17TH",HOUSTON,TX,77008,,,"FREDERICK BROWN & CATHERINE CAHILL","612 E 17TH",HOUSTON,TX,77008,,Owner,,,,,"FRANKEL BUILDING GROUP",,,,,"FRANKEL BUILDING GROUP","5701 WOODWAY DR STE 200",HOUSTON,TX,77057-1505,"(713) 623-4646",http://www.frankelbuildinggroup.com/,,"BRIAN ADAMS",
TX,HARRIS,20042522,"Single Family Homes",6/30/2020,,177000,,"5713 SUDAN",HOUSTON,TX,77020,,,"GLOVER DEIDRE","1315 HUNTER GREEN",HOUSTON,TX,77020,"(281) 701-8173",Applicant,,,,,OWNER,,,,,OWNER,,,,,,,,,
TX,HARRIS,20005428,"Single Family Homes",6/30/2020,,81000,,"1302 HOTCHKISS",HOUSTON,TX,77012,,,"GOMEZ  JAVIER","1302 HOTCHKISS",HOUSTON,TX,77012,,Owner,,,,,OWNER,,,,,OWNER,,,,,,,,,
TX,HARRIS,20040631,"Single Family Homes",6/29/2020,,525000,,"2505 PELHAM",HOUSTON,TX,77019,,,"HARBIN ADAM","2505 PELHAM",HOUSTON,TX,77019,,Owner,,,,,"BROWN RIDGE INTERESTS",,,,,"BROWN RIDGE INTERESTS","2118 STATE ST",HOUSTON,TX,77007-8338,"(281) 850-6423",,,"BARRY BROWN",
TX,HARRIS,20000624,"Single Family Homes",6/30/2020,,310200,,"2404 WILSHIRE",HOUSTON,TX,77023,,,"HERNANDEZ ELIZABETH","2404 WILSHIRE",HOUSTON,TX,77023,,Owner,,,,,"LITTLE VERONICA",,,,,"LITTLE VERONICA","10023 WESTVIEW",HOUSTON,TX,77055,"(713) 861-1601",,,,
TX,HARRIS,20012809,"Single Family Homes",6/23/2020,,135000,,"6711 GLASS",HOUSTON,TX,77016,,,"HERNANDEZ JORGE & CLAUDIA","6711 GLASS",HOUSTON,TX,77016,"(713) 240-2785",Owner,,,,,OWNER,,,,,OWNER,,,,,,,,,
TX,HARRIS,20026744,"Single Family Homes",6/30/2020,,140000,,"1906 ELLINGTON",HOUSTON,TX,77088,,,"HICKMAN JELETA","1906 ELLINGTON",HOUSTON,TX,77088,,Owner,,,,,"DSW HOMES",,,,,"DSW HOMES","12607 N",HOUSTON,TX,77034,"(832) 385-0069",http://www.dswhomes.com/,,,
TX,HARRIS,19142464,"Single Family Homes",6/23/2020,,150726,,"7913 MAXROY",HOUSTON,TX,77088,,,"JOHNSON JAMES ARTHUR","7913 MAXROY",HOUSTON,TX,77088,,Owner,,,,,"MHL HOMES BUILDERS",,,,,"MHL HOMES BUILDERS","5029 TALINA WAY",HOUSTON,TX,77041,"(713) 939-0095",,,,
TX,HARRIS,19066286,"Single Family Homes",6/24/2020,,342525,,"1626 SPANISH COVE",HOUSTON,TX,77532,,,"MARTINEZ CARLOS","1626 SPANISH COVE",HOUSTON,TX,77532,"(832) 217-6531",Owner,,,,,OWNER,,,,,OWNER,,,,,,,,,
TX,HARRIS,20012757,"Single Family Homes",6/30/2020,,500000,,"6114 ABINGTON",HOUSTON,TX,77008,,,"PATTISON MONTA","6114 ABINGTON",HOUSTON,TX,77008,,Owner,,,,,"BUSTER & COGDELL BUILDERS",,,,,"BUSTER & COGDELL BUILDERS","8562 KATY FWY SUITE 152",HOUSTON,TX,77024-1846,"(713) 783-1192",http://www.busterandcogdellbuilders.com/,"(713) 789-1636","COOPER COGDELL",ccogdell@busterandcogdellbuilders.com
TX,HARRIS,20016982,"Single Family Homes",6/30/2020,,146755,,"1917 WILBURFORCE",HOUSTON,TX,77091,,,"PEACOCK LENNELL","1917 WILBURFORCE",HOUSTON,TX,77091,,Owner,,,,,"UNITED BUILT HOMES",,,,,"UNITED BUILT HOMES","8500 LINE",HOUSTON,TX,71106,"(281) 761-4281",,,,
TX,HARRIS,20003612,"Single Family Homes",6/29/2020,,150000,,"1629 TABOR",HOUSTON,TX,77009,,,"PULFORD CHAD","1629 TABOR",HOUSTON,TX,77009,,Owner,,,,,"STERLING SIGNS",,,,,"STERLING SIGNS","1707 WOODLAND SPRINGS ST",HOUSTON,TX,77077,"(281) 772-8125",,,,
TX,HARRIS,19083221,"Single Family Homes",6/25/2020,,194259,,"15851 RIDGEROE",HOUSTON,TX,77053,,,"SOTO MAURICIO","15851 RIDGEROE",HOUSTON,TX,77053,"(346) 719-3986",Owner,,,,,OWNER,,,,,OWNER,,,,,,,,,
TX,MONTGOMERY,172610-20,"Single Family Homes",5/27/2020,,325000,,"7324 WILDE RIDGE TR",HOUSTON,TX,77356,"HIGH MEADOW ESTATES",,CONTRACTOR,,,,,,,,,,,"AES SEPTIC",,,,,"AES SEPTIC","30703 N CRIPPLE CREEK DR",MAGNOLIA,TX,77354-1973,"(281) 356-5000",,,,
TX,MONTGOMERY,172680-20,"Single Family Homes",5/28/2020,,110000,,"19110 DANIELLE CT",HOUSTON,TX,77356,TIMBERLAND,,"JOSE ALAMILLA","19110 DANIELLE COURT",PORTER,TX,77365,,Owner,,,,,OWNER,,,,,OWNER,,,,,,,,,
TX,MONTGOMERY,"172563 - 20","Single Family Homes",5/26/2020,,143000,,"20138 BUSHWICK FALLS DR",HOUSTON,TX,77356,FAIRWATER,,CONTRACTOR,,,,,,,,,,,"CASTLEROCK COMMUNITIES",,,,,"CASTLEROCK COMMUNITIES","7670 WOODWAY DR STE 300",HOUSTON,TX,77063-1520,"(713) 600-7000",http://c-rock.com,"(713) 600-0000",,
TX,MONTGOMERY,172666-20,"Single Family Homes",5/28/2020,,150995,,"18823 SAWTOOTH OAK CT",HOUSTON,TX,77356,"GLEN OAKS",,CONTRACTOR,,,,,,,,,,,"CASTLEROCK COMMUNITIES",,,,,"CASTLEROCK COMMUNITIES","7670 WOODWAY DR STE 300",HOUSTON,TX,77063-1520,"(713) 600-7000",http://c-rock.com,"(713) 600-0000",,
TX,MONTGOMERY,172667-20,"Single Family Homes",5/28/2020,,150995,,"18811 SAWTOOTH OAK CT",HOUSTON,TX,77356,"GLEN OAKS",,CONTRACTOR,,,,,,,,,,,"CASTLEROCK COMMUNITIES",,,,,"CASTLEROCK COMMUNITIES","7670 WOODWAY DR STE 300",HOUSTON,TX,77063-1520,"(713) 600-7000",http://c-rock.com,"(713) 600-0000",,
TX,MONTGOMERY,"172688 - 20","Single Family Homes",5/28/2020,,500000,,"11572 GRAND PINE DR",HOUSTON,TX,77356,"GRAND HARBOR",,"TOMMY CAUTHEN","13622 WINTERCREST",MONTGOMERY,TX,77356,,Owner,,,,,OWNER,,,,,OWNER,,,,,,,,,
TX,MONTGOMERY,172577-20,"Single Family Homes",5/26/2020,,197000,,"25726 NORTHPARK PALM DR",HOUSTON,TX,77356,"NORTHPARK WOODS",,CONTRACTOR,,,,,,,,,,,"CENTURY COMMUNITIES",,,,,"CENTURY COMMUNITIES","4700 W SAM HOUSTON PKWY N STE 130",HOUSTON,TX,77041-8219,"(281) 741-8946",https://www.centurycommunities.com/,,,
TX,MONTGOMERY,172699-20,"Single Family Homes",5/29/2020,,140000,,"25734 NORTHPARK PALM DR",HOUSTON,TX,77356,"NORTHPARK WOODS",,CONTRACTOR,,,,,,,,,,,"CENTURY COMMUNITIES",,,,,"CENTURY COMMUNITIES","4700 W SAM HOUSTON PKWY N STE 130",HOUSTON,TX,77041-8219,"(281) 741-8946",https://www.centurycommunities.com/,,,
TX,MONTGOMERY,172700-20,"Single Family Homes",5/29/2020,,140000,,"25730 NORTHPARK PALM DR",HOUSTON,TX,77356,"NORTHPARK WOODS",,CONTRACTOR,,,,,,,,,,,"CENTURY COMMUNITIES",,,,,"CENTURY COMMUNITIES","4700 W SAM HOUSTON PKWY N STE 130",HOUSTON,TX,77041-8219,"(281) 741-8946",https://www.centurycommunities.com/,,,
TX,MONTGOMERY,172701-20,"Single Family Homes",5/29/2020,,123000,,"25738 NORTHPARK PALM DR",HOUSTON,TX,77356,"NORTHPARK WOODS",,CONTRACTOR,,,,,,,,,,,"CENTURY COMMUNITIES",,,,,"CENTURY COMMUNITIES","4700 W SAM HOUSTON PKWY N STE 130",HOUSTON,TX,77041-8219,"(281) 741-8946",https://www.centurycommunities.com/,,,
TX,MONTGOMERY,172702-20,"Single Family Homes",5/29/2020,,200000,,"24700 JOHNSON ROAD",HOUSTON,TX,77356,,,"DILLON CONLEY","PO BOX 273",CONROE,TX,77305,,Owner,,,,,OWNER,,,,,OWNER,,,,,,,,,
TX,MONTGOMERY,172686-20,"Single Family Homes",5/28/2020,,95000,,"25761 MORGAN CEMETERY ROAD",HOUSTON,TX,77356,"HUTCHESON ACRES",,"JUAN CARLOS CRUZ","25455 REDWOOD LN",CLEVELAND,TX,77328,,Owner,,,,,OWNER,,,,,OWNER,,,,,,,,,
TX,MONTGOMERY,172646-20,"Single Family Homes",5/28/2020,,224506,,"133 PEPPER GRASS PLACE",HOUSTON,TX,77356,"BONTERRA AT WOODFOREST",,CONTRACTOR,,,,,,,,,,,"DARLING HOMES",,,,,"DARLING HOMES","10255 RICHMOND AVE STE 150",HOUSTON,TX,77042-4382,"(713) 690-6902",http://www.darlinghomes.com/,,,
TX,MONTGOMERY,172583-20,"Single Family Homes",5/26/2020,,327990,,"32124 PARK PLAINS DR",HOUSTON,TX,77356,"MEADOWS AT IMPERIAL OAKS",,CONTRACTOR,,,,,,,,,,,"DAVID WEEKLEY HOMES",,,,,"DAVID WEEKLEY HOMES","14444 NORTHWEST",HOUSTON,TX,77040,"(713) 570-5021",http://www.davidweekleyhomes.com/,,,
TX,MONTGOMERY,172584-20,"Single Family Homes",5/26/2020,,321990,,"2921 OAKCREST MEADOW CT",HOUSTON,TX,77356,"MEADOWS AT IMPERIAL OAKS",,CONTRACTOR,,,,,,,,,,,"DAVID WEEKLEY HOMES",,,,,"DAVID WEEKLEY HOMES","14444 NORTHWEST",HOUSTON,TX,77040,"(713) 570-5021",http://www.davidweekleyhomes.com/,,,
TX,MONTGOMERY,172585-20,"Single Family Homes",5/26/2020,,326990,,"32128 PARK PLAINS DR",HOUSTON,TX,77356,"MEADOWS AT IMPERIAL OAKS",,CONTRACTOR,,,,,,,,,,,"DAVID WEEKLEY HOMES",,,,,"DAVID WEEKLEY HOMES","14444 NORTHWEST",HOUSTON,TX,77040,"(713) 570-5021",http://www.davidweekleyhomes.com/,,,
TX,MONTGOMERY,172709-20,"Single Family Homes",5/29/2020,,305490,,"454 STONEBROOK LN",HOUSTON,TX,77356,"HILLS OF WESTLAKE",,CONTRACTOR,,,,,,,,,,,"DAVID WEEKLEY HOMES",,,,,"DAVID WEEKLEY HOMES","14444 NORTHWEST",HOUSTON,TX,77040,"(713) 570-5021",http://www.davidweekleyhomes.com/,,,
TX,MONTGOMERY,172710-20,"Single Family Homes",5/29/2020,,260990,,"358 PLEASANT HILL WAY",HOUSTON,TX,77356,"HILLS OF WESTLAKE",,CONTRACTOR,,,,,,,,,,,"DAVID WEEKLEY HOMES",,,,,"DAVID WEEKLEY HOMES","14444 NORTHWEST",HOUSTON,TX,77040,"(713) 570-5021",http://www.davidweekleyhomes.com/,,,
TX,MONTGOMERY,172624-20,"Single Family Homes",5/27/2020,,426785,,"1012 HORNED OWL CT",HOUSTON,TX,77356,"HARPER'S PRESERVE",,CONTRACTOR,,,,,,,,,,,"DREES CUSTOM HOMES",,,,,"DREES CUSTOM HOMES","9720 CYPRESSWOOD DR",HOUSTON,TX,77070-3355,"(281) 653-8850",http://www.dreeshomes.com,,,
TX,MONTGOMERY,172575-20,"Single Family Homes",5/26/2020,,194400,,"10037 PRESERVE WAY",HOUSTON,TX,77356,"HARPER'S PRESERVE",,CONTRACTOR,,,,,,,,,,,"EHT OF TEXAS LP",,,,,"EHT OF TEXAS LP","10235 LITTLE",HOUSTON,TX,77040,"(713) 557-3685",,,,
TX,MONTGOMERY,172665-20,"Single Family Homes",5/28/2020,,105000,,"27665 PEACH CREEK DR",HOUSTON,TX,77356,"PEACH CREEK FOREST",,CONTRACTOR,,,,,,,,,,,"ENVIRONMENTAL RESOURCES",,,,,"ENVIRONMENTAL RESOURCES","112 SHERBROOK CIR",CONROE,TX,77385-7749,"(936) 672-7025",,,,
TX,MONTGOMERY,172672-20,"Single Family Homes",5/28/2020,,278990,,"11510 MARCI LN",HOUSTON,TX,77356,"CLEAR VIEW ESTATES",,CONTRACTOR,,,,,,,,,,,"FIRST AMERICA HOMES",,,,,"FIRST AMERICA HOMES","1400 WOODLOCH FOREST DR STE 200","THE WOODLANDS",TX,77380-1179,"(713) 452-1700",http://www.firstamericahomes.com/,,,info@firstamericahomes.com
TX,MONTGOMERY,172725-20,"Single Family Homes",5/29/2020,,91000,,"18915 IRIS LN",HOUSTON,TX,77356,"SUMMER HILLS",,"JOE GARCIA","19841 S PLANTATION ESTATES DR",PORTER,TX,77356,,Owner,,,,,OWNER,,,,,OWNER,,,,,,,,,
TX,MONTGOMERY,172614-20,"Single Family Homes",5/27/2020,,95000,,"40823 MOSTYN HILL DR",HOUSTON,TX,77356,"MOSTYN SPRINGS",,CONTRACTOR,,,,,,,,,,,"GEHAN HOMES",,,,,"GEHAN HOMES","2050 W SAM HOUSTON PKWY S",HOUSTON,TX,77042-2079,"(713) 243-3545",http://www.gehanhomes.com,,,
TX,MONTGOMERY,172616-20,"Single Family Homes",5/27/2020,,108000,,"40533 MOSTYN LAKE DR",HOUSTON,TX,77356,"MOSTYN SPRINGS",,CONTRACTOR,,,,,,,,,,,"GEHAN HOMES",,,,,"GEHAN HOMES","2050 W SAM HOUSTON PKWY S",HOUSTON,TX,77042-2079,"(713) 243-3545",http://www.gehanhomes.com,,,
TX,MONTGOMERY,172642-20,"Single Family Homes",5/27/2020,,175000,,"292 MAGNOLIA RESERVE LOOP",HOUSTON,TX,77356,"MAGNOLIA RESERVE",,CONTRACTOR,,,,,,,,,,,"GRACEPOINT HOMES",,,,,"GRACEPOINT HOMES","33300 EGYPT LN STE 100",MAGNOLIA,TX,77354-2739,"(281) 681-0400",http://www.gracepointhomes.com/,"(281) 681-0402",,Info@gracepointhomes.com
TX,MONTGOMERY,172587-20,"Single Family Homes",5/27/2020,,165000,,"23350 BROOK FOREST ROAD",HOUSTON,TX,77356,"BROOK FOREST",,"COLE HERMES","2446 BLACKRIDGE ROAD",HOUSTON,TX,77067,,Owner,,,,,OWNER,,,,,OWNER,,,,,,,,,
TX,MONTGOMERY,172648-20,"Single Family Homes",5/28/2020,,600000,,"119 EMERALD ISLE CT",HOUSTON,TX,77356,"NOBLE GREENS AT WOODFOREST",,CONTRACTOR,,,,,,,,,,,"HIGHLAND HOMES",,,,,"HIGHLAND HOMES","10930 W SAM HOUSTON PKWY N STE 100",HOUSTON,TX,77064-6331,"(281) 517-9800",,,,
TX,MONTGOMERY,172678-20,"Single Family Homes",5/28/2020,,100000,,"16318 GREEN MEADOW LN",HOUSTON,TX,77356,"GREEN MEADOW",,"MICHEALA HINSON","2402 SYCAMORE AVE, APT# A-3",HUNTSVILLE,TX,77356,,Owner,,,,,OWNER,,,,,OWNER,,,,,,,,,
TX,MONTGOMERY,172633-20,"Single Family Homes",5/27/2020,,334990,,"10057 RED BEADTREE PLACE",HOUSTON,TX,77356,"HARPER'S PRESERVE",,CONTRACTOR,,,,,,,,,,,"HISTORY MAKER HOMES",,,,,"HISTORY MAKER HOMES","9001 AIRPORT FWY SUITE 400","NORTH RICHLAND HILLS",TX,76180-7769,"(817) 429-8008",http://www.historymaker.com/,"(817) 507-1102","JILL BARFIELD",
TX,MONTGOMERY,172670-20,"Single Family Homes",5/28/2020,,279990,,"9884 PRESERVE WAY",HOUSTON,TX,77356,"HARPER'S PRESERVE",,CONTRACTOR,,,,,,,,,,,"HISTORY MAKER HOMES",,,,,"HISTORY MAKER HOMES","9001 AIRPORT FWY SUITE 400","NORTH RICHLAND HILLS",TX,76180-7769,"(817) 429-8008",http://www.historymaker.com/,"(817) 507-1102","JILL BARFIELD",
TX,MONTGOMERY,172550-20,"Single Family Homes",5/26/2020,,356887,,"34206 MILL CREEK CT",HOUSTON,TX,77356,WOODTRACE,,CONTRACTOR,,,,,,,,,,,"J PATRICK HOMES",,,,,"J PATRICK HOMES","9700 RICHMOND AVE STE 162",HOUSTON,TX,77042-4698,"(713) 789-8004",,,,
TX,MONTGOMERY,172552-20,"Single Family Homes",5/26/2020,,387283,,"511 MILL CREEK ROAD",HOUSTON,TX,77356,WOODTRACE,,CONTRACTOR,,,,,,,,,,,"J PATRICK HOMES",,,,,"J PATRICK HOMES","9700 RICHMOND AVE STE 162",HOUSTON,TX,77042-4698,"(713) 789-8004",,,,
TX,MONTGOMERY,172557-20,"Single Family Homes",5/26/2020,,187180,,"18887 CEDAR BIRCH LN",HOUSTON,TX,77356,"GLEN OAKS",,CONTRACTOR,,,,,,,,,,,"K HOVNANIAN HOMES",,,,,"K HOVNANIAN HOMES","13111 NORTHWEST FWY STE 200",HOUSTON,TX,77040-6311,"(713) 460-0264",,,,
TX,MONTGOMERY,172635-20,"Single Family Homes",5/27/2020,,184000,,"8785 UTE CREEK LN",HOUSTON,TX,77356,"CIMARRON CREEK",,CONTRACTOR,,,,,,,,,,,"KB HOME",,,,,"KB HOME","11314 RICHMOND AVE",HOUSTON,TX,77082-2616,"(281) 668-3800",,,,
TX,MONTGOMERY,172636-20,"Single Family Homes",5/27/2020,,168000,,"20845 LANGWORTH PLACE",HOUSTON,TX,77356,"BROOKWOOD FOREST",,CONTRACTOR,,,,,,,,,,,"KB HOME",,,,,"KB HOME","11314 RICHMOND AVE",HOUSTON,TX,77082-2616,"(281) 668-3800",,,,
TX,MONTGOMERY,172722-20,"Single Family Homes",5/29/2020,,720000,,"8507 MAJESTIC LAKE CT",HOUSTON,TX,77356,"CROWN OAKS",,CONTRACTOR,,,,,,,,,,,"KLH CUSTOM HOMES",,,,,"KLH CUSTOM HOMES","8547 CROWN LAKE CT",MONTGOMERY,TX,77316-9666,"(713) 542-3002",,,"KEVIN HOSTER",
TX,MONTGOMERY,172623-20,"Single Family Homes",5/27/2020,,220000,,"22706 MEADOWSWEET DR",HOUSTON,TX,77356,"CLEAR CREEK FOREST",,"JOHN KNEIFEL","16302 GRANT ROAD",CYPRESS,TX,77429,,Owner,,,,,OWNER,,,,,OWNER,,,,,,,,,
TX,MONTGOMERY,172647-20,"Single Family Homes",5/28/2020,,183000,,"29486 WESTHOPE DR",HOUSTON,TX,77356,"LEGENDS TRACE",,CONTRACTOR,,,,,,,,,,,"LEGEND HOMES",,,,,"LEGEND HOMES","10410 WINDAMERE LAKES BLVD",HOUSTON,TX,77065-4996,"(281) 671-9060",http://legendhomecorp.com/,"(281) 671-9055",,
TX,MONTGOMERY,172629-20,"Single Family Homes",5/27/2020,,263160,,"28226 WHITMORE BEND DR",HOUSTON,TX,77356,"WOODSON'S RESERVE",,CONTRACTOR,,,,,,,,,,,"LENNAR HOMES",,,,,"LENNAR HOMES","550 GREENS PKWY",HOUSTON,TX,77067-4537,"(281) 875-1000",http://www.lennar.com/,,,
TX,MONTGOMERY,172630-20,"Single Family Homes",5/27/2020,,290000,,"5039 WOODED LAKE DR",HOUSTON,TX,77356,"WOODSON'S RESERVE",,CONTRACTOR,,,,,,,,,,,"LENNAR HOMES",,,,,"LENNAR HOMES","550 GREENS PKWY",HOUSTON,TX,77067-4537,"(281) 875-1000",http://www.lennar.com/,,,
TX,MONTGOMERY,172631-20,"Single Family Homes",5/27/2020,,223000,,"5019 WOODED LAKE DR",HOUSTON,TX,77356,"WOODSON'S RESERVE",,CONTRACTOR,,,,,,,,,,,"LENNAR HOMES",,,,,"LENNAR HOMES","550 GREENS PKWY",HOUSTON,TX,77067-4537,"(281) 875-1000",http://www.lennar.com/,,,
TX,MONTGOMERY,172651-20,"Single Family Homes",5/28/2020,,96500,,"23918 OLIVENZA TRAIL",HOUSTON,TX,77356,TAVOLA,,CONTRACTOR,,,,,,,,,,,"LENNAR HOMES",,,,,"LENNAR HOMES","550 GREENS PKWY",HOUSTON,TX,77067-4537,"(281) 875-1000",http://www.lennar.com/,,,
TX,MONTGOMERY,172653-20,"Single Family Homes",5/28/2020,,90000,,"5847 ROSEHILL FOREST LN",HOUSTON,TX,77356,"COUNTRY COLONY",,CONTRACTOR,,,,,,,,,,,"LENNAR HOMES",,,,,"LENNAR HOMES","550 GREENS PKWY",HOUSTON,TX,77067-4537,"(281) 875-1000",http://www.lennar.com/,,,
TX,MONTGOMERY,172597-20,"Single Family Homes",5/27/2020,,104754,,"26107 HALS DR",HOUSTON,TX,77356,"WILLIAMS TRACE",,CONTRACTOR,,,,,,,,,,,"LGI HOMES",,,,,"LGI HOMES","1450 LAKE ROBBINS SUITE 430",CONROE,TX,77380,"(210) 563-4648",,"(281) 210-2601",,
TX,MONTGOMERY,172598-20,"Single Family Homes",5/27/2020,,67531,,"25250 DICKENS DR",HOUSTON,TX,77356,"WILLIAMS TRACE",,CONTRACTOR,,,,,,,,,,,"LGI HOMES",,,,,"LGI HOMES","1450 LAKE ROBBINS SUITE 430",CONROE,TX,77380,"(210) 563-4648",,"(281) 210-2601",,
TX,MONTGOMERY,172600-20,"Single Family Homes",5/27/2020,,67531,,"26111 HALS DR",HOUSTON,TX,77356,"WILLIAMS TRACE",,CONTRACTOR,,,,,,,,,,,"LGI HOMES",,,,,"LGI HOMES","1450 LAKE ROBBINS SUITE 430",CONROE,TX,77380,"(210) 563-4648",,"(281) 210-2601",,
TX,MONTGOMERY,172602-20,"Single Family Homes",5/27/2020,,73912,,"26115 HALS DR",HOUSTON,TX,77356,"WILLIAMS TRACE",,CONTRACTOR,,,,,,,,,,,"LGI HOMES",,,,,"LGI HOMES","1450 LAKE ROBBINS SUITE 430",CONROE,TX,77380,"(210) 563-4648",,"(281) 210-2601",,
TX,MONTGOMERY,172603-20,"Single Family Homes",5/27/2020,,90334,,"26119 HALS DR",HOUSTON,TX,77356,"WILLIAMS TRACE",,CONTRACTOR,,,,,,,,,,,"LGI HOMES",,,,,"LGI HOMES","1450 LAKE ROBBINS SUITE 430",CONROE,TX,77380,"(210) 563-4648",,"(281) 210-2601",,
TX,MONTGOMERY,172604-20,"Single Family Homes",5/27/2020,,73912,,"26123 HALS DR",HOUSTON,TX,77356,"WILLIAMS TRACE",,CONTRACTOR,,,,,,,,,,,"LGI HOMES",,,,,"LGI HOMES","1450 LAKE ROBBINS SUITE 430",CONROE,TX,77380,"(210) 563-4648",,"(281) 210-2601",,
TX,MONTGOMERY,172605-20,"Single Family Homes",5/27/2020,,90334,,"26127 HALS DR",HOUSTON,TX,77356,"WILLIAMS TRACE",,CONTRACTOR,,,,,,,,,,,"LGI HOMES",,,,,"LGI HOMES","1450 LAKE ROBBINS SUITE 430",CONROE,TX,77380,"(210) 563-4648",,"(281) 210-2601",,
TX,MONTGOMERY,172608-20,"Single Family Homes",5/27/2020,,100000,,"26131 HALS DR",HOUSTON,TX,77356,"WILLIAMS TRACE",,CONTRACTOR,,,,,,,,,,,"LGI HOMES",,,,,"LGI HOMES","1450 LAKE ROBBINS SUITE 430",CONROE,TX,77380,"(210) 563-4648",,"(281) 210-2601",,
TX,MONTGOMERY,172611-20,"Single Family Homes",5/27/2020,,73912,,"26135 HALS DR",HOUSTON,TX,77356,"WILLIAMS TRACE",,CONTRACTOR,,,,,,,,,,,"LGI HOMES",,,,,"LGI HOMES","1450 LAKE ROBBINS SUITE 430",CONROE,TX,77380,"(210) 563-4648",,"(281) 210-2601",,
TX,MONTGOMERY,172613-20,"Single Family Homes",5/27/2020,,93314,,"26141 HALS DR",HOUSTON,TX,77356,"WILLIAMS TRACE",,CONTRACTOR,,,,,,,,,,,"LGI HOMES",,,,,"LGI HOMES","1450 LAKE ROBBINS SUITE 430",CONROE,TX,77380,"(210) 563-4648",,"(281) 210-2601",,
TX,MONTGOMERY,172615-20,"Single Family Homes",5/27/2020,,90334,,"26147 HAI,S DR",HOUSTON,TX,77356,"WILLIAMS TRACE",,CONTRACTOR,,,,,,,,,,,"LGI HOMES",,,,,"LGI HOMES","1450 LAKE ROBBINS SUITE 430",CONROE,TX,77380,"(210) 563-4648",,"(281) 210-2601",,
TX,MONTGOMERY,172617-20,"Single Family Homes",5/27/2020,,104754,,"26151 HALS DR",HOUSTON,TX,77356,"WILLIAMS TRACE",,CONTRACTOR,,,,,,,,,,,"LGI HOMES",,,,,"LGI HOMES","1450 LAKE ROBBINS SUITE 430",CONROE,TX,77380,"(210) 563-4648",,"(281) 210-2601",,
TX,MONTGOMERY,172618-20,"Single Family Homes",5/27/2020,,73912,,"25258 DICKENS DR",HOUSTON,TX,77356,"WILLIAMS TRACE",,CONTRACTOR,,,,,,,,,,,"LGI HOMES",,,,,"LGI HOMES","1450 LAKE ROBBINS SUITE 430",CONROE,TX,77380,"(210) 563-4648",,"(281) 210-2601",,
TX,MONTGOMERY,172620-20,"Single Family Homes",5/27/2020,,73912,,"25246 DICKENS DR",HOUSTON,TX,77356,"WILLIAMS TRACE",,CONTRACTOR,,,,,,,,,,,"LGI HOMES",,,,,"LGI HOMES","1450 LAKE ROBBINS SUITE 430",CONROE,TX,77380,"(210) 563-4648",,"(281) 210-2601",,
TX,MONTGOMERY,172621-20,"Single Family Homes",5/27/2020,,90334,,"25254 DICKENS DR",HOUSTON,TX,77356,"WILLIAMS TRACE",,CONTRACTOR,,,,,,,,,,,"LGI HOMES",,,,,"LGI HOMES","1450 LAKE ROBBINS SUITE 430",CONROE,TX,77380,"(210) 563-4648",,"(281) 210-2601",,
TX,MONTGOMERY,172644-20,"Single Family Homes",5/27/2020,,100000,,"4560 BEN MILAM ROAD",HOUSTON,TX,77356,"FRONTIER LAKES",,"STACYE MAKSYM","9803 HWY 242 STE 200 #211",CONROE,TX,77356,,Owner,,,,,OWNER,,,,,OWNER,,,,,,,,,
TX,MONTGOMERY,172645-20,"Single Family Homes",5/27/2020,,310990,,"17323 GRAND CANYON ROAD",HOUSTON,TX,77356,ARTAVIA,,CONTRACTOR,,,,,,,,,,,"MHI MCGUYER HOMEBUILDERS",,,,,"MHI MCGUYER HOMEBUILDERS","7676 WOODWAY DR",HOUSTON,TX,77063-1526,"(713) 260-4107",,,,
TX,MONTGOMERY,172694-20,"Single Family Homes",5/29/2020,,209990,,"32010 QUAIL TERRACE LN",HOUSTON,TX,77356,"MEADOWS AT IMPERIAL OAKS",,CONTRACTOR,,,,,,,,,,,"MHI MCGUYER HOMEBUILDERS",,,,,"MHI MCGUYER HOMEBUILDERS","7676 WOODWAY DR",HOUSTON,TX,77063-1526,"(713) 260-4107",,,,
TX,MONTGOMERY,172695-20,"Single Family Homes",5/29/2020,,250990,,"2779 HIDDEN HOLLOW LN",HOUSTON,TX,77356,"MEADOWS AT IMPERIAL OAKS",,CONTRACTOR,,,,,,,,,,,"MHI MCGUYER HOMEBUILDERS",,,,,"MHI MCGUYER HOMEBUILDERS","7676 WOODWAY DR",HOUSTON,TX,77063-1526,"(713) 260-4107",,,,
TX,MONTGOMERY,172696-20,"Single Family Homes",5/29/2020,,209990,,"2834 WILDE REDBUD LN",HOUSTON,TX,77356,"MEADOWS AT IMPERIAL OAKS",,CONTRACTOR,,,,,,,,,,,"MHI MCGUYER HOMEBUILDERS",,,,,"MHI MCGUYER HOMEBUILDERS","7676 WOODWAY DR",HOUSTON,TX,77063-1526,"(713) 260-4107",,,,
TX,MONTGOMERY,172697-20,"Single Family Homes",5/29/2020,,236990,,"2724 HIDDEN HOLLOW LN",HOUSTON,TX,77356,"MEADOWS AT IMPERIAL OAKS",,CONTRACTOR,,,,,,,,,,,"MHI MCGUYER HOMEBUILDERS",,,,,"MHI MCGUYER HOMEBUILDERS","7676 WOODWAY DR",HOUSTON,TX,77063-1526,"(713) 260-4107",,,,
TX,MONTGOMERY,172586-20,"Single Family Homes",5/26/2020,,80000,,"23907 BRUSHY TRAIL",HOUSTON,TX,77356,"BRUSHY CREEK",,"CLARE H NONMACHER","6506 OAK MASTERS",SPRING,TX,77379,,Owner,,,,,OWNER,,,,,OWNER,,,,,,,,,
TX,MONTGOMERY,172581-20,"Single Family Homes",5/26/2020,,217000,,"6840 HIDDEN ACRES",HOUSTON,TX,77356,"HIDDEN ACRES",,"MARGARITA NUNEZ","10301 NORTHWEST FRWY STE 306",HOUSTON,TX,77356,,Owner,,,,,OWNER,,,,,OWNER,,,,,,,,,
TX,MONTGOMERY,172654-20,"Single Family Homes",5/28/2020,,332175,,"4504 SILVER PINE CT",HOUSTON,TX,77356,"WOODSONS RESERVE",,CONTRACTOR,,,,,,,,,,,"PERRY HOMES",,,,,"PERRY HOMES","9000 GULF FWY",HOUSTON,TX,77017-7018,"(713) 417-1396",,,,
TX,MONTGOMERY,172655-20,"Single Family Homes",5/28/2020,,315675,,"4517 WOODLAND BEND CT",HOUSTON,TX,77356,"WOODSONS RESERVE",,CONTRACTOR,,,,,,,,,,,"PERRY HOMES",,,,,"PERRY HOMES","9000 GULF FWY",HOUSTON,TX,77017-7018,"(713) 417-1396",,,,
TX,MONTGOMERY,172656-20,"Single Family Homes",5/28/2020,,372675,,"28333 STERLING OAK DR",HOUSTON,TX,77356,"WOODSONS RESERVE",,CONTRACTOR,,,,,,,,,,,"PERRY HOMES",,,,,"PERRY HOMES","9000 GULF FWY",HOUSTON,TX,77017-7018,"(713) 417-1396",,,,
TX,MONTGOMERY,172657-20,"Single Family Homes",5/28/2020,,397425,,"28344 STERLING OAK DR",HOUSTON,TX,77356,"WOODSONS RESERVE",,CONTRACTOR,,,,,,,,,,,"PERRY HOMES",,,,,"PERRY HOMES","9000 GULF FWY",HOUSTON,TX,77017-7018,"(713) 417-1396",,,,
TX,MONTGOMERY,172661-20,"Single Family Homes",5/28/2020,,226425,,"341 TOPPER PINES DR",HOUSTON,TX,77356,WOODFOREST,,CONTRACTOR,,,,,,,,,,,"PERRY HOMES",,,,,"PERRY HOMES","9000 GULF FWY",HOUSTON,TX,77017-7018,"(713) 417-1396",,,,
TX,MONTGOMERY,172662-20,"Single Family Homes",5/28/2020,,216675,,"350 TOPPER PINES DR",HOUSTON,TX,77356,WOODFOREST,,CONTRACTOR,,,,,,,,,,,"PERRY HOMES",,,,,"PERRY HOMES","9000 GULF FWY",HOUSTON,TX,77017-7018,"(713) 417-1396",,,,
TX,MONTGOMERY,172663-20,"Single Family Homes",5/28/2020,,205425,,"412 BROW PINES CT",HOUSTON,TX,77356,WOODFOREST,,CONTRACTOR,,,,,,,,,,,"PERRY HOMES",,,,,"PERRY HOMES","9000 GULF FWY",HOUSTON,TX,77017-7018,"(713) 417-1396",,,,
TX,MONTGOMERY,172719-20,"Single Family Homes",5/29/2020,,244425,,"17122 MYSTIC RIVERS LN",HOUSTON,TX,77356,ARTAVIA,,CONTRACTOR,,,,,,,,,,,"PERRY HOMES",,,,,"PERRY HOMES","9000 GULF FWY",HOUSTON,TX,77017-7018,"(713) 417-1396",,,,
TX,MONTGOMERY,172724-20,"Single Family Homes",5/29/2020,,220425,,"17194 FOXTROT WAY",HOUSTON,TX,77356,ARTAVIA,,CONTRACTOR,,,,,,,,,,,"PERRY HOMES",,,,,"PERRY HOMES","9000 GULF FWY",HOUSTON,TX,77017-7018,"(713) 417-1396",,,,
TX,MONTGOMERY,172726-20,"Single Family Homes",5/29/2020,,231675,,"17189 CRIMSON CREST DR",HOUSTON,TX,77356,ARTAVIA,,CONTRACTOR,,,,,,,,,,,"PERRY HOMES",,,,,"PERRY HOMES","9000 GULF FWY",HOUSTON,TX,77017-7018,"(713) 417-1396",,,,
TX,MONTGOMERY,172727-20,"Single Family Homes",5/29/2020,,228675,,"17171 CRIMSON CREST DR",HOUSTON,TX,77356,ARTAVIA,,CONTRACTOR,,,,,,,,,,,"PERRY HOMES",,,,,"PERRY HOMES","9000 GULF FWY",HOUSTON,TX,77017-7018,"(713) 417-1396",,,,
TX,MONTGOMERY,172728-20,"Single Family Homes",5/29/2020,,218325,,"17195 CRIMSON CREST DR",HOUSTON,TX,77356,ARTAVIA,,CONTRACTOR,,,,,,,,,,,"PERRY HOMES",,,,,"PERRY HOMES","9000 GULF FWY",HOUSTON,TX,77017-7018,"(713) 417-1396",,,,
TX,MONTGOMERY,"172692 20","Single Family Homes",5/29/2020,,142285,,"122 VALIANT RIDGE TR",HOUSTON,TX,77356,"BLACK OAK",,CONTRACTOR,,,,,,,,,,,"RAUSCH COLEMAN HOMES",,,,,"RAUSCH COLEMAN HOMES","9504 N IH35 STE 310","SAN ANTONIO",TX,78233,"(210) 231-0703",https://www.rauschcolemanhomes.com/,,,
TX,MONTGOMERY,172704-20,"Single Family Homes",5/29/2020,,350000,,"17723 NORTH FM 149",HOUSTON,TX,77356,,,"ANDREW ROSS","PO BOX 1167",PINEHURST,TX,77362,,Owner,,,,,OWNER,,,,,OWNER,,,,,,,,,
TX,MONTGOMERY,172625-20,"Single Family Homes",5/27/2020,,100000,,"4556 BEN MILAM ROAD",HOUSTON,TX,77356,"FRONTIER LAKES",,CONTRACTOR,,,,,,,,,,,"STARTER HOMES OF TEXAS",,,,,"STARTER HOMES OF TEXAS","9803 HIGHWAY 242 STE 200 # 211",CONROE,TX,77385-4369,"(281) 367-4200",,,,
TX,MONTGOMERY,172628-20,"Single Family Homes",5/27/2020,,100000,,"4540 BEN MILAM ROAD",HOUSTON,TX,77356,"FRONTIER LAKES",,CONTRACTOR,,,,,,,,,,,"STARTER HOMES OF TEXAS",,,,,"STARTER HOMES OF TEXAS","9803 HIGHWAY 242 STE 200 # 211",CONROE,TX,77385-4369,"(281) 367-4200",,,,
TX,MONTGOMERY,172634-20,"Single Family Homes",5/27/2020,,100000,,"4544 BEN MILAM ROAD",HOUSTON,TX,77356,"FRONTIER LAKES",,CONTRACTOR,,,,,,,,,,,"STARTER HOMES OF TEXAS",,,,,"STARTER HOMES OF TEXAS","9803 HIGHWAY 242 STE 200 # 211",CONROE,TX,77385-4369,"(281) 367-4200",,,,
TX,MONTGOMERY,"172652 20","Single Family Homes",5/28/2020,,100000,,"4552 BEN MILAM ROAD",HOUSTON,TX,77356,"FRONTIER LAKES",,CONTRACTOR,,,,,,,,,,,"STARTER HOMES OF TEXAS",,,,,"STARTER HOMES OF TEXAS","9803 HIGHWAY 242 STE 200 # 211",CONROE,TX,77385-4369,"(281) 367-4200",,,,
TX,MONTGOMERY,172658-20,"Single Family Homes",5/28/2020,,100000,,"4548 BEN MILAM ROAD",HOUSTON,TX,77356,"FRONTIER LAKES",,CONTRACTOR,,,,,,,,,,,"STARTER HOMES OF TEXAS",,,,,"STARTER HOMES OF TEXAS","9803 HIGHWAY 242 STE 200 # 211",CONROE,TX,77385-4369,"(281) 367-4200",,,,
TX,MONTGOMERY,172626-20,"Single Family Homes",5/27/2020,,250000,,"9255 INLET CIRCLE",HOUSTON,TX,77356,"HARBOR POINT",,CONTRACTOR,,,,,,,,,,,"WSD BUILDERS",,,,,"WSD BUILDERS","814 HONEA EGYPT RD STE 101",MAGNOLIA,TX,77354-3864,"(832) 764-6121",https://www.wsdbuilders.com,,,contact@wsdbuilders.com
TX,MONTGOMERY,172711-20,"Single Family Homes",5/29/2020,,750000,,"26802 HOLMANS ROAD",HOUSTON,TX,77356,NORTHGROVE,,CONTRACTOR,,,,,,,,,,,"TOLL BROTHERS",,,,,"TOLL BROTHERS","10110 W SAM HOUSTON PKWY N STE 350",HOUSTON,TX,77064-7508,"(281) 664-7255",,,,
TX,MONTGOMERY,172712-20,"Single Family Homes",5/29/2020,,475000,,"26919 WIDENS PARK DR",HOUSTON,TX,77356,NORTHGROVE,,CONTRACTOR,,,,,,,,,,,"TOLL BROTHERS",,,,,"TOLL BROTHERS","10110 W SAM HOUSTON PKWY N STE 350",HOUSTON,TX,77064-7508,"(281) 664-7255",,,,
TX,MONTGOMERY,172714-20,"Single Family Homes",5/29/2020,,650000,,"26911 CANDABA DR",HOUSTON,TX,77356,NORTHGROVE,,CONTRACTOR,,,,,,,,,,,"TOLL BROTHERS",,,,,"TOLL BROTHERS","10110 W SAM HOUSTON PKWY N STE 350",HOUSTON,TX,77064-7508,"(281) 664-7255",,,,
TX,MONTGOMERY,172649-20,"Single Family Homes",5/28/2020,,281255,,"33906 MILL CREEK WAY",HOUSTON,TX,77356,WOODTRACE,,CONTRACTOR,,,,,,,,,,,"VILLAGE BUILDERS",,,,,"VILLAGE BUILDERS","550 GREENS PKWY STE 210",HOUSTON,TX,77067-4538,"(281) 873-4663",,,,
TX,MONTGOMERY,172650-20,"Single Family Homes",5/28/2020,,317590,,"33967 REDWOOD PARK LN",HOUSTON,TX,77356,WOODTRACE,,CONTRACTOR,,,,,,,,,,,"VILLAGE BUILDERS",,,,,"VILLAGE BUILDERS","550 GREENS PKWY STE 210",HOUSTON,TX,77067-4538,"(281) 873-4663",,,,
TX,MONTGOMERY,172693-20,"Single Family Homes",5/29/2020,,300000,,"298 SCENIC LAKE COURT",HOUSTON,TX,77356,"RIDGE LAKE SHORES",,"JOHN WARNER","14141 HWY 105 E",CONROE,TX,77306,,Owner,,,,,OWNER,,,,,OWNER,,,,,,,,,
TX,MONTGOMERY,172708-20,"Single Family Homes",5/29/2020,,338990,,"15314 GARNET GROVES DR",HOUSTON,TX,77356,ARTAVIA,,CONTRACTOR,,,,,,,,,,,"DAVID WEEKLEY HOMES",,,,,"DAVID WEEKLEY HOMES","14444 NORTHWEST",HOUSTON,TX,77040,"(713) 570-5021",http://www.davidweekleyhomes.com/,,,
TX,MONTGOMERY,172568-20,"Single Family Homes",5/26/2020,,243000,,"27135 SPANISH WIND CT",HOUSTON,TX,77356,NORTHGROVE,,CONTRACTOR,,,,,,,,,,,"DAVID WEEKLEY HOMES",,,,,"DAVID WEEKLEY HOMES","14444 NORTHWEST",HOUSTON,TX,77040,"(713) 570-5021",http://www.davidweekleyhomes.com/,,,
TX,MONTGOMERY,172569-20,"Single Family Homes",5/26/2020,,231000,,"445 AUBURN PINES DR",HOUSTON,TX,77356,WOODFOREST,,CONTRACTOR,,,,,,,,,,,"WESTIN HOMES",,,,,"WESTIN HOMES","1 SUGAR CREEK CENTER BLVD STE 600","SUGAR LAND",TX,77478-3787,"(281) 240-1551",http://www.westin-homes.com,,,
TX,MONTGOMERY,172570-20,"Single Family Homes",5/26/2020,,231000,,"427 AUBURN PINES DR",HOUSTON,TX,77356,WOODFOREST,,CONTRACTOR,,,,,,,,,,,"WESTIN HOMES",,,,,"WESTIN HOMES","1 SUGAR CREEK CENTER BLVD STE 600","SUGAR LAND",TX,77478-3787,"(281) 240-1551",http://www.westin-homes.com,,,
TX,MONTGOMERY,172571-20,"Single Family Homes",5/26/2020,,251000,,"283 BRONZE VIEW DR",HOUSTON,TX,77356,WOODFOREST,,CONTRACTOR,,,,,,,,,,,"WESTIN HOMES",,,,,"WESTIN HOMES","1 SUGAR CREEK CENTER BLVD STE 600","SUGAR LAND",TX,77478-3787,"(281) 240-1551",http://www.westin-homes.com,,,
TX,MONTGOMERY,172572-20,"Single Family Homes",5/26/2020,,243000,,"760 BRONZE TRACE DR",HOUSTON,TX,77356,WOODFOREST,,CONTRACTOR,,,,,,,,,,,"WESTIN HOMES",,,,,"WESTIN HOMES","1 SUGAR CREEK CENTER BLVD STE 600","SUGAR LAND",TX,77478-3787,"(281) 240-1551",http://www.westin-homes.com,,,
TX,MONTGOMERY,172573-20,"Single Family Homes",5/26/2020,,251000,,"780 BRONZE TRACE DR",HOUSTON,TX,77356,WOODFOREST,,CONTRACTOR,,,,,,,,,,,"WESTIN HOMES",,,,,"WESTIN HOMES","1 SUGAR CREEK CENTER BLVD STE 600","SUGAR LAND",TX,77478-3787,"(281) 240-1551",http://www.westin-homes.com,,,
TX,MONTGOMERY,172547-20,"Single Family Homes",5/26/2020,,83683,,"15665 DEL NORTE DR",HOUSTON,TX,77356,"CROCKETT RESERVE",,CONTRACTOR,,,,,,,,,,,"WADE JOURNEY HOMES",,,,,"WADE JOURNEY HOMES","3091 GOVERNORS LAKE DR 300",NORCROSS,GA,30071,"(678) 533-1160",,,,
TX,MONTGOMERY,172548-20,"Single Family Homes",5/26/2020,,92247,,"15661 DEL NORTE DR",HOUSTON,TX,77356,"CROCKETT RESERVE",,CONTRACTOR,,,,,,,,,,,"WADE JOURNEY HOMES",,,,,"WADE JOURNEY HOMES","3091 GOVERNORS LAKE DR 300",NORCROSS,GA,30071,"(678) 533-1160",,,,
TX,MONTGOMERY,172549-20,"Single Family Homes",5/26/2020,,98298,,"15668 DEL NORTE DR",HOUSTON,TX,77356,"CROCKETT RESERVE",,CONTRACTOR,,,,,,,,,,,"WADE JOURNEY HOMES",,,,,"WADE JOURNEY HOMES","3091 GOVERNORS LAKE DR 300",NORCROSS,GA,30071,"(678) 533-1160",,,,
TX,MONTGOMERY,172551-20,"Single Family Homes",5/26/2020,,101768,,"15662 DEL NORTH DR",HOUSTON,TX,77356,"CROCKETT RESERVE",,CONTRACTOR,,,,,,,,,,,"WADE JOURNEY HOMES",,,,,"WADE JOURNEY HOMES","3091 GOVERNORS LAKE DR 300",NORCROSS,GA,30071,"(678) 533-1160",,,,
TX,MONTGOMERY,172553-20,"Single Family Homes",5/26/2020,,112363,,"15658 DEL NORTE DR",HOUSTON,TX,77356,"CROCKETT RESERVE",,CONTRACTOR,,,,,,,,,,,"WADE JOURNEY HOMES",,,,,"WADE JOURNEY HOMES","3091 GOVERNORS LAKE DR 300",NORCROSS,GA,30071,"(678) 533-1160",,,,
TX,MONTGOMERY,172554-20,"Single Family Homes",5/26/2020,,83683,,"15654 DEL NORTH DR",HOUSTON,TX,77356,"CROCKETT RESERVE",,CONTRACTOR,,,,,,,,,,,"WADE JOURNEY HOMES",,,,,"WADE JOURNEY HOMES","3091 GOVERNORS LAKE DR 300",NORCROSS,GA,30071,"(678) 533-1160",,,,
TX,MONTGOMERY,172555-20,"Single Family Homes",5/26/2020,,99310,,"15650 DEL NORTH DR",HOUSTON,TX,77356,"CROCKETT RESERVE",,CONTRACTOR,,,,,,,,,,,"WADE JOURNEY HOMES",,,,,"WADE JOURNEY HOMES","3091 GOVERNORS LAKE DR 300",NORCROSS,GA,30071,"(678) 533-1160",,,,
TX,MONTGOMERY,"172556 20","Single Family Homes",5/26/2020,,92247,,"15646 DEL NORTH DR",HOUSTON,TX,77356,"CROCKETT RESERVE",,CONTRACTOR,,,,,,,,,,,"WADE JOURNEY HOMES",,,,,"WADE JOURNEY HOMES","3091 GOVERNORS LAKE DR 300",NORCROSS,GA,30071,"(678) 533-1160",,,,
TX,MONTGOMERY,172558-20,"Single Family Homes",5/26/2020,,106288,,"15642 DEL NORTH DR",HOUSTON,TX,77356,"CROCKETT RESERVE",,CONTRACTOR,,,,,,,,,,,"WADE JOURNEY HOMES",,,,,"WADE JOURNEY HOMES","3091 GOVERNORS LAKE DR 300",NORCROSS,GA,30071,"(678) 533-1160",,,,
TX,MONTGOMERY,172559-20,"Single Family Homes",5/26/2020,,86114,,"15638 DEL NORTH DR",HOUSTON,TX,77356,"CROCKETT RESERVE",,CONTRACTOR,,,,,,,,,,,"WADE JOURNEY HOMES",,,,,"WADE JOURNEY HOMES","3091 GOVERNORS LAKE DR 300",NORCROSS,GA,30071,"(678) 533-1160",,,,
TX,MONTGOMERY,"172560 20","Single Family Homes",5/26/2020,,98298,,"15634 DEL NORTE DR",HOUSTON,TX,77356,"CROCKETT RESERVE",,CONTRACTOR,,,,,,,,,,,"WADE JOURNEY HOMES",,,,,"WADE JOURNEY HOMES","3091 GOVERNORS LAKE DR 300",NORCROSS,GA,30071,"(678) 533-1160",,,,
TX,MONTGOMERY,172561-20,"Single Family Homes",5/26/2020,,100615,,"15630 DEL NORTH DR",HOUSTON,TX,77356,"CROCKETT RESERVE",,CONTRACTOR,,,,,,,,,,,"WADE JOURNEY HOMES",,,,,"WADE JOURNEY HOMES","3091 GOVERNORS LAKE DR 300",NORCROSS,GA,30071,"(678) 533-1160",,,,
TX,MONTGOMERY,172564-20,"Single Family Homes",5/26/2020,,90765,,"15626 DEL NORTE DR",HOUSTON,TX,77356,"CROCKETT RESERVE",,CONTRACTOR,,,,,,,,,,,"WADE JOURNEY HOMES",,,,,"WADE JOURNEY HOMES","3091 GOVERNORS LAKE DR 300",NORCROSS,GA,30071,"(678) 533-1160",,,,
TX,MONTGOMERY,172565-20,"Single Family Homes",5/26/2020,,83683,,"15622 DEL NORTH DR",HOUSTON,TX,77356,"CROCKETT RESERVE",,CONTRACTOR,,,,,,,,,,,"WADE JOURNEY HOMES",,,,,"WADE JOURNEY HOMES","3091 GOVERNORS LAKE DR 300",NORCROSS,GA,30071,"(678) 533-1160",,,,
TX,MONTGOMERY,172566-20,"Single Family Homes",5/26/2020,,99310,,"15616 DEL NORTH DR",HOUSTON,TX,77356,"CROCKETT RESERVE",,CONTRACTOR,,,,,,,,,,,"WADE JOURNEY HOMES",,,,,"WADE JOURNEY HOMES","3091 GOVERNORS LAKE DR 300",NORCROSS,GA,30071,"(678) 533-1160",,,,
TX,MONTGOMERY,172567-20,"Single Family Homes",5/26/2020,,112506,,"15610 DEL NORTH DR",HOUSTON,TX,77356,"CROCKETT RESERVE",,CONTRACTOR,,,,,,,,,,,"WADE JOURNEY HOMES",,,,,"WADE JOURNEY HOMES","3091 GOVERNORS LAKE DR 300",NORCROSS,GA,30071,"(678) 533-1160",,,,
TX,MONTGOMERY,173058-20,"Single Family Homes",6/12/2020,,260000,,"12824 CAPRICORNUS DR",HOUSTON,TX,77356,"POINT AQUARIUS",,CONTRACTOR,,,,,,,,,,,"ACTION CUSTOM HOMES",,,,,"ACTION CUSTOM HOMES","20821 EVA ST STE 166",MONTGOMERY,TX,77356-1976,"(832) 309-8627",,,"TIMOTHY W GREGORY",
TX,MONTGOMERY,172971-20,"Single Family Homes",6/9/2020,,75000,,"118 INDIAN CREEK CIRCLE",HOUSTON,TX,77356,"ARROWHEAD LAKES",,CONTRACTOR,,,,,,,,,,,"ASGI HOMES",,,,,"ASGI HOMES","2257 N LOOP 336 W STE 140-370",CONROE,TX,77304-3566,"(888) 991-0005",http://www.asgihomes.com,,,
TX,MONTGOMERY,173037-20,"Single Family Homes",6/11/2020,,75000,,"3391 ARAPAHO CIRCLE",HOUSTON,TX,77356,"ARROWHEAD LAKES",,CONTRACTOR,,,,,,,,,,,"ASGI HOMES",,,,,"ASGI HOMES","2257 N LOOP 336 W STE 140-370",CONROE,TX,77304-3566,"(888) 991-0005",http://www.asgihomes.com,,,
TX,MONTGOMERY,173048-20,"Single Family Homes",6/11/2020,,75000,,"15126 TRAVIS LN",HOUSTON,TX,77356,"FRONTIER LAKES",,CONTRACTOR,,,,,,,,,,,"ASGI HOMES",,,,,"ASGI HOMES","2257 N LOOP 336 W STE 140-370",CONROE,TX,77304-3566,"(888) 991-0005",http://www.asgihomes.com,,,
TX,MONTGOMERY,173003-20,"Single Family Homes",6/10/2020,,160000,,"8108 MIRMONT GLEN LN",HOUSTON,TX,77356,NORTHGROVE,,CONTRACTOR,,,,,,,,,,,"ASHTON WOODS HOMES",,,,,"ASHTON WOODS HOMES","10110 W SAM HOUSTON PKWY N",HOUSTON,TX,77064-7508,"(832) 478-9028",,,,
TX,MONTGOMERY,172981-20,"Single Family Homes",6/10/2020,,300000,,"283 MAGNOLIA RESERVE LOOP",HOUSTON,TX,77356,"MAGNOLIA RESERVE",,CONTRACTOR,,,,,,,,,,,"JAMESON CUSTOM HOMES & POOLS",,,,,"JAMESON CUSTOM HOMES & POOLS","3440 RILEY FUZZELL RD STE 220",SPRING,TX,77386-4189,"(281) 364-1338",http://www.jamesonpools.com/,"(281) 364-7189","JIM NICKEL",info@jamesoncustomhomes.com
TX,MONTGOMERY,172982-20,"Single Family Homes",6/10/2020,,325000,,"287 MAGNOLIA RESERVE LOOP",HOUSTON,TX,77356,"MAGNOLIA RESERVE",,CONTRACTOR,,,,,,,,,,,"JAMESON CUSTOM HOMES & POOLS",,,,,"JAMESON CUSTOM HOMES & POOLS","3440 RILEY FUZZELL RD STE 220",SPRING,TX,77386-4189,"(281) 364-1338",http://www.jamesonpools.com/,"(281) 364-7189","JIM NICKEL",info@jamesoncustomhomes.com
TX,MONTGOMERY,172984-20,"Single Family Homes",6/10/2020,,325000,,"291 MAGNOLIA RESERVE LOOP",HOUSTON,TX,77356,"MAGNOLIA RESERVE",,CONTRACTOR,,,,,,,,,,,"JAMESON CUSTOM HOMES & POOLS",,,,,"JAMESON CUSTOM HOMES & POOLS","3440 RILEY FUZZELL RD STE 220",SPRING,TX,77386-4189,"(281) 364-1338",http://www.jamesonpools.com/,"(281) 364-7189","JIM NICKEL",info@jamesoncustomhomes.com
TX,MONTGOMERY,"172997- 20","Single Family Homes",6/10/2020,,200000,,"5397 CARTWRIGHT ROAD",HOUSTON,TX,77356,"LAKE BONANZA",,CONTRACTOR,,,,,,,,,,,"CHADWICK HOMES",,,,,"CHADWICK HOMES","2257 N LOOP 336 W STE 140-314",CONROE,TX,77304-3566,"(281) 799-1414",http://chadwickhomesonline.com/,,"CHAD STULTZ",chad@chadwickhomesonline.com
TX,MONTGOMERY,172934-20,"Single Family Homes",6/8/2020,,218970,,"9768 COLD CREEK DR",HOUSTON,TX,77356,"LAKEWOOD TRAILS",,"DILLON CONLEY","PO BOX 273",CONROE,TX,77305,,Owner,,,,,OWNER,,,,,OWNER,,,,,,,,,
TX,MONTGOMERY,172972-20,"Single Family Homes",6/9/2020,,320000,,"4094 HIGHLAND PASS",HOUSTON,TX,77356,"HIGHLAND RANCH",,"DILLON CONLEY","PO BOX 273",CONROE,TX,77305,,Owner,,,,,OWNER,,,,,OWNER,,,,,,,,,
TX,MONTGOMERY,172936-20,"Single Family Homes",6/8/2020,,94095,,"16760 LONELY PINES DR",HOUSTON,TX,77356,"GRANGER PINES",,CONTRACTOR,,,,,,,,,,,"DR HORTON",,,,,"DR HORTON","14100 SOUTHWEST",HOUSTON,TX,77478,"(281) 201-5559",,,,
TX,MONTGOMERY,172937-20,"Single Family Homes",6/8/2020,,119250,,"16752 LONELY PINES DR",HOUSTON,TX,77356,"GRANGER PINES",,CONTRACTOR,,,,,,,,,,,"DR HORTON",,,,,"DR HORTON","14100 SOUTHWEST",HOUSTON,TX,77478,"(281) 201-5559",,,,
TX,MONTGOMERY,172938-20,"Single Family Homes",6/8/2020,,111555,,"16748 LONELY PINES DR",HOUSTON,TX,77356,"GRANGER PINES",,CONTRACTOR,,,,,,,,,,,"DR HORTON",,,,,"DR HORTON","14100 SOUTHWEST",HOUSTON,TX,77478,"(281) 201-5559",,,,
TX,MONTGOMERY,172939-20,"Single Family Homes",6/8/2020,,160830,,"10213 SHORE ACRES LN",HOUSTON,TX,77356,"FOSTERS RIDGE",,CONTRACTOR,,,,,,,,,,,"DR HORTON",,,,,"DR HORTON","14100 SOUTHWEST",HOUSTON,TX,77478,"(281) 201-5559",,,,
TX,MONTGOMERY,172940-20,"Single Family Homes",6/8/2020,,112515,,"14107 RILEY CREEK CT",HOUSTON,TX,77356,"FOSTERS RIDGE",,CONTRACTOR,,,,,,,,,,,"DR HORTON",,,,,"DR HORTON","14100 SOUTHWEST",HOUSTON,TX,77478,"(281) 201-5559",,,,
TX,MONTGOMERY,172941-20,"Single Family Homes",6/8/2020,,107550,,"14111 RILEY CREEK CT",HOUSTON,TX,77356,"FOSTERS RIDGE",,CONTRACTOR,,,,,,,,,,,"DR HORTON",,,,,"DR HORTON","14100 SOUTHWEST",HOUSTON,TX,77478,"(281) 201-5559",,,,
TX,MONTGOMERY,172942-20,"Single Family Homes",6/8/2020,,132885,,"14119 RITLEY CREEK CT",HOUSTON,TX,77356,"FOSTERS RIDGE",,CONTRACTOR,,,,,,,,,,,"DR HORTON",,,,,"DR HORTON","14100 SOUTHWEST",HOUSTON,TX,77478,"(281) 201-5559",,,,
TX,MONTGOMERY,172943-20,"Single Family Homes",6/8/2020,,169650,,"14135 RILEY CREEK CT",HOUSTON,TX,77356,"FOSTERS RIDGE",,CONTRACTOR,,,,,,,,,,,"DR HORTON",,,,,"DR HORTON","14100 SOUTHWEST",HOUSTON,TX,77478,"(281) 201-5559",,,,
TX,MONTGOMERY,172944-20,"Single Family Homes",6/8/2020,,103050,,"14127 RILEY CREEK CT",HOUSTON,TX,77356,"FOSTERS RIDGE",,CONTRACTOR,,,,,,,,,,,"DR HORTON",,,,,"DR HORTON","14100 SOUTHWEST",HOUSTON,TX,77478,"(281) 201-5559",,,,
TX,MONTGOMERY,172916-20,"Single Family Homes",6/8/2020,,100800,,"20850 OLIVE LEAF ST",HOUSTON,TX,77356,"HARRINGTON TRAILS",,CONTRACTOR,,,,,,,,,,,"DR HORTON",,,,,"DR HORTON","14100 SOUTHWEST",HOUSTON,TX,77478,"(281) 201-5559",,,,
TX,MONTGOMERY,172947-20,"Single Family Homes",6/8/2020,,96525,,"20854 OLIVE LEAF ST",HOUSTON,TX,77356,"HARRINGTON TRAILS",,CONTRACTOR,,,,,,,,,,,"DR HORTON",,,,,"DR HORTON","14100 SOUTHWEST",HOUSTON,TX,77478,"(281) 201-5559",,,,
TX,MONTGOMERY,172948-20,"Single Family Homes",6/8/2020,,110700,,"20855 OLIVE LEAF ST",HOUSTON,TX,77356,"HARRINGTON TRAILS",,CONTRACTOR,,,,,,,,,,,"DR HORTON",,,,,"DR HORTON","14100 SOUTHWEST",HOUSTON,TX,77478,"(281) 201-5559",,,,
TX,MONTGOMERY,172949-20,"Single Family Homes",6/8/2020,,132975,,"20858 OLIVE LEAF ST",HOUSTON,TX,77356,"HARRINGTON TRAILS",,CONTRACTOR,,,,,,,,,,,"DR HORTON",,,,,"DR HORTON","14100 SOUTHWEST",HOUSTON,TX,77478,"(281) 201-5559",,,,
TX,MONTGOMERY,172950-20,"Single Family Homes",6/8/2020,,132885,,"20861 OLIVE LEAF ST",HOUSTON,TX,77356,"HARRINGTON TRAILS",,CONTRACTOR,,,,,,,,,,,"DR HORTON",,,,,"DR HORTON","14100 SOUTHWEST",HOUSTON,TX,77478,"(281) 201-5559",,,,
TX,MONTGOMERY,172952-20,"Single Family Homes",6/8/2020,,107460,,"20849 OLIVE LEAF ST",HOUSTON,TX,77356,"HARRINGTON TRAILS",,CONTRACTOR,,,,,,,,,,,"DR HORTON",,,,,"DR HORTON","14100 SOUTHWEST",HOUSTON,TX,77478,"(281) 201-5559",,,,
TX,MONTGOMERY,172959-20,"Single Family Homes",6/8/2020,,95130,,"14115 RILEY CREEK CT",HOUSTON,TX,77356,"FOSTERS RIDGE",,CONTRACTOR,,,,,,,,,,,"DR HORTON",,,,,"DR HORTON","14100 SOUTHWEST",HOUSTON,TX,77478,"(281) 201-5559",,,,
TX,MONTGOMERY,173032-20,"Single Family Homes",6/11/2020,,94095,,"16756 LONELY PINES DR",HOUSTON,TX,77356,"GRANGER PINES",,CONTRACTOR,,,,,,,,,,,"DR HORTON",,,,,"DR HORTON","14100 SOUTHWEST",HOUSTON,TX,77478,"(281) 201-5559",,,,
TX,MONTGOMERY,173033-20,"Single Family Homes",6/11/2020,,94095,,"16736 LONELY PINES DR",HOUSTON,TX,77356,"GRANGER PINES",,CONTRACTOR,,,,,,,,,,,"DR HORTON",,,,,"DR HORTON","14100 SOUTHWEST",HOUSTON,TX,77478,"(281) 201-5559",,,,
TX,MONTGOMERY,"173034 20","Single Family Homes",6/11/2020,,94095,,"16740 LONELY PINES DR",HOUSTON,TX,77356,"GRANGER PINES",,CONTRACTOR,,,,,,,,,,,"DR HORTON",,,,,"DR HORTON","14100 SOUTHWEST",HOUSTON,TX,77478,"(281) 201-5559",,,,
TX,MONTGOMERY,173053-20,"Single Family Homes",6/12/2020,,617990,,"132 EAST SHELL PORT SQUARE",HOUSTON,TX,77356,"LAKE WOODLANDS EAST SHORE",,CONTRACTOR,,,,,,,,,,,"DAVID WEEKLEY HOMES",,,,,"DAVID WEEKLEY HOMES","14444 NORTHWEST",HOUSTON,TX,77040,"(713) 570-5021",http://www.davidweekleyhomes.com/,,,
TX,MONTGOMERY,173054-20,"Single Family Homes",6/12/2020,,617990,,"18 AMERSON BAY WAY",HOUSTON,TX,77356,"LAKE WOODLANDS EAST SHORE",,CONTRACTOR,,,,,,,,,,,"DAVID WEEKLEY HOMES",,,,,"DAVID WEEKLEY HOMES","14444 NORTHWEST",HOUSTON,TX,77040,"(713) 570-5021",http://www.davidweekleyhomes.com/,,,
TX,MONTGOMERY,"173055 20","Single Family Homes",6/12/2020,,617990,,"140 EAST SHELL PORT SQUARE",HOUSTON,TX,77356,"LAKE WOODLANDS EAST SHORE",,CONTRACTOR,,,,,,,,,,,"DAVID WEEKLEY HOMES",,,,,"DAVID WEEKLEY HOMES","14444 NORTHWEST",HOUSTON,TX,77040,"(713) 570-5021",http://www.davidweekleyhomes.com/,,,
TX,MONTGOMERY,"173009 20","Single Family Homes",6/11/2020,,115000,,"9838 NORTH CRYSTAL SPRINGS CIR",HOUSTON,TX,77356,"CRYSTAL SPRINGS",,CONTRACTOR,,,,,,,,,,,"ENVIRONMENTAL RESOURCES",,,,,"ENVIRONMENTAL RESOURCES","112 SHERBROOK CIR",CONROE,TX,77385-7749,"(936) 672-7025",,,,
TX,MONTGOMERY,173057-20,"Single Family Homes",6/12/2020,,180000,,"21330 WALKER DR",HOUSTON,TX,77356,"TWIN LAKES",,CONTRACTOR,,,,,,,,,,,"ENVIRONMENTAL RESOURCES",,,,,"ENVIRONMENTAL RESOURCES","112 SHERBROOK CIR",CONROE,TX,77385-7749,"(936) 672-7025",,,,
TX,MONTGOMERY,172929-20,"Single Family Homes",6/8/2020,,110771,,"22424 BRASS BELL DR",HOUSTON,TX,77356,"WOODRIDGE FOREST",,CONTRACTOR,,,,,,,,,,,"GEHAN HOMES",,,,,"GEHAN HOMES","2050 W SAM HOUSTON PKWY S",HOUSTON,TX,77042-2079,"(713) 243-3545",http://www.gehanhomes.com,,,
TX,MONTGOMERY,172930-20,"Single Family Homes",6/8/2020,,105117,,"22456 BRASS BELL DR",HOUSTON,TX,77356,"WOODRIDGE FOREST",,CONTRACTOR,,,,,,,,,,,"GEHAN HOMES",,,,,"GEHAN HOMES","2050 W SAM HOUSTON PKWY S",HOUSTON,TX,77042-2079,"(713) 243-3545",http://www.gehanhomes.com,,,
TX,MONTGOMERY,172931-20,"Single Family Homes",6/8/2020,,136990,,"22311 LOG ORCHARD LN",HOUSTON,TX,77356,"WOODRIDGE FOREST",,CONTRACTOR,,,,,,,,,,,"GEHAN HOMES",,,,,"GEHAN HOMES","2050 W SAM HOUSTON PKWY S",HOUSTON,TX,77042-2079,"(713) 243-3545",http://www.gehanhomes.com,,,
TX,MONTGOMERY,172932-20,"Single Family Homes",6/8/2020,,136621,,"25237 WOODS ACRE DR",HOUSTON,TX,77356,"WOODRIDGE FOREST",,CONTRACTOR,,,,,,,,,,,"GEHAN HOMES",,,,,"GEHAN HOMES","2050 W SAM HOUSTON PKWY S",HOUSTON,TX,77042-2079,"(713) 243-3545",http://www.gehanhomes.com,,,
TX,MONTGOMERY,172956-20,"Single Family Homes",6/8/2020,,136043,,"22327 LOG ORCHARD LN",HOUSTON,TX,77356,"WOODRIDGE FOREST",,CONTRACTOR,,,,,,,,,,,"GEHAN HOMES",,,,,"GEHAN HOMES","2050 W SAM HOUSTON PKWY S",HOUSTON,TX,77042-2079,"(713) 243-3545",http://www.gehanhomes.com,,,
TX,MONTGOMERY,"173061 20","Single Family Homes",6/12/2020,,136990,,"22484 BRASS BELL DR",HOUSTON,TX,77356,"WOODRIDGE FOREST",,CONTRACTOR,,,,,,,,,,,"GEHAN HOMES",,,,,"GEHAN HOMES","2050 W SAM HOUSTON PKWY S",HOUSTON,TX,77042-2079,"(713) 243-3545",http://www.gehanhomes.com,,,
TX,MONTGOMERY,172990-20,"Single Family Homes",6/10/2020,,175000,,"129 REMINGTON ROAD",HOUSTON,TX,77356,WOODFOREST,,CONTRACTOR,,,,,,,,,,,"GRACEPOINT HOMES",,,,,"GRACEPOINT HOMES","33300 EGYPT LN STE 100",MAGNOLIA,TX,77354-2739,"(281) 681-0400",http://www.gracepointhomes.com/,"(281) 681-0402",,Info@gracepointhomes.com
TX,MONTGOMERY,172991-20,"Single Family Homes",6/10/2020,,185000,,"141 REMINGTON ROAD",HOUSTON,TX,77356,WOODFOREST,,CONTRACTOR,,,,,,,,,,,"GRACEPOINT HOMES",,,,,"GRACEPOINT HOMES","33300 EGYPT LN STE 100",MAGNOLIA,TX,77354-2739,"(281) 681-0400",http://www.gracepointhomes.com/,"(281) 681-0402",,Info@gracepointhomes.com
TX,MONTGOMERY,172980-20,"Single Family Homes",6/9/2020,,50000,,"344 CAMWOOD",HOUSTON,TX,77356,"CLEAR CREEK FOREST",,"JOSE & CAROLINA HERRERA","14323 CYPRESS FALLS DR",CYPRESS,TX,77343,,Owner,,,,,OWNER,,,,,OWNER,,,,,,,,,
TX,MONTGOMERY,173013-20,"Single Family Homes",6/11/2020,,313380,,"150 VINE MINT DR",HOUSTON,TX,77356,WOODFOREST,,CONTRACTOR,,,,,,,,,,,"HIGHLAND HOMES",,,,,"HIGHLAND HOMES","10930 W SAM HOUSTON PKWY N STE 100",HOUSTON,TX,77064-6331,"(281) 517-9800",,,,
TX,GALVESTON,34520-20,"Single Family Homes",6/24/2020,,143420,,"5707 WINDMILL LN",HOUSTON,TX,77356,,,CONTRACTOR,,,,,,,,,,,"MITCH MANSIONS",,,,,"MITCH MANSIONS","18707 EGRET BAY BLVD APT 201",HOUSTON,TX,77058-3813,"(832) 520-4030",,,,
TX,GALVESTON,34517-20,"Single Family Homes",6/15/2020,,62520,,"3633 PECAN",HOUSTON,TX,77356,,,"MIKE BOONE","PO BOX 9182",BACLIFF,TX,77518,,Owner,,,,,OWNER,,,,,OWNER,,,,,,,,,
TX,GALVESTON,34438-20,"Single Family Homes",6/11/2020,,98147,,"2009 AVE A",HOUSTON,TX,77356,,,CONTRACTOR,,,,,,,,,,,"RS CONSTRUCTION",,,,,"RS CONSTRUCTION","3504 VINECREST DR",DALLAS,TX,75229-3822,"(214) 532-9218",,,,
TX,GALVESTON,34433-20,"Single Family Homes",6/9/2020,,51077,,"853 CRYSTAL BEACH RD",HOUSTON,TX,77356,,,CONTRACTOR,,,,,,,,,,,"TRADITIONAL CRAFTSMEN HOMES",,,,,"TRADITIONAL CRAFTSMEN HOMES","PO BOX 1171","CRYSTAL BEACH",TX,77650-1171,"(409) 284-1162",,,,
TX,GALVESTON,34430-20,"Single Family Homes",6/9/2020,,85697,,"3721 BISCAYNE BEACH RD",HOUSTON,TX,77356,,,CONTRACTOR,,,,,,,,,,,"MARK WILLIAMS CONSTRUCTION ",,,,,"MARK WILLIAMS CONSTRUCTION ","PO BOX 7526",BEAUMONT,TX,77726-7526,"(409) 684-3333",,"(409) 832-0773","MARK WILLIAMS",markwillhb@mac.com
TX,GALVESTON,34428-20,"Single Family Homes",6/9/2020,,105625,,"7623 PEARSON",HOUSTON,TX,77356,,,"JAMES PERRY","6365 BAR O RANCH","SANTA FE",TX,77517,,Owner,,,,,OWNER,,,,,OWNER,,,,,,,,,
TX,GALVESTON,34418-20,"Single Family Homes",6/5/2020,,92467,,"1811 1/2 CAROLINE",HOUSTON,TX,77356,,,"HILARIO RAMOS","311 SHADOW CREEK","EL LAGO",TX,77586,,Owner,,,,,OWNER,,,,,OWNER,,,,,,,,,
TX,MONTGOMERY,173015-20,"Single Family Homes",6/11/2020,,550000,,"108 CASTERLY GREEN CT",HOUSTON,TX,77356,"NOBLE GREENS AT WOODFOREST",,CONTRACTOR,,,,,,,,,,,"HIGHLAND HOMES",,,,,"HIGHLAND HOMES","10930 W SAM HOUSTON PKWY N STE 100",HOUSTON,TX,77064-6331,"(281) 517-9800",,,,
TX,MONTGOMERY,173016-20,"Single Family Homes",6/11/2020,,308680,,"169 EMORY BIRCH DR",HOUSTON,TX,77356,WOODFOREST,,CONTRACTOR,,,,,,,,,,,"HIGHLAND HOMES",,,,,"HIGHLAND HOMES","10930 W SAM HOUSTON PKWY N STE 100",HOUSTON,TX,77064-6331,"(281) 517-9800",,,,
TX,MONTGOMERY,173017-20,"Single Family Homes",6/11/2020,,550000,,"204 SOUTH EMPRESS GREEN PLACE",HOUSTON,TX,77356,"NOBLE GREENS AT WOODFOREST",,CONTRACTOR,,,,,,,,,,,"HIGHLAND HOMES",,,,,"HIGHLAND HOMES","10930 W SAM HOUSTON PKWY N STE 100",HOUSTON,TX,77064-6331,"(281) 517-9800",,,,
TX,MONTGOMERY,173019-20,"Single Family Homes",6/11/2020,,600000,,"315 SOUTH OPULENT DR",HOUSTON,TX,77356,"NOBLE GREENS AT WOODFOREST",,CONTRACTOR,,,,,,,,,,,"HIGHLAND HOMES",,,,,"HIGHLAND HOMES","10930 W SAM HOUSTON PKWY N STE 100",HOUSTON,TX,77064-6331,"(281) 517-9800",,,,
TX,MONTGOMERY,173059-20,"Single Family Homes",6/12/2020,,299817,,"17406 ORCHID FALLS LN",HOUSTON,TX,77356,ARTAVIA,,CONTRACTOR,,,,,,,,,,,"J PATRICK HOMES",,,,,"J PATRICK HOMES","9700 RICHMOND AVE STE 162",HOUSTON,TX,77042-4698,"(713) 789-8004",,,,
TX,MONTGOMERY,173036-20,"Single Family Homes",6/11/2020,,133140,,"11012 ONDREA LN",HOUSTON,TX,77356,"CLEAR VIEW ESTATES",,CONTRACTOR,,,,,,,,,,,"KENDALL HOMES",,,,,"KENDALL HOMES","427 MASON PARK BLVD",KATY,TX,77450-6187,"(281) 398-4010",http://www.kendallhomes.net/,"(281) 398-4011",,
TX,MONTGOMERY,173038-20,"Single Family Homes",6/11/2020,,130800,,"11016 ONDREA LN",HOUSTON,TX,77356,"CLEAR VIEW ESTATES",,CONTRACTOR,,,,,,,,,,,"KENDALL HOMES",,,,,"KENDALL HOMES","427 MASON PARK BLVD",KATY,TX,77450-6187,"(281) 398-4010",http://www.kendallhomes.net/,"(281) 398-4011",,
TX,MONTGOMERY,173039-20,"Single Family Homes",6/11/2020,,181680,,"11020 ONDREA LN",HOUSTON,TX,77356,"CLEAR VIEW ESTATES",,CONTRACTOR,,,,,,,,,,,"KUYKENDALL HOMES",,,,,"KUYKENDALL HOMES","301 HIGHWAY 39",INGRAM,TX,78025-3262,"(830) 367-3222",,,,
TX,MONTGOMERY,173040-20,"Single Family Homes",6/11/2020,,169860,,"11009 ONDREA LN",HOUSTON,TX,77356,"CLEAR VIEW ESTATES",,CONTRACTOR,,,,,,,,,,,"KENDALL HOMES",,,,,"KENDALL HOMES","427 MASON PARK BLVD",KATY,TX,77450-6187,"(281) 398-4010",http://www.kendallhomes.net/,"(281) 398-4011",,
TX,MONTGOMERY,173041-20,"Single Family Homes",6/11/2020,,133140,,"11017 ONDREA LN",HOUSTON,TX,77356,"CLEAR VIEW ESTATES",,CONTRACTOR,,,,,,,,,,,"KENDALL HOMES",,,,,"KENDALL HOMES","427 MASON PARK BLVD",KATY,TX,77450-6187,"(281) 398-4010",http://www.kendallhomes.net/,"(281) 398-4011",,
TX,MONTGOMERY,"173042 20","Single Family Homes",6/11/2020,,130800,,"11013 ONDREA LN",HOUSTON,TX,77356,"CLEAR VIEW ESTATES",,CONTRACTOR,,,,,,,,,,,"KENDALL HOMES",,,,,"KENDALL HOMES","427 MASON PARK BLVD",KATY,TX,77450-6187,"(281) 398-4010",http://www.kendallhomes.net/,"(281) 398-4011",,
TX,MONTGOMERY,173018-20,"Single Family Homes",6/11/2020,,154500,,"18801 AMARO HILLS DR",HOUSTON,TX,77356,TAVOLA,,CONTRACTOR,,,,,,,,,,,"LENNAR HOMES",,,,,"LENNAR HOMES","550 GREENS PKWY",HOUSTON,TX,77067-4537,"(281) 875-1000",http://www.lennar.com/,,,
TX,MONTGOMERY,"173022 20","Single Family Homes",6/11/2020,,148900,,"23531 KENWORTH DR",HOUSTON,TX,77356,TAVOLA,,CONTRACTOR,,,,,,,,,,,"M/I HOMES",,,,,"M/I HOMES","10910 NORTH SAM HOUSTON PKWY W",HOUSTON,TX,77064,"(832) 912-1012",,,,
TX,MONTGOMERY,"173023 20","Single Family Homes",6/11/2020,,148900,,"18973 COLUMBUS MILL DR",HOUSTON,TX,77356,TAVOLA,,CONTRACTOR,,,,,,,,,,,"M/I HOMES",,,,,"M/I HOMES","10910 NORTH SAM HOUSTON PKWY W",HOUSTON,TX,77064,"(832) 912-1012",,,,
TX,MONTGOMERY,173072-20,"Single Family Homes",6/12/2020,,60000,,"23820 WILDWOOD OAKS DR",HOUSTON,TX,77356,"WILDWOOD OAKS",,"ERIKA MENDOZA","23820 WILDWOOD OAKS DR","NEW CANEY",TX,77356,,Owner,,,,,OWNER,,,,,OWNER,,,,,,,,,
TX,MONTGOMERY,"172961 20","Single Family Homes",6/9/2020,,316990,,"17510 SUNSET SKIES ROAD",HOUSTON,TX,77356,ARTAVIA,,CONTRACTOR,,,,,,,,,,,"MHI MCGUYER HOMEBUILDERS",,,,,"MHI MCGUYER HOMEBUILDERS","7676 WOODWAY DR",HOUSTON,TX,77063-1526,"(713) 260-4107",,,,
TX,MONTGOMERY,172962-20,"Single Family Homes",6/9/2020,,294990,,"17320 GRAND CANYON ROAD",HOUSTON,TX,77356,ARTAVIA,,CONTRACTOR,,,,,,,,,,,"MHI MCGUYER HOMEBUILDERS",,,,,"MHI MCGUYER HOMEBUILDERS","7676 WOODWAY DR",HOUSTON,TX,77063-1526,"(713) 260-4107",,,,
TX,MONTGOMERY,172963-20,"Single Family Homes",6/9/2020,,422990,,"15261 HEMINGWAY HEIGHTS DR",HOUSTON,TX,77356,ARTAVIA,,CONTRACTOR,,,,,,,,,,,"MHI MCGUYER HOMEBUILDERS",,,,,"MHI MCGUYER HOMEBUILDERS","7676 WOODWAY DR",HOUSTON,TX,77063-1526,"(713) 260-4107",,,,
TX,MONTGOMERY,"172964 20","Single Family Homes",6/9/2020,,236990,,"2794 HIDDEN HOLLOW LN",HOUSTON,TX,77356,"MEADOWS AT IMPERIAL OAKS",,CONTRACTOR,,,,,,,,,,,"MHI MCGUYER HOMEBUILDERS",,,,,"MHI MCGUYER HOMEBUILDERS","7676 WOODWAY DR",HOUSTON,TX,77063-1526,"(713) 260-4107",,,,
TX,MONTGOMERY,172978-20,"Single Family Homes",6/9/2020,,200000,,"10425 LONGSTREET ROAD",HOUSTON,TX,77356,,,"MEGAN MILLIFF","10507 LONGSTREE'L' RD",WILLIS,TX,77318,,Owner,,,,,OWNER,,,,,OWNER,,,,,,,,,
TX,HARRIS,2005140080,"Single Family Homes",6/16/2020,,120000,2433,"3915 BENEVENTO CT",HOUSTON,TX,77356,"MARCELLO LAKES",,CONTRACTOR,,,,,,,,,,,"LEGEND HOMES",,,,,"LEGEND HOMES","10410 WINDAMERE LAKES BLVD",HOUSTON,TX,77065-4996,"(281) 671-9060",http://legendhomecorp.com/,"(281) 671-9055",,
TX,HARRIS,2005130042,"Single Family Homes",6/16/2020,,105525,3015,"16114 DEDICATION DR",HOUSTON,TX,77356,"BRIDGELAND PARKLAND VILLAGE",,CONTRACTOR,,,,,,,,,,,"DAVID WEEKLEY HOMES",,,,,"DAVID WEEKLEY HOMES","14444 NORTHWEST",HOUSTON,TX,77040,"(713) 570-5021",http://www.davidweekleyhomes.com/,,,
TX,HARRIS,1906110226,"Single Family Homes",6/16/2020,,1201200,16016,"12603 TELGE RD",HOUSTON,TX,77356,"STARWOOD FARMS",,"MIKE MILLER","12603 TELGE RD",HOUSTON,TX,77356,,Owner,,,,,OWNER,,,,,OWNER,,,,,,,,,
TX,HARRIS,2001300060,"Single Family Homes",6/16/2020,,105525,3015,"15903 JUBILATION DR",HOUSTON,TX,77356,"BRIDGELAND PARKLAND VILLAGE",,CONTRACTOR,,,,,,,,,,,"DAVID WEEKLEY HOMES",,,,,"DAVID WEEKLEY HOMES","14444 NORTHWEST",HOUSTON,TX,77040,"(713) 570-5021",http://www.davidweekleyhomes.com/,,,
TX,HARRIS,2004150003,"Single Family Homes",6/16/2020,,116094,2314,"13231 BLASS CT",HOUSTON,TX,77356,"TIDWELL LAKES",,CONTRACTOR,,,,,,,,,,,"COLINA HOMES",,,,,"COLINA HOMES","1314 N DURHAM DR",HOUSTON,TX,77008-3734,"(281) 528-9090",http://colinahomes.com/,,,postmaster@colinahomes.com
TX,HARRIS,2003250129,"Single Family Homes",6/16/2020,,148000,2280,"5310 ROSE TRELLIS ST",HOUSTON,TX,77356,"KATY MANOR",,CONTRACTOR,,,,,,,,,,,"KB HOME",,,,,"KB HOME","11314 RICHMOND AVE",HOUSTON,TX,77082-2616,"(281) 668-3800",,,,
TX,HARRIS,2004130020,"Single Family Homes",6/16/2020,,366415,3257,"20347 GRAY YEARLING TRL",HOUSTON,TX,77356,AMIRA,,CONTRACTOR,,,,,,,,,,,"PERRY HOMES",,,,,"PERRY HOMES","9000 GULF FWY",HOUSTON,TX,77017-7018,"(713) 417-1396",,,,
TX,HARRIS,2004150033,"Single Family Homes",6/16/2020,,96110,2746,"18214 PEDERNALES SPRINGS DR",HOUSTON,TX,77356,"TOWNE LAKE",,CONTRACTOR,,,,,,,,,,,"DAVID WEEKLEY HOMES",,,,,"DAVID WEEKLEY HOMES","14444 NORTHWEST",HOUSTON,TX,77040,"(713) 570-5021",http://www.davidweekleyhomes.com/,,,
TX,HARRIS,2004270096,"Single Family Homes",6/16/2020,,116200,3255,"18515 PARKLAND CROSSING",HOUSTON,TX,77356,"BRIDGELAND PARKLAND VILLAGE",,CONTRACTOR,,,,,,,,,,,"DAVID WEEKLEY HOMES",,,,,"DAVID WEEKLEY HOMES","14444 NORTHWEST",HOUSTON,TX,77040,"(713) 570-5021",http://www.davidweekleyhomes.com/,,,
TX,HARRIS,2003050138,"Single Family Homes",6/16/2020,,103075,2880,"18523 INSPIRATION DR",HOUSTON,TX,77356,"BRIDGELAND PARKLAND VILLAGE",,CONTRACTOR,,,,,,,,,,,"DAVID WEEKLEY HOMES",,,,,"DAVID WEEKLEY HOMES","14444 NORTHWEST",HOUSTON,TX,77040,"(713) 570-5021",http://www.davidweekleyhomes.com/,,,
TX,HARRIS,2005130030,"Single Family Homes",6/16/2020,,108640,3104,"15814 DEDICATION DR",HOUSTON,TX,77356,"BRIDGELAND PARKLAND VILLAGE",,CONTRACTOR,,,,,,,,,,,"DAVID WEEKLEY HOMES",,,,,"DAVID WEEKLEY HOMES","14444 NORTHWEST",HOUSTON,TX,77040,"(713) 570-5021",http://www.davidweekleyhomes.com/,,,
TX,HARRIS,2006030141,"Single Family Homes",6/15/2020,,50520,2526,"14822 DUNSMORE MEADOW TRL",HOUSTON,TX,77356,"ENCLAVE AT LONGWOOD",,CONTRACTOR,,,,,,,,,,,"MHI MCGUYER HOMEBUILDERS",,,,,"MHI MCGUYER HOMEBUILDERS","7676 WOODWAY DR",HOUSTON,TX,77063-1526,"(713) 260-4107",,,,
TX,HARRIS,2005120064,"Single Family Homes",6/16/2020,,111440,3184,"11639 WHITEWAVE BEND CT",HOUSTON,TX,77356,"TOWNE LAKE",,CONTRACTOR,,,,,,,,,,,"DAVID WEEKLEY HOMES",,,,,"DAVID WEEKLEY HOMES","14444 NORTHWEST",HOUSTON,TX,77040,"(713) 570-5021",http://www.davidweekleyhomes.com/,,,
TX,HARRIS,2004140082,"Single Family Homes",6/16/2020,,145250,4150,"18319 EDENBERRY DR",HOUSTON,TX,77356,"TOWNE LAKE",,CONTRACTOR,,,,,,,,,,,"DAVID WEEKLEY HOMES",,,,,"DAVID WEEKLEY HOMES","14444 NORTHWEST",HOUSTON,TX,77040,"(713) 570-5021",http://www.davidweekleyhomes.com/,,,
TX,HARRIS,2001300057,"Single Family Homes",6/16/2020,,79520,2207,"18619 INSPIRATION DR",HOUSTON,TX,77356,"BRIDGELAND PARKLAND VILLAGE",,CONTRACTOR,,,,,,,,,,,"DAVID WEEKLEY HOMES",,,,,"DAVID WEEKLEY HOMES","14444 NORTHWEST",HOUSTON,TX,77040,"(713) 570-5021",http://www.davidweekleyhomes.com/,,,
TX,HARRIS,2003050142,"Single Family Homes",6/16/2020,,86835,2416,"18515 INSPIRATION DR",HOUSTON,TX,77356,,,CONTRACTOR,,,,,,,,,,,"DAVID WEEKLEY HOMES",,,,,"DAVID WEEKLEY HOMES","14444 NORTHWEST",HOUSTON,TX,77040,"(713) 570-5021",http://www.davidweekleyhomes.com/,,,
TX,HARRIS,2003110070,"Single Family Homes",6/16/2020,,91175,2605,"18602 INSPIRATION DR",HOUSTON,TX,77356,"BRIDGELAND PARKLAND VILLAGE",,CONTRACTOR,,,,,,,,,,,"DAVID WEEKLEY HOMES",,,,,"DAVID WEEKLEY HOMES","14444 NORTHWEST",HOUSTON,TX,77040,"(713) 570-5021",http://www.davidweekleyhomes.com/,,,
TX,HARRIS,2004140055,"Single Family Homes",6/16/2020,,107240,3064,"16123 HORSEBACK CT",HOUSTON,TX,77356,,,CONTRACTOR,,,,,,,,,,,"DAVID WEEKLEY HOMES",,,,,"DAVID WEEKLEY HOMES","14444 NORTHWEST",HOUSTON,TX,77040,"(713) 570-5021",http://www.davidweekleyhomes.com/,,,
TX,HARRIS,2002100141,"Single Family Homes",6/16/2020,,94395,2632,"18615 ADMIRATION DR",HOUSTON,TX,77356,"BRIDGELAND PARKLAND VILLAGE",,CONTRACTOR,,,,,,,,,,,"DAVID WEEKLEY HOMES",,,,,"DAVID WEEKLEY HOMES","14444 NORTHWEST",HOUSTON,TX,77040,"(713) 570-5021",http://www.davidweekleyhomes.com/,,,
TX,HARRIS,2004160028,"Single Family Homes",6/16/2020,,138215,3949,"15202 SANDSTONE OUTCROP DR",HOUSTON,TX,77356,,,CONTRACTOR,,,,,,,,,,,"DAVID WEEKLEY HOMES",,,,,"DAVID WEEKLEY HOMES","14444 NORTHWEST",HOUSTON,TX,77040,"(713) 570-5021",http://www.davidweekleyhomes.com/,,,
TX,HARRIS,2001250007,"Single Family Homes",6/16/2020,,1500000,1495,"14533 BELLAIRE BLVD",HOUSTON,TX,77356,"PAVILION VILLAGE",,"REGIONS BANK","14533 BELLAIRE BLVD",HOUSTON,TX,77356,,Owner,,,,,OWNER,,,,,OWNER,,,,,,,,,
TX,HARRIS,2005050080,"Single Family Homes",6/16/2020,,138215,3949,"19302 SPILLWAY OVERLOOK CT",HOUSTON,TX,77356,"BRIDGELAND PARKLAND VILLAGE",,CONTRACTOR,,,,,,,,,,,"DAVID WEEKLEY HOMES",,,,,"DAVID WEEKLEY HOMES","14444 NORTHWEST",HOUSTON,TX,77040,"(713) 570-5021",http://www.davidweekleyhomes.com/,,,
TX,HARRIS,2003190139,"Single Family Homes",6/15/2020,,364585,5609,"19518 ROCK QUILLWORT DR",HOUSTON,TX,77356,"BRIDGELAND PARKLAND VILLAGE",,CONTRACTOR,,,,,,,,,,,"TRENDMAKER HOMES",,,,,"TRENDMAKER HOMES","16340 PARK TEN PL STE 250",HOUSTON,TX,77084-5144,"(281) 675-3200",,"(281) 675-3251","MARTIN EVANS",
TX,HARRIS,2005120052,"Single Family Homes",6/16/2020,,91805,2623,"11806 DOCKSIDE SHORES DR",HOUSTON,TX,77356,"TOWNE LAKE",,CONTRACTOR,,,,,,,,,,,"DAVID WEEKLEY HOMES",,,,,"DAVID WEEKLEY HOMES","14444 NORTHWEST",HOUSTON,TX,77040,"(713) 570-5021",http://www.davidweekleyhomes.com/,,,
TX,HARRIS,2005130055,"Single Family Homes",6/16/2020,,104755,2993,"11826 DOCKSIDE SHORES DR",HOUSTON,TX,77356,"TOWNE LAKE",,CONTRACTOR,,,,,,,,,,,"DAVID WEEKLEY HOMES",,,,,"DAVID WEEKLEY HOMES","14444 NORTHWEST",HOUSTON,TX,77040,"(713) 570-5021",http://www.davidweekleyhomes.com/,,,
TX,HARRIS,2002240060,"Single Family Homes",6/16/2020,,201990,1598,"13546 WEMBLEY HEIGHTS DR",HOUSTON,TX,77356,"IMPERIAL FOREST",,CONTRACTOR,,,,,,,,,,,"ASHTON WOODS HOMES",,,,,"ASHTON WOODS HOMES","10110 W SAM HOUSTON PKWY N",HOUSTON,TX,77064-7508,"(832) 478-9028",,,,
TX,HARRIS,2002180092,"Single Family Homes",6/16/2020,,94395,2632,"18623 ADMIRATION DR",HOUSTON,TX,77356,"BRIDGELAND PARKLAND VILLAGE",,CONTRACTOR,,,,,,,,,,,"DAVID WEEKLEY HOMES",,,,,"DAVID WEEKLEY HOMES","14444 NORTHWEST",HOUSTON,TX,77040,"(713) 570-5021",http://www.davidweekleyhomes.com/,,,
TX,HARRIS,2003190134,"Single Family Homes",6/16/2020,,386478,5903,"19527 ROCK QUILLWORT RD",HOUSTON,TX,77356,"BRIDGELAND PARKLAND VILLAGE",,CONTRACTOR,,,,,,,,,,,"TRENDMAKER HOMES",,,,,"TRENDMAKER HOMES","16340 PARK TEN PL STE 250",HOUSTON,TX,77084-5144,"(281) 675-3200",,"(281) 675-3251","MARTIN EVANS",
TX,HARRIS,2005080094,"Single Family Homes",7/13/2020,,144000,2700,"16331 ROCKDALE LANDING DR",HOUSTON,TX,77356,"STONE CREEK RANCH",,CONTRACTOR,,,,,,,,,,,"GEHAN HOMES",,,,,"GEHAN HOMES","2050 W SAM HOUSTON PKWY S",HOUSTON,TX,77042-2079,"(713) 243-3545",http://www.gehanhomes.com,,,
TX,HARRIS,2003040059,"Single Family Homes",6/16/2020,,228400,3771,"1433 COUNTRY CLUB DR",HOUSTON,TX,77356,,,CONTRACTOR,,,,,,,,,,,"DUNHILL HOMES",,,,,"DUNHILL HOMES","2400 AUGUSTA DR",HOUSTON,TX,77057-4922,"(713) 834-5669",http://www.dunhillhomes.com,,,
TX,HARRIS,2003040096,"Single Family Homes",6/16/2020,,218840,3598,"1603 COUNTRY CLUB DR",HOUSTON,TX,77356,,,CONTRACTOR,,,,,,,,,,,"DUNHILL HOMES",,,,,"DUNHILL HOMES","2400 AUGUSTA DR",HOUSTON,TX,77057-4922,"(713) 834-5669",http://www.dunhillhomes.com,,,
TX,HARRIS,2004080115,"Single Family Homes",6/16/2020,,104000,2521,"3902 MARBLING SISTO LN",HOUSTON,TX,77356,"CAMILLO LAKES ",,CONTRACTOR,,,,,,,,,,,"LEGEND HOMES",,,,,"LEGEND HOMES","10410 WINDAMERE LAKES BLVD",HOUSTON,TX,77065-4996,"(281) 671-9060",http://legendhomecorp.com/,"(281) 671-9055",,
TX,HARRIS,2006240032,"Single Family Homes",6/16/2020,,122500,2723,"4759 AVELLINO BASE DR",HOUSTON,TX,77356,"VENTANA LAKES",,CONTRACTOR,,,,,,,,,,,"DR HORTON",,,,,"DR HORTON","14100 SOUTHWEST",HOUSTON,TX,77478,"(281) 201-5559",,,,
TX,HARRIS,2003240052,"Single Family Homes",6/16/2020,,285610,4394,"16430 ROSEMARY GROVE LN",HOUSTON,TX,77356,"HIDDEN ARBOR EXPANSION",,CONTRACTOR,,,,,,,,,,,"TRENDMAKER HOMES",,,,,"TRENDMAKER HOMES","16340 PARK TEN PL STE 250",HOUSTON,TX,77084-5144,"(281) 675-3200",,"(281) 675-3251","MARTIN EVANS",
TX,HARRIS,2006160030,"Single Family Homes",6/16/2020,,122500,2723,"4722 ALBA ASH LN",HOUSTON,TX,77356,,,CONTRACTOR,,,,,,,,,,,"DR HORTON",,,,,"DR HORTON","14100 SOUTHWEST",HOUSTON,TX,77478,"(281) 201-5559",,,,
TX,HARRIS,2006100006,"Single Family Homes",6/16/2020,,125640,2141,"4731 LOMBARDY FIRE TRL",HOUSTON,TX,77356,"VENTANA LAKES",,CONTRACTOR,,,,,,,,,,,"DR HORTON",,,,,"DR HORTON","14100 SOUTHWEST",HOUSTON,TX,77478,"(281) 201-5559",,,,
TX,HARRIS,2006170131,"Single Family Homes",6/16/2020,,96525,2145,"5423 BETHEL CHASE LN",HOUSTON,TX,77356,"JASMINE HEIGHTS",,CONTRACTOR,,,,,,,,,,,"DR HORTON",,,,,"DR HORTON","14100 SOUTHWEST",HOUSTON,TX,77478,"(281) 201-5559",,,,
TX,HARRIS,2002190132,"Single Family Homes",6/16/2020,,250000,4428,"15315 THISTLE DOWN RD",HOUSTON,TX,77356,"JEFFERSON PLACE",,"JUAN MADRID","15315 THISTLE DOWN RD",HOUSTON,TX,77356,,Owner,,,,,OWNER,,,,,OWNER,,,,,,,,,
TX,HARRIS,1910150028,"Single Family Homes",6/16/2020,,120000,2663,"23119 BRACE ST",HOUSTON,TX,77356,,,"JOSE LIRA","23119 BRACE ST",HOUSTON,TX,77356,,Owner,,,,,OWNER,,,,,OWNER,,,,,,,,,
TX,HARRIS,2003080002,"Single Family Homes",6/16/2020,,150000,2914,"18038 ROLLING CREEK DR",HOUSTON,TX,77356,"PONDEROSA FOREST",,"ANNICE IRVIN","18038 ROLLING CREEK DR",HOUSTON,TX,77356,,Owner,,,,,OWNER,,,,,OWNER,,,,,,,,,
TX,HARRIS,2005200006,"Single Family Homes",6/16/2020,,97685,2791,"11707 LOST MAPLES SPRINGS DR",HOUSTON,TX,77356,"TOWNE LAKE",,CONTRACTOR,,,,,,,,,,,"DAVID WEEKLEY HOMES",,,,,"DAVID WEEKLEY HOMES","14444 NORTHWEST",HOUSTON,TX,77040,"(713) 570-5021",http://www.davidweekleyhomes.com/,,,
TX,HARRIS,2005140020,"Single Family Homes",6/16/2020,,600000,9473,"50 WILLOWCREEK RANCH RD",HOUSTON,TX,77356,"WILLOWCREEK RANCH",,"JAMES VERSALOVIC & KJERSTI AGAARD","50 WILLOWCREEK RANCH RD",HOUSTON,TX,77356,,Owner,,,,,OWNER,,,,,OWNER,,,,,,,,,
TX,HARRIS,2006240043,"Single Family Homes",6/18/2020,,91350,2699,"22706 PALERMO RIM LN",HOUSTON,TX,77356,"VENTANA LAKES",,CONTRACTOR,,,,,,,,,,,"DR HORTON",,,,,"DR HORTON","14100 SOUTHWEST",HOUSTON,TX,77478,"(281) 201-5559",,,,
TX,HARRIS,2005220172,"Single Family Homes",6/16/2020,,200000,,"19859 WHITE DOVE DR",HOUSTON,TX,77356,"INDIAN SHORES",,"RYAN DOSKOCIL","19859 WHITE DOVE DR",HOUSTON,TX,77356,,Owner,,,,,OWNER,,,,,OWNER,,,,,,,,,
TX,HARRIS,2006260067,"Single Family Homes",6/16/2020,,107550,2388,"4771 AVELLINO BASE DR",HOUSTON,TX,77356,"VENTANA LAKES",,CONTRACTOR,,,,,,,,,,,"DR HORTON",,,,,"DR HORTON","14100 SOUTHWEST",HOUSTON,TX,77478,"(281) 201-5559",,,,
TX,HARRIS,2006230189,"Single Family Homes",6/16/2020,,103050,2291,"4730 AVELLINO BASE DR",HOUSTON,TX,77356,"VENTANA LAKES",,CONTRACTOR,,,,,,,,,,,"DR HORTON",,,,,"DR HORTON","14100 SOUTHWEST",HOUSTON,TX,77478,"(281) 201-5559",,,,
TX,HARRIS,2006230199,"Single Family Homes",6/18/2020,,122500,2723,"4735 AVELLINO BASE DR",HOUSTON,TX,77356,"VENTANA LAKES",,CONTRACTOR,,,,,,,,,,,"DR HORTON",,,,,"DR HORTON","14100 SOUTHWEST",HOUSTON,TX,77478,"(281) 201-5559",,,,
TX,HARRIS,2006230195,"Single Family Homes",6/16/2020,,112515,2501,"4731 AVELLINO BASE DR",HOUSTON,TX,77356,"VENTANA LAKES",,CONTRACTOR,,,,,,,,,,,"DR HORTON",,,,,"DR HORTON","14100 SOUTHWEST",HOUSTON,TX,77478,"(281) 201-5559",,,,
TX,HARRIS,2006230206,"Single Family Homes",6/16/2020,,157050,2241,"4743 AVELLINO BASE DR",HOUSTON,TX,77356,"VENTANA LAKES",,CONTRACTOR,,,,,,,,,,,"DR HORTON",,,,,"DR HORTON","14100 SOUTHWEST",HOUSTON,TX,77478,"(281) 201-5559",,,,
TX,HARRIS,2006230203,"Single Family Homes",6/16/2020,,95130,2114,"4739 AVELLINO BASE DR",HOUSTON,TX,77356,"VENTANA LAKES",,CONTRACTOR,,,,,,,,,,,"DR HORTON",,,,,"DR HORTON","14100 SOUTHWEST",HOUSTON,TX,77478,"(281) 201-5559",,,,
TX,HARRIS,2006160032,"Single Family Homes",6/16/2020,,95130,2114,"22910 MODICA RIFT LN",HOUSTON,TX,77356,"VENTANA LAKES",,CONTRACTOR,,,,,,,,,,,"DR HORTON",,,,,"DR HORTON","14100 SOUTHWEST",HOUSTON,TX,77478,"(281) 201-5559",,,,
TX,HARRIS,2006080143,"Single Family Homes",6/16/2020,,188000,1545,"631 CORVETTE LN",HOUSTON,TX,77356,"ALDINE VILLAGE",,"TRAVIS WATSON","631 CORVETTE LN",HOUSTON,TX,77356,,Owner,,,,,OWNER,,,,,OWNER,,,,,,,,,
TX,HARRIS,2005190007,"Single Family Homes",6/15/2020,,114120,2333,"18630 GREENLAND",HOUSTON,TX,77356,"CONTEMPO AT KATY",,CONTRACTOR,,,,,,,,,,,"CONTEMPO BUILDER",,,,,"CONTEMPO BUILDER","3880 GREENHOUSE RD # 24",HOUSTON,TX,77084-6792,"(832) 275-2469",http://www.contempobuilder.com,,,
TX,HARRIS,2005200158,"Single Family Homes",6/16/2020,,67300,2912,"606 DIJON DR",HOUSTON,TX,77356,"RIVIERA EAST",,"ERNESTO MEDINA","606 DIJON DR",HOUSTON,TX,77356,,Owner,,,,,OWNER,,,,,OWNER,,,,,,,,,
TX,HARRIS,2006180048,"Single Family Homes",6/16/2020,,107550,2388,"22807 MODICA RIFT LN",HOUSTON,TX,77356,"VENTANA LAKES",,CONTRACTOR,,,,,,,,,,,"DR HORTON",,,,,"DR HORTON","14100 SOUTHWEST",HOUSTON,TX,77478,"(281) 201-5559",,,,
TX,HARRIS,2006180043,"Single Family Homes",6/16/2020,,107550,2388,"22819 MODICA RIFT LN",HOUSTON,TX,77356,"VENTANA LAKES",,CONTRACTOR,,,,,,,,,,,"DR HORTON",,,,,"DR HORTON","14100 SOUTHWEST",HOUSTON,TX,77478,"(281) 201-5559",,,,
TX,HARRIS,2006180045,"Single Family Homes",6/16/2020,,103050,2291,"22815 MODICA RIFT LN",HOUSTON,TX,77356,"VENTANA LAKES",,CONTRACTOR,,,,,,,,,,,"DR HORTON",,,,,"DR HORTON","14100 SOUTHWEST",HOUSTON,TX,77478,"(281) 201-5559",,,,
TX,HARRIS,2006180032,"Single Family Homes",6/16/2020,,112515,2501,"22919 MODICA RIFT LN",HOUSTON,TX,77356,"VENTANA LAKES",,CONTRACTOR,,,,,,,,,,,"DR HORTON",,,,,"DR HORTON","14100 SOUTHWEST",HOUSTON,TX,77478,"(281) 201-5559",,,,
TX,HARRIS,2006180042,"Single Family Homes",6/16/2020,,125640,2132,"22903 MODICA RIFT LN",HOUSTON,TX,77356,"VENTANA LAKES",,CONTRACTOR,,,,,,,,,,,"DR HORTON",,,,,"DR HORTON","14100 SOUTHWEST",HOUSTON,TX,77478,"(281) 201-5559",,,,
TX,HARRIS,2006180024,"Single Family Homes",6/16/2020,,169650,2331,"4703 AVELLINO BASE DR",HOUSTON,TX,77356,"VENTANA LAKES",,CONTRACTOR,,,,,,,,,,,"DR HORTON",,,,,"DR HORTON","14100 SOUTHWEST",HOUSTON,TX,77478,"(281) 201-5559",,,,
TX,HARRIS,2006180027,"Single Family Homes",6/16/2020,,95130,2114,"22923 MODICA RIFT LN",HOUSTON,TX,77356,"VENTANA LAKES",,CONTRACTOR,,,,,,,,,,,"DR HORTON",,,,,"DR HORTON","14100 SOUTHWEST",HOUSTON,TX,77478,"(281) 201-5559",,,,
TX,HARRIS,2006180017,"Single Family Homes",6/16/2020,,107550,2388,"4723 AVELLINO BASE DR",HOUSTON,TX,77356,"VENTANA LAKES",,CONTRACTOR,,,,,,,,,,,"DR HORTON",,,,,"DR HORTON","14100 SOUTHWEST",HOUSTON,TX,77478,"(281) 201-5559",,,,
TX,HARRIS,2006180020,"Single Family Homes",6/16/2020,,95130,2114,"4715 AVELLINO BASE DR",HOUSTON,TX,77356,"VENTANA LAKES",,CONTRACTOR,,,,,,,,,,,"DR HORTON",,,,,"DR HORTON","14100 SOUTHWEST",HOUSTON,TX,77478,"(281) 201-5559",,,,
TX,HARRIS,2006180015,"Single Family Homes",6/16/2020,,91350,2699,"4727 AVELLINO BASE DR",HOUSTON,TX,77356,"VENTANA LAKES",,CONTRACTOR,,,,,,,,,,,"DR HORTON",,,,,"DR HORTON","14100 SOUTHWEST",HOUSTON,TX,77478,"(281) 201-5559",,,,
TX,HARRIS,2006150007,"Single Family Homes",6/16/2020,,112515,2501,"22906 MODICA RIFT LN",HOUSTON,TX,77356,"VENTANA LAKES",,CONTRACTOR,,,,,,,,,,,"DR HORTON",,,,,"DR HORTON","14100 SOUTHWEST",HOUSTON,TX,77478,"(281) 201-5559",,,,
TX,HARRIS,2006120042,"Single Family Homes",6/16/2020,,169650,2331,"4723 ALBA ASH LN",HOUSTON,TX,77356,"VENTANA LAKES",,CONTRACTOR,,,,,,,,,,,"DR HORTON",,,,,"DR HORTON","14100 SOUTHWEST",HOUSTON,TX,77478,"(281) 201-5559",,,,
TX,HARRIS,2006120040,"Single Family Homes",6/16/2020,,95130,2114,"4739 LOMBARDY FIRE TRL",HOUSTON,TX,77356,"VENTANA LAKES",,CONTRACTOR,,,,,,,,,,,"DR HORTON",,,,,"DR HORTON","14100 SOUTHWEST",HOUSTON,TX,77478,"(281) 201-5559",,,,
TX,HARRIS,2006100199,"Single Family Homes",6/18/2020,,107550,2390,"22918 MODICA RIFT LN",HOUSTON,TX,77356,"VENTANA LAKES",,CONTRACTOR,,,,,,,,,,,"DR HORTON",,,,,"DR HORTON","14100 SOUTHWEST",HOUSTON,TX,77478,"(281) 201-5559",,,,
TX,HARRIS,2006120045,"Single Family Homes",6/16/2020,,122500,2723,"4715 ALBA ASH LN",HOUSTON,TX,77356,,,CONTRACTOR,,,,,,,,,,,"DR HORTON",,,,,"DR HORTON","14100 SOUTHWEST",HOUSTON,TX,77478,"(281) 201-5559",,,,
TX,HARRIS,2005070130,"Single Family Homes",6/16/2020,,183495,2823,"21215 ECHO MANOR DR",HOUSTON,TX,77356,"BAUER LANDING",,CONTRACTOR,,,,,,,,,,,"LGI HOMES",,,,,"LGI HOMES","1450 LAKE ROBBINS SUITE 430",CONROE,TX,77380,"(210) 563-4648",,"(281) 210-2601",,
TX,HARRIS,2006110012,"Single Family Homes",6/16/2020,,107550,2390,"4714 ALBA ASH LN",HOUSTON,TX,77356,"VENTANA LAKES",,CONTRACTOR,,,,,,,,,,,"DR HORTON",,,,,"DR HORTON","14100 SOUTHWEST",HOUSTON,TX,77478,"(281) 201-5559",,,,
TX,HARRIS,2006110014,"Single Family Homes",6/16/2020,,103050,2291,"4710 ALBA ASH LN",HOUSTON,TX,77356,"VENTANA LAKES",,CONTRACTOR,,,,,,,,,,,"DR HORTON",,,,,"DR HORTON","14100 SOUTHWEST",HOUSTON,TX,77478,"(281) 201-5559",,,,
TX,HARRIS,2006110018,"Single Family Homes",6/16/2020,,169650,2331,"4702 ALBA ASH LN",HOUSTON,TX,77356,"VENTANA LAKES",,CONTRACTOR,,,,,,,,,,,"DR HORTON",,,,,"DR HORTON","14100 SOUTHWEST",HOUSTON,TX,77478,"(281) 201-5559",,,,
TX,HARRIS,2006110016,"Single Family Homes",6/16/2020,,95130,2114,"4706 ALBA ASH LN",HOUSTON,TX,77356,"VENTANA LAKES",,CONTRACTOR,,,,,,,,,,,"DR HORTON",,,,,"DR HORTON","14100 SOUTHWEST",HOUSTON,TX,77478,"(281) 201-5559",,,,
TX,HARRIS,2006100203,"Single Family Homes",6/16/2020,,107550,2390,"4711 ALBA ASH LN",HOUSTON,TX,77356,"VENTANA LAKES",,CONTRACTOR,,,,,,,,,,,"DR HORTON",,,,,"DR HORTON","14100 SOUTHWEST",HOUSTON,TX,77478,"(281) 201-5559",,,,
TX,HARRIS,20016460,"Single Family Homes",6/30/2020,,327348,,"1010 E T C JESTER",HOUSTON,TX,77008,,,"ALLEN ROBERT BRUCE","1010 E T C JESTER",HOUSTON,TX,77008,,Owner,,,,,"HERZOG HOMES",,,,,"HERZOG HOMES","1617 W 23RD ST",HOUSTON,TX,77008-1510,"(832) 314-9000",,,"HERZOG DAVID",
TX,HARRIS,18028959,"Single Family Homes",6/30/2020,,305675,,"2718 NICHOLSON",HOUSTON,TX,77008,,,"GLENN ANDERSON","2718 NICHOLSON",HOUSTON,TX,77008,"(281) 403-2051",Owner,,,,,OWNER,,,,,OWNER,,,,,,,,,
TX,HARRIS,19141062,"Single Family Homes",7/6/2020,,258000,,"1746 DE MILO",HOUSTON,TX,77018,,,"ANDREWS KELLEY LYN","1746 DE MILO",HOUSTON,TX,77018,,Owner,,,,,"DAYSPRING HOMES",,,,,"DAYSPRING HOMES","310 BRIAR TRACE LN",RICHMOND,TX,77406-2165,"(281) 889-4595",http://www.dayspringhomestexas.com/,,"NOLAN BELL",nolan@dayspringhomestexas.com
TX,HARRIS,20049042,"Single Family Homes",6/30/2020,,201000,,"2015 JADEITE ",HOUSTON,TX,77077,,,CONTRACTOR,,,,,,,,,,,"ANNE'S PERMIT",,,,,"ANNE'S PERMIT","2617C W HOLCOMBE BLVD",HOUSTON,TX,77025,"(713) 666-2025",,,,
TX,HARRIS,20057218,"Single Family Homes",7/6/2020,,190000,,"954 FORD PINES",HOUSTON,TX,77091,,,CONTRACTOR,,,,,,,,,,,"ANNE'S PERMIT",,,,,"ANNE'S PERMIT","2617C W HOLCOMBE BLVD",HOUSTON,TX,77025,"(713) 666-2025",,,,
TX,HARRIS,20056239,"Single Family Homes",7/2/2020,,152000,,"956 FORD PINES",HOUSTON,TX,77091,,,CONTRACTOR,,,,,,,,,,,"ANNE'S PERMIT",,,,,"ANNE'S PERMIT","2617C W HOLCOMBE BLVD",HOUSTON,TX,77025,"(713) 666-2025",,,,
TX,HARRIS,77356,"Single Family Homes",7/2/2020,,153000,,"958 FORD PINES",HOUSTON,TX,77091,,,CONTRACTOR,,,,,,,,,,,"ANNE'S PERMIT",,,,,"ANNE'S PERMIT","2617C W HOLCOMBE BLVD",HOUSTON,TX,77025,"(713) 666-2025",,,,
TX,HARRIS,20055809,"Single Family Homes",7/2/2020,,157000,,"960 FORD PINES",HOUSTON,TX,77091,,,CONTRACTOR,,,,,,,,,,,"ANNE'S PERMIT",,,,,"ANNE'S PERMIT","2617C W HOLCOMBE BLVD",HOUSTON,TX,77025,"(713) 666-2025",,,,
TX,HARRIS,20055811,"Single Family Homes",7/2/2020,,140000,,"961 FORD PINES",HOUSTON,TX,77091,,,CONTRACTOR,,,,,,,,,,,"ANNE'S PERMIT",,,,,"ANNE'S PERMIT","2617C W HOLCOMBE BLVD",HOUSTON,TX,77025,"(713) 666-2025",,,,
TX,HARRIS,20055808,"Single Family Homes",7/2/2020,,152000,,"963 FORD PINES",HOUSTON,TX,77091,,,CONTRACTOR,,,,,,,,,,,"ANNE'S PERMIT",,,,,"ANNE'S PERMIT","2617C W HOLCOMBE BLVD",HOUSTON,TX,77025,"(713) 666-2025",,,,
TX,HARRIS,19103871,"Single Family Homes",6/30/2020,,95000,,"7925 BIRMINGHAM",HOUSTON,TX,77028,,,"BROWN ROKITHA","7925 BIRMINGHAM",HOUSTON,TX,77028,,Owner,,,,,"MASTER REMODELERS",,,,,"MASTER REMODELERS","2320 SWIFT BLVD",HOUSTON,TX,77030-1117,"(713) 240-0078",http://www.masterremodelershouston.com/,,,info@masterremodelershouston.com
TX,HARRIS,20052373,"Single Family Homes",7/6/2020,,140000,,"4706 OLD BRICKHOUSE",HOUSTON,TX,77041,,,"CASTREJON FRANCISCO","4706 OLD BRICKHOUSE",HOUSTON,TX,77041,,Owner,,,,,"JESUS GUTIERREZ",,,,,"JESUS GUTIERREZ","6420 ANTOINE",HOUSTON,TX,77091,"(713) 498-6816",,,,
TX,HARRIS,19103872,"Single Family Homes",6/30/2020,,95000,,"3706 COURTNEY",HOUSTON,TX,77026,,,"CHATMON CURTIS","3706 COURTNEY",HOUSTON,TX,77026,,Owner,,,,,"MASTER REMODELERS",,,,,"MASTER REMODELERS","2320 SWIFT BLVD",HOUSTON,TX,77030-1117,"(713) 240-0078",http://www.masterremodelershouston.com/,,,info@masterremodelershouston.com
TX,HARRIS,20009657,"Single Family Homes",7/6/2020,,132650,,"13806 ALDACO",HOUSTON,TX,77045,,,CONTRACTOR,,,,,,,,,,,"LEA HOMES",,,,,"LEA HOMES","24301 BRAZOS TOWN XING STE 500",ROSENBERG,TX,77471-6286,"(713) 907-4626",,,"LEA WOODS",
TX,HARRIS,20034012,"Single Family Homes",7/1/2020,,224320,,"2507 ARABELLE",HOUSTON,TX,77007,,,CONTRACTOR,,,,,,,,,,,"BB RESIDENTIAL",,,,,"BB RESIDENTIAL","16018 AUTUMN FALLS LN",HOUSTON,TX,77095-3925,"(281) 818-5609",,,"FABIAN DURAN",
TX,HARRIS,20034011,"Single Family Homes",7/1/2020,,224320,,"2511 ARABELLE",HOUSTON,TX,77007,,,CONTRACTOR,,,,,,,,,,,"BB RESIDENTIAL",,,,,"BB RESIDENTIAL","16018 AUTUMN FALLS LN",HOUSTON,TX,77095-3925,"(281) 818-5609",,,"FABIAN DURAN",
TX,HARRIS,20047860,"Single Family Homes",7/2/2020,,173098,,"2802 PAINTED SUNRISE ",HOUSTON,TX,77045,,,CONTRACTOR,,,,,,,,,,,"BRIGHTON HOMES & PARKWOOD",,,,,"BRIGHTON HOMES & PARKWOOD","13111 NORTHWEST FWY",HOUSTON,TX,77040-6318,"(713) 460-6279",,,,
TX,HARRIS,20044584,"Single Family Homes",7/1/2020,,173098,,"2814 PAINTED SUNRISE ",HOUSTON,TX,77045,,,CONTRACTOR,,,,,,,,,,,"BRIGHTON HOMES & PARKWOOD",,,,,"BRIGHTON HOMES & PARKWOOD","13111 NORTHWEST FWY",HOUSTON,TX,77040-6318,"(713) 460-6279",,,,
TX,HARRIS,20052696,"Single Family Homes",7/2/2020,,172762,,"2918 PAINTED SUNRISE ",HOUSTON,TX,77045,,,CONTRACTOR,,,,,,,,,,,"BRIGHTON HOMES & PARKWOOD",,,,,"BRIGHTON HOMES & PARKWOOD","13111 NORTHWEST FWY",HOUSTON,TX,77040-6318,"(713) 460-6279",,,,
TX,HARRIS,20055713,"Single Family Homes",6/30/2020,,196565,,"14214 COUTURIE FOREST ",HOUSTON,TX,77045,,,CONTRACTOR,,,,,,,,,,,"BRIGHTON HOMES & PARKWOOD",,,,,"BRIGHTON HOMES & PARKWOOD","13111 NORTHWEST FWY",HOUSTON,TX,77040-6318,"(713) 460-6279",,,,
TX,HARRIS,20047862,"Single Family Homes",7/1/2020,,229536,,"2818 PAINTED SUNRISE ",HOUSTON,TX,77045,,,CONTRACTOR,,,,,,,,,,,"BRIGHTON HOMES & PARKWOOD",,,,,"BRIGHTON HOMES & PARKWOOD","13111 NORTHWEST FWY",HOUSTON,TX,77040-6318,"(713) 460-6279",,,,
TX,HARRIS,20049709,"Single Family Homes",7/1/2020,,190257,,"2902 PAINTED SUNRISE ",HOUSTON,TX,77045,,,CONTRACTOR,,,,,,,,,,,"BRIGHTON HOMES & PARKWOOD",,,,,"BRIGHTON HOMES & PARKWOOD","13111 NORTHWEST FWY",HOUSTON,TX,77040-6318,"(713) 460-6279",,,,
TX,HARRIS,20049821,"Single Family Homes",7/1/2020,,236013,,"2910 PAINTED SUNRISE",HOUSTON,TX,77045,,,CONTRACTOR,,,,,,,,,,,"BRIGHTON HOMES & PARKWOOD",,,,,"BRIGHTON HOMES & PARKWOOD","13111 NORTHWEST FWY",HOUSTON,TX,77040-6318,"(713) 460-6279",,,,
TX,HARRIS,20049708,"Single Family Homes",7/1/2020,,222135,,"2922 PAINTED SUNRISE",HOUSTON,TX,77045,,,CONTRACTOR,,,,,,,,,,,"BRIGHTON HOMES & PARKWOOD",,,,,"BRIGHTON HOMES & PARKWOOD","13111 NORTHWEST FWY",HOUSTON,TX,77040-6318,"(713) 460-6279",,,,
TX,HARRIS,20045287,"Single Family Homes",7/2/2020,,204976,,"2931 PALM OAKS ",HOUSTON,TX,77045,,,CONTRACTOR,,,,,,,,,,,"BRIGHTON HOMES & PARKWOOD",,,,,"BRIGHTON HOMES & PARKWOOD","13111 NORTHWEST FWY",HOUSTON,TX,77040-6318,"(713) 460-6279",,,,
TX,HARRIS,20053354,"Single Family Homes",7/1/2020,,246947,,"10707 ZACHARY COVE",HOUSTON,TX,77016,,,CONTRACTOR,,,,,,,,,,,"BRIGHTON HOMES & PARKWOOD",,,,,"BRIGHTON HOMES & PARKWOOD","13111 NORTHWEST FWY",HOUSTON,TX,77040-6318,"(713) 460-6279",,,,
TX,HARRIS,20049627,"Single Family Homes",6/30/2020,,208845,,"14218 COUTURIE FOREST",HOUSTON,TX,77045,,,CONTRACTOR,,,,,,,,,,,"BRIGHTON HOMES & PARKWOOD",,,,,"BRIGHTON HOMES & PARKWOOD","13111 NORTHWEST FWY",HOUSTON,TX,77040-6318,"(713) 460-6279",,,,
TX,HARRIS,20047865,"Single Family Homes",7/1/2020,,197827,,"2826 PAINTED SUNRISE",HOUSTON,TX,77045,,,CONTRACTOR,,,,,,,,,,,"BRIGHTON HOMES & PARKWOOD",,,,,"BRIGHTON HOMES & PARKWOOD","13111 NORTHWEST FWY",HOUSTON,TX,77040-6318,"(713) 460-6279",,,,
TX,HARRIS,20044137,"Single Family Homes",7/1/2020,,173098,,"2906 PAINTED SUNRISE ",HOUSTON,TX,77045,,,CONTRACTOR,,,,,,,,,,,"BRIGHTON HOMES & PARKWOOD",,,,,"BRIGHTON HOMES & PARKWOOD","13111 NORTHWEST FWY",HOUSTON,TX,77040-6318,"(713) 460-6279",,,,
TX,HARRIS,20042869,"Single Family Homes",7/2/2020,,261000,,"9043 BRANDON",HOUSTON,TX,77051,,,CONTRACTOR,,,,,,,,,,,"CASTLEROCK COMMUNITIES",,,,,"CASTLEROCK COMMUNITIES","7670 WOODWAY DR STE 300",HOUSTON,TX,77063-1520,"(713) 600-7000",http://c-rock.com,"(713) 600-0000",,
TX,HARRIS,19073161,"Single Family Homes",7/2/2020,,217000,,"5914 VAL VERDE",HOUSTON,TX,77057,,,CONTRACTOR,,,,,,,,,,,"ELEVATED DEVELOPMENT",,,,,"ELEVATED DEVELOPMENT","9545 KATY",HOUSTON,TX,77024,"(402) 639-4325",,,,
TX,HARRIS,19073160,"Single Family Homes",7/2/2020,,217000,,"5916 VAL VERDE",HOUSTON,TX,77057,,,CONTRACTOR,,,,,,,,,,,"ELEVATED DEVELOPMENT",,,,,"ELEVATED DEVELOPMENT","9545 KATY",HOUSTON,TX,77024,"(402) 639-4325",,,,
TX,HARRIS,19073159,"Single Family Homes",7/2/2020,,217000,,"5918 VAL VERDE",HOUSTON,TX,77057,,,CONTRACTOR,,,,,,,,,,,"ELEVATED DEVELOPMENT",,,,,"ELEVATED DEVELOPMENT","9545 KATY",HOUSTON,TX,77024,"(402) 639-4325",,,,
TX,HARRIS,19073158,"Single Family Homes",7/2/2020,,217000,,"5920 VAL VERDE",HOUSTON,TX,77057,,,CONTRACTOR,,,,,,,,,,,"ELEVATED DEVELOPMENT",,,,,"ELEVATED DEVELOPMENT","9545 KATY",HOUSTON,TX,77024,"(402) 639-4325",,,,
TX,HARRIS,19073157,"Single Family Homes",7/2/2020,,217000,,"5922 VAL VERDE",HOUSTON,TX,77057,,,CONTRACTOR,,,,,,,,,,,"ELEVATED DEVELOPMENT",,,,,"ELEVATED DEVELOPMENT","9545 KATY",HOUSTON,TX,77024,"(402) 639-4325",,,,
TX,HARRIS,19073156,"Single Family Homes",7/2/2020,,217000,,"5924 VAL VERDE",HOUSTON,TX,77057,,,CONTRACTOR,,,,,,,,,,,"ELEVATED DEVELOPMENT",,,,,"ELEVATED DEVELOPMENT","9545 KATY",HOUSTON,TX,77024,"(402) 639-4325",,,,
TX,HARRIS,19123540,"Single Family Homes",7/1/2020,,215000,,"3365 DAPHNE",HOUSTON,TX,77021,,,CONTRACTOR,,,,,,,,,,,"ELEVATED DEVELOPMENT",,,,,"ELEVATED DEVELOPMENT","9545 KATY",HOUSTON,TX,77024,"(402) 639-4325",,,,
TX,HARRIS,19123541,"Single Family Homes",7/1/2020,,215000,,"3367 DAPHNE",HOUSTON,TX,77021,,,CONTRACTOR,,,,,,,,,,,"ELEVATED DEVELOPMENT",,,,,"ELEVATED DEVELOPMENT","9545 KATY",HOUSTON,TX,77024,"(402) 639-4325",,,,
TX,HARRIS,19123542,"Single Family Homes",7/1/2020,,215000,,"3369 DAPHNE",HOUSTON,TX,77021,,,CONTRACTOR,,,,,,,,,,,"ELEVATED DEVELOPMENT",,,,,"ELEVATED DEVELOPMENT","9545 KATY",HOUSTON,TX,77024,"(402) 639-4325",,,,
TX,HARRIS,19123537,"Single Family Homes",7/1/2020,,210000,,"6744 DEL RIO",HOUSTON,TX,77021,,,CONTRACTOR,,,,,,,,,,,"ELEVATED DEVELOPMENT",,,,,"ELEVATED DEVELOPMENT","9545 KATY",HOUSTON,TX,77024,"(402) 639-4325",,,,
TX,HARRIS,19123538,"Single Family Homes",7/1/2020,,210000,,"6746 DEL RIO",HOUSTON,TX,77021,,,CONTRACTOR,,,,,,,,,,,"ELEVATED DEVELOPMENT",,,,,"ELEVATED DEVELOPMENT","9545 KATY",HOUSTON,TX,77024,"(402) 639-4325",,,,
TX,HARRIS,19123539,"Single Family Homes",7/1/2020,,210000,,"6748 DEL RIO",HOUSTON,TX,77021,,,CONTRACTOR,,,,,,,,,,,"ELEVATED DEVELOPMENT",,,,,"ELEVATED DEVELOPMENT","9545 KATY",HOUSTON,TX,77024,"(402) 639-4325",,,,
TX,HARRIS,19120426,"Single Family Homes",7/2/2020,,130000,,"7722 SEALEY",HOUSTON,TX,77088,,,CONTRACTOR,,,,,,,,,,,"JEFF GOFF",,,,,"JEFF GOFF","1245 W CARDINAL",HOUSTON,TX,77705,"(409) 240-2123",,,,
TX,HARRIS,19120360,"Single Family Homes",7/6/2020,,130000,,"7902 WILLOW",HOUSTON,TX,77088,,,CONTRACTOR,,,,,,,,,,,"JEFF GOFF",,,,,"JEFF GOFF","1245 W CARDINAL",HOUSTON,TX,77705,"(409) 240-2123",,,,
TX,HARRIS,19120070,"Single Family Homes",7/2/2020,,130000,,"7921 CORA",HOUSTON,TX,77088,,,CONTRACTOR,,,,,,,,,,,"JEFF GOFF",,,,,"JEFF GOFF","1245 W CARDINAL",HOUSTON,TX,77705,"(409) 240-2123",,,,
TX,HARRIS,20053384,"Single Family Homes",7/6/2020,,250000,,"1201 E 23RD",HOUSTON,TX,77009,,,CONTRACTOR,,,,,,,,,,,"RYAN HAMILTON",,,,,"RYAN HAMILTON","17010 THOMAS RIDGE LN",CYPRESS,TX,77433-3957,"(281) 793-1429",,,,
TX,HARRIS,20053386,"Single Family Homes",6/30/2020,,250000,,"1203 E 23RD",HOUSTON,TX,77009,,,CONTRACTOR,,,,,,,,,,,"RYAN HAMILTON",,,,,"RYAN HAMILTON","17010 THOMAS RIDGE LN",CYPRESS,TX,77433-3957,"(281) 793-1429",,,,
TX,HARRIS,19137316,"Single Family Homes",7/6/2020,,332472,,"703 W 42ND",HOUSTON,TX,77018,,,CONTRACTOR,,,,,,,,,,,"HARRISBURG HOMES",,,,,"HARRISBURG HOMES","21615 FIREMIST WAY",CYPRESS,TX,77433-3507,"(713) 249-8196",http://www.harrisburgtx.com/,,SHAWN,info@harrisburgtx.com
TX,HARRIS,20017384,"Single Family Homes",7/1/2020,,150000,,"140 MILBY ST",HOUSTON,TX,77003,,,"LILIA HOFFMAN","27 GRAY STONE",HOUSTON,TX,92677,"(281) 704-2936",Owner,,,,,OWNER,,,,,OWNER,,,,,,,,,
TX,HARRIS,20038644,"Single Family Homes",7/6/2020,,170000,,"8602 RUNNING BIRD",HOUSTON,TX,77489,,,"SHOAIB HUSSAIN","4519 PARKWATER COVE",HOUSTON,TX,77479,"(713) 459-6655",Owner,,,,,OWNER,,,,,OWNER,,,,,,,,,
TX,HARRIS,20015052,"Single Family Homes",6/30/2020,,150000,,"5310 SUNBEAM",HOUSTON,TX,77033,,,CONTRACTOR,,,,,,,,,,,"TEAM HBC",,,,,"TEAM HBC","12955 SOUTH FWY",HOUSTON,TX,77047-1900,"(713) 637-4356",,,,
TX,HARRIS,19136056,"Single Family Homes",7/6/2020,,110000,,"926 DEWALT",HOUSTON,TX,77088,,,CONTRACTOR,,,,,,,,,,,"JRSG & COMPANY",,,,,"JRSG & COMPANY","773 DAVIDSON STEET 773",HOUSTON,TX,77091,"(713) 542-9363",,,,
TX,HARRIS,20028549,"Single Family Homes",7/2/2020,,190825,,"5836 KIAM",HOUSTON,TX,77007,,,CONTRACTOR,,,,,,,,,,,"KANSAS INVESTMENTS",,,,,"KANSAS INVESTMENTS","1431 WIRT RD",HOUSTON,TX,77055,"(281) 788-6728",,,,
TX,HARRIS,20048540,"Single Family Homes",6/30/2020,,209000,,"1525 CANTER BAYOU",HOUSTON,TX,77043,,,CONTRACTOR,,,,,,,,,,,"LEGEND HOMES",,,,,"LEGEND HOMES","10410 WINDAMERE LAKES BLVD",HOUSTON,TX,77065-4996,"(281) 671-9060",http://legendhomecorp.com/,"(281) 671-9055",,
TX,HARRIS,20036389,"Single Family Homes",6/30/2020,,252330,,"1011 CROCKER",HOUSTON,TX,77019,,,CONTRACTOR,,,,,,,,,,,"MAZZARINO CONSTRUCTION & DEVELOPMENT",,,,,"MAZZARINO CONSTRUCTION & DEVELOPMENT","7155 OLD KATY RD STE N260",HOUSTON,TX,77024-2257,"(713) 861-1809",,,,
TX,HARRIS,20036390,"Single Family Homes",6/30/2020,,252330,,"1011 CROCKER ST",HOUSTON,TX,77019,,,CONTRACTOR,,,,,,,,,,,"MAZZARINO CONSTRUCTION & DEVELOPMENT",,,,,"MAZZARINO CONSTRUCTION & DEVELOPMENT","7155 OLD KATY RD STE N260",HOUSTON,TX,77024-2257,"(713) 861-1809",,,,
TX,HARRIS,20019874,"Single Family Homes",7/6/2020,,134336,,"7301 HOFFMAN",HOUSTON,TX,77028,,,CONTRACTOR,,,,,,,,,,,"MAYBERRY HOMES",,,,,"MAYBERRY HOMES","4412 ALMEDA RD",HOUSTON,TX,77004-4902,"(713) 523-8585",http://www.mayberryhomes.net,,,
TX,HARRIS,20047755,"Single Family Homes",7/2/2020,,201620,,"3104 FLOWER MARKET ",HOUSTON,TX,77080,,,CONTRACTOR,,,,,,,,,,,"MERITAGE HOMES",,,,,"MERITAGE HOMES","2722 W BITTERS RD STE 220","SAN ANTONIO",TX,78248-1450,"(210) 402-6045",,,,
TX,HARRIS,20025110,"Single Family Homes",6/30/2020,,249475,,"3105 MEADOW MAKER ",HOUSTON,TX,77080,,,CONTRACTOR,,,,,,,,,,,"MERITAGE HOMES",,,,,"MERITAGE HOMES","2901 W SAM HOUSTON PKWY N",HOUSTON,TX,77043-1630,"(713) 357-1184",,,,
TX,HARRIS,20047756,"Single Family Homes",7/6/2020,,209610,,"3106 FLOWER MARKET ",HOUSTON,TX,77080,,,CONTRACTOR,,,,,,,,,,,"MERITAGE HOMES",,,,,"MERITAGE HOMES","2901 W SAM HOUSTON PKWY N",HOUSTON,TX,77043-1630,"(713) 357-1184",,,,
TX,HARRIS,20047769,"Single Family Homes",7/2/2020,,163455,,"3108 FLOWER MARKET ",HOUSTON,TX,77080,,,CONTRACTOR,,,,,,,,,,,"MERITAGE HOMES",,,,,"MERITAGE HOMES","2901 W SAM HOUSTON PKWY N",HOUSTON,TX,77043-1630,"(713) 357-1184",,,,
TX,HARRIS,20016984,"Single Family Homes",6/30/2020,,345000,,"921 BLACKSHIRE ",HOUSTON,TX,77055,,,CONTRACTOR,,,,,,,,,,,"MHI MCGUYER HOMEBUILDERS",,,,,"MHI MCGUYER HOMEBUILDERS","7676 WOODWAY DR",HOUSTON,TX,77063-1526,"(713) 260-4107",,,,
TX,HARRIS,19074910,"Single Family Homes",7/2/2020,,180000,,"2503 HOLLISTER",HOUSTON,TX,77080,,,"ERIK PEREZ","2500 E T C JESTER BLVD",HOUSTON,TX,77008,"(346) 714-0607",Owner,,,,,OWNER,,,,,OWNER,,,,,,,,,
TX,HARRIS,19074909,"Single Family Homes",7/2/2020,,180000,,"2505 HOLLISTER",HOUSTON,TX,77080,,,CONTRACTOR,,,,,,,,,,,"AEM CONSTRUCTION",,,,,"AEM CONSTRUCTION","10042 BRIAR DR",HOUSTON,TX,77042-1207,"(346) 714-0607",,,,
TX,HARRIS,19074908,"Single Family Homes",7/2/2020,,180000,,"2507 HOLLISTER",HOUSTON,TX,77080,,,CONTRACTOR,,,,,,,,,,,"AEM CONSTRUCTION",,,,,"AEM CONSTRUCTION","10042 BRIAR DR",HOUSTON,TX,77042-1207,"(346) 714-0607",,,,
TX,HARRIS,19074906,"Single Family Homes",7/2/2020,,180000,,"2511 HOLLISTER",HOUSTON,TX,77080,,,CONTRACTOR,,,,,,,,,,,"AEM CONSTRUCTION",,,,,"AEM CONSTRUCTION","10042 BRIAR DR",HOUSTON,TX,77042-1207,"(346) 714-0607",,,,
TX,HARRIS,19074904,"Single Family Homes",7/2/2020,,180000,,"2515 HOLLISTER",HOUSTON,TX,77080,,,CONTRACTOR,,,,,,,,,,,"AEM CONSTRUCTION",,,,,"AEM CONSTRUCTION","10042 BRIAR DR",HOUSTON,TX,77042-1207,"(346) 714-0607",,,,
TX,HARRIS,19074903,"Single Family Homes",7/2/2020,,180000,,"2517 HOLLISTER",HOUSTON,TX,77080,,,CONTRACTOR,,,,,,,,,,,"AEM CONSTRUCTION",,,,,"AEM CONSTRUCTION","10042 BRIAR DR",HOUSTON,TX,77042-1207,"(346) 714-0607",,,,
TX,HARRIS,19074902,"Single Family Homes",7/2/2020,,180000,,"2519 HOLLISTER",HOUSTON,TX,77080,,,CONTRACTOR,,,,,,,,,,,"AEM CONSTRUCTION",,,,,"AEM CONSTRUCTION","10042 BRIAR DR",HOUSTON,TX,77042-1207,"(346) 714-0607",,,,
TX,HARRIS,19074900,"Single Family Homes",7/2/2020,,180000,,"2523 HOLLISTER",HOUSTON,TX,77080,,,CONTRACTOR,,,,,,,,,,,"AEM CONSTRUCTION",,,,,"AEM CONSTRUCTION","10042 BRIAR DR",HOUSTON,TX,77042-1207,"(346) 714-0607",,,,
TX,HARRIS,19074899,"Single Family Homes",7/2/2020,,180000,,"2525 HOLLISTER",HOUSTON,TX,77080,,,CONTRACTOR,,,,,,,,,,,"AEM CONSTRUCTION",,,,,"AEM CONSTRUCTION","10042 BRIAR DR",HOUSTON,TX,77042-1207,"(346) 714-0607",,,,
TX,HARRIS,19074896,"Single Family Homes",7/2/2020,,180000,,"2531 HOLLISTER",HOUSTON,TX,77080,,,CONTRACTOR,,,,,,,,,,,"AEM CONSTRUCTION",,,,,"AEM CONSTRUCTION","10042 BRIAR DR",HOUSTON,TX,77042-1207,"(346) 714-0607",,,,
TX,HARRIS,19074895,"Single Family Homes",7/2/2020,,180000,,"2533 HOLLISTER",HOUSTON,TX,77080,,,CONTRACTOR,,,,,,,,,,,"AEM CONSTRUCTION",,,,,"AEM CONSTRUCTION","10042 BRIAR DR",HOUSTON,TX,77042-1207,"(346) 714-0607",,,,
TX,HARRIS,19074894,"Single Family Homes",7/2/2020,,180000,,"2535 HOLLISTER",HOUSTON,TX,77080,,,CONTRACTOR,,,,,,,,,,,"AEM CONSTRUCTION",,,,,"AEM CONSTRUCTION","10042 BRIAR DR",HOUSTON,TX,77042-1207,"(346) 714-0607",,,,
TX,HARRIS,19074893,"Single Family Homes",7/2/2020,,180000,,"2537 HOLLISTER",HOUSTON,TX,77080,,,CONTRACTOR,,,,,,,,,,,"AEM CONSTRUCTION",,,,,"AEM CONSTRUCTION","10042 BRIAR DR",HOUSTON,TX,77042-1207,"(346) 714-0607",,,,
TX,HARRIS,19074892,"Single Family Homes",7/2/2020,,180000,,"2539 HOLLISTER",HOUSTON,TX,77080,,,CONTRACTOR,,,,,,,,,,,"AEM CONSTRUCTION",,,,,"AEM CONSTRUCTION","10042 BRIAR DR",HOUSTON,TX,77042-1207,"(346) 714-0607",,,,
TX,HARRIS,19074891,"Single Family Homes",7/2/2020,,180000,,"2541 HOLLISTER",HOUSTON,TX,77080,,,CONTRACTOR,,,,,,,,,,,"AEM CONSTRUCTION",,,,,"AEM CONSTRUCTION","10042 BRIAR DR",HOUSTON,TX,77042-1207,"(346) 714-0607",,,,
TX,HARRIS,19074890,"Single Family Homes",7/2/2020,,180000,,"2543 HOLLISTER",HOUSTON,TX,77080,,,CONTRACTOR,,,,,,,,,,,"AEM CONSTRUCTION",,,,,"AEM CONSTRUCTION","10042 BRIAR DR",HOUSTON,TX,77042-1207,"(346) 714-0607",,,,
TX,HARRIS,19074888,"Single Family Homes",7/2/2020,,180000,,"2547 HOLLISTER",HOUSTON,TX,77080,,,CONTRACTOR,,,,,,,,,,,"AEM CONSTRUCTION",,,,,"AEM CONSTRUCTION","10042 BRIAR DR",HOUSTON,TX,77042-1207,"(346) 714-0607",,,,
TX,HARRIS,19074887,"Single Family Homes",7/2/2020,,180000,,"2549 HOLLISTER",HOUSTON,TX,77080,,,CONTRACTOR,,,,,,,,,,,"AEM CONSTRUCTION",,,,,"AEM CONSTRUCTION","10042 BRIAR DR",HOUSTON,TX,77042-1207,"(346) 714-0607",,,,
TX,HARRIS,19074907,"Single Family Homes",7/2/2020,,180000,,"2509 HOLLISTER",HOUSTON,TX,77080,,,CONTRACTOR,,,,,,,,,,,"AEM CONSTRUCTION",,,,,"AEM CONSTRUCTION","10042 BRIAR DR",HOUSTON,TX,77042-1207,"(346) 714-0607",,,,
TX,HARRIS,20033284,"Single Family Homes",7/2/2020,,125000,,"4210 SHELBY",HOUSTON,TX,77051,,,CONTRACTOR,,,,,,,,,,,"TEAM HBC",,,,,"TEAM HBC","12955 SOUTH FWY",HOUSTON,TX,77047-1900,"(713) 637-4356",,,,
TX,HARRIS,19017440,"Single Family Homes",7/1/2020,,200000,,"3509 LANNISTER ",HOUSTON,TX,77055,,,CONTRACTOR,,,,,,,,,,,"RIVERWAY BUILDERS",,,,,"RIVERWAY BUILDERS","1027 YALE ST",HOUSTON,TX,77008-6989,"(713) 621-6111",,,,
TX,HARRIS,19017451,"Single Family Homes",7/1/2020,,200000,,"3511 LANNISTER ",HOUSTON,TX,77055,,,CONTRACTOR,,,,,,,,,,,"RIVERWAY BUILDERS",,,,,"RIVERWAY BUILDERS","1027 YALE ST",HOUSTON,TX,77008-6989,"(713) 621-6111",,,,
TX,HARRIS,19147627,"Single Family Homes",7/2/2020,,234000,,"1214 W 21ST",HOUSTON,TX,77008,,,CONTRACTOR,,,,,,,,,,,"M&G CONSTRUCTION & REMODELING",,,,,"M&G CONSTRUCTION & REMODELING","2218 BROOK VIEW LN","SUGAR LAND",TX,77479,"(832) 576-8615",,,,
TX,HARRIS,19147636,"Single Family Homes",7/2/2020,,234000,,"1232 W 21ST",HOUSTON,TX,77008,,,CONTRACTOR,,,,,,,,,,,"M&G CONSTRUCTION & REMODELING",,,,,"M&G CONSTRUCTION & REMODELING","2218 BROOK VIEW LN","SUGAR LAND",TX,77479,"(832) 576-8615",,,,
TX,HARRIS,19147637,"Single Family Homes",7/2/2020,,234000,,"1234 MAIN ST",HOUSTON,TX,77008,,,CONTRACTOR,,,,,,,,,,,"M&G CONSTRUCTION & REMODELING",,,,,"M&G CONSTRUCTION & REMODELING","2218 BROOK VIEW LN","SUGAR LAND",TX,77479,"(832) 576-8615",,,,
TX,HARRIS,19147638,"Single Family Homes",7/2/2020,,234000,,"1236 W 21ST",HOUSTON,TX,77008,,,CONTRACTOR,,,,,,,,,,,"M&G CONSTRUCTION & REMODELING",,,,,"M&G CONSTRUCTION & REMODELING","2218 BROOK VIEW LN","SUGAR LAND",TX,77479,"(832) 576-8615",,,,
TX,HARRIS,20018277,"Single Family Homes",7/1/2020,,215238,,"211 E 30TH",HOUSTON,TX,77018,,,CONTRACTOR,,,,,,,,,,,"VERTEX DEVELOPMENT",,,,,"VERTEX DEVELOPMENT","1517 SAULNIER ST",HOUSTON,TX,77019-4531,"(713) 397-9753",,,,
TX,HARRIS,19136518,"Single Family Homes",7/2/2020,,116745,,"3801 LOVE",HOUSTON,TX,77026,,,"DAGINS ROSA","3801 LOVE",HOUSTON,TX,77026,,Owner,,,,,"CROWN RIDGE BUILDERS",,,,,"CROWN RIDGE BUILDERS","28618 FM 2920",HOUSTON,TX,77484,"(281) 682-5593",,,,
TX,HARRIS,20050453,"Single Family Homes",7/1/2020,,432000,,"410 GRETEL",HOUSTON,TX,77024,,,"DUPRES JASON","410 GRETEL",HOUSTON,TX,77024,,Owner,,,,,"KINSMEN HOMES",,,,,"KINSMEN HOMES","8554 KATY FWY STE 309",HOUSTON,TX,77024-1857,"(888) 880-8732",http://www.kinsmenhomes.com/,,,Info@KinsmenHomes.com
TX,HARRIS,20022359,"Single Family Homes",7/2/2020,,140000,,"7411 EAGLE PASS",HOUSTON,TX,77020,,,"ESTRADA MARTHA","7411 EAGLE PASS",HOUSTON,TX,77020,,Owner,,,,,"DSW HOMES",,,,,"DSW HOMES","12607 N",HOUSTON,TX,77034,"(832) 385-0069",http://www.dswhomes.com/,,,
TX,HARRIS,19120240,"Single Family Homes",7/1/2020,,85000,,"7312 KNOX",HOUSTON,TX,77088,,,"GARZA LUIS","7312 KNOX",HOUSTON,TX,77088,"(832) 310-8133",Owner,,,,,OWNER,,,,,OWNER,,,,,,,,,
TX,HARRIS,20042522,"Single Family Homes",6/30/2020,,177000,,"5713 SUDAN",HOUSTON,TX,77020,,,"GLOVER DEIDRE","1315 HUNTER GREEN",HOUSTON,TX,77020,"(281) 701-8173",Owner,,,,,OWNER,,,,,OWNER,,,,,,,,,
TX,HARRIS,19123608,"Single Family Homes",7/2/2020,,570520,,"6147 QUEENSWOOD",HOUSTON,TX,77008,,,"HUGHES WILLIAM ZACHARY","6147 QUEENSWOOD",HOUSTON,TX,77008,,Owner,,,,,OWNER,,,,,OWNER,,,,,,,,,
TX,HARRIS,20052067,"Single Family Homes",7/2/2020,,466200,,"4058 FALKIRK",HOUSTON,TX,77025,,,"JAMES JASON","4058 FALKIRK",HOUSTON,TX,77025,,Owner,,,,,"BAS CONCEPTS",,,,,"BAS CONCEPTS","4545 BISSONNET ST STE 265",BELLAIRE,TX,77401-3005,"(713) 664-2600",http://www.basconcepts.com,"(713) 664-2601",,sales@basconcepts.com
TX,HARRIS,20040920,"Single Family Homes",7/2/2020,,138950,,"5729 JUSTIN",HOUSTON,TX,77016,,,"MACIEL RAUL","5729 JUSTIN",HOUSTON,TX,77016,"(281) 781-3643",Owner,,,,,OWNER,,,,,OWNER,,,,,,,,,
TX,HARRIS,20040535,"Single Family Homes",7/2/2020,,199668,,"3305 FIDELITY",HOUSTON,TX,77029,,,"MONTALVO MARIA","3305 FIDELITY",HOUSTON,TX,77029,,Owner,,,,,OWNER,,,,,OWNER,,,,,,,,,
TX,HARRIS,20051943,"Single Family Homes",7/2/2020,,203000,,"4723 TAVENOR",HOUSTON,TX,77048,,,"NAVA LUIS","4723 TAVENOR",HOUSTON,TX,77048,,Owner,,,,,OWNER,,,,,OWNER,,,,,,,,,
TX,HARRIS,19120227,"Single Family Homes",7/2/2020,,130000,,"7925 TOWER",HOUSTON,TX,77088,,,"RIDEAUX FREDRICK","7925 TOWER",HOUSTON,TX,77088,,Owner,,,,,"JAMES GRIFFIN",,,,,"JAMES GRIFFIN","15155 105",HOUSTON,TX,77659,"(409) 240-2123",,,,
TX,HARRIS,20036544,"Single Family Homes",7/1/2020,,564640,,"5006 HEATHERGLEN",HOUSTON,TX,77096,,,"SANLEY OSCAR","5006 HEATHERGLEN",HOUSTON,TX,77096,,Owner,,,,,OWNER,,,,,OWNER,,,,,,,,,
TX,HARRIS,20024337,"Single Family Homes",7/6/2020,,700020,,"7547 INWOOD",HOUSTON,TX,77063,,,"TAMBORELLO JUNE","7547 INWOOD",HOUSTON,TX,77063,"(281) 413-8303",Owner,,,,,OWNER,,,,,OWNER,,,,,,,,,
TX,HARRIS,20042378,"Single Family Homes",7/6/2020,,268000,,"5729 HOWELL",HOUSTON,TX,77032,,,"VELASQUEZ RUDY ROBERTO","4720 ALDINE MAIL RD",HOUSTON,TX,77032,"(281) 635-1684",Owner,,,,,OWNER,,,,,OWNER,,,,,,,,,
TX,HARRIS,20002390,"Single Family Homes",7/1/2020,,391765,,"722 CARRIAGE VIEW",HOUSTON,TX,77336,,,"WISCHER JAMES","722 CARRIAGE VIEW",HOUSTON,TX,77336,,Owner,,,,,"CARETEX CUSTOM BUILDERS",,,,,"CARETEX CUSTOM BUILDERS","466 RAYFORD RD STE 108",SPRING,TX,77386-3254,"(281) 419-2211",http://caretexcustombuilders.com/,,,caretexcustombuilders@gmail.com
TX,HARRIS,1912050201,"Warehouse & Manufacturing",6/16/2020,,336600,11900,"18901 KUYKENDAHL RD",HOUSTON,TX,77356,"KUYKENDAHL STORAGE",,"DON SKIPTON","18901 KUYKENDAHL RD",HOUSTON,TX,77356,,Owner,,,,,OWNER,,,,,OWNER,,,,,,,,,
TX,HARRIS,2001030039,"Warehouse & Manufacturing",6/16/2020,,150000,2000,"23801 CYPRESSWOOD DR",HOUSTON,TX,77356,,,"AZZ  STORAGE","23801 CYPRESSWOOD DR",HOUSTON,TX,77356,,Owner,,,,,OWNER,,,,,OWNER,,,,,,,,,
TX,HARRIS,20042464,"Warehouse & Manufacturing",7/6/2020,Renovation,3200000,,"4660 NORTH SAM HOUSTON EAST PKY",HOUSTON,TX,77002,,,CONTRACTOR,,,,,,,,,,,"EASTGROUP PROPERTIES",,,,,"EASTGROUP PROPERTIES","4220 WORLD HOUSTON PKWY STE 170",HOUSTON,TX,77032-2492,"(281) 987-7200",http://www.eastgroup.net/,"(281) 987-7207",,
TX,HARRIS,18050406,"Warehouse & Manufacturing",7/1/2020,,349575,,"3609 E CROSSTIMBERS ST",HOUSTON,TX,77093,,,"VSTEEL GROUP LLC","3233 FRICK",HOUSTON,TX,77086,"(281) 999-8810",Applicant,,,,,OWNER,,,,,OWNER,,,,,,,,,
