state,county,permno,ptype,pdate,pdescription,jvalue,jsqfeet,jaddr,jcity,jstate,jzip,jsubdiv,jlotno,aname,aaddr,acity,astate,azip,aphone,atype,aurl,afax,aprimarycontact,aemail,bldcode,units,bldgs,ctype,legal,contractor,caddress,ccity,cstate,czip,cphone,curl,cfax,cprimarycontact,cemail
TX,BELL,FY-20-34-DUPX,"Duplex, Triplex, & Fourplex",7/8/2020,,100000,1860,"1601 E BARTON AVE A",TEMPLE,TX,76501,,,CONTRACTOR,,,,,,,,,,,"BRUGGMAN CONSTRUCTION",,,,,"BRUGGMAN CONSTRUCTION","19885 STATE HIGHWAY 95",HOLLAND,TX,76534,"(254) 760-2509",,,,
TX,MONTGOMERY,20201104,"Hospital & Other Medical",4/16/2020,,233120,,"910 MEDICAL PLAZA DR",SHENANDOAH,TX,77385,,,"MEMORIAL HERMAN","910 MEDICAL PLAZA DR",SHENANDOAH,TX,77385,,Owner,,,,,OWNER,,,,,OWNER,,,,,,,,,
TX,MONTGOMERY,20201209,"Hospital & Other Medical",6/10/2020,,423800,,"9303 PINECROFT DR 320",SHENANDOAH,TX,77385,,,"TEXAS REGIONAL UROLOGY","9303 PINECROFT DRIVE 320",SHENANDOAH,TX,77385,,Owner,,,,,OWNER,,,,,OWNER,,,,,,,,,
TX,BRAZOS,CNEW2019-000012,"Hospital & Other Medical",6/23/2020,,111647,,"8175 ATLAS PEAR DR GAR 5","COLLEGE STATION",TX,77385,,,CONTRACTOR,,,,,,,,,,,"HENSLEY LAMKIN RACHEL",,,,,"HENSLEY LAMKIN RACHEL","14881 QUORUM DR STE 550",DALLAS,TX,75254-7092,"(972) 726-9400",http://www.hlrinc.net/,,"ROBERT LAMKIN",INFO@HLRINC.NETMAP
TX,WALKER,"2020- 01106","Hospital & Other Medical",6/16/2020,,465598,,"291 A IH 45 STE A",HUNTSVILLE,TX,77340,,,CONTRACTOR,,,,,,,,,,,"UNITED CONSTRUCTORS OF TEXAS",,,,,"UNITED CONSTRUCTORS OF TEXAS","6989 W LITTLE YORK RD STE F",HOUSTON,TX,77040-4847,"(713) 934-9929",,"(713) 934-9939","STANLEY GINES",
TX,WALKER,"2020- 01386","Hospital & Other Medical",6/19/2020,,288600,,"227 B SH 75 STE 130",HUNTSVILLE,TX,77340,,,CONTRACTOR,,,,,,,,,,,"IN PACE BUILDERS",,,,,"IN PACE BUILDERS","1405 SOUTHWOOD DRIVE",HUNTSVILLE,TX,77340,"(936) 295-5898",https://www.inpacebuilders.com/,,,emilydemill@yahoo.com
TX,MONTGOMERY,20201020,"Multi Family Apartments & Condos",1/9/2020,,3624279,,"8900 SIX PINES DR",SHENANDOAH,TX,77385,,,CONTRACTOR,,,,,,,,,,,"MCRT INVESTMENTS",,,,,"MCRT INVESTMENTS","5910 N CENTRAL EXPY STE 1100",DALLAS,TX,75206,"(561) 998-4451",,,,
TX,WALKER,"2020- 01332","Multi Family Apartments & Condos",6/16/2020,,1260998,,"1312 17TH ST",HUNTSVILLE,TX,77340,,,CONTRACTOR,,,,,,,,,,,"LDF CONSTRUCTION",,,,,"LDF CONSTRUCTION","25275 BUDDE RD STE 6",SPRING,TX,77380-2287,"(281) 353-0936",http://ldfconstruction.com,"(281) 353-2482",,kfoster@ldfconstruction.com
TX,BRAZOS,CNEW2020-000005,"Offices, R&D, & Professional",6/19/2020,,32000000,,"1101 TEXAS AVE","COLLEGE STATION",TX,77845,,,CONTRACTOR,,,,,,,,,,,"CORE CONSTRUCTION",,,,,"CORE CONSTRUCTION","10625 N COUNTY RD",FRISCO,TX,75033,"(972) 668-9340",,,,
TX,BELL,FY-20-11-BDFO,"Offices, R&D, & Professional",7/8/2020,,500000,,"6768 W ADAMS AVE 104",TEMPLE,TX,77356,,,CONTRACTOR,,,,,,,,,,,"LINGLE DESIGN GROUP",,,,,"LINGLE DESIGN GROUP","1860 W EVANS AVE",ENGLEWOOD,CO,80110-1019,"(303) 974-5873",http://lingledesign.com/,,"MICHAEL PUCKETT",
TX,MONTGOMERY,173741-20,"Offices, R&D, & Professional",7/8/2020,,3800000,,"895 FISH CREEK THOROUGHFARE",HOUSTON,TX,77356,WOODFOREST,,"TOM BAIKER","15810 PARK TEN PLACE #300",HOUSTON,TX,77356,,Owner,,,,,OWNER,,,,,OWNER,,,,,,,,,
TX,MONTGOMERY,20201207,"Other Commercial",5/8/2020,,196260,,"121 VISON PARK 300",SHENANDOAH,TX,77385,,,"ORBIS EDUCATION","121 VISON PARK 300",SHENANDOAH,TX,77385,,Owner,,,,,OWNER,,,,,OWNER,,,,,,,,,
TX,BRAZOS,CACC2020-000013,"Other Commercial",6/8/2020,,90000,,"279 ESTATES CIR","COLLEGE STATION",TX,77385,,,CONTRACTOR,,,,,,,,,,,"MASTERS TOUCH CUSTOM HOMES",,,,,"MASTERS TOUCH CUSTOM HOMES","2204 BEE CREEK RD",SPICEWOOD,TX,78669,"(512) 999-5591",,,,
TX,BRAZOS,2020-000060,"Other Commercial",6/8/2020,,35773,,"2200 RIO GRANDE BLVD","COLLEGE STATION",TX,77845,,,CONTRACTOR,,,,,,,,,,,"AIR CLEANING TECHNOLOGIES",,,,,"AIR CLEANING TECHNOLOGIES","44966 FALCON PL STE 190",STERLING,VA,20166,"(703) 547-1680",,,,
TX,BRAZOS,RMDL2020-000070,"Other Commercial",6/15/2020,,69393,,"1550 GEORGE BUSH DR W","COLLEGE STATION",TX,77845,,,CONTRACTOR,,,,,,,,,,,"AIR CLEANING TECHNOLOGIES",,,,,"AIR CLEANING TECHNOLOGIES","44966 FALCON PL STE 190",STERLING,VA,20166,"(703) 547-1680",,,,
TX,BRAZOS,CNEW2019-000013,"Parking Structures & Carports",6/23/2020,,111647,,"8175 ATLAS PEAR DR GAR 2","COLLEGE STATION",TX,77845,,,CONTRACTOR,,,,,,,,,,,"HENSLEY LAMKIN RACHEL",,,,,"HENSLEY LAMKIN RACHEL","14881 QUORUM DR STE 550",DALLAS,TX,75254-7092,"(972) 726-9400",http://www.hlrinc.net/,,"ROBERT LAMKIN",INFO@HLRINC.NETMAP
TX,BRAZOS,CNEW2019-000014,"Parking Structures & Carports",6/23/2020,,111647,,"8175 ATLAS PEAR DR GAR 6","COLLEGE STATION",TX,77845,,,CONTRACTOR,,,,,,,,,,,"HENSLEY LAMKIN RACHEL",,,,,"HENSLEY LAMKIN RACHEL","14881 QUORUM DR STE 550",DALLAS,TX,75254-7092,"(972) 726-9400",http://www.hlrinc.net/,,"ROBERT LAMKIN",INFO@HLRINC.NETMAP
TX,MONTGOMERY,20201067,"Parks, Recreation, Entertainment, & RV Park",3/13/2020,,36900,,"9250 PINECROFT DR",SHENANDOAH,TX,77385,,,"MEMORIAL HERMANN","9250 PINECROFT DR",SHENANDOAH,TX,77385,,Owner,,,,,OWNER,,,,,OWNER,,,,,,,,,
TX,BRAZOS,CTFO2020-000012,"Parks, Recreation, Entertainment, & RV Park",6/19/2020,,250000,,"1103 ROCK PRAIRIE RD 2051","COLLEGE STATION",TX,77845,"SOUTHWOOD HOLDINGS",,CONTRACTOR,,,,,,,,,,,"PACT DESIGN STUDIO",,,,,"PACT DESIGN STUDIO","105 N MAIN ST STE 121",BRYAN,TX,77803-3235,"(979) 704-6894",http://www.pactdesignstudio.com/,,,
TX,MONTGOMERY,20201297,"Residential Renovations & Additions",6/18/2020,Renovation,150000,,"742 SADDLEWOOD CIR",SHENANDOAH,TX,77385,,,"ARYANNA AMINI","742 SADDLEWOOD CIR",SHENANDOAH,TX,77385,,Owner,,,,,OWNER,,,,,OWNER,,,,,,,,,
TX,BRAZOS,RMDL2020-000059,"Residential Renovations & Additions",6/8/2020,Renovation,59963,,"304 HOLLEMAN DR E","COLLEGE STATION",TX,77845,,,CONTRACTOR,,,,,,,,,,,"AIR CLEANING TECHNOLOGIES",,,,,"AIR CLEANING TECHNOLOGIES","44966 FALCON PL STE 190",STERLING,VA,20166,"(703) 547-1680",,,,
TX,BRAZOS,RMDL2020-000053,"Residential Renovations & Additions",6/11/2020,Renovation,117145,,"15290 POST OAK BEND","COLLEGE STATION",TX,77845,,,"BLAKE & SANDRA SMITH","15290 POST OAK BEND","COLLEGE STATION",TX,77845,,Owner,,,,,"H BOND CONSTRUCTION",,,,,"H BOND CONSTRUCTION","3805 RANGER DR # B",BRYAN,TX,77801-3624,"(979) 778-1996",,"(979) 846-2736","HOWARD BOND",
TX,BRAZOS,RADD2020-000019,"Residential Renovations & Additions",6/16/2020,Renovation,45000,,"1305 HAINES DR","COLLEGE STATION",TX,77845,,,"JAMES & SUE MELTON","1305 HAINES DR","COLLEGE STATION",TX,77845,,Owner,,,,,"RONNIE WHITE CUSTOM HOME BUILDING",,,,,"RONNIE WHITE CUSTOM HOME BUILDING","4742 JOHNSON CREEK LOOP","COLLEGE STATION",TX,77845-3889,"(979) 777-1585",http://ronniewhitechb.com/,,,
TX,BRAZOS,RMDL2020-000073,"Residential Renovations & Additions",6/17/2020,Renovation,80000,,"8101 BUNKER HILL CT","COLLEGE STATION",TX,77845,,,"RICKY & BETH LEOPOLD","8101 BUNKER HILL CT","COLLEGE STATION",TX,77845,,Owner,,,,,"JDB CONTRACTING",,,,,"JDB CONTRACTING","2116 FOUNTAIN AVE",BRYAN,TX,77801-1119,"(979) 822-6317",,"(979) 822-6318",,
TX,MONTGOMERY,173255-20,"Residential Renovations & Additions",6/18/2020,Renovation,50000,,"20845 BARBARA LN",HOUSTON,TX,77356,"FLAMINGO LAKES",,"JUAN RODRIGUEZ","1605 CAMILLE ST",PASADENA,TX,77506,,Owner,,,,,OWNER,,,,,OWNER,,,,,,,,,
TX,BELL,FY-20-131-BDRR,"Residential Renovations & Additions",7/14/2020,Renovation,,2250,"3710 INDIAN GROVE DR",TEMPLE,TX,76501,,,"JOY SOLOMON","3710 INDIAN GROVE DR",TEMPLE,TX,76501,,Owner,,,,,OWNER,,,,,OWNER,,,,,,,,,
TX,BELL,FY-20-133-BDRR,"Residential Renovations & Additions",7/17/2020,Renovation,233420,3144,"112 VIVA DR",TEMPLE,TX,76501,,,CONTRACTOR,,,,,,,,,,,"DR HORTON",,,,,"DR HORTON","14100 SOUTHWEST",HOUSTON,TX,77478,"(281) 201-5559",,,,
TX,WALKER,"2020- 01276","Residential Renovations & Additions",6/11/2020,Addition,280000,,"2715 LAKE RD",HUNTSVILLE,TX,77340,,,CONTRACTOR,,,,,,,,,,,"LEGACY BUILDERS",,,,,"LEGACY BUILDERS","3845 CYPRESS CREEK PKWY STE 257",HOUSTON,TX,77068-3573,"(281) 397-6100",http://www.legacyconstruction-roofing.com/,"(281) 397-6101",,tc.legacyconstruction@gmail.com
TX,WALKER,"2020- 01438","Residential Renovations & Additions",6/26/2020,Renovation,750000,,"2801 SAM HOUSTON AVE",HUNTSVILLE,TX,77340,,,"WELDON D WALLACE","2801 SAM HOUSTON AVE",HUNTSVILLE,TX,77340,,Owner,,,,,OWNER,,,,,OWNER,,,,,,,,,
TX,WALKER,"2020- 01183","Residential Renovations & Additions",6/1/2020,Renovation,50000,,"919 B FISH HATCHERY RD",HUNTSVILLE,TX,77340,,,"DOUGLAS FRANKLIN","919 B FISH HATCHERY RD",HUNTSVILLE,TX,77340,,Owner,,,,,"TEXAS STAR CONTRACTORS",,,,,"TEXAS STAR CONTRACTORS","PO BOX 375",JOSHUA,TX,76058-0375,"(817) 498-7372",http://www.txstarcon.com/,"(817) 498-9086","TIM TATUM",
TX,WALKER,"2020- 01348","Residential Renovations & Additions",6/16/2020,Renovation,40000,,"2027 AVE Q",HUNTSVILLE,TX,77340,,,"ROBERT THOMPSON","2027 AVE Q",HUNTSVILLE,TX,77340,,Owner,,,,,"STEVE GOETZ",,,,,"STEVE GOETZ","166 WILLOW CREEK DR",HUNTSVILLE,TX,77340-9617,"(936) 539-8954",,,,
TX,WALKER,"2020- 01391","Residential Renovations & Additions",6/22/2020,Renovation,40100,,"1876 ROLLINGWOOD DR",HUNTSVILLE,TX,77340,,,"MARK & ROBIN BISCAMP","1876 ROLLINGWOOD DR",HUNTSVILLE,TX,77340,,Owner,,,,,"LONESTAR INTERIORS",,,,,"LONESTAR INTERIORS","809 FM 2821 RD W",HUNTSVILLE,TX,77320,"(936) 295-3797",,,,
TX,WALKER,"2020- 01396","Residential Renovations & Additions",6/22/2020,Renovation,39600,,"1006 CHEVY CHASE",HUNTSVILLE,TX,77340,,,"GLENN JESKE","1006 CHEVY CHASE",HUNTSVILLE,TX,77340,,Owner,,,,,"WHITE RHINO CONTRACTING",,,,,"WHITE RHINO CONTRACTING","38 ECHO LN",HUNTSVILLE,TX,77320-1628,"(936) 714-2783",,,,
TX,WALKER,"2020- 01463","Residential Renovations & Additions",6/30/2020,Renovation,73000,,"115 SENDERO DR",HUNTSVILLE,TX,77340,,,"EDWARD SMITH","115 SENDERO DR",HUNTSVILLE,TX,77340,,Owner,,,,,"LEE BROTHERS CONSTRUCTION",,,,,"LEE BROTHERS CONSTRUCTION","3011 HIGHWAY 30 W STE 101-105",HUNTSVILLE,TX,77340-3534,"(936) 755-2737",http://www.leebrothersconstruction.com/,,"RUSSELL LEE",
TX,MONTGOMERY,173567-20,"Residential Renovations & Additions",7/1/2020,Renovation,40000,,"23688 MANION DR",HOUSTON,TX,77356,,,"LUIS CURA","23688 MANION DR","NEW CANEY",TX,77356,,Owner,,,,,OWNER,,,,,OWNER,,,,,,,,,
TX,MONTGOMERY,173625-20,"Residential Renovations & Additions",7/7/2020,Renovation,50000,,"26307 HUNTERS TR",HOUSTON,TX,77356,"PEACH CREEK FOREST",,"CLARIBEL MONTOYA","26307 HUNTERS TR",HOUSTON,TX,77356,,Owner,,,,,"CP DIRT WORKS",,,,,"CP DIRT WORKS","405 S FRANKLIN AVE",CLEVELAND,TX,77327,"(281) 659-0309",,,,
TX,MONTGOMERY,173608-20,"Residential Renovations & Additions",1/6/2020,Renovation,50000,,"15501 FOREST TRACE NORTH DR",HOUSTON,TX,77356,"FOREST TRACE",,"ERICK HERNANDEZ","1007 N 9TH ST",CONROE,TX,77301,,Owner,,,,,OWNER,,,,,OWNER,,,,,,,,,
TX,HARRIS,2005180029,"Residential Swimming Pools & Spas",6/16/2020,,38233,,"19707 CASTLEGAP CT",HOUSTON,TX,77356,"GLEANNLOCH FARMS",,"LINDSEY VAUGHN","19707 CASTLEGAP CT",HOUSTON,TX,77356,,Owner,,,,,OWNER,,,,,OWNER,,,,,,,,,
TX,HARRIS,2004130117,"Residential Swimming Pools & Spas",6/16/2020,,80315,590,"86 GILDWOOD PL",HOUSTON,TX,77356,"THE WOODLANDS CREEKSIDE PARK",,"BOB & LINDA ANDERSON","86 GILDWOOD PL",HOUSTON,TX,77356,,Owner,,,,,OWNER,,,,,OWNER,,,,,,,,,
TX,HARRIS,2006010064,"Residential Swimming Pools & Spas",6/16/2020,,50000,,"20903 GOLDEN SYCAMORE TRL",HOUSTON,TX,77356,"FAIRFIELD VILLAGE",,"MICHAEL AND COREY GUERRERO","20903 GOLDEN SYCAMORE TRL",HOUSTON,TX,77356,,Owner,,,,,OWNER,,,,,OWNER,,,,,,,,,
TX,HARRIS,2006020050,"Residential Swimming Pools & Spas",6/16/2020,,61448,360,"20318 TANGALA DR",HOUSTON,TX,77356,"FALLS AT DRY CREEK",,TATE,"20318 TANGALA DR",HOUSTON,TX,77356,,Owner,,,,,OWNER,,,,,OWNER,,,,,,,,,
TX,HARRIS,2006020023,"Residential Swimming Pools & Spas",6/16/2020,,46200,,"14918 DUNWOODY BND",HOUSTON,TX,77356,"LONGWOOD VILLAGE",,"SHIRLEY ROGERS","14918 DUNWOODY BND",HOUSTON,TX,77356,,Owner,,,,,OWNER,,,,,OWNER,,,,,,,,,
TX,HARRIS,2006010032,"Residential Swimming Pools & Spas",6/16/2020,,49000,,"18023 SALT MEADOW LN",HOUSTON,TX,77356,"NEWPORT COURT",,"DENNIS MATIAS","18023 SALT MEADOW LN",HOUSTON,TX,77356,,Owner,,,,,OWNER,,,,,OWNER,,,,,,,,,
TX,HARRIS,2005240003,"Residential Swimming Pools & Spas",6/16/2020,,30000,,"6806 EAST AUGUSTA PINES PKWY",HOUSTON,TX,77356,"AUGUSTA PINES",,"DALE G READ JR","6806 EAST AUGUSTA PINES PKWY",HOUSTON,TX,77356,,Owner,,,,,OWNER,,,,,OWNER,,,,,,,,,
TX,HARRIS,2006150049,"Residential Swimming Pools & Spas",6/16/2020,,50000,,"24823 PIKECREST DR",HOUSTON,TX,77356,"VILLAGE OF AUBURN LAKES",,"DAVID AND MARIE PEREZ","24823 PIKECREST DR",HOUSTON,TX,77356,,Owner,,,,,OWNER,,,,,OWNER,,,,,,,,,
TX,HARRIS,2006220028,"Residential Swimming Pools & Spas",6/16/2020,,31250,,"10 TAHOE SHORES CT",HOUSTON,TX,77356,"KINGS LAKE ESTATES",,MCFERRIN,"10 TAHOE SHORES CT",HOUSTON,TX,77356,,Owner,,,,,OWNER,,,,,OWNER,,,,,,,,,
TX,HARRIS,2006170102,"Residential Swimming Pools & Spas",6/16/2020,,69075,,"21746 E CAROLINA GREEN DR",HOUSTON,TX,77356,"FAIRFIELD VILLAGE ",,"BRETT COOLEY","21746 E CAROLINA GREEN DR",HOUSTON,TX,77356,,Owner,,,,,OWNER,,,,,OWNER,,,,,,,,,
TX,HARRIS,20200261,"Residential Swimming Pools & Spas",6/5/2020,,,686,"12015 SURREY LN","BUNKER HILL VILLAGE",TX,77024,,,"MIKE METZKER","12015 SURREY LN","BUNKER HILL VILLAGE",TX,77024,,Owner,,,,,OWNER,,,,,OWNER,,,,,,,,,
TX,MONTGOMERY,20201276,"Residential Swimming Pools & Spas",6/19/2020,,40000,,"18850 DAVID MEMORIAL DR",SHENANDOAH,TX,77385,,,"FLOURISH HOSPITALITY","18850 DAVID MEMORIAL DR",SHENANDOAH,TX,77385,,Owner,,,,,OWNER,,,,,OWNER,,,,,,,,,
TX,BRAZOS,POOL2020-000042,"Residential Swimming Pools & Spas",6/4/2020,,70000,,"2615 CHILLINGHAM CT","COLLEGE STATION",TX,77385,,,"SHANE & JENNIFER LECHLER","2615 CHILLINGHAM CT","COLLEGE STATION",TX,77385,,Owner,,,,,"THE POOL GUY",,,,,"THE POOL GUY","2151 HARVEY MITCHELL PKWY S STE 313","COLLEGE STATION",TX,77840-5243,"(979) 575-6200",,,,
TX,BRAZOS,POOL2020-000051,"Residential Swimming Pools & Spas",6/5/2020,,40000,,"4408 SPRING MEADOWS DR","COLLEGE STATION",TX,77385,,,"JUDY & DOUGLAS GRAVES","4408 SPRING MEADOWS DR","COLLEGE STATION",TX,77385,,Owner,,,,,"SUNSHINE FUN POOLS ",,,,,"SUNSHINE FUN POOLS ","4200 STATE HIGHWAY 6 S","COLLEGE STATION",TX,77845-8966,"(979) 690-3343",,,,
TX,BRAZOS,POOL2020-000053,"Residential Swimming Pools & Spas",6/8/2020,,40000,,"3512 CROSBY CREEK CT","COLLEGE STATION",TX,77385,,,CONTRACTOR,,,,,,,,,,,"SUNSHINE FUN POOLS ",,,,,"SUNSHINE FUN POOLS ","4200 STATE HIGHWAY 6 S","COLLEGE STATION",TX,77845-8966,"(979) 690-3343",,,,
TX,BRAZOS,POOL2020-000052,"Residential Swimming Pools & Spas",6/9/2020,,30000,,"4222 ROCKY RHODES DR","COLLEGE STATION",TX,77845,,,"JOSHUA & KELLI CONNELL","4222 ROCKY RHODES DR","COLLEGE STATION",TX,77845,,Owner,,,,,"AQUAMARINE POOLS",,,,,"AQUAMARINE POOLS","25730 INTERSTATE 45",HOUSTON,TX,77386,"(281) 734-2543",,,,
TX,BRAZOS,POOL2020-000048,"Residential Swimming Pools & Spas",6/11/2020,,50000,,"817 PLUM HOLLOW DR","COLLEGE STATION",TX,77845,,,"LANDON & CANDY MCGUIRE","817 PLUM HOLLOW DR","COLLEGE STATION",TX,77845,,Owner,,,,,"THE POOL GUY",,,,,"THE POOL GUY","2151 HARVEY MITCHELL PKWY S STE 313","COLLEGE STATION",TX,77840-5243,"(979) 575-6200",,,,
TX,BRAZOS,POOL2020-000054,"Residential Swimming Pools & Spas",6/11/2020,,65000,,"5009 MAIDSTONE CT","COLLEGE STATION",TX,77845,,,"BRYAN & ALI MASSEY","5009 MAIDSTONE CT","COLLEGE STATION",TX,77845,,Owner,,,,,"THE POOL GUY",,,,,"THE POOL GUY","2151 HARVEY MITCHELL PKWY S STE 313","COLLEGE STATION",TX,77840-5243,"(979) 575-6200",,,,
TX,BRAZOS,POOL2020-000055,"Residential Swimming Pools & Spas",6/11/2020,,80000,,"15504 POST OAK BEND","COLLEGE STATION",TX,77845,,,"KERMIT & DUSTI RIEWE","15504 POST OAK BEND","COLLEGE STATION",TX,77845,,Owner,,,,,"MAROON POOLS & CO",,,,,"MAROON POOLS & CO","707 TEXAS AVE S STE 205D","COLLEGE STATION",TX,77840-1980,"(979) 220-0524",https://www.maroonpoolsco.com/,,,info@maroonpoolsco.com
TX,BRAZOS,POOL2020-000058,"Residential Swimming Pools & Spas",6/10/2020,,40000,,"4207 CEDAR CREEK CT","COLLEGE STATION",TX,77845,,,"SCOTT & MEGAN MASON","4207 CEDAR CREEK CT","COLLEGE STATION",TX,77845,,Owner,,,,,"SUNSHINE FUN POOLS ",,,,,"SUNSHINE FUN POOLS ","4200 STATE HIGHWAY 6 S","COLLEGE STATION",TX,77845-8966,"(979) 690-3343",,,,
TX,BRAZOS,POOL2020-000059,"Residential Swimming Pools & Spas",6/11/2020,,85000,,"5315 CONGRESSIONAL DR","COLLEGE STATION",TX,77845,,,"JAMES & LAURA GARRETT","5315 CONGRESSIONAL DR","COLLEGE STATION",TX,77845,,Owner,,,,,"THE POOL GUY",,,,,"THE POOL GUY","2151 HARVEY MITCHELL PKWY S STE 313","COLLEGE STATION",TX,77840-5243,"(979) 575-6200",,,,
TX,BRAZOS,POOL2020-000056,"Residential Swimming Pools & Spas",6/12/2020,,70000,,"1925 SPANISH MOSS DR","COLLEGE STATION",TX,77845,,,CONTRACTOR,,,,,,,,,,,"POOLS BY BRANNON",,,,,"POOLS BY BRANNON","PO BOX 6876",BRYAN,TX,77805-6876,"(979) 229-0071",http://www.poolsbybrannon.com/,,,info@PoolsByBrannon.com
TX,BRAZOS,POOL2020-000062,"Residential Swimming Pools & Spas",6/16/2020,,40000,,"804 ROYAL ADELADE DR","COLLEGE STATION",TX,77845,,,"LARRY & DONNA BRONSTAD","804 ROYAL ADELADE DR","COLLEGE STATION",TX,77845,,Owner,,,,,"SUNSHINE FUN POOLS ",,,,,"SUNSHINE FUN POOLS ","4200 STATE HIGHWAY 6 S","COLLEGE STATION",TX,77845-8966,"(979) 690-3343",,,,
TX,BRAZOS,POOL2020-000060,"Residential Swimming Pools & Spas",6/17/2020,,42500,,"15611 LONG CREEK LN","COLLEGE STATION",TX,77845,,,"LANCE & CARLA MITCHELL","15611 LONG CREEK LN","COLLEGE STATION",TX,77845,,Owner,,,,,"BRAZOS LONESTAR POOLS",,,,,"BRAZOS LONESTAR POOLS","13180 CLOVER LN",IOLA,TX,77861-4376,"(979) 268-3989",http://brazoslonestarpoolsbcs.com/,,,info@brazoslonestarpoolsbcs.com
TX,BRAZOS,POOL2020-000061,"Residential Swimming Pools & Spas",6/18/2020,,51000,,"2714 SCATTERBY CV","COLLEGE STATION",TX,77845,,,CONTRACTOR,,,,,,,,,,,"WE CLEAN HOUSTON POOLS",,,,,"WE CLEAN HOUSTON POOLS","11875 W LITTLE YORK RD STE 501",HOUSTON,TX,77041-4736,"(713) 957-8454",,,,
TX,BELL,FY-20-53-POOL,"Residential Swimming Pools & Spas",7/15/2020,,30000,,"1138 IRON GLEN DR",TEMPLE,TX,76501,,,"CANDI WOODUM","1138 IRON GLEN DR",TEMPLE,TX,76501,,Owner,,,,,"TEXAS COOL POOLS",,,,,"TEXAS COOL POOLS","112 N 4TH ST",KILLEEN,TX,76541-6143,"(254) 709-4655",,,,
TX,BELL,FY-20-55-POOL,"Residential Swimming Pools & Spas",7/16/2020,,25000,,"1622 SHADOW CANYON DR",TEMPLE,TX,76501,,,"KEITH & ERIN PEARCE","1622 SHADOW CANYON DR",TEMPLE,TX,76501,,Owner,,,,,POOLS123,,,,,POOLS123,"16393 N IH-35",LORENA,TX,76630,"(855) 794-6123",https://www.pools123.com/,,,
TX,HARRIS,"20 - 0403","Residential Swimming Pools & Spas",7/10/2020,,30000,,"18702 BARBUDA LN","NASSAU BAY",TX,77058,,,"MIKE LOWE","18702 BARBUDA LN","NASSAU BAY",TX,77058,,Owner,,,,,OWNER,,,,,OWNER,,,,,,,,,
TX,BRAZOS,CTFO2020-000016,"Restaurant and Bar",6/15/2020,,125000,,"11663 FM 2154 200","COLLEGE STATION",TX,77845,,,CONTRACTOR,,,,,,,,,,,"AMBIT HOMES",,,,,"AMBIT HOMES","18063 LATIGO CT","COLLEGE STATION",TX,77845-6391,"(979) 429-3552",,,,
TX,BRAZOS,RMDL2020-000064,"Restaurant and Bar",6/18/2020,,90000,,"307 UNIVERSITY DR","COLLEGE STATION",TX,77845,,,CONTRACTOR,,,,,,,,,,,JACODY,,,,,JACODY,"10770 STATE HIGHWAY 30 STE 40","COLLEGE STATION",TX,77845-7939,"(979) 774-5613",,,"CODY MCKEAN",
TX,MONTGOMERY,173841-20,"Restaurant and Bar",7/10/2020,,300000,,"34621 HIGHWAY 249",HOUSTON,TX,77356,"CRIPPLE CREEK FARMS",,"ASHLEY ANDERSON","8910 PRAIRIE DR",HOUSTON,TX,77064,,Owner,,,,,OWNER,,,,,OWNER,,,,,,,,,
TX,MONTGOMERY,173772-20,"Restaurant and Bar",7/9/2020,,300000,,"6538 FM 1488",HOUSTON,TX,77356,"WESTWOOD THREE",,"CHRISTOPHER BURROUGHS","589 W NATIONWIDE BLVD, STE B",COLUMBUS,TX,77356,,Owner,,,,,OWNER,,,,,OWNER,,,,,,,,,
TX,HARRIS,2006010005,Retail,6/16/2020,,375375,5005,"18700 BECKER RD",HOUSTON,TX,77356,,,"BECKER ROAD PLAZA","18700 BECKER RD",HOUSTON,TX,77356,,Owner,,,,,OWNER,,,,,OWNER,,,,,,,,,
TX,HARRIS,2006030063,Retail,6/16/2020,,925000,7992,"20307 WEST RD",HOUSTON,TX,77356,"JOY AND JAG",,"WEST RD C STORE","20307 WEST RD",HOUSTON,TX,77356,,Owner,,,,,OWNER,,,,,OWNER,,,,,,,,,
TX,BRAZOS,CTFO2020-000017,Retail,6/1/2020,,45000,," 2305 LONGMIRE DR 500","COLLEGE STATION",TX,77385,,,CONTRACTOR,,,,,,,,,,,"TDO CONSTRUCTION",,,,,"TDO CONSTRUCTION","5403 GREEN PINES DR",HOUSTON,TX,77066-4213,"(713) 876-2413",,,,
TX,MONTGOMERY,173693-20,Retail,7/8/2020,,900000,,"26244 HWY 105 W",HOUSTON,TX,77356,,,CONTRACTOR,,,,,,,,,,,"MJM ARCHITECTS",,,,,"MJM ARCHITECTS","712 4TH AVE S",NASHVILLE,TN,37210-2022,"(615) 244-8170",http://www.retailarchitecture.com/,"(615) 244-8141","GARY CONWAY",
TX,HARRIS,2006040021,"Single Family Homes",6/16/2020,,324225,2882,"19315 TOBIANO PARK DR",HOUSTON,TX,77356,AMIRA,,CONTRACTOR,,,,,,,,,,,"PERRY HOMES",,,,,"PERRY HOMES","9000 GULF FWY",HOUSTON,TX,77017-7018,"(713) 417-1396",,,,
TX,HARRIS,2006040018,"Single Family Homes",6/16/2020,,2688775,2390,"19422 TOBIANO PARK DR",HOUSTON,TX,77356,AMIRA,,CONTRACTOR,,,,,,,,,,,"PERRY HOMES",,,,,"PERRY HOMES","9000 GULF FWY",HOUSTON,TX,77017-7018,"(713) 417-1396",,,,
TX,HARRIS,2006040017,"Single Family Homes",6/16/2020,,293513,2609,"19426 TOBIANO PARK DR",HOUSTON,TX,77356,AMIRA,,CONTRACTOR,,,,,,,,,,,"PERRY HOMES",,,,,"PERRY HOMES","9000 GULF FWY",HOUSTON,TX,77017-7018,"(713) 417-1396",,,,
TX,HARRIS,2006030092,"Single Family Homes",6/16/2020,,272700,2424,"19330 TOBIANO PARK DR",HOUSTON,TX,77356,AMIRA,,CONTRACTOR,,,,,,,,,,,"PERRY HOMES",,,,,"PERRY HOMES","9000 GULF FWY",HOUSTON,TX,77017-7018,"(713) 417-1396",,,,
TX,HARRIS,2006030103,"Single Family Homes",6/16/2020,,294750,2620,"19410 TOBIANO PARK DR",HOUSTON,TX,77356,AMIRA,,CONTRACTOR,,,,,,,,,,,"PERRY HOMES",,,,,"PERRY HOMES","9000 GULF FWY",HOUSTON,TX,77017-7018,"(713) 417-1396",,,,
TX,HARRIS,2006030110,"Single Family Homes",6/16/2020,,272700,2424,"19806 BRONZE SPUR CT",HOUSTON,TX,77356,AMIRA,,CONTRACTOR,,,,,,,,,,,"PERRY HOMES",,,,,"PERRY HOMES","9000 GULF FWY",HOUSTON,TX,77017-7018,"(713) 417-1396",,,,
TX,HARRIS,2006030123,"Single Family Homes",6/16/2020,,375188,3335,"20127 APPALOOSA HILL DR",HOUSTON,TX,77356,AMIRA,,CONTRACTOR,,,,,,,,,,,"PERRY HOMES",,,,,"PERRY HOMES","9000 GULF FWY",HOUSTON,TX,77017-7018,"(713) 417-1396",,,,
TX,HARRIS,2006030130,"Single Family Homes",6/16/2020,,341325,3034,"13747 PEDERNALES CT",HOUSTON,TX,77356,,,CONTRACTOR,,,,,,,,,,,"PERRY HOMES",,,,,"PERRY HOMES","9000 GULF FWY",HOUSTON,TX,77017-7018,"(713) 417-1396",,,,
TX,HARRIS,2006050162,"Single Family Homes",6/16/2020,,208090,1411,"14518 OVERLAND HOLLOW DR",HOUSTON,TX,77356,"RETREAT AT CHAMPIONS LANDING",,CONTRACTOR,,,,,,,,,,,"PULTE HOMES",,,,,"PULTE HOMES","16670 PARK ROW",HOUSTON,TX,77084-6866,"(281) 749-8000",,,,
TX,HARRIS,2006050166,"Single Family Homes",6/16/2020,,184000,1951,"24030 PRAIRIE DUST DR",HOUSTON,TX,77356,WINDROW,,CONTRACTOR,,,,,,,,,,,"PULTE HOMES",,,,,"PULTE HOMES","16670 PARK ROW",HOUSTON,TX,77084-6866,"(281) 749-8000",,,,
TX,HARRIS,2006030091,"Single Family Homes",6/16/2020,,99220,1566,"16611 TAURUS RUN DR",HOUSTON,TX,77356,"ATASCOCITA TRACE",,CONTRACTOR,,,,,,,,,,,"ANGLIA HOMES",,,,,"ANGLIA HOMES","17510 RED OAK DR",HOUSTON,TX,77090,"(281) 943-5288",http://www.angliahomeslp.com/,,,
TX,HARRIS,2006030096,"Single Family Homes",6/16/2020,,134920,2541,"24622 LAKE BASIN CT",HOUSTON,TX,77356,"LAKECREST FOREST",,CONTRACTOR,,,,,,,,,,,"ANGLIA HOMES",,,,,"ANGLIA HOMES","17510 RED OAK DR",HOUSTON,TX,77090,"(281) 943-5288",http://www.angliahomeslp.com/,,,
TX,HARRIS,2006030105,"Single Family Homes",6/16/2020,,134145,2981,"18202 BAYONNE CHANNEL CT",HOUSTON,TX,77356,"BRIDGES ON LAKE",,CONTRACTOR,,,,,,,,,,,"DR HORTON",,,,,"DR HORTON","14100 SOUTHWEST",HOUSTON,TX,77478,"(281) 201-5559",,,,
TX,HARRIS,2006030117,"Single Family Homes",6/16/2020,,126000,2800,"18203 BAYONNE CHANNEL CT",HOUSTON,TX,77356,"BRIDGES ON LAKE",,CONTRACTOR,,,,,,,,,,,"DR HORTON",,,,,"DR HORTON","14100 SOUTHWEST",HOUSTON,TX,77478,"(281) 201-5559",,,,
TX,HARRIS,2006030126,"Single Family Homes",6/16/2020,,132885,2971,"15211 DAVAN SPRINGS DR",HOUSTON,TX,77356,BALMORAL,,CONTRACTOR,,,,,,,,,,,"DR HORTON",,,,,"DR HORTON","14100 SOUTHWEST",HOUSTON,TX,77478,"(281) 201-5559",,,,
TX,HARRIS,2006030131,"Single Family Homes",6/16/2020,,115335,2563,"12202 LOCH MUICK DR",HOUSTON,TX,77356,BALMORAL,,CONTRACTOR,,,,,,,,,,,"DR HORTON",,,,,"DR HORTON","14100 SOUTHWEST",HOUSTON,TX,77478,"(281) 201-5559",,,,
TX,HARRIS,2006030153,"Single Family Homes",6/16/2020,,128745,2861,"16031 BRYCE PECAN WAY",HOUSTON,TX,77356,"STONE CREEK RANCH",,CONTRACTOR,,,,,,,,,,,"DR HORTON",,,,,"DR HORTON","14100 SOUTHWEST",HOUSTON,TX,77478,"(281) 201-5559",,,,
TX,HARRIS,2006030034,"Single Family Homes",6/16/2020,,99675,2213,"20706 MARIGOLD MEADOWS ST",HOUSTON,TX,77356,"JASMINE HEIGHTS",,CONTRACTOR,,,,,,,,,,,"DR HORTON",,,,,"DR HORTON","14100 SOUTHWEST",HOUSTON,TX,77478,"(281) 201-5559",,,,
TX,HARRIS,2006030038,"Single Family Homes",6/16/2020,,96525,2145,"21523 WARIALDA MANOR LN",HOUSTON,TX,77356,"JASMINE HEIGHTS",,CONTRACTOR,,,,,,,,,,,"DR HORTON",,,,,"DR HORTON","14100 SOUTHWEST",HOUSTON,TX,77478,"(281) 201-5559",,,,
TX,HARRIS,2006030040,"Single Family Homes",6/16/2020,,110700,2460,"21527 WARIALDA MANOR LN",HOUSTON,TX,77356,"JASMINE HEIGHTS",,CONTRACTOR,,,,,,,,,,,"DR HORTON",,,,,"DR HORTON","14100 SOUTHWEST",HOUSTON,TX,77478,"(281) 201-5559",,,,
TX,HARRIS,2006030042,"Single Family Homes",6/16/2020,,89505,1989,"21519 WARIALDA MANOR LN",HOUSTON,TX,77356,"JASMINE HEIGHTS",,CONTRACTOR,,,,,,,,,,,"DR HORTON",,,,,"DR HORTON","14100 SOUTHWEST",HOUSTON,TX,77478,"(281) 201-5559",,,,
TX,HARRIS,2006030043,"Single Family Homes",6/16/2020,,110700,2460,"5402 CLEARWATER CANYON TRL",HOUSTON,TX,77356,"JASMINE HEIGHTS",,CONTRACTOR,,,,,,,,,,,"DR HORTON",,,,,"DR HORTON","14100 SOUTHWEST",HOUSTON,TX,77478,"(281) 201-5559",,,,
TX,HARRIS,2006030044,"Single Family Homes",6/16/2020,,89505,1957,"5406 CLEARWATER CANYON TRL",HOUSTON,TX,77356,"JASMINE HEIGHTS",,CONTRACTOR,,,,,,,,,,,"DR HORTON",,,,,"DR HORTON","14100 SOUTHWEST",HOUSTON,TX,77478,"(281) 201-5559",,,,
TX,HARRIS,2006030046,"Single Family Homes",6/16/2020,,132975,2132,"5410 CLEARWATER CANYON TRL",HOUSTON,TX,77356,"JASMINE HEIGHTS",,CONTRACTOR,,,,,,,,,,,"DR HORTON",,,,,"DR HORTON","14100 SOUTHWEST",HOUSTON,TX,77478,"(281) 201-5559",,,,
TX,HARRIS,2006030047,"Single Family Homes",6/16/2020,,96525,2145,"5414 CLEARWATER CANYON TRL",HOUSTON,TX,77356,"JASMINE HEIGHTS",,CONTRACTOR,,,,,,,,,,,"DR HORTON",,,,,"DR HORTON","14100 SOUTHWEST",HOUSTON,TX,77478,"(281) 201-5559",,,,
TX,HARRIS,2006030050,"Single Family Homes",6/16/2020,,110700,2460,"5418 CLEARWATER CANYON TRL",HOUSTON,TX,77356,"JASMINE HEIGHTS",,CONTRACTOR,,,,,,,,,,,"DR HORTON",,,,,"DR HORTON","14100 SOUTHWEST",HOUSTON,TX,77478,"(281) 201-5559",,,,
TX,HARRIS,2006030052,"Single Family Homes",6/16/2020,,100800,2240,"5430 CLEARWATER CANYON TRL",HOUSTON,TX,77356,"JASMINE HEIGHTS",,CONTRACTOR,,,,,,,,,,,"DR HORTON",,,,,"DR HORTON","14100 SOUTHWEST",HOUSTON,TX,77478,"(281) 201-5559",,,,
TX,HARRIS,2006030058,"Single Family Homes",6/16/2020,,132885,2225,"5427 CLEARWATER CANYON TRL",HOUSTON,TX,77356,"JASMINE HEIGHTS",,CONTRACTOR,,,,,,,,,,,"DR HORTON",,,,,"DR HORTON","14100 SOUTHWEST",HOUSTON,TX,77478,"(281) 201-5559",,,,
TX,HARRIS,2006030060,"Single Family Homes",6/16/2020,,89505,1957,"5423 CLEARWATER CANYON TRL",HOUSTON,TX,77356,"JASMINE HEIGHTS",,CONTRACTOR,,,,,,,,,,,"DR HORTON",,,,,"DR HORTON","14100 SOUTHWEST",HOUSTON,TX,77478,"(281) 201-5559",,,,
TX,HARRIS,2006030061,"Single Family Homes",6/16/2020,,107460,2388,"5403 CLEARWATER CANYON TRL",HOUSTON,TX,77356,"JASMINE HEIGHTS",,CONTRACTOR,,,,,,,,,,,"DR HORTON",,,,,"DR HORTON","14100 SOUTHWEST",HOUSTON,TX,77478,"(281) 201-5559",,,,
TX,HARRIS,2006030077,"Single Family Homes",6/16/2020,,110700,2460,"5422 BETHEL CHASE LN",HOUSTON,TX,77356,"JASMINE HEIGHTS",,CONTRACTOR,,,,,,,,,,,"DR HORTON",,,,,"DR HORTON","14100 SOUTHWEST",HOUSTON,TX,77478,"(281) 201-5559",,,,
TX,HARRIS,2006030095,"Single Family Homes",6/16/2020,,125640,2141,"4442 NAVELLI WAY",HOUSTON,TX,77356,"VENTANA LAKES",,CONTRACTOR,,,,,,,,,,,"DR HORTON",,,,,"DR HORTON","14100 SOUTHWEST",HOUSTON,TX,77478,"(281) 201-5559",,,,
TX,HARRIS,2006080011,"Single Family Homes",6/16/2020,,205500,1373,"14514 O DR",HOUSTON,TX,77356,"RETREAT AT CHAMPIONS LANDING",,CONTRACTOR,,,,,,,,,,,"PULTE HOMES",,,,,"PULTE HOMES","16670 PARK ROW",HOUSTON,TX,77084-6866,"(281) 749-8000",,,,
TX,HARRIS,2006080012,"Single Family Homes",6/16/2020,,190500,3317,"12026 CARILLON FOREST DR",HOUSTON,TX,77356,GROVES,,CONTRACTOR,,,,,,,,,,,"TOLL BROTHERS",,,,,"TOLL BROTHERS","10110 W SAM HOUSTON PKWY N STE 350",HOUSTON,TX,77064-7508,"(281) 664-7255",,,,
TX,HARRIS,2006080006,"Single Family Homes",6/16/2020,,110000,1913,"5834 PRAIRIE CHAPEL RD",HOUSTON,TX,77356,"KATY CROSSING",,CONTRACTOR,,,,,,,,,,,"LENNAR HOMES",,,,,"LENNAR HOMES","550 GREENS PKWY",HOUSTON,TX,77067-4537,"(281) 875-1000",http://www.lennar.com/,,,
TX,HARRIS,2006010088,"Single Family Homes",6/16/2020,,254273,2733,"23406 YELLOW LARKSPUR LN",HOUSTON,TX,77356,ELYSON,,CONTRACTOR,,,,,,,,,,,"CHESMAR HOMES",,,,,"CHESMAR HOMES","450 GEARS RD STE 400",HOUSTON,TX,77067-4513,"(281) 598-1111",http://chesmar.com,"(281) 598-1115",,customerservice.houston@chesmar.com
TX,HARRIS,2006050036,"Single Family Homes",6/16/2020,,160769,2733,"23318 IVORY SEDGE TRL",HOUSTON,TX,77356,ELYSON,,CONTRACTOR,,,,,,,,,,,"CHESMAR HOMES",,,,,"CHESMAR HOMES","450 GEARS RD STE 400",HOUSTON,TX,77067-4513,"(281) 598-1111",http://chesmar.com,"(281) 598-1115",,customerservice.houston@chesmar.com
TX,HARRIS,2006050150,"Single Family Homes",6/16/2020,,147042,2425,"6111 BIRCHWOOD CLIFF TRL",HOUSTON,TX,77356,ELYSON,,CONTRACTOR,,,,,,,,,,,"CHESMAR HOMES",,,,,"CHESMAR HOMES","450 GEARS RD STE 400",HOUSTON,TX,77067-4513,"(281) 598-1111",http://chesmar.com,"(281) 598-1115",,customerservice.houston@chesmar.com
TX,HARRIS,2006020150,"Single Family Homes",6/16/2020,,85920,2148,"20122 PERCHERON PARK LN",HOUSTON,TX,77356,AMIRA,,CONTRACTOR,,,,,,,,,,,"BEAZER HOMES ",,,,,"BEAZER HOMES ","10235 W LITTLE YORK",HOUSTON,TX,77040,"(713) 849-2252",http://www.beazer.com/,,,
TX,HARRIS,2006020159,"Single Family Homes",6/16/2020,,113400,2835,"4507 CEDAR SAGE DR",HOUSTON,TX,77356,"ASHBEL CROSSING",,CONTRACTOR,,,,,,,,,,,"BEAZER HOMES ",,,,,"BEAZER HOMES ","10235 W LITTLE YORK",HOUSTON,TX,77040,"(713) 849-2252",http://www.beazer.com/,,,
TX,HARRIS,2006020161,"Single Family Homes",6/16/2020,,126280,3157,"19139 LONGHORN POINT DR",HOUSTON,TX,77356,"BRIDGELAND PARKLAND VILLAGE",,CONTRACTOR,,,,,,,,,,,"BEAZER HOMES ",,,,,"BEAZER HOMES ","10235 W LITTLE YORK",HOUSTON,TX,77040,"(713) 849-2252",http://www.beazer.com/,,,
TX,HARRIS,2006050088,"Single Family Homes",6/16/2020,,122210,2222,"12522 BEDFORD BEND DR",HOUSTON,TX,77356,BALMORAL,,CONTRACTOR,,,,,,,,,,,"CASTLEROCK COMMUNITIES",,,,,"CASTLEROCK COMMUNITIES","7670 WOODWAY DR STE 300",HOUSTON,TX,77063-1520,"(713) 600-7000",http://c-rock.com,"(713) 600-0000",,
TX,HARRIS,2005220078,"Single Family Homes",6/16/2020,,550000,4148,"3003 DEEDS RD",HOUSTON,TX,77356,,,"BENJAMIN MILLER","3003 DEEDS RD",HOUSTON,TX,77356,,Owner,,,,,OWNER,,,,,OWNER,,,,,,,,,
TX,HARRIS,2006040016,"Single Family Homes",6/16/2020,,744150,5728,"21 LEGACY RIDGE DR",HOUSTON,TX,77356,"THE WOODLANDS CREEKSIDE PARK",,CONTRACTOR,,,,,,,,,,,"PARTNERS IN BUILDING",,,,,"PARTNERS IN BUILDING","1803 RANCH ROAD 620 N",LAKEWAY,TX,78734-2611,"(512) 266-6701",http://www.partnersinbuilding.com,"(713) 937-1445",,info@partnersinbuilding.com
TX,HARRIS,2006040058,"Single Family Homes",6/16/2020,,81500,5560,"66 SHADOW CREEK RIDGE DR",HOUSTON,TX,77356,"SHADOW CREEK AT AUGUSTA PINES",,CONTRACTOR,,,,,,,,,,,"BRICKLAND HOMES",,,,,"BRICKLAND HOMES","14520 WUNDERLICH DR STE 100",HOUSTON,TX,77069-2836,"(281) 893-5689",http://bricklandhomes.com,,,
TX,HARRIS,2006030151,"Single Family Homes",6/16/2020,,146700,3260,"16207 NEFF PARK DR",HOUSTON,TX,77356,"STONE CREEK RANCH",,CONTRACTOR,,,,,,,,,,,"DR HORTON",,,,,"DR HORTON","14100 SOUTHWEST",HOUSTON,TX,77478,"(281) 201-5559",,,,
TX,HARRIS,2006030121,"Single Family Homes",6/16/2020,,118485,2633,"18003 PONTE VECCHIO WAY",HOUSTON,TX,77356,"BRIDGES ON LAKE",,CONTRACTOR,,,,,,,,,,,"DR HORTON",,,,,"DR HORTON","14100 SOUTHWEST",HOUSTON,TX,77478,"(281) 201-5559",,,,
TX,HARRIS,2006050008,"Single Family Homes",6/16/2020,,93510,2078,"23103 SPRUCE SUMMIT TRL",HOUSTON,TX,77356,BRECKENRIDGE,,CONTRACTOR,,,,,,,,,,,"DR HORTON",,,,,"DR HORTON","14100 SOUTHWEST",HOUSTON,TX,77478,"(281) 201-5559",,,,
TX,HARRIS,2006050013,"Single Family Homes",6/16/2020,,132975,2141,"21515 WARIALDA MANOR LN",HOUSTON,TX,77356,"JASMINE HEIGHTS",,CONTRACTOR,,,,,,,,,,,"DR HORTON",,,,,"DR HORTON","14100 SOUTHWEST",HOUSTON,TX,77478,"(281) 201-5559",,,,
TX,HARRIS,2005260024,"Single Family Homes",6/16/2020,,175000,2087,"2106 TRACY LN",HOUSTON,TX,77356,"NOWLINGSHIRE ESTATES",,"CLARENCE RAWLINS","2106 TRACY LN",HOUSTON,TX,77356,,Owner,,,,,OWNER,,,,,OWNER,,,,,,,,,
TX,HARRIS,2005290070,"Single Family Homes",6/16/2020,,59800,2679,"7235 FOXWOOD MIST TRL",HOUSTON,TX,77356,FOXWOOD,,CONTRACTOR,,,,,,,,,,,"LONG LAKE HOMES",,,,,"LONG LAKE HOMES","15915 KATY FWY STE 405",HOUSTON,TX,77094-1710,"(281) 646-1727",http://www.longlakeltd.com/,,"DAVID BIGLER",
TX,HARRIS,2005290075,"Single Family Homes",6/16/2020,,72000,3005,"14702 LARK SKY WAY",HOUSTON,TX,77356,"TELGE RANCH",,CONTRACTOR,,,,,,,,,,,"LONG LAKE HOMES",,,,,"LONG LAKE HOMES","15915 KATY FWY STE 405",HOUSTON,TX,77094-1710,"(281) 646-1727",http://www.longlakeltd.com/,,"DAVID BIGLER",
TX,HARRIS,2005290076,"Single Family Homes",6/16/2020,,75000,3354,"14654 LARK SKY WAY",HOUSTON,TX,77356,"TELGE RANCH",,CONTRACTOR,,,,,,,,,,,"LONG LAKE HOMES",,,,,"LONG LAKE HOMES","15915 KATY FWY STE 405",HOUSTON,TX,77094-1710,"(281) 646-1727",http://www.longlakeltd.com/,,"DAVID BIGLER",
TX,HARRIS,2005290081,"Single Family Homes",6/16/2020,,64000,2337,"4618 CLARA ROSE LN",HOUSTON,TX,77356,"WESTFIELD RANCH",,CONTRACTOR,,,,,,,,,,,"LONG LAKE HOMES",,,,,"LONG LAKE HOMES","15915 KATY FWY STE 405",HOUSTON,TX,77094-1710,"(281) 646-1727",http://www.longlakeltd.com/,,"DAVID BIGLER",
TX,HARRIS,2005290096,"Single Family Homes",6/16/2020,,65000,2375,"14830 RUDDY DUCK LN",HOUSTON,TX,77356,"EDGEWOOD VILLAGE",,CONTRACTOR,,,,,,,,,,,"LONG LAKE HOMES",,,,,"LONG LAKE HOMES","15915 KATY FWY STE 405",HOUSTON,TX,77094-1710,"(281) 646-1727",http://www.longlakeltd.com/,,"DAVID BIGLER",
TX,HARRIS,2006020008,"Single Family Homes",6/16/2020,,96000,3768,"21011 PASTEL SKY WAY",HOUSTON,TX,77356,"CYPRESSWOOD POINT",,CONTRACTOR,,,,,,,,,,,"LONG LAKE HOMES",,,,,"LONG LAKE HOMES","15915 KATY FWY STE 405",HOUSTON,TX,77094-1710,"(281) 646-1727",http://www.longlakeltd.com/,,"DAVID BIGLER",
TX,HARRIS,2006020009,"Single Family Homes",6/16/2020,,67000,2526,"14834 RUDDY DUCK LN",HOUSTON,TX,77356,"EDGEWOOD VILLAGE",,CONTRACTOR,,,,,,,,,,,"LONG LAKE HOMES",,,,,"LONG LAKE HOMES","15915 KATY FWY STE 405",HOUSTON,TX,77094-1710,"(281) 646-1727",http://www.longlakeltd.com/,,"DAVID BIGLER",
TX,HARRIS,2006020012,"Single Family Homes",6/16/2020,,80000,3238,"8327 NORTHERN PINTAIL DR",HOUSTON,TX,77356,"EDGEWOOD VILLAGE",,CONTRACTOR,,,,,,,,,,,"LONG LAKE HOMES",,,,,"LONG LAKE HOMES","15915 KATY FWY STE 405",HOUSTON,TX,77094-1710,"(281) 646-1727",http://www.longlakeltd.com/,,"DAVID BIGLER",
TX,HARRIS,2006020013,"Single Family Homes",6/16/2020,,67000,2526,"15434 WANDERING CREEK TRL",HOUSTON,TX,77356,"SHELDON RIDGE",,CONTRACTOR,,,,,,,,,,,"LONG LAKE HOMES",,,,,"LONG LAKE HOMES","15915 KATY FWY STE 405",HOUSTON,TX,77094-1710,"(281) 646-1727",http://www.longlakeltd.com/,,"DAVID BIGLER",
TX,HARRIS,2006020016,"Single Family Homes",6/16/2020,,81000,3586,"2735 WOLLEMI PINE TRL",HOUSTON,TX,77356,"MORTON CREEK RANCH",,CONTRACTOR,,,,,,,,,,,"LONG LAKE HOMES",,,,,"LONG LAKE HOMES","15915 KATY FWY STE 405",HOUSTON,TX,77094-1710,"(281) 646-1727",http://www.longlakeltd.com/,,"DAVID BIGLER",
TX,HARRIS,2006020017,"Single Family Homes",6/16/2020,,80000,3238,"14650 LARK SKY WAY",HOUSTON,TX,77356,"TELGE RANCH",,CONTRACTOR,,,,,,,,,,,"LONG LAKE HOMES",,,,,"LONG LAKE HOMES","15915 KATY FWY STE 405",HOUSTON,TX,77094-1710,"(281) 646-1727",http://www.longlakeltd.com/,,"DAVID BIGLER",
TX,HARRIS,2006020018,"Single Family Homes",6/16/2020,,96000,4187,"4502 CLARA ROSE LN",HOUSTON,TX,77356,"WESTFIELD RANCH",,CONTRACTOR,,,,,,,,,,,"LONG LAKE HOMES",,,,,"LONG LAKE HOMES","15915 KATY FWY STE 405",HOUSTON,TX,77094-1710,"(281) 646-1727",http://www.longlakeltd.com/,,"DAVID BIGLER",
TX,HARRIS,2006020019,"Single Family Homes",6/16/2020,,64000,2177,"20703 IRON TIMBER LN",HOUSTON,TX,77356,"WESTFIELD RANCH",,CONTRACTOR,,,,,,,,,,,"LONG LAKE HOMES",,,,,"LONG LAKE HOMES","15915 KATY FWY STE 405",HOUSTON,TX,77094-1710,"(281) 646-1727",http://www.longlakeltd.com/,,"DAVID BIGLER",
TX,HARRIS,2006020052,"Single Family Homes",6/16/2020,,301568,2792,"15003 BOAT HOUSE CT",HOUSTON,TX,77356,"BRIDGELAND PARKLAND VILLAGE",,CONTRACTOR,,,,,,,,,,,"NEWMARK HOMES",,,,,"NEWMARK HOMES","10455 BRIAR FOREST SUITE 200",HOUSTON,TX,77042,"(713) 346-0200",http://www.newmarkhomes.com/,"(713) 346-0226",,
TX,HARRIS,2006020057,"Single Family Homes",6/16/2020,,240403,1975,"19414 FANNIN COUNTY LN",HOUSTON,TX,77356,"BRIDGELAND PARKLAND VILLAGE",,CONTRACTOR,,,,,,,,,,,"NEWMARK HOMES",,,,,"NEWMARK HOMES","10455 BRIAR FOREST SUITE 200",HOUSTON,TX,77042,"(713) 346-0200",http://www.newmarkhomes.com/,"(713) 346-0226",,
TX,HARRIS,2006020064,"Single Family Homes",6/16/2020,,268193,2584,"15018 BONHAM SHORES DR",HOUSTON,TX,77356,"BRIDGELAND PARKLAND VILLAGE",,CONTRACTOR,,,,,,,,,,,"NEWMARK HOMES",,,,,"NEWMARK HOMES","10455 BRIAR FOREST SUITE 200",HOUSTON,TX,77042,"(713) 346-0200",http://www.newmarkhomes.com/,"(713) 346-0226",,
TX,HARRIS,2006020065,"Single Family Homes",6/16/2020,,270905,2572,"15002 BONHAM SHORES DR",HOUSTON,TX,77356,"BRIDGELAND PARKLAND VILLAGE",,CONTRACTOR,,,,,,,,,,,"NEWMARK HOMES",,,,,"NEWMARK HOMES","10455 BRIAR FOREST SUITE 200",HOUSTON,TX,77042,"(713) 346-0200",http://www.newmarkhomes.com/,"(713) 346-0226",,
TX,HARRIS,2006030160,"Single Family Homes",6/16/2020,,290023,2779,"14234 BASALT SPRING LN",HOUSTON,TX,77356,"COPPER RIDGE AT INDIAN TR",,CONTRACTOR,,,,,,,,,,,"NEWMARK HOMES",,,,,"NEWMARK HOMES","10455 BRIAR FOREST SUITE 200",HOUSTON,TX,77042,"(713) 346-0200",http://www.newmarkhomes.com/,"(713) 346-0226",,
TX,HARRIS,2006040019,"Single Family Homes",6/16/2020,,258585,2576,"15022 BOAT HOUSE CT",HOUSTON,TX,77356,"BRIDGELAND PARKLAND VILLAGE",,CONTRACTOR,,,,,,,,,,,"NEWMARK HOMES",,,,,"NEWMARK HOMES","10455 BRIAR FOREST SUITE 200",HOUSTON,TX,77042,"(713) 346-0200",http://www.newmarkhomes.com/,"(713) 346-0226",,
TX,HARRIS,2006040020,"Single Family Homes",6/16/2020,,288054,2572,"15014 BOAT HOUSE CT",HOUSTON,TX,77356,"BRIDGELAND PARKLAND VILLAGE",,CONTRACTOR,,,,,,,,,,,"NEWMARK HOMES",,,,,"NEWMARK HOMES","10455 BRIAR FOREST SUITE 200",HOUSTON,TX,77042,"(713) 346-0200",http://www.newmarkhomes.com/,"(713) 346-0226",,
TX,HARRIS,2005200043,"Single Family Homes",6/16/2020,,120192,2401,"16426 ELKCREEK DR",HOUSTON,TX,77356,"STONE CREEK RANCH",,CONTRACTOR,,,,,,,,,,,"SA LIBERTY HOME BUILDERS",,,,,"SA LIBERTY HOME BUILDERS","2821 JORDENS RD STE 500",HOUSTON,TX,77084-7355,"(281) 645-0225",,,,
TX,HARRIS,2005210054,"Single Family Homes",6/16/2020,,120171,3186,"9507 CIMARRONCITO LN",HOUSTON,TX,77356,"WOODLAND PINES",,CONTRACTOR,,,,,,,,,,,"SA LIBERTY HOME BUILDERS",,,,,"SA LIBERTY HOME BUILDERS","2821 JORDENS RD STE 500",HOUSTON,TX,77084-7355,"(281) 645-0225",,,,
TX,HARRIS,2005220148,"Single Family Homes",6/16/2020,,148561,3212,"32203 CASA LINDA DR",HOUSTON,TX,77356,"STONE CREEK RANCH",,CONTRACTOR,,,,,,,,,,,"SA LIBERTY HOME BUILDERS",,,,,"SA LIBERTY HOME BUILDERS","2821 JORDENS RD STE 500",HOUSTON,TX,77084-7355,"(281) 645-0225",,,,
TX,HARRIS,2005280101,"Single Family Homes",6/16/2020,,109995,2196,"31526 ELKCREEK BEND DR",HOUSTON,TX,77356,"STONE CREEK RANCH",,CONTRACTOR,,,,,,,,,,,"SA LIBERTY HOME BUILDERS",,,,,"SA LIBERTY HOME BUILDERS","2821 JORDENS RD STE 500",HOUSTON,TX,77084-7355,"(281) 645-0225",,,,
TX,HARRIS,2006020070,"Single Family Homes",6/16/2020,,109195,2099,"2503 DUSTIN PLACE CT",HOUSTON,TX,77356,"ATASCOCITA TRACE",,CONTRACTOR,,,,,,,,,,,"ANGLIA HOMES",,,,,"ANGLIA HOMES","17510 RED OAK DR",HOUSTON,TX,77090,"(281) 943-5288",http://www.angliahomeslp.com/,,,
TX,HARRIS,2006040107,"Single Family Homes",6/16/2020,,137545,2541,"15403 CRATHIE BEND DR",HOUSTON,TX,77356,BALMORAL,,CONTRACTOR,,,,,,,,,,,"ANGLIA HOMES",,,,,"ANGLIA HOMES","17510 RED OAK DR",HOUSTON,TX,77090,"(281) 943-5288",http://www.angliahomeslp.com/,,,
TX,HARRIS,2005290198,"Single Family Homes",6/16/2020,,171655,3121,"15238 LILY BANK DR",HOUSTON,TX,77356,BALMORAL,,CONTRACTOR,,,,,,,,,,,"CASTLEROCK COMMUNITIES",,,,,"CASTLEROCK COMMUNITIES","7670 WOODWAY DR STE 300",HOUSTON,TX,77063-1520,"(713) 600-7000",http://c-rock.com,"(713) 600-0000",,
TX,HARRIS,2006010037,"Single Family Homes",6/16/2020,,150315,2733,"15219 READEN CRESCENT DR",HOUSTON,TX,77356,BALMORAL,,CONTRACTOR,,,,,,,,,,,"CASTLEROCK COMMUNITIES",,,,,"CASTLEROCK COMMUNITIES","7670 WOODWAY DR STE 300",HOUSTON,TX,77063-1520,"(713) 600-7000",http://c-rock.com,"(713) 600-0000",,
TX,HARRIS,2006040150,"Single Family Homes",6/16/2020,,149000,1770,"17603 HOLROYD RD",HOUSTON,TX,77356,MERRYLANDS,,CONTRACTOR,,,,,,,,,,,"LEGEND HOMES",,,,,"LEGEND HOMES","10410 WINDAMERE LAKES BLVD",HOUSTON,TX,77065-4996,"(281) 671-9060",http://legendhomecorp.com/,"(281) 671-9055",,
TX,HARRIS,2006050085,"Single Family Homes",6/16/2020,,155000,1969,"17531 HOLROYD RD",HOUSTON,TX,77356,MERRYLANDS,,CONTRACTOR,,,,,,,,,,,"LEGEND HOMES",,,,,"LEGEND HOMES","10410 WINDAMERE LAKES BLVD",HOUSTON,TX,77065-4996,"(281) 671-9060",http://legendhomecorp.com/,"(281) 671-9055",,
TX,HARRIS,2006050087,"Single Family Homes",6/16/2020,,164000,2336,"17535 HOLROYD RD",HOUSTON,TX,77356,MERRYLANDS,,CONTRACTOR,,,,,,,,,,,"LEGEND HOMES",,,,,"LEGEND HOMES","10410 WINDAMERE LAKES BLVD",HOUSTON,TX,77065-4996,"(281) 671-9060",http://legendhomecorp.com/,"(281) 671-9055",,
TX,HARRIS,2006040153,"Single Family Homes",6/16/2020,,140040,1677,"23106 PELHAM PRAIRIE LN",HOUSTON,TX,77356,BRECKENRIDGE,,CONTRACTOR,,,,,,,,,,,"DR HORTON",,,,,"DR HORTON","14100 SOUTHWEST",HOUSTON,TX,77478,"(281) 201-5559",,,,
TX,HARRIS,2006040154,"Single Family Homes",6/16/2020,,119250,1877,"23110 PELHAM PRAIRIE LN",HOUSTON,TX,77356,BRECKENRIDGE,,CONTRACTOR,,,,,,,,,,,"DR HORTON",,,,,"DR HORTON","14100 SOUTHWEST",HOUSTON,TX,77478,"(281) 201-5559",,,,
TX,HARRIS,2006040155,"Single Family Homes",6/16/2020,,93510,2078,"23114 PELHAM PRAIRIE LN",HOUSTON,TX,77356,BRECKENRIDGE,,CONTRACTOR,,,,,,,,,,,"DR HORTON",,,,,"DR HORTON","14100 SOUTHWEST",HOUSTON,TX,77478,"(281) 201-5559",,,,
TX,HARRIS,2006040160,"Single Family Homes",6/16/2020,,111555,1877,"23118 PELHAM PRAIRIE LN",HOUSTON,TX,77356,BRECKENRIDGE,,CONTRACTOR,,,,,,,,,,,"DR HORTON",,,,,"DR HORTON","14100 SOUTHWEST",HOUSTON,TX,77478,"(281) 201-5559",,,,
TX,HARRIS,2006050001,"Single Family Homes",6/16/2020,,124110,1935,"23122 PELHAM PRAIRIE LN",HOUSTON,TX,77356,BRECKENRIDGE,,CONTRACTOR,,,,,,,,,,,"DR HORTON",,,,,"DR HORTON","14100 SOUTHWEST",HOUSTON,TX,77478,"(281) 201-5559",,,,
TX,HARRIS,2006050002,"Single Family Homes",6/16/2020,,94095,2091,"23126 PELHAM PRAIRIRE LN",HOUSTON,TX,77356,BRECKENRIDGE,,CONTRACTOR,,,,,,,,,,,"DR HORTON",,,,,"DR HORTON","14100 SOUTHWEST",HOUSTON,TX,77478,"(281) 201-5559",,,,
TX,HARRIS,2006050003,"Single Family Homes",6/16/2020,,90540,2012,"23130 PELHAM PRAIRIE LN",HOUSTON,TX,77356,BRECKENRIDGE,,CONTRACTOR,,,,,,,,,,,"DR HORTON",,,,,"DR HORTON","14100 SOUTHWEST",HOUSTON,TX,77478,"(281) 201-5559",,,,
TX,HARRIS,2006050004,"Single Family Homes",6/16/2020,,119250,1877,"23134 PELHAM PRAIRIE LN",HOUSTON,TX,77356,BRECKENRIDGE,,CONTRACTOR,,,,,,,,,,,"DR HORTON",,,,,"DR HORTON","14100 SOUTHWEST",HOUSTON,TX,77478,"(281) 201-5559",,,,
TX,HARRIS,2006050006,"Single Family Homes",6/16/2020,,111555,1877,"23202 PELHAM PRAIRIE LN",HOUSTON,TX,77356,BRECKENRIDGE,,CONTRACTOR,,,,,,,,,,,"DR HORTON",,,,,"DR HORTON","14100 SOUTHWEST",HOUSTON,TX,77478,"(281) 201-5559",,,,
TX,HARRIS,2006050007,"Single Family Homes",6/16/2020,,86580,1924,"23206 PELHAM PRAIRIE LN",HOUSTON,TX,77356,BRECKENRIDGE,,CONTRACTOR,,,,,,,,,,,"DR HORTON",,,,,"DR HORTON","14100 SOUTHWEST",HOUSTON,TX,77478,"(281) 201-5559",,,,
TX,HARRIS,2006050009,"Single Family Homes",6/16/2020,,86580,1924,"23107 SPRUCE SUMMIT TRL",HOUSTON,TX,77356,BRECKENRIDGE,,CONTRACTOR,,,,,,,,,,,"DR HORTON",,,,,"DR HORTON","14100 SOUTHWEST",HOUSTON,TX,77478,"(281) 201-5559",,,,
TX,HARRIS,2006050010,"Single Family Homes",6/16/2020,,111555,1877,"23111 SPRUCE SUMMIT TRL",HOUSTON,TX,77356,BRECKENRIDGE,,CONTRACTOR,,,,,,,,,,,"DR HORTON",,,,,"DR HORTON","14100 SOUTHWEST",HOUSTON,TX,77478,"(281) 201-5559",,,,
TX,HARRIS,2006050011,"Single Family Homes",6/16/2020,,90540,2012,"23115 SPRUCE SUMMIT TRL",HOUSTON,TX,77356,BRECKENRIDGE,,CONTRACTOR,,,,,,,,,,,"DR HORTON",,,,,"DR HORTON","14100 SOUTHWEST",HOUSTON,TX,77478,"(281) 201-5559",,,,
TX,HARRIS,2006050012,"Single Family Homes",6/16/2020,,94095,2091,"23119 SPRUCE SUMMIT TRL",HOUSTON,TX,77356,BRECKENRIDGE,,CONTRACTOR,,,,,,,,,,,"DR HORTON",,,,,"DR HORTON","14100 SOUTHWEST",HOUSTON,TX,77478,"(281) 201-5559",,,,
TX,HARRIS,2006050021,"Single Family Homes",6/16/2020,,169650,2331,"22922 BELLO ELLIOT DR",HOUSTON,TX,77356,"VENTANA LAKES",,CONTRACTOR,,,,,,,,,,,"DR HORTON",,,,,"DR HORTON","14100 SOUTHWEST",HOUSTON,TX,77478,"(281) 201-5559",,,,
TX,HARRIS,2006050022,"Single Family Homes",6/16/2020,,112515,2501,"22910 BELLO ELLIOT DR",HOUSTON,TX,77356,"VENTANA LAKES",,CONTRACTOR,,,,,,,,,,,"DR HORTON",,,,,"DR HORTON","14100 SOUTHWEST",HOUSTON,TX,77478,"(281) 201-5559",,,,
TX,HARRIS,2006050026,"Single Family Homes",6/16/2020,,103050,2291,"22918 BELLO ELLIOT DR",HOUSTON,TX,77356,"VENTANA LAKES",,CONTRACTOR,,,,,,,,,,,"DR HORTON",,,,,"DR HORTON","14100 SOUTHWEST",HOUSTON,TX,77478,"(281) 201-5559",,,,
TX,HARRIS,2006050092,"Single Family Homes",6/16/2020,,172000,2521,"17539 HOLROYD RD",HOUSTON,TX,77356,MERRYLANDS,,CONTRACTOR,,,,,,,,,,,"LEGEND HOMES",,,,,"LEGEND HOMES","10410 WINDAMERE LAKES BLVD",HOUSTON,TX,77065-4996,"(281) 671-9060",http://legendhomecorp.com/,"(281) 671-9055",,
TX,HARRIS,2006050095,"Single Family Homes",6/16/2020,,118000,2349,"17618 DESMOND ST",HOUSTON,TX,77356,MERRYLANDS,,CONTRACTOR,,,,,,,,,,,"LEGEND HOMES",,,,,"LEGEND HOMES","10410 WINDAMERE LAKES BLVD",HOUSTON,TX,77065-4996,"(281) 671-9060",http://legendhomecorp.com/,"(281) 671-9055",,
TX,HARRIS,2006050098,"Single Family Homes",6/16/2020,,180000,1955,"17515 HARBOURFRONT RD",HOUSTON,TX,77356,MERRYLANDS,,CONTRACTOR,,,,,,,,,,,"LEGEND HOMES",,,,,"LEGEND HOMES","10410 WINDAMERE LAKES BLVD",HOUSTON,TX,77065-4996,"(281) 671-9060",http://legendhomecorp.com/,"(281) 671-9055",,
TX,HARRIS,2006050104,"Single Family Homes",6/16/2020,,128070,2846,"12822 LANDON LIGHT LN",HOUSTON,TX,77356,FORESTWOOD,,CONTRACTOR,,,,,,,,,,,"DR HORTON",,,,,"DR HORTON","14100 SOUTHWEST",HOUSTON,TX,77478,"(281) 201-5559",,,,
TX,HARRIS,2004140073,"Single Family Homes",6/16/2020,,630000,3915,"2310 BAKER RD",HOUSTON,TX,77356,,,"LOUIS TSAKINS","2310 BAKER RD",HOUSTON,TX,77356,,Owner,,,,,OWNER,,,,,OWNER,,,,,,,,,
TX,HARRIS,2006190167,"Single Family Homes",6/16/2020,,89065,2213,"20731 SOLSTICE POINT DR",HOUSTON,TX,77356,"BAUER LANDING",,CONTRACTOR,,,,,,,,,,,"LGI HOMES",,,,,"LGI HOMES","1450 LAKE ROBBINS SUITE 430",CONROE,TX,77380,"(210) 563-4648",,"(281) 210-2601",,
TX,HARRIS,2006190171,"Single Family Homes",6/16/2020,,91878,2262,"20723 SOLSTICE POINT DR",HOUSTON,TX,77356,"BAUER LANDING",,CONTRACTOR,,,,,,,,,,,"LGI HOMES",,,,,"LGI HOMES","1450 LAKE ROBBINS SUITE 430",CONROE,TX,77380,"(210) 563-4648",,"(281) 210-2601",,
TX,HARRIS,2006190176,"Single Family Homes",6/16/2020,,80652,1826,"20719 SOLSTICE POINT DR",HOUSTON,TX,77356,"BAUER LANDING",,CONTRACTOR,,,,,,,,,,,"LGI HOMES",,,,,"LGI HOMES","1450 LAKE ROBBINS SUITE 430",CONROE,TX,77380,"(210) 563-4648",,"(281) 210-2601",,
TX,HARRIS,2006190179,"Single Family Homes",6/16/2020,,98092,2643,"20715 SOLSTICE POINT DR",HOUSTON,TX,77356,"BAUER LANDING",,CONTRACTOR,,,,,,,,,,,"LGI HOMES",,,,,"LGI HOMES","1450 LAKE ROBBINS SUITE 430",CONROE,TX,77380,"(210) 563-4648",,"(281) 210-2601",,
TX,HARRIS,2006190180,"Single Family Homes",6/16/2020,,89065,2213,"20711 SOLSTICE POINT DR",HOUSTON,TX,77356,"BAUER LANDING",,CONTRACTOR,,,,,,,,,,,"LGI HOMES",,,,,"LGI HOMES","1450 LAKE ROBBINS SUITE 430",CONROE,TX,77380,"(210) 563-4648",,"(281) 210-2601",,
TX,HARRIS,2006190184,"Single Family Homes",6/16/2020,,91878,2262,"20703 SOLSTICE POINT DR",HOUSTON,TX,77356,"BAUER LANDING",,CONTRACTOR,,,,,,,,,,,"LGI HOMES",,,,,"LGI HOMES","1450 LAKE ROBBINS SUITE 430",CONROE,TX,77380,"(210) 563-4648",,"(281) 210-2601",,
TX,HARRIS,2006190187,"Single Family Homes",6/16/2020,,98092,2643,"21106 SOLSTICE POINT DR",HOUSTON,TX,77356,"BAUER LANDING",,CONTRACTOR,,,,,,,,,,,"LGI HOMES",,,,,"LGI HOMES","1450 LAKE ROBBINS SUITE 430",CONROE,TX,77380,"(210) 563-4648",,"(281) 210-2601",,
TX,HARRIS,2006240044,"Single Family Homes",6/16/2020,,80652,1826,"20911 SOLSTICE POINT DR",HOUSTON,TX,77356,"BAUER LANDING",,CONTRACTOR,,,,,,,,,,,"LGI HOMES",,,,,"LGI HOMES","1450 LAKE ROBBINS SUITE 430",CONROE,TX,77380,"(210) 563-4648",,"(281) 210-2601",,
TX,HARRIS,2006300201,"Single Family Homes",6/16/2020,,71842,2100,"15326 DINNET BERM DR",HOUSTON,TX,77356,BALMORAL,,CONTRACTOR,,,,,,,,,,,"DR HORTON",,,,,"DR HORTON","14100 SOUTHWEST",HOUSTON,TX,77478,"(281) 201-5559",,,,
TX,HARRIS,2006240172,"Single Family Homes",6/16/2020,,181000,2790,"23007 PENSTEMON TRL",HOUSTON,TX,77356,ELYSON,,CONTRACTOR,,,,,,,,,,,"WESTIN HOMES",,,,,"WESTIN HOMES","1 SUGAR CREEK CENTER BLVD STE 600","SUGAR LAND",TX,77478-3787,"(281) 240-1551",http://www.westin-homes.com,,,
TX,HARRIS,2006240173,"Single Family Homes",6/16/2020,,243000,3688,"23114 MULBERRY THICKET TRL",HOUSTON,TX,77356,ELYSON,,CONTRACTOR,,,,,,,,,,,"WESTIN HOMES",,,,,"WESTIN HOMES","1 SUGAR CREEK CENTER BLVD STE 600","SUGAR LAND",TX,77478-3787,"(281) 240-1551",http://www.westin-homes.com,,,
TX,HARRIS,2006240174,"Single Family Homes",6/16/2020,,181000,2790,"23031 PENSTEMON TRL",HOUSTON,TX,77356,ELYSON,,CONTRACTOR,,,,,,,,,,,"WESTIN HOMES",,,,,"WESTIN HOMES","1 SUGAR CREEK CENTER BLVD STE 600","SUGAR LAND",TX,77478-3787,"(281) 240-1551",http://www.westin-homes.com,,,
TX,HARRIS,2006240164,"Single Family Homes",6/16/2020,,264000,4006,"19214 ARROWHEAD LAKE DR",HOUSTON,TX,77356,"BRIDGELAND PARKLAND VILLAGE",,CONTRACTOR,,,,,,,,,,,"WESTIN HOMES",,,,,"WESTIN HOMES","1 SUGAR CREEK CENTER BLVD STE 600","SUGAR LAND",TX,77478-3787,"(281) 240-1551",http://www.westin-homes.com,,,
TX,HARRIS,2006240166,"Single Family Homes",6/16/2020,,224000,4134,"19022 FESTIVAL HILL CT",HOUSTON,TX,77356,"BRIDGELAND PARKLAND VILLAGE",,CONTRACTOR,,,,,,,,,,,"WESTIN HOMES",,,,,"WESTIN HOMES","1 SUGAR CREEK CENTER BLVD STE 600","SUGAR LAND",TX,77478-3787,"(281) 240-1551",http://www.westin-homes.com,,,
TX,HARRIS,2006240167,"Single Family Homes",6/16/2020,,225000,3617,"15234 PRAIRIE DOG TOWN LN",HOUSTON,TX,77356,"BRIDGELAND PARKLAND VILLAGE",,CONTRACTOR,,,,,,,,,,,"WESTIN HOMES",,,,,"WESTIN HOMES","1 SUGAR CREEK CENTER BLVD STE 600","SUGAR LAND",TX,77478-3787,"(281) 240-1551",http://www.westin-homes.com,,,
TX,HARRIS,2006290003,"Single Family Homes",6/16/2020,,251000,3797,"23223 MULBERRY THICKET TRL",HOUSTON,TX,77356,ELYSON,,CONTRACTOR,,,,,,,,,,,"WESTIN HOMES",,,,,"WESTIN HOMES","1 SUGAR CREEK CENTER BLVD STE 600","SUGAR LAND",TX,77478-3787,"(281) 240-1551",http://www.westin-homes.com,,,
TX,HARRIS,2006240098,"Single Family Homes",6/16/2020,,81585,2331,"19515 SHADY HIKE LN",HOUSTON,TX,77356,"BRIDGELAND PARKLAND VILLAGE",,CONTRACTOR,,,,,,,,,,,"DAVID WEEKLEY HOMES",,,,,"DAVID WEEKLEY HOMES","14444 NORTHWEST",HOUSTON,TX,77040,"(713) 570-5021",http://www.davidweekleyhomes.com/,,,
TX,HARRIS,2006240189,"Single Family Homes",6/16/2020,,132975,1677,"23014 SPRUCE SUMMIT TRL",HOUSTON,TX,77356,BRECKENRIDGE,,CONTRACTOR,,,,,,,,,,,"DR HORTON",,,,,"DR HORTON","14100 SOUTHWEST",HOUSTON,TX,77478,"(281) 201-5559",,,,
TX,HARRIS,2006250007,"Single Family Homes",6/16/2020,,93510,2078,"2402 ALLENDALE GARDEN LN",HOUSTON,TX,77356,BRECKENRIDGE,,CONTRACTOR,,,,,,,,,,,"DR HORTON",,,,,"DR HORTON","14100 SOUTHWEST",HOUSTON,TX,77478,"(281) 201-5559",,,,
TX,HARRIS,2006250025,"Single Family Homes",6/16/2020,,122500,2939,"24611 CHARLTON GREEN LN",HOUSTON,TX,77356,"DOVERSHIRE PLACE",,CONTRACTOR,,,,,,,,,,,"DR HORTON",,,,,"DR HORTON","14100 SOUTHWEST",HOUSTON,TX,77478,"(281) 201-5559",,,,
TX,HARRIS,2006250052,"Single Family Homes",6/16/2020,,141660,3148,"5507 DOVER TERRACE WAY",HOUSTON,TX,77356,"JASMINE HEIGHTS",,CONTRACTOR,,,,,,,,,,,"DR HORTON",,,,,"DR HORTON","14100 SOUTHWEST",HOUSTON,TX,77478,"(281) 201-5559",,,,
TX,HARRIS,2006250103,"Single Family Homes",6/16/2020,,157050,3490,"15318 DINNET BERM DR",HOUSTON,TX,77356,BALMORAL,,CONTRACTOR,,,,,,,,,,,"DR HORTON",,,,,"DR HORTON","14100 SOUTHWEST",HOUSTON,TX,77478,"(281) 201-5559",,,,
TX,HARRIS,2006290195,"Single Family Homes",6/16/2020,,110700,2460,"8510 RIALTO CANAL LOOP",HOUSTON,TX,77356,"BRIDGES ON LAKE",,CONTRACTOR,,,,,,,,,,,"DR HORTON",,,,,"DR HORTON","14100 SOUTHWEST",HOUSTON,TX,77478,"(281) 201-5559",,,,
TX,HARRIS,2006290196,"Single Family Homes",6/16/2020,,95265,2117,"8514 RIALTO CANAL LOOP",HOUSTON,TX,77356,"BRIDGES ON LAKE",,CONTRACTOR,,,,,,,,,,,"DR HORTON",,,,,"DR HORTON","14100 SOUTHWEST",HOUSTON,TX,77478,"(281) 201-5559",,,,
TX,HARRIS,2006290197,"Single Family Homes",6/16/2020,,142695,3171,"8518 RIALTO CANAL LOOP",HOUSTON,TX,77356,"BRIDGES ON LAKE",,CONTRACTOR,,,,,,,,,,,"DR HORTON",,,,,"DR HORTON","14100 SOUTHWEST",HOUSTON,TX,77478,"(281) 201-5559",,,,
TX,HARRIS,2006300003,"Single Family Homes",6/16/2020,,126180,2804,"8530 RIALTO CANAL LOOP",HOUSTON,TX,77356,"BRIDGES ON LAKE",,CONTRACTOR,,,,,,,,,,,"DR HORTON",,,,,"DR HORTON","14100 SOUTHWEST",HOUSTON,TX,77478,"(281) 201-5559",,,,
TX,HARRIS,2006300004,"Single Family Homes",6/16/2020,,101385,2253,"8534 RIALTO CANAL LOOP",HOUSTON,TX,77356,"BRIDGES ON LAKE",,CONTRACTOR,,,,,,,,,,,"DR HORTON",,,,,"DR HORTON","14100 SOUTHWEST",HOUSTON,TX,77478,"(281) 201-5559",,,,
TX,HARRIS,2006300005,"Single Family Homes",6/16/2020,,110700,2460,"8538 RIALTO CANAL LOOP",HOUSTON,TX,77356,"BRIDGES ON LAKE",,CONTRACTOR,,,,,,,,,,,"DR HORTON",,,,,"DR HORTON","14100 SOUTHWEST",HOUSTON,TX,77478,"(281) 201-5559",,,,
TX,HARRIS,2006300006,"Single Family Homes",6/16/2020,,110565,2457,"8542 RIALTO CANAL LOOP",HOUSTON,TX,77356,"BRIDGES ON LAKE",,CONTRACTOR,,,,,,,,,,,"DR HORTON",,,,,"DR HORTON","14100 SOUTHWEST",HOUSTON,TX,77478,"(281) 201-5559",,,,
TX,HARRIS,2006300007,"Single Family Homes",6/16/2020,,117990,2620,"8546 RIALTO CANAL LOOP",HOUSTON,TX,77356,"BRIDGES ON LAKE",,CONTRACTOR,,,,,,,,,,,"DR HORTON",,,,,"DR HORTON","14100 SOUTHWEST",HOUSTON,TX,77478,"(281) 201-5559",,,,
TX,HARRIS,2006300008,"Single Family Homes",6/16/2020,,95265,2117,"8550 RIALTO CANAL LOOP",HOUSTON,TX,77356,"BRIDGES ON LAKE",,CONTRACTOR,,,,,,,,,,,"DR HORTON",,,,,"DR HORTON","14100 SOUTHWEST",HOUSTON,TX,77478,"(281) 201-5559",,,,
TX,HARRIS,2006300002,"Single Family Homes",6/16/2020,,117900,2620,"8526 RIALTO CANAL LOOP",HOUSTON,TX,77356,"BRIDGES ON LAKE",,CONTRACTOR,,,,,,,,,,,"DR HORTON",,,,,"DR HORTON","14100 SOUTHWEST",HOUSTON,TX,77478,"(281) 201-5559",,,,
TX,HARRIS,2006300050,"Single Family Homes",6/16/2020,,142935,2199,"5819 PRAIRIE CHAPEL RD",HOUSTON,TX,77356,"KATY CROSSING",,CONTRACTOR,,,,,,,,,,,"LENNAR HOMES",,,,,"LENNAR HOMES","550 GREENS PKWY",HOUSTON,TX,77067-4537,"(281) 875-1000",http://www.lennar.com/,,,
TX,HARRIS,2006300055,"Single Family Homes",6/16/2020,,174590,2686,"20135 NEW SUNRISE TRL",HOUSTON,TX,77356,MIRAMESA,,CONTRACTOR,,,,,,,,,,,"LENNAR HOMES",,,,,"LENNAR HOMES","550 GREENS PKWY",HOUSTON,TX,77067-4537,"(281) 875-1000",http://www.lennar.com/,,,
TX,HARRIS,2006300061,"Single Family Homes",6/16/2020,,179335,2759,"18427 WHITE STALLION LN",HOUSTON,TX,77356,"BECKER MEADOWS",,CONTRACTOR,,,,,,,,,,,"LENNAR HOMES",,,,,"LENNAR HOMES","550 GREENS PKWY",HOUSTON,TX,77067-4537,"(281) 875-1000",http://www.lennar.com/,,,
TX,HARRIS,2006300064,"Single Family Homes",6/16/2020,,147550,2270,"25507 BURNETT RANCH LN",HOUSTON,TX,77356,"KATY CROSSING",,CONTRACTOR,,,,,,,,,,,"LENNAR HOMES",,,,,"LENNAR HOMES","550 GREENS PKWY",HOUSTON,TX,77067-4537,"(281) 875-1000",http://www.lennar.com/,,,
TX,HARRIS,2006300067,"Single Family Homes",6/16/2020,,176735,2719,"15310 LANCASTER FALLS DR",HOUSTON,TX,77356,"WILDWOOD AT OAKCREST",,CONTRACTOR,,,,,,,,,,,"LENNAR HOMES",,,,,"LENNAR HOMES","550 GREENS PKWY",HOUSTON,TX,77067-4537,"(281) 875-1000",http://www.lennar.com/,,,
TX,HARRIS,2006300070,"Single Family Homes",6/16/2020,,273780,4212,"11914 SUMITOMO LN",HOUSTON,TX,77356,"TOWNE LAKE",,CONTRACTOR,,,,,,,,,,,"VILLAGE BUILDERS",,,,,"VILLAGE BUILDERS","550 GREENS PKWY STE 210",HOUSTON,TX,77067-4538,"(281) 873-4663",,,,
TX,HARRIS,2006300169,"Single Family Homes",6/16/2020,,122445,2721,"8522 RIALTO CANAL LOOP",HOUSTON,TX,77356,"BRIDGES ON LAKE",,CONTRACTOR,,,,,,,,,,,"DR HORTON",,,,,"DR HORTON","14100 SOUTHWEST",HOUSTON,TX,77478,"(281) 201-5559",,,,
TX,HARRIS,2006290125,"Single Family Homes",6/16/2020,,350000,3799,"16203 CEDAR GROVE LN",HOUSTON,TX,77356,"BRIDGELAND PARKLAND VILLAGE",,CONTRACTOR,,,,,,,,,,,"RAVENNA HOMES",,,,,"RAVENNA HOMES","28902 POWDER RIDGE DR",KATY,TX,77494-1918,"(281) 693-7209",,,,
TX,HARRIS,2006290128,"Single Family Homes",6/16/2020,,300000,2870,"19727 SANDY FLATS LN",HOUSTON,TX,77356,"BRIDGELAND PARKLAND VILLAGE",,CONTRACTOR,,,,,,,,,,,"RAVENNA HOMES",,,,,"RAVENNA HOMES","28902 POWDER RIDGE DR",KATY,TX,77494-1918,"(281) 693-7209",,,,
TX,HARRIS,2006290133,"Single Family Homes",6/16/2020,,300000,2909,"19731 SANDY FLATS LN",HOUSTON,TX,77356,"BRIDGELAND PARKLAND VILLAGE",,CONTRACTOR,,,,,,,,,,,"RAVENNA HOMES",,,,,"RAVENNA HOMES","28902 POWDER RIDGE DR",KATY,TX,77494-1918,"(281) 693-7209",,,,
TX,HARRIS,2006290127,"Single Family Homes",6/16/2020,,108145,1931,"1447 GREEN HIGHLAND DR",HOUSTON,TX,77356,"HIGHLAND GLEN",,CONTRACTOR,,,,,,,,,,,"ANGLIA HOMES",,,,,"ANGLIA HOMES","17510 RED OAK DR",HOUSTON,TX,77090,"(281) 943-5288",http://www.angliahomeslp.com/,,,
TX,HARRIS,2006290132,"Single Family Homes",6/16/2020,,114970,2140,"1439 GREEN HIGHLAND DR",HOUSTON,TX,77356,"HIGHLAND GLEN",,CONTRACTOR,,,,,,,,,,,"ANGLIA HOMES",,,,,"ANGLIA HOMES","17510 RED OAK DR",HOUSTON,TX,77090,"(281) 943-5288",http://www.angliahomeslp.com/,,,
TX,HARRIS,2006290140,"Single Family Homes",6/16/2020,,108145,1931,"1427 GREEN HIGHLAND DR",HOUSTON,TX,77356,"HIGHLAND GLEN",,CONTRACTOR,,,,,,,,,,,"ANGLIA HOMES",,,,,"ANGLIA HOMES","17510 RED OAK DR",HOUSTON,TX,77090,"(281) 943-5288",http://www.angliahomeslp.com/,,,
TX,HARRIS,2006290143,"Single Family Homes",6/16/2020,,103420,1671,"1422 GREEN HIGHLAND DR",HOUSTON,TX,77356,"HIGHLAND GLEN",,CONTRACTOR,,,,,,,,,,,"ANGLIA HOMES",,,,,"ANGLIA HOMES","17510 RED OAK DR",HOUSTON,TX,77090,"(281) 943-5288",http://www.angliahomeslp.com/,,,
TX,HARRIS,2006290144,"Single Family Homes",6/16/2020,,119170,2667,"1426 GREEN HIGHLAND DR",HOUSTON,TX,77356,"HIGHLAND GLEN",,CONTRACTOR,,,,,,,,,,,"ANGLIA HOMES",,,,,"ANGLIA HOMES","17510 RED OAK DR",HOUSTON,TX,77090,"(281) 943-5288",http://www.angliahomeslp.com/,,,
TX,HARRIS,2006300179,"Single Family Homes",6/16/2020,,128095,2941,"1443 GREEN HIGHLAND DR",HOUSTON,TX,77356,"HIGHLAND GLEN",,CONTRACTOR,,,,,,,,,,,"ANGLIA HOMES",,,,,"ANGLIA HOMES","17510 RED OAK DR",HOUSTON,TX,77090,"(281) 943-5288",http://www.angliahomeslp.com/,,,
TX,HARRIS,2006240111,"Single Family Homes",6/16/2020,,98560,2816,"15027 BUSHY BLUESTEM CT",HOUSTON,TX,77356,"BRIDGELAND PARKLAND VILLAGE",,CONTRACTOR,,,,,,,,,,,"DAVID WEEKLEY HOMES",,,,,"DAVID WEEKLEY HOMES","14444 NORTHWEST",HOUSTON,TX,77040,"(713) 570-5021",http://www.davidweekleyhomes.com/,,,
TX,HARRIS,2006190103,"Single Family Homes",6/16/2020,,91878,2262,"20927 SOLSTICE POINT DR",HOUSTON,TX,77356,"BAUER LANDING",,CONTRACTOR,,,,,,,,,,,"LGI HOMES",,,,,"LGI HOMES","1450 LAKE ROBBINS SUITE 430",CONROE,TX,77380,"(210) 563-4648",,"(281) 210-2601",,
TX,HARRIS,2006190104,"Single Family Homes",6/16/2020,,80652,1826,"20923 SOLSTICE POINT DR",HOUSTON,TX,77356,"BAUER LANDING",,CONTRACTOR,,,,,,,,,,,"LGI HOMES",,,,,"LGI HOMES","1450 LAKE ROBBINS SUITE 430",CONROE,TX,77380,"(210) 563-4648",,"(281) 210-2601",,
TX,HARRIS,2006190105,"Single Family Homes",6/16/2020,,89065,2213,"20919 SOLSTICE POINT DR",HOUSTON,TX,77356,"BAUER LANDING",,CONTRACTOR,,,,,,,,,,,"LGI HOMES",,,,,"LGI HOMES","1450 LAKE ROBBINS SUITE 430",CONROE,TX,77380,"(210) 563-4648",,"(281) 210-2601",,
TX,HARRIS,2006190107,"Single Family Homes",6/16/2020,,98092,2643,"20915 SOLSTICE POINT DR",HOUSTON,TX,77356,"BAUER LANDING",,CONTRACTOR,,,,,,,,,,,"LGI HOMES",,,,,"LGI HOMES","1450 LAKE ROBBINS SUITE 430",CONROE,TX,77380,"(210) 563-4648",,"(281) 210-2601",,
TX,HARRIS,2006190113,"Single Family Homes",6/16/2020,,98092,2643,"20835 SOLSTICE POINT DR",HOUSTON,TX,77356,"BAUER LANDING",,CONTRACTOR,,,,,,,,,,,"LGI HOMES",,,,,"LGI HOMES","1450 LAKE ROBBINS SUITE 430",CONROE,TX,77380,"(210) 563-4648",,"(281) 210-2601",,
TX,HARRIS,2006190115,"Single Family Homes",6/16/2020,,89065,2213,"20831 SOLSTICE POINT DR",HOUSTON,TX,77356,"BAUER LANDING",,CONTRACTOR,,,,,,,,,,,"LGI HOMES",,,,,"LGI HOMES","1450 LAKE ROBBINS SUITE 430",CONROE,TX,77380,"(210) 563-4648",,"(281) 210-2601",,
TX,HARRIS,2006190117,"Single Family Homes",6/16/2020,,91878,2262,"20827 SOLSTICE POINT DR",HOUSTON,TX,77356,"BAUER LANDING",,CONTRACTOR,,,,,,,,,,,"LGI HOMES",,,,,"LGI HOMES","1450 LAKE ROBBINS SUITE 430",CONROE,TX,77380,"(210) 563-4648",,"(281) 210-2601",,
TX,HARRIS,2006190120,"Single Family Homes",6/16/2020,,80652,1826,"20823 SOLSTICE POINT DR",HOUSTON,TX,77356,"BAUER LANDING",,CONTRACTOR,,,,,,,,,,,"LGI HOMES",,,,,"LGI HOMES","1450 LAKE ROBBINS SUITE 430",CONROE,TX,77380,"(210) 563-4648",,"(281) 210-2601",,
TX,HARRIS,2006190131,"Single Family Homes",6/16/2020,,89065,2213,"20819 SOLSTICE POINT DR",HOUSTON,TX,77356,"BAUER LANDING",,CONTRACTOR,,,,,,,,,,,"LGI HOMES",,,,,"LGI HOMES","1450 LAKE ROBBINS SUITE 430",CONROE,TX,77380,"(210) 563-4648",,"(281) 210-2601",,
TX,HARRIS,2006190148,"Single Family Homes",6/16/2020,,91878,2262,"20815 SOLSTICE POINT DR",HOUSTON,TX,77356,"BAUER LANDING",,CONTRACTOR,,,,,,,,,,,"LGI HOMES",,,,,"LGI HOMES","1450 LAKE ROBBINS SUITE 430",CONROE,TX,77380,"(210) 563-4648",,"(281) 210-2601",,
TX,HARRIS,2006190157,"Single Family Homes",6/16/2020,,80652,1826,"20807 SOLSTICE POINT DR",HOUSTON,TX,77356,"BAUER LANDING",,CONTRACTOR,,,,,,,,,,,"LGI HOMES",,,,,"LGI HOMES","1450 LAKE ROBBINS SUITE 430",CONROE,TX,77380,"(210) 563-4648",,"(281) 210-2601",,
TX,HARRIS,2006190164,"Single Family Homes",6/16/2020,,91878,2262,"20803 SOLSTICE POINT DR",HOUSTON,TX,77356,"BAUER LANDING",,CONTRACTOR,,,,,,,,,,,"LGI HOMES",,,,,"LGI HOMES","1450 LAKE ROBBINS SUITE 430",CONROE,TX,77380,"(210) 563-4648",,"(281) 210-2601",,
TX,HARRIS,2006290117,"Single Family Homes",6/16/2020,,185020,3364,"24318 HUNTCLIFF DR",HOUSTON,TX,77356,"KATY LAKES",,CONTRACTOR,,,,,,,,,,,"CASTLEROCK COMMUNITIES",,,,,"CASTLEROCK COMMUNITIES","7670 WOODWAY DR STE 300",HOUSTON,TX,77063-1520,"(713) 600-7000",http://c-rock.com,"(713) 600-0000",,
TX,HARRIS,2006090121,"Single Family Homes",6/16/2020,,100000,1200,"11916 AQUEDUCT RD",HOUSTON,TX,77356,"LINCOLN PARK FARMS",,"JAIME FERNANDEZ","11916 AQUEDUCT RD",HOUSTON,TX,77356,,Owner,,,,,OWNER,,,,,OWNER,,,,,,,,,
TX,HARRIS,2005200016,"Single Family Homes",6/16/2020,,407000,4147,"5810 CROSBY CEDAR BAYOU RD",HOUSTON,TX,77356,"SMITH ACRES",,"JOSE DANIEL HERNANDEZ","5810 CROSBY CEDAR BAYOU RD",HOUSTON,TX,77356,,Owner,,,,,OWNER,,,,,OWNER,,,,,,,,,
TX,HARRIS,2006290185,"Single Family Homes",6/16/2020,,360300,2698,"12343 DRUMMOND MAPLE",HOUSTON,TX,77356,GROVES,,CONTRACTOR,,,,,,,,,,,"PERRY HOMES",,,,,"PERRY HOMES","9000 GULF FWY",HOUSTON,TX,77017-7018,"(713) 417-1396",,,,
TX,HARRIS,2006250028,"Single Family Homes",6/16/2020,,96525,2145,"5414 DOVER TERRACE WAY",HOUSTON,TX,77356,"JASMINE HEIGHTS",,CONTRACTOR,,,,,,,,,,,"DR HORTON",,,,,"DR HORTON","14100 SOUTHWEST",HOUSTON,TX,77478,"(281) 201-5559",,,,
TX,HARRIS,2006250030,"Single Family Homes",6/16/2020,,89505,1989,"5418 DOVER TERRACE WAY",HOUSTON,TX,77356,"JASMINE HEIGHTS",,CONTRACTOR,,,,,,,,,,,"DR HORTON",,,,,"DR HORTON","14100 SOUTHWEST",HOUSTON,TX,77478,"(281) 201-5559",,,,
TX,HARRIS,2006250031,"Single Family Homes",6/16/2020,,141660,3148,"5422 DOVER TERRACE WAY",HOUSTON,TX,77356,"JASMINE HEIGHTS",,CONTRACTOR,,,,,,,,,,,"DR HORTON",,,,,"DR HORTON","14100 SOUTHWEST",HOUSTON,TX,77478,"(281) 201-5559",,,,
TX,HARRIS,2006250032,"Single Family Homes",6/16/2020,,141660,3148,"5426 DOVER TERRACE WAY",HOUSTON,TX,77356,"JASMINE HEIGHTS",,CONTRACTOR,,,,,,,,,,,"DR HORTON",,,,,"DR HORTON","14100 SOUTHWEST",HOUSTON,TX,77478,"(281) 201-5559",,,,
TX,HARRIS,2006250040,"Single Family Homes",6/16/2020,,110700,2460,"5430 DOVER TERRACE WAY",HOUSTON,TX,77356,"JASMINE HEIGHTS",,CONTRACTOR,,,,,,,,,,,"DR HORTON",,,,,"DR HORTON","14100 SOUTHWEST",HOUSTON,TX,77478,"(281) 201-5559",,,,
TX,HARRIS,2006250043,"Single Family Homes",6/16/2020,,89505,1989,"5502 DOVER TERRACE WAY",HOUSTON,TX,77356,"JASMINE HEIGHTS",,CONTRACTOR,,,,,,,,,,,"DR HORTON",,,,,"DR HORTON","14100 SOUTHWEST",HOUSTON,TX,77478,"(281) 201-5559",,,,
TX,HARRIS,2006250044,"Single Family Homes",6/16/2020,,132885,2953,"5506 DOVER TERRACE WAY",HOUSTON,TX,77356,"JASMINE HEIGHTS",,CONTRACTOR,,,,,,,,,,,"DR HORTON",,,,,"DR HORTON","14100 SOUTHWEST",HOUSTON,TX,77478,"(281) 201-5559",,,,
TX,HARRIS,2006250045,"Single Family Homes",6/16/2020,,100800,2240,"21623 VICTORIA HARBOR DR",HOUSTON,TX,77356,"JASMINE HEIGHTS",,CONTRACTOR,,,,,,,,,,,"DR HORTON",,,,,"DR HORTON","14100 SOUTHWEST",HOUSTON,TX,77478,"(281) 201-5559",,,,
TX,HARRIS,2006250046,"Single Family Homes",6/16/2020,,96525,2145,"21619 VICTORIA HARBOR DR",HOUSTON,TX,77356,"JASMINE HEIGHTS",,CONTRACTOR,,,,,,,,,,,"DR HORTON",,,,,"DR HORTON","14100 SOUTHWEST",HOUSTON,TX,77478,"(281) 201-5559",,,,
TX,HARRIS,2006250048,"Single Family Homes",6/16/2020,,132975,2955,"21615 VICTORIA HARBOR DR",HOUSTON,TX,77356,"JASMINE HEIGHTS",,CONTRACTOR,,,,,,,,,,,"DR HORTON",,,,,"DR HORTON","14100 SOUTHWEST",HOUSTON,TX,77478,"(281) 201-5559",,,,
TX,HARRIS,2006250049,"Single Family Homes",6/16/2020,,96525,2145,"5427 DOVER TERRACE WAY",HOUSTON,TX,77356,"JASMINE HEIGHTS",,CONTRACTOR,,,,,,,,,,,"DR HORTON",,,,,"DR HORTON","14100 SOUTHWEST",HOUSTON,TX,77478,"(281) 201-5559",,,,
TX,HARRIS,2006220139,"Single Family Homes",6/16/2020,,181470,1983,"15738 CAIRNWELL BEND DR",HOUSTON,TX,77356,BALMORAL,,CONTRACTOR,,,,,,,,,,,"EHT OF TEXAS LP",,,,,"EHT OF TEXAS LP","10235 LITTLE",HOUSTON,TX,77040,"(713) 557-3685",,,,
TX,HARRIS,2006220045,"Single Family Homes",6/16/2020,,237990,2611,"15750 CAIRNWELL BEND DR",HOUSTON,TX,77356,BALMORAL,,CONTRACTOR,,,,,,,,,,,"EHT OF TEXAS LP",,,,,"EHT OF TEXAS LP","10235 LITTLE",HOUSTON,TX,77040,"(713) 557-3685",,,,
TX,HARRIS,2005190040,"Single Family Homes",6/16/2020,,114120,2333,"18610 GREEN LAND WAY",HOUSTON,TX,77356,"CONTEMPO AT KATY",,CONTRACTOR,,,,,,,,,,,"CONTEMPO BUILDER",,,,,"CONTEMPO BUILDER","1808 SNAKE RIVER RD STE D",KATY,TX,77449-7746,"(832) 275-2469",http://www.contempobuilder.com,"(281) 596-4376","JULIO FERNANDEZ",julio@contempobuilder.com
TX,HARRIS,2006240117,"Single Family Homes",6/16/2020,,142935,2199,"4706 COPPER VISTA CT",HOUSTON,TX,77356,"PORTER RANCH",,CONTRACTOR,,,,,,,,,,,"LENNAR HOMES",,,,,"LENNAR HOMES","550 GREENS PKWY",HOUSTON,TX,77067-4537,"(281) 875-1000",http://www.lennar.com/,,,
TX,HARRIS,2006240118,"Single Family Homes",6/16/2020,,142935,2199,"4707 COPPER VISTA CT",HOUSTON,TX,77356,"PORTER RANCH",,CONTRACTOR,,,,,,,,,,,"LENNAR HOMES",,,,,"LENNAR HOMES","550 GREENS PKWY",HOUSTON,TX,77067-4537,"(281) 875-1000",http://www.lennar.com/,,,
TX,HARRIS,2006260070,"Single Family Homes",6/16/2020,,108000,1661,"7214 GREENFORD VILLAGE WAY",HOUSTON,TX,77356,"IMPERIAL FOREST",,CONTRACTOR,,,,,,,,,,,"STARLIGHT HOMES",,,,,"STARLIGHT HOMES","10110 W SAM HOUSTON PKWY N",HOUSTON,TX,77064-7508,"(832) 478-9032",,,,
TX,HARRIS,2006260036,"Single Family Homes",6/16/2020,,96000,2110,"12907 GALLOWHILL DR",HOUSTON,TX,77356,BALMORAL,,CONTRACTOR,,,,,,,,,,,"GEHAN HOMES",,,,,"GEHAN HOMES","2050 W SAM HOUSTON PKWY S",HOUSTON,TX,77042-2079,"(713) 243-3545",http://www.gehanhomes.com,,,
TX,HARRIS,2006260033,"Single Family Homes",6/16/2020,,100000,2308,"31419 STONE RIDGE FOREST DR",HOUSTON,TX,77356,"STONE CREEK RANCH",,CONTRACTOR,,,,,,,,,,,"GEHAN HOMES",,,,,"GEHAN HOMES","2050 W SAM HOUSTON PKWY S",HOUSTON,TX,77042-2079,"(713) 243-3545",http://www.gehanhomes.com,,,
TX,HARRIS,2006190023,"Single Family Homes",6/16/2020,,155000,3572,"24419 BLAIRBURRY DR",HOUSTON,TX,77356,"KATY LAKES",,CONTRACTOR,,,,,,,,,,,"GEHAN HOMES",,,,,"GEHAN HOMES","2050 W SAM HOUSTON PKWY S",HOUSTON,TX,77042-2079,"(713) 243-3545",http://www.gehanhomes.com,,,
TX,HARRIS,2006260032,"Single Family Homes",6/16/2020,,107360,2409,"15410 KIRKDELL BEND DR",HOUSTON,TX,77356,BALMORAL,,CONTRACTOR,,,,,,,,,,,"GEHAN HOMES",,,,,"GEHAN HOMES","2050 W SAM HOUSTON PKWY S",HOUSTON,TX,77042-2079,"(713) 243-3545",http://www.gehanhomes.com,,,
TX,HARRIS,2006260013,"Single Family Homes",6/16/2020,,374974,4057,"25011 OXBOW LAKE LN",HOUSTON,TX,77356,"SHADOW CREEK",,CONTRACTOR,,,,,,,,,,,"J PATRICK HOMES",,,,,"J PATRICK HOMES","9700 RICHMOND AVE STE 162",HOUSTON,TX,77042-4698,"(713) 789-8004",,,,
TX,HARRIS,2006260157,"Single Family Homes",6/16/2020,,97560,2439,"19402 PACERS GAIT LN",HOUSTON,TX,77356,AMIRA,,CONTRACTOR,,,,,,,,,,,"BEAZER HOMES ",,,,,"BEAZER HOMES ","10235 W LITTLE YORK",HOUSTON,TX,77040,"(713) 849-2252",http://www.beazer.com/,,,
TX,HARRIS,2006260158,"Single Family Homes",6/16/2020,,66240,1656,"20134 PERCHERON PARK LN",HOUSTON,TX,77356,AMIRA,,CONTRACTOR,,,,,,,,,,,"BEAZER HOMES ",,,,,"BEAZER HOMES ","10235 W LITTLE YORK",HOUSTON,TX,77040,"(713) 849-2252",http://www.beazer.com/,,,
TX,HARRIS,2006260159,"Single Family Homes",6/16/2020,,85920,1698,"19422 FILLY CHASE CT",HOUSTON,TX,77356,AMIRA,,CONTRACTOR,,,,,,,,,,,"BEAZER HOMES ",,,,,"BEAZER HOMES ","10235 W LITTLE YORK",HOUSTON,TX,77040,"(713) 849-2252",http://www.beazer.com/,,,
TX,HARRIS,2006260167,"Single Family Homes",6/16/2020,,161040,4026,"19218 STABLE HILL CT",HOUSTON,TX,77356,AMIRA,,CONTRACTOR,,,,,,,,,,,"BEAZER HOMES ",,,,,"BEAZER HOMES ","10235 W LITTLE YORK",HOUSTON,TX,77040,"(713) 849-2252",http://www.beazer.com/,,,
TX,HARRIS,2006290071,"Single Family Homes",6/16/2020,,73240,1831,"5206 SUNWAY DR",HOUSTON,TX,77356,MARISOL,,CONTRACTOR,,,,,,,,,,,"BEAZER HOMES ",,,,,"BEAZER HOMES ","10235 W LITTLE YORK",HOUSTON,TX,77040,"(713) 849-2252",http://www.beazer.com/,,,
TX,HARRIS,2006290075,"Single Family Homes",6/15/2020,,87760,2194,"5211 YELLOW RAYS TRL",HOUSTON,TX,77356,MARISOL,,CONTRACTOR,,,,,,,,,,,"BEAZER HOMES ",,,,,"BEAZER HOMES ","10235 W LITTLE YORK",HOUSTON,TX,77040,"(713) 849-2252",http://www.beazer.com/,,,
TX,HARRIS,2006300086,"Single Family Homes",6/16/2020,,65000,1625,"21431 HAWTHORN HARVEST CIR",HOUSTON,TX,77356,LANTANA,,CONTRACTOR,,,,,,,,,,,"BEAZER HOMES ",,,,,"BEAZER HOMES ","10235 W LITTLE YORK",HOUSTON,TX,77040,"(713) 849-2252",http://www.beazer.com/,,,
TX,HARRIS,2006160070,"Single Family Homes",6/16/2020,,150000,1120,"9835 S GALWAN CIR",HOUSTON,TX,77356,"GREEN CREEK ESTATES",,"ERNEST ESCALONA","9835 S GALWAN CIR",HOUSTON,TX,77356,,Owner,,,,,OWNER,,,,,OWNER,,,,,,,,,
TX,HARRIS,2006250074,"Single Family Homes",6/16/2020,,273885,2903,"20911 BRAVE LEGION WAY",HOUSTON,TX,77356,"ALBURY TRAILS ESTATES",,CONTRACTOR,,,,,,,,,,,"HARRISBURG HOMES",,,,,"HARRISBURG HOMES","21615 FIREMIST WAY",CYPRESS,TX,77433-3507,"(713) 249-8196",http://www.harrisburgtx.com/,,SHAWN,info@harrisburgtx.com
TX,HARRIS,2006260016,"Single Family Homes",6/16/2020,,186010,3382,"15210 LILY BANK DR",HOUSTON,TX,77356,BALMORAL,,CONTRACTOR,,,,,,,,,,,"CASTLEROCK COMMUNITIES",,,,,"CASTLEROCK COMMUNITIES","7670 WOODWAY DR STE 300",HOUSTON,TX,77063-1520,"(713) 600-7000",http://c-rock.com,"(713) 600-0000",,
TX,HARRIS,2006260020,"Single Family Homes",6/16/2020,,164010,2982,"15403 KIRKDELL BEND DR",HOUSTON,TX,77356,BALMORAL,,CONTRACTOR,,,,,,,,,,,"CASTLEROCK COMMUNITIES",,,,,"CASTLEROCK COMMUNITIES","7670 WOODWAY DR STE 300",HOUSTON,TX,77063-1520,"(713) 600-7000",http://c-rock.com,"(713) 600-0000",,
TX,HARRIS,2006230161,"Single Family Homes",6/16/2020,,239000,3679,"5022 PINE RIDGE KNOLL CT",HOUSTON,TX,77356,"KATY MANOR",,CONTRACTOR,,,,,,,,,,,"KB HOME",,,,,"KB HOME","11314 RICHMOND AVE",HOUSTON,TX,77082-2616,"(281) 668-3800",,,,
TX,HARRIS,2006230159,"Single Family Homes",6/16/2020,,195000,3006,"5018 PINE RIDGE KNOLL CT",HOUSTON,TX,77356,"KATY MANOR",,CONTRACTOR,,,,,,,,,,,"KB HOME",,,,,"KB HOME","11314 RICHMOND AVE",HOUSTON,TX,77082-2616,"(281) 668-3800",,,,
TX,HARRIS,2006230049,"Single Family Homes",6/16/2020,,220000,3377,"4211 MOSSY BANKS LN",HOUSTON,TX,77356,"CYPRESS CREEK LANDING",,CONTRACTOR,,,,,,,,,,,"KB HOME",,,,,"KB HOME","11314 RICHMOND AVE",HOUSTON,TX,77082-2616,"(281) 668-3800",,,,
TX,HARRIS,2006040114,"Single Family Homes",6/16/2020,,135000,2500,"14620 BOHEMIAN HALL RD",HOUSTON,TX,77356,,,CONTRACTOR,,,,,,,,,,,"STONE GABLE HOMES",,,,,"STONE GABLE HOMES","6630 FM 2100 RD STE A",CROSBY,TX,77532-5664,"(281) 924-8942",,,,
TX,HARRIS,2006240106,"Single Family Homes",6/16/2020,,103040,2944,"19519 SHADY HIKE LN",HOUSTON,TX,77356,"BRIDGELAND PARKLAND VILLAGE",,CONTRACTOR,,,,,,,,,,,"DAVID WEEKLEY HOMES",,,,,"DAVID WEEKLEY HOMES","14444 NORTHWEST",HOUSTON,TX,77040,"(713) 570-5021",http://www.davidweekleyhomes.com/,,,
TX,HARRIS,2006220003,"Single Family Homes",6/16/2020,,259000,4126,"15771 DEESIDE SPRING DR",HOUSTON,TX,77356,BALMORAL,,CONTRACTOR,,,,,,,,,,,"WESTIN HOMES",,,,,"WESTIN HOMES","1 SUGAR CREEK CENTER BLVD STE 600","SUGAR LAND",TX,77478-3787,"(281) 240-1551",http://www.westin-homes.com,,,
TX,HARRIS,2006240165,"Single Family Homes",6/16/2020,,213000,3576,"15847 FOREMASTON FOREST DR",HOUSTON,TX,77356,BALMORAL,,CONTRACTOR,,,,,,,,,,,"WESTIN HOMES",,,,,"WESTIN HOMES","1 SUGAR CREEK CENTER BLVD STE 600","SUGAR LAND",TX,77478-3787,"(281) 240-1551",http://www.westin-homes.com,,,
TX,HARRIS,2006240168,"Single Family Homes",6/16/2020,,186000,2870,"15639 SCOLTY REACH LN",HOUSTON,TX,77356,BALMORAL,,CONTRACTOR,,,,,,,,,,,"WESTIN HOMES",,,,,"WESTIN HOMES","1 SUGAR CREEK CENTER BLVD STE 600","SUGAR LAND",TX,77478-3787,"(281) 240-1551",http://www.westin-homes.com,,,
TX,HARRIS,2006240033,"Single Family Homes",6/16/2020,,103050,2291,"4763 AVELLINO BASE DR",HOUSTON,TX,77356,"VENTANA LAKES",,CONTRACTOR,,,,,,,,,,,"DR HORTON",,,,,"DR HORTON","14100 SOUTHWEST",HOUSTON,TX,77478,"(281) 201-5559",,,,
TX,HARRIS,2006240035,"Single Family Homes",6/16/2020,,125640,2141,"4767 AVELLINO BASE DR",HOUSTON,TX,77356,"VENTANA LAKES",,CONTRACTOR,,,,,,,,,,,"DR HORTON",,,,,"DR HORTON","14100 SOUTHWEST",HOUSTON,TX,77478,"(281) 201-5559",,,,
TX,HARRIS,2006240037,"Single Family Homes",6/16/2020,,95130,2114,"22702 PALERMO RIM LN",HOUSTON,TX,77356,"VENTANA LAKES",,CONTRACTOR,,,,,,,,,,,"DR HORTON",,,,,"DR HORTON","14100 SOUTHWEST",HOUSTON,TX,77478,"(281) 201-5559",,,,
TX,HARRIS,2006240047,"Single Family Homes",6/16/2020,,122500,2712,"22710 PALERMO RIM LN",HOUSTON,TX,77356,"VENTANA LAKES",,CONTRACTOR,,,,,,,,,,,"DR HORTON",,,,,"DR HORTON","14100 SOUTHWEST",HOUSTON,TX,77478,"(281) 201-5559",,,,
TX,HARRIS,2006260160,"Single Family Homes",6/16/2020,,113400,2835,"20323 GRAY YEARLING TRL",HOUSTON,TX,77356,AMIRA,,CONTRACTOR,,,,,,,,,,,"BEAZER HOMES ",,,,,"BEAZER HOMES ","10235 W LITTLE YORK",HOUSTON,TX,77040,"(713) 849-2252",http://www.beazer.com/,,,
TX,HARRIS,2006260164,"Single Family Homes",6/16/2020,,126280,3157,"19014 COURSER FIELD CT",HOUSTON,TX,77356,AMIRA,,CONTRACTOR,,,,,,,,,,,"BEAZER HOMES ",,,,,"BEAZER HOMES ","10235 W LITTLE YORK",HOUSTON,TX,77040,"(713) 849-2252",http://www.beazer.com/,,,
TX,HARRIS,2006260166,"Single Family Homes",6/16/2020,,126280,3157,"19003 PASA FINO PRAIRIE LN",HOUSTON,TX,77356,AMIRA,,CONTRACTOR,,,,,,,,,,,"BEAZER HOMES ",,,,,"BEAZER HOMES ","10235 W LITTLE YORK",HOUSTON,TX,77040,"(713) 849-2252",http://www.beazer.com/,,,
TX,HARRIS,2006260168,"Single Family Homes",6/16/2020,,161040,4026,"20119 APPALOOSA HILL",HOUSTON,TX,77356,AMIRA,,CONTRACTOR,,,,,,,,,,,"BEAZER HOMES ",,,,,"BEAZER HOMES ","10235 W LITTLE YORK",HOUSTON,TX,77040,"(713) 849-2252",http://www.beazer.com/,,,
TX,HARRIS,2006260169,"Single Family Homes",6/16/2020,,149480,3737,"19219 STABLE HILL",HOUSTON,TX,77356,AMIRA,,CONTRACTOR,,,,,,,,,,,"BEAZER HOMES ",,,,,"BEAZER HOMES ","10235 W LITTLE YORK",HOUSTON,TX,77040,"(713) 849-2252",http://www.beazer.com/,,,
TX,HARRIS,2006250155,"Single Family Homes",6/16/2020,,200000,2800,"19103 FALKENSTINE CASTLE WAY",HOUSTON,TX,77356,"BRIDGELAND PARKLAND VILLAGE",,CONTRACTOR,,,,,,,,,,,"M/I HOMES",,,,,"M/I HOMES","10910 NORTH SAM HOUSTON PKWY W",HOUSTON,TX,77064,"(832) 912-1012",,,,
TX,HARRIS,2006250163,"Single Family Homes",6/16/2020,,126310,2631,"21527 HENRYS BLUSH DR",HOUSTON,TX,77356,"ROSEHILL RESERVE",,CONTRACTOR,,,,,,,,,,,"GEHAN HOMES",,,,,"GEHAN HOMES","2050 W SAM HOUSTON PKWY S",HOUSTON,TX,77042-2079,"(713) 243-3545",http://www.gehanhomes.com,,,
TX,HARRIS,2006240031,"Single Family Homes",6/16/2020,,268875,2390,"19415 TROTTER CAMP TRL",HOUSTON,TX,77356,AMIRA,,CONTRACTOR,,,,,,,,,,,"PERRY HOMES",,,,,"PERRY HOMES","9000 GULF FWY",HOUSTON,TX,77017-7018,"(713) 417-1396",,,,
TX,HARRIS,2006250152,"Single Family Homes",6/16/2020,,374974,4415,"25010 ROSA AURORA WAY",HOUSTON,TX,77356,"SHADOW CREEK",,CONTRACTOR,,,,,,,,,,,"J PATRICK HOMES",,,,,"J PATRICK HOMES","9700 RICHMOND AVE STE 162",HOUSTON,TX,77042-4698,"(713) 789-8004",,,,
TX,HARRIS,2006250127,"Single Family Homes",6/16/2020,,356500,3263,"6311 GRAYSON GABLE TRL",HOUSTON,TX,77356,ELYSON,,CONTRACTOR,,,,,,,,,,,"PULTE HOMES",,,,,"PULTE HOMES","16670 PARK ROW",HOUSTON,TX,77084-6866,"(281) 749-8000",,,,
TX,HARRIS,2006240053,"Single Family Homes",6/16/2020,,211500,2251,"17811 FRIESIAN PASTURES CT",HOUSTON,TX,77356,WINDROW,,CONTRACTOR,,,,,,,,,,,"PULTE HOMES",,,,,"PULTE HOMES","16670 PARK ROW",HOUSTON,TX,77084-6866,"(281) 749-8000",,,,
TX,HARRIS,2006240079,"Single Family Homes",6/16/2020,,354825,3154,"13727 BRAHMAN VALLEY CT",HOUSTON,TX,77356,,,CONTRACTOR,,,,,,,,,,,"PERRY HOMES",,,,,"PERRY HOMES","9000 GULF FWY",HOUSTON,TX,77017-7018,"(713) 417-1396",,,,
TX,HARRIS,2006240067,"Single Family Homes",6/16/2020,,304538,2707,"19023 ANDALUSIAN GLEN LN",HOUSTON,TX,77356,AMIRA,,CONTRACTOR,,,,,,,,,,,"PERRY HOMES",,,,,"PERRY HOMES","9000 GULF FWY",HOUSTON,TX,77017-7018,"(713) 417-1396",,,,
TX,HARRIS,2006240048,"Single Family Homes",6/16/2020,,215000,1411,"14503 OVERLAND HOLLOW DR",HOUSTON,TX,77356,"RETREAT AT CHAMPIONS",,CONTRACTOR,,,,,,,,,,,"PULTE HOMES",,,,,"PULTE HOMES","16670 PARK ROW",HOUSTON,TX,77084-6866,"(281) 749-8000",,,,
TX,HARRIS,2006220120,"Single Family Homes",6/16/2020,,273600,2432,"19631 MIER EXPEDITION DR",HOUSTON,TX,77356,"BRIDGELAND PARKLAND VILLAGE",,CONTRACTOR,,,,,,,,,,,"PERRY HOMES",,,,,"PERRY HOMES","9000 GULF FWY",HOUSTON,TX,77017-7018,"(713) 417-1396",,,,
TX,HARRIS,2006240036,"Single Family Homes",6/16/2020,,203000,1188,"14538 CHASING BEND DR",HOUSTON,TX,77356,"RETREAT AT CHAMPIONS LANDING",,CONTRACTOR,,,,,,,,,,,"PULTE HOMES",,,,,"PULTE HOMES","16670 PARK ROW",HOUSTON,TX,77084-6866,"(281) 749-8000",,,,
TX,HARRIS,2006220110,"Single Family Homes",6/16/2020,,415913,3697,"20203 APPALOOSA HILL DR",HOUSTON,TX,77356,AMIRA,,CONTRACTOR,,,,,,,,,,,"PERRY HOMES",,,,,"PERRY HOMES","9000 GULF FWY",HOUSTON,TX,77017-7018,"(713) 417-1396",,,,
TX,HARRIS,2006220104,"Single Family Homes",6/16/2020,,293513,2609,"20007 WILD HORSE HOLLOW LN",HOUSTON,TX,77356,AMIRA,,CONTRACTOR,,,,,,,,,,,"PERRY HOMES",,,,,"PERRY HOMES","9000 GULF FWY",HOUSTON,TX,77017-7018,"(713) 417-1396",,,,
TX,HARRIS,2006220103,"Single Family Homes",6/16/2020,,320625,2850,"19447 TROTTER CAMP TRL",HOUSTON,TX,77356,AMIRA,,CONTRACTOR,,,,,,,,,,,"PERRY HOMES",,,,,"PERRY HOMES","9000 GULF FWY",HOUSTON,TX,77017-7018,"(713) 417-1396",,,,
TX,HARRIS,2006230127,"Single Family Homes",6/16/2020,,273600,2432,"15034 MONTEZUMA QUAIL DR",HOUSTON,TX,77356,"BRIDGELAND PARKLAND VILLAGE",,CONTRACTOR,,,,,,,,,,,"PERRY HOMES",,,,,"PERRY HOMES","9000 GULF FWY",HOUSTON,TX,77017-7018,"(713) 417-1396",,,,
TX,HARRIS,2006240152,"Single Family Homes",6/16/2020,,423225,3762,"21418 MARTIN TEA TRL",HOUSTON,TX,77356,"ROSEHILL RESERVE",,CONTRACTOR,,,,,,,,,,,"PERRY HOMES",,,,,"PERRY HOMES","9000 GULF FWY",HOUSTON,TX,77017-7018,"(713) 417-1396",,,,
TX,HARRIS,20200262,"Single Family Homes",6/5/2020,,,8749,"29 CAROLANE TR","BUNKER HILL VILLAGE",TX,77024,,,CONTRACTOR,,,,,,,,,,,"AL ROSS LUXURY HOMES",,,,,"AL ROSS LUXURY HOMES","3310 MERCER ST",HOUSTON,TX,77027-6020,"(713) 306-9154",http://www.alrossluxuryhomes.com/,"(713) 487-7578","AL ROSS",al.ross@alrossgroup.com
TX,HARRIS,20200276,"Single Family Homes",6/10/2020,,,9311,"11832 STUCKEY LN","BUNKER HILL VILLAGE",TX,77024,,,CONTRACTOR,,,,,,,,,,,"METROPOLITAN CUSTOM HOMES",,,,,"METROPOLITAN CUSTOM HOMES","14811 SAINT MARYS LN",HOUSTON,TX,77079-2916,"(281) 493-6345",http://www.metropolitancustomhomes.com,,,
TX,MONTGOMERY,20201259,"Single Family Homes",6/3/2020,,225000,,"148 MCKINLEY LANDING",SHENANDOAH,TX,77385,,,"GRACE LILY LP","148 MCKINLEY LANDING",SHENANDOAH,TX,77385,,Owner,,,,,OWNER,,,,,OWNER,,,,,,,,,
TX,MONTGOMERY,20201263,"Single Family Homes",6/2/2020,,701990,,"118 CHATSWORTH LN",SHENANDOAH,TX,77385,,,CONTRACTOR,,,,,,,,,,,"DAVID WEEKLEY HOMES",,,,,"DAVID WEEKLEY HOMES","14444 NORTHWEST",HOUSTON,TX,77040,"(713) 570-5021",http://www.davidweekleyhomes.com/,,,
TX,MONTGOMERY,20201322,"Single Family Homes",6/23/2020,,423990,,"511 KINGSTON LN",SHENANDOAH,TX,77385,,,CONTRACTOR,,,,,,,,,,,"DAVID WEEKLEY HOMES",,,,,"DAVID WEEKLEY HOMES","14444 NORTHWEST",HOUSTON,TX,77040,"(713) 570-5021",http://www.davidweekleyhomes.com/,,,
TX,MONTGOMERY,20201323,"Single Family Homes",6/23/2020,,452990,,"510 KINGSTON LN",SHENANDOAH,TX,77386,,,CONTRACTOR,,,,,,,,,,,"DAVID WEEKLEY HOMES",,,,,"DAVID WEEKLEY HOMES","14444 NORTHWEST",HOUSTON,TX,77040,"(713) 570-5021",http://www.davidweekleyhomes.com/,,,
TX,BRAZORIA,81104216000,"Single Family Homes",6/16/2020,,95000,,"1801 NAVES",FREEPORT,TX,77356,,,"GONZALO CASTANEDA","1801 NAVES",FREEPORT,TX,77356,,Owner,,,,,OWNER,,,,,OWNER,,,,,,,,,
TX,BRAZORIA,77500223000,"Single Family Homes",6/8/2020,,166000,,"807 W 12TH ST",FREEPORT,TX,77386,,,"TORREY QUERIN","807 W 12TH ST",FREEPORT,TX,77386,,Owner,,,,,OWNER,,,,,OWNER,,,,,,,,,
TX,BRAZOS,RES2020-000193,"Single Family Homes",6/1/2020,,292700,,"11725 SPANISH OAK CT","COLLEGE STATION",TX,77385,,,CONTRACTOR,,,,,,,,,,,"SUNSET HOMES",,,,,"SUNSET HOMES","3946 ARBOLEDA DR","COLLEGE STATION",TX,77845-5065,"(979) 680-1033",,,"JOHN ALBERNAZ",
TX,BRAZOS,RES2020-000197,"Single Family Homes",6/2/2020,,197346,,"6326 SPARTAN DR","COLLEGE STATION",TX,77385,,,CONTRACTOR,,,,,,,,,,,"STYLECRAFT BUILDERS ",,,,,"STYLECRAFT BUILDERS ","4090 STATE HIGHWAY 6 S","COLLEGE STATION",TX,77845-8962,"(979) 764-9900",,"(979) 690-3069","TANNER BREWSTER",tabrewster@stylecraft-builders.com
TX,BRAZOS,RES2020-000161,"Single Family Homes",6/3/2020,,157680,,"6983 HALTER LOOP","COLLEGE STATION",TX,77385,,,CONTRACTOR,,,,,,,,,,,"KENDALL HOMES",,,,,"KENDALL HOMES","427 MASON PARK BLVD",KATY,TX,77450-6187,"(281) 398-4010",http://www.kendallhomes.net/,"(281) 398-4011",,
TX,BRAZOS,RES2020-000186,"Single Family Homes",6/3/2020,,199090,,"4019 HERU CT","COLLEGE STATION",TX,77385,,,CONTRACTOR,,,,,,,,,,,"REECE HOMES",,,,,"REECE HOMES","1818 TAYLOR",HOUSTON,TX,77545,"(713) 826-7262",http://www.reece-homes.com/,,,
TX,BRAZOS,RES2020-000196,"Single Family Homes",6/5/2020,,140372,,"4002 CROOKED CREEK PATH","COLLEGE STATION",TX,77385,,,CONTRACTOR,,,,,,,,,,,"BLACKROCK BUILDERS",,,,,"BLACKROCK BUILDERS","553 N POST OAK LN",HOUSTON,TX,77024-4629,"(281) 914-6785",http://www.blackrockbuilderstx.com/,,,
TX,BRAZOS,RES2020-000198,"Single Family Homes",6/3/2020,,196602,,"6317 SOUTHERN CROSS DR","COLLEGE STATION",TX,77385,,,CONTRACTOR,,,,,,,,,,,"STYLECRAFT BUILDERS ",,,,,"STYLECRAFT BUILDERS ","4090 STATE HIGHWAY 6 S","COLLEGE STATION",TX,77845-8962,"(979) 764-9900",,"(979) 690-3069","TANNER BREWSTER",tabrewster@stylecraft-builders.com
TX,BRAZOS,RES2020-000200,"Single Family Homes",6/5/2020,,229520,,"6302 SOUTHERN CROSS DR","COLLEGE STATION",TX,77385,,,CONTRACTOR,,,,,,,,,,,"OMEGA BUILDERS GROUP",,,,,"OMEGA BUILDERS GROUP","7353 W ADAMS AVE",TEMPLE,TX,76502-5539,"(254) 773-9966",,,,
TX,BRAZOS,RES2020-000202,"Single Family Homes",6/5/2020,,172368,,"2704 SCATTERBY CV","COLLEGE STATION",TX,77385,,,CONTRACTOR,,,,,,,,,,,"BLACKROCK BUILDERS",,,,,"BLACKROCK BUILDERS","553 N POST OAK LN",HOUSTON,TX,77024-4629,"(281) 914-6785",http://www.blackrockbuilderstx.com/,,,
TX,BRAZOS,RES2020-000201,"Single Family Homes",6/8/2020,,160664,,"4114 BISON BEND CT","COLLEGE STATION",TX,77385,,,CONTRACTOR,,,,,,,,,,,"RIDGEWOOD CUSTOM HOMES",,,,,"RIDGEWOOD CUSTOM HOMES","106 PHEASANT RUN CT",SUNSET,TX,76270-2176,"(940) 872-9911",,,,
TX,BRAZOS,RES2020-000206,"Single Family Homes",6/9/2020,,177992,,"6305 SOUTHERN CROSS DR","COLLEGE STATION",TX,77845,,,CONTRACTOR,,,,,,,,,,,"OMEGA BUILDERS GROUP",,,,,"OMEGA BUILDERS GROUP","7353 W ADAMS AVE",TEMPLE,TX,76502-5539,"(254) 773-9966",,,,
TX,BRAZOS,RES2020-000089,"Single Family Homes",6/11/2020,,218652,,"210 FIDELITY ST","COLLEGE STATION",TX,77845,,,CONTRACTOR,,,,,,,,,,,"HANCOCK CUSTOM HOMES",,,,,"HANCOCK CUSTOM HOMES","PO BOX 11214","COLLEGE STATION",TX,77842-1214,"(979) 412-6301",http://www.homesbyhancock.com/,,,info@homesbyhancock.com
TX,BRAZOS,RES2020-000127,"Single Family Homes",6/11/2020,,190180,,"1010 DOMINIK DR","COLLEGE STATION",TX,77845,,,CONTRACTOR,,,,,,,,,,,"HANCOCK CUSTOM HOMES",,,,,"HANCOCK CUSTOM HOMES","PO BOX 11214","COLLEGE STATION",TX,77842-1214,"(979) 412-6301",http://www.homesbyhancock.com/,,,info@homesbyhancock.com
TX,BRAZOS,RES2020-000203,"Single Family Homes",6/10/2020,,245000,,"3600 HARDIN HILLS DR","COLLEGE STATION",TX,77845,,,CONTRACTOR,,,,,,,,,,,"BLACKSTONE HANDCRAFTED HOMES",,,,,"BLACKSTONE HANDCRAFTED HOMES","2900 CAIN RD","COLLEGE STATION",TX,77845-6224,"(979) 696-4663",http://blackstonehandcrafted.com/,"(979) 696-4664","MATTHEW JOHNSON",
TX,BRAZOS,RES2020-000199,"Single Family Homes",6/17/2020,,337700,,"3649 ANDERSON ARBOR CT","COLLEGE STATION",TX,77845,,,CONTRACTOR,,,,,,,,,,,"CLASSIC HOMES BY MARIOTT",,,,,"CLASSIC HOMES BY MARIOTT","209 ROCK PRAIRIE RD","COLLEGE STATION",TX,77845-8796,"(979) 696-1787",,"(979) 680-1966",,
TX,BRAZOS,RES2020-000204,"Single Family Homes",6/17/2020,,242616,,"1912 COTTONWOOD TERRACE CT","COLLEGE STATION",TX,77845,,,CONTRACTOR,,,,,,,,,,,"RNL HOME BUILDERS",,,,,"RNL HOME BUILDERS","4253 ROCKY RHODES DRIVE","COLLEGE STATION",TX,77845,"(979) 402-2531",http://www.rnlhomebuilders.com,,,RNLHomebuilders@gmail.com
TX,BRAZOS,RES2020-000210,"Single Family Homes",6/18/2020,,280000,,"1014 FRANCIS DR","COLLEGE STATION",TX,77845,,,CONTRACTOR,,,,,,,,,,,"CMG TEXAS",,,,,"CMG TEXAS","11788 N DOWLING RD","COLLEGE STATION",TX,77845-8550,"(979) 220-0014",,,,
TX,BRAZOS,RES2020-000209,"Single Family Homes",6/19/2020,,258000,,"4828 PEARL RIVER CT","COLLEGE STATION",TX,77845,,,CONTRACTOR,,,,,,,,,,,"MAGRUDER HOMES",,,,,"MAGRUDER HOMES","PO BOX 10572","COLLEGE STATION",TX,77842-0572,"(979) 324-6682",http://magruderhomes.com/,"(979) 696-2383",,john@magruderhomes.com
TX,BRAZOS,RES2020-000212,"Single Family Homes",6/19/2020,,159752,,"6311 SOUTHERN CROSS DR","COLLEGE STATION",TX,77845,,,CONTRACTOR,,,,,,,,,,,"OMEGA BUILDERS GROUP",,,,,"OMEGA BUILDERS GROUP","7353 W ADAMS AVE",TEMPLE,TX,76502-5539,"(254) 773-9966",,,,
TX,BRAZOS,RES2019-000414,"Single Family Homes",6/24/2020,,650000,,"4706 PEARL RIVER CT","COLLEGE STATION",TX,77845,,,CONTRACTOR,,,,,,,,,,,"MURPHY SIGNATURE HOMES",,,,,"MURPHY SIGNATURE HOMES","1580 COPPERFIELD PKWY","COLLEGE STATION",TX,77845-4674,"(979) 703-1979",https://www.murphysignaturehomes.com/,,,
TX,BRAZOS,RES2020-000215,"Single Family Homes",6/24/2020,,231880,,"4105 GREGG CT","COLLEGE STATION",TX,77845,,,CONTRACTOR,,,,,,,,,,,"STYLECRAFT BUILDERS ",,,,,"STYLECRAFT BUILDERS ","4090 STATE HIGHWAY 6 S","COLLEGE STATION",TX,77845-8962,"(979) 764-9900",,"(979) 690-3069","TANNER BREWSTER",tabrewster@stylecraft-builders.com
TX,BRAZOS,RES2020-000180,"Single Family Homes",6/25/2020,,250712,,"1904 BAREBOOT TRL","COLLEGE STATION",TX,77845,,,CONTRACTOR,,,,,,,,,,,"FLAGSHIP CUSTOM HOMES",,,,,"FLAGSHIP CUSTOM HOMES","14391 S DOWLING RD","COLLEGE STATION",TX,77845-3473,"(203) 667-4581",http://wordpress.flagshiptx.com/,,,info@flagshiptx.com
TX,BRAZOS,RES2020-000213,"Single Family Homes",6/26/2020,,175956,,"1102 ROBINSVILLE CT","COLLEGE STATION",TX,77845,,,CONTRACTOR,,,,,,,,,,,"ED FROEHLING BUILDERS ",,,,,"ED FROEHLING BUILDERS ","3887 HIGH LONESOME","COLLEGE STATION",TX,77845-9443,"(979) 694-0565",http://edfroehlingbuilder.com,,,
TX,BRAZOS,RES2020-000216,"Single Family Homes",6/26/2020,,319000,,"3604 HARDIN HILLS DR","COLLEGE STATION",TX,77845,,,CONTRACTOR,,,,,,,,,,,"CALDWELL HOMES",,,,,"CALDWELL HOMES","18127 TWILIGHT SHORES LN",CYPRESS,TX,77433-7046,"(281) 378-3364",http://caldwellhomes.com/,,,info@caldwellhomes.com
TX,BRAZOS,RES2020-000217,"Single Family Homes",6/29/2020,,125364,,"3826 STILL CREEK LOOP","COLLEGE STATION",TX,77845,,,CONTRACTOR,,,,,,,,,,,"STYLECRAFT BUILDERS ",,,,,"STYLECRAFT BUILDERS ","4090 STATE HIGHWAY 6 S","COLLEGE STATION",TX,77845-8962,"(979) 764-9900",,"(979) 690-3069","TANNER BREWSTER",tabrewster@stylecraft-builders.com
TX,MONTGOMERY,173096-20,"Single Family Homes",6/15/2020,,425445,,"136 WILD WICK WAY",HOUSTON,TX,77356,"DEL WEBB",,CONTRACTOR,,,,,,,,,,,"PULTE HOMES",,,,,"PULTE HOMES","16670 PARK ROW",HOUSTON,TX,77084-6866,"(281) 749-8000",,,,
TX,MONTGOMERY,173097-20,"Single Family Homes",6/15/2020,,421340,,"123 KINGSTON LN",HOUSTON,TX,77356,"DEL WEBB",,CONTRACTOR,,,,,,,,,,,"PULTE HOMES",,,,,"PULTE HOMES","16670 PARK ROW",HOUSTON,TX,77084-6866,"(281) 749-8000",,,,
TX,MONTGOMERY,173100-20,"Single Family Homes",6/15/2020,,445160,,"210 SILVER DAPPLE",HOUSTON,TX,77356,"DEL WEBB",,CONTRACTOR,,,,,,,,,,,"PULTE HOMES",,,,,"PULTE HOMES","16670 PARK ROW",HOUSTON,TX,77084-6866,"(281) 749-8000",,,,
TX,MONTGOMERY,173101-20,"Single Family Homes",6/15/2020,,354100,,"27812 ELLIE OAK LN",HOUSTON,TX,77356,"HARMONY VILLAGE",,CONTRACTOR,,,,,,,,,,,"PULTE HOMES",,,,,"PULTE HOMES","16670 PARK ROW",HOUSTON,TX,77084-6866,"(281) 749-8000",,,,
TX,MONTGOMERY,173236-20,"Single Family Homes",6/18/2020,,570000,,"317 BELGIAN CT",HOUSTON,TX,77356,"THE WOODLANDS",,CONTRACTOR,,,,,,,,,,,"PULTE HOMES",,,,,"PULTE HOMES","16670 PARK ROW",HOUSTON,TX,77084-6866,"(281) 749-8000",,,,
TX,MONTGOMERY,173237-20,"Single Family Homes",6/18/2020,,508000,,"340 BELGIAN CT",HOUSTON,TX,77356,"THE WOODLANDS",,CONTRACTOR,,,,,,,,,,,"PULTE HOMES",,,,,"PULTE HOMES","16670 PARK ROW",HOUSTON,TX,77084-6866,"(281) 749-8000",,,,
TX,MONTGOMERY,"173077 -20","Single Family Homes",6/15/2020,,130735,,"305 GALLANT FRONT TR",HOUSTON,TX,77356,"BLACK OAK",,CONTRACTOR,,,,,,,,,,,"RAUSCH COLEMAN HOMES",,,,,"RAUSCH COLEMAN HOMES","9504 N IH35 STE 310","SAN ANTONIO",TX,78233,"(210) 231-0703",https://www.rauschcolemanhomes.com/,,,
TX,MONTGOMERY,173214-20,"Single Family Homes",6/17/2020,,130735,,"150 COURAGEOUS SIDE WAY",HOUSTON,TX,77356,"BLACK OAK",,CONTRACTOR,,,,,,,,,,,"RAUSCH COLEMAN HOMES",,,,,"RAUSCH COLEMAN HOMES","9504 N IH35 STE 310","SAN ANTONIO",TX,78233,"(210) 231-0703",https://www.rauschcolemanhomes.com/,,,
TX,MONTGOMERY,173220-20,"Single Family Homes",6/17/2020,,291780,,"199 COURAGEOUS SIDE WAY",HOUSTON,TX,77356,"BLACK OAK",,CONTRACTOR,,,,,,,,,,,"RAUSCH COLEMAN HOMES",,,,,"RAUSCH COLEMAN HOMES","9504 N IH35 STE 310","SAN ANTONIO",TX,78233,"(210) 231-0703",https://www.rauschcolemanhomes.com/,,,
TX,MONTGOMERY,173073-20,"Single Family Homes",6/15/2020,,350000,,"25003 NICHOLS SAWMILL",HOUSTON,TX,77356,"CLEAR CREEK FOREST",,"ANDREW ROSS","PO BOX 1167",PINEHURST,TX,77362,,Owner,,,,,OWNER,,,,,OWNER,,,,,,,,,
TX,MONTGOMERY,"173092 20","Single Family Homes",6/15/2020,,300000,,"25748 DEEPWOODS DR",HOUSTON,TX,77356,"MARTIN ACRES",,"ANDREW ROSS","PO BOX 1167",PINEHURST,TX,77362,,Owner,,,,,OWNER,,,,,OWNER,,,,,,,,,
TX,MONTGOMERY,173107-20,"Single Family Homes",6/15/2020,,300000,,"24000 OLD HICKORY LN",HOUSTON,TX,77356,"VINTAGE OAKS",,"NANCY STACKS","PO BOX 1760",MONTGOMERY,TX,77356,,Owner,,,,,OWNER,,,,,OWNER,,,,,,,,,
TX,MONTGOMERY,173221-20,"Single Family Homes",6/17/2020,,100000,,"9005 SOUTH COMANCHE CIRCLE",HOUSTON,TX,77356,"TEXAS NATIONAL",,CONTRACTOR,,,,,,,,,,,"STARTER HOMES OF TEXAS",,,,,"STARTER HOMES OF TEXAS","9803 HIGHWAY 242 STE 200 # 211",CONROE,TX,77385-4369,"(281) 367-4200",,,,
TX,MONTGOMERY,173222-20,"Single Family Homes",6/17/2020,,100000,,"12137 MAVERICK DR",HOUSTON,TX,77356,"TEXAS NATIONAL",,CONTRACTOR,,,,,,,,,,,"STARTER HOMES OF TEXAS",,,,,"STARTER HOMES OF TEXAS","9803 HIGHWAY 242 STE 200 # 211",CONROE,TX,77385-4369,"(281) 367-4200",,,,
TX,MONTGOMERY,173180-20,"Single Family Homes",6/16/2020,,350000,,"15604 QUEEN VICTORIA CT",HOUSTON,TX,77356,"CROWN OAKS",,"JASON SULLIVAN","19 WEST SHORE LN",MONTGOMERY,TX,77356,,Owner,,,,,OWNER,,,,,OWNER,,,,,,,,,
TX,MONTGOMERY,173225-20,"Single Family Homes",6/17/2020,,200000,,"11416 WEST KRISTINA CIRCLE",HOUSTON,TX,77356,"GRAND LAKE ESTATES",,"KEITH SURFACE","16033 N CHARPIOT",HUMBLE,TX,77396,,Owner,,,,,OWNER,,,,,OWNER,,,,,,,,,
TX,MONTGOMERY,173250-20,"Single Family Homes",6/18/2020,,250000,,"7119 LORNA",HOUSTON,TX,77356,"MONTGOMERY TRACE",,"KEITH SURFACE","16033 N. CHARPIOT",HUMBLE,TX,77396,,Owner,,,,,OWNER,,,,,OWNER,,,,,,,,,
TX,MONTGOMERY,173296-20,"Single Family Homes",6/19/2020,,240000,,"2102 BAMBI COURT",HOUSTON,TX,77356,"PEACH CREEK PLANTATION",,CONTRACTOR,,,,,,,,,,,"TD COX HOMES",,,,,"TD COX HOMES","PO BOX 9705","THE WOODLANDS",TX,77387-6705,"(281) 364-1800",http://www.tdcoxhomes.com/index.html,,"TOM COX",
TX,MONTGOMERY,173132-20,"Single Family Homes",6/18/2020,,241533,,"28023 CLAPTON PATH",HOUSTON,TX,77356,"MONTGOMERY TRACE",,CONTRACTOR,,,,,,,,,,,"TAYLOR MORRISON OF TEXAS",,,,,"TAYLOR MORRISON OF TEXAS","5353 W SAM HOUSTON PKWY N STE 190",HOUSTON,TX,77041-5186,"(281) 598-3000",,,,
TX,MONTGOMERY,173126-20,"Single Family Homes",6/16/2020,,264680,,"208 GREEN HILLS COURT",HOUSTON,TX,77356,"MAGNOLIA RESERVE",,CONTRACTOR,,,,,,,,,,,"TERRATA HOMES",,,,,"TERRATA HOMES","1450 LAKE ROBBINS DR STE 430","THE WOODLANDS",TX,77380-3294,"(830) 538-9500",http://terratahomes.com/,,,
TX,MONTGOMERY,173128-20,"Single Family Homes",6/16/2020,,288340,,"204 GREEN HILLS CT",HOUSTON,TX,77356,"MAGNOLIA RESERVE",,CONTRACTOR,,,,,,,,,,,"TERRATA HOMES",,,,,"TERRATA HOMES","1450 LAKE ROBBINS DR STE 430","THE WOODLANDS",TX,77380-3294,"(830) 538-9500",http://terratahomes.com/,,,
TX,MONTGOMERY,"173129 20","Single Family Homes",6/16/2020,,233220,,"212 GREEN HILLS CT",HOUSTON,TX,77356,"MAGNOLIA RESERVE",,CONTRACTOR,,,,,,,,,,,"TERRATA HOMES",,,,,"TERRATA HOMES","1450 LAKE ROBBINS DR STE 430","THE WOODLANDS",TX,77380-3294,"(830) 538-9500",http://terratahomes.com/,,,
TX,MONTGOMERY,"173137 20","Single Family Homes",6/16/2020,,160000,,"28282 EMERALD BEND DR",HOUSTON,TX,77356,"WOODSONS RESERVE",,CONTRACTOR,,,,,,,,,,,"TOLL BROTHERS",,,,,"TOLL BROTHERS","10110 W SAM HOUSTON PKWY N STE 350",HOUSTON,TX,77064-7508,"(281) 664-7255",,,,
TX,MONTGOMERY,173141-20,"Single Family Homes",6/16/2020,,175000,,"28227 CLEAR BREEZE CT",HOUSTON,TX,77356,"WOODSONS RESERVE",,CONTRACTOR,,,,,,,,,,,"TOLL BROTHERS",,,,,"TOLL BROTHERS","10110 W SAM HOUSTON PKWY N STE 350",HOUSTON,TX,77064-7508,"(281) 664-7255",,,,
TX,MONTGOMERY,173142-20,"Single Family Homes",6/16/2020,,180000,,"28218 CLEAR BREEZE CT",HOUSTON,TX,77356,"WOODSONS RESERVE",,CONTRACTOR,,,,,,,,,,,"TOLL BROTHERS",,,,,"TOLL BROTHERS","10110 W SAM HOUSTON PKWY N STE 350",HOUSTON,TX,77064-7508,"(281) 664-7255",,,,
TX,MONTGOMERY,173143-20,"Single Family Homes",6/16/2020,,160000,,"28207 CLEAR BREEZE CT",HOUSTON,TX,77356,"WOODSONS RESERVE",,CONTRACTOR,,,,,,,,,,,"TOLL BROTHERS",,,,,"TOLL BROTHERS","10110 W SAM HOUSTON PKWY N STE 350",HOUSTON,TX,77064-7508,"(281) 664-7255",,,,
TX,MONTGOMERY,173145-20,"Single Family Homes",6/16/2020,,170000,,"28215 CLEAR BREEZE CT",HOUSTON,TX,77356,"WOODSONS RESERVE",,CONTRACTOR,,,,,,,,,,,"TOLL BROTHERS",,,,,"TOLL BROTHERS","10110 W SAM HOUSTON PKWY N STE 350",HOUSTON,TX,77064-7508,"(281) 664-7255",,,,
TX,MONTGOMERY,173168-20,"Single Family Homes",6/16/2020,,850000,,"28019 ROYAL SWAN LN",HOUSTON,TX,77356,"WOODSON'S RESERVE",,CONTRACTOR,,,,,,,,,,,"TOLL BROTHERS",,,,,"TOLL BROTHERS","10110 W SAM HOUSTON PKWY N STE 350",HOUSTON,TX,77064-7508,"(281) 664-7255",,,,
TX,MONTGOMERY,173265-20,"Single Family Homes",6/19/2020,,160000,,"28222 CLEAR BREEZE CT",HOUSTON,TX,77356,"WOODSONS RESERVE",,CONTRACTOR,,,,,,,,,,,"TOLL BROTHERS",,,,,"TOLL BROTHERS","10110 W SAM HOUSTON PKWY N STE 350",HOUSTON,TX,77064-7508,"(281) 664-7255",,,,
TX,MONTGOMERY,173266-20,"Single Family Homes",6/19/2020,,160000,,"28226 CLEAR BREEZE CT",HOUSTON,TX,77356,"WOODSONS RESERVE",,CONTRACTOR,,,,,,,,,,,"TOLL BROTHERS",,,,,"TOLL BROTHERS","10110 W SAM HOUSTON PKWY N STE 350",HOUSTON,TX,77064-7508,"(281) 664-7255",,,,
TX,MONTGOMERY,173267-20,"Single Family Homes",6/19/2020,,155000,,"4373 VICTORIA PINE DR",HOUSTON,TX,77356,"WOODSONS RESERVE",,CONTRACTOR,,,,,,,,,,,"TOLL BROTHERS",,,,,"TOLL BROTHERS","10110 W SAM HOUSTON PKWY N STE 350",HOUSTON,TX,77064-7508,"(281) 664-7255",,,,
TX,MONTGOMERY,173183-20,"Single Family Homes",6/16/2020,,100000,,"27706 NORTH SALMON CT",HOUSTON,TX,77356,"RIO VISTA",,CONTRACTOR,,,,,,,,,,,"TWO SONS ENVIRONMENTAL SERVICES",,,,,"TWO SONS ENVIRONMENTAL SERVICES","23565 FM 1314 RD",PORTER,TX,77365-3724,"(281) 354-9284",http://www.two-sons.net,"(281) 354-2107",,twosonsenvironmental@yahoo.com
TX,MONTGOMERY,1?3254-20,"Single Family Homes",6/18/2020,,100000,,"19338 RIVERWALK DR",HOUSTON,TX,77356,"RIVER WALK",,CONTRACTOR,,,,,,,,,,,"TWO SONS ENVIRONMENTAL SERVICES",,,,,"TWO SONS ENVIRONMENTAL SERVICES","23565 FM 1314 RD",PORTER,TX,77365-3724,"(281) 354-9284",http://www.two-sons.net,"(281) 354-2107",,twosonsenvironmental@yahoo.com
TX,MONTGOMERY,173108-20,"Single Family Homes",6/15/2020,,158730,,"509 SAGE TIMBERS LN",HOUSTON,TX,77356,WOODTRACE,,CONTRACTOR,,,,,,,,,,,"VILLAGE BUILDERS",,,,,"VILLAGE BUILDERS","550 GREENS PKWY STE 210",HOUSTON,TX,77067-4538,"(281) 873-4663",,,,
TX,MONTGOMERY,173203-20,"Single Family Homes",6/17/2020,,225000,,"27109 MADELINE LAKE CIRCLE",HOUSTON,TX,77356,NORTHGROVE,,CONTRACTOR,,,,,,,,,,,"WESTIN HOMES",,,,,"WESTIN HOMES","1 SUGAR CREEK CENTER BLVD STE 600","SUGAR LAND",TX,77478-3787,"(281) 240-1551",http://www.westin-homes.com,,,
TX,MONTGOMERY,173205-20,"Single Family Homes",6/17/2020,,260000,,"27119 SPANISH WIND CT",HOUSTON,TX,77356,NORTHGROVE,,CONTRACTOR,,,,,,,,,,,"WESTIN HOMES",,,,,"WESTIN HOMES","1 SUGAR CREEK CENTER BLVD STE 600","SUGAR LAND",TX,77478-3787,"(281) 240-1551",http://www.westin-homes.com,,,
TX,MONTGOMERY,173231-20,"Single Family Homes",6/17/2020,,259000,,"25212 AUTUMN WATER ST",HOUSTON,TX,77356,"WOODRIDGE FOREST",,CONTRACTOR,,,,,,,,,,,"WESTIN HOMES",,,,,"WESTIN HOMES","1 SUGAR CREEK CENTER BLVD STE 600","SUGAR LAND",TX,77478-3787,"(281) 240-1551",http://www.westin-homes.com,,,
TX,MONTGOMERY,1?3232-20,"Single Family Homes",6/17/2020,,259000,,"17602 BLUSHING MEADOW ST",HOUSTON,TX,77356,ARTAVIA,,CONTRACTOR,,,,,,,,,,,"WESTIN HOMES",,,,,"WESTIN HOMES","1 SUGAR CREEK CENTER BLVD STE 600","SUGAR LAND",TX,77478-3787,"(281) 240-1551",http://www.westin-homes.com,,,
TX,MONTGOMERY,173377-20,"Single Family Homes",6/23/2020,,750000,,"17349 SUNSET RANCH DR",HOUSTON,TX,77356,"SUNSET RANCH",,CONTRACTOR,,,,,,,,,,,"AMERICAN MUSTANG CUSTOM HOMES",,,,,"AMERICAN MUSTANG CUSTOM HOMES","40014 GABLE CIR",MAGNOLIA,TX,77354-4393,"(281) 960-4141",http://americanmustangcustomhomes.com/,,"Janet Dodez",janet@americanmustangcustomhomes.com
TX,MONTGOMERY,173473-20,"Single Family Homes",6/26/2020,,80000,,"16718 LAKE CIRCLE",HOUSTON,TX,77356,ALLENDALE,,"ADAN ANDRADE","15543 CHARLES RAY LN",CONROE,TX,77302,,Owner,,,,,OWNER,,,,,OWNER,,,,,,,,,
TX,MONTGOMERY,173406-20,"Single Family Homes",6/23/2020,,75000,,"15332 COALTOWN ROAD",HOUSTON,TX,77356,"ARROWHEAD LAKES",,CONTRACTOR,,,,,,,,,,,"ASGI HOMES",,,,,"ASGI HOMES","2257 N LOOP 336 W STE 140-370",CONROE,TX,77304-3566,"(888) 991-0005",http://www.asgihomes.com,,,
TX,MONTGOMERY,173434-20,"Single Family Homes",6/24/2020,,75000,,"15085 COALTOWN ROAD",HOUSTON,TX,77356,"ARROWHEAD LAKES",,CONTRACTOR,,,,,,,,,,,"ASGI HOMES",,,,,"ASGI HOMES","2257 N LOOP 336 W STE 140-370",CONROE,TX,77304-3566,"(888) 991-0005",http://www.asgihomes.com,,,
TX,MONTGOMERY,173408-20,"Single Family Homes",6/24/2020,,55000,,"21048 ANGUS DR",HOUSTON,TX,77356,"PEACH CREEK PLANTATION",,"PEGGY BRADHAM","21050 ANGUS DR",CLEVELAND,TX,77328,,Owner,,,,,OWNER,,,,,OWNER,,,,,,,,,
TX,MONTGOMERY,173422-20,"Single Family Homes",6/24/2020,,250000,,"25171 WEEREN ROAD",HOUSTON,TX,77356,"IRON GATE",,"ALVARO CASTILLO","29711 DENTON ST",MAGNOLIA,TX,77354,,Owner,,,,,OWNER,,,,,OWNER,,,,,,,,,
TX,MONTGOMERY,173378-20,"Single Family Homes",6/23/2020,,132990,,"3347 HARMONY VIEW LN",HOUSTON,TX,77356,"SOLSTICE AT HARMONY",,CONTRACTOR,,,,,,,,,,,"CASTLEROCK COMMUNITIES",,,,,"CASTLEROCK COMMUNITIES","7670 WOODWAY DR STE 300",HOUSTON,TX,77063-1520,"(713) 600-7000",http://c-rock.com,"(713) 600-0000",,
TX,MONTGOMERY,173379-20,"Single Family Homes",6/23/2020,,191490,,"30418 BUTTERNUT OAK LN",HOUSTON,TX,77356,"GLEN OAKS",,CONTRACTOR,,,,,,,,,,,"CASTLEROCK COMMUNITIES",,,,,"CASTLEROCK COMMUNITIES","7670 WOODWAY DR STE 300",HOUSTON,TX,77063-1520,"(713) 600-7000",http://c-rock.com,"(713) 600-0000",,
TX,MONTGOMERY,173381-20,"Single Family Homes",6/23/2020,,142545,,"18815 SAWTOOTH OAK CT",HOUSTON,TX,77356,"GLEN OAKS",,CONTRACTOR,,,,,,,,,,,"CASTLEROCK COMMUNITIES",,,,,"CASTLEROCK COMMUNITIES","7670 WOODWAY DR STE 300",HOUSTON,TX,77063-1520,"(713) 600-7000",http://c-rock.com,"(713) 600-0000",,
TX,MONTGOMERY,173382-20,"Single Family Homes",6/23/2020,,130260,,"30430 BUTTERNUT OAK LN",HOUSTON,TX,77356,"GLEN OAKS",,CONTRACTOR,,,,,,,,,,,"CASTLEROCK COMMUNITIES",,,,,"CASTLEROCK COMMUNITIES","7670 WOODWAY DR STE 300",HOUSTON,TX,77063-1520,"(713) 600-7000",http://c-rock.com,"(713) 600-0000",,
TX,MONTGOMERY,173383-20,"Single Family Homes",6/23/2020,,129155,,"18788 LEGEND OAKS DR",HOUSTON,TX,77356,"GLEN OAKS",,CONTRACTOR,,,,,,,,,,,"CASTLEROCK COMMUNITIES",,,,,"CASTLEROCK COMMUNITIES","7670 WOODWAY DR STE 300",HOUSTON,TX,77063-1520,"(713) 600-7000",http://c-rock.com,"(713) 600-0000",,
TX,MONTGOMERY,173430-20,"Single Family Homes",6/24/2020,,219830,,"3130 HARMONY MEADOW LN",HOUSTON,TX,77356,"SOLSTICE AT HARMONY",,CONTRACTOR,,,,,,,,,,,"CASTLEROCK COMMUNITIES",,,,,"CASTLEROCK COMMUNITIES","7670 WOODWAY DR STE 300",HOUSTON,TX,77063-1520,"(713) 600-7000",http://c-rock.com,"(713) 600-0000",,
TX,MONTGOMERY,173431-20,"Single Family Homes",6/24/2020,,184600,,"3126 HARMONY MEADOWS LN",HOUSTON,TX,77356,"SOLSTIC AT HARMONY",,CONTRACTOR,,,,,,,,,,,"CASTLEROCK COMMUNITIES",,,,,"CASTLEROCK COMMUNITIES","7670 WOODWAY DR STE 300",HOUSTON,TX,77063-1520,"(713) 600-7000",http://c-rock.com,"(713) 600-0000",,
TX,MONTGOMERY,173483-20,"Single Family Homes",6/26/2020,,179270,,"2504 HARMONY FOREST LN",HOUSTON,TX,77356,"SOLSTIC AT HARMONY",,CONTRACTOR,,,,,,,,,,,"CASTLEROCK COMMUNITIES",,,,,"CASTLEROCK COMMUNITIES","7670 WOODWAY DR STE 300",HOUSTON,TX,77063-1520,"(713) 600-7000",http://c-rock.com,"(713) 600-0000",,
TX,MONTGOMERY,173455-20,"Single Family Homes",6/25/2020,,191685,,"9740 COLD CREEK DR",HOUSTON,TX,77356,"LAKEWOOD TRAILS",,"DILLON CONLEY","PO BOX 273",CONROE,TX,77305,,Owner,,,,,OWNER,,,,,OWNER,,,,,,,,,
TX,MONTGOMERY,173308-20,"Single Family Homes",6/22/2020,,94095,,"16715 LONELY PINES DR",HOUSTON,TX,77356,"GRANGER PINES",,CONTRACTOR,,,,,,,,,,,"DR HORTON",,,,,"DR HORTON","14100 SOUTHWEST",HOUSTON,TX,77478,"(281) 201-5559",,,,
TX,MONTGOMERY,173309-20,"Single Family Homes",6/22/2020,,111555,,"16711 LONELY PINES DR",HOUSTON,TX,77356,"GRANGER PINES",,CONTRACTOR,,,,,,,,,,,"DR HORTON",,,,,"DR HORTON","14100 SOUTHWEST",HOUSTON,TX,77478,"(281) 201-5559",,,,
TX,MONTGOMERY,173310-20,"Single Family Homes",6/22/2020,,124110,,"16707 LONELY PINES DR",HOUSTON,TX,77356,"GRANGER PINES",,CONTRACTOR,,,,,,,,,,,"DR HORTON",,,,,"DR HORTON","14100 SOUTHWEST",HOUSTON,TX,77478,"(281) 201-5559",,,,
TX,MONTGOMERY,173311-20,"Single Family Homes",6/22/2020,,93510,,"16703 LONELY PINES DR",HOUSTON,TX,77356,"GRANGER PINES",,CONTRACTOR,,,,,,,,,,,"DR HORTON",,,,,"DR HORTON","14100 SOUTHWEST",HOUSTON,TX,77478,"(281) 201-5559",,,,
TX,MONTGOMERY,173312-20,"Single Family Homes",6/22/2020,,90540,,"14251 WEST PINE HEART DR",HOUSTON,TX,77356,"GRANGER PINES",,CONTRACTOR,,,,,,,,,,,"DR HORTON",,,,,"DR HORTON","14100 SOUTHWEST",HOUSTON,TX,77478,"(281) 201-5559",,,,
TX,MONTGOMERY,173313-20,"Single Family Homes",6/22/2020,,93510,,"14247 WEST PINE HEART DR",HOUSTON,TX,77356,"GRANGER PINES",,CONTRACTOR,,,,,,,,,,,"DR HORTON",,,,,"DR HORTON","14100 SOUTHWEST",HOUSTON,TX,77478,"(281) 201-5559",,,,
TX,MONTGOMERY,173314-20,"Single Family Homes",6/22/2020,,94095,,"14243 WEST PINE HEART DR",HOUSTON,TX,77356,"GRANGER PINES",,CONTRACTOR,,,,,,,,,,,"DR HORTON",,,,,"DR HORTON","14100 SOUTHWEST",HOUSTON,TX,77478,"(281) 201-5559",,,,
TX,MONTGOMERY,173319-20,"Single Family Homes",6/22/2020,,90540,,"16834 SILENT PINES CT",HOUSTON,TX,77356,"GRANGER PINES",,CONTRACTOR,,,,,,,,,,,"DR HORTON",,,,,"DR HORTON","14100 SOUTHWEST",HOUSTON,TX,77478,"(281) 201-5559",,,,
TX,MONTGOMERY,173320-20,"Single Family Homes",6/22/2020,,124110,,"16830 SILENT PINES CT",HOUSTON,TX,77356,"GRANGER PINES",,CONTRACTOR,,,,,,,,,,,"DR HORTON",,,,,"DR HORTON","14100 SOUTHWEST",HOUSTON,TX,77478,"(281) 201-5559",,,,
TX,MONTGOMERY,173321-20,"Single Family Homes",6/22/2020,,111555,,"16826 SILENT PINES CT",HOUSTON,TX,77356,"GRANGER PINES",,CONTRACTOR,,,,,,,,,,,"DR HORTON",,,,,"DR HORTON","14100 SOUTHWEST",HOUSTON,TX,77478,"(281) 201-5559",,,,
TX,MONTGOMERY,173322-20,"Single Family Homes",6/22/2020,,94095,,"16822 SILENT PINES CT",HOUSTON,TX,77356,"GRANGER PINES",,CONTRACTOR,,,,,,,,,,,"DR HORTON",,,,,"DR HORTON","14100 SOUTHWEST",HOUSTON,TX,77478,"(281) 201-5559",,,,
TX,MONTGOMERY,173323-20,"Single Family Homes",6/22/2020,,93510,,"16818 SILENT PINES CT",HOUSTON,TX,77356,"GRANGER PINES",,CONTRACTOR,,,,,,,,,,,"DR HORTON",,,,,"DR HORTON","14100 SOUTHWEST",HOUSTON,TX,77478,"(281) 201-5559",,,,
TX,MONTGOMERY,173324-20,"Single Family Homes",6/22/2020,,111555,,"16769 LONELY PINES DR",HOUSTON,TX,77356,"GRANGER PINES",,CONTRACTOR,,,,,,,,,,,"DR HORTON",,,,,"DR HORTON","14100 SOUTHWEST",HOUSTON,TX,77478,"(281) 201-5559",,,,
TX,MONTGOMERY,173326-20,"Single Family Homes",6/22/2020,,94095,,"16751 LONELY PINES DR",HOUSTON,TX,77356,"GRANGER PINES",,CONTRACTOR,,,,,,,,,,,"DR HORTON",,,,,"DR HORTON","14100 SOUTHWEST",HOUSTON,TX,77478,"(281) 201-5559",,,,
TX,MONTGOMERY,173329-20,"Single Family Homes",6/22/2020,,93510,,"16745 LONELY PINES DR",HOUSTON,TX,77356,"GRANGER PINES",,CONTRACTOR,,,,,,,,,,,"DR HORTON",,,,,"DR HORTON","14100 SOUTHWEST",HOUSTON,TX,77478,"(281) 201-5559",,,,
TX,MONTGOMERY,173331-20,"Single Family Homes",6/22/2020,,111555,,"16739 LONELY PINES DR",HOUSTON,TX,77356,"GRANGER PINES",,CONTRACTOR,,,,,,,,,,,"DR HORTON",,,,,"DR HORTON","14100 SOUTHWEST",HOUSTON,TX,77478,"(281) 201-5559",,,,
TX,MONTGOMERY,173439-20,"Single Family Homes",6/25/2020,,178245,,"14130 ASPEN WOODS CT",HOUSTON,TX,77356,"FOSTERS RIDGE",,CONTRACTOR,,,,,,,,,,,"DR HORTON",,,,,"DR HORTON","14100 SOUTHWEST",HOUSTON,TX,77478,"(281) 201-5559",,,,
TX,MONTGOMERY,173440-20,"Single Family Homes",6/25/2020,,163665,,"14126 ASPEN WOODS CT",HOUSTON,TX,77356,"FOSTERS RIDGE",,CONTRACTOR,,,,,,,,,,,"DR HORTON",,,,,"DR HORTON","14100 SOUTHWEST",HOUSTON,TX,77478,"(281) 201-5559",,,,
TX,MONTGOMERY,173441-20,"Single Family Homes",6/25/2020,,178245,,"14123 ASPEN WOODS CT",HOUSTON,TX,77356,"FOSTERS RIDGE",,CONTRACTOR,,,,,,,,,,,"DR HORTON",,,,,"DR HORTON","14100 SOUTHWEST",HOUSTON,TX,77478,"(281) 201-5559",,,,
TX,MONTGOMERY,173442-20,"Single Family Homes",6/25/2020,,138330,,"14134 ASPEN WOODS CT",HOUSTON,TX,77356,"FOSTERS RIDGE",,CONTRACTOR,,,,,,,,,,,"DR HORTON",,,,,"DR HORTON","14100 SOUTHWEST",HOUSTON,TX,77478,"(281) 201-5559",,,,
TX,MONTGOMERY,173443-20,"Single Family Homes",6/25/2020,,128250,,"14138 ASPEN WOODS CT",HOUSTON,TX,77356,"FOSTERS RIDGE",,CONTRACTOR,,,,,,,,,,,"DR HORTON",,,,,"DR HORTON","14100 SOUTHWEST",HOUSTON,TX,77478,"(281) 201-5559",,,,
TX,MONTGOMERY,173444-20,"Single Family Homes",6/25/2020,,122500,,"13982 FORT WARD WAY",HOUSTON,TX,77356,"FOSTERS RIDGE",,CONTRACTOR,,,,,,,,,,,"DR HORTON",,,,,"DR HORTON","14100 SOUTHWEST",HOUSTON,TX,77478,"(281) 201-5559",,,,
TX,MONTGOMERY,173445-20,"Single Family Homes",6/25/2020,,112515,,"13978 FORT WARD WAY",HOUSTON,TX,77356,"FOSTERS RIDGE",,CONTRACTOR,,,,,,,,,,,"DR HORTON",,,,,"DR HORTON","14100 SOUTHWEST",HOUSTON,TX,77478,"(281) 201-5559",,,,
TX,MONTGOMERY,173446-20,"Single Family Homes",6/25/2020,,125640,,"13990 FORT WARD WAY",HOUSTON,TX,77356,"FOSTERS RIDGE",,CONTRACTOR,,,,,,,,,,,"DR HORTON",,,,,"DR HORTON","14100 SOUTHWEST",HOUSTON,TX,77478,"(281) 201-5559",,,,
TX,MONTGOMERY,173461-20,"Single Family Homes",6/25/2020,,132885,,"14006 FORT WARD WAY",HOUSTON,TX,77356,"FOSTERS RIDGE",,CONTRACTOR,,,,,,,,,,,"DR HORTON",,,,,"DR HORTON","14100 SOUTHWEST",HOUSTON,TX,77478,"(281) 201-5559",,,,
TX,MONTGOMERY,173462-20,"Single Family Homes",6/25/2020,,107550,,"14010 FORT WARD WAY",HOUSTON,TX,77356,"FOSTERS RIDGE",,CONTRACTOR,,,,,,,,,,,"DR HORTON",,,,,"DR HORTON","14100 SOUTHWEST",HOUSTON,TX,77478,"(281) 201-5559",,,,
TX,MONTGOMERY,173463-20,"Single Family Homes",6/25/2020,,112515,,"14022 FORT WARD WAY",HOUSTON,TX,77356,"FOSTERS RIDGE",,CONTRACTOR,,,,,,,,,,,"DR HORTON",,,,,"DR HORTON","14100 SOUTHWEST",HOUSTON,TX,77478,"(281) 201-5559",,,,
TX,MONTGOMERY,173464-20,"Single Family Homes",6/25/2020,,95130,,"14002 FORT WARD WAY",HOUSTON,TX,77356,"FOSTERS RIDGE",,CONTRACTOR,,,,,,,,,,,"DR HORTON",,,,,"DR HORTON","14100 SOUTHWEST",HOUSTON,TX,77478,"(281) 201-5559",,,,
TX,MONTGOMERY,173465-20,"Single Family Homes",6/25/2020,,103050,,"13998 FORT WARD WAY",HOUSTON,TX,77356,"FOSTERS RIDGE",,CONTRACTOR,,,,,,,,,,,"DR HORTON",,,,,"DR HORTON","14100 SOUTHWEST",HOUSTON,TX,77478,"(281) 201-5559",,,,
TX,MONTGOMERY,"173466 20","Single Family Homes",6/25/2020,,107550,,"13994 FORT WARD WAY",HOUSTON,TX,77356,"FOSTERS RIDGE",,CONTRACTOR,,,,,,,,,,,"DR HORTON",,,,,"DR HORTON","14100 SOUTHWEST",HOUSTON,TX,77478,"(281) 201-5559",,,,
TX,MONTGOMERY,173467-20,"Single Family Homes",6/25/2020,,125640,,"13833 ROCK ISLAND TR",HOUSTON,TX,77356,"FOSTERS RIDGE",,CONTRACTOR,,,,,,,,,,,"DR HORTON",,,,,"DR HORTON","14100 SOUTHWEST",HOUSTON,TX,77478,"(281) 201-5559",,,,
TX,MONTGOMERY,173468-20,"Single Family Homes",6/25/2020,,107550,,"13837 ROCK ISLAND TR",HOUSTON,TX,77356,"FOSTERS RIDGE",,CONTRACTOR,,,,,,,,,,,"DR HORTON",,,,,"DR HORTON","14100 SOUTHWEST",HOUSTON,TX,77478,"(281) 201-5559",,,,
TX,MONTGOMERY,173474-20,"Single Family Homes",6/26/2020,,112515,,"13841 ROCK ISLAND TR",HOUSTON,TX,77356,"FOSTERS RIDGE",,CONTRACTOR,,,,,,,,,,,"DR HORTON",,,,,"DR HORTON","14100 SOUTHWEST",HOUSTON,TX,77478,"(281) 201-5559",,,,
TX,MONTGOMERY,173475-20,"Single Family Homes",6/26/2020,,169650,,"13845 ROCK ISLAND TR",HOUSTON,TX,77356,"FOSTERS RIDGE",,CONTRACTOR,,,,,,,,,,,"DR HORTON",,,,,"DR HORTON","14100 SOUTHWEST",HOUSTON,TX,77478,"(281) 201-5559",,,,
TX,MONTGOMERY,173476-20,"Single Family Homes",6/26/2020,,125640,,"13849 ROCK ISLAND TR",HOUSTON,TX,77356,"FOSTERS RIDGE",,CONTRACTOR,,,,,,,,,,,"DR HORTON",,,,,"DR HORTON","14100 SOUTHWEST",HOUSTON,TX,77478,"(281) 201-5559",,,,
TX,MONTGOMERY,173477-20,"Single Family Homes",6/26/2020,,95130,,"13853 ROCK ISLAND TR",HOUSTON,TX,77356,"FOSTERS RIDGE",,CONTRACTOR,,,,,,,,,,,"DR HORTON",,,,,"DR HORTON","14100 SOUTHWEST",HOUSTON,TX,77478,"(281) 201-5559",,,,
TX,MONTGOMERY,173478-20,"Single Family Homes",6/26/2020,,103050,,"13857 ROCK ISLAND TR",HOUSTON,TX,77356,"FOSTERS RIDGE",,CONTRACTOR,,,,,,,,,,,"DR HORTON",,,,,"DR HORTON","14100 SOUTHWEST",HOUSTON,TX,77478,"(281) 201-5559",,,,
TX,MONTGOMERY,173479-20,"Single Family Homes",6/26/2020,,107550,,"13861 ROCK ISLAND TR",HOUSTON,TX,77356,"FOSTERS RIDGE",,CONTRACTOR,,,,,,,,,,,"DR HORTON",,,,,"DR HORTON","14100 SOUTHWEST",HOUSTON,TX,77478,"(281) 201-5559",,,,
TX,MONTGOMERY,173480-20,"Single Family Homes",6/26/2020,,125640,,"13865 ROCK ISLAND TR",HOUSTON,TX,77356,"FOSTERS RIDGE",,CONTRACTOR,,,,,,,,,,,"DR HORTON",,,,,"DR HORTON","14100 SOUTHWEST",HOUSTON,TX,77478,"(281) 201-5559",,,,
TX,MONTGOMERY,173482-20,"Single Family Homes",6/26/2020,,122500,,"13873 ROCK ISLAND TR",HOUSTON,TX,77356,"FOSTERS RIDGE",,CONTRACTOR,,,,,,,,,,,"DR HORTON",,,,,"DR HORTON","14100 SOUTHWEST",HOUSTON,TX,77478,"(281) 201-5559",,,,
TX,MONTGOMERY,173452-20,"Single Family Homes",6/25/2020,,60000,,"21286 PUNKIN ST",HOUSTON,TX,77356,"SILVER TRAILS",,"ELVIN GOMEZ","21284 PUNKIN ST","NEW CANEY",TX,77373,,Owner,,,,,OWNER,,,,,OWNER,,,,,,,,,
TX,MONTGOMERY,"173490 20","Single Family Homes",6/26/2020,,200000,,"21258 HIDDEN BEND LOOP",HOUSTON,TX,77356,"MAGNOLIA RESERVE",,CONTRACTOR,,,,,,,,,,,"GRACEPOINT HOMES",,,,,"GRACEPOINT HOMES","33300 EGYPT LN STE 100",MAGNOLIA,TX,77354-2739,"(281) 681-0400",http://www.gracepointhomes.com/,"(281) 681-0402",,Info@gracepointhomes.com
TX,MONTGOMERY,173491-20,"Single Family Homes",6/26/2020,,200000,,"305 TREATY OAK CT",HOUSTON,TX,77356,"MAGNOLIA RESERVE",,CONTRACTOR,,,,,,,,,,,"GRACEPOINT HOMES",,,,,"GRACEPOINT HOMES","33300 EGYPT LN STE 100",MAGNOLIA,TX,77354-2739,"(281) 681-0400",http://www.gracepointhomes.com/,"(281) 681-0402",,Info@gracepointhomes.com
TX,MONTGOMERY,173492-20,"Single Family Homes",6/26/2020,,200000,,"21254 HIDDEN BEND LOOP",HOUSTON,TX,77356,"MAGNOLIA RESERVE",,CONTRACTOR,,,,,,,,,,,"GRACEPOINT HOMES",,,,,"GRACEPOINT HOMES","33300 EGYPT LN STE 100",MAGNOLIA,TX,77354-2739,"(281) 681-0400",http://www.gracepointhomes.com/,"(281) 681-0402",,Info@gracepointhomes.com
TX,MONTGOMERY,173371-20,"Single Family Homes",6/23/2020,,321952,,"40817 IVER LN",HOUSTON,TX,77356,"MOSTYN MANOR",,CONTRACTOR,,,,,,,,,,,"HARRISBURG HOMES",,,,,"HARRISBURG HOMES","21615 FIREMIST WAY",CYPRESS,TX,77433-3507,"(713) 249-8196",http://www.harrisburgtx.com/,,SHAWN,info@harrisburgtx.com
TX,MONTGOMERY,173356-20,"Single Family Homes",6/22/2020,,285000,,"168 EMORY BIRCH DR",HOUSTON,TX,77356,WOODFOREST,,CONTRACTOR,,,,,,,,,,,"HIGHLAND HOMES",,,,,"HIGHLAND HOMES","10930 W SAM HOUSTON PKWY N STE 100",HOUSTON,TX,77064-6331,"(281) 517-9800",,,,
TX,MONTGOMERY,173354-20,"Single Family Homes",6/22/2020,,318726,,"17410 ORCHID FALLS LN",HOUSTON,TX,77356,ARTAVIA,,CONTRACTOR,,,,,,,,,,,"J PATRICK HOMES",,,,,"J PATRICK HOMES","9700 RICHMOND AVE STE 162",HOUSTON,TX,77042-4698,"(713) 789-8004",,,,
TX,MONTGOMERY,173410-20,"Single Family Homes",6/24/2020,,145000,,"8620 CIMARRON MESA LN",HOUSTON,TX,77356,"CIMARRON CREEK",,CONTRACTOR,,,,,,,,,,,"KB HOME",,,,,"KB HOME","11314 RICHMOND AVE",HOUSTON,TX,77082-2616,"(281) 668-3800",,,,
TX,MONTGOMERY,173411-20,"Single Family Homes",6/24/2020,,154000,,"8641 CIMARRON MESA LN",HOUSTON,TX,77356,"CIMARRON CREEK",,CONTRACTOR,,,,,,,,,,,"KB HOME",,,,,"KB HOME","11314 RICHMOND AVE",HOUSTON,TX,77082-2616,"(281) 668-3800",,,,
TX,MONTGOMERY,173412-20,"Single Family Homes",6/24/2020,,154000,,"8768 UTE CREEK LN",HOUSTON,TX,77356,"CIMARRON CREEK",,CONTRACTOR,,,,,,,,,,,"KB HOME",,,,,"KB HOME","11314 RICHMOND AVE",HOUSTON,TX,77082-2616,"(281) 668-3800",,,,
TX,MONTGOMERY,173413-20,"Single Family Homes",6/24/2020,,135000,,"20849 LANGWORTH PLACE",HOUSTON,TX,77356,"BROOKWOOD FOREST",,CONTRACTOR,,,,,,,,,,,"KB HOME",,,,,"KB HOME","11314 RICHMOND AVE",HOUSTON,TX,77082-2616,"(281) 668-3800",,,,
TX,MONTGOMERY,173414-20,"Single Family Homes",6/24/2020,,209000,,"20836 LANGWORTH PLACE",HOUSTON,TX,77356,"BROOKWOOD FOREST",,CONTRACTOR,,,,,,,,,,,"KB HOME",,,,,"KB HOME","11314 RICHMOND AVE",HOUSTON,TX,77082-2616,"(281) 668-3800",,,,
TX,MONTGOMERY,173416-20,"Single Family Homes",6/24/2020,,125000,,"20177 LANGWELL DR",HOUSTON,TX,77356,"BROOKWOOD FOREST",,CONTRACTOR,,,,,,,,,,,"KB HOME",,,,,"KB HOME","11314 RICHMOND AVE",HOUSTON,TX,77082-2616,"(281) 668-3800",,,,
TX,MONTGOMERY,173481-20,"Single Family Homes",6/26/2020,,166000,,"25659 RAMSEY HEIGHTS WAY",HOUSTON,TX,77356,"BROOKWOOD FOREST",,CONTRACTOR,,,,,,,,,,,"KB HOME",,,,,"KB HOME","11314 RICHMOND AVE",HOUSTON,TX,77082-2616,"(281) 668-3800",,,,
TX,MONTGOMERY,173502-20,"Single Family Homes",6/26/2020,,245000,,"20841 LANGWORTH PLACE",HOUSTON,TX,77356,"BROOKWOOD FOREST",,CONTRACTOR,,,,,,,,,,,"KB HOME",,,,,"KB HOME","11314 RICHMOND AVE",HOUSTON,TX,77082-2616,"(281) 668-3800",,,,
TX,MONTGOMERY,173420-20,"Single Family Homes",6/24/2020,,60000,,"16914 WEST HAMMON",HOUSTON,TX,77356,"LAKE CONROE VILLAGE",,"GABRIEL LANDAVERDE","18506 KEISER BEND DR",TOMBALL,TX,77376,,Owner,,,,,OWNER,,,,,OWNER,,,,,,,,,
TX,MONTGOMERY,173421-20,"Single Family Homes",6/24/2020,,60000,,"16918 WEST HAMMON",HOUSTON,TX,77356,"LAKE CONROE VILLAGE",,"GABRIEL LANDAVERDE","18506 KEISER BEND DR",TOMBALL,TX,77376,,Owner,,,,,OWNER,,,,,OWNER,,,,,,,,,
TX,MONTGOMERY,173423-20,"Single Family Homes",6/24/2020,,60000,,"16922 WEST HAMMON",HOUSTON,TX,77356,"LAKE CONROE VILLAGE",,"GABRIEL LANDAVERDE","18506 KEISER BEND DR",TOMBALL,TX,77376,,Owner,,,,,OWNER,,,,,OWNER,,,,,,,,,
TX,MONTGOMERY,173448-20,"Single Family Homes",6/25/2020,,106400,,"18825 AMARO HILLS DR",HOUSTON,TX,77356,TAVOLA,,CONTRACTOR,,,,,,,,,,,"LENNAR HOMES",,,,,"LENNAR HOMES","550 GREENS PKWY",HOUSTON,TX,77067-4537,"(281) 875-1000",http://www.lennar.com/,,,
TX,MONTGOMERY,173449-20,"Single Family Homes",6/25/2020,,86900,,"5834 ROSEHILL FOREST LN",HOUSTON,TX,77356,"COUNTRY COLONY",,CONTRACTOR,,,,,,,,,,,"LENNAR HOMES",,,,,"LENNAR HOMES","550 GREENS PKWY",HOUSTON,TX,77067-4537,"(281) 875-1000",http://www.lennar.com/,,,
TX,MONTGOMERY,173451-20,"Single Family Homes",6/25/2020,,142000,,"18861 AMARO HILLS DR",HOUSTON,TX,77356,TAVOLA,,CONTRACTOR,,,,,,,,,,,"LENNAR HOMES",,,,,"LENNAR HOMES","550 GREENS PKWY",HOUSTON,TX,77067-4537,"(281) 875-1000",http://www.lennar.com/,,,
TX,MONTGOMERY,173366-20,"Single Family Homes",6/23/2020,,104754,,"26116 HALS DR",HOUSTON,TX,77356,"WILLIAMS TRACE",,CONTRACTOR,,,,,,,,,,,"LGI HOMES",,,,,"LGI HOMES","1450 LAKE ROBBINS SUITE 430",CONROE,TX,77380,"(210) 563-4648",,"(281) 210-2601",,
TX,MONTGOMERY,173367-20,"Single Family Homes",6/23/2020,,90334,,"26112 HALS DR",HOUSTON,TX,77356,"WILLIAMS TRACE",,CONTRACTOR,,,,,,,,,,,"LGI HOMES",,,,,"LGI HOMES","1450 LAKE ROBBINS SUITE 430",CONROE,TX,77380,"(210) 563-4648",,"(281) 210-2601",,
TX,MONTGOMERY,173368-20,"Single Family Homes",6/23/2020,,100000,,"26148 HALS DR",HOUSTON,TX,77356,"WILLIAMS TRACE",,CONTRACTOR,,,,,,,,,,,"LGI HOMES",,,,,"LGI HOMES","1450 LAKE ROBBINS SUITE 430",CONROE,TX,77380,"(210) 563-4648",,"(281) 210-2601",,
TX,MONTGOMERY,173369-20,"Single Family Homes",6/23/2020,,73912,,"26106 HALS DR",HOUSTON,TX,77356,"WILLIAMS TRACE",,CONTRACTOR,,,,,,,,,,,"LGI HOMES",,,,,"LGI HOMES","1450 LAKE ROBBINS SUITE 430",CONROE,TX,77380,"(210) 563-4648",,"(281) 210-2601",,
TX,MONTGOMERY,173370-20,"Single Family Homes",6/23/2020,,90334,,"28033 IRVING DR",HOUSTON,TX,77356,"WILLIAMS TRACE",,CONTRACTOR,,,,,,,,,,,"LGI HOMES",,,,,"LGI HOMES","1450 LAKE ROBBINS SUITE 430",CONROE,TX,77380,"(210) 563-4648",,"(281) 210-2601",,
TX,MONTGOMERY,173372-20,"Single Family Homes",6/23/2020,,104754,,"28037 IRVING DR",HOUSTON,TX,77356,"WILLIAMS TRACE",,CONTRACTOR,,,,,,,,,,,"LGI HOMES",,,,,"LGI HOMES","1450 LAKE ROBBINS SUITE 430",CONROE,TX,77380,"(210) 563-4648",,"(281) 210-2601",,
TX,MONTGOMERY,173373-20,"Single Family Homes",6/23/2020,,67531,,"28041 IRVING DR",HOUSTON,TX,77356,"WILLIAMS TRACE",,CONTRACTOR,,,,,,,,,,,"LGI HOMES",,,,,"LGI HOMES","1450 LAKE ROBBINS SUITE 430",CONROE,TX,77380,"(210) 563-4648",,"(281) 210-2601",,
TX,MONTGOMERY,"173374 20","Single Family Homes",6/23/2020,,73912,,"28045 IRVING DR",HOUSTON,TX,77356,"WILLIAMS TRACE",,CONTRACTOR,,,,,,,,,,,"LGI HOMES",,,,,"LGI HOMES","1450 LAKE ROBBINS SUITE 430",CONROE,TX,77380,"(210) 563-4648",,"(281) 210-2601",,
TX,MONTGOMERY,173375-20,"Single Family Homes",6/23/2020,,104754,,"28049 IRVING DR",HOUSTON,TX,77356,"WILLIAMS TRACE",,CONTRACTOR,,,,,,,,,,,"LGI HOMES",,,,,"LGI HOMES","1450 LAKE ROBBINS SUITE 430",CONROE,TX,77380,"(210) 563-4648",,"(281) 210-2601",,
TX,MONTGOMERY,173376-20,"Single Family Homes",6/23/2020,,67531,,"28053 IRVING DR",HOUSTON,TX,77356,"WILLIAMS TRACE",,CONTRACTOR,,,,,,,,,,,"LGI HOMES",,,,,"LGI HOMES","1450 LAKE ROBBINS SUITE 430",CONROE,TX,77380,"(210) 563-4648",,"(281) 210-2601",,
TX,MONTGOMERY,173384-20,"Single Family Homes",6/23/2020,,73912,,"26155 HALS DR",HOUSTON,TX,77356,"WILLIAMS TRACE",,CONTRACTOR,,,,,,,,,,,"LGI HOMES",,,,,"LGI HOMES","1450 LAKE ROBBINS SUITE 430",CONROE,TX,77380,"(210) 563-4648",,"(281) 210-2601",,
TX,MONTGOMERY,173386-20,"Single Family Homes",6/23/2020,,104754,,"25175 DICKENS DR",HOUSTON,TX,77356,"WILLIAMS TRACE",,CONTRACTOR,,,,,,,,,,,"LGI HOMES",,,,,"LGI HOMES","1450 LAKE ROBBINS SUITE 430",CONROE,TX,77380,"(210) 563-4648",,"(281) 210-2601",,
TX,MONTGOMERY,173388-20,"Single Family Homes",6/23/2020,,100000,,"25186 DICKENS DR",HOUSTON,TX,77356,"WILLIAMS TRACE",,CONTRACTOR,,,,,,,,,,,"LGI HOMES",,,,,"LGI HOMES","1450 LAKE ROBBINS SUITE 430",CONROE,TX,77380,"(210) 563-4648",,"(281) 210-2601",,
TX,MONTGOMERY,173389-20,"Single Family Homes",6/23/2020,,104754,,"25190 DICKENS DR",HOUSTON,TX,77356,"WILLIAMS TRACE",,CONTRACTOR,,,,,,,,,,,"LGI HOMES",,,,,"LGI HOMES","1450 LAKE ROBBINS SUITE 430",CONROE,TX,77380,"(210) 563-4648",,"(281) 210-2601",,
TX,MONTGOMERY,173390-20,"Single Family Homes",6/23/2020,,67531,,"25194 DICKENS DR",HOUSTON,TX,77356,"WILLIAMS TRACE",,CONTRACTOR,,,,,,,,,,,"LGI HOMES",,,,,"LGI HOMES","1450 LAKE ROBBINS SUITE 430",CONROE,TX,77380,"(210) 563-4648",,"(281) 210-2601",,
TX,MONTGOMERY,173391-20,"Single Family Homes",6/23/2020,,100000,,"26156 HALS DR",HOUSTON,TX,77356,"WILLIAMS TRACE",,CONTRACTOR,,,,,,,,,,,"LGI HOMES",,,,,"LGI HOMES","1450 LAKE ROBBINS SUITE 430",CONROE,TX,77380,"(210) 563-4648",,"(281) 210-2601",,
TX,MONTGOMERY,173397-20,"Single Family Homes",6/23/2020,,73912,,"26152 HALS DR",HOUSTON,TX,77356,"WILLIAMS TRACE",,CONTRACTOR,,,,,,,,,,,"LGI HOMES",,,,,"LGI HOMES","1450 LAKE ROBBINS SUITE 430",CONROE,TX,77380,"(210) 563-4648",,"(281) 210-2601",,
TX,BELL,FY-20-739-SFR,"Single Family Homes",7/7/2020,,150000,3222,"13511 ACQUA DR",TEMPLE,TX,76501,,,CONTRACTOR,,,,,,,,,,,"HACIENDA BUILDING & CONSTRUCTION",,,,,"HACIENDA BUILDING & CONSTRUCTION","PO BOX 1047",BUDA,TX,78610-1047,"(512) 312-4499",http://haciendabuild.com/,"(512) 857-0995",,
TX,BELL,FY-20-741-SFR,"Single Family Homes",7/9/2020,,162255,1972,"8715 HIDDEN OAKS DR",TEMPLE,TX,76501,,,CONTRACTOR,,,,,,,,,,,"DR HORTON",,,,,"DR HORTON","14100 SOUTHWEST",HOUSTON,TX,77478,"(281) 201-5559",,,,
TX,BELL,FY-20-742-SFR,"Single Family Homes",7/9/2020,,177885,2005,"8906 HIDDEN OAKS DR",TEMPLE,TX,76501,,,CONTRACTOR,,,,,,,,,,,"DR HORTON",,,,,"DR HORTON","14100 SOUTHWEST",HOUSTON,TX,77478,"(281) 201-5559",,,,
TX,BELL,FY-20-743-SFR,"Single Family Homes",7/9/2020,,189740,2313,"9002 HIDDEN OAKS DR",TEMPLE,TX,76501,,,CONTRACTOR,,,,,,,,,,,"DR HORTON",,,,,"DR HORTON","14100 SOUTHWEST",HOUSTON,TX,77478,"(281) 201-5559",,,,
TX,BELL,FY-20-744-SFR,"Single Family Homes",7/7/2020,,260505,3715,"8918 HIDDEN OAKS DR",TEMPLE,TX,76501,,,CONTRACTOR,,,,,,,,,,,"DR HORTON",,,,,"DR HORTON","14100 SOUTHWEST",HOUSTON,TX,77478,"(281) 201-5559",,,,
TX,BELL,FY-20-745-SFR,"Single Family Homes",7/7/2020,,197925,2296,"8603 HIDDEN OAKS DR",TEMPLE,TX,76501,,,CONTRACTOR,,,,,,,,,,,"DR HORTON",,,,,"DR HORTON","14100 SOUTHWEST",HOUSTON,TX,77478,"(281) 201-5559",,,,
TX,BELL,FY-20-746-SFR,"Single Family Homes",7/9/2020,,219570,2753,"9011 SKY CREST DR",TEMPLE,TX,76501,,,CONTRACTOR,,,,,,,,,,,"DR HORTON",,,,,"DR HORTON","14100 SOUTHWEST",HOUSTON,TX,77478,"(281) 201-5559",,,,
TX,BELL,FY-20-747-SFR,"Single Family Homes",7/9/2020,,222295,2642,"9019 SKY CREST DR",TEMPLE,TX,76501,,,CONTRACTOR,,,,,,,,,,,"DR HORTON",,,,,"DR HORTON","14100 SOUTHWEST",HOUSTON,TX,77478,"(281) 201-5559",,,,
TX,BELL,FY-20-748-SFR,"Single Family Homes",7/9/2020,,163875,1972,"9015 SKY CREST DR",TEMPLE,TX,76501,,,CONTRACTOR,,,,,,,,,,,"DR HORTON",,,,,"DR HORTON","14100 SOUTHWEST",HOUSTON,TX,77478,"(281) 201-5559",,,,
TX,BELL,FY-20-749-SFR,"Single Family Homes",7/7/2020,,192620,2232,"8906 SKY CREST DR",TEMPLE,TX,76501,,,CONTRACTOR,,,,,,,,,,,"DR HORTON",,,,,"DR HORTON","14100 SOUTHWEST",HOUSTON,TX,77478,"(281) 201-5559",,,,
TX,BELL,FY-20-750-SFR,"Single Family Homes",7/8/2020,,95000,1659,"1511 CURLEW LN",TEMPLE,TX,76501,,,CONTRACTOR,,,,,,,,,,,"HACIENDA BUILDING & CONSTRUCTION",,,,,"HACIENDA BUILDING & CONSTRUCTION","PO BOX 1047",BUDA,TX,78610-1047,"(512) 312-4499",http://haciendabuild.com/,"(512) 857-0995",,
TX,BELL,FY-20-751-SFR,"Single Family Homes",7/9/2020,,,1841,"7917 LEE HALL LOOP",TEMPLE,TX,76501,,,CONTRACTOR,,,,,,,,,,,"OMEGA BUILDERS GROUP",,,,,"OMEGA BUILDERS GROUP","7353 W ADAMS AVE",TEMPLE,TX,76502-5539,"(254) 773-9966",,,,
TX,BELL,FY-20-752-SFR,"Single Family Homes",7/9/2020,,,2617,"10233 CAP ROCK DR",TEMPLE,TX,76501,,,CONTRACTOR,,,,,,,,,,,"OMEGA BUILDERS GROUP",,,,,"OMEGA BUILDERS GROUP","7353 W ADAMS AVE",TEMPLE,TX,76502-5539,"(254) 773-9966",,,,
TX,BELL,FY-20-753-SFR,"Single Family Homes",7/9/2020,,,2051,"953 AURORA GROVE BND",TEMPLE,TX,76501,,,CONTRACTOR,,,,,,,,,,,"OMEGA BUILDERS GROUP",,,,,"OMEGA BUILDERS GROUP","7353 W ADAMS AVE",TEMPLE,TX,76502-5539,"(254) 773-9966",,,,
TX,BELL,FY-20-754-SFR,"Single Family Homes",7/9/2020,,,1799,"4712 FAWN VALLEY DR",TEMPLE,TX,76501,,,CONTRACTOR,,,,,,,,,,,"OMEGA BUILDERS GROUP",,,,,"OMEGA BUILDERS GROUP","7353 W ADAMS AVE",TEMPLE,TX,76502-5539,"(254) 773-9966",,,,
TX,BELL,FY-20-755-SFR,"Single Family Homes",7/9/2020,,188650,1874,"608 SKYLAR HEIGHTS DR",TEMPLE,TX,76501,,,CONTRACTOR,,,,,,,,,,,"KIELLA HOMEBUILDERS",,,,,"KIELLA HOMEBUILDERS","7462 W ADAMS AVE",TEMPLE,TX,76502-5558,"(254) 778-0092",,,,
TX,BELL,FY-20-756-SFR,"Single Family Homes",7/9/2020,,207300,2214,"604 SKYLAR HEIGHTS DR",TEMPLE,TX,76501,,,CONTRACTOR,,,,,,,,,,,"KIELLA HOMEBUILDERS",,,,,"KIELLA HOMEBUILDERS","7462 W ADAMS AVE",TEMPLE,TX,76502-5558,"(254) 778-0092",,,,
TX,BELL,FY-20-757-SFR,"Single Family Homes",7/9/2020,,214300,2355,"600 SKYLAR HEIGHTS DR",TEMPLE,TX,76501,,,CONTRACTOR,,,,,,,,,,,"KIELLA HOMEBUILDERS",,,,,"KIELLA HOMEBUILDERS","7462 W ADAMS AVE",TEMPLE,TX,76502-5558,"(254) 778-0092",,,,
TX,BELL,FY-20-758-SFR,"Single Family Homes",7/8/2020,,,1831,"2508 PETERSBURG LN",TEMPLE,TX,76501,,,CONTRACTOR,,,,,,,,,,,"OMEGA BUILDERS GROUP",,,,,"OMEGA BUILDERS GROUP","7353 W ADAMS AVE",TEMPLE,TX,76502-5539,"(254) 773-9966",,,,
TX,BELL,FY-20-759-SFR,"Single Family Homes",7/9/2020,,,4906,"116 CHATTANOOGA CT",TEMPLE,TX,76501,,,CONTRACTOR,,,,,,,,,,,"BAIRD DESIGN BUILDERS",,,,,"BAIRD DESIGN BUILDERS","2 PAWNEE LANE",BELTON,TX,76513,"(254) 913-2189",,,,
TX,BELL,FY-20-760-SFR,"Single Family Homes",7/10/2020,,,2391,"7203 HAMMERMILL LN",TEMPLE,TX,76501,,,CONTRACTOR,,,,,,,,,,,"OMEGA BUILDERS GROUP",,,,,"OMEGA BUILDERS GROUP","7353 W ADAMS AVE",TEMPLE,TX,76502-5539,"(254) 773-9966",,,,
TX,MONTGOMERY,173398-20,"Single Family Homes",6/23/2020,,67531,,"26120 HALS DR",HOUSTON,TX,77356,"WILLIAMS TRACE",,CONTRACTOR,,,,,,,,,,,"LGI HOMES",,,,,"LGI HOMES","1450 LAKE ROBBINS SUITE 430",CONROE,TX,77380,"(210) 563-4648",,"(281) 210-2601",,
TX,MONTGOMERY,173358-20,"Single Family Homes",6/22/2020,,80000,,"16333 OLIVE SPARROW DR",HOUSTON,TX,77356,"MONTGOMERY CREEK RANCH",,CONTRACTOR,,,,,,,,,,,"LONG LAKE HOMES",,,,,"LONG LAKE HOMES","15915 KATY FWY STE 405",HOUSTON,TX,77094-1710,"(281) 646-1727",http://www.longlakeltd.com/,,"DAVID BIGLER",
TX,MONTGOMERY,173315-20,"Single Family Homes",6/22/2020,,193950,,"4214 DAVIS OAK DR",HOUSTON,TX,77356,"WOODSON'S RESERVE",,CONTRACTOR,,,,,,,,,,,"M/I HOMES",,,,,"M/I HOMES","10910 NORTH SAM HOUSTON PKWY W",HOUSTON,TX,77064,"(832) 912-1012",,,,
TX,MONTGOMERY,173316-20,"Single Family Homes",6/22/2020,,193950,,"28218 WHITMORE BEND DR",HOUSTON,TX,77356,"WOODSON' S RESERVE",,CONTRACTOR,,,,,,,,,,,"M/I HOMES",,,,,"M/I HOMES","10910 NORTH SAM HOUSTON PKWY W",HOUSTON,TX,77064,"(832) 912-1012",,,,
TX,MONTGOMERY,173317-20,"Single Family Homes",6/22/2020,,193950,,"4238 DAVIS OAK DR",HOUSTON,TX,77356,"WOODSON' S RESERVE",,CONTRACTOR,,,,,,,,,,,"M/I HOMES",,,,,"M/I HOMES","10910 NORTH SAM HOUSTON PKWY W",HOUSTON,TX,77064,"(832) 912-1012",,,,
TX,MONTGOMERY,173318-20,"Single Family Homes",6/22/2020,,193950,,"4321 VICTORIA PINE DR",HOUSTON,TX,77356,"WOODSON'S RESERVE",,CONTRACTOR,,,,,,,,,,,"M/I HOMES",,,,,"M/I HOMES","10910 NORTH SAM HOUSTON PKWY W",HOUSTON,TX,77064,"(832) 912-1012",,,,
TX,MONTGOMERY,173325-20,"Single Family Homes",6/22/2020,,201990,,"2807 WILDE REDBUD LN",HOUSTON,TX,77356,"MEADOWS AT IMPERIAL OAKS",,CONTRACTOR,,,,,,,,,,,"MHI MCGUYER HOMEBUILDERS",,,,,"MHI MCGUYER HOMEBUILDERS","7676 WOODWAY DR",HOUSTON,TX,77063-1526,"(713) 260-4107",,,,
TX,MONTGOMERY,173327-20,"Single Family Homes",6/22/2020,,215990,,"32058 QUAIL TERRACE LN",HOUSTON,TX,77356,"MEADOWS AT IMPERIAL OAKS",,CONTRACTOR,,,,,,,,,,,"MHI MCGUYER HOMEBUILDERS",,,,,"MHI MCGUYER HOMEBUILDERS","7676 WOODWAY DR",HOUSTON,TX,77063-1526,"(713) 260-4107",,,,
TX,MONTGOMERY,173328-20,"Single Family Homes",6/22/2020,,234990,,"2703 CEDAR PATH LN",HOUSTON,TX,77356,"MEADOW AT IMPERIAL OAKS",,CONTRACTOR,,,,,,,,,,,"MHI MCGUYER HOMEBUILDERS",,,,,"MHI MCGUYER HOMEBUILDERS","7676 WOODWAY DR",HOUSTON,TX,77063-1526,"(713) 260-4107",,,,
TX,MONTGOMERY,173330-20,"Single Family Homes",6/22/2020,,316990,,"15034 MULBERRY HALLOW ST",HOUSTON,TX,77356,"MEADOWS AT IMPERIAL OAKS",,CONTRACTOR,,,,,,,,,,,"MHI MCGUYER HOMEBUILDERS",,,,,"MHI MCGUYER HOMEBUILDERS","7676 WOODWAY DR",HOUSTON,TX,77063-1526,"(713) 260-4107",,,,
TX,MONTGOMERY,173334-20,"Single Family Homes",6/22/2020,,310990,,"14952 GALILEO GATES DR",HOUSTON,TX,77356,ARTAVIA,,CONTRACTOR,,,,,,,,,,,"MHI MCGUYER HOMEBUILDERS",,,,,"MHI MCGUYER HOMEBUILDERS","7676 WOODWAY DR",HOUSTON,TX,77063-1526,"(713) 260-4107",,,,
TX,BELL,FY-20-761-SFR,"Single Family Homes",7/16/2020,,93840,2040,"1930 LUMMUS DR",TEMPLE,TX,76501,,,CONTRACTOR,,,,,,,,,,,"STYLECRAFT BUILDERS ",,,,,"STYLECRAFT BUILDERS ","4090 STATE HIGHWAY 6 S","COLLEGE STATION",TX,77845-8962,"(979) 764-9900",,"(979) 690-3069","TANNER BREWSTER",tabrewster@stylecraft-builders.com
TX,BELL,FY-20-762-SFR,"Single Family Homes",7/14/2020,,87860,1910,"1812 LUMMUS DR",TEMPLE,TX,76501,,,CONTRACTOR,,,,,,,,,,,"STYLECRAFT BUILDERS ",,,,,"STYLECRAFT BUILDERS ","4090 STATE HIGHWAY 6 S","COLLEGE STATION",TX,77845-8962,"(979) 764-9900",,"(979) 690-3069","TANNER BREWSTER",tabrewster@stylecraft-builders.com
TX,BELL,FY-20-763-SFR,"Single Family Homes",7/16/2020,,76406,1661,"1808 LUMMUS DR",TEMPLE,TX,76501,,,CONTRACTOR,,,,,,,,,,,"STYLECRAFT BUILDERS ",,,,,"STYLECRAFT BUILDERS ","4090 STATE HIGHWAY 6 S","COLLEGE STATION",TX,77845-8962,"(979) 764-9900",,"(979) 690-3069","TANNER BREWSTER",tabrewster@stylecraft-builders.com
TX,BELL,FY-20-764-SFR,"Single Family Homes",7/16/2020,,336000,3145,"8304 TORRENTE DR",TEMPLE,TX,76501,,,CONTRACTOR,,,,,,,,,,,"GLYNN ALAN HOMES",,,,,"GLYNN ALAN HOMES","2624 BUTTERFLY DR",TEMPLE,TX,76502-7918,"(254) 482-0994",https://glynnalancustomhomes.com/,,,
TX,BELL,FY-20-765-SFR,"Single Family Homes",7/14/2020,,,2615,"4704 FAWN VALLEY DR",TEMPLE,TX,76501,,,CONTRACTOR,,,,,,,,,,,"OMEGA BUILDERS GROUP",,,,,"OMEGA BUILDERS GROUP","7353 W ADAMS AVE",TEMPLE,TX,76502-5539,"(254) 773-9966",,,,
TX,BELL,FY-20-766-SFR,"Single Family Homes",7/14/2020,,,1878,"2209 PETERSBURG LN",TEMPLE,TX,76501,,,CONTRACTOR,,,,,,,,,,,"OMEGA BUILDERS GROUP",,,,,"OMEGA BUILDERS GROUP","7353 W ADAMS AVE",TEMPLE,TX,76502-5539,"(254) 773-9966",,,,
TX,BELL,FY-20-767-SFR,"Single Family Homes",7/14/2020,,,2451,"7901 HICKMAN ST",TEMPLE,TX,76501,,,CONTRACTOR,,,,,,,,,,,"OMEGA BUILDERS GROUP",,,,,"OMEGA BUILDERS GROUP","7353 W ADAMS AVE",TEMPLE,TX,76502-5539,"(254) 773-9966",,,,
TX,BELL,FY-20-768-SFR,"Single Family Homes",7/14/2020,,,2186,"1030 AURORA GROVE BND",TEMPLE,TX,76501,,,CONTRACTOR,,,,,,,,,,,"OMEGA BUILDERS GROUP",,,,,"OMEGA BUILDERS GROUP","7353 W ADAMS AVE",TEMPLE,TX,76502-5539,"(254) 773-9966",,,,
TX,BELL,FY-20-769-SFR,"Single Family Homes",7/16/2020,,,2178,"619 HAWKS SHADOW DR",TEMPLE,TX,76501,,,CONTRACTOR,,,,,,,,,,,"OMEGA BUILDERS GROUP",,,,,"OMEGA BUILDERS GROUP","7353 W ADAMS AVE",TEMPLE,TX,76502-5539,"(254) 773-9966",,,,
TX,BELL,FY-20-770-SFR,"Single Family Homes",7/16/2020,,,2178,"1451 ROLLING BROOK DR",TEMPLE,TX,76501,,,CONTRACTOR,,,,,,,,,,,"OMEGA BUILDERS GROUP",,,,,"OMEGA BUILDERS GROUP","7353 W ADAMS AVE",TEMPLE,TX,76502-5539,"(254) 773-9966",,,,
TX,BELL,FY-20-771-SFR,"Single Family Homes",7/16/2020,,,2633,"1457 ROLLING BROOK DR",TEMPLE,TX,76501,,,CONTRACTOR,,,,,,,,,,,"OMEGA BUILDERS GROUP",,,,,"OMEGA BUILDERS GROUP","7353 W ADAMS AVE",TEMPLE,TX,76502-5539,"(254) 773-9966",,,,
TX,BELL,FY-20-772-SFR,"Single Family Homes",7/16/2020,,93012,2022,"7711 MERRY OAKS CV",TEMPLE,TX,76501,,,CONTRACTOR,,,,,,,,,,,"STYLECRAFT BUILDERS ",,,,,"STYLECRAFT BUILDERS ","4090 STATE HIGHWAY 6 S","COLLEGE STATION",TX,77845-8962,"(979) 764-9900",,"(979) 690-3069","TANNER BREWSTER",tabrewster@stylecraft-builders.com
TX,BELL,FY-20-773-SFR,"Single Family Homes",7/15/2020,,60000,822,"3353 ADDISON WAY",TEMPLE,TX,76501,,,CONTRACTOR,,,,,,,,,,,"PATCO CONSTRUCTION",,,,,"PATCO CONSTRUCTION","4212 S 5TH ST",TEMPLE,TX,76502-3344,"(254) 771-2228",,,,
TX,BELL,FY-20-774-SFR,"Single Family Homes",7/15/2020,,75000,1304,"3357 ADDISON WAY",TEMPLE,TX,76501,,,CONTRACTOR,,,,,,,,,,,"PATCO CONSTRUCTION",,,,,"PATCO CONSTRUCTION","4212 S 5TH ST",TEMPLE,TX,76502-3344,"(254) 771-2228",,,,
TX,BELL,FY-20-775-SFR,"Single Family Homes",7/15/2020,,184276,4006,"7608 BROADMOOR CV",TEMPLE,TX,76501,,,CONTRACTOR,,,,,,,,,,,"STYLECRAFT BUILDERS ",,,,,"STYLECRAFT BUILDERS ","4090 STATE HIGHWAY 6 S","COLLEGE STATION",TX,77845-8962,"(979) 764-9900",,"(979) 690-3069","TANNER BREWSTER",tabrewster@stylecraft-builders.com
TX,BELL,FY-20-776-SFR,"Single Family Homes",7/15/2020,,90436,1986,"3010 CLEVELANDER DR",TEMPLE,TX,76501,,,CONTRACTOR,,,,,,,,,,,"STYLECRAFT BUILDERS ",,,,,"STYLECRAFT BUILDERS ","4090 STATE HIGHWAY 6 S","COLLEGE STATION",TX,77845-8962,"(979) 764-9900",,"(979) 690-3069","TANNER BREWSTER",tabrewster@stylecraft-builders.com
TX,BELL,FY-20-777-SFR,"Single Family Homes",7/15/2020,,266770,3609,"8702 HIDDEN OAKS DR",TEMPLE,TX,76501,,,CONTRACTOR,,,,,,,,,,,"DR HORTON",,,,,"DR HORTON","14100 SOUTHWEST",HOUSTON,TX,77478,"(281) 201-5559",,,,
TX,BELL,FY-20-778-SFR,"Single Family Homes",7/15/2020,,150000,3222,"13508 ACQUA DR",TEMPLE,TX,76501,,,CONTRACTOR,,,,,,,,,,,"HACIENDA BUILDING & CONSTRUCTION",,,,,"HACIENDA BUILDING & CONSTRUCTION","PO BOX 1047",BUDA,TX,78610-1047,"(512) 312-4499",http://haciendabuild.com/,"(512) 857-0995",,
TX,BELL,FY-20-779-SFR,"Single Family Homes",7/16/2020,,92966,2021,"1919 DELANO DR",TEMPLE,TX,76501,,,CONTRACTOR,,,,,,,,,,,"STYLECRAFT BUILDERS ",,,,,"STYLECRAFT BUILDERS ","4090 STATE HIGHWAY 6 S","COLLEGE STATION",TX,77845-8962,"(979) 764-9900",,"(979) 690-3069","TANNER BREWSTER",tabrewster@stylecraft-builders.com
TX,BELL,"FY-20-780-SFR ","Single Family Homes",7/15/2020,,200505,2313,"259 BAINBRIDGE RD",TEMPLE,TX,76501,,,CONTRACTOR,,,,,,,,,,,"DR HORTON",,,,,"DR HORTON","14100 SOUTHWEST",HOUSTON,TX,77478,"(281) 201-5559",,,,
TX,BELL,FY-20-781-SFR,"Single Family Homes",7/16/2020,,348000,3697,"13516 ACQUA DR",TEMPLE,TX,76501,,,CONTRACTOR,,,,,,,,,,,"JAROLIK HOMES",,,,,"JAROLIK HOMES","15041 OLD TROY RD",TROY,TX,76579-3717,"(254) 933-5737",,,"KEVIN JAROLIK",
TX,BELL,FY-20-782-SFR,"Single Family Homes",7/16/2020,,180790,2064,"116 VIVA DR",TEMPLE,TX,76501,,,CONTRACTOR,,,,,,,,,,,"DR HORTON",,,,,"DR HORTON","14100 SOUTHWEST",HOUSTON,TX,77478,"(281) 201-5559",,,,
TX,BELL,FY-20-783-SFR,"Single Family Homes",7/16/2020,,216645,2642,"124 VIVA DR",TEMPLE,TX,76501,,,CONTRACTOR,,,,,,,,,,,"DR HORTON",,,,,"DR HORTON","14100 SOUTHWEST",HOUSTON,TX,77478,"(281) 201-5559",,,,
TX,BELL,FY-20-784-SFR,"Single Family Homes",7/16/2020,,320000,3098,"8313 TESORO DR",TEMPLE,TX,76501,,,CONTRACTOR,,,,,,,,,,,"JAROLIK HOMES",,,,,"JAROLIK HOMES","15041 OLD TROY RD",TROY,TX,76579-3717,"(254) 933-5737",,,"KEVIN JAROLIK",
TX,BELL,FY-20-785-SFR,"Single Family Homes",7/16/2020,,315000,2969,"8312 TORRENTE DR",TEMPLE,TX,76501,,,CONTRACTOR,,,,,,,,,,,"JAROLIK HOMES",,,,,"JAROLIK HOMES","15041 OLD TROY RD",TROY,TX,76579-3717,"(254) 933-5737",,,"KEVIN JAROLIK",
TX,BELL,FY-20-786-SFR,"Single Family Homes",7/16/2020,,150000,2502,"13512 ACQUA DR",TEMPLE,TX,76501,,,CONTRACTOR,,,,,,,,,,,"HACIENDA BUILDING & CONSTRUCTION",,,,,"HACIENDA BUILDING & CONSTRUCTION","PO BOX 1047",BUDA,TX,78610-1047,"(512) 312-4499",http://haciendabuild.com/,"(512) 857-0995",,
TX,WALKER,"2020- 01326","Single Family Homes",6/15/2020,,139741,,"210 WANZA RD",HUNTSVILLE,TX,77340,,,CONTRACTOR,,,,,,,,,,,"BRIZO CONSTRUCTION",,,,,"BRIZO CONSTRUCTION","1908 AVENUE L","SANTA FE",TX,77510-8917,"(409) 316-4762",,,,
TX,MONTGOMERY,173435-20,"Single Family Homes",6/24/2020,,540363,,"27507 APPLE CT",HOUSTON,TX,77356,"BENDERS LANDING ESTATES",,CONTRACTOR,,,,,,,,,,,"PARTNERS IN BUILDING",,,,,"PARTNERS IN BUILDING","1803 RANCH ROAD 620 N",LAKEWAY,TX,78734-2611,"(512) 266-6701",http://www.partnersinbuilding.com,"(713) 937-1445",,info@partnersinbuilding.com
TX,MONTGOMERY,173332-20,"Single Family Homes",6/22/2020,,267675,,"4047 EMERSON COVE DR",HOUSTON,TX,77356,"ALLEGRO AT HARMONY",,CONTRACTOR,,,,,,,,,,,"PERRY HOMES",,,,,"PERRY HOMES","9000 GULF FWY",HOUSTON,TX,77017-7018,"(713) 417-1396",,,,
TX,MONTGOMERY,173333-20,"Single Family Homes",6/22/2020,,296175,,"27919 COCHRAN PARK TR",HOUSTON,TX,77356,"ALLEGRO AT HARMONY",,CONTRACTOR,,,,,,,,,,,"PERRY HOMES",,,,,"PERRY HOMES","9000 GULF FWY",HOUSTON,TX,77017-7018,"(713) 417-1396",,,,
TX,MONTGOMERY,173335-20,"Single Family Homes",6/22/2020,,272295,,"4066 EMERSON COVE DR",HOUSTON,TX,77356,"ALLEGRO AT HARMONY",,CONTRACTOR,,,,,,,,,,,"PERRY HOMES",,,,,"PERRY HOMES","9000 GULF FWY",HOUSTON,TX,77017-7018,"(713) 417-1396",,,,
TX,MONTGOMERY,173336-20,"Single Family Homes",6/22/2020,,280425,,"4035 EMERSON COVE DR",HOUSTON,TX,77356,"ALLEGRO AT HARMONY",,CONTRACTOR,,,,,,,,,,,"PERRY HOMES",,,,,"PERRY HOMES","9000 GULF FWY",HOUSTON,TX,77017-7018,"(713) 417-1396",,,,
TX,MONTGOMERY,173337-20,"Single Family Homes",6/22/2020,,377175,,"5324 BRANDI LAKE DR",HOUSTON,TX,77356,"WOODSON'S RESERVE",,CONTRACTOR,,,,,,,,,,,"PERRY HOMES",,,,,"PERRY HOMES","9000 GULF FWY",HOUSTON,TX,77017-7018,"(713) 417-1396",,,,
TX,MONTGOMERY,173338-20,"Single Family Homes",6/22/2020,,320175,,"4513 WOODLAND BEND CT",HOUSTON,TX,77356,"WOODSONS RESERVE",,CONTRACTOR,,,,,,,,,,,"PERRY HOMES",,,,,"PERRY HOMES","9000 GULF FWY",HOUSTON,TX,77017-7018,"(713) 417-1396",,,,
TX,MONTGOMERY,173339-20,"Single Family Homes",6/22/2020,,284925,,"28245 WOODLAND BEND WAY",HOUSTON,TX,77356,"WOODSON'S RESERVE",,CONTRACTOR,,,,,,,,,,,"PERRY HOMES",,,,,"PERRY HOMES","9000 GULF FWY",HOUSTON,TX,77017-7018,"(713) 417-1396",,,,
TX,MONTGOMERY,173340-20,"Single Family Homes",6/22/2020,,341175,,"4505 SILVER PINE CT",HOUSTON,TX,77356,"WOODSON'S RESERVE",,CONTRACTOR,,,,,,,,,,,"PERRY HOMES",,,,,"PERRY HOMES","9000 GULF FWY",HOUSTON,TX,77017-7018,"(713) 417-1396",,,,
TX,MONTGOMERY,173341-20,"Single Family Homes",6/22/2020,,368175,,"28229 WOODLAND BEND WAY",HOUSTON,TX,77356,"WOODSON'S RESERVE",,CONTRACTOR,,,,,,,,,,,"PERRY HOMES",,,,,"PERRY HOMES","9000 GULF FWY",HOUSTON,TX,77017-7018,"(713) 417-1396",,,,
TX,MONTGOMERY,173453-20,"Single Family Homes",6/25/2020,,220425,,"17184 CRIMSON CREST DR",HOUSTON,TX,77356,ARTAVIA,,CONTRACTOR,,,,,,,,,,,"PERRY HOMES",,,,,"PERRY HOMES","9000 GULF FWY",HOUSTON,TX,77017-7018,"(713) 417-1396",,,,
TX,MONTGOMERY,"173353 20","Single Family Homes",6/22/2020,,549000,,"308 BELGIAN CT",HOUSTON,TX,77356,"DEL WEBB",,CONTRACTOR,,,,,,,,,,,"PULTE HOMES",,,,,"PULTE HOMES","16670 PARK ROW",HOUSTON,TX,77084-6866,"(281) 749-8000",,,,
TX,MONTGOMERY,173357-20,"Single Family Homes",6/22/2020,,563500,,"336 BELGIAN CT",HOUSTON,TX,77356,"DEL WEBB",,CONTRACTOR,,,,,,,,,,,"PULTE HOMES",,,,,"PULTE HOMES","16670 PARK ROW",HOUSTON,TX,77084-6866,"(281) 749-8000",,,,
TX,MONTGOMERY,173359-20,"Single Family Homes",6/22/2020,,495000,,"325 BELGIAN COURT",HOUSTON,TX,77356,"DEL WEBB",,CONTRACTOR,,,,,,,,,,,"PULTE HOMES",,,,,"PULTE HOMES","16670 PARK ROW",HOUSTON,TX,77084-6866,"(281) 749-8000",,,,
TX,MONTGOMERY,173360-20,"Single Family Homes",6/22/2020,,339000,,"27804 ELLIE OAK CT",HOUSTON,TX,77356,"HARMONY VILLAGE",,CONTRACTOR,,,,,,,,,,,"PULTE HOMES",,,,,"PULTE HOMES","16670 PARK ROW",HOUSTON,TX,77084-6866,"(281) 749-8000",,,,
TX,MONTGOMERY,173361-20,"Single Family Homes",6/22/2020,,228500,,"4364 IMPERIAL GARDENS DR",HOUSTON,TX,77356,"HARMONY VILLAGE",,CONTRACTOR,,,,,,,,,,,"PULTE HOMES",,,,,"PULTE HOMES","16670 PARK ROW",HOUSTON,TX,77084-6866,"(281) 749-8000",,,,
TX,MONTGOMERY,173362-20,"Single Family Homes",6/22/2020,,282500,,"27997 LONE HOLLOW LN",HOUSTON,TX,77356,"HARMONY VILLAGE",,CONTRACTOR,,,,,,,,,,,"PULTE HOMES",,,,,"PULTE HOMES","16670 PARK ROW",HOUSTON,TX,77084-6866,"(281) 749-8000",,,,
TX,MONTGOMERY,173364-20,"Single Family Homes",6/22/2020,,278700,,"4332 IMPERIAL GARDENS DR",HOUSTON,TX,77356,"HARMONY VILLAGE",,CONTRACTOR,,,,,,,,,,,"PULTE HOMES",,,,,"PULTE HOMES","16670 PARK ROW",HOUSTON,TX,77084-6866,"(281) 749-8000",,,,
TX,MONTGOMERY,173365-20,"Single Family Homes",6/22/2020,,315700,,"27969 CLEAR PINES DR",HOUSTON,TX,77356,"HARMONY VILLAGE",,CONTRACTOR,,,,,,,,,,,"PULTE HOMES",,,,,"PULTE HOMES","16670 PARK ROW",HOUSTON,TX,77084-6866,"(281) 749-8000",,,,
TX,MONTGOMERY,173380-20,"Single Family Homes",6/23/2020,,100000,,"16712 EAST DOUNREAY",HOUSTON,TX,77356,"LAKE CONROE VILLAGE",,"JUAN RAMIREZ","89 TUPELO LN",CONROE,TX,77304,,Owner,,,,,OWNER,,,,,OWNER,,,,,,,,,
TX,MONTGOMERY,173393-20,"Single Family Homes",6/23/2020,,120000,,"28823 STRATHDON",HOUSTON,TX,77356,"INVERNESS CROSSING",,"NESTOR ROJAS","28823 STRATHDON",MAGNOLIA,TX,77354,,Owner,,,,,OWNER,,,,,OWNER,,,,,,,,,
TX,MONTGOMERY,173494-20,"Single Family Homes",6/26/2020,,350000,,"20240 ALFORD",HOUSTON,TX,77356,,,"ANDREW ROSS","PO BOX 1167",PINEHURST,TX,77362,,Owner,,,,,OWNER,,,,,OWNER,,,,,,,,,
TX,MONTGOMERY,173342-20,"Single Family Homes",6/22/2020,,450000,,"271 SKIPPER JACK",HOUSTON,TX,77356,"RIDGE LAKE SHORES",,"JOE SELLERS","287 SKIPPER JACK DR",MONTGOMERY,TX,77356,,Owner,,,,,OWNER,,,,,OWNER,,,,,,,,,
TX,MONTGOMERY,173399-20,"Single Family Homes",6/23/2020,,339300,,"200 GREEN HILLS CT",HOUSTON,TX,77356,"MAGNOLIA RESERVE",,CONTRACTOR,,,,,,,,,,,"TERRATA HOMES",,,,,"TERRATA HOMES","1450 LAKE ROBBINS DR STE 430","THE WOODLANDS",TX,77380-3294,"(830) 538-9500",http://terratahomes.com/,,,
TX,MONTGOMERY,173400-20,"Single Family Homes",6/23/2020,,288340,,"205 GREEN HILLS CT",HOUSTON,TX,77356,"MAGNOLIA RESERVE",,CONTRACTOR,,,,,,,,,,,"TERRATA HOMES",,,,,"TERRATA HOMES","1450 LAKE ROBBINS DR STE 430","THE WOODLANDS",TX,77380-3294,"(830) 538-9500",http://terratahomes.com/,,,
TX,MONTGOMERY,173401-20,"Single Family Homes",6/23/2020,,288340,,"21195 HIDDEN BEND LOOP",HOUSTON,TX,77356,"MAGNOLIA RESERVE",,CONTRACTOR,,,,,,,,,,,"TERRATA HOMES",,,,,"TERRATA HOMES","1450 LAKE ROBBINS DR STE 430","THE WOODLANDS",TX,77380-3294,"(830) 538-9500",http://terratahomes.com/,,,
TX,MONTGOMERY,1731102-20,"Single Family Homes",6/23/2020,,288340,,"21187 HIDDEN BEND LOOP",HOUSTON,TX,77356,"MAGNOLIA RESERVE",,CONTRACTOR,,,,,,,,,,,"TERRATA HOMES",,,,,"TERRATA HOMES","1450 LAKE ROBBINS DR STE 430","THE WOODLANDS",TX,77380-3294,"(830) 538-9500",http://terratahomes.com/,,,
TX,MONTGOMERY,173403-20,"Single Family Homes",6/23/2020,,301340,,"21183 HIDDEN BEND LOOP",HOUSTON,TX,77356,"MAGNOLIA RESERVE",,CONTRACTOR,,,,,,,,,,,"TERRATA HOMES",,,,,"TERRATA HOMES","1450 LAKE ROBBINS DR STE 430","THE WOODLANDS",TX,77380-3294,"(830) 538-9500",http://terratahomes.com/,,,
TX,MONTGOMERY,173404-20,"Single Family Homes",6/23/2020,,264680,,"21191 HIDDEN BEND LOOP",HOUSTON,TX,77356,"MAGNOLIA RESERVE",,CONTRACTOR,,,,,,,,,,,"TERRATA HOMES",,,,,"TERRATA HOMES","1450 LAKE ROBBINS DR STE 430","THE WOODLANDS",TX,77380-3294,"(830) 538-9500",http://terratahomes.com/,,,
TX,MONTGOMERY,173484-20,"Single Family Homes",6/26/2020,,185000,,"4238 ORCHARD PASS DR",HOUSTON,TX,77356,"WOODSON'S RESERVE",,CONTRACTOR,,,,,,,,,,,"TOLL BROTHERS",,,,,"TOLL BROTHERS","10110 W SAM HOUSTON PKWY N STE 350",HOUSTON,TX,77064-7508,"(281) 664-7255",,,,
TX,MONTGOMERY,173417-20,"Single Family Homes",6/24/2020,,140000,,"1509 SUNGAIL DR",HOUSTON,TX,77356,"SPRING HILLS",,"GABRIEL TRUJILLO","1208 CHATEAU WOODS PKWY DR",CONROE,TX,77356,,Owner,,,,,OWNER,,,,,OWNER,,,,,,,,,
TX,MONTGOMERY,173437-20,"Single Family Homes",6/25/2020,,150000,,"22864 WESER DR",HOUSTON,TX,77356,RIVERWALK,,CONTRACTOR,,,,,,,,,,,"TWO SONS ENVIRONMENTAL SERVICES",,,,,"TWO SONS ENVIRONMENTAL SERVICES","23565 FM 1314 RD",PORTER,TX,77365-3724,"(281) 354-9284",http://www.two-sons.net,"(281) 354-2107",,twosonsenvironmental@yahoo.com
TX,MONTGOMERY,"173447 20","Single Family Homes",6/25/2020,,200000,,"3331 W BENDERS LANDING BLVD",HOUSTON,TX,77356,"BENDERS LANDING",,CONTRACTOR,,,,,,,,,,,"TWO SONS ENVIRONMENTAL SERVICES",,,,,"TWO SONS ENVIRONMENTAL SERVICES","23565 FM 1314 RD",PORTER,TX,77365-3724,"(281) 354-9284",http://www.two-sons.net,"(281) 354-2107",,twosonsenvironmental@yahoo.com
TX,MONTGOMERY,173450-20,"Single Family Homes",6/25/2020,,100000,,"18442 OLD HOUSTON ROAD",HOUSTON,TX,77356,"OLD HOUSTON ACRES",,CONTRACTOR,,,,,,,,,,,"TWO SONS ENVIRONMENTAL SERVICES",,,,,"TWO SONS ENVIRONMENTAL SERVICES","23565 FM 1314 RD",PORTER,TX,77365-3724,"(281) 354-9284",http://www.two-sons.net,"(281) 354-2107",,twosonsenvironmental@yahoo.com
TX,MONTGOMERY,173346-20,"Single Family Homes",6/22/2020,,850000,,"2428 HIGH TIMBERS DR",HOUSTON,TX,77356,"LAKE WOODLANDS EAST SHORE",,CONTRACTOR,,,,,,,,,,,"WATERWAY BUILDERS",,,,,"WATERWAY BUILDERS","2219 SAWDUST RD STE 503","THE WOODLANDS",TX,77380-2577,"(832) 995-9411",http://waterway-landing.com,,,john@waterway-builders.com
TX,MONTGOMERY,173347-20,"Single Family Homes",6/22/2020,,850000,,"2424 HIGH TIMBERS DR",HOUSTON,TX,77356,"LAKE WOODLANDS EAST SHORE",,CONTRACTOR,,,,,,,,,,,"WATERWAY BUILDERS",,,,,"WATERWAY BUILDERS","2219 SAWDUST RD STE 503","THE WOODLANDS",TX,77380-2577,"(832) 995-9411",http://waterway-landing.com,,,john@waterway-builders.com
TX,MONTGOMERY,173469-20,"Single Family Homes",6/26/2020,,371555,,"6008 PARKSIDE VILLAS COURT",HOUSTON,TX,77356,"VILLAS AT WHITE OAK RANCH",,CONTRACTOR,,,,,,,,,,,"WOODFALLS DEVELOPMENT GROUP LLC",,,,,"WOODFALLS DEVELOPMENT GROUP LLC","12675 LONGMIRE WAY",CONROE,TX,77304-1077,"(936) 703-5445",https://www.woodfallstx.com,"(936) 703-5272",,
TX,MONTGOMERY,173543-20,"Single Family Homes",6/30/2020,,75000,,"14980 TRAVIS LN",HOUSTON,TX,77356,"FRONTIER LAKES",,CONTRACTOR,,,,,,,,,,,"ASGI HOMES",,,,,"ASGI HOMES","2257 N LOOP 336 W STE 140-370",CONROE,TX,77304-3566,"(888) 991-0005",http://www.asgihomes.com,,,
TX,MONTGOMERY,173545-20,"Single Family Homes",6/30/2020,,75000,,"15082 ARROWHEAD LOOP E",HOUSTON,TX,77356,"ARROWHEAD LAKES",,CONTRACTOR,,,,,,,,,,,"ASGI HOMES",,,,,"ASGI HOMES","2257 N LOOP 336 W STE 140-370",CONROE,TX,77304-3566,"(888) 991-0005",http://www.asgihomes.com,,,
TX,MONTGOMERY,173550-20,"Single Family Homes",6/30/2020,,75000,,"15078 ARROWHEAD LOOP E",HOUSTON,TX,77356,"ARROWHEAD LAKES",,CONTRACTOR,,,,,,,,,,,"ASGI HOMES",,,,,"ASGI HOMES","2257 N LOOP 336 W STE 140-370",CONROE,TX,77304-3566,"(888) 991-0005",http://www.asgihomes.com,,,
TX,MONTGOMERY,"173588- 20","Single Family Homes",7/2/2020,,75000,,"12485 LAKE CONROE HILLS DR",HOUSTON,TX,77356,"LAKE CONROE HILLS",,CONTRACTOR,,,,,,,,,,,"ASGI HOMES",,,,,"ASGI HOMES","2257 N LOOP 336 W STE 140-370",CONROE,TX,77304-3566,"(888) 991-0005",http://www.asgihomes.com,,,
TX,MONTGOMERY,"173589- 20","Single Family Homes",7/2/2020,,75000,,"12469 LAKE CONROE HILLS DR",HOUSTON,TX,77356,"LAKE CONROE HILLS",,CONTRACTOR,,,,,,,,,,,"ASGI HOMES",,,,,"ASGI HOMES","2257 N LOOP 336 W STE 140-370",CONROE,TX,77304-3566,"(888) 991-0005",http://www.asgihomes.com,,,
TX,MONTGOMERY,173552-20,"Single Family Homes",6/30/2020,,255990,,"342 PLEASANT HILL WAY",HOUSTON,TX,77356,"HILLS OF WESTLAKE",,CONTRACTOR,,,,,,,,,,,"DAVID WEEKLEY HOMES",,,,,"DAVID WEEKLEY HOMES","14444 NORTHWEST",HOUSTON,TX,77040,"(713) 570-5021",http://www.davidweekleyhomes.com/,,,
TX,MONTGOMERY,173553-20,"Single Family Homes",6/30/2020,,334990,,"15205 HEMINGWAY HEIGHTS DR",HOUSTON,TX,77356,ARTAVIA,,CONTRACTOR,,,,,,,,,,,"DAVID WEEKLEY HOMES",,,,,"DAVID WEEKLEY HOMES","14444 NORTHWEST",HOUSTON,TX,77040,"(713) 570-5021",http://www.davidweekleyhomes.com/,,,
TX,MONTGOMERY,173582-20,"Single Family Homes",7/2/2020,,332990,,"2910 OAKCREST MEADOW CT",HOUSTON,TX,77356,"MEADOWS AT IMPERIAL OAKS",,CONTRACTOR,,,,,,,,,,,"DAVID WEEKLEY HOMES",,,,,"DAVID WEEKLEY HOMES","14444 NORTHWEST",HOUSTON,TX,77040,"(713) 570-5021",http://www.davidweekleyhomes.com/,,,
TX,MONTGOMERY,173558-20,"Single Family Homes",6/30/2020,,100000,,"10800 COLLIER CEMETARY ROAD",HOUSTON,TX,77356,,,"DAVID FENTON","10800 COLLIER CEMETARY ROAD",MONTGOMERY,TX,77356,,Owner,,,,,OWNER,,,,,OWNER,,,,,,,,,
TX,MONTGOMERY,173568-20,"Single Family Homes",7/1/2020,,200000,,"321 TREATY OAK CT",HOUSTON,TX,77356,,,CONTRACTOR,,,,,,,,,,,"GRACEPOINT HOMES",,,,,"GRACEPOINT HOMES","33300 EGYPT LN STE 100",MAGNOLIA,TX,77354-2739,"(281) 681-0400",http://www.gracepointhomes.com/,"(281) 681-0402",,Info@gracepointhomes.com
TX,MONTGOMERY,173547-20,"Single Family Homes",6/30/2020,,86230,,"130 SOUTH LYNX TR",HOUSTON,TX,77356,WOODFOREST,,CONTRACTOR,,,,,,,,,,,"LENNAR HOMES",,,,,"LENNAR HOMES","550 GREENS PKWY",HOUSTON,TX,77067-4537,"(281) 875-1000",http://www.lennar.com/,,,
TX,MONTGOMERY,173563-20,"Single Family Homes",7/1/2020,,81100,,"5842 ROSEHILL FOREST LN",HOUSTON,TX,77356,"COUNTRY COLONY",,CONTRACTOR,,,,,,,,,,,"LENNAR HOMES",,,,,"LENNAR HOMES","550 GREENS PKWY",HOUSTON,TX,77067-4537,"(281) 875-1000",http://www.lennar.com/,,,
TX,MONTGOMERY,173564-20,"Single Family Homes",7/1/2020,,120300,,"5831 ROSEHILL FOREST LN",HOUSTON,TX,77356,"COUNTRY COLONY",,CONTRACTOR,,,,,,,,,,,"LENNAR HOMES",,,,,"LENNAR HOMES","550 GREENS PKWY",HOUSTON,TX,77067-4537,"(281) 875-1000",http://www.lennar.com/,,,
TX,MONTGOMERY,173565-20,"Single Family Homes",7/1/2020,,144800,,"5838 ROSEHILL FOREST LN",HOUSTON,TX,77356,"COUNTRY COLONY",,CONTRACTOR,,,,,,,,,,,"LENNAR HOMES",,,,,"LENNAR HOMES","550 GREENS PKWY",HOUSTON,TX,77067-4537,"(281) 875-1000",http://www.lennar.com/,,,
TX,MONTGOMERY,173579-20,"Single Family Homes",7/2/2020,,167505,,"1347 WINDING WILLOW DR",HOUSTON,TX,77356,"ARBOR TRACE",,CONTRACTOR,,,,,,,,,,,"LENNAR HOMES",,,,,"LENNAR HOMES","550 GREENS PKWY",HOUSTON,TX,77067-4537,"(281) 875-1000",http://www.lennar.com/,,,
TX,MONTGOMERY,173580-20,"Single Family Homes",7/2/2020,,104000,,"1351 WINDING WILLOW DR",HOUSTON,TX,77356,"ARBOR TRACE",,CONTRACTOR,,,,,,,,,,,"LENNAR HOMES",,,,,"LENNAR HOMES","550 GREENS PKWY",HOUSTON,TX,77067-4537,"(281) 875-1000",http://www.lennar.com/,,,
TX,MONTGOMERY,173581-20,"Single Family Homes",7/2/2020,,142870,,"1348 WINDING WILLOW DR",HOUSTON,TX,77356,"ARBOR TRACE",,CONTRACTOR,,,,,,,,,,,"LENNAR HOMES",,,,,"LENNAR HOMES","550 GREENS PKWY",HOUSTON,TX,77067-4537,"(281) 875-1000",http://www.lennar.com/,,,
TX,MONTGOMERY,173554-20,"Single Family Homes",6/30/2020,,80000,,"23955 MASON BEE LN",HOUSTON,TX,77356,"WHITE OAK CROSSING",,"MIREYA OLIVA","23955 WHITE OAK CROSSING","NEW CANEY",TX,77356,,Owner,,,,,OWNER,,,,,OWNER,,,,,,,,,
TX,MONTGOMERY,173570-20,"Single Family Homes",7/1/2020,,335813,,"8128 TYRELL HEIGHTS DR",HOUSTON,TX,77356,NORTHGROVE,,CONTRACTOR,,,,,,,,,,,"PERRY HOMES",,,,,"PERRY HOMES","9000 GULF FWY",HOUSTON,TX,77017-7018,"(713) 417-1396",,,,
TX,MONTGOMERY,173571-20,"Single Family Homes",7/1/2020,,334538,,"8129 TYRELL HEIGHTS DR",HOUSTON,TX,77356,NORTHGROVE,,CONTRACTOR,,,,,,,,,,,"PERRY HOMES",,,,,"PERRY HOMES","9000 GULF FWY",HOUSTON,TX,77017-7018,"(713) 417-1396",,,,
TX,MONTGOMERY,173572-20,"Single Family Homes",7/1/2020,,331200,,"8145 TYRELL HEIGHTS DR",HOUSTON,TX,77356,NORTHGROVE,,CONTRACTOR,,,,,,,,,,,"PERRY HOMES",,,,,"PERRY HOMES","9000 GULF FWY",HOUSTON,TX,77017-7018,"(713) 417-1396",,,,
TX,MONTGOMERY,173566-20,"Single Family Homes",7/1/2020,,100000,,"13157 BLUFF VIEW DR",HOUSTON,TX,77356,"LAKE CONROE HILLS",,CONTRACTOR,,,,,,,,,,,"STARTER HOMES OF TEXAS",,,,,"STARTER HOMES OF TEXAS","9803 HIGHWAY 242 STE 200 # 211",CONROE,TX,77385-4369,"(281) 367-4200",,,,
TX,MONTGOMERY,173549-20,"Single Family Homes",6/30/2020,,325000,,"734 GREENBURG CT",HOUSTON,TX,77356,"RIVER PLANTATION",,CONTRACTOR,,,,,,,,,,,"TRAMCO BUILDERS",,,,,"TRAMCO BUILDERS","3815 FOREST VILLAGE",KINGWOOD,TX,77339,"(936) 274-2800",https://www.tramcobuilders.com/,"(281) 500-9807",,TRAMCOBUILDERS@GMAIL.COM
TX,MONTGOMERY,173536-20,"Single Family Homes",6/30/2020,,125000,,"19217 KANAWHA DR",HOUSTON,TX,77356,RIVERWALK,,CONTRACTOR,,,,,,,,,,,"TWO SONS ENVIRONMENTAL SERVICES",,,,,"TWO SONS ENVIRONMENTAL SERVICES","23565 FM 1314 RD",PORTER,TX,77365-3724,"(281) 354-9284",http://www.two-sons.net,"(281) 354-2107",,twosonsenvironmental@yahoo.com
TX,MONTGOMERY,173539-20,"Single Family Homes",6/30/2020,,100000,,"20160 SOUTH HILLCREST DR",HOUSTON,TX,77356,"FREEWAY OAKS",,CONTRACTOR,,,,,,,,,,,"TWO SONS ENVIRONMENTAL SERVICES",,,,,"TWO SONS ENVIRONMENTAL SERVICES","23565 FM 1314 RD",PORTER,TX,77365-3724,"(281) 354-9284",http://www.two-sons.net,"(281) 354-2107",,twosonsenvironmental@yahoo.com
TX,MONTGOMERY,173531-20,"Single Family Homes",6/29/2020,,90000,,"22813 WABASH DR",HOUSTON,TX,77356,RIVERWALK,,CONTRACTOR,,,,,,,,,,,"TWO SONS ENVIRONMENTAL SERVICES",,,,,"TWO SONS ENVIRONMENTAL SERVICES","23565 FM 1314 RD",PORTER,TX,77365-3724,"(281) 354-9284",http://www.two-sons.net,"(281) 354-2107",,twosonsenvironmental@yahoo.com
TX,MONTGOMERY,"173696- 20","Single Family Homes",7/8/2020,,300000,,"23599 CANNONDALE LOOP",HOUSTON,TX,77356,"HIGH MEADOW ESTATES",,CONTRACTOR,,,,,,,,,,,"AES SEPTIC",,,,,"AES SEPTIC","30703 N CRIPPLE CREEK DR",MAGNOLIA,TX,77354-1973,"(281) 356-5000",,,,
TX,MONTGOMERY,"173700- 20","Single Family Homes",7/8/2020,,250000,,"23322 GREEN FOREST ST",HOUSTON,TX,77356,"CLEAR CREEK FOREST",,CONTRACTOR,,,,,,,,,,,"AES SEPTIC",,,,,"AES SEPTIC","30703 N CRIPPLE CREEK DR",MAGNOLIA,TX,77354-1973,"(281) 356-5000",,,,
TX,MONTGOMERY,173672-20,"Single Family Homes",7/7/2020,,75000,,"2972 COMANCHE",HOUSTON,TX,77356,"ARROWHEAD LAKES",,CONTRACTOR,,,,,,,,,,,"ASGI HOMES",,,,,"ASGI HOMES","2257 N LOOP 336 W STE 140-370",CONROE,TX,77304-3566,"(888) 991-0005",http://www.asgihomes.com,,,
TX,MONTGOMERY,"173607- 20","Single Family Homes",7/6/2020,,200000,,"27541 HUNTER CREEK CT",HOUSTON,TX,77356,"BENDERS LANDING ESTATES",,"JERRY BARQUIN","19513 DESNA DR",PORTER,TX,77365,,Owner,,,,,OWNER,,,,,OWNER,,,,,,,,,
TX,MONTGOMERY,173633-20,"Single Family Homes",7/7/2020,,75000,,"21 956 WINDROSE POINT",HOUSTON,TX,77356,"NORTHCREST RANCH",,"WAYNE BASKIN","13833 US 59 NORTH",SPLENDORA,TX,77372,,Owner,,,,,OWNER,,,,,OWNER,,,,,,,,,
TX,MONTGOMERY,173671-20,"Single Family Homes",7/7/2020,,400000,,"21958 WINDROSE POINT",HOUSTON,TX,77356,"NORTHCREST RANCH",,"WAYNE BASKIN","13833 US 59 NORTH",SPLENDORA,TX,77372,,Owner,,,,,OWNER,,,,,OWNER,,,,,,,,,
TX,MONTGOMERY,173747-20,"Single Family Homes",7/8/2020,,85000,,"14700 PETERSON ROAD",HOUSTON,TX,77356,,,"WALTER BLAYDES","22509 FM 149",MONTGOMERY,TX,77356,,Owner,,,,,OWNER,,,,,OWNER,,,,,,,,,
TX,MONTGOMERY,173769-20,"Single Family Homes",7/9/2020,,182000,,"103 CHESTNUT RUN COURT",HOUSTON,TX,77356,"MEADOWS AT JACOBS RESERVE",,CONTRACTOR,,,,,,,,,,,"CENTURY COMMUNITIES",,,,,"CENTURY COMMUNITIES","4700 W SAM HOUSTON PKWY N STE 130",HOUSTON,TX,77041-8219,"(281) 741-8946",https://www.centurycommunities.com/,,,
TX,MONTGOMERY,"173688 20","Single Family Homes",7/7/2020,,163593,,"27218 POLO WIND CT",HOUSTON,TX,77356,NORTHGROVE,,CONTRACTOR,,,,,,,,,,,"CHESMAR HOMES",,,,,"CHESMAR HOMES","450 GEARS RD STE 400",HOUSTON,TX,77067-4513,"(281) 598-1111",http://chesmar.com,"(281) 598-1115",,customerservice.houston@chesmar.com
TX,MONTGOMERY,173689-20,"Single Family Homes",7/7/2020,,157218,,"7904 SPRING RUN DR",HOUSTON,TX,77356,NORTHGROVE,,CONTRACTOR,,,,,,,,,,,"CHESMAR HOMES",,,,,"CHESMAR HOMES","450 GEARS RD STE 400",HOUSTON,TX,77067-4513,"(281) 598-1111",http://chesmar.com,"(281) 598-1115",,customerservice.houston@chesmar.com
TX,MONTGOMERY,173690-20,"Single Family Homes",7/7/2020,,155521,,"116 SUGAR PEAK COURT",HOUSTON,TX,77356,WOODFOREST,,CONTRACTOR,,,,,,,,,,,"CHESMAR HOMES",,,,,"CHESMAR HOMES","450 GEARS RD STE 400",HOUSTON,TX,77067-4513,"(281) 598-1111",http://chesmar.com,"(281) 598-1115",,customerservice.houston@chesmar.com
TX,MONTGOMERY,173800-20,"Single Family Homes",7/9/2020,,122317,,"110 HANDLEY DR",HOUSTON,TX,77356,WOODFOREST,,CONTRACTOR,,,,,,,,,,,"CHESMAR HOMES",,,,,"CHESMAR HOMES","450 GEARS RD STE 400",HOUSTON,TX,77067-4513,"(281) 598-1111",http://chesmar.com,"(281) 598-1115",,customerservice.houston@chesmar.com
TX,MONTGOMERY,173801-20,"Single Family Homes",7/9/2020,,129973,,"114 HANDLEY DR",HOUSTON,TX,77356,WOODFOREST,,CONTRACTOR,,,,,,,,,,,"CHESMAR HOMES",,,,,"CHESMAR HOMES","450 GEARS RD STE 400",HOUSTON,TX,77067-4513,"(281) 598-1111",http://chesmar.com,"(281) 598-1115",,customerservice.houston@chesmar.com
TX,MONTGOMERY,173802-20,"Single Family Homes",7/9/2020,,161767,,"9828 PRESERVE WAY",HOUSTON,TX,77356,"HARPERS PRESERVE",,CONTRACTOR,,,,,,,,,,,"CHESMAR HOMES",,,,,"CHESMAR HOMES","450 GEARS RD STE 400",HOUSTON,TX,77067-4513,"(281) 598-1111",http://chesmar.com,"(281) 598-1115",,customerservice.houston@chesmar.com
TX,MONTGOMERY,173803-20,"Single Family Homes",7/9/2020,,151643,,"112 SUGAR PEAK COURT",HOUSTON,TX,77356,WOODFOREST,,CONTRACTOR,,,,,,,,,,,"CHESMAR HOMES",,,,,"CHESMAR HOMES","450 GEARS RD STE 400",HOUSTON,TX,77067-4513,"(281) 598-1111",http://chesmar.com,"(281) 598-1115",,customerservice.houston@chesmar.com
TX,MONTGOMERY,173805-20,"Single Family Homes",7/9/2020,,117760,,"4276 MERRY MILL DR",HOUSTON,TX,77356,"HARMONY VILLAGE",,CONTRACTOR,,,,,,,,,,,"CHESMAR HOMES",,,,,"CHESMAR HOMES","450 GEARS RD STE 400",HOUSTON,TX,77067-4513,"(281) 598-1111",http://chesmar.com,"(281) 598-1115",,customerservice.houston@chesmar.com
TX,MONTGOMERY,173806-20,"Single Family Homes",7/9/2020,,118873,,"4272 MERRY MILL DR",HOUSTON,TX,77356,"HARMONY VILLAGE",,CONTRACTOR,,,,,,,,,,,"CHESMAR HOMES",,,,,"CHESMAR HOMES","450 GEARS RD STE 400",HOUSTON,TX,77067-4513,"(281) 598-1111",http://chesmar.com,"(281) 598-1115",,customerservice.houston@chesmar.com
TX,MONTGOMERY,173818-20,"Single Family Homes",7/9/2020,,137116,,"27037 SOFIA FOREST DR",HOUSTON,TX,77356,NORTHGROVE,,CONTRACTOR,,,,,,,,,,,"CHESMAR HOMES",,,,,"CHESMAR HOMES","450 GEARS RD STE 400",HOUSTON,TX,77067-4513,"(281) 598-1111",http://chesmar.com,"(281) 598-1115",,customerservice.houston@chesmar.com
TX,MONTGOMERY,173820-20,"Single Family Homes",7/9/2020,,127484,,"27001 SOFIA FOREST DR",HOUSTON,TX,77356,NORTHGROVE,,CONTRACTOR,,,,,,,,,,,"CHESMAR HOMES",,,,,"CHESMAR HOMES","450 GEARS RD STE 400",HOUSTON,TX,77067-4513,"(281) 598-1111",http://chesmar.com,"(281) 598-1115",,customerservice.houston@chesmar.com
TX,MONTGOMERY,173823-20,"Single Family Homes",7/9/2020,,152285,,"27202 POLO WIND CT",HOUSTON,TX,77356,NORTHGROVE,,CONTRACTOR,,,,,,,,,,,"CHESMAR HOMES",,,,,"CHESMAR HOMES","450 GEARS RD STE 400",HOUSTON,TX,77067-4513,"(281) 598-1111",http://chesmar.com,"(281) 598-1115",,customerservice.houston@chesmar.com
TX,MONTGOMERY,173858-20,"Single Family Homes",7/10/2020,,110000,,"10019 COTTONTAIL CT",HOUSTON,TX,77356,"MILL CREEK",,CONTRACTOR,,,,,,,,,,,"COLINA HOMES",,,,,"COLINA HOMES","1314 N DURHAM DR",HOUSTON,TX,77008-3734,"(281) 528-9090",http://colinahomes.com/,,,postmaster@colinahomes.com
TX,MONTGOMERY,173859-20,"Single Family Homes",7/10/2020,,116000,,"10041 SWIFT FOX CT",HOUSTON,TX,77356,"MILL CREEK",,CONTRACTOR,,,,,,,,,,,"COLINA HOMES",,,,,"COLINA HOMES","1314 N DURHAM DR",HOUSTON,TX,77008-3734,"(281) 528-9090",http://colinahomes.com/,,,postmaster@colinahomes.com
TX,MONTGOMERY,173860-20,"Single Family Homes",7/10/2020,,117000,,"10023 COTTONTAIL CT",HOUSTON,TX,77356,"MILL CREEK",,CONTRACTOR,,,,,,,,,,,"COLINA HOMES",,,,,"COLINA HOMES","1314 N DURHAM DR",HOUSTON,TX,77008-3734,"(281) 528-9090",http://colinahomes.com/,,,postmaster@colinahomes.com
TX,MONTGOMERY,173640-20,"Single Family Homes",7/7/2020,,132000,,"20827 OLIVE LEAF ST",HOUSTON,TX,77356,"HARRINGTON TRAILS",,CONTRACTOR,,,,,,,,,,,"DR HORTON",,,,,"DR HORTON","14100 SOUTHWEST",HOUSTON,TX,77478,"(281) 201-5559",,,,
TX,MONTGOMERY,173643-20,"Single Family Homes",7/7/2020,,89000,,"20807 OLIVE LEAF ST",HOUSTON,TX,77356,"HARRINGTON TRAILS",,CONTRACTOR,,,,,,,,,,,"DR HORTON",,,,,"DR HORTON","14100 SOUTHWEST",HOUSTON,TX,77478,"(281) 201-5559",,,,
TX,MONTGOMERY,173644-20,"Single Family Homes",7/7/2020,,132000,,"20811 OLIVE LEAF ST",HOUSTON,TX,77356,"HARRINGTON TRAILS",,CONTRACTOR,,,,,,,,,,,"DR HORTON",,,,,"DR HORTON","14100 SOUTHWEST",HOUSTON,TX,77478,"(281) 201-5559",,,,
TX,MONTGOMERY,173645-20,"Single Family Homes",7/7/2020,,110000,,"20815 OLIVE LEAF ST",HOUSTON,TX,77356,"HARRINGTON TRAILS",,CONTRACTOR,,,,,,,,,,,"DR HORTON",,,,,"DR HORTON","14100 SOUTHWEST",HOUSTON,TX,77478,"(281) 201-5559",,,,
TX,MONTGOMERY,173646-20,"Single Family Homes",7/7/2020,,107000,,"20819 OLIVE LEAF ST",HOUSTON,TX,77356,"HARRINGTON TRAILS",,CONTRACTOR,,,,,,,,,,,"DR HORTON",,,,,"DR HORTON","14100 SOUTHWEST",HOUSTON,TX,77478,"(281) 201-5559",,,,
TX,MONTGOMERY,173656-20,"Single Family Homes",7/7/2020,,96000,,"20823 OLIVE LEAF ST",HOUSTON,TX,77356,"HARRINGTON TRAILS",,CONTRACTOR,,,,,,,,,,,"DR HORTON",,,,,"DR HORTON","14100 SOUTHWEST",HOUSTON,TX,77478,"(281) 201-5559",,,,
TX,MONTGOMERY,173661-20,"Single Family Homes",7/7/2020,,119250,,"16814 SILENT PINES CT",HOUSTON,TX,77356,"GRANGER PINES",,CONTRACTOR,,,,,,,,,,,"DR HORTON",,,,,"DR HORTON","14100 SOUTHWEST",HOUSTON,TX,77478,"(281) 201-5559",,,,
TX,MONTGOMERY,173662-20,"Single Family Homes",7/7/2020,,111555,,"14235 WEST PINE HEART DR",HOUSTON,TX,77356,"GRANGER PINES",,CONTRACTOR,,,,,,,,,,,"DR HORTON",,,,,"DR HORTON","14100 SOUTHWEST",HOUSTON,TX,77478,"(281) 201-5559",,,,
TX,MONTGOMERY,173663-20,"Single Family Homes",7/7/2020,,169650,,"13986 FORT WARD WAY",HOUSTON,TX,77356,"FOSTERS RIDGE",,CONTRACTOR,,,,,,,,,,,"DR HORTON",,,,,"DR HORTON","14100 SOUTHWEST",HOUSTON,TX,77478,"(281) 201-5559",,,,
TX,MONTGOMERY,173666-20,"Single Family Homes",7/7/2020,,169650,,"13877 ROCK ISLAND TR",HOUSTON,TX,77356,"FOSTERS RIDGE",,CONTRACTOR,,,,,,,,,,,"DR HORTON",,,,,"DR HORTON","14100 SOUTHWEST",HOUSTON,TX,77478,"(281) 201-5559",,,,
TX,MONTGOMERY,173668-20,"Single Family Homes",7/7/2020,,122500,,"14018 FORD WARD WAY",HOUSTON,TX,77356,"FOSTERS RIDGE",,CONTRACTOR,,,,,,,,,,,"DR HORTON",,,,,"DR HORTON","14100 SOUTHWEST",HOUSTON,TX,77478,"(281) 201-5559",,,,
TX,MONTGOMERY,"173669 20","Single Family Homes",7/7/2020,,157050,,"14014 FORD WARD WAY",HOUSTON,TX,77356,"FOSTERS RIDGE",,CONTRACTOR,,,,,,,,,,,"DR HORTON",,,,,"DR HORTON","14100 SOUTHWEST",HOUSTON,TX,77478,"(281) 201-5559",,,,
TX,MONTGOMERY,173673-20,"Single Family Homes",7/7/2020,,95130,,"13869 ROCK ISLAND TR",HOUSTON,TX,77356,"FOSTERS RIDGE",,CONTRACTOR,,,,,,,,,,,"DR HORTON",,,,,"DR HORTON","14100 SOUTHWEST",HOUSTON,TX,77478,"(281) 201-5559",,,,
TX,MONTGOMERY,"173839 20","Single Family Homes",7/10/2020,,179865,,"6430 ROLLING HILLS ROAD",HOUSTON,TX,77356,"DEER TRAIL ESTATES",,CONTRACTOR,,,,,,,,,,,"DR HORTON",,,,,"DR HORTON","14100 SOUTHWEST",HOUSTON,TX,77478,"(281) 201-5559",,,,
TX,MONTGOMERY,173840-20,"Single Family Homes",7/10/2020,,179665,,"6438 ROLLING HILLS ROAD",HOUSTON,TX,77356,"DEER TRAIL ESTATES",,CONTRACTOR,,,,,,,,,,,"DR HORTON",,,,,"DR HORTON","14100 SOUTHWEST",HOUSTON,TX,77478,"(281) 201-5559",,,,
TX,MONTGOMERY,173684-20,"Single Family Homes",7/7/2020,,224000,,"110 MISTFWWER PATH",HOUSTON,TX,77356,"BONTERRA AT WOODFOREST",,CONTRACTOR,,,,,,,,,,,"DARLING HOMES",,,,,"DARLING HOMES","10255 RICHMOND AVE STE 150",HOUSTON,TX,77042-4382,"(713) 690-6902",http://www.darlinghomes.com/,,,
TX,MONTGOMERY,173685-20,"Single Family Homes",7/7/2020,,224000,,"106 EAST SILKY SEPHORA CT",HOUSTON,TX,77356,"BONTERRA AT WOODFOREST",,CONTRACTOR,,,,,,,,,,,"DARLING HOMES",,,,,"DARLING HOMES","10255 RICHMOND AVE STE 150",HOUSTON,TX,77042-4382,"(713) 690-6902",http://www.darlinghomes.com/,,,
TX,MONTGOMERY,173831-20,"Single Family Homes",7/9/2020,,272588,,"103 VUE POINT PLACE",HOUSTON,TX,77356,"LAKE WOODLANDS EAST SHORE",,CONTRACTOR,,,,,,,,,,,"DARLING HOMES",,,,,"DARLING HOMES","10255 RICHMOND AVE STE 150",HOUSTON,TX,77042-4382,"(713) 690-6902",http://www.darlinghomes.com/,,,
TX,MONTGOMERY,173842-20,"Single Family Homes",7/10/2020,,272588,,"115 VUE POINT PLACE",HOUSTON,TX,77356,"LAKE WOODLANDS EAST SHORE",,CONTRACTOR,,,,,,,,,,,"DARLING HOMES",,,,,"DARLING HOMES","10255 RICHMOND AVE STE 150",HOUSTON,TX,77042-4382,"(713) 690-6902",http://www.darlinghomes.com/,,,
TX,MONTGOMERY,173844-20,"Single Family Homes",7/10/2020,,272588,,"111 VUE POINT PLACE",HOUSTON,TX,77356,"LAKE WOODLANDS EAST SHORE",,CONTRACTOR,,,,,,,,,,,"DARLING HOMES",,,,,"DARLING HOMES","10255 RICHMOND AVE STE 150",HOUSTON,TX,77042-4382,"(713) 690-6902",http://www.darlinghomes.com/,,,
TX,MONTGOMERY,173738-20,"Single Family Homes",7/8/2020,,327990,,"32172 PARK PLAINS DR",HOUSTON,TX,77356,"MEADOWS AT IMPERIAL OAKS",,CONTRACTOR,,,,,,,,,,,"DAVID WEEKLEY HOMES",,,,,"DAVID WEEKLEY HOMES","14444 NORTHWEST",HOUSTON,TX,77040,"(713) 570-5021",http://www.davidweekleyhomes.com/,,,
TX,MONTGOMERY,173739-20,"Single Family Homes",7/8/2020,,327990,,"15209 HEMINGWAY HEIGHTS DR",HOUSTON,TX,77356,ARTAVIA,,CONTRACTOR,,,,,,,,,,,"DAVID WEEKLEY HOMES",,,,,"DAVID WEEKLEY HOMES","14444 NORTHWEST",HOUSTON,TX,77040,"(713) 570-5021",http://www.davidweekleyhomes.com/,,,
TX,MONTGOMERY,173740-20,"Single Family Homes",7/8/2020,,327990,,"15318 GARNET GROVES DR",HOUSTON,TX,77356,ARTAVIA,,CONTRACTOR,,,,,,,,,,,"DAVID WEEKLEY HOMES",,,,,"DAVID WEEKLEY HOMES","14444 NORTHWEST",HOUSTON,TX,77040,"(713) 570-5021",http://www.davidweekleyhomes.com/,,,
TX,MONTGOMERY,173757-20,"Single Family Homes",7/9/2020,,480000,,"15556 GUINEVERE LN",HOUSTON,TX,77356,"GRAND LAKE ESTATES",,"JEFFREY DAVIS","18500 MICHAELS RUN",MONTGOMERY,TX,77373,,Owner,,,,,OWNER,,,,,OWNER,,,,,,,,,
TX,MONTGOMERY,173718-20,"Single Family Homes",7/8/2020,,372215,,"33943 REDWOOD PARK LN",HOUSTON,TX,77356,WOODTRACE,,CONTRACTOR,,,,,,,,,,,"DREES CUSTOM HOMES",,,,,"DREES CUSTOM HOMES","9720 CYPRESSWOOD DR",HOUSTON,TX,77070-3355,"(281) 653-8850",http://www.dreeshomes.com,,,
TX,MONTGOMERY,173721-20,"Single Family Homes",7/8/2020,,433415,,"1116 HAWK OWL CT",HOUSTON,TX,77356,"HARPERS PRESERVE",,CONTRACTOR,,,,,,,,,,,"DREES CUSTOM HOMES",,,,,"DREES CUSTOM HOMES","9720 CYPRESSWOOD DR",HOUSTON,TX,77070-3355,"(281) 653-8850",http://www.dreeshomes.com,,,
TX,MONTGOMERY,173849-20,"Single Family Homes",7/10/2020,,373000,,"747 MAJESTIC SHORES LN",HOUSTON,TX,77356,WOODTRACE,,CONTRACTOR,,,,,,,,,,,"DREES CUSTOM HOMES",,,,,"DREES CUSTOM HOMES","9720 CYPRESSWOOD DR",HOUSTON,TX,77070-3355,"(281) 653-8850",http://www.dreeshomes.com,,,
TX,MONTGOMERY,173850-20,"Single Family Homes",7/10/2020,,356000,,"10111 WINTER TANAGER LN",HOUSTON,TX,77356,"HARPERS PRESERVE",,CONTRACTOR,,,,,,,,,,,"DREES CUSTOM HOMES",,,,,"DREES CUSTOM HOMES","9720 CYPRESSWOOD DR",HOUSTON,TX,77070-3355,"(281) 653-8850",http://www.dreeshomes.com,,,
TX,MONTGOMERY,173785-20,"Single Family Homes",7/9/2020,,206990,,"14160 KAMILIA ROAD",HOUSTON,TX,77356,"WAUKEGAN WAY",,CONTRACTOR,,,,,,,,,,,"FIRST AMERICA HOMES",,,,,"FIRST AMERICA HOMES","1400 WOODLOCH FOREST DR STE 200","THE WOODLANDS",TX,77380-1179,"(713) 452-1700",http://www.firstamericahomes.com/,,,info@firstamericahomes.com
TX,MONTGOMERY,173786-20,"Single Family Homes",7/9/2020,,190990,,"14152 KAMILIA ROAD",HOUSTON,TX,77356,"WAUKEGAN WAY",,CONTRACTOR,,,,,,,,,,,"FIRST AMERICA HOMES",,,,,"FIRST AMERICA HOMES","1400 WOODLOCH FOREST DR STE 200","THE WOODLANDS",TX,77380-1179,"(713) 452-1700",http://www.firstamericahomes.com/,,,info@firstamericahomes.com
TX,MONTGOMERY,173787-20,"Single Family Homes",7/9/2020,,178990,,"14612 EAST PINE HEART DR",HOUSTON,TX,77356,"GRANGER PINES",,CONTRACTOR,,,,,,,,,,,"FIRST AMERICA HOMES",,,,,"FIRST AMERICA HOMES","1400 WOODLOCH FOREST DR STE 200","THE WOODLANDS",TX,77380-1179,"(713) 452-1700",http://www.firstamericahomes.com/,,,info@firstamericahomes.com
TX,MONTGOMERY,173808-20,"Single Family Homes",7/9/2020,,219990,,"11221 DANNY LN",HOUSTON,TX,77356,"CLEAR VIEW ESTATES",,CONTRACTOR,,,,,,,,,,,"FIRST AMERICA HOMES",,,,,"FIRST AMERICA HOMES","1400 WOODLOCH FOREST DR STE 200","THE WOODLANDS",TX,77380-1179,"(713) 452-1700",http://www.firstamericahomes.com/,,,info@firstamericahomes.com
TX,MONTGOMERY,173809-20,"Single Family Homes",7/9/2020,,241990,,"11217 DANNY LN",HOUSTON,TX,77356,"CLEAR VIEW ESTATES",,CONTRACTOR,,,,,,,,,,,"FIRST AMERICA HOMES",,,,,"FIRST AMERICA HOMES","1400 WOODLOCH FOREST DR STE 200","THE WOODLANDS",TX,77380-1179,"(713) 452-1700",http://www.firstamericahomes.com/,,,info@firstamericahomes.com
TX,MONTGOMERY,173812-20,"Single Family Homes",7/9/2020,,228990,,"11213 DANNY LN",HOUSTON,TX,77356,"CLEAR VIEW ESTATES",,CONTRACTOR,,,,,,,,,,,"FIRST AMERICA HOMES",,,,,"FIRST AMERICA HOMES","1400 WOODLOCH FOREST DR STE 200","THE WOODLANDS",TX,77380-1179,"(713) 452-1700",http://www.firstamericahomes.com/,,,info@firstamericahomes.com
TX,MONTGOMERY,173815-20,"Single Family Homes",7/9/2020,,254990,,"11209 DANNY LN",HOUSTON,TX,77356,"CLEAR VIEW ESTATES",,CONTRACTOR,,,,,,,,,,,"FIRST AMERICA HOMES",,,,,"FIRST AMERICA HOMES","1400 WOODLOCH FOREST DR STE 200","THE WOODLANDS",TX,77380-1179,"(713) 452-1700",http://www.firstamericahomes.com/,,,info@firstamericahomes.com
TX,MONTGOMERY,173817-20,"Single Family Homes",7/9/2020,,226990,,"11205 DANNY LN",HOUSTON,TX,77356,"CLEAR VIEW ESTATES",,CONTRACTOR,,,,,,,,,,,"FIRST AMERICA HOMES",,,,,"FIRST AMERICA HOMES","1400 WOODLOCH FOREST DR STE 200","THE WOODLANDS",TX,77380-1179,"(713) 452-1700",http://www.firstamericahomes.com/,,,info@firstamericahomes.com
TX,MONTGOMERY,173821-20,"Single Family Homes",7/9/2020,,245990,,"13116 LAURA LAKE DR",HOUSTON,TX,77356,"CLEAR VIEW ESTATES",,CONTRACTOR,,,,,,,,,,,"FIRST AMERICA HOMES",,,,,"FIRST AMERICA HOMES","1400 WOODLOCH FOREST DR STE 200","THE WOODLANDS",TX,77380-1179,"(713) 452-1700",http://www.firstamericahomes.com/,,,info@firstamericahomes.com
TX,MONTGOMERY,173861-20,"Single Family Homes",7/10/2020,,189990,,"14493 SUGAR PINES DR",HOUSTON,TX,77356,"GRANGER PINES",,CONTRACTOR,,,,,,,,,,,"FIRST AMERICA HOMES",,,,,"FIRST AMERICA HOMES","1400 WOODLOCH FOREST DR STE 200","THE WOODLANDS",TX,77380-1179,"(713) 452-1700",http://www.firstamericahomes.com/,,,info@firstamericahomes.com
TX,MONTGOMERY,173862-20,"Single Family Homes",7/10/2020,,202990,,"14125 HARLEQUIN DR",HOUSTON,TX,77356,"TEAL CROSSING",,CONTRACTOR,,,,,,,,,,,"FIRST AMERICA HOMES",,,,,"FIRST AMERICA HOMES","1400 WOODLOCH FOREST DR STE 200","THE WOODLANDS",TX,77380-1179,"(713) 452-1700",http://www.firstamericahomes.com/,,,info@firstamericahomes.com
TX,MONTGOMERY,173614-20,"Single Family Homes",7/6/2020,,377000,,"26252 LAURENS CT",HOUSTON,TX,77356,"CROWN RANCH",,"JOHN & LARSONY FISHER","5402 FM 1488 APT 311",MAGNOLIA,TX,77373,,Owner,,,,,OWNER,,,,,OWNER,,,,,,,,,
TX,MONTGOMERY,173605-20,"Single Family Homes",7/6/2020,,80000,,"11237 CAMP CREEK WAY",HOUSTON,TX,77356,"CREEKSIDE ACRES",,"WALTER GALAN","11205 CAMP CREEK WAY",WILLIS,TX,77378,,Owner,,,,,OWNER,,,,,OWNER,,,,,,,,,
TX,MONTGOMERY,173726-20,"Single Family Homes",7/8/2020,,100000,,"16934 GLENHEATH",HOUSTON,TX,77356,"LAKE CONROE VILLAGE",,"RENE GARZA","1132 CEDER CREEK DR",CONROE,TX,77301,,Owner,,,,,OWNER,,,,,OWNER,,,,,,,,,
TX,MONTGOMERY,"173736 20","Single Family Homes",7/8/2020,,110000,,"22492 BRASS BELL DR",HOUSTON,TX,77356,"WOODRIDGE FOREST",,CONTRACTOR,,,,,,,,,,,"GEHAN HOMES",,,,,"GEHAN HOMES","2050 W SAM HOUSTON PKWY S",HOUSTON,TX,77042-2079,"(713) 243-3545",http://www.gehanhomes.com,,,
TX,MONTGOMERY,173774-20,"Single Family Homes",7/9/2020,,90000,,"40561 MOSTYN LAKE DR",HOUSTON,TX,77356,"MOSTYN SPRINGS",,CONTRACTOR,,,,,,,,,,,"GEHAN HOMES",,,,,"GEHAN HOMES","2050 W SAM HOUSTON PKWY S",HOUSTON,TX,77042-2079,"(713) 243-3545",http://www.gehanhomes.com,,,
TX,MONTGOMERY,173775-20,"Single Family Homes",7/9/2020,,72000,,"40723 GATE RIDGE DR",HOUSTON,TX,77356,"MOSTYN SPRINGS",,CONTRACTOR,,,,,,,,,,,"GEHAN HOMES",,,,,"GEHAN HOMES","2050 W SAM HOUSTON PKWY S",HOUSTON,TX,77042-2079,"(713) 243-3545",http://www.gehanhomes.com,,,
TX,MONTGOMERY,173776-20,"Single Family Homes",7/9/2020,,91000,,"40542 MOSTYN LAKE DR",HOUSTON,TX,77356,"MOSTYN SPRINGS",,CONTRACTOR,,,,,,,,,,,"GEHAN HOMES",,,,,"GEHAN HOMES","2050 W SAM HOUSTON PKWY S",HOUSTON,TX,77042-2079,"(713) 243-3545",http://www.gehanhomes.com,,,
TX,MONTGOMERY,173777-20,"Single Family Homes",7/9/2020,,103000,,"40715 GATE RIDGE DR",HOUSTON,TX,77356,"MOSTYN SPRINGS",,CONTRACTOR,,,,,,,,,,,"GEHAN HOMES",,,,,"GEHAN HOMES","2050 W SAM HOUSTON PKWY S",HOUSTON,TX,77042-2079,"(713) 243-3545",http://www.gehanhomes.com,,,
TX,MONTGOMERY,173778-20,"Single Family Homes",7/9/2020,,80000,,"40489 MOSTYN LAKE DR",HOUSTON,TX,77356,"MOSTYN SPRINGS",,CONTRACTOR,,,,,,,,,,,"GEHAN HOMES",,,,,"GEHAN HOMES","2050 W SAM HOUSTON PKWY S",HOUSTON,TX,77042-2079,"(713) 243-3545",http://www.gehanhomes.com,,,
TX,MONTGOMERY,173779-20,"Single Family Homes",7/9/2020,,87000,,"12513 MORNING HILL PASS",HOUSTON,TX,77356,"MOSTYN SPRINGS",,CONTRACTOR,,,,,,,,,,,"GEHAN HOMES",,,,,"GEHAN HOMES","2050 W SAM HOUSTON PKWY S",HOUSTON,TX,77042-2079,"(713) 243-3545",http://www.gehanhomes.com,,,
TX,MONTGOMERY,173665-20,"Single Family Homes",7/7/2020,,200000,,"202 WINDMILL COVE",HOUSTON,TX,77356,"WINDMILL COVE",,"SAOL GONZALEZ","2327 HECTOR ST",HOUSTON,TX,77093,,Owner,,,,,OWNER,,,,,OWNER,,,,,,,,,
TX,MONTGOMERY,173639-20,"Single Family Homes",7/7/2020,,90000,,"27203 BUTTERCUP LN",HOUSTON,TX,77356,"DECKER WOODS",,"MARIA GUZMAN","27007 BUTTERCUP LN",MAGNOLIA,TX,77373,,Owner,,,,,OWNER,,,,,OWNER,,,,,,,,,
TX,MONTGOMERY,173615-20,"Single Family Homes",7/6/2020,,1050000,,"3915 N RONDELET DR",HOUSTON,TX,77356,"BENDERS LANDING",,"JOHN HATTEBERG","2307 HOLLISTER ST",HOUSTON,TX,77356,,Owner,,,,,OWNER,,,,,OWNER,,,,,,,,,
TX,MONTGOMERY,173788-20,"Single Family Homes",7/9/2020,,317355,,"123 VINE MINT DR",HOUSTON,TX,77356,WOODFOREST,,CONTRACTOR,,,,,,,,,,,"HIGHLAND HOMES",,,,,"HIGHLAND HOMES","10930 W SAM HOUSTON PKWY N STE 100",HOUSTON,TX,77064-6331,"(281) 517-9800",,,,
TX,MONTGOMERY,173790-20,"Single Family Homes",7/9/2020,,299809,,"253 ASTER VIEW CT",HOUSTON,TX,77356,"WOOD FOREST",,CONTRACTOR,,,,,,,,,,,"HIGHLAND HOMES",,,,,"HIGHLAND HOMES","10930 W SAM HOUSTON PKWY N STE 100",HOUSTON,TX,77064-6331,"(281) 517-9800",,,,
TX,MONTGOMERY,173791-20,"Single Family Homes",7/9/2020,,306133,,"214 ASTER VIEW CT",HOUSTON,TX,77356,"WOOD FOREST",,CONTRACTOR,,,,,,,,,,,"HIGHLAND HOMES",,,,,"HIGHLAND HOMES","10930 W SAM HOUSTON PKWY N STE 100",HOUSTON,TX,77064-6331,"(281) 517-9800",,,,
TX,MONTGOMERY,173825-20,"Single Family Homes",7/9/2020,,350000,,"162 SUGAR PINE COURT",HOUSTON,TX,77356,WOODFOREST,,CONTRACTOR,,,,,,,,,,,"HIGHLAND HOMES",,,,,"HIGHLAND HOMES","10930 W SAM HOUSTON PKWY N STE 100",HOUSTON,TX,77064-6331,"(281) 517-9800",,,,
TX,MONTGOMERY,173826-20,"Single Family Homes",7/9/2020,,350000,,"113 SUGAR PINE COURT",HOUSTON,TX,77356,WOODFOREST,,CONTRACTOR,,,,,,,,,,,"HIGHLAND HOMES",,,,,"HIGHLAND HOMES","10930 W SAM HOUSTON PKWY N STE 100",HOUSTON,TX,77064-6331,"(281) 517-9800",,,,
TX,MONTGOMERY,173627-20,"Single Family Homes",7/7/2020,,120000,,"15496 BIG BOW ROAD",HOUSTON,TX,77356,"ARROWHEAD LAKES",,"MATTHEW JOHNSON","909 HARVARD ROAD",HUFFMAN,TX,77336,,Owner,,,,,OWNER,,,,,OWNER,,,,,,,,,
TX,MONTGOMERY,173728-20,"Single Family Homes",7/8/2020,,189000,,"30437 BUTTERNUT OAK LN",HOUSTON,TX,77356,"GLEN OAKS",,CONTRACTOR,,,,,,,,,,,"K HOVNANIAN HOMES",,,,,"K HOVNANIAN HOMES","13111 NORTHWEST FWY STE 200",HOUSTON,TX,77040-6311,"(713) 460-0264",,,,
TX,MONTGOMERY,173729-20,"Single Family Homes",7/8/2020,,116000,,"30441 BUTTERNUT OAK LN",HOUSTON,TX,77356,"GLEN OAKS",,CONTRACTOR,,,,,,,,,,,"K HOVNANIAN HOMES",,,,,"K HOVNANIAN HOMES","13111 NORTHWEST FWY STE 200",HOUSTON,TX,77040-6311,"(713) 460-0264",,,,
TX,MONTGOMERY,173730-20,"Single Family Homes",7/8/2020,,153000,,"30445 BUTTERNUT OAK LN",HOUSTON,TX,77356,"GLEN OAKS",,CONTRACTOR,,,,,,,,,,,"K HOVNANIAN HOMES",,,,,"K HOVNANIAN HOMES","13111 NORTHWEST FWY STE 200",HOUSTON,TX,77040-6311,"(713) 460-0264",,,,
TX,MONTGOMERY,173731-20,"Single Family Homes",7/8/2020,,161000,,"18830 SAWTOOTH OAK CT",HOUSTON,TX,77356,"GLEN OAKS",,CONTRACTOR,,,,,,,,,,,"K HOVNANIAN HOMES",,,,,"K HOVNANIAN HOMES","13111 NORTHWEST FWY STE 200",HOUSTON,TX,77040-6311,"(713) 460-0264",,,,
TX,MONTGOMERY,173732-20,"Single Family Homes",7/8/2020,,170000,,"18824 SAWTOOTH OAK CT",HOUSTON,TX,77356,"GLEN OAKS",,CONTRACTOR,,,,,,,,,,,"K HOVNANIAN HOMES",,,,,"K HOVNANIAN HOMES","13111 NORTHWEST FWY STE 200",HOUSTON,TX,77040-6311,"(713) 460-0264",,,,
TX,MONTGOMERY,173635-20,"Single Family Homes",7/7/2020,,243000,,"8797 UTE CREEK LN",HOUSTON,TX,77356,"CIMARRON CREEK",,CONTRACTOR,,,,,,,,,,,"KB HOME",,,,,"KB HOME","11314 RICHMOND AVE",HOUSTON,TX,77082-2616,"(281) 668-3800",,,,
TX,MONTGOMERY,173780-20,"Single Family Homes",7/9/2020,,158000,,"25660 RAMSEY HEIGHTS WAY",HOUSTON,TX,77356,"BROOKWOOD FOREST",,CONTRACTOR,,,,,,,,,,,"KB HOME",,,,,"KB HOME","11314 RICHMOND AVE",HOUSTON,TX,77082-2616,"(281) 668-3800",,,,
TX,MONTGOMERY,173781-20,"Single Family Homes",7/9/2020,,125000,,"20656 KINGS CLIFF PLACE",HOUSTON,TX,77356,"BROOKWOOD FOREST",,CONTRACTOR,,,,,,,,,,,"KB HOME",,,,,"KB HOME","11314 RICHMOND AVE",HOUSTON,TX,77082-2616,"(281) 668-3800",,,,
TX,MONTGOMERY,173792-20,"Single Family Homes",7/9/2020,,154000,,"20853 LANGWORTH PLACE",HOUSTON,TX,77356,"BROOKWOOD FOREST",,CONTRACTOR,,,,,,,,,,,"KB HOME",,,,,"KB HOME","11314 RICHMOND AVE",HOUSTON,TX,77082-2616,"(281) 668-3800",,,,
TX,MONTGOMERY,173793-20,"Single Family Homes",7/9/2020,,199000,,"20877 LANGWORTH PLACE",HOUSTON,TX,77356,"BROOKWOOD FOREST",,CONTRACTOR,,,,,,,,,,,"KB HOME",,,,,"KB HOME","11314 RICHMOND AVE",HOUSTON,TX,77082-2616,"(281) 668-3800",,,,
TX,MONTGOMERY,173794-20,"Single Family Homes",7/9/2020,,199000,,"25648 RAMSEY HEIGHTS WAY",HOUSTON,TX,77356,"BROOKWOOD FOREST",,CONTRACTOR,,,,,,,,,,,"KB HOME",,,,,"KB HOME","11314 RICHMOND AVE",HOUSTON,TX,77082-2616,"(281) 668-3800",,,,
TX,MONTGOMERY,173795-20,"Single Family Homes",7/9/2020,,199000,,"25652 RAMSEY HEIGHTS WAY",HOUSTON,TX,77356,"BROOKWOOD FOREST",,CONTRACTOR,,,,,,,,,,,"KB HOME",,,,,"KB HOME","11314 RICHMOND AVE",HOUSTON,TX,77082-2616,"(281) 668-3800",,,,
TX,MONTGOMERY,173798-20,"Single Family Homes",7/9/2020,,128000,,"20169 LANGWELL DR",HOUSTON,TX,77356,"BROOKWOOD FOREST",,CONTRACTOR,,,,,,,,,,,"KB HOME",,,,,"KB HOME","11314 RICHMOND AVE",HOUSTON,TX,77082-2616,"(281) 668-3800",,,,
TX,MONTGOMERY,173810-20,"Single Family Homes",7/9/2020,,158000,,"8780 UTE CREEK LN",HOUSTON,TX,77356,"CIMARRON CREEK",,CONTRACTOR,,,,,,,,,,,"KB HOME",,,,,"KB HOME","11314 RICHMOND AVE",HOUSTON,TX,77082-2616,"(281) 668-3800",,,,
TX,MONTGOMERY,173811-20,"Single Family Homes",7/9/2020,,124000,,"8621 CIMARRON MESA LN",HOUSTON,TX,77356,"CIMARRON CREEK",,CONTRACTOR,,,,,,,,,,,"KB HOME",,,,,"KB HOME","11314 RICHMOND AVE",HOUSTON,TX,77082-2616,"(281) 668-3800",,,,
TX,MONTGOMERY,173814-20,"Single Family Homes",7/9/2020,,186000,,"8617 CIMARRON MESA LN",HOUSTON,TX,77356,"CIMARRON CREEK",,CONTRACTOR,,,,,,,,,,,"KB HOME",,,,,"KB HOME","11314 RICHMOND AVE",HOUSTON,TX,77082-2616,"(281) 668-3800",,,,
TX,MONTGOMERY,173816-20,"Single Family Homes",7/9/2020,,141000,,"8637 CIMARRON MESA LN",HOUSTON,TX,77356,"CIMARRON CREEK",,CONTRACTOR,,,,,,,,,,,"KB HOME",,,,,"KB HOME","11314 RICHMOND AVE",HOUSTON,TX,77082-2616,"(281) 668-3800",,,,
TX,MONTGOMERY,173819-20,"Single Family Homes",7/9/2020,,157000,,"8796 UTE CREEK LN",HOUSTON,TX,77356,"CIMARRON CREEK",,CONTRACTOR,,,,,,,,,,,"KB HOME",,,,,"KB HOME","11314 RICHMOND AVE",HOUSTON,TX,77082-2616,"(281) 668-3800",,,,
TX,MONTGOMERY,173822-20,"Single Family Homes",7/9/2020,,260000,,"8747 UTE CREEK LN",HOUSTON,TX,77356,"CIMARRON CREEK",,CONTRACTOR,,,,,,,,,,,"KB HOME",,,,,"KB HOME","11314 RICHMOND AVE",HOUSTON,TX,77082-2616,"(281) 668-3800",,,,
TX,MONTGOMERY,173824-20,"Single Family Homes",7/9/2020,,200000,,"8614 CIMARRON MESA LN",HOUSTON,TX,77356,"CIMARRON CREEK",,CONTRACTOR,,,,,,,,,,,"KB HOME",,,,,"KB HOME","11314 RICHMOND AVE",HOUSTON,TX,77082-2616,"(281) 668-3800",,,,
TX,MONTGOMERY,173706-20,"Single Family Homes",7/8/2020,,86940,,"15035 MEADOW GLEN NORTH",HOUSTON,TX,77356,"MEADOW GLEN",,CONTRACTOR,,,,,,,,,,,"KENDALL HOMES",,,,,"KENDALL HOMES","427 MASON PARK BLVD",KATY,TX,77450-6187,"(281) 398-4010",http://www.kendallhomes.net/,"(281) 398-4011",,
TX,MONTGOMERY,173707-20,"Single Family Homes",7/8/2020,,125040,,"15039 MEADOW GLEN NORTH",HOUSTON,TX,77356,"MEADOW GLEN",,CONTRACTOR,,,,,,,,,,,"KENDALL HOMES",,,,,"KENDALL HOMES","427 MASON PARK BLVD",KATY,TX,77450-6187,"(281) 398-4010",http://www.kendallhomes.net/,"(281) 398-4011",,
TX,MONTGOMERY,173657-20,"Single Family Homes",7/7/2020,,167505,,"1340 WINDING WILLOW DR",HOUSTON,TX,77356,"ARBOR TRACE",,CONTRACTOR,,,,,,,,,,,"LENNAR HOMES",,,,,"LENNAR HOMES","550 GREENS PKWY",HOUSTON,TX,77067-4537,"(281) 875-1000",http://www.lennar.com/,,,
TX,MONTGOMERY,173658-20,"Single Family Homes",7/7/2020,,104000,,"1344 WINDING WILLOW DR",HOUSTON,TX,77356,"ARBOR TRACE",,CONTRACTOR,,,,,,,,,,,"LENNAR HOMES",,,,,"LENNAR HOMES","550 GREENS PKWY",HOUSTON,TX,77067-4537,"(281) 875-1000",http://www.lennar.com/,,,
TX,MONTGOMERY,173701-20,"Single Family Homes",7/8/2020,,144000,,"5827 ROSEHILL FOREST LN",HOUSTON,TX,77356,"COUNTRY COLONY",,CONTRACTOR,,,,,,,,,,,"LENNAR HOMES",,,,,"LENNAR HOMES","550 GREENS PKWY",HOUSTON,TX,77067-4537,"(281) 875-1000",http://www.lennar.com/,,,
TX,MONTGOMERY,173702-20,"Single Family Homes",7/8/2020,,97000,,"18829 AMARO HILLS DR",HOUSTON,TX,77356,TAVOLA,,CONTRACTOR,,,,,,,,,,,"LENNAR HOMES",,,,,"LENNAR HOMES","550 GREENS PKWY",HOUSTON,TX,77067-4537,"(281) 875-1000",http://www.lennar.com/,,,
TX,MONTGOMERY,173704-20,"Single Family Homes",7/8/2020,,144000,,"5138 ANDORRA BEND LN",HOUSTON,TX,77356,"ROYAL BROOK AT KINGWOOD",,CONTRACTOR,,,,,,,,,,,"LENNAR HOMES",,,,,"LENNAR HOMES","550 GREENS PKWY",HOUSTON,TX,77067-4537,"(281) 875-1000",http://www.lennar.com/,,,
TX,MONTGOMERY,173799-20,"Single Family Homes",7/9/2020,,99060,,"1336 WINDING WILLOW DR",HOUSTON,TX,77356,"ARBOR TRACE",,CONTRACTOR,,,,,,,,,,,"LENNAR HOMES",,,,,"LENNAR HOMES","550 GREENS PKWY",HOUSTON,TX,77067-4537,"(281) 875-1000",http://www.lennar.com/,,,
TX,MONTGOMERY,173760-20,"Single Family Homes",7/9/2020,,80000,,"29200 BLACKWOOD FOREST ST",HOUSTON,TX,77356,"FOREST VILLAGE",,CONTRACTOR,,,,,,,,,,,"LONG LAKE HOMES",,,,,"LONG LAKE HOMES","15915 KATY FWY STE 405",HOUSTON,TX,77094-1710,"(281) 646-1727",http://www.longlakeltd.com/,,"DAVID BIGLER",
TX,MONTGOMERY,173761-20,"Single Family Homes",7/9/2020,,80000,,"2153 ARTIC LOON DR",HOUSTON,TX,77356,"MONTGOMERY CREEK RANCH",,CONTRACTOR,,,,,,,,,,,"LONG LAKE HOMES",,,,,"LONG LAKE HOMES","15915 KATY FWY STE 405",HOUSTON,TX,77094-1710,"(281) 646-1727",http://www.longlakeltd.com/,,"DAVID BIGLER",
TX,MONTGOMERY,173763-20,"Single Family Homes",7/9/2020,,291804,,"7067 EDGEWATER DR",HOUSTON,TX,77356,"SEVEN COVES",,CONTRACTOR,,,,,,,,,,,"M DAIGLE CUSTOM HOMES",,,,,"M DAIGLE CUSTOM HOMES","PO BOX 1000",WILLIS,TX,77378-1000,"(281) 636-3054",http://www.mdaiglehomes.com/,,,info@mdaiglehomes.com
TX,MONTGOMERY,173834-20,"Single Family Homes",7/10/2020,,200000,,"9641 BILNOSKI ROAD",HOUSTON,TX,77356,,,"RANDY & JESSICA MEDINA","207 CEDARWOOD DR",WILLIS,TX,77378,,Owner,,,,,OWNER,,,,,OWNER,,,,,,,,,
TX,MONTGOMERY,173660-20,"Single Family Homes",7/7/2020,,315000,,"9727 HICKORY RIDGE DR",HOUSTON,TX,77356,,,"COLBY MILSTEAD","9727 HICKORY RIDGE DR",CONROE,TX,77356,,Owner,,,,,OWNER,,,,,OWNER,,,,,,,,,
TX,MONTGOMERY,173765-20,"Single Family Homes",7/9/2020,,807000,,"6810 RED HOLLY CT",HOUSTON,TX,77356,"HIGH MEADOW ESTATES",,"HOLLY MOYLAN","16501 ROYDER ROAD","COLLEGE STATION",TX,77356,,Owner,,,,,OWNER,,,,,OWNER,,,,,,,,,
TX,HARRIS,1805210133,"Warehouse & Manufacturing",6/16/2020,,3211254,41940,"10903 TOWER OAKS BLVD",HOUSTON,TX,77356,"STORAGE SOLUTIONS PLUS",,"MAXWELL DUWAJI","10903 TOWER OAKS BLVD",HOUSTON,TX,77356,,Owner,,,,,OWNER,,,,,OWNER,,,,,,,,,
