state,county,permno,ptype,pdate,pdescription,jvalue,jsqfeet,jaddr,jcity,jstate,jzip,jsubdiv,jlotno,aname,aaddr,acity,astate,azip,aphone,atype,aurl,afax,aprimarycontact,aemail,bldcode,units,bldgs,ctype,legal,contractor,caddress,ccity,cstate,czip,cphone,curl,cfax,cprimarycontact,cemail
TX,BELL,"20 00003349","Churches & Other Religious",6/4/2020,Renovation,50000,,"102 E CHURCH AVE",KILLEEN,TX,76541,,,CONTRACTOR,,,,,,,,,,,"AYCOCK CONSTRUCTION",,,,,"AYCOCK CONSTRUCTION","1300 E FM 2410 RD","HARKER HEIGHTS",TX,76548-6848,"(254) 698-2551",http://www.aycockconstruction.com/,"(254) 698-1169",,aycock2551@yahoo.com
TX,MONTGOMERY,BR-20-003027,"Duplex, Triplex, & Fourplex",6/22/2020,,90000,1031,"1439 RUSTLING OAKS DR UNIT A",CONROE,TX,77304,,,CONTRACTOR,,,,,,,,,,,"VANGUARD BUILDERS",,,,,"VANGUARD BUILDERS","120 KNOLLBROOK CIR",MONTGOMERY,TX,77316-7562,"(281) 220-9087",,,,
TX,MONTGOMERY,BR-20-003030,"Duplex, Triplex, & Fourplex",6/23/2020,,90000,1048,"1439 RUSTLING OAKS DR UNIT B",CONROE,TX,77304,,,CONTRACTOR,,,,,,,,,,,"VANGUARD BUILDERS",,,,,"VANGUARD BUILDERS","120 KNOLLBROOK CIR",MONTGOMERY,TX,77316-7562,"(281) 220-9087",,,,
TX,BELL,"20 00003179","Duplex, Triplex, & Fourplex",6/4/2020,,,3158,"1000 BARBARA JORDAN ST",KILLEEN,TX,76541,,,CONTRACTOR,,,,,,,,,,,"FLINTROCK BUILDERS",,,,,"FLINTROCK BUILDERS","105 EAST, FARM TO MARKET 2410","HARKER HEIGHTS",TX,76548,"(254) 393-1412",,,,
TX,BELL,"20 00002788","Duplex, Triplex, & Fourplex",6/4/2020,,,3484,"109 CASTELLON CT",KILLEEN,TX,76542,,,CONTRACTOR,,,,,,,,,,,"INDEPENDENCE CONSTRUCTION",,,,,"INDEPENDENCE CONSTRUCTION","178 YATES CIR",ALEDO,TX,76008-4481,"(817) 243-1020",,,,
TX,BELL,"20 00002786","Duplex, Triplex, & Fourplex",6/4/2020,,,3401,"2813 LEROY CIR",KILLEEN,TX,76542,,,CONTRACTOR,,,,,,,,,,,"SWARTZ & NUNN CONSTRUCTION",,,,,"SWARTZ & NUNN CONSTRUCTION","410 N PATTERSON AVE",FLORENCE,TX,76527,"(254) 702-0130",,,,
TX,BELL,"20 00003354","Duplex, Triplex, & Fourplex",6/17/2020,,,3356,"1007 ANNA LEE DR",KILLEEN,TX,76549,,,CONTRACTOR,,,,,,,,,,,"KILLEEN SUMMIT BUILDERS",,,,,"KILLEEN SUMMIT BUILDERS","415 E AVENUE F",KILLEEN,TX,76541-6217,"(254) 634-6914",,,,
TX,BELL,"20 00003358","Duplex, Triplex, & Fourplex",6/17/2020,,,3356,"1009 ANNA LEE DR",KILLEEN,TX,76549,,,CONTRACTOR,,,,,,,,,,,"KILLEEN SUMMIT BUILDERS",,,,,"KILLEEN SUMMIT BUILDERS","415 E AVENUE F",KILLEEN,TX,76541-6217,"(254) 634-6914",,,,
TX,BELL,"20 00003360","Duplex, Triplex, & Fourplex",6/17/2020,,,3356,"1011 ANNA LEE DR",KILLEEN,TX,76549,,,CONTRACTOR,,,,,,,,,,,"KILLEEN SUMMIT BUILDERS",,,,,"KILLEEN SUMMIT BUILDERS","415 E AVENUE F",KILLEEN,TX,76541-6217,"(254) 634-6914",,,,
TX,HARRIS,1910220120,"Educational Institution",6/16/2020,,434550,5794,"13300 WILL CLAYTON PKWY",HOUSTON,TX,77356,,,"STEVEN N HADLEY II","13300 WILL CLAYTON PKWY",HOUSTON,TX,77356,,Owner,,,,,OWNER,,,,,OWNER,,,,,,,,,
TX,MONTGOMERY,BC-20-005122,"Educational Institution",6/5/2020,,75000,1650,"336 N MAIN ST FL 1ST",CONROE,TX,77304,,,CONTRACTOR,,,,,,,,,,,TRIMCOS,,,,,TRIMCOS,"2405 SMITH ST",HOUSTON,TX,77006-2315,"(713) 526-3500",http://trimcos.com,"(713) 526-3502",,trimcos@sbcglobal.net
TX,GALVESTON,2020-0959,"Educational Institution",5/15/2020,,200000,,"3121 W PARKWOOD AVE A",FRIENDSWOOD,TX,77546,,,CONTRACTOR,,,,,,,,,,,"M&D CONSTRUCTION & REMODELING",,,,,"M&D CONSTRUCTION & REMODELING","4502 WYOMING AVE","WICHITA FALLS",TX,76310,"(940) 228-5522",,,,
TX,HARRIS,20050487,"Educational Institution",6/17/2020,,700000,7100,"300 W BAKER RD",BAYTOWN,TX,77521,,,CONTRACTOR,,,,,,,,,,,"COMEX CORPORATION",,,,,"COMEX CORPORATION","9841 SPENCER HWY","LA PORTE",TX,77571-4073,"(281) 479-2322",http://www.comexcorp.com/,"(281) 479-2069","JUSTIN WADE",justinwade@comexcorp.com
TX,BELL,"20 00002809","Educational Institution",6/9/2020,Renovation,229180,,"4400 SUCCESS DR",KILLEEN,TX,76542,,,CONTRACTOR,,,,,,,,,,,"EBCO GENERAL CONTRACTOR",,,,,"EBCO GENERAL CONTRACTOR","305 W GILLIS AVE",CAMERON,TX,76520-3930,"(254) 697-8516",http://ebcogc.com/,"(254) 697-8656",,businessdevelopment@ebcogc.com
TX,BELL,"20 00002796","Educational Institution",6/9/2020,Renovation,188580,,"4400 FOSTER LN",KILLEEN,TX,76549,,,CONTRACTOR,,,,,,,,,,,"EBCO GENERAL CONTRACTOR",,,,,"EBCO GENERAL CONTRACTOR","305 W GILLIS AVE",CAMERON,TX,76520-3930,"(254) 697-8516",http://ebcogc.com/,"(254) 697-8656",,businessdevelopment@ebcogc.com
TX,BELL,"20 00002801","Educational Institution",6/9/2020,Renovation,177240,,"2600 WESTWOOD DR",KILLEEN,TX,76549,,,CONTRACTOR,,,,,,,,,,,"EBCO GENERAL CONTRACTOR",,,,,"EBCO GENERAL CONTRACTOR","305 W GILLIS AVE",CAMERON,TX,76520-3930,"(254) 697-8516",http://ebcogc.com/,"(254) 697-8656",,businessdevelopment@ebcogc.com
TX,BELL,"20 00002805","Educational Institution",6/9/2020,Renovation,730940,,"400 W STAN SCHLUETER LP",KILLEEN,TX,76542,,,CONTRACTOR,,,,,,,,,,,"EBCO GENERAL CONTRACTOR",,,,,"EBCO GENERAL CONTRACTOR","305 W GILLIS AVE",CAMERON,TX,76520-3930,"(254) 697-8516",http://ebcogc.com/,"(254) 697-8656",,businessdevelopment@ebcogc.com
TX,BELL,"20 00002808","Educational Institution",6/9/2020,Renovation,94710,,"3302 CLEAR CREEK RD",KILLEEN,TX,76549,,,CONTRACTOR,,,,,,,,,,,"EBCO GENERAL CONTRACTOR",,,,,"EBCO GENERAL CONTRACTOR","305 W GILLIS AVE",CAMERON,TX,76520-3930,"(254) 697-8516",http://ebcogc.com/,"(254) 697-8656",,businessdevelopment@ebcogc.com
TX,BELL,"20 00002810","Educational Institution",6/19/2020,Renovation,431900,,"2501 W STAN SCHLUETER LP",KILLEEN,TX,76549,,,CONTRACTOR,,,,,,,,,,,"EBCO GENERAL CONTRACTOR",,,,,"EBCO GENERAL CONTRACTOR","305 W GILLIS AVE",CAMERON,TX,76520-3930,"(254) 697-8516",http://ebcogc.com/,"(254) 697-8656",,businessdevelopment@ebcogc.com
TX,GALVESTON,2020-1317,"Hospital & Other Medical",5/27/2020,,628000,,"505 S FRIENDSWOOD DR 101",FRIENDSWOOD,TX,77546,,,CONTRACTOR,,,,,,,,,,,"DE HARVEY BUILDERS",,,,,"DE HARVEY BUILDERS","3630 WESTCHASE DR",HOUSTON,TX,77042-5224,"(713) 783-8710",,,,
TX,MONTGOMERY,20200263,"Hospital & Other Medical",5/27/2020,Renovation,236000,,"18230 FM 1488 # 100",MAGNOLIA,TX,77354,,,CONTRACTOR,,,,,,,,,,,"TR7 SUPPLY CONSULTING",,,,,"TR7 SUPPLY CONSULTING","278 PRIVATE ROAD 5884",JEWETT,TX,75846-5740,"(713) 478-7290",,,,
TX,HARRIS,"BC-20-002 98","Hospital & Other Medical",6/18/2020,,536000,,"9230 KATY STE 601",HOUSTON,TX,77024,,,CONTRACTOR,,,,,,,,,,,"ARCH-CON CORPORATION",,,,,"ARCH-CON CORPORATION","1335 W GRAY ST STE 210",HOUSTON,TX,77019-4056,"(713) 533-1900",http://www.arch-con.com,,,contact@arch-con.com
TX,HARRIS,"BC-20-002 99","Hospital & Other Medical",6/18/2020,Renovation,150000,,"9230 KATY FREEWAY RD",HOUSTON,TX,77055,,,CONTRACTOR,,,,,,,,,,,"ARCH-CON CORPORATION",,,,,"ARCH-CON CORPORATION","1335 W GRAY ST STE 210",HOUSTON,TX,77019-4056,"(713) 533-1900",http://www.arch-con.com,,,contact@arch-con.com
TX,HARRIS,20060082,"Hospital & Other Medical",6/5/2019,,566700,31000,"4401 GARTH RD",BAYTOWN,TX,77521,,,CONTRACTOR,,,,,,,,,,,"PYRAMID WATERPROOFING",,,,,"PYRAMID WATERPROOFING","122 BERRY RD",HOUSTON,TX,77022-3127,"(713) 699-4777",,,"Ron Nau",
TX,HARRIS,20050250,"Hospital & Other Medical",6/3/2020,,35000,,"4533 GARTH RD",BAYTOWN,TX,77521,,,"WILLOWCREEK BAYTOWN VENTURE","4533 GARTH RD",BAYTOWN,TX,77521,,Owner,,,,,OWNER,,,,,OWNER,,,,,,,,,
TX,HARRIS,200575,"Hospital & Other Medical",6/10/2020,Renovation,150000,,"18652 MCKAY BLVD STE 300",HUMBLE,TX,77338,,,CONTRACTOR,,,,,,,,,,,"CUSTOM REDESIGN",,,,,"CUSTOM REDESIGN","3907 GAZEBO LN","MISSOURI CITY",TX,77459-6463,"(713) 530-7891",,,,
TX,HARRIS,200647,"Hospital & Other Medical",6/25/2020,"Finish Out",575000,,"18980 W MEMORIAL DR STE 300",HUMBLE,TX,77338,,,CONTRACTOR,,,,,,,,,,,"BYRD INTERIOR CONSTRUCTION",,,,,"BYRD INTERIOR CONSTRUCTION","2123 W GOVERNORS CIR",HOUSTON,TX,77092-8746,"(713) 688-8850",,,,
TX,HARRIS,1904180088,"Hotel, Motel & Assisted Living",6/17/2020,,1138280,20696,"15848 YORKTOWN CROSSING PKWY",HOUSTON,TX,77356,"YORKTOWN CROSSING",,"SHARIN PATEL","15848 YORKTOWN CROSSING PKWY",HOUSTON,TX,77356,,Owner,,,,,OWNER,,,,,OWNER,,,,,,,,,
TX,HARRIS,2000656,"Multi Family Apartments & Condos",6/22/2020,,86600,,"709 GALE",SEABROOK,TX,77586,,,CONTRACTOR,,,,,,,,,,,"CRS BUILDING SERVICES",,,,,"CRS BUILDING SERVICES","8181 W HARDY RD",HOUSTON,TX,77022,"(713) 428-1439",,,,
TX,HARRIS,2000657,"Multi Family Apartments & Condos",6/22/2020,,1564652,15526,"2802 LARRABEE ST",SEABROOK,TX,77586,,,CONTRACTOR,,,,,,,,,,,"MARK DANA CORPORATION",,,,,"MARK DANA CORPORATION","26302 OAK RIDGE DRIVE SUITE 100",SPRING,TX,77380,"(281) 292-1958",http://www.mark-dana.com/,"(281) 419-1991",,
TX,MONTGOMERY,173139-20,"Multi Family Apartments & Condos",6/16/2020,,400000,,"2471 SOUTHLINE ROAD",HOUSTON,TX,77356,"NORTHLINE OAKS",,"ROBERT MESSINGILL","1321 UPLAND DRIVE #2792",HOUSTON,TX,77356,,Owner,,,,,OWNER,,,,,OWNER,,,,,,,,,
TX,BRAZOS,20-1683,"Multi Family Renovations & Additions",6/18/2020,Renovation,41404,,"2909 SWEET GUM DR",BRYAN,TX,77803,,,CONTRACTOR,,,,,,,,,,,"MARC JONES CONSTRUCTION",,,,,"MARC JONES CONSTRUCTION","12011 DENTON DR",DALLAS,TX,75234-7211,"(832) 778-4911",,,,
TX,HARRIS,CB-001055-2020,"Offices, R&D, & Professional",6/22/2020,Renovation,45000,124,"4460 SH 225 E","DEER PARK",TX,77536,,,CONTRACTOR,,,,,,,,,,,"J STONE CONSTRUCTION",,,,,"J STONE CONSTRUCTION","1818 BINGLE RD STE 100",HOUSTON,TX,77055-2340,"(832) 358-3539",,,"JAMES STONE",
TX,BRAZOS,20-1392,"Offices, R&D, & Professional",6/10/2020,,67974,,"711 BROADMOOR DR",BRYAN,TX,77802,,,CONTRACTOR,,,,,,,,,,,"MARC JONES CONSTRUCTION",,,,,"MARC JONES CONSTRUCTION","12011 DENTON DR",DALLAS,TX,75234-7211,"(832) 778-4911",,,,
TX,BRAZOS,20-1073,"Offices, R&D, & Professional",6/5/2020,Renovation,680000,,"401 W 26TH ST STE 201",BRYAN,TX,77803,,,CONTRACTOR,,,,,,,,,,,"VAUGHN CONSTRUCTION",,,,,"VAUGHN CONSTRUCTION","152 CARRIE ST",HOUSTON,TX,77047-4014,"(713) 589-7400",,,,
TX,BRAZOS,19-3993,"Offices, R&D, & Professional",6/9/2020,Renovation,975000,,"1835 SANDY POINT RD",BRYAN,TX,77807,,,CONTRACTOR,,,,,,,,,,,"COLLIER CONSTRUCTION",,,,,"COLLIER CONSTRUCTION","1601 LOOP 290 WEST",BRENHAM,TX,77251-1889,"(979) 836-4477",http://www.collierconstruction.com,"(979) 836-4940",,mail@collierconstruction.com
TX,BRAZOS,20-1030,"Offices, R&D, & Professional",6/17/2020,Renovation,200000,1020,"8200 SANDY POINT RD",BRYAN,TX,77807,,,CONTRACTOR,,,,,,,,,,,"BRYAN TEXAS UTILITIES",,,,,"BRYAN TEXAS UTILITIES","205 E 28TH ST",BRYAN,TX,77803,"(979) 821-5700",,,,
TX,BRAZOS,20-1760,"Offices, R&D, & Professional",6/18/2020,Renovation,90000,2000,"3121 UNIVERSITY DR E #250",BRYAN,TX,77802,,,CONTRACTOR,,,,,,,,,,,"KEYS & WALSH CONSTRUCTION",,,,,"KEYS & WALSH CONSTRUCTION","12633 STATE HIGHWAY 30","COLLEGE STATION",TX,77845-7736,"(979) 774-3600",http://www.keysandwalsh.com/,"(979) 774-3611",,
TX,MONTGOMERY,BC-20-004601,"Offices, R&D, & Professional",6/29/2020,,59112,,"514 MILL AVE",CONROE,TX,77304,,,"MILL AVE AUTO WORKS","514 MILL AVE",CONROE,TX,77301,"(936) 441-0303",Owner,,,,,OWNER,,,,,OWNER,,,,,,,,,
TX,MONTGOMERY,BC-20-005301,"Offices, R&D, & Professional",6/8/2020,,315664,9324,"900 W DAVIS ST STE 100",CONROE,TX,77304,,,"EDWARD L JOYAL","322 N MAIN ST",CONROE,TX,77301,"(936) 756-0400",Applicant,,,,,OWNER,,,,,OWNER,,,,,,,,,
TX,MONTGOMERY,BC-20-006162,"Offices, R&D, & Professional",6/1/2020,,63052,1600,"15677 MARINA DR",CONROE,TX,77304,,,CONTRACTOR,,,,,,,,,,,"TEXAS ECO PAVING",,,,,"TEXAS ECO PAVING"," 2016 HOLMAN STREET",HOUSTON,TX,77004,"(713) 829-0220",,,,
TX,MONTGOMERY,BC-20-006904,"Offices, R&D, & Professional",6/23/2020,,98125,2490,"17189 INTERSTATE 45 S STE 235",CONROE,TX,77356,,,CONTRACTOR,,,,,,,,,,,"SOUTH COAST CONSTRUCTION SERVICES",,,,,"SOUTH COAST CONSTRUCTION SERVICES","8935 KNIGHT RD",HOUSTON,TX,77054-4303,"(713) 222-2308",http://www.sccsi.net/contactus.html,"(713) 222-7107",,jbarrow@sccsi.net
TX,BELL,"20 00003797","Offices, R&D, & Professional",6/30/2020,Renovation,340200,,"201 S 28TH ST",KILLEEN,TX,76541,,,CONTRACTOR,,,,,,,,,,,"HAWK BUILDERS",,,,,"HAWK BUILDERS","5600 TENNYSON PKWY SUITE 280",PLANO,TX,75024,"(214) 934-1149",https://www.hawkbuildersdev.com/,,,info@hawkbuildersdev.com
TX,BRAZOS,20-1630,"Other Commercial",6/12/2020,Renovation,65000,228,"705 E 31ST ST",BRYAN,TX,77803,,,CONTRACTOR,,,,,,,,,,,"THE TOOL GUYS",,,,,"THE TOOL GUYS","3800 STATE HIGHWAY 6 S","COLLEGE STATION",TX,77845-5840,"(979) 764-8665",http://toolguysbcs.com/,,,
TX,BRAZOS,20-1578,"Other Commercial",6/18/2020,Renovation,42000,,"2708 W SH 21",BRYAN,TX,77803,,,CONTRACTOR,,,,,,,,,,,"CIRCLE KJ BUILDERS",,,,,"CIRCLE KJ BUILDERS","2404 BRIAR OAKS DR",BRYAN,TX,77802-4709,"(979) 820-0404",,,,
TX,MONTGOMERY,BC-20-005815,"Other Commercial",6/4/2020,,128835,1998,"4477 W DAVIS ST",CONROE,TX,77301,,,CONTRACTOR,,,,,,,,,,,"CHEYENNE CONSTRUCTION GROUP",,,,,"CHEYENNE CONSTRUCTION GROUP","1860 FM 359 #241",RICHMOND,TX,77406,"(713) 562-1107",,,,brent@cheyennecg.com
TX,HARRIS,200632,"Other Commercial",6/24/2020,Renovation,350000,,"18240 HWY 59 STE 100",HUMBLE,TX,77338,,,CONTRACTOR,,,,,,,,,,,"CORVUS CONSTRUCTION",,,,,"CORVUS CONSTRUCTION","4309 WAY OUT WEST DR",HOUSTON,TX,77092-1457,"(713) 699-3100",,,,
TX,MONTGOMERY,BC-20-002118,"Parks, Recreation, Entertainment, & RV Park",6/10/2020,,226080,1800,"3215 MACKENZIE CREEK DR",CONROE,TX,77304,,,CONTRACTOR,,,,,,,,,,,"LANCASTER & WYATT ARCHITECTS",,,,,"LANCASTER & WYATT ARCHITECTS","10655 SIX PINES DR STE 290","THE WOODLANDS",TX,77330,"(281) 364-1666",,,,
TX,HARRIS,2006040086,"Residential Renovations & Additions",6/16/2020,Renovation,45880,,"11402 MONASHEE CT",HOUSTON,TX,77356,"GROVE LANDING",,CONTRACTOR,,,,,,,,,,,"MHI MCGUYER HOMEBUILDERS",,,,,"MHI MCGUYER HOMEBUILDERS","7676 WOODWAY DR",HOUSTON,TX,77063-1526,"(713) 260-4107",,,,
TX,BRAZOS,20-1856,"Residential Renovations & Additions",6/24/2020,Renovation,35000,1044,"408 MILWAUKEE ST",BRYAN,TX,77803,KOSAREK,,"MARION ARNOLD","408 MILWAUKEE ST",BRYAN,TX,77803,,Owner,,,,,"GOOD COMPANY CONSTRUCTION",,,,,"GOOD COMPANY CONSTRUCTION","3700 TANGLEWOOD DRIVE",BRYAN,TX,77802,"(979) 777-1508",,,,
TX,BRAZOS,20-1804,"Residential Renovations & Additions",6/24/2020,Renovation,135504,4398,"601 E 32ND ST",BRYAN,TX,77803,PHILLIPS,,"MATHIS & MANDY CONLEE","601 E 32ND ST",BRYAN,TX,77803,,Owner,,,,,"CROWLEY CONSTRUCTION",,,,,"CROWLEY CONSTRUCTION","5203 WHISTLING STRAITS CT","COLLEGE STATION",TX,77845-3788,"(979) 690-3525",,,,
TX,MONTGOMERY,BR-20-004970,"Residential Renovations & Additions",6/8/2020,Renovation,30000,,"1565 MEMORIAL LN",CONROE,TX,77304,,,"MELANIE & PAUL MOORE","1565 MEMORIAL LN",CONROE,TX,77304,,Owner,,,,,"DANIEL'S CUSTOM CONSTRUCTION",,,,,"DANIEL'S CUSTOM CONSTRUCTION","1593 PINE OAK DRIVE",CONROE,TX,77304,"(936) 697-0570",,,,
TX,MONTGOMERY,BR-20-006380,"Residential Renovations & Additions",6/19/2020,Renovation,53000,4504,"2605 SAND SHORE DR",CONROE,TX,77303,,,CONTRACTOR,,,,,,,,,,,"TRADEMARK QUALITY HOMES",,,,,"TRADEMARK QUALITY HOMES","2040 N LOOP 336 W STE 116",CONROE,TX,77304-3580,"(936) 441-4004",http://www.tqhomes.com/,"(936) 441-4003",,jodi@tqhomes.com
TX,MONTGOMERY,BR-20-006479,"Residential Renovations & Additions",6/10/2020,Renovation,60000,1124,"1009 COWAN AVE  ",CONROE,TX,77303,,,"JOSE GAETA","10306 LAFFERTY OAKS ST  ",HOUSTON,TX,77013,"(713) 824-5928",Applicant,,,,,OWNER,,,,,OWNER,,,,,,,,,
TX,GALVESTON,2020-1148,"Residential Renovations & Additions",5/13/2020,Renovation,255000,,"2105 BUTLER DR",FRIENDSWOOD,TX,77546,,,"FRED & SHAWNA LEWIS","2105 BUTLER DR",FRIENDSWOOD,TX,77546,,Owner,,,,,"HELPENSTILL CONSTRUCTION",,,,,"HELPENSTILL CONSTRUCTION","2315 FAIRWAY CIR",PEARLAND,TX,77581-5119,"(281) 900-4781",,,"JOHNNY HELPENSTILL ",
TX,GALVESTON,2020-1213,"Residential Renovations & Additions",5/19/2020,Addition,150000,,"19 EL DORADO DR",FRIENDSWOOD,TX,77546,,,"BLANE ENOS","19 EL DORADO DR",FRIENDSWOOD,TX,77546,,Owner,,,,,"PROPERTIES OF HOWARD JAMES",,,,,"PROPERTIES OF HOWARD JAMES","9805 FAIRMONT PKWY STE C","LA PORTE",TX,77571,"(713) 992-3700",,,,
TX,GALVESTON,2020-1505,"Residential Renovations & Additions",5/29/2020,Renovation,100000,,"411 CARRIAGE CREEK LN",FRIENDSWOOD,TX,77546,,,"MICHAEL & CYNTHIA BARKER","411 CARRIAGE CREEK LN",FRIENDSWOOD,TX,77546,,Owner,,,,,"REFINED CUSTOM BUILDERS",,,,,"REFINED CUSTOM BUILDERS","1505 HIGHWAY 6 S",HOUSTON,TX,77077-1700,"(281) 701-5540",http://refinedcustombuilders.com/,,,
TX,GALVESTON,2020-00522,"Residential Renovations & Additions",6/11/2020,Addition,55000,,"1122 55TH ST",GALVESTON,TX,77450,,,"IESHA THOMAS","1122 55TH ST",GALVESTON,TX,77450,,Owner,,,,,"A&D HOME REPAIR",,,,,"A&D HOME REPAIR","PO BOX 3283",GALVESTON,TX,77552-0283,"(409) 771-6434",,,,adwebb1195@sbcglobal.net
TX,GALVESTON,2020-00586,"Residential Renovations & Additions",6/12/2020,Renovation,53757,,"18615 W DE VACA LN",GALVESTON,TX,77450,,,"JEFFREY & PATRICIA ALLWARDT","18615 W DE VACA LN",GALVESTON,TX,77450,,Owner,,,,,"ALLSTATE SIDING AND WINDOWS",,,,,"ALLSTATE SIDING AND WINDOWS","5750 BINTLIFF DR STE 200",HOUSTON,TX,77036-2123,"(832) 431-4697",http://www.sidinghoustontx.net/,,,
TX,GALVESTON,2020-00590,"Residential Renovations & Additions",6/12/2020,Addition,48000,,"3823 SIXTH ST",GALVESTON,TX,77450,,,CONTRACTOR,,,,,,,,,,,"WILSON CONSTRUCTION ",,,,,"WILSON CONSTRUCTION ","12051 STARCREST DR","SAN ANTONIO",TX,78247-4350,"(210) 490-7600",,"(210) 490-7602",,
TX,HARRIS,BP-20-00422-01,"Residential Renovations & Additions",6/24/2020,Renovation,40000,618,"5821 CHARLOTTE ST",HOUSTON,TX,77005,,,"BRIAN PAYNE","5821 CHARLOTTE ST",HOUSTON,TX,77005,,Owner,,,,,"STRUXURE OUTDOOR HOUSTON",,,,,"STRUXURE OUTDOOR HOUSTON","17319 CUMBERLAND PARK LN",HUMBLE,TX,77346,"(832) 777-7740",https://struxure.com/,,,
TX,HARRIS,BP-20-00445-02,"Residential Renovations & Additions",6/8/2020,Renovation,90548,585,"2612 FENWOOD RD",HOUSTON,TX,77005,,,"JOSEPH & KAREN MCMANUS","2612 FENWOOD RD",HOUSTON,TX,77005,,Owner,,,,,"ROLLAC SHUTTERS OF TEXAS",,,,,"ROLLAC SHUTTERS OF TEXAS","5331 W ORANGE ST",PEARLAND,TX,77581,"(281) 485-1911",,,,
TX,HARRIS,BP-20-00455-01,"Residential Renovations & Additions",6/2/2020,Renovation,100000,596,"3210 RICE BLVD",HOUSTON,TX,77005,,,"CHARLES & KATHERINE JOHNSON","3210 RICE BLVD",HOUSTON,TX,77005,,Owner,,,,,"CAM CONSTRUCTION",,,,,"CAM CONSTRUCTION","3801 KIRBY DR STE 340",HOUSTON,TX,77098-4100,"(713) 533-0700",http://host.trustab.org/camconstruction,"(713) 533-0701","JEFF PATRIZI",jpatrizi@camconstruction.net
TX,HARRIS,BP-20-00515-01,"Residential Renovations & Additions",6/16/2020,Renovation,95000,674,"3928 BROWNING ST",HOUSTON,TX,77005,,,"ANTHONY SHIH","3928 BROWNING ST",HOUSTON,TX,77005,,Owner,,,,,"ESBIN E AGUILAR MASON CONTRACTOR",,,,,"ESBIN E AGUILAR MASON CONTRACTOR"," 1026 WEST 21ST STREET",HOUSTON,TX,77008,"(713) 426-1828",,,,
TX,HARRIS,BP-20-00547,"Residential Renovations & Additions",6/2/2020,Renovation,39825,,"6431 BELMONT ST",HOUSTON,TX,77005,,,CONTRACTOR,,,,,,,,,,,"MC HOME IMPROVEMENT",,,,,"MC HOME IMPROVEMENT","9606 HAMMERLY BLVD",HOUSTON,TX,77080,"(832) 867-6730",,,,
TX,HARRIS,BP-20-00557,"Residential Renovations & Additions",6/9/2020,,50000,483,"6434 RUTGERS ST",HOUSTON,TX,77005,,,"BILLY & ELISABETH DYER","6434 RUTGERS ST",HOUSTON,TX,77005,,Owner,,,,,"HIGBIE VENTURES",,,,,"HIGBIE VENTURES","3733 WESTHEIMER RD, STE 1",HOUSTON,TX,77027-5226,"(832) 358-0615",,,,
TX,HARRIS,BP-20-00591-01,"Residential Renovations & Additions",6/18/2020,Renovation,251640,1061,"2732 BARBARA LN",HOUSTON,TX,77005,,,CONTRACTOR,,,,,,,,,,,"BLACKWELL DESIGN",,,,,"BLACKWELL DESIGN","3050 POST OAK BLVD STE 620",HOUSTON,TX,77056-6525,"(713) 724-9984",,,,
TX,HARRIS,BP-20-00605-01,"Residential Renovations & Additions",6/18/2020,Renovation,40000,432,"4039 UNIVERSITY BLVD",HOUSTON,TX,77005,,,"DAVID & DEBORAH CROW","4039 UNIVERSITY BLVD",HOUSTON,TX,77005,,Owner,,,,,"STONEHENGE CLASSIC HOMES",,,,,"STONEHENGE CLASSIC HOMES","3400 BISSONNET ST",HOUSTON,TX,77005-2155,"(713) 665-6530",http://stonehengeclassichomes.com/,"(713) 665-6540","CHAD BARNES",cbarnes@stonehengeclassichomes.com
TX,HARRIS,BP-20-00637,"Residential Renovations & Additions",6/19/2020,Renovation,58000,70,"6620 BROMPTON RD",HOUSTON,TX,77005,,,CONTRACTOR,,,,,,,,,,,"ASHWOOD DESIGNS & CUSTOM HOMES",,,,,"ASHWOOD DESIGNS & CUSTOM HOMES","2006 CRYSTAL CT",HOUSTON,TX,77008-1119,"(281) 435-3696",http://ashwooddesigns.com/,,,
TX,MONTGOMERY,"1731 93-20","Residential Renovations & Additions",6/16/2020,,30000,,"29522 DALLAS ST",HOUSTON,TX,77356,"DECKER HILLS",,"JASON CALCOTE","29522 DALLAS ST",HOUSTON,TX,77356,,Owner,,,,,OWNER,,,,,OWNER,,,,,,,,,
TX,MONTGOMERY,173241-20,"Residential Renovations & Additions",6/18/2020,Renovation,44670,,"2238 ORCHARD ORIOLE DR",HOUSTON,TX,77356,"MONTGOMERY CREEK RANCH",,CONTRACTOR,,,,,,,,,,,"LONG LAKE HOMES",,,,,"LONG LAKE HOMES","15915 KATY FWY STE 405",HOUSTON,TX,77094-1710,"(281) 646-1727",http://www.longlakeltd.com/,,"DAVID BIGLER",
TX,HARRIS,2006020106,"Residential Swimming Pools & Spas",6/16/2020,,47500,,"24331 IVORY SUNSET LN",HOUSTON,TX,77356,"KING CROSSING",,"MARKELA & TISHEKA BROWN","24331 IVORY SUNSET LN",HOUSTON,TX,77356,,Owner,,,,,OWNER,,,,,OWNER,,,,,,,,,
TX,HARRIS,2005200033,"Residential Swimming Pools & Spas",6/16/2020,,50000,,"43 HEARTHWICK RD",HOUSTON,TX,77356,,,"BRAD ASTIN","43 HEARTHWICK RD",HOUSTON,TX,77356,,Owner,,,,,OWNER,,,,,OWNER,,,,,,,,,
TX,HARRIS,2005220055,"Residential Swimming Pools & Spas",6/16/2020,,54005,,"15710 PONDEROSA BEND DR",HOUSTON,TX,77356,"WILDWOOD AT OAKCREST",,KOFTON,"15710 PONDEROSA BEND DR",HOUSTON,TX,77356,,Owner,,,,,OWNER,,,,,OWNER,,,,,,,,,
TX,HARRIS,2005270022,"Residential Swimming Pools & Spas",6/16/2020,,71000,,"20803 FAIRWYCK CT",HOUSTON,TX,77356,"ALBURY TRAILS",,"KENT HARRINGTON","20803 FAIRWYCK CT",HOUSTON,TX,77356,,Owner,,,,,OWNER,,,,,OWNER,,,,,,,,,
TX,HARRIS,2005280034,"Residential Swimming Pools & Spas",6/16/2020,,38785,400,"2127 NAPLECHASE CREST DR",HOUSTON,TX,77356,"PARK SPRING",,"ALEJANDRO HERNANDEZ","2127 NAPLECHASE CREST DR",HOUSTON,TX,77356,,Owner,,,,,OWNER,,,,,OWNER,,,,,,,,,
TX,HARRIS,2005280186,"Residential Swimming Pools & Spas",6/16/2020,,45995,,"14711 E GINGER SPICE CT",HOUSTON,TX,77356,"FAIRFIELD VILLAGE",,"KIMBERLEY POEGEMOLLER","14711 E GINGER SPICE CT",HOUSTON,TX,77356,,Owner,,,,,OWNER,,,,,OWNER,,,,,,,,,
TX,HARRIS,2006020131,"Residential Swimming Pools & Spas",6/16/2020,,60000,500,"116 N BIMINI TWIST CIR",HOUSTON,TX,77356,"THE WOODLANDS CREEKSIDE PARK",,"KEN CONNER","116 N BIMINI TWIST CIR",HOUSTON,TX,77356,,Owner,,,,,OWNER,,,,,OWNER,,,,,,,,,
TX,HARRIS,2006020134,"Residential Swimming Pools & Spas",6/16/2020,,65000,,"59 BIRCH CANOE DR",HOUSTON,TX,77356,"THE WOODLANDS CREEKSIDE PARK",,"JAMES MATHIS","59 BIRCH CANOE DR",HOUSTON,TX,77356,,Owner,,,,,OWNER,,,,,OWNER,,,,,,,,,
TX,HARRIS,2006020053,"Residential Swimming Pools & Spas",6/16/2020,,84009.29,,"9902 BIRKSBRIDGE CT",HOUSTON,TX,77356,"GLEANNLOCH FARMS",,RAIT,"9902 BIRKSBRIDGE CT",HOUSTON,TX,77356,,Owner,,,,,OWNER,,,,,OWNER,,,,,,,,,
TX,HARRIS,2006010049,"Residential Swimming Pools & Spas",6/16/2020,,32334,,"14 HADLOCK PL",HOUSTON,TX,77356,,,"TIMOTHY & DAWN KUHN","14 HADLOCK PL",HOUSTON,TX,77356,,Owner,,,,,OWNER,,,,,OWNER,,,,,,,,,
TX,HARRIS,2006090087,"Residential Swimming Pools & Spas",6/16/2020,,3800,,"11 LUFBERRY PL",HOUSTON,TX,77356,"THE WOODLANDS CREEKSIDE PARK",,"MIGUEL A OTERO","11 LUFBERRY PL",HOUSTON,TX,77356,,Owner,,,,,OWNER,,,,,OWNER,,,,,,,,,
TX,HARRIS,2006040125,"Residential Swimming Pools & Spas",6/16/2020,,29500,,"15815 MONKEY ROCK DR",HOUSTON,TX,77356,"BRIDGELAND PARKLAND VILLAGE",,MARTINEZ,"15815 MONKEY ROCK DR",HOUSTON,TX,77356,,Owner,,,,,OWNER,,,,,OWNER,,,,,,,,,
TX,HARRIS,2005260113,"Residential Swimming Pools & Spas",6/16/2020,,30000,,"8402 WESTERBROOK LN",HOUSTON,TX,77356,"FALL CREEK",,"DAVID GALDAMEZ","8402 WESTERBROOK LN",HOUSTON,TX,77356,,Owner,,,,,OWNER,,,,,OWNER,,,,,,,,,
TX,HARRIS,2005270068,"Residential Swimming Pools & Spas",6/16/2020,,84000,,"16800 W CARAMEL APPLE TRL",HOUSTON,TX,77356,"FAIRFIELD VILLAGE",,"JAYMIE ARCHER","16800 W CARAMEL APPLE TRL",HOUSTON,TX,77356,,Owner,,,,,OWNER,,,,,OWNER,,,,,,,,,
TX,HARRIS,2005280079,"Residential Swimming Pools & Spas",6/16/2020,,79356,,"15130 TURQUOISE MIST DR",HOUSTON,TX,77356,"FAIRFIELD VILLAGE",,"BRIDGET ANGELICA","15130 TURQUOISE MIST DR",HOUSTON,TX,77356,,Owner,,,,,OWNER,,,,,OWNER,,,,,,,,,
TX,HARRIS,2005290126,"Residential Swimming Pools & Spas",6/16/2020,,35000,,"20007 QUEENS OAK CT",HOUSTON,TX,77356,"GLEANNLOCH FARMS",,"DANA ENCIU","20007 QUEENS OAK CT",HOUSTON,TX,77356,,Owner,,,,,OWNER,,,,,OWNER,,,,,,,,,
TX,HARRIS,RB-001177-2020,"Residential Swimming Pools & Spas",6/23/2020,,68383,533,"1801 S PRAIRIE LN","DEER PARK",TX,77536,,,CONTRACTOR,,,,,,,,,,,"BACKYARD AMENITIES",,,,,"BACKYARD AMENITIES","11163 OLD NEEDLEPOINT RD STE 100",BAYTOWN,TX,77523-9784,"(281) 837-8234",http://www.backyardamenities.com,,,info@backyardamenities.com
TX,HARRIS,RB-001123-2020,"Residential Swimming Pools & Spas",6/30/2020,,40000,465,"2314 ERIN GLEN CT","DEER PARK",TX,77536,,,"ISAAC & KEELI MONTEMAYOR","2314 ERIN GLEN CT","DEER PARK",TX,77536,,Owner,,,,,"PREFERRED POOLS",,,,,"PREFERRED POOLS","1130 WINFIELD LN",KEMAH,TX,77565-3182,"(281) 334-1150",http://www.preferredpoolsofhouston.com/,,,
TX,HARRIS,2005300008,"Residential Swimming Pools & Spas",6/16/2020,,32500,,"6711 CHICOMA ST",HOUSTON,TX,77356,"VISTAS OF KLEIN LAKE",,"GREG AND CONNIE GENSER","6711 CHICOMA ST",HOUSTON,TX,77356,,Owner,,,,,OWNER,,,,,OWNER,,,,,,,,,
TX,BRAZOS,20-1553,"Residential Swimming Pools & Spas",6/5/2020,,67450,,"2020 VIVA RD",BRYAN,TX,77807,EDGEWATER,,CONTRACTOR,,,,,,,,,,,"PREMIER POOLS & SPAS",,,,,"PREMIER POOLS & SPAS","2810 BUSINESS CENTER DR STE 126",PEARLAND,TX,77584-9783,"(713) 436-4944",,"(713) 436-0081","BILL UNGER",bunger@ppas.com
TX,BRAZOS,20-1610,"Residential Swimming Pools & Spas",6/12/2020,,65000,,"3305 COVINGTON CT",BRYAN,TX,77808,,,"RICHARD & LACEY HOGAN","3305 COVINGTON CT",BRYAN,TX,77808,,Owner,,,,,"COOL WAVE POOLS",,,,,"COOL WAVE POOLS","2930 US-290",BRENHAM,TX,77833,"(979) 347-0216",,,,
TX,BRAZOS,20-1249,"Residential Swimming Pools & Spas",6/16/2020,,25000,,"3020 EMBERS LP",BRYAN,TX,77808,,,"KELLY & TYLER VONDREHLE","3020 EMBERS LP",BRYAN,TX,77808,,Owner,,,,,"PARADISE OASIS POOLS",,,,,"PARADISE OASIS POOLS","404 UNIVERSITY DR E STE B","COLLEGE STATION",TX,77840-1743,"(979) 704-6102",http://www.paradiseoasispools.com/,,,
TX,BRAZOS,20-1878,"Residential Swimming Pools & Spas",6/29/2020,,38000,,"2303 KUYKENDALL CIR",BRYAN,TX,77808,"AUSTINS COLONY",,"TINA MUTH","2303 KUYKENDALL CIR",BRYAN,TX,77808,,Owner,,,,,"NG CONSTRUCTION",,,,,"NG CONSTRUCTION","1602 42ND ST",LUBBOCK,TX,79412-1817,"(806) 730-3321",,,,
TX,BRAZOS,20-`1680,"Residential Swimming Pools & Spas",6/29/2020,,38000,,"2977 ARCHER DR",BRYAN,TX,77808,,,CONTRACTOR,,,,,,,,,,,"NG CONSTRUCTION",,,,,"NG CONSTRUCTION","1602 42ND ST",LUBBOCK,TX,79412-1817,"(806) 730-3321",,,,
TX,MONTGOMERY,PO-20-004605,"Residential Swimming Pools & Spas",6/17/2020,,,1800,"3215 MACKENZIE CREEK DR   ",CONROE,TX,77303,,,CONTRACTOR,,,,,,,,,,,"ADVANCED CONSTRUCTION AND ROOFING",,,,,"ADVANCED CONSTRUCTION AND ROOFING","2114 MCCALEB RD SUITE B-100",MONTGOMERY,TX,77316,"(936) 521-2446",,,,
TX,MONTGOMERY,PO-20-005845,"Residential Swimming Pools & Spas",6/11/2020,,,2752,"2012 BRODIE LN",CONROE,TX,77303,,,"MICHAEL & MARGUERITE SELLEN","2012 BRODIE LN",CONROE,TX,77303,,Owner,,,,,"SEAN BRENNAN",,,,,"SEAN BRENNAN","442 CAPE TOWN DR",CONROE,TX,77356,"(540) 894-7366",,,,
TX,MONTGOMERY,PO-20-006031,"Residential Swimming Pools & Spas",6/17/2020,,,2905,"11025 SHADOW VIEW DR",CONROE,TX,77303,,,"DAVID SPAULDING","11025 SHADOW VIEW DR",CONROE,TX,77303,,Owner,,,,,"WISE FOX POOL MAINTENANCE",,,,,"WISE FOX POOL MAINTENANCE","143 FAIRWIND TRAIL DR",CONROE,TX,77385,"(936) 321-0008",,,,
TX,MONTGOMERY,PO-20-006041,"Residential Swimming Pools & Spas",6/2/2020,,,1853,"132 APRIL WATERS DR N",CONROE,TX,77303,,,CONTRACTOR,,,,,,,,,,,"BACKYARD OASIS",,,,,"BACKYARD OASIS","16340 FM 2920",HOUSTON,TX,77377,"(281) 357-8161",,,,
TX,MONTGOMERY,PO-20-006285,"Residential Swimming Pools & Spas",6/3/2020,,,2808,"3515 FALCON WAY",CONROE,TX,77303,,,"KENNETH HAMILTON","3515 FALCON WAY",CONROE,TX,77303,,Owner,,,,,"TEXAS SPA & POOL SERVICES",,,,,"TEXAS SPA & POOL SERVICES","7514 NICHOLFOREST LN ",SPRING,TX,77389,"(281) 739-0866",,,"KELSEA SMALLWOOD",
TX,MONTGOMERY,PO-20-006440,"Residential Swimming Pools & Spas",6/11/2020,,,3447,"1537 ANCIENT OAK LN",CONROE,TX,77303,,,CONTRACTOR,,,,,,,,,,,"LENNAR HOMES",,,,,"LENNAR HOMES","550 GREENS PKWY",HOUSTON,TX,77067-4537,"(281) 875-1000",http://www.lennar.com/,,,
TX,MONTGOMERY,PO-20-006446,"Residential Swimming Pools & Spas",6/9/2020,,,2680,"4844 BAYOU ST",CONROE,TX,77303,,,"JOEY & SHELLEY CHAMPION","4844 BAYOU ST",CONROE,TX,77303,,Owner,,,,,"TOWN AND COUNTRY POOLS",,,,,"TOWN AND COUNTRY POOLS","7010 FM 1488 RD",MAGNOLIA,TX,77354-4774,"(832) 549-6405",http://www.townandcountrypoolsoftexas.com/,,,
TX,MONTGOMERY,PO-20-006469,"Residential Swimming Pools & Spas",6/17/2020,,,5322,"102 APRIL BREEZE ST",CONROE,TX,77304,,,"JAMES & NATALIE MCDERMOTT","102 APRIL BREEZE ST",CONROE,TX,77304,,Owner,,,,,"HENDRIX POOLS",,,,,"HENDRIX POOLS","1703 SUMMERGATE DR",CONROE,TX,77304,"(281) 610-5746",,,"JEREMY HENDRIX",
TX,MONTGOMERY,PO-20-006862,"Residential Swimming Pools & Spas",6/19/2020,,,3613,"335 TWILIGHT TOAST DR",CONROE,TX,77303,,,CONTRACTOR,,,,,,,,,,,"TEXAS POOL CHAMPIONS",,,,,"TEXAS POOL CHAMPIONS","29318 DEER CRK",MAGNOLIA,TX,77355-6520,"(346) 222-1111",https://texaspoolchampions.com,,,info@texaspoolchampions.com
TX,MONTGOMERY,PO-20-007373,"Residential Swimming Pools & Spas",6/26/2020,,,2593,"12109 PEARL BAY LN",CONROE,TX,77304,,,"RICHARD & TRACY SATHE","12109 PEARL BAY LN",CONROE,TX,77304,,Owner,,,,,"POOLS BY TOM",,,,,"POOLS BY TOM","8302 HIBISCUS CT",CONROE,TX,77304-1967,"(936) 202-9139",,,,
TX,MONTGOMERY,PO-20-007441,"Residential Swimming Pools & Spas",6/30/2020,,,3032,"210 MARBLE GARDEN LN",CONROE,TX,77304,,,CONTRACTOR,,,,,,,,,,,"EPIK POOLS",,,,,"EPIK POOLS","31315 FM 2978 RD",MAGNOLIA,TX,77354-2305,"(281) 259-6171",http://www.epikpools.com/,,,epikpools@yahoo.com
TX,MONTGOMERY,PO-20-007470,"Residential Swimming Pools & Spas",6/29/2020,,,7424,"300 TOWN PARK DR",CONROE,TX,77303,,,CONTRACTOR,,,,,,,,,,,"MILLENNIUM POOLS",,,,,"MILLENNIUM POOLS","2009 RANCH ROAD 620 N STE 710",LAKEWAY,TX,78734-2678,"(512) 266-9699",,,,
TX,GALVESTON,2020-0752,"Residential Swimming Pools & Spas",5/7/2020,,140000,,"802 BONNIE DOON",FRIENDSWOOD,TX,77546,,,"EDWARD & JANICE RICH","802 BONNIE DOON",FRIENDSWOOD,TX,77546,,Owner,,,,,"DPS CONTRACTING",,,,,"DPS CONTRACTING","9762 TANNER RD",HOUSTON,TX,77041-7621,"(713) 466-0506",,,,
TX,GALVESTON,2020-1173,"Residential Swimming Pools & Spas",5/5/2020,,71400,,"908 GADSTON PARK",FRIENDSWOOD,TX,77546,,,"LORRAINE REYES","908 GADSTON PARK",FRIENDSWOOD,TX,77546,,Owner,,,,,"MCKINNEY CUSTOM POOLS",,,,,"MCKINNEY CUSTOM POOLS","15718 PARK CENTER WAY",HOUSTON,TX,77059-4050,"(281) 489-9800",http://www.mckinneycustompools.net,,,
TX,GALVESTON,2020-1201,"Residential Swimming Pools & Spas",5/14/2020,,38000,,"507 S SHADOWBEND",FRIENDSWOOD,TX,77546,,,"EDWARD & MISTY WILLISTON","507 S SHADOWBEND",FRIENDSWOOD,TX,77546,,Owner,,,,,"GREATER HOUSTON OUTDOOR LIVING",,,,,"GREATER HOUSTON OUTDOOR LIVING","3606 PINE VALLEY DR # 3606",PEARLAND,TX,77581-8825,"(832) 704-9225",http://www.ghoutdoorliving.com,,,thekang001@sbcglobal.net
TX,GALVESTON,2020-1254,"Residential Swimming Pools & Spas",5/6/2020,,41000,,"1010 APPLEWOOD DR",FRIENDSWOOD,TX,77546,,,"WALTER HENDERSHOT","1010 APPLEWOOD DR",FRIENDSWOOD,TX,77546,,Owner,,,,,"GREATER HOUSTON OUTDOOR LIVING",,,,,"GREATER HOUSTON OUTDOOR LIVING","3606 PINE VALLEY DR # 3606",PEARLAND,TX,77581-8825,"(832) 704-9225",http://www.ghoutdoorliving.com,,,thekang001@sbcglobal.net
TX,GALVESTON,2020-1255,"Residential Swimming Pools & Spas",5/6/2020,,59000,,"1808 GRACE CROSSING",FRIENDSWOOD,TX,77546,,,"ALBERT & SOPHIA WOSTAL","1808 GRACE CROSSING",FRIENDSWOOD,TX,77546,,Owner,,,,,"GREATER HOUSTON OUTDOOR LIVING",,,,,"GREATER HOUSTON OUTDOOR LIVING","3606 PINE VALLEY DR # 3606",PEARLAND,TX,77581-8825,"(832) 704-9225",http://www.ghoutdoorliving.com,,,thekang001@sbcglobal.net
TX,GALVESTON,2020-1257,"Residential Swimming Pools & Spas",5/6/2020,,65000,,"511 PINE BLUFF DR",FRIENDSWOOD,TX,77546,,,"JOSE CANTU","511 PINE BLUFF DR",FRIENDSWOOD,TX,77546,,Owner,,,,,"TIPTON SPIRES DESIGN BUILD",,,,,"TIPTON SPIRES DESIGN BUILD","1100 E NASA PKWY STE 108",HOUSTON,TX,77058,"(281) 335-8316",,,,
TX,GALVESTON,2020-1258,"Residential Swimming Pools & Spas",5/6/2020,,134000,,"1836 ANNA WAY",FRIENDSWOOD,TX,77546,,,"MICHAEL & LYNSIE DENHARTOG","1836 ANNA WAY",FRIENDSWOOD,TX,77546,,Owner,,,,,"TIPTON SPIRES DESIGN BUILD",,,,,"TIPTON SPIRES DESIGN BUILD","1100 E NASA PKWY STE 108",HOUSTON,TX,77058,"(281) 335-8316",,,,
TX,GALVESTON,2020-1354,"Residential Swimming Pools & Spas",5/12/2020,,42900,,"5015 ABERCREEK AVE",FRIENDSWOOD,TX,77546,,,CONTRACTOR,,,,,,,,,,,"ANTHONY & SYLVAN POOLS",,,,,"ANTHONY & SYLVAN POOLS","1424 W SAM HOUSTON PKWY N",HOUSTON,TX,77043-3193,"(713) 467-6458",http://www.anthonysylvan.com/,,,
TX,GALVESTON,2020-1357,"Residential Swimming Pools & Spas",5/13/2020,,51000,,"1709 AVERY LN",FRIENDSWOOD,TX,77546,,,"RICHARD & EMILY LAY","1709 AVERY LN",FRIENDSWOOD,TX,77546,,Owner,,,,,"GREATER HOUSTON OUTDOOR LIVING",,,,,"GREATER HOUSTON OUTDOOR LIVING","3606 PINE VALLEY DR # 3606",PEARLAND,TX,77581-8825,"(832) 704-9225",http://www.ghoutdoorliving.com,,,thekang001@sbcglobal.net
TX,GALVESTON,2020-1374,"Residential Swimming Pools & Spas",5/13/2020,,53000,,"2301 LAKEWAY DR",FRIENDSWOOD,TX,77546,,,"BRYAN & MELISSA BASS","2301 LAKEWAY DR",FRIENDSWOOD,TX,77546,,Owner,,,,,"GREATER HOUSTON OUTDOOR LIVING",,,,,"GREATER HOUSTON OUTDOOR LIVING","3606 PINE VALLEY DR # 3606",PEARLAND,TX,77581-8825,"(832) 704-9225",http://www.ghoutdoorliving.com,,,thekang001@sbcglobal.net
TX,GALVESTON,2020-1420,"Residential Swimming Pools & Spas",5/19/2020,,57000,,"1714 AVERY LN",FRIENDSWOOD,TX,77546,,,CONTRACTOR,,,,,,,,,,,"AQUASPORT POOLS",,,,,"AQUASPORT POOLS","105 W HERITAGE DR",FRIENDSWOOD,TX,77546-3916,"(281) 480-7665",,,,
TX,GALVESTON,2020-1444,"Residential Swimming Pools & Spas",5/26/2020,,56000,,"1010 KNOLL BRIDGE LN",FRIENDSWOOD,TX,77546,,,"ALAN & AMY CHISM","1010 KNOLL BRIDGE LN",FRIENDSWOOD,TX,77546,,Owner,,,,,"MCKINNEY CUSTOM POOLS",,,,,"MCKINNEY CUSTOM POOLS","15718 PARK CENTER WAY",HOUSTON,TX,77059-4050,"(281) 489-9800",http://www.mckinneycustompools.net,,,
TX,GALVESTON,2020-1475,"Residential Swimming Pools & Spas",5/28/2020,,115260,,"932 GADSTON PARK",FRIENDSWOOD,TX,77546,,,CONTRACTOR,,,,,,,,,,,"SUPREME POOLS & SPAS",,,,,"SUPREME POOLS & SPAS","22626 KUYKENDAHL RD",SPRING,TX,77389-5121,"(281) 350-4410",http://www.supremepoolsandspas.net/,"(281) 370-4474",,info@supremepoolsandspas.net
TX,GALVESTON,2020-1496,"Residential Swimming Pools & Spas",5/29/2020,,47835,,"1918 SANDY LAKE DR",FRIENDSWOOD,TX,77546,,,"BADRINATH & SHANTALA ROYSAM","1918 SANDY LAKE DR",FRIENDSWOOD,TX,77546,,Owner,,,,,"PEARLAND POOLS",,,,,"PEARLAND POOLS","5510 MAGNOLIA",HOUSTON,TX,77584,"(281) 412-6445",http://www.pearlandpools.com/,"(281) 412-2791",,info@pearlandpools.com
TX,GALVESTON,2020-1500,"Residential Swimming Pools & Spas",5/29/2020,,30000,,"603 WILDERNESS PINES CT",FRIENDSWOOD,TX,77546,,,"DAVID & NATALYA LOYD","603 WILDERNESS PINES CT",FRIENDSWOOD,TX,77546,,Owner,,,,,"BACKYARD AMENITIES",,,,,"BACKYARD AMENITIES","11163 OLD NEEDLEPOINT RD STE 100",BAYTOWN,TX,77523-9784,"(281) 837-8234",http://www.backyardamenities.com,,,info@backyardamenities.com
TX,GALVESTON,2020-1504,"Residential Swimming Pools & Spas",5/29/2020,,70000,,"2412 MORNING RIDGE LN",FRIENDSWOOD,TX,77546,,,CONTRACTOR,,,,,,,,,,,"PREMIER POOLS & SPAS",,,,,"PREMIER POOLS & SPAS","1333 MCDERMOTT STE 200",ALLEN,TX,75013,"(214) 620-1044",,,,
TX,GALVESTON,2020-1516,"Residential Swimming Pools & Spas",5/27/2020,,50000,,"3006 PARK BEND DR",FRIENDSWOOD,TX,77546,,,CONTRACTOR,,,,,,,,,,,"J3 POOLS",,,,,"J3 POOLS","PO BOX 1456",PEARLAND,TX,77588-1456,"(281) 489-0126",https://www.j3pools.com/,,,J3Pools@gmail.com
TX,GALVESTON,2020-1517,"Residential Swimming Pools & Spas",5/29/2020,,70000,,"3201 SALISBURY CT",FRIENDSWOOD,TX,77546,,,CONTRACTOR,,,,,,,,,,,"AQUASPORT POOLS",,,,,"AQUASPORT POOLS","105 W HERITAGE DR",FRIENDSWOOD,TX,77546-3916,"(281) 480-7665",,,,
TX,GALVESTON,2020-00020,"Residential Swimming Pools & Spas",6/4/2020,,52000,,"2018 AVE N",GALVESTON,TX,77450,,,"LOUIS & MARIE SCHUBERT","2018 AVE N",GALVESTON,TX,77450,,Owner,,,,,"BACKYARD INNOVATIONS",,,,,"BACKYARD INNOVATIONS","1795 N FRY RD STE 218",KATY,TX,77449-3347,"(281) 352-4054",http://www.backyardinnovationstx.com,,"CHRISTY MACRI",christy@backyardinnovationstx.com
TX,GALVESTON,2020-00023,"Residential Swimming Pools & Spas",6/12/2020,,41000,,"22210 LAMPASAS DR",GALVESTON,TX,77450,,,"LARRY CHANCEY","22210 LAMPASAS DR",GALVESTON,TX,77450,,Owner,,,,,"PACIFIC POOLS OF HOUSTON",,,,,"PACIFIC POOLS OF HOUSTON","12230 DOVER ST",HOUSTON,TX,77031-2826,"(281) 530-5100",http://www.pacificpoolsofhouston.com/,"(281) 530-5101","KEVIN HARPER",kevin@pacificpoolsofhouston.com
TX,GALVESTON,2020-00028,"Residential Swimming Pools & Spas",6/15/2020,,35350,,"4203 HARDIN",GALVESTON,TX,77450,,,"WILLIAM SLATER","4203 HARDIN",GALVESTON,TX,77450,,Owner,,,,,"GULF COAST POOLS ",,,,,"GULF COAST POOLS ","3532 3RD AVE S","TEXAS CITY",TX,77590-8014,"(409) 948-2083",,,,
TX,GALVESTON,2020-00006,"Residential Swimming Pools & Spas",6/16/2020,,40000,,"4114 SEA GRASS LN",GALVESTON,TX,77450,,,"DAVID PINCUS","4114 SEA GRASS LN",GALVESTON,TX,77450,,Owner,,,,,"SWEETWATER CONSTRUCTION",,,,,"SWEETWATER CONSTRUCTION","9448 JAMAICA BCH",GALVESTON,TX,77554-8601,"(409) 370-1088",http://www.sweetwaterconstructiontexas.com/,,,mcagnola@sweetwaterconstructiontexas.com
TX,GALVESTON,2020-00022,"Residential Swimming Pools & Spas",6/17/2020,,20000,,"3902 BREWSTER KEY DR",GALVESTON,TX,77450,,,"ERIC & MICHELLE EDWARDS","3902 BREWSTER KEY DR",GALVESTON,TX,77450,,Owner,,,,,"SANDHILL POOLS & DESIGN",,,,,"SANDHILL POOLS & DESIGN","18 LAKEVIEW DR",GALVESTON,TX,77551-1564,"(409) 370-2673",,,,
TX,GALVESTON,2020-00027,"Residential Swimming Pools & Spas",6/18/2020,,90000,,"3518 JOLLY ROGER CIRCLE",GALVESTON,TX,77450,,,"FRANK & ROBERTA LUCCO","3518 JOLLY ROGER CIRCLE",GALVESTON,TX,77450,,Owner,,,,,"CODY POOLS",,,,,"CODY POOLS","26615 I45 NORTH",HOUSTON,TX,77380,"(713) 422-3266",http://www.codypools.com,,,
TX,MONTGOMERY,20200326,"Residential Swimming Pools & Spas",6/18/2020,,33500,,"352 COUNTRY CROSSING CIR",MAGNOLIA,TX,75154,,,"CHARLES & GUSTAVO ELLISTON","352 COUNTRY CROSSING CIR",MAGNOLIA,TX,75154,,Owner,,,,,"PREMIER POOLS & SPAS",,,,,"PREMIER POOLS & SPAS","2810 BUSINESS CENTER DR STE 126",PEARLAND,TX,77584-9783,"(713) 436-4944",,"(713) 436-0081","BILL UNGER",bunger@ppas.com
TX,HARRIS,BP-20-00060-01,"Residential Swimming Pools & Spas",6/16/2020,,70000,,"3215 TANGLEY ST","WEST UNIVERSITY PLACE",TX,77005,,,"MATTHEW & KATHERINE DRURY","3215 TANGLEY ST","WEST UNIVERSITY PLACE",TX,77005,,Owner,,,,,"LUSH OUTDOOR LIVING",,,,,"LUSH OUTDOOR LIVING","2200 SOUTHWEST FWY STE 602",HOUSTON,TX,77098-4713,"(713) 444-2339",http://lushoutdoors.com/,,"MASON BOSWELL",info@lushoutdoors.com
TX,HARRIS,BP-20-00513-01,"Residential Swimming Pools & Spas",6/10/2020,,80000,,"3727 ALBANS RD",HOUSTON,TX,77005,,,"BRUCE & NICHOLE CARLIN","3727 ALBANS RD",HOUSTON,TX,77005,,Owner,,,,,"SUNSET POOLS",,,,,"SUNSET POOLS","3510 GREENBUSCH RD",KATY,TX,77494-6336,"(281) 693-4896",http://sunsetpoolsinc.com,,"ADAM TRAUGOTT",
TX,HARRIS,BP-20-00574-01,"Residential Swimming Pools & Spas",6/16/2020,,80000,,"2705 WERLEIN ST",HOUSTON,TX,77005,,,"ROBERT & GLEEANN SALAZAR","2705 WERLEIN ST",HOUSTON,TX,77005,,Owner,,,,,"LUSH OUTDOOR LIVING",,,,,"LUSH OUTDOOR LIVING","2200 SOUTHWEST FWY STE 602",HOUSTON,TX,77098-4713,"(713) 444-2339",http://lushoutdoors.com/,,"MASON BOSWELL",info@lushoutdoors.com
TX,HARRIS,200651,"Residential Swimming Pools & Spas",6/26/2020,,40000,,"20407 PRINCE EDWARD CT",HUMBLE,TX,77338,,,"ARNOLD & JANIE RUIZ","20407 PRINCE EDWARD CT",HUMBLE,TX,77338,,Owner,,,,,"RIVIERA POOLS & SPAS",,,,,"RIVIERA POOLS & SPAS","21310 REDCREST MANOR DR",RICHMOND,TX,77406-3792,"(832) 392-6567",,,,
TX,BELL,"20 00003097","Residential Swimming Pools & Spas",6/10/2020,,78000,,"3803 DODGE CITY DR",KILLEEN,TX,76549,,,"RODDY & PATRICE ALFORD","3803 DODGE CITY DR",KILLEEN,TX,76549,,Owner,,,,,"ANTHONY & SYLVAN POOLS",,,,,"ANTHONY & SYLVAN POOLS","1424 W SAM HOUSTON PKWY N",HOUSTON,TX,77043-3193,"(713) 467-6458",http://www.anthonysylvan.com/,,,
TX,BELL,"20 00003269","Residential Swimming Pools & Spas",6/10/2020,,39980,,"6701 INDIAN HAWTHORNE DR",KILLEEN,TX,76542,,,"MICHEAL & ANGELA DONOVAN","6701 INDIAN HAWTHORNE DR",KILLEEN,TX,76542,,Owner,,,,,"AQUAMARINE POOLS",,,,,"AQUAMARINE POOLS","25730 INTERSTATE 45",HOUSTON,TX,77386,"(281) 734-2543",,,,
TX,BELL,"20 00002455","Residential Swimming Pools & Spas",6/16/2020,,38400,,"1029 TUMBLEWEED DR",KILLEEN,TX,76542,,,"JESUS & THERESA YBARRA","1029 TUMBLEWEED DR",KILLEEN,TX,76542,,Owner,,,,,"DREAM HOME BUILDERS",,,,,"DREAM HOME BUILDERS","2200 E RANCIER AVE",KILLEEN,TX,76543,"(254) 630-6944",https://www.dreamhomebuilderstx.com/,,,
TX,BELL,"20 00003489","Residential Swimming Pools & Spas",6/24/2020,,56000,,"8307 DORSET DR",KILLEEN,TX,76542,,,CONTRACTOR,,,,,,,,,,,"AQUA HAVEN POOLS",,,,,"AQUA HAVEN POOLS","1025 BALD EAGLE","NOLANVILLE ",TX,76559,"(254) 702-3497",,,,
TX,GALVESTON,2019-3518,"Restaurant and Bar",5/8/2020,,45000,,"1302 S FRIENDSWOOD DR",FRIENDSWOOD,TX,77546,,,CONTRACTOR,,,,,,,,,,,"RUSTIKA CAFE AND BAKERY",,,,,"RUSTIKA CAFE AND BAKERY","610 E. MAIN ST.","LEAGUE CITY",TX,77573,"(281) 554-0044",https://www.rustikacafe.com/,,,RustikaLC@gmail.com
TX,GALVESTON,2020-00108,"Restaurant and Bar",6/19/2020,,159000,,"6600 SEAWALL BLVD",GALVESTON,TX,77450,,,CONTRACTOR,,,,,,,,,,,"BICHON ROOFING AND GENERAL CONTRACTING",,,,,"BICHON ROOFING AND GENERAL CONTRACTING","5013 ALLEN CAY DR","TEXAS CITY",TX,77590,"(214) 425-0581",,,,
TX,BELL,"20 00001259","Restaurant and Bar",6/29/2020,,775000,1949,"1029 S FORT HOOD ST",KILLEEN,TX,76541,,,CONTRACTOR,,,,,,,,,,,"BLACK CANYON CONSTRUCTION",,,,,"BLACK CANYON CONSTRUCTION","139 OAK ACRES",HOUSTON,TX,78006,"(210) 748-4001",http://www.blackcanyonconstruction.com/,,,
TX,BELL,"20 00001262","Restaurant and Bar",6/30/2020,,575000,1949,"1025 S FORT HOOD ST",KILLEEN,TX,76541,,,CONTRACTOR,,,,,,,,,,,"BLACK CANYON CONSTRUCTION",,,,,"BLACK CANYON CONSTRUCTION","139 OAK ACRES",HOUSTON,TX,78006,"(210) 748-4001",http://www.blackcanyonconstruction.com/,,,
TX,HARRIS,1912180145,Retail,6/16/2020,,800000,4755,"14702 TELGE RD",HOUSTON,TX,77356,,,CONTRACTOR,,,,,,,,,,,"LASCO DEVELOPMENT",,,,,"LASCO DEVELOPMENT","3301 EDLOE ST STE 100",HOUSTON,TX,77027-6530,"(713) 961-0280",,,,
TX,BRAZOS,20-1419,Retail,6/30/2020,Renovation,45000,,"3100 WILDFLOWER DR #300",BRYAN,TX,77802,,,CONTRACTOR,,,,,,,,,,,"CAPITOL CONSTRUCTION SERVICES",,,,,"CAPITOL CONSTRUCTION SERVICES","10412 ALLISONVILLE RD SUITE 100",FISHERS,IN,46038-2052,"(317) 574-5488",http://www.capitolconstruct.com/,"(317) 574-5482","BRAD MILLER",bmiller@capitolconstruct.com
TX,MONTGOMERY,BC-18-007658,Retail,6/18/2020,,1386210,,"500 INTERSTATE 45 S",CONROE,TX,77303,,,CONTRACTOR,,,,,,,,,,,"ED CLARK",,,,,"ED CLARK","P.O. BOX 1179",CENTERVILLE,TX,75833,"(936) 273-2962",,,,
TX,MONTGOMERY,BC-20-003139,Retail,6/24/2020,,117219,1983,"1416 N LOOP 336 W STE C",CONROE,TX,77304,,,"TIMOTHY NGUYEN","1416 N LOOP 336 W STE C",CONROE,TX,77304,,Owner,,,,,OWNER,,,,,OWNER,,,,,,,,,
TX,MONTGOMERY,BC-20-004034,Retail,6/25/2020,,409578,3177,"215 S LOOP 336 W BLDG A",CONROE,TX,77304,,,CONTRACTOR,,,,,,,,,,,"FIDELIS REALTY PARTNERS",,,,,"FIDELIS REALTY PARTNERS","4500 BISSONNET ST STE 300",BELLAIRE,TX,77401-3123,"(713) 693-1400",http://fidelisrealtypartners.com/,,,
TX,MONTGOMERY,BC-20-005797,Retail,6/1/2020,,39928,2800,"2800 N FRAZIER ST",CONROE,TX,77304,,,CONTRACTOR,,,,,,,,,,,"AIR POLLUTION CONTROL",,,,,"AIR POLLUTION CONTROL","1851 GULF FREEWAY S STE 9","LEAGUE CITY",TX,77573,"(281) 830-5285",,,"KARL MIHALSKI",
TX,MONTGOMERY,BC-20-005948,Retail,6/18/2020,,70934,,"3224 TAVO RIDGE CT",CONROE,TX,77304,,,CONTRACTOR,,,,,,,,,,,"LEGEND HOME CORPORATION",,,,,"LEGEND HOME CORPORATION","10410 WINDEMERE LAKES BLVD",HOUSTON,TX,77065,"(281) 671-9000",,,,
TX,MONTGOMERY,BC-20-006374,Retail,6/22/2020,,,1500,"12621 HIGHWAY 105 W STE 102",CONROE,TX,77304,,,"MANDY SPOERIE","304 COUNTRY RD 3012",DAYTON,TX,77535,"(281) 904-7614",Applicant,,,,,OWNER,,,,,OWNER,,,,,,,,,
TX,MONTGOMERY,BC-20-007208,Retail,6/25/2020,,30000,,"1407 BEACH AIRPORT RD",CONROE,TX,77301,,,"JOSEPH TAYLOR","4225 WORLD HOUSTON PKWY STE 100",HOUSTON,TX,77032,"(214) 952-1748",Applicant,,,,,OWNER,,,,,OWNER,,,,,,,,,
TX,GALVESTON,2020-0854,Retail,5/27/2020,,100000,,"1765 S FRIENDSWOOD DR",FRIENDSWOOD,TX,77546,,,CONTRACTOR,,,,,,,,,,,"PRODEL CORPORATION",,,,,"PRODEL CORPORATION","12107 HOLDERRIETH RD",TOMBALL,TX,77375-7319,"(281) 351-0799",,,,
TX,HARRIS,2000615,Retail,6/11/2020,,177705,11847,"2000 BAYPORT",SEABROOK,TX,77586,,,CONTRACTOR,,,,,,,,,,,"DC CONTRACTING",,,,,"DC CONTRACTING","5035 FM 2920 RD STE 327",SPRING,TX,77388-3114,"(281) 881-6411",http://dccontractinginc.com,,"DANIEL T DEVER",info@dcContractingInc.com
TX,HARRIS,200555,Retail,6/2/2020,Renovation,150000,,"20210 US 59",HUMBLE,TX,77338,,,"STEVE GAGEL","20210 US 59",HUMBLE,TX,77338,"(859) 455-6945",Applicant,,,,,OWNER,,,,,OWNER,,,,,,,,,
TX,BELL,"20 00001266",Retail,6/24/2020,Renovation,48500,,"1101 W STAN SCHLUETER LP",KILLEEN,TX,76549,,,CONTRACTOR,,,,,,,,,,,"ALLBRITE CONSTRUCTION",,,,,"ALLBRITE CONSTRUCTION","10811 IOTA DR","SAN ANTONIO",TX,78217-2605,"(210) 490-6495",https://www.allbriteconstruction.com/,"(210) 404-2224","PATRICK YATES",pat@allbriteconstruction.com
TX,HARRIS,2006110019,"Single Family Homes",6/16/2020,,103050,2291,"4703 LOMBARDY FIRE TRL",HOUSTON,TX,77356,"VENTANA LAKES",,CONTRACTOR,,,,,,,,,,,"DR HORTON",,,,,"DR HORTON","14100 SOUTHWEST",HOUSTON,TX,77478,"(281) 201-5559",,,,
TX,HARRIS,2006100211,"Single Family Homes",6/16/2020,,112515,2501,"4731 ALBA ASH LN",HOUSTON,TX,77356,"VENTANA LAKES",,CONTRACTOR,,,,,,,,,,,"DR HORTON",,,,,"DR HORTON","14100 SOUTHWEST",HOUSTON,TX,77478,"(281) 201-5559",,,,
TX,HARRIS,2006100206,"Single Family Homes",6/16/2020,,95130,2114,"4719 ALBA ASH LN",HOUSTON,TX,77356,"VENTANA LAKES",,CONTRACTOR,,,,,,,,,,,"DR HORTON",,,,,"DR HORTON","14100 SOUTHWEST",HOUSTON,TX,77478,"(281) 201-5559",,,,
TX,HARRIS,2006100214,"Single Family Homes",6/16/2020,,122500,2388,"4726 ALBA ASH LN",HOUSTON,TX,77356,"VENTANA LAKES",,CONTRACTOR,,,,,,,,,,,"DR HORTON",,,,,"DR HORTON","14100 SOUTHWEST",HOUSTON,TX,77478,"(281) 201-5559",,,,
TX,HARRIS,2006100213,"Single Family Homes",6/16/2020,,125640,2141,"4735 ALBA ASH LN",HOUSTON,TX,77356,"VENTANA LAKES",,CONTRACTOR,,,,,,,,,,,"DR HORTON",,,,,"DR HORTON","14100 SOUTHWEST",HOUSTON,TX,77478,"(281) 201-5559",,,,
TX,HARRIS,2006050133,"Single Family Homes",6/16/2020,,95130,2114,"4711 LOMBARDY FIRE TRL",HOUSTON,TX,77356,"VENTANA LAKES",,CONTRACTOR,,,,,,,,,,,"DR HORTON",,,,,"DR HORTON","14100 SOUTHWEST",HOUSTON,TX,77478,"(281) 201-5559",,,,
TX,HARRIS,2006050130,"Single Family Homes",6/16/2020,,103050,2291,"4715 LOMBARDY FIRE TRL",HOUSTON,TX,77356,"VENTANA LAKES",,CONTRACTOR,,,,,,,,,,,"DR HORTON",,,,,"DR HORTON","14100 SOUTHWEST",HOUSTON,TX,77478,"(281) 201-5559",,,,
TX,HARRIS,2006050125,"Single Family Homes",6/16/2020,,107550,2390,"4730 LOMBARDY FIRE TRL",HOUSTON,TX,77356,"VENTANA LAKES",,CONTRACTOR,,,,,,,,,,,"DR HORTON",,,,,"DR HORTON","14100 SOUTHWEST",HOUSTON,TX,77478,"(281) 201-5559",,,,
TX,HARRIS,2006050135,"Single Family Homes",6/16/2020,,107550,2390,"4707 LOMBARDY FIRE TRL",HOUSTON,TX,77356,"VENTANA LAKES",,CONTRACTOR,,,,,,,,,,,"DR HORTON",,,,,"DR HORTON","14100 SOUTHWEST",HOUSTON,TX,77478,"(281) 201-5559",,,,
TX,HARRIS,2006050121,"Single Family Homes",6/16/2020,,95130,2114,"4718 LOMBARDY FIRE TRL",HOUSTON,TX,77356,"VENTANA LAKES",,CONTRACTOR,,,,,,,,,,,"DR HORTON",,,,,"DR HORTON","14100 SOUTHWEST",HOUSTON,TX,77478,"(281) 201-5559",,,,
TX,HARRIS,2006050124,"Single Family Homes",6/16/2020,,122500,2723,"4726 LOMBARDY FIRE TRL",HOUSTON,TX,77356,"VENTANA LAKES",,CONTRACTOR,,,,,,,,,,,"DR HORTON",,,,,"DR HORTON","14100 SOUTHWEST",HOUSTON,TX,77478,"(281) 201-5559",,,,
TX,HARRIS,2006050116,"Single Family Homes",6/16/2020,,112515,2501,"4727 LOMBARDY FIRE TRL",HOUSTON,TX,77356,"VENTANA LAKES",,CONTRACTOR,,,,,,,,,,,"DR HORTON",,,,,"DR HORTON","14100 SOUTHWEST",HOUSTON,TX,77478,"(281) 201-5559",,,,
TX,HARRIS,2006050117,"Single Family Homes",6/16/2020,,91350,2699,"4723 LOMBARDY FIRE TRL",HOUSTON,TX,77356,"VENTANA LAKES",,CONTRACTOR,,,,,,,,,,,"DR HORTON",,,,,"DR HORTON","14100 SOUTHWEST",HOUSTON,TX,77478,"(281) 201-5559",,,,
TX,HARRIS,2006050115,"Single Family Homes",6/16/2020,,107550,2388,"4743 LOMBARDY FIRE TRL",HOUSTON,TX,77356,"VENTANA LAKES",,CONTRACTOR,,,,,,,,,,,"DR HORTON",,,,,"DR HORTON","14100 SOUTHWEST",HOUSTON,TX,77478,"(281) 201-5559",,,,
TX,HARRIS,2005210055,"Single Family Homes",6/16/2020,,100000,3400,"4914 HARVEY RD",HOUSTON,TX,77356,,,"ERIC JENNINGS","4914 HARVEY RD",HOUSTON,TX,77356,,Owner,,,,,OWNER,,,,,OWNER,,,,,,,,,
TX,HARRIS,2005270107,"Single Family Homes",6/16/2020,,99745,1616,"22606 HIGHLAND BLUFF LN",HOUSTON,TX,77356,,,CONTRACTOR,,,,,,,,,,,"ANGLIA HOMES",,,,,"ANGLIA HOMES","17510 RED OAK DR",HOUSTON,TX,77090,"(281) 943-5288",http://www.angliahomeslp.com/,,,
TX,HARRIS,2006080007,"Single Family Homes",6/16/2020,,99000,2238,"5819 BIG BLUESTEM LN",HOUSTON,TX,77356,"KATY CROSSING",,CONTRACTOR,,,,,,,,,,,"LENNAR HOMES",,,,,"LENNAR HOMES","550 GREENS PKWY",HOUSTON,TX,77067-4537,"(281) 875-1000",http://www.lennar.com/,,,
TX,HARRIS,2006050070,"Single Family Homes",6/16/2020,,115495,2541,"22610 HIGHLAND BLUFF LN",HOUSTON,TX,77356,"HIGHLAND GLEN",,CONTRACTOR,,,,,,,,,,,"ANGLIA HOMES",,,,,"ANGLIA HOMES","17510 RED OAK DR",HOUSTON,TX,77090,"(281) 943-5288",http://www.angliahomeslp.com/,,,
TX,HARRIS,2005270111,"Single Family Homes",6/16/2020,,102370,1857,"22614 HIGHLAND BLUFF LN",HOUSTON,TX,77356,,,CONTRACTOR,,,,,,,,,,,"ANGLIA HOMES",,,,,"ANGLIA HOMES","17510 RED OAK DR",HOUSTON,TX,77090,"(281) 943-5288",http://www.angliahomeslp.com/,,,
TX,HARRIS,2005080098,"Single Family Homes",6/16/2020,,195000,2597,"3926 SHERRI LN",HOUSTON,TX,77356,RAMSEY,,"EFRAIN RODRIGUEZ","3926 SHERRI LN",HOUSTON,TX,77356,,Owner,,,,,OWNER,,,,,OWNER,,,,,,,,,
TX,HARRIS,2003160062,"Single Family Homes",6/16/2020,,142000,3409,"24027 WILLOW ROSE DR",HOUSTON,TX,77356,"INWAY OAKS ESTATES",,CONTRACTOR,,,,,,,,,,,"INFINITY CLASSIC HOMES",,,,,"INFINITY CLASSIC HOMES","17240 HUFFMEISTER RD STE 106",CYPRESS,TX,77429-4694,"(281) 213-4063",http://www.infinityclassichomes.com/,"(281) 213-4067",,
TX,HARRIS,2001200059,"Single Family Homes",6/16/2020,,90365,2659,"18611 INSPIRATION WAY",HOUSTON,TX,77356,"BRIDGELAND PARKLAND VILLAGE",,CONTRACTOR,,,,,,,,,,,"DAVID WEEKLEY HOMES",,,,,"DAVID WEEKLEY HOMES","14444 NORTHWEST",HOUSTON,TX,77040,"(713) 570-5021",http://www.davidweekleyhomes.com/,,,
TX,HARRIS,2006050045,"Single Family Homes",6/16/2020,,182000,2574,"23235 PENSTEMON TRL",HOUSTON,TX,77356,ELYSON,,CONTRACTOR,,,,,,,,,,,"WESTIN HOMES",,,,,"WESTIN HOMES","1 SUGAR CREEK CENTER BLVD STE 600","SUGAR LAND",TX,77478-3787,"(281) 240-1551",http://www.westin-homes.com,,,
TX,HARRIS,2006050046,"Single Family Homes",6/16/2020,,251000,3807,"23135 MULBERRY THICKET TRL",HOUSTON,TX,77356,ELYSON,,CONTRACTOR,,,,,,,,,,,"WESTIN HOMES",,,,,"WESTIN HOMES","1 SUGAR CREEK CENTER BLVD STE 600","SUGAR LAND",TX,77478-3787,"(281) 240-1551",http://www.westin-homes.com,,,
TX,HARRIS,2006050047,"Single Family Homes",6/16/2020,,259000,4155,"12115 RIVER DEE DR",HOUSTON,TX,77356,BALMORAL,,CONTRACTOR,,,,,,,,,,,"WESTIN HOMES",,,,,"WESTIN HOMES","1 SUGAR CREEK CENTER BLVD STE 600","SUGAR LAND",TX,77478-3787,"(281) 240-1551",http://www.westin-homes.com,,,
TX,HARRIS,2006050049,"Single Family Homes",6/16/2020,,259000,4155,"15746 DEESIDE SPRING DR",HOUSTON,TX,77356,BALMORAL,,CONTRACTOR,,,,,,,,,,,"WESTIN HOMES",,,,,"WESTIN HOMES","1 SUGAR CREEK CENTER BLVD STE 600","SUGAR LAND",TX,77478-3787,"(281) 240-1551",http://www.westin-homes.com,,,
TX,HARRIS,2006090064,"Single Family Homes",6/16/2020,,277970,2804,"23943 NORTHWOOD TERRACE LN",HOUSTON,TX,77356,ELYSON,,CONTRACTOR,,,,,,,,,,,"PULTE HOMES",,,,,"PULTE HOMES","16670 PARK ROW",HOUSTON,TX,77084-6866,"(281) 749-8000",,,,
TX,HARRIS,2006090068,"Single Family Homes",6/16/2020,,189860,2034,"4427 RUSHING RIDGE CT",HOUSTON,TX,77356,"RETREAT AT CHAMPIONS LANDING",,CONTRACTOR,,,,,,,,,,,"PULTE HOMES",,,,,"PULTE HOMES","16670 PARK ROW",HOUSTON,TX,77084-6866,"(281) 749-8000",,,,
TX,HARRIS,2006090075,"Single Family Homes",6/16/2020,,310630,2863,"6107 BIRCHWOOD CLIFF TRL",HOUSTON,TX,77356,ELYSON,,CONTRACTOR,,,,,,,,,,,"PULTE HOMES",,,,,"PULTE HOMES","16670 PARK ROW",HOUSTON,TX,77084-6866,"(281) 749-8000",,,,
TX,HARRIS,2006090079,"Single Family Homes",6/16/2020,,313260,2776,"23234 IVORY SEDGE TRL",HOUSTON,TX,77356,ELYSON,,CONTRACTOR,,,,,,,,,,,"PULTE HOMES",,,,,"PULTE HOMES","16670 PARK ROW",HOUSTON,TX,77084-6866,"(281) 749-8000",,,,
TX,HARRIS,2006040112,"Single Family Homes",6/16/2020,,267187,2890,"5006 MINT ORCHARD DR",HOUSTON,TX,77356,TRACES,,CONTRACTOR,,,,,,,,,,,"HIGHLAND HOMES",,,,,"HIGHLAND HOMES","10930 W SAM HOUSTON PKWY N STE 100",HOUSTON,TX,77064-6331,"(281) 517-9800",,,,
TX,HARRIS,2006080095,"Single Family Homes",6/16/2020,,290000,2500,"12139 TEXAS TRUMPET TRL",HOUSTON,TX,77356,GROVES,,CONTRACTOR,,,,,,,,,,,"HIGHLAND HOMES",,,,,"HIGHLAND HOMES","10930 W SAM HOUSTON PKWY N STE 100",HOUSTON,TX,77064-6331,"(281) 517-9800",,,,
TX,HARRIS,2006090101,"Single Family Homes",6/16/2020,,275000,1800,"16406 LITTLE PINE CREEK DR",HOUSTON,TX,77356,GROVES,,CONTRACTOR,,,,,,,,,,,"HIGHLAND HOMES",,,,,"HIGHLAND HOMES","10930 W SAM HOUSTON PKWY N STE 100",HOUSTON,TX,77064-6331,"(281) 517-9800",,,,
TX,HARRIS,2006090117,"Single Family Homes",6/16/2020,,235990,2269,"25319 BEARTOOTH LN",HOUSTON,TX,77356,"GROVE LANDING",,CONTRACTOR,,,,,,,,,,,"DAVID WEEKLEY HOMES",,,,,"DAVID WEEKLEY HOMES","14444 NORTHWEST",HOUSTON,TX,77040,"(713) 570-5021",http://www.davidweekleyhomes.com/,,,
TX,HARRIS,2006090119,"Single Family Homes",6/16/2020,,225990,1853,"11406 RAVEN CLAW DR",HOUSTON,TX,77356,"GROVE LANDING",,CONTRACTOR,,,,,,,,,,,"DAVID WEEKLEY HOMES",,,,,"DAVID WEEKLEY HOMES","14444 NORTHWEST",HOUSTON,TX,77040,"(713) 570-5021",http://www.davidweekleyhomes.com/,,,
TX,HARRIS,2006090123,"Single Family Homes",6/16/2020,,279490,2082,"24611 SONGLARK BEND DR",HOUSTON,TX,77356,"LAKES AT CREEKSIDE",,CONTRACTOR,,,,,,,,,,,"DAVID WEEKLEY HOMES",,,,,"DAVID WEEKLEY HOMES","14444 NORTHWEST",HOUSTON,TX,77040,"(713) 570-5021",http://www.davidweekleyhomes.com/,,,
TX,HARRIS,2006090127,"Single Family Homes",6/16/2020,,276490,2105,"24535 SONGLARK BEND DR",HOUSTON,TX,77356,"LAKES AT CREEKSIDE",,CONTRACTOR,,,,,,,,,,,"DAVID WEEKLEY HOMES",,,,,"DAVID WEEKLEY HOMES","14444 NORTHWEST",HOUSTON,TX,77040,"(713) 570-5021",http://www.davidweekleyhomes.com/,,,
TX,HARRIS,2006040074,"Single Family Homes",6/16/2020,,116500,2113,"3114 ATASCOCITA VALE DR",HOUSTON,TX,77356,"ATASCOCITA SPRINGS",,CONTRACTOR,,,,,,,,,,,"LEGEND HOMES",,,,,"LEGEND HOMES","10410 WINDAMERE LAKES BLVD",HOUSTON,TX,77065-4996,"(281) 671-9060",http://legendhomecorp.com/,"(281) 671-9055",,
TX,HARRIS,2006050099,"Single Family Homes",6/16/2020,,155000,1969,"17635 DESMOND ST",HOUSTON,TX,77356,MERRYLANDS,,CONTRACTOR,,,,,,,,,,,"LEGEND HOMES",,,,,"LEGEND HOMES","10410 WINDAMERE LAKES BLVD",HOUSTON,TX,77065-4996,"(281) 671-9060",http://legendhomecorp.com/,"(281) 671-9055",,
TX,HARRIS,2005210023,"Single Family Homes",6/16/2020,,93730,2678,"11910 DEEPWATER RIDGE WAY",HOUSTON,TX,77356,"TOWNE LAKE",,CONTRACTOR,,,,,,,,,,,"DAVID WEEKLEY HOMES",,,,,"DAVID WEEKLEY HOMES","14444 NORTHWEST",HOUSTON,TX,77040,"(713) 570-5021",http://www.davidweekleyhomes.com/,,,
TX,HARRIS,2006080008,"Single Family Homes",6/16/2020,,98000,2355,"25522 BURNETT RANCH LN",HOUSTON,TX,77356,"KATY CROSSING",,CONTRACTOR,,,,,,,,,,,"LENNAR HOMES",,,,,"LENNAR HOMES","550 GREENS PKWY",HOUSTON,TX,77067-4537,"(281) 875-1000",http://www.lennar.com/,,,
TX,HARRIS,2006080039,"Single Family Homes",6/16/2020,,104000,2365,"4622 FRONTIER TRL",HOUSTON,TX,77356,"ASHBEL CROSSING ",,CONTRACTOR,,,,,,,,,,,"LENNAR HOMES",,,,,"LENNAR HOMES","550 GREENS PKWY",HOUSTON,TX,77067-4537,"(281) 875-1000",http://www.lennar.com/,,,
TX,HARRIS,2005280032,"Single Family Homes",6/16/2020,,91805,2623,"18262 WINDING WILLOW OAK WAY",HOUSTON,TX,77356,"TOWNE LAKE",,CONTRACTOR,,,,,,,,,,,"DAVID WEEKLEY HOMES",,,,,"DAVID WEEKLEY HOMES","14444 NORTHWEST",HOUSTON,TX,77040,"(713) 570-5021",http://www.davidweekleyhomes.com/,,,
TX,HARRIS,2005280070,"Single Family Homes",6/16/2020,,91805,2623,"18234 PEDERNALES SPRINGS DR",HOUSTON,TX,77356,"TOWNE LAKE",,CONTRACTOR,,,,,,,,,,,"DAVID WEEKLEY HOMES",,,,,"DAVID WEEKLEY HOMES","14444 NORTHWEST",HOUSTON,TX,77040,"(713) 570-5021",http://www.davidweekleyhomes.com/,,,
TX,HARRIS,2005260057,"Single Family Homes",6/16/2020,,180000,3478,"3514 GANNAN LAKE CT",HOUSTON,TX,77356,"MARCELLO LAKES",,CONTRACTOR,,,,,,,,,,,"LEGEND HOMES",,,,,"LEGEND HOMES","10410 WINDAMERE LAKES BLVD",HOUSTON,TX,77065-4996,"(281) 671-9060",http://legendhomecorp.com/,"(281) 671-9055",,
TX,HARRIS,2006080053,"Single Family Homes",6/16/2020,,100000,2336,"3742 GIORGIO PASTEL PL",HOUSTON,TX,77356,"CAMILLO LAKES ",,CONTRACTOR,,,,,,,,,,,"LEGEND HOMES",,,,,"LEGEND HOMES","10410 WINDAMERE LAKES BLVD",HOUSTON,TX,77065-4996,"(281) 671-9060",http://legendhomecorp.com/,"(281) 671-9055",,
TX,HARRIS,2006080050,"Single Family Homes",6/16/2020,,100000,2336,"3730 GIORGIO PASTEL PL",HOUSTON,TX,77356,"CAMILLO LAKES ",,CONTRACTOR,,,,,,,,,,,"LEGEND HOMES",,,,,"LEGEND HOMES","10410 WINDAMERE LAKES BLVD",HOUSTON,TX,77065-4996,"(281) 671-9060",http://legendhomecorp.com/,"(281) 671-9055",,
TX,HARRIS,2006080052,"Single Family Homes",6/16/2020,,116000,3044,"3726 GIORGIO PASTEL PL",HOUSTON,TX,77356,"CAMILLO LAKES ",,CONTRACTOR,,,,,,,,,,,"LEGEND HOMES",,,,,"LEGEND HOMES","10410 WINDAMERE LAKES BLVD",HOUSTON,TX,77065-4996,"(281) 671-9060",http://legendhomecorp.com/,"(281) 671-9055",,
TX,HARRIS,2006080054,"Single Family Homes",6/16/2020,,116000,3044,"3718 GIORGIO PASTEL PL",HOUSTON,TX,77356,"CAMILLO LAKES",,CONTRACTOR,,,,,,,,,,,"LEGEND HOMES",,,,,"LEGEND HOMES","10410 WINDAMERE LAKES BLVD",HOUSTON,TX,77065-4996,"(281) 671-9060",http://legendhomecorp.com/,"(281) 671-9055",,
TX,HARRIS,2006080057,"Single Family Homes",6/16/2020,,116000,3044,"3706 GIORGIO PASTEL PL",HOUSTON,TX,77356,"CAMILLO LAKES ",,CONTRACTOR,,,,,,,,,,,"LEGEND HOMES",,,,,"LEGEND HOMES","10410 WINDAMERE LAKES BLVD",HOUSTON,TX,77065-4996,"(281) 671-9060",http://legendhomecorp.com/,"(281) 671-9055",,
TX,HARRIS,2006090120,"Single Family Homes",6/16/2020,,290000,2400,"12207 CASTANO CREEK DR",HOUSTON,TX,77356,GROVES,,CONTRACTOR,,,,,,,,,,,"HIGHLAND HOMES",,,,,"HIGHLAND HOMES","10930 W SAM HOUSTON PKWY N STE 100",HOUSTON,TX,77064-6331,"(281) 517-9800",,,,
TX,HARRIS,2005180145,"Single Family Homes",6/16/2020,,550000,3626,"25102 W TARA PLANTATION DR",HOUSTON,TX,77356,"TWELVE OAKS",,CONTRACTOR,,,,,,,,,,,"AUSTIN TRAVIS HOMES",,,,,"AUSTIN TRAVIS HOMES","3815 S CAPITAL OF TEXAS HWY STE 110",AUSTIN,TX,78704-6635,"(512) 328-7174",,,,
TX,HARRIS,2006040126,"Single Family Homes",6/16/2020,,75915,2093,"24335 AMALDI CT",HOUSTON,TX,77356,"TREVISO GARDENS",,CONTRACTOR,,,,,,,,,,,"CAMILLO PROPERTIES",,,,,"CAMILLO PROPERTIES","6707 GESSNER RD",HOUSTON,TX,77040-4017,"(832) 500-0284",http://www.camillorentalhomes.com/,"(281) 325-0245",,
TX,HARRIS,2006040130,"Single Family Homes",6/16/2020,,62910,1804,"24339 AMALDI CT",HOUSTON,TX,77356,"TREVISO GARDENS",,CONTRACTOR,,,,,,,,,,,"CAMILLO PROPERTIES",,,,,"CAMILLO PROPERTIES","6707 GESSNER RD",HOUSTON,TX,77040-4017,"(832) 500-0284",http://www.camillorentalhomes.com/,"(281) 325-0245",,
TX,HARRIS,2006040132,"Single Family Homes",6/16/2020,,84150,2297,"24342 BORELLI DR",HOUSTON,TX,77356,"TREVISO GARDENS",,CONTRACTOR,,,,,,,,,,,"CAMILLO PROPERTIES",,,,,"CAMILLO PROPERTIES","6707 GESSNER RD",HOUSTON,TX,77040-4017,"(832) 500-0284",http://www.camillorentalhomes.com/,"(281) 325-0245",,
TX,HARRIS,2006040171,"Single Family Homes",6/16/2020,,63315,1811,"24338 BORELLI DR",HOUSTON,TX,77356,"TREVISO GARDENS",,CONTRACTOR,,,,,,,,,,,"CAMILLO PROPERTIES",,,,,"CAMILLO PROPERTIES","6707 GESSNER RD",HOUSTON,TX,77040-4017,"(832) 500-0284",http://www.camillorentalhomes.com/,"(281) 325-0245",,
TX,HARRIS,2006080010,"Single Family Homes",6/16/2020,,55755,1650,"3559 BARTOLO BRUSH CT",HOUSTON,TX,77356,"CAMILLO LAKES",,CONTRACTOR,,,,,,,,,,,"CAMILLO PROPERTIES",,,,,"CAMILLO PROPERTIES","6707 GESSNER RD",HOUSTON,TX,77040-4017,"(832) 500-0284",http://www.camillorentalhomes.com/,"(281) 325-0245",,
TX,HARRIS,2006080013,"Single Family Homes",6/16/2020,,87210,2324,"3563 BARTOLO BRUSH CT",HOUSTON,TX,77356,"CAMILLO LAKES ",,CONTRACTOR,,,,,,,,,,,"CAMILLO PROPERTIES",,,,,"CAMILLO PROPERTIES","6707 GESSNER RD",HOUSTON,TX,77040-4017,"(832) 500-0284",http://www.camillorentalhomes.com/,"(281) 325-0245",,
TX,HARRIS,2006080015,"Single Family Homes",6/16/2020,,58995,1697,"3567 BARTOLO BRUSH CT",HOUSTON,TX,77356,"CAMILLO LAKES",,CONTRACTOR,,,,,,,,,,,"CAMILLO PROPERTIES",,,,,"CAMILLO PROPERTIES","6707 GESSNER RD",HOUSTON,TX,77040-4017,"(832) 500-0284",http://www.camillorentalhomes.com/,"(281) 325-0245",,
TX,HARRIS,2006080022,"Single Family Homes",6/16/2020,,57330,1654,"3571 BARTOLO BRUSH CT",HOUSTON,TX,77356,"CAMILLO LAKES ",,CONTRACTOR,,,,,,,,,,,"CAMILLO PROPERTIES",,,,,"CAMILLO PROPERTIES","6707 GESSNER RD",HOUSTON,TX,77040-4017,"(832) 500-0284",http://www.camillorentalhomes.com/,"(281) 325-0245",,
TX,HARRIS,2006080023,"Single Family Homes",6/16/2020,,64125,1815,"3575 BARTOLO BRUSH CT",HOUSTON,TX,77356,"CAMILLO LAKES",,CONTRACTOR,,,,,,,,,,,"CAMILLO PROPERTIES",,,,,"CAMILLO PROPERTIES","6707 GESSNER RD",HOUSTON,TX,77040-4017,"(832) 500-0284",http://www.camillorentalhomes.com/,"(281) 325-0245",,
TX,HARRIS,2006080027,"Single Family Homes",6/16/2020,,80910,2184,"3549 GIORGIO PASTEL PL",HOUSTON,TX,77356,"CAMILLO LAKES",,CONTRACTOR,,,,,,,,,,,"CAMILLO PROPERTIES",,,,,"CAMILLO PROPERTIES","6707 GESSNER RD",HOUSTON,TX,77040-4017,"(832) 500-0284",http://www.camillorentalhomes.com/,"(281) 325-0245",,
TX,HARRIS,2006080016,"Single Family Homes",6/16/2020,,99014,2096,"21815 BLACK OWL DR",HOUSTON,TX,77356,"ARBOR TRAILS",,CONTRACTOR,,,,,,,,,,,"COLINA HOMES",,,,,"COLINA HOMES","1314 N DURHAM DR",HOUSTON,TX,77008-3734,"(281) 528-9090",http://colinahomes.com/,,,postmaster@colinahomes.com
TX,HARRIS,2006080019,"Single Family Homes",6/16/2020,,104222,2215,"12819 BLACK OWL DR",HOUSTON,TX,77356,"ARBOR TRAILS",,CONTRACTOR,,,,,,,,,,,"COLINA HOMES",,,,,"COLINA HOMES","1314 N DURHAM DR",HOUSTON,TX,77008-3734,"(281) 528-9090",http://colinahomes.com/,,,postmaster@colinahomes.com
TX,HARRIS,2006080021,"Single Family Homes",6/16/2020,,130324,2692,"21806 BLACK OWL DR",HOUSTON,TX,77356,"ARBOR TRAILS",,CONTRACTOR,,,,,,,,,,,"COLINA HOMES",,,,,"COLINA HOMES","1314 N DURHAM DR",HOUSTON,TX,77008-3734,"(281) 528-9090",http://colinahomes.com/,,,postmaster@colinahomes.com
TX,HARRIS,2006030066,"Single Family Homes",6/16/2020,,326625,5025,"19107 HARTLINE GREEN DR",HOUSTON,TX,77356,"BRIDGELAND HIDDEN CREEK",,CONTRACTOR,,,,,,,,,,,"TRENDMAKER HOMES",,,,,"TRENDMAKER HOMES","16340 PARK TEN PL STE 250",HOUSTON,TX,77084-5144,"(281) 675-3200",,"(281) 675-3251","MARTIN EVANS",
TX,HARRIS,2006090013,"Single Family Homes",6/16/2020,,141660,2329,"2407 GEORGINA FALLS DR",HOUSTON,TX,77356,BRECKENRIDGE,,CONTRACTOR,,,,,,,,,,,"DR HORTON",,,,,"DR HORTON","14100 SOUTHWEST",HOUSTON,TX,77478,"(281) 201-5559",,,,
TX,HARRIS,2006090014,"Single Family Homes",6/16/2020,,110700,2480,"5415 CLEARWATER CANYON TRL",HOUSTON,TX,77356,"JASMINE HEIGHTS",,CONTRACTOR,,,,,,,,,,,"DR HORTON",,,,,"DR HORTON","14100 SOUTHWEST",HOUSTON,TX,77478,"(281) 201-5559",,,,
TX,HARRIS,2006090015,"Single Family Homes",6/16/2020,,132885,2208,"5407 CLEARWATER CANYON TRL",HOUSTON,TX,77356,"JASMINE HEIGHTS",,CONTRACTOR,,,,,,,,,,,"DR HORTON",,,,,"DR HORTON","14100 SOUTHWEST",HOUSTON,TX,77478,"(281) 201-5559",,,,
TX,HARRIS,2006020003,"Single Family Homes",6/16/2020,,64000,2177,"6526 EARLY WINTER DR",HOUSTON,TX,77356,"CYPRESSWOOD POINT",,CONTRACTOR,,,,,,,,,,,"LONG LAKE HOMES",,,,,"LONG LAKE HOMES","15915 KATY FWY STE 405",HOUSTON,TX,77094-1710,"(281) 646-1727",http://www.longlakeltd.com/,,"DAVID BIGLER",
TX,HARRIS,2006020006,"Single Family Homes",6/16/2020,,64000,2179,"6530 CYPRESSWOOD SUMMIT DR",HOUSTON,TX,77356,"CYPRESSWOOD POINT",,CONTRACTOR,,,,,,,,,,,"LONG LAKE HOMES",,,,,"LONG LAKE HOMES","15915 KATY FWY STE 405",HOUSTON,TX,77094-1710,"(281) 646-1727",http://www.longlakeltd.com/,,"DAVID BIGLER",
TX,HARRIS,2006020007,"Single Family Homes",6/16/2020,,80000,3186,"6511 CYPRESSWOOD SUMMIT DR",HOUSTON,TX,77356,"CYPRESSWOOD POINT",,CONTRACTOR,,,,,,,,,,,"LONG LAKE HOMES",,,,,"LONG LAKE HOMES","15915 KATY FWY STE 405",HOUSTON,TX,77094-1710,"(281) 646-1727",http://www.longlakeltd.com/,,"DAVID BIGLER",
TX,HARRIS,2006020015,"Single Family Homes",6/16/2020,,80000,3186,"11335 CASCADING STREAM WAY",HOUSTON,TX,77356,"SHELDON RIDGE",,CONTRACTOR,,,,,,,,,,,"LONG LAKE HOMES",,,,,"LONG LAKE HOMES","15915 KATY FWY STE 405",HOUSTON,TX,77094-1710,"(281) 646-1727",http://www.longlakeltd.com/,,"DAVID BIGLER",
TX,HARRIS,2006050077,"Single Family Homes",6/16/2020,,81000,3586,"21006 PASTEL SKY WAY",HOUSTON,TX,77356,"CYPRESSWOOD POINT",,CONTRACTOR,,,,,,,,,,,"LONG LAKE HOMES",,,,,"LONG LAKE HOMES","15915 KATY FWY STE 405",HOUSTON,TX,77094-1710,"(281) 646-1727",http://www.longlakeltd.com/,,"DAVID BIGLER",
TX,HARRIS,2006050080,"Single Family Homes",6/16/2020,,80000,3238,"3007 BUGATTI DR",HOUSTON,TX,77356,"MORTON CREEK RANCH",,CONTRACTOR,,,,,,,,,,,"LONG LAKE HOMES",,,,,"LONG LAKE HOMES","15915 KATY FWY STE 405",HOUSTON,TX,77094-1710,"(281) 646-1727",http://www.longlakeltd.com/,,"DAVID BIGLER",
TX,HARRIS,2006050084,"Single Family Homes",6/16/2020,,72000,3003,"14826 RUDDY DUCK LN",HOUSTON,TX,77356,"EDGEWOOD VILLAGE",,CONTRACTOR,,,,,,,,,,,"LONG LAKE HOMES",,,,,"LONG LAKE HOMES","15915 KATY FWY STE 405",HOUSTON,TX,77094-1710,"(281) 646-1727",http://www.longlakeltd.com/,,"DAVID BIGLER",
TX,HARRIS,2006050093,"Single Family Homes",6/16/2020,,64000,1825,"14703 RUDDY DUCK LN",HOUSTON,TX,77356,"EDGEWOOD VILLAGE",,CONTRACTOR,,,,,,,,,,,"LONG LAKE HOMES",,,,,"LONG LAKE HOMES","15915 KATY FWY STE 405",HOUSTON,TX,77094-1710,"(281) 646-1727",http://www.longlakeltd.com/,,"DAVID BIGLER",
TX,HARRIS,2006050097,"Single Family Homes",6/16/2020,,72000,3005,"8311 NORTHERN PINTAIL DR",HOUSTON,TX,77356,"EDGEWOOD VILLAGE",,CONTRACTOR,,,,,,,,,,,"LONG LAKE HOMES",,,,,"LONG LAKE HOMES","15915 KATY FWY STE 405",HOUSTON,TX,77094-1710,"(281) 646-1727",http://www.longlakeltd.com/,,"DAVID BIGLER",
TX,HARRIS,2006050100,"Single Family Homes",6/16/2020,,59800,2679,"11314 CASCADING STREAM WAY",HOUSTON,TX,77356,"SHELDON RIDGE",,CONTRACTOR,,,,,,,,,,,"LONG LAKE HOMES",,,,,"LONG LAKE HOMES","15915 KATY FWY STE 405",HOUSTON,TX,77094-1710,"(281) 646-1727",http://www.longlakeltd.com/,,"DAVID BIGLER",
TX,HARRIS,2006050102,"Single Family Homes",6/16/2020,,80000,3238,"15323 LACELEAF TRL",HOUSTON,TX,77356,"SHELDON RIDGE",,CONTRACTOR,,,,,,,,,,,"LONG LAKE HOMES",,,,,"LONG LAKE HOMES","15915 KATY FWY STE 405",HOUSTON,TX,77094-1710,"(281) 646-1727",http://www.longlakeltd.com/,,"DAVID BIGLER",
TX,HARRIS,2006050105,"Single Family Homes",6/16/2020,,80000,3238,"3214 LOTUS BLOSSOM ST",HOUSTON,TX,77356,"BRECKENRIDGE PARK",,CONTRACTOR,,,,,,,,,,,"LONG LAKE HOMES",,,,,"LONG LAKE HOMES","15915 KATY FWY STE 405",HOUSTON,TX,77094-1710,"(281) 646-1727",http://www.longlakeltd.com/,,"DAVID BIGLER",
TX,HARRIS,2005220040,"Single Family Homes",6/16/2020,,80000,3186,"15318 ASTER PRAIRIE WAY",HOUSTON,TX,77356,"SHELDON RIDGE",,CONTRACTOR,,,,,,,,,,,"LONG LAKE HOMES",,,,,"LONG LAKE HOMES","15915 KATY FWY STE 405",HOUSTON,TX,77094-1710,"(281) 646-1727",http://www.longlakeltd.com/,,"DAVID BIGLER",
TX,HARRIS,2005010010,"Single Family Homes",6/16/2020,,80000,3186,"15319 ASTER PRAIRIE WAY",HOUSTON,TX,77356,"SHELDON RIDGE",,CONTRACTOR,,,,,,,,,,,"LONG LAKE HOMES",,,,,"LONG LAKE HOMES","15915 KATY FWY STE 405",HOUSTON,TX,77094-1710,"(281) 646-1727",http://www.longlakeltd.com/,,"DAVID BIGLER",
TX,HARRIS,2003050010,"Single Family Homes",6/16/2020,,70000,2748,"15315 ASTER PRAIRIE WAY",HOUSTON,TX,77356,"SHELDON RIDGE",,CONTRACTOR,,,,,,,,,,,"LONG LAKE HOMES",,,,,"LONG LAKE HOMES","15915 KATY FWY STE 405",HOUSTON,TX,77094-1710,"(281) 646-1727",http://www.longlakeltd.com/,,"DAVID BIGLER",
TX,HARRIS,2006080083,"Single Family Homes",6/16/2020,,64000,2177,"14715 LARK SKY WAY",HOUSTON,TX,77356,"TELGE RANCH",,CONTRACTOR,,,,,,,,,,,"LONG LAKE HOMES",,,,,"LONG LAKE HOMES","15915 KATY FWY STE 405",HOUSTON,TX,77094-1710,"(281) 646-1727",http://www.longlakeltd.com/,,"DAVID BIGLER",
TX,HARRIS,2006080086,"Single Family Homes",6/16/2020,,70000,2748,"11338 CASCADING STREAM WAY",HOUSTON,TX,77356,"SHELDON RIDGE",,CONTRACTOR,,,,,,,,,,,"LONG LAKE HOMES",,,,,"LONG LAKE HOMES","15915 KATY FWY STE 405",HOUSTON,TX,77094-1710,"(281) 646-1727",http://www.longlakeltd.com/,,"DAVID BIGLER",
TX,HARRIS,2006080089,"Single Family Homes",6/16/2020,,72000,3005,"12746 TULLICH LN",HOUSTON,TX,77356,BALMORAL,,CONTRACTOR,,,,,,,,,,,"LONG LAKE HOMES",,,,,"LONG LAKE HOMES","15915 KATY FWY STE 405",HOUSTON,TX,77094-1710,"(281) 646-1727",http://www.longlakeltd.com/,,"DAVID BIGLER",
TX,HARRIS,2006080091,"Single Family Homes",6/16/2020,,80000,3186,"15315 CRATHIE BEND DR",HOUSTON,TX,77356,BALMORAL,,CONTRACTOR,,,,,,,,,,,"LONG LAKE HOMES",,,,,"LONG LAKE HOMES","15915 KATY FWY STE 405",HOUSTON,TX,77094-1710,"(281) 646-1727",http://www.longlakeltd.com/,,"DAVID BIGLER",
TX,HARRIS,2006050174,"Single Family Homes",6/16/2020,,223000,1510,"4418 RUSHING RIDGE CT",HOUSTON,TX,77356,"RETREAT AT CHAMPIONS LANDING",,CONTRACTOR,,,,,,,,,,,"PULTE HOMES",,,,,"PULTE HOMES","16670 PARK ROW",HOUSTON,TX,77084-6866,"(281) 749-8000",,,,
TX,HARRIS,2006080018,"Single Family Homes",6/16/2020,,200750,2047,"14510 OVERLAND HOLLOW DR",HOUSTON,TX,77356,"RETREAT AT CHAMPIONS LANDING",,CONTRACTOR,,,,,,,,,,,"PULTE HOMES",,,,,"PULTE HOMES","16670 PARK ROW",HOUSTON,TX,77084-6866,"(281) 749-8000",,,,
TX,HARRIS,2006080029,"Single Family Homes",6/16/2020,,235180,1879,"17807 FRIESIAN PASTURES CT",HOUSTON,TX,77356,WINDROW,,CONTRACTOR,,,,,,,,,,,"PULTE HOMES",,,,,"PULTE HOMES","16670 PARK ROW",HOUSTON,TX,77084-6866,"(281) 749-8000",,,,
TX,HARRIS,2005290187,"Single Family Homes",6/16/2020,,140000,2800,"19142 LONGHORN POINT DR",HOUSTON,TX,77356,"BRIDGELAND PARKLAND VILLAGE",,CONTRACTOR,,,,,,,,,,,"M/I HOMES",,,,,"M/I HOMES","10910 NORTH SAM HOUSTON PKWY W",HOUSTON,TX,77064,"(832) 912-1012",,,,
TX,HARRIS,2006100058,"Single Family Homes",6/16/2020,,219000,1284,"23995 BUSHEL PARK DR",HOUSTON,TX,77356,WINDROW,,CONTRACTOR,,,,,,,,,,,"PULTE HOMES",,,,,"PULTE HOMES","16670 PARK ROW",HOUSTON,TX,77084-6866,"(281) 749-8000",,,,
TX,HARRIS,2006100081,"Single Family Homes",6/16/2020,,140040,1677,"23123 SPRUCE SUMMIT TRL",HOUSTON,TX,77356,"BRECKENRIDGE WEST",,CONTRACTOR,,,,,,,,,,,"DR HORTON",,,,,"DR HORTON","14100 SOUTHWEST",HOUSTON,TX,77478,"(281) 201-5559",,,,
TX,HARRIS,2005120007,"Single Family Homes",6/16/2020,,100000,2663,"23519 CREEK WOOD DR",HOUSTON,TX,77356,"CREEKWOOD ACRES",,"ANGELA GONZALEZ","23519 CREEK WOOD DR",HOUSTON,TX,77356,,Owner,,,,,OWNER,,,,,OWNER,,,,,,,,,
TX,HARRIS,2006080118,"Single Family Homes",6/16/2020,,140630,2402,"15114 SILKY MORNING CT",HOUSTON,TX,77356,"SUNSET RIDGE",,CONTRACTOR,,,,,,,,,,,"K HOVNANIAN HOMES",,,,,"K HOVNANIAN HOMES","13111 NORTHWEST FWY STE 200",HOUSTON,TX,77040-6311,"(713) 460-0264",,,,
TX,HARRIS,2006080122,"Single Family Homes",6/16/2020,,210000,3399,"15102 SILKY MORNING CT",HOUSTON,TX,77356,"SUNSET RIDGE",,CONTRACTOR,,,,,,,,,,,"K HOVNANIAN HOMES",,,,,"K HOVNANIAN HOMES","13111 NORTHWEST FWY STE 200",HOUSTON,TX,77040-6311,"(713) 460-0264",,,,
TX,HARRIS,2006080126,"Single Family Homes",6/16/2020,,187180,3073,"15110 SILKY MORNING CT",HOUSTON,TX,77356,"SUNSET RIDGE",,CONTRACTOR,,,,,,,,,,,"K HOVNANIAN HOMES",,,,,"K HOVNANIAN HOMES","13111 NORTHWEST FWY STE 200",HOUSTON,TX,77040-6311,"(713) 460-0264",,,,
TX,HARRIS,2006080130,"Single Family Homes",6/16/2020,,210000,3399,"15003 MISTY SUMMER LN",HOUSTON,TX,77356,"SUNSET RIDGE",,CONTRACTOR,,,,,,,,,,,"K HOVNANIAN HOMES",,,,,"K HOVNANIAN HOMES","13111 NORTHWEST FWY STE 200",HOUSTON,TX,77040-6311,"(713) 460-0264",,,,
TX,HARRIS,2006080135,"Single Family Homes",6/16/2020,,143080,2439,"15007 MISTY SUMMER LN",HOUSTON,TX,77356,"SUNSET RIDGE",,CONTRACTOR,,,,,,,,,,,"K HOVNANIAN HOMES",,,,,"K HOVNANIAN HOMES","13111 NORTHWEST FWY STE 200",HOUSTON,TX,77040-6311,"(713) 460-0264",,,,
TX,HARRIS,2006080137,"Single Family Homes",6/16/2020,,189770,3124,"15011 MISTY SUMMER LN",HOUSTON,TX,77356,"SUNSET RIDGE",,CONTRACTOR,,,,,,,,,,,"K HOVNANIAN HOMES",,,,,"K HOVNANIAN HOMES","13111 NORTHWEST FWY STE 200",HOUSTON,TX,77040-6311,"(713) 460-0264",,,,
TX,HARRIS,2006100051,"Single Family Homes",6/16/2020,,161000,2724,"4426 SILVERGRASS LN",HOUSTON,TX,77356,"KATY POINTE",,CONTRACTOR,,,,,,,,,,,"K HOVNANIAN HOMES",,,,,"K HOVNANIAN HOMES","13111 NORTHWEST FWY STE 200",HOUSTON,TX,77040-6311,"(713) 460-0264",,,,
TX,HARRIS,2006050044,"Single Family Homes",6/16/2020,,260000,3933,"19222 ARROWHEAD RIDGE DR",HOUSTON,TX,77356,"BRIDGELAND PARKLAND VILLAGE",,CONTRACTOR,,,,,,,,,,,"WESTIN HOMES",,,,,"WESTIN HOMES","1 SUGAR CREEK CENTER BLVD STE 600","SUGAR LAND",TX,77478-3787,"(281) 240-1551",http://www.westin-homes.com,,,
TX,HARRIS,2006090070,"Single Family Homes",6/16/2020,,243000,3688,"9022 CAPROCK BLUFF LN",HOUSTON,TX,77356,MIRAMESA,,CONTRACTOR,,,,,,,,,,,"WESTIN HOMES",,,,,"WESTIN HOMES","1 SUGAR CREEK CENTER BLVD STE 600","SUGAR LAND",TX,77478-3787,"(281) 240-1551",http://www.westin-homes.com,,,
TX,HARRIS,2005210015,"Single Family Homes",6/16/2020,,93380,2668,"18410 WINDING WILLOW OAK WAY",HOUSTON,TX,77356,"TOWNE LAKE",,CONTRACTOR,,,,,,,,,,,"DAVID WEEKLEY HOMES",,,,,"DAVID WEEKLEY HOMES","14444 NORTHWEST",HOUSTON,TX,77040,"(713) 570-5021",http://www.davidweekleyhomes.com/,,,
TX,HARRIS,2006100095,"Single Family Homes",6/16/2020,,86580,1924,"23127 SPRUCE SUMMIT TRL",HOUSTON,TX,77356,BRECKENRIDGE,,CONTRACTOR,,,,,,,,,,,"DR HORTON",,,,,"DR HORTON","14100 SOUTHWEST",HOUSTON,TX,77478,"(281) 201-5559",,,,
TX,HARRIS,2006100098,"Single Family Homes",6/16/2020,,119250,1877,"2403 ALLENDALE GARDEN LN",HOUSTON,TX,77356,BRECKENRIDGE,,CONTRACTOR,,,,,,,,,,,"DR HORTON",,,,,"DR HORTON","14100 SOUTHWEST",HOUSTON,TX,77478,"(281) 201-5559",,,,
TX,HARRIS,2006100101,"Single Family Homes",6/16/2020,,90540,2012,"2407 ALLENDALE GARDEN LN",HOUSTON,TX,77356,BRECKENRIDGE,,CONTRACTOR,,,,,,,,,,,"DR HORTON",,,,,"DR HORTON","14100 SOUTHWEST",HOUSTON,TX,77478,"(281) 201-5559",,,,
TX,HARRIS,2006100102,"Single Family Homes",6/16/2020,,111555,1877,"2411 ALLENDALE GARDEN LN",HOUSTON,TX,77356,BRECKENRIDGE,,CONTRACTOR,,,,,,,,,,,"DR HORTON",,,,,"DR HORTON","14100 SOUTHWEST",HOUSTON,TX,77478,"(281) 201-5559",,,,
TX,HARRIS,2006100104,"Single Family Homes",6/16/2020,,93510,2078,"2415 ALLENDALE GARDEN LN",HOUSTON,TX,77356,BRECKENRIDGE,,CONTRACTOR,,,,,,,,,,,"DR HORTON",,,,,"DR HORTON","14100 SOUTHWEST",HOUSTON,TX,77478,"(281) 201-5559",,,,
TX,HARRIS,2006100105,"Single Family Homes",6/16/2020,,132885,2225,"2339 GEORGINA FALLS DR",HOUSTON,TX,77356,BRECKENRIDGE,,CONTRACTOR,,,,,,,,,,,"DR HORTON",,,,,"DR HORTON","14100 SOUTHWEST",HOUSTON,TX,77478,"(281) 201-5559",,,,
TX,HARRIS,2006050014,"Single Family Homes",6/16/2020,,132975,2141,"5422 CLEARWATER CANYON TRL",HOUSTON,TX,77356,"JASMINE HEIGHTS",,CONTRACTOR,,,,,,,,,,,"DR HORTON",,,,,"DR HORTON","14100 SOUTHWEST",HOUSTON,TX,77478,"(281) 201-5559",,,,
TX,HARRIS,2006050015,"Single Family Homes",6/16/2020,,96525,2145,"5426 CLEARWATER CANYON TRL",HOUSTON,TX,77356,"JASMINE HEIGHTS",,CONTRACTOR,,,,,,,,,,,"DR HORTON",,,,,"DR HORTON","14100 SOUTHWEST",HOUSTON,TX,77478,"(281) 201-5559",,,,
TX,HARRIS,2006050016,"Single Family Homes",6/16/2020,,89505,1989,"5419 CLEARWATER CANYON TRL",HOUSTON,TX,77356,"JASMINE HEIGHTS",,CONTRACTOR,,,,,,,,,,,"DR HORTON",,,,,"DR HORTON","14100 SOUTHWEST",HOUSTON,TX,77478,"(281) 201-5559",,,,
TX,HARRIS,2006050018,"Single Family Homes",6/16/2020,,89505,1989,"5411 CLEARWATER CANYON TRL",HOUSTON,TX,77356,"JASMINE HEIGHTS",,CONTRACTOR,,,,,,,,,,,"DR HORTON",,,,,"DR HORTON","14100 SOUTHWEST",HOUSTON,TX,77478,"(281) 201-5559",,,,
TX,HARRIS,2006050024,"Single Family Homes",6/16/2020,,112515,2291,"4458 FOLLINA TRL",HOUSTON,TX,77356,"VENTANA LAKES",,CONTRACTOR,,,,,,,,,,,"DR HORTON",,,,,"DR HORTON","14100 SOUTHWEST",HOUSTON,TX,77478,"(281) 201-5559",,,,
TX,HARRIS,2006050128,"Single Family Homes",6/16/2020,,169650,2331,"4719 LOMBARDY FIRE TRL",HOUSTON,TX,77356,"VENTANA LAKES",,CONTRACTOR,,,,,,,,,,,"DR HORTON",,,,,"DR HORTON","14100 SOUTHWEST",HOUSTON,TX,77478,"(281) 201-5559",,,,
TX,HARRIS,2006050127,"Single Family Homes",6/16/2020,,103050,2291,"4738 LOMBARDY FIRE TRL",HOUSTON,TX,77356,"VENTANA LAKES",,CONTRACTOR,,,,,,,,,,,"DR HORTON",,,,,"DR HORTON","14100 SOUTHWEST",HOUSTON,TX,77478,"(281) 201-5559",,,,
TX,HARRIS,2006040015,"Single Family Homes",6/16/2020,,290953,3204,"13606 BRIARSTONE GLEN CT",HOUSTON,TX,77356,"ALDEN WOODS",,CONTRACTOR,,,,,,,,,,,"TAYLOR MORRISON OF TEXAS",,,,,"TAYLOR MORRISON OF TEXAS","5353 W SAM HOUSTON PKWY N STE 190",HOUSTON,TX,77041-5186,"(281) 598-3000",,,,
TX,HARRIS,2006080046,"Single Family Homes",6/16/2020,,123400,400,"15715 HARDING BEND DR",HOUSTON,TX,77356,,,CONTRACTOR,,,,,,,,,,,"LENNAR HOMES",,,,,"LENNAR HOMES","550 GREENS PKWY",HOUSTON,TX,77067-4537,"(281) 875-1000",http://www.lennar.com/,,,
TX,HARRIS,2006080037,"Single Family Homes",6/16/2020,,105000,2586,"18435 WHITE STALLION LN",HOUSTON,TX,77356,"BECKER MEADOWS",,CONTRACTOR,,,,,,,,,,,"LENNAR HOMES",,,,,"LENNAR HOMES","550 GREENS PKWY",HOUSTON,TX,77067-4537,"(281) 875-1000",http://www.lennar.com/,,,
TX,HARRIS,2006080040,"Single Family Homes",6/16/2020,,150000,2765,"5814 PRAIRIE CHAPEL RD",HOUSTON,TX,77356,"KATY CROSSING",,CONTRACTOR,,,,,,,,,,,"LENNAR HOMES",,,,,"LENNAR HOMES","550 GREENS PKWY",HOUSTON,TX,77067-4537,"(281) 875-1000",http://www.lennar.com/,,,
TX,HARRIS,2006080042,"Single Family Homes",6/16/2020,,140000,2797,"15411 HILL COUNTRY OAKS LN",HOUSTON,TX,77356,"BRIDGELAND PARKLAND VILLAGE",,CONTRACTOR,,,,,,,,,,,"LENNAR HOMES",,,,,"LENNAR HOMES","550 GREENS PKWY",HOUSTON,TX,77067-4537,"(281) 875-1000",http://www.lennar.com/,,,
TX,HARRIS,2006080044,"Single Family Homes",6/16/2020,,147000,2834,"15411 LANCASTER FALLS DR",HOUSTON,TX,77356,"WILDWOOD AT OAKCREST",,CONTRACTOR,,,,,,,,,,,"LENNAR HOMES",,,,,"LENNAR HOMES","550 GREENS PKWY",HOUSTON,TX,77067-4537,"(281) 875-1000",http://www.lennar.com/,,,
TX,HARRIS,2006020043,"Single Family Homes",6/16/2020,,182520,2028,"31235 PINEBROOK FALLS LN",HOUSTON,TX,77356,DELLROSE,,CONTRACTOR,,,,,,,,,,,"EHT OF TEXAS LP",,,,,"EHT OF TEXAS LP","10235 LITTLE",HOUSTON,TX,77040,"(713) 557-3685",,,,
TX,HARRIS,2006010116,"Single Family Homes",6/16/2020,,153510,2568,"514 ASIATIC BLACK BEAR WAY",HOUSTON,TX,77356,"KODIAK CROSSING",,CONTRACTOR,,,,,,,,,,,"K HOVNANIAN HOMES",,,,,"K HOVNANIAN HOMES","13111 NORTHWEST FWY STE 200",HOUSTON,TX,77040-6311,"(713) 460-0264",,,,
TX,HARRIS,2006010117,"Single Family Homes",6/16/2020,,155750,2613,"511 GLACIER BEAR CT",HOUSTON,TX,77356,"KODIAK CROSSING",,CONTRACTOR,,,,,,,,,,,"K HOVNANIAN HOMES",,,,,"K HOVNANIAN HOMES","13111 NORTHWEST FWY STE 200",HOUSTON,TX,77040-6311,"(713) 460-0264",,,,
TX,HARRIS,2006010120,"Single Family Homes",6/16/2020,,112910,2003,"442 POLAR BEAR TRL",HOUSTON,TX,77356,"KODIAK CROSSING",,CONTRACTOR,,,,,,,,,,,"K HOVNANIAN HOMES",,,,,"K HOVNANIAN HOMES","13111 NORTHWEST FWY STE 200",HOUSTON,TX,77040-6311,"(713) 460-0264",,,,
TX,HARRIS,RB-001157-2020,"Single Family Homes",6/19/2020,,,2074,"1517 ED WATSON DR","DEER PARK",TX,77536,,,CONTRACTOR,,,,,,,,,,,"MEL-LO DEVELOPMENT",,,,,"MEL-LO DEVELOPMENT","3326 TANKERSLEY CIR",ROSHARON,TX,77583-7937,"(281) 804-6455",,,,
TX,HARRIS,2006020021,"Single Family Homes",6/16/2020,,143080,2439,"510 ASIATIC BLACK BEAR WAY",HOUSTON,TX,77356,"KODIAK CROSSING",,CONTRACTOR,,,,,,,,,,,"K HOVNANIAN HOMES",,,,,"K HOVNANIAN HOMES","13111 NORTHWEST FWY STE 200",HOUSTON,TX,77040-6311,"(713) 460-0264",,,,
TX,HARRIS,2006020120,"Single Family Homes",6/16/2020,,155750,2613,"13642 GIANT PANDA BEAR AVE",HOUSTON,TX,77356,"KODIAK CROSSING",,CONTRACTOR,,,,,,,,,,,"K HOVNANIAN HOMES",,,,,"K HOVNANIAN HOMES","13111 NORTHWEST FWY STE 200",HOUSTON,TX,77040-6311,"(713) 460-0264",,,,
TX,HARRIS,2006040037,"Single Family Homes",6/16/2020,,155750,2613,"13602 GIANT PANDA BEAR AVE",HOUSTON,TX,77356,"KODIAK CROSSING",,CONTRACTOR,,,,,,,,,,,"K HOVNANIAN HOMES",,,,,"K HOVNANIAN HOMES","13111 NORTHWEST FWY STE 200",HOUSTON,TX,77040-6311,"(713) 460-0264",,,,
TX,HARRIS,2006040145,"Single Family Homes",6/16/2020,,138050,1955,"8802 WESTFIELD GLEN CT",HOUSTON,TX,77356,"ELDRIDGE PARK",,CONTRACTOR,,,,,,,,,,,"K HOVNANIAN HOMES",,,,,"K HOVNANIAN HOMES","13111 NORTHWEST FWY STE 200",HOUSTON,TX,77040-6311,"(713) 460-0264",,,,
TX,HARRIS,2006040159,"Single Family Homes",6/16/2020,,139300,2378,"7703 MESA RANCH TRL",HOUSTON,TX,77356,"TERRA DEL SOL",,CONTRACTOR,,,,,,,,,,,"K HOVNANIAN HOMES",,,,,"K HOVNANIAN HOMES","13111 NORTHWEST FWY STE 200",HOUSTON,TX,77040-6311,"(713) 460-0264",,,,
TX,HARRIS,2006040161,"Single Family Homes",6/17/2020,,142450,2428,"7707 MESA RANCH TRL",HOUSTON,TX,77356,"TERRA DEL SOL",,CONTRACTOR,,,,,,,,,,,"K HOVNANIAN HOMES",,,,,"K HOVNANIAN HOMES","13111 NORTHWEST FWY STE 200",HOUSTON,TX,77040-6311,"(713) 460-0264",,,,
TX,HARRIS,2006040163,"Single Family Homes",6/16/2020,,139300,2288,"7711 MESA RANCH TRL",HOUSTON,TX,77356,"TERRA DEL SOL",,CONTRACTOR,,,,,,,,,,,"K HOVNANIAN HOMES",,,,,"K HOVNANIAN HOMES","13111 NORTHWEST FWY STE 200",HOUSTON,TX,77040-6311,"(713) 460-0264",,,,
TX,HARRIS,2006040166,"Single Family Homes",6/16/2020,,142450,2428,"7715 MESA RANCH TRL",HOUSTON,TX,77356,"TERRA DEL SOL",,CONTRACTOR,,,,,,,,,,,"K HOVNANIAN HOMES",,,,,"K HOVNANIAN HOMES","13111 NORTHWEST FWY STE 200",HOUSTON,TX,77040-6311,"(713) 460-0264",,,,
TX,HARRIS,2006040167,"Single Family Homes",6/16/2020,,139300,2378,"14318 MISSION RUN LN",HOUSTON,TX,77356,"TERRA DEL SOL",,CONTRACTOR,,,,,,,,,,,"K HOVNANIAN HOMES",,,,,"K HOVNANIAN HOMES","13111 NORTHWEST FWY STE 200",HOUSTON,TX,77040-6311,"(713) 460-0264",,,,
TX,HARRIS,2006040169,"Single Family Homes",6/16/2020,,139300,2378,"14322 MISSION RUN LN",HOUSTON,TX,77356,"TERRA DEL SOL",,CONTRACTOR,,,,,,,,,,,"K HOVNANIAN HOMES",,,,,"K HOVNANIAN HOMES","13111 NORTHWEST FWY STE 200",HOUSTON,TX,77040-6311,"(713) 460-0264",,,,
TX,HARRIS,2006040170,"Single Family Homes",6/16/2020,,139300,2378,"14326 MISSION RUN LN",HOUSTON,TX,77356,"TERRA DEL SOL",,CONTRACTOR,,,,,,,,,,,"K HOVNANIAN HOMES",,,,,"K HOVNANIAN HOMES","13111 NORTHWEST FWY STE 200",HOUSTON,TX,77040-6311,"(713) 460-0264",,,,
TX,HARRIS,2006050030,"Single Family Homes",6/16/2020,,143080,2439,"13638 GIANT PANDA BEAR AVE",HOUSTON,TX,77356,"KODIAK CROSSING",,CONTRACTOR,,,,,,,,,,,"K HOVNANIAN HOMES",,,,,"K HOVNANIAN HOMES","13111 NORTHWEST FWY STE 200",HOUSTON,TX,77040-6311,"(713) 460-0264",,,,
TX,HARRIS,2006080062,"Single Family Homes",6/16/2020,,120000,2668,"7210 GREENFORD VILLAGE WAY",HOUSTON,TX,77356,"IMPERIAL FOREST",,CONTRACTOR,,,,,,,,,,,"STARLIGHT HOMES",,,,,"STARLIGHT HOMES","10110 W SAM HOUSTON PKWY N",HOUSTON,TX,77064-7508,"(832) 478-9032",,,,
TX,HARRIS,2006080060,"Single Family Homes",6/16/2020,,110000,2338,"7206 GREENFORD VILLAGE WAY",HOUSTON,TX,77356,"IMPERIAL FOREST",,CONTRACTOR,,,,,,,,,,,"STARLIGHT HOMES",,,,,"STARLIGHT HOMES","10110 W SAM HOUSTON PKWY N",HOUSTON,TX,77064-7508,"(832) 478-9032",,,,
TX,HARRIS,2006080058,"Single Family Homes",6/16/2020,,105000,1911,"7202 GREENFORD VILLAGE WAY",HOUSTON,TX,77356,"IMPERIAL FOREST",,CONTRACTOR,,,,,,,,,,,"STARLIGHT HOMES",,,,,"STARLIGHT HOMES","10110 W SAM HOUSTON PKWY N",HOUSTON,TX,77064-7508,"(832) 478-9032",,,,
TX,HARRIS,2006080102,"Single Family Homes",6/16/2020,,201780,2067,"14507 OVERLAND HOLLOW DR",HOUSTON,TX,77356,"RETREAT AT CHAMPIONS LANDING",,CONTRACTOR,,,,,,,,,,,"PULTE HOMES",,,,,"PULTE HOMES","16670 PARK ROW",HOUSTON,TX,77084-6866,"(281) 749-8000",,,,
TX,HARRIS,2006080106,"Single Family Homes",6/16/2020,,83000,1648,"25515 BURNETT RANCH LN",HOUSTON,TX,77356,"KATY CROSSING",,CONTRACTOR,,,,,,,,,,,"LENNAR HOMES",,,,,"LENNAR HOMES","550 GREENS PKWY",HOUSTON,TX,77067-4537,"(281) 875-1000",http://www.lennar.com/,,,
TX,HARRIS,2006080108,"Single Family Homes",6/16/2020,,208340,1969,"4422 RUSHING RIDGE CT",HOUSTON,TX,77356,"RETREAT AT CHAMPIONS LANDING",,CONTRACTOR,,,,,,,,,,,"PULTE HOMES",,,,,"PULTE HOMES","16670 PARK ROW",HOUSTON,TX,77084-6866,"(281) 749-8000",,,,
TX,HARRIS,2006080115,"Single Family Homes",6/16/2020,,213820,1284,"14523 OVERLAND HOLLOW DR",HOUSTON,TX,77356,"RETREAT AT CHAMPIONS LANDING",,CONTRACTOR,,,,,,,,,,,"PULTE HOMES",,,,,"PULTE HOMES","16670 PARK ROW",HOUSTON,TX,77084-6866,"(281) 749-8000",,,,
TX,HARRIS,2006080119,"Single Family Homes",6/16/2020,,214290,1380,"5911 WAGGONEER RANCH TRL",HOUSTON,TX,77356,"KATY CROSSING",,CONTRACTOR,,,,,,,,,,,"PULTE HOMES",,,,,"PULTE HOMES","16670 PARK ROW",HOUSTON,TX,77084-6866,"(281) 749-8000",,,,
TX,HARRIS,2006040139,"Single Family Homes",6/16/2020,,167000,4095,"24303 TWIN COVE CT",HOUSTON,TX,77356,"KATY LAKES",,CONTRACTOR,,,,,,,,,,,"GEHAN HOMES",,,,,"GEHAN HOMES","2050 W SAM HOUSTON PKWY S",HOUSTON,TX,77042-2079,"(713) 243-3545",http://www.gehanhomes.com,,,
TX,HARRIS,2006040135,"Single Family Homes",6/16/2020,,147000,3099,"24410 PINEY HARBOR LN",HOUSTON,TX,77356,"KATY LAKES",,CONTRACTOR,,,,,,,,,,,"GEHAN HOMES",,,,,"GEHAN HOMES","2050 W SAM HOUSTON PKWY S",HOUSTON,TX,77042-2079,"(713) 243-3545",http://www.gehanhomes.com,,,
TX,HARRIS,2006040134,"Single Family Homes",6/16/2020,,111100,2545,"24419 PINEY HARBOR LN",HOUSTON,TX,77356,"KATY LAKES",,CONTRACTOR,,,,,,,,,,,"GEHAN HOMES",,,,,"GEHAN HOMES","2050 W SAM HOUSTON PKWY S",HOUSTON,TX,77042-2079,"(713) 243-3545",http://www.gehanhomes.com,,,
TX,HARRIS,2006080127,"Single Family Homes",6/16/2020,,92160,2304,"9019 BLUE STAR LN",HOUSTON,TX,77356,"ASHBEL CROSSING",,CONTRACTOR,,,,,,,,,,,"BEAZER HOMES ",,,,,"BEAZER HOMES ","10235 W LITTLE YORK",HOUSTON,TX,77040,"(713) 849-2252",http://www.beazer.com/,,,
TX,HARRIS,2005290149,"Single Family Homes",6/16/2020,,126280,2296,"21243 BUSH BROOK BEND PATH",HOUSTON,TX,77356,"ROSE MEADOW FARMS",,CONTRACTOR,,,,,,,,,,,"RAUSCH COLEMAN HOMES",,,,,"RAUSCH COLEMAN HOMES","9504 N IH35 STE 310","SAN ANTONIO",TX,78233,"(210) 231-0703",https://www.rauschcolemanhomes.com/,,,
TX,HARRIS,2006080140,"Single Family Homes",6/16/2020,,88875,1975,"12766 LANDON LIGHT LN",HOUSTON,TX,77356,FORESTWOOD,,CONTRACTOR,,,,,,,,,,,"DR HORTON",,,,,"DR HORTON","14100 SOUTHWEST",HOUSTON,TX,77478,"(281) 201-5559",,,,
TX,HARRIS,2006080142,"Single Family Homes",6/16/2020,,136305,3029,"12762 LANDON LIGHT LN",HOUSTON,TX,77356,FORESTWOOD,,CONTRACTOR,,,,,,,,,,,"DR HORTON",,,,,"DR HORTON","14100 SOUTHWEST",HOUSTON,TX,77478,"(281) 201-5559",,,,
TX,HARRIS,2006080144,"Single Family Homes",6/16/2020,,96030,2134,"12767 LANDON LIGHT LN",HOUSTON,TX,77356,FORESTWOOD,,CONTRACTOR,,,,,,,,,,,"DR HORTON",,,,,"DR HORTON","14100 SOUTHWEST",HOUSTON,TX,77478,"(281) 201-5559",,,,
TX,HARRIS,2006080147,"Single Family Homes",6/16/2020,,128070,2846,"12763 LANDON LIGHT LN",HOUSTON,TX,77356,FORESTWOOD,,CONTRACTOR,,,,,,,,,,,"DR HORTON",,,,,"DR HORTON","14100 SOUTHWEST",HOUSTON,TX,77478,"(281) 201-5559",,,,
TX,BRAZOS,20-1491,"Single Family Homes",6/2/2020,,242093,1941,"2106 AUTRY LN",BRYAN,TX,77803,SOTELO,2,CONTRACTOR,,,,,,,,,,,"TILSON HOMES",,,,,"TILSON HOMES","411 DURHAM DR STE 209",HOUSTON,TX,77007-7240,"(512) 217-1360",,,,
TX,HARRIS,2006080150,"Single Family Homes",6/16/2020,,130275,2895,"11019 CUNNINGHAM FIR TRL",HOUSTON,TX,77356,"FAIRWAY FARMS",,CONTRACTOR,,,,,,,,,,,"DR HORTON",,,,,"DR HORTON","14100 SOUTHWEST",HOUSTON,TX,77478,"(281) 201-5559",,,,
TX,BRAZOS,20-1501,"Single Family Homes",6/2/2020,,133452,1510,"2018 KATHRYN DR",BRYAN,TX,77807,EDGEWATER,27,CONTRACTOR,,,,,,,,,,,"STYLECRAFT BUILDERS ",,,,,"STYLECRAFT BUILDERS ","4090 STATE HIGHWAY 6 S","COLLEGE STATION",TX,77845-8962,"(979) 764-9900",,"(979) 690-3069","TANNER BREWSTER",tabrewster@stylecraft-builders.com
TX,BRAZOS,20-1478,"Single Family Homes",6/2/2020,,145152,1385,"1910 BASIL CT",BRYAN,TX,77801,"NORTHCREST COTTAGE",6,CONTRACTOR,,,,,,,,,,,"AVONLEY HOMES",,,,,"AVONLEY HOMES","3900 STATE HIGHWAY 6 S STE 110","COLLEGE STATION",TX,77845-5831,"(979) 635-4800",https://www.avonleyhomes.com/,,,info@avonleyhomes.com
TX,HARRIS,2005150075,"Single Family Homes",6/16/2020,,64020,3001,"51 OVERLAND HEATH DR",HOUSTON,TX,77356,,,CONTRACTOR,,,,,,,,,,,"MHI MCGUYER HOMEBUILDERS",,,,,"MHI MCGUYER HOMEBUILDERS","7676 WOODWAY DR",HOUSTON,TX,77063-1526,"(713) 260-4107",,,,
TX,BRAZOS,20-1494,"Single Family Homes",6/2/2020,,169938,1600,"1919 CAMBRIA DR",BRYAN,TX,77807,"BOULDER CREEK",9,CONTRACTOR,,,,,,,,,,,"AVONLEY HOMES",,,,,"AVONLEY HOMES","3900 STATE HIGHWAY 6 S STE 110","COLLEGE STATION",TX,77845-5831,"(979) 635-4800",https://www.avonleyhomes.com/,,,info@avonleyhomes.com
TX,BRAZOS,20-1549,"Single Family Homes",6/3/2020,,177342,1955,"2013 BRISBANE WAY",BRYAN,TX,77803,"PLEASANT HILL",25,CONTRACTOR,,,,,,,,,,,"OMEGA BUILDERS GROUP",,,,,"OMEGA BUILDERS GROUP","7353 W ADAMS AVE",TEMPLE,TX,76502-5539,"(254) 773-9966",,,,
TX,BRAZOS,20-1551,"Single Family Homes",6/3/2020,,164736,1789,"2015 BRISBANE WAY",BRYAN,TX,77803,"PLEASANT HILL",24,CONTRACTOR,,,,,,,,,,,"OMEGA BUILDERS GROUP",,,,,"OMEGA BUILDERS GROUP","7353 W ADAMS AVE",TEMPLE,TX,76502-5539,"(254) 773-9966",,,,
TX,BRAZOS,20-1554,"Single Family Homes",6/3/2020,,241329,2112,"3006 NOBEL CT",BRYAN,TX,77808,"AUSTINS COLONY",47,CONTRACTOR,,,,,,,,,,,"ROBBIE ROBINSON",,,,,"ROBBIE ROBINSON","3800 S H 6 S 104","COLLEGE STATION",TX,77845,"(832) 692-1932",,,,
TX,HARRIS,2000558,"Single Family Homes",6/1/2020,,200000,2711,"4029 BOARDWALK BLVD",SEABROOK,TX,77549,,,CONTRACTOR,,,,,,,,,,,"BAYWAY HOMES",,,,,"BAYWAY HOMES","1414 S FRIENDSWOOD DR",FRIENDSWOOD,TX,77546-4831,"(281) 648-2425",,,,
TX,HARRIS,2000560,"Single Family Homes",6/1/2020,,200000,2711,"4025 BOARDWALK BLVD",SEABROOK,TX,77549,,,CONTRACTOR,,,,,,,,,,,"BAYWAY HOMES",,,,,"BAYWAY HOMES","1414 S FRIENDSWOOD DR",FRIENDSWOOD,TX,77546-4831,"(281) 648-2425",,,,
TX,BRAZOS,20-1556,"Single Family Homes",6/3/2020,,250000,2149,"3058 EMBERS LP",BRYAN,TX,77808,"AUSTINS COLONY",4,CONTRACTOR,,,,,,,,,,,"ROBBIE ROBINSON",,,,,"ROBBIE ROBINSON","3800 S H 6 S 104","COLLEGE STATION",TX,77845,"(832) 692-1932",,,,
TX,BRAZOS,20-1527,"Single Family Homes",6/3/2020,,203055,1339,"1923 THORNDYKE LN",BRYAN,TX,77807,"PLEASANT HILL",31,CONTRACTOR,,,,,,,,,,,"DR HORTON",,,,,"DR HORTON","14100 SOUTHWEST",HOUSTON,TX,77478,"(281) 201-5559",,,,
TX,BRAZOS,20-1517,"Single Family Homes",6/3/2020,,256765,1882,"1916 THORNDYKE LN",BRYAN,TX,77807,"PLEASANT HILL",18,CONTRACTOR,,,,,,,,,,,"DR HORTON",,,,,"DR HORTON","14100 SOUTHWEST",HOUSTON,TX,77478,"(281) 201-5559",,,,
TX,BRAZOS,20-1477,"Single Family Homes",6/4/2020,,490000,3620,"3125 PALMETTO LN",BRYAN,TX,77807,TRADITIONS,14,CONTRACTOR,,,,,,,,,,,"TFT BUILDERS",,,,,"TFT BUILDERS","209 W MUSTANG ST, ",CALDWELL,TX,77836,"(979) 200-4055",,,,
TX,BRAZOS,20-1528,"Single Family Homes",6/4/2020,,104652,1292,"1912 BASIL CT",BRYAN,TX,77801,"NORTHCREST COTTAGE",7,CONTRACTOR,,,,,,,,,,,"AVONLEY HOMES",,,,,"AVONLEY HOMES","3900 STATE HIGHWAY 6 S STE 110","COLLEGE STATION",TX,77845-5831,"(979) 635-4800",https://www.avonleyhomes.com/,,,info@avonleyhomes.com
TX,BRAZOS,20-1558,"Single Family Homes",6/5/2020,,148500,2124,"3213 ARUNDALA WAY",BRYAN,TX,77808,GREENBRIER,26,CONTRACTOR,,,,,,,,,,,"BLACKROCK BUILDERS",,,,,"BLACKROCK BUILDERS","553 N POST OAK LN",HOUSTON,TX,77024-4629,"(281) 914-6785",http://www.blackrockbuilderstx.com/,,,
TX,BRAZOS,20-1576,"Single Family Homes",6/5/2020,,216876,2300,"5117 MAROON CREEK DR",BRYAN,TX,77802,OAKMONT,12,CONTRACTOR,,,,,,,,,,,"RNL HOME BUILDERS",,,,,"RNL HOME BUILDERS","4253 ROCKY RHODES DRIVE","COLLEGE STATION",TX,77845,"(979) 402-2531",http://www.rnlhomebuilders.com,,,RNLHomebuilders@gmail.com
TX,BRAZOS,20-1570,"Single Family Homes",6/5/2020,,200178,2298,"3234 ARUNDALA WAY",BRYAN,TX,77808,GREENBRIER,13,CONTRACTOR,,,,,,,,,,,"RNL HOME BUILDERS",,,,,"RNL HOME BUILDERS","4253 ROCKY RHODES DRIVE","COLLEGE STATION",TX,77845,"(979) 402-2531",http://www.rnlhomebuilders.com,,,RNLHomebuilders@gmail.com
TX,BRAZOS,20-1542,"Single Family Homes",6/5/2020,,168960,2029,"4713 LOS PINES WAY",BRYAN,TX,77807,"ALAMOSA SPRINGS",7,CONTRACTOR,,,,,,,,,,,"LEGEND CLASSIC HOMES",,,,,"LEGEND CLASSIC HOMES","6634 BEESTON HILL DR",KATY,TX,77449-0195,"(281) 463-9950",http://legendhomeshouston.com/,,,
TX,BRAZOS,20-1547,"Single Family Homes",6/5/2020,,179718,2208,"4711 LOS PINES WAY",BRYAN,TX,77807,"ALAMOSA SPRINGS",6,CONTRACTOR,,,,,,,,,,,"LEGEND CLASSIC HOMES",,,,,"LEGEND CLASSIC HOMES","6634 BEESTON HILL DR",KATY,TX,77449-0195,"(281) 463-9950",http://legendhomeshouston.com/,,,
TX,BRAZOS,20-1541,"Single Family Homes",6/5/2020,,170000,2111,"4703 LOS PINES WAY",BRYAN,TX,77807,"ALAMOSA SPRINGS",2,CONTRACTOR,,,,,,,,,,,"LEGEND CLASSIC HOMES",,,,,"LEGEND CLASSIC HOMES","6634 BEESTON HILL DR",KATY,TX,77449-0195,"(281) 463-9950",http://legendhomeshouston.com/,,,
TX,BRAZOS,20-1540,"Single Family Homes",6/5/2020,,167244,2094,"4709 LOS PINES WAY",BRYAN,TX,77807,"ALAMOSA SPRINGS",5,CONTRACTOR,,,,,,,,,,,"LEGEND CLASSIC HOMES",,,,,"LEGEND CLASSIC HOMES","6634 BEESTON HILL DR",KATY,TX,77449-0195,"(281) 463-9950",http://legendhomeshouston.com/,,,
TX,BRAZOS,20-1539,"Single Family Homes",6/5/2020,,134574,1516,"4707 LOS PINES WAY",BRYAN,TX,77807,"ALAMOSA SPRINGS",4,CONTRACTOR,,,,,,,,,,,"LEGEND CLASSIC HOMES",,,,,"LEGEND CLASSIC HOMES","6634 BEESTON HILL DR",KATY,TX,77449-0195,"(281) 463-9950",http://legendhomeshouston.com/,,,
TX,BRAZOS,20-1569,"Single Family Homes",6/5/2020,,176418,1829,"4257 HARDING WAY",BRYAN,TX,77802,OAKMONT,4,CONTRACTOR,,,,,,,,,,,"RNL HOME BUILDERS",,,,,"RNL HOME BUILDERS","4253 ROCKY RHODES DRIVE","COLLEGE STATION",TX,77845,"(979) 402-2531",http://www.rnlhomebuilders.com,,,RNLHomebuilders@gmail.com
TX,BRAZOS,20-1568,"Single Family Homes",6/5/2020,,176418,1829,"4204 ANGELS LANDING CT",BRYAN,TX,77802,OAKMONT,32,CONTRACTOR,,,,,,,,,,,"RNL HOME BUILDERS",,,,,"RNL HOME BUILDERS","4253 ROCKY RHODES DRIVE","COLLEGE STATION",TX,77845,"(979) 402-2531",http://www.rnlhomebuilders.com,,,RNLHomebuilders@gmail.com
TX,BRAZOS,20-1567,"Single Family Homes",6/5/2020,,121968,1443,"3706 MCKENZIE ST",BRYAN,TX,77803,"CONNORS COVE",11,CONTRACTOR,,,,,,,,,,,"STYLECRAFT BUILDERS ",,,,,"STYLECRAFT BUILDERS ","4090 STATE HIGHWAY 6 S","COLLEGE STATION",TX,77845-8962,"(979) 764-9900",,"(979) 690-3069","TANNER BREWSTER",tabrewster@stylecraft-builders.com
TX,BRAZOS,20-1381,"Single Family Homes",6/8/2020,,93918,1067,"3503 STEVENS DR",BRYAN,TX,77808,"WOODVILLE ACRES",2,CONTRACTOR,,,,,,,,,,,"GCT CONSTRUCTION",,,,,"GCT CONSTRUCTION","1219 DEER CROSSING CT",BRYAN,TX,77807-8452,"(979) 492-1624",,,,
TX,BRAZOS,20-1382,"Single Family Homes",6/8/2020,,131076,1067,"3501 STEVENS DR",BRYAN,TX,77808,"WOODVILLE ACRES",2,CONTRACTOR,,,,,,,,,,,"GCT CONSTRUCTION",,,,,"GCT CONSTRUCTION","1219 DEER CROSSING CT",BRYAN,TX,77807-8452,"(979) 492-1624",,,,
TX,BRAZOS,"20-1603 ","Single Family Homes",6/10/2020,,210000,2318,"4234 HARDING WAY",BRYAN,TX,77802,OAKMONT,2,CONTRACTOR,,,,,,,,,,,"HALL HOMES",,,,,"HALL HOMES","PO BOX 12341","COLLEGE STATION",TX,77842-2341,"(979) 551-5259",http://www.hallhomestx.com/,,,rhall@hallhomestx.com
TX,BRAZOS,20-1252,"Single Family Homes",6/10/2020,,225000,1803,"4260 HARDING WAY",BRYAN,TX,77802,OAKMONT,6,CONTRACTOR,,,,,,,,,,,"BLACKSTONE HOMES",,,,,"BLACKSTONE HOMES","2829 TIMMONS LN APT 157",HOUSTON,TX,77027-5357,"(281) 827-8716",,,"ANDREW COLLINS",
TX,BRAZOS,20-1520,"Single Family Homes",6/12/2020,,200760,1339,"1926 THORNDYKE LN",BRYAN,TX,77807,"PLEASANT HILL",23,CONTRACTOR,,,,,,,,,,,"DR HORTON",,,,,"DR HORTON","14100 SOUTHWEST",HOUSTON,TX,77478,"(281) 201-5559",,,,
TX,BRAZOS,20-1606,"Single Family Homes",6/15/2020,,151932,1724,"1926 CAMBRIA DR",BRYAN,TX,77807,"BOULDER CREEK",13,CONTRACTOR,,,,,,,,,,,"RANGER HOME BUILDERS",,,,,"RANGER HOME BUILDERS","547 WILLIAM D FITCH PKWY","COLLEGE STATION",TX,77845-6161,"(979) 255-7526",,,,
TX,BRAZOS,20-1618,"Single Family Homes",6/15/2020,,157146,1781,"1900 CAMBRIA DR",BRYAN,TX,77807,"BOULDER CREEK",1,CONTRACTOR,,,,,,,,,,,"RANGER HOME BUILDERS",,,,,"RANGER HOME BUILDERS","547 WILLIAM D FITCH PKWY","COLLEGE STATION",TX,77845-6161,"(979) 255-7526",,,,
TX,BRAZOS,20-1620,"Single Family Homes",6/15/2020,,175000,1289,"511 KUBIN ST",BRYAN,TX,77803,KUBIN,1,CONTRACTOR,,,,,,,,,,,"CONTRERAS CONSTRUCTION",,,,,"CONTRERAS CONSTRUCTION","708 WILSON ST",BRYAN,TX,77803,"(979) 775-3996",,,,
TX,BRAZOS,20-1507,"Single Family Homes",6/15/2020,,179900,1317,"513 KUBIN ST",BRYAN,TX,77803,KUBIN,1,CONTRACTOR,,,,,,,,,,,"JF CONTRERAS ENTERPRISES",,,,,"JF CONTRERAS ENTERPRISES","2713 THORNBERRY DR",BRYAN,TX,77808,"(979) 412-1357",,,,
TX,BRAZOS,20-1721,"Single Family Homes",6/16/2020,,247500,2401,"3256 ROSE HILL LN",BRYAN,TX,77808,GREENBRIER,4,CONTRACTOR,,,,,,,,,,,"RIDGEWOOD CUSTOM HOMES",,,,,"RIDGEWOOD CUSTOM HOMES","106 PHEASANT RUN CT",SUNSET,TX,76270-2176,"(940) 872-9911",,,,
TX,BRAZOS,20-1660,"Single Family Homes",6/17/2020,,185000,2078,"4238 HARDING WAY",BRYAN,TX,77802,OAKMONT,4,CONTRACTOR,,,,,,,,,,,"HALL HOMES",,,,,"HALL HOMES","PO BOX 12341","COLLEGE STATION",TX,77842-2341,"(979) 551-5259",http://www.hallhomestx.com/,,,rhall@hallhomestx.com
TX,BRAZOS,20-1673,"Single Family Homes",6/18/2020,,174570,2102,"2011 BRISBANE WAY",BRYAN,TX,77803,"PLEASANT HILL",26,CONTRACTOR,,,,,,,,,,,"OMEGA BUILDERS GROUP",,,,,"OMEGA BUILDERS GROUP","7353 W ADAMS AVE",TEMPLE,TX,76502-5539,"(254) 773-9966",,,,
TX,BRAZOS,20-1676,"Single Family Homes",6/18/2020,,160000,1779,"2133 MOUNTAIN WIND LP",BRYAN,TX,77807,"AUTUMN RIDGE",17,CONTRACTOR,,,,,,,,,,,"OAKWOOD CUSTOM HOMES",,,,,"OAKWOOD CUSTOM HOMES","4060 STATE HIGHWAY 6 S ","COLLEGE STATION",TX,77845-8962,"(979) 690-1504",http://oakchb.com/,"(979) 690-2504",,sales@oakchb.com
TX,BRAZOS,20-1657,"Single Family Homes",6/18/2020,,109626,1262,"2007 KATHRYN DR",BRYAN,TX,77807,EDGEWATER,3,CONTRACTOR,,,,,,,,,,,"STYLECRAFT BUILDERS ",,,,,"STYLECRAFT BUILDERS ","4090 STATE HIGHWAY 6 S","COLLEGE STATION",TX,77845-8962,"(979) 764-9900",,"(979) 690-3069","TANNER BREWSTER",tabrewster@stylecraft-builders.com
TX,BRAZOS,20-1761,"Single Family Homes",6/19/2020,,352674,2893,"5031 GREENSTONE WAY",BRYAN,TX,77802,OAKMONT,3,CONTRACTOR,,,,,,,,,,,"REECE HOMES",,,,,"REECE HOMES","1818 TAYLOR",HOUSTON,TX,77545,"(713) 826-7262",http://www.reece-homes.com/,,,
TX,BRAZOS,20-1621,"Single Family Homes",6/19/2020,,739900,3351,"3625 RIVER BIRCH CIR",BRYAN,TX,77807,TRADITIONS,7,CONTRACTOR,,,,,,,,,,,"MURPHY SIGNATURE HOMES",,,,,"MURPHY SIGNATURE HOMES","1580 COPPERFIELD PKWY","COLLEGE STATION",TX,77845-4674,"(979) 703-1979",https://www.murphysignaturehomes.com/,,,
TX,BRAZOS,20-1826,"Single Family Homes",6/23/2020,,183216,2153,"3223 ARUNDALA WAY",BRYAN,TX,77808,GREENBRIER,7,CONTRACTOR,,,,,,,,,,,"RNL HOME BUILDERS",,,,,"RNL HOME BUILDERS","4253 ROCKY RHODES DRIVE","COLLEGE STATION",TX,77845,"(979) 402-2531",http://www.rnlhomebuilders.com,,,RNLHomebuilders@gmail.com
TX,BRAZOS,20-1794,"Single Family Homes",6/23/2020,,174900,1833,"2009 BRISBANE WAY",BRYAN,TX,77803,"PLEASANT HILL",27,CONTRACTOR,,,,,,,,,,,"OMEGA BUILDERS GROUP",,,,,"OMEGA BUILDERS GROUP","7353 W ADAMS AVE",TEMPLE,TX,76502-5539,"(254) 773-9966",,,,
TX,BRAZOS,20-1778,"Single Family Homes",6/25/2020,,122562,1443,"2017 THERESA DR",BRYAN,TX,77807,EDGEWATER,8,CONTRACTOR,,,,,,,,,,,"STYLECRAFT BUILDERS ",,,,,"STYLECRAFT BUILDERS ","4090 STATE HIGHWAY 6 S","COLLEGE STATION",TX,77845-8962,"(979) 764-9900",,"(979) 690-3069","TANNER BREWSTER",tabrewster@stylecraft-builders.com
TX,BRAZOS,20-1801,"Single Family Homes",6/25/2020,,109626,1262,"2023 THERESA DR",BRYAN,TX,77807,EDGEWATER,11,CONTRACTOR,,,,,,,,,,,"STYLECRAFT BUILDERS ",,,,,"STYLECRAFT BUILDERS ","4090 STATE HIGHWAY 6 S","COLLEGE STATION",TX,77845-8962,"(979) 764-9900",,"(979) 690-3069","TANNER BREWSTER",tabrewster@stylecraft-builders.com
TX,BRAZOS,20-1796,"Single Family Homes",6/25/2020,,109626,1262,"2014 KATHRYN DR",BRYAN,TX,77807,EDGEWATER,29,CONTRACTOR,,,,,,,,,,,"STYLECRAFT BUILDERS ",,,,,"STYLECRAFT BUILDERS ","4090 STATE HIGHWAY 6 S","COLLEGE STATION",TX,77845-8962,"(979) 764-9900",,"(979) 690-3069","TANNER BREWSTER",tabrewster@stylecraft-builders.com
TX,BRAZOS,20-1726,"Single Family Homes",6/25/2020,,133386,1510,"2704 WATCHMAN CT",BRYAN,TX,77803,"PORTERS MEADOW",3,CONTRACTOR,,,,,,,,,,,"REVEILLE ROOFING",,,,,"REVEILLE ROOFING","1413 N NOBLE RD","TEXAS CITY",TX,77591,"(979) 224-4727",,,,
TX,BRAZOS,20-1706,"Single Family Homes",6/25/2020,,133386,1510,"2705 REDCAP ST",BRYAN,TX,77803,"PORTERS MEADOW",3,CONTRACTOR,,,,,,,,,,,"STYLECRAFT BUILDERS ",,,,,"STYLECRAFT BUILDERS ","4090 STATE HIGHWAY 6 S","COLLEGE STATION",TX,77845-8962,"(979) 764-9900",,"(979) 690-3069","TANNER BREWSTER",tabrewster@stylecraft-builders.com
TX,BRAZOS,20-1855,"Single Family Homes",6/25/2020,,109626,1262,"2005 KATHRYN DR",BRYAN,TX,77807,EDGEWATER,19,CONTRACTOR,,,,,,,,,,,"STYLECRAFT BUILDERS ",,,,,"STYLECRAFT BUILDERS ","4090 STATE HIGHWAY 6 S","COLLEGE STATION",TX,77845-8962,"(979) 764-9900",,"(979) 690-3069","TANNER BREWSTER",tabrewster@stylecraft-builders.com
TX,BRAZOS,20-1672,"Single Family Homes",6/29/2020,,150000,1629,"2139 MOUNTIAN WIND LP",BRYAN,TX,77807,"AUTUMN LAKE",20,CONTRACTOR,,,,,,,,,,,"OAKWOOD CUSTOM HOMES",,,,,"OAKWOOD CUSTOM HOMES","4060 STATE HIGHWAY 6 S ","COLLEGE STATION",TX,77845-8962,"(979) 690-1504",http://oakchb.com/,"(979) 690-2504",,sales@oakchb.com
TX,BRAZOS,20-1873,"Single Family Homes",6/29/2020,,190674,1800,"1912 MERIDIAN CT",BRYAN,TX,77807,"BOULDER CREEK",18,CONTRACTOR,,,,,,,,,,,"AVONLEY HOMES",,,,,"AVONLEY HOMES","3900 STATE HIGHWAY 6 S STE 110","COLLEGE STATION",TX,77845-5831,"(979) 635-4800",https://www.avonleyhomes.com/,,,info@avonleyhomes.com
TX,BRAZOS,20-1933,"Single Family Homes",6/29/2020,,199320,2587,"2020 KATHRYN DR",BRYAN,TX,77807,EDGEWATER,26,CONTRACTOR,,,,,,,,,,,"STYLECRAFT BUILDERS ",,,,,"STYLECRAFT BUILDERS ","4090 STATE HIGHWAY 6 S","COLLEGE STATION",TX,77845-8962,"(979) 764-9900",,"(979) 690-3069","TANNER BREWSTER",tabrewster@stylecraft-builders.com
TX,BRAZOS,20-1846,"Single Family Homes",6/29/2020,,85000,1187,"1416 SCOTT ST",BRYAN,TX,77803,"REDDEN AND THOMAS",22,CONTRACTOR,,,,,,,,,,,"JULIO LOYA CONSTRUCTION",,,,,"JULIO LOYA CONSTRUCTION","2499 HORSEBACK DR","COLLEGE STATION",TX,77845,"(979) 778-4976",,,,julioloya60@yahoo.com
TX,BRAZOS,20-0781,"Single Family Homes",6/29/2020,,136000,1289,"708 FREEMAN AVE",BRYAN,TX,77803,BOONES,1,CONTRACTOR,,,,,,,,,,,"JOHN MORENO III CONSTRUCTION",,,,,"JOHN MORENO III CONSTRUCTION","6836 RIVERSTONE DR",BRYAN,TX,77808,"(979) 219-3610",,,,
TX,BRAZOS,20-1709,"Single Family Homes",6/30/2020,,253368,2350,"3349 STONINGTON WAY",BRYAN,TX,77808,GREENBRIER,9,CONTRACTOR,,,,,,,,,,,"REECE HOMES",,,,,"REECE HOMES","1818 TAYLOR",HOUSTON,TX,77545,"(713) 826-7262",http://www.reece-homes.com/,,,
TX,MONTGOMERY,BR-19-010391,"Single Family Homes",6/9/2020,,70000,1689,"11720 THOUSAND TRAILS RD",CONROE,TX,77356,,37,CONTRACTOR,,,,,,,,,,,"FIDELIS CONSTRUCTION",,,,,"FIDELIS CONSTRUCTION","11215 COUNTRY SQUIRE LN",MONTGOMERY,TX,77356-5505,"(936) 203-3862",,,,
TX,MONTGOMERY,BR-19-013742,"Single Family Homes",6/19/2020,,171270,3806,"11502 GINGERLAND DR",CONROE,TX,77304,,,CONTRACTOR,,,,,,,,,,,"DR HORTON",,,,,"DR HORTON","14100 SOUTHWEST",HOUSTON,TX,77478,"(281) 201-5559",,,,
TX,MONTGOMERY,BR-19-013745,"Single Family Homes",6/25/2020,,149670,3326,"11510 GINGERLAND DR",CONROE,TX,77304,,,CONTRACTOR,,,,,,,,,,,"DR HORTON",,,,,"DR HORTON","14100 SOUTHWEST",HOUSTON,TX,77478,"(281) 201-5559",,,,
TX,MONTGOMERY,BR-19-013748,"Single Family Homes",6/11/2020,,161145,3581,"5803 BRIMSTONE HILL LN",CONROE,TX,77304,,,CONTRACTOR,,,,,,,,,,,"DR HORTON",,,,,"DR HORTON","14100 SOUTHWEST",HOUSTON,TX,77478,"(281) 201-5559",,,,
TX,MONTGOMERY,BR-19-013752,"Single Family Homes",6/11/2020,,151020,3356,"5807 BRIMSTONE HILL LN",CONROE,TX,77304,,,CONTRACTOR,,,,,,,,,,,"DR HORTON",,,,,"DR HORTON","14100 SOUTHWEST",HOUSTON,TX,77478,"(281) 201-5559",,,,
TX,MONTGOMERY,BR-19-013754,"Single Family Homes",6/25/2020,,129915,2887,"11514 GINGERLAND DR",CONROE,TX,77304,,,CONTRACTOR,,,,,,,,,,,"DR HORTON",,,,,"DR HORTON","14100 SOUTHWEST",HOUSTON,TX,77478,"(281) 201-5559",,,,
TX,MONTGOMERY,BR-19-013762,"Single Family Homes",6/3/2020,,129915,2887,"5815 BRIMSTONE HILL LN",CONROE,TX,77304,,,CONTRACTOR,,,,,,,,,,,"DR HORTON",,,,,"DR HORTON","14100 SOUTHWEST",HOUSTON,TX,77478,"(281) 201-5559",,,,
TX,MONTGOMERY,BR-19-014830,"Single Family Homes",6/19/2020,,138420,3094,"11506 GINGERLAND DR",CONROE,TX,77304,,,CONTRACTOR,,,,,,,,,,,"DR HORTON",,,,,"DR HORTON","14100 SOUTHWEST",HOUSTON,TX,77478,"(281) 201-5559",,,,
TX,MONTGOMERY,BR-19-014847,"Single Family Homes",6/3/2020,,138420,3094,"5811 BRIMSTONE HILL LN",CONROE,TX,77304,,,CONTRACTOR,,,,,,,,,,,"DR HORTON",,,,,"DR HORTON","14100 SOUTHWEST",HOUSTON,TX,77478,"(281) 201-5559",,,,
TX,MONTGOMERY,BR-19-015673,"Single Family Homes",6/5/2020,,160000,4030,"2411 SUNSET MIST LN",CONROE,TX,77304,,,CONTRACTOR,,,,,,,,,,,"DUNHILL HOMES",,,,,"DUNHILL HOMES","2400 AUGUSTA DR",HOUSTON,TX,77057-4922,"(713) 834-5669",http://www.dunhillhomes.com,,,
TX,MONTGOMERY,BR-20-002852,"Single Family Homes",6/4/2020,,190000,3287,"207 CASTLE COMBE CT",CONROE,TX,77304,,,CONTRACTOR,,,,,,,,,,,"WESTIN HOMES",,,,,"WESTIN HOMES","1 SUGAR CREEK CENTER BLVD STE 600","SUGAR LAND",TX,77478-3787,"(281) 240-1551",http://www.westin-homes.com,,,
TX,MONTGOMERY,BR-20-002856,"Single Family Homes",6/4/2020,,190000,3191,"115 WAKE VALLEY CT",CONROE,TX,77304,,,CONTRACTOR,,,,,,,,,,,"WESTIN HOMES",,,,,"WESTIN HOMES","1 SUGAR CREEK CENTER BLVD STE 600","SUGAR LAND",TX,77478-3787,"(281) 240-1551",http://www.westin-homes.com,,,
TX,MONTGOMERY,BR-20-003826,"Single Family Homes",6/3/2020,,164970,3990,"12215 SEAGRAPE LN",CONROE,TX,77304,,,CONTRACTOR,,,,,,,,,,,"DR HORTON",,,,,"DR HORTON","14100 SOUTHWEST",HOUSTON,TX,77478,"(281) 201-5559",,,,
TX,MONTGOMERY,BR-20-004594,"Single Family Homes",6/5/2020,,,4178,"2002 LILY RANCH LN",CONROE,TX,77356,,,CONTRACTOR,,,,,,,,,,,"DUNHILL HOMES",,,,,"DUNHILL HOMES","2400 AUGUSTA DR",HOUSTON,TX,77057-4922,"(713) 834-5669",http://www.dunhillhomes.com,,,
TX,MONTGOMERY,BR-20-004672,"Single Family Homes",6/22/2020,,224390,2533,"4429 LONGLEAF TIMBERS CT",CONROE,TX,77304,,,CONTRACTOR,,,,,,,,,,,"PULTE HOMES",,,,,"PULTE HOMES","16670 PARK ROW",HOUSTON,TX,77084-6866,"(281) 749-8000",,,,
TX,MONTGOMERY,BR-20-004689,"Single Family Homes",6/10/2020,,229470,2858,"4148 HIDDEN TIMBERS LN",CONROE,TX,77304,,,CONTRACTOR,,,,,,,,,,,"PULTE HOMES",,,,,"PULTE HOMES","16670 PARK ROW",HOUSTON,TX,77084-6866,"(281) 749-8000",,,,
TX,MONTGOMERY,BR-20-004692,"Single Family Homes",6/10/2020,,231810,2867,"4178 HIDDEN TIMBERS LN",CONROE,TX,77304,,,CONTRACTOR,,,,,,,,,,,"PULTE HOMES",,,,,"PULTE HOMES","16670 PARK ROW",HOUSTON,TX,77084-6866,"(281) 749-8000",,,,
TX,MONTGOMERY,BR-20-004917,"Single Family Homes",6/4/2020,,85074,1731,"2141 CEDAR WAY DR",CONROE,TX,77304,,,CONTRACTOR,,,,,,,,,,,"COLINA HOMES",,,,,"COLINA HOMES","1314 N DURHAM DR",HOUSTON,TX,77008-3734,"(281) 528-9090",http://colinahomes.com/,,,postmaster@colinahomes.com
TX,MONTGOMERY,BR-20-005082,"Single Family Homes",6/4/2020,,82038,1773,"1926 HIDDEN CEDAR DR  ",CONROE,TX,77304,,,CONTRACTOR,,,,,,,,,,,"COLINA HOMES",,,,,"COLINA HOMES","1314 N DURHAM DR",HOUSTON,TX,77008-3734,"(281) 528-9090",http://colinahomes.com/,,,postmaster@colinahomes.com
TX,MONTGOMERY,BR-20-005089,"Single Family Homes",6/1/2020,,178900,3621,"208 CASTLE COMBE CT",CONROE,TX,77304,,,CONTRACTOR,,,,,,,,,,,"GEHAN HOMES",,,,,"GEHAN HOMES","2050 W SAM HOUSTON PKWY S",HOUSTON,TX,77042-2079,"(713) 243-3545",http://www.gehanhomes.com,,,
TX,MONTGOMERY,BR-20-005102,"Single Family Homes",6/12/2020,,145291,3252,"210 CHERRY FOREST TRL",CONROE,TX,77304,,,CONTRACTOR,,,,,,,,,,,"LONG LAKE HOMES",,,,,"LONG LAKE HOMES","15915 KATY FWY STE 405",HOUSTON,TX,77094-1710,"(281) 646-1727",http://www.longlakeltd.com/,,"DAVID BIGLER",
TX,MONTGOMERY,BR-20-005112,"Single Family Homes",6/12/2020,,163164,3260,"3304 BOXWOOD FOREST CT ",CONROE,TX,77304,,,CONTRACTOR,,,,,,,,,,,"LONG LAKE HOMES",,,,,"LONG LAKE HOMES","15915 KATY FWY STE 405",HOUSTON,TX,77094-1710,"(281) 646-1727",http://www.longlakeltd.com/,,"DAVID BIGLER",
TX,MONTGOMERY,BR-20-005385,"Single Family Homes",6/10/2020,,191000,2994,"1905 HARMON DR",CONROE,TX,77304,,,CONTRACTOR,,,,,,,,,,,"KB HOME",,,,,"KB HOME","11314 RICHMOND AVE",HOUSTON,TX,77082-2616,"(281) 668-3800",,,,
TX,MONTGOMERY,BR-20-005475,"Single Family Homes",6/1/2020,,151246,3220,"150 LILY GREEN CT",CONROE,TX,77304,,,CONTRACTOR,,,,,,,,,,,"DARLING HOMES",,,,,"DARLING HOMES","10255 RICHMOND AVE STE 150",HOUSTON,TX,77042-4382,"(713) 690-6902",http://www.darlinghomes.com/,,,
TX,MONTGOMERY,BR-20-005601,"Single Family Homes",6/10/2020,,138000,2563,"1955 PARNEVIK PL",CONROE,TX,77304,,,CONTRACTOR,,,,,,,,,,,"KB HOME",,,,,"KB HOME","11314 RICHMOND AVE",HOUSTON,TX,77082-2616,"(281) 668-3800",,,,
TX,MONTGOMERY,BR-20-005813,"Single Family Homes",6/4/2020,,216000,4464,"133 N CADENCE HILLS LOOP",CONROE,TX,77304,,,CONTRACTOR,,,,,,,,,,,"WESTIN HOMES",,,,,"WESTIN HOMES","1 SUGAR CREEK CENTER BLVD STE 600","SUGAR LAND",TX,77478-3787,"(281) 240-1551",http://www.westin-homes.com,,,
TX,MONTGOMERY,BR-20-005820,"Single Family Homes",6/4/2020,,259000,4662,"211 PRELUDE PARK TRL",CONROE,TX,77304,,,CONTRACTOR,,,,,,,,,,,"WESTIN HOMES",,,,,"WESTIN HOMES","1 SUGAR CREEK CENTER BLVD STE 600","SUGAR LAND",TX,77478-3787,"(281) 240-1551",http://www.westin-homes.com,,,
TX,MONTGOMERY,BR-20-005824,"Single Family Homes",6/8/2020,,103000,2108,"12349 DELTA TIMBER ROAD",CONROE,TX,75154,,,CONTRACTOR,,,,,,,,,,,"LENNAR HOMES",,,,,"LENNAR HOMES","550 GREENS PKWY",HOUSTON,TX,77067-4537,"(281) 875-1000",http://www.lennar.com/,,,
TX,MONTGOMERY,BR-20-005918,"Single Family Homes",6/3/2020,,340000,3159,"435 FLOWERING LOTUS CT",CONROE,TX,77304,,,CONTRACTOR,,,,,,,,,,,"HIGHLAND HOMES",,,,,"HIGHLAND HOMES","10930 W SAM HOUSTON PKWY N STE 100",HOUSTON,TX,77064-6331,"(281) 517-9800",,,,
TX,MONTGOMERY,BR-20-005926,"Single Family Homes",6/8/2020,,185250,3079,"1409 GRAYSTONE HILLS DR ",CONROE,TX,77304,,,CONTRACTOR,,,,,,,,,,,"LENNAR HOMES",,,,,"LENNAR HOMES","550 GREENS PKWY",HOUSTON,TX,77067-4537,"(281) 875-1000",http://www.lennar.com/,,,
TX,MONTGOMERY,BR-20-006064,"Single Family Homes",6/1/2020,,395490,3617,"415 CALLERY PEAR CT",CONROE,TX,77304,,,CONTRACTOR,,,,,,,,,,,"DAVID WEEKLEY HOMES",,,,,"DAVID WEEKLEY HOMES","14444 NORTHWEST",HOUSTON,TX,77040,"(713) 570-5021",http://www.davidweekleyhomes.com/,,,
TX,MONTGOMERY,BR-20-006073,"Single Family Homes",6/1/2020,,395490,3625,"318 TORREY BLOOM LOOP",CONROE,TX,77304,,,CONTRACTOR,,,,,,,,,,,"DAVID WEEKLEY HOMES",,,,,"DAVID WEEKLEY HOMES","14444 NORTHWEST",HOUSTON,TX,77040,"(713) 570-5021",http://www.davidweekleyhomes.com/,,,
TX,MONTGOMERY,BR-20-006086,"Single Family Homes",6/5/2020,,100000,1894,"1005 PLATTE RIVER DR",CONROE,TX,77304,,,CONTRACTOR,,,,,,,,,,,"VANGUARD BUILDERS",,,,,"VANGUARD BUILDERS","120 KNOLLBROOK CIR",MONTGOMERY,TX,77316-7562,"(281) 220-9087",,,,
TX,MONTGOMERY,BR-20-006096,"Single Family Homes",6/5/2020,,100000,1847,"1007 PLATTE RIVER DR",CONROE,TX,77304,,,CONTRACTOR,,,,,,,,,,,"VANGUARD BUILDERS",,,,,"VANGUARD BUILDERS","120 KNOLLBROOK CIR",MONTGOMERY,TX,77316-7562,"(281) 220-9087",,,,
TX,MONTGOMERY,BR-20-006103,"Single Family Homes",6/5/2020,,100000,1594,"1009 PLATTE RIVER DR",CONROE,TX,77304,,,CONTRACTOR,,,,,,,,,,,"VANGUARD BUILDERS",,,,,"VANGUARD BUILDERS","120 KNOLLBROOK CIR",MONTGOMERY,TX,77316-7562,"(281) 220-9087",,,,
TX,MONTGOMERY,BR-20-006114,"Single Family Homes",6/4/2020,,100000,1847,"1103 W CEDAR RIVER RD",CONROE,TX,77304,,,CONTRACTOR,,,,,,,,,,,"VANGUARD BUILDERS",,,,,"VANGUARD BUILDERS","120 KNOLLBROOK CIR",MONTGOMERY,TX,77316-7562,"(281) 220-9087",,,,
TX,MONTGOMERY,BR-20-006124,"Single Family Homes",6/2/2020,,350000,3764,"222 MARBLE GARDEN LN",CONROE,TX,77304,,,CONTRACTOR,,,,,,,,,,,"JAEGER HOMES ",,,,,"JAEGER HOMES ","13111 CAMERON CREST LN","SUGAR LAND",TX,77498-7417,"(281) 491-5845",,"(281) 242-2083","CHRIS JAEGER",ChrisAJaeger@JaegerHomesInc.com
TX,MONTGOMERY,BR-20-006133,"Single Family Homes",6/10/2020,,245000,4401,"215 PRELUDE PARK TRL",CONROE,TX,77303,,,CONTRACTOR,,,,,,,,,,,"WESTIN HOMES",,,,,"WESTIN HOMES","1 SUGAR CREEK CENTER BLVD STE 600","SUGAR LAND",TX,77478-3787,"(281) 240-1551",http://www.westin-homes.com,,,
TX,MONTGOMERY,BR-20-006136,"Single Family Homes",6/10/2020,,259000,4561,"227 PRELUDE PARK TRL",CONROE,TX,77304,,,CONTRACTOR,,,,,,,,,,,"WESTIN HOMES",,,,,"WESTIN HOMES","1 SUGAR CREEK CENTER BLVD STE 600","SUGAR LAND",TX,77478-3787,"(281) 240-1551",http://www.westin-homes.com,,,
TX,MONTGOMERY,BR-20-006254,"Single Family Homes",6/10/2020,,251000,4493,"303 CALMATO WOODS WAY",CONROE,TX,77304,,,CONTRACTOR,,,,,,,,,,,"WESTIN HOMES",,,,,"WESTIN HOMES","1 SUGAR CREEK CENTER BLVD STE 600","SUGAR LAND",TX,77478-3787,"(281) 240-1551",http://www.westin-homes.com,,,
TX,MONTGOMERY,BR-20-006257,"Single Family Homes",6/10/2020,,245000,4401,"324 CALMATO WOODS WAY",CONROE,TX,77304,,,CONTRACTOR,,,,,,,,,,,"WESTIN HOMES",,,,,"WESTIN HOMES","1 SUGAR CREEK CENTER BLVD STE 600","SUGAR LAND",TX,77478-3787,"(281) 240-1551",http://www.westin-homes.com,,,
TX,MONTGOMERY,BR-20-006320,"Single Family Homes",6/10/2020,,163670,2716,"518 CEDAR HARBOR CT",CONROE,TX,77303,,,CONTRACTOR,,,,,,,,,,,"TRENDMAKER HOMES",,,,,"TRENDMAKER HOMES","16340 PARK TEN PL STE 250",HOUSTON,TX,77084-5144,"(281) 675-3200",,"(281) 675-3251","MARTIN EVANS",
TX,MONTGOMERY,BR-20-006321,"Single Family Homes",6/10/2020,,163670,2546,"534 CEDAR HARBOR CT",CONROE,TX,77303,,,CONTRACTOR,,,,,,,,,,,"TRENDMAKER HOMES",,,,,"TRENDMAKER HOMES","16340 PARK TEN PL STE 250",HOUSTON,TX,77084-5144,"(281) 675-3200",,"(281) 675-3251","MARTIN EVANS",
TX,MONTGOMERY,BR-20-006323,"Single Family Homes",6/5/2020,,520000,4757,"200 JASMINE BLUE CT",CONROE,TX,77304,,,CONTRACTOR,,,,,,,,,,,"HIGHLAND HOMES",,,,,"HIGHLAND HOMES","10930 W SAM HOUSTON PKWY N STE 100",HOUSTON,TX,77064-6331,"(281) 517-9800",,,,
TX,MONTGOMERY,BR-20-006332,"Single Family Homes",6/12/2020,,100000,1846,"1113 W CEDAR RIVER RD",CONROE,TX,77304,,,CONTRACTOR,,,,,,,,,,,"STARTER HOMES OF TEXAS",,,,,"STARTER HOMES OF TEXAS","9803 HIGHWAY 242 STE 200 # 211",CONROE,TX,77385-4369,"(281) 367-4200",,,,
TX,MONTGOMERY,BR-20-006342,"Single Family Homes",6/12/2020,,131942,3149,"240 CUNNINGHAM FIR TRL",CONROE,TX,77303,,,CONTRACTOR,,,,,,,,,,,"DUSTIN RODGERS",,,,,"DUSTIN RODGERS","15915 KATY FAIRWAY STE 405",CONROE,TX,77304-4854,"(281) 830-1579",,,,
TX,MONTGOMERY,BR-20-006349,"Single Family Homes",6/12/2020,,144073,3483,"224 CUNNINGHAM FIR TRL",CONROE,TX,77304,,,CONTRACTOR,,,,,,,,,,,"DUSTIN RODGERS",,,,,"DUSTIN RODGERS","15915 KATY FAIRWAY STE 405",CONROE,TX,77304-4854,"(281) 830-1579",,,,
TX,MONTGOMERY,BR-20-006354,"Single Family Homes",6/12/2020,,100000,2018,"514 SIOUX RIVER RD",CONROE,TX,77304,,,CONTRACTOR,,,,,,,,,,,"STARTER HOMES OF TEXAS",,,,,"STARTER HOMES OF TEXAS","9803 HIGHWAY 242 STE 200 # 211",CONROE,TX,77385-4369,"(281) 367-4200",,,,
TX,MONTGOMERY,BR-20-006356,"Single Family Homes",6/12/2020,,100000,2115,"901 CHICKASAW DR",CONROE,TX,77304,,,CONTRACTOR,,,,,,,,,,,"STARTER HOMES OF TEXAS",,,,,"STARTER HOMES OF TEXAS","9803 HIGHWAY 242 STE 200 # 211",CONROE,TX,77385-4369,"(281) 367-4200",,,,
TX,MONTGOMERY,BR-20-006360,"Single Family Homes",6/12/2020,,100000,2019,"903 CHICKASAW DR",CONROE,TX,77304,,,CONTRACTOR,,,,,,,,,,,"STARTER HOMES OF TEXAS",,,,,"STARTER HOMES OF TEXAS","9803 HIGHWAY 242 STE 200 # 211",CONROE,TX,77385-4369,"(281) 367-4200",,,,
TX,MONTGOMERY,BR-20-006363,"Single Family Homes",6/15/2020,,326000,3159,"456 FLOWERING LOTUS CT",CONROE,TX,77304,,,CONTRACTOR,,,,,,,,,,,"HIGHLAND HOMES",,,,,"HIGHLAND HOMES","10930 W SAM HOUSTON PKWY N STE 100",HOUSTON,TX,77064-6331,"(281) 517-9800",,,,
TX,MONTGOMERY,BR-20-006368,"Single Family Homes",6/17/2020,,126035,1939,"8973 OVAL GLASS ST",CONROE,TX,77304,,,CONTRACTOR,,,,,,,,,,,"LGI HOMES",,,,,"LGI HOMES","1450 LAKE ROBBINS SUITE 430",CONROE,TX,77380,"(210) 563-4648",,"(281) 210-2601",,
TX,MONTGOMERY,BR-20-006381,"Single Family Homes",6/17/2020,,141895,2183,"8969 OVAL GLASS ST",CONROE,TX,77303,,,CONTRACTOR,,,,,,,,,,,"LGI HOMES",,,,,"LGI HOMES","1450 LAKE ROBBINS SUITE 430",CONROE,TX,77380,"(210) 563-4648",,"(281) 210-2601",,
TX,MONTGOMERY,BR-20-006384,"Single Family Homes",6/17/2020,,140075,2155,"8965 OVAL GLASS ST",CONROE,TX,77304,,,CONTRACTOR,,,,,,,,,,,"LGI HOMES",,,,,"LGI HOMES","1450 LAKE ROBBINS SUITE 430",CONROE,TX,77380,"(210) 563-4648",,"(281) 210-2601",,
TX,MONTGOMERY,BR-20-006387,"Single Family Homes",6/17/2020,,171405,2637,"8961 OVAL GLASS ST",CONROE,TX,77304,,,CONTRACTOR,,,,,,,,,,,"LGI HOMES",,,,,"LGI HOMES","1450 LAKE ROBBINS SUITE 430",CONROE,TX,77380,"(210) 563-4648",,"(281) 210-2601",,
TX,MONTGOMERY,BR-20-006390,"Single Family Homes",6/18/2020,,140075,2155,"8953 OVAL GLASS ST",CONROE,TX,77304,,,CONTRACTOR,,,,,,,,,,,"LGI HOMES",,,,,"LGI HOMES","1450 LAKE ROBBINS SUITE 430",CONROE,TX,77380,"(210) 563-4648",,"(281) 210-2601",,
TX,MONTGOMERY,BR-20-006394,"Single Family Homes",6/17/2020,,141895,2183,"8957 OVAL GLASS ST",CONROE,TX,77304,,,CONTRACTOR,,,,,,,,,,,"LGI HOMES",,,,,"LGI HOMES","1450 LAKE ROBBINS SUITE 430",CONROE,TX,77380,"(210) 563-4648",,"(281) 210-2601",,
TX,MONTGOMERY,BR-20-006398,"Single Family Homes",6/17/2020,,171405,2637,"8949 OVAL GLASS ST",CONROE,TX,77303,,,CONTRACTOR,,,,,,,,,,,"LGI HOMES",,,,,"LGI HOMES","1450 LAKE ROBBINS SUITE 430",CONROE,TX,77380,"(210) 563-4648",,"(281) 210-2601",,
TX,MONTGOMERY,BR-20-006472,"Single Family Homes",6/17/2020,,183040,2816,"8941 OVAL GLASS ST",CONROE,TX,77303,,,CONTRACTOR,,,,,,,,,,,"LGI HOMES",,,,,"LGI HOMES","1450 LAKE ROBBINS SUITE 430",CONROE,TX,77380,"(210) 563-4648",,"(281) 210-2601",,
TX,MONTGOMERY,BR-20-006500,"Single Family Homes",6/5/2020,,107550,2390,"15008 MONSERRAT CT",CONROE,TX,77303,,,CONTRACTOR,,,,,,,,,,,"DR HORTON",,,,,"DR HORTON","14100 SOUTHWEST",HOUSTON,TX,77478,"(281) 201-5559",,,,
TX,MONTGOMERY,BR-20-006502,"Single Family Homes",6/5/2020,,112545,2501,"15012 MONSERRAT CT",CONROE,TX,77303,,,CONTRACTOR,,,,,,,,,,,"DR HORTON",,,,,"DR HORTON","14100 SOUTHWEST",HOUSTON,TX,77478,"(281) 201-5559",,,,
TX,MONTGOMERY,BR-20-006504,"Single Family Homes",6/5/2020,,132885,2970,"15020 MONSERRAT CT",CONROE,TX,77304,,,CONTRACTOR,,,,,,,,,,,"DR HORTON",,,,,"DR HORTON","14100 SOUTHWEST",HOUSTON,TX,77478,"(281) 201-5559",,,,
TX,MONTGOMERY,BR-20-006506,"Single Family Homes",6/5/2020,,121455,2699,"15016 MONSERRAT CT",CONROE,TX,77304,,,CONTRACTOR,,,,,,,,,,,"DR HORTON",,,,,"DR HORTON","14100 SOUTHWEST",HOUSTON,TX,77478,"(281) 201-5559",,,,
TX,MONTGOMERY,BR-20-006508,"Single Family Homes",6/5/2020,,125640,2757,"15024 MONSERRAT CT",CONROE,TX,77304,,,CONTRACTOR,,,,,,,,,,,"DR HORTON",,,,,"DR HORTON","14100 SOUTHWEST",HOUSTON,TX,77478,"(281) 201-5559",,,,
TX,MONTGOMERY,BR-20-006510,"Single Family Homes",6/17/2020,,183040,2816,"9017 OVAL GLASS ST",CONROE,TX,77304,,,CONTRACTOR,,,,,,,,,,,"LGI HOMES",,,,,"LGI HOMES","1450 LAKE ROBBINS SUITE 430",CONROE,TX,77380,"(210) 563-4648",,"(281) 210-2601",,
TX,MONTGOMERY,BR-20-006532,"Single Family Homes",6/4/2020,,333990,3450,"331 SKYLINE RIDGE DR",CONROE,TX,77304,,,CONTRACTOR,,,,,,,,,,,"DAVID WEEKLEY HOMES",,,,,"DAVID WEEKLEY HOMES","14444 NORTHWEST",HOUSTON,TX,77040,"(713) 570-5021",http://www.davidweekleyhomes.com/,,,
TX,MONTGOMERY,BR-20-006567,"Single Family Homes",6/25/2020,,151601,2185,"2654 HOFFMAN LN",CONROE,TX,77303,,,CONTRACTOR,,,,,,,,,,,"LEGEND HOME CORPORATION",,,,,"LEGEND HOME CORPORATION","10410 WINDEMERE LAKES BLVD",HOUSTON,TX,77065,"(281) 671-9000",,,,
TX,MONTGOMERY,BR-20-006627,"Single Family Homes",6/8/2020,,135990,2876,"12353 DELTA TIMBER RD",CONROE,TX,77304,,,CONTRACTOR,,,,,,,,,,,"LENNAR HOMES",,,,,"LENNAR HOMES","550 GREENS PKWY",HOUSTON,TX,77067-4537,"(281) 875-1000",http://www.lennar.com/,,,
TX,MONTGOMERY,BR-20-006638,"Single Family Homes",6/12/2020,,360990,3788,"211 TWILIGHT TOAST DR",CONROE,TX,77304,,,CONTRACTOR,,,,,,,,,,,"MHI MCGUYER HOMEBUILDERS",,,,,"MHI MCGUYER HOMEBUILDERS","7676 WOODWAY DR",HOUSTON,TX,77063-1526,"(713) 260-4107",,,,
TX,MONTGOMERY,BR-20-006647,"Single Family Homes",6/12/2020,,354990,4080,"215 TWILIGHT TOAST DR",CONROE,TX,77304,,,CONTRACTOR,,,,,,,,,,,"MHI MCGUYER HOMEBUILDERS",,,,,"MHI MCGUYER HOMEBUILDERS","7676 WOODWAY DR",HOUSTON,TX,77063-1526,"(713) 260-4107",,,,
TX,MONTGOMERY,BR-20-006683,"Single Family Homes",6/25/2020,,150139,2135,"2529 AUSTIN HILLS CT",CONROE,TX,77304,,,CONTRACTOR,,,,,,,,,,,"LEGEND HOME CORPORATION",,,,,"LEGEND HOME CORPORATION","10410 WINDEMERE LAKES BLVD",HOUSTON,TX,77065,"(281) 671-9000",,,,
TX,MONTGOMERY,BR-20-006689,"Single Family Homes",6/25/2020,,172986,3086,"2525 AUSTIN HILLS CT",CONROE,TX,77303,,,CONTRACTOR,,,,,,,,,,,"LEGEND HOME CORPORATION",,,,,"LEGEND HOME CORPORATION","10410 WINDEMERE LAKES BLVD",HOUSTON,TX,77065,"(281) 671-9000",,,,
TX,MONTGOMERY,BR-20-006692,"Single Family Homes",6/18/2020,,151989,2807,"2603 HOFFMAN LN",CONROE,TX,77303,,,CONTRACTOR,,,,,,,,,,,"LEGEND HOME CORPORATION",,,,,"LEGEND HOME CORPORATION","10410 WINDEMERE LAKES BLVD",HOUSTON,TX,77065,"(281) 671-9000",,,,
TX,MONTGOMERY,BR-20-006695,"Single Family Homes",6/18/2020,,151601,2185,"2607 HOFFMAN LN",CONROE,TX,77304,,,CONTRACTOR,,,,,,,,,,,"LEGEND HOME CORPORATION",,,,,"LEGEND HOME CORPORATION","10410 WINDEMERE LAKES BLVD",HOUSTON,TX,77065,"(281) 671-9000",,,,
TX,MONTGOMERY,BR-20-006700,"Single Family Homes",6/18/2020,,165176,2606,"2611 HOFFMAN LN",CONROE,TX,77304,,,CONTRACTOR,,,,,,,,,,,"LEGEND HOME CORPORATION",,,,,"LEGEND HOME CORPORATION","10410 WINDEMERE LAKES BLVD",HOUSTON,TX,77065,"(281) 671-9000",,,,
TX,MONTGOMERY,BR-20-006703,"Single Family Homes",6/18/2020,,161267,2581,"2627 HOFFMAN LN",CONROE,TX,77304,,,CONTRACTOR,,,,,,,,,,,"LEGEND HOME CORPORATION",,,,,"LEGEND HOME CORPORATION","10410 WINDEMERE LAKES BLVD",HOUSTON,TX,77065,"(281) 671-9000",,,,
TX,MONTGOMERY,BR-20-006708,"Single Family Homes",6/18/2020,,172302,3118,"2650 HOFFMAN LN   ",CONROE,TX,77304,,,CONTRACTOR,,,,,,,,,,,"LEGEND HOME CORPORATION",,,,,"LEGEND HOME CORPORATION","10410 WINDEMERE LAKES BLVD",HOUSTON,TX,77065,"(281) 671-9000",,,,
TX,MONTGOMERY,BR-20-006715,"Single Family Homes",6/18/2020,,143488,1871,"2658 HOFFMAN LN   ",CONROE,TX,77304,,,CONTRACTOR,,,,,,,,,,,"LEGEND HOME CORPORATION",,,,,"LEGEND HOME CORPORATION","10410 WINDEMERE LAKES BLVD",HOUSTON,TX,77065,"(281) 671-9000",,,,
TX,MONTGOMERY,BR-20-006718,"Single Family Homes",6/25/2020,,164801,2687,"2662 HOFFMAN LN",CONROE,TX,77304,,,CONTRACTOR,,,,,,,,,,,"LEGEND HOME CORPORATION",,,,,"LEGEND HOME CORPORATION","10410 WINDEMERE LAKES BLVD",HOUSTON,TX,77065,"(281) 671-9000",,,,
TX,MONTGOMERY,BR-20-006721,"Single Family Homes",6/18/2020,,143176,1892,"2666 HOFFMAN LN",CONROE,TX,77303,,,CONTRACTOR,,,,,,,,,,,"LEGEND HOME CORPORATION",,,,,"LEGEND HOME CORPORATION","10410 WINDEMERE LAKES BLVD",HOUSTON,TX,77065,"(281) 671-9000",,,,
TX,MONTGOMERY,BR-20-006725,"Single Family Homes",6/18/2020,,143381,1892,"4262 MCGREGOR BLUFF LN",CONROE,TX,77303,,,CONTRACTOR,,,,,,,,,,,"LEGEND HOME CORPORATION",,,,,"LEGEND HOME CORPORATION","10410 WINDEMERE LAKES BLVD",HOUSTON,TX,77065,"(281) 671-9000",,,,
TX,MONTGOMERY,BR-20-006733,"Single Family Homes",6/17/2020,,182000,3089,"108 SILVA CREEK TRL",CONROE,TX,77303,,,CONTRACTOR,,,,,,,,,,,"GRAND VIEW BUILDERS",,,,,"GRAND VIEW BUILDERS","525 N SAM HOUSTON PKWY E STE 600",HOUSTON,TX,77060-4015,"(281) 741-8946",http://www.gvbtx.com/,,,
TX,MONTGOMERY,BR-20-006746,"Single Family Homes",6/23/2020,,221000,3585,"104 SILVA CREEK TRL",CONROE,TX,77303,,,CONTRACTOR,,,,,,,,,,,"GRAND VIEW BUILDERS",,,,,"GRAND VIEW BUILDERS","525 N SAM HOUSTON PKWY E STE 600",HOUSTON,TX,77060-4015,"(281) 741-8946",http://www.gvbtx.com/,,,
TX,MONTGOMERY,BR-20-006752,"Single Family Homes",6/23/2020,,200000,3995,"4846 WEST FORK BLVD",CONROE,TX,77303,,,CONTRACTOR,,,,,,,,,,,"MZA CONTRACTOR",,,,,"MZA CONTRACTOR","33703 WINDCREST ESTATES BLVD",MAGNOLIA,TX,77354,"(832) 286-2116",,,,
TX,MONTGOMERY,BR-20-006834,"Single Family Homes",6/16/2020,,121455,2699,"15004 MONSERRAT CT ",CONROE,TX,77303,,,CONTRACTOR,,,,,,,,,,,"DR HORTON",,,,,"DR HORTON","14100 SOUTHWEST",HOUSTON,TX,77478,"(281) 201-5559",,,,
TX,MONTGOMERY,BR-20-006839,"Single Family Homes",6/19/2020,,132885,3186,"11523 PARROT FISH CT  ",CONROE,TX,77303,,,CONTRACTOR,,,,,,,,,,,"DR HORTON",,,,,"DR HORTON","14100 SOUTHWEST",HOUSTON,TX,77478,"(281) 201-5559",,,,
TX,MONTGOMERY,BR-20-006842,"Single Family Homes",6/30/2020,,112545,1989,"11519 PARROT FISH CT",CONROE,TX,77303,,,CONTRACTOR,,,,,,,,,,,"DR HORTON",,,,,"DR HORTON","14100 SOUTHWEST",HOUSTON,TX,77478,"(281) 201-5559",,,,
TX,MONTGOMERY,BR-20-006844,"Single Family Homes",6/16/2020,,121455,2915,"11515 PARROT FISH CT",CONROE,TX,77303,,,CONTRACTOR,,,,,,,,,,,"DR HORTON",,,,,"DR HORTON","14100 SOUTHWEST",HOUSTON,TX,77478,"(281) 201-5559",,,,
TX,MONTGOMERY,BR-20-006846,"Single Family Homes",6/12/2020,,112545,2501,"11511 PARROT FISH CT",CONROE,TX,77303,,,CONTRACTOR,,,,,,,,,,,"DR HORTON",,,,,"DR HORTON","14100 SOUTHWEST",HOUSTON,TX,77478,"(281) 201-5559",,,,
TX,MONTGOMERY,BR-20-006849,"Single Family Homes",6/12/2020,,107550,2388,"11507 PARROT FISH CT",CONROE,TX,77303,,,CONTRACTOR,,,,,,,,,,,"DR HORTON",,,,,"DR HORTON","14100 SOUTHWEST",HOUSTON,TX,77478,"(281) 201-5559",,,,
TX,MONTGOMERY,BR-20-006852,"Single Family Homes",6/12/2020,,122535,2939,"11503 PARROT FISH CT",CONROE,TX,77304,,,CONTRACTOR,,,,,,,,,,,"DR HORTON",,,,,"DR HORTON","14100 SOUTHWEST",HOUSTON,TX,77478,"(281) 201-5559",,,,
TX,MONTGOMERY,BR-20-006865,"Single Family Homes",6/15/2020,,320000,3128,"439 FLOWERING LOTUS CT",CONROE,TX,77303,,,CONTRACTOR,,,,,,,,,,,"HIGHLAND HOMES",,,,,"HIGHLAND HOMES","10930 W SAM HOUSTON PKWY N STE 100",HOUSTON,TX,77064-6331,"(281) 517-9800",,,,
TX,MONTGOMERY,BR-20-006873,"Single Family Homes",6/12/2020,,142921,2548,"316 LAVATERA SUNSET TRL   ",CONROE,TX,77356,,,CONTRACTOR,,,,,,,,,,,"CHESMAR HOMES",,,,,"CHESMAR HOMES","450 GEARS RD STE 400",HOUSTON,TX,77067-4513,"(281) 598-1111",http://chesmar.com,"(281) 598-1115",,customerservice.houston@chesmar.com
TX,MONTGOMERY,BR-20-007037,"Single Family Homes",6/30/2020,,150000,2388,"1921 HARMON DR",CONROE,TX,77304,,,CONTRACTOR,,,,,,,,,,,"KB HOME",,,,,"KB HOME","11314 RICHMOND AVE",HOUSTON,TX,77082-2616,"(281) 668-3800",,,,
TX,MONTGOMERY,BR-20-007042,"Single Family Homes",6/25/2020,,162069,3346,"242 CHERRY FOREST TRL",CONROE,TX,77304,,,CONTRACTOR,,,,,,,,,,,"LONG LAKE HOMES",,,,,"LONG LAKE HOMES","15915 KATY FWY STE 405",HOUSTON,TX,77094-1710,"(281) 646-1727",http://www.longlakeltd.com/,,"DAVID BIGLER",
TX,MONTGOMERY,BR-20-007063,"Single Family Homes",6/25/2020,,136193,3241,"2816 BEECH RIVER CT",CONROE,TX,77304,,,CONTRACTOR,,,,,,,,,,,"LONG LAKE HOMES",,,,,"LONG LAKE HOMES","15915 KATY FWY STE 405",HOUSTON,TX,77094-1710,"(281) 646-1727",http://www.longlakeltd.com/,,"DAVID BIGLER",
TX,MONTGOMERY,BR-20-007066,"Single Family Homes",6/22/2020,,320875,3776,"304 ASTONIA CT",CONROE,TX,77304,,,CONTRACTOR,,,,,,,,,,,"DREES CUSTOM HOMES",,,,,"DREES CUSTOM HOMES","9720 CYPRESSWOOD DR",HOUSTON,TX,77070-3355,"(281) 653-8850",http://www.dreeshomes.com,,,
TX,MONTGOMERY,BR-20-007069,"Single Family Homes",6/30/2020,,252990,2321,"547 CHESTNUT REEF CT",CONROE,TX,77303,,,CONTRACTOR,,,,,,,,,,,"MHI MCGUYER HOMEBUILDERS",,,,,"MHI MCGUYER HOMEBUILDERS","7676 WOODWAY DR",HOUSTON,TX,77063-1526,"(713) 260-4107",,,,
TX,MONTGOMERY,BR-20-007072,"Single Family Homes",6/22/2020,,312970,3682,"204 BEE BALM CT",CONROE,TX,77304,,,CONTRACTOR,,,,,,,,,,,"DREES CUSTOM HOMES",,,,,"DREES CUSTOM HOMES","9720 CYPRESSWOOD DR",HOUSTON,TX,77070-3355,"(281) 653-8850",http://www.dreeshomes.com,,,
TX,MONTGOMERY,BR-20-007125,"Single Family Homes",6/17/2020,,169000,3153,"3035 STONEBRIAR CT  ",CONROE,TX,77303,,,CONTRACTOR,,,,,,,,,,,"LENNAR HOMES",,,,,"LENNAR HOMES","550 GREENS PKWY",HOUSTON,TX,77067-4537,"(281) 875-1000",http://www.lennar.com/,,,
TX,MONTGOMERY,BR-20-007401,"Single Family Homes",6/30/2020,,824950,5755,"2103 COACH ST",CONROE,TX,77303,,,CONTRACTOR,,,,,,,,,,,"PARTNERS IN BUILDING",,,,,"PARTNERS IN BUILDING","2901 W SAM HOUSTON PKWY N STE C250",HOUSTON,TX,77043-1624,"(713) 937-1121",http://www.partnersinbuilding.com,"(713) 937-1145",,
TX,MONTGOMERY,BR-20-007444,"Single Family Homes",6/29/2020,,140000,3599,"3677 PIN OAK DR",CONROE,TX,77303,,,CONTRACTOR,,,,,,,,,,,"ULISES DIAZ",,,,,"ULISES DIAZ","3681 PIN OAK DR",CONROE,TX,77301,"(832) 335-3524",,,,
TX,GALVESTON,2020-1190,"Single Family Homes",5/14/2020,,1200000,,"1003 COWARDS CREEK CT",FRIENDSWOOD,TX,77546,,,CONTRACTOR,,,,,,,,,,,"SAMSON CUSTOM HOMES",,,,,"SAMSON CUSTOM HOMES","17130 TOWNES RD STE D",FRIENDSWOOD,TX,77546-4175,"(281) 992-2262",http://samsoncustomhomes.com/,"(281) 992-7974",,
TX,GALVESTON,2020-1229,"Single Family Homes",5/27/2020,,2475000,,"1009 MELODY LN",FRIENDSWOOD,TX,77546,,,CONTRACTOR,,,,,,,,,,,"MYSTIQUE HOMES",,,,,"MYSTIQUE HOMES","226 QUAIL RIDGE LN",DICKINSON,TX,77539-8308,"(832) 279-9540",,,,
TX,GALVESTON,2020-1284,"Single Family Homes",5/11/2020,,375000,,"1725 AVERY LN",FRIENDSWOOD,TX,77546,,,CONTRACTOR,,,,,,,,,,,"STERLING BUILDERS",,,,,"STERLING BUILDERS","1506 WINDING WAY DR STE 301",FRIENDSWOOD,TX,77546-5391,"(281) 482-3034",http://sterling-builders.com/,"(281) 996-8087",,
TX,GALVESTON,2020-1292,"Single Family Homes",5/12/2020,,245875,,"3617 QUEENSBURG LN",FRIENDSWOOD,TX,77546,,,CONTRACTOR,,,,,,,,,,,"TRE CONCRETE",,,,,"TRE CONCRETE","7706 FM 646 RD S","SANTA FE",TX,77510-7519,"(713) 304-6341",http://host.trustab.org/treconcrete,"(409) 316-9672","SERGIO TREJO",
TX,GALVESTON,2020-1318,"Single Family Homes",5/29/2020,,179683,,"2604 FRIENDSHIP LN",FRIENDSWOOD,TX,77546,,,CONTRACTOR,,,,,,,,,,,"DR HORTON",,,,,"DR HORTON","14100 SOUTHWEST",HOUSTON,TX,77478,"(281) 201-5559",,,,
TX,GALVESTON,2020-1319,"Single Family Homes",5/29/2020,,165851,,"2548 RAVENNA CT",FRIENDSWOOD,TX,77546,,,CONTRACTOR,,,,,,,,,,,"DR HORTON",,,,,"DR HORTON","14100 SOUTHWEST",HOUSTON,TX,77478,"(281) 201-5559",,,,
TX,GALVESTON,2020-1320,"Single Family Homes",5/29/2020,,179683,,"1515 HARVEST VINE CT",FRIENDSWOOD,TX,77546,,,CONTRACTOR,,,,,,,,,,,"DR HORTON",,,,,"DR HORTON","14100 SOUTHWEST",HOUSTON,TX,77478,"(281) 201-5559",,,,
TX,GALVESTON,2020-1506,"Single Family Homes",5/27/2020,,325000,,"1914 SANTA MARIA DR",FRIENDSWOOD,TX,77546,,,CONTRACTOR,,,,,,,,,,,"STERLING BUILDERS",,,,,"STERLING BUILDERS","1506 WINDING WAY DR STE 301",FRIENDSWOOD,TX,77546-5391,"(281) 482-3034",http://sterling-builders.com/,"(281) 996-8087",,
TX,HARRIS,2000680,"Single Family Homes",6/26/2020,,70000,1440,"5710 NEAL DR",SEABROOK,TX,77586,,,CONTRACTOR,,,,,,,,,,,"GUTHRIE BUILDINGS",,,,,"GUTHRIE BUILDINGS","5425 FM 2920",HOUSTON,TX,77388,"(281) 353-0200",http://www.guthriebuildings.com/,"(281) 353-0230",,guthrie-buildings@guthriebuildings.com
TX,GALVESTON,122.2,"Single Family Homes",6/2/2020,,150000,,"815 GROVE","CLEAR LAKE SHORES",TX,77565,,,CONTRACTOR,,,,,,,,,,,"DSW HOMES",,,,,"DSW HOMES","12607 N",HOUSTON,TX,77034,"(832) 385-0069",http://www.dswhomes.com/,,,
TX,GALVESTON,2020-00359,"Single Family Homes",6/1/2020,,400000,,"12618 W BUENA VISTA DR",GALVESTON,TX,77450,,,CONTRACTOR,,,,,,,,,,,"SANDCASTLE CONSTRUCTION",,,,,"SANDCASTLE CONSTRUCTION","7103 SPANISH GRANT",GALVESTON,TX,77554-7750,"(409) 457-4208",,,,ronniehansen@comcast.net
TX,GALVESTON,2020-00227,"Single Family Homes",6/23/2020,,50000,,"1823 AVE K",GALVESTON,TX,77450,,,CONTRACTOR,,,,,,,,,,,"CONSULTING DEVELOPMENT & CONSTRUCTION",,,,,"CONSULTING DEVELOPMENT & CONSTRUCTION","104 MOODY, SUITE 102",GALVESTON,TX,77550,"(409) 761-1558",http://cdctx-gc.com/,,,joe@cdctx.com
TX,GALVESTON,2020-00599,"Single Family Homes",6/26/2020,,780000,,"3416 TREASURE CIRCLE",GALVESTON,TX,77450,,,CONTRACTOR,,,,,,,,,,,"EGRET BAY BUILDERS ",,,,,"EGRET BAY BUILDERS ","23 CAMPECHE DR",GALVESTON,TX,77554-9359,"(409) 256-9080",http://egretbaybuilders.com/,"(281) 534-2428","DANA LEE",info@egretbaybuilders.com
TX,GALVESTON,2020-00615,"Single Family Homes",6/29/2020,,47000,,"1109 BAYOU SHORE DR",GALVESTON,TX,77450,,,CONTRACTOR,,,,,,,,,,,"J&L REMODELING & PAINTING",,,,,"J&L REMODELING & PAINTING","827 HOLLY ST",LAMARQUE,TX,77568,"(409) 256-6875",,,,
TX,MONTGOMERY,173013-20,"Single Family Homes",6/11/2020,,313380,,"150 VINE MINT DR",HOUSTON,TX,77356,WOODFOREST,,CONTRACTOR,,,,,,,,,,,"HIGHLAND HOMES",,,,,"HIGHLAND HOMES","10930 W SAM HOUSTON PKWY N STE 100",HOUSTON,TX,77064-6331,"(281) 517-9800",,,,
TX,MONTGOMERY,173015-20,"Single Family Homes",6/11/2020,,550000,,"108 CASTERLY GREEN COURT",HOUSTON,TX,77356,"NOBLE GREENS AT WOODFOREST",,CONTRACTOR,,,,,,,,,,,"HIGHLAND HOMES",,,,,"HIGHLAND HOMES","10930 W SAM HOUSTON PKWY N STE 100",HOUSTON,TX,77064-6331,"(281) 517-9800",,,,
TX,MONTGOMERY,173016-20,"Single Family Homes",6/11/2020,,308680,,"169 EMORY BIRCH DR",HOUSTON,TX,77356,WOODFOREST,,CONTRACTOR,,,,,,,,,,,"HIGHLAND HOMES",,,,,"HIGHLAND HOMES","10930 W SAM HOUSTON PKWY N STE 100",HOUSTON,TX,77064-6331,"(281) 517-9800",,,,
TX,MONTGOMERY,173017-20,"Single Family Homes",6/11/2020,,550000,,"204 SOUTH EMPRESS GREEN PLACE",HOUSTON,TX,77356,"NOBLE GREENS AT WOODFOREST",,CONTRACTOR,,,,,,,,,,,"HIGHLAND HOMES",,,,,"HIGHLAND HOMES","10930 W SAM HOUSTON PKWY N STE 100",HOUSTON,TX,77064-6331,"(281) 517-9800",,,,
TX,MONTGOMERY,173019-20,"Single Family Homes",6/11/2020,,600000,,"315 SOUTH OPULENT DR",HOUSTON,TX,77356,"NOBLE GREENS AT WOODFOREST",,CONTRACTOR,,,,,,,,,,,"HIGHLAND HOMES",,,,,"HIGHLAND HOMES","10930 W SAM HOUSTON PKWY N STE 100",HOUSTON,TX,77064-6331,"(281) 517-9800",,,,
TX,MONTGOMERY,173059-20,"Single Family Homes",6/12/2020,,299817,,"17406 ORCHID FALLS LN",HOUSTON,TX,77356,ARTAVIA,,CONTRACTOR,,,,,,,,,,,"J PATRICK HOMES",,,,,"J PATRICK HOMES","9700 RICHMOND AVE STE 162",HOUSTON,TX,77042-4698,"(713) 789-8004",,,,
TX,MONTGOMERY,173036-20,"Single Family Homes",6/11/2020,,133140,,"11012 ONDREA LN",HOUSTON,TX,77356,"CLEAR VIEW ESTATES",,CONTRACTOR,,,,,,,,,,,"KENDALL HOMES",,,,,"KENDALL HOMES","427 MASON PARK BLVD",KATY,TX,77450-6187,"(281) 398-4010",http://www.kendallhomes.net/,"(281) 398-4011",,
TX,MONTGOMERY,173038-20,"Single Family Homes",6/11/2020,,130800,,"11016 ONDREA LN",HOUSTON,TX,77356,"CLEAR VIEW ESTATES",,CONTRACTOR,,,,,,,,,,,"KENDALL HOMES",,,,,"KENDALL HOMES","427 MASON PARK BLVD",KATY,TX,77450-6187,"(281) 398-4010",http://www.kendallhomes.net/,"(281) 398-4011",,
TX,MONTGOMERY,173039-20,"Single Family Homes",6/11/2020,,181680,,"11020 ONDREA LN",HOUSTON,TX,77356,"CLEAR VIEW ESTATES",,CONTRACTOR,,,,,,,,,,,"KENDALL HOMES",,,,,"KENDALL HOMES","427 MASON PARK BLVD",KATY,TX,77450-6187,"(281) 398-4010",http://www.kendallhomes.net/,"(281) 398-4011",,
TX,MONTGOMERY,173040-20,"Single Family Homes",6/11/2020,,169860,,"11009 ONDREA LN",HOUSTON,TX,77356,"CLEAR VIEW ESTATES",,CONTRACTOR,,,,,,,,,,,"KENDALL HOMES",,,,,"KENDALL HOMES","427 MASON PARK BLVD",KATY,TX,77450-6187,"(281) 398-4010",http://www.kendallhomes.net/,"(281) 398-4011",,
TX,MONTGOMERY,173041-20,"Single Family Homes",6/11/2020,,133140,,"11017 ONDREA LN",HOUSTON,TX,77356,"CLEAR VIEW ESTATES",,CONTRACTOR,,,,,,,,,,,"KENDALL HOMES",,,,,"KENDALL HOMES","427 MASON PARK BLVD",KATY,TX,77450-6187,"(281) 398-4010",http://www.kendallhomes.net/,"(281) 398-4011",,
TX,MONTGOMERY,"173042 20","Single Family Homes",6/11/2020,,130800,,"11013 ONDREA LN",HOUSTON,TX,77356,"CLEAR VIEW ESTATES",,CONTRACTOR,,,,,,,,,,,"KENDALL HOMES",,,,,"KENDALL HOMES","427 MASON PARK BLVD",KATY,TX,77450-6187,"(281) 398-4010",http://www.kendallhomes.net/,"(281) 398-4011",,
TX,MONTGOMERY,173018-20,"Single Family Homes",6/11/2020,,154500,,"18801 AMARO HILLS DR",HOUSTON,TX,77356,TAVOLA,,CONTRACTOR,,,,,,,,,,,"LENNAR HOMES",,,,,"LENNAR HOMES","550 GREENS PKWY",HOUSTON,TX,77067-4537,"(281) 875-1000",http://www.lennar.com/,,,
TX,MONTGOMERY,"173022 20","Single Family Homes",6/11/2020,,148900,,"23531 KENWORTH DR",HOUSTON,TX,77356,TAVOLA,,CONTRACTOR,,,,,,,,,,,"M/I HOMES",,,,,"M/I HOMES","10910 NORTH SAM HOUSTON PKWY W",HOUSTON,TX,77064,"(832) 912-1012",,,,
TX,MONTGOMERY,"173023 20","Single Family Homes",6/11/2020,,148900,,"18973 COLUMBUS MILL DR",HOUSTON,TX,77356,TAVOLA,,CONTRACTOR,,,,,,,,,,,"M/I HOMES",,,,,"M/I HOMES","10910 NORTH SAM HOUSTON PKWY W",HOUSTON,TX,77064,"(832) 912-1012",,,,
TX,MONTGOMERY,173072-20,"Single Family Homes",6/12/2020,,60000,,"23820 WILDWOOD OAKS DR",HOUSTON,TX,77356,"WILDWOOD OAKS",,"ERIKA MENDOZA","23820 WILDWOOD OAKS DR","NEW CANEY",TX,77356,,Owner,,,,,OWNER,,,,,OWNER,,,,,,,,,
TX,MONTGOMERY,"172961 20","Single Family Homes",6/9/2020,,316990,,"17510 SUNSET SKIES ROAD",HOUSTON,TX,77356,ARTAVIA,,CONTRACTOR,,,,,,,,,,,"MHI MCGUYER HOMEBUILDERS",,,,,"MHI MCGUYER HOMEBUILDERS","7676 WOODWAY DR",HOUSTON,TX,77063-1526,"(713) 260-4107",,,,
TX,MONTGOMERY,172962-20,"Single Family Homes",6/9/2020,,294990,,"17320 GRAND CANYON ROAD",HOUSTON,TX,77356,ARTAVIA,,CONTRACTOR,,,,,,,,,,,"MHI MCGUYER HOMEBUILDERS",,,,,"MHI MCGUYER HOMEBUILDERS","7676 WOODWAY DR",HOUSTON,TX,77063-1526,"(713) 260-4107",,,,
TX,MONTGOMERY,172963-20,"Single Family Homes",6/9/2020,,422990,,"15261 HEMINGWAY HEIGHTS DR",HOUSTON,TX,77356,ARTAVIA,,CONTRACTOR,,,,,,,,,,,"MHI MCGUYER HOMEBUILDERS",,,,,"MHI MCGUYER HOMEBUILDERS","7676 WOODWAY DR",HOUSTON,TX,77063-1526,"(713) 260-4107",,,,
TX,MONTGOMERY,"172964 20","Single Family Homes",6/9/2020,,236990,,"2'794 HIDDEN HOLLOW LN",HOUSTON,TX,77356,"MEADOWS AT IMPERIAL OAKS",,CONTRACTOR,,,,,,,,,,,"MHI MCGUYER HOMEBUILDERS",,,,,"MHI MCGUYER HOMEBUILDERS","7676 WOODWAY DR",HOUSTON,TX,77063-1526,"(713) 260-4107",,,,
TX,MONTGOMERY,172978-20,"Single Family Homes",6/9/2020,,200000,,"10425 LONGSTREET ROAD",HOUSTON,TX,77356,,,"MEGAN MILLIFF","10507 LONGSTREET RD",WILLIS,TX,77318,,Owner,,,,,OWNER,,,,,OWNER,,,,,,,,,
TX,MONTGOMERY,172985-20,"Single Family Homes",6/10/2020,,135850,,"8015 DAUNTLESS DR",HOUSTON,TX,77356,"BLACK OAK",,CONTRACTOR,,,,,,,,,,,"RAUSCH COLEMAN HOMES",,,,,"RAUSCH COLEMAN HOMES","9504 N IH35 STE 310","SAN ANTONIO",TX,78233,"(210) 231-0703",https://www.rauschcolemanhomes.com/,,,
TX,MONTGOMERY,172986-20,"Single Family Homes",6/10/2020,,194025,,"314 GALLANT FRONT TR",HOUSTON,TX,77356,"BLACK OAK",,CONTRACTOR,,,,,,,,,,,"RAUSCH COLEMAN HOMES",,,,,"RAUSCH COLEMAN HOMES","9504 N IH35 STE 310","SAN ANTONIO",TX,78233,"(210) 231-0703",https://www.rauschcolemanhomes.com/,,,
TX,MONTGOMERY,172960-20,"Single Family Homes",6/9/2020,,280000,,"27652 VIVACE DR",HOUSTON,TX,77356,"VIVACE AT HARMONY",,CONTRACTOR,,,,,,,,,,,"SHEA HOMES HOUSTON",,,,,"SHEA HOMES HOUSTON","8300 CYPRESS CREEK PKWY STE 400",HOUSTON,TX,77070-5643,"(832) 869-4007",http://www.sheahomes.com/,,,
TX,MONTGOMERY,173043-20,"Single Family Homes",6/11/2020,,100000,,"7066 PLEASURE LAKE DR",HOUSTON,TX,77356,"SEVEN COVES",,CONTRACTOR,,,,,,,,,,,"STARTER HOMES OF TEXAS",,,,,"STARTER HOMES OF TEXAS","9803 HIGHWAY 242 STE 200 # 211",CONROE,TX,77385-4369,"(281) 367-4200",,,,
TX,MONTGOMERY,173044-20,"Single Family Homes",6/11/2020,,100000,,"9986 CALENDER ST",HOUSTON,TX,77356,"WALNUT COVE",,CONTRACTOR,,,,,,,,,,,"STARTER HOMES OF TEXAS",,,,,"STARTER HOMES OF TEXAS","9803 HIGHWAY 242 STE 200 # 211",CONROE,TX,77385-4369,"(281) 367-4200",,,,
TX,MONTGOMERY,173045-20,"Single Family Homes",6/11/2020,,100000,,"9990 CALENDER ST",HOUSTON,TX,77356,"WALNUT COVE",,CONTRACTOR,,,,,,,,,,,"STARTER HOMES OF TEXAS",,,,,"STARTER HOMES OF TEXAS","9803 HIGHWAY 242 STE 200 # 211",CONROE,TX,77385-4369,"(281) 367-4200",,,,
TX,MONTGOMERY,173064-20,"Single Family Homes",6/12/2020,,100000,,"7074 GENTLE BREEZE DR",HOUSTON,TX,77356,"SEVEN COVES",,CONTRACTOR,,,,,,,,,,,"STARTER HOMES OF TEXAS",,,,,"STARTER HOMES OF TEXAS","9803 HIGHWAY 242 STE 200 # 211",CONROE,TX,77385-4369,"(281) 367-4200",,,,
TX,MONTGOMERY,173007-20,"Single Family Homes",6/10/2020,,100000,,"16881 W HAMMON",HOUSTON,TX,77356,"LAKE CONROE VILLAGE",,"MICHAEL VALCEK","13921 HWY 105 W STE 228",CONROE,TX,77304,,Owner,,,,,OWNER,,,,,OWNER,,,,,,,,,
TX,MONTGOMERY,173052-20,"Single Family Homes",6/12/2020,,80000,,"23893 TREEHOPPER LN",HOUSTON,TX,77356,"WHITE OAK CROSSING",,"NESTOR VELASQUEZ","23893 TREEHOPPER LANE","NEW CANEY",TX,77356,,Owner,,,,,OWNER,,,,,OWNER,,,,,,,,,
TX,MONTGOMERY,173011-20,"Single Family Homes",6/11/2020,,100000,,"16808 OLD DANVILLE ROAD",HOUSTON,TX,77356,,,"JOHN WARNER","14141 HWY 105 E",CONROE,TX,77306,,Owner,,,,,OWNER,,,,,OWNER,,,,,,,,,
TX,MONTGOMERY,172999-20,"Single Family Homes",6/10/2020,,300000,,"13406 ECHO LN",HOUSTON,TX,77356,"WALDEN ON LAKE CONROE",,"JORGE WONG","4522 BURKEGATE DR",SPRING,TX,77373,,Owner,,,,,OWNER,,,,,OWNER,,,,,,,,,
TX,MONTGOMERY,"173227- 20","Single Family Homes",6/17/2020,,290000,,"3335 HEMINGWAY DR",HOUSTON,TX,77356,"WALDEN ON LAKE CONROE",,CONTRACTOR,,,,,,,,,,,"ADVANTAGE HOMES",,,,,"ADVANTAGE HOMES","8903 HUFSMITH KUYKENDAHL RD",TOMBALL,TX,77375-5244,"(713) 446-5708",http://advantagehomestexas.com/,,"JIM GERHART",info@advantagehomestexas.com
TX,MONTGOMERY,"173116- 20","Single Family Homes",6/15/2020,,300000,,"14703 TURQUOISE TRAIL",HOUSTON,TX,77356,"EMERALD LAKES",,CONTRACTOR,,,,,,,,,,,"AES SEPTIC",,,,,"AES SEPTIC","30703 N CRIPPLE CREEK DR",MAGNOLIA,TX,77354-1973,"(281) 356-5000",,,,
TX,MONTGOMERY,20200278,"Single Family Homes",5/22/2020,,102100,,"512 BONNERVILLE LANE",MAGNOLIA,TX,75154,,,CONTRACTOR,,,,,,,,,,,"M/I HOMES",,,,,"M/I HOMES","10910 NORTH SAM HOUSTON PKWY W",HOUSTON,TX,77064,"(832) 912-1012",,,,
TX,MONTGOMERY,20200301,"Single Family Homes",6/5/2020,,126200,,"504 BONNERVILLE LN",MAGNOLIA,TX,75154,,,CONTRACTOR,,,,,,,,,,,"M/I HOMES",,,,,"M/I HOMES","10910 NORTH SAM HOUSTON PKWY W",HOUSTON,TX,77064,"(832) 912-1012",,,,
TX,MONTGOMERY,20200302,"Single Family Homes",6/8/2020,,96900,,"605 EMERALD BLOSSOM CT",MAGNOLIA,TX,75154,,,CONTRACTOR,,,,,,,,,,,"M/I HOMES",,,,,"M/I HOMES","10910 NORTH SAM HOUSTON PKWY W",HOUSTON,TX,77064,"(832) 912-1012",,,,
TX,MONTGOMERY,20200303,"Single Family Homes",6/8/2020,,84550,,"310 WISTERIA MANOR ST",MAGNOLIA,TX,75154,,,CONTRACTOR,,,,,,,,,,,"M/I HOMES",,,,,"M/I HOMES","10910 NORTH SAM HOUSTON PKWY W",HOUSTON,TX,77064,"(832) 912-1012",,,,
TX,MONTGOMERY,20200304,"Single Family Homes",6/9/2020,,88550,,"528 BONNERVILLE LANE",MAGNOLIA,TX,75154,,,CONTRACTOR,,,,,,,,,,,"M/I HOMES",,,,,"M/I HOMES","10910 NORTH SAM HOUSTON PKWY W",HOUSTON,TX,77064,"(832) 912-1012",,,,
TX,MONTGOMERY,20200329,"Single Family Homes",6/23/2020,,107750,,"465 CAMAS CREEK",MAGNOLIA,TX,75154,,,CONTRACTOR,,,,,,,,,,,"M/I HOMES",,,,,"M/I HOMES","10910 NORTH SAM HOUSTON PKWY W",HOUSTON,TX,77064,"(832) 912-1012",,,,
TX,MONTGOMERY,20200330,"Single Family Homes",6/23/2020,,105800,,"457 CAMAS CREEK",MAGNOLIA,TX,75154,,,CONTRACTOR,,,,,,,,,,,"M/I HOMES",,,,,"M/I HOMES","10910 NORTH SAM HOUSTON PKWY W",HOUSTON,TX,77064,"(832) 912-1012",,,,
TX,MONTGOMERY,20200332,"Single Family Homes",6/23/2020,,86300,,"445 CAMAS CREEK",MAGNOLIA,TX,75154,,,CONTRACTOR,,,,,,,,,,,"M/I HOMES",,,,,"M/I HOMES","10910 NORTH SAM HOUSTON PKWY W",HOUSTON,TX,77064,"(832) 912-1012",,,,
TX,HARRIS,BP-20-00171-01,"Single Family Homes",6/1/2020,,650000,,"6220 COMMUNITY DR",HOUSTON,TX,77005,,,CONTRACTOR,,,,,,,,,,,"HORACE HOMES",,,,,"HORACE HOMES","PO BOX 27377",HOUSTON,TX,77227-7377,"(281) 960-8778",http://www.horace-homes.com,"(866) 780-5485",,dbeck@horace-homes.com
TX,HARRIS,BP-20-00401-01,"Single Family Homes",6/22/2020,,1250000,5998,"3501 TANGLEY ST",HOUSTON,TX,77005,,,CONTRACTOR,,,,,,,,,,,"SCOTT FRASIER HOMES",,,,,"SCOTT FRASIER HOMES","4252 RICHMOND AVE",HOUSTON,TX,77027-6888,"(713) 875-4134",,,,
TX,HARRIS,BP-20-00439-01,"Single Family Homes",6/12/2020,,752000,3435,"3501 SUNSET BLVD",HOUSTON,TX,77005,,,CONTRACTOR,,,,,,,,,,,"ROBBINS CUSTOM CONSTRUCTION",,,,,"ROBBINS CUSTOM CONSTRUCTION","3100 AUDLEY ST",HOUSTON,TX,77098-1928,"(281) 660-1319",,,,
TX,HARRIS,20040192,"Single Family Homes",6/8/2020,,,2004,"10038 STONE BRIAR DR",BAYTOWN,TX,77521,,,CONTRACTOR,,,,,,,,,,,"CASTLEROCK COMMUNITIES",,,,,"CASTLEROCK COMMUNITIES","7670 WOODWAY DR STE 300",HOUSTON,TX,77063-1520,"(713) 600-7000",http://c-rock.com,"(713) 600-0000",,
TX,HARRIS,20060016,"Single Family Homes",6/16/2020,,,2203,"3123 MAGELLAN RIDGE LN",BAYTOWN,TX,77521,,,CONTRACTOR,,,,,,,,,,,"DR HORTON",,,,,"DR HORTON","14100 SOUTHWEST",HOUSTON,TX,77478,"(281) 201-5559",,,,
TX,HARRIS,20050319,"Single Family Homes",6/8/2020,,,2419,"4715 PAINTED BUNTING LN",BAYTOWN,TX,77521,,,CONTRACTOR,,,,,,,,,,,"CASTLEROCK COMMUNITIES",,,,,"CASTLEROCK COMMUNITIES","7670 WOODWAY DR STE 300",HOUSTON,TX,77063-1520,"(713) 600-7000",http://c-rock.com,"(713) 600-0000",,
TX,HARRIS,20060077,"Single Family Homes",6/16/2020,,,2152,"3219 MAGELLAN RIDGE LN",BAYTOWN,TX,77521,,,CONTRACTOR,,,,,,,,,,,"DR HORTON",,,,,"DR HORTON","14100 SOUTHWEST",HOUSTON,TX,77478,"(281) 201-5559",,,,
TX,HARRIS,20060078,"Single Family Homes",6/16/2020,,,2241,"3227 MAGELLAN RIDGE LN",BAYTOWN,TX,77521,,,CONTRACTOR,,,,,,,,,,,"DR HORTON",,,,,"DR HORTON","14100 SOUTHWEST",HOUSTON,TX,77478,"(281) 201-5559",,,,
TX,HARRIS,20060079,"Single Family Homes",6/16/2020,,,1794,"3119 MAGELLAN RIDGE LN",BAYTOWN,TX,77521,,,CONTRACTOR,,,,,,,,,,,"DR HORTON",,,,,"DR HORTON","14100 SOUTHWEST",HOUSTON,TX,77478,"(281) 201-5559",,,,
TX,HARRIS,20060080,"Single Family Homes",6/16/2020,,,2099,"3211 MAGELLAN RIDGE LN",BAYTOWN,TX,77521,,,CONTRACTOR,,,,,,,,,,,"DR HORTON",,,,,"DR HORTON","14100 SOUTHWEST",HOUSTON,TX,77478,"(281) 201-5559",,,,
TX,HARRIS,20050432,"Single Family Homes",6/8/2020,,,2946,"10043 STONE BRIAR DR",BAYTOWN,TX,77521,,,CONTRACTOR,,,,,,,,,,,"GROHMAN VENTURE W-3",,,,,"GROHMAN VENTURE W-3","12425 SUNBROOK DR",PEARLAND,TX,77581-7977,"(713) 261-8101",,,"JAMES WEIBLING",
TX,HARRIS,20030356,"Single Family Homes",6/22/2020,,,3257,"1010 KNOWLTON ST",BAYTOWN,TX,77521,,,CONTRACTOR,,,,,,,,,,,"BRANDY BUILDERS",,,,,"BRANDY BUILDERS","19506 HIGHWAY 59 N",HUMBLE,TX,77338-4384,"(832) 412-7827",,,,
TX,HARRIS,20020154,"Single Family Homes",6/2/2020,,,2567,"3528 CROSBY CEDAR BAYOU RD",BAYTOWN,TX,77521,,,CONTRACTOR,,,,,,,,,,,"PRECISION HOMES CUSTOM BUILDERS",,,,,"PRECISION HOMES CUSTOM BUILDERS","1314 SPRING STUEBNER RD",SPRING,TX,77373-8201,"(281) 353-9883",,,,
TX,HARRIS,20050180,"Single Family Homes",6/8/2020,,,2350,"10103 STONE BRIAR DR",BAYTOWN,TX,77521,,,CONTRACTOR,,,,,,,,,,,"CASTLEROCK COMMUNITIES",,,,,"CASTLEROCK COMMUNITIES","7670 WOODWAY DR STE 300",HOUSTON,TX,77063-1520,"(713) 600-7000",http://c-rock.com,"(713) 600-0000",,
TX,HARRIS,20050315,"Single Family Homes",6/8/2020,,,3157,"8802 W CRESCENT LAKE CIR",BAYTOWN,TX,77521,,,CONTRACTOR,,,,,,,,,,,"CASTLEROCK COMMUNITIES",,,,,"CASTLEROCK COMMUNITIES","7670 WOODWAY DR STE 300",HOUSTON,TX,77063-1520,"(713) 600-7000",http://c-rock.com,"(713) 600-0000",,
TX,HARRIS,20050318,"Single Family Homes",6/8/2020,,,2101,"4514 PAINTED BUNTING LN",BAYTOWN,TX,77521,,,CONTRACTOR,,,,,,,,,,,"CASTLEROCK COMMUNITIES",,,,,"CASTLEROCK COMMUNITIES","7670 WOODWAY DR STE 300",HOUSTON,TX,77063-1520,"(713) 600-7000",http://c-rock.com,"(713) 600-0000",,
TX,HARRIS,20050333,"Single Family Homes",6/8/2020,,,3003,"8811 FALCON CT",BAYTOWN,TX,77521,,,CONTRACTOR,,,,,,,,,,,"CASTLEROCK COMMUNITIES",,,,,"CASTLEROCK COMMUNITIES","7670 WOODWAY DR STE 300",HOUSTON,TX,77063-1520,"(713) 600-7000",http://c-rock.com,"(713) 600-0000",,
TX,HARRIS,20060215,"Single Family Homes",6/25/2020,,,2603,"8407 AMBER BEND DR",BAYTOWN,TX,77521,,,CONTRACTOR,,,,,,,,,,,"CHESMAR HOMES",,,,,"CHESMAR HOMES","450 GEARS RD STE 400",HOUSTON,TX,77067-4513,"(281) 598-1111",http://chesmar.com,"(281) 598-1115",,customerservice.houston@chesmar.com
TX,HARRIS,20060216,"Single Family Homes",6/29/2020,,,2939,"8414 AMBER BEND DR",BAYTOWN,TX,77521,,,CONTRACTOR,,,,,,,,,,,"CHESMAR HOMES",,,,,"CHESMAR HOMES","450 GEARS RD STE 400",HOUSTON,TX,77067-4513,"(281) 598-1111",http://chesmar.com,"(281) 598-1115",,customerservice.houston@chesmar.com
TX,HARRIS,20040038,"Single Family Homes",6/8/2020,,,2954,"5027 CHIMNEY SWIFT LN",BAYTOWN,TX,77521,,,CONTRACTOR,,,,,,,,,,,"CASTLEROCK COMMUNITIES",,,,,"CASTLEROCK COMMUNITIES","7670 WOODWAY DR STE 300",HOUSTON,TX,77063-1520,"(713) 600-7000",http://c-rock.com,"(713) 600-0000",,
TX,MONTGOMERY,"173116- 20","Single Family Homes",6/15/2020,,300000,,"14703 TURQUOISE TR",HOUSTON,TX,77356,"EMERALD LAKES",,CONTRACTOR,,,,,,,,,,,"AES SEPTIC",,,,,"AES SEPTIC","30703 N CRIPPLE CREEK DR",MAGNOLIA,TX,77354-1973,"(281) 356-5000",,,,
TX,MONTGOMERY,173228-20,"Single Family Homes",6/17/2020,,60000,,"23930 PRAYING MANTIS LN",HOUSTON,TX,77356,"WHITE OAK CROSSING",,"CRISTIAN ALEMAN","16101 IMPERIAL VALLEY DR",HOUSTON,TX,77356,,Owner,,,,,OWNER,,,,,OWNER,,,,,,,,,
TX,MONTGOMERY,173182-20,"Single Family Homes",6/16/2020,,75000,,"15183 CROCKETT ROAD",HOUSTON,TX,77356,"FRONTIER LAKES",,CONTRACTOR,,,,,,,,,,,"ASGI HOMES",,,,,"ASGI HOMES","2257 N LOOP 336 W STE 140-370",CONROE,TX,77304-3566,"(888) 991-0005",http://www.asgihomes.com,,,
TX,MONTGOMERY,173187-20,"Single Family Homes",6/16/2020,,75000,,"3367 ARAPAHO CIRCLE",HOUSTON,TX,77356,"ARROWHEAD LAKES",,CONTRACTOR,,,,,,,,,,,"ASGI HOMES",,,,,"ASGI HOMES","2257 N LOOP 336 W STE 140-370",CONROE,TX,77304-3566,"(888) 991-0005",http://www.asgihomes.com,,,
TX,MONTGOMERY,173079-20,"Single Family Homes",6/15/2020,,600000,,"7410 LORNA ROAD",HOUSTON,TX,77356,"MONTGOMERY TRACE",,"VICTOR & ADRIENNE BARRANCO","8890 GRAND LAKE ESTATES DR",MONTGOMERY,TX,77356,,Owner,,,,,OWNER,,,,,OWNER,,,,,,,,,
TX,MONTGOMERY,173196-20,"Single Family Homes",6/17/2020,,200000,,"128 CHESTNUT RUN CT",HOUSTON,TX,77356,"MEADOWS AT JOCOBS RESERVE",,CONTRACTOR,,,,,,,,,,,"CENTURY COMMUNITIES",,,,,"CENTURY COMMUNITIES","4700 W SAM HOUSTON PKWY N STE 130",HOUSTON,TX,77041-8219,"(281) 741-8946",https://www.centurycommunities.com/,,,
TX,MONTGOMERY,173197-20,"Single Family Homes",6/17/2020,,140000,,"12527 HILLTOP MILL ROAD",HOUSTON,TX,77356,"MOSTYN SPRINGS",,CONTRACTOR,,,,,,,,,,,"CENTURY COMMUNITIES",,,,,"CENTURY COMMUNITIES","4700 W SAM HOUSTON PKWY N STE 130",HOUSTON,TX,77041-8219,"(281) 741-8946",https://www.centurycommunities.com/,,,
TX,MONTGOMERY,173198-20,"Single Family Homes",6/17/2020,,146000,,"12523 HILLTOP MILL ROAD",HOUSTON,TX,77356,"MOSTYN SPRINGS",,CONTRACTOR,,,,,,,,,,,"CENTURY COMMUNITIES",,,,,"CENTURY COMMUNITIES","4700 W SAM HOUSTON PKWY N STE 130",HOUSTON,TX,77041-8219,"(281) 741-8946",https://www.centurycommunities.com/,,,
TX,MONTGOMERY,173201-20,"Single Family Homes",6/17/2020,,146000,,"25838 NORTHPARK PINE DR",HOUSTON,TX,77356,"NORTHPARK WOODS",,CONTRACTOR,,,,,,,,,,,"CENTURY COMMUNITIES",,,,,"CENTURY COMMUNITIES","4700 W SAM HOUSTON PKWY N STE 130",HOUSTON,TX,77041-8219,"(281) 741-8946",https://www.centurycommunities.com/,,,
TX,MONTGOMERY,173202-20,"Single Family Homes",6/17/2020,,157000,,"25834 NORTHPARK PINE DR",HOUSTON,TX,77356,"NORTHPARK WOODS",,CONTRACTOR,,,,,,,,,,,"CENTURY COMMUNITIES",,,,,"CENTURY COMMUNITIES","4700 W SAM HOUSTON PKWY N STE 130",HOUSTON,TX,77041-8219,"(281) 741-8946",https://www.centurycommunities.com/,,,
TX,MONTGOMERY,173204-20,"Single Family Homes",6/17/2020,,197000,,"19976 NORTHPARK ELM LN",HOUSTON,TX,77356,"NORTHPARK WOODS",,CONTRACTOR,,,,,,,,,,,"CENTURY COMMUNITIES",,,,,"CENTURY COMMUNITIES","4700 W SAM HOUSTON PKWY N STE 130",HOUSTON,TX,77041-8219,"(281) 741-8946",https://www.centurycommunities.com/,,,
TX,MONTGOMERY,173206-20,"Single Family Homes",6/17/2020,,140000,,"19980 NORTHPARK ELM LN",HOUSTON,TX,77356,"NORTHPARK WOODS",,CONTRACTOR,,,,,,,,,,,"CENTURY COMMUNITIES",,,,,"CENTURY COMMUNITIES","4700 W SAM HOUSTON PKWY N STE 130",HOUSTON,TX,77041-8219,"(281) 741-8946",https://www.centurycommunities.com/,,,
TX,MONTGOMERY,173207-20,"Single Family Homes",6/17/2020,,112000,,"25715 NORTHPARK PALM DR",HOUSTON,TX,77356,"NORTHPARK WOODS",,CONTRACTOR,,,,,,,,,,,"CENTURY COMMUNITIES",,,,,"CENTURY COMMUNITIES","4700 W SAM HOUSTON PKWY N STE 130",HOUSTON,TX,77041-8219,"(281) 741-8946",https://www.centurycommunities.com/,,,
TX,MONTGOMERY,173208-20,"Single Family Homes",6/17/2020,,123000,,"25747 NORTHPARK PALM DR",HOUSTON,TX,77356,"NORTHPARK WOODS",,CONTRACTOR,,,,,,,,,,,"CENTURY COMMUNITIES",,,,,"CENTURY COMMUNITIES","4700 W SAM HOUSTON PKWY N STE 130",HOUSTON,TX,77041-8219,"(281) 741-8946",https://www.centurycommunities.com/,,,
TX,MONTGOMERY,173209-20,"Single Family Homes",6/17/2020,,123000,,"25711 NORTHPARK PALM DR",HOUSTON,TX,77356,"NORTHPARK WOODS",,CONTRACTOR,,,,,,,,,,,"CENTURY COMMUNITIES",,,,,"CENTURY COMMUNITIES","4700 W SAM HOUSTON PKWY N STE 130",HOUSTON,TX,77041-8219,"(281) 741-8946",https://www.centurycommunities.com/,,,
TX,MONTGOMERY,173184-20,"Single Family Homes",6/16/2020,,176689,,"4571 SILVER MOON DR",HOUSTON,TX,77356,"WOODSON'S RESERVE",,CONTRACTOR,,,,,,,,,,,"CHESMAR HOMES",,,,,"CHESMAR HOMES","450 GEARS RD STE 400",HOUSTON,TX,77067-4513,"(281) 598-1111",http://chesmar.com,"(281) 598-1115",,customerservice.houston@chesmar.com
TX,MONTGOMERY,173188-20,"Single Family Homes",6/16/2020,,117139,,"111 SUGAR PEAK CT",HOUSTON,TX,77356,WOODFOREST,,CONTRACTOR,,,,,,,,,,,"CHESMAR HOMES",,,,,"CHESMAR HOMES","450 GEARS RD STE 400",HOUSTON,TX,77067-4513,"(281) 598-1111",http://chesmar.com,"(281) 598-1115",,customerservice.houston@chesmar.com
TX,MONTGOMERY,173278-20,"Single Family Homes",6/19/2020,,202917,,"4551 SILVER MOON DR",HOUSTON,TX,77356,"WOODSONS RESERVE",,CONTRACTOR,,,,,,,,,,,"CHESMAR HOMES",,,,,"CHESMAR HOMES","450 GEARS RD STE 400",HOUSTON,TX,77067-4513,"(281) 598-1111",http://chesmar.com,"(281) 598-1115",,customerservice.houston@chesmar.com
TX,MONTGOMERY,173280-20,"Single Family Homes",6/19/2020,,144190,,"27209 POLO WIND CT",HOUSTON,TX,77356,NORTHGROVE,,CONTRACTOR,,,,,,,,,,,"CHESMAR HOMES",,,,,"CHESMAR HOMES","450 GEARS RD STE 400",HOUSTON,TX,77067-4513,"(281) 598-1111",http://chesmar.com,"(281) 598-1115",,customerservice.houston@chesmar.com
TX,MONTGOMERY,173281-20,"Single Family Homes",6/19/2020,,140074,,"7925 SPRING RUN DR",HOUSTON,TX,77356,NORTHGROVE,,CONTRACTOR,,,,,,,,,,,"CHESMAR HOMES",,,,,"CHESMAR HOMES","450 GEARS RD STE 400",HOUSTON,TX,77067-4513,"(281) 598-1111",http://chesmar.com,"(281) 598-1115",,customerservice.houston@chesmar.com
TX,MONTGOMERY,173282-20,"Single Family Homes",6/19/2020,,120492,,"4261 MERRY MILL DR",HOUSTON,TX,77356,"HARMONY VILLAGE",,CONTRACTOR,,,,,,,,,,,"CHESMAR HOMES",,,,,"CHESMAR HOMES","1600 N COLLINS BLVD STE 1400",RICHARDSON,TX,75080-3669,"(972) 982-2572",http://chesmar.com,"(972) 982-2572",,customerservice.dallas@chesmar.com
TX,MONTGOMERY,173283-20,"Single Family Homes",6/19/2020,,119942,,"4265 MERRY MILL DR",HOUSTON,TX,77356,"HARMONY VILLAGE",,CONTRACTOR,,,,,,,,,,,"CHESMAR HOMES",,,,,"CHESMAR HOMES","450 GEARS RD STE 400",HOUSTON,TX,77067-4513,"(281) 598-1111",http://chesmar.com,"(281) 598-1115",,customerservice.houston@chesmar.com
TX,MONTGOMERY,173284-20,"Single Family Homes",6/19/2020,,120682,,"4269 MERRY MILL DR",HOUSTON,TX,77356,"HARMONY VILLAGE",,CONTRACTOR,,,,,,,,,,,"CHESMAR HOMES",,,,,"CHESMAR HOMES","450 GEARS RD STE 400",HOUSTON,TX,77067-4513,"(281) 598-1111",http://chesmar.com,"(281) 598-1115",,customerservice.houston@chesmar.com
TX,MONTGOMERY,173285-20,"Single Family Homes",6/19/2020,,132971,,"4273 MERRY MILL DR",HOUSTON,TX,77356,"HARMONY VILLAGE",,CONTRACTOR,,,,,,,,,,,"CHESMAR HOMES",,,,,"CHESMAR HOMES","450 GEARS RD STE 400",HOUSTON,TX,77067-4513,"(281) 598-1111",http://chesmar.com,"(281) 598-1115",,customerservice.houston@chesmar.com
TX,MONTGOMERY,173286-20,"Single Family Homes",6/19/2020,,124402,,"8 SUGAR PEAK CT",HOUSTON,TX,77356,WOODFOREST,,CONTRACTOR,,,,,,,,,,,"CHESMAR HOMES",,,,,"CHESMAR HOMES","450 GEARS RD STE 400",HOUSTON,TX,77067-4513,"(281) 598-1111",http://chesmar.com,"(281) 598-1115",,customerservice.houston@chesmar.com
TX,MONTGOMERY,173084-20,"Single Family Homes",6/16/2020,,142285,,"9737 COLD CREEK DR",HOUSTON,TX,77356,"LAKEWOOD TRAILS",,"DILLON CONLEY","PO BOX 273",CONROE,TX,77433,,Owner,,,,,OWNER,,,,,OWNER,,,,,,,,,
TX,MONTGOMERY,173088-20,"Single Family Homes",6/15/2020,,138765,,"9733 COLD CREEK DR",HOUSTON,TX,77356,"LAKEWOOD TRAILS",,"DILLON CONLEY","PO BOX 273",CONROE,TX,77305,,Owner,,,,,OWNER,,,,,OWNER,,,,,,,,,
TX,MONTGOMERY,173095-20,"Single Family Homes",6/15/2020,,130735,,"9821 COLD CREEK DR",HOUSTON,TX,77356,"LAKEWOOD TRAILS",,"DILLON CONLEY","PO BOX 273",CONROE,TX,77305,,Owner,,,,,OWNER,,,,,OWNER,,,,,,,,,
TX,MONTGOMERY,173099-20,"Single Family Homes",6/15/2020,,189000,,"4232 HOLSTEIN DR",HOUSTON,TX,77356,"PEACH CREEK PLANTATION",,"DILLON CONLEY","PO BOX 273",CONROE,TX,77305,,Owner,,,,,OWNER,,,,,OWNER,,,,,,,,,
TX,MONTGOMERY,173078-20,"Single Family Homes",6/15/2020,,94095,,"16732 LONELY PINES DR",HOUSTON,TX,77356,"GRANGER PINES",,CONTRACTOR,,,,,,,,,,,"DR HORTON",,,,,"DR HORTON","14100 SOUTHWEST",HOUSTON,TX,77478,"(281) 201-5559",,,,
TX,MONTGOMERY,173080-20,"Single Family Homes",6/15/2020,,94095,,"16744 LONELY PINES DR",HOUSTON,TX,77356,"GRANGER PINES",,CONTRACTOR,,,,,,,,,,,"DR HORTON",,,,,"DR HORTON","14100 SOUTHWEST",HOUSTON,TX,77478,"(281) 201-5559",,,,
TX,MONTGOMERY,173081-20,"Single Family Homes",6/15/2020,,86580,,"16757 LONELY PINES DR",HOUSTON,TX,77356,"GRANGER PINES",,CONTRACTOR,,,,,,,,,,,"DR HORTON",,,,,"DR HORTON","14100 SOUTHWEST",HOUSTON,TX,77478,"(281) 201-5559",,,,
TX,MONTGOMERY,173083-20,"Single Family Homes",6/15/2020,,111555,,"16776 LONELY PINES DR",HOUSTON,TX,77356,"GRANGER PINES",,CONTRACTOR,,,,,,,,,,,"DR HORTON",,,,,"DR HORTON","14100 SOUTHWEST",HOUSTON,TX,77478,"(281) 201-5559",,,,
TX,MONTGOMERY,173081-20,"Single Family Homes",6/15/2020,,124110,,"16772 LONELY PINES DR",HOUSTON,TX,77356,"GRANGER PINES",,CONTRACTOR,,,,,,,,,,,"DR HORTON",,,,,"DR HORTON","14100 SOUTHWEST",HOUSTON,TX,77478,"(281) 201-5559",,,,
TX,MONTGOMERY,"173089 20","Single Family Homes",6/15/2020,,90540,,"16768 LONELY PINES DR",HOUSTON,TX,77356,"GRANGER PINES",,CONTRACTOR,,,,,,,,,,,"DR HORTON",,,,,"DR HORTON","14100 SOUTHWEST",HOUSTON,TX,77478,"(281) 201-5559",,,,
TX,MONTGOMERY,"173091 20","Single Family Homes",6/15/2020,,86580,,"16764 LONELY PINES DR",HOUSTON,TX,77356,"GRANGER PINES",,CONTRACTOR,,,,,,,,,,,"DR HORTON",,,,,"DR HORTON","14100 SOUTHWEST",HOUSTON,TX,77478,"(281) 201-5559",,,,
TX,MONTGOMERY,173103-20,"Single Family Homes",6/15/2020,,107550,,"14118 RILEY CREEK CT",HOUSTON,TX,77356,"FOSTERS RIDGE",,CONTRACTOR,,,,,,,,,,,"DR HORTON",,,,,"DR HORTON","14100 SOUTHWEST",HOUSTON,TX,77478,"(281) 201-5559",,,,
TX,MONTGOMERY,173104-20,"Single Family Homes",6/15/2020,,125640,,"14103 RILEY CREEK CT",HOUSTON,TX,77356,"FOSTERS RIDGE",,CONTRACTOR,,,,,,,,,,,"DR HORTON",,,,,"DR HORTON","14100 SOUTHWEST",HOUSTON,TX,77478,"(281) 201-5559",,,,
TX,HARRIS,200640,"Single Family Homes",6/24/2020,,350000,,"17 WILLOW ST",HUMBLE,TX,77338,,,CONTRACTOR,,,,,,,,,,,"RICARDO SANTILLAN",,,,,"RICARDO SANTILLAN","1407 HEAMPSTEAD",PASADENA,TX,77506,"(832) 837-1935",,,,
TX,BELL,"20 00003045","Single Family Homes",6/2/2020,,,2685,"902 HICKOK DR",KILLEEN,TX,76542,,,CONTRACTOR,,,,,,,,,,,"J CLARK HOMES",,,,,"J CLARK HOMES","1406 S FM 116 STE C","COPPERAS COVE",TX,76522,"(254) 547-3300",http://jimmyclarkhomes.com/,"(254) 547-3449","APRIL TAYLOR",april@jimmyclarkhomes.com
TX,BELL,"20 00003112","Single Family Homes",6/3/2020,,,2550,"5305 PINAR TRL",KILLEEN,TX,76549,,,CONTRACTOR,,,,,,,,,,,"CAROTHERS HOMES",,,,,"CAROTHERS HOMES","2025 MEMORY LN STE 200","HARKER HEIGHTS",TX,76548-7488,"(254) 519-2682",,,,
TX,BELL,"20 00003110","Single Family Homes",6/3/2020,,,3085,"8600 TYROCH DR",KILLEEN,TX,76542,,,CONTRACTOR,,,,,,,,,,,"CAROTHERS HOMES",,,,,"CAROTHERS HOMES","2025 MEMORY LN STE 200","HARKER HEIGHTS",TX,76548-7488,"(254) 519-2682",,,,
TX,BELL,"20 00002705","Single Family Homes",6/3/2020,,,2319,"408 DANIELLE DR",KILLEEN,TX,76542,,,CONTRACTOR,,,,,,,,,,,"DR HORTON",,,,,"DR HORTON","14100 SOUTHWEST",HOUSTON,TX,77478,"(281) 201-5559",,,,
TX,BELL,"20 00002706","Single Family Homes",6/3/2020,,,2313,"409 DANIELLE DR",KILLEEN,TX,76542,,,CONTRACTOR,,,,,,,,,,,"DR HORTON",,,,,"DR HORTON","14100 SOUTHWEST",HOUSTON,TX,77478,"(281) 201-5559",,,,
TX,BELL,"20 00002704","Single Family Homes",6/3/2020,,,2616,"501 PADDOCK LN",KILLEEN,TX,75009,,,CONTRACTOR,,,,,,,,,,,"DR HORTON",,,,,"DR HORTON","14100 SOUTHWEST",HOUSTON,TX,77478,"(281) 201-5559",,,,
TX,BELL,"20 00002687","Single Family Homes",6/3/2020,,,2125,"302 DANIELLE DR",KILLEEN,TX,76542,,,CONTRACTOR,,,,,,,,,,,"DR HORTON",,,,,"DR HORTON","14100 SOUTHWEST",HOUSTON,TX,77478,"(281) 201-5559",,,,
TX,BELL,"20 00002718","Single Family Homes",6/3/2020,,,2125,"310 DANIELLE DR",KILLEEN,TX,76542,,,CONTRACTOR,,,,,,,,,,,"DR HORTON",,,,,"DR HORTON","14100 SOUTHWEST",HOUSTON,TX,77478,"(281) 201-5559",,,,
TX,BELL,"20 00002775","Single Family Homes",6/4/2020,,,2457,"4702 MOOSE RIDGE CT",KILLEEN,TX,76542,,,CONTRACTOR,,,,,,,,,,,"JUBILEE HOMES",,,,,"JUBILEE HOMES","125 E BEELINE LN","HARKER HEIGHTS",TX,76548-1261,"(254) 699-0010",,,,
TX,BELL,"20 00003170","Single Family Homes",6/5/2020,,,2098,"6009 HARRIET TUBMAN AVE",KILLEEN,TX,76543,,,CONTRACTOR,,,,,,,,,,,"DR HORTON",,,,,"DR HORTON","14100 SOUTHWEST",HOUSTON,TX,77478,"(281) 201-5559",,,,
TX,BELL,"20 00003169","Single Family Homes",6/5/2020,,,2191,"6103 HARRIET TUBMAN AVE",KILLEEN,TX,76543,,,CONTRACTOR,,,,,,,,,,,"DR HORTON",,,,,"DR HORTON","14100 SOUTHWEST",HOUSTON,TX,77478,"(281) 201-5559",,,,
TX,BELL,"20 00003168","Single Family Homes",6/5/2020,,,2615,"6108 AMELIA EARHART BLVD",KILLEEN,TX,76543,,,CONTRACTOR,,,,,,,,,,,"DR HORTON",,,,,"DR HORTON","14100 SOUTHWEST",HOUSTON,TX,77478,"(281) 201-5559",,,,
TX,BELL,"20 00003222","Single Family Homes",6/9/2020,,,2319,"412 SADDLEBACK TRL",KILLEEN,TX,76543,,,CONTRACTOR,,,,,,,,,,,"DR HORTON",,,,,"DR HORTON","14100 SOUTHWEST",HOUSTON,TX,77478,"(281) 201-5559",,,,
TX,BELL,"20 00003213","Single Family Homes",6/9/2020,,,3648,"5008 HACIENDA DR",KILLEEN,TX,76549,,,CONTRACTOR,,,,,,,,,,,"DR HORTON",,,,,"DR HORTON","14100 SOUTHWEST",HOUSTON,TX,77478,"(281) 201-5559",,,,
TX,BELL,"20 00003218","Single Family Homes",6/9/2020,,,3516,"5000 HACIENDA DR",KILLEEN,TX,76549,,,CONTRACTOR,,,,,,,,,,,"DR HORTON",,,,,"DR HORTON","14100 SOUTHWEST",HOUSTON,TX,77478,"(281) 201-5559",,,,
TX,BELL,"20 00003220","Single Family Homes",6/9/2020,,,3620,"5103 AZURA WAY",KILLEEN,TX,76549,,,CONTRACTOR,,,,,,,,,,,"DR HORTON",,,,,"DR HORTON","14100 SOUTHWEST",HOUSTON,TX,77478,"(281) 201-5559",,,,
TX,BELL,"20 00002688","Single Family Homes",6/11/2020,,,2313,"305 DANIELLE DR",KILLEEN,TX,76542,,,CONTRACTOR,,,,,,,,,,,"DR HORTON",,,,,"DR HORTON","14100 SOUTHWEST",HOUSTON,TX,77478,"(281) 201-5559",,,,
TX,BELL,"20 00002690","Single Family Homes",6/11/2020,,,2319,"308 DANIELLE DR",KILLEEN,TX,76542,,,CONTRACTOR,,,,,,,,,,,"DR HORTON",,,,,"DR HORTON","14100 SOUTHWEST",HOUSTON,TX,77478,"(281) 201-5559",,,,
TX,BELL,"20 00002911","Single Family Homes",6/11/2020,,,2005,"400 DANIELLE DR",KILLEEN,TX,76542,,,CONTRACTOR,,,,,,,,,,,"DR HORTON",,,,,"DR HORTON","14100 SOUTHWEST",HOUSTON,TX,77478,"(281) 201-5559",,,,
TX,BELL,"20 00002896","Single Family Homes",6/11/2020,,,2064,"401 DANIELLE DR",KILLEEN,TX,76542,,,CONTRACTOR,,,,,,,,,,,"DR HORTON",,,,,"DR HORTON","14100 SOUTHWEST",HOUSTON,TX,77478,"(281) 201-5559",,,,
TX,BELL,"20 00002909","Single Family Homes",6/11/2020,,,2319,"402 DANIELLE DR",KILLEEN,TX,76542,,,CONTRACTOR,,,,,,,,,,,"DR HORTON",,,,,"DR HORTON","14100 SOUTHWEST",HOUSTON,TX,77478,"(281) 201-5559",,,,
TX,BELL,"20 00002906","Single Family Homes",6/11/2020,,,2313,"403 DANIELLE DR",KILLEEN,TX,76542,,,CONTRACTOR,,,,,,,,,,,"DR HORTON",,,,,"DR HORTON","14100 SOUTHWEST",HOUSTON,TX,77478,"(281) 201-5559",,,,
TX,BELL,"20 00002913","Single Family Homes",6/11/2020,,,2005,"405 DANIELLE DR",KILLEEN,TX,76542,,,CONTRACTOR,,,,,,,,,,,"DR HORTON",,,,,"DR HORTON","14100 SOUTHWEST",HOUSTON,TX,77478,"(281) 201-5559",,,,
TX,BELL,"20 00002912","Single Family Homes",6/11/2020,,,2064,"407 DANIELLE DR",KILLEEN,TX,76542,,,CONTRACTOR,,,,,,,,,,,"DR HORTON",,,,,"DR HORTON","14100 SOUTHWEST",HOUSTON,TX,77478,"(281) 201-5559",,,,
TX,BELL,"20 00003219","Single Family Homes",6/11/2020,,,1773,"6109 HARRIET TUBMAN AVE",KILLEEN,TX,76543,,,CONTRACTOR,,,,,,,,,,,"DR HORTON",,,,,"DR HORTON","14100 SOUTHWEST",HOUSTON,TX,77478,"(281) 201-5559",,,,
TX,BELL,"20 00002899","Single Family Homes",6/11/2020,,,2064,"9110 VAQUERO WAY",KILLEEN,TX,76543,,,CONTRACTOR,,,,,,,,,,,"DR HORTON",,,,,"DR HORTON","14100 SOUTHWEST",HOUSTON,TX,77478,"(281) 201-5559",,,,
TX,BELL,"20 00002900","Single Family Homes",6/11/2020,,,2676,"9208 VAQUERO WAY",KILLEEN,TX,76543,,,CONTRACTOR,,,,,,,,,,,"DR HORTON",,,,,"DR HORTON","14100 SOUTHWEST",HOUSTON,TX,77478,"(281) 201-5559",,,,
TX,BELL,"20 00002910","Single Family Homes",6/11/2020,,,2125,"406 DANIELLE DR",KILLEEN,TX,76542,,,CONTRACTOR,,,,,,,,,,,"DR HORTON",,,,,"DR HORTON","14100 SOUTHWEST",HOUSTON,TX,77478,"(281) 201-5559",,,,
TX,BELL,"20 00002844","Single Family Homes",6/11/2020,,,3175,"304 DANIELLE DR",KILLEEN,TX,76542,,,CONTRACTOR,,,,,,,,,,,"DR HORTON",,,,,"DR HORTON","14100 SOUTHWEST",HOUSTON,TX,77478,"(281) 201-5559",,,,
TX,BELL,"20 00002686","Single Family Homes",6/11/2020,,,2273,"303 DANIELLE DR",KILLEEN,TX,76542,,,CONTRACTOR,,,,,,,,,,,"DR HORTON",,,,,"DR HORTON","14100 SOUTHWEST",HOUSTON,TX,77478,"(281) 201-5559",,,,
TX,BELL,"20 00002689","Single Family Homes",6/11/2020,,,3657,"307 DANIELLE DR",KILLEEN,TX,76542,,,CONTRACTOR,,,,,,,,,,,"DR HORTON",,,,,"DR HORTON","14100 SOUTHWEST",HOUSTON,TX,77478,"(281) 201-5559",,,,
TX,BELL,"20 00003174","Single Family Homes",6/11/2020,,,3609,"311 DANIELLE DR",KILLEEN,TX,76542,,,CONTRACTOR,,,,,,,,,,,"DR HORTON",,,,,"DR HORTON","14100 SOUTHWEST",HOUSTON,TX,77478,"(281) 201-5559",,,,
TX,BELL,"20 00003231","Single Family Homes",6/11/2020,,,3609,"9308 VAQUERO WAY",KILLEEN,TX,76542,,,CONTRACTOR,,,,,,,,,,,"DR HORTON",,,,,"DR HORTON","14100 SOUTHWEST",HOUSTON,TX,77478,"(281) 201-5559",,,,
TX,BELL,"20 00003277","Single Family Homes",6/11/2020,,,3516,"5005 AZURA WAY",KILLEEN,TX,76549,,,CONTRACTOR,,,,,,,,,,,"DR HORTON",,,,,"DR HORTON","14100 SOUTHWEST",HOUSTON,TX,77478,"(281) 201-5559",,,,
TX,BELL,"20 00003339","Single Family Homes",6/16/2020,,,2714,"6013 HARRIET TUBMAN AVE",KILLEEN,TX,76543,,,CONTRACTOR,,,,,,,,,,,"DR HORTON",,,,,"DR HORTON","14100 SOUTHWEST",HOUSTON,TX,77478,"(281) 201-5559",,,,
TX,BELL,"20 00003311","Single Family Homes",6/18/2020,,,2450,"810 HICKOK DR",KILLEEN,TX,76542,,,CONTRACTOR,,,,,,,,,,,"J CLARK HOMES",,,,,"J CLARK HOMES","1406 S FM 116 STE C","COPPERAS COVE",TX,76522,"(254) 547-3300",http://jimmyclarkhomes.com/,"(254) 547-3449","APRIL TAYLOR",april@jimmyclarkhomes.com
TX,BELL,"20 00003310","Single Family Homes",6/18/2020,,,2685,"806 HICKOK DR",KILLEEN,TX,76542,,,CONTRACTOR,,,,,,,,,,,"J CLARK HOMES",,,,,"J CLARK HOMES","1406 S FM 116 STE C","COPPERAS COVE",TX,76522,"(254) 547-3300",http://jimmyclarkhomes.com/,"(254) 547-3449","APRIL TAYLOR",april@jimmyclarkhomes.com
TX,BELL,"20 00003309","Single Family Homes",6/18/2020,,,2740,"900 HICKOK DR",KILLEEN,TX,76542,,,CONTRACTOR,,,,,,,,,,,"J CLARK HOMES",,,,,"J CLARK HOMES","1406 S FM 116 STE C","COPPERAS COVE",TX,76522,"(254) 547-3300",http://jimmyclarkhomes.com/,"(254) 547-3449","APRIL TAYLOR",april@jimmyclarkhomes.com
TX,BELL,"20 00003395","Single Family Homes",6/18/2020,,,2939,"6204 CACTUS FLOWER LN",KILLEEN,TX,76549,,,CONTRACTOR,,,,,,,,,,,"PURSER HOMES",,,,,"PURSER HOMES","6705 ALVIN DR",KILLEEN,TX,76542-6334,"(254) 432-6648",http://www.purserhomes.com/,"(254) 432-6449",,sales@purserhomes.com
TX,BELL,"20 00003396","Single Family Homes",6/18/2020,,,2939,"6205 CORDILLERA DR",KILLEEN,TX,76549,,,CONTRACTOR,,,,,,,,,,,"PURSER HOMES",,,,,"PURSER HOMES","6705 ALVIN DR",KILLEEN,TX,76542-6334,"(254) 432-6648",http://www.purserhomes.com/,"(254) 432-6449",,sales@purserhomes.com
TX,BELL,"20 00003393","Single Family Homes",6/18/2020,,,3711,"8407 ELANDER DR",KILLEEN,TX,76542,,,CONTRACTOR,,,,,,,,,,,"PURSER HOMES",,,,,"PURSER HOMES","6705 ALVIN DR",KILLEEN,TX,76542-6334,"(254) 432-6648",http://www.purserhomes.com/,"(254) 432-6449",,sales@purserhomes.com
TX,BELL,"20 00003314","Single Family Homes",6/18/2020,,,3153,"801 CLANTON CV",KILLEEN,TX,76542,,,CONTRACTOR,,,,,,,,,,,"STYLECRAFT BUILDERS ",,,,,"STYLECRAFT BUILDERS ","4090 STATE HIGHWAY 6 S","COLLEGE STATION",TX,77845-8962,"(979) 764-9900",,"(979) 690-3069","TANNER BREWSTER",tabrewster@stylecraft-builders.com
TX,BELL,"20 00003312","Single Family Homes",6/18/2020,,,3501,"802 MCLINTOCK CV",KILLEEN,TX,76542,,,CONTRACTOR,,,,,,,,,,,"STYLECRAFT BUILDERS ",,,,,"STYLECRAFT BUILDERS ","4090 STATE HIGHWAY 6 S","COLLEGE STATION",TX,77845-8962,"(979) 764-9900",,"(979) 690-3069","TANNER BREWSTER",tabrewster@stylecraft-builders.com
TX,BELL,"20 00003313","Single Family Homes",6/18/2020,,,3740,"806 MCLINTOCK CV",KILLEEN,TX,76542,,,CONTRACTOR,,,,,,,,,,,"STYLECRAFT BUILDERS ",,,,,"STYLECRAFT BUILDERS ","4090 STATE HIGHWAY 6 S","COLLEGE STATION",TX,77845-8962,"(979) 764-9900",,"(979) 690-3069","TANNER BREWSTER",tabrewster@stylecraft-builders.com
TX,BELL,"19 00006550","Single Family Homes",6/19/2020,,,2794,"804 CLANTON CV",KILLEEN,TX,76542,,,CONTRACTOR,,,,,,,,,,,"ASHFORD HOMES",,,,,"ASHFORD HOMES","3800 E STAN SCHLUETER LOOP STE 107",KILLEEN,TX,76542-4558,"(254) 699-8485",,,,
TX,BELL,"19 00006718","Single Family Homes",6/19/2020,,,2794,"900 CLANTON CV",KILLEEN,TX,76542,,,CONTRACTOR,,,,,,,,,,,"ASHFORD HOMES",,,,,"ASHFORD HOMES","3800 E STAN SCHLUETER LOOP STE 107",KILLEEN,TX,76542-4558,"(254) 699-8485",,,,
TX,BELL,"20 00003344","Single Family Homes",6/19/2020,,,2430,"6011 HARRIET TUBMAN AVE",KILLEEN,TX,76543,,,CONTRACTOR,,,,,,,,,,,"DR HORTON",,,,,"DR HORTON","14100 SOUTHWEST",HOUSTON,TX,77478,"(281) 201-5559",,,,
TX,BELL,"20 00003400","Single Family Homes",6/22/2020,,,3237,"8100 HATHAWAY LN",KILLEEN,TX,76542,,,CONTRACTOR,,,,,,,,,,,"CAROTHERS HOMES",,,,,"CAROTHERS HOMES","2025 MEMORY LN STE 200","HARKER HEIGHTS",TX,76548-7488,"(254) 519-2682",,,,
TX,BELL,"20 00003398","Single Family Homes",6/22/2020,,,3237,"8104 HATHAWAY LN",KILLEEN,TX,76542,,,CONTRACTOR,,,,,,,,,,,"CAROTHERS HOMES",,,,,"CAROTHERS HOMES","2025 MEMORY LN STE 200","HARKER HEIGHTS",TX,76548-7488,"(254) 519-2682",,,,
TX,BELL,"20 00003392","Single Family Homes",6/22/2020,,,3221,"8112 HATHAWAY LN",KILLEEN,TX,76542,,,CONTRACTOR,,,,,,,,,,,"CAROTHERS HOMES",,,,,"CAROTHERS HOMES","2025 MEMORY LN STE 200","HARKER HEIGHTS",TX,76548-7488,"(254) 519-2682",,,,
TX,BELL,"20 00003554","Single Family Homes",6/22/2020,,,2005,"306 DANIELLE DR",KILLEEN,TX,76542,,,CONTRACTOR,,,,,,,,,,,"DR HORTON",,,,,"DR HORTON","14100 SOUTHWEST",HOUSTON,TX,77478,"(281) 201-5559",,,,
TX,BELL,"19 00006651","Single Family Homes",6/22/2020,,,2416,"6800 CASSIDY LN",KILLEEN,TX,76542,,,CONTRACTOR,,,,,,,,,,,"STYLECRAFT BUILDERS ",,,,,"STYLECRAFT BUILDERS ","4090 STATE HIGHWAY 6 S","COLLEGE STATION",TX,77845-8962,"(979) 764-9900",,"(979) 690-3069","TANNER BREWSTER",tabrewster@stylecraft-builders.com
TX,BELL,"20 00003475","Single Family Homes",6/23/2020,,,2313,"309 DANIELLE DR",KILLEEN,TX,76542,,,CONTRACTOR,,,,,,,,,,,"DR HORTON",,,,,"DR HORTON","14100 SOUTHWEST",HOUSTON,TX,77478,"(281) 201-5559",,,,
TX,BELL,"20 00003334","Single Family Homes",6/23/2020,,,2191,"6001 SALLY RIDE LN",KILLEEN,TX,76543,,,CONTRACTOR,,,,,,,,,,,"DR HORTON",,,,,"DR HORTON","14100 SOUTHWEST",HOUSTON,TX,77478,"(281) 201-5559",,,,
TX,BELL,"20 00003214","Single Family Homes",6/23/2020,,,3648,"5003 AZURA WAY",KILLEEN,TX,76549,,,CONTRACTOR,,,,,,,,,,,"DR HORTON",,,,,"DR HORTON","14100 SOUTHWEST",HOUSTON,TX,77478,"(281) 201-5559",,,,
TX,BELL,"20 00003474","Single Family Homes",6/23/2020,,,2773,"9108 VAQUERO WAY",KILLEEN,TX,76542,,,CONTRACTOR,,,,,,,,,,,"DR HORTON",,,,,"DR HORTON","14100 SOUTHWEST",HOUSTON,TX,77478,"(281) 201-5559",,,,
TX,BELL,"20 00003492","Single Family Homes",6/23/2020,,,3121,"6107 HERCULES AVE",KILLEEN,TX,76542,,,CONTRACTOR,,,,,,,,,,,"STYLECRAFT BUILDERS ",,,,,"STYLECRAFT BUILDERS ","4090 STATE HIGHWAY 6 S","COLLEGE STATION",TX,77845-8962,"(979) 764-9900",,"(979) 690-3069","TANNER BREWSTER",tabrewster@stylecraft-builders.com
TX,BELL,"20 00003587","Single Family Homes",6/24/2020,,,2191,"5911 HARRIET TUBMAN AVE",KILLEEN,TX,76543,,,CONTRACTOR,,,,,,,,,,,"DR HORTON",,,,,"DR HORTON","14100 SOUTHWEST",HOUSTON,TX,77478,"(281) 201-5559",,,,
TX,BELL,"20 00003341","Single Family Homes",6/24/2020,,,2191,"6001 HARRIET TUBMAN AVE",KILLEEN,TX,76543,,,CONTRACTOR,,,,,,,,,,,"DR HORTON",,,,,"DR HORTON","14100 SOUTHWEST",HOUSTON,TX,77478,"(281) 201-5559",,,,
TX,BELL,"20 00003736","Single Family Homes",6/24/2020,,,1886,"6005 HERCULES AVE",KILLEEN,TX,76542,,,CONTRACTOR,,,,,,,,,,,"STYLECRAFT BUILDERS ",,,,,"STYLECRAFT BUILDERS ","4090 STATE HIGHWAY 6 S","COLLEGE STATION",TX,77845-8962,"(979) 764-9900",,"(979) 690-3069","TANNER BREWSTER",tabrewster@stylecraft-builders.com
TX,BELL,"20 00003340","Single Family Homes",6/24/2020,,,2722,"4313 HOPE LN",KILLEEN,TX,76542,,,CONTRACTOR,,,,,,,,,,,"WELMOR HOMES",,,,,"WELMOR HOMES","PO BOX 690643",KILLEEN,TX,76549,"(254) 702-9006",,,,
TX,BELL,"20 00003394","Single Family Homes",6/26/2020,,,3137,"6207 CORDILLERA DR",KILLEEN,TX,76549,,,CONTRACTOR,,,,,,,,,,,"PURSER HOMES",,,,,"PURSER HOMES","6705 ALVIN DR",KILLEEN,TX,76542-6334,"(254) 432-6648",http://www.purserhomes.com/,"(254) 432-6449",,sales@purserhomes.com
TX,BELL,"19 00003906","Single Family Homes",6/29/2020,,170000,2064,"7606 PYRITE DR",KILLEEN,TX,76542,,,CONTRACTOR,,,,,,,,,,,"CEM PRECISION CONSTRUCTION",,,,,"CEM PRECISION CONSTRUCTION","4003 W STAN SCHLUETER LOOP STE 4",KILLEEN,TX,76549-6120,"(254) 634-1893",,,"MICHAEL EMMONS",
TX,BELL,"20 00000594","Single Family Homes",6/29/2020,,,1887,"6407 HERCULES AVE",KILLEEN,TX,76542,,,CONTRACTOR,,,,,,,,,,,"STYLECRAFT BUILDERS ",,,,,"STYLECRAFT BUILDERS ","4090 STATE HIGHWAY 6 S","COLLEGE STATION",TX,77845-8962,"(979) 764-9900",,"(979) 690-3069","TANNER BREWSTER",tabrewster@stylecraft-builders.com
TX,BELL,"20 00003737","Single Family Homes",6/30/2020,,,3249,"7902 PRESTON HOLLOW DR",KILLEEN,TX,76542,,,CONTRACTOR,,,,,,,,,,,"A&G HOMES",,,,,"A&G HOMES","109 N 6TH ST",GATESVILLE,TX,76528-1320,"(254) 845-7862",,,,
TX,BELL,"20 00003738","Single Family Homes",6/30/2020,,,3232,"7904 PRESTON HOLLOW DR",KILLEEN,TX,76542,,,CONTRACTOR,,,,,,,,,,,"A&G HOMES",,,,,"A&G HOMES","109 N 6TH ST",GATESVILLE,TX,76528-1320,"(254) 845-7862",,,,
TX,BELL,"20 00003739","Single Family Homes",6/30/2020,,,3094,"8501 GRAND OAKS LN",KILLEEN,TX,76542,,,CONTRACTOR,,,,,,,,,,,"CAROTHERS HOMES",,,,,"CAROTHERS HOMES","2025 MEMORY LN STE 200","HARKER HEIGHTS",TX,76548-7488,"(254) 519-2682",,,,
TX,BELL,"20 00003741","Single Family Homes",6/30/2020,,,3792,"8306 STEPPINGTON DR",KILLEEN,TX,76542,,,CONTRACTOR,,,,,,,,,,,"CAROTHERS HOMES",,,,,"CAROTHERS HOMES","2025 MEMORY LN STE 200","HARKER HEIGHTS",TX,76548-7488,"(254) 519-2682",,,,
TX,BELL,"20 00003740","Single Family Homes",6/30/2020,,,3972,"8609 DORSET DR",KILLEEN,TX,76542,,,CONTRACTOR,,,,,,,,,,,"CAROTHERS HOMES",,,,,"CAROTHERS HOMES","2025 MEMORY LN STE 200","HARKER HEIGHTS",TX,76548-7488,"(254) 519-2682",,,,
TX,MONTGOMERY,173127-20,"Single Family Homes",6/16/2020,,169650,,"14110 RILEY CREEK CT",HOUSTON,TX,77356,"FOSTERS RIDGE",,CONTRACTOR,,,,,,,,,,,"DR HORTON",,,,,"DR HORTON","14100 SOUTHWEST",HOUSTON,TX,77478,"(281) 201-5559",,,,
TX,MONTGOMERY,173130-20,"Single Family Homes",6/16/2020,,95130,,"14126 RILEY CREEK CT",HOUSTON,TX,77356,"FOSTERS RIDGE",,CONTRACTOR,,,,,,,,,,,"DR HORTON",,,,,"DR HORTON","14100 SOUTHWEST",HOUSTON,TX,77478,"(281) 201-5559",,,,
TX,MONTGOMERY,173131-20,"Single Family Homes",6/16/2020,,112515,,"14122 RILEY CREEK CT",HOUSTON,TX,77356,"FOSTERS RIDGE",,CONTRACTOR,,,,,,,,,,,"DR HORTON",,,,,"DR HORTON","14100 SOUTHWEST",HOUSTON,TX,77478,"(281) 201-5559",,,,
TX,MONTGOMERY,173190-20,"Single Family Homes",6/16/2020,,89505,,"20841 OLIVE LEAF ST",HOUSTON,TX,77356,"HARRINGTON TRAILS",,CONTRACTOR,,,,,,,,,,,"DR HORTON",,,,,"DR HORTON","14100 SOUTHWEST",HOUSTON,TX,77478,"(281) 201-5559",,,,
TX,MONTGOMERY,173212-20,"Single Family Homes",6/17/2020,,103050,,"14114 RILEY CREEK CT",HOUSTON,TX,77356,"FOSTERS RIDGE",,CONTRACTOR,,,,,,,,,,,"DR HORTON",,,,,"DR HORTON","14100 SOUTHWEST",HOUSTON,TX,77478,"(281) 201-5559",,,,
TX,MONTGOMERY,173216-20,"Single Family Homes",6/17/2020,,112515,,"13965 FORT WARD WAY",HOUSTON,TX,77356,"FOSTERS RIDGE",,CONTRACTOR,,,,,,,,,,,"DR HORTON",,,,,"DR HORTON","14100 SOUTHWEST",HOUSTON,TX,77478,"(281) 201-5559",,,,
TX,MONTGOMERY,173238-20,"Single Family Homes",6/18/2020,,138780,,"443 STONEBROOK LN",HOUSTON,TX,77356,"HILLS OF WESTLAKE",,CONTRACTOR,,,,,,,,,,,"DR HORTON",,,,,"DR HORTON","14100 SOUTHWEST",HOUSTON,TX,77478,"(281) 201-5559",,,,
TX,MONTGOMERY,173239-20,"Single Family Homes",6/18/2020,,122535,,"439 STONEBROOK LN",HOUSTON,TX,77356,"HILLS OF WESTLAKE",,CONTRACTOR,,,,,,,,,,,"DR HORTON",,,,,"DR HORTON","14100 SOUTHWEST",HOUSTON,TX,77478,"(281) 201-5559",,,,
TX,MONTGOMERY,173268-20,"Single Family Homes",6/19/2020,,90540,,"16761 LONELY PINES DR",HOUSTON,TX,77356,"GRANGER PINES",,CONTRACTOR,,,,,,,,,,,"DR HORTON",,,,,"DR HORTON","14100 SOUTHWEST",HOUSTON,TX,77478,"(281) 201-5559",,,,
TX,MONTGOMERY,173269-20,"Single Family Homes",6/19/2020,,112515,,"13950 FORT WARD WAY",HOUSTON,TX,77356,"FOSTERS RIDGE",,CONTRACTOR,,,,,,,,,,,"DR HORTON",,,,,"DR HORTON","14100 SOUTHWEST",HOUSTON,TX,77478,"(281) 201-5559",,,,
TX,MONTGOMERY,173270-20,"Single Family Homes",6/19/2020,,103050,,"13962 FORT WARD WAY",HOUSTON,TX,77356,"FOSTERS RIDGE",,CONTRACTOR,,,,,,,,,,,"DR HORTON",,,,,"DR HORTON","14100 SOUTHWEST",HOUSTON,TX,77478,"(281) 201-5559",,,,
TX,MONTGOMERY,"173271 20","Single Family Homes",6/19/2020,,122500,,"13966 FORT WARD WAY",HOUSTON,TX,77356,"FOSTERS RIDGE",,CONTRACTOR,,,,,,,,,,,"DR HORTON",,,,,"DR HORTON","14100 SOUTHWEST",HOUSTON,TX,77478,"(281) 201-5559",,,,
TX,MONTGOMERY,173272-20,"Single Family Homes",6/19/2020,,95130,,"13969 FORT WARD WAY",HOUSTON,TX,77356,"FOSTERS RIDGE",,CONTRACTOR,,,,,,,,,,,"DR HORTON",,,,,"DR HORTON","14100 SOUTHWEST",HOUSTON,TX,77478,"(281) 201-5559",,,,
TX,MONTGOMERY,173273-20,"Single Family Homes",6/19/2020,,107550,,"13973 FORT WARD WAY",HOUSTON,TX,77356,"FOSTERS RIDGE",,CONTRACTOR,,,,,,,,,,,"DR HORTON",,,,,"DR HORTON","14100 SOUTHWEST",HOUSTON,TX,77478,"(281) 201-5559",,,,
TX,MONTGOMERY,173274-20,"Single Family Homes",6/19/2020,,132885,,"13974 FORT WARD WAY",HOUSTON,TX,77356,"FOSTERS RIDGE",,CONTRACTOR,,,,,,,,,,,"DR HORTON",,,,,"DR HORTON","14100 SOUTHWEST",HOUSTON,TX,77478,"(281) 201-5559",,,,
TX,MONTGOMERY,173275-20,"Single Family Homes",6/19/2020,,107550,,"13954 FORT WARD WAY",HOUSTON,TX,77356,"FOSTERS RIDGE",,CONTRACTOR,,,,,,,,,,,"DR HORTON",,,,,"DR HORTON","14100 SOUTHWEST",HOUSTON,TX,77478,"(281) 201-5559",,,,
TX,MONTGOMERY,173276-20,"Single Family Homes",6/19/2020,,95130,,"13958 FORT WARD WAY",HOUSTON,TX,77356,"FOSTERS RIDGE",,CONTRACTOR,,,,,,,,,,,"DR HORTON",,,,,"DR HORTON","14100 SOUTHWEST",HOUSTON,TX,77478,"(281) 201-5559",,,,
TX,MONTGOMERY,173277-20,"Single Family Homes",6/19/2020,,125640,,"13970 FORT WARD WAY",HOUSTON,TX,77356,"FOSTERS RIDGE",,CONTRACTOR,,,,,,,,,,,"DR HORTON",,,,,"DR HORTON","14100 SOUTHWEST",HOUSTON,TX,77478,"(281) 201-5559",,,,
TX,MONTGOMERY,173298-20,"Single Family Homes",6/19/2020,,119250,,"16733 LONELY PINES DR",HOUSTON,TX,77356,"GRANGER PINES",,CONTRACTOR,,,,,,,,,,,"DR HORTON",,,,,"DR HORTON","14100 SOUTHWEST",HOUSTON,TX,77478,"(281) 201-5559",,,,
TX,MONTGOMERY,173299-20,"Single Family Homes",6/19/2020,,86580,,"16727 LONELY PINES DR",HOUSTON,TX,77356,"GRANGER PINES",,CONTRACTOR,,,,,,,,,,,"DR HORTON",,,,,"DR HORTON","14100 SOUTHWEST",HOUSTON,TX,77478,"(281) 201-5559",,,,
TX,MONTGOMERY,173304-20,"Single Family Homes",6/19/2020,,90510,,"16721 LONELY PINES DR",HOUSTON,TX,77356,"GRANGER PINES",,CONTRACTOR,,,,,,,,,,,"DR HORTON",,,,,"DR HORTON","14100 SOUTHWEST",HOUSTON,TX,77478,"(281) 201-5559",,,,
TX,MONTGOMERY,173133-20,"Single Family Homes",6/16/2020,,272588,,"107 VUE POINT PLACE",HOUSTON,TX,77356,"LAKE WOODLANDS EAST SHORE",,CONTRACTOR,,,,,,,,,,,"DARLING HOMES",,,,,"DARLING HOMES","10255 RICHMOND AVE STE 150",HOUSTON,TX,77042-4382,"(713) 690-6902",http://www.darlinghomes.com/,,,
TX,MONTGOMERY,173153-20,"Single Family Homes",6/16/2020,,607000,,"128 EAST SHELL PORT SQUARE",HOUSTON,TX,77356,"LAKE WOODLANDS EAST SHORE",,CONTRACTOR,,,,,,,,,,,"DAVID WEEKLEY HOMES",,,,,"DAVID WEEKLEY HOMES","14444 NORTHWEST",HOUSTON,TX,77040,"(713) 570-5021",http://www.davidweekleyhomes.com/,,,
TX,MONTGOMERY,"173300 20","Single Family Homes",6/19/2020,,327990,,"15309 GARNET GROVES DR",HOUSTON,TX,77356,ARTAVIA,,CONTRACTOR,,,,,,,,,,,"DAVID WEEKLEY HOMES",,,,,"DAVID WEEKLEY HOMES","14444 NORTHWEST",HOUSTON,TX,77040,"(713) 570-5021",http://www.davidweekleyhomes.com/,,,
TX,MONTGOMERY,173301-20,"Single Family Homes",6/19/2020,,329990,,"15334 GARNET GROVES DR",HOUSTON,TX,77356,ARTAVIA,,CONTRACTOR,,,,,,,,,,,"DAVID WEEKLEY HOMES",,,,,"DAVID WEEKLEY HOMES","14444 NORTHWEST",HOUSTON,TX,77040,"(713) 570-5021",http://www.davidweekleyhomes.com/,,,
TX,MONTGOMERY,173302-20,"Single Family Homes",6/19/2020,,338990,,"15269 HEMINGWAY HEIGHTS DR",HOUSTON,TX,77356,ARTAVIA,,CONTRACTOR,,,,,,,,,,,"DAVID WEEKLEY HOMES",,,,,"DAVID WEEKLEY HOMES","14444 NORTHWEST",HOUSTON,TX,77040,"(713) 570-5021",http://www.davidweekleyhomes.com/,,,
TX,MONTGOMERY,"173303 20","Single Family Homes",6/19/2020,,327990,,"15264 HEMINGWAY HEIGHTS DR",HOUSTON,TX,77356,ARTAVIA,,CONTRACTOR,,,,,,,,,,,"DAVID WEEKLEY HOMES",,,,,"DAVID WEEKLEY HOMES","14444 NORTHWEST",HOUSTON,TX,77040,"(713) 570-5021",http://www.davidweekleyhomes.com/,,,
TX,MONTGOMERY,"173305 20","Single Family Homes",6/19/2020,,326990,,"32200 PARK PLAINS DR",HOUSTON,TX,77356,"MEADOWS AT IMPERIAL OAKS",,CONTRACTOR,,,,,,,,,,,"DAVID WEEKLEY HOMES",,,,,"DAVID WEEKLEY HOMES","14444 NORTHWEST",HOUSTON,TX,77040,"(713) 570-5021",http://www.davidweekleyhomes.com/,,,
TX,MONTGOMERY,173179-20,"Single Family Homes",6/16/2020,,117905,,"739 MAJESTIC SHORES LN",HOUSTON,TX,77356,WOODTRACE,,CONTRACTOR,,,,,,,,,,,"DREES CUSTOM HOMES",,,,,"DREES CUSTOM HOMES","9720 CYPRESSWOOD DR",HOUSTON,TX,77070-3355,"(281) 653-8850",http://www.dreeshomes.com,,,
TX,MONTGOMERY,173181-20,"Single Family Homes",6/16/2020,,363280,,"617 ASHBROOK RIDGE LN",HOUSTON,TX,77356,WOODTRACE,,CONTRACTOR,,,,,,,,,,,"DREES CUSTOM HOMES",,,,,"DREES CUSTOM HOMES","9720 CYPRESSWOOD DR",HOUSTON,TX,77070-3355,"(281) 653-8850",http://www.dreeshomes.com,,,
TX,MONTGOMERY,"173119 20","Single Family Homes",6/15/2020,,268920,,"101 BUNGALOW DR",HOUSTON,TX,77356,WOODFOREST,,CONTRACTOR,,,,,,,,,,,"EHT OF TEXAS LP",,,,,"EHT OF TEXAS LP","10235 LITTLE",HOUSTON,TX,77040,"(713) 557-3685",,,,
TX,MONTGOMERY,173118-20,"Single Family Homes",6/15/2020,,272000,,"9795 WALLER ST",HOUSTON,TX,77356,"DEER PINES",,CONTRACTOR,,,,,,,,,,,"FIRST AMERICA HOMES",,,,,"FIRST AMERICA HOMES","1400 WOODLOCH FOREST DR STE 200","THE WOODLANDS",TX,77380-1179,"(713) 452-1700",http://www.firstamericahomes.com/,,,info@firstamericahomes.com
TX,MONTGOMERY,173223-20,"Single Family Homes",6/17/2020,,244990,,"11502 MARCI LN",HOUSTON,TX,77356,"CLEAR VIEW ESTATES",,CONTRACTOR,,,,,,,,,,,"FIRST AMERICA HOMES",,,,,"FIRST AMERICA HOMES","1400 WOODLOCH FOREST DR STE 200","THE WOODLANDS",TX,77380-1179,"(713) 452-1700",http://www.firstamericahomes.com/,,,info@firstamericahomes.com
TX,MONTGOMERY,173224-20,"Single Family Homes",6/17/2020,,227990,,"13100 LAURA LAKE DR",HOUSTON,TX,77356,"CLEAR VIEW ESTATES",,CONTRACTOR,,,,,,,,,,,"FIRST AMERICA HOMES",,,,,"FIRST AMERICA HOMES","1400 WOODLOCH FOREST DR STE 200","THE WOODLANDS",TX,77380-1179,"(713) 452-1700",http://www.firstamericahomes.com/,,,info@firstamericahomes.com
TX,MONTGOMERY,173224-20,"Single Family Homes",6/17/2020,,227990,,"13100 LAURA LAKE DR",HOUSTON,TX,77356,"CLEAR VIEW ESTATES",,CONTRACTOR,,,,,,,,,,,"FIRST AMERICA HOMES",,,,,"FIRST AMERICA HOMES","1400 WOODLOCH FOREST DR STE 200","THE WOODLANDS",TX,77380-1179,"(713) 452-1700",http://www.firstamericahomes.com/,,,info@firstamericahomes.com
TX,MONTGOMERY,173151-20,"Single Family Homes",6/16/2020,,180000,,"592 MACON PARK",HOUSTON,TX,77356,"RIVER PLANTATION",,"JESUS GAMBOA","710 BENDING BOUGH DR",SPRING,TX,77388,,Owner,,,,,OWNER,,,,,OWNER,,,,,,,,,
TX,MONTGOMERY,173306-20,"Single Family Homes",6/19/2020,,399000,,"24470 GAY LAKE ROAD",HOUSTON,TX,77356,,,"MICHAEL GOINS","19 GREENVIEW ST",MONTGOMERY,TX,77356,,Owner,,,,,OWNER,,,,,OWNER,,,,,,,,,
TX,MONTGOMERY,173248-20,"Single Family Homes",6/18/2020,,130000,,"189 MONTERREY ROAD",HOUSTON,TX,77356,BENTWATER,,"SAUL GONZALEZ","2322 HECTOR ST",HOUSTON,TX,77093,,Owner,,,,,OWNER,,,,,OWNER,,,,,,,,,
TX,MONTGOMERY,173249-20,"Single Family Homes",6/18/2020,,220000,,"519 EDGEWOOD DR",HOUSTON,TX,77356,BENTWATER,,"SAUL GONZALEZ","2322 HECTOR ST",HOUSTON,TX,77093,,Owner,,,,,OWNER,,,,,OWNER,,,,,,,,,
TX,MONTGOMERY,173293-20,"Single Family Homes",6/19/2020,,522000,,"17203 INDIGO HILLS DR",HOUSTON,TX,77356,"INDIGO RANCH",,"BECKY GROSCHKE","8918 BALLINGEN DR",HOUSTON,TX,77064,,Owner,,,,,OWNER,,,,,OWNER,,,,,,,,,
TX,MONTGOMERY,173297-20,"Single Family Homes",6/19/2020,,200000,,"1395 MOHAWK DR",HOUSTON,TX,77356,"CRESTWOOD FARMS",,"TEENA HARTMAN","2345 APACHE DR",MONTGOMERY,TX,77316,,Owner,,,,,OWNER,,,,,OWNER,,,,,,,,,
TX,MONTGOMERY,173144-20,"Single Family Homes",6/16/2020,,750000,,"5510 W BALSAM FIR COURT",HOUSTON,TX,77356,"BENDERS LANDING ESTATES",,"WALLACE & MARCIA HUGHES","3238 OLD CHAPEL DR",SPRING,TX,77376,,Owner,,,,,OWNER,,,,,OWNER,,,,,,,,,
TX,MONTGOMERY,173279-20,"Single Family Homes",6/19/2020,,300000,,"9027 GRAND LAKE ESTATES DR",HOUSTON,TX,77356,"GRAND LAKE ESTATES",,CONTRACTOR,,,,,,,,,,,"JJS CUSTOM BUILT HOMES",,,,,"JJS CUSTOM BUILT HOMES","17415 LITTLE RIATA DR",HOUSTON,TX,77095-7010,"(713) 539-7248",,,,
TX,MONTGOMERY,173138-20,"Single Family Homes",6/16/2020,,162000,,"20833 LANGWORTH PLACE",HOUSTON,TX,77356,"BROOKWOOD FOREST",,CONTRACTOR,,,,,,,,,,,"KB HOME",,,,,"KB HOME","11314 RICHMOND AVE",HOUSTON,TX,77082-2616,"(281) 668-3800",,,,
TX,MONTGOMERY,173140-20,"Single Family Homes",6/16/2020,,198000,,"28065 LANGWORTH PLACE",HOUSTON,TX,77356,"BROOKWOOD FOREST",,CONTRACTOR,,,,,,,,,,,"KB HOME",,,,,"KB HOME","11314 RICHMOND AVE",HOUSTON,TX,77082-2616,"(281) 668-3800",,,,
TX,MONTGOMERY,173156-20,"Single Family Homes",6/16/2020,,143000,,"8784 UTE CREEK LN",HOUSTON,TX,77356,"CIMARRON CREEK",,CONTRACTOR,,,,,,,,,,,"KB HOME",,,,,"KB HOME","11314 RICHMOND AVE",HOUSTON,TX,77082-2616,"(281) 668-3800",,,,
TX,MONTGOMERY,173157-20,"Single Family Homes",6/16/2020,,238000,,"8646 CIMARRON MESA LN",HOUSTON,TX,77356,"CIMARRON CREEK",,CONTRACTOR,,,,,,,,,,,"KB HOME",,,,,"KB HOME","11314 RICHMOND AVE",HOUSTON,TX,77082-2616,"(281) 668-3800",,,,
TX,MONTGOMERY,173160-20,"Single Family Homes",6/16/2020,,142000,,"8633 CIMARRON MESA LN",HOUSTON,TX,77356,"CIMARRON CREEK",,CONTRACTOR,,,,,,,,,,,"KB HOME",,,,,"KB HOME","11314 RICHMOND AVE",HOUSTON,TX,77082-2616,"(281) 668-3800",,,,
TX,MONTGOMERY,173162-20,"Single Family Homes",6/16/2020,,133000,,"8743 UTE CREEK LN",HOUSTON,TX,77356,"CIMARRON CREEK",,CONTRACTOR,,,,,,,,,,,"KB HOME",,,,,"KB HOME","11314 RICHMOND AVE",HOUSTON,TX,77082-2616,"(281) 668-3800",,,,
TX,MONTGOMERY,173165-20,"Single Family Homes",6/16/2020,,149000,,"8739 UTE CREEK LN",HOUSTON,TX,77356,"CIMARRON CREEK",,CONTRACTOR,,,,,,,,,,,"KB HOME",,,,,"KB HOME","11314 RICHMOND AVE",HOUSTON,TX,77082-2616,"(281) 668-3800",,,,
TX,MONTGOMERY,173173-20,"Single Family Homes",6/16/2020,,123000,,"8779 UTE CREEK LN",HOUSTON,TX,77356,"CIMARRON CREEK",,CONTRACTOR,,,,,,,,,,,"KB HOME",,,,,"KB HOME","11314 RICHMOND AVE",HOUSTON,TX,77082-2616,"(281) 668-3800",,,,
TX,MONTGOMERY,173242-20,"Single Family Homes",6/18/2020,,241000,,"8638 CIMARRON MESA LN",HOUSTON,TX,77356,"CIMARRON CREEK",,CONTRACTOR,,,,,,,,,,,"KB HOME",,,,,"KB HOME","11314 RICHMOND AVE",HOUSTON,TX,77082-2616,"(281) 668-3800",,,,
TX,MONTGOMERY,173245-20,"Single Family Homes",6/18/2020,,96000,,"20310 POLEBROOK DR",HOUSTON,TX,77356,"BROOKWOOD FOREST",,CONTRACTOR,,,,,,,,,,,"KB HOME",,,,,"KB HOME","11314 RICHMOND AVE",HOUSTON,TX,77082-2616,"(281) 668-3800",,,,
TX,MONTGOMERY,173094-20,"Single Family Homes",6/15/2020,,193740,,"16073 DEER PINES DR",HOUSTON,TX,77356,"DEER PINES",,CONTRACTOR,,,,,,,,,,,"KENDALL HOMES",,,,,"KENDALL HOMES","427 MASON PARK BLVD",KATY,TX,77450-6187,"(281) 398-4010",http://www.kendallhomes.net/,"(281) 398-4011",,
TX,MONTGOMERY,173105-20,"Single Family Homes",6/15/2020,,165000,,"4313 UMBER SHADOW DR",HOUSTON,TX,77356,"HARMONY VILLAGE",,CONTRACTOR,,,,,,,,,,,"LENNAR HOMES",,,,,"LENNAR HOMES","550 GREENS PKWY",HOUSTON,TX,77067-4537,"(281) 875-1000",http://www.lennar.com/,,,
TX,MONTGOMERY,"173106 20","Single Family Homes",6/15/2020,,195000,,"4243 GREEN LANDING DR",HOUSTON,TX,77356,"HARMONY VILLAGE",,CONTRACTOR,,,,,,,,,,,"LENNAR HOMES",,,,,"LENNAR HOMES","550 GREENS PKWY",HOUSTON,TX,77067-4537,"(281) 875-1000",http://www.lennar.com/,,,
TX,MONTGOMERY,173176-20,"Single Family Homes",6/16/2020,,96500,,"24023 CHERRY BIRCH LN",HOUSTON,TX,77356,TAVOLA,,CONTRACTOR,,,,,,,,,,,"LENNAR HOMES",,,,,"LENNAR HOMES","550 GREENS PKWY",HOUSTON,TX,77067-4537,"(281) 875-1000",http://www.lennar.com/,,,
TX,MONTGOMERY,"173177 20","Single Family Homes",6/16/2020,,97900,,"18830 AMARO HILLS DR",HOUSTON,TX,77356,TAVOLA,,CONTRACTOR,,,,,,,,,,,"LENNAR HOMES",,,,,"LENNAR HOMES","550 GREENS PKWY",HOUSTON,TX,77067-4537,"(281) 875-1000",http://www.lennar.com/,,,
TX,MONTGOMERY,"173178 20","Single Family Homes",6/16/2020,,97000,,"18805 AMARO HILLS DR",HOUSTON,TX,77356,TAVOLA,,CONTRACTOR,,,,,,,,,,,"LENNAR HOMES",,,,,"LENNAR HOMES","550 GREENS PKWY",HOUSTON,TX,77067-4537,"(281) 875-1000",http://www.lennar.com/,,,
TX,MONTGOMERY,173189-20,"Single Family Homes",6/16/2020,,204230,,"308 LOCHVALE PEAK CT",HOUSTON,TX,77356,WOODFOREST,,CONTRACTOR,,,,,,,,,,,"LENNAR HOMES",,,,,"LENNAR HOMES","550 GREENS PKWY",HOUSTON,TX,77067-4537,"(281) 875-1000",http://www.lennar.com/,,,
TX,MONTGOMERY,173213-20,"Single Family Homes",6/17/2020,,250000,,"28211 WHITMORE BEND DR",HOUSTON,TX,77356,"WOODSONS RESERVE",,CONTRACTOR,,,,,,,,,,,"LENNAR HOMES",,,,,"LENNAR HOMES","550 GREENS PKWY",HOUSTON,TX,77067-4537,"(281) 875-1000",http://www.lennar.com/,,,
TX,MONTGOMERY,173215-20,"Single Family Homes",6/17/2020,,196000,,"28206 WHITMORE BEND DR",HOUSTON,TX,77356,"WOODSONS RESERVE",,CONTRACTOR,,,,,,,,,,,"LENNAR HOMES",,,,,"LENNAR HOMES","550 GREENS PKWY",HOUSTON,TX,77067-4537,"(281) 875-1000",http://www.lennar.com/,,,
TX,MONTGOMERY,173217-20,"Single Family Homes",6/17/2020,,250000,,"28222 WHITMORE BEND DR",HOUSTON,TX,77356,"WOODSONS RESERVE",,CONTRACTOR,,,,,,,,,,,"LENNAR HOMES",,,,,"LENNAR HOMES","550 GREENS PKWY",HOUSTON,TX,77067-4537,"(281) 875-1000",http://www.lennar.com/,,,
TX,MONTGOMERY,173247-20,"Single Family Homes",6/18/2020,,147700,,"23922 OLIVENZA TR",HOUSTON,TX,77356,TAVOLA,,CONTRACTOR,,,,,,,,,,,"LENNAR HOMES",,,,,"LENNAR HOMES","550 GREENS PKWY",HOUSTON,TX,77067-4537,"(281) 875-1000",http://www.lennar.com/,,,
TX,MONTGOMERY,173243-20,"Single Family Homes",6/18/2020,,80000,,"16360 SNOWY EGRET LN",HOUSTON,TX,77356,"MONTGOMERY CREEK RANCH",,CONTRACTOR,,,,,,,,,,,"LONG LAKE HOMES",,,,,"LONG LAKE HOMES","15915 KATY FWY STE 405",HOUSTON,TX,77094-1710,"(281) 646-1727",http://www.longlakeltd.com/,,"DAVID BIGLER",
TX,MONTGOMERY,173244-20,"Single Family Homes",6/18/2020,,80000,,"16516 ROCK WREN TR",HOUSTON,TX,77356,"MONTGOMERY CREEK RANCH",,CONTRACTOR,,,,,,,,,,,"LONG LAKE HOMES",,,,,"LONG LAKE HOMES","15915 KATY FWY STE 405",HOUSTON,TX,77094-1710,"(281) 646-1727",http://www.longlakeltd.com/,,"DAVID BIGLER",
TX,MONTGOMERY,173246-20,"Single Family Homes",6/18/2020,,80000,,"29200 MOSSBRAE FALLS CT",HOUSTON,TX,77356,"FOREST VILLAGE",,CONTRACTOR,,,,,,,,,,,"LONG LAKE HOMES",,,,,"LONG LAKE HOMES","15915 KATY FWY STE 405",HOUSTON,TX,77094-1710,"(281) 646-1727",http://www.longlakeltd.com/,,"DAVID BIGLER",
TX,MONTGOMERY,"173200 20","Single Family Homes",6/17/2020,,100000,,"4890 CROCKETT MARTIN ROAD",HOUSTON,TX,77356,,,"RIGOBERTO MACIS","4890 CROCKETT MARTIN RD",CONROE,TX,77306,,Owner,,,,,OWNER,,,,,OWNER,,,,,,,,,
TX,MONTGOMERY,173111-20,"Single Family Homes",6/15/2020,,236000,,"22512 GRAN SASSO DR",HOUSTON,TX,77356,TAVOLA,,CONTRACTOR,,,,,,,,,,,"MERITAGE HOMES",,,,,"MERITAGE HOMES","2901 W SAM HOUSTON PKWY N",HOUSTON,TX,77043-1630,"(713) 357-1184",,,,
TX,MONTGOMERY,173136-20,"Single Family Homes",6/16/2020,,1000000,,"2473 SOUTHLINE ROAD",HOUSTON,TX,77356,"NORTHLINE OAKS",,"ROBERT MESSINGILL","2473 SOUTHLINE ROAD",HOUSTON,TX,77356,,Owner,,,,,OWNER,,,,,OWNER,,,,,,,,,
TX,MONTGOMERY,173166-20,"Single Family Homes",6/16/2020,,331723,,"2715 HIDDEN HOLLOW LN",HOUSTON,TX,77356,"MEADOWS AT IMPERIAL OAKS",,CONTRACTOR,,,,,,,,,,,"MHI MCGUYER HOMEBUILDERS",,,,,"MHI MCGUYER HOMEBUILDERS","7676 WOODWAY DR",HOUSTON,TX,77063-1526,"(713) 260-4107",,,,
TX,MONTGOMERY,"173171 20","Single Family Homes",6/16/2020,,403990,,"32068 AUTUMN ORCHARD LN",HOUSTON,TX,77356,"MEADOWS AT IMPERIAL OAKS",,CONTRACTOR,,,,,,,,,,,"MHI MCGUYER HOMEBUILDERS",,,,,"MHI MCGUYER HOMEBUILDERS","7676 WOODWAY DR",HOUSTON,TX,77063-1526,"(713) 260-4107",,,,
TX,MONTGOMERY,173174-20,"Single Family Homes",6/16/2020,,203990,,"2818 WILDE REDBUD LN",HOUSTON,TX,77356,"MEADOWS AT IMPERIAL OAKS",,CONTRACTOR,,,,,,,,,,,"MHI MCGUYER HOMEBUILDERS",,,,,"MHI MCGUYER HOMEBUILDERS","7676 WOODWAY DR",HOUSTON,TX,77063-1526,"(713) 260-4107",,,,
TX,MONTGOMERY,173195-20,"Single Family Homes",6/17/2020,,140000,,"14972 QUINETTE",HOUSTON,TX,77356,"PINE MEADOWS",,"JR, VIDAL MIRELES","165 FAIRWIND TRAIL",CONROE,TX,77385,,Owner,,,,,OWNER,,,,,OWNER,,,,,,,,,
TX,MONTGOMERY,173082-20,"Single Family Homes",6/15/2020,,120000,,"17061 WHITE BIRCH LN",HOUSTON,TX,77356,"DOGWOOD FOREST",,"MMM OF BATON ROUGE","21059 BLAIR ROAD",CONROE,TX,77385,,Owner,,,,,OWNER,,,,,OWNER,,,,,,,,,
TX,MONTGOMERY,173226-20,"Single Family Homes",6/17/2020,,125000,,"10950 FAIRVIEW DR",HOUSTON,TX,77356,"LAKE CHATEAU WOODS",,"RENE MONTOYA","19619 FAIRWAY ISLAND DR",HUMBLE,TX,77356,,Owner,,,,,OWNER,,,,,OWNER,,,,,,,,,
TX,MONTGOMERY,173112-20,"Single Family Homes",6/15/2020,,263925,,"14924 FIERY ROSE DR",HOUSTON,TX,77356,ARTAVIA,,CONTRACTOR,,,,,,,,,,,"PERRY HOMES",,,,,"PERRY HOMES","9000 GULF FWY",HOUSTON,TX,77017-7018,"(713) 417-1396",,,,
TX,MONTGOMERY,173152-20,"Single Family Homes",6/16/2020,,278925,,"23433 YAUPON HILLS DR",HOUSTON,TX,77356,TAVOLA,,CONTRACTOR,,,,,,,,,,,"PERRY HOMES",,,,,"PERRY HOMES","9000 GULF FWY",HOUSTON,TX,77017-7018,"(713) 417-1396",,,,
TX,MONTGOMERY,173154-20,"Single Family Homes",6/16/2020,,236175,,"18970 ROSEWOOD TERRACE DR",HOUSTON,TX,77356,TAVOLA,,CONTRACTOR,,,,,,,,,,,"PERRY HOMES",,,,,"PERRY HOMES","9000 GULF FWY",HOUSTON,TX,77017-7018,"(713) 417-1396",,,,
TX,MONTGOMERY,173161-20,"Single Family Homes",6/16/2020,,247425,,"18976 ROSEWOOD TERRACE DR",HOUSTON,TX,77356,TAVOLA,,CONTRACTOR,,,,,,,,,,,"PERRY HOMES",,,,,"PERRY HOMES","9000 GULF FWY",HOUSTON,TX,77017-7018,"(713) 417-1396",,,,
TX,MONTGOMERY,173163-20,"Single Family Homes",6/16/2020,,246675,,"18980 ROSEWOOD TERRACE DR",HOUSTON,TX,77356,TAVOLA,,CONTRACTOR,,,,,,,,,,,"PERRY HOMES",,,,,"PERRY HOMES","9000 GULF FWY",HOUSTON,TX,77017-7018,"(713) 417-1396",,,,
TX,MONTGOMERY,173164-20,"Single Family Homes",6/16/2020,,257175,,"18818 CAPALONA CT",HOUSTON,TX,77356,TAVOLA,,CONTRACTOR,,,,,,,,,,,"PERRY HOMES",,,,,"PERRY HOMES","9000 GULF FWY",HOUSTON,TX,77017-7018,"(713) 417-1396",,,,
TX,MONTGOMERY,173169-20,"Single Family Homes",6/16/2020,,405675,,"28463 SUNRISE VIEW DR",HOUSTON,TX,77356,"WOODSONS RESERVE",,CONTRACTOR,,,,,,,,,,,"PERRY HOMES",,,,,"PERRY HOMES","9000 GULF FWY",HOUSTON,TX,77017-7018,"(713) 417-1396",,,,
TX,MONTGOMERY,173170-20,"Single Family Homes",6/16/2020,,378675,,"28326 STERLING OAK DR",HOUSTON,TX,77356,"WOODSONS RESERVE",,CONTRACTOR,,,,,,,,,,,"PERRY HOMES",,,,,"PERRY HOMES","9000 GULF FWY",HOUSTON,TX,77017-7018,"(713) 417-1396",,,,
TX,MONTGOMERY,173172-20,"Single Family Homes",6/16/2020,,377925,,"28368 STERLING OAK DR",HOUSTON,TX,77356,"WOODSONS RESERVE",,CONTRACTOR,,,,,,,,,,,"PERRY HOMES",,,,,"PERRY HOMES","9000 GULF FWY",HOUSTON,TX,77017-7018,"(713) 417-1396",,,,
TX,MONTGOMERY,173256-20,"Single Family Homes",6/18/2020,,200000,,"11433 CROSSNO DR",HOUSTON,TX,77356,,,"KENNETH PHILLIPS","1103 A PARKHURST",CLEVELAND,TX,77327,,Owner,,,,,OWNER,,,,,OWNER,,,,,,,,,
TX,MONTGOMERY,173257-20,"Single Family Homes",6/18/2020,,200000,,"11445 CROSSNO DR",HOUSTON,TX,77356,,,"KENNETH PHILLIPS","1103 A PARKHURST",CLEVELAND,TX,77327,,Owner,,,,,OWNER,,,,,OWNER,,,,,,,,,
TX,MONTGOMERY,"173093 20","Single Family Homes",6/15/2020,,379960,,"115 DARTMOOR LN",HOUSTON,TX,77356,"DEL WEBB",,CONTRACTOR,,,,,,,,,,,"PULTE HOMES",,,,,"PULTE HOMES","16670 PARK ROW",HOUSTON,TX,77084-6866,"(281) 749-8000",,,,
TX,GALVESTON,2020-25927,"Single Family Homes",6/19/2020,,,2808,"2305 MCCLENDON TRL","LEAGUE CITY",TX,78641,,,CONTRACTOR,,,,,,,,,,,"GEHAN HOMES",,,,,"GEHAN HOMES","3815 S CAPITAL OF TEXAS HWY STE 275",AUSTIN,TX,78704-6652,"(512) 330-9366",http://www.gehanhomes.com,,"JANET PHILLIPS",
TX,BRAZOS,20-1315,"Warehouse & Manufacturing",6/23/2020,,1100000,14127,"2404 N TEXAS AVE",BRYAN,TX,77803,,,CONTRACTOR,,,,,,,,,,,"JAMES R HARRIS CONSTRUCTION",,,,,"JAMES R HARRIS CONSTRUCTION","311 UNIVERSITY DR #101","FORT WORTH",TX,76107,"(817) 332-9600",,,,
TX,MONTGOMERY,BC-19-016307,"Warehouse & Manufacturing",6/24/2020,,16896600,,"1101 CONROE PARK WEST DR",CONROE,TX,77304,,,CONTRACTOR,,,,,,,,,,,"ARCH-CON CORPORATION",,,,,"ARCH-CON CORPORATION","1335 W GRAY ST STE 210",HOUSTON,TX,77019-4056,"(713) 533-1900",http://www.arch-con.com,,,contact@arch-con.com
TX,MONTGOMERY,BC-20-005307,"Warehouse & Manufacturing",6/5/2020,,95813,1858,"3620 N FRAZIER INDUSTRIAL PARK DR BLDG 6",CONROE,TX,77304,,,CONTRACTOR,,,,,,,,,,,"MILLS DESIGN",,,,,"MILLS DESIGN","2400 CENTRAL PKWY STE 1",HOUSTON,TX,77092,"(713) 239-0334",http://www.miiidesigns.com/,"(713) 360-6315","SCOTT MILLS",
