state,county,permno,ptype,pdate,pdescription,jvalue,jsqfeet,jaddr,jcity,jstate,jzip,jsubdiv,jlotno,aname,aaddr,acity,astate,azip,aphone,atype,aurl,afax,aprimarycontact,aemail,bldcode,units,bldgs,ctype,legal,contractor,caddress,ccity,cstate,czip,cphone,curl,cfax,cprimarycontact,cemail
TX,HARRIS,20001820,"Auto Sales & Services",10/28/2020,Addition,7513000,,"7019 OLD KATY",HOUSTON,TX,77024,,,CONTRACTOR,,,,,,,,,,,"PARKWAY CONSTRUCTION & ASSOCIATES",,,,,"PARKWAY CONSTRUCTION & ASSOCIATES","1000 CIVIC CIR",LEWISVILLE,TX,75067-3493,"(469) 322-3718",,,,
TX,HARRIS,20001818,"Auto Sales & Services",10/28/2020,,3741000,,"7025 OLD KATY",HOUSTON,TX,77024,,,CONTRACTOR,,,,,,,,,,,"PARKWAY CONSTRUCTION & ASSOCIATES",,,,,"PARKWAY CONSTRUCTION & ASSOCIATES","1000 CIVIC CIR",LEWISVILLE,TX,75067-3493,"(469) 322-3718",,,,
TX,HARRIS,20020261,"Auto Sales & Services",10/7/2020,,100000,9213,"6291 DECKER DR",BAYTOWN,TX,77521,,,CONTRACTOR,,,,,,,,,,,"EMAX GENERAL CONTRACTORS",,,,,"EMAX GENERAL CONTRACTORS","2300 RICHMOND AVE APT 332",HOUSTON,TX,77098-3264,"(832) 289-0311",,,,
TX,HARRIS,17008160,"Churches & Other Religious",10/30/2020,,740600,,"5910 CULLEN",HOUSTON,TX,77021,,,"FRIENDSHIP BAPTIST CHURCH","PO BOX 91345",HOUSTON,TX,77291,"(281) 312-9164",Applicant,,,,,OWNER,,,,,OWNER,,,,,,,,,
TX,HARRIS,19024511,"Churches & Other Religious",10/27/2020,,2500000,,"13133 OLD RICHMOND RD BLDG",HOUSTON,TX,77099,,,CONTRACTOR,,,,,,,,,,,TRIMCOS,,,,,TRIMCOS,"2405 SMITH ST",HOUSTON,TX,77006-2315,"(713) 526-3500",http://trimcos.com,"(713) 526-3502",,trimcos@sbcglobal.net
TX,HARRIS,20100110,"Churches & Other Religious",10/20/2020,,41710,,"1001 MEMORIAL DR",BAYTOWN,TX,77521,,,CONTRACTOR,,,,,,,,,,,"HOME EXTERIOR SYSTEMS",,,,,"HOME EXTERIOR SYSTEMS","2029 SOUTHERN TRAIL",DALLAS,TX,75240,"(832) 597-5621",,,,
TX,HARRIS,20077634,"Duplex, Triplex, & Fourplex",10/27/2020,,149000,,"4118 BRINKLEY ST A",HOUSTON,TX,77051,,,CONTRACTOR,,,,,,,,,,,"MOHR PARTNERS",,,,,"MOHR PARTNERS","14643 DALLAS PARKWAY, SUITE 1000",DALLAS,TX,75254,"(972) 239-0394",,,,
TX,HARRIS,20092495,"Duplex, Triplex, & Fourplex",10/28/2020,,149000,,"8837 CRESTVIEW DR A",HOUSTON,TX,77078,,,CONTRACTOR,,,,,,,,,,,"MOHR PARTNERS",,,,,"MOHR PARTNERS","14643 DALLAS PARKWAY, SUITE 1000",DALLAS,TX,75254,"(972) 239-0394",,,,
TX,HARRIS,20073004,"Duplex, Triplex, & Fourplex",10/29/2020,,174031,,"7903 MOONBEAM ST C",HOUSTON,TX,77088,,,CONTRACTOR,,,,,,,,,,,"HOUSTON REMODELING CONTRACTORS",,,,,"HOUSTON REMODELING CONTRACTORS","2514 VAUGHN ST",HOUSTON,TX,77002,"(832) 584-3402",,,,
TX,HARRIS,20015154,"Duplex, Triplex, & Fourplex",11/2/2020,,220000,,"6620 LOMA VISTA PLACE A",HOUSTON,TX,77085,,,"EDDIE DANCY","6620 LOMA VISTA PLACE A",HOUSTON,TX,77085,,Owner,,,,,OWNER,,,,,OWNER,,,,,,,,,
TX,HARRIS,18139197,"Duplex, Triplex, & Fourplex",10/28/2020,,301275,,"4404 COSBY ST A",HOUSTON,TX,77021,,,"JUNIOR WALTERS","4404 COSBY ST A",HOUSTON,TX,77021,,Owner,,,,,"DONALD GIBBS",,,,,"DONALD GIBBS","11407 VALLEY STREAM DR",HOUSTON,TX,77043-4625,"(281) 768-1970",,,,
TX,HARRIS,20079459,"Guest Houses",10/28/2020,,72000,,"7931 FLINTRIDGE DR",HOUSTON,TX,77028,,,"PINEDA MARIO","7931 FLINTRIDGE DR",HOUSTON,TX,77028,,Owner,,,,,OWNER,,,,,OWNER,,,,,,,,,
TX,HARRIS,20083986,"Hospital & Other Medical",10/30/2020,,114000,,"12505 MEMORIAL DR",HOUSTON,TX,77024,,,CONTRACTOR,,,,,,,,,,,"BYRD INTERIOR CONSTRUCTION",,,,,"BYRD INTERIOR CONSTRUCTION","2123 W GOVERNORS CIR # 100",HOUSTON,TX,77092-8746,"(713) 688-8850",http://www.byrdinterior.com/,,"JOHN BYRD",jbyrd@byrdinterior.com
TX,HARRIS,18145690,"Hospital & Other Medical",10/30/2020,,350000,,"4817 MAIN ST",HOUSTON,TX,77002,,,CONTRACTOR,,,,,,,,,,,"GREENBERG & COMPANY",,,,,"GREENBERG & COMPANY","5959 RICHMOND AVENUE, STE.440",HOUSTON,TX,77057,"(713) 778-0900",https://www.greenbergcompany.com/,,,info@greenbergcompany.com
TX,HARRIS,202002311,"Hospital & Other Medical",10/12/2020,Renovation,100000,,"1101 ALMA ST # 104",TOMBALL,TX,77375,,,CONTRACTOR,,,,,,,,,,,"CREST BUILDERS",,,,,"CREST BUILDERS","9100 FOREST CROSSING DR",HOUSTON,TX,77381,"(281) 367-2100",,,,
TX,HARRIS,202002395,"Hospital & Other Medical",10/16/2020,Renovation,98600,,"605 HOLDERRIETH BLVD",TOMBALL,TX,77375,,,CONTRACTOR,,,,,,,,,,,"BFJ CONSTRUCTION",,,,,"BFJ CONSTRUCTION","693 14TH ST",HOUSTON,TX,77590,"(281) 808-3830",http://www.bfjconstruction.com,"(409) 948-6276",,
TX,HARRIS,202002403,"Hospital & Other Medical",10/16/2020,Renovation,135000,,"14030 FM 2920 E",TOMBALL,TX,77375,,,CONTRACTOR,,,,,,,,,,,"K AUSTIN & ASSOCIATES",,,,,"K AUSTIN & ASSOCIATES","302 E MAIN ST",HUMBLE,TX,77338-4548,"(281) 540-5401",http://www.kaustin.com/,,"KEN AUSTIN",ken@kaustin.com
TX,HARRIS,202002566,"Hospital & Other Medical",10/28/2020,"Finish Out",360000,10284,"14426 MEDICAL COMPLEX DR",TOMBALL,TX,77375,,,CONTRACTOR,,,,,,,,,,,"MILLENNIA BUILDING GROUP",,,,,"MILLENNIA BUILDING GROUP","10835 KEYSTONE FAIRWAY DRIVE",HOUSTON,TX,77095,"(832) 349-5535",,,,
TX,HARRIS,20050408,"Hospital & Other Medical",10/14/2020,,62555744,109500,"4401 GARTH RD",BAYTOWN,TX,77521,,,"SAN JACINTO METHODIST HOSPITAL","4401 GARTH RD",BAYTOWN,TX,77521,,Owner,,,,,"TELLEPSEN BUILDERS",,,,,"TELLEPSEN BUILDERS","777 BENMAR DR STE 400",HOUSTON,TX,77060-3607,"(281) 447-8100",,"(281) 447-8177","HOWARD TELLEPSEN",
TX,BRAZORIA,COMM20-00364,"Hospital & Other Medical",10/7/2020,Renovation,40000,3290,"3320 BROADWAY ST # 126",PEARLAND,TX,77581,,,CONTRACTOR,,,,,,,,,,,"CUSTOM PRACTICES",,,,,"CUSTOM PRACTICES","2450 LOUISIANA ST # 400-347",HOUSTON,TX,77006-2380,"(713) 836-2811",http://custompractices.com/,,,
TX,BRAZORIA,COMM20-00368,"Hospital & Other Medical",10/20/2020,"Finish Out",175000,1756,"10907 MEMORIAL HERMANN DR # 460",PEARLAND,TX,77584,,,CONTRACTOR,,,,,,,,,,,"RICK BEHR CONSTRUCTION",,,,,"RICK BEHR CONSTRUCTION","2702 ROSEWOOD ST",HOUSTON,TX,77004-5375,"(284) 469-8036",,,,
TX,HARRIS,20037097,"Hotel, Motel & Assisted Living",10/30/2020,,26576000,,"1711 ALLEN",HOUSTON,TX,77019,,,CONTRACTOR,,,,,,,,,,,"BIG SOD",,,,,"BIG SOD","6900 N MAIN ST",BAYTOWN,TX,77521,"(936) 402-3113",,,,
TX,HARRIS,20046829,"Multi Family Apartments & Condos",10/28/2020,,1267594,,"13351 CITYSCAPE AVE",HOUSTON,TX,77047,,,CONTRACTOR,,,,,,,,,,,"STRATEGIC CONSTRUCTION",,,,,"STRATEGIC CONSTRUCTION","9821 KATY FWY STE 675",HOUSTON,TX,77024-1206,"(713) 461-7778",http://www.strategicconstructionltd.com/,"(713) 461-7779",,mbeshara@strategicconstruction.com
TX,HARRIS,20096193,"Multi Family Apartments & Condos",11/2/2020,Renovation,60000,,"3614 MONTROSE BLVD",HOUSTON,TX,77006,,,"WILSHIRE MATTHEW","3614 MONTROSE BLVD",HOUSTON,TX,77006,,Owner,,,,,"CAVALRY CONSTRUCTION",,,,,"CAVALRY CONSTRUCTION","6911 BREEN DR STE C",HOUSTON,TX,77086-3728,"(281) 931-9900",https://www.cavalryconstruction.com,"(281) 931-0704",,info@cavalryconstruction.com
TX,BRAZOS,20-1344,"Multi Family Apartments & Condos",10/30/2020,,608264,2938,"4600 LEONARD RD A",BRYAN,TX,77808,,,"GEOZF BCS LLC","4600 LEONARD RD A",BRYAN,TX,77808,,Owner,,,,,"M3 ENGINEERING",,,,,"M3 ENGINEERING","2051 W. SUNSET RD., SUITE 101",TUCSON,AR,85704,"(520) 293-1488",https://m3eng.com/,,,
TX,BRAZOS,20-1355,"Multi Family Apartments & Condos",10/30/2020,,281203,3828,"4600 LEONARD RD B",BRYAN,TX,77808,,,CONTRACTOR,,,,,,,,,,,"M3 ENGINEERING",,,,,"M3 ENGINEERING","2051 W. SUNSET RD., SUITE 101",TUCSON,AR,85704,"(520) 293-1488",https://m3eng.com/,,,
TX,BRAZOS,20-1345,"Multi Family Apartments & Condos",10/30/2020,,349444,1508,"4600 LEONARD RD C",BRYAN,TX,77808,,,CONTRACTOR,,,,,,,,,,,"M3 ENGINEERING",,,,,"M3 ENGINEERING","2051 W. SUNSET RD., SUITE 101",TUCSON,AR,85704,"(520) 293-1488",https://m3eng.com/,,,
TX,BRAZOS,20-1348,"Multi Family Apartments & Condos",10/30/2020,,485884,,"4600 LEONARD RD D",BRYAN,TX,77808,"GREAT ESCAPES",,CONTRACTOR,,,,,,,,,,,"M3 ENGINEERING",,,,,"M3 ENGINEERING","2051 W. SUNSET RD., SUITE 101",TUCSON,AR,85704,"(520) 293-1488",https://m3eng.com/,,,
TX,BRAZOS,20-1349,"Multi Family Apartments & Condos",10/30/2020,,226876,1370,"4600 LEONARD RD E1",BRYAN,TX,77808,,,CONTRACTOR,,,,,,,,,,,"M3 ENGINEERING",,,,,"M3 ENGINEERING","2051 W. SUNSET RD., SUITE 101",TUCSON,AR,85704,"(520) 293-1488",https://m3eng.com/,,,
TX,BRAZOS,20-1350,"Multi Family Apartments & Condos",10/30/2020,,226876,1327,"4600 LEONARD RD E2",BRYAN,TX,77808,,,CONTRACTOR,,,,,,,,,,,"M3 ENGINEERING",,,,,"M3 ENGINEERING","2051 W. SUNSET RD., SUITE 101",TUCSON,AR,85704,"(520) 293-1488",https://m3eng.com/,,,
TX,BRAZOS,20-1352,"Multi Family Apartments & Condos",10/30/2020,,500000,,"4600 LEONARD RD F1",BRYAN,TX,77808,,,CONTRACTOR,,,,,,,,,,,"M3 ENGINEERING",,,,,"M3 ENGINEERING","2051 W. SUNSET RD., SUITE 101",TUCSON,AR,85704,"(520) 293-1488",https://m3eng.com/,,,
TX,BRAZOS,20-1353,"Multi Family Apartments & Condos",10/30/2020,,500000,,"4600 LEONARD RD F2",BRYAN,TX,77808,,,CONTRACTOR,,,,,,,,,,,"M3 ENGINEERING",,,,,"M3 ENGINEERING","2051 W. SUNSET RD., SUITE 101",TUCSON,AR,85704,"(520) 293-1488",https://m3eng.com/,,,
TX,BRAZOS,20-1354,"Multi Family Apartments & Condos",10/30/2020,,63600,,"4600 LEONARD RD G",BRYAN,TX,77808,,,CONTRACTOR,,,,,,,,,,,"M3 ENGINEERING",,,,,"M3 ENGINEERING","2051 W. SUNSET RD., SUITE 101",TUCSON,AR,85704,"(520) 293-1488",https://m3eng.com/,,,
TX,BRAZOS,20-2670,"Multi Family Apartments & Condos",10/27/2020,,212500,,"3210 COLSON RD",BRYAN,TX,77807,,,CONTRACTOR,,,,,,,,,,,"SOUTHWEST HOMES",,,,,"SOUTHWEST HOMES","14504 NORTH FWY",HOUSTON,TX,77090-6808,"(866) 354-3400",http://www.southwesthomestexas.com,,,
TX,HARRIS,1906120090,"Multi Family Apartments & Condos",10/16/2020,,3970000,31798,"16316 SPRING CYPRESS RD",HOUSTON,TX,77356,"TM SPRINGS CYPRESS",,"SPRING CYPRESS PH II LLC","16316 SPRING CYPRESS RD",HOUSTON,TX,77356,,Owner,,,,,OWNER,,,,,OWNER,,,,,,,,,
TX,BRAZORIA,RES20-01881,"Multi Family Apartments & Condos",10/22/2020,,,1718,"7143 FANNIN ST",PEARLAND,TX,77584,,,CONTRACTOR,,,,,,,,,,,"GEHAN HOMES",,,,,"GEHAN HOMES","2050 W SAM HOUSTON PKWY S",HOUSTON,TX,77042-2079,"(713) 243-3545",http://www.gehanhomes.com,,,
TX,BRAZORIA,RES20-01882,"Multi Family Apartments & Condos",10/22/2020,,,1701,"7145 FANNIN ST",PEARLAND,TX,77584,,,CONTRACTOR,,,,,,,,,,,"GEHAN HOMES",,,,,"GEHAN HOMES","2050 W SAM HOUSTON PKWY S",HOUSTON,TX,77042-2079,"(713) 243-3545",http://www.gehanhomes.com,,,
TX,BRAZORIA,RES20-01883,"Multi Family Apartments & Condos",10/22/2020,,,2109,"7147 FANNIN ST",PEARLAND,TX,77584,,,CONTRACTOR,,,,,,,,,,,"GEHAN HOMES",,,,,"GEHAN HOMES","2050 W SAM HOUSTON PKWY S",HOUSTON,TX,77042-2079,"(713) 243-3545",http://www.gehanhomes.com,,,
TX,HARRIS,20093748,"Offices, R&D, & Professional",10/29/2020,Renovation,175000,,"6400 FANNIN ST",HOUSTON,TX,77030,,,CONTRACTOR,,,,,,,,,,,"BYRD INTERIOR CONSTRUCTION",,,,,"BYRD INTERIOR CONSTRUCTION","2123 W GOVERNORS CIR # 100",HOUSTON,TX,77092-8746,"(713) 688-8850",http://www.byrdinterior.com/,,"JOHN BYRD",jbyrd@byrdinterior.com
TX,HARRIS,20083396,"Offices, R&D, & Professional",11/2/2020,,300000,,"11102 BELTLINE RD",HOUSTON,TX,77067,,,CONTRACTOR,,,,,,,,,,,"CORVUS CONSTRUCTION",,,,,"CORVUS CONSTRUCTION","4309 WAY OUT WEST DR",HOUSTON,TX,77092-1457,"(713) 699-3100",,,,
TX,HARRIS,20064761,"Offices, R&D, & Professional",10/27/2020,Renovation,576000,,"8 GREENWAY PLAZA",HOUSTON,TX,77046,,,CONTRACTOR,,,,,,,,,,,"ENDURANCE BUILDERS",,,,,"ENDURANCE BUILDERS","2190 NORTH LOOP W STE 300",HOUSTON,TX,77018-8006,"(832) 623-7351",http://www.endbs.com/,,"BOB FLOWERS",
TX,HARRIS,20052320,"Offices, R&D, & Professional",10/29/2020,,995000,,"947 GESSNER RD",HOUSTON,TX,77024,,,"GORDILLO GREG & SUSA","20260 KATY FWY",KATY,TX,77449,"(305) 479-5922",Applicant,,,,,OWNER,,,,,OWNER,,,,,,,,,
TX,HARRIS,20091660,"Offices, R&D, & Professional",10/28/2020,Renovation,48592,,"11550 FUQUA ST",HOUSTON,TX,77034,,,"KULISKA MELISSA","821 AURORA ST",HOUSTON,TX,77009,"(713) 867-5375",Applicant,,,,,OWNER,,,,,OWNER,,,,,,,,,
TX,HARRIS,20072463,"Offices, R&D, & Professional",10/28/2020,Renovation,225000,,"114 BYRNE",HOUSTON,TX,77009,,,CONTRACTOR,,,,,,,,,,,"BUSTER & COGDELL BUILDERS",,,,,"BUSTER & COGDELL BUILDERS","8562 KATY FWY SUITE 152",HOUSTON,TX,77024-1846,"(713) 783-1192",http://www.busterandcogdellbuilders.com/,"(713) 789-1636","COOPER COGDELL",ccogdell@busterandcogdellbuilders.com
TX,HARRIS,20076541,"Offices, R&D, & Professional",10/27/2020,Renovation,200000,,"6910 CHETWOOD DR",HOUSTON,TX,77081,,,CONTRACTOR,,,,,,,,,,,"BURTON CONSTRUCTION",,,,,"BURTON CONSTRUCTION","10550 WESTPARK DR",HOUSTON,TX,77042-5231,"(281) 313-5055",http://www.burtonconstruction.com/,,"BRAD BURTON",info@burtonconstruction.com
TX,HARRIS,20089032,"Offices, R&D, & Professional",10/29/2020,,350000,,"12525 MEMORIAL DR",HOUSTON,TX,77024,,,"SIMPSON  OLIVIA","201 S HEIGHTS BLVD",HOUSTON,TX,77007,"(281) 705-9124",Applicant,,,,,OWNER,,,,,OWNER,,,,,,,,,
TX,HARRIS,20079792,"Offices, R&D, & Professional",11/2/2020,Renovation,300000,,"10448 WESTOFFICE",HOUSTON,TX,77042,,,"SINGH BOBBY","3143 YELLOWSTONE",HOUSTON,TX,77054,"(713) 854-0506",Applicant,,,,,OWNER,,,,,OWNER,,,,,,,,,
TX,BRAZOS,20-3008,"Offices, R&D, & Professional",10/1/2020,,1496939,,"1069 N EARL RUDDER FWY",BRYAN,TX,77807,,,"UNITED PARCEL SERVICE","1069 N EARL RUDDER FWY",BRYAN,TX,77807,,Owner,,,,,"USA MODULAR",,,,,"USA MODULAR","10601 COUNTY ROAD 10",MIDDLEBURY,IN,46540-8920,"(574) 825-0484",,,,
TX,BRAZOS,20-2407,"Offices, R&D, & Professional",10/29/2020,,150000,,"3414 COLSON RD",BRYAN,TX,77808,,,"SAM BERNAL","3414 COLSON RD",BRYAN,TX,77808,,Owner,,,,,"BAINS HOLDINGS",,,,,"BAINS HOLDINGS","3115 PERSIMMON COURT ",LAREDO,TX,78045,"(956) 796-4732",,,,
TX,BRAZOS,20-3110,"Offices, R&D, & Professional",10/1/2020,Addition,150000,,"4501 S TEXAS AVE",BRYAN,TX,77808,"BEVERLY ESTATES",,CONTRACTOR,,,,,,,,,,,"EIB CONTRACTORS",,,,,"EIB CONTRACTORS","5416 SCHERTZ RD","SAN ANTONIO",TX,78233-6023,"(210) 650-9494",http://www.eibcontractors.com,"(210) 650-9480",,jay@eibcontractors.com
TX,BRAZOS,20-3210,"Offices, R&D, & Professional",10/16/2020,,150000,,"4077 CROSS PARK DR",BRYAN,TX,77806,"PARK HUDSON",,CONTRACTOR,,,,,,,,,,,"SPARK ROOT CONSTRUCTION",,,,,"SPARK ROOT CONSTRUCTION","6700 BRIDGE HILL CV",AUSTIN,TX,78746-1338,"(512) 373-2750",,,,
TX,HARRIS,20070553,"Offices, R&D, & Professional",10/19/2020,,7920000,51678,"300 YMCA DR",BAYTOWN,TX,77521,,,"GOOSE CREEK CISD","300 YMCA DR",BAYTOWN,TX,77521,,Owner,,,,,"POGUE CONSTRUCTION",,,,,"POGUE CONSTRUCTION","1512 BRAY CENTRAL DR",MCKINNEY,TX,75069-8264,"(972) 529-9401",http://www.pogueconstruction.com/,"(972) 529-9832",,
TX,HARRIS,2009150144,"Offices, R&D, & Professional",10/16/2020,,63000,,"24538 GRAYSON FALLS LN",HOUSTON,TX,77356,"HAMPTON CREEK",,"WALTER WIESMILLER","24538 GRAYSON FALLS LN",HOUSTON,TX,77356,,Owner,,,,,OWNER,,,,,OWNER,,,,,,,,,
TX,BRAZOS,20-3284,"Other Commercial",10/9/2020,,400000,7475,"6150 MUMFORD RD",BRYAN,TX,77808,"MOSES BAINE",,CONTRACTOR,,,,,,,,,,,"EE TERRABON BIOFUELS",,,,,"EE TERRABON BIOFUELS","2046 PONDEROSA DR","NEW BRAUNFELS",TX,78132-2054,"(979) 778-0033",,,,
TX,BRAZORIA,RES20-01917,"Other Residential",10/1/2020,"Acc Struct",,2500,"11402 FREESTONE AVE",PEARLAND,TX,77584,,,"CLINTON & BRANDI SMITH","11402 FREESTONE AVE",PEARLAND,TX,77584,,Owner,,,,,"SIXTH MAN CONSTRUCTION",,,,,"SIXTH MAN CONSTRUCTION","PO BOX 841692",PEARLAND,TX,77456,"(281) 796-1746",http://sixthmanconstruction.com,,,
TX,BRAZORIA,RES20-02057,"Other Residential",10/16/2020,"Acc Struct",,1980,"2915 BURGESS HILL CT",PEARLAND,TX,77584,,,"JENEDA WILTZ","2915 BURGESS HILL CT",PEARLAND,TX,77584,,Owner,,,,,"GULLEDGE REMODELING",,,,,"GULLEDGE REMODELING","3510 WOODBINE PLACE",PEARLAND,TX,77584,"(832) 443-5622",,,,
TX,HARRIS,20049336,"Parking Structures & Carports",11/2/2020,,1054750,,"27514 HUFFMAN CLEVELAND RD BLD",HOUSTON,TX,77336,,,CONTRACTOR,,,,,,,,,,,"FIRST AMERICA HOMES",,,,,"FIRST AMERICA HOMES","1401 WOODLANDS PARKWAY","THE WOODLANDS",TX,77380-1179,"(713) 452-1700",https://www.firstamericahomes.com/,,,info@firstamericahomes.com
TX,HARRIS,20073801,"Parking Structures & Carports",10/28/2020,,1800000,,"23330 EASTEX FWY",HOUSTON,TX,77339,,,CONTRACTOR,,,,,,,,,,,"TI CONSTRUCTORS",,,,,"TI CONSTRUCTORS","777 BENMAR RD",HOUSTON,TX,77060,"(713) 773-6000",,,,
TX,HARRIS,2009220002,"Parking Structures & Carports",10/16/2020,,430000,2400,"806 KATY FORT BEND RD",HOUSTON,TX,77356,"PARK WEST GREEN",,"BBVA USA","806 KATY FORT BEND RD",HOUSTON,TX,77356,,Owner,,,,,OWNER,,,,,OWNER,,,,,,,,,
TX,BRAZORIA,COMM20-00358,"Parks, Recreation, Entertainment, & RV Park",10/12/2020,Renovation,300000,17500,"2319 N GRAND BLVD BLDG 5",PEARLAND,TX,77581,,,"SOUTH TEXAS EDUCATIONAL TECHNOLOGIES","2319 N GRAND BLVD BLDG 5",PEARLAND,TX,77581,"(956) 969-3092",Applicant,,,,,OWNER,,,,,OWNER,,,,,,,,,
TX,BRAZORIA,COMM20-00384,"Parks, Recreation, Entertainment, & RV Park",10/16/2020,"Finish Out",45000,2090,"12573 BROADWAY ST #151",PEARLAND,TX,77584,,,CONTRACTOR,,,,,,,,,,,"ROLLINGSTONE CONSTRUCTION",,,,,"ROLLINGSTONE CONSTRUCTION","4067 HOLLISTER RD",PEARLAND,TX,77080,"(832) 831-9614",,,,
TX,HARRIS,20046835,"Residential Garages & Carports",10/28/2020,,32272,,"13351 CITYSCAPE AVE GAR",HOUSTON,TX,77047,,,CONTRACTOR,,,,,,,,,,,"STRATEGIC CONSTRUCTION",,,,,"STRATEGIC CONSTRUCTION","9821 KATY FWY STE 675",HOUSTON,TX,77024-1206,"(713) 461-7778",http://www.strategicconstructionltd.com/,"(713) 461-7779",,mbeshara@strategicconstruction.com
TX,HARRIS,19048651,"Residential Garages & Carports",10/30/2020,,110415,,"2715 WICHITA",HOUSTON,TX,77004,,,"WALKER SAMUEL & LISA","2715 WICHITA",HOUSTON,TX,77004,,Owner,,,,,OWNER,,,,,OWNER,,,,,,,,,
TX,HARRIS,20076386,"Residential Garages & Carports",10/30/2020,Addition,76000,,"855 HOMER",HOUSTON,TX,77091,,,"FORRIS WASHINGTON","855 HOMER",HOUSTON,TX,77091,,Owner,,,,,"ZILLA BUILDERS",,,,,"ZILLA BUILDERS","2506 NORTHFORK CT",PEARLAND,TX,77584-5975,"(281) 881-8306",,,"KEVIN PETERSON",
TX,HARRIS,20087526,"Residential Renovations & Additions",10/28/2020,Addition,50000,,"9423 DERRIK",HOUSTON,TX,77080,,,"FRANCISCO AMBRIZ","9423 DERRIK",HOUSTON,TX,77080,,Owner,,,,,OWNER,,,,,OWNER,,,,,,,,,
TX,HARRIS,20072355,"Residential Renovations & Additions",10/29/2020,Addition,800000,,"1753 NORTH",HOUSTON,TX,77098,,,"MARC SEKULA","1753 NORTH",HOUSTON,TX,77098,,Owner,,,,,"ANNE'S PERMIT",,,,,"ANNE'S PERMIT","2617C W HOLCOMBE BLVD",HOUSTON,TX,77025,"(713) 666-2025",,,,
TX,HARRIS,20092122,"Residential Renovations & Additions",10/28/2020,Addition,32000,,"9502 MISTY BRIDGE",HOUSTON,TX,77396,,,"JASON ARANJO","9502 MISTY BRIDGE",HOUSTON,TX,77396,,Owner,,,,,"FREEDOM FOREVER",,,,,"FREEDOM FOREVER","43445 BUSINESS PARK DRIVE, STE 110",TEMECULA,CA,92590,"(888) 557-6431",,,,
TX,HARRIS,20083680,"Residential Renovations & Additions",10/27/2020,Addition,38500,,"1017 BLACKHAW",HOUSTON,TX,77079,,,"AZARPOUR KOMMY","1017 BLACKHAW",HOUSTON,TX,77079,,Owner,,,,,OWNER,,,,,OWNER,,,,,,,,,
TX,HARRIS,20047952,"Residential Renovations & Additions",10/28/2020,Addition,50000,,"1139 JEROME",HOUSTON,TX,77009,,,"BENAVIDES SARAH","1139 JEROME",HOUSTON,TX,77009,,Owner,,,,,OWNER,,,,,OWNER,,,,,,,,,
TX,HARRIS,20064464,"Residential Renovations & Additions",10/30/2020,Addition,75000,,"439 OXFORD",HOUSTON,TX,77007,,,"BOWMAN JONATHAN","439 OXFORD",HOUSTON,TX,77007,,Owner,,,,,OWNER,,,,,OWNER,,,,,,,,,
TX,HARRIS,20090379,"Residential Renovations & Additions",10/27/2020,Addition,122980,,"5407 BRINKMAN",HOUSTON,TX,77091,,,"CARDENAS ADA","5407 BRINKMAN",HOUSTON,TX,77091,,Owner,,,,,OWNER,,,,,OWNER,,,,,,,,,
TX,HARRIS,20083284,"Residential Renovations & Additions",10/29/2020,Addition,100000,,"2710 MANILA",HOUSTON,TX,77043,,,"COMBS AARON  J","2710 MANILA",HOUSTON,TX,77043,,Owner,,,,,"JACOB BUCKWALTER",,,,,"JACOB BUCKWALTER","9597 JONES RD",HOUSTON,TX,77065-4815,"(832) 272-8423",,,,
TX,HARRIS,20010474,"Residential Renovations & Additions",11/2/2020,Addition,1500000,,"3209 MONTROSE",HOUSTON,TX,77006,,,CONTRACTOR,,,,,,,,,,,"CONSTRUCTION LTD",,,,,"CONSTRUCTION LTD","1825 UPLAND DR",HOUSTON,TX,77043-3003,"(713) 984-9444",http://www.cltd.net/,"(713) 984-2320",,
TX,HARRIS,20096476,"Residential Renovations & Additions",10/30/2020,Addition,50000,,"913 MCDANIEL",HOUSTON,TX,77022,,,CONTRACTOR,,,,,,,,,,,"DANIEL VAZQUEZ",,,,,"DANIEL VAZQUEZ","608 GAGE LOOP",LAREDO,TX,78046-5154,"(956) 949-3222",,,,
TX,HARRIS,20069787,"Residential Renovations & Additions",10/30/2020,Renovation,90000,,"1509 BRANARD",HOUSTON,TX,77006,,,CONTRACTOR,,,,,,,,,,,"BRETT ZAMORE DESIGN",,,,,"BRETT ZAMORE DESIGN","1137 E 11TH ST",HOUSTON,TX,77009-6022,"(713) 623-1926",http://brettzamoredesign.com,"(832) 519-1277",,office@brettzamoredesign.com
TX,HARRIS,20069748,"Residential Renovations & Additions",10/30/2020,Addition,96000,,"1507 BRANARD",HOUSTON,TX,77006,,,CONTRACTOR,,,,,,,,,,,"BRETT ZAMORE DESIGN",,,,,"BRETT ZAMORE DESIGN","1137 E 11TH ST",HOUSTON,TX,77009-6022,"(713) 623-1926",http://brettzamoredesign.com,"(832) 519-1277",,office@brettzamoredesign.com
TX,HARRIS,20083683,"Residential Renovations & Additions",10/28/2020,Renovation,40000,,"9547 FAIRDALE",HOUSTON,TX,77063,,,"PRATIBH DESAI","9547 FAIRDALE",HOUSTON,TX,77063,,Owner,,,,,OWNER,,,,,OWNER,,,,,,,,,
TX,HARRIS,20027224,"Residential Renovations & Additions",11/2/2020,Addition,185000,,"6507 CALHOUN",HOUSTON,TX,77021,,,"FLORES CARLOS","6507 CALHOUN",HOUSTON,TX,77021,,Owner,,,,,OWNER,,,,,OWNER,,,,,,,,,
TX,HARRIS,20066878,"Residential Renovations & Additions",11/2/2020,Addition,44000,,"2015 CHANTILLY",HOUSTON,TX,77018,,,"JENNIFER GRAVES","2015 CHANTILLY",HOUSTON,TX,77018,,Owner,,,,,"MAX CONSTRUCTION",,,,,"MAX CONSTRUCTION","3530 ELMRIDGE ST",HOUSTON,TX,77025-4112,"(713) 240-0523",,,,
TX,HARRIS,20050230,"Residential Renovations & Additions",10/28/2020,Renovation,400000,,"3824 DEL MONTE",HOUSTON,TX,77019,,,"CLAUDINE HARTLAND","3824 DEL MONTE",HOUSTON,TX,77019,,Owner,,,,,OWNER,,,,,OWNER,,,,,,,,,
TX,HARRIS,20097386,"Residential Renovations & Additions",10/29/2020,Addition,35000,,"10707 CLEAR COVE",HOUSTON,TX,77041,,,"MARLON HENRY","10707 CLEAR COVE",HOUSTON,TX,77041,,Owner,,,,,"FREEDOM FOREVER TX",,,,,"FREEDOM FOREVER TX","15550 VICKERY DR",HOUSTON,TX,77032-2581,"(281) 714-8992",,,,
TX,HARRIS,20091313,"Residential Renovations & Additions",10/30/2020,Addition,95000,,"2002 FOREST MANOR",HOUSTON,TX,77339,,,"JACKSON JAMES","2002 FOREST MANOR",HOUSTON,TX,77339,,Owner,,,,,OWNER,,,,,OWNER,,,,,,,,,
TX,HARRIS,20093333,"Residential Renovations & Additions",10/28/2020,Addition,32643,,"2213 DUNRAVEN",HOUSTON,TX,77019,,,"KARAMANIAN ARA","2213 DUNRAVEN",HOUSTON,TX,77019,,Owner,,,,,"TESLA ENERGY OPERATIONS",,,,,"TESLA ENERGY OPERATIONS","3055 CLEARVIEW WAY","SAN MATEO",CA,94402-3709,"(888) 765-2489",,,,
TX,HARRIS,20097587,"Residential Renovations & Additions",10/29/2020,Addition,36000,,"6102 BLACK GUM",HOUSTON,TX,77092,,,"KEMNITZ ALEC","6102 BLACK GUM",HOUSTON,TX,77092,,Owner,,,,,"FREEDOM FOREVER TX",,,,,"FREEDOM FOREVER TX","15550 VICKERY DR",HOUSTON,TX,77032-2581,"(281) 714-8992",,,,
TX,HARRIS,20096698,"Residential Renovations & Additions",10/27/2020,Renovation,74000,,"8733 BANZER",HOUSTON,TX,77055,,,"KILSHAW KODY","8733 BANZER",HOUSTON,TX,77055,,Owner,,,,,"HOWELL BRIGITTE",,,,,"HOWELL BRIGITTE","16205 SINGAPORE LN","JERSEY VILLAGE",TX,77040,"(713) 254-5109",,,,
TX,HARRIS,20097449,"Residential Renovations & Additions",10/28/2020,Addition,31586,,"1906 DOLLY WRIGHT",HOUSTON,TX,77088,,,"LAGUNAS LEONARDA","1906 DOLLY WRIGHT",HOUSTON,TX,77088,,Owner,,,,,"SYNAPTIC SOLAR",,,,,"SYNAPTIC SOLAR","1140 INTERNATIONAL PKWY",RICHARDSON,TX,75081-2334,"(972) 643-8655",,,,
TX,HARRIS,20099641,"Residential Renovations & Additions",10/29/2020,Renovation,57500,,"14118 SAINT MARYS",HOUSTON,TX,77079,,,"LANGERUD SUSAN MARIE","14118 SAINT MARYS",HOUSTON,TX,77079,,Owner,,,,,"3D HOME DESIGNS",,,,,"3D HOME DESIGNS","1125 CONFEDERATE RD",HOUSTON,TX,77055,"(713) 300-6325",,,,
TX,HARRIS,20097508,"Residential Renovations & Additions",10/28/2020,Addition,31946,,"4521 SANFORD",HOUSTON,TX,77035,,,"LANUA JOHN & KALIKA","4521 SANFORD",HOUSTON,TX,77035,,Owner,,,,,"SYNAPTIC SOLAR",,,,,"SYNAPTIC SOLAR","1140 INTERNATIONAL PKWY",RICHARDSON,TX,75081-2334,"(972) 643-8655",,,,
TX,HARRIS,20090916,"Residential Renovations & Additions",10/28/2020,Renovation,50000,,"5414 DUMFRIES",HOUSTON,TX,77096,,,"BRIAN MACMILLAN","5414 DUMFRIES",HOUSTON,TX,77096,,Owner,,,,,OWNER,,,,,OWNER,,,,,,,,,
TX,HARRIS,20091985,"Residential Renovations & Additions",10/27/2020,Renovation,50000,,"421 W 13TH",HOUSTON,TX,77008,,,"JORDAN MICHAEL","421 W 13TH",HOUSTON,TX,77008,,Owner,,,,,OWNER,,,,,OWNER,,,,,,,,,
TX,HARRIS,20071865,"Residential Renovations & Additions",11/2/2020,Addition,30000,,"4314 CHARLESTON",HOUSTON,TX,77071,,,"LLOYD AND PEARL WRIGHT","4314 CHARLESTON",HOUSTON,TX,77071,,Owner,,,,,"DERRICK VAUGHN",,,,,"DERRICK VAUGHN","16800 W IMPERIAL VALLEY ST BLDG",HOUSTON,TX,77007,"(323) 337-5397",,,,
TX,HARRIS,20082502,"Residential Renovations & Additions",10/27/2020,Addition,40000,,"2334 UNDERWOOD",HOUSTON,TX,77030,,,"O'NEIL THOMAS","2334 UNDERWOOD",HOUSTON,TX,55555,,Owner,,,,,OWNER,,,,,OWNER,,,,,,,,,
TX,HARRIS,20097928,"Residential Renovations & Additions",10/29/2020,Addition,30000,,"7606 MARINETTE",HOUSTON,TX,77074,,,"RIVERA ANGEL & OLGA","7606 MARINETTE",HOUSTON,TX,77074,,Owner,,,,,"FASTRAC ENERGY SERVICES",,,,,"FASTRAC ENERGY SERVICES","800 TOWN AND COUNTRY BLVD STE 509",HOUSTON,TX,77024,"(832) 413-0707",,,,
TX,HARRIS,20097169,"Residential Renovations & Additions",10/29/2020,Addition,68000,,"82 PATTI LYNN",HOUSTON,TX,77024,,,"PAUL SMITH","82 PATTI LYNN",HOUSTON,TX,77024,,Owner,,,,,"FASTRAC ENERGY SERVICES",,,,,"FASTRAC ENERGY SERVICES","800 TOWN AND COUNTRY BLVD STE 509",HOUSTON,TX,77024,"(832) 413-0707",,,,
TX,HARRIS,20097136,"Residential Renovations & Additions",11/2/2020,Addition,65529,,"13502 HAVERSHIRE",HOUSTON,TX,77079,,,"BRET STANLEY","13502 HAVERSHIRE",HOUSTON,TX,77079,,Owner,,,,,"BLAKE CUSTOM HOMES",,,,,"BLAKE CUSTOM HOMES","12462 BARRYKNOLL LN",HOUSTON,TX,77024-4133,"(281) 831-8749",https://blakecustom.com/,,,
TX,HARRIS,20095706,"Residential Renovations & Additions",10/27/2020,Renovation,50000,,"5014 PEASE",HOUSTON,TX,77023,,,"JASON VALDEZ","5014 PEASE",HOUSTON,TX,77023,,Owner,,,,,OWNER,,,,,OWNER,,,,,,,,,
TX,HARRIS,20088647,"Residential Renovations & Additions",10/30/2020,Renovation,70000,,"5326 BRAESHEATHER",HOUSTON,TX,77096,,,CONTRACTOR,,,,,,,,,,,"CONCORD BUILDERS",,,,,"CONCORD BUILDERS","701 SHEPHERD DRIVE, SUITE 200",HOUSTON,TX,77007,"(713) 977-6060",http://concordbuilders.com/,,,j.gaston@concordbuilders.com
TX,HARRIS,202002564,"Residential Renovations & Additions",10/28/2020,Addition,35000,1540,"12710 SPRUCE CIRCLE",TOMBALL,TX,77375,,,"BRIAN & MEGAN MICHAELS","12710 SPRUCE CIRCLE",TOMBALL,TX,77375,,Owner,,,,,"MARC JONES CONSTRUCTION",,,,,"MARC JONES CONSTRUCTION","12011 DENTON DR",DALLAS,TX,75234-7211,"(832) 778-4911",,,,
TX,HARRIS,202002587,"Residential Renovations & Additions",10/29/2020,Addition,66000,,"12622 BEDDINGTON CT",TOMBALL,TX,77375,,,"BRADLEY & LINDA SMITH","12622 BEDDINGTON CT",TOMBALL,TX,77375,,Owner,,,,,"VICTORY SOLAR",,,,,"VICTORY SOLAR","6363 WOODWAY DR",HOUSTON,TX,77057-1735,"(832) 251-4270",,,,
TX,HARRIS,20200479,"Residential Renovations & Additions",10/12/2020,Addition,,1205,"321 BUNKER HILL RD","BUNKER HILL VILLAGE",TX,75051,,,"MICHAEL & BARBARA REYNA","321 BUNKER HILL RD","BUNKER HILL VILLAGE",TX,75051,,Owner,,,,,"LEAM DESIGN BUILD",,,,,"LEAM DESIGN BUILD","1226 KRIST DR",HOUSTON,TX,77055,"(713) 447-1773",https://www.leamdesignbuild.com/,,,info@leamdesignbuild.com
TX,HARRIS,20200495,"Residential Renovations & Additions",10/20/2020,Renovation,,1255,"11614 SHADY GROVE LN","BUNKER HILL VILLAGE",TX,77024,,,"JAMAL & ZUHAIRA RAZZACK","11614 SHADY GROVE LN","BUNKER HILL VILLAGE",TX,77024,,Owner,,,,,"BALLIS CUSTOM HOME",,,,,"BALLIS CUSTOM HOME","6620 GESSNER RD STE 3306",HOUSTON,TX,77040,"(713) 819-6935",,,"PETER BALLIS",
TX,BRAZORIA,"20 - 2018","Residential Renovations & Additions",10/8/2020,Renovation,48000,,"209 E JEPHSON",ALVIN,TX,77511,,,"J C PETERSON","209 E JEPHSON",ALVIN,TX,77511,,Owner,,,,,"GEI RENOVATION GROUP",,,,,"GEI RENOVATION GROUP","4620 N BRAESWOOD BLVD",HOUSTON,TX,77096-2845,"(224) 402-9551",https://www.geirenovationgroup.com/,,,team@geiretail.com
TX,BRAZOS,20-3754,"Residential Renovations & Additions",10/6/2020,Renovation,32319,,"2310 WAYSIDE DR",BRYAN,TX,77808,"CULPEPER MANOR",,"RANDALL & JESSICA HORVATH","2310 WAYSIDE DR",BRYAN,TX,77808,,Owner,,,,,"MARBLE CRAFT",,,,,"MARBLE CRAFT","702 W CARSON ST",BRYAN,TX,77801-1103,"(979) 846-3881",,,,
TX,BRAZOS,20-3885,"Residential Renovations & Additions",10/13/2020,Renovation,43281,1150,"2020 SORRENTO CT",BRYAN,TX,77808,,,CONTRACTOR,,,,,,,,,,,"BLACKMON MOORING CONSTRUCTION",,,,,"BLACKMON MOORING CONSTRUCTION","10511 KIPP WAY DR",HOUSTON,TX,77099-2763,"(877) 869-8396",https://www.blackmonmooring.com,,,
TX,BRAZOS,20-4083,"Residential Renovations & Additions",10/15/2020,Renovation,40357,,"1701 S COLLEGE AVE",BRYAN,TX,77807,,,"DAVID & VANESSA SHUMATE","1701 S COLLEGE AVE",BRYAN,TX,77807,,Owner,,,,,"QUICK ROOFING",,,,,"QUICK ROOFING","100 E BROADWAY ST",KENNEDALE,TX,76060-3263,"(877) 883-3805",http://www.quickroofing.com/,"(817) 473-9276",,
TX,BRAZOS,20-3943,"Residential Renovations & Additions",10/15/2020,Renovation,120000,2665,"108 COLLEGE VIEW DR",BRYAN,TX,77807,"NORTH OAKWOOD",,"WILLIAM & JANE WINSLOW","108 COLLEGE VIEW DR",BRYAN,TX,77807,,Owner,,,,,"KD HOMEBUILDERS",,,,,"KD HOMEBUILDERS","3010 E VILLA MARIA RD",BRYAN,TX,77803-5015,"(979) 774-4571",http://www.kdhomebuilders.com/,"(979) 776-2746",,kdhomebuilders@verizon.net
TX,BRAZOS,20-4163,"Residential Renovations & Additions",10/22/2020,Renovation,78520,,"4505 CARTER CREEK PKWY",BRYAN,TX,77808,,,"DANIEL & DIANA WEBER","4505 CARTER CREEK PKWY",BRYAN,TX,77808,,Owner,,,,,"LONE-STAR ROOF SYSTEMS",,,,,"LONE-STAR ROOF SYSTEMS","18476 HWY 6","COLLEGE STATION",TX,77845,"(800) 317-1939",,,,
TX,BRAZOS,20-4254,"Residential Renovations & Additions",10/27/2020,Renovation,62089,1119,"907 COLE ST",BRYAN,TX,77808,,,CONTRACTOR,,,,,,,,,,,"TURQUOISE WORKS",,,,,"TURQUOISE WORKS","10190 KATY FWY, STE 100",HOUSTON,TX,77043-5237,"(832) 888-1499",,,,
TX,BRAZOS,20-4186,"Residential Renovations & Additions",10/27/2020,Renovation,160000,2981,"3363 UNIVERSITY DR E 215",BRYAN,TX,77804,,,CONTRACTOR,,,,,,,,,,,"KEYS & WALSH CONSTRUCTION",,,,,"KEYS & WALSH CONSTRUCTION","12633 STATE HIGHWAY 30","COLLEGE STATION",TX,77845-7736,"(979) 774-3600",http://www.keysandwalsh.com/,"(979) 774-3611",,
TX,BRAZORIA,RES20-01767,"Residential Renovations & Additions",10/20/2020,Addition,,1112,"2408 CUNNINGHAM DR",PEARLAND,TX,77581,,,"CHAD & STACEY GARNER","2408 CUNNINGHAM DR",PEARLAND,TX,77581,,Owner,,,,,"AFFORDABLE SHADE PATIO COVERS",,,,,"AFFORDABLE SHADE PATIO COVERS","10315 BELFAST RD","LA PORTE",TX,77571-4205,"(713) 574-4969",,,,
TX,BRAZORIA,RES20-02179,"Residential Renovations & Additions",10/28/2020,Addition,,3257,"13612 THUNDER STONE LN",PEARLAND,TX,77584,,,"SARAH & JEREMY BRECKBILL","13612 THUNDER STONE LN",PEARLAND,TX,77584,,Owner,,,,,"MARC JONES CONSTRUCTION",,,,,"MARC JONES CONSTRUCTION","12011 DENTON DR",DALLAS,TX,75234-7211,"(832) 778-4911",,,,
TX,HARRIS,2010010163,"Residential Renovations & Additions",10/16/2020,Renovation,39910,,"21114 APRIL MEADOW DR",HOUSTON,TX,77356,"LAUREL PARK",,"JOE & SANJUANITA GOMEZ","21114 APRIL MEADOW DR",HOUSTON,TX,77356,,Owner,,,,,"ANTHONY & SYLVAN POOLS",,,,,"ANTHONY & SYLVAN POOLS","1424 W SAM HOUSTON PKWY N",HOUSTON,TX,77043-3193,"(713) 467-6458",http://www.anthonysylvan.com/,,,
TX,HARRIS,20083207,"Residential Swimming Pools & Spas",10/29/2020,,44602,,"4130 BLUE BONNET",HOUSTON,TX,77075,,,"KEVIN & LINDA BURNS","4130 BLUE BONNET",HOUSTON,TX,77075,,Owner,,,,,"OUTDOOR ELEMENTS",,,,,"OUTDOOR ELEMENTS","10707 SHARMON RD",HOUSTON,TX,77038-1307,"(713) 955-0990",http://www.outdoorelementstx.com/,"(832) 408-7485",,info@outdoorelementstx.com
TX,HARRIS,20050289,"Residential Swimming Pools & Spas",11/2/2020,,35000,,"7075 FAUNA",HOUSTON,TX,77061,,,"CODY JUDITH","7075 FAUNA",HOUSTON,TX,77061,,Owner,,,,,"GALINDO JASON",,,,,"GALINDO JASON","14218 WHITE",HOUSTON,TX,77053,"(832) 817-2066",,,,
TX,HARRIS,20100220,"Residential Swimming Pools & Spas",11/2/2020,,48500,,"1542 ALTHEA",HOUSTON,TX,77018,,,CONTRACTOR,,,,,,,,,,,"ANJA'S PERMIT ASSISTANCE",,,,,"ANJA'S PERMIT ASSISTANCE","PO BOX 1471",HOUSTON,TX,77251-1471,"(281) 222-5227",,,,
TX,HARRIS,20096320,"Residential Swimming Pools & Spas",10/30/2020,,60000,,"1320 ALTHEA",HOUSTON,TX,77018,,,"GARRETT & STACIE HOHMANN","1320 ALTHEA",HOUSTON,TX,77018,,Owner,,,,,"CREATIVE LIFESTYLE POOLS ",,,,,"CREATIVE LIFESTYLE POOLS ","13121 LOUETTA RD",CYPRESS,TX,77429-5155,"(281) 820-0396",http://www.creativelifestylepools.com/,,,jlmonke@aol.com
TX,HARRIS,20069840,"Residential Swimming Pools & Spas",10/30/2020,,150000,,"7215 W FUQUA ST BLD",HOUSTON,TX,77489,,,"DAVILA MOUSES","7215 W FUQUA ST BLD",HOUSTON,TX,77489,"(979) 777-1173",Applicant,,,,,OWNER,,,,,OWNER,,,,,,,,,
TX,HARRIS,20079711,"Residential Swimming Pools & Spas",10/29/2020,,50000,,"12506 KINGSRIDE",HOUSTON,TX,77024,,,"JENNIFER BROCKUTNE","12506 KINGSRIDE",HOUSTON,TX,77024,,Owner,,,,,"3D POOLS & LANDSCAPE",,,,,"3D POOLS & LANDSCAPE","1050 W GRAND PKWY S",KATY,TX,77494-8410,"(281) 693-4444",http://www.3dpoolsandlandscape.com,"(281) 693-4446",,dale@3DPoolsandLandscape.com
TX,HARRIS,20096641,"Residential Swimming Pools & Spas",10/28/2020,,70500,,"5406 TILBURY",HOUSTON,TX,77056,,,CONTRACTOR,,,,,,,,,,,"LUNA POOLS & SPA",,,,,"LUNA POOLS & SPA","103 GREYFRIAR DR",HOUSTON,TX,77037,"(713) 553-9964",https://lunapoolsandspa.com/,,,
TX,HARRIS,20097602,"Residential Swimming Pools & Spas",10/29/2020,,53998,,"13327 BARDWALL LAKE",HOUSTON,TX,77044,,,"CRUTISON JASPER","13327 BARDWALL LAKE",HOUSTON,TX,77044,,Owner,,,,,"PRECISION POOLS & SPAS",,,,,"PRECISION POOLS & SPAS","16230 WEST BELLFORT",HOUSTON,TX,77498,"(281) 265-2774",https://www.precisionswimmingpools.com,,,
TX,HARRIS,20089035,"Residential Swimming Pools & Spas",10/30/2020,,95342,,"864 E 25TH",HOUSTON,TX,77009,,,"TUAN DIEP","864 E 25TH",HOUSTON,TX,77009,,Owner,,,,,"PLATINUM POOLS",,,,,"PLATINUM POOLS","4500 BLALOCK RD",HOUSTON,TX,77041-9121,"(281) 870-1600",,,,
TX,HARRIS,20094624,"Residential Swimming Pools & Spas",10/27/2020,,36779,,"11507 ATWELL",HOUSTON,TX,77035,,,"ELAINE MORENO","11507 ATWELL",HOUSTON,TX,77035,,Owner,,,,,"OUTDOOR ELEMENTS",,,,,"OUTDOOR ELEMENTS","10707 SHARMON RD",HOUSTON,TX,77038-1307,"(713) 955-0990",http://www.outdoorelementstx.com/,"(832) 408-7485",,info@outdoorelementstx.com
TX,HARRIS,20089588,"Residential Swimming Pools & Spas",10/27/2020,,55000,,"118 GERSHWIN",HOUSTON,TX,77079,,,"CHRIS FRYSINGER","118 GERSHWIN",HOUSTON,TX,77079,,Owner,,,,,"PREMIERE PERMITS & CONSULTANTS",,,,,"PREMIERE PERMITS & CONSULTANTS","12831 MADERA CANYON LN",HOUSTON,TX,77377,"(877) 306-2042",,,,
TX,HARRIS,20094228,"Residential Swimming Pools & Spas",10/28/2020,,74691,,"1212 WALTON",HOUSTON,TX,77009,,,"GUTHRIE SCOTT","1212 WALTON",HOUSTON,TX,77009,,Owner,,,,,"CODY POOLS",,,,,"CODY POOLS","26615 I45 NORTH",HOUSTON,TX,77380,"(713) 422-3266",http://www.codypools.com,,,
TX,HARRIS,20086098,"Residential Swimming Pools & Spas",10/28/2020,,65000,,"2015 PLEASANT CREEK",HOUSTON,TX,77345,,,"JAMES KENNETH","2015 PLEASANT CREEK",HOUSTON,TX,77345,,Owner,,,,,"EASTEX POOLS",,,,,"EASTEX POOLS","2907 CLEAR RIDGE",HOUSTON,TX,77339,"(713) 819-7969",http://www.eastexcompany.com/,"(281) 360-6553",,Web@EastexCompany.com
TX,HARRIS,20095903,"Residential Swimming Pools & Spas",10/30/2020,,82091,,"2350 BINLEY",HOUSTON,TX,77077,,,"DOUGE MOORE","2350 BINLEY",HOUSTON,TX,77077,,Owner,,,,,"RICHARD TOTAL BACKYARD SOLUTI",,,,,"RICHARD TOTAL BACKYARD SOLUTI","1701 S HIGHWAY",HOUSTON,TX,77007,"(713) 369-0925",,,,
TX,HARRIS,20091346,"Residential Swimming Pools & Spas",10/29/2020,,64820,,"10710 SHADY RIVER",HOUSTON,TX,77042,,,"PHIL TSCHOEPE","10710 SHADY RIVER",HOUSTON,TX,77042,,Owner,,,,,"MARLIN NICKS",,,,,"MARLIN NICKS","22626 KUYKENDAHL",HOUSTON,TX,77389,"(713) 304-1393",,,,
TX,HARRIS,20093459,"Residential Swimming Pools & Spas",10/27/2020,,55000,,"13134 HERMITAGE",HOUSTON,TX,77079,,,"RESIDENCE STOCKTON","13134 HERMITAGE",HOUSTON,TX,77079,,Owner,,,,,"PREMIERE PERMITS & CONSULTANTS",,,,,"PREMIERE PERMITS & CONSULTANTS","12831 MADERA CANYON LN",HOUSTON,TX,77377,"(877) 306-2042",,,,
TX,HARRIS,20094279,"Residential Swimming Pools & Spas",10/29/2020,,60000,,"5118 POINCIANA",HOUSTON,TX,77092,,,"ROBEY LOUIS","5118 POINCIANA",HOUSTON,TX,77092,,Owner,,,,,"HEARN NOLAN",,,,,"HEARN NOLAN","23 HURTSMANS HORN CIR","THE WOODLANDS",TX,77380,"(281) 728-5995",http://livingwaterpoolcompany.com/,,,info@livingwaterpoolcompany.com
TX,HARRIS,20092074,"Residential Swimming Pools & Spas",10/28/2020,,40000,,"2103 CHANTILLY",HOUSTON,TX,77018,,,"NICOLE SAEGUSA","2103 CHANTILLY",HOUSTON,TX,77018,,Owner,,,,,"RAMIREZ LUIS",,,,,"RAMIREZ LUIS","6305 OBAN ST",HOUSTON,TX,77085-3621,"(915) 227-9337",,,,
TX,HARRIS,20082548,"Residential Swimming Pools & Spas",10/28/2020,,159228,,"3603 ST.TROPEZ WAY",HOUSTON,TX,77082,,,"JOSEPH SLEIMAN","3603 ST.TROPEZ WAY",HOUSTON,TX,77082,,Owner,,,,,"VOLLMER CUSTOM POOLS",,,,,"VOLLMER CUSTOM POOLS","27027 WESTHEIMER PKWY STE 2200",KATY,TX,77494-5378,"(281) 830-5680",http://www.vollmercustompools.com/,,"DAVID VOLLMER",
TX,HARRIS,20095469,"Residential Swimming Pools & Spas",10/30/2020,,54495,,"7014 CARVEL",HOUSTON,TX,77074,,,"CHRISTEN TASCHERY","7014 CARVEL",HOUSTON,TX,77074,,Owner,,,,,"ANTHONY & SYLVAN POOLS",,,,,"ANTHONY & SYLVAN POOLS","1424 W SAM HOUSTON PKWY N",HOUSTON,TX,77043-3193,"(713) 467-6458",http://www.anthonysylvan.com/,,,
TX,HARRIS,20093893,"Residential Swimming Pools & Spas",10/28/2020,,20000,,"17116 NUMIDLAKE",HOUSTON,TX,77044,,,"THOMAS DEON & MARY","17116 NUMIDLAKE",HOUSTON,TX,77044,"(832) 206-9603",Owner,,,,,OWNER,,,,,OWNER,,,,,,,,,
TX,HARRIS,20096890,"Residential Swimming Pools & Spas",11/2/2020,,30000,,"859 MYRTLEA",HOUSTON,TX,77079,,,"THOMPSON JOHN & RHONDALYN","859 MYRTLEA",HOUSTON,TX,77079,,Owner,,,,,"ANJA'S PERMIT ASSISTANCE",,,,,"ANJA'S PERMIT ASSISTANCE","PO BOX 1471",HOUSTON,TX,77251-1471,"(281) 222-5227",,,,
TX,HARRIS,20053352,"Residential Swimming Pools & Spas",10/28/2020,,58000,,"3830 SOUTHMORE BLVD",HOUSTON,TX,77004,,,"TOWNSEND SAMANTHA","3830 SOUTHMORE BLVD",HOUSTON,TX,77004,,Owner,,,,,"PALM POOLS",,,,,"PALM POOLS","20530 INDIAN GROVE LN",KATY,TX,77450-7427,"(832) 723-1415",http://www.palmpoolshouston.com/contact.php,"(281) 646-1904",,info@palmpoolshouston.com
TX,HARRIS,20086015,"Residential Swimming Pools & Spas",11/2/2020,,67577,,"205 E COWAN",HOUSTON,TX,77007,,,"KAMRAN VIRANI","205 E COWAN",HOUSTON,TX,77007,,Owner,,,,,"MURRAY SHEILA",,,,,"MURRAY SHEILA","26909 KATY FWY",KATY,TX,77494,"(832) 683-2269",,,,
TX,HARRIS,20093890,"Residential Swimming Pools & Spas",10/29/2020,,20000,,"3014 HONEYGUIDE",HOUSTON,TX,77365,,,"WILKS VICKI & PERR","3014 HONEYGUIDE",HOUSTON,TX,77365,"(832) 206-9603",Owner,,,,,OWNER,,,,,OWNER,,,,,,,,,
TX,HARRIS,20093710,"Residential Swimming Pools & Spas",10/28/2020,,60000,,"705 WILKEN",HOUSTON,TX,77008,,,"ZARE RAHEEM","705 WILKEN",HOUSTON,TX,77008,,Owner,,,,,"BLUE URBAN POOL",,,,,"BLUE URBAN POOL","448 W 19TH ST",HOUSTON,TX,77008-3914,"(713) 825-5085",,,"DAMIAN OGIER",
TX,HARRIS,202002319,"Residential Swimming Pools & Spas",10/14/2020,,90000,,"29511 LIBERTY LN",TOMBALL,TX,77375,,,"JEFFREY BERT","29511 LIBERTY LN",TOMBALL,TX,77375,,Owner,,,,,"THE POOL MAN",,,,,"THE POOL MAN","19111 CYPRESS ROSE",HOUSTON,TX,77377,"(713) 781-0760",http://www.poolmaninc.com,,,
TX,HARRIS,20200461,"Residential Swimming Pools & Spas",10/5/2020,,,1179,"11821 CHAPELWOOD LN","BUNKER HILL VILLAGE",TX,75051,,,"JAY GRAHAM","11821 CHAPELWOOD LN","BUNKER HILL VILLAGE",TX,75051,,Owner,,,,,"ATHLETIC DESIGN GROUP",,,,,"ATHLETIC DESIGN GROUP","5829 W SAM HOUSTON PKWY N",HOUSTON,TX,77041-4745,"(281) 456-2477",http://www.athleticdesigngroup.com,,,
TX,HARRIS,20200468,"Residential Swimming Pools & Spas",10/8/2020,,,496,"38 WILLIAMSBURG LN","BUNKER HILL VILLAGE",TX,75051,,,"AARON & KELLY WOLF","38 WILLIAMSBURG LN","BUNKER HILL VILLAGE",TX,75051,,Owner,,,,,"LY CUSTOM HOMES",,,,,"LY CUSTOM HOMES","718 BUNKER HILL RD",HOUSTON,TX,77024-4406,"(972) 965-7738",,,,
TX,HARRIS,2009120003,"Residential Swimming Pools & Spas",10/16/2020,,142000,,"13726 COLE POINT DR",HOUSTON,TX,77356,,,"JONATHAN & CHERYL CAREY","13726 COLE POINT DR",HOUSTON,TX,77356,,Owner,,,,,OWNER,,,,,OWNER,,,,,,,,,
TX,HARRIS,2008180104,"Residential Swimming Pools & Spas",10/16/2020,,54000,,"9814 GLASCOW GREEN",HOUSTON,TX,77356,"ASHLEY POINTE",,"RICHARD FLORES","9814 GLASCOW GREEN",HOUSTON,TX,77356,,Owner,,,,,OWNER,,,,,OWNER,,,,,,,,,
TX,HARRIS,2009210102,"Residential Swimming Pools & Spas",10/16/2020,,41000,,"10027 CITRUSWOOD LN",HOUSTON,TX,77356,"CLEAR BROOK CROSSING",,"JEREMY & MARY PURVIS","10027 CITRUSWOOD LN",HOUSTON,TX,77356,,Owner,,,,,OWNER,,,,,OWNER,,,,,,,,,
TX,HARRIS,2010200129,"Residential Swimming Pools & Spas",10/16/2020,,64900,496,"11347 NEEDLEROCK CT",HOUSTON,TX,77356,"BALMORAL PARK LAKES",,"CHARLES SHAFER","11347 NEEDLEROCK CT",HOUSTON,TX,77356,,Owner,,,,,OWNER,,,,,OWNER,,,,,,,,,
TX,HARRIS,2010130089,"Residential Swimming Pools & Spas",10/16/2020,,78000,,"15510 STABLE PARK CT",HOUSTON,TX,77356,"STABLE GATE",,PURIFOY,"15510 STABLE PARK CT",HOUSTON,TX,77356,,Owner,,,,,OWNER,,,,,OWNER,,,,,,,,,
TX,HARRIS,2010130075,"Residential Swimming Pools & Spas",10/16/2020,,87425,,"13904 BARROW CLIFF LN",HOUSTON,TX,77356,"ALDEN WOODS",,MAITLAND,"13904 BARROW CLIFF LN",HOUSTON,TX,77356,,Owner,,,,,OWNER,,,,,OWNER,,,,,,,,,
TX,HARRIS,2010140118,"Residential Swimming Pools & Spas",10/16/2020,,45000,,"4907 BELLA DANIELLE CT",HOUSTON,TX,77356,"VENTANA LAKES",,"ELSIRA GARCIA","4907 BELLA DANIELLE CT",HOUSTON,TX,77356,,Owner,,,,,OWNER,,,,,OWNER,,,,,,,,,
TX,HARRIS,2010060073,"Residential Swimming Pools & Spas",10/15/2020,,79665,1350,"23842 PADOVA GARDENS DR",HOUSTON,TX,77356,"VENTANA LAKES",,"PUPO YOANI","23842 PADOVA GARDENS DR",HOUSTON,TX,77356,,Owner,,,,,OWNER,,,,,OWNER,,,,,,,,,
TX,HARRIS,2010080037,"Residential Swimming Pools & Spas",10/16/2020,,80000,,"10903 DAWN RIVER CT",HOUSTON,TX,77356,"TOWNE LAKE",,"BACKYARD OASIS","10903 DAWN RIVER CT",HOUSTON,TX,77356,,Owner,,,,,OWNER,,,,,OWNER,,,,,,,,,
TX,HARRIS,2009220065,"Residential Swimming Pools & Spas",10/16/2020,,97577,,"19515 ASHER MEADOWS DR",HOUSTON,TX,77356,"TOWNE LAKE",,KOOPMANS,"19515 ASHER MEADOWS DR",HOUSTON,TX,77356,,Owner,,,,,OWNER,,,,,OWNER,,,,,,,,,
TX,HARRIS,2009230044,"Residential Swimming Pools & Spas",10/16/2020,,88183,,"39 CHERRY LAKE CIR",HOUSTON,TX,77356,"WILLOWCREEK RANCH",,"DARBY LEJUNE","39 CHERRY LAKE CIR",HOUSTON,TX,77356,,Owner,,,,,OWNER,,,,,OWNER,,,,,,,,,
TX,BRAZORIA,RES20-01950,"Residential Swimming Pools & Spas",10/1/2020,,,939,"3708 WESTLAND CT",PEARLAND,TX,77581,,,"ABRAHAM & LESLIE GUAJARDO","3708 WESTLAND CT",PEARLAND,TX,77581,,Owner,,,,,"ANTHONY & SYLVAN POOLS",,,,,"ANTHONY & SYLVAN POOLS","1424 W SAM HOUSTON PKWY N",HOUSTON,TX,77043-3193,"(713) 467-6458",http://www.anthonysylvan.com/,,,
TX,BRAZORIA,RES20-01951,"Residential Swimming Pools & Spas",10/7/2020,,,537,"3316 TRAIL HOLLOW DR",PEARLAND,TX,77584,,,"FRANKLIN & MECHELLE BROWN","3316 TRAIL HOLLOW DR",PEARLAND,TX,77584,,Owner,,,,,"ANTHONY & SYLVAN POOLS",,,,,"ANTHONY & SYLVAN POOLS","1424 W SAM HOUSTON PKWY N",HOUSTON,TX,77043-3193,"(713) 467-6458",http://www.anthonysylvan.com/,,,
TX,HARRIS,2010020161,"Residential Swimming Pools & Spas",10/16/2020,,62000,,"21414 HENRYS BLUSH DR",HOUSTON,TX,77356,"ROSEHILL RESERVE",,"JEREMY PITZEL","21414 HENRYS BLUSH DR",HOUSTON,TX,77356,,Owner,,,,,OWNER,,,,,OWNER,,,,,,,,,
TX,HARRIS,2009290102,"Residential Swimming Pools & Spas",10/16/2020,,40000,,"51 NATURES SONG DR",HOUSTON,TX,77356,"THE WOODLANDS CREEKSIDE PARK",,"MICHAEL & JESSICA RICHEY","51 NATURES SONG DR",HOUSTON,TX,77356,,Owner,,,,,OWNER,,,,,OWNER,,,,,,,,,
TX,HARRIS,2010050061,"Residential Swimming Pools & Spas",10/16/2020,,45000,,"20423 FAWN REST PL",HOUSTON,TX,77356,"LAUREL PARK",,"GABRIEL FEREIRA","20423 FAWN REST PL",HOUSTON,TX,77356,,Owner,,,,,OWNER,,,,,OWNER,,,,,,,,,
TX,HARRIS,2010020186,"Residential Swimming Pools & Spas",10/16/2020,,119000,,"22934 SAN GIORGIO CT",HOUSTON,TX,77356,"VENTANA LAKES",,"JEREMY & ROXANA ANDREWS","22934 SAN GIORGIO CT",HOUSTON,TX,77356,,Owner,,,,,OWNER,,,,,OWNER,,,,,,,,,
TX,HARRIS,2010020081,"Residential Swimming Pools & Spas",10/16/2020,,85627,,"16427 BASTON CREEK DR",HOUSTON,TX,77356,"FALLS AT DRY CREEK",,SERRANO,"16427 BASTON CREEK DR",HOUSTON,TX,77356,,Owner,,,,,OWNER,,,,,OWNER,,,,,,,,,
TX,HARRIS,2010010188,"Residential Swimming Pools & Spas",10/16/2020,,38185,,"15515 ROYAL TRACE CT",HOUSTON,TX,77356,"WILDWOOD AT OAKCREST",,WATTERLIND,"15515 ROYAL TRACE CT",HOUSTON,TX,77356,,Owner,,,,,OWNER,,,,,OWNER,,,,,,,,,
TX,HARRIS,2009240142,"Residential Swimming Pools & Spas",10/16/2020,,44167,,"20407 SUMMER JASMINE WAY",HOUSTON,TX,77356,"JASMINE HEIGHTS",,"HECTOR GONZALEZ","1234 MAIN ST",HOUSTON,TX,77356,,Owner,,,,,OWNER,,,,,OWNER,,,,,,,,,
TX,HARRIS,2010010092,"Residential Swimming Pools & Spas",10/16/2020,,39000,,"10011 ELM MEADOW TRAIL",HOUSTON,TX,77356,"WILLOW POINTE",,"BREDA PREUSS","10011 ELM MEADOW TRAIL",HOUSTON,TX,77356,,Owner,,,,,OWNER,,,,,OWNER,,,,,,,,,
TX,HARRIS,2009170023,"Residential Swimming Pools & Spas",10/16/2020,,60000,,"22 SOLEBROOK PATH",HOUSTON,TX,77356,"THE WOODLANDS CREEKSIDE PARK",,"EDUARDO QUINJANO","22 SOLEBROOK PATH",HOUSTON,TX,75356,,Owner,,,,,OWNER,,,,,OWNER,,,,,,,,,
TX,HARRIS,20073865,"Restaurant and Bar",10/28/2020,Renovation,250000,,"805 DALLAS",HOUSTON,TX,77002,,,CONTRACTOR,,,,,,,,,,,"DA SPACE CONCEPT",,,,,"DA SPACE CONCEPT","11152 WESTHEIMER RD",HOUSTON,TX,77042,"(917) 656-2444",,,,
TX,HARRIS,20085184,"Restaurant and Bar",10/28/2020,Renovation,160000,,"9889 BELLAIRE BLVD",HOUSTON,TX,77036,,,"LAKI FISH","9889 BELLAIRE BLVD",HOUSTON,TX,77036-3499,"(832) 818-8811",Applicant,,,"HUI ED",,OWNER,,,,,OWNER,,,,,,,,,
TX,HARRIS,20058859,"Restaurant and Bar",10/27/2020,,500000,,"1214 WESTHEIMER",HOUSTON,TX,77006,,,CONTRACTOR,,,,,,,,,,,"SUNDANCE CONSTRUCTION",,,,,"SUNDANCE CONSTRUCTION","695 INDUSTRIAL",HOUSTON,TX,77478,"(281) 277-1000",,,,
TX,BRAZORIA,"20 - 1473","Restaurant and Bar",10/6/2020,,76000,,"824 E ADOUE ST",ALVIN,TX,77511,,,CONTRACTOR,,,,,,,,,,,"CVN REMODELING & CONSTRUCTION",,,,,"CVN REMODELING & CONSTRUCTION","7835 GROW LN APT 100",HOUSTON,TX,77040-5963,"(281) 222-3884",,,,
TX,HARRIS,20070126,"Restaurant and Bar",10/22/2020,,250000,2505,"3422 GARTH RD",BAYTOWN,TX,77521,,,CONTRACTOR,,,,,,,,,,,"RGV CONCEPTS",,,,,"RGV CONCEPTS","809 QUINCE AVE",MCALLEN,TX,78501-2445,"(956) 776-5079",,,,
TX,HARRIS,20088860,Retail,10/29/2020,Renovation,48000,,"9598 MAIN",HOUSTON,TX,77025,,,"CHEUNG KWOK","11152 WESTHEIMER RD",HOUSTON,TX,77042,"(832) 466-9702",Applicant,,,,,OWNER,,,,,OWNER,,,,,,,,,
TX,HARRIS,20017452,Retail,10/27/2020,,3000000,,"11754 BELLAIRE",HOUSTON,TX,77072,,,CONTRACTOR,,,,,,,,,,,"LEE HUANG & ASSOCIATES",,,,,"LEE HUANG & ASSOCIATES","5855 SOVEREIGN DR STE",HOUSTON,TX,77036,"(713) 271-9600",,,,
TX,HARRIS,20017508,Retail,10/27/2020,,850000,,"11800 BELLAIRE",HOUSTON,TX,77072,,,CONTRACTOR,,,,,,,,,,,"LEE HUANG & ASSOCIATES",,,,,"LEE HUANG & ASSOCIATES","5855 SOVEREIGN DR STE",HOUSTON,TX,77036,"(713) 271-9600",,,,
TX,HARRIS,20024375,Retail,10/30/2020,,1200000,,"18555 TOMBALL",HOUSTON,TX,77070,,,CONTRACTOR,,,,,,,,,,,"VERDAD REAL ESTATE & CONSTRUCTION SERVICES",,,,,"VERDAD REAL ESTATE & CONSTRUCTION SERVICES","1211 SOUTH WHITE CHAPEL BLVD.",SOUTHLAKE,TX,76092,"(817) 912-0222",https://www.verdad.com/,,,info@verdad.com
TX,HARRIS,202002544,Retail,10/27/2020,,590000,,"15215 FM 2920",TOMBALL,TX,77375,,,CONTRACTOR,,,,,,,,,,,AAMAX,,,,,AAMAX,"19 N CURLY WILLOW CIR","THE WOODLANDS",TX,77375,"(713) 688-7000",,,,
TX,HARRIS,202002581,Retail,10/29/2020,Renovation,600000,8829,"27722 TOMBALL PKWY",TOMBALL,TX,77375,,,CONTRACTOR,,,,,,,,,,,"EQUIPMENT CS ",,,,,"EQUIPMENT CS ","3239 FRICK RD",HOUSTON,TX,77086-2911,"(281) 777-3403",,,,
TX,BRAZORIA,"20 - 1655",Retail,10/14/2020,,730589,,"1202 FM 1462",ALVIN,TX,77511,,,CONTRACTOR,,,,,,,,,,,"LAKEVIEW CONSTRUCTION",,,,,"LAKEVIEW CONSTRUCTION","10505 CORPORATE DR STE 200","PLEASANT PRAIRIE",WI,53158-1605,"(262) 587-3336",,,,
TX,BRAZOS,20-3822,Retail,10/20/2020,,128195,,"1700 GOOSENECK DR",BRYAN,TX,77808,"CARRABBA INDUSTRIAL PARK",,"MARK AND DAVID CARRABBA","1700 GOOSENECK DR",BRYAN,TX,77808,,Owner,,,,,"EXCELL FUELING SYSTEMS",,,,,"EXCELL FUELING SYSTEMS","3413 SLAUGHTER LN W",AUSTIN,TX,78748,"(512) 280-5230",,,,
TX,BRAZOS,20-3077,Retail,9/11/2020,,200000,1800,"2200 BRIARCREST DR",BRYAN,TX,77808,,,CONTRACTOR,,,,,,,,,,,"POWERHOUSE RETAIL SERVICES",,,,,"POWERHOUSE RETAIL SERVICES","301 E MAIN ST",CROWLEY,TX,76036-2610,"(830) 708-0257",http://www.powerhouseretailservices.com,,,
TX,BRAZOS,20-3460,Retail,10/6/2020,,100000,,"101 S TEXAS AVE",BRYAN,TX,77808,"BRYAN ORIGINAL TOWN",,CONTRACTOR,,,,,,,,,,,"THE STARK COMPANIES",,,,,"THE STARK COMPANIES","4437 EMERSON AVE APT 5",DALLAS,TX,75205-1017,"(214) 369-5555",http://www.thestarkcompanies.com/,,,info@thestarkcompanies.com
TX,HARRIS,19110042,Retail,10/5/2020,,900000,7320,"6040 GARTH RD",BAYTOWN,TX,77521,,,"ARZ REAL ESTATE HOLDING LLC","6040 GARTH RD",BAYTOWN,TX,77521,,Owner,,,,,"EXCEL CONSTRUCTION",,,,,"EXCEL CONSTRUCTION","10502 TOWNE SQUARE RD","SUGAR LAND",TX,77498-1532,"(281) 565-7000",,,,
TX,HARRIS,20080290,Retail,10/13/2020,,95200,1428,"6624 GARTH RD",BAYTOWN,TX,77521,,,CONTRACTOR,,,,,,,,,,,"LEAD CONSTRUCTION",,,,,"LEAD CONSTRUCTION","11729 SPRING CYPRESS RD STE E16",TOMBALL,TX,77377-6381,"(281) 387-4032",http://leadconstructionllc.com/,,"Jacob Lee",jlee@leadconstructionllc.com
TX,BRAZORIA,COMM20-00313,Retail,10/16/2020,Renovation,3225000,,"14905 KIRBY DR",PEARLAND,TX,77047,,,CONTRACTOR,,,,,,,,,,,"JT VAUGHN CONSTRUCTION",,,,,"JT VAUGHN CONSTRUCTION","1028 BROADWAY ST",GALVESTON,TX,77550-6257,"(409) 770-0747",http://www.vaughnconstruction.com/,,,
TX,BRAZORIA,COMM20-00411,Retail,10/21/2020,Renovation,150000,2145,"1919 MAIN ST # A",PEARLAND,TX,77581,,,CONTRACTOR,,,,,,,,,,,"MANAGEMENT RESOURCE SYSTEMS",,,,,"MANAGEMENT RESOURCE SYSTEMS","1907 BAKER RD","HIGH POINT",NC,27263-2007,"(336) 861-1960",http://www.mrs1977.com/,"(336) 861-3065",,
TX,BRAZORIA,COMM20-00018,Retail,10/15/2020,,955500,13650,"3300 BUSINESS CENTER DR",PEARLAND,TX,77584,,,CONTRACTOR,,,,,,,,,,,"SVAG CONSTRUCTION",,,,,"SVAG CONSTRUCTION","101 PARKLANE SUITE 102","SUGAR LAND",TX,77478,"(281) 571-3171",https://www.svagconstruction.com/,,,info@svagconstruction.com
TX,BRAZORIA,COMM20-00280,Retail,10/5/2020,,400000,,"3525 MAIN ST",PEARLAND,TX,77581,,,CONTRACTOR,,,,,,,,,,,"WESTOVER PLAZA",,,,,"WESTOVER PLAZA","6011 WEST MAIN","LEAGUE CITY",TX,77573-2878,"(713) 702-4018",,,,
TX,BRAZORIA,COMM20-00188,Retail,10/27/2020,"Finish Out",125000,2000,"1930 PEARLAND PKWY # 160",PEARLAND,TX,77581,,,CONTRACTOR,,,,,,,,,,,"DAU BUILDERS",,,,,"DAU BUILDERS","9999 BELLAIRE BLVD STE 1125",HOUSTON,TX,77036-3579,"(281) 983-5959",http://www.daubuilders.com,"(281) 983-5949","CATHY NGUYEN",cnguyen@dauinteriors.com
TX,BRAZORIA,COMM20-00377,Retail,10/29/2020,"Finish Out",179621,2520,"3220 KIRBY DR # 160",PEARLAND,TX,77584,,,CONTRACTOR,,,,,,,,,,,"D H FRENCH CONSTRUCTION",,,,,"D H FRENCH CONSTRUCTION","17 NE 27TH ST","OKLAHOMA CITY",OK,73105-2710,"(405) 524-3000",http://www.dhfrenchconstruction.com/,,"DAVID FRENCH",info@dhfrenchconstruction.com
TX,HARRIS,2010060090,Retail,10/16/2020,,83000,,"21660 KINGSLAND BLVD",HOUSTON,TX,77356,,,"KATY FOOR & ANKLE","21660 KINGSLAND BLVD",HOUSTON,TX,77356,,Owner,,,,,OWNER,,,,,OWNER,,,,,,,,,
TX,HARRIS,2008040110,Retail,10/16/2020,,500000,4305,"403 DELL DALE ST",HOUSTON,TX,77356,"OLD RIVER TERRACE",,"BUNNY STOP","403 DELL DALE ST",HOUSTON,TX,77356,,Owner,,,,,OWNER,,,,,OWNER,,,,,,,,,
TX,HARRIS,19098914,"Single Family Homes",10/29/2020,,329700,,"14718 MARINE",HOUSTON,TX,77396,,,"AGUILAR JULIO","14718 MARINE",HOUSTON,TX,77396,,Owner,,,,,OWNER,,,,,OWNER,,,,,,,,,
TX,HARRIS,20087634,"Single Family Homes",10/29/2020,,168637,,"4605 TALINA",HOUSTON,TX,77041,,,"AGUIRRE FRANCO","4605 TALINA",HOUSTON,TX,77041,,Owner,,,,,"RE PLUMBING",,,,,"RE PLUMBING","3011 DEDMAN STREET",PASADENA,TX,77503,"(713) 498-2038",,,,
TX,HARRIS,20093897,"Single Family Homes",11/2/2020,,251000,,"2506 WALKER DAWN",HOUSTON,TX,77008,,,CONTRACTOR,,,,,,,,,,,"ANNE'S PERMIT",,,,,"ANNE'S PERMIT","2617C W HOLCOMBE BLVD",HOUSTON,TX,77025,"(713) 666-2025",,,,
TX,HARRIS,20091130,"Single Family Homes",11/2/2020,,160000,,"10928 KEATON LANDING",HOUSTON,TX,77043,,,CONTRACTOR,,,,,,,,,,,"ANNE'S PERMIT",,,,,"ANNE'S PERMIT","2617C W HOLCOMBE BLVD",HOUSTON,TX,77025,"(713) 666-2025",,,,
TX,HARRIS,20092490,"Single Family Homes",10/28/2020,,189000,,"10939 KEATON LANDING ",HOUSTON,TX,77043,,,CONTRACTOR,,,,,,,,,,,"ANNE'S PERMIT",,,,,"ANNE'S PERMIT","2617C W HOLCOMBE BLVD",HOUSTON,TX,77025,"(713) 666-2025",,,,
TX,HARRIS,20060317,"Single Family Homes",10/29/2020,,188000,,"6317 PADDINGTON BEND",HOUSTON,TX,77008,,,CONTRACTOR,,,,,,,,,,,"ANNE'S PERMIT",,,,,"ANNE'S PERMIT","2617C W HOLCOMBE BLVD",HOUSTON,TX,77025,"(713) 666-2025",,,,
TX,HARRIS,20088237,"Single Family Homes",10/29/2020,,650000,,"501 LONGWOODS",HOUSTON,TX,77024,,,CONTRACTOR,,,,,,,,,,,"ANNE'S PERMIT",,,,,"ANNE'S PERMIT","2617C W HOLCOMBE BLVD",HOUSTON,TX,77025,"(713) 666-2025",,,,
TX,HARRIS,20054815,"Single Family Homes",10/28/2020,,370000,,"206 FAUST",HOUSTON,TX,77024,,,"BONHAM ILSA","206 FAUST",HOUSTON,TX,77024,,Owner,,,,,"MARIA SANCHEZ",,,,,"MARIA SANCHEZ","11021 UPLAND FOREST",HOUSTON,TX,77043,"(832) 235-5744",,,,
TX,HARRIS,20091262,"Single Family Homes",10/28/2020,,94990,,"5815 SOUTHMUND",HOUSTON,TX,77033,,,"BUCKNER BESSIE","5815 SOUTHMUND",HOUSTON,TX,77033,,Owner,,,,,OWNER,,,,,OWNER,,,,,,,,,
TX,HARRIS,20049694,"Single Family Homes",10/28/2020,,50000,,"8114 HIRSCH",HOUSTON,TX,77016,,,"CACERES MARIA","8114 HIRSCH",HOUSTON,TX,77016,,Owner,,,,,OWNER,,,,,OWNER,,,,,,,,,
TX,HARRIS,20097003,"Single Family Homes",11/2/2020,,222000,,"1903 EASY WIND",HOUSTON,TX,77043,,,CONTRACTOR,,,,,,,,,,,"LIVE OAK HOUSTON HOLDINGS",,,,,"LIVE OAK HOUSTON HOLDINGS","2126 MID LN",HOUSTON,TX,77027-3807,"(713) 816-0881",,,"James Thomas Dorsey",
TX,HARRIS,20097002,"Single Family Homes",11/2/2020,,206000,,"1905 EASY WIND ",HOUSTON,TX,77043,,,CONTRACTOR,,,,,,,,,,,"LIVE OAK HOUSTON HOLDINGS",,,,,"LIVE OAK HOUSTON HOLDINGS","2126 MID LN",HOUSTON,TX,77027-3807,"(713) 816-0881",,,"James Thomas Dorsey",
TX,HARRIS,20097278,"Single Family Homes",11/2/2020,,204000,,"1906 EASY WIND ",HOUSTON,TX,77043,,,CONTRACTOR,,,,,,,,,,,"LIVE OAK HOUSTON HOLDINGS",,,,,"LIVE OAK HOUSTON HOLDINGS","2126 MID LN",HOUSTON,TX,77027-3807,"(713) 816-0881",,,"James Thomas Dorsey",
TX,HARRIS,20097281,"Single Family Homes",11/2/2020,,202000,,"1908 EASY WIND",HOUSTON,TX,77043,,,CONTRACTOR,,,,,,,,,,,"LIVE OAK HOUSTON HOLDINGS",,,,,"LIVE OAK HOUSTON HOLDINGS","2126 MID LN",HOUSTON,TX,77027-3807,"(713) 816-0881",,,"James Thomas Dorsey",
TX,HARRIS,20094682,"Single Family Homes",10/27/2020,,284000,,"13222 WESTMONT HEIGHTS",HOUSTON,TX,77044,,,CONTRACTOR,,,,,,,,,,,"CANADA KARLA",,,,,"CANADA KARLA","272 WESTWOOD DR","LEAGUE CITY",TX,77573,"(713) 443-7818",,,,
TX,HARRIS,20060316,"Single Family Homes",10/29/2020,,174000,,"6315 PADDINGTON BEND",HOUSTON,TX,77008,,,CONTRACTOR,,,,,,,,,,,"CITY CHOICE GROUP",,,,,"CITY CHOICE GROUP","1314 ROY ST",HOUSTON,TX,77007-3343,"(713) 681-5858",http://citychoicehomes.com,,,
TX,HARRIS,20081615,"Single Family Homes",10/30/2020,,188000,,"2719 CLINTON",HOUSTON,TX,77020,,,CONTRACTOR,,,,,,,,,,,"CITYSIDE HOMES",,,,,"CITYSIDE HOMES","10778 VINECREST DR STE 100",HOUSTON,TX,77086-1778,"(281) 831-2252",http://www.citysidehomes.com/,"(713) 868-7239",,
TX,HARRIS,20062919,"Single Family Homes",10/27/2020,,130000,,"3505 WYRICK",HOUSTON,TX,77026,,,CONTRACTOR,,,,,,,,,,,"CMOQ INVESTMENTS",,,,,"CMOQ INVESTMENTS","22136 WESTHEIMER PKWY #513 ",KATY,TX,77450,"(786) 512-8352",https://cmoq.com/,,,info@cmoq.com
TX,HARRIS,20063223,"Single Family Homes",10/28/2020,,240990,,"12531 COLCHESTER CREEK",HOUSTON,TX,77047,,,CONTRACTOR,,,,,,,,,,,"DR HORTON",,,,,"DR HORTON","14100 SOUTHWEST",HOUSTON,TX,77478,"(281) 201-5559",,,,
TX,HARRIS,20059258,"Single Family Homes",10/28/2020,,179990,,"2870 KENNET MANOR ",HOUSTON,TX,77047,,,CONTRACTOR,,,,,,,,,,,"DR HORTON",,,,,"DR HORTON","14100 SOUTHWEST",HOUSTON,TX,77478,"(281) 201-5559",,,,
TX,HARRIS,20097212,"Single Family Homes",10/29/2020,,505000,,"3215 LOCKRIDGE HARBOR",HOUSTON,TX,77365,,,CONTRACTOR,,,,,,,,,,,"GENESIS PROPERTY MANAGEMENT",,,,,"GENESIS PROPERTY MANAGEMENT","9700 RICHMOND AVE",HOUSTON,TX,77042,"(713) 953-0808",,,,
TX,HARRIS,20073566,"Single Family Homes",10/29/2020,,280000,,"515 E 26TH",HOUSTON,TX,77008,,,CONTRACTOR,,,,,,,,,,,"DRAKE HOMES",,,,,"DRAKE HOMES","931 YALE ST",HOUSTON,TX,77008-6919,"(713) 864-1416",,,"HORACIO MARTINEZ",
TX,HARRIS,20094097,"Single Family Homes",10/29/2020,,430559,,"609 E 19TH",HOUSTON,TX,77008,,,CONTRACTOR,,,,,,,,,,,"ENTERRA HOMES",,,,,"ENTERRA HOMES","7155 OLD KATY RD STE N210",HOUSTON,TX,77024-2273,"(281) 850-2845",http://www.enterrahomes.com/,"(832) 266-1638","MICHAEL VAN",mvan@enterrahomes.com
TX,HARRIS,20097767,"Single Family Homes",11/2/2020,,228990,,"7619 NEVAEH CREST",HOUSTON,TX,77016,,,CONTRACTOR,,,,,,,,,,,"FIRST AMERICA HOMES",,,,,"FIRST AMERICA HOMES","1401 WOODLANDS PARKWAY","THE WOODLANDS",TX,77380-1179,"(713) 452-1700",https://www.firstamericahomes.com/,,,info@firstamericahomes.com
TX,HARRIS,20097765,"Single Family Homes",11/2/2020,,201990,,"7643 NEVAEH CREST",HOUSTON,TX,77016,,,CONTRACTOR,,,,,,,,,,,"FIRST AMERICA HOMES",,,,,"FIRST AMERICA HOMES","1401 WOODLANDS PARKWAY","THE WOODLANDS",TX,77380-1179,"(713) 452-1700",https://www.firstamericahomes.com/,,,info@firstamericahomes.com
TX,HARRIS,20097762,"Single Family Homes",11/2/2020,,228990,,"7647 NEVAEH CREST",HOUSTON,TX,77016,,,CONTRACTOR,,,,,,,,,,,"FIRST AMERICA HOMES",,,,,"FIRST AMERICA HOMES","1401 WOODLANDS PARKWAY","THE WOODLANDS",TX,77380-1179,"(713) 452-1700",https://www.firstamericahomes.com/,,,info@firstamericahomes.com
TX,HARRIS,20049398,"Single Family Homes",11/2/2020,,275990,,"4420 SANTORINI",HOUSTON,TX,77045,,,CONTRACTOR,,,,,,,,,,,"FIRST AMERICA HOMES",,,,,"FIRST AMERICA HOMES","1401 WOODLANDS PARKWAY","THE WOODLANDS",TX,77380-1179,"(713) 452-1700",https://www.firstamericahomes.com/,,,info@firstamericahomes.com
TX,HARRIS,20091155,"Single Family Homes",10/27/2020,,275990,,"4425 IBIZA",HOUSTON,TX,77045,,,CONTRACTOR,,,,,,,,,,,"FIRST AMERICA HOMES",,,,,"FIRST AMERICA HOMES","1401 WOODLANDS PARKWAY","THE WOODLANDS",TX,77380-1179,"(713) 452-1700",https://www.firstamericahomes.com/,,,info@firstamericahomes.com
TX,HARRIS,20091154,"Single Family Homes",10/27/2020,,258990,,"4427 IBIZA",HOUSTON,TX,77045,,,CONTRACTOR,,,,,,,,,,,"FIRST AMERICA HOMES",,,,,"FIRST AMERICA HOMES","1401 WOODLANDS PARKWAY","THE WOODLANDS",TX,77380-1179,"(713) 452-1700",https://www.firstamericahomes.com/,,,info@firstamericahomes.com
TX,HARRIS,20091153,"Single Family Homes",10/28/2020,,272990,,"4429 IBIZA",HOUSTON,TX,77045,,,CONTRACTOR,,,,,,,,,,,"FIRST AMERICA HOMES",,,,,"FIRST AMERICA HOMES","1401 WOODLANDS PARKWAY","THE WOODLANDS",TX,77380-1179,"(713) 452-1700",https://www.firstamericahomes.com/,,,info@firstamericahomes.com
TX,HARRIS,20080988,"Single Family Homes",10/29/2020,,148000,,"8210 GRANDVIEW",HOUSTON,TX,77051,,,"FOTEH ROMMY","26 AVIANO",HOUSTON,TX,77459,"(832) 492-3485",Applicant,,,,,OWNER,,,,,OWNER,,,,,,,,,
TX,HARRIS,18069253,"Single Family Homes",10/27/2020,,120000,,"562 JANISCH",HOUSTON,TX,77018,,,CONTRACTOR,,,,,,,,,,,"SERVICES ON THE BALL",,,,,"SERVICES ON THE BALL","11757 KATY FWY STE 700A",HOUSTON,TX,77079-1733,"(832) 671-0414",https://www.sobllc.com,,,hgomia@sobllc.com
TX,HARRIS,20063464,"Single Family Homes",10/28/2020,,187734,,"6336 CULBERSON",HOUSTON,TX,77021,,,"CAMERON ARCHITECTS","1535 WEST LOOP SOUTH, SUITE 322",HOUSTON,TX,77027,"(713) 666-2185",Architect,,,,,OWNER,,,,,OWNER,,,,,,,,,
TX,HARRIS,20071603,"Single Family Homes",10/30/2020,,488673,,"3620 BLUE BONNET",HOUSTON,TX,77025,,,"DAGOL DESIGN GROUP","3100 EDLOE ST STE",HOUSTON,TX,77027,"(713) 447-2178",Architect,,,"GILES GENE",,OWNER,,,,,OWNER,,,,,,,,,
TX,HARRIS,20094684,"Single Family Homes",11/2/2020,,252000,,"15431 EASTON GATE",HOUSTON,TX,77044,,,CONTRACTOR,,,,,,,,,,,"KB HOME",,,,,"KB HOME","11314 RICHMOND AVE",HOUSTON,TX,77082-2616,"(281) 668-3800",,,,
TX,HARRIS,20093128,"Single Family Homes",10/27/2020,,194000,,"8621 CEDAR PLAINS",HOUSTON,TX,77080,,,CONTRACTOR,,,,,,,,,,,"KB HOME",,,,,"KB HOME","11314 RICHMOND AVE",HOUSTON,TX,77082-2616,"(281) 668-3800",,,,
TX,HARRIS,20053271,"Single Family Homes",10/27/2020,,295000,,"2120 ROY",HOUSTON,TX,77007,,,CONTRACTOR,,,,,,,,,,,"SANDCASTLE HOMES",,,,,"SANDCASTLE HOMES","1405 DURHAM DR",HOUSTON,TX,77007-3462,"(713) 864-9190",http://www.sandcastlehouston.com/,"(713) 864-9134","MIKE DISHBERGER",dishberger@sandcastlehouston.com
TX,HARRIS,20053281,"Single Family Homes",10/27/2020,,295000,,"2124 ROY",HOUSTON,TX,77007,,,CONTRACTOR,,,,,,,,,,,"SANDCASTLE HOMES",,,,,"SANDCASTLE HOMES","1405 DURHAM DR",HOUSTON,TX,77007-3462,"(713) 864-9190",http://www.sandcastlehouston.com/,"(713) 864-9134","MIKE DISHBERGER",dishberger@sandcastlehouston.com
TX,HARRIS,20079819,"Single Family Homes",10/27/2020,,285000,,"5230 DARLING",HOUSTON,TX,77007,,,CONTRACTOR,,,,,,,,,,,"SANDCASTLE HOMES",,,,,"SANDCASTLE HOMES","1405 DURHAM DR",HOUSTON,TX,77007-3462,"(713) 864-9190",http://www.sandcastlehouston.com/,"(713) 864-9134","MIKE DISHBERGER",dishberger@sandcastlehouston.com
TX,HARRIS,20092675,"Single Family Homes",11/2/2020,,221000,,"11016 CRESCENT LIGHT",HOUSTON,TX,77043,,,CONTRACTOR,,,,,,,,,,,"LEGEND HOMES",,,,,"LEGEND HOMES","10410 WINDAMERE LAKES BLVD",HOUSTON,TX,77065-4996,"(281) 671-9060",http://legendhomecorp.com/,"(281) 671-9055",,
TX,HARRIS,20059164,"Single Family Homes",10/27/2020,,155000,,"9410 KERRWOOD LN",HOUSTON,TX,77080,,,CONTRACTOR,,,,,,,,,,,"LEGION CUSTOM HOMES",,,,,"LEGION CUSTOM HOMES","2500 SUMMER ST",HOUSTON,TX,77007-3826,"(281) 914-3080",http://www.legionbuilder.com/,"(832) 201-9352","JASON GUYER",
TX,HARRIS,20059173,"Single Family Homes",10/27/2020,,155000,,"9418 KERRWOOD LN",HOUSTON,TX,77080,,,CONTRACTOR,,,,,,,,,,,"LEGION CUSTOM HOMES",,,,,"LEGION CUSTOM HOMES","2500 SUMMER ST",HOUSTON,TX,77007-3826,"(281) 914-3080",http://www.legionbuilder.com/,"(832) 201-9352","JASON GUYER",
TX,HARRIS,20059175,"Single Family Homes",10/27/2020,,155000,,"9420 KERRWOOD LN",HOUSTON,TX,77080,,,CONTRACTOR,,,,,,,,,,,"LEGION CUSTOM HOMES",,,,,"LEGION CUSTOM HOMES","2500 SUMMER ST",HOUSTON,TX,77007-3826,"(281) 914-3080",http://www.legionbuilder.com/,"(832) 201-9352","JASON GUYER",
TX,HARRIS,20091911,"Single Family Homes",10/28/2020,,236000,,"9322 VICTORIA VALLEY",HOUSTON,TX,77365,,,CONTRACTOR,,,,,,,,,,,"LENNAR HOMES",,,,,"LENNAR HOMES","550 GREENS PKWY",HOUSTON,TX,77067-4537,"(281) 875-1000",http://www.lennar.com/,,,
TX,HARRIS,20091908,"Single Family Homes",10/30/2020,,288000,,"9323 VICTORIA VALLEY",HOUSTON,TX,77365,,,CONTRACTOR,,,,,,,,,,,"LENNAR HOMES",,,,,"LENNAR HOMES","550 GREENS PKWY",HOUSTON,TX,77067-4537,"(281) 875-1000",http://www.lennar.com/,,,
TX,HARRIS,20073564,"Single Family Homes",10/29/2020,,280000,,"511 E 26TH",HOUSTON,TX,77008,,,"MARTINEZ ELIZABETH","18482 KUYKENDAHL RD",HOUSTON,TX,77379,"(832) 226-4232",Applicant,,,,,OWNER,,,,,OWNER,,,,,,,,,
TX,HARRIS,20089575,"Single Family Homes",10/28/2020,,209610,,"1711 LA PLAYA",HOUSTON,TX,77023,,,CONTRACTOR,,,,,,,,,,,"MERITAGE HOMES",,,,,"MERITAGE HOMES","2901 W SAM HOUSTON PKWY N",HOUSTON,TX,77043-1630,"(713) 357-1184",,,,
TX,HARRIS,20096652,"Single Family Homes",11/1/2020,,163455,,"3113 FLOWER MARKET",HOUSTON,TX,77080,,,CONTRACTOR,,,,,,,,,,,"MERITAGE HOMES",,,,,"MERITAGE HOMES","2901 W SAM HOUSTON PKWY N",HOUSTON,TX,77043-1630,"(713) 357-1184",,,,
TX,HARRIS,20088917,"Single Family Homes",10/29/2020,,203575,,"9914 BUCKWHEAT",HOUSTON,TX,77080,,,CONTRACTOR,,,,,,,,,,,"MERITAGE HOMES",,,,,"MERITAGE HOMES","2901 W SAM HOUSTON PKWY N",HOUSTON,TX,77043-1630,"(713) 357-1184",,,,
TX,HARRIS,20082834,"Single Family Homes",10/27/2020,,519000,,"1310 ALDRICH",HOUSTON,TX,77055,,,CONTRACTOR,,,,,,,,,,,"ELEVARE DEVELOPMENT",,,,,"ELEVARE DEVELOPMENT","3809 ASCOT",HOUSTON,TX,77092,"(832) 457-3743",,,,
TX,HARRIS,20045625,"Single Family Homes",10/28/2020,,156408,,"3517 WILMINGTON",HOUSTON,TX,77051,,,CONTRACTOR,,,,,,,,,,,"BURGHLI HOMES",,,,,"BURGHLI HOMES","4615 NORTH FREEWAY",HOUSTON,TX,77022,"(713) 691-3948",http://burghlihomes.com/,,,
TX,HARRIS,20085587,"Single Family Homes",10/29/2020,,255000,,"4605 MAXIE",HOUSTON,TX,77007,,,CONTRACTOR,,,,,,,,,,,"RIVERWAY BUILDERS",,,,,"RIVERWAY BUILDERS","1027 YALE ST",HOUSTON,TX,77008-6989,"(713) 621-6111",,,,
TX,HARRIS,20082693,"Single Family Homes",10/29/2020,,245000,,"1421 FOWLER",HOUSTON,TX,77007,,,CONTRACTOR,,,,,,,,,,,"RIVERWAY BUILDERS",,,,,"RIVERWAY BUILDERS","1027 YALE ST",HOUSTON,TX,77008-6989,"(713) 621-6111",,,,
TX,HARRIS,20079820,"Single Family Homes",10/27/2020,,285000,,"5232 DARLING",HOUSTON,TX,77007,,,CONTRACTOR,,,,,,,,,,,"SANDCASTLE HOMES",,,,,"SANDCASTLE HOMES","1405 DURHAM DR",HOUSTON,TX,77007-3462,"(713) 864-9190",http://www.sandcastlehouston.com/,"(713) 864-9134","MIKE DISHBERGER",dishberger@sandcastlehouston.com
TX,HARRIS,20067298,"Single Family Homes",11/2/2020,,150641,,"1508 E HEDRICK",HOUSTON,TX,77011,,,CONTRACTOR,,,,,,,,,,,"VECINO HOMES",,,,,"VECINO HOMES","4007 WALKER STREET",HOUSTON,TX,77023,"(713) 370-0308",https://www.vecinohomes.com/,,,
TX,HARRIS,20067299,"Single Family Homes",11/2/2020,,150641,,"1512 E HEDRICK",HOUSTON,TX,77011,,,CONTRACTOR,,,,,,,,,,,"VECINO HOMES",,,,,"VECINO HOMES","4007 WALKER STREET",HOUSTON,TX,77023,"(713) 370-0308",https://www.vecinohomes.com/,,,
TX,HARRIS,20067295,"Single Family Homes",10/27/2020,,136259,,"1516 E HEDRICK",HOUSTON,TX,77011,,,CONTRACTOR,,,,,,,,,,,"VECINO HOMES",,,,,"VECINO HOMES","4007 WALKER STREET",HOUSTON,TX,77023,"(713) 370-0308",https://www.vecinohomes.com/,,,
TX,HARRIS,20067296,"Single Family Homes",10/27/2020,,151734,,"1520 E HEDRICK",HOUSTON,TX,77011,,,CONTRACTOR,,,,,,,,,,,"VECINO HOMES",,,,,"VECINO HOMES","4007 WALKER STREET",HOUSTON,TX,77023,"(713) 370-0308",https://www.vecinohomes.com/,,,
TX,HARRIS,20074752,"Single Family Homes",10/30/2020,,1478456,,"2323 SUNSET",HOUSTON,TX,77005,,,CONTRACTOR,,,,,,,,,,,TKT,,,,,TKT,"2929 ALLEN PKWY",HOUSTON,TX,77019-7100,"(713) 884-5859",https://www.tktbuildinggroup.com/,,"TAGHI JUSTIN",homes@tktbuildinggroup.com
TX,HARRIS,20022099,"Single Family Homes",10/30/2020,,125000,,"2130 W HOLCOMBE BLVD",HOUSTON,TX,77030,,,CONTRACTOR,,,,,,,,,,,"TI CONSTRUCTORS",,,,,"TI CONSTRUCTORS","777 BENMAR RD",HOUSTON,TX,77060,"(713) 773-6000",,,,
TX,HARRIS,20097158,"Single Family Homes",11/2/2020,,342000,,"13311 FAIRFIELD ARBOR",HOUSTON,TX,77059,,,CONTRACTOR,,,,,,,,,,,"TRENDMAKER HOMES",,,,,"TRENDMAKER HOMES","16340 PARK TEN PL STE 250",HOUSTON,TX,77084-5144,"(281) 675-3200",,"(281) 675-3251","MARTIN EVANS",
TX,HARRIS,20037404,"Single Family Homes",10/28/2020,,199340,,"2709 TRUXILLO",HOUSTON,TX,77004,,,CONTRACTOR,,,,,,,,,,,"XCEL HOMES",,,,,"XCEL HOMES","1311 RAINTREE CIR",HOUSTON,TX,77479,"(832) 298-6167",https://xcel-homes.com/,,,info@xcel-homes.com
TX,HARRIS,20037405,"Single Family Homes",10/28/2020,,199340,,"2711 TRUXILLO",HOUSTON,TX,77004,,,CONTRACTOR,,,,,,,,,,,"XCEL HOMES",,,,,"XCEL HOMES","1311 RAINTREE CIR",HOUSTON,TX,77479,"(832) 298-6167",https://xcel-homes.com/,,,info@xcel-homes.com
TX,HARRIS,20078621,"Single Family Homes",10/27/2020,,158716,,"1052 MANSFIELD",HOUSTON,TX,77091,,,CONTRACTOR,,,,,,,,,,,"DISAMA CONSTRUCTION",,,,,"DISAMA CONSTRUCTION","25511 BUDDE RD","THE WOODLANDS",TX,77380-2080,"(832) 491-4405",https://www.disamaconstruction.com/,,,info@disamaconstruction.com
TX,HARRIS,20096015,"Single Family Homes",10/28/2020,,235670,,"12622 BAKER BEND",HOUSTON,TX,77034,,,CONTRACTOR,,,,,,,,,,,"MARIA VARGAS",,,,,"MARIA VARGAS","1311 BROADFIELD BLVD",HOUSTON,TX,77084-5186,"(281) 529-9127",,,,
TX,HARRIS,20073041,"Single Family Homes",11/2/2020,,199170,,"12626 ALTUVE",HOUSTON,TX,77034,,,CONTRACTOR,,,,,,,,,,,"MARIA VARGAS",,,,,"MARIA VARGAS","1311 BROADFIELD BLVD",HOUSTON,TX,77084-5186,"(281) 529-9127",,,,
TX,HARRIS,20095678,"Single Family Homes",10/30/2020,,311890,,"10304 MARSTON VINEYARD",HOUSTON,TX,77054,,,CONTRACTOR,,,,,,,,,,,"MARIA VARGAS",,,,,"MARIA VARGAS","1311 BROADFIELD BLVD",HOUSTON,TX,77084-5186,"(281) 529-9127",,,,
TX,HARRIS,20073035,"Single Family Homes",11/2/2020,,305000,,"10308 MARSTON VINEYARD",HOUSTON,TX,77054,,,CONTRACTOR,,,,,,,,,,,"MARIA VARGAS",,,,,"MARIA VARGAS","1311 BROADFIELD BLVD",HOUSTON,TX,77084-5186,"(281) 529-9127",,,,
TX,HARRIS,20097122,"Single Family Homes",11/2/2020,,307820,,"10311 HARMON SMITH",HOUSTON,TX,77054,,,CONTRACTOR,,,,,,,,,,,"MARIA VARGAS",,,,,"MARIA VARGAS","1311 BROADFIELD BLVD",HOUSTON,TX,77084-5186,"(281) 529-9127",,,,
TX,HARRIS,20097123,"Single Family Homes",11/2/2020,,312590,,"10314 MARSTON VINEYARD",HOUSTON,TX,77054,,,CONTRACTOR,,,,,,,,,,,"MARIA VARGAS",,,,,"MARIA VARGAS","1311 BROADFIELD BLVD",HOUSTON,TX,77084-5186,"(281) 529-9127",,,,
TX,HARRIS,20095679,"Single Family Homes",10/30/2020,,338250,,"10319 HARMON SMITH",HOUSTON,TX,77054,,,CONTRACTOR,,,,,,,,,,,"MARIA VARGAS",,,,,"MARIA VARGAS","1311 BROADFIELD BLVD",HOUSTON,TX,77084-5186,"(281) 529-9127",,,,
TX,HARRIS,20095680,"Single Family Homes",10/30/2020,,347270,,"10321 HARMON SMITH",HOUSTON,TX,77054,,,CONTRACTOR,,,,,,,,,,,"MARIA VARGAS",,,,,"MARIA VARGAS","1311 BROADFIELD BLVD",HOUSTON,TX,77084-5186,"(281) 529-9127",,,,
TX,HARRIS,20037752,"Single Family Homes",10/29/2020,,123550,,"5046 BURMA",HOUSTON,TX,77033,,,CONTRACTOR,,,,,,,,,,,"DYLAN YBARRA",,,,,"DYLAN YBARRA","12605 N FEATHERWOOD",HOUSTON,TX,77033,"(409) 515-9237",,,,
TX,HARRIS,20083578,"Single Family Homes",10/27/2020,,176885,,"15031 ALROVER",HOUSTON,TX,77053,,,"JUAN CORTES","15031 ALROVER",HOUSTON,TX,77053,,Owner,,,,,OWNER,,,,,OWNER,,,,,,,,,
TX,HARRIS,20078536,"Single Family Homes",10/29/2020,,331000,,"8210 VENNARD",HOUSTON,TX,77034,,,"FIDEL DOMINGUEZ","8210 VENNARD",HOUSTON,TX,77034,,Owner,,,,,OWNER,,,,,OWNER,,,,,,,,,
TX,HARRIS,20072157,"Single Family Homes",10/30/2020,,600000,,"5511 ASPEN",HOUSTON,TX,77081,,,"DUNN-KAHN KARIN","5511 ASPEN",HOUSTON,TX,77081,,Owner,,,,,"FERNANDO VAGLIENTY",,,,,"FERNANDO VAGLIENTY","1307 DANIELLE LN",HOUSTON,TX,77581,"(713) 624-0359",,,,
TX,HARRIS,20031753,"Single Family Homes",10/28/2020,,140000,,"9641 GRANNIS",HOUSTON,TX,77075,,,"STEVEN GLOWACKI","9641 GRANNIS",HOUSTON,TX,77075,,Owner,,,,,"DSW HOMES",,,,,"DSW HOMES","12607 N",HOUSTON,TX,77034,"(832) 385-0069",http://www.dswhomes.com/,,,
TX,HARRIS,20088466,"Single Family Homes",10/29/2020,,495000,,"1507 ZORA",HOUSTON,TX,77055,,,"GONZALEZ JUAN ARMANDO","1507 ZORA",HOUSTON,TX,77055,,Owner,,,,,"BK BUILDER",,,,,"BK BUILDER","5 CAROLANE TRL",HOUSTON,TX,77024-5120,"(713) 256-1914",,,,
TX,HARRIS,20019001,"Single Family Homes",10/27/2020,,838500,,"5119 BIRDWOOD",HOUSTON,TX,77096,,,"RUSSELL HALL","5119 BIRDWOOD",HOUSTON,TX,77096,,Owner,,,,,OWNER,,,,,OWNER,,,,,,,,,
TX,HARRIS,20045328,"Single Family Homes",10/27/2020,,119000,,"8121 CHATEAU",HOUSTON,TX,77028,,,"DIANA HERNANDEZ","8121 CHATEAU",HOUSTON,TX,77028,,Owner,,,,,OWNER,,,,,OWNER,,,,,,,,,
TX,HARRIS,20081423,"Single Family Homes",10/30/2020,,557604,,"235 W 34TH",HOUSTON,TX,77018,,,"RICHARD MAYFIELD","235 W 34TH",HOUSTON,TX,77018,,Owner,,,,,"H-TEX ENTERPRISES",,,,,"H-TEX ENTERPRISES","2510 LOYANNE DR",SPRING,TX,77373-6283,"(713) 205-3630",http://www.h-tex.net/,,,
TX,HARRIS,20080064,"Single Family Homes",10/27/2020,,557000,,"13166 KIMBERLEY",HOUSTON,TX,77079,,,"MEDIAMOLLE WAYNE","13166 KIMBERLEY",HOUSTON,TX,77079,,Owner,,,,,"KICKERILLO COMPANIES",,,,,"KICKERILLO COMPANIES","1306 SOUTH FRY BOULEVARD",HOUSTON,TX,77450-4372,"(713) 951-0666",http://kickerillo.com/,"(281) 492-2018",,
TX,HARRIS,20084449,"Single Family Homes",10/28/2020,,149000,,"2104 WAVELL",HOUSTON,TX,77088,,,"MEJIA LOZANO MARTIN ALBERTO","2104 WAVELL",HOUSTON,TX,77088,,Owner,,,,,OWNER,,,,,OWNER,,,,,,,,,
TX,HARRIS,19133694,"Single Family Homes",10/27/2020,,173740,,"1215 CARBY RD",HOUSTON,TX,77037,,,"SALVADOR MERINO","1215 CARBY RD",HOUSTON,TX,77037,,Owner,,,,,OWNER,,,,,OWNER,,,,,,,,,
TX,HARRIS,20060318,"Single Family Homes",10/29/2020,,178000,,"6319 PADDINGTON BEND",HOUSTON,TX,77008,,,"PALISADES PARTNERS LP","6319 PADDINGTON BEND",HOUSTON,TX,77008,,Owner,,,,,"CITY CHOICE GROUP",,,,,"CITY CHOICE GROUP","1314 ROY ST",HOUSTON,TX,77007-3343,"(713) 681-5858",http://citychoicehomes.com,,,
TX,HARRIS,18108086,"Single Family Homes",10/29/2020,,194378,,"1517 FAIRBANKS",HOUSTON,TX,77009,,,"PARIKH MRUGESH","1517 FAIRBANKS",HOUSTON,TX,77009,,Owner,,,,,"EXTREME DESIGN",,,,,"EXTREME DESIGN","4114 NORTH FWY",HOUSTON,TX,77022-6201,"(713) 496-2413",,,"ALEX PEREZ",
TX,HARRIS,18108094,"Single Family Homes",10/29/2020,,185210,,"1519 FAIRBANKS",HOUSTON,TX,77009,,,"MRUGESH PARIKH","1519 FAIRBANKS",HOUSTON,TX,77009,,Owner,,,,,"EXTREME DESIGN",,,,,"EXTREME DESIGN","4114 NORTH FWY",HOUSTON,TX,77022-6201,"(713) 496-2413",,,"ALEX PEREZ",
TX,HARRIS,20000756,"Single Family Homes",10/28/2020,,85000,,"3101 ADELIA",HOUSTON,TX,77026,,,"RODRIGUEZ DOUGLAS","3101 ADELIA",HOUSTON,TX,77026,,Owner,,,,,OWNER,,,,,OWNER,,,,,,,,,
TX,HARRIS,20082822,"Single Family Homes",10/28/2020,,204000,,"4008 ELYSIAN",HOUSTON,TX,77009,,,"AMJAD SHEIKH","4008 ELYSIAN",HOUSTON,TX,77009,,Owner,,,,,OWNER,,,,,OWNER,,,,,,,,,
TX,HARRIS,20075391,"Single Family Homes",10/27/2020,,320436,,"405 CORDELL",HOUSTON,TX,77009,,,"STEELE SAMUEL & CONNIE","405 CORDELL",HOUSTON,TX,77009,,Owner,,,,,"JACOB BUCKWALTER",,,,,"JACOB BUCKWALTER","9597 JONES RD",HOUSTON,TX,77065-4815,"(832) 272-8423",,,,
TX,HARRIS,20076405,"Single Family Homes",10/29/2020,,164200,,"5610 E CROSSTIMBERS",HOUSTON,TX,77016,,,"TORRES ANDRES","5610 E CROSSTIMBERS",HOUSTON,TX,77016,,Owner,,,,,"PERMITS & PLANS",,,,,"PERMITS & PLANS","702 BROADWAY ST",HOUSTON,TX,77012-2102,"(713) 928-9994",,,,
TX,HARRIS,202002327,"Single Family Homes",10/14/2020,,,2583,"1103 TOMBALL DOWNS DR",TOMBALL,TX,77375,,,CONTRACTOR,,,,,,,,,,,"STYLECRAFT BUILDERS ",,,,,"STYLECRAFT BUILDERS ","4090 STATE HIGHWAY 6 S","COLLEGE STATION",TX,77845-8962,"(979) 764-9900",,"(979) 690-3069","TANNER BREWSTER",tabrewster@stylecraft-builders.com
TX,HARRIS,202002328,"Single Family Homes",10/14/2020,,,2037,"1043 TOMBALL DOWNS DR",TOMBALL,TX,77375,,,CONTRACTOR,,,,,,,,,,,"STYLECRAFT BUILDERS ",,,,,"STYLECRAFT BUILDERS ","4090 STATE HIGHWAY 6 S","COLLEGE STATION",TX,77845-8962,"(979) 764-9900",,"(979) 690-3069","TANNER BREWSTER",tabrewster@stylecraft-builders.com
TX,HARRIS,202002329,"Single Family Homes",10/14/2020,,,2240,"1039 TOMBALL DOWNS DR",TOMBALL,TX,77375,,,CONTRACTOR,,,,,,,,,,,"STYLECRAFT BUILDERS ",,,,,"STYLECRAFT BUILDERS ","4090 STATE HIGHWAY 6 S","COLLEGE STATION",TX,77845-8962,"(979) 764-9900",,"(979) 690-3069","TANNER BREWSTER",tabrewster@stylecraft-builders.com
TX,HARRIS,202002330,"Single Family Homes",10/14/2020,,,2147,"1035 TOMBALL DOWNS DR",TOMBALL,TX,77375,,,CONTRACTOR,,,,,,,,,,,"STYLECRAFT BUILDERS ",,,,,"STYLECRAFT BUILDERS ","4090 STATE HIGHWAY 6 S","COLLEGE STATION",TX,77845-8962,"(979) 764-9900",,"(979) 690-3069","TANNER BREWSTER",tabrewster@stylecraft-builders.com
TX,HARRIS,202002335,"Single Family Homes",10/14/2020,,,2623,"1031 TOMBALL DOWNS DR",TOMBALL,TX,77375,,,CONTRACTOR,,,,,,,,,,,"STYLECRAFT BUILDERS ",,,,,"STYLECRAFT BUILDERS ","4090 STATE HIGHWAY 6 S","COLLEGE STATION",TX,77845-8962,"(979) 764-9900",,"(979) 690-3069","TANNER BREWSTER",tabrewster@stylecraft-builders.com
TX,HARRIS,202002336,"Single Family Homes",10/14/2020,,,2022,"1107 TOMBALL DOWNS DR",TOMBALL,TX,77375,,,CONTRACTOR,,,,,,,,,,,"STYLECRAFT BUILDERS ",,,,,"STYLECRAFT BUILDERS ","4090 STATE HIGHWAY 6 S","COLLEGE STATION",TX,77845-8962,"(979) 764-9900",,"(979) 690-3069","TANNER BREWSTER",tabrewster@stylecraft-builders.com
TX,HARRIS,202002337,"Single Family Homes",10/14/2020,,,2416,"1111 TOMBALL DOWNS DR",TOMBALL,TX,77375,,,CONTRACTOR,,,,,,,,,,,"STYLECRAFT BUILDERS ",,,,,"STYLECRAFT BUILDERS ","4090 STATE HIGHWAY 6 S","COLLEGE STATION",TX,77845-8962,"(979) 764-9900",,"(979) 690-3069","TANNER BREWSTER",tabrewster@stylecraft-builders.com
TX,HARRIS,202002339,"Single Family Homes",10/14/2020,,,2093,"1119 TOMBALL DOWNS DR",TOMBALL,TX,77375,,,CONTRACTOR,,,,,,,,,,,"STYLECRAFT BUILDERS ",,,,,"STYLECRAFT BUILDERS ","4090 STATE HIGHWAY 6 S","COLLEGE STATION",TX,77845-8962,"(979) 764-9900",,"(979) 690-3069","TANNER BREWSTER",tabrewster@stylecraft-builders.com
TX,HARRIS,202002340,"Single Family Homes",10/14/2020,,,2126,"1115 TOMBALL DOWNS DR",TOMBALL,TX,77375,,,CONTRACTOR,,,,,,,,,,,"STYLECRAFT BUILDERS ",,,,,"STYLECRAFT BUILDERS ","4090 STATE HIGHWAY 6 S","COLLEGE STATION",TX,77845-8962,"(979) 764-9900",,"(979) 690-3069","TANNER BREWSTER",tabrewster@stylecraft-builders.com
TX,HARRIS,202002341,"Single Family Homes",10/14/2020,,,2680,"21406 HARTWIG CT",TOMBALL,TX,77375,,,CONTRACTOR,,,,,,,,,,,"LENNAR HOMES",,,,,"LENNAR HOMES","550 GREENS PKWY",HOUSTON,TX,77067-4537,"(281) 875-1000",http://www.lennar.com/,,,
TX,HARRIS,202002343,"Single Family Homes",10/14/2020,,,2059,"21422 HARTWIG CT",TOMBALL,TX,77375,,,CONTRACTOR,,,,,,,,,,,"LENNAR HOMES",,,,,"LENNAR HOMES","550 GREENS PKWY",HOUSTON,TX,77067-4537,"(281) 875-1000",http://www.lennar.com/,,,
TX,HARRIS,202002352,"Single Family Homes",10/15/2020,,,2037,"1023 TOMBALL DOWNS DR",TOMBALL,TX,77375,,,CONTRACTOR,,,,,,,,,,,"STYLECRAFT BUILDERS ",,,,,"STYLECRAFT BUILDERS ","4090 STATE HIGHWAY 6 S","COLLEGE STATION",TX,77845-8962,"(979) 764-9900",,"(979) 690-3069","TANNER BREWSTER",tabrewster@stylecraft-builders.com
TX,HARRIS,202002353,"Single Family Homes",10/15/2020,,,2435,"1027 TOMBALL DOWNS DR",TOMBALL,TX,77375,,,CONTRACTOR,,,,,,,,,,,"STYLECRAFT BUILDERS ",,,,,"STYLECRAFT BUILDERS ","4090 STATE HIGHWAY 6 S","COLLEGE STATION",TX,77845-8962,"(979) 764-9900",,"(979) 690-3069","TANNER BREWSTER",tabrewster@stylecraft-builders.com
TX,HARRIS,202002354,"Single Family Homes",10/15/2020,,,1134,"1002 TOMBALL DOWNS DR",TOMBALL,TX,77375,,,CONTRACTOR,,,,,,,,,,,"STYLECRAFT BUILDERS ",,,,,"STYLECRAFT BUILDERS ","4090 STATE HIGHWAY 6 S","COLLEGE STATION",TX,77845-8962,"(979) 764-9900",,"(979) 690-3069","TANNER BREWSTER",tabrewster@stylecraft-builders.com
TX,HARRIS,202002355,"Single Family Homes",10/15/2020,,,1134,"1003 TOMBALL DOWNS DR",TOMBALL,TX,77375,,,CONTRACTOR,,,,,,,,,,,"STYLECRAFT BUILDERS ",,,,,"STYLECRAFT BUILDERS ","4090 STATE HIGHWAY 6 S","COLLEGE STATION",TX,77845-8962,"(979) 764-9900",,"(979) 690-3069","TANNER BREWSTER",tabrewster@stylecraft-builders.com
TX,HARRIS,202002356,"Single Family Homes",10/15/2020,,,2583,"1006 TOMBALL DOWNS DR",TOMBALL,TX,77375,,,CONTRACTOR,,,,,,,,,,,"STYLECRAFT BUILDERS ",,,,,"STYLECRAFT BUILDERS ","4090 STATE HIGHWAY 6 S","COLLEGE STATION",TX,77845-8962,"(979) 764-9900",,"(979) 690-3069","TANNER BREWSTER",tabrewster@stylecraft-builders.com
TX,HARRIS,202002357,"Single Family Homes",10/15/2020,,,2036,"1010 TOMBALL DOWNS DR",TOMBALL,TX,77375,,,CONTRACTOR,,,,,,,,,,,"STYLECRAFT BUILDERS ",,,,,"STYLECRAFT BUILDERS ","4090 STATE HIGHWAY 6 S","COLLEGE STATION",TX,77845-8962,"(979) 764-9900",,"(979) 690-3069","TANNER BREWSTER",tabrewster@stylecraft-builders.com
TX,HARRIS,202002359,"Single Family Homes",10/15/2020,,,2147,"29807 QUINN TRAILS CT",TOMBALL,TX,77375,,,CONTRACTOR,,,,,,,,,,,"STYLECRAFT BUILDERS ",,,,,"STYLECRAFT BUILDERS ","4090 STATE HIGHWAY 6 S","COLLEGE STATION",TX,77845-8962,"(979) 764-9900",,"(979) 690-3069","TANNER BREWSTER",tabrewster@stylecraft-builders.com
TX,HARRIS,202002360,"Single Family Homes",10/15/2020,,,2240,"29811 QUINN TRAILS CT",TOMBALL,TX,77375,,,CONTRACTOR,,,,,,,,,,,"STYLECRAFT BUILDERS ",,,,,"STYLECRAFT BUILDERS ","4090 STATE HIGHWAY 6 S","COLLEGE STATION",TX,77845-8962,"(979) 764-9900",,"(979) 690-3069","TANNER BREWSTER",tabrewster@stylecraft-builders.com
TX,HARRIS,202002361,"Single Family Homes",10/15/2020,,,1220,"29815 QUINN TRAILS CT",TOMBALL,TX,77375,,,CONTRACTOR,,,,,,,,,,,"STYLECRAFT BUILDERS ",,,,,"STYLECRAFT BUILDERS ","4090 STATE HIGHWAY 6 S","COLLEGE STATION",TX,77845-8962,"(979) 764-9900",,"(979) 690-3069","TANNER BREWSTER",tabrewster@stylecraft-builders.com
TX,HARRIS,202002362,"Single Family Homes",10/15/2020,,,3009,"21311 BALDOVIN WAY",TOMBALL,TX,77375,,,CONTRACTOR,,,,,,,,,,,"MERITAGE HOMES",,,,,"MERITAGE HOMES","2901 W SAM HOUSTON PKWY N",HOUSTON,TX,77043-1630,"(713) 357-1184",,,,
TX,HARRIS,202002363,"Single Family Homes",10/15/2020,,,3242,"30819 RALEIGH CREEK DR",TOMBALL,TX,77375,,,CONTRACTOR,,,,,,,,,,,"CENTURY COMMUNITIES",,,,,"CENTURY COMMUNITIES","4700 W SAM HOUSTON PKWY N STE 130",HOUSTON,TX,77041-8219,"(281) 741-8946",https://www.centurycommunities.com/,,,
TX,HARRIS,202002364,"Single Family Homes",10/15/2020,,,3242,"30623 RALEIGH CREEK DR",TOMBALL,TX,77375,,,CONTRACTOR,,,,,,,,,,,"CENTURY COMMUNITIES",,,,,"CENTURY COMMUNITIES","4700 W SAM HOUSTON PKWY N STE 130",HOUSTON,TX,77041-8219,"(281) 741-8946",https://www.centurycommunities.com/,,,
TX,HARRIS,202002365,"Single Family Homes",10/15/2020,,,3264,"21327 BALDOVIN WAY",TOMBALL,TX,77375,,,CONTRACTOR,,,,,,,,,,,"MERITAGE HOMES",,,,,"MERITAGE HOMES","2901 W SAM HOUSTON PKWY N",HOUSTON,TX,77043-1630,"(713) 357-1184",,,,
TX,HARRIS,202002366,"Single Family Homes",10/15/2020,,,3107,"12823 DURHAM CREEK LANE",TOMBALL,TX,77375,,,CONTRACTOR,,,,,,,,,,,"DR HORTON",,,,,"DR HORTON","14100 SOUTHWEST",HOUSTON,TX,77478,"(281) 201-5559",,,,
TX,HARRIS,202002368,"Single Family Homes",10/15/2020,,,2134,"1018 BENDING TRAIL DR",TOMBALL,TX,77375,,,CONTRACTOR,,,,,,,,,,,"STYLECRAFT BUILDERS ",,,,,"STYLECRAFT BUILDERS ","4090 STATE HIGHWAY 6 S","COLLEGE STATION",TX,77845-8962,"(979) 764-9900",,"(979) 690-3069","TANNER BREWSTER",tabrewster@stylecraft-builders.com
TX,HARRIS,202002369,"Single Family Homes",10/15/2020,,,1848,"1014 BENDING TRAIL DR",TOMBALL,TX,77375,,,CONTRACTOR,,,,,,,,,,,"STYLECRAFT BUILDERS ",,,,,"STYLECRAFT BUILDERS ","4090 STATE HIGHWAY 6 S","COLLEGE STATION",TX,77845-8962,"(979) 764-9900",,"(979) 690-3069","TANNER BREWSTER",tabrewster@stylecraft-builders.com
TX,HARRIS,202002396,"Single Family Homes",10/16/2020,,,2583,"1030 TOMBALL DOWNS DR",TOMBALL,TX,77375,,,CONTRACTOR,,,,,,,,,,,"STYLECRAFT BUILDERS ",,,,,"STYLECRAFT BUILDERS ","4090 STATE HIGHWAY 6 S","COLLEGE STATION",TX,77845-8962,"(979) 764-9900",,"(979) 690-3069","TANNER BREWSTER",tabrewster@stylecraft-builders.com
TX,HARRIS,202002397,"Single Family Homes",10/16/2020,,,2623,"1018 TOMBALL DOWNS DR",TOMBALL,TX,77375,,,CONTRACTOR,,,,,,,,,,,"STYLECRAFT BUILDERS ",,,,,"STYLECRAFT BUILDERS ","4090 STATE HIGHWAY 6 S","COLLEGE STATION",TX,77845-8962,"(979) 764-9900",,"(979) 690-3069","TANNER BREWSTER",tabrewster@stylecraft-builders.com
TX,HARRIS,202002398,"Single Family Homes",10/16/2020,,,2131,"1014 TOMBALL DOWNS DR",TOMBALL,TX,77375,,,CONTRACTOR,,,,,,,,,,,"STYLECRAFT BUILDERS ",,,,,"STYLECRAFT BUILDERS ","4090 STATE HIGHWAY 6 S","COLLEGE STATION",TX,77845-8962,"(979) 764-9900",,"(979) 690-3069","TANNER BREWSTER",tabrewster@stylecraft-builders.com
TX,HARRIS,202002399,"Single Family Homes",10/16/2020,,,2435,"1026 TOMBALL DOWNS DR",TOMBALL,TX,77375,,,CONTRACTOR,,,,,,,,,,,"STYLECRAFT BUILDERS ",,,,,"STYLECRAFT BUILDERS ","4090 STATE HIGHWAY 6 S","COLLEGE STATION",TX,77845-8962,"(979) 764-9900",,"(979) 690-3069","TANNER BREWSTER",tabrewster@stylecraft-builders.com
TX,HARRIS,202002400,"Single Family Homes",10/16/2020,,,2240,"1106 TOMBALL DOWNS DR",TOMBALL,TX,77375,,,CONTRACTOR,,,,,,,,,,,"STYLECRAFT BUILDERS ",,,,,"STYLECRAFT BUILDERS ","4090 STATE HIGHWAY 6 S","COLLEGE STATION",TX,77845-8962,"(979) 764-9900",,"(979) 690-3069","TANNER BREWSTER",tabrewster@stylecraft-builders.com
TX,HARRIS,202002401,"Single Family Homes",10/16/2020,,,2435,"1110 TOMBALL DOWNS DR",TOMBALL,TX,77375,,,CONTRACTOR,,,,,,,,,,,"STYLECRAFT BUILDERS ",,,,,"STYLECRAFT BUILDERS ","4090 STATE HIGHWAY 6 S","COLLEGE STATION",TX,77845-8962,"(979) 764-9900",,"(979) 690-3069","TANNER BREWSTER",tabrewster@stylecraft-builders.com
TX,HARRIS,202002402,"Single Family Homes",10/16/2020,,,2240,"1022 TOMBALL DOWNS DR",TOMBALL,TX,77375,,,CONTRACTOR,,,,,,,,,,,"STYLECRAFT BUILDERS ",,,,,"STYLECRAFT BUILDERS ","4090 STATE HIGHWAY 6 S","COLLEGE STATION",TX,77845-8962,"(979) 764-9900",,"(979) 690-3069","TANNER BREWSTER",tabrewster@stylecraft-builders.com
TX,HARRIS,202002404,"Single Family Homes",10/16/2020,,,2027,"1038 TOMBALL DOWNS DR",TOMBALL,TX,77375,,,CONTRACTOR,,,,,,,,,,,"STYLECRAFT BUILDERS ",,,,,"STYLECRAFT BUILDERS ","4090 STATE HIGHWAY 6 S","COLLEGE STATION",TX,77845-8962,"(979) 764-9900",,"(979) 690-3069","TANNER BREWSTER",tabrewster@stylecraft-builders.com
TX,HARRIS,202002405,"Single Family Homes",10/16/2020,,,2027,"1034 TOMBAL DOWNS DR",TOMBALL,TX,77375,,,CONTRACTOR,,,,,,,,,,,"STYLECRAFT BUILDERS ",,,,,"STYLECRAFT BUILDERS ","4090 STATE HIGHWAY 6 S","COLLEGE STATION",TX,77845-8962,"(979) 764-9900",,"(979) 690-3069","TANNER BREWSTER",tabrewster@stylecraft-builders.com
TX,HARRIS,202002406,"Single Family Homes",10/16/2020,,,2131,"1102 TOMBALL DOWNS DR",TOMBALL,TX,77375,,,CONTRACTOR,,,,,,,,,,,"STYLECRAFT BUILDERS ",,,,,"STYLECRAFT BUILDERS ","4090 STATE HIGHWAY 6 S","COLLEGE STATION",TX,77845-8962,"(979) 764-9900",,"(979) 690-3069","TANNER BREWSTER",tabrewster@stylecraft-builders.com
TX,HARRIS,202002407,"Single Family Homes",10/16/2020,,,2240,"1042 TOMBALL DOWNS DR",TOMBALL,TX,77375,,,CONTRACTOR,,,,,,,,,,,"STYLECRAFT BUILDERS ",,,,,"STYLECRAFT BUILDERS ","4090 STATE HIGHWAY 6 S","COLLEGE STATION",TX,77845-8962,"(979) 764-9900",,"(979) 690-3069","TANNER BREWSTER",tabrewster@stylecraft-builders.com
TX,HARRIS,202002428,"Single Family Homes",10/16/2020,,,5364,"31102 WILD PECAN DR",TOMBALL,TX,77375,,,CONTRACTOR,,,,,,,,,,,"EHT OF TEXAS LP",,,,,"EHT OF TEXAS LP","31219 GULF CYPRESS LN",HOCKLEY,TX,77447-5347,"(757) 287-6394",,,,
TX,HARRIS,202002524,"Single Family Homes",10/26/2020,,,2011,"12804 S WINDING PINES DR",TOMBALL,TX,77375,,,CONTRACTOR,,,,,,,,,,,"MERITAGE HOMES",,,,,"MERITAGE HOMES","2901 W SAM HOUSTON PKWY N",HOUSTON,TX,77043-1630,"(713) 357-1184",,,,
TX,HARRIS,202002525,"Single Family Homes",10/26/2020,,,2594,"12808 S WINDING PINES DR",TOMBALL,TX,77375,,,CONTRACTOR,,,,,,,,,,,"MERITAGE HOMES",,,,,"MERITAGE HOMES","2901 W SAM HOUSTON PKWY N",HOUSTON,TX,77043-1630,"(713) 357-1184",,,,
TX,HARRIS,202002527,"Single Family Homes",10/26/2020,,,2334,"12820 S WINDING PINES DR",TOMBALL,TX,77375,,,CONTRACTOR,,,,,,,,,,,"MERITAGE HOMES",,,,,"MERITAGE HOMES","2901 W SAM HOUSTON PKWY N",HOUSTON,TX,77043-1630,"(713) 357-1184",,,,
TX,HARRIS,202002529,"Single Family Homes",10/26/2020,,,2336,"12800 S WINDING PINES DR",TOMBALL,TX,77375,,,CONTRACTOR,,,,,,,,,,,"MERITAGE HOMES",,,,,"MERITAGE HOMES","2901 W SAM HOUSTON PKWY N",HOUSTON,TX,77043-1630,"(713) 357-1184",,,,
TX,HARRIS,202002532,"Single Family Homes",10/26/2020,,,2211,"1131 STATION MANOR LANE",TOMBALL,TX,77375,,,CONTRACTOR,,,,,,,,,,,"CASTLEROCK COMMUNITIES",,,,,"CASTLEROCK COMMUNITIES","7670 WOODWAY DR STE 300",HOUSTON,TX,77063-1520,"(713) 600-7000",http://c-rock.com,"(713) 600-0000",,
TX,HARRIS,202002533,"Single Family Homes",10/26/2020,,,2443,"1110 STATION MANOR LANE",TOMBALL,TX,77375,,,CONTRACTOR,,,,,,,,,,,"CASTLEROCK COMMUNITIES",,,,,"CASTLEROCK COMMUNITIES","7670 WOODWAY DR STE 300",HOUSTON,TX,77063-1520,"(713) 600-7000",http://c-rock.com,"(713) 600-0000",,
TX,HARRIS,202002534,"Single Family Homes",10/26/2020,,,2443,"810 JUNCTION POINT LN",TOMBALL,TX,77375,,,CONTRACTOR,,,,,,,,,,,"CASTLEROCK COMMUNITIES",,,,,"CASTLEROCK COMMUNITIES","7670 WOODWAY DR STE 300",HOUSTON,TX,77063-1520,"(713) 600-7000",http://c-rock.com,"(713) 600-0000",,
TX,HARRIS,202002535,"Single Family Homes",10/26/2020,,,2110,"1115 GRAND JUNCTION DR",TOMBALL,TX,77375,,,CONTRACTOR,,,,,,,,,,,"CASTLEROCK COMMUNITIES",,,,,"CASTLEROCK COMMUNITIES","7670 WOODWAY DR STE 300",HOUSTON,TX,77063-1520,"(713) 600-7000",http://c-rock.com,"(713) 600-0000",,
TX,HARRIS,202002536,"Single Family Homes",10/26/2020,,,2305,"1119 STATION MANOR LANE",TOMBALL,TX,77375,,,CONTRACTOR,,,,,,,,,,,"CASTLEROCK COMMUNITIES",,,,,"CASTLEROCK COMMUNITIES","7670 WOODWAY DR STE 300",HOUSTON,TX,77063-1520,"(713) 600-7000",http://c-rock.com,"(713) 600-0000",,
TX,HARRIS,202002537,"Single Family Homes",10/26/2020,,,1939,"1111 GRAND JUNCTION DR",TOMBALL,TX,77375,,,CONTRACTOR,,,,,,,,,,,"CASTLEROCK COMMUNITIES",,,,,"CASTLEROCK COMMUNITIES","7670 WOODWAY DR STE 300",HOUSTON,TX,77063-1520,"(713) 600-7000",http://c-rock.com,"(713) 600-0000",,
TX,HARRIS,202002541,"Single Family Homes",10/26/2020,,,2019,"1142 STATION MANOR LANE",TOMBALL,TX,77375,,,CONTRACTOR,,,,,,,,,,,"CASTLEROCK COMMUNITIES",,,,,"CASTLEROCK COMMUNITIES","7670 WOODWAY DR STE 300",HOUSTON,TX,77063-1520,"(713) 600-7000",http://c-rock.com,"(713) 600-0000",,
TX,HARRIS,202002578,"Single Family Homes",10/29/2020,,,1270,"405 EPPS ST",TOMBALL,TX,77375,,,CONTRACTOR,,,,,,,,,,,"PUEBLO DEVELOPMENT",,,,,"PUEBLO DEVELOPMENT","301 S CHERRY ST",TOMBALL,TX,77375,"(281) 357-4200",,,,
TX,BRAZOS,20-3723,"Single Family Homes",10/2/2020,,325000,2217,"3013 WOLFPACK LOOP",BRYAN,TX,77808,"AUSTIN'S COLONY",,CONTRACTOR,,,,,,,,,,,"CONTRERAS CONSTRUCTION",,,,,"CONTRERAS CONSTRUCTION","708 WILSON ST",BRYAN,TX,77803,"(979) 775-3996",,,,
TX,BRAZOS,20-3701,"Single Family Homes",10/2/2020,,300000,2074,"3002 WOLFPACK LOOP",BRYAN,TX,77808,"AUSTIN'S COLONY",,CONTRACTOR,,,,,,,,,,,"CONTRERAS CONSTRUCTION",,,,,"CONTRERAS CONSTRUCTION","708 WILSON ST",BRYAN,TX,77803,"(979) 775-3996",,,,
TX,BRAZOS,20-3716,"Single Family Homes",10/2/2020,,300000,1995,"3015 WOLFPACK LOOP",BRYAN,TX,77807,,,CONTRACTOR,,,,,,,,,,,"CONTRERAS CONSTRUCTION",,,,,"CONTRERAS CONSTRUCTION","708 WILSON ST",BRYAN,TX,77803,"(979) 775-3996",,,,
TX,BRAZOS,20-3718,"Single Family Homes",10/2/2020,,100000,1211,"1210 DALE ST",BRYAN,TX,77807,"CANDY HILL",,CONTRACTOR,,,,,,,,,,,"HABITAT FOR HUMANITY-HOUSTON",,,,,"HABITAT FOR HUMANITY-HOUSTON","3750 N MCCARTY ST",HOUSTON,TX,77029-1046,"(713) 671-9993",http://houstonhabitat.org/,,"ALLISON HAY",info@houstonhabitat.org
TX,BRAZOS,20-2738,"Single Family Homes",10/5/2020,,207279,2000,"3428 OAMAH CT",BRYAN,TX,77808,"RUDDER POINT",,CONTRACTOR,,,,,,,,,,,"AVONLEY HOMES",,,,,"AVONLEY HOMES","3900 STATE HIGHWAY 6 S STE 110","COLLEGE STATION",TX,77845-5831,"(979) 635-4800",https://www.avonleyhomes.com/,,,info@avonleyhomes.com
TX,BRAZOS,20-3839,"Single Family Homes",10/6/2020,,114200,2094,"995 MARQUIS DR",BRYAN,TX,77808,FOLLETT,,CONTRACTOR,,,,,,,,,,,"LEGEND CLASSIC HOMES",,,,,"LEGEND CLASSIC HOMES","6634 BEESTON HILL DR",KATY,TX,77449-0195,"(281) 463-9950",http://legendhomeshouston.com/,,,
TX,BRAZOS,20-3838,"Single Family Homes",10/6/2020,,115060,2153,"4703 VIA VERDE WAY",BRYAN,TX,77808,"ALAMOSA SPRINGS",,CONTRACTOR,,,,,,,,,,,"LEGEND CLASSIC HOMES",,,,,"LEGEND CLASSIC HOMES","6634 BEESTON HILL DR",KATY,TX,77449-0195,"(281) 463-9950",http://legendhomeshouston.com/,,,
TX,BRAZOS,20-3782,"Single Family Homes",10/6/2020,,101000,1523,"4707 COYOTILLO WAY",BRYAN,TX,77808,"ALAMOSA SPRINGS",,CONTRACTOR,,,,,,,,,,,"LEGEND CLASSIC HOMES",,,,,"LEGEND CLASSIC HOMES","6634 BEESTON HILL DR",KATY,TX,77449-0195,"(281) 463-9950",http://legendhomeshouston.com/,,,
TX,BRAZOS,20-3702,"Single Family Homes",10/6/2020,,165000,1307,"5730 PASEO PL",BRYAN,TX,77808,"ALAMOSA SPRINGS",,CONTRACTOR,,,,,,,,,,,"CAMILLO PROPERTIES",,,,,"CAMILLO PROPERTIES","6707 GESSNER RD",HOUSTON,TX,77040-4017,"(832) 500-0284",http://www.camillorentalhomes.com/,"(281) 325-0245",,
TX,BRAZOS,20-3703,"Single Family Homes",10/6/2020,,148500,1777,"5732 PASEO PL",BRYAN,TX,77808,"ALAMOSA SPRINGS",,CONTRACTOR,,,,,,,,,,,"CAMILLO PROPERTIES",,,,,"CAMILLO PROPERTIES","6707 GESSNER RD",HOUSTON,TX,77040-4017,"(832) 500-0284",http://www.camillorentalhomes.com/,"(281) 325-0245",,
TX,BRAZOS,20-3704,"Single Family Homes",10/6/2020,,115500,1307,"5734 PASEO PL",BRYAN,TX,77808,"ALAMOSA SPRINGS",,CONTRACTOR,,,,,,,,,,,"CAMILLO PROPERTIES",,,,,"CAMILLO PROPERTIES","6707 GESSNER RD",HOUSTON,TX,77040-4017,"(832) 500-0284",http://www.camillorentalhomes.com/,"(281) 325-0245",,
TX,BRAZOS,20-3705,"Single Family Homes",10/6/2020,,148500,1687,"5736 PASEO PL",BRYAN,TX,77808,"ALAMOSA SPRINGS",,CONTRACTOR,,,,,,,,,,,"CAMILLO PROPERTIES",,,,,"CAMILLO PROPERTIES","6707 GESSNER RD",HOUSTON,TX,77040-4017,"(832) 500-0284",http://www.camillorentalhomes.com/,"(281) 325-0245",,
TX,BRAZOS,20-3706,"Single Family Homes",10/6/2020,,165000,1870,"5738 PASEO PL",BRYAN,TX,77808,"ALAMOSA SPRINGS",,CONTRACTOR,,,,,,,,,,,"CAMILLO PROPERTIES",,,,,"CAMILLO PROPERTIES","6707 GESSNER RD",HOUSTON,TX,77040-4017,"(832) 500-0284",http://www.camillorentalhomes.com/,"(281) 325-0245",,
TX,BRAZOS,20-3708,"Single Family Homes",10/6/2020,,148500,1777,"5740 PASEO PL",BRYAN,TX,77808,"ALAMOSA SPRINGS",,CONTRACTOR,,,,,,,,,,,"CAMILLO PROPERTIES",,,,,"CAMILLO PROPERTIES","6707 GESSNER RD",HOUSTON,TX,77040-4017,"(832) 500-0284",http://www.camillorentalhomes.com/,"(281) 325-0245",,
TX,BRAZOS,20-3709,"Single Family Homes",10/6/2020,,115000,1307,"5742 PASEO PL",BRYAN,TX,77808,"ALAMOSA SPRINGS",,CONTRACTOR,,,,,,,,,,,"CAMILLO PROPERTIES",,,,,"CAMILLO PROPERTIES","6707 GESSNER RD",HOUSTON,TX,77040-4017,"(832) 500-0284",http://www.camillorentalhomes.com/,"(281) 325-0245",,
TX,BRAZOS,20-3710,"Single Family Homes",10/6/2020,,148500,1777,"5744 PASEO PL",BRYAN,TX,77808,"ALAMOSA SPRINGS",,CONTRACTOR,,,,,,,,,,,"CAMILLO PROPERTIES",,,,,"CAMILLO PROPERTIES","6707 GESSNER RD",HOUSTON,TX,77040-4017,"(832) 500-0284",http://www.camillorentalhomes.com/,"(281) 325-0245",,
TX,BRAZOS,20-3711,"Single Family Homes",10/6/2020,,165000,1870,"5746 PASEO PL",BRYAN,TX,77808,"ALAMOSA SPRINGS",,CONTRACTOR,,,,,,,,,,,"CAMILLO PROPERTIES",,,,,"CAMILLO PROPERTIES","6707 GESSNER RD",HOUSTON,TX,77040-4017,"(832) 500-0284",http://www.camillorentalhomes.com/,"(281) 325-0245",,
TX,BRAZOS,20-3712,"Single Family Homes",10/6/2020,,148500,1777,"5748 PASEO PL",BRYAN,TX,77808,"ALAMOSA SPRINGS",,CONTRACTOR,,,,,,,,,,,"CAMILLO PROPERTIES",,,,,"CAMILLO PROPERTIES","6707 GESSNER RD",HOUSTON,TX,77040-4017,"(832) 500-0284",http://www.camillorentalhomes.com/,"(281) 325-0245",,
TX,BRAZOS,20-3713,"Single Family Homes",10/6/2020,,115500,1307,"5750 PASEO PL",BRYAN,TX,77808,"ALAMOSA SPRINGS",,CONTRACTOR,,,,,,,,,,,"CAMILLO PROPERTIES",,,,,"CAMILLO PROPERTIES","6707 GESSNER RD",HOUSTON,TX,77040-4017,"(832) 500-0284",http://www.camillorentalhomes.com/,"(281) 325-0245",,
TX,BRAZOS,20-3871,"Single Family Homes",10/6/2020,,114200,3094,"5758 PASEO PL",BRYAN,TX,77808,"ALAMOSA SPRINGS",,CONTRACTOR,,,,,,,,,,,"LEGEND CLASSIC HOMES",,,,,"LEGEND CLASSIC HOMES","6634 BEESTON HILL DR",KATY,TX,77449-0195,"(281) 463-9950",http://legendhomeshouston.com/,,,
TX,BRAZOS,20-3864,"Single Family Homes",10/7/2020,,130248,1193,"1933 BASIL CT",BRYAN,TX,77808,"NORTHCREST COTTAGES",,CONTRACTOR,,,,,,,,,,,"AVONLEY HOMES",,,,,"AVONLEY HOMES","3900 STATE HIGHWAY 6 S STE 110","COLLEGE STATION",TX,77845-5831,"(979) 635-4800",https://www.avonleyhomes.com/,,,info@avonleyhomes.com
TX,BRAZOS,20-3795,"Single Family Homes",10/7/2020,,160000,1801,"4219 HARDING WAY",BRYAN,TX,77808,OAKMONT,,CONTRACTOR,,,,,,,,,,,"HALL HOMES",,,,,"HALL HOMES","PO BOX 12341","COLLEGE STATION",TX,77842-2341,"(979) 551-5259",http://www.hallhomestx.com/,,,rhall@hallhomestx.com
TX,BRAZOS,20-3869,"Single Family Homes",10/8/2020,,150612,1724,"3432 OMAHA CT",BRYAN,TX,77808,"RUDDER POINT",,CONTRACTOR,,,,,,,,,,,"RANGER HOMEBUILDERS",,,,,"RANGER HOMEBUILDERS","3101 NORMANDY WAY",BRYAN,TX,77808,"(979) 255-7526",https://www.rangerhomebuilders.com/,,,admin@rangerhomebuilders.com
TX,BRAZOS,20-3877,"Single Family Homes",10/8/2020,,140844,1600,"2049 BRISBANE WAY",BRYAN,TX,77808,"PLEASANT HILL",,CONTRACTOR,,,,,,,,,,,"STYLECRAFT BUILDERS ",,,,,"STYLECRAFT BUILDERS ","4090 STATE HIGHWAY 6 S","COLLEGE STATION",TX,77845-8962,"(979) 764-9900",,"(979) 690-3069","TANNER BREWSTER",tabrewster@stylecraft-builders.com
TX,BRAZOS,20-3895,"Single Family Homes",10/12/2020,,150000,2121,"4324 NAGLE ST",BRYAN,TX,77808,"OAK TERRACE",,CONTRACTOR,,,,,,,,,,,"ELY HOLDINGS",,,,,"ELY HOLDINGS","10 KELLI CLARK CT SE",CARTERSVILLE,GA,30121-7006,"(678) 792-3151",,,,
TX,BRAZOS,20-3924,"Single Family Homes",10/12/2020,,209150,1536,"1946 CARTWRIGHT ST",BRYAN,TX,77808,"PLEASANT HILL",,CONTRACTOR,,,,,,,,,,,"DR HORTON",,,,,"DR HORTON","14100 SOUTHWEST",HOUSTON,TX,77478,"(281) 201-5559",,,,
TX,BRAZOS,20-3962,"Single Family Homes",10/13/2020,,206000,2233,"3012 ALPHA CT",BRYAN,TX,77808,"AUSTIN'S COLONY",,CONTRACTOR,,,,,,,,,,,"PITMAN CUSTOM HOMES",,,,,"PITMAN CUSTOM HOMES","1401 SEBESTA RD","COLLEGE STATION",TX,77845-5527,"(979) 693-6699",http://www.pitmancustomhomes.com,,JIMMY,
TX,BRAZOS,20-3977,"Single Family Homes",10/13/2020,,248490,2340,"2946 BLUE BELLE DR",BRYAN,TX,77808,,,CONTRACTOR,,,,,,,,,,,"RNL HOME BUILDERS",,,,,"RNL HOME BUILDERS","4253 ROCKY RHODES DRIVE","COLLEGE STATION",TX,77845,"(979) 402-2531",http://www.rnlhomebuilders.com,,,RNLHomebuilders@gmail.com
TX,BRAZOS,20-4005,"Single Family Homes",10/14/2020,,221430,2474,"3329 STONINGTON WAY",BRYAN,TX,77808,GREENBRIER,,CONTRACTOR,,,,,,,,,,,"RIDGEWOOD CUSTOM HOMES",,,,,"RIDGEWOOD CUSTOM HOMES","106 PHEASANT RUN CT",SUNSET,TX,76270-2176,"(940) 872-9911",,,,
TX,BRAZOS,20-3991,"Single Family Homes",10/14/2020,,150612,1724,"3424 UTAH CT",BRYAN,TX,77808,"RUDDER POINT",,CONTRACTOR,,,,,,,,,,,"RANGER HOMEBUILDERS",,,,,"RANGER HOMEBUILDERS","3101 NORMANDY WAY",BRYAN,TX,77808,"(979) 255-7526",https://www.rangerhomebuilders.com/,,,admin@rangerhomebuilders.com
TX,BRAZOS,20-3987,"Single Family Homes",10/14/2020,,174900,1833,"2031 BRISBANE WAY",BRYAN,TX,77808,"PLEASANT HILL",,CONTRACTOR,,,,,,,,,,,"OMEGA BUILDERS GROUP",,,,,"OMEGA BUILDERS GROUP","7353 W ADAMS AVE",TEMPLE,TX,76502-5539,"(254) 773-9966",,,,
TX,BRAZOS,20-3986,"Single Family Homes",10/15/2020,,190000,1823,"5133 MAROON CREEK DR",BRYAN,TX,77808,,,CONTRACTOR,,,,,,,,,,,"BLACKSTONE HOMES",,,,,"BLACKSTONE HOMES","2829 TIMMONS LN APT 157",HOUSTON,TX,77027-5357,"(281) 827-8716",,,"ANDREW COLLINS",
TX,BRAZOS,20-4027,"Single Family Homes",10/16/2020,,270064,2450,"3213 GLENCAIRN CT",BRYAN,TX,77808,GREENBRIER,,CONTRACTOR,,,,,,,,,,,"REECE HOMES",,,,,"REECE HOMES","1818 TAYLOR",HOUSTON,TX,77545,"(713) 826-7262",http://www.reece-homes.com/,,,
TX,BRAZOS,20-4026,"Single Family Homes",10/16/2020,,198936,1900,"1925 CAMBRIA DR",BRYAN,TX,77808,"BOULDER CREEK",,CONTRACTOR,,,,,,,,,,,"AVONLEY HOMES",,,,,"AVONLEY HOMES","3900 STATE HIGHWAY 6 S STE 110","COLLEGE STATION",TX,77845-5831,"(979) 635-4800",https://www.avonleyhomes.com/,,,info@avonleyhomes.com
TX,BRAZOS,20-4057,"Single Family Homes",10/16/2020,,190674,1800,"3425 UTAH CT",BRYAN,TX,77808,"RUDDER POINT",,CONTRACTOR,,,,,,,,,,,"AVONLEY HOMES",,,,,"AVONLEY HOMES","3900 STATE HIGHWAY 6 S STE 110","COLLEGE STATION",TX,77845-5831,"(979) 635-4800",https://www.avonleyhomes.com/,,,info@avonleyhomes.com
TX,BRAZOS,20-4058,"Single Family Homes",10/16/2020,,198936,1900,"3404 UTAH CT",BRYAN,TX,77808,"RUDDER POINT",,CONTRACTOR,,,,,,,,,,,"AVONLEY HOMES",,,,,"AVONLEY HOMES","3900 STATE HIGHWAY 6 S STE 110","COLLEGE STATION",TX,77845-5831,"(979) 635-4800",https://www.avonleyhomes.com/,,,info@avonleyhomes.com
TX,BRAZOS,20-4059,"Single Family Homes",10/16/2020,,190674,1800,"3416 UTAH CT",BRYAN,TX,77808,"RUDDER POINT",,CONTRACTOR,,,,,,,,,,,"AVONLEY HOMES",,,,,"AVONLEY HOMES","3900 STATE HIGHWAY 6 S STE 110","COLLEGE STATION",TX,77845-5831,"(979) 635-4800",https://www.avonleyhomes.com/,,,info@avonleyhomes.com
TX,BRAZOS,20-4060,"Single Family Homes",10/16/2020,,163944,1500,"3429 UTAH CT",BRYAN,TX,77808,"RUDDER POINT",,CONTRACTOR,,,,,,,,,,,"AVONLEY HOMES",,,,,"AVONLEY HOMES","3900 STATE HIGHWAY 6 S STE 110","COLLEGE STATION",TX,77845-5831,"(979) 635-4800",https://www.avonleyhomes.com/,,,info@avonleyhomes.com
TX,BRAZOS,20-4105,"Single Family Homes",10/19/2020,,188958,2082,"2078 VIVA RD",BRYAN,TX,77808,EDGEWATER,,CONTRACTOR,,,,,,,,,,,"STYLECRAFT BUILDERS ",,,,,"STYLECRAFT BUILDERS ","4090 STATE HIGHWAY 6 S","COLLEGE STATION",TX,77845-8962,"(979) 764-9900",,"(979) 690-3069","TANNER BREWSTER",tabrewster@stylecraft-builders.com
TX,BRAZOS,20-4040,"Single Family Homes",10/19/2020,,202745,1534,"1967 THORNDYKE LN",BRYAN,TX,77808,"PLEASANT HILL",,CONTRACTOR,,,,,,,,,,,"DR HORTON",,,,,"DR HORTON","14100 SOUTHWEST",HOUSTON,TX,77478,"(281) 201-5559",,,,
TX,BRAZOS,20-4039,"Single Family Homes",10/19/2020,,207030,1561,"1959 THORNDYKE LN",BRYAN,TX,77808,"PLEASANT HILL",,CONTRACTOR,,,,,,,,,,,"DR HORTON",,,,,"DR HORTON","14100 SOUTHWEST",HOUSTON,TX,77478,"(281) 201-5559",,,,
TX,BRAZOS,20-4038,"Single Family Homes",10/19/2020,,226095,1744,"1956 CARTWRIGHT ST",BRYAN,TX,77808,"PLEASANT HILL",,CONTRACTOR,,,,,,,,,,,"DR HORTON",,,,,"DR HORTON","14100 SOUTHWEST",HOUSTON,TX,77478,"(281) 201-5559",,,,
TX,BRAZOS,20-4081,"Single Family Homes",10/20/2020,,156090,1818,"2817 PORTERS WAY",BRYAN,TX,77808,"PORTERS MEADOW",,CONTRACTOR,,,,,,,,,,,"STYLECRAFT BUILDERS ",,,,,"STYLECRAFT BUILDERS ","4090 STATE HIGHWAY 6 S","COLLEGE STATION",TX,77845-8962,"(979) 764-9900",,"(979) 690-3069","TANNER BREWSTER",tabrewster@stylecraft-builders.com
TX,BRAZOS,20-4050,"Single Family Homes",10/20/2020,,122562,1443,"2009 THERESA DR",BRYAN,TX,77808,EDGEWATER,,CONTRACTOR,,,,,,,,,,,"STYLECRAFT BUILDERS ",,,,,"STYLECRAFT BUILDERS ","4090 STATE HIGHWAY 6 S","COLLEGE STATION",TX,77845-8962,"(979) 764-9900",,"(979) 690-3069","TANNER BREWSTER",tabrewster@stylecraft-builders.com
TX,BRAZOS,20-4049,"Single Family Homes",10/20/2020,,174108,1837,"2096 VIVA RD",BRYAN,TX,77808,EDGEWATER,,CONTRACTOR,,,,,,,,,,,"STYLECRAFT BUILDERS ",,,,,"STYLECRAFT BUILDERS ","4090 STATE HIGHWAY 6 S","COLLEGE STATION",TX,77845-8962,"(979) 764-9900",,"(979) 690-3069","TANNER BREWSTER",tabrewster@stylecraft-builders.com
TX,BRAZOS,20-4048,"Single Family Homes",10/20/2020,,169224,1818,"2094 VIVA RD",BRYAN,TX,77808,EDGEWATER,,CONTRACTOR,,,,,,,,,,,"STYLECRAFT BUILDERS ",,,,,"STYLECRAFT BUILDERS ","4090 STATE HIGHWAY 6 S","COLLEGE STATION",TX,77845-8962,"(979) 764-9900",,"(979) 690-3069","TANNER BREWSTER",tabrewster@stylecraft-builders.com
TX,BRAZOS,20-4063,"Single Family Homes",10/21/2020,,270270,2927,"5109 INVERNESS DR",BRYAN,TX,77808,MIRAMONT,,CONTRACTOR,,,,,,,,,,,"RNL HOME BUILDERS",,,,,"RNL HOME BUILDERS","4253 ROCKY RHODES DRIVE","COLLEGE STATION",TX,77845,"(979) 402-2531",http://www.rnlhomebuilders.com,,,RNLHomebuilders@gmail.com
TX,BRAZOS,20-4100,"Single Family Homes",10/21/2020,,180972,2076,"3227 ARUNDALA WAY",BRYAN,TX,77808,GREENBRIER,,CONTRACTOR,,,,,,,,,,,"RNL HOME BUILDERS",,,,,"RNL HOME BUILDERS","4253 ROCKY RHODES DRIVE","COLLEGE STATION",TX,77845,"(979) 402-2531",http://www.rnlhomebuilders.com,,,RNLHomebuilders@gmail.com
TX,BRAZOS,20-3908,"Single Family Homes",10/21/2020,,195000,2567,"3200 ARUNDALA WAY",BRYAN,TX,77808,GREENBRIER,,CONTRACTOR,,,,,,,,,,,"MAGRUDER HOMES",,,,,"MAGRUDER HOMES","PO BOX 10572","COLLEGE STATION",TX,77842-0572,"(979) 324-6682",http://magruderhomes.com/,"(979) 696-2383",,john@magruderhomes.com
TX,BRAZOS,20-3961,"Single Family Homes",10/21/2020,,175000,2198,"3353 STONINGTON WAY",BRYAN,TX,77808,GREENBRIER,,CONTRACTOR,,,,,,,,,,,"MAGRUDER HOMES",,,,,"MAGRUDER HOMES","PO BOX 10572","COLLEGE STATION",TX,77842-0572,"(979) 324-6682",http://magruderhomes.com/,"(979) 696-2383",,john@magruderhomes.com
TX,BRAZOS,20-4089,"Single Family Homes",10/21/2020,,169938,1600,"3405 OMAHA CT",BRYAN,TX,77808,"RUDDER POINT",,CONTRACTOR,,,,,,,,,,,"AVONLEY HOMES",,,,,"AVONLEY HOMES","3900 STATE HIGHWAY 6 S STE 110","COLLEGE STATION",TX,77845-5831,"(979) 635-4800",https://www.avonleyhomes.com/,,,info@avonleyhomes.com
TX,BRAZOS,20-4091,"Single Family Homes",10/21/2020,,357136,2805,"2913 BOXELDER DR",BRYAN,TX,77808,TRADITIONS,,CONTRACTOR,,,,,,,,,,,"SOUTHERN CREEK HOMES",,,,,"SOUTHERN CREEK HOMES","14550 TORREY CHASE BLVD STE 465",HOUSTON,TX,77014-1019,"(281) 602-1084",http://www.southerncreekhomes.com/,,,
TX,BRAZOS,20-4087,"Single Family Homes",10/22/2020,,139656,1521,"3181 NORMANDY WAY",BRYAN,TX,77808,"RUDDER POINT",,CONTRACTOR,,,,,,,,,,,"RANGER HOMEBUILDERS",,,,,"RANGER HOMEBUILDERS","3101 NORMANDY WAY",BRYAN,TX,77808,"(979) 255-7526",https://www.rangerhomebuilders.com/,,,admin@rangerhomebuilders.com
TX,BRAZOS,20-4104,"Single Family Homes",10/23/2020,,234876,2066,"3050 WOLFPACK LOOP",BRYAN,TX,77808,"AUSTINS COLONY",,CONTRACTOR,,,,,,,,,,,"CREEKVIEW CUSTOM BUILDERS",,,,,"CREEKVIEW CUSTOM BUILDERS","1489 CHEROKEE DR","COLLEGE STATION",TX,77845-8446,"(979) 412-5007",http://www.creekviewcustombuilders.com/,,,
TX,BRAZOS,20-4164,"Single Family Homes",10/23/2020,,130482,1423,"3408 UTAH CT",BRYAN,TX,77808,"RUDDER POINT",,CONTRACTOR,,,,,,,,,,,"RANGER HOME BUILDERS",,,,,"RANGER HOME BUILDERS","547 WILLIAM D FITCH PKWY","COLLEGE STATION",TX,77845-6161,"(979) 255-7526",,,,
TX,BRAZOS,20-4167,"Single Family Homes",10/23/2020,,175296,2117,"2030 BRISBANE WAY",BRYAN,TX,77808,"PLEASANT HILL",,CONTRACTOR,,,,,,,,,,,"OMEGA BUILDERS GROUP",,,,,"OMEGA BUILDERS GROUP","7353 W ADAMS AVE",TEMPLE,TX,76502-5539,"(254) 773-9966",,,,
TX,BRAZOS,20-4126,"Single Family Homes",10/27/2020,,183612,2150,"3225 ARUNDALA WAY",BRYAN,TX,77808,GREENBRIER,,CONTRACTOR,,,,,,,,,,,"RNL HOME BUILDERS",,,,,"RNL HOME BUILDERS","4253 ROCKY RHODES DRIVE","COLLEGE STATION",TX,77845,"(979) 402-2531",http://www.rnlhomebuilders.com,,,RNLHomebuilders@gmail.com
TX,BRAZOS,20-4191,"Single Family Homes",10/27/2020,,180972,2076,"3230 ARUNDALA WAY",BRYAN,TX,77807,GREENBRIER,14,CONTRACTOR,,,,,,,,,,,"RNL HOME BUILDERS",,,,,"RNL HOME BUILDERS","4253 ROCKY RHODES DRIVE","COLLEGE STATION",TX,77845,"(979) 402-2531",http://www.rnlhomebuilders.com,,,RNLHomebuilders@gmail.com
TX,BRAZOS,20-4207,"Single Family Homes",10/27/2020,,254298,2983,"3039 WOLFPACK LOOP",BRYAN,TX,77808,"AUSTINS COLONY",,CONTRACTOR,,,,,,,,,,,"RNL HOME BUILDERS",,,,,"RNL HOME BUILDERS","4253 ROCKY RHODES DRIVE","COLLEGE STATION",TX,77845,"(979) 402-2531",http://www.rnlhomebuilders.com,,,RNLHomebuilders@gmail.com
TX,BRAZOS,20-4240,"Single Family Homes",10/27/2020,,129756,1443,"3714 MCKENZIE ST",BRYAN,TX,77808,"CONNORS COVE",7,CONTRACTOR,,,,,,,,,,,"STYLECRAFT BUILDERS ",,,,,"STYLECRAFT BUILDERS ","4090 STATE HIGHWAY 6 S","COLLEGE STATION",TX,77845-8962,"(979) 764-9900",,"(979) 690-3069","TANNER BREWSTER",tabrewster@stylecraft-builders.com
TX,BRAZOS,20-4114,"Single Family Homes",10/28/2020,,115304,1830,"4705 VIA VERDE WAY",BRYAN,TX,77808,"ALAMOSA SPRINGS",,CONTRACTOR,,,,,,,,,,,"LEGEND CLASSIC HOMES",,,,,"LEGEND CLASSIC HOMES","6634 BEESTON HILL DR",KATY,TX,77449-0195,"(281) 463-9950",http://legendhomeshouston.com/,,,
TX,BRAZOS,20-4115,"Single Family Homes",10/28/2020,,114200,2094,"5735 CERRILLOS DR",BRYAN,TX,77808,"ALAMOSA SPRINGS",,CONTRACTOR,,,,,,,,,,,"LEGEND CLASSIC HOMES",,,,,"LEGEND CLASSIC HOMES","6634 BEESTON HILL DR",KATY,TX,77449-0195,"(281) 463-9950",http://legendhomeshouston.com/,,,
TX,BRAZOS,20-4116,"Single Family Homes",10/28/2020,,101000,1523,"5737 CERRILLOS DR",BRYAN,TX,77808,"ALAMOSA SPRINGS",,CONTRACTOR,,,,,,,,,,,"LEGEND CLASSIC HOMES",,,,,"LEGEND CLASSIC HOMES","6634 BEESTON HILL DR",KATY,TX,77449-0195,"(281) 463-9950",http://legendhomeshouston.com/,,,
TX,BRAZOS,20-4118,"Single Family Homes",10/28/2020,,114200,2094,"5741 CERRILLOS DR",BRYAN,TX,77808,"ALAMOSA SPRINGS",,CONTRACTOR,,,,,,,,,,,"LEGEND CLASSIC HOMES",,,,,"LEGEND CLASSIC HOMES","6634 BEESTON HILL DR",KATY,TX,77449-0195,"(281) 463-9950",http://legendhomeshouston.com/,,,
TX,BRAZOS,20-4119,"Single Family Homes",10/28/2020,,101000,1523,"5743 CERRILLOS DR",BRYAN,TX,77808,"ALAMOSA SPRINGS",,CONTRACTOR,,,,,,,,,,,"LEGEND CLASSIC HOMES",,,,,"LEGEND CLASSIC HOMES","6634 BEESTON HILL DR",KATY,TX,77449-0195,"(281) 463-9950",http://legendhomeshouston.com/,,,
TX,BRAZOS,20-4125,"Single Family Homes",10/28/2020,,101422,1644,"967 CROSSING DR",BRYAN,TX,77808,FOLLETT,,CONTRACTOR,,,,,,,,,,,"LEGEND CLASSIC HOMES",,,,,"LEGEND CLASSIC HOMES","6634 BEESTON HILL DR",KATY,TX,77449-0195,"(281) 463-9950",http://legendhomeshouston.com/,,,
TX,BRAZOS,20-4127,"Single Family Homes",10/28/2020,,101722,1644,"996 MARQUIS DR",BRYAN,TX,77808,FOLLETT,,CONTRACTOR,,,,,,,,,,,"LEGEND CLASSIC HOMES",,,,,"LEGEND CLASSIC HOMES","6634 BEESTON HILL DR",KATY,TX,77449-0195,"(281) 463-9950",http://legendhomeshouston.com/,,,
TX,BRAZOS,20-4210,"Single Family Homes",10/29/2020,,185262,2024,"3011 WOLFPACK LOOP",BRYAN,TX,77808,"AUSTINS COLONY",,CONTRACTOR,,,,,,,,,,,"RIDGEWOOD CUSTOM HOMES",,,,,"RIDGEWOOD CUSTOM HOMES","106 PHEASANT RUN CT",SUNSET,TX,76270-2176,"(940) 872-9911",,,,
TX,BRAZOS,20-4209,"Single Family Homes",10/29/2020,,98076,1020,"1906 BASIL CT",BRYAN,TX,77808,"NORTHCREST COTTAGES",,CONTRACTOR,,,,,,,,,,,"BLACKROCK BUILDERS",,,,,"BLACKROCK BUILDERS","553 N POST OAK LN",HOUSTON,TX,77024-4629,"(281) 914-6785",http://www.blackrockbuilderstx.com/,,,
TX,BRAZOS,20-3836,"Single Family Homes",10/9/2020,,126216,1581,"304 SULPHUR SPRINGS RD #101",BRYAN,TX,77808,"MIDWAY PLACE",,CONTRACTOR,,,,,,,,,,,"BCS LANDMARK DEVELOPMENTS",,,,,"BCS LANDMARK DEVELOPMENTS","4509 N TEXAS AVE",BRYAN,TX,77803,"(979) 314-1571",,,"JUSTIN DOCKINS",
TX,BRAZOS,20-3841,"Single Family Homes",10/9/2020,,158976,1972,"304 SULPHUR SPRINGS RD 102",BRYAN,TX,78108,"MIDWAY PLACE",,CONTRACTOR,,,,,,,,,,,"BCS LANDMARK DEVELOPMENTS",,,,,"BCS LANDMARK DEVELOPMENTS","4509 N TEXAS AVE",BRYAN,TX,77803,"(979) 314-1571",,,"JUSTIN DOCKINS",
TX,BRAZOS,20-3842,"Single Family Homes",10/9/2020,,164736,2045,"304 SULPHUR SPRINGS RD 103",BRYAN,TX,77808,"MIDWAY PLACE",,CONTRACTOR,,,,,,,,,,,"BCS LANDMARK DEVELOPMENTS",,,,,"BCS LANDMARK DEVELOPMENTS","4509 N TEXAS AVE",BRYAN,TX,77803,"(979) 314-1571",,,"JUSTIN DOCKINS",
TX,BRAZOS,20-3843,"Single Family Homes",10/9/2020,,164736,2045,"304 SULPHUR SPRINGS RD 104",BRYAN,TX,77808,"MIDWAY PLACE",,CONTRACTOR,,,,,,,,,,,"BCS LANDMARK DEVELOPMENTS",,,,,"BCS LANDMARK DEVELOPMENTS","4509 N TEXAS AVE",BRYAN,TX,77803,"(979) 314-1571",,,"JUSTIN DOCKINS",
TX,BRAZOS,20-3845,"Single Family Homes",10/9/2020,,158976,1972,"304 SULPHUR SPRINGS RD 105",BRYAN,TX,77808,"MIDWAY PLACE",,CONTRACTOR,,,,,,,,,,,"BCS LANDMARK DEVELOPMENTS",,,,,"BCS LANDMARK DEVELOPMENTS","4509 N TEXAS AVE",BRYAN,TX,77803,"(979) 314-1571",,,"JUSTIN DOCKINS",
TX,BRAZOS,20-3846,"Single Family Homes",10/9/2020,,126216,1581,"304 SULPHUR SPRINGS RD 106",BRYAN,TX,77807,,,CONTRACTOR,,,,,,,,,,,"BCS LANDMARK DEVELOPMENTS",,,,,"BCS LANDMARK DEVELOPMENTS","4509 N TEXAS AVE",BRYAN,TX,77803,"(979) 314-1571",,,"JUSTIN DOCKINS",
TX,HARRIS,BAYTOWN,"Single Family Homes",10/26/2020,,,1523,"1001 SUNSET DR",BAYTOWN,TX,77521,,,CONTRACTOR,,,,,,,,,,,"CENSEO HOMES",,,,,"CENSEO HOMES","1800 AUGUSTA DR",HOUSTON,TX,77057-3149,"(281) 932-5303",,,,
TX,HARRIS,20100367,"Single Family Homes",10/26/2020,,,1523,"1209 BOOKERTEE ST",BAYTOWN,TX,77521,,,CONTRACTOR,,,,,,,,,,,"CENSEO HOMES",,,,,"CENSEO HOMES","1800 AUGUSTA DR",HOUSTON,TX,77057-3149,"(281) 932-5303",,,,
TX,HARRIS,20090280,"Single Family Homes",10/12/2020,,,2289,"4706 PAINTED BUNTING LN",BAYTOWN,TX,77521,,,CONTRACTOR,,,,,,,,,,,"CASTLEROCK COMMUNITIES",,,,,"CASTLEROCK COMMUNITIES","7670 WOODWAY DR STE 300",HOUSTON,TX,77063-1520,"(713) 600-7000",http://c-rock.com,"(713) 600-0000",,
TX,HARRIS,20090312,"Single Family Homes",10/27/2020,,,2014,"1609 YUPON ST",BAYTOWN,TX,77521,,,CONTRACTOR,,,,,,,,,,,"AGC ACOSTA'S CONSTRUCTION & REMODELING",,,,,"AGC ACOSTA'S CONSTRUCTION & REMODELING","1907 CAROLINE AVENUE",BAYTOWN,TX,77523,"(832) 659-7165",,,,
TX,HARRIS,20090417,"Single Family Homes",10/12/2020,,,2896,"8422 SUNSET HORIZON DR",BAYTOWN,TX,77521,,,CONTRACTOR,,,,,,,,,,,"K HOVNANIAN HOMES",,,,,"K HOVNANIAN HOMES","13111 NORTHWEST FWY STE 200",HOUSTON,TX,77040-6311,"(713) 460-0264",,,,
TX,HARRIS,20090418,"Single Family Homes",10/5/2020,,,2439,"8418 SUNSET HORIZON DR",BAYTOWN,TX,77521,,,CONTRACTOR,,,,,,,,,,,"K HOVNANIAN HOMES",,,,,"K HOVNANIAN HOMES","13111 NORTHWEST FWY STE 200",HOUSTON,TX,77040-6311,"(713) 460-0264",,,,
TX,HARRIS,20090478,"Single Family Homes",10/1/2020,,,2571,"6530 HIDDEN DUNES DR",BAYTOWN,TX,77521,,,CONTRACTOR,,,,,,,,,,,"ANGLIA HOMES",,,,,"ANGLIA HOMES","17510 RED OAK DR",HOUSTON,TX,77090,"(281) 943-5288",http://www.angliahomeslp.com/,,,
TX,HARRIS,20090421,"Single Family Homes",10/5/2020,,,2003,"8407 PECAN CREST DR",BAYTOWN,TX,77521,,,CONTRACTOR,,,,,,,,,,,"K HOVNANIAN HOMES",,,,,"K HOVNANIAN HOMES","13111 NORTHWEST FWY STE 200",HOUSTON,TX,77040-6311,"(713) 460-0264",,,,
TX,HARRIS,20090422,"Single Family Homes",10/5/2020,,,2896,"8403 PECAN CREST DR",BAYTOWN,TX,77521,,,CONTRACTOR,,,,,,,,,,,"K HOVNANIAN HOMES",,,,,"K HOVNANIAN HOMES","13111 NORTHWEST FWY STE 200",HOUSTON,TX,77040-6311,"(713) 460-0264",,,,
TX,HARRIS,20090501,"Single Family Homes",10/7/2020,,,2561,"3303 CANADIAN GOOSE LN",BAYTOWN,TX,77521,,,CONTRACTOR,,,,,,,,,,,"DR HORTON",,,,,"DR HORTON","14100 SOUTHWEST",HOUSTON,TX,77478,"(281) 201-5559",,,,
TX,HARRIS,20100162,"Single Family Homes",10/15/2020,,,2937,"10039 EAGLE PINES DR",BAYTOWN,TX,77521,,,CONTRACTOR,,,,,,,,,,,"ANGLIA HOMES",,,,,"ANGLIA HOMES","17510 RED OAK DR",HOUSTON,TX,77090,"(281) 943-5288",http://www.angliahomeslp.com/,,,
TX,HARRIS,20100128,"Single Family Homes",10/23/2020,,,1553,"1405 OAK ST",BAYTOWN,TX,77521,,,CONTRACTOR,,,,,,,,,,,"AGC ACOSTA'S CONSTRUCTION & REMODELING",,,,,"AGC ACOSTA'S CONSTRUCTION & REMODELING","1907 CAROLINE AVENUE",BAYTOWN,TX,77523,"(832) 659-7165",,,,
TX,HARRIS,20090529,"Single Family Homes",10/7/2020,,,2152,"2819 SPECKLEBELLY DR",BAYTOWN,TX,77521,,,CONTRACTOR,,,,,,,,,,,"DR HORTON",,,,,"DR HORTON","14100 SOUTHWEST",HOUSTON,TX,77478,"(281) 201-5559",,,,
TX,HARRIS,20090555,"Single Family Homes",10/7/2020,,,2891,"2814 CANADIAN GOOSE LN",BAYTOWN,TX,77521,,,CONTRACTOR,,,,,,,,,,,"DR HORTON",,,,,"DR HORTON","14100 SOUTHWEST",HOUSTON,TX,77478,"(281) 201-5559",,,,
TX,HARRIS,20090648,"Single Family Homes",10/9/2020,,,3251,"4511 PAINTED BUNTING LN",BAYTOWN,TX,77521,,,CONTRACTOR,,,,,,,,,,,"CASTLEROCK COMMUNITIES",,,,,"CASTLEROCK COMMUNITIES","7670 WOODWAY DR STE 300",HOUSTON,TX,77063-1520,"(713) 600-7000",http://c-rock.com,"(713) 600-0000",,
TX,HARRIS,20090775,"Single Family Homes",10/8/2020,,,2745,"6934 HUNTERS TRACE LN",BAYTOWN,TX,77521,,,CONTRACTOR,,,,,,,,,,,"CHESMAR HOMES",,,,,"CHESMAR HOMES","450 GEARS RD STE 400",HOUSTON,TX,77067-4513,"(281) 598-1111",http://chesmar.com,"(281) 598-1115",,customerservice.houston@chesmar.com
TX,HARRIS,20080560,"Single Family Homes",10/30/2020,,,3135,"5400 CAROUSEL CIR",BAYTOWN,TX,77521,,,CONTRACTOR,,,,,,,,,,,"CASTLEROCK COMMUNITIES",,,,,"CASTLEROCK COMMUNITIES","7670 WOODWAY DR STE 300",HOUSTON,TX,77063-1520,"(713) 600-7000",http://c-rock.com,"(713) 600-0000",,
TX,HARRIS,20070163,"Single Family Homes",10/7/2020,,,8244,"3915 HAWAIIAN CT",BAYTOWN,TX,77521,,,CONTRACTOR,,,,,,,,,,,"DR HORTON",,,,,"DR HORTON","14100 SOUTHWEST",HOUSTON,TX,77478,"(281) 201-5559",,,,
TX,HARRIS,20265,"Single Family Homes",10/15/2020,,148000,,"17 CMDR RUNCO LN","TAYLOR LAKE VILLAGE",TX,77586,,,CONTRACTOR,,,,,,,,,,,"T&W BUILDERS",,,,,"T&W BUILDERS","625 RUTLAND ST",HOUSTON,TX,77007-2414,"(713) 426-0094",,,,
TX,HARRIS,20266,"Single Family Homes",10/15/2020,,148000,,"29 CMDR RUNCO LN","TAYLOR LAKE VILLAGE",TX,77586,,,CONTRACTOR,,,,,,,,,,,"T&W BUILDERS",,,,,"T&W BUILDERS","625 RUTLAND ST",HOUSTON,TX,77007-2414,"(713) 426-0094",,,,
TX,HARRIS,2009290124,"Single Family Homes",10/16/2020,,476700,3178,"23315 MARKSTONE GLEN CT",HOUSTON,TX,77356,ELYSON,,CONTRACTOR,,,,,,,,,,,"PERRY HOMES",,,,,"PERRY HOMES","9000 GULF FWY",HOUSTON,TX,77017-7018,"(713) 417-1396",,,,
TX,HARRIS,2010010167,"Single Family Homes",10/16/2020,,363600,2424,"23610 SAVANNAH SPARROW LN",HOUSTON,TX,77356,ELYSON,,CONTRACTOR,,,,,,,,,,,"PERRY HOMES",,,,,"PERRY HOMES","9000 GULF FWY",HOUSTON,TX,77017-7018,"(713) 417-1396",,,,
TX,HARRIS,2010230006,"Single Family Homes",10/16/2020,,644877,5159,"6302 BLUESTEM MEADOW TRCE",HOUSTON,TX,77356,ELYSON,,CONTRACTOR,,,,,,,,,,,"PERRY HOMES",,,,,"PERRY HOMES","9000 GULF FWY",HOUSTON,TX,77017-7018,"(713) 417-1396",,,,
TX,HARRIS,2010130017,"Single Family Homes",10/16/2020,,667650,4451,"23654 SAVANNAH SPARROW LN",HOUSTON,TX,77356,ELYSON,,CONTRACTOR,,,,,,,,,,,"PERRY HOMES",,,,,"PERRY HOMES","9000 GULF FWY",HOUSTON,TX,77017-7018,"(713) 417-1396",,,,
TX,HARRIS,2010200058,"Single Family Homes",9/16/2020,,298750,2390,"6235 BRIARSTONE VALLEY LN",HOUSTON,TX,77356,ELYSON,,CONTRACTOR,,,,,,,,,,,"PERRY HOMES",,,,,"PERRY HOMES","9000 GULF FWY",HOUSTON,TX,77017-7018,"(713) 417-1396",,,,
TX,BRAZORIA,RES20-01852,"Single Family Homes",10/1/2020,,,2473,"14130 HARTFORD HEIGHTS WAY",PEARLAND,TX,77583,,,CONTRACTOR,,,,,,,,,,,"LENNAR HOMES",,,,,"LENNAR HOMES","550 GREENS PKWY",HOUSTON,TX,77067-4537,"(281) 875-1000",http://www.lennar.com/,,,
TX,BRAZORIA,RES20-01874,"Single Family Homes",10/1/2020,,,2304,"4825 ALBANY RIDGE LN",PEARLAND,TX,77545,,,CONTRACTOR,,,,,,,,,,,"LENNAR HOMES",,,,,"LENNAR HOMES","550 GREENS PKWY",HOUSTON,TX,77067-4537,"(281) 875-1000",http://www.lennar.com/,,,
TX,BRAZORIA,RES20-01877,"Single Family Homes",10/2/2020,,,2648,"13807 VILLAGE GLEN LN",PEARLAND,TX,77583,,,CONTRACTOR,,,,,,,,,,,"LENNAR HOMES",,,,,"LENNAR HOMES","550 GREENS PKWY",HOUSTON,TX,77067-4537,"(281) 875-1000",http://www.lennar.com/,,,
TX,BRAZORIA,RES20-01864,"Single Family Homes",10/5/2020,,,2012,"2107 PERALTA CHASE WAY",PEARLAND,TX,77089,,,CONTRACTOR,,,,,,,,,,,"MERITAGE HOMES",,,,,"MERITAGE HOMES","2901 W SAM HOUSTON PKWY N",HOUSTON,TX,77043-1630,"(713) 357-1184",,,,
TX,BRAZORIA,RES20-01735,"Single Family Homes",10/6/2020,,,2270,"13714 SAXON CLIFF LN",PEARLAND,TX,77583,,,CONTRACTOR,,,,,,,,,,,"M/I HOMES",,,,,"M/I HOMES","10910 NORTH SAM HOUSTON PKWY W",HOUSTON,TX,77064,"(832) 912-1012",,,,
TX,BRAZORIA,RES20-01812,"Single Family Homes",10/6/2020,,,1911,"14007 HARTFORD HEIGHTS WAY",PEARLAND,TX,77583,,,CONTRACTOR,,,,,,,,,,,"LENNAR HOMES",,,,,"LENNAR HOMES","550 GREENS PKWY",HOUSTON,TX,77067-4537,"(281) 875-1000",http://www.lennar.com/,,,
TX,BRAZORIA,RES20-01813,"Single Family Homes",10/6/2020,,,2642,"14126 HARTFORD HEIGHTS WAY",PEARLAND,TX,77583,,,CONTRACTOR,,,,,,,,,,,"LENNAR HOMES",,,,,"LENNAR HOMES","550 GREENS PKWY",HOUSTON,TX,77067-4537,"(281) 875-1000",http://www.lennar.com/,,,
TX,BRAZORIA,RES20-01893,"Single Family Homes",10/6/2020,,,3296,"4311 THETFORD MANOR TRL",PEARLAND,TX,77583,,,CONTRACTOR,,,,,,,,,,,"DEVON STREET HOMES",,,,,"DEVON STREET HOMES","4545 POST OAK PLACE DR STE 345",HOUSTON,TX,77027-3198,"(713) 622-1009",http://www.devonstreethomes.com,"(713) 622-1094",,
TX,BRAZORIA,RES20-01894,"Single Family Homes",10/6/2020,,,1632,"4866 ALBANY RIDGE LN",PEARLAND,TX,77583,,,CONTRACTOR,,,,,,,,,,,"DEVON STREET HOMES",,,,,"DEVON STREET HOMES","4545 POST OAK PLACE DR STE 345",HOUSTON,TX,77027-3198,"(713) 622-1009",http://www.devonstreethomes.com,"(713) 622-1094",,
TX,BRAZORIA,RES20-01896,"Single Family Homes",10/6/2020,,,3380,"4310 MARKSTONE RIDGE LN",PEARLAND,TX,77583,,,CONTRACTOR,,,,,,,,,,,"DEVON STREET HOMES",,,,,"DEVON STREET HOMES","4545 POST OAK PLACE DR STE 345",HOUSTON,TX,77027-3198,"(713) 622-1009",http://www.devonstreethomes.com,"(713) 622-1094",,
TX,BRAZORIA,RES20-00863,"Single Family Homes",10/8/2020,,,1688,"2635 DUNSMORE OAK DR",PEARLAND,TX,77089,,,CONTRACTOR,,,,,,,,,,,"MERITAGE HOMES",,,,,"MERITAGE HOMES","2901 W SAM HOUSTON PKWY N",HOUSTON,TX,77043-1630,"(713) 357-1184",,,,
TX,BRAZORIA,RES20-01730,"Single Family Homes",10/8/2020,,,1790,"1971 HIGHLAND MEADOWS DR",PEARLAND,TX,77089,,,CONTRACTOR,,,,,,,,,,,"MERITAGE HOMES",,,,,"MERITAGE HOMES","2901 W SAM HOUSTON PKWY N",HOUSTON,TX,77043-1630,"(713) 357-1184",,,,
TX,BRAZORIA,RES20-01760,"Single Family Homes",10/8/2020,,,2223,"3624 JASPERSTONE LN",PEARLAND,TX,77581,,,CONTRACTOR,,,,,,,,,,,"GEHAN HOMES",,,,,"GEHAN HOMES","2050 W SAM HOUSTON PKWY S",HOUSTON,TX,77042-2079,"(713) 243-3545",http://www.gehanhomes.com,,,
TX,BRAZORIA,RES20-01772,"Single Family Homes",10/8/2020,,,2012,"1925 AUBURN WILLOW LN",PEARLAND,TX,77089,,,CONTRACTOR,,,,,,,,,,,"MERITAGE HOMES",,,,,"MERITAGE HOMES","2901 W SAM HOUSTON PKWY N",HOUSTON,TX,77043-1630,"(713) 357-1184",,,,
TX,BRAZORIA,RES20-01778,"Single Family Homes",10/8/2020,,,2209,"2004 GLENWICK MANOR LN",PEARLAND,TX,77089,,,CONTRACTOR,,,,,,,,,,,"MERITAGE HOMES",,,,,"MERITAGE HOMES","2901 W SAM HOUSTON PKWY N",HOUSTON,TX,77043-1630,"(713) 357-1184",,,,
TX,BRAZORIA,RES20-01869,"Single Family Homes",10/8/2020,,,4136,"4604 FISHER DR",PEARLAND,TX,77584,,,CONTRACTOR,,,,,,,,,,,"GEHAN HOMES",,,,,"GEHAN HOMES","2050 W SAM HOUSTON PKWY S",HOUSTON,TX,77042-2079,"(713) 243-3545",http://www.gehanhomes.com,,,
TX,BRAZORIA,RES20-01870,"Single Family Homes",10/8/2020,,,3419,"3224 PARKER DR",PEARLAND,TX,77584,,,CONTRACTOR,,,,,,,,,,,"GEHAN HOMES",,,,,"GEHAN HOMES","2050 W SAM HOUSTON PKWY S",HOUSTON,TX,77042-2079,"(713) 243-3545",http://www.gehanhomes.com,,,
TX,BRAZORIA,RES20-01908,"Single Family Homes",10/8/2020,,,3092,"3616 JASPERSTONE LN",PEARLAND,TX,77581,,,CONTRACTOR,,,,,,,,,,,"GEHAN HOMES",,,,,"GEHAN HOMES","2050 W SAM HOUSTON PKWY S",HOUSTON,TX,77042-2079,"(713) 243-3545",http://www.gehanhomes.com,,,
TX,BRAZORIA,RES20-01020,"Single Family Homes",10/13/2020,,,2849,"2130 ELRINGTON WILLOW LN",PEARLAND,TX,77089,,,CONTRACTOR,,,,,,,,,,,"MERITAGE HOMES",,,,,"MERITAGE HOMES","2901 W SAM HOUSTON PKWY N",HOUSTON,TX,77043-1630,"(713) 357-1184",,,,
TX,BRAZORIA,RES20-00934,"Single Family Homes",10/14/2020,,,2529,"13503 MASON CANYON LN",PEARLAND,TX,77584,,,CONTRACTOR,,,,,,,,,,,"PERRY HOMES",,,,,"PERRY HOMES","9000 GULF FWY",HOUSTON,TX,77017-7018,"(713) 417-1396",,,,
TX,BRAZORIA,RES20-01808,"Single Family Homes",10/14/2020,,,2487,"3623 JASPERSTONE LN",PEARLAND,TX,77581,,,CONTRACTOR,,,,,,,,,,,"GEHAN HOMES",,,,,"GEHAN HOMES","2050 W SAM HOUSTON PKWY S",HOUSTON,TX,77042-2079,"(713) 243-3545",http://www.gehanhomes.com,,,
TX,BRAZORIA,RES20-01959,"Single Family Homes",10/14/2020,,,2012,"1969 HIGHLAND MEADOWS DR",PEARLAND,TX,77089,,,CONTRACTOR,,,,,,,,,,,"MERITAGE HOMES",,,,,"MERITAGE HOMES","2901 W SAM HOUSTON PKWY N",HOUSTON,TX,77043-1630,"(713) 357-1184",,,,
TX,BRAZORIA,RES20-01960,"Single Family Homes",10/14/2020,,,2933,"1994 GLENWICK MANOR LN",PEARLAND,TX,77089,,,CONTRACTOR,,,,,,,,,,,"MERITAGE HOMES",,,,,"MERITAGE HOMES","2901 W SAM HOUSTON PKWY N",HOUSTON,TX,77043-1630,"(713) 357-1184",,,,
TX,BRAZORIA,RES20-01891,"Single Family Homes",10/15/2020,,,2593,"2411 SONGLARK SPRINGS PL",PEARLAND,TX,77089,,,CONTRACTOR,,,,,,,,,,,"MERITAGE HOMES",,,,,"MERITAGE HOMES","2901 W SAM HOUSTON PKWY N",HOUSTON,TX,77043-1630,"(713) 357-1184",,,,
TX,BRAZORIA,RES20-00631,"Single Family Homes",10/16/2020,,,2933,"2513 HATTON TERRACE LN",PEARLAND,TX,77089,,,CONTRACTOR,,,,,,,,,,,"MERITAGE HOMES",,,,,"MERITAGE HOMES","2901 W SAM HOUSTON PKWY N",HOUSTON,TX,77043-1630,"(713) 357-1184",,,,
TX,BRAZORIA,RES20-00967,"Single Family Homes",10/16/2020,,,3167,"2303 ALIAGA TERRACE WAY",PEARLAND,TX,77089,,,CONTRACTOR,,,,,,,,,,,"MERITAGE HOMES",,,,,"MERITAGE HOMES","2901 W SAM HOUSTON PKWY N",HOUSTON,TX,77043-1630,"(713) 357-1184",,,,
TX,BRAZORIA,RES20-01543,"Single Family Homes",10/16/2020,,,2453,"2318 ROSEHILL GARDEN TRL",PEARLAND,TX,77089,,,CONTRACTOR,,,,,,,,,,,"MERITAGE HOMES",,,,,"MERITAGE HOMES","2901 W SAM HOUSTON PKWY N",HOUSTON,TX,77043-1630,"(713) 357-1184",,,,
TX,BRAZORIA,RES20-01774,"Single Family Homes",10/16/2020,,,3551,"1984 HIGHLAND MEADOWS DR",PEARLAND,TX,77089,,,CONTRACTOR,,,,,,,,,,,"MERITAGE HOMES",,,,,"MERITAGE HOMES","2901 W SAM HOUSTON PKWY N",HOUSTON,TX,77043-1630,"(713) 357-1184",,,,
TX,BRAZORIA,RES20-01855,"Single Family Homes",10/16/2020,,,2012,"2126 ELRINGTON WILLOW LN",PEARLAND,TX,77089,,,CONTRACTOR,,,,,,,,,,,"MERITAGE HOMES",,,,,"MERITAGE HOMES","2901 W SAM HOUSTON PKWY N",HOUSTON,TX,77043-1630,"(713) 357-1184",,,,
TX,BRAZORIA,RES20-01890,"Single Family Homes",10/16/2020,,,2751,"2204 LAGO CANYON CT",PEARLAND,TX,77089,,,CONTRACTOR,,,,,,,,,,,"MERITAGE HOMES",,,,,"MERITAGE HOMES","2901 W SAM HOUSTON PKWY N",HOUSTON,TX,77043-1630,"(713) 357-1184",,,,
TX,BRAZORIA,RES20-01992,"Single Family Homes",10/16/2020,,,2250,"4409 JESSAMINE CREEK TRL",PEARLAND,TX,77089,,,CONTRACTOR,,,,,,,,,,,"DEVON STREET HOMES",,,,,"DEVON STREET HOMES","4545 POST OAK PLACE DR STE 345",HOUSTON,TX,77027-3198,"(713) 622-1009",http://www.devonstreethomes.com,"(713) 622-1094",,
TX,BRAZORIA,RES20-01993,"Single Family Homes",10/16/2020,,,2304,"4402 WHITEHAVEN PINE WAY",PEARLAND,TX,77583,,,CONTRACTOR,,,,,,,,,,,"LENNAR HOMES",,,,,"LENNAR HOMES","550 GREENS PKWY",HOUSTON,TX,77067-4537,"(281) 875-1000",http://www.lennar.com/,,,
TX,BRAZORIA,RES20-01994,"Single Family Homes",10/16/2020,,,2883,"4407 WHITEHAVEN PINE WAY",PEARLAND,TX,77583,,,CONTRACTOR,,,,,,,,,,,"DEVON STREET HOMES",,,,,"DEVON STREET HOMES","4545 POST OAK PLACE DR STE 345",HOUSTON,TX,77027-3198,"(713) 622-1009",http://www.devonstreethomes.com,"(713) 622-1094",,
TX,BRAZORIA,RES20-01995,"Single Family Homes",10/16/2020,,,1837,"4921 SPRING TERRACE LN",PEARLAND,TX,77583,,,CONTRACTOR,,,,,,,,,,,"DEVON STREET HOMES",,,,,"DEVON STREET HOMES","4545 POST OAK PLACE DR STE 345",HOUSTON,TX,77027-3198,"(713) 622-1009",http://www.devonstreethomes.com,"(713) 622-1094",,
TX,BRAZORIA,RES20-01775,"Single Family Homes",10/19/2020,,,2812,"1808 KINGSFORD PRAIRIE CT",PEARLAND,TX,77089,,,CONTRACTOR,,,,,,,,,,,"MERITAGE HOMES",,,,,"MERITAGE HOMES","2901 W SAM HOUSTON PKWY N",HOUSTON,TX,77043-1630,"(713) 357-1184",,,,
TX,BRAZORIA,RES20-01973,"Single Family Homes",10/19/2020,,,2334,"1809 KINGSFORD PRAIRIE CT",PEARLAND,TX,77089,,,CONTRACTOR,,,,,,,,,,,"MERITAGE HOMES",,,,,"MERITAGE HOMES","2901 W SAM HOUSTON PKWY N",HOUSTON,TX,77043-1630,"(713) 357-1184",,,,
TX,BRAZORIA,RES20-01974,"Single Family Homes",10/19/2020,,,1688,"1813 KINGSFORD PRAIRIE CT",PEARLAND,TX,77089,,,CONTRACTOR,,,,,,,,,,,"MERITAGE HOMES",,,,,"MERITAGE HOMES","2901 W SAM HOUSTON PKWY N",HOUSTON,TX,77043-1630,"(713) 357-1184",,,,
TX,BRAZORIA,RES20-02013,"Single Family Homes",10/19/2020,,,2250,"4427 WHITEHAVEN PINE WAY",PEARLAND,TX,77583,,,CONTRACTOR,,,,,,,,,,,"DEVON STREET HOMES",,,,,"DEVON STREET HOMES","4545 POST OAK PLACE DR STE 345",HOUSTON,TX,77027-3198,"(713) 622-1009",http://www.devonstreethomes.com,"(713) 622-1094",,
TX,BRAZORIA,RES20-00697,"Single Family Homes",10/20/2020,,,2012,"2640 BELLWICK CANYON CT",PEARLAND,TX,77089,,,CONTRACTOR,,,,,,,,,,,"MERITAGE HOMES",,,,,"MERITAGE HOMES","2901 W SAM HOUSTON PKWY N",HOUSTON,TX,77043-1630,"(713) 357-1184",,,,
TX,BRAZORIA,RES20-01518,"Single Family Homes",10/20/2020,,,1790,"2506 HATTON TERRACE LN",PEARLAND,TX,77089,,,CONTRACTOR,,,,,,,,,,,"MERITAGE HOMES",,,,,"MERITAGE HOMES","2901 W SAM HOUSTON PKWY N",HOUSTON,TX,77043-1630,"(713) 357-1184",,,,
TX,BRAZORIA,RES20-01525,"Single Family Homes",10/20/2020,,,2012,"2711 FAIRFIELD LANDING LN",PEARLAND,TX,77089,,,CONTRACTOR,,,,,,,,,,,"MERITAGE HOMES",,,,,"MERITAGE HOMES","2901 W SAM HOUSTON PKWY N",HOUSTON,TX,77043-1630,"(713) 357-1184",,,,
TX,BRAZORIA,RES20-01975,"Single Family Homes",10/20/2020,,,1477,"1817 KINGSFORD PRAIRIE CT",PEARLAND,TX,77089,,,CONTRACTOR,,,,,,,,,,,"MERITAGE HOMES",,,,,"MERITAGE HOMES","2901 W SAM HOUSTON PKWY N",HOUSTON,TX,77043-1630,"(713) 357-1184",,,,
TX,BRAZORIA,RES20-01309,"Single Family Homes",10/21/2020,,,2675,"2129 ELRINGTON WILLOW LN",PEARLAND,TX,77089,,,CONTRACTOR,,,,,,,,,,,"MERITAGE HOMES",,,,,"MERITAGE HOMES","2901 W SAM HOUSTON PKWY N",HOUSTON,TX,77043-1630,"(713) 357-1184",,,,
TX,BRAZORIA,RES20-01965,"Single Family Homes",10/21/2020,,,2674,"4802 ALBANY RIDGE LN",PEARLAND,TX,77583,,,CONTRACTOR,,,,,,,,,,,"LENNAR HOMES",,,,,"LENNAR HOMES","550 GREENS PKWY",HOUSTON,TX,77067-4537,"(281) 875-1000",http://www.lennar.com/,,,
TX,BRAZORIA,RES20-02019,"Single Family Homes",10/21/2020,,,1477,"1812 HARTFORD SPRINGS TRL",PEARLAND,TX,77089,,,CONTRACTOR,,,,,,,,,,,"MERITAGE HOMES",,,,,"MERITAGE HOMES","2901 W SAM HOUSTON PKWY N",HOUSTON,TX,77043-1630,"(713) 357-1184",,,,
TX,BRAZORIA,RES20-02020,"Single Family Homes",10/21/2020,,,1688,"2716 GEORGINA ROSE WAY",PEARLAND,TX,77089,,,CONTRACTOR,,,,,,,,,,,"MERITAGE HOMES",,,,,"MERITAGE HOMES","2901 W SAM HOUSTON PKWY N",HOUSTON,TX,77043-1630,"(713) 357-1184",,,,
TX,BRAZORIA,RES20-02021,"Single Family Homes",10/21/2020,,,1688,"1816 HARTFORD SPRINGS TRL",PEARLAND,TX,77089,,,CONTRACTOR,,,,,,,,,,,"MERITAGE HOMES",,,,,"MERITAGE HOMES","2901 W SAM HOUSTON PKWY N",HOUSTON,TX,77043-1630,"(713) 357-1184",,,,
TX,BRAZORIA,RES20-02046,"Single Family Homes",10/21/2020,,,3856,"4422 MARKSTONE RIDGE LN",PEARLAND,TX,77583,,,CONTRACTOR,,,,,,,,,,,"DEVON STREET HOMES",,,,,"DEVON STREET HOMES","4545 POST OAK PLACE DR STE 345",HOUSTON,TX,77027-3198,"(713) 622-1009",http://www.devonstreethomes.com,"(713) 622-1094",,
TX,BRAZORIA,RES20-00867,"Single Family Homes",10/22/2020,,,2334,"2712 FAIRFIELD LANDING LN",PEARLAND,TX,77089,,,CONTRACTOR,,,,,,,,,,,"MERITAGE HOMES",,,,,"MERITAGE HOMES","2901 W SAM HOUSTON PKWY N",HOUSTON,TX,77043-1630,"(713) 357-1184",,,,
TX,BRAZORIA,RES20-00868,"Single Family Homes",10/22/2020,,,1688,"2716 FAIRFIELD LANDING LN",PEARLAND,TX,77089,,,CONTRACTOR,,,,,,,,,,,"MERITAGE HOMES",,,,,"MERITAGE HOMES","2901 W SAM HOUSTON PKWY N",HOUSTON,TX,77043-1630,"(713) 357-1184",,,,
TX,HARRIS,2010110004,"Single Family Homes",9/16/2020,,103740,1596,"5927 WAGGONER RANCH TRL",HOUSTON,TX,77356,"KATY CROSSING",,CONTRACTOR,,,,,,,,,,,"LENNAR HOMES",,,,,"LENNAR HOMES","550 GREENS PKWY",HOUSTON,TX,77067-4537,"(281) 875-1000",http://www.lennar.com/,,,
TX,HARRIS,2010110005,"Single Family Homes",10/16/2020,,137605,2117,"5841 HEDWIG HILL LN",HOUSTON,TX,77356,"KATY CROSSING",,CONTRACTOR,,,,,,,,,,,"LENNAR HOMES",,,,,"LENNAR HOMES","550 GREENS PKWY",HOUSTON,TX,77067-4537,"(281) 875-1000",http://www.lennar.com/,,,
TX,HARRIS,2010050150,"Single Family Homes",10/16/2020,,142935,2199,"5849 HEDWIG HILL LN",HOUSTON,TX,77356,"KATY CROSSING",,CONTRACTOR,,,,,,,,,,,"LENNAR HOMES",,,,,"LENNAR HOMES","550 GREENS PKWY",HOUSTON,TX,77067-4537,"(281) 875-1000",http://www.lennar.com/,,,
TX,HARRIS,2010050152,"Single Family Homes",10/16/2020,,124345,1913,"5845 HEDWIG HILL LN",HOUSTON,TX,77356,"KATY CROSSING",,CONTRACTOR,,,,,,,,,,,"LENNAR HOMES",,,,,"LENNAR HOMES","550 GREENS PKWY",HOUSTON,TX,77067-4537,"(281) 875-1000",http://www.lennar.com/,,,
TX,HARRIS,2009290015,"Single Family Homes",10/16/2020,,329883,3525,"18226 PEDERNALES SPRINGS DR",HOUSTON,TX,77356,"TOWNE LAKE",,CONTRACTOR,,,,,,,,,,,"NEWMARK HOMES",,,,,"NEWMARK HOMES","10455 BRIAR FOREST SUITE 200",HOUSTON,TX,77042,"(713) 346-0200",,"(713) 346-0226",,
TX,HARRIS,2010050149,"Single Family Homes",10/16/2020,,179335,2759,"25511 PITCHFORK RANCH PL","HARRIS COUNTY",TX,77356,"KATY CROSSING",,CONTRACTOR,,,,,,,,,,,"LENNAR HOMES",,,,,"LENNAR HOMES","550 GREENS PKWY",HOUSTON,TX,77067-4537,"(281) 875-1000",http://www.lennar.com/,,,
TX,HARRIS,2009280099,"Single Family Homes",10/16/2020,,142935,2199,"25542 RANCHO ESPIRITO LN",HOUSTON,TX,77356,"KATY CROSSING",,CONTRACTOR,,,,,,,,,,,"LENNAR HOMES",,,,,"LENNAR HOMES","550 GREENS PKWY",HOUSTON,TX,77067-4537,"(281) 875-1000",http://www.lennar.com/,,,
TX,HARRIS,2010050027,"Single Family Homes",10/16/2020,,635700,4238,"6518 PASSIONFLOWER WAY",HOUSTON,TX,77356,ELYSON,,CONTRACTOR,,,,,,,,,,,"PERRY HOMES",,,,,"PERRY HOMES","9000 GULF FWY",HOUSTON,TX,77017-7018,"(713) 417-1396",,,,
TX,HARRIS,2009270016,"Single Family Homes",10/16/2020,,137605,2117,"25534 RANCHO ESPIRITO LN",HOUSTON,TX,77356,"KATY CROSSING",,CONTRACTOR,,,,,,,,,,,"LENNAR HOMES",,,,,"LENNAR HOMES","550 GREENS PKWY",HOUSTON,TX,77067-4537,"(281) 875-1000",http://www.lennar.com/,,,
TX,HARRIS,2009270017,"Single Family Homes",10/16/2020,,124345,1913,"25538 RANCHO ESPIRITO LN",HOUSTON,TX,77356,"KATY CROSSING",,CONTRACTOR,,,,,,,,,,,"LENNAR HOMES",,,,,"LENNAR HOMES","550 GREENS PKWY",HOUSTON,TX,77067-4537,"(281) 875-1000",http://www.lennar.com/,,,
TX,HARRIS,2009140062,"Single Family Homes",10/16/2020,,142935,2199,"25526 RANCHO ESPIRITO LN",HOUSTON,TX,77356,"KATY CROSSING",,CONTRACTOR,,,,,,,,,,,"LENNAR HOMES",,,,,"LENNAR HOMES","550 GREENS PKWY",HOUSTON,TX,77067-4537,"(281) 875-1000",http://www.lennar.com/,,,
TX,HARRIS,2009140076,"Single Family Homes",10/16/2020,,179790,2766,"25530 RANCHO ESPIRITO LN",HOUSTON,TX,77356,"KATY CROSSING",,CONTRACTOR,,,,,,,,,,,"LENNAR HOMES",,,,,"LENNAR HOMES","550 GREENS PKWY",HOUSTON,TX,77067-4537,"(281) 875-1000",http://www.lennar.com/,,,
TX,HARRIS,2010050033,"Single Family Homes",10/16/2020,,667650,4451,"23642 SAVANNAH SPARROW LN",HOUSTON,TX,77356,ELYSON,,CONTRACTOR,,,,,,,,,,,"PERRY HOMES",,,,,"PERRY HOMES","9000 GULF FWY",HOUSTON,TX,77017-7018,"(713) 417-1396",,,,
TX,HARRIS,2010010147,"Single Family Homes",10/16/2020,,587700,3918,"23611 DOVETAIL MEADOW LN",HOUSTON,TX,77356,ELYSON,,CONTRACTOR,,,,,,,,,,,"PERRY HOMES",,,,,"PERRY HOMES","9000 GULF FWY",HOUSTON,TX,77017-7018,"(713) 417-1396",,,,
TX,HARRIS,2009280048,"Single Family Homes",10/16/2020,,274794,4187,"10131 SIERRA GRACE LN",HOUSTON,TX,77356,,,CONTRACTOR,,,,,,,,,,,"J PATRICK HOMES",,,,,"J PATRICK HOMES","9700 RICHMOND AVE STE 162",HOUSTON,TX,77042-4698,"(713) 789-8004",,,,
TX,HARRIS,2009280049,"Single Family Homes",10/16/2020,,290481,3578,"10127 SIERRA GRACE LN",HOUSTON,TX,77356,,,CONTRACTOR,,,,,,,,,,,"J PATRICK HOMES",,,,,"J PATRICK HOMES","9700 RICHMOND AVE STE 162",HOUSTON,TX,77042-4698,"(713) 789-8004",,,,
TX,HARRIS,2009170087,"Single Family Homes",10/16/2020,,1200000,15179,"11515 BAMMEL NORTH HOUSTON RD",HOUSTON,TX,77356,"WEST GREEN PLAZA",,"BADAT & PATEL LLC","11515 BAMMEL NORTH HOUSTON RD",HOUSTON,TX,77356,,Owner,,,,,OWNER,,,,,OWNER,,,,,,,,,
TX,HARRIS,2003240036,"Single Family Homes",10/15/2020,,276835,4259,"16414 ROSEMARY GROVE LN",HOUSTON,TX,77356,"HIDDEN ARBOR",,CONTRACTOR,,,,,,,,,,,"TRENDMAKER HOMES",,,,,"TRENDMAKER HOMES","16340 PARK TEN PL STE 250",HOUSTON,TX,77084-5144,"(281) 675-3200",,"(281) 675-3251","MARTIN EVANS",
TX,HARRIS,2008120030,"Single Family Homes",10/16/2020,,1000000,5147,"21044 BRIDGE CREEK TERRACE DR",HOUSTON,TX,77356,"BRIDGE CREEK",,"WLH COMMUNITIES TX","21044 BRIDGE CREEK TERRACE DR",HOUSTON,TX,77356,,Owner,,,,,OWNER,,,,,OWNER,,,,,,,,,
TX,HARRIS,2008240082,"Single Family Homes",10/16/2020,,259000,4155,"19315 GOODNIGHT PEAK TRL",HOUSTON,TX,77356,"BRIDGELAND PARKLAND VILLAGE",,CONTRACTOR,,,,,,,,,,,"WESTIN HOMES",,,,,"WESTIN HOMES","1 SUGAR CREEK CENTER BLVD STE 600","SUGAR LAND",TX,77478-3787,"(281) 240-1551",http://www.westin-homes.com,,,
TX,HARRIS,2008240080,"Single Family Homes",10/16/2020,,251000,3851,"19314 GOODNIGHT PEAK TRL",HOUSTON,TX,77356,,,CONTRACTOR,,,,,,,,,,,"WESTIN HOMES",,,,,"WESTIN HOMES","1 SUGAR CREEK CENTER BLVD STE 600","SUGAR LAND",TX,77478-3787,"(281) 240-1551",http://www.westin-homes.com,,,
TX,HARRIS,2007220150,"Single Family Homes",10/16/2020,,264000,3665,"19339 GOODNIGHT PEAK TRL",HOUSTON,TX,77356,"BRIDGELAND PARKLAND VILLAGE",,CONTRACTOR,,,,,,,,,,,"WESTIN HOMES",,,,,"WESTIN HOMES","1 SUGAR CREEK CENTER BLVD STE 600","SUGAR LAND",TX,77478-3787,"(281) 240-1551",http://www.westin-homes.com,,,
TX,HARRIS,2007220149,"Single Family Homes",10/16/2020,,259000,4155,"19331 GOODNIGHT PEAK TRL",HOUSTON,TX,77356,"BRIDGELAND PARKLAND VILLAGE",,CONTRACTOR,,,,,,,,,,,"WESTIN HOMES",,,,,"WESTIN HOMES","1 SUGAR CREEK CENTER BLVD STE 600","SUGAR LAND",TX,77478-3787,"(281) 240-1551",http://www.westin-homes.com,,,
TX,HARRIS,2008240078,"Single Family Homes",10/16/2020,,225000,3607,"19322 GOODNIGHT PEAK TRL",HOUSTON,TX,77356,"BRIDGELAND PARKLAND VILLAGE",,CONTRACTOR,,,,,,,,,,,"WESTIN HOMES",,,,,"WESTIN HOMES","1 SUGAR CREEK CENTER BLVD STE 600","SUGAR LAND",TX,77478-3787,"(281) 240-1551",http://www.westin-homes.com,,,
TX,HARRIS,2010030010,"Single Family Homes",10/16/2020,,400000,3799,"19319 GOODNIGHT PEAK TRL",HOUSTON,TX,77356,"BRIDGELAND PARKLAND VILLAGE",,CONTRACTOR,,,,,,,,,,,"RAVENNA HOMES",,,,,"RAVENNA HOMES","28902 POWDER RIDGE DR",KATY,TX,77494-1918,"(281) 693-7209",,,,
TX,HARRIS,2003120035,"Single Family Homes",10/16/2020,,75000,1351,"1026 FINESSE DR",HOUSTON,TX,77356,GATEWOOD,,CONTRACTOR,,,,,,,,,,,"LAS HACIENDAS DESIGN & ENGINEERING",,,,,"LAS HACIENDAS DESIGN & ENGINEERING","4212 NORTH FWY STE 1",HOUSTON,TX,77022-6225,"(281) 781-3643",http://hdeplans.com/,"(713) 699-1540","Jose Daniel Lira",jdlira@hdeplans.com
TX,HARRIS,2009160144,"Single Family Homes",10/16/2020,,30500,2500,"2955 S SAM HOUSTON PKWY E",HOUSTON,TX,77356,"GARZA COMMERCIAL CORNER",,"JOSE GARZA","2955 S SAM HOUSTON PKWY E",HOUSTON,TX,77356,,Owner,,,,,OWNER,,,,,OWNER,,,,,,,,,
TX,HARRIS,2010230170,"Single Family Homes",10/16/2020,,119210,1834,"5855 DRY BRUSH PL",HOUSTON,TX,77356,"KATY CROSSING",,CONTRACTOR,,,,,,,,,,,"LENNAR HOMES",,,,,"LENNAR HOMES","550 GREENS PKWY",HOUSTON,TX,77067-4537,"(281) 875-1000",http://www.lennar.com/,,,
TX,HARRIS,2009170068,"Single Family Homes",10/16/2020,,300000,4951,"4641 SHADOW GRASS DR",HOUSTON,TX,77356,"KATY LAKE ESTATES",,"RICARDO LOPEZ","4641 SHADOW GRASS DR",HOUSTON,TX,77356,,Owner,,,,,OWNER,,,,,OWNER,,,,,,,,,
TX,HARRIS,2010130046,"Single Family Homes",10/16/2020,,192700,1593,"5838 LONGHORN RUN LN",HOUSTON,TX,77356,"KATY CROSSING",,CONTRACTOR,,,,,,,,,,,"PULTE HOMES",,,,,"PULTE HOMES","16670 PARK ROW",HOUSTON,TX,77084-6866,"(281) 749-8000",,,,
TX,HARRIS,2010130045,"Single Family Homes",10/16/2020,,203380,2027,"5847 LONGHORN RUN LN",HOUSTON,TX,77356,"KATY CROSSING",,CONTRACTOR,,,,,,,,,,,"PULTE HOMES",,,,,"PULTE HOMES","16670 PARK ROW",HOUSTON,TX,77084-6866,"(281) 749-8000",,,,
TX,HARRIS,2010230171,"Single Family Homes",10/16/2020,,232050,2504,"5834 LONGHORN RUN LN",HOUSTON,TX,77356,"KATY CROSSING",,CONTRACTOR,,,,,,,,,,,"PULTE HOMES",,,,,"PULTE HOMES","16670 PARK ROW",HOUSTON,TX,77084-6866,"(281) 749-8000",,,,
TX,HARRIS,2010230169,"Single Family Homes",10/16/2020,,191050,1593,"5835 LONGHORN RUN LN",HOUSTON,TX,77356,"KATY CROSSING",,CONTRACTOR,,,,,,,,,,,"PULTE HOMES",,,,,"PULTE HOMES","16670 PARK ROW",HOUSTON,TX,77084-6866,"(281) 749-8000",,,,
TX,HARRIS,2010230173,"Single Family Homes",10/16/2020,,207030,1907,"5831 LONGHORN RUN LN",HOUSTON,TX,77356,"KATY CROSSING",,CONTRACTOR,,,,,,,,,,,"PULTE HOMES",,,,,"PULTE HOMES","16670 PARK ROW",HOUSTON,TX,77084-6866,"(281) 749-8000",,,,
TX,HARRIS,2010230172,"Single Family Homes",10/16/2020,,228080,2436,"5830 LONGHORN RUN LN",HOUSTON,TX,77356,"KATY CROSSING",,CONTRACTOR,,,,,,,,,,,"PULTE HOMES",,,,,"PULTE HOMES","16670 PARK ROW",HOUSTON,TX,77084-6866,"(281) 749-8000",,,,
TX,HARRIS,2010130047,"Single Family Homes",10/16/2020,,227420,2436,"5842 LONGHORN RUN LN",HOUSTON,TX,77356,"KATY CROSSING",,CONTRACTOR,,,,,,,,,,,"PULTE HOMES",,,,,"PULTE HOMES","16670 PARK ROW",HOUSTON,TX,77084-6866,"(281) 749-8000",,,,
TX,HARRIS,2010020021,"Single Family Homes",10/16/2020,,264000,4006,"15026 CAPITOL PEAK TRL",HOUSTON,TX,77356,"BRIDGELAND PARKLAND VILLAGE",,CONTRACTOR,,,,,,,,,,,"WESTIN HOMES",,,,,"WESTIN HOMES","1 SUGAR CREEK CENTER BLVD STE 600","SUGAR LAND",TX,77478-3787,"(281) 240-1551",http://www.westin-homes.com,,,
TX,HARRIS,2008250156,"Single Family Homes",10/16/2020,,170000,3416,"12718 MOSIELEE ST",HOUSTON,TX,77356,"HIGHLAND HOMES PLACE",,"IVAN DELGADO & ISALIA DELGADO","12718 MOSIELEE ST",HOUSTON,TX,77356,,Owner,,,,,OWNER,,,,,OWNER,,,,,,,,,
TX,HARRIS,2009300025,"Single Family Homes",10/16/2020,,330000,2800,"20819 BRAVE LEGION WAY",HOUSTON,TX,77356,"ALBURY TRAILS",,CONTRACTOR,,,,,,,,,,,"HARRISBURG HOMES",,,,,"HARRISBURG HOMES","21615 FIREMIST WAY",CYPRESS,TX,77433-3507,"(713) 249-8196",http://www.harrisburgtx.com/,,SHAWN,info@harrisburgtx.com
TX,HARRIS,2010050115,"Single Family Homes",10/16/2020,,150000,2305,"14602 MONTEREY CYPRESS DR",HOUSTON,TX,77356,"CYPRESS CREEK LANDING",,CONTRACTOR,,,,,,,,,,,"KB HOME",,,,,"KB HOME","11314 RICHMOND AVE",HOUSTON,TX,77082-2616,"(281) 668-3800",,,,
TX,HARRIS,2009250051,"Single Family Homes",10/16/2020,,228338,,"14 THORPE LN",HOUSTON,TX,77356,"HARPER WOODS",,CONTRACTOR,,,,,,,,,,,"SULLIVAN BROTHERS BUILDERS",,,,,"SULLIVAN BROTHERS BUILDERS","8600 HEMPSTEAD RD",HOUSTON,TX,77008-6014,"(832) 431-4204",,,,
TX,HARRIS,2010060061,"Single Family Homes",10/16/2020,,71200,3360,"13634 E PALOMINO LAKE CIR",HOUSTON,TX,77356,BRIDLECREEK,,CONTRACTOR,,,,,,,,,,,"MHI MCGUYER HOMEBUILDERS",,,,,"MHI MCGUYER HOMEBUILDERS","7676 WOODWAY DR",HOUSTON,TX,77063-1526,"(713) 260-4107",,,,
TX,HARRIS,2009240099,"Single Family Homes",10/16/2020,,178025,2733,"23302 IVORY SEDGE TRL",HOUSTON,TX,77356,ELYSON,,CONTRACTOR,,,,,,,,,,,"CHESMAR HOMES",,,,,"CHESMAR HOMES","450 GEARS RD STE 400",HOUSTON,TX,77067-4513,"(281) 598-1111",http://chesmar.com,"(281) 598-1115",,customerservice.houston@chesmar.com
TX,HARRIS,2009240104,"Single Family Homes",10/16/2020,,151296,2247,"7019 HOUSE WREN CT",HOUSTON,TX,77356,ELYSON,,CONTRACTOR,,,,,,,,,,,"CHESMAR HOMES",,,,,"CHESMAR HOMES","450 GEARS RD STE 400",HOUSTON,TX,77067-4513,"(281) 598-1111",http://chesmar.com,"(281) 598-1115",,customerservice.houston@chesmar.com
TX,HARRIS,2009290117,"Single Family Homes",10/16/2020,,146450,1994,"7039 CONEFLOWER CREEK CT",HOUSTON,TX,77356,ELYSON,,CONTRACTOR,,,,,,,,,,,"BRITTANY DEVELOPMENT",,,,,"BRITTANY DEVELOPMENT","19006 ADRIAN WAY",JONESTOWN,TX,78645-9664,"(512) 826-7590",,,,
TX,HARRIS,2009290120,"Single Family Homes",10/16/2020,,131634,1702,"7043 CONEFLOWER CREEK CT",HOUSTON,TX,77356,ELYSON,,CONTRACTOR,,,,,,,,,,,"CHESMAR HOMES",,,,,"CHESMAR HOMES","450 GEARS RD STE 400",HOUSTON,TX,77067-4513,"(281) 598-1111",http://chesmar.com,"(281) 598-1115",,customerservice.houston@chesmar.com
TX,HARRIS,2010020168,"Single Family Homes",10/16/2020,,178617,2733,"23203 IVORY SEDGE TRL",HOUSTON,TX,77356,ELYSON,,CONTRACTOR,,,,,,,,,,,"CHESMAR HOMES",,,,,"CHESMAR HOMES","450 GEARS RD STE 400",HOUSTON,TX,77067-4513,"(281) 598-1111",http://chesmar.com,"(281) 598-1115",,customerservice.houston@chesmar.com
TX,HARRIS,2010020171,"Single Family Homes",10/16/2020,,145476,1957,"7034 CONEFLOWER CREEK CT",HOUSTON,TX,77356,ELYSON,,CONTRACTOR,,,,,,,,,,,"CHESMAR HOMES",,,,,"CHESMAR HOMES","450 GEARS RD STE 400",HOUSTON,TX,77067-4513,"(281) 598-1111",http://chesmar.com,"(281) 598-1115",,customerservice.houston@chesmar.com
TX,HARRIS,2010020173,"Single Family Homes",10/16/2020,,148446,1702,"7030 CONEFLOWER CREEK CT",HOUSTON,TX,77356,ELYSON,,CONTRACTOR,,,,,,,,,,,"CHESMAR HOMES",,,,,"CHESMAR HOMES","450 GEARS RD STE 400",HOUSTON,TX,77067-4513,"(281) 598-1111",http://chesmar.com,"(281) 598-1115",,customerservice.houston@chesmar.com
TX,HARRIS,2007220021,"Single Family Homes",10/16/2020,,140000,2100,"11215 HOLLEY CT",HOUSTON,TX,77356,"LINCOLN PARK FARMS",,"RAMON PEREZ","11215 HOLLEY CT",HOUSTON,TX,77356,,Owner,,,,,OWNER,,,,,OWNER,,,,,,,,,
TX,HARRIS,2010090072,"Single Family Homes",10/16/2020,,105400,1623,"11815 KNOCKDRIN DR",HOUSTON,TX,77356,BALMORAL,,CONTRACTOR,,,,,,,,,,,"LENNAR HOMES",,,,,"LENNAR HOMES","550 GREENS PKWY",HOUSTON,TX,77067-4537,"(281) 875-1000",http://www.lennar.com/,,,
TX,HARRIS,2010090074,"Single Family Homes",10/16/2020,,96900,1492,"11811 KNOCKDRIN DR",HOUSTON,TX,77356,BALMORAL,,CONTRACTOR,,,,,,,,,,,"LENNAR HOMES",,,,,"LENNAR HOMES","550 GREENS PKWY",HOUSTON,TX,77067-4537,"(281) 875-1000",http://www.lennar.com/,,,
TX,HARRIS,2010090076,"Single Family Homes",10/16/2020,,105400,1623,"11807 KNOCKDRIN DR",HOUSTON,TX,77356,BALMORAL,,CONTRACTOR,,,,,,,,,,,"LENNAR HOMES",,,,,"LENNAR HOMES","550 GREENS PKWY",HOUSTON,TX,77067-4537,"(281) 875-1000",http://www.lennar.com/,,,
TX,HARRIS,2010090080,"Single Family Homes",10/16/2020,,96900,1492,"11803 KNOCKDRIN DR",HOUSTON,TX,77356,BALMORAL,,CONTRACTOR,,,,,,,,,,,"LENNAR HOMES",,,,,"LENNAR HOMES","550 GREENS PKWY",HOUSTON,TX,77067-4537,"(281) 875-1000",http://www.lennar.com/,,,
TX,HARRIS,2010090096,"Single Family Homes",10/16/2020,,105400,1623,"15819 ROCKFLEET DR",HOUSTON,TX,77356,BALMORAL,,CONTRACTOR,,,,,,,,,,,"LENNAR HOMES",,,,,"LENNAR HOMES","550 GREENS PKWY",HOUSTON,TX,77067-4537,"(281) 875-1000",http://www.lennar.com/,,,
TX,HARRIS,2010090106,"Single Family Homes",10/16/2020,,105400,1623,"15811 ROCKFLEET DR",HOUSTON,TX,77356,,,CONTRACTOR,,,,,,,,,,,"LENNAR HOMES",,,,,"LENNAR HOMES","550 GREENS PKWY",HOUSTON,TX,77067-4537,"(281) 875-1000",http://www.lennar.com/,,,
TX,HARRIS,2009290059,"Single Family Homes",10/16/2020,,131985,2742,"4814 TUSCANY FARM DR",HOUSTON,TX,77356,"VENTANA LAKES",,CONTRACTOR,,,,,,,,,,,"DR HORTON",,,,,"DR HORTON","14100 SOUTHWEST",HOUSTON,TX,77478,"(281) 201-5559",,,,
TX,HARRIS,2010050110,"Single Family Homes",10/16/2020,,131279,2738,"6339 PRAIRIE LANDING BLVD",HOUSTON,TX,77356,ELYSON,,CONTRACTOR,,,,,,,,,,,"TAYLOR MORRISON OF TEXAS",,,,,"TAYLOR MORRISON OF TEXAS","5353 W SAM HOUSTON PKWY N STE 190",HOUSTON,TX,77041-5186,"(281) 598-3000",,,,
TX,BRAZORIA,RES20-01542,"Single Family Homes",10/22/2020,,,2012,"2112 PERALTA CHASE WAY",PEARLAND,TX,77089,,,CONTRACTOR,,,,,,,,,,,"MERITAGE HOMES",,,,,"MERITAGE HOMES","2901 W SAM HOUSTON PKWY N",HOUSTON,TX,77043-1630,"(713) 357-1184",,,,
TX,BRAZORIA,RES20-01858,"Single Family Homes",10/22/2020,,,2917,"1927 AUBURN WILLOW LN",PEARLAND,TX,77089,,,CONTRACTOR,,,,,,,,,,,"MERITAGE HOMES",,,,,"MERITAGE HOMES","2901 W SAM HOUSTON PKWY N",HOUSTON,TX,77043-1630,"(713) 357-1184",,,,
TX,BRAZORIA,RES20-01967,"Single Family Homes",10/22/2020,,,2461,"4806 ALBANY RIDGE LN",PEARLAND,TX,77583,,,CONTRACTOR,,,,,,,,,,,"LENNAR HOMES",,,,,"LENNAR HOMES","550 GREENS PKWY",HOUSTON,TX,77067-4537,"(281) 875-1000",http://www.lennar.com/,,,
TX,BRAZORIA,RES20-02022,"Single Family Homes",10/22/2020,,,2844,"1820 HARTFORD SPRINGS TRL",PEARLAND,TX,77089,,,CONTRACTOR,,,,,,,,,,,"MERITAGE HOMES",,,,,"MERITAGE HOMES","2901 W SAM HOUSTON PKWY N",HOUSTON,TX,77043-1630,"(713) 357-1184",,,,
TX,BRAZORIA,RES20-02023,"Single Family Homes",10/22/2020,,,2844,"1829 KINGSFORD PRAIRIE CT",PEARLAND,TX,77089,,,CONTRACTOR,,,,,,,,,,,"MERITAGE HOMES",,,,,"MERITAGE HOMES","2901 W SAM HOUSTON PKWY N",HOUSTON,TX,77043-1630,"(713) 357-1184",,,,
TX,BRAZORIA,RES20-02024,"Single Family Homes",10/22/2020,,,2844,"2720 GEORGINA ROSE WAY",PEARLAND,TX,77089,,,CONTRACTOR,,,,,,,,,,,"MERITAGE HOMES",,,,,"MERITAGE HOMES","2901 W SAM HOUSTON PKWY N",HOUSTON,TX,77043-1630,"(713) 357-1184",,,,
TX,BRAZORIA,RES20-02025,"Single Family Homes",10/22/2020,,,2812,"1831 KINGSFORD PRAIRIE CT",PEARLAND,TX,77089,,,CONTRACTOR,,,,,,,,,,,"MERITAGE HOMES",,,,,"MERITAGE HOMES","2901 W SAM HOUSTON PKWY N",HOUSTON,TX,77043-1630,"(713) 357-1184",,,,
TX,BRAZORIA,RES20-02073,"Single Family Homes",10/22/2020,,,2304,"4442 ORONO SUMMIT TRL",PEARLAND,TX,77583,,,CONTRACTOR,,,,,,,,,,,"LENNAR HOMES",,,,,"LENNAR HOMES","550 GREENS PKWY",HOUSTON,TX,77067-4537,"(281) 875-1000",http://www.lennar.com/,,,
TX,BRAZORIA,RES20-02050,"Single Family Homes",10/23/2020,,,2487,"4632 FISHER DR",PEARLAND,TX,77584,,,CONTRACTOR,,,,,,,,,,,"GEHAN HOMES",,,,,"GEHAN HOMES","2050 W SAM HOUSTON PKWY S",HOUSTON,TX,77042-2079,"(713) 243-3545",http://www.gehanhomes.com,,,
TX,BRAZORIA,RES20-00447,"Single Family Homes",10/26/2020,,,1237,"2547 S AUSTIN AVE",PEARLAND,TX,77581,,,CONTRACTOR,,,,,,,,,,,"JW TURNER CONSTRUCTION",,,,,"JW TURNER CONSTRUCTION","14215 MARY JANE LN",TOMBALL,TX,77377-6356,"(281) 290-9011",,,,
TX,BRAZORIA,RES20-01862,"Single Family Homes",10/26/2020,,,2699,"2105 PERALTA CHASE WAY",PEARLAND,TX,77089,,,CONTRACTOR,,,,,,,,,,,"MERITAGE HOMES",,,,,"MERITAGE HOMES","2901 W SAM HOUSTON PKWY N",HOUSTON,TX,77043-1630,"(713) 357-1184",,,,
TX,BRAZORIA,RES20-01969,"Single Family Homes",10/26/2020,,,1622,"5923 PEARLAND PL",PEARLAND,TX,77581,,,CONTRACTOR,,,,,,,,,,,"MERITAGE HOMES",,,,,"MERITAGE HOMES","2901 W SAM HOUSTON PKWY N",HOUSTON,TX,77043-1630,"(713) 357-1184",,,,
TX,BRAZORIA,RES20-02017,"Single Family Homes",10/26/2020,,,2418,"14022 LAGO CREEK CT",PEARLAND,TX,77583,,,CONTRACTOR,,,,,,,,,,,"CASTLEROCK COMMUNITIES",,,,,"CASTLEROCK COMMUNITIES","7670 WOODWAY DR STE 300",HOUSTON,TX,77063-1520,"(713) 600-7000",http://c-rock.com,"(713) 600-0000",,
TX,BRAZORIA,RES20-02032,"Single Family Homes",10/26/2020,,,1857,"14018 LAGO CREEK CT",PEARLAND,TX,77583,,,CONTRACTOR,,,,,,,,,,,"CASTLEROCK COMMUNITIES",,,,,"CASTLEROCK COMMUNITIES","7670 WOODWAY DR STE 300",HOUSTON,TX,77063-1520,"(713) 600-7000",http://c-rock.com,"(713) 600-0000",,
TX,BRAZORIA,RES20-02033,"Single Family Homes",10/26/2020,,,2418,"4737 SUMMER PLUMTREE TRCE",PEARLAND,TX,77583,,,CONTRACTOR,,,,,,,,,,,"CASTLEROCK COMMUNITIES",,,,,"CASTLEROCK COMMUNITIES","7670 WOODWAY DR STE 300",HOUSTON,TX,77063-1520,"(713) 600-7000",http://c-rock.com,"(713) 600-0000",,
TX,BRAZORIA,RES20-02076,"Single Family Homes",10/26/2020,,,2655,"3608 JASPERSTONE LN",PEARLAND,TX,77581,,,CONTRACTOR,,,,,,,,,,,"GEHAN HOMES",,,,,"GEHAN HOMES","2050 W SAM HOUSTON PKWY S",HOUSTON,TX,77042-2079,"(713) 243-3545",http://www.gehanhomes.com,,,
TX,BRAZORIA,RES20-01174,"Single Family Homes",10/27/2020,,,3133,"2027 CLEARWATER GROVE LN",PEARLAND,TX,77089,,,CONTRACTOR,,,,,,,,,,,"MERITAGE HOMES",,,,,"MERITAGE HOMES","2901 W SAM HOUSTON PKWY N",HOUSTON,TX,77043-1630,"(713) 357-1184",,,,
TX,BRAZORIA,RES20-01539,"Single Family Homes",10/27/2020,,,2844,"2715 FAIRFIELD LANDING LN",PEARLAND,TX,77089,,,CONTRACTOR,,,,,,,,,,,"MERITAGE HOMES",,,,,"MERITAGE HOMES","2901 W SAM HOUSTON PKWY N",HOUSTON,TX,77043-1630,"(713) 357-1184",,,,
TX,BRAZORIA,RES20-01977,"Single Family Homes",10/27/2020,,,2271,"1825 KINGSFORD PRAIRIE CT",PEARLAND,TX,77089,,,CONTRACTOR,,,,,,,,,,,"MERITAGE HOMES",,,,,"MERITAGE HOMES","2901 W SAM HOUSTON PKWY N",HOUSTON,TX,77043-1630,"(713) 357-1184",,,,
TX,BRAZORIA,RES20-02071,"Single Family Homes",10/27/2020,,,2299,"4814 ALBANY RIDGE LN",PEARLAND,TX,77583,,,CONTRACTOR,,,,,,,,,,,"LENNAR HOMES",,,,,"LENNAR HOMES","550 GREENS PKWY",HOUSTON,TX,77067-4537,"(281) 875-1000",http://www.lennar.com/,,,
TX,BRAZORIA,RES20-02072,"Single Family Homes",10/27/2020,,,2304,"13526 ITHACA CRESENT LN",PEARLAND,TX,77089,,,CONTRACTOR,,,,,,,,,,,"LENNAR HOMES",,,,,"LENNAR HOMES","550 GREENS PKWY",HOUSTON,TX,77067-4537,"(281) 875-1000",http://www.lennar.com/,,,
TX,BRAZORIA,RES20-02080,"Single Family Homes",10/27/2020,,,1774,"13517 ITHACA CRESENT LN",PEARLAND,TX,77089,,,CONTRACTOR,,,,,,,,,,,"LENNAR HOMES",,,,,"LENNAR HOMES","550 GREENS PKWY",HOUSTON,TX,77067-4537,"(281) 875-1000",http://www.lennar.com/,,,
TX,BRAZORIA,RES20-02081,"Single Family Homes",10/27/2020,,,2473,"13918 HARTFORD HEIGHTS WAY",PEARLAND,TX,77583,,,CONTRACTOR,,,,,,,,,,,"LENNAR HOMES",,,,,"LENNAR HOMES","550 GREENS PKWY",HOUSTON,TX,77067-4537,"(281) 875-1000",http://www.lennar.com/,,,
TX,BRAZORIA,RES20-02084,"Single Family Homes",10/27/2020,,,2332,"4401 ORONO SUMMIT TRL",PEARLAND,TX,77583,,,CONTRACTOR,,,,,,,,,,,"LENNAR HOMES",,,,,"LENNAR HOMES","550 GREENS PKWY",HOUSTON,TX,77067-4537,"(281) 875-1000",http://www.lennar.com/,,,
TX,BRAZORIA,RES20-01990,"Single Family Homes",10/28/2020,,,2558,"6116 TOMORROW CIR",PEARLAND,TX,77584,,,CONTRACTOR,,,,,,,,,,,"ANGLIA HOMES",,,,,"ANGLIA HOMES","17510 RED OAK DR",HOUSTON,TX,77090,"(281) 943-5288",http://www.angliahomeslp.com/,,,
TX,BRAZORIA,RES20-02096,"Single Family Homes",10/28/2020,,,2099,"14118 HARTFORD HEIGHTS WAY",PEARLAND,TX,77583,,,CONTRACTOR,,,,,,,,,,,"CASTLEROCK COMMUNITIES",,,,,"CASTLEROCK COMMUNITIES","7670 WOODWAY DR STE 300",HOUSTON,TX,77063-1520,"(713) 600-7000",http://c-rock.com,"(713) 600-0000",,
TX,BRAZORIA,RES20-02123,"Single Family Homes",10/28/2020,,,1774,"4445 ORONO SUMMIT TRL",PEARLAND,TX,77583,,,CONTRACTOR,,,,,,,,,,,"LENNAR HOMES",,,,,"LENNAR HOMES","550 GREENS PKWY",HOUSTON,TX,77067-4537,"(281) 875-1000",http://www.lennar.com/,,,
TX,BRAZORIA,RES20-01613,"Single Family Homes",10/29/2020,,,2844,"1805 KINGSFORD PRAIRIE CT",PEARLAND,TX,77089,,,CONTRACTOR,,,,,,,,,,,"MERITAGE HOMES",,,,,"MERITAGE HOMES","2901 W SAM HOUSTON PKWY N",HOUSTON,TX,77043-1630,"(713) 357-1184",,,,
TX,BRAZORIA,RES20-02140,"Single Family Homes",10/29/2020,,,1477,"2712 GEORGINA ROSE WAY",PEARLAND,TX,77089,,,CONTRACTOR,,,,,,,,,,,"MERITAGE HOMES",,,,,"MERITAGE HOMES","2901 W SAM HOUSTON PKWY N",HOUSTON,TX,77043-1630,"(713) 357-1184",,,,
TX,BRAZORIA,RES20-02078,"Single Family Homes",10/30/2020,,,2860,"3619 JASPERSTONE LN",PEARLAND,TX,77581,,,CONTRACTOR,,,,,,,,,,,"GEHAN HOMES",,,,,"GEHAN HOMES","2050 W SAM HOUSTON PKWY S",HOUSTON,TX,77042-2079,"(713) 243-3545",http://www.gehanhomes.com,,,
TX,BRAZORIA,RES20-00960,"Single Family Homes",10/12/2020,,,1064,"5726 CANTU ST",PEARLAND,TX,77584,,,CONTRACTOR,,,,,,,,,,,"JW TURNER CONSTRUCTION",,,,,"JW TURNER CONSTRUCTION","14215 MARY JANE LN",TOMBALL,TX,77377-6356,"(281) 290-9011",,,,
TX,BRAZORIA,RES19-00371,"Single Family Homes",10/19/2020,,,24579,"1458 STONE RD",PEARLAND,TX,77581,,,CONTRACTOR,,,,,,,,,,,"GUERRA GROUP",,,,,"GUERRA GROUP","114 SPOKANE ST",PEARLAND,TX,77904,"(361) 576-5917",,,,
TX,BRAZORIA,RES20-01889,"Single Family Homes",10/13/2020,,,1477,"1828 KINGSFORD PRAIRIE CT",PEARLAND,TX,77089,,,CONTRACTOR,,,,,,,,,,,"MERITAGE HOMES",,,,,"MERITAGE HOMES","2901 W SAM HOUSTON PKWY N",HOUSTON,TX,77043-1630,"(713) 357-1184",,,,
TX,HARRIS,2010100008,"Single Family Homes",10/16/2020,,219862,2585,"9131 ESKESEN DR",HOUSTON,TX,77356,"BRIDGE CREEK",,CONTRACTOR,,,,,,,,,,,"TAYLOR MORRISON OF TEXAS",,,,,"TAYLOR MORRISON OF TEXAS","5353 W SAM HOUSTON PKWY N STE 190",HOUSTON,TX,77041-5186,"(281) 598-3000",,,,
TX,HARRIS,2010100009,"Single Family Homes",10/15/2020,,226301,2851,"15611 PORCUPINE LN",HOUSTON,TX,77356,"BRIDGELAND PARKLAND VILLAGE",,CONTRACTOR,,,,,,,,,,,"TAYLOR MORRISON OF TEXAS",,,,,"TAYLOR MORRISON OF TEXAS","5353 W SAM HOUSTON PKWY N STE 190",HOUSTON,TX,77041-5186,"(281) 598-3000",,,,
TX,HARRIS,2010040002,"Single Family Homes",10/16/2020,,207842,4367,"13514 WEDGEWOOD THICKET WAY",HOUSTON,TX,77356,"ALDEN WOODS",,CONTRACTOR,,,,,,,,,,,"TAYLOR MORRISON OF TEXAS",,,,,"TAYLOR MORRISON OF TEXAS","5353 W SAM HOUSTON PKWY N STE 190",HOUSTON,TX,77041-5186,"(281) 598-3000",,,,
TX,HARRIS,2010020068,"Single Family Homes",10/16/2020,,110000,2213,"18906 TRANQUILITY DR",HOUSTON,TX,77356,,,"CLIFFORD ARRINGTON","18906 TRANQUILITY DR",HOUSTON,TX,77356,,Owner,,,,,OWNER,,,,,OWNER,,,,,,,,,
TX,HARRIS,2009300039,"Single Family Homes",10/16/2020,,69255,1970,"24318 ROSSI GARDENS CIR",HOUSTON,TX,77356,"TREVISO GARDENS",,CONTRACTOR,,,,,,,,,,,"CAMILLO PROPERTIES",,,,,"CAMILLO PROPERTIES","6707 GESSNER RD",HOUSTON,TX,77040-4017,"(832) 500-0284",http://www.camillorentalhomes.com/,"(281) 325-0245",,
TX,HARRIS,2010050148,"Single Family Homes",10/16/2020,,84150,2297,"24310 ROSSI GARDENS CIR",HOUSTON,TX,7356,"TREVISO GARDENS",,CONTRACTOR,,,,,,,,,,,"CAMILLO PROPERTIES",,,,,"CAMILLO PROPERTIES","6707 GESSNER RD",HOUSTON,TX,77040-4017,"(832) 500-0284",http://www.camillorentalhomes.com/,"(281) 325-0245",,
TX,HARRIS,2010090134,"Single Family Homes",10/16/2020,,91755,2431,"24438 VERATTI LN",HOUSTON,TX,77356,"TREVISO GARDENS",,CONTRACTOR,,,,,,,,,,,"CAMILLO PROPERTIES",,,,,"CAMILLO PROPERTIES","6707 GESSNER RD",HOUSTON,TX,77040-4017,"(832) 500-0284",http://www.camillorentalhomes.com/,"(281) 325-0245",,
TX,HARRIS,2010090138,"Single Family Homes",10/16/2020,,71505,1994,"24434 VERATTI LN",HOUSTON,TX,77356,"TREVISO GARDENS",,CONTRACTOR,,,,,,,,,,,"CAMILLO PROPERTIES",,,,,"CAMILLO PROPERTIES","6707 GESSNER RD",HOUSTON,TX,77040-4017,"(832) 500-0284",http://www.camillorentalhomes.com/,"(281) 325-0245",,
TX,HARRIS,2010090139,"Single Family Homes",10/16/2020,,84150,2297,"24430 VERATTI LN",HOUSTON,TX,77356,"TREVISO GARDENS",,CONTRACTOR,,,,,,,,,,,"CAMILLO PROPERTIES",,,,,"CAMILLO PROPERTIES","6707 GESSNER RD",HOUSTON,TX,77040-4017,"(832) 500-0284",http://www.camillorentalhomes.com/,"(281) 325-0245",,
TX,HARRIS,2010090141,"Single Family Homes",10/16/2020,,58815,1717,"24426 VERATTI LN",HOUSTON,TX,77356,"TREVISO GARDENS",,CONTRACTOR,,,,,,,,,,,"CAMILLO PROPERTIES",,,,,"CAMILLO PROPERTIES","6707 GESSNER RD",HOUSTON,TX,77040-4017,"(832) 500-0284",http://www.camillorentalhomes.com/,"(281) 325-0245",,
TX,HARRIS,2010090142,"Single Family Homes",10/15/2020,,91755,2431,"24422 VERATTI LN",HOUSTON,TX,77356,"TREVISO GARDENS",,CONTRACTOR,,,,,,,,,,,"CAMILLO PROPERTIES",,,,,"CAMILLO PROPERTIES","6707 GESSNER RD",HOUSTON,TX,77040-4017,"(832) 500-0284",http://www.camillorentalhomes.com/,"(281) 325-0245",,
TX,HARRIS,2010090145,"Single Family Homes",10/16/2020,,63315,1811,"24418 VERATTI LN",HOUSTON,TX,77356,"TREVISO GARDENS",,CONTRACTOR,,,,,,,,,,,"CAMILLO PROPERTIES",,,,,"CAMILLO PROPERTIES","6707 GESSNER RD",HOUSTON,TX,77040-4017,"(832) 500-0284",http://www.camillorentalhomes.com/,"(281) 325-0245",,
TX,HARRIS,2010090147,"Single Family Homes",10/16/2020,,71505,1994,"24414 VERATTI LN",HOUSTON,TX,77356,,,CONTRACTOR,,,,,,,,,,,"CAMILLO PROPERTIES",,,,,"CAMILLO PROPERTIES","6707 GESSNER RD",HOUSTON,TX,77040-4017,"(832) 500-0284",http://www.camillorentalhomes.com/,"(281) 325-0245",,
TX,HARRIS,2008280164,"Single Family Homes",10/15/2020,,148995,4257,"19206 HERRING GULL CT",HOUSTON,TX,77356,"BRIDGELAND PARKLAND VILLAGE",,CONTRACTOR,,,,,,,,,,,"DAVID WEEKLEY HOMES",,,,,"DAVID WEEKLEY HOMES","14444 NORTHWEST",HOUSTON,TX,77040,"(713) 570-5021",http://www.davidweekleyhomes.com/,,,
TX,HARRIS,2010090035,"Single Family Homes",10/16/2020,,301000,2000,"15647 ROSCOBIE PARK DR",HOUSTON,TX,77356,BALMORAL,,CONTRACTOR,,,,,,,,,,,"HIGHLAND HOMES",,,,,"HIGHLAND HOMES","10930 W SAM HOUSTON PKWY N STE 100",HOUSTON,TX,77064-6331,"(281) 517-9800",,,,
TX,HARRIS,2009150113,"Single Family Homes",10/16/2020,,225000,4031,"1517 NEWPORT COUNTRY CLUB",HOUSTON,TX,77356,NEWPORT,,CONTRACTOR,,,,,,,,,,,"DH HOMES",,,,,"DH HOMES","102 COUNTRY CROSING CIR",MAGNOLIA,TX,77354-3511,"(713) 570-6840",,,,
TX,HARRIS,2010080030,"Single Family Homes",10/16/2020,,225000,3618,"15722 DEESIDE SPRING DR",HOUSTON,TX,77356,BALMORAL,,CONTRACTOR,,,,,,,,,,,"WESTIN HOMES",,,,,"WESTIN HOMES","1 SUGAR CREEK CENTER BLVD STE 600","SUGAR LAND",TX,77478-3787,"(281) 240-1551",http://www.westin-homes.com,,,
TX,HARRIS,2010080032,"Single Family Homes",10/16/2020,,225000,3616,"12615 PINE SAVANNAH LN",HOUSTON,TX,77356,GROVES,,CONTRACTOR,,,,,,,,,,,"WESTIN HOMES",,,,,"WESTIN HOMES","1 SUGAR CREEK CENTER BLVD STE 600","SUGAR LAND",TX,77478-3787,"(281) 240-1551",http://www.westin-homes.com,,,
TX,HARRIS,2009240057,"Single Family Homes",10/16/2020,,324225,2882,"20011 WILD HORSE HOLLOW LN",HOUSTON,TX,77356,AMIRA,,CONTRACTOR,,,,,,,,,,,"PERRY HOMES",,,,,"PERRY HOMES","9000 GULF FWY",HOUSTON,TX,77017-7018,"(713) 417-1396",,,,
TX,HARRIS,2010120041,"Single Family Homes",10/16/2020,,121640,3041,"19022 COURSER FIELD CT",HOUSTON,TX,77356,AMIRA,,CONTRACTOR,,,,,,,,,,,"BEAZER HOMES ",,,,,"BEAZER HOMES ","10235 W LITTLE YORK",HOUSTON,TX,77040,"(713) 849-2252",http://www.beazer.com/,,,
TX,HARRIS,2010080042,"Single Family Homes",10/16/2020,,165000,2640,"24406 ARGONNE FOREST DR",HOUSTON,TX,77356,"KATY LAKES",,CONTRACTOR,,,,,,,,,,,"GEHAN HOMES",,,,,"GEHAN HOMES","2050 W SAM HOUSTON PKWY S",HOUSTON,TX,77042-2079,"(713) 243-3545",http://www.gehanhomes.com,,,
TX,HARRIS,2010080041,"Single Family Homes",10/16/2020,,170000,2640,"24406 SKYTRAIL DR",HOUSTON,TX,77356,"KATY LAKES",,CONTRACTOR,,,,,,,,,,,"GEHAN HOMES",,,,,"GEHAN HOMES","2050 W SAM HOUSTON PKWY S",HOUSTON,TX,77042-2079,"(713) 243-3545",http://www.gehanhomes.com,,,
TX,HARRIS,2010080047,"Single Family Homes",10/16/2020,,117000,1750,"15431 FORMASTON DR",HOUSTON,TX,77356,BALMORAL,,CONTRACTOR,,,,,,,,,,,"GEHAN HOMES",,,,,"GEHAN HOMES","2050 W SAM HOUSTON PKWY S",HOUSTON,TX,77042-2079,"(713) 243-3545",http://www.gehanhomes.com,,,
TX,HARRIS,2010080045,"Single Family Homes",10/16/2020,,114000,1990,"12635 GALLOWHILL DR",HOUSTON,TX,77356,BALMORAL,,CONTRACTOR,,,,,,,,,,,"GEHAN HOMES",,,,,"GEHAN HOMES","2050 W SAM HOUSTON PKWY S",HOUSTON,TX,77042-2079,"(713) 243-3545",http://www.gehanhomes.com,,,
TX,HARRIS,2010020111,"Single Family Homes",10/16/2020,,149500,2940,"15426 FALKIRK GREEN DR",HOUSTON,TX,77356,BALMORAL,,CONTRACTOR,,,,,,,,,,,"GEHAN HOMES",,,,,"GEHAN HOMES","2050 W SAM HOUSTON PKWY S",HOUSTON,TX,77042-2079,"(713) 243-3545",http://www.gehanhomes.com,,,
TX,HARRIS,2010060134,"Single Family Homes",10/16/2020,,173810,2870,"13606 GIANT PANDA BEAR AVE",HOUSTON,TX,77356,"KODIAK CROSSING",,CONTRACTOR,,,,,,,,,,,"K HOVNANIAN HOMES",,,,,"K HOVNANIAN HOMES","13111 NORTHWEST FWY STE 200",HOUSTON,TX,77040-6311,"(713) 460-0264",,,,
TX,HARRIS,2010080048,"Single Family Homes",10/16/2020,,187110,3063,"12434 BEDFORD BEND DR",HOUSTON,TX,77356,BALMORAL,,CONTRACTOR,,,,,,,,,,,"K HOVNANIAN HOMES",,,,,"K HOVNANIAN HOMES","13111 NORTHWEST FWY STE 200",HOUSTON,TX,77040-6311,"(713) 460-0264",,,,
TX,HARRIS,2010110002,"Single Family Homes",10/16/2020,,148850,2290,"17231 BAINHAM FOREST TRL",HOUSTON,TX,77356,DELLROSE,,CONTRACTOR,,,,,,,,,,,"LENNAR HOMES",,,,,"LENNAR HOMES","550 GREENS PKWY",HOUSTON,TX,77067-4537,"(281) 875-1000",http://www.lennar.com/,,,
TX,HARRIS,2010110007,"Single Family Homes",10/16/2020,,267555,3947,"19907 ALEGRES WAY",HOUSTON,TX,77356,"VISTAS OF KLEIN LAKE",,CONTRACTOR,,,,,,,,,,,"VILLAGE BUILDERS",,,,,"VILLAGE BUILDERS","550 GREENS PKWY STE 210",HOUSTON,TX,77067-4538,"(281) 873-4663",,,,
TX,HARRIS,2008190106,"Single Family Homes",10/16/2020,,78744,,"9403 THREE STONE LN",HOUSTON,TX,77356,"INVERNESS ESTATES",,"JAVIER DELEON","9403 THREE STONE LN",HOUSTON,TX,77356,,Owner,,,,,OWNER,,,,,OWNER,,,,,,,,,
TX,HARRIS,2010080108,"Single Family Homes",10/16/2020,,133110,2958,"25610 PINYON HILL TRL",HOUSTON,TX,77356,"FAIRWAY FARMS",,CONTRACTOR,,,,,,,,,,,"DR HORTON",,,,,"DR HORTON","14100 SOUTHWEST",HOUSTON,TX,77478,"(281) 201-5559",,,,
TX,HARRIS,2010070113,"Single Family Homes",10/16/2020,,305890,4706,"31619 LILAC TERRACE LN",HOUSTON,TX,77356,"STONE CREEK RANCH",,CONTRACTOR,,,,,,,,,,,"CASTLEROCK COMMUNITIES",,,,,"CASTLEROCK COMMUNITIES","7670 WOODWAY DR STE 300",HOUSTON,TX,77063-1520,"(713) 600-7000",http://c-rock.com,"(713) 600-0000",,
TX,HARRIS,2010120091,"Single Family Homes",10/16/2020,,187300,3636,"8903 SQUARE VIEW LN",HOUSTON,TX,77356,"LAKES AT CREEKSIDE",,CONTRACTOR,,,,,,,,,,,"TOLL BROTHERS",,,,,"TOLL BROTHERS","10110 W SAM HOUSTON PKWY N STE 350",HOUSTON,TX,77064-7508,"(281) 664-7255",,,,
TX,HARRIS,2010070015,"Single Family Homes",10/16/2020,,150370,2734,"12514 BEDFORD BEND DR",HOUSTON,TX,77356,BALMORAL,,CONTRACTOR,,,,,,,,,,,"CASTLEROCK COMMUNITIES",,,,,"CASTLEROCK COMMUNITIES","7670 WOODWAY DR STE 300",HOUSTON,TX,77063-1520,"(713) 600-7000",http://c-rock.com,"(713) 600-0000",,
TX,HARRIS,2010070013,"Single Family Homes",10/16/2020,,175135,3257,"12502 BEDFORD BEND DR",HOUSTON,TX,77356,BALMORAL,,CONTRACTOR,,,,,,,,,,,"CASTLEROCK COMMUNITIES",,,,,"CASTLEROCK COMMUNITIES","7670 WOODWAY DR STE 300",HOUSTON,TX,77063-1520,"(713) 600-7000",http://c-rock.com,"(713) 600-0000",,
TX,HARRIS,2009150139,"Single Family Homes",10/16/2020,,144530,4058,"19618 HICKORY HEIGHTS DR",HOUSTON,TX,77356,"TOWNE LAKE",,CONTRACTOR,,,,,,,,,,,"DAVID WEEKLEY HOMES",,,,,"DAVID WEEKLEY HOMES","14444 NORTHWEST",HOUSTON,TX,77040,"(713) 570-5021",http://www.davidweekleyhomes.com/,,,
TX,HARRIS,2010120117,"Single Family Homes",10/16/2020,,230500,1950,"12019 TEXAS TRUMPET TRL",HOUSTON,TX,77356,GROVES,,CONTRACTOR,,,,,,,,,,,"PERRY HOMES",,,,,"PERRY HOMES","9000 GULF FWY",HOUSTON,TX,77017-7018,"(713) 417-1396",,,,
TX,HARRIS,2010070059,"Single Family Homes",10/16/2020,,278990,2969,"24403 WHITE SPRUCE LN",HOUSTON,TX,77356,"KATY LAKES",,CONTRACTOR,,,,,,,,,,,"HISTORY MAKER HOMES",,,,,"HISTORY MAKER HOMES","9001 AIRPORT FWY SUITE 400","NORTH RICHLAND HILLS",TX,76180-7769,"(817) 429-8008",http://www.historymaker.com/,"(817) 507-1102","JILL BARFIELD",
TX,HARRIS,2010120119,"Single Family Homes",10/16/2020,,380500,3714,"12311 DRUMMOND MAPLE DR",HOUSTON,TX,77356,GROVES,,CONTRACTOR,,,,,,,,,,,"PERRY HOMES",,,,,"PERRY HOMES","9000 GULF FWY",HOUSTON,TX,77017-7018,"(713) 417-1396",,,,
TX,HARRIS,2009230058,"Single Family Homes",10/16/2020,,48000,,"8318 FENNEL DR",HOUSTON,TX,77356,"SPRINGFIELD ESTATES",,"REYNA CORTES","8318 FENNEL DR",HOUSTON,TX,77356,,Owner,,,,,OWNER,,,,,OWNER,,,,,,,,,
TX,HARRIS,2010080131,"Single Family Homes",10/16/2020,,340000,3400,"6406 BLUESTEM MEADOW TRCE",HOUSTON,TX,77356,ELYSON,,CONTRACTOR,,,,,,,,,,,"HIGHLAND HOMES",,,,,"HIGHLAND HOMES","10930 W SAM HOUSTON PKWY N STE 100",HOUSTON,TX,77064-6331,"(281) 517-9800",,,,
TX,HARRIS,2010080132,"Single Family Homes",10/16/2020,,340000,3400,"6418 BLUESTEM MEADOW TRCE",HOUSTON,TX,77356,ELYSON,,CONTRACTOR,,,,,,,,,,,"HIGHLAND HOMES",,,,,"HIGHLAND HOMES","10930 W SAM HOUSTON PKWY N STE 100",HOUSTON,TX,77064-6331,"(281) 517-9800",,,,
TX,HARRIS,2009080131,"Single Family Homes",10/16/2020,,225000,1277,"12705 PEBBLE CREEK LN",HOUSTON,TX,77356,"TIMBERLAKE ESTATES",,CONTRACTOR,,,,,,,,,,,"TTK PROPERTIES",,,,,"TTK PROPERTIES","9234 CYPRESS CREEK PKWY",HOUSTON,TX,77070-6208,"(281) 894-1800",,,,
TX,HARRIS,2010130026,"Single Family Homes",10/16/2020,,122500,2723,"4759 AVELLINO BASE DR",HOUSTON,TX,77356,"VENTANA LAKES",,CONTRACTOR,,,,,,,,,,,"DR HORTON",,,,,"DR HORTON","14100 SOUTHWEST",HOUSTON,TX,77478,"(281) 201-5559",,,,
TX,HARRIS,2010130037,"Single Family Homes",10/16/2020,,141420,3136,"25602 PINYON HILL TRL",HOUSTON,TX,77356,,,CONTRACTOR,,,,,,,,,,,"DR HORTON",,,,,"DR HORTON","14100 SOUTHWEST",HOUSTON,TX,77478,"(281) 201-5559",,,,
TX,HARRIS,2009030028,"Single Family Homes",10/16/2020,,102480,2863,"17026 CANOSA DR",HOUSTON,TX,77356,"BRIDGELAND LAKELAND HEIGHTS",,CONTRACTOR,,,,,,,,,,,"DAVID WEEKLEY HOMES",,,,,"DAVID WEEKLEY HOMES","14444 NORTHWEST",HOUSTON,TX,77040,"(713) 570-5021",http://www.davidweekleyhomes.com/,,,
TX,HARRIS,2010130048,"Single Family Homes",10/16/2020,,225870,2456,"25506 RANCHO ESPIRITO LN",HOUSTON,TX,77356,"KATY CROSSING",,CONTRACTOR,,,,,,,,,,,"PULTE HOMES",,,,,"PULTE HOMES","16670 PARK ROW",HOUSTON,TX,77084-6866,"(281) 749-8000",,,,
TX,HARRIS,2010130051,"Single Family Homes",10/16/2020,,221240,2456,"25514 RANCHO ESPIRITO LN",HOUSTON,TX,77356,"KATY CROSSING",,CONTRACTOR,,,,,,,,,,,"PULTE HOMES",,,,,"PULTE HOMES","16670 PARK ROW",HOUSTON,TX,77084-6866,"(281) 749-8000",,,,
TX,HARRIS,2010130053,"Single Family Homes",10/16/2020,,196320,1798,"25510 RANCHO ESPIRITO LN",HOUSTON,TX,77356,"KATY CROSSING",,CONTRACTOR,,,,,,,,,,,"PULTE HOMES",,,,,"PULTE HOMES","16670 PARK ROW",HOUSTON,TX,77084-6866,"(281) 749-8000",,,,
TX,HARRIS,2009160067,"Single Family Homes",10/16/2020,,194450,1880,"25522 RANCHO ESPIRITO LN",HOUSTON,TX,77356,"KATY CROSSING",,CONTRACTOR,,,,,,,,,,,"PULTE HOMES",,,,,"PULTE HOMES","16670 PARK ROW",HOUSTON,TX,77084-6866,"(281) 749-8000",,,,
TX,HARRIS,2009150121,"Single Family Homes",10/15/2020,,219620,2453,"25518 RANCHO ESPIRITO LN",HOUSTON,TX,77356,"KATY CROSSING",,CONTRACTOR,,,,,,,,,,,"PULTE HOMES",,,,,"PULTE HOMES","16670 PARK ROW",HOUSTON,TX,77084-6866,"(281) 749-8000",,,,
TX,HARRIS,2009150116,"Single Family Homes",10/16/2020,,204320,1799,"25554 RANCHO ESPIRITO LN",HOUSTON,TX,77356,"KATY CROSSING",,CONTRACTOR,,,,,,,,,,,"PULTE HOMES",,,,,"PULTE HOMES","16670 PARK ROW",HOUSTON,TX,77084-6866,"(281) 749-8000",,,,
TX,HARRIS,2009150119,"Single Family Homes",10/16/2020,,217090,2845,"25550 RANCHO ESPIRITO LN",HOUSTON,TX,77356,"KATY CROSSING",,CONTRACTOR,,,,,,,,,,,"PULTE HOMES",,,,,"PULTE HOMES","16670 PARK ROW",HOUSTON,TX,77084-6866,"(281) 749-8000",,,,
TX,HARRIS,2009150126,"Single Family Homes",10/16/2020,,217090,2056,"25546 RANCHO ESPIRITO LN",HOUSTON,TX,77356,"KATY CROSSING",,CONTRACTOR,,,,,,,,,,,"PULTE HOMES",,,,,"PULTE HOMES","16670 PARK ROW",HOUSTON,TX,77084-6866,"(281) 749-8000",,,,
TX,HARRIS,2010050125,"Single Family Homes",10/16/2020,,196000,3012,"14626 MONTEREY CYPRESS DR",HOUSTON,TX,77356,"CYPRESS CREEK LANDING",,CONTRACTOR,,,,,,,,,,,"KB HOME",,,,,"KB HOME","11314 RICHMOND AVE",HOUSTON,TX,77082-2616,"(281) 668-3800",,,,
TX,HARRIS,2010080152,"Single Family Homes",10/16/2020,,131000,2008,"14615 MONTEREY CYPRESS DR",HOUSTON,TX,77356,"CYPRESS CREEK LANDING",,CONTRACTOR,,,,,,,,,,,"KB HOME",,,,,"KB HOME","11314 RICHMOND AVE",HOUSTON,TX,77082-2616,"(281) 668-3800",,,,
TX,HARRIS,2010090130,"Single Family Homes",10/15/2020,,191000,2942,"4722 SABINE CREEK WAY",HOUSTON,TX,77356,"MEADOWS AT WESTFIELD VILLAGE",,CONTRACTOR,,,,,,,,,,,"KB HOME",,,,,"KB HOME","11314 RICHMOND AVE",HOUSTON,TX,77082-2616,"(281) 668-3800",,,,
TX,HARRIS,2010090128,"Single Family Homes",10/16/2020,,113000,1737,"13106 MILLS GROVE DR",HOUSTON,TX,77356,"MILLS CREEK CROSSING",,CONTRACTOR,,,,,,,,,,,"KB HOME",,,,,"KB HOME","11314 RICHMOND AVE",HOUSTON,TX,77082-2616,"(281) 668-3800",,,,
TX,HARRIS,2010090125,"Single Family Homes",10/16/2020,,196000,3012,"14631 MONTEREY CYPRESS DR",HOUSTON,TX,77356,"CYPRESS CREEK LANDING",,CONTRACTOR,,,,,,,,,,,"KB HOME",,,,,"KB HOME","11314 RICHMOND AVE",HOUSTON,TX,77082-2616,"(281) 668-3800",,,,
TX,HARRIS,2010090124,"Single Family Homes",10/16/2020,,196000,3012,"14619 MONTEREY CYPRESS DR",HOUSTON,TX,77356,"CYPRESS CREEK LANDING",,CONTRACTOR,,,,,,,,,,,"KB HOME",,,,,"KB HOME","11314 RICHMOND AVE",HOUSTON,TX,77082-2616,"(281) 668-3800",,,,
TX,HARRIS,2010090122,"Single Family Homes",10/16/2020,,113000,1737,"12542 NEWCASTLE PARK LN",HOUSTON,TX,77356,"LAKEWOOD PINES",,CONTRACTOR,,,,,,,,,,,"KB HOME",,,,,"KB HOME","11314 RICHMOND AVE",HOUSTON,TX,77082-2616,"(281) 668-3800",,,,
TX,HARRIS,201002012,"Single Family Homes",10/16/2020,,86032,2145,"22023 LOST LANTERN DR",HOUSTON,TX,77356,"BAUER LANDING",,CONTRACTOR,,,,,,,,,,,"LGI HOMES",,,,,"LGI HOMES","1450 LAKE ROBBINS SUITE 430",CONROE,TX,77380,"(210) 563-4648",,"(281) 210-2601",,
TX,HARRIS,2010020129,"Single Family Homes",10/16/2020,,115000,2359,"22002 LOST LANTERN DR",HOUSTON,TX,77356,"BAUER LANDING",,CONTRACTOR,,,,,,,,,,,"LGI HOMES",,,,,"LGI HOMES","1450 LAKE ROBBINS SUITE 430",CONROE,TX,77380,"(210) 563-4648",,"(281) 210-2601",,
TX,HARRIS,2010020131,"Single Family Homes",10/16/2020,,100000,1908,"22006 LOST LANTERN DR",HOUSTON,TX,77356,"BAUER LANDING",,CONTRACTOR,,,,,,,,,,,"LGI HOMES",,,,,"LGI HOMES","1450 LAKE ROBBINS SUITE 430",CONROE,TX,77380,"(210) 563-4648",,"(281) 210-2601",,
TX,HARRIS,2010020132,"Single Family Homes",10/15/2020,,86032,2145,"22010 LOST LANTERN DR",HOUSTON,TX,77356,"BAUER LANDING",,CONTRACTOR,,,,,,,,,,,"LGI HOMES",,,,,"LGI HOMES","1450 LAKE ROBBINS SUITE 430",CONROE,TX,77380,"(210) 563-4648",,"(281) 210-2601",,
TX,HARRIS,2010020133,"Single Family Homes",10/16/2020,,159055,2447,"21111 SOLSTICE POINT DR",HOUSTON,TX,77356,"BAUER LANDING",,CONTRACTOR,,,,,,,,,,,"LGI HOMES",,,,,"LGI HOMES","1450 LAKE ROBBINS SUITE 430",CONROE,TX,77380,"(210) 563-4648",,"(281) 210-2601",,
TX,HARRIS,2010020135,"Single Family Homes",10/16/2020,,201045,3093,"21115 SOLSTICE POINT DR",HOUSTON,TX,77356,"BAUER LANDING",,CONTRACTOR,,,,,,,,,,,"LGI HOMES",,,,,"LGI HOMES","1450 LAKE ROBBINS SUITE 430",CONROE,TX,77380,"(210) 563-4648",,"(281) 210-2601",,
TX,HARRIS,2010020136,"Single Family Homes",10/16/2020,,183040,2816,"21119 SOLSTICE POINT DR",HOUSTON,TX,77356,"BAUER LANDING",,CONTRACTOR,,,,,,,,,,,"LGI HOMES",,,,,"LGI HOMES","1450 LAKE ROBBINS SUITE 430",CONROE,TX,77380,"(210) 563-4648",,"(281) 210-2601",,
TX,HARRIS,2010020137,"Single Family Homes",10/16/2020,,229060,3541,"21203 SOLSTICE POINT DR",HOUSTON,TX,77356,"BAUER LANDING",,CONTRACTOR,,,,,,,,,,,"LGI HOMES",,,,,"LGI HOMES","1450 LAKE ROBBINS SUITE 430",CONROE,TX,77380,"(210) 563-4648",,"(281) 210-2601",,
TX,HARRIS,2010020139,"Single Family Homes",10/16/2020,,183040,2816,"21207 SOLSTICE POINT DR",HOUSTON,TX,77356,"BAUER LANDING",,CONTRACTOR,,,,,,,,,,,"LGI HOMES",,,,,"LGI HOMES","1450 LAKE ROBBINS SUITE 430",CONROE,TX,77380,"(210) 563-4648",,"(281) 210-2601",,
TX,HARRIS,2010020140,"Single Family Homes",10/15/2020,,115000,2359,"22014 LOST LANTERN DR",HOUSTON,TX,77356,"BAUER LANDING",,CONTRACTOR,,,,,,,,,,,"LGI HOMES",,,,,"LGI HOMES","1450 LAKE ROBBINS SUITE 430",CONROE,TX,77380,"(210) 563-4648",,"(281) 210-2601",,
TX,HARRIS,2010020143,"Single Family Homes",10/16/2020,,100000,1908,"22018 LOST LANTERN DR",HOUSTON,TX,77356,"BAUER LANDING",,CONTRACTOR,,,,,,,,,,,"LGI HOMES",,,,,"LGI HOMES","1450 LAKE ROBBINS SUITE 430",CONROE,TX,77380,"(210) 563-4648",,"(281) 210-2601",,
TX,HARRIS,2010020144,"Single Family Homes",10/16/2020,,89065,2145,"22022 LOST LANTERN DR",HOUSTON,TX,77356,"BAUER LANDING",,CONTRACTOR,,,,,,,,,,,"LGI HOMES",,,,,"LGI HOMES","1450 LAKE ROBBINS SUITE 430",CONROE,TX,77380,"(210) 563-4648",,"(281) 210-2601",,
TX,HARRIS,2010020147,"Single Family Homes",10/16/2020,,115000,2359,"22026 LOST LANTERN DR",HOUSTON,TX,77356,"BAUER LANDING",,CONTRACTOR,,,,,,,,,,,"LGI HOMES",,,,,"LGI HOMES","1450 LAKE ROBBINS SUITE 430",CONROE,TX,77380,"(210) 563-4648",,"(281) 210-2601",,
TX,HARRIS,2010020154,"Single Family Homes",10/16/2020,,80652,1826,"21102 SOLSTICE POINT DR",HOUSTON,TX,77356,"BAUER LANDING",,CONTRACTOR,,,,,,,,,,,"LGI HOMES",,,,,"LGI HOMES","1450 LAKE ROBBINS SUITE 430",CONROE,TX,77380,"(210) 563-4648",,"(281) 210-2601",,
TX,HARRIS,2010020155,"Single Family Homes",10/16/2020,,89065,2145,"21022 SOLSTICE POINT DR",HOUSTON,TX,77356,"BAUER LANDING",,CONTRACTOR,,,,,,,,,,,"LGI HOMES",,,,,"LGI HOMES","1450 LAKE ROBBINS SUITE 430",CONROE,TX,77380,"(210) 563-4648",,"(281) 210-2601",,
TX,HARRIS,2010020156,"Single Family Homes",10/16/2020,,97878,2262,"21018 SOLSTICE POINT DR",HOUSTON,TX,77356,"BAUER LANDING",,CONTRACTOR,,,,,,,,,,,"LGI HOMES",,,,,"LGI HOMES","1450 LAKE ROBBINS SUITE 430",CONROE,TX,77380,"(210) 563-4648",,"(281) 210-2601",,
TX,HARRIS,2010080106,"Single Family Homes",10/16/2020,,158000,3409,"6319 BELLEAU LAKE DR",HOUSTON,TX,77356,"KATY LAKES",,CONTRACTOR,,,,,,,,,,,"COLINA HOMES",,,,,"COLINA HOMES","1314 N DURHAM DR",HOUSTON,TX,77008-3734,"(281) 528-9090",http://colinahomes.com/,,,postmaster@colinahomes.com
TX,HARRIS,2010080107,"Single Family Homes",10/16/2020,,158000,3409,"6414 TIBURON LAKES DR",HOUSTON,TX,77356,"KATY LAKES",,CONTRACTOR,,,,,,,,,,,"COLINA HOMES",,,,,"COLINA HOMES","1314 N DURHAM DR",HOUSTON,TX,77008-3734,"(281) 528-9090",http://colinahomes.com/,,,postmaster@colinahomes.com
TX,HARRIS,2010080109,"Single Family Homes",10/16/2020,,148000,3071,"6502 TIMARRON LAKES DR",HOUSTON,TX,77356,"KATY LAKES",,CONTRACTOR,,,,,,,,,,,"COLINA HOMES",,,,,"COLINA HOMES","1314 N DURHAM DR",HOUSTON,TX,77008-3734,"(281) 528-9090",http://colinahomes.com/,,,postmaster@colinahomes.com
TX,HARRIS,2010080110,"Single Family Homes",10/16/2020,,158000,3184,"24427 AVANTI DR",HOUSTON,TX,77356,"KATY LAKES",,CONTRACTOR,,,,,,,,,,,"COLINA HOMES",,,,,"COLINA HOMES","1314 N DURHAM DR",HOUSTON,TX,77008-3734,"(281) 528-9090",http://colinahomes.com/,,,postmaster@colinahomes.com
TX,HARRIS,2010080111,"Single Family Homes",10/16/2020,,158000,2949,"6510 TIBURON LAKES DR",HOUSTON,TX,77356,"KATY LAKES",,CONTRACTOR,,,,,,,,,,,"COLINA HOMES",,,,,"COLINA HOMES","1314 N DURHAM DR",HOUSTON,TX,77008-3734,"(281) 528-9090",http://colinahomes.com/,,,postmaster@colinahomes.com
TX,HARRIS,2010080114,"Single Family Homes",10/16/2020,,155034,2949,"6334 CAMBRAI WOOD LN",HOUSTON,TX,77356,"KATY LAKES",,CONTRACTOR,,,,,,,,,,,"COLINA HOMES",,,,,"COLINA HOMES","1314 N DURHAM DR",HOUSTON,TX,77008-3734,"(281) 528-9090",http://colinahomes.com/,,,postmaster@colinahomes.com
TX,HARRIS,2010080116,"Single Family Homes",10/16/2020,,119856,2397,"6307 CAMBRAI WOOD LN",HOUSTON,TX,77356,"KATY LAKES",,CONTRACTOR,,,,,,,,,,,"COLINA HOMES",,,,,"COLINA HOMES","1314 N DURHAM DR",HOUSTON,TX,77008-3734,"(281) 528-9090",http://colinahomes.com/,,,postmaster@colinahomes.com
TX,HARRIS,2010080117,"Single Family Homes",10/16/2020,,119856,2397,"6442 TIMARRON LAKES DR",HOUSTON,TX,77356,"KATY LAKES",,CONTRACTOR,,,,,,,,,,,"COLINA HOMES",,,,,"COLINA HOMES","1314 N DURHAM DR",HOUSTON,TX,77008-3734,"(281) 528-9090",http://colinahomes.com/,,,postmaster@colinahomes.com
TX,HARRIS,2010080118,"Single Family Homes",10/16/2020,,119856,2397,"6322 CANTIGNY LAKE DR",HOUSTON,TX,77356,"KATY LAKES",,CONTRACTOR,,,,,,,,,,,"COLINA HOMES",,,,,"COLINA HOMES","1314 N DURHAM DR",HOUSTON,TX,77008-3734,"(281) 528-9090",http://colinahomes.com/,,,postmaster@colinahomes.com
TX,HARRIS,2010080121,"Single Family Homes",10/16/2020,,153725,2949,"6422 TIMARRON LAKES DR",HOUSTON,TX,77356,"KATY LAKES",,CONTRACTOR,,,,,,,,,,,"COLINA HOMES",,,,,"COLINA HOMES","1314 N DURHAM DR",HOUSTON,TX,77008-3734,"(281) 528-9090",http://colinahomes.com/,,,postmaster@colinahomes.com
TX,HARRIS,2010080123,"Single Family Homes",10/16/2020,,153725,2949,"24402 VITTORIO WOOD LN",HOUSTON,TX,77356,"KATY LAKES",,CONTRACTOR,,,,,,,,,,,"COLINA HOMES",,,,,"COLINA HOMES","1314 N DURHAM DR",HOUSTON,TX,77008-3734,"(281) 528-9090",http://colinahomes.com/,,,postmaster@colinahomes.com
TX,HARRIS,2010080125,"Single Family Homes",10/16/2020,,184998,2803,"6322 BELLEAU LAKE DR",HOUSTON,TX,77356,"KATY LAKES",,CONTRACTOR,,,,,,,,,,,"COLINA HOMES",,,,,"COLINA HOMES","1314 N DURHAM DR",HOUSTON,TX,77008-3734,"(281) 528-9090",http://colinahomes.com/,,,postmaster@colinahomes.com
TX,HARRIS,2010080126,"Single Family Homes",10/16/2020,,184998,2803,"6323 CAMBRAI WOOD LN",HOUSTON,TX,77356,"KATY LAKES",,CONTRACTOR,,,,,,,,,,,"COLINA HOMES",,,,,"COLINA HOMES","1314 N DURHAM DR",HOUSTON,TX,77008-3734,"(281) 528-9090",http://colinahomes.com/,,,postmaster@colinahomes.com
TX,HARRIS,2010080127,"Single Family Homes",10/16/2020,,184998,2803,"6311 CANTIGNY LAKE DR",HOUSTON,TX,77356,"KATY LAKES",,CONTRACTOR,,,,,,,,,,,"COLINA HOMES",,,,,"COLINA HOMES","1314 N DURHAM DR",HOUSTON,TX,77008-3734,"(281) 528-9090",http://colinahomes.com/,,,postmaster@colinahomes.com
TX,HARRIS,2010080142,"Single Family Homes",10/15/2020,,261990,2745,"7118 POPPYSEED TRL",HOUSTON,TX,77356,"KLEIN GROVE",,CONTRACTOR,,,,,,,,,,,"HISTORY MAKER HOMES",,,,,"HISTORY MAKER HOMES","9001 AIRPORT FWY SUITE 400","NORTH RICHLAND HILLS",TX,76180-7769,"(817) 429-8008",http://www.historymaker.com/,"(817) 507-1102","JILL BARFIELD",
TX,HARRIS,2010070116,"Single Family Homes",10/16/2020,,223990,2158,"7126 POPPYSEED TRL",HOUSTON,TX,77356,"KLEIN GROVE",,CONTRACTOR,,,,,,,,,,,"HISTORY MAKER HOMES",,,,,"HISTORY MAKER HOMES","9001 AIRPORT FWY SUITE 400","NORTH RICHLAND HILLS",TX,76180-7769,"(817) 429-8008",http://www.historymaker.com/,"(817) 507-1102","JILL BARFIELD",
TX,HARRIS,2010060166,"Single Family Homes",10/16/2020,,302990,3660,"12411 ASHGROVE POINT DR",HOUSTON,TX,77356,BALMORAL,,CONTRACTOR,,,,,,,,,,,"HISTORY MAKER HOMES",,,,,"HISTORY MAKER HOMES","9001 AIRPORT FWY SUITE 400","NORTH RICHLAND HILLS",TX,76180-7769,"(817) 429-8008",http://www.historymaker.com/,"(817) 507-1102","JILL BARFIELD",
TX,HARRIS,2010060165,"Single Family Homes",10/16/2020,,314990,3600,"15246 READEN CRESCENT DR",HOUSTON,TX,77356,BALMORAL,,CONTRACTOR,,,,,,,,,,,"HISTORY MAKER HOMES",,,,,"HISTORY MAKER HOMES","9001 AIRPORT FWY SUITE 400","NORTH RICHLAND HILLS",TX,76180-7769,"(817) 429-8008",http://www.historymaker.com/,"(817) 507-1102","JILL BARFIELD",
TX,HARRIS,2010080135,"Single Family Homes",10/16/2020,,340000,3400,"23306 MARKSTONE GLEN CT",HOUSTON,TX,77356,ELYSON,,CONTRACTOR,,,,,,,,,,,"HIGHLAND HOMES",,,,,"HIGHLAND HOMES","10930 W SAM HOUSTON PKWY N STE 100",HOUSTON,TX,77064-6331,"(281) 517-9800",,,,
TX,HARRIS,2010060031,"Single Family Homes",10/16/2020,,85920,2148,"20031 WILD HORSE HOLLOW LN",HOUSTON,TX,77356,AMIRA,,CONTRACTOR,,,,,,,,,,,"BEAZER HOMES ",,,,,"BEAZER HOMES ","10235 W LITTLE YORK",HOUSTON,TX,77040,"(713) 849-2252",http://www.beazer.com/,,,
TX,HARRIS,2009200011,"Single Family Homes",10/16/2020,,250600,2574,"12139 WOODNOTE LN",HOUSTON,TX,77356,GROVES,,CONTRACTOR,,,,,,,,,,,"PERRY HOMES",,,,,"PERRY HOMES","9000 GULF FWY",HOUSTON,TX,77017-7018,"(713) 417-1396",,,,
TX,HARRIS,2010060049,"Single Family Homes",10/16/2020,,298154,3674,"18122 TWILIGHT SHORES LN",HOUSTON,TX,77356,"TOWNE LAKE",,CONTRACTOR,,,,,,,,,,,"SITTERLE HOMES",,,,,"SITTERLE HOMES","2015 EVANS",HOUSTON,TX,78258,"(832) 549-7102",http://www.sitterlehomes.com,,,
TX,HARRIS,2010020047,"Single Family Homes",10/16/2020,,99250,2729,"24026 ROSEDALE OAKS DR",HOUSTON,TX,77356,"INWAY OAKS ESTATES",,CONTRACTOR,,,,,,,,,,,"INFINITY CLASSIC HOMES",,,,,"INFINITY CLASSIC HOMES","17240 HUFFMEISTER RD STE 106",CYPRESS,TX,77429-4694,"(281) 213-4063",http://www.infinityclassichomes.com/,"(281) 213-4067",,
TX,HARRIS,2010020052,"Single Family Homes",10/16/2020,,133250,3414,"24023 ROSEDALE OAKS DR",HOUSTON,TX,77356,"INWAY OAKS ESTATES",,CONTRACTOR,,,,,,,,,,,"INFINITY CLASSIC HOMES",,,,,"INFINITY CLASSIC HOMES","17240 HUFFMEISTER RD STE 106",CYPRESS,TX,77429-4694,"(281) 213-4063",http://www.infinityclassichomes.com/,"(281) 213-4067",,
TX,HARRIS,2010020192,"Single Family Homes",10/16/2020,,133500,2639,"12739 HIGHMANOR DR",HOUSTON,TX,77356,"FORESTWOOD ENCLAVE",,CONTRACTOR,,,,,,,,,,,"TRAVIS HOMES",,,,,"TRAVIS HOMES","16427 TELGE",HOUSTON,TX,77429,"(832) 492-2940",,,,
TX,HARRIS,2009140193,"Single Family Homes",10/16/2020,,351050,3572,"11803 TWIN CREEKS HILL DR",HOUSTON,TX,77356,"TOWNE LAKE",,CONTRACTOR,,,,,,,,,,,"NEWMARK HOMES",,,,,"NEWMARK HOMES","10455 BRIAR FOREST SUITE 200",HOUSTON,TX,77042,"(713) 346-0200",,"(713) 346-0226",,
TX,HARRIS,2008130062,"Single Family Homes",10/16/2020,,1016885,6417,"19427 CARPENTERS BAYOU CT",HOUSTON,TX,77356,"BRIDGELAND PARKLAND VILLAGE",,CONTRACTOR,,,,,,,,,,,"NEWMARK HOMES",,,,,"NEWMARK HOMES","10455 BRIAR FOREST SUITE 200",HOUSTON,TX,77042,"(713) 346-0200",,"(713) 346-0226",,
TX,HARRIS,2009170052,"Single Family Homes",10/16/2020,,502780,4825,"19426 MAIDENHAIR FERN DR",HOUSTON,TX,77356,"BRIDGELAND PARKLAND VILLAGE",,CONTRACTOR,,,,,,,,,,,"NEWMARK HOMES",,,,,"NEWMARK HOMES","10455 BRIAR FOREST SUITE 200",HOUSTON,TX,77042,"(713) 346-0200",,"(713) 346-0226",,
TX,HARRIS,2009170054,"Single Family Homes",10/16/2020,,524299,5360,"19435 MAIDENHAIR FERN DR",HOUSTON,TX,77356,"BRIDGELAND PARKLAND VILLAGE",,CONTRACTOR,,,,,,,,,,,"NEWMARK HOMES",,,,,"NEWMARK HOMES","10455 BRIAR FOREST SUITE 200",HOUSTON,TX,77042,"(713) 346-0200",,"(713) 346-0226",,
TX,HARRIS,2009170058,"Single Family Homes",10/16/2020,,499945,4655,"19515 TEXAS PERSIMMON CT",HOUSTON,TX,77356,"BRIDGELAND PARKLAND VILLAGE",,CONTRACTOR,,,,,,,,,,,"NEWMARK HOMES",,,,,"NEWMARK HOMES","10455 BRIAR FOREST SUITE 200",HOUSTON,TX,77042,"(713) 346-0200",,"(713) 346-0226",,
TX,HARRIS,2009170061,"Single Family Homes",10/16/2020,,300738,3474,"14415 HUECO MOUNTAIN DR",HOUSTON,TX,77356,"COPPER RIDGE AT INDIAN",,CONTRACTOR,,,,,,,,,,,"NEWMARK HOMES",,,,,"NEWMARK HOMES","10455 BRIAR FOREST SUITE 200",HOUSTON,TX,77042,"(713) 346-0200",,"(713) 346-0226",,
TX,HARRIS,2009170064,"Single Family Homes",10/16/2020,,326887,3839,"13739 PEDERNALES CT",HOUSTON,TX,77356,,,CONTRACTOR,,,,,,,,,,,"NEWMARK HOMES",,,,,"NEWMARK HOMES","10455 BRIAR FOREST SUITE 200",HOUSTON,TX,77042,"(713) 346-0200",,"(713) 346-0226",,
TX,HARRIS,2009170065,"Single Family Homes",10/16/2020,,281676,2834,"15002 BOAT HOUSE CT",HOUSTON,TX,77356,"BRIDGELAND PARKLAND VILLAGE",,CONTRACTOR,,,,,,,,,,,"NEWMARK HOMES",,,,,"NEWMARK HOMES","10455 BRIAR FOREST SUITE 200",HOUSTON,TX,77042,"(713) 346-0200",,"(713) 346-0226",,
TX,HARRIS,2009170067,"Single Family Homes",10/16/2020,,298366,2790,"19426 FANNIN COUNTY LN",HOUSTON,TX,77356,"BRIDGELAND PARKLAND VILLAGE",,CONTRACTOR,,,,,,,,,,,"NEWMARK HOMES",,,,,"NEWMARK HOMES","10455 BRIAR FOREST SUITE 200",HOUSTON,TX,77042,"(713) 346-0200",,"(713) 346-0226",,
TX,HARRIS,2009170094,"Single Family Homes",10/16/2020,,578345,5557,"19523 HICKORY HEIGHTS DR",HOUSTON,TX,77356,"TOWNE LAKE",,CONTRACTOR,,,,,,,,,,,"NEWMARK HOMES",,,,,"NEWMARK HOMES","10455 BRIAR FOREST SUITE 200",HOUSTON,TX,77042,"(713) 346-0200",,"(713) 346-0226",,
TX,HARRIS,2009290018,"Single Family Homes",10/16/2020,,342128,3593,"18302 WINDING WILLOW OAK WAY",HOUSTON,TX,77356,"TOWNE LAKE",,CONTRACTOR,,,,,,,,,,,"NEWMARK HOMES",,,,,"NEWMARK HOMES","10455 BRIAR FOREST SUITE 200",HOUSTON,TX,77042,"(713) 346-0200",,"(713) 346-0226",,
TX,HARRIS,2009290019,"Single Family Homes",10/16/2020,,320256,3534,"18306 WINDING WILLOW OAK WAY",HOUSTON,TX,77356,"TOWNE LAKE",,CONTRACTOR,,,,,,,,,,,"NEWMARK HOMES",,,,,"NEWMARK HOMES","10455 BRIAR FOREST SUITE 200",HOUSTON,TX,77042,"(713) 346-0200",,"(713) 346-0226",,
TX,HARRIS,2009290021,"Single Family Homes",10/16/2020,,551234,5169,"11218 OAKCREST MANOR LN",HOUSTON,TX,77356,"TOWNE LAKE",,CONTRACTOR,,,,,,,,,,,"NEWMARK HOMES",,,,,"NEWMARK HOMES","10455 BRIAR FOREST SUITE 200",HOUSTON,TX,77042,"(713) 346-0200",,"(713) 346-0226",,
TX,HARRIS,2008260108,"Single Family Homes",10/16/2020,,288212,2584,"19422 FANNIN COUNTY LN",HOUSTON,TX,77356,,,CONTRACTOR,,,,,,,,,,,"NEWMARK HOMES",,,,,"NEWMARK HOMES","10455 BRIAR FOREST SUITE 200",HOUSTON,TX,77042,"(713) 346-0200",,"(713) 346-0226",,
TX,HARRIS,2010090043,"Single Family Homes",10/16/2020,,360500,3593,"12115 DRUMMOND MAPLE DR",HOUSTON,TX,77356,GROVES,,CONTRACTOR,,,,,,,,,,,"PERRY HOMES",,,,,"PERRY HOMES","9000 GULF FWY",HOUSTON,TX,77017-7018,"(713) 417-1396",,,,
TX,HARRIS,2010090052,"Single Family Homes",10/16/2020,,298990,3779,"6307 CATIGNY LAKE DR",HOUSTON,TX,77356,"KATY LAKES",,CONTRACTOR,,,,,,,,,,,"HISTORY MAKER HOMES",,,,,"HISTORY MAKER HOMES","9001 AIRPORT FWY SUITE 400","NORTH RICHLAND HILLS",TX,76180-7769,"(817) 429-8008",http://www.historymaker.com/,"(817) 507-1102","JILL BARFIELD",
TX,HARRIS,2010050153,"Single Family Homes",10/16/2020,,259396,4270,"10519 WINDING ARBOR CT",HOUSTON,TX,77356,"TOWNE LAKE",,CONTRACTOR,,,,,,,,,,,"VILLAGE BUILDERS",,,,,"VILLAGE BUILDERS","550 GREENS PKWY STE 210",HOUSTON,TX,77067-4538,"(281) 873-4663",,,,
TX,HARRIS,2010050038,"Single Family Homes",10/16/2020,,148900,2292,"16141 BARGE WAY",HOUSTON,TX,77356,,,CONTRACTOR,,,,,,,,,,,"LENNAR HOMES",,,,,"LENNAR HOMES","550 GREENS PKWY",HOUSTON,TX,77067-4537,"(281) 875-1000",http://www.lennar.com/,,,
TX,HARRIS,2010060147,"Single Family Homes",10/16/2020,,221800,4326,"24903 GINGERBUSH LN",HOUSTON,TX,77356,"LAKES AT CREEKSIDE",,CONTRACTOR,,,,,,,,,,,"TOLL BROTHERS",,,,,"TOLL BROTHERS","10110 W SAM HOUSTON PKWY N STE 350",HOUSTON,TX,77064-7508,"(281) 664-7255",,,,
TX,HARRIS,2010020053,"Single Family Homes",10/16/2020,,131000,2008,"4615 LITTLE MEADOW LN",HOUSTON,TX,77356,"MEADOWS AT WESTFIELD VILLAGE",,CONTRACTOR,,,,,,,,,,,"KB HOME",,,,,"KB HOME","11314 RICHMOND AVE",HOUSTON,TX,77082-2616,"(281) 668-3800",,,,
TX,HARRIS,2010020039,"Single Family Homes",10/16/2020,,113000,1737,"4703 SABINE CREEK WAY",HOUSTON,TX,77356,"MEADOWS AT WESTFIELD VILLAGE",,CONTRACTOR,,,,,,,,,,,"KB HOME",,,,,"KB HOME","11314 RICHMOND AVE",HOUSTON,TX,77082-2616,"(281) 668-3800",,,,
TX,HARRIS,2010010114,"Single Family Homes",10/16/2020,,199000,3062,"9807 MOUNTAIN CHESTNUT RD",HOUSTON,TX,77356,"MILLS CREEK CROSSING",,CONTRACTOR,,,,,,,,,,,"KB HOME",,,,,"KB HOME","11314 RICHMOND AVE",HOUSTON,TX,77082-2616,"(281) 668-3800",,,,
TX,HARRIS,2010080001,"Single Family Homes",10/16/2020,,131000,2008,"4635 SABINE CREEK WAY",HOUSTON,TX,77356,"MEADOWS AT WESTFIELD VILLAGE",,CONTRACTOR,,,,,,,,,,,"KB HOME",,,,,"KB HOME","11314 RICHMOND AVE",HOUSTON,TX,77082-2616,"(281) 668-3800",,,,
TX,HARRIS,2008240015,"Single Family Homes",10/16/2020,,72000,3003,"8315 FIELD SPARROW TRL",HOUSTON,TX,77356,"EDGEWOOD VILLAGE",,CONTRACTOR,,,,,,,,,,,"LONG LAKE HOMES",,,,,"LONG LAKE HOMES","15915 KATY FWY STE 405",HOUSTON,TX,77094-1710,"(281) 646-1727",http://www.longlakeltd.com/,,"DAVID BIGLER",
TX,HARRIS,2008270061,"Single Family Homes",10/16/2020,,64000,2177,"14710 BLACK RAIL DR",HOUSTON,TX,77356,"EDGEWOOD VILLAGE",,CONTRACTOR,,,,,,,,,,,"LONG LAKE HOMES",,,,,"LONG LAKE HOMES","15915 KATY FWY STE 405",HOUSTON,TX,77094-1710,"(281) 646-1727",http://www.longlakeltd.com/,,"DAVID BIGLER",
TX,HARRIS,2008280032,"Single Family Homes",10/16/2020,,72000,3003,"14826 BLACK RAIL DR",HOUSTON,TX,77356,"EDGEWOOD VILLAGE",,CONTRACTOR,,,,,,,,,,,"LONG LAKE HOMES",,,,,"LONG LAKE HOMES","15915 KATY FWY STE 405",HOUSTON,TX,77094-1710,"(281) 646-1727",http://www.longlakeltd.com/,,"DAVID BIGLER",
TX,HARRIS,2009080014,"Single Family Homes",10/16/2020,,80000,3186,"14806 BLACK RAIL DR",HOUSTON,TX,77356,"EDGEWOOD VILLAGE",,CONTRACTOR,,,,,,,,,,,"LONG LAKE HOMES",,,,,"LONG LAKE HOMES","15915 KATY FWY STE 405",HOUSTON,TX,77094-1710,"(281) 646-1727",http://www.longlakeltd.com/,,"DAVID BIGLER",
TX,HARRIS,2009170096,"Single Family Homes",10/16/2020,,64000,2177,"14706 BLACK RAIL DR",HOUSTON,TX,77356,"EDGEWOOD VILLAGE",,CONTRACTOR,,,,,,,,,,,"LONG LAKE HOMES",,,,,"LONG LAKE HOMES","15915 KATY FWY STE 405",HOUSTON,TX,77094-1710,"(281) 646-1727",http://www.longlakeltd.com/,,"DAVID BIGLER",
TX,HARRIS,2010070088,"Single Family Homes",10/16/2020,,250990,2234,"25402 FOSSA DR",HOUSTON,TX,77356,"GROVE LANDING",,CONTRACTOR,,,,,,,,,,,"DAVID WEEKLEY HOMES",,,,,"DAVID WEEKLEY HOMES","14444 NORTHWEST",HOUSTON,TX,77040,"(713) 570-5021",http://www.davidweekleyhomes.com/,,,
TX,HARRIS,2010070090,"Single Family Homes",10/16/2020,,231990,1650,"11419 RAVEN CLAW DR",HOUSTON,TX,77356,"GROVE LANDING",,CONTRACTOR,,,,,,,,,,,"DAVID WEEKLEY HOMES",,,,,"DAVID WEEKLEY HOMES","14444 NORTHWEST",HOUSTON,TX,77040,"(713) 570-5021",http://www.davidweekleyhomes.com/,,,
TX,HARRIS,2010050097,"Single Family Homes",10/16/2020,,212000,3260,"14622 MONTEREY CYPRESS DR",HOUSTON,TX,77356,"CYPRESS CREEK LANDING",,CONTRACTOR,,,,,,,,,,,"KB HOME",,,,,"KB HOME","11314 RICHMOND AVE",HOUSTON,TX,77082-2616,"(281) 668-3800",,,,
TX,HARRIS,2010050099,"Single Family Homes",10/16/2020,,150000,2305,"14611 MONTEREY CYPRESS DR",HOUSTON,TX,77356,"CYPRESS CREEK LANDING",,CONTRACTOR,,,,,,,,,,,"KB HOME",,,,,"KB HOME","11314 RICHMOND AVE",HOUSTON,TX,77082-2616,"(281) 668-3800",,,,
TX,HARRIS,2010050102,"Single Family Homes",10/16/2020,,196000,3012,"14623 MONTEREY CYPRESS DR",HOUSTON,TX,77356,"CYPRESS CREEK LANDING",,CONTRACTOR,,,,,,,,,,,"KB HOME",,,,,"KB HOME","11314 RICHMOND AVE",HOUSTON,TX,77082-2616,"(281) 668-3800",,,,
TX,HARRIS,2010050105,"Single Family Homes",10/16/2020,,212000,3260,"14630 MONTEREY CYPRESS DR",HOUSTON,TX,77356,"CYPRESS CREEK LANDING",,CONTRACTOR,,,,,,,,,,,"KB HOME",,,,,"KB HOME","11314 RICHMOND AVE",HOUSTON,TX,77082-2616,"(281) 668-3800",,,,
TX,HARRIS,2010050107,"Single Family Homes",10/16/2020,,199000,3062,"14614 MONTEREY CYPRESS DR",HOUSTON,TX,77356,"CYPRESS CREEK LANDING",,CONTRACTOR,,,,,,,,,,,"KB HOME",,,,,"KB HOME","11314 RICHMOND AVE",HOUSTON,TX,77082-2616,"(281) 668-3800",,,,
TX,HARRIS,2010050116,"Single Family Homes",10/16/2020,,150000,2305,"14610 MONTEREY CYPRESS DR",HOUSTON,TX,77356,"CYPRESS CREEK LANDING",,CONTRACTOR,,,,,,,,,,,"KB HOME",,,,,"KB HOME","11314 RICHMOND AVE",HOUSTON,TX,77082-2616,"(281) 668-3800",,,,
TX,HARRIS,2010070100,"Single Family Homes",10/16/2020,,254990,2265,"11423 RAVEN CLAW DR",HOUSTON,TX,77356,"GROVE LANDING",,CONTRACTOR,,,,,,,,,,,"DAVID WEEKLEY HOMES",,,,,"DAVID WEEKLEY HOMES","14444 NORTHWEST",HOUSTON,TX,77040,"(713) 570-5021",http://www.davidweekleyhomes.com/,,,
TX,HARRIS,2009250077,"Single Family Homes",10/16/2020,,60000,381,"15402 POCKET OAKS TRL",HOUSTON,TX,77356,"HIDDEN LAKE AT GETTYSBURG",,"MARCUS GILLASPIA","15402 POCKET OAKS TRL",HOUSTON,TX,77356,,Owner,,,,,OWNER,,,,,OWNER,,,,,,,,,
TX,HARRIS,2010070106,"Single Family Homes",10/16/2020,,150645,2739,"6823 NORTHCHESTER DR",HOUSTON,TX,77356,"KATY LAKES",,CONTRACTOR,,,,,,,,,,,"CASTLEROCK COMMUNITIES",,,,,"CASTLEROCK COMMUNITIES","7670 WOODWAY DR STE 300",HOUSTON,TX,77063-1520,"(713) 600-7000",http://c-rock.com,"(713) 600-0000",,
TX,HARRIS,2010070111,"Single Family Homes",10/16/2020,,171215,3113,"24418 ARBOR LANDING LN",HOUSTON,TX,77356,"KATY LAKES",,CONTRACTOR,,,,,,,,,,,"CASTLEROCK COMMUNITIES",,,,,"CASTLEROCK COMMUNITIES","7670 WOODWAY DR STE 300",HOUSTON,TX,77063-1520,"(713) 600-7000",http://c-rock.com,"(713) 600-0000",,
TX,HARRIS,2006300206,"Single Family Homes",10/16/2020,,75000,1084,"25722 WATER RIDGE DR",HOUSTON,TX,77356,"WATER WONDERLAND",,"STONEHOUSE WEALTH CAPITAL LLC","25722 WATER RIDGE DR",HOUSTON,TX,77356,,Owner,,,,,OWNER,,,,,OWNER,,,,,,,,,
TX,HARRIS,2010020031,"Single Family Homes",10/16/2020,,363580,3182,"23303 IVORY SEDGE TRL",HOUSTON,TX,77356,ELYSON,,CONTRACTOR,,,,,,,,,,,"PULTE HOMES",,,,,"PULTE HOMES","16670 PARK ROW",HOUSTON,TX,77084-6866,"(281) 749-8000",,,,
TX,HARRIS,2010070121,"Single Family Homes",10/16/2020,,250600,2410,"11934 PINE SANDHILL TRL",HOUSTON,TX,77356,GROVES,,CONTRACTOR,,,,,,,,,,,"PERRY HOMES",,,,,"PERRY HOMES","9000 GULF FWY",HOUSTON,TX,77017-7018,"(713) 417-1396",,,,
TX,HARRIS,2008170068,"Single Family Homes",10/16/2020,,251000,3851,"23223 BANFIELD CREEK CT",HOUSTON,TX,77356,ELYSON,,CONTRACTOR,,,,,,,,,,,"WESTIN HOMES",,,,,"WESTIN HOMES","1 SUGAR CREEK CENTER BLVD STE 600","SUGAR LAND",TX,77478-3787,"(281) 240-1551",http://www.westin-homes.com,,,
TX,HARRIS,2010050134,"Single Family Homes",10/16/2020,,143080,2439,"12311 ASHGROVE POINT DR",HOUSTON,TX,77356,BALMORAL,,CONTRACTOR,,,,,,,,,,,"K HOVNANIAN HOMES",,,,,"K HOVNANIAN HOMES","13111 NORTHWEST FWY STE 200",HOUSTON,TX,77040-6311,"(713) 460-0264",,,,
TX,HARRIS,2009170055,"Single Family Homes",10/16/2020,,181245,5107,"11010 LAGUNA MESA DR",HOUSTON,TX,77356,"TOWNE LAKE",,CONTRACTOR,,,,,,,,,,,"DAVID WEEKLEY HOMES",,,,,"DAVID WEEKLEY HOMES","14444 NORTHWEST",HOUSTON,TX,77040,"(713) 570-5021",http://www.davidweekleyhomes.com/,,,
TX,HARRIS,2009090025,"Single Family Homes",10/16/2020,,150000,1900,"29603 W IRVIN DR",HOUSTON,TX,77356,"CUPP SUBDIVISION",,"CALVIN CUPP","29603 W IRVIN DR",HOUSTON,TX,77356,,Owner,,,,,OWNER,,,,,OWNER,,,,,,,,,
TX,HARRIS,2010010135,"Single Family Homes",10/16/2020,,37300,,"10706 WOLSLEY CT",HOUSTON,TX,77356,"WORTHAM GROVE",,"DARIN DALY","10706 WOLSLEY CT",HOUSTON,TX,77356,,Owner,,,,,OWNER,,,,,OWNER,,,,,,,,,
TX,HARRIS,2010080092,"Single Family Homes",10/16/2020,,104000,2215,"12922 CROMBIE DR",HOUSTON,TX,77356,BALMORAL,,CONTRACTOR,,,,,,,,,,,"COLINA HOMES",,,,,"COLINA HOMES","1314 N DURHAM DR",HOUSTON,TX,77008-3734,"(281) 528-9090",http://colinahomes.com/,,,postmaster@colinahomes.com
TX,HARRIS,2010080094,"Single Family Homes",10/16/2020,,104000,2215,"12926 SILVERBANK RUN DR",HOUSTON,TX,77356,BALMORAL,,CONTRACTOR,,,,,,,,,,,"COLINA HOMES",,,,,"COLINA HOMES","1314 N DURHAM DR",HOUSTON,TX,77008-3734,"(281) 528-9090",http://colinahomes.com/,,,postmaster@colinahomes.com
TX,HARRIS,2010080095,"Single Family Homes",10/16/2020,,100000,2077,"12922 SILVERBANK RUN DR",HOUSTON,TX,77356,BALMORAL,,CONTRACTOR,,,,,,,,,,,"COLINA HOMES",,,,,"COLINA HOMES","1314 N DURHAM DR",HOUSTON,TX,77008-3734,"(281) 528-9090",http://colinahomes.com/,,,postmaster@colinahomes.com
TX,HARRIS,2010080098,"Single Family Homes",10/16/2020,,100000,2077,"12923 ILDERTON DR",HOUSTON,TX,77356,BALMORAL,,CONTRACTOR,,,,,,,,,,,"COLINA HOMES",,,,,"COLINA HOMES","1314 N DURHAM DR",HOUSTON,TX,77008-3734,"(281) 528-9090",http://colinahomes.com/,,,postmaster@colinahomes.com
TX,HARRIS,2010080099,"Single Family Homes",10/16/2020,,105000,2215,"12922 ILDERTON DR",HOUSTON,TX,77356,BALMORAL,,CONTRACTOR,,,,,,,,,,,"COLINA HOMES",,,,,"COLINA HOMES","1314 N DURHAM DR",HOUSTON,TX,77008-3734,"(281) 528-9090",http://colinahomes.com/,,,postmaster@colinahomes.com
TX,HARRIS,2010080104,"Single Family Homes",10/16/2020,,155034,2949,"6427 TIMARRON LAKES DR",HOUSTON,TX,77356,"KATY LAKES",,CONTRACTOR,,,,,,,,,,,"COLINA HOMES",,,,,"COLINA HOMES","1314 N DURHAM DR",HOUSTON,TX,77008-3734,"(281) 528-9090",http://colinahomes.com/,,,postmaster@colinahomes.com
TX,HARRIS,2010020159,"Single Family Homes",10/16/2020,,169065,2601,"31310 WEATHERVANE TRL",HOUSTON,TX,77356,DELLROSE,,CONTRACTOR,,,,,,,,,,,"LENNAR HOMES",,,,,"LENNAR HOMES","550 GREENS PKWY",HOUSTON,TX,77067-4537,"(281) 875-1000",http://www.lennar.com/,,,
TX,HARRIS,2010020182,"Single Family Homes",10/16/2020,,176605,2717,"15118 PILANT LAKE CT",HOUSTON,TX,77356,"BRIDGELAND PARKLAND VILLAGE",,CONTRACTOR,,,,,,,,,,,"LENNAR HOMES",,,,,"LENNAR HOMES","550 GREENS PKWY",HOUSTON,TX,77067-4537,"(281) 875-1000",http://www.lennar.com/,,,
TX,HARRIS,18045432,"Warehouse & Manufacturing",10/29/2020,,350000,,"3110 CHAFFIN",HOUSTON,TX,77087,,,CONTRACTOR,,,,,,,,,,,"MAS CONSTRUCTION",,,,,"MAS CONSTRUCTION","1829 HOPPER",HOUSTON,TX,77093,"(832) 573-9408",,,,
TX,BRAZORIA,"20 - 1234","Warehouse & Manufacturing",10/26/2020,,1900000,,"1658 N BYPASS 35",ALVIN,TX,77511,,15,CONTRACTOR,,,,,,,,,,,"THE STORAGE PLACE",,,,,"THE STORAGE PLACE","1670 ROLLINGBROOK DR.",BAYTOWN,TX,77521,"(832) 695-3155",https://storageplacetx.com/,,"PATRICK NOLAN",
TX,BRAZOS,20-3967,"Warehouse & Manufacturing",10/13/2020,,35000,,"2404 N TEXAS AVE #107",BRYAN,TX,77808,,,CONTRACTOR,,,,,,,,,,,"JACKRABBIT MANUFACTURING & POWDERCOATING",,,,,"JACKRABBIT MANUFACTURING & POWDERCOATING","1720 FOUNTAIN AVE #1111",BRYAN,TX,77801,"(979) 446-0073",https://www.jackrabbitmfg.com/,,,
TX,BRAZOS,20-4112,"Warehouse & Manufacturing",10/21/2020,Addition,126000,,"2799 N EARL RUDDER FWY",BRYAN,TX,77806,,,CONTRACTOR,,,,,,,,,,,"PARAMOUNT BUILDERS",,,,,"PARAMOUNT BUILDERS","12515 CR 8",CELINA,TX,75009,"(214) 578-0591",https://www.paramountbuilderstx.com/,,"PHILLIP MCCLOUD",paramountbuilderstx@gmail.com
TX,HARRIS,2008260152,"Warehouse & Manufacturing",10/16/2020,,1529179,368494,"9155 DERRINGTON RD",HOUSTON,TX,77356,,,"TRUMMEL CROW","2800 POST OAK BOULEVARD STE 400",HOUSTON,TX,77056,"(713) 963-4070",Architect,https://www.trammellcrow.com/,,,,OWNER,,,,,OWNER,,,,,,,,,
