state,county,permno,ptype,pdate,pdescription,jvalue,jsqfeet,jaddr,jcity,jstate,jzip,jsubdiv,jlotno,aname,aaddr,acity,astate,azip,aphone,atype,aurl,afax,aprimarycontact,aemail,bldcode,units,bldgs,ctype,legal,contractor,caddress,ccity,cstate,czip,cphone,curl,cfax,cprimarycontact,cemail
TX,HARRIS,1907190116,"Auto Sales & Services",7/16/2020,,186800,4200,"14590 WALLISVILLE RD",HOUSTON,TX,77356,"ARTIGA RESERVE",,"VILMA ARTIGA","14590 WALLISVILLE RD",HOUSTON,TX,77356,,Owner,,,,,OWNER,,,,,OWNER,,,,,,,,,
TX,HARRIS,1906120127,"Auto Sales & Services",7/16/2020,,360825,4811,"6831 SATSUMA DR",HOUSTON,TX,77356,"SATSUMA ESTATES",,"RAJ SINGH GILL FOR STONE PATH LLC","6831 SATSUMA DR",HOUSTON,TX,77356,,Owner,,,,,OWNER,,,,,OWNER,,,,,,,,,
TX,HARRIS,2004070152,"Auto Sales & Services",7/16/2020,,1100000,5228,"13722 EAST FREEWAY",HOUSTON,TX,77356,,,"WHITE WATER EXPRESS CAR WASH","13722 EAST FREEWAY",HOUSTON,TX,77356,,Owner,,,,,OWNER,,,,,OWNER,,,,,,,,,
TX,HARRIS,20005899,"Churches & Other Religious",8/5/2020,,1800000,,"4820 W OREM",HOUSTON,TX,77045,,,"LUIS CERNA","8721 LUGARY DR",HOUSTON,TX,77074,"(713) 269-5515",Owner,,,,,OWNER,,,,,OWNER,,,,,,,,,
TX,HARRIS,20041920,"Commercial Swimming Pool & Spas",8/14/2020,,62000,,"11080 KATY",HOUSTON,TX,77043,,,CONTRACTOR,,,,,,,,,,,"WATTS POOL COMPANY",,,,,"WATTS POOL COMPANY","11150 KATY FWY",HOUSTON,TX,77043-4628,"(713) 461-7300",http://www.wattspool.com,"(713) 461-8382","KRISTEN WATTS",sales@wattspool.com
TX,HARRIS,20022483,"Duplex, Triplex, & Fourplex",8/5/2020,,285000,,"7914 POINTER",HOUSTON,TX,77016,,,"OSCAR BARRERA","7250 W GREENS RD",HOUSTON,TX,77064,"(346) 244-2012",Applicant,,,,,OWNER,,,,,OWNER,,,,,,,,,
TX,HARRIS,20038002,"Duplex, Triplex, & Fourplex",8/6/2020,,210000,,"8205 CARVER RD A",HOUSTON,TX,77088,,,"SONIER MICHAEL","8205 CARVER RD A",HOUSTON,TX,77088,"(832) 833-6453",Applicant,,,,,OWNER,,,,,OWNER,,,,,,,,,
TX,HARRIS,20034458,"Duplex, Triplex, & Fourplex",8/13/2020,,223000,,"4434 KNOXVILLE ST A",HOUSTON,TX,77051,,,"HERNANDO PARRA","4434 KNOXVILLE ST A",HOUSTON,TX,77018,"(941) 757-9719",Applicant,,,,,OWNER,,,,,OWNER,,,,,,,,,
TX,HARRIS,20014542,"Educational Institution",8/6/2020,,7900000,,"6602 WINFIELD RD BLD",HOUSTON,TX,77050,,,CONTRACTOR,,,,,,,,,,,"LINBECK GROUP",,,,,"LINBECK GROUP","1263 W ROSEDALE ST STE 202","FORT WORTH",TX,76104-2837,"(817) 332-8494",,,,
TX,MONTGOMERY,BC-20-004201,"Educational Institution",7/24/2020,,15179415,101930,"11505 PINE VALLEY DR",CONROE,TX,77304,,,CONTRACTOR,,,,,,,,,,,DUROTECH,,,,,DUROTECH,"11931 WICKCHESTER LN STE 205",HOUSTON,TX,77043-4572,"(281) 558-6892",http://www.durotechgc.com/,,"DAVID ROWE",info@durotechgc.com
TX,HARRIS,19129362,"Educational Institution",8/12/2020,Renovation,500000,,"6530 WOODWAY",HOUSTON,TX,77057,,,CONTRACTOR,,,,,,,,,,,"BROOKSTONE HOMES",,,,,"BROOKSTONE HOMES","3715 DACOMA ST",HOUSTON,TX,77092-8905,"(713) 683-8800",,,,
TX,HARRIS,20032815,"Educational Institution",8/13/2020,,5000000,,"2407 1/2 PINE TERRACE",HOUSTON,TX,77339,,,"HUMBLE ISD","10203 BIRCHRIDGE DRIVE",HUMBLE,TX,77338,"(281) 641-1000",Applicant,,,,,OWNER,,,,,OWNER,,,,,,,,,
TX,HARRIS,20072317,"Educational Institution",8/14/2020,,95000,,"6100 MAIN",HOUSTON,TX,77005,,,"MOORE SAMUEL","5819 LAUREL CAVERNS",HOUSTON,TX,77345,"(832) 922-3698",Applicant,,,,,OWNER,,,,,OWNER,,,,,,,,,
TX,MONTGOMERY,BC-20-008821,"Hospital & Other Medical",7/24/2020,,150000,550,"7990 HIGHWAY 242",CONROE,TX,77385,,,CONTRACTOR,,,,,,,,,,,"VAUGHN CONSTRUCTION",,,,,"VAUGHN CONSTRUCTION","10355 WESTPARK DR",HOUSTON,TX,77042,"(713) 243-8300",,,,
TX,HARRIS,20028233,"Hospital & Other Medical",8/5/2020,,200000,,"4004 S BRAESWOOD BLVD",HOUSTON,TX,77025,,,CONTRACTOR,,,,,,,,,,,"CUSTOM PRACTICES",,,,,"CUSTOM PRACTICES","2450 LOUISIANA ST # 400-347",HOUSTON,TX,77006-2380,"(713) 836-2811",http://custompractices.com/,,,
TX,MONTGOMERY,BC-20-007103,"Hospital & Other Medical",7/16/2020,"Finish Out",28891968,296000,"17201 INTERSTATE 45 S",CONROE,TX,77385,,,CONTRACTOR,,,,,,,,,,,"VAUGHN CONSTRUCTION",,,,,"VAUGHN CONSTRUCTION","10355 WESTPARK DR",HOUSTON,TX,77042,"(713) 243-8300",,,,
TX,MONTGOMERY,BC-20-008140,"Hospital & Other Medical",7/23/2020,Renovation,430000,4950,"17183 INTERSTATE 45 S",CONROE,TX,77385,,,CONTRACTOR,,,,,,,,,,,"VAUGHN CONSTRUCTION",,,,,"VAUGHN CONSTRUCTION","10355 WESTPARK DR",HOUSTON,TX,77042,"(713) 243-8300",,,,
TX,HARRIS,2001290131,"Hospital & Other Medical",7/16/2020,,1300000,13339,"21404 PROVINCIAL BLVD",HOUSTON,TX,77356,,,"DAF ASSOCIATES INC","21404 PROVINCIAL BLVD",HOUSTON,TX,77356,,Owner,,,,,OWNER,,,,,OWNER,,,,,,,,,
TX,HARRIS,20066223,"Multi Family Apartments & Condos",8/6/2020,Renovation,45123,,"3333 ALLEN PKY",HOUSTON,TX,77019,,,"PIRANI NIDA","3333 ALLEN PKY",HOUSTON,TX,77019,,Owner,,,,,"FLOORS N DESIGN",,,,,"FLOORS N DESIGN","565 MASON ROAD #213",KATY,TX,77450,"(800) 983-1334",https://floorsndesign.com/,,"ABERGAL DANIEL",daniel@floorsndesign.com
TX,MONTGOMERY,174094-20,"Multi Family Apartments & Condos",7/15/2020,,12945980,,"3640 HARMONY COMMONS DR",HOUSTON,TX,77356,"HARMONY RPM4M VENTURES COMMONS",,CONTRACTOR,,,,,,,,,,,"TEXAS PERMITS",,,,,"TEXAS PERMITS","2450 LOUISIANA ST",HOUSTON,TX,77006-2380,"(713) 724-6067",,,,
TX,HARRIS,2002280154,"Multi Family Apartments & Condos",7/16/2020,,9326241,104310,"540 RICHCREST DR",HOUSTON,TX,77356,"GREENBRIAR PLACE",,"AMTEX MULTI HOUSING","540 RICHCREST DR",HOUSTON,TX,77356,,Owner,,,,,OWNER,,,,,OWNER,,,,,,,,,
TX,HARRIS,1906110226,"Multi Family Apartments & Condos",7/16/2020,,900900,12012,"12603 TELGE RD",HOUSTON,TX,77356,"STARWOOD FARMS",,"MIKE MILLER","12603 TELGE RD",HOUSTON,TX,77356,,Owner,,,,,OWNER,,,,,OWNER,,,,,,,,,
TX,HARRIS,20042428,"Offices, R&D, & Professional",8/6/2020,,75000,,"2147 WESTHEIMER RD",HOUSTON,TX,77098,,,CONTRACTOR,,,,,,,,,,,"C3 BUILDING SOLUTIONS",,,,,"C3 BUILDING SOLUTIONS","8403 WESTGLEN DR",HOUSTON,TX,77063-6311,"(713) 369-0925",http://www.c3buildingsolutions.com,,,
TX,HARRIS,20052357,"Offices, R&D, & Professional",8/6/2020,,125000,,"11800 ASTORIA BLVD FL",HOUSTON,TX,77089,,,CONTRACTOR,,,,,,,,,,,"ENDURANCE BUILDERS",,,,,"ENDURANCE BUILDERS","2190 NORTH LOOP W STE 300",HOUSTON,TX,77018-8006,"(832) 623-7351",http://www.endbs.com/,,"BOB FLOWERS",
TX,HARRIS,20071330,"Offices, R&D, & Professional",8/7/2020,Renovation,385191,,"16290 KATY FWY",HOUSTON,TX,77094,,,CONTRACTOR,,,,,,,,,,,"FRANKLIN STREET PROPERTIES",,,,,"FRANKLIN STREET PROPERTIES","401 EDGEWATER PL",WAKWFIELD,MA,01880,"(800) 950-6288",https://www.fspreit.com/,,,InvestorRelations@fspreit.com
TX,HARRIS,20072111,"Offices, R&D, & Professional",8/5/2020,Renovation,80000,,"712 MAIN ST",HOUSTON,TX,77002,,,CONTRACTOR,,,,,,,,,,,"HARVEY CLEARY BUILDERS",,,,,"HARVEY CLEARY BUILDERS","3630 WESTCHASE DR",HOUSTON,TX,77042-5224,"(713) 783-7919",http://www.harvey-cleary.com/,,,
TX,HARRIS,20072101,"Offices, R&D, & Professional",8/5/2020,Renovation,80000,,"712 MAIN ST FL",HOUSTON,TX,77002,,,CONTRACTOR,,,,,,,,,,,"HARVEY CLEARY BUILDERS",,,,,"HARVEY CLEARY BUILDERS","3630 WESTCHASE DR",HOUSTON,TX,77042-5224,"(713) 783-7919",http://www.harvey-cleary.com/,,,
TX,HARRIS,20069873,"Offices, R&D, & Professional",8/4/2020,Renovation,45000,,"1010 LAMAR ST",HOUSTON,TX,77002,,,CONTRACTOR,,,,,,,,,,,"JEM CONSTRUCTION",,,,,"JEM CONSTRUCTION","16107 KENSINGTON DR # 471","SUGAR LAND",TX,77479-4224,"(281) 494-7712",http://jemconstructiongroup.com/,,,rward@jemconstructiongroup.com
TX,HARRIS,20023302,"Offices, R&D, & Professional",8/4/2020,Renovation,2300000,,"6001 ROGERDALE RD FL",HOUSTON,TX,77072,,,CONTRACTOR,,,,,,,,,,,"THE BURT GROUP",,,,,"THE BURT GROUP","2201 DONLEY DR STE 200",AUSTIN,TX,78758-4538,"(512) 275-0881",http://burtgroup.com/,,,
TX,HARRIS,20065508,"Offices, R&D, & Professional",8/6/2020,Renovation,600000,,"2103 CITYWEST BLVD",HOUSTON,TX,77042,,,CONTRACTOR,,,,,,,,,,,"ODONNELL SNIDER CONSTRUCTION",,,,,"ODONNELL SNIDER CONSTRUCTION","1900 WEST LOOP S",HOUSTON,TX,77027-3214,"(346) 352-3098",http://odonnellsnider.com/,,,
TX,HARRIS,20069247,"Offices, R&D, & Professional",8/7/2020,,2000000,,"15375 MEMORIAL DR",HOUSTON,TX,77079,,,CONTRACTOR,,,,,,,,,,,PERMIT-EXPEDITERS,,,,,PERMIT-EXPEDITERS,"5868 A1 WESTHEIMER ROAD STE 212",HOUSTON,TX,77057-5641,"(713) 503-7226",http://permit-expediters.com/,"(713) 339-4351","TAMI RACK",p-einc@att.net
TX,HARRIS,20072375,"Offices, R&D, & Professional",8/6/2020,Addition,109000,,"7789 SOUTHWEST FWY",HOUSTON,TX,77074,,,CONTRACTOR,,,,,,,,,,,"SOUTH COAST CONSTRUCTION SERVICES",,,,,"SOUTH COAST CONSTRUCTION SERVICES","8935 KNIGHT RD",HOUSTON,TX,77054-4303,"(713) 222-2308",http://www.sccsi.net/contactus.html,"(713) 222-7107",,jbarrow@sccsi.net
TX,HARRIS,20041034,"Offices, R&D, & Professional",8/7/2020,Renovation,132000,,"3120 SOUTHWEST FWY",HOUSTON,TX,77098,,,CONTRACTOR,,,,,,,,,,,"STREAM REALTY PARTNERS",,,,,"STREAM REALTY PARTNERS","515 POST OAK BLVD",HOUSTON,TX,77027-9482,"(713) 300-0300",http://streamrealty.com/,,,
TX,MONTGOMERY,BC-20-001008,"Offices, R&D, & Professional",7/17/2020,Renovation,49300,,"608 METCALF ST",CONROE,TX,77301,,,"RUSSELL MILLER","PO BOX 387",CONROE,TX,77305,"(936) 520-3150",Applicant,,,,,OWNER,,,,,OWNER,,,,,,,,,
TX,MONTGOMERY,BC-20-007869,"Offices, R&D, & Professional",7/20/2020,Renovation,505801,12835,"15258 HIGHWAY 105 W STE 200",CONROE,TX,77356,,,CONTRACTOR,,,,,,,,,,,"MG DESIGNS",,,,,"MG DESIGNS","821 AURORA ST",HOUSTON,TX,77009,"(713) 269-0311",,,,
TX,HARRIS,20035621,"Offices, R&D, & Professional",8/13/2020,Renovation,80000,,"3200 S DAIRY ASHFORD",HOUSTON,TX,77082,,,CONTRACTOR,,,,,,,,,,,"FIRST COMMUNITY CREDIT UNION",,,,,"FIRST COMMUNITY CREDIT UNION","15260 FM 529",HOUSTON,TX,77095,"(281) 856-5300",,,,
TX,HARRIS,19113545,"Offices, R&D, & Professional",8/12/2020,Renovation,1800000,,"6514 WOODWAY",HOUSTON,TX,77057,,,CONTRACTOR,,,,,,,,,,,"BROOKSTONE HOMES",,,,,"BROOKSTONE HOMES","3715 DACOMA ST",HOUSTON,TX,77092-8905,"(713) 683-8800",,,,
TX,HARRIS,20072975,"Offices, R&D, & Professional",8/12/2020,Renovation,47300,,"4400 POST OAK PKY",HOUSTON,TX,77027,,,CONTRACTOR,,,,,,,,,,,"BYRD INTERIOR CONSTRUCTION",,,,,"BYRD INTERIOR CONSTRUCTION","2123 W GOVERNORS CIR # 100",HOUSTON,TX,77092-8746,"(713) 688-8850",http://www.byrdinterior.com/,,"JOHN BYRD",jbyrd@byrdinterior.com
TX,HARRIS,20038925,"Offices, R&D, & Professional",8/14/2020,Renovation,250000,,"4200 LEELAND",HOUSTON,TX,77023,,,CONTRACTOR,,,,,,,,,,,"CITY OF HOUSTON",,,,,"CITY OF HOUSTON","900 BAGBY ST",HOUSTON,TX,77002-2527,"(713) 837-0311",,,,
TX,HARRIS,20006598,"Offices, R&D, & Professional",8/11/2020,,550000,,"5614 FAIRDALE",HOUSTON,TX,77057,,,CONTRACTOR,,,,,,,,,,,"AKD ENGINEERING CONSULTING",,,,,"AKD ENGINEERING CONSULTING","6161 SAVOY DR",HOUSTON,TX,77036,"(281) 606-5568",,,"DENG TIE",info@akdengineers.com
TX,HARRIS,20036679,"Offices, R&D, & Professional",8/14/2020,Renovation,871750,,"12139 KATY",HOUSTON,TX,77079,,,CONTRACTOR,,,,,,,,,,,"JL STONE CONSTRUCTION",,,,,"JL STONE CONSTRUCTION","1019 SHADICK DR","ORANGE CITY",FL,32763-6686,"(386) 775-7974",,,,
TX,HARRIS,20071178,"Offices, R&D, & Professional",8/14/2020,Renovation,42000,,"5709 WOODWAY DR",HOUSTON,TX,77057,,,"DUY DO","5709 WOODWAY DR",HOSUTON,TX,77057,"(919) 346-6666",Applicant,,,,,OWNER,,,,,OWNER,,,,,,,,,
TX,HARRIS,20072395,"Offices, R&D, & Professional",8/14/2020,Renovation,128000,,"9805 KATY FWY",HOUSTON,TX,77024,,,CONTRACTOR,,,,,,,,,,,"METRONATIONAL CORPORATION",,,,,"METRONATIONAL CORPORATION","915 GESSNER RD",HOUSTON,TX,77024-2527,"(713) 973-6400",,,,
TX,HARRIS,20035438,"Offices, R&D, & Professional",8/12/2020,Renovation,90000,,"1000 MAIN ST FL",HOUSTON,TX,77002,,,CONTRACTOR,,,,,,,,,,,"ODONNELL SNIDER CONSTRUCTION",,,,,"ODONNELL SNIDER CONSTRUCTION","1900 WEST LOOP S",HOUSTON,TX,77027-3214,"(346) 352-3098",http://odonnellsnider.com/,,,
TX,HARRIS,20073277,"Offices, R&D, & Professional",8/12/2020,Renovation,37784,,"2603 AUGUSTA DR",HOUSTON,TX,77057,,,CONTRACTOR,,,,,,,,,,,"PREFERRED CONTRACTING SERVICES",,,,,"PREFERRED CONTRACTING SERVICES","1151 BRITTMOORE RD STE C",HOUSTON,TX,77043-5035,"(713) 983-6990",,,,
TX,HARRIS,20066451,"Offices, R&D, & Professional",8/14/2020,Renovation,70000,,"6464 SAVOY DR",HOUSTON,TX,77036,,,"JERRY RAZER","6464 SAVOY DR",HOUSTON,TX,77036,"(713) 320-3006",Applicant,,,,,OWNER,,,,,OWNER,,,,,,,,,
TX,HARRIS,20009677,"Offices, R&D, & Professional",8/12/2020,Renovation,65900,,"5880 WOODWAY",HOUSTON,TX,77057,,,CONTRACTOR,,,,,,,,,,,"TEXAS PERMIT CONSULTANTS",,,,,"TEXAS PERMIT CONSULTANTS","4421 LAFAYETTE ST",BELLAIRE,TX,77401-5632,"(713) 724-6067",,,,
TX,HARRIS,20044259,"Offices, R&D, & Professional",8/11/2020,Renovation,500000,,"2200 POST OAK BLVD",HOUSTON,TX,77056,,,CONTRACTOR,,,,,,,,,,,"SCOTT & REID GENERAL",,,,,"SCOTT & REID GENERAL","17300 DALLAS PKWY STE 2000",DALLAS,TX,75248-1192,"(469) 374-3400",http://www.scottandreid.com,"(469) 374-0060","PHIL VANDERHILL",email@scottandreid.com
TX,HARRIS,20032116,"Offices, R&D, & Professional",8/11/2020,Renovation,150000,,"1333 WEST LOOP SOUTH",HOUSTON,TX,77027,,,CONTRACTOR,,,,,,,,,,,"SCOTT & REID GENERAL",,,,,"SCOTT & REID GENERAL","17300 DALLAS PKWY STE 2000",DALLAS,TX,75248-1192,"(469) 374-3400",http://www.scottandreid.com,"(469) 374-0060","PHIL VANDERHILL",email@scottandreid.com
TX,HARRIS,20075487,"Offices, R&D, & Professional",8/13/2020,Renovation,150000,,"3700 N TERMINAL",HOUSTON,TX,77032,,,CONTRACTOR,,,,,,,,,,,"THE GONZALEZ GROUP",,,,,"THE GONZALEZ GROUP","1245 ANDERSON ST",HOUSTON,TX,77081-2100,"(832) 242-2300",http://www.the-gonzalezgroup.com/,"(832) 242-2310",,
TX,HARRIS,20072121,"Offices, R&D, & Professional",8/14/2020,Renovation,37550,,"1502 TAUB LP",HOUSTON,TX,77030,,,"THE HARRIS CENTER FOR MENTAL HEALTH","1502 TAUB LP",HOUSTON,TX,77030,"(713) 970-7298",Applicant,,,,,OWNER,,,,,OWNER,,,,,,,,,
TX,HARRIS,2002210062,"Offices, R&D, & Professional",7/16/2020,,551919,5658,"2525 INDEPENDENCE PKWY S",HOUSTON,TX,77356,,,"TM DEER PARK SERVICES LLC","2525 INDEPENDENCE PKWY S",HOUSTON,TX,77356,,Owner,,,,,OWNER,,,,,OWNER,,,,,,,,,
TX,HARRIS,20021639,"Other Commercial",8/7/2020,,130000,,"30129 ROCK CREEK DR",HOUSTON,TX,77339,,,CONTRACTOR,,,,,,,,,,,"CAPSTONE HOSPITALITY GROUP",,,,,"CAPSTONE HOSPITALITY GROUP","7039 TERRACE RIDGE",KATY,TX,77494,"(331) 305-1725",,,,
TX,HARRIS,2004100024,"Other Commercial",7/16/2020,,480750,6250,"5801 BREEN DR",HOUSTON,TX,77356,,,"GLORIA ZERMENO","5801 BREEN DR",HOUSTON,TX,77356,,Owner,,,,,OWNER,,,,,OWNER,,,,,,,,,
TX,HARRIS,2002280149,"Other Commercial",7/16/2020,,283416,2801,"10242 GREENHOUSE RD",HOUSTON,TX,77356,,,CONTRACTOR,,,,,,,,,,,"CALDWELL COMPANIES",,,,,"CALDWELL COMPANIES","1700 RESEARCH PKWY STE 110","COLLEGE STATION",TX,77845-8815,"(979) 260-7000",http://caldwellcos.com/,,"CLINT COOPER",
TX,HARRIS,2005010118,"Other Commercial",7/16/2020,,2735000,30399,"3815 W GRAND PARKWAY N",HOUSTON,TX,77356,WATERSTONE,,"SHOPS AT 99 CLAY LLC","3815 W GRAND PARKWAY N",HOUSTON,TX,77356,,Owner,,,,,OWNER,,,,,OWNER,,,,,,,,,
TX,HARRIS,1905230001,"Other Commercial",7/16/2020,,1083245,13708,"7700 FM 1960 RD W",HOUSTON,TX,77356,"AZ GLOBAL BUSINESS SOLUTIONS",,"RANKIN ROAD INVESTMENT LLC","7700 FM 1960 RD W",HOUSTON,TX,77356,,Owner,,,,,OWNER,,,,,OWNER,,,,,,,,,
TX,HARRIS,2004030146,"Other Commercial",7/16/2020,,459075,6121,"23410 GRAND RESERVE DR",HOUSTON,TX,77356,,,"KGOC LLC","23410 GRAND RESERVE DR",HOUSTON,TX,77356,,Owner,,,,,OWNER,,,,,OWNER,,,,,,,,,
TX,HARRIS,1905050003,"Other Commercial",7/16/2020,,840000,11200,"12018 WINDFERN RD",HOUSTON,TX,77356,TRIANGLE,,"ZURG LLC","12018 WINDFERN RD",HOUSTON,TX,77356,,Owner,,,,,OWNER,,,,,OWNER,,,,,,,,,
TX,HARRIS,2004100025,"Other Commercial",7/16/2020,,2124400,21244,"14240 BELLAIRE BLVD",HOUSTON,TX,77356,"PRESIDIO SQUARE",,"BELLAIRE HOWELL LP","14240 BELLAIRE BLVD",HOUSTON,TX,77356,,Owner,,,,,OWNER,,,,,OWNER,,,,,,,,,
TX,HARRIS,2003190074,"Other Commercial",7/16/2020,,1203750,16050,"4420 SPRING CYPRESS RD",HOUSTON,TX,77356,"SANCTUARY VERITAS",,"ORGO SPRING LLC","4420 SPRING CYPRESS RD",HOUSTON,TX,77356,,Owner,,,,,OWNER,,,,,OWNER,,,,,,,,,
TX,HARRIS,2002140147,"Other Commercial",7/16/2020,,2250000,26222,"2533 W GRAND PARKWAY N",HOUSTON,TX,77356,"GRAND PARKWAY",,"99 MORTON RANCH VENTURE LLC","2533 W GRAND PARKWAY N",HOUSTON,TX,77356,,Owner,,,,,OWNER,,,,,OWNER,,,,,,,,,
TX,HARRIS,2004020018,"Other Commercial",7/16/2020,,900000,7928,"23227 GOSLING RD",HOUSTON,TX,77356,GOSLING,,"CYPRESSBROOK GOSLING RETAIL LP","23227 GOSLING RD",HOUSTON,TX,77356,,Owner,,,,,OWNER,,,,,OWNER,,,,,,,,,
TX,HARRIS,2006150155,"Other Commercial",7/16/2020,,2500000,20085,"6845 PEEK RD",HOUSTON,TX,77356,"PEEK PROFESSIONAL HOLDINGS",,"NAVIDAD PROFESSIONAL HOLDINGS LLC","6845 PEEK RD",HOUSTON,TX,77356,,Owner,,,,,OWNER,,,,,OWNER,,,,,,,,,
TX,HARRIS,20023853,"Parks, Recreation, Entertainment, & RV Park",8/5/2020,,518000,,"110 N MILBY",HOUSTON,TX,77003,,,CONTRACTOR,,,,,,,,,,,"ANSLOW BRYANT CONSTRUCTION",,,,,"ANSLOW BRYANT CONSTRUCTION","945 BUNKER HILL RD STE 900",HOUSTON,TX,77024-1365,"(713) 626-1216",http://www.anslowbryant.com/,"(713) 626-1221","JIM ANSLOW",
TX,HARRIS,20029671,"Parks, Recreation, Entertainment, & RV Park",8/5/2020,,60000,,"3004 YALE ST",HOUSTON,TX,77018,,,CONTRACTOR,,,,,,,,,,,"FIDELIS REALTY PARTNERS",,,,,"FIDELIS REALTY PARTNERS","4500 BISSONNET ST, SUITE 200",BELLAIRE,TX,77401,"(713) 693-1400",https://www.frpltd.com/,,,
TX,MONTGOMERY,BC-20-007863,"Parks, Recreation, Entertainment, & RV Park",7/21/2020,"Finish Out",102539,2602,"15264 HIGHWAY 105 W STE 150",CONROE,TX,77356,,,CONTRACTOR,,,,,,,,,,,"HUFFCO SERVICES",,,,,"HUFFCO SERVICES","103 LONGVIEW ST",CONROE,TX,77301-4075,"(936) 756-2278",http://www.huffcoservices.com/,"(936) 788-5443",,info@huffcoservices.com
TX,HARRIS,19069732,"Parks, Recreation, Entertainment, & RV Park",8/12/2020,,5370000,,"1 POTOMAC DR BLD",HOUSTON,TX,77057,,,CONTRACTOR,,,,,,,,,,,"DE HARVEY BUILDERS",,,,,"DE HARVEY BUILDERS","3630 WESTCHASE DR",HOUSTON,TX,77042-5224,"(713) 783-8710",,,,
TX,HARRIS,20030376,"Parks, Recreation, Entertainment, & RV Park",8/11/2020,Renovation,827000,,"2306 S HIGHWAY",HOUSTON,TX,77077,,,CONTRACTOR,,,,,,,,,,,"LONG TERM BUILDERS",,,,,"LONG TERM BUILDERS","4310 LIDO LN",HOUSTON,TX,77092-4314,"(281) 850-2450",,,,
TX,HARRIS,19121835,"Residential Garages & Carports",8/7/2020,,30000,,"905 WALTON",HOUSTON,TX,77009,,,"MOON DAVID","905 WALTON",HOUSTON,TX,77009,"(281) 818-1327",Owner,,,,,OWNER,,,,,OWNER,,,,,,,,,
TX,HARRIS,20008660,"Residential Garages & Carports",8/12/2020,,45000,,"608 W 11TH",HOUSTON,TX,77008,,,CONTRACTOR,,,,,,,,,,,"REVIVE DEVELOPMENT",,,,,"REVIVE DEVELOPMENT","1121 E 11TH ST. ",HOUSTON,TX,77009,"(713) 357-5800",http://www.reviveco.com/,,"BRYAN DANNA",bryan@reviveco.com
TX,HARRIS,20051775,"Residential Renovations & Additions",8/4/2020,Addition,30000,,"5010 1/2 HERSHE",HOUSTON,TX,77020,,,"ABRAHAM & SON HANDY MAN","5010 1/2 HERSHE",HOUSTON,TX,77020,"(281) 236-3958",Owner,,,,,OWNER,,,,,OWNER,,,,,,,,,
TX,HARRIS,20070324,"Residential Renovations & Additions",8/6/2020,Renovation,64617,,"1810 FIRHILL",HOUSTON,TX,77077,,,"BOERO FABIANA","1810 FIRHILL",HOUSTON,TX,77077,,Owner,,,,,"TELL PROJECTS",,,,,"TELL PROJECTS","5328 PRUDENCE DR",HOUSTON,TX,77045-5117,"(832) 591-7991",,,,
TX,HARRIS,20062093,"Residential Renovations & Additions",8/7/2020,Addition,40250,,"1813 S VICTORY",HOUSTON,TX,77088,,,CONTRACTOR,,,,,,,,,,,"RESILIENT DESIGN GROUP",,,,,"RESILIENT DESIGN GROUP","7427 JALNA ST",HOUSTON,TX,77055-3729,"(713) 741-2401",,,,
TX,HARRIS,20055287,"Residential Renovations & Additions",8/4/2020,Renovation,50000,,"6614 MIDFIELD",HOUSTON,TX,77092,,,"GONZALES HERMILA AND FARON","6614 MIDFIELD",HOUSTON,TX,77092,,Owner,,,,,OWNER,,,,,OWNER,,,,,,,,,
TX,HARRIS,20068831,"Residential Renovations & Additions",8/4/2020,Renovation,150000,,"3230 PEMBERTON CIRCLE",HOUSTON,TX,77025,,,"LE DANIEL","3230 PEMBERTON CIRCLE ",HOUSTON,TX,77025,,Owner,,,,,"HTX CONSTRUCTION & DESIGN",,,,,"HTX CONSTRUCTION & DESIGN","6020 JESSAMINE ST",HOUSTON,TX,77081-6400,"(713) 303-0999",http://www.htxconstruction.com/,,,info@htxconstruction.com
TX,HARRIS,20059786,"Residential Renovations & Additions",8/5/2020,Addition,55100,,"2126 MILFORD",HOUSTON,TX,77098,,,"LU YIENCHEN AND CHICHUNG HO","2126 MILFORD",HOUSTON,TX,77098,,Owner,,,,,DRAEGER,,,,,DRAEGER,"7256 S SAM HOUSTON PARKWAY W",HOUSTON,TX,77085,"(713) 969-9637",,"(215) 723-5935",,
TX,HARRIS,20063908,"Residential Renovations & Additions",8/6/2020,Addition,85000,,"7017 AVENUE",HOUSTON,TX,77011,,,"MARTINEZ CESAR","7017 AVENUE",HOUSTON,TX,77011,,Owner,,,,,OWNER,,,,,OWNER,,,,,,,,,
TX,HARRIS,20064581,"Residential Renovations & Additions",8/4/2020,Renovation,95000,,"15807 CLEARCREST",HOUSTON,TX,77059,,,"NAVARRO MICHAEL","15807 CLEARCREST",HOUSTON,TX,77059,"(832) 488-7653",Owner,,,,,OWNER,,,,,OWNER,,,,,,,,,
TX,HARRIS,20069357,"Residential Renovations & Additions",8/6/2020,Renovation,150000,,"2106 DRYDEN",HOUSTON,TX,77030,,,"PARKER ANN ECKLES","2106 DRYDEN",HOUSTON,TX,77030,"(713) 252-1433",Owner,,,,,OWNER,,,,,OWNER,,,,,,,,,
TX,HARRIS,20022936,"Residential Renovations & Additions",8/6/2020,Addition,75000,,"302 EDGEWOOD",HOUSTON,TX,77011,,,"PROVOST LANCE","302 EDGEWOOD",HOUSTON,TX,77011,,Owner,,,,,"POTEET DESIGN ASSOCIATES",,,,,"POTEET DESIGN ASSOCIATES","10047 WESTPARK DR",HOUSTON,TX,77042-5949,"(832) 832-5991",http://poteetdesign.com/,"(832) 941-0370","Baxter Poteet",baxter.poteet@poteetdesign.com
TX,HARRIS,20070490,"Residential Renovations & Additions",8/4/2020,Addition,45860,,"12661 YANCY",HOUSTON,TX,77015,,,"TIRADO FERMIN","12661 YANCY",HOUSTON,TX,77015,,Owner,,,,,"SYNAPTIC SOLAR",,,,,"SYNAPTIC SOLAR","701 N GLENVILLE DR STE 300",RICHARDSON,TX,75081-3075,"(972) 643-8655",,,,info@synapticsolar.com
TX,HARRIS,20070539,"Residential Renovations & Additions",8/4/2020,Addition,40058,,"12942 NIGHTSHADE CREST",HOUSTON,TX,77085,,,"TOL DIEGO","12942 NIGHTSHADE CREST",HOUSTON,TX,77085,,Owner,,,,,"SYNAPTIC SOLAR",,,,,"SYNAPTIC SOLAR","701 N GLENVILLE DR STE 300",RICHARDSON,TX,75081-3075,"(972) 643-8655",,,,info@synapticsolar.com
TX,HARRIS,20055346,"Residential Renovations & Additions",8/6/2020,Addition,75000,,"2114 CHANTILLY",HOUSTON,TX,77018,,,"TUCKER AUSTIN","2114 CHANTILLY",HOUSTON,TX,77018,,Owner,,,,,"HARVARD HOMES",,,,,"HARVARD HOMES","1335 SUE BARNETT DR",HOUSTON,TX,77018,"(281) 728-7456",https://www.harvardhomeshou.com/,,,Hello@harvardhomeshou.com
TX,HARRIS,20061405,"Residential Renovations & Additions",8/7/2020,Addition,187000,,"3909 DEL MONTE",HOUSTON,TX,77019,,,"WHALEN MICHAEL","3909 DEL MONTE",HOUSTON,TX,77019,,Owner,,,,,"SIMS LUXURY BUILDERS",,,,,"SIMS LUXURY BUILDERS","4665 SWEETWATER BLVD STE 106","SUGAR LAND",TX,77479-3000,"(281) 242-7900",http://www.simsbuilders.com/,"(281) 242-2943","Christopher Sims",
TX,MONTGOMERY,BR-20-007960,"Residential Renovations & Additions",7/20/2020,Renovation,200000,1324,"116 APRIL WIND DR S",CONROE,TX,77356,"APRIL SOUND",5,CONTRACTOR,,,,,,,,,,,"DUAYNE FREEMAN AND ASSOCIATES",,,,,"DUAYNE FREEMAN AND ASSOCIATES","1712 N FRAZIER ST STE 206",CONROE,TX,77301-1380,"(936) 760-3666",,,,
TX,MONTGOMERY,174627-20,"Residential Renovations & Additions",7/30/2020,Renovation,46670,,"16523 ROCK WREN TR",HOUSTON,TX,77356,"MONTGOMERY CREEK RANCH",,CONTRACTOR,,,,,,,,,,,"LONG LAKE HOMES",,,,,"LONG LAKE HOMES","15915 KATY FWY STE 405",HOUSTON,TX,77094-1710,"(281) 646-1727",http://www.longlakeltd.com/,,"DAVID BIGLER",
TX,MONTGOMERY,174531-20,"Residential Renovations & Additions",7/28/2020,Renovation,50000,,"15827 SWEETGUM ROAD",HOUSTON,TX,77356,"HIDDEN FOREST ESTATES",,CONTRACTOR,,,,,,,,,,,"OMG BUILDERS",,,,,"OMG BUILDERS","2257 N LOOP 336 W STE 140-303",CONROE,TX,77304,"(832) 457-9442",,,,
TX,HARRIS,20067750,"Residential Renovations & Additions",8/14/2020,Addition,72000,,"409 GRACE",HOUSTON,TX,77003,,,"AGUILUZ RENE","409 GRACE",HOUSTON,TX,77003,,Owner,,,,,"TORRES PATRICIA",,,,,"TORRES PATRICIA","15550 VICKERY DR",HOUSTON,TX,77032,"(281) 714-8992",,,,
TX,HARRIS,20075371,"Residential Renovations & Additions",8/14/2020,Renovation,32896,,"1020 CHESHIRE",HOUSTON,TX,77018,,,"BORDELON LESLIE","1020 CHESHIRE",HOUSTON,TX,77018,,Owner,,,,,"RENEWAL BY ANDERSEN",,,,,"RENEWAL BY ANDERSEN","9825 FM",HOUSTON,TX,77375,"(281) 387-6000",http://www.rba-texas.com/,,,
TX,HARRIS,20072036,"Residential Renovations & Additions",8/14/2020,Renovation,50000,,"637 HAWTHORNE",HOUSTON,TX,77006,,,"BUGOS NICHOLAS","637 HAWTHORNE",HOUSTON,TX,77006,"(215) 287-7641",Owner,,,,,OWNER,,,,,OWNER,,,,,,,,,
TX,HARRIS,20063409,"Residential Renovations & Additions",8/13/2020,Addition,45000,,"5634 BERRY CREEK",HOUSTON,TX,77017,,,"CASTILLO JORGE","5634 BERRY CREEK",HOUSTON,TX,77017,"(713) 302-2749",Owner,,,,,OWNER,,,,,OWNER,,,,,,,,,
TX,HARRIS,20071601,"Residential Renovations & Additions",8/11/2020,Renovation,55500,,"3 REMINGTON",HOUSTON,TX,77005,,,"CLAY ROBERT","3 REMINGTON",HOUSTON,TX,77005,,Owner,,,,,"GOODCHILD BUILDERS",,,,,"GOODCHILD BUILDERS","1200 BLALOCK RD STE 312",HOUSTON,TX,77055-6455,"(713) 984-2272",http://www.goodchildbuilders.com/,,,
TX,HARRIS,20059199,"Residential Renovations & Additions",8/14/2020,Renovation,49500,,"4502 W 43RD",HOUSTON,TX,77092,,,CONTRACTOR,,,,,,,,,,,"ANJA'S PERMIT ASSISTANCE",,,,,"ANJA'S PERMIT ASSISTANCE","PO BOX 1471",HOUSTON,TX,77251-1471,"(281) 222-5227",,,,
TX,HARRIS,20049512,"Residential Renovations & Additions",8/11/2020,Renovation,150000,,"1101 TULANE",HOUSTON,TX,77008,,,CONTRACTOR,,,,,,,,,,,"JACOB BUCKWALTER",,,,,"JACOB BUCKWALTER","9597 JONES RD",HOUSTON,TX,77065-4815,"(832) 272-8423",,,,
TX,HARRIS,20063309,"Residential Renovations & Additions",8/11/2020,Addition,144828,,"5953 GREEN TREE",HOUSTON,TX,77057,,,"GEORGE & GABRIELLA SMITH","5953 GREEN TREE",HOUSTON,TX,77057,,Owner,,,,,"BUSTER & COGDELL BUILDERS",,,,,"BUSTER & COGDELL BUILDERS","8562 KATY FWY SUITE 152",HOUSTON,TX,77024-1846,"(713) 783-1192",http://www.busterandcogdellbuilders.com/,"(713) 789-1636","COOPER COGDELL",ccogdell@busterandcogdellbuilders.com
TX,HARRIS,20035653,"Residential Renovations & Additions",8/12/2020,Renovation,236000,,"1000 MAIN ST",HOUSTON,TX,77002,,,"PILAR & JOSE BARDALES","1000 MAIN ST",HOUSTON,TX,77002,,Owner,,,,,"ODONNELL SNIDER CONSTRUCTION",,,,,"ODONNELL SNIDER CONSTRUCTION","1900 WEST LOOP S",HOUSTON,TX,77027-3214,"(346) 352-3098",http://odonnellsnider.com/,,,
TX,HARRIS,20066386,"Residential Renovations & Additions",8/11/2020,Renovation,30000,,"5812 SOUTHCREST",HOUSTON,TX,77033,,,"JOE LUKOSE","5812 SOUTHCREST",HOUSTON,TX,77033,,Owner,,,,,"PRINDLE CODY",,,,,"PRINDLE CODY","20618 BAHAMA BLUE DR",HOUSTON,TX,77407,"(432) 664-1235",,,,
TX,HARRIS,20074781,"Residential Renovations & Additions",8/14/2020,Renovation,40000,,"6604 AVENUE",HOUSTON,TX,77011,,,CONTRACTOR,,,,,,,,,,,"VECINO HOMES",,,,,"VECINO HOMES","4007 WALKER STREET",HOUSTON,TX,77023,"(713) 370-0308",https://www.vecinohomes.com/,,,
TX,HARRIS,20068432,"Residential Renovations & Additions",8/12/2020,Renovation,135000,,"2234 ROBINHOOD",HOUSTON,TX,77005,,,"DAMIAN & BRITTANY MATHIS","2234 ROBINHOOD",HOUSTON,TX,77005,"(281) 802-7350",Owner,,,,,OWNER,,,,,OWNER,,,,,,,,,
TX,HARRIS,19126653,"Residential Renovations & Additions",8/14/2020,Addition,500000,,"5726 MARTHA",HOUSTON,TX,77032,,,"DEPALOMARES ARACELY","5726 MARTHA",HOUSTON,TX,77032,"(832) 840-1297",Owner,,,,,OWNER,,,,,OWNER,,,,,,,,,
TX,HARRIS,20047794,"Residential Renovations & Additions",8/11/2020,Addition,185000,,"1319 HARVARD",HOUSTON,TX,77008,,,"DESJARDINS CHRISTIAN","1319 HARVARD",HOUSTON,TX,77008,,Owner,,,,,"KEEPSAKE DESIGN & BUILD",,,,,"KEEPSAKE DESIGN & BUILD","POST OFFICE BOX 1425",GALVESTON,TX,77553,"(214) 240-8289",,,,
TX,HARRIS,20073442,"Residential Renovations & Additions",8/13/2020,Renovation,49705,,"6431 WISTER",HOUSTON,TX,77008,,,"EYNARD SCOTT","6431 WISTER",HOUSTON,TX,77008,,Owner,,,,,"LBJ CONSTRUCTION",,,,,"LBJ CONSTRUCTION","5438 GUHN RD",HOUSTON,TX,77040-6211,"(713) 781-0169",http://lbjconstruction.com/,"(713) 460-0224","BRECK POWERS",powers@lbjconstruction.com
TX,HARRIS,20063101,"Residential Renovations & Additions",8/14/2020,Addition,190000,,"301 TABOR",HOUSTON,TX,77009,,,"FLORES FERNANDO","301 TABOR",HOUSTON,TX,77009,,Owner,,,,,"ZUNIGA VAZQUEZ & ASSOCIATES",,,,,"ZUNIGA VAZQUEZ & ASSOCIATES","1116 POST STREET",HOUSTON,TX,77022,"(713) 245-0779",,,,
TX,HARRIS,20073020,"Residential Renovations & Additions",8/12/2020,Addition,40263,,"2603 DURBAN",HOUSTON,TX,77043,,,"FREEMAN SUSAN","2603 DURBAN",HOUSTON,TX,77043,,Owner,,,,,"INFINITY ENERGY",,,,,"INFINITY ENERGY","7930 BREEN DR",HOUSTON,TX,77064,"(888) 244-2513",,,,
TX,HARRIS,20066614,"Residential Renovations & Additions",8/13/2020,Addition,46230,,"1901 W 14TH",HOUSTON,TX,77008,,,"FRIEND DIXIE","1901 W 14TH",HOUSTON,TX,77008,,Owner,,,,,"STEVEN THOMPSON",,,,,"STEVEN THOMPSON","705 SHEPHERD DR",HOUSTON,TX,77007-5352,"(713) 802-0223",,,,
TX,HARRIS,20051067,"Residential Renovations & Additions",8/11/2020,Addition,356643,,"720 BAYLAND",HOUSTON,TX,77009,,,"GILMORE MICHAEL &  KATHERINE","720 BAYLAND",HOUSTON,TX,77009,,Owner,,,,,"JACOB BUCKWALTER",,,,,"JACOB BUCKWALTER","9597 JONES RD",HOUSTON,TX,77065-4815,"(832) 272-8423",,,,
TX,HARRIS,20049405,"Residential Renovations & Additions",8/11/2020,Addition,175000,,"5018 PARK GATE",HOUSTON,TX,77018,,,"GRAYLESS RYAN & HALEY","5018 PARK GATE",HOUSTON,TX,77018,,Owner,,,,,"SCM CONSTRUCTION SERVICES",,,,,"SCM CONSTRUCTION SERVICES","1301 E PARKERVILLE RD STE A",DESOTO,TX,75115-6420,"(972) 274-5151",,"(972) 274-5157",,sam@scmconstructionllc.com
TX,HARRIS,20064950,"Residential Renovations & Additions",8/14/2020,Renovation,75000,,"2509 RIVERSIDE",HOUSTON,TX,77004,,,"JAIN KIRAN","2509 RIVERSIDE",HOUSTON,TX,77004,"(832) 656-0134",Owner,,,,,OWNER,,,,,OWNER,,,,,,,,,
TX,HARRIS,20073638,"Residential Renovations & Additions",8/13/2020,Addition,30000,,"5614 BELROSE",HOUSTON,TX,77035,,,"KETCHUM ROBERT","5614 BELROSE",HOUSTON,TX,77035,,Owner,,,,,"DAVID CONCRETE",,,,,"DAVID CONCRETE","13507 OAK BEND FOREST DR",HOUSTON,TX,77083,"(713) 517-6900",,,,
TX,HARRIS,20067539,"Residential Renovations & Additions",8/13/2020,Addition,30000,,"8341 BOTANY",HOUSTON,TX,77075,,,"MENDOZA MANUEL","8341 BOTANY",HOUSTON,TX,77075,,Owner,,,,,EQUISOLAR,,,,,EQUISOLAR,"16530 VENTURA BLVD",ENCINO,CA,91436-4554,"(682) 518-1836",,,,
TX,HARRIS,20044048,"Residential Renovations & Additions",8/13/2020,Addition,59978,,"4176 MEYERWOOD",HOUSTON,TX,77025,,,"MONTIVERDI JONATHAN","4176 MEYERWOOD",HOUSTON,TX,77025,,Owner,,,,,"GULF COAST BUILDING SERVICES",,,,,"GULF COAST BUILDING SERVICES","9711 S MASON RD STE. 125 #249.",RICHMOND,TX,77407,"(713) 857-7009",https://www.gulfcoastbuilds.com/,,,codi@gulfcoastbuilds.com
TX,HARRIS,20063980,"Residential Renovations & Additions",8/14/2020,Addition,94164,,"5952 PINE FOREST",HOUSTON,TX,77057,,,"MURPHY PAUL BAKER","5952 PINE FOREST",HOUSTON,TX,77057,,Owner,,,,,"GOODCHILD BUILDERS",,,,,"GOODCHILD BUILDERS","1200 BLALOCK RD STE 312",HOUSTON,TX,77055-6455,"(713) 984-2272",http://www.goodchildbuilders.com/,,,
TX,HARRIS,20060491,"Residential Renovations & Additions",8/13/2020,Addition,40000,,"5910 TWILIGHT SHADOW",HOUSTON,TX,77059,,,"RAUSCH TIFFANY","5910 TWILIGHT SHADOW",HOUSTON,TX,77059,,Owner,,,,,"TRINITY REMODELING",,,,,"TRINITY REMODELING","2614 GREEN VALLEY DR","DEER PARK",TX,77536-6617,"(409) 682-5065",,,,
TX,HARRIS,20070711,"Residential Renovations & Additions",8/12/2020,Addition,35272,,"11515 FAIRPOINT",HOUSTON,TX,77099,,,"RUBIO JOSEPH","11515 FAIRPOINT",HOUSTON,TX,77099,,Owner,,,,,"INFINITY ENERGY",,,,,"INFINITY ENERGY","7930 BREEN DR",HOUSTON,TX,77064,"(888) 244-2513",,,,
TX,HARRIS,20057084,"Residential Renovations & Additions",8/13/2020,Addition,35000,,"4202 DAVENPORT",HOUSTON,TX,77051,,,"SHAWANA BENNINGS & SHALONDA KNIGHT","4202 DAVENPORT",HOUSTON,TX,77051,,Owner,,,,,OWNER,,,,,OWNER,,,,,,,,,
TX,HARRIS,20072382,"Residential Renovations & Additions",8/11/2020,Addition,75000,,"14726 CINDYWOOD",HOUSTON,TX,77079,,,"STANDEFER SHARON","14726 CINDYWOOD",HOUSTON,TX,77079,,Owner,,,,,"WAMHOFF DESIGN BUILD",,,,,"WAMHOFF DESIGN BUILD","23560 COONS RD",TOMBALL,TX,77375-8202,"(281) 546-8666",http://www.wamhoffdesignbuild.com/,"(832) 415-0553",,greg@wamhoffdevelopment.com
TX,HARRIS,20065890,"Residential Renovations & Additions",8/13/2020,Renovation,135000,,"414 SOUTHCHESTER",HOUSTON,TX,77079,,,"WALTER AND ELIZABETH BRUCE","414 SOUTHCHESTER",HOUSTON,TX,77079,,Owner,,,,,"BERT LEACH",,,,,"BERT LEACH","7211 REGENCY SQUARE BLVD STE 154",HOUSTON,TX,77036-3059,"(832) 372-5612",,"(281) 579-8539",,
TX,HARRIS,1912050036,"Residential Renovations & Additions",7/16/2020,Renovation,40000,,"16911 LAURELWOOD DR",HOUSTON,TX,77356,"FOREST RIVER ESTATES",,"AMALIA GARCIA","16911 LAURELWOOD DR",HOUSTON,TX,77356,,Owner,,,,,OWNER,,,,,OWNER,,,,,,,,,
TX,HARRIS,2006020124,"Residential Renovations & Additions",7/16/2020,Renovation,40000,1027,"330 HAVARD RD",HOUSTON,TX,77356,"WATER WONDERLAND",,"ERIC WUESTE","330 HAVARD RD",HOUSTON,TX,77356,,Owner,,,,,OWNER,,,,,OWNER,,,,,,,,,
TX,HARRIS,2004080072,"Residential Renovations & Additions",7/16/2020,Renovation,34000,1364,"3209 BERTRAND ST",HOUSTON,TX,77356,"MARY FRANCES",,"BAYRON CHINCHILLA","3209 BERTRAND ST",HOUSTON,TX,77356,,Owner,,,,,OWNER,,,,,OWNER,,,,,,,,,
TX,HARRIS,20068938,"Residential Swimming Pools & Spas",8/7/2020,,40000,,"10031 PIPING ROCK",HOUSTON,TX,77042,,,"BLAZEI DANIEL","10031 PIPING ROCK",HOUSTON,TX,77042,,Owner,,,,,"JUAN RODRIGUEZ",,,,,"JUAN RODRIGUEZ","119 STAR RIDGE",HOUSTON,TX,77382,"(281) 460-5824",,,,
TX,HARRIS,20070271,"Residential Swimming Pools & Spas",8/7/2020,,30000,,"1442 ALTHEA",HOUSTON,TX,77018,,,"BONORDEN KATHRYN","1442 ALTHEA",HOUSTON,TX,77018,,Owner,,,,,"CREATIVE LIFESTYLE POOLS ",,,,,"CREATIVE LIFESTYLE POOLS ","13121 LOUETTA RD",CYPRESS,TX,77429-5155,"(281) 820-0396",http://www.creativelifestylepools.com/,,,jlmonke@aol.com
TX,HARRIS,20061871,"Residential Swimming Pools & Spas",8/5/2020,,76000,,"14011 LAKE TAHOE ",HOUSTON,TX,77044,,,"BROADWAY ONA","14011 LAKE TAHOE",HOUSTON,TX,77044,,Owner,,,,,"ST CROIX CUSTOM POOLS",,,,,"ST CROIX CUSTOM POOLS","18903 TOMATO ST",SPRING,TX,77379-4935,"(936) 203-7560",,,,
TX,HARRIS,20052818,"Residential Swimming Pools & Spas",8/6/2020,,64000,,"5827 BEACON FALLS",HOUSTON,TX,77345,,,"BRYANT PHILLIP","5827 BEACON FALLS",HOUSTON,TX,77345,,Owner,,,,,"THE POOL WHISPERER",,,,,"THE POOL WHISPERER","2540 FARM TO MARKET SUITE C",SPRING,TX,77388,"(832) 515-5774",,,,
TX,HARRIS,20062537,"Residential Swimming Pools & Spas",8/6/2020,,81986,,"4011 BETSY",HOUSTON,TX,77027,,,"BUXBAUM RICHARD","4011 BETSY",HOUSTON,TX,77027,,Owner,,,,,"PLATINUM POOLS",,,,,"PLATINUM POOLS","4500 BLALOCK RD",HOUSTON,TX,77041-9121,"(281) 870-1600",,,,
TX,HARRIS,20070989,"Residential Swimming Pools & Spas",8/7/2020,,57226,,"1210 CORDELL",HOUSTON,TX,77009,,,"SAMUEL ROMERO","1210 CORDELL",HOUSTON,TX,77009,,Owner,,,,,"PLATINUM POOLS",,,,,"PLATINUM POOLS","4500 BLALOCK RD",HOUSTON,TX,77041-9121,"(281) 870-1600",,,,
TX,HARRIS,20070998,"Residential Swimming Pools & Spas",8/7/2020,,67647,,"12651 TAYLORCREST",HOUSTON,TX,77024,,,"DANIEL ZOCH","12651 TAYLORCREST",HOUSTON,TX,77024,,Owner,,,,,"PLATINUM POOLS",,,,,"PLATINUM POOLS","4500 BLALOCK RD",HOUSTON,TX,77041-9121,"(281) 870-1600",,,,
TX,HARRIS,20071606,"Residential Swimming Pools & Spas",8/7/2020,,70000,,"1024 E 7TH 1/2",HOUSTON,TX,77009,,,CONTRACTOR,,,,,,,,,,,"WATER'S EDGE",,,,,"WATER'S EDGE","1850 HOLLISTER ST",HOUSTON,TX,77080-6802,"(713) 882-0456",http://www.weoutdoorliving.com,"(713) 849-6609",,
TX,HARRIS,20040056,"Residential Swimming Pools & Spas",8/4/2020,,92000,,"2351 WEST LOOP SOUTH FL",HOUSTON,TX,77027,,,CONTRACTOR,,,,,,,,,,,"WATTS POOL COMPANY",,,,,"WATTS POOL COMPANY","11150 KATY FWY",HOUSTON,TX,77043-4628,"(713) 461-7300",http://www.wattspool.com,"(713) 461-8382","KRISTEN WATTS",sales@wattspool.com
TX,HARRIS,20062063,"Residential Swimming Pools & Spas",8/4/2020,,55150,,"10011 BRIAR ROSE",HOUSTON,TX,77042,,,"DEMIANY SUSAN","10011 BRIAR ROSE",HOUSTON,TX,77042,,Owner,,,,,"CUSTOM OUTDOORS",,,,,"CUSTOM OUTDOORS","6518 SKYVIEW",HOUSTON,TX,77041,"(281) 773-9104",http://www.customoutdoors.com/,,,
TX,HARRIS,20057536,"Residential Swimming Pools & Spas",8/6/2020,,38000,,"2321 SUL ROSS",HOUSTON,TX,77098,,,"DOUDNA LAWRENCE","2321 SUL ROSS",HOUSTON,TX,77098,,Owner,,,,,"HOUSTON POOL DESIGN CONSTRUCTION",,,,,"HOUSTON POOL DESIGN CONSTRUCTION","3711 CYPRESSWOOD MEADOWS CT",SPRING,TX,77388-4171,"(281) 812-4919",http://www.houstonpool.com/,,,david@houstonpool.com
TX,HARRIS,20064243,"Residential Swimming Pools & Spas",8/7/2020,,35000,,"815 ENGLISH",HOUSTON,TX,77009,,,"ESPINO EDGAR","815 ENGLISH",HOUSTON,TX,77009,,Owner,,,,,"RAINEY POOL",,,,,"RAINEY POOL","1101 GULF FWY S","LEAGUE CITY",TX,77573-5115,"(281) 914-3684",http://www.raineypools.com/,"(281) 338-1557",,info@raineypools.com
TX,HARRIS,20066075,"Residential Swimming Pools & Spas",8/4/2020,,41100,,"5302 HICKORY VILLAGE",HOUSTON,TX,77345,,,"GALLEGOS RUBEN","5302 HICKORY VILLAGE",HOUSTON,TX,55555,,Owner,,,,,"PRECISION POOLS & SPAS",,,,,"PRECISION POOLS & SPAS","16230 WEST BELLFORT",HOUSTON,TX,77498,"(281) 265-2774",https://www.precisionswimmingpools.com,,,
TX,HARRIS,20069972,"Residential Swimming Pools & Spas",8/4/2020,,55000,,"4121 WOODFOX",HOUSTON,TX,77025,,,"GRIMES KEVIN","4121 WOODFOX",HOUSTON,TX,77025,,Owner,,,,,"PREMIER POOLS & SPAS",,,,,"PREMIER POOLS & SPAS","2810 BUSINESS CENTER DR STE 126",PEARLAND,TX,77584-9783,"(713) 436-4944",,"(713) 436-0081","BILL UNGER",bunger@ppas.com
TX,HARRIS,20061287,"Residential Swimming Pools & Spas",8/4/2020,,56960,,"16702 LAVON LAKE",HOUSTON,TX,77044,,,"GRIMES MATTHEW JEFFREY","16702 LAVON LAKE",HOUSTON,TX,77044,,Owner,,,,,OWNER,,,,,OWNER,,,,,,,,,
TX,HARRIS,20067526,"Residential Swimming Pools & Spas",8/6/2020,,73759,,"431 GLENCHESTER",HOUSTON,TX,77079,,,"HEMMER JOSEPH LAURA","431 GLENCHESTER",HOUSTON,TX,77079,,Owner,,,,,"SUNSET POOLS",,,,,"SUNSET POOLS","3510 GREENBUSCH RD",KATY,TX,77494-6336,"(281) 693-4896",http://sunsetpoolsinc.com,,"ADAM TRAUGOTT",
TX,HARRIS,20061745,"Residential Swimming Pools & Spas",8/6/2020,,40000,,"8749 CANDACE",HOUSTON,TX,77055,,,"HONJNACKI CRAIG","8749 CANDACE",HOUSTON,TX,77055,,Owner,,,,,"REGAL POOLS",,,,,"REGAL POOLS","6425 FM 2920 RD",SPRING,TX,77379-2535,"(281) 251-0044",,,,
TX,HARRIS,20059032,"Residential Swimming Pools & Spas",8/5/2020,,43000,,"4131 DURNESS",HOUSTON,TX,77025,,,"LOWTHER MICHELLE","4131 DURNESS",HOUSTON,TX,77025,,Owner,,,,,"WE CLEAN HOUSTON POOLS",,,,,"WE CLEAN HOUSTON POOLS","11875 W LITTLE YORK RD STE 501",HOUSTON,TX,77041-4736,"(713) 957-8454",,,,
TX,HARRIS,20061653,"Residential Swimming Pools & Spas",8/4/2020,,265479,,"2945 LAZY LANE",HOUSTON,TX,77019,,,"MATTHEW ARNOLD","2945 LAZY LANE",HOUSTON,TX,77019,,Owner,,,,,"TEXAS POOLS",,,,,"TEXAS POOLS","2408 TIMBERLOCH PL STE 85","THE WOODLANDS",TX,77380-1012,"(281) 367-4660",http://www.texaspools.com,"(281) 367-8053","PAUL RYAN",info@texaspools.com
TX,HARRIS,20068458,"Residential Swimming Pools & Spas",8/6/2020,,58000,,"2415 BLUE WATER",HOUSTON,TX,77018,,,"PARADA TONY","2415 BLUE WATER",HOUSTON,TX,77018,,Owner,,,,,"MATT DAVIS",,,,,"MATT DAVIS","4514 ELLA BLVD",HOUSTON,TX,77018-3110,"(832) 499-3122",,,,
TX,HARRIS,20062255,"Residential Swimming Pools & Spas",8/6/2020,,75161,,"2153 UNIVERSITY",HOUSTON,TX,77030,,,"PETERSON HEATHER","2153 UNIVERSITY",HOUSTON,TX,77030,,Owner,,,,,"CYPRESS CUSTOM POOLS",,,,,"CYPRESS CUSTOM POOLS","12111 SPRING CYPRESS RD",TOMBALL,TX,77377-8244,"(713) 369-0925",http://www.cypresscustompools.com/,,,
TX,HARRIS,20069979,"Residential Swimming Pools & Spas",8/7/2020,,64000,,"6538 CINDY",HOUSTON,TX,77008,,,"RAMEY LAURA","6538 CINDY",HOUSTON,TX,77008,,Owner,,,,,"PLATINUM POOLS",,,,,"PLATINUM POOLS","4500 BLALOCK RD",HOUSTON,TX,77041-9121,"(281) 870-1600",,,,
TX,HARRIS,20060430,"Residential Swimming Pools & Spas",8/4/2020,,87410,,"3026 BLUE BONNET",HOUSTON,TX,77025,,,"SALES VERNICKA","3026 BLUE BONNET",HOUSTON,TX,77025,,Owner,,,,,"C3 BUILDING SOLUTIONS",,,,,"C3 BUILDING SOLUTIONS","8403 WESTGLEN DR",HOUSTON,TX,77063-6311,"(713) 369-0925",http://www.c3buildingsolutions.com,,,
TX,HARRIS,20067282,"Residential Swimming Pools & Spas",8/5/2020,,28215,,"7907 WOLFIELD",HOUSTON,TX,77071,,,"SCHEFF YOCHANAN","7907 WOLFIELD",HOUSTON,TX,77071,,Owner,,,,,"PRECISION POOLS & SPAS",,,,,"PRECISION POOLS & SPAS","16230 WEST BELLFORT",HOUSTON,TX,77498,"(281) 265-2774",https://www.precisionswimmingpools.com,,,
TX,HARRIS,20066339,"Residential Swimming Pools & Spas",8/4/2020,,52890,,"903 BAYLAND",HOUSTON,TX,77009,,,"SHEA SANDEFER HILL","903 BAYLAND",HOUSTON,TX,77009,,Owner,,,,,"PEAK POOLS AND SPAS",,,,,"PEAK POOLS AND SPAS","5535 MEMORIAL DR STE F-323",HOUSTON,TX,77007-8021,"(281) 849-4335",http://www.peakpoolsandspas.com/,,,peakpools@outlook.com
TX,HARRIS,20062265,"Residential Swimming Pools & Spas",8/4/2020,,50000,,"10619 MOONLIGHT",HOUSTON,TX,77096,,,"STANDIFORD JEFF","10619 MOONLIGHT",HOUSTON,TX,77096,"(979) 575-3348",Owner,,,,,OWNER,,,,,OWNER,,,,,,,,,
TX,HARRIS,20068844,"Residential Swimming Pools & Spas",8/5/2020,,25000,,"706 CORTLANDT",HOUSTON,TX,77007,,,"TEGTMEIER ROB","706 CORTLANDT",HOUSTON,TX,77007,,Owner,,,,,"CREEKSTONE OUTDOORS",,,,,"CREEKSTONE OUTDOORS","25702 ALDINE",HOUSTON,TX,77373,"(501) 593-9034",http://www.creekstoneoutdoors.com/,,,
TX,HARRIS,20063158,"Residential Swimming Pools & Spas",8/4/2020,,40000,,"1207 CHARING CROSS",HOUSTON,TX,77339,,,"THOMPSON DIRK & BRANDIE","1207 CHARING CROSS ",HOUSTON,TX,77339,,Owner,,,,,"PREMIER POOLS & SPAS",,,,,"PREMIER POOLS & SPAS","2810 BUSINESS CENTER DR STE 126",PEARLAND,TX,77584-9783,"(713) 436-4944",,"(713) 436-0081","BILL UNGER",bunger@ppas.com
TX,HARRIS,20063680,"Residential Swimming Pools & Spas",8/4/2020,,35222,,"331 GERSHWIN",HOUSTON,TX,77079,,,"VASQUEZ JUAN","331 GERSHWIN",HOUSTON,TX,77079,,Owner,,,,,"TEXAS CONSTRUCTION PLUS",,,,,"TEXAS CONSTRUCTION PLUS","PO BOX 5792",KATY,TX,77491-5792,"(281) 317-7587",http://www.texasconstructionplus.com,,,info@texasconstructionplus.com
TX,HARRIS,20065216,"Residential Swimming Pools & Spas",8/7/2020,,66158,,"6530 SAXET",HOUSTON,TX,77055,,,"VAUGHAN RICHARD","6530 SAXET",HOUSTON,TX,77055,,Owner,,,,,"PLATINUM POOLS",,,,,"PLATINUM POOLS","4500 BLALOCK RD",HOUSTON,TX,77041-9121,"(281) 870-1600",,,,
TX,HARRIS,20071042,"Residential Swimming Pools & Spas",8/5/2020,,77500,,"236 W 32ND",HOUSTON,TX,77018,,,"WHEAT MICHAEL","236 W 32ND",HOUSTON,TX,77018,,Owner,,,,,"BACKYARD AMENITIES",,,,,"BACKYARD AMENITIES","11163 OLD NEEDLEPOINT RD STE 100",BAYTOWN,TX,77523-9784,"(281) 837-8234",http://www.backyardamenities.com,,,info@backyardamenities.com
TX,HARRIS,20062062,"Residential Swimming Pools & Spas",8/4/2020,,62370,,"10007 BRIAR ROSE",HOUSTON,TX,77042,,,"YOUNG LORIE","10007 BRIAR ROSE",HOUSTON,TX,77042,,Owner,,,,,"CUSTOM OUTDOORS",,,,,"CUSTOM OUTDOORS","6518 SKYVIEW",HOUSTON,TX,77041,"(281) 773-9104",http://www.customoutdoors.com/,,,
TX,MONTGOMERY,173880-20,"Residential Swimming Pools & Spas",7/13/2020,,260000,,"218 TAYLER RIDGE WAY",HOUSTON,TX,77356,WOODFOREST,,CONTRACTOR,,,,,,,,,,,"WESTIN HOMES",,,,,"WESTIN HOMES","1 SUGAR CREEK CENTER BLVD STE 600","SUGAR LAND",TX,77478-3787,"(281) 240-1551",http://www.westin-homes.com,,,
TX,MONTGOMERY,173881-20,"Residential Swimming Pools & Spas",7/13/2020,,225000,,"25228 AUTUMN WATER ST",HOUSTON,TX,77356,"WOODRIDGE FOREST",,CONTRACTOR,,,,,,,,,,,"WESTIN HOMES",,,,,"WESTIN HOMES","1 SUGAR CREEK CENTER BLVD STE 600","SUGAR LAND",TX,77478-3787,"(281) 240-1551",http://www.westin-homes.com,,,
TX,MONTGOMERY,"174105 20","Residential Swimming Pools & Spas",7/15/2020,,95000,,"11762 WHITE CEDAR",HOUSTON,TX,77356,"WALNUT COVE",,"KENNETH WILSON","24759 STANDLIND ROAD",TOMBALL,TX,77375,,Owner,,,,,OWNER,,,,,OWNER,,,,,,,,,
TX,HARRIS,20070878,"Residential Swimming Pools & Spas",8/12/2020,,65000,,"4307 HILL FOREST",HOUSTON,TX,77345,,,"ARNDT DARREN","4307 HILL FOREST",HOUSTON,TX,77345,,Owner,,,,,"EASTEX POOLS",,,,,"EASTEX POOLS","2907 CLEAR RIDGE",HOUSTON,TX,77339,"(713) 819-7969",http://www.eastexcompany.com/,"(281) 360-6553",,Web@EastexCompany.com
TX,HARRIS,20073615,"Residential Swimming Pools & Spas",8/12/2020,,52250,,"1418 FREEDONIA",HOUSTON,TX,77055,,,"ELITHIA MARSHI","1418 FREEDONIA",HOUSTON,TX,77055,,Owner,,,,,"POOL CRAFT",,,,,"POOL CRAFT","5103 CEDAR",HOUSTON,TX,77401,"(713) 660-7728",http://www.poolcraftofhouston.net/,,,
TX,HARRIS,20067056,"Residential Swimming Pools & Spas",8/13/2020,,48188,,"4959 BRAESHEATHER",HOUSTON,TX,77096,,,"BISEL JAIME","4959 BRAESHEATHER",HOUSTON,TX,77096,,Owner,,,,,"ANTHONY & SYLVAN POOLS",,,,,"ANTHONY & SYLVAN POOLS","1424 W SAM HOUSTON PKWY N",HOUSTON,TX,77043-3193,"(713) 467-6458",http://www.anthonysylvan.com/,,,
TX,HARRIS,20070332,"Residential Swimming Pools & Spas",8/14/2020,,190509,,"7607 AIIDEN  RIDGE",HOUSTON,TX,77016,,,CONTRACTOR,,,,,,,,,,,"BRIGHTON HOMES & PARKWOOD",,,,,"BRIGHTON HOMES & PARKWOOD","13111 NORTHWEST FWY",HOUSTON,TX,77040-6318,"(713) 460-6279",,,,
TX,HARRIS,20071073,"Residential Swimming Pools & Spas",8/13/2020,,56778,,"1551 CHANTILLY",HOUSTON,TX,77018,,,"EGLE ANTHONY","1551 CHANTILLY",HOUSTON,TX,77018,,Owner,,,,,"STAR POOLS",,,,,"STAR POOLS","4808 DACOMA ST STE B",HOUSTON,TX,77092-8043,"(713) 688-7827",,,,info@starpools.net
TX,HARRIS,20070376,"Residential Swimming Pools & Spas",8/14/2020,,49880,,"123 WILCHESTER",HOUSTON,TX,77079,,,"HODGES KEVIN","123 WILCHESTER",HOUSTON,TX,77079,,Owner,,,,,"L3 DESIGNS",,,,,"L3 DESIGNS","2121 BRITTMOORE RD",HOUSTON,TX,77043-2200,"(281) 974-2783",,,,
TX,HARRIS,20073834,"Residential Swimming Pools & Spas",8/13/2020,,47751,,"6207 CHEVY CHASE",HOUSTON,TX,77057,,,"HODGES PRESTON","6207 CHEVY CHASE",HOUSTON,TX,77057,,Owner,,,,,"C3 BUILDING SOLUTIONS",,,,,"C3 BUILDING SOLUTIONS","8403 WESTGLEN DR",HOUSTON,TX,77063-6311,"(713) 369-0925",http://www.c3buildingsolutions.com,,,
TX,HARRIS,20061656,"Residential Swimming Pools & Spas",8/11/2020,,47225,,"2222 HIALEAH",HOUSTON,TX,77018,,,"HUNTER ERNEST","2222 HIALEAH",HOUSTON,TX,77018,,Owner,,,,,"ANTHONY & SYLVAN POOLS",,,,,"ANTHONY & SYLVAN POOLS","1424 W SAM HOUSTON PKWY N",HOUSTON,TX,77043-3193,"(713) 467-6458",http://www.anthonysylvan.com/,,,
TX,HARRIS,20073986,"Residential Swimming Pools & Spas",8/14/2020,,37500,,"1233 GARDENIA",HOUSTON,TX,77018,,,"JONES LAVONE","1233 GARDENIA",HOUSTON,TX,77018,,Owner,,,,,"ANJA'S PERMIT ASSISTANCE",,,,,"ANJA'S PERMIT ASSISTANCE","PO BOX 1471",HOUSTON,TX,77251-1471,"(281) 222-5227",,,,
TX,HARRIS,20068467,"Residential Swimming Pools & Spas",8/11/2020,,44000,,"1063 THORNTON",HOUSTON,TX,77018,,,"MONTEMAYOR OSCAR","1063 THORNTON",HOUSTON,TX,77018,,Owner,,,,,"MATT DAVIS",,,,,"MATT DAVIS","4514 ELLA BLVD",HOUSTON,TX,77018-3110,"(832) 499-3122",,,,
TX,HARRIS,20066991,"Residential Swimming Pools & Spas",8/11/2020,,50231,,"1726 CHESTNUT RIDGE",HOUSTON,TX,77339,,,"MYRA & DAVID TORRES","1726 CHESTNUT RIDGE",HOUSTON,TX,77339,"(281) 832-5989",Owner,,,,,OWNER,,,,,OWNER,,,,,,,,,
TX,HARRIS,20072567,"Residential Swimming Pools & Spas",8/16/2020,,50071,,"2202 GOSTICK",HOUSTON,TX,77008,,,"RAYOS MAGNUS","2202 GOSTICK",HOUSTON,TX,77008,,Owner,,,,,"MARQUISE POOLS",,,,,"MARQUISE POOLS","27326 ROBINSON RD",HOUSTON,TX,77385,"(281) 296-7946",,,,
TX,HARRIS,20072577,"Residential Swimming Pools & Spas",8/14/2020,,38000,,"2102 BLOSSOM CREEK",HOUSTON,TX,77339,,,"ROSE TONYA L","2102 BLOSSOM CREEK",HOUSTON,TX,77339,,Owner,,,,,"AQUAMARINE POOLS",,,,,"AQUAMARINE POOLS","25730 INTERSTATE 45",HOUSTON,TX,77386,"(281) 734-2543",,,,
TX,HARRIS,20062457,"Residential Swimming Pools & Spas",8/13/2020,,89900,,"3307 OPAL STONE",HOUSTON,TX,77365,,,"SINGH SURINDER KAUR JASVIR","3307 OPAL STONE",HOUSTON,TX,77365,,Owner,,,,,"AQUATIC INSPIRATIONS POOLS",,,,,"AQUATIC INSPIRATIONS POOLS","12710 SMOKEY MOUNTAIN CT",HUMBLE,TX,77346-3035,"(281) 250-8600",http://aquaticinspirationspoolsinc.com/,,"PAUL SMITH",aquaticinspirations@centurylink.net
TX,HARRIS,20071368,"Residential Swimming Pools & Spas",8/12/2020,,99979,,"9231 RANGELY",HOUSTON,TX,77055,,,"TREMBLE DON","9231 RANGELY",HOUSTON,TX,77055,,Owner,,,,,"MAGGIE WEBB",,,,,"MAGGIE WEBB","8282 CAMBRIDGE ST",HOUSTON,TX,77054,"(281) 635-0487",,,,
TX,HARRIS,2001310019,"Residential Swimming Pools & Spas",7/16/2020,,100000,,"14 LIBERTY BRANCH BLVD",HOUSTON,TX,77356,"THE WOODLANDS VILLAGE OF CREEKSIDE",,"KENDRA KONEMAN","14 LIBERTY BRANCH BLVD",HOUSTON,TX,77356,,Owner,,,,,OWNER,,,,,OWNER,,,,,,,,,
TX,HARRIS,2002050071,"Residential Swimming Pools & Spas",7/16/2020,,70000,504,"25807 CLEAR SPRINGS WAY",HOUSTON,TX,77356,"SPRING LAKES",,"DONNA AND CHRIS EASTLAND","25807 CLEAR SPRINGS WAY",HOUSTON,TX,77356,,Owner,,,,,OWNER,,,,,OWNER,,,,,,,,,
TX,HARRIS,2007200070,"Residential Swimming Pools & Spas",7/16/2020,,44000,,"25131 HAVERFORD RD",HOUSTON,TX,77356,,,"MATT LUEVANO","25131 HAVERFORD RD",HOUSTON,TX,77356,,Owner,,,,,OWNER,,,,,OWNER,,,,,,,,,
TX,HARRIS,2006290177,"Residential Swimming Pools & Spas",7/16/2020,,80000,,"25043 MORRIS PARK CT",HOUSTON,TX,77356,"SHADOW CREEK",,"MARK AND LINDSAY HOOTS","25043 MORRIS PARK CT",HOUSTON,TX,77356,,Owner,,,,,OWNER,,,,,OWNER,,,,,,,,,
TX,HARRIS,2006240146,"Residential Swimming Pools & Spas",7/16/2020,,41838,,"3614 RUSSETT GLEN LN",HOUSTON,TX,77356,,,"ELISEO ORTEGA","3614 RUSSETT GLEN LN",HOUSTON,TX,77356,,Owner,,,,,"ANTHONY & SYLVAN POOLS",,,,,"ANTHONY & SYLVAN POOLS","1424 W SAM HOUSTON PKWY N",HOUSTON,TX,77043-3193,"(713) 467-6458",http://www.anthonysylvan.com/,,,
TX,HARRIS,2007130011,"Residential Swimming Pools & Spas",7/16/2020,,40000,,"19534 JUNIPER BREEZE LN",HOUSTON,TX,77356,"EAST LAKE AT GLEANNLOCH FARMS",,"RANDY BAILEY","19534 JUNIPER BREEZE LN",HOUSTON,TX,77356,,Owner,,,,,OWNER,,,,,OWNER,,,,,,,,,
TX,HARRIS,2007100026,"Residential Swimming Pools & Spas",7/16/2020,,36079,,"7543 WELSH STONE LN",HOUSTON,TX,77356,"IMPERIAL FOREST",,"JARRAD HARPER","7543 WELSH STONE LN",HOUSTON,TX,77356,,Owner,,,,,OWNER,,,,,OWNER,,,,,,,,,
TX,HARRIS,2006200001,"Residential Swimming Pools & Spas",7/16/2020,,40000,470,"24411 IVORY SUNSET LN",HOUSTON,TX,77356,"KING CROSSING",,"RAFAEL GONZALEZ","24411 IVORY SUNSET LN",HOUSTON,TX,77356,,Owner,,,,,OWNER,,,,,OWNER,,,,,,,,,
TX,HARRIS,2007070202,"Residential Swimming Pools & Spas",7/16/2020,,60000,,"4619 SILHOUETTE DR",HOUSTON,TX,77356,"KATY LAKE ESTATES",,"JON & MARY MEADOWS","4619 SILHOUETTE DR",HOUSTON,TX,77356,,Owner,,,,,OWNER,,,,,OWNER,,,,,,,,,
TX,HARRIS,2007010023,"Residential Swimming Pools & Spas",7/17/2020,,54000,,"14803 JULIE MEADOWS LN",HOUSTON,TX,77356,"FALL CREEK",,"STEVE LIVLANICH","14803 JULIE MEADOWS LN",HOUSTON,TX,77356,,Owner,,,,,"ANTHONY & SYLVAN POOLS",,,,,"ANTHONY & SYLVAN POOLS","1424 W SAM HOUSTON PKWY N",HOUSTON,TX,77043-3193,"(713) 467-6458",http://www.anthonysylvan.com/,,,
TX,HARRIS,2007220089,"Residential Swimming Pools & Spas",7/16/2020,,66869,,"18102 ITHACA LANDING LN",HOUSTON,TX,77356,"ALDER TRAILS",,"CAROLINE BAKER","18102 ITHACA LANDING LN",HOUSTON,TX,77356,,Owner,,,,,OWNER,,,,,OWNER,,,,,,,,,
TX,HARRIS,2007130185,"Residential Swimming Pools & Spas",7/16/2020,,75000,,"15403 STABLE STAR CIR",HOUSTON,TX,77356,"STABLE GATE",,"ROBERTA S LEWIS","15403 STABLE STAR CIR",HOUSTON,TX,77356,,Owner,,,,,OWNER,,,,,OWNER,,,,,,,,,
TX,HARRIS,2007200123,"Residential Swimming Pools & Spas",7/16/2020,,32150,,"10523 FLAXEN MANOR CT",HOUSTON,TX,77356,"GLEANNLOCH FARMS",,NEWMAN,"10523 FLAXEN MANOR CT",HOUSTON,TX,77356,,Owner,,,,,OWNER,,,,,OWNER,,,,,,,,,
TX,HARRIS,2006260141,"Residential Swimming Pools & Spas",7/16/2020,,70000,,"4330 MCLEAN RD",HOUSTON,TX,77356,"ELENA FRUIT & COTTON FARMS",,"JUAN ALVARADO","4330 MCLEAN RD",HOUSTON,TX,77356,,Owner,,,,,OWNER,,,,,OWNER,,,,,,,,,
TX,HARRIS,2006230093,"Residential Swimming Pools & Spas",7/16/2020,,33000,,"9630 PAINTBRUSH LEDGE LN",HOUSTON,TX,77356,"RIVERSTONE RANCH",,"RAUL ELIZONDO","9630 PAINTBRUSH LEDGE LN",HOUSTON,TX,77356,,Owner,,,,,OWNER,,,,,OWNER,,,,,,,,,
TX,HARRIS,2007090038,"Residential Swimming Pools & Spas",7/16/2020,,90000,,"19114 BICKHAM DR",HOUSTON,TX,77356,"BRIDGELAND HIDDEN CREEK",,"SPENCER GEORGE","19114 BICKHAM DR",HOUSTON,TX,77356,,Owner,,,,,OWNER,,,,,OWNER,,,,,,,,,
TX,HARRIS,2007080041,"Residential Swimming Pools & Spas",7/16/2020,,56350,,"24715 HEIRLOOM LN",HOUSTON,TX,77356,"KING CROSSING",,"SONA LAW","24715 HEIRLOOM LN",HOUSTON,TX,77356,,Owner,,,,,OWNER,,,,,OWNER,,,,,,,,,
TX,HARRIS,2007090080,"Residential Swimming Pools & Spas",7/16/2020,,50000,,"119 WOOD DRAKE PL",HOUSTON,TX,77356,"THE WOODLANDS VILLAGE OF CREEKSIDE",,"JOSE ABRAHAM","119 WOOD DRAKE PL",HOUSTON,TX,77356,,Owner,,,,,"CUBO BUILDERS",,,,,"CUBO BUILDERS","7 E MONTFAIR BLVD","THE WOODLANDS",TX,77382,"(956) 433-8383",,,,
TX,HARRIS,2007010030,"Residential Swimming Pools & Spas",7/16/2020,,40823,,"24427 IVORY SUNSET LN",HOUSTON,TX,77356,"KING CROSSING",,"ERIC & DEMETRIS BRANCH","24427 IVORY SUNSET LN",HOUSTON,TX,77356,,Owner,,,,,"ANTHONY & SYLVAN POOLS",,,,,"ANTHONY & SYLVAN POOLS","1424 W SAM HOUSTON PKWY N",HOUSTON,TX,77043-3193,"(713) 467-6458",http://www.anthonysylvan.com/,,,
TX,HARRIS,2004300091,"Residential Swimming Pools & Spas",7/16/2020,,47000,,"4803 PRESERVE CREEK CT",HOUSTON,TX,77356,"MCKENZIE PARK",,"NATHAN MARKS","4803 PRESERVE CREEK CT",HOUSTON,TX,77356,,Owner,,,,,OWNER,,,,,OWNER,,,,,,,,,
TX,HARRIS,2006300193,"Residential Swimming Pools & Spas",7/16/2020,,36000,,"9203 ARROWHEAD TRACE LN",HOUSTON,TX,77356,"RIVERSTONE RANCH",,"ALFONSO RANGEL","9203 ARROWHEAD TRACE LN",HOUSTON,TX,77356,,Owner,,,,,OWNER,,,,,OWNER,,,,,,,,,
TX,HARRIS,2006250139,"Residential Swimming Pools & Spas",7/16/2020,,100000,1118,"219 S FAZIO WAY",HOUSTON,TX,77356,,,"OCTAVIANO CRUZ","219 S FAZIO WAY",HOUSTON,TX,77356,,Owner,,,,,OWNER,,,,,OWNER,,,,,,,,,
TX,HARRIS,2006240109,"Residential Swimming Pools & Spas",7/16/2020,,81210,,"17934 BLUE RIDGE SHORES DR",HOUSTON,TX,77356,"TOWNE LAKE",,"PAUL & TRACI WARNER","17934 BLUE RIDGE SHORES DR",HOUSTON,TX,77356,,Owner,,,,,OWNER,,,,,OWNER,,,,,,,,,
TX,HARRIS,2006110271,"Residential Swimming Pools & Spas",7/16/2020,,67595,,"19026 GREENVIEW GLEN DR",HOUSTON,TX,77356,"TOWNE LAKE",,"EULONDA BALTAZAR","19026 GREENVIEW GLEN DR",HOUSTON,TX,77356,,Owner,,,,,"BLUE HAVEN POOLS",,,,,"BLUE HAVEN POOLS","13349 N CENTRAL EXPY",DALLAS,TX,75243-1103,"(972) 644-0494",,,,
TX,HARRIS,2006260058,"Residential Swimming Pools & Spas",7/16/2020,,30000,,"21258 PARK BLUFF DR",HOUSTON,TX,77356,"MEMORIAL PARKWAY",,"CHERYL WIENSERSKI","21258 PARK BLUFF DR",HOUSTON,TX,77356,,Owner,,,,,OWNER,,,,,OWNER,,,,,,,,,
TX,HARRIS,2006260023,"Residential Swimming Pools & Spas",7/16/2020,,45000,,"26307 NICHOLAS PASS LN",HOUSTON,TX,77356,"CYPRESS CREEK LAKES",,"BORIS BRATOVICH","26307 NICHOLAS PASS LN",HOUSTON,TX,77356,,Owner,,,,,OWNER,,,,,OWNER,,,,,,,,,
TX,HARRIS,2006190211,"Residential Swimming Pools & Spas",7/16/2020,,72877,,"19303 SANCTUARY CYPRESS LN",HOUSTON,TX,77356,"SANCTUARY VERITAS",,"CHRIS & HANNA WATSON","19303 SANCTUARY CYPRESS LN",HOUSTON,TX,77356,,Owner,,,,,OWNER,,,,,OWNER,,,,,,,,,
TX,HARRIS,20018392,"Restaurant and Bar",8/4/2020,Renovation,45000,,"15015 WESTHEIMER RD",HOUSTON,TX,77082,,,CONTRACTOR,,,,,,,,,,,"THE JOE ROTHCHILD TEAM",,,,,"THE JOE ROTHCHILD TEAM","920 S FRY RD",KATY,TX,77450-3060,"(281) 599-6500",http://www.joerothchild.com/,"(281) 578-4041",,
TX,HARRIS,18085386,"Restaurant and Bar",8/6/2020,Renovation,100000,,"2162 NORTHPARK",HOUSTON,TX,77339,,,CONTRACTOR,,,,,,,,,,,"SNS GENERAL CONTRACTING",,,,,"SNS GENERAL CONTRACTING","2409 SENDERO TRL",LEWISVILLE,TX,75067-6528,"(325) 660-7509",,,,
TX,HARRIS,19132545,"Restaurant and Bar",8/13/2020,,80000,,"9461 HAMMERLY BLVD",HOUSTON,TX,77080,,,CONTRACTOR,,,,,,,,,,,"CONSTRUCTION CONCEPTS",,,,,"CONSTRUCTION CONCEPTS","5633 SOUTHWEST",HOUSTON,TX,77057,"(832) 860-3434",,,,
TX,HARRIS,19130788,"Restaurant and Bar",8/12/2020,,730000,,"554 LOCKWOOD",HOUSTON,TX,77011,,,"LOCKWOOD CENTER","2805 GULF FWY",HOUSTON,TX,77003,"(713) 965-7290",Applicant,,,,,OWNER,,,,,OWNER,,,,,,,,,
TX,HARRIS,19112842,"Restaurant and Bar",8/12/2020,Renovation,900000,,"12930 WILLOW CHASE",HOUSTON,TX,77070,,,CONTRACTOR,,,,,,,,,,,"ALL TEXAS PERMITS",,,,,"ALL TEXAS PERMITS","12723 ASHFORD BROOK DR",HOUSTON,TX,77082-2130,"(281) 556-1883",,,,
TX,HARRIS,20012471,"Restaurant and Bar",8/13/2020,,60000,,"207 WAYSIDE",HOUSTON,TX,77011,,,"LILLY SHAPIRO","1110 LASHBROOK",HOUSTON,TX,77077,"(281) 435-3345",Applicant,,,,,OWNER,,,,,OWNER,,,,,,,,,
TX,HARRIS,20038233,"Restaurant and Bar",8/12/2020,,125000,,"600 N SHEPHERD DR",HOUSTON,TX,77007,,,CONTRACTOR,,,,,,,,,,,"TOPWATER CONSTRUCTION SERVICES",,,,,"TOPWATER CONSTRUCTION SERVICES","1005 AIRLINE DR. SUITE A ",KATY,TX,77493,"(281) 347-4010",,,,
TX,HARRIS,2006190122,"Restaurant and Bar",7/16/2020,,750000,3038,"7105 FM 1960 RD W",HOUSTON,TX,77356,,,"LB WEST LLC","7105 FM 1960 RD W",HOUSTON,TX,77356,,Owner,,,,,OWNER,,,,,OWNER,,,,,,,,,
TX,HARRIS,20016375,Retail,8/5/2020,Renovation,35000,,"11209 BELLAIRE BLVD",HOUSTON,TX,77072,,,CONTRACTOR,,,,,,,,,,,"BIG TYME CONSTRUCTION",,,,,"BIG TYME CONSTRUCTION","3005 WEST LOOP S",HOUSTON,TX,77027-6100,"(281) 733-9823",,,,bigtymeconstruction@gmail.com
TX,HARRIS,19133146,Retail,8/5/2020,,2650000,,"5815 GULF FWY BLD",HOUSTON,TX,77023,,,CONTRACTOR,,,,,,,,,,,"BURTON CONSTRUCTION",,,,,"BURTON CONSTRUCTION","10550 WESTPARK DR",HOUSTON,TX,77042-5231,"(281) 313-5055",http://www.burtonconstruction.com/,,"BRAD BURTON",info@burtonconstruction.com
TX,HARRIS,20051445,Retail,8/4/2020,Renovation,45000,,"4522 DACOMA",HOUSTON,TX,77092,,,"ERIC KIND","313 WHITEFISH HILLS",WHITEFISH,MT,59937,"(925) 965-4405",Applicant,,,,,OWNER,,,,,OWNER,,,,,,,,,
TX,HARRIS,19145182,Retail,8/5/2020,,1400000,,"4420 KINGWOOD",HOUSTON,TX,77345,,,CONTRACTOR,,,,,,,,,,,"PROJECT BUILDERS",,,,,"PROJECT BUILDERS","2970 CLAIRMONT RD NE STE 150",ATLANTA,GA,30329-4450,"(404) 982-1099",http://www.projectbuilders.com/,"(404) 982-9713",,info@projectbuilders.com
TX,MONTGOMERY,BC-20-004477,Retail,7/17/2020,,550101,9703,"17112 WALDEN RD BLDG 2",CONROE,TX,77356,,,CONTRACTOR,,,,,,,,,,,"CROSBY CHOICE GROUP",,,,,"CROSBY CHOICE GROUP","PO BOX 442",CROSBY,TX,77532,"(281) 328-6108",,,"TODD WYATT",
TX,MONTGOMERY,BC-20-004481,Retail,7/17/2020,,527934,9312,"17128 WALDEN RD",CONROE,TX,77356,,,CONTRACTOR,,,,,,,,,,,"CROSBY CHOICE GROUP",,,,,"CROSBY CHOICE GROUP","PO BOX 442",CROSBY,TX,77532,"(281) 328-6108",,,"TODD WYATT",
TX,MONTGOMERY,BC-20-006448,Retail,7/6/2020,Renovation,,9810,"705 W DAVIS ST",CONROE,TX,77859,,,CONTRACTOR,,,,,,,,,,,"PETEREIT INVESTMENTS",,,,,"PETEREIT INVESTMENTS","8220 LOUETTA RD STE 162",SPRING,TX,77379-7030,"(281) 370-7062",,,,
TX,HARRIS,20027942,Retail,8/13/2020,,1200000,,"8550 BROADWAY",HOUSTON,TX,77061,,,CONTRACTOR,,,,,,,,,,,GLR,,,,,GLR,"3795 WYSE RD",DAYTON,OH,45414-2540,"(937) 890-0510",http://glrinc.net/,"(937) 890-3094","GALE SHOUP",gale@glrinc.net
TX,HARRIS,2004290001,Retail,7/16/2020,,561375,7485,"22802 CYPRESSWOOD DR",HOUSTON,TX,77356,"GREENGATE PLACE",,HANDISTOP,"22802 CYPRESSWOOD DR",HOUSTON,TX,77356,,Owner,,,,,OWNER,,,,,OWNER,,,,,,,,,
TX,MONTGOMERY,BR-19-013758,"Single Family Homes",7/7/2020,,151020,3356,"11518 GINGERLAND DR",CONROE,TX,77304,"WATER CREST ON LAKE CONROE",2,CONTRACTOR,,,,,,,,,,,"DR HORTON",,,,,"DR HORTON","14100 SOUTHWEST",HOUSTON,TX,77478,"(281) 201-5559",,,,
TX,MONTGOMERY,BR-19-014832,"Single Family Homes",7/7/2020,,138420,3094,"11522 GINGERLAND DR",CONROE,TX,77304,"WATER CREST ON LAKE CONROE",1,CONTRACTOR,,,,,,,,,,,"DR HORTON",,,,,"DR HORTON","14100 SOUTHWEST",HOUSTON,TX,77478,"(281) 201-5559",,,,
TX,MONTGOMERY,BR-20-000172,"Single Family Homes",7/30/2020,,122535,2723,"2226 STRONG HORSE DR",CONROE,TX,77301,"BARTON WOODS",33,CONTRACTOR,,,,,,,,,,,"DR HORTON",,,,,"DR HORTON","14100 SOUTHWEST",HOUSTON,TX,77478,"(281) 201-5559",,,,
TX,MONTGOMERY,BR-20-000176,"Single Family Homes",7/15/2020,,112545,2501,"2250 STRONG HORSE DR",CONROE,TX,77301,"BARTON WOODS",27,CONTRACTOR,,,,,,,,,,,"DR HORTON",,,,,"DR HORTON","14100 SOUTHWEST",HOUSTON,TX,77478,"(281) 201-5559",,,,
TX,MONTGOMERY,BR-20-000179,"Single Family Homes",7/31/2020,,107460,2390,"2222 STRONG HORSE DR",CONROE,TX,77301,"BARTON WOODS",34,CONTRACTOR,,,,,,,,,,,"DR HORTON",,,,,"DR HORTON","14100 SOUTHWEST",HOUSTON,TX,77478,"(281) 201-5559",,,,
TX,MONTGOMERY,BR-20-000456,"Single Family Homes",7/15/2020,,107460,2388,"2242 STRONG HORSE DR",CONROE,TX,77301,"BARTON WOODS",29,CONTRACTOR,,,,,,,,,,,"DR HORTON",,,,,"DR HORTON","14100 SOUTHWEST",HOUSTON,TX,77478,"(281) 201-5559",,,,
TX,MONTGOMERY,BR-20-000459,"Single Family Homes",7/22/2020,,122535,2712,"2238 STRONG HORSE DR",CONROE,TX,77301,"BARTON WOODS",30,CONTRACTOR,,,,,,,,,,,"DR HORTON",,,,,"DR HORTON","14100 SOUTHWEST",HOUSTON,TX,77478,"(281) 201-5559",,,,
TX,MONTGOMERY,BR-20-000463,"Single Family Homes",7/22/2020,,121455,2699,"2234 STRONG HORSE DR",CONROE,TX,77301,"BARTON WOODS",31,CONTRACTOR,,,,,,,,,,,"DR HORTON",,,,,"DR HORTON","14100 SOUTHWEST",HOUSTON,TX,77478,"(281) 201-5559",,,,
TX,MONTGOMERY,BR-20-000664,"Single Family Homes",7/30/2020,,334900,2793,"118 RED PETAL WAY",CONROE,TX,77304,"GRAND CENTRAL PARK",1,CONTRACTOR,,,,,,,,,,,"PERRY HOMES",,,,,"PERRY HOMES","9000 GULF FWY",HOUSTON,TX,77017-7018,"(713) 417-1396",,,,
TX,MONTGOMERY,BR-20-003829,"Single Family Homes",7/8/2020,,170910,4878,"12219 SEAGRAPE LN",CONROE,TX,77304,"WATER CREST ON LAKE CONROE",6,CONTRACTOR,,,,,,,,,,,"DR HORTON",,,,,"DR HORTON","14100 SOUTHWEST",HOUSTON,TX,77478,"(281) 201-5559",,,,
TX,MONTGOMERY,BR-20-004521,"Single Family Homes",7/20/2020,,184011,4034,"2206 LAURIE DARLIN CT",CONROE,TX,77384,STILLWATER,2,CONTRACTOR,,,,,,,,,,,"GRACEPOINT HOMES",,,,,"GRACEPOINT HOMES","33300 EGYPT LN STE 100",MAGNOLIA,TX,77354-2739,"(281) 681-0400",http://www.gracepointhomes.com/,"(281) 681-0402",,Info@gracepointhomes.com
TX,MONTGOMERY,BR-20-004679,"Single Family Homes",7/10/2020,,226590,2533,"2387 TIMBERLAND COUNTRY DR",CONROE,TX,77304,"THE WOODS OF CONROE",29,CONTRACTOR,,,,,,,,,,,"PULTE HOMES",,,,,"PULTE HOMES","16670 PARK ROW",HOUSTON,TX,77084-6866,"(281) 749-8000",,,,
TX,MONTGOMERY,BR-20-004915,"Single Family Homes",7/6/2020,,85074,1731,"1836 HIDDEN CEDAR CT",CONROE,TX,77301,"HIDDEN CREEK PRESERVE",59,CONTRACTOR,,,,,,,,,,,"COLINA HOMES",,,,,"COLINA HOMES","1314 N DURHAM DR",HOUSTON,TX,77008-3734,"(281) 528-9090",http://colinahomes.com/,,,postmaster@colinahomes.com
TX,MONTGOMERY,BR-20-004997,"Single Family Homes",7/6/2020,,119600,2315,"2137 CEDAR WAY DR",CONROE,TX,77301,"HIDDEN CREEK PRESERVE",21,CONTRACTOR,,,,,,,,,,,"COLINA HOMES",,,,,"COLINA HOMES","1314 N DURHAM DR",HOUSTON,TX,77008-3734,"(281) 528-9090",http://colinahomes.com/,,,postmaster@colinahomes.com
TX,MONTGOMERY,BR-20-005085,"Single Family Homes",7/7/2020,,530000,4757,"333 IRENIC MIST CT",CONROE,TX,77318,"THE WOODLANDS HILLS",7,CONTRACTOR,,,,,,,,,,,"HIGHLAND HOMES",,,,,"HIGHLAND HOMES","10930 W SAM HOUSTON PKWY N STE 100",HOUSTON,TX,77064-6331,"(281) 517-9800",,,,
TX,MONTGOMERY,BR-20-006120,"Single Family Homes",7/2/2020,,100000,1643,"1105 E CEDAR RIVER RD",CONROE,TX,77316,"LAKE CONROE FOREST",7,CONTRACTOR,,,,,,,,,,,"VANGUARD BUILDERS",,,,,"VANGUARD BUILDERS","9803 HWY 242, SUITE 200, #168",CONROE,TX,77385,"(281) 220-9087",,,,
TX,MONTGOMERY,BR-20-006315,"Single Family Homes",7/6/2020,,169000,3402,"3304 ROLLING VIEW CT",CONROE,TX,77301,"LADERA CREEK",53,CONTRACTOR,,,,,,,,,,,"LENNAR HOMES",,,,,"LENNAR HOMES","550 GREENS PKWY",HOUSTON,TX,77067-4537,"(281) 875-1000",http://www.lennar.com/,,,
TX,MONTGOMERY,BR-20-006728,"Single Family Homes",7/15/2020,,161267,2581,"4215 MCGREGOR BLUFF LN",CONROE,TX,77304,"MADISON BEND",4,CONTRACTOR,,,,,,,,,,,"LEGEND HOMES",,,,,"LEGEND HOMES","10410 WINDAMERE LAKES BLVD",HOUSTON,TX,77065-4996,"(281) 671-9060",http://legendhomecorp.com/,"(281) 671-9055",,
TX,MONTGOMERY,BR-20-006876,"Single Family Homes",7/13/2020,,165176,2669,"3228 TAVO RIDGE CT",CONROE,TX,77301,"MACKENZIE CREEK",6,CONTRACTOR,,,,,,,,,,,"LEGEND HOMES",,,,,"LEGEND HOMES","10410 WINDAMERE LAKES BLVD",HOUSTON,TX,77065-4996,"(281) 671-9060",http://legendhomecorp.com/,"(281) 671-9055",,
TX,MONTGOMERY,BR-20-006880,"Single Family Homes",7/10/2020,,110000,1897,"3576 CANNON DR",CONROE,TX,77301,"MACKENZIE CREEK",19,CONTRACTOR,,,,,,,,,,,"LEGEND HOMES",,,,,"LEGEND HOMES","10410 WINDAMERE LAKES BLVD",HOUSTON,TX,77065-4996,"(281) 671-9060",http://legendhomecorp.com/,"(281) 671-9055",,
TX,HARRIS,20071953,"Single Family Homes",8/6/2020,,188000,,"1422 CALLAKING ",HOUSTON,TX,77008,,,CONTRACTOR,,,,,,,,,,,"ANNE'S PERMIT",,,,,"ANNE'S PERMIT","2617C W HOLCOMBE BLVD",HOUSTON,TX,77025,"(713) 666-2025",,,,
TX,HARRIS,20066172,"Single Family Homes",8/6/2020,,235000,,"1522 CALLAKING",HOUSTON,TX,77008,,,CONTRACTOR,,,,,,,,,,,"ANNE'S PERMIT",,,,,"ANNE'S PERMIT","2617C W HOLCOMBE BLVD",HOUSTON,TX,77025,"(713) 666-2025",,,,
TX,HARRIS,20068644,"Single Family Homes",8/6/2020,,180000,,"962 FORD PINES",HOUSTON,TX,77091,,,CONTRACTOR,,,,,,,,,,,"ANNE'S PERMIT",,,,,"ANNE'S PERMIT","2617C W HOLCOMBE BLVD",HOUSTON,TX,77025,"(713) 666-2025",,,,
TX,HARRIS,20064868,"Single Family Homes",8/6/2020,,183000,,"964 FORD PINES",HOUSTON,TX,77091,,,CONTRACTOR,,,,,,,,,,,"ANNE'S PERMIT",,,,,"ANNE'S PERMIT","2617C W HOLCOMBE BLVD",HOUSTON,TX,77025,"(713) 666-2025",,,,
TX,HARRIS,20045173,"Single Family Homes",8/5/2020,,235000,,"214 MORNINGSIDE PARK",HOUSTON,TX,77024,,,CONTRACTOR,,,,,,,,,,,"ANNE'S PERMIT",,,,,"ANNE'S PERMIT","2617C W HOLCOMBE BLVD",HOUSTON,TX,77025,"(713) 666-2025",,,,
TX,HARRIS,20031735,"Single Family Homes",8/5/2020,,584565,,"4011 BETSY",HOUSTON,TX,77027,,,"BUXBAUM RICHARD","4011 BETSY",HOUSTON,TX,77027,,Owner,,,,,"HORACE HOMES",,,,,"HORACE HOMES","PO BOX 27377",HOUSTON,TX,77227-7377,"(281) 960-8778",http://www.horace-homes.com,"(866) 780-5485",,dbeck@horace-homes.com
TX,HARRIS,20065297,"Single Family Homes",8/6/2020,,118690,,"2326 FERGUSON",HOUSTON,TX,77088,,,CONTRACTOR,,,,,,,,,,,"ALVARADO GROUP",,,,,"ALVARADO GROUP","5710 W 34TH ST # EAST",HOUSTON,TX,77092-6536,"(281) 818-1423",,,"EDUARDO ALVARADO",
TX,HARRIS,20049128,"Single Family Homes",8/6/2020,,85000,,"4526 STANFORD",HOUSTON,TX,77041,,,CONTRACTOR,,,,,,,,,,,"ALVARADO GROUP",,,,,"ALVARADO GROUP","5710 W 34TH ST # EAST",HOUSTON,TX,77092-6536,"(281) 818-1423",,,"EDUARDO ALVARADO",
TX,HARRIS,20056884,"Single Family Homes",8/4/2020,,453924,,"1135 WAVERLY",HOUSTON,TX,77008,,,CONTRACTOR,,,,,,,,,,,"ANSARI HOMES",,,,,"ANSARI HOMES","3354 ROGERDALE RD",HOUSTON,TX,77042-4198,"(281) 787-5398",http://ansarihomes.com/,"(713) 782-0306",,ansarihomeshouston@gmail.com
TX,HARRIS,20055770,"Single Family Homes",8/4/2020,,158000,,"623 THORNTON OAKS",HOUSTON,TX,77018,,,CONTRACTOR,,,,,,,,,,,"CHAMPIONS REAL ESTATE GROUP",,,,,"CHAMPIONS REAL ESTATE GROUP","2323 S VOSS RD STE 120",HOUSTON,TX,77057-3827,"(760) 936-5212",,,"ATTA SHAY",
TX,HARRIS,20055771,"Single Family Homes",8/4/2020,,158000,,"624 THORNTON OAKS",HOUSTON,TX,77018,,,CONTRACTOR,,,,,,,,,,,"CHAMPIONS REAL ESTATE GROUP",,,,,"CHAMPIONS REAL ESTATE GROUP","2323 S VOSS RD STE 120",HOUSTON,TX,77057-3827,"(760) 936-5212",,,"ATTA SHAY",
TX,HARRIS,20054252,"Single Family Homes",8/6/2020,,185715,,"11931 PRIMROSE CREEK",HOUSTON,TX,77045,,,CONTRACTOR,,,,,,,,,,,"BRIGHTON HOMES & PARKWOOD",,,,,"BRIGHTON HOMES & PARKWOOD","13111 NORTHWEST FWY",HOUSTON,TX,77040-6318,"(713) 460-6279",,,,
TX,HARRIS,20064906,"Single Family Homes",8/6/2020,,156276,,"11917 OAKMONT VALLEY",HOUSTON,TX,77051,,,CONTRACTOR,,,,,,,,,,,"BRIGHTON HOMES & PARKWOOD",,,,,"BRIGHTON HOMES & PARKWOOD","13111 NORTHWEST FWY",HOUSTON,TX,77040-6318,"(713) 460-6279",,,,
TX,HARRIS,20061100,"Single Family Homes",8/4/2020,,208762,,"1537 LAWRENCE",HOUSTON,TX,77008,,,CONTRACTOR,,,,,,,,,,,"ETHAN HOMES",,,,,"ETHAN HOMES","4100 SOUTHWEST FWY APT 577",HOUSTON,TX,77027-7459,"(832) 545-6160",,,"LARITO MARC",
TX,HARRIS,20061099,"Single Family Homes",8/4/2020,,208762,,"1539 LAWRENCE",HOUSTON,TX,77008,,,CONTRACTOR,,,,,,,,,,,"ETHAN HOMES",,,,,"ETHAN HOMES","4100 SOUTHWEST FWY APT 577",HOUSTON,TX,77027-7459,"(832) 545-6160",,,"LARITO MARC",
TX,HARRIS,20061097,"Single Family Homes",8/4/2020,,208762,,"1541 LAWRENCE",HOUSTON,TX,77008,,,CONTRACTOR,,,,,,,,,,,"ETHAN HOMES",,,,,"ETHAN HOMES","4100 SOUTHWEST FWY APT 577",HOUSTON,TX,77027-7459,"(832) 545-6160",,,"LARITO MARC",
TX,HARRIS,20061098,"Single Family Homes",8/4/2020,,208762,,"1543 LAWRENCE",HOUSTON,TX,77008,,,CONTRACTOR,,,,,,,,,,,"ETHAN HOMES",,,,,"ETHAN HOMES","4100 SOUTHWEST FWY APT 577",HOUSTON,TX,77027-7459,"(832) 545-6160",,,"LARITO MARC",
TX,HARRIS,19142050,"Single Family Homes",8/6/2020,,113000,,"6042 BELCREST",HOUSTON,TX,77033,,,CONTRACTOR,,,,,,,,,,,"BURGHLI HOMES",,,,,"BURGHLI HOMES","4615 NORTH FREEWAY",HOUSTON,TX,77022,"(713) 691-3948",http://burghlihomes.com/,,,
TX,HARRIS,20026611,"Single Family Homes",8/6/2020,,181021,,"4746 ARVILLA",HOUSTON,TX,77021,,,CONTRACTOR,,,,,,,,,,,"BURGHLI HOMES",,,,,"BURGHLI HOMES","4615 NORTH FREEWAY",HOUSTON,TX,77022,"(713) 691-3948",http://burghlihomes.com/,,,
TX,HARRIS,20066745,"Single Family Homes",8/7/2020,,344000,,"3612 BRIDGEWATER OAKS",HOUSTON,TX,77055,,,CONTRACTOR,,,,,,,,,,,"CANADA KARLA",,,,,"CANADA KARLA","272 WESTWOOD DR","LEAGUE CITY",TX,77573,"(713) 443-7818",,,,
TX,HARRIS,20069420,"Single Family Homes",8/7/2020,,198990,,"726 COBALT CREST",HOUSTON,TX,77336,,,CONTRACTOR,,,,,,,,,,,"CENTURY COMMUNITIES",,,,,"CENTURY COMMUNITIES","4700 W SAM HOUSTON PKWY N STE 130",HOUSTON,TX,77041-8219,"(281) 741-8946",https://www.centurycommunities.com/,,,
TX,HARRIS,20069422,"Single Family Homes",8/7/2020,,194990,,"727 COBALT CREST",HOUSTON,TX,77336,,,CONTRACTOR,,,,,,,,,,,"CENTURY COMMUNITIES",,,,,"CENTURY COMMUNITIES","4700 W SAM HOUSTON PKWY N STE 130",HOUSTON,TX,77041-8219,"(281) 741-8946",https://www.centurycommunities.com/,,,
TX,HARRIS,19029521,"Single Family Homes",8/5/2020,,145000,,"138 KNIGHTSBRIDGE PARK",HOUSTON,TX,77018,,,CONTRACTOR,,,,,,,,,,,"CITY CHOICE GROUP",,,,,"CITY CHOICE GROUP","1314 ROY ST",HOUSTON,TX,77007-3343,"(713) 681-5858",http://citychoicehomes.com,,,
TX,HARRIS,19029519,"Single Family Homes",8/5/2020,,145000,,"139 KNIGHTSBRIDGE PARK",HOUSTON,TX,77018,,,CONTRACTOR,,,,,,,,,,,"CITY CHOICE GROUP",,,,,"CITY CHOICE GROUP","1314 ROY ST",HOUSTON,TX,77007-3343,"(713) 681-5858",http://citychoicehomes.com,,,
TX,HARRIS,20057172,"Single Family Homes",8/6/2020,,220990,,"12506 FLEET RIVER",HOUSTON,TX,77047,,,CONTRACTOR,,,,,,,,,,,"DR HORTON",,,,,"DR HORTON","14100 SOUTHWEST",HOUSTON,TX,77478,"(281) 201-5559",,,,
TX,HARRIS,20057178,"Single Family Homes",8/7/2020,,195990,,"12526 FLEET RIVER ",HOUSTON,TX,77047,,,CONTRACTOR,,,,,,,,,,,"DR HORTON",,,,,"DR HORTON","14100 SOUTHWEST",HOUSTON,TX,77478,"(281) 201-5559",,,,
TX,HARRIS,20057181,"Single Family Homes",8/7/2020,,179990,,"12538 FLEET RIVER",HOUSTON,TX,77047,,,CONTRACTOR,,,,,,,,,,,"DR HORTON",,,,,"DR HORTON","14100 SOUTHWEST",HOUSTON,TX,77478,"(281) 201-5559",,,,
TX,HARRIS,20057183,"Single Family Homes",8/7/2020,,189990,,"12550 FLEET RIVER",HOUSTON,TX,77047,,,CONTRACTOR,,,,,,,,,,,"DR HORTON",,,,,"DR HORTON","14100 SOUTHWEST",HOUSTON,TX,77478,"(281) 201-5559",,,,
TX,HARRIS,20057200,"Single Family Homes",8/6/2020,,189990,,"12620 FLEET RIVER",HOUSTON,TX,77047,,,CONTRACTOR,,,,,,,,,,,"DR HORTON",,,,,"DR HORTON","14100 SOUTHWEST",HOUSTON,TX,77478,"(281) 201-5559",,,,
TX,HARRIS,20047711,"Single Family Homes",8/4/2020,,245070,,"3247 ROYAL OAKS HOLLOW",HOUSTON,TX,77082,,,CONTRACTOR,,,,,,,,,,,"EHT OF TEXAS LP",,,,,"EHT OF TEXAS LP","10235 LITTLE",HOUSTON,TX,77040,"(713) 557-3685",,,,
TX,HARRIS,20049391,"Single Family Homes",8/4/2020,,226260,,"12003 ROYAL OAKS RUN",HOUSTON,TX,77082,,,CONTRACTOR,,,,,,,,,,,"EHT OF TEXAS LP",,,,,"EHT OF TEXAS LP","10235 LITTLE",HOUSTON,TX,77040,"(713) 557-3685",,,,
TX,HARRIS,20066663,"Single Family Homes",8/6/2020,,195990,,"7738 NEVAEH CREST",HOUSTON,TX,77016,,,CONTRACTOR,,,,,,,,,,,"FIRST AMERICA HOMES",,,,,"FIRST AMERICA HOMES","1400 WOODLOCH FOREST DR STE 200","THE WOODLANDS",TX,77380-1179,"(713) 452-1700",http://www.firstamericahomes.com/,,,info@firstamericahomes.com
TX,HARRIS,20030429,"Single Family Homes",8/6/2020,,218000,,"9641 HABITAT",HOUSTON,TX,77075,,,CONTRACTOR,,,,,,,,,,,"HABITAT CONSTRUCTION",,,,,"HABITAT CONSTRUCTION","10228 MIDWAY RD",DALLAS,TX,75229-6231,"(972) 596-3769",,,,
TX,HARRIS,20025642,"Single Family Homes",8/5/2020,,600000,,"2216 WOODHEAD",HOUSTON,TX,77019,,,CONTRACTOR,,,,,,,,,,,"HAMPTON LANE BUILDERS",,,,,"HAMPTON LANE BUILDERS","2402 ELMEN ST",HOUSTON,TX,77019-6710,"(713) 984-0079",,,"ANNA WILLIAMS",
TX,HARRIS,20040059,"Single Family Homes",8/4/2020,,603204,,"12014 LAKE RIDGE",HOUSTON,TX,77071,,,CONTRACTOR,,,,,,,,,,,"HAMPTON CONSTRUCTION",,,,,"HAMPTON CONSTRUCTION","1966 COUNTY ROAD 211D",HENDERSON,TX,75652,"(903) 649-2315",,,,
TX,HARRIS,20049456,"Single Family Homes",8/4/2020,,144080,,"1202 HAMBLEN",HOUSTON,TX,77009,,,CONTRACTOR,,,,,,,,,,,"M ROMERO BUILDERS",,,,,"M ROMERO BUILDERS","6419 SUTTON MEADOWS DR",HOUSTON,TX,77086-2887,"(281) 931-0618",,,,
TX,HARRIS,20046023,"Single Family Homes",8/7/2020,,211055,,"2803 LIVE OAK",HOUSTON,TX,77004,,,CONTRACTOR,,,,,,,,,,,"METRO LIVING",,,,,"METRO LIVING","1625 WYCLIFFE DR",HOUSTON,TX,77043-4807,"(281) 685-9561",,,"JOSE MENDOZA",
TX,HARRIS,20046024,"Single Family Homes",8/7/2020,,211055,,"2807 LIVE OAK",HOUSTON,TX,77004,,,CONTRACTOR,,,,,,,,,,,"METRO LIVING",,,,,"METRO LIVING","1625 WYCLIFFE DR",HOUSTON,TX,77043-4807,"(281) 685-9561",,,"JOSE MENDOZA",
TX,HARRIS,20036004,"Single Family Homes",8/5/2020,,148992,,"7211 HOFFMAN",HOUSTON,TX,77028,,,CONTRACTOR,,,,,,,,,,,"MAYBERRY HOMES",,,,,"MAYBERRY HOMES","4412 ALMEDA RD",HOUSTON,TX,77004-4902,"(713) 523-8585",http://www.mayberryhomes.net,,,
TX,HARRIS,20032460,"Single Family Homes",8/7/2020,,187170,,"5426 CUERTA",HOUSTON,TX,77023,,,CONTRACTOR,,,,,,,,,,,"MERITAGE HOMES",,,,,"MERITAGE HOMES","2901 W SAM HOUSTON PKWY N",HOUSTON,TX,77043-1630,"(713) 357-1184",,,,
TX,HARRIS,20054693,"Single Family Homes",8/5/2020,,176970,,"5422 CUERTA ",HOUSTON,TX,77023,,,CONTRACTOR,,,,,,,,,,,"MERITAGE HOMES",,,,,"MERITAGE HOMES","2901 W SAM HOUSTON PKWY N",HOUSTON,TX,77043-1630,"(713) 357-1184",,,,
TX,HARRIS,20057657,"Single Family Homes",8/7/2020,,209610,,"9802 MAGNOLIA VILLAGE",HOUSTON,TX,77080,,,CONTRACTOR,,,,,,,,,,,"MERITAGE HOMES",,,,,"MERITAGE HOMES","2901 W SAM HOUSTON PKWY N",HOUSTON,TX,77043-1630,"(713) 357-1184",,,,
TX,HARRIS,20057654,"Single Family Homes",8/5/2020,,176970,,"9808 MAGNOLIA VILLAGE",HOUSTON,TX,77080,,,CONTRACTOR,,,,,,,,,,,"MERITAGE HOMES",,,,,"MERITAGE HOMES","2901 W SAM HOUSTON PKWY N",HOUSTON,TX,77043-1630,"(713) 357-1184",,,,
TX,HARRIS,20047126,"Single Family Homes",8/7/2020,,407000,,"3606 BRIDGEWATER OAKS",HOUSTON,TX,77055,,,CONTRACTOR,,,,,,,,,,,"MHI MCGUYER HOMEBUILDERS",,,,,"MHI MCGUYER HOMEBUILDERS","7676 WOODWAY DR",HOUSTON,TX,77063-1526,"(713) 260-4107",,,,
TX,HARRIS,20007755,"Single Family Homes",8/6/2020,,300000,,"809 E 25TH",HOUSTON,TX,77009,,,CONTRACTOR,,,,,,,,,,,"C3 BUILDING SOLUTIONS",,,,,"C3 BUILDING SOLUTIONS","8403 WESTGLEN DR",HOUSTON,TX,77063-6311,"(713) 369-0925",http://www.c3buildingsolutions.com,,,
TX,HARRIS,20024534,"Single Family Homes",8/4/2020,,243015,,"3808 OLDE BOURBON",HOUSTON,TX,77018,,,CONTRACTOR,,,,,,,,,,,"ROC HOMES",,,,,"ROC HOMES","4151 SOUTHWEST FWY STE 700",HOUSTON,TX,77027-7307,"(713) 661-7624",http://www.roc-homes.com/,,,info@roc-homes.com
TX,HARRIS,20066039,"Single Family Homes",8/4/2020,,393760,,"4012 STARBRIGHT",HOUSTON,TX,77018,,,CONTRACTOR,,,,,,,,,,,"MARIA VARGAS",,,,,"MARIA VARGAS","1311 BROADFIELD BLVD",HOUSTON,TX,77084-5186,"(281) 529-9127",,,,
TX,HARRIS,20060731,"Single Family Homes",8/7/2020,,224510,,"12811 CLEARCROFT",HOUSTON,TX,77034,,,CONTRACTOR,,,,,,,,,,,"MARIA VARGAS",,,,,"MARIA VARGAS","1311 BROADFIELD BLVD",HOUSTON,TX,77084-5186,"(281) 529-9127",,,,
TX,HARRIS,20066090,"Single Family Homes",8/6/2020,,410916,,"3410 OVIDS ORCHARD",HOUSTON,TX,77054,,,CONTRACTOR,,,,,,,,,,,"MARIA VARGAS",,,,,"MARIA VARGAS","1311 BROADFIELD BLVD",HOUSTON,TX,77084-5186,"(281) 529-9127",,,,
TX,HARRIS,20043471,"Single Family Homes",8/6/2020,,375920,,"3413 AVONDALE VIEW",HOUSTON,TX,77054,,,CONTRACTOR,,,,,,,,,,,"MARIA VARGAS",,,,,"MARIA VARGAS","1311 BROADFIELD BLVD",HOUSTON,TX,77084-5186,"(281) 529-9127",,,,
TX,HARRIS,20066093,"Single Family Homes",8/6/2020,,385743,,"3414 OVIDS ORCHARD",HOUSTON,TX,77054,,,CONTRACTOR,,,,,,,,,,,"MARIA VARGAS",,,,,"MARIA VARGAS","1311 BROADFIELD BLVD",HOUSTON,TX,77084-5186,"(281) 529-9127",,,,
TX,HARRIS,20066049,"Single Family Homes",8/6/2020,,366105,,"3421 AVONDALE VIEW",HOUSTON,TX,77054,,,CONTRACTOR,,,,,,,,,,,"MARIA VARGAS",,,,,"MARIA VARGAS","1311 BROADFIELD BLVD",HOUSTON,TX,77084-5186,"(281) 529-9127",,,,
TX,HARRIS,20043151,"Single Family Homes",8/4/2020,,395910,,"8643 CEDARDALE PARK",HOUSTON,TX,77063,,,CONTRACTOR,,,,,,,,,,,"MARIA VARGAS",,,,,"MARIA VARGAS","1311 BROADFIELD BLVD",HOUSTON,TX,77084-5186,"(281) 529-9127",,,,
TX,HARRIS,20048698,"Single Family Homes",8/6/2020,,224340,,"10819 CLOVERDUST",HOUSTON,TX,77075,,,CONTRACTOR,,,,,,,,,,,"MARIA VARGAS",,,,,"MARIA VARGAS","1311 BROADFIELD BLVD",HOUSTON,TX,77084-5186,"(281) 529-9127",,,,
TX,HARRIS,20066023,"Single Family Homes",8/4/2020,,231490,,"10831 FALL MILL",HOUSTON,TX,77075,,,CONTRACTOR,,,,,,,,,,,"MARIA VARGAS",,,,,"MARIA VARGAS","1311 BROADFIELD BLVD",HOUSTON,TX,77084-5186,"(281) 529-9127",,,,
TX,HARRIS,20042472,"Single Family Homes",8/7/2020,,232690,,"10847 FALL MILL",HOUSTON,TX,77075,,,CONTRACTOR,,,,,,,,,,,"MARIA VARGAS",,,,,"MARIA VARGAS","1311 BROADFIELD BLVD",HOUSTON,TX,77084-5186,"(281) 529-9127",,,,
TX,HARRIS,20066031,"Single Family Homes",8/5/2020,,231940,,"7027 HOBBY MILL",HOUSTON,TX,77075,,,CONTRACTOR,,,,,,,,,,,"MARIA VARGAS",,,,,"MARIA VARGAS","1311 BROADFIELD BLVD",HOUSTON,TX,77084-5186,"(281) 529-9127",,,,
TX,HARRIS,20060735,"Single Family Homes",8/4/2020,,194867,,"10233 CLEARTIDE",HOUSTON,TX,77034,,,CONTRACTOR,,,,,,,,,,,"MARIA VARGAS",,,,,"MARIA VARGAS","1311 BROADFIELD BLVD",HOUSTON,TX,77084-5186,"(281) 529-9127",,,,
TX,HARRIS,20038032,"Single Family Homes",8/6/2020,,178484,,"7614 BELBAY",HOUSTON,TX,77033,,,"DANIELS VALARIE","7614 BELBAY",HOUSTON,TX,77033,,Owner,,,,,"BURGHLI HOMES",,,,,"BURGHLI HOMES","4615 NORTH FREEWAY",HOUSTON,TX,77022,"(713) 691-3948",http://burghlihomes.com/,,,
TX,HARRIS,19135855,"Single Family Homes",8/5/2020,,194378,,"805 PAUL QUINN",HOUSTON,TX,77091,,,"GIBBS ROBERT","805 PAUL QUINN",HOUSTON,TX,77091,"(713) 890-2339",Owner,,,,,OWNER,,,,,OWNER,,,,,,,,,
TX,HARRIS,20037252,"Single Family Homes",8/7/2020,,178484,,"2101 CRESTON",HOUSTON,TX,77026,,,"GRAY JACQUELYN","2101 CRESTON",HOUSTON,TX,77026,,Owner,,,,,"BURGHLI HOMES",,,,,"BURGHLI HOMES","4615 NORTH FREEWAY",HOUSTON,TX,77022,"(713) 691-3948",http://burghlihomes.com/,,,
TX,HARRIS,20045323,"Single Family Homes",8/6/2020,,119000,,"8136 ETHEL",HOUSTON,TX,77028,,,"HERNANDEZ DIANA Y","8136 ETHEL",HOUSTON,TX,77028,,Owner,,,,,"WESTWOOD FENCE",,,,,"WESTWOOD FENCE","8403 HOWTON ST",HOUSTON,TX,77028-4800,"(713) 674-3277",http://westwoodfenceco.com/,,,Info@westwoodfenceco.com
TX,HARRIS,19138772,"Single Family Homes",8/5/2020,,156000,,"2204 BEALL",HOUSTON,TX,77008,,,"HOANG HIEN","2204 BEALL",HOUSTON,TX,77008,,Owner,,,,,"SHEER HOMES",,,,,"SHEER HOMES","1431 WIRT RD",HOUSTON,TX,77055-4916,"(281) 948-7560",http://sheerhomes.com,,,Rafiq@sheerhomes.com
TX,HARRIS,19138775,"Single Family Homes",8/5/2020,,138000,,"2206 BEALL",HOUSTON,TX,77008,,,"HOANG HIEN","2204 BEALL",HOUSTON,TX,77008,,Owner,,,,,"SHEER HOMES",,,,,"SHEER HOMES","1431 WIRT RD",HOUSTON,TX,77055-4916,"(281) 948-7560",http://sheerhomes.com,,,Rafiq@sheerhomes.com
TX,HARRIS,20055511,"Single Family Homes",8/6/2020,,294000,,"814 PAIGE",HOUSTON,TX,77003,,,"JORDAN GEORGE","814 PAIGE",HOUSTON,TX,77003,,Owner,,,,,OWNER,,,,,OWNER,,,,,,,,,
TX,HARRIS,20012818,"Single Family Homes",8/7/2020,,750000,,"1011 E 7TH 1/2",HOUSTON,TX,77009,,,"KINZEL-TAPPER STEPHANIE","1011 E 7TH 1/2",HOUSTON,TX,77009,,Owner,,,,,"CONTENT ARCHITECTURE",,,,,"CONTENT ARCHITECTURE","3221 MILAM ST",HOUSTON,TX,77006-3615,"(713) 230-8867",http://www.build-content.com/,,,info@build-content.com
TX,HARRIS,20045918,"Single Family Homes",8/7/2020,,90502,,"3607 LEGION",HOUSTON,TX,77026,,,"LOPEZ JOSE","3607 LEGION",HOUSTON,TX,77026,,Owner,,,,,"HOUSTON MODULARS",,,,,"HOUSTON MODULARS","11305 GULF FREEWAY",HOUSTON,TX,77503,"(713) 941-1935",,,Bob,
TX,HARRIS,20061049,"Single Family Homes",8/4/2020,,229372,,"8052 SEXTON",HOUSTON,TX,77028,,,"MARTINEZ ESMERALDA & NELSON","8052 SEXTON",HOUSTON,TX,77028,"(832) 498-7145",Owner,,,,,OWNER,,,,,OWNER,,,,,,,,,
TX,HARRIS,20038829,"Single Family Homes",8/4/2020,,198785,,"5506 DAYPORT",HOUSTON,TX,77091,,,"MOORE MARY","5506 DAYPORT",HOUSTON,TX,77091,,Owner,,,,,"BURGHLI HOMES",,,,,"BURGHLI HOMES","4615 NORTH FREEWAY",HOUSTON,TX,77022,"(713) 691-3948",http://burghlihomes.com/,,,
TX,HARRIS,20054355,"Single Family Homes",8/7/2020,,854995,,"1242 LEHMAN",HOUSTON,TX,77018,,,"MUELLER THERESA","1242 LEHMAN",HOUSTON,TX,77018,,Owner,,,,,"FRANKEL BUILDING GROUP",,,,,"FRANKEL BUILDING GROUP","5701 WOODWAY DR STE 200",HOUSTON,TX,77057-1505,"(713) 623-4646",http://www.frankelbuildinggroup.com/,,"BRIAN ADAMS",
TX,HARRIS,20062329,"Single Family Homes",8/7/2020,,64000,,"14134 DUNSMORE LANDING",HOUSTON,TX,77059,,,"MURILLO MARICIO","14134 DUNSMORE LANDING",HOUSTON,TX,77059,,Owner,,,,,"PREMIER POOLS & SPAS",,,,,"PREMIER POOLS & SPAS","2810 BUSINESS CENTER DR STE 126",PEARLAND,TX,77584-9783,"(713) 436-4944",,"(713) 436-0081","BILL UNGER",bunger@ppas.com
TX,HARRIS,20012884,"Single Family Homes",8/7/2020,,164310,,"4320 EUROPA",HOUSTON,TX,77022,,,"PALMER MAXINE","4320 EUROPA",HOUSTON,TX,77022,,Owner,,,,,"DSW HOMES",,,,,"DSW HOMES","12607 N",HOUSTON,TX,77034,"(832) 385-0069",http://www.dswhomes.com/,,,
TX,HARRIS,20048149,"Single Family Homes",8/6/2020,,88904,,"4750 ANGLETON",HOUSTON,TX,77033,,,"PUAC PEDRO SANTOS","4750 ANGLETON",HOUSTON,TX,77033,"(832) 782-0857",Owner,,,,,OWNER,,,,,OWNER,,,,,,,,,
TX,HARRIS,20046771,"Single Family Homes",8/6/2020,,159000,,"8024 VENUS",HOUSTON,TX,77088,,,"RIVERA GENARO","8024 VENUS",HOUSTON,TX,77088,"(832) 489-0610",Owner,,,,,OWNER,,,,,OWNER,,,,,,,,,
TX,HARRIS,19120719,"Single Family Homes",8/7/2020,,340000,,"1911 BONNER",HOUSTON,TX,77007,,,"SAAD GHANDI","1911 BONNER",HOUSTON,TX,77007,,Owner,,,,,"RSG ENGINEERING",,,,,"RSG ENGINEERING","2825 WILCREST DRIVE, STE. 678,",HOUSTON,TX,77042,"(281) 777-7985",http://rsgcompanies.com/,,,Info@rsgcompanies.com
TX,HARRIS,20041109,"Single Family Homes",8/5/2020,,140952,,"864 W RITTENHOUSE",HOUSTON,TX,77091,,,"SUAREZ LILIANA","864 W RITTENHOUSE",HOUSTON,TX,77091,,Owner,,,,,OWNER,,,,,OWNER,,,,,,,,,
TX,HARRIS,20041356,"Single Family Homes",8/7/2020,,145000,,"961 MARJORIE",HOUSTON,TX,77088,,,"TEELA LETICIA","961 MARJORIE",HOUSTON,TX,77088,,Owner,,,,,"IRVING4 PERMITTING EXPEDITER SERVICES",,,,,"IRVING4 PERMITTING EXPEDITER SERVICES","PO BOX 450924",HOUSTON,TX,77425,"(713) 560-4865",,,,
TX,HARRIS,19011444,"Single Family Homes",8/4/2020,,239424,,"4715 MCKINNEY",HOUSTON,TX,77023,,,"VALDEZ JASON","4715 MCKINNEY",HOUSTON,TX,77023,"(832) 868-8946",Owner,,,,,OWNER,,,,,OWNER,,,,,,,,,
TX,HARRIS,20056619,"Single Family Homes",8/7/2020,,312000,,"3406 DEAL",HOUSTON,TX,77025,,,"WILLIAM MARCUS MILLER","3406 DEAL",HOUSTON,TX,77025,"(281) 250-4870",Owner,,,,,OWNER,,,,,OWNER,,,,,,,,,
TX,MONTGOMERY,BR-20-006883,"Single Family Homes",7/10/2020,,118000,2283,"3580 CANNON DR",CONROE,TX,77301,"MACKENZIE CREEK",20,CONTRACTOR,,,,,,,,,,,"LEGEND HOMES",,,,,"LEGEND HOMES","10410 WINDAMERE LAKES BLVD",HOUSTON,TX,77065-4996,"(281) 671-9060",http://legendhomecorp.com/,"(281) 671-9055",,
TX,MONTGOMERY,BR-20-006892,"Single Family Homes",7/13/2020,,121000,2300,"3592 CANNON DR",CONROE,TX,77301,"MACKENZIE CREEK",1,CONTRACTOR,,,,,,,,,,,"LEGEND HOMES",,,,,"LEGEND HOMES","10410 WINDAMERE LAKES BLVD",HOUSTON,TX,77065-4996,"(281) 671-9060",http://legendhomecorp.com/,"(281) 671-9055",,
TX,MONTGOMERY,BR-20-006897,"Single Family Homes",7/10/2020,,164000,3211,"3596 CANNON DR",CONROE,TX,77301,"MACKENZIE CREEK",2,CONTRACTOR,,,,,,,,,,,"LEGEND HOMES",,,,,"LEGEND HOMES","10410 WINDAMERE LAKES BLVD",HOUSTON,TX,77065-4996,"(281) 671-9060",http://legendhomecorp.com/,"(281) 671-9055",,
TX,MONTGOMERY,BR-20-006900,"Single Family Homes",7/10/2020,,127000,2582,"3600 CANNON DR",CONROE,TX,77301,"MACKENZIE CREEK",3,CONTRACTOR,,,,,,,,,,,"LEGEND HOMES",,,,,"LEGEND HOMES","10410 WINDAMERE LAKES BLVD",HOUSTON,TX,77065-4996,"(281) 671-9060",http://legendhomecorp.com/,"(281) 671-9055",,
TX,MONTGOMERY,BR-20-006905,"Single Family Homes",7/10/2020,,165176,2658,"3604 CANNON DR",CONROE,TX,77301,"MACKENZIE CREEK",4,CONTRACTOR,,,,,,,,,,,"LEGEND HOMES",,,,,"LEGEND HOMES","10410 WINDAMERE LAKES BLVD",HOUSTON,TX,77065-4996,"(281) 671-9060",http://legendhomecorp.com/,"(281) 671-9055",,
TX,MONTGOMERY,BR-20-006908,"Single Family Homes",7/13/2020,,143485,1871,"3608 CANNON DR ",CONROE,TX,77301,"MACKENZIE CREEK",5,CONTRACTOR,,,,,,,,,,,"LEGEND HOMES",,,,,"LEGEND HOMES","10410 WINDAMERE LAKES BLVD",HOUSTON,TX,77065-4996,"(281) 671-9060",http://legendhomecorp.com/,"(281) 671-9055",,
TX,MONTGOMERY,BR-20-006911,"Single Family Homes",7/10/2020,,165316,2578,"3612 CANNON DR",CONROE,TX,77301,"MACKENZIE CREEK",6,CONTRACTOR,,,,,,,,,,,"LEGEND HOMES",,,,,"LEGEND HOMES","10410 WINDAMERE LAKES BLVD",HOUSTON,TX,77065-4996,"(281) 671-9060",http://legendhomecorp.com/,"(281) 671-9055",,
TX,MONTGOMERY,BR-20-006915,"Single Family Homes",7/13/2020,,167787,2186,"3616 CANNON DR",CONROE,TX,77301,"MACKENZIE CREEK",7,CONTRACTOR,,,,,,,,,,,"LEGEND HOMES",,,,,"LEGEND HOMES","10410 WINDAMERE LAKES BLVD",HOUSTON,TX,77065-4996,"(281) 671-9060",http://legendhomecorp.com/,"(281) 671-9055",,
TX,MONTGOMERY,BR-20-006919,"Single Family Homes",7/13/2020,,165176,2658,"3620 CANNON DR",CONROE,TX,77301,"MACKENZIE CREEK",8,CONTRACTOR,,,,,,,,,,,"LEGEND HOMES",,,,,"LEGEND HOMES","10410 WINDAMERE LAKES BLVD",HOUSTON,TX,77065-4996,"(281) 671-9060",http://legendhomecorp.com/,"(281) 671-9055",,
TX,MONTGOMERY,BR-20-006922,"Single Family Homes",7/13/2020,,164000,3211,"3624 CANNON DR",CONROE,TX,77301,"MACKENZIE CREEK",9,CONTRACTOR,,,,,,,,,,,"LEGEND HOMES",,,,,"LEGEND HOMES","10410 WINDAMERE LAKES BLVD",HOUSTON,TX,77065-4996,"(281) 671-9060",http://legendhomecorp.com/,"(281) 671-9055",,
TX,MONTGOMERY,BR-20-007076,"Single Family Homes",7/7/2020,,96500,2197,"12360 DELTA TIMBER RD",CONROE,TX,77304,"HERITAGE RESERVE",21,CONTRACTOR,,,,,,,,,,,"LENNAR HOMES",,,,,"LENNAR HOMES","550 GREENS PKWY",HOUSTON,TX,77067-4537,"(281) 875-1000",http://www.lennar.com/,,,
TX,MONTGOMERY,BR-20-007079,"Single Family Homes",7/6/2020,,121600,2755,"12356 DELTA TIMBER RD",CONROE,TX,77304,"HERITAGE RESERVE",20,CONTRACTOR,,,,,,,,,,,"LENNAR HOMES",,,,,"LENNAR HOMES","550 GREENS PKWY",HOUSTON,TX,77067-4537,"(281) 875-1000",http://www.lennar.com/,,,
TX,MONTGOMERY,BR-20-007083,"Single Family Homes",7/6/2020,,155500,2978,"3333 ROLLING VIEW CT",CONROE,TX,77301,"LADERA CREEK",62,CONTRACTOR,,,,,,,,,,,"LENNAR HOMES",,,,,"LENNAR HOMES","550 GREENS PKWY",HOUSTON,TX,77067-4537,"(281) 875-1000",http://www.lennar.com/,,,
TX,MONTGOMERY,BR-20-007088,"Single Family Homes",7/27/2020,,500000,4791,"86 DAWNS EDGE DR",CONROE,TX,77356,"APRIL SOUND",150,CONTRACTOR,,,,,,,,,,,"SCHENCK BUILDERS",,,,,"SCHENCK BUILDERS","1527 CAFE DUMONDE",CONROE,TX,77304-4933,"(936) 648-4823",http://schenckbuilders.com/,"(832) 218-0805","YVETTE SCHENCK",info@schenckbuilders.com
TX,MONTGOMERY,BR-20-007120,"Single Family Homes",7/7/2020,,200000,2964,"569 TIMBER VOYAGE CT",CONROE,TX,77304,"GRAND CENTRAL PARK",21,CONTRACTOR,,,,,,,,,,,"HIGHLAND HOMES",,,,,"HIGHLAND HOMES","10930 W SAM HOUSTON PKWY N STE 100",HOUSTON,TX,77064-6331,"(281) 517-9800",,,,
TX,MONTGOMERY,BR-20-007370,"Single Family Homes",7/30/2020,,273990,1975,"512 CHESTNUT REEF CT",CONROE,TX,77304,"GRAND CENTRAL PARK",3,CONTRACTOR,,,,,,,,,,,"MHI MCGUYER HOMEBUILDERS",,,,,"MHI MCGUYER HOMEBUILDERS","7676 WOODWAY DR",HOUSTON,TX,77063-1526,"(713) 260-4107",,,,
TX,MONTGOMERY,BR-20-007408,"Single Family Homes",7/20/2020,,216000,3102,"40 TRELLIS CT",CONROE,TX,77304,CAMELLIA,8,CONTRACTOR,,,,,,,,,,,"DR HORTON",,,,,"DR HORTON","14100 SOUTHWEST",HOUSTON,TX,77478,"(281) 201-5559",,,,
TX,MONTGOMERY,BR-20-007418,"Single Family Homes",7/1/2020,,107550,2388,"6006 DULCINA CT",CONROE,TX,77304,"WATER CREST ON LAKE CONROE",26,CONTRACTOR,,,,,,,,,,,"DR HORTON",,,,,"DR HORTON","14100 SOUTHWEST",HOUSTON,TX,77478,"(281) 201-5559",,,,
TX,MONTGOMERY,BR-20-007427,"Single Family Homes",7/13/2020,,90000,3133,"3513 FALCON WAY",CONROE,TX,77304,"ESTATES OF WEDGEWOOD FALLS",19,CONTRACTOR,,,,,,,,,,,"ASGI HOMES",,,,,"ASGI HOMES","2257 N LOOP 336 W STE 140-370",CONROE,TX,77304-3566,"(888) 991-0005",http://www.asgihomes.com,,,
TX,MONTGOMERY,BR-20-007433,"Single Family Homes",7/9/2020,,235000,2693,"943 N HUNTING TOWER RUN",CONROE,TX,77316,"LAKE CONROE FOREST",17,CONTRACTOR,,,,,,,,,,,"SCHENCK BUILDERS",,,,,"SCHENCK BUILDERS","1527 CAFE DUMONDE",CONROE,TX,77304-4933,"(936) 648-4823",http://schenckbuilders.com/,"(832) 218-0805","YVETTE SCHENCK",info@schenckbuilders.com
TX,MONTGOMERY,BR-20-007607,"Single Family Homes",7/13/2020,,220000,3205,"159 SILVA CREEK TRL",CONROE,TX,77318,"THE WOODLANDS HILLS",25,CONTRACTOR,,,,,,,,,,,"GRAND VIEW BUILDERS",,,,,"GRAND VIEW BUILDERS","525 N SAM HOUSTON PKWY E STE 600",HOUSTON,TX,77060-4015,"(281) 741-8946",http://www.gvbtx.com/,,,
TX,MONTGOMERY,BR-20-007665,"Single Family Homes",7/31/2020,,183000,1480,"1107 N 7TH ST",CONROE,TX,77301,"WOODLAND HEIGHTS",17,CONTRACTOR,,,,,,,,,,,"THE LEMOINE COMPANY",,,,,"THE LEMOINE COMPANY","1906 ERASTE LANDRY RD STE 200",LAFAYETTE,LA,70506,"(337) 456-1322",,,,
TX,MONTGOMERY,BR-20-007708,"Single Family Homes",7/14/2020,,250990,2276,"577 TIMBER VOYAGE CT",CONROE,TX,77304,"GRAND CENTRAL PARK",19,CONTRACTOR,,,,,,,,,,,"COVENTRY HOMES",,,,,"COVENTRY HOMES","7676 WOODWAY DR STE 247",HOUSTON,TX,77063-1522,"(713) 952-6767",,,,
TX,MONTGOMERY,BR-20-007710,"Single Family Homes",7/9/2020,,194990,2008,"1921 HIDDEN CEDAR DR",CONROE,TX,77301,"HIDDEN CREEK PRESERVE",6,CONTRACTOR,,,,,,,,,,,"HISTORY MAKER HOMES",,,,,"HISTORY MAKER HOMES","9001 AIRPORT FWY SUITE 400","NORTH RICHLAND HILLS",TX,76180-7769,"(817) 429-8008",http://www.historymaker.com/,"(817) 507-1102","JILL BARFIELD",
TX,MONTGOMERY,BR-20-007712,"Single Family Homes",7/8/2020,,145181,2802,"2339 HAGERMAN RD",CONROE,TX,77384,STILLWATER,9,CONTRACTOR,,,,,,,,,,,"GRACEPOINT HOMES",,,,,"GRACEPOINT HOMES","33300 EGYPT LN STE 100",MAGNOLIA,TX,77354-2739,"(281) 681-0400",http://www.gracepointhomes.com/,"(281) 681-0402",,Info@gracepointhomes.com
TX,MONTGOMERY,BR-20-007715,"Single Family Homes",7/8/2020,,112545,2717,"6010 DULCINA CT",CONROE,TX,77304,"WATER CREST ON LAKE CONROE",27,CONTRACTOR,,,,,,,,,,,"DR HORTON",,,,,"DR HORTON","14100 SOUTHWEST",HOUSTON,TX,77478,"(281) 201-5559",,,,
TX,MONTGOMERY,BR-20-007719,"Single Family Homes",7/8/2020,,112545,2501,"5910 WARM BUNGALOW LN",CONROE,TX,77304,"WATER CREST ON LAKE CONROE",40,CONTRACTOR,,,,,,,,,,,"DR HORTON",,,,,"DR HORTON","14100 SOUTHWEST",HOUSTON,TX,77478,"(281) 201-5559",,,,
TX,MONTGOMERY,BR-20-007721,"Single Family Homes",7/8/2020,,107550,2390,"11512 PARROT FISH CT",CONROE,TX,77304,"WATER CREST ON LAKE CONROE",45,CONTRACTOR,,,,,,,,,,,"DR HORTON",,,,,"DR HORTON","14100 SOUTHWEST",HOUSTON,TX,77478,"(281) 201-5559",,,,
TX,MONTGOMERY,BR-20-007723,"Single Family Homes",7/8/2020,,121455,2699,"11508 PARROT FISH CT",CONROE,TX,77304,"WATER CREST ON LAKE CONROE",44,CONTRACTOR,,,,,,,,,,,"DR HORTON",,,,,"DR HORTON","14100 SOUTHWEST",HOUSTON,TX,77478,"(281) 201-5559",,,,
TX,MONTGOMERY,BR-20-007727,"Single Family Homes",7/8/2020,,112545,2717,"11504 PARROT FISH CT",CONROE,TX,77304,"WATER CREST ON LAKE CONROE",43,CONTRACTOR,,,,,,,,,,,"DR HORTON",,,,,"DR HORTON","14100 SOUTHWEST",HOUSTON,TX,77478,"(281) 201-5559",,,,
TX,MONTGOMERY,BR-20-007729,"Single Family Homes",7/8/2020,,122535,2723,"5914 WARM BUNGALOW LN",CONROE,TX,77304,"WATER CREST ON LAKE CONROE",41,CONTRACTOR,,,,,,,,,,,"DR HORTON",,,,,"DR HORTON","14100 SOUTHWEST",HOUSTON,TX,77478,"(281) 201-5559",,,,
TX,MONTGOMERY,BR-20-007733,"Single Family Homes",7/8/2020,,122535,2699,"5918 WARM BUNGALOW LN",CONROE,TX,77304,"WATER CREST ON LAKE CONROE",42,CONTRACTOR,,,,,,,,,,,"DR HORTON",,,,,"DR HORTON","14100 SOUTHWEST",HOUSTON,TX,77478,"(281) 201-5559",,,,
TX,MONTGOMERY,BR-20-007743,"Single Family Homes",7/8/2020,,125640,2757,"11516 PARROT FISH CT",CONROE,TX,77304,"WATER CREST ON LAKE CONROE",46,CONTRACTOR,,,,,,,,,,,"DR HORTON",,,,,"DR HORTON","14100 SOUTHWEST",HOUSTON,TX,77478,"(281) 201-5559",,,,
TX,MONTGOMERY,BR-20-007747,"Single Family Homes",7/8/2020,,153737,3176,"2358 HAGERMAN RD",CONROE,TX,77384,STILLWATER,24,CONTRACTOR,,,,,,,,,,,"GRACEPOINT HOMES",,,,,"GRACEPOINT HOMES","33300 EGYPT LN STE 100",MAGNOLIA,TX,77354-2739,"(281) 681-0400",http://www.gracepointhomes.com/,"(281) 681-0402",,Info@gracepointhomes.com
TX,MONTGOMERY,BR-20-007750,"Single Family Homes",7/28/2020,,125500,2784,"12348 DELTA TIMBER RD",CONROE,TX,77304,"HERITAGE RESERVE",19,CONTRACTOR,,,,,,,,,,,"LENNAR HOMES",,,,,"LENNAR HOMES","550 GREENS PKWY",HOUSTON,TX,77067-4537,"(281) 875-1000",http://www.lennar.com/,,,
TX,MONTGOMERY,BR-20-007763,"Single Family Homes",7/9/2020,,139599,3471,"2804 BEECH RIVER CT",CONROE,TX,77301,"BARTON CREEK RANCH",20,CONTRACTOR,,,,,,,,,,,"LONG LAKE HOMES",,,,,"LONG LAKE HOMES","15915 KATY FWY STE 405",HOUSTON,TX,77094-1710,"(281) 646-1727",http://www.longlakeltd.com/,,"DAVID BIGLER",
TX,MONTGOMERY,BR-20-007766,"Single Family Homes",7/8/2020,,204425,3537,"2178 GRAYSTONE HILLS DR",CONROE,TX,77304,"GRAYSTONE HILLS",33,CONTRACTOR,,,,,,,,,,,"LENNAR HOMES",,,,,"LENNAR HOMES","550 GREENS PKWY",HOUSTON,TX,77067-4537,"(281) 875-1000",http://www.lennar.com/,,,
TX,MONTGOMERY,BR-20-007769,"Single Family Homes",7/9/2020,,200085,4827,"230 CHERRY FOREST TRL",CONROE,TX,77301,"BARTON CREEK RANCH",11,CONTRACTOR,,,,,,,,,,,"LONG LAKE HOMES",,,,,"LONG LAKE HOMES","15915 KATY FWY STE 405",HOUSTON,TX,77094-1710,"(281) 646-1727",http://www.longlakeltd.com/,,"DAVID BIGLER",
TX,MONTGOMERY,BR-20-007774,"Single Family Homes",7/9/2020,,89815,2983,"3112 STATELY CHESTNUT CT",CONROE,TX,77301,"BARTON CREEK RANCH",30,CONTRACTOR,,,,,,,,,,,"LONG LAKE HOMES",,,,,"LONG LAKE HOMES","15915 KATY FWY STE 405",HOUSTON,TX,77094-1710,"(281) 646-1727",http://www.longlakeltd.com/,,"DAVID BIGLER",
TX,MONTGOMERY,BR-20-007778,"Single Family Homes",7/17/2020,,171405,2637,"9021 OVAL GLASS ST",CONROE,TX,77304,"CHASE RUN",6,CONTRACTOR,,,,,,,,,,,"LGI HOMES",,,,,"LGI HOMES","1450 LAKE ROBBINS SUITE 430",CONROE,TX,77380,"(210) 563-4648",,"(281) 210-2601",,
TX,MONTGOMERY,BR-20-007782,"Single Family Homes",7/17/2020,,141895,2183,"9025 OVAL GLASS ST",CONROE,TX,77304,"CHASE RUN",5,CONTRACTOR,,,,,,,,,,,"LGI HOMES",,,,,"LGI HOMES","1450 LAKE ROBBINS SUITE 430",CONROE,TX,77380,"(210) 563-4648",,"(281) 210-2601",,
TX,MONTGOMERY,BR-20-007813,"Single Family Homes",7/8/2020,,153737,3078,"2355 HAGERMAN RD",CONROE,TX,77384,STILLWATER,8,CONTRACTOR,,,,,,,,,,,"GRACEPOINT HOMES",,,,,"GRACEPOINT HOMES","33300 EGYPT LN STE 100",MAGNOLIA,TX,77354-2739,"(281) 681-0400",http://www.gracepointhomes.com/,"(281) 681-0402",,Info@gracepointhomes.com
TX,MONTGOMERY,BR-20-007816,"Single Family Homes",7/7/2020,,225282,3041,"223 FAWN VALLEY TRL",CONROE,TX,77318,"THE WOODLANDS HILLS",7,CONTRACTOR,,,,,,,,,,,"CHESMAR HOMES",,,,,"CHESMAR HOMES","450 GEARS RD STE 400",HOUSTON,TX,77067-4513,"(281) 598-1111",http://chesmar.com,"(281) 598-1115",,customerservice.houston@chesmar.com
TX,MONTGOMERY,BR-20-007820,"Single Family Homes",7/7/2020,,157355,3201,"135 SILVA CREEK TRL",CONROE,TX,77318,"THE WOODLANDS HILLS",1,CONTRACTOR,,,,,,,,,,,"CHESMAR HOMES",,,,,"CHESMAR HOMES","450 GEARS RD STE 400",HOUSTON,TX,77067-4513,"(281) 598-1111",http://chesmar.com,"(281) 598-1115",,customerservice.houston@chesmar.com
TX,MONTGOMERY,BR-20-007823,"Single Family Homes",7/7/2020,,144559,2722,"131 SILVA CREEK TRL",CONROE,TX,77318,"THE WOODLANDS HILLS",2,CONTRACTOR,,,,,,,,,,,"CHESMAR HOMES",,,,,"CHESMAR HOMES","450 GEARS RD STE 400",HOUSTON,TX,77067-4513,"(281) 598-1111",http://chesmar.com,"(281) 598-1115",,customerservice.houston@chesmar.com
TX,MONTGOMERY,BR-20-007908,"Single Family Homes",7/14/2020,,89815,1969,"2911 TULIP POPLAR TRL",CONROE,TX,77429,"BARTON CREEK",22,CONTRACTOR,,,,,,,,,,,"LONG LAKE HOMES",,,,,"LONG LAKE HOMES","15915 KATY FWY STE 405",HOUSTON,TX,77094-1710,"(281) 646-1727",http://www.longlakeltd.com/,,"DAVID BIGLER",
TX,MONTGOMERY,BR-20-007911,"Single Family Homes",7/15/2020,,112515,2501,"6015 DULCINA CT",CONROE,TX,77304,"WATER CREST ON LAKE CONROE",34,CONTRACTOR,,,,,,,,,,,"DR HORTON",,,,,"DR HORTON","14100 SOUTHWEST",HOUSTON,TX,77478,"(281) 201-5559",,,,
TX,MONTGOMERY,BR-20-007939,"Single Family Homes",7/15/2020,,107550,2388,"6011 DULCINA CT",CONROE,TX,77304,"WATER CREST ON LAKE CONROE",35,CONTRACTOR,,,,,,,,,,,"DR HORTON",,,,,"DR HORTON","14100 SOUTHWEST",HOUSTON,TX,77478,"(281) 201-5559",,,,
TX,MONTGOMERY,BR-20-007955,"Single Family Homes",7/10/2020,,200000,3170,"156 SILVA CREEK TRL",CONROE,TX,77318,"THE WOODLANDS HILLS",2,CONTRACTOR,,,,,,,,,,,"GRAND VIEW BUILDERS",,,,,"GRAND VIEW BUILDERS","525 N SAM HOUSTON PKWY E STE 600",HOUSTON,TX,77060-4015,"(281) 741-8946",http://www.gvbtx.com/,,,
TX,MONTGOMERY,BR-20-007998,"Single Family Homes",7/17/2020,,140075,2155,"9029 OVAL GLASS ST",CONROE,TX,77304,"CHASE RUN",4,CONTRACTOR,,,,,,,,,,,"LGI HOMES",,,,,"LGI HOMES","1450 LAKE ROBBINS SUITE 430",CONROE,TX,77380,"(210) 563-4648",,"(281) 210-2601",,
TX,MONTGOMERY,BR-20-008033,"Single Family Homes",7/15/2020,,121455,2699,"6007 DULCINA CT",CONROE,TX,77304,"WATER CREST ON LAKE CONROE",36,CONTRACTOR,,,,,,,,,,,"DR HORTON",,,,,"DR HORTON","14100 SOUTHWEST",HOUSTON,TX,77478,"(281) 201-5559",,,,
TX,MONTGOMERY,BR-20-008035,"Single Family Homes",7/17/2020,,141895,2183,"9033 OVAL GLASS ST",CONROE,TX,77304,"CHASE RUN",3,CONTRACTOR,,,,,,,,,,,"LGI HOMES",,,,,"LGI HOMES","1450 LAKE ROBBINS SUITE 430",CONROE,TX,77380,"(210) 563-4648",,"(281) 210-2601",,
TX,MONTGOMERY,BR-20-008038,"Single Family Homes",7/16/2020,,126035,1939,"9037 OVAL GLASS ST",CONROE,TX,77304,"CHASE RUN",2,CONTRACTOR,,,,,,,,,,,"LGI HOMES",,,,,"LGI HOMES","1450 LAKE ROBBINS SUITE 430",CONROE,TX,77380,"(210) 563-4648",,"(281) 210-2601",,
TX,MONTGOMERY,BR-20-008042,"Single Family Homes",7/15/2020,,132885,2970,"6003 DULCINA CT",CONROE,TX,77304,"WATER CREST ON LAKE CONROE",37,CONTRACTOR,,,,,,,,,,,"DR HORTON",,,,,"DR HORTON","14100 SOUTHWEST",HOUSTON,TX,77478,"(281) 201-5559",,,,
TX,MONTGOMERY,BR-20-008044,"Single Family Homes",7/16/2020,,140075,2155,"9012 OVAL GLASS ST",CONROE,TX,77304,"CHASE RUN",4,CONTRACTOR,,,,,,,,,,,"LGI HOMES",,,,,"LGI HOMES","1450 LAKE ROBBINS SUITE 430",CONROE,TX,77380,"(210) 563-4648",,"(281) 210-2601",,
TX,MONTGOMERY,BR-20-008048,"Single Family Homes",7/15/2020,,121455,2699,"5902 WARM BUNGALOW LN",CONROE,TX,77304,"WATER CREST ON LAKE CONROE",38,CONTRACTOR,,,,,,,,,,,"DR HORTON",,,,,"DR HORTON","14100 SOUTHWEST",HOUSTON,TX,77478,"(281) 201-5559",,,,
TX,MONTGOMERY,BR-20-008064,"Single Family Homes",7/17/2020,,183040,2816,"9016 OVAL GLASS ST",CONROE,TX,77304,"CHASE RUN",3,CONTRACTOR,,,,,,,,,,,"LGI HOMES",,,,,"LGI HOMES","1450 LAKE ROBBINS SUITE 430",CONROE,TX,77380,"(210) 563-4648",,"(281) 210-2601",,
TX,MONTGOMERY,BR-20-008073,"Single Family Homes",7/17/2020,,201045,3093,"7565 TYLER RUN BLVD",CONROE,TX,77304,"CHASE RUN",18,CONTRACTOR,,,,,,,,,,,"LGI HOMES",,,,,"LGI HOMES","1450 LAKE ROBBINS SUITE 430",CONROE,TX,77380,"(210) 563-4648",,"(281) 210-2601",,
TX,MONTGOMERY,BR-20-008090,"Single Family Homes",7/15/2020,,107550,2388,"5906 WARM BUNGALOW LN",CONROE,TX,77304,"WATER CREST ON LAKE CONROE",39,CONTRACTOR,,,,,,,,,,,"DR HORTON",,,,,"DR HORTON","14100 SOUTHWEST",HOUSTON,TX,77478,"(281) 201-5559",,,,
TX,MONTGOMERY,BR-20-008096,"Single Family Homes",7/17/2020,,201045,3093,"7536 TYLER RUN BLVD",CONROE,TX,77304,"CHASE RUN",1,CONTRACTOR,,,,,,,,,,,"LGI HOMES",,,,,"LGI HOMES","1450 LAKE ROBBINS SUITE 430",CONROE,TX,77380,"(210) 563-4648",,"(281) 210-2601",,
TX,MONTGOMERY,BR-20-008108,"Single Family Homes",7/17/2020,,300495,4623,"9031 HARLEY CLAIRE ST",CONROE,TX,77304,"CHASE RUN",9,CONTRACTOR,,,,,,,,,,,"LGI HOMES",,,,,"LGI HOMES","1450 LAKE ROBBINS SUITE 430",CONROE,TX,77380,"(210) 563-4648",,"(281) 210-2601",,
TX,MONTGOMERY,BR-20-008114,"Single Family Homes",7/17/2020,,201045,3093,"9039 HARLEY CLAIRE ST",CONROE,TX,77304,"CHASE RUN",11,CONTRACTOR,,,,,,,,,,,"LGI HOMES",,,,,"LGI HOMES","1450 LAKE ROBBINS SUITE 430",CONROE,TX,77380,"(210) 563-4648",,"(281) 210-2601",,
TX,MONTGOMERY,BR-20-008117,"Single Family Homes",7/17/2020,,233220,3588,"7561 TYLER RUN BLVD",CONROE,TX,77304,"CHASE RUN",17,CONTRACTOR,,,,,,,,,,,"LGI HOMES",,,,,"LGI HOMES","1450 LAKE ROBBINS SUITE 430",CONROE,TX,77380,"(210) 563-4648",,"(281) 210-2601",,
TX,MONTGOMERY,BR-20-008124,"Single Family Homes",7/16/2020,,141895,2183,"9041 OVAL GLASS ST",CONROE,TX,77304,"CHASE RUN",1,CONTRACTOR,,,,,,,,,,,"LGI HOMES",,,,,"LGI HOMES","1450 LAKE ROBBINS SUITE 430",CONROE,TX,77380,"(210) 563-4648",,"(281) 210-2601",,
TX,MONTGOMERY,BR-20-008128,"Single Family Homes",7/22/2020,,121455,2699,"6019 DULCINA CT",CONROE,TX,77304,"WATER CREST ON LAKE CONROE",33,CONTRACTOR,,,,,,,,,,,"DR HORTON",,,,,"DR HORTON","14100 SOUTHWEST",HOUSTON,TX,77478,"(281) 201-5559",,,,
TX,MONTGOMERY,BR-20-008131,"Single Family Homes",7/22/2020,,157050,3376,"6042 DULCINA CT",CONROE,TX,77304,"WATER CREST ON LAKE CONROE",32,CONTRACTOR,,,,,,,,,,,"DR HORTON",,,,,"DR HORTON","14100 SOUTHWEST",HOUSTON,TX,77478,"(281) 201-5559",,,,
TX,MONTGOMERY,BR-20-008134,"Single Family Homes",7/22/2020,,125640,2757,"6038 DULCINA CT",CONROE,TX,77304,"WATER CREST ON LAKE CONROE",31,CONTRACTOR,,,,,,,,,,,"DR HORTON",,,,,"DR HORTON","14100 SOUTHWEST",HOUSTON,TX,77478,"(281) 201-5559",,,,
TX,MONTGOMERY,BR-20-008137,"Single Family Homes",7/29/2020,,132885,2970,"6034 DULCINA CT",CONROE,TX,77304,"WATER CREST ON LAKE CONROE",30,CONTRACTOR,,,,,,,,,,,"DR HORTON",,,,,"DR HORTON","14100 SOUTHWEST",HOUSTON,TX,77478,"(281) 201-5559",,,,
TX,MONTGOMERY,BR-20-008146,"Single Family Homes",7/29/2020,,121455,2699,"6030 DULCINA CT",CONROE,TX,77304,"WATER CREST ON LAKE CONROE",29,CONTRACTOR,,,,,,,,,,,"DR HORTON",,,,,"DR HORTON","14100 SOUTHWEST",HOUSTON,TX,77478,"(281) 201-5559",,,,
TX,MONTGOMERY,BR-20-008149,"Single Family Homes",7/14/2020,,93012,2079,"1509 ANCIENT OAK LN",CONROE,TX,77301,"LADERA CREEK",17,CONTRACTOR,,,,,,,,,,,"STYLECRAFT BUILDERS ",,,,,"STYLECRAFT BUILDERS ","4090 STATE HIGHWAY 6 S","COLLEGE STATION",TX,77845-8962,"(979) 764-9900",,"(979) 690-3069","TANNER BREWSTER",tabrewster@stylecraft-builders.com
TX,MONTGOMERY,BR-20-008153,"Single Family Homes",7/17/2020,,118000,2265,"642 ASPEN FALLS CT",CONROE,TX,77304,"GRAND CENTRAL PARK",6,CONTRACTOR,,,,,,,,,,,"LENNAR HOMES",,,,,"LENNAR HOMES","550 GREENS PKWY",HOUSTON,TX,77067-4537,"(281) 875-1000",http://www.lennar.com/,,,
TX,MONTGOMERY,BR-20-008158,"Single Family Homes",7/20/2020,,114300,2250,"646 ASPEN FALLS CT",CONROE,TX,77304,"GRAND CENTRAL PARK",5,CONTRACTOR,,,,,,,,,,,"LENNAR HOMES",,,,,"LENNAR HOMES","550 GREENS PKWY",HOUSTON,TX,77067-4537,"(281) 875-1000",http://www.lennar.com/,,,
TX,MONTGOMERY,BR-20-008162,"Single Family Homes",7/15/2020,,332990,3859,"335 SKYLINE RIDGE DR",CONROE,TX,77318,"THE WOODLANDS HILLS",8,CONTRACTOR,,,,,,,,,,,"DAVID WEEKLEY HOMES",,,,,"DAVID WEEKLEY HOMES","14444 NORTHWEST",HOUSTON,TX,77040,"(713) 570-5021",http://www.davidweekleyhomes.com/,,,
TX,MONTGOMERY,BR-20-008169,"Single Family Homes",7/15/2020,,395490,3625,"106 LACE BARK DR",CONROE,TX,77304,"GRAND CENTRAL PARK",1,CONTRACTOR,,,,,,,,,,,"DAVID WEEKLEY HOMES",,,,,"DAVID WEEKLEY HOMES","14444 NORTHWEST",HOUSTON,TX,77040,"(713) 570-5021",http://www.davidweekleyhomes.com/,,,
TX,MONTGOMERY,BR-20-008251,"Single Family Homes",7/29/2020,,237990,3244,"1917 HIDDEN CEDAR DR",CONROE,TX,77301,"HIDDEN CREEK PRESERVE",5,CONTRACTOR,,,,,,,,,,,"HISTORY MAKER HOMES",,,,,"HISTORY MAKER HOMES","9001 AIRPORT FWY SUITE 400","NORTH RICHLAND HILLS",TX,76180-7769,"(817) 429-8008",http://www.historymaker.com/,"(817) 507-1102","JILL BARFIELD",
TX,MONTGOMERY,BR-20-008313,"Single Family Homes",7/17/2020,,348490,3264,"142 LACE BARK DR",CONROE,TX,77304,"GRAND CENTRAL PARK",10,CONTRACTOR,,,,,,,,,,,"DAVID WEEKLEY HOMES",,,,,"DAVID WEEKLEY HOMES","14444 NORTHWEST",HOUSTON,TX,77040,"(713) 570-5021",http://www.davidweekleyhomes.com/,,,
TX,MONTGOMERY,BR-20-008318,"Single Family Homes",7/17/2020,,376490,4289,"206 TORREY BLOOM LOOP",CONROE,TX,77304,"GRAND CENTRAL PARK",12,CONTRACTOR,,,,,,,,,,,"DAVID WEEKLEY HOMES",,,,,"DAVID WEEKLEY HOMES","14444 NORTHWEST",HOUSTON,TX,77040,"(713) 570-5021",http://www.davidweekleyhomes.com/,,,
TX,MONTGOMERY,BR-20-008321,"Single Family Homes",7/16/2020,,120700,2410,"3204 CLIMBING GARDENS CT",CONROE,TX,77301,"LADERA CREEK",33,CONTRACTOR,,,,,,,,,,,"LENNAR HOMES",,,,,"LENNAR HOMES","550 GREENS PKWY",HOUSTON,TX,77067-4537,"(281) 875-1000",http://www.lennar.com/,,,
TX,MONTGOMERY,BR-20-008325,"Single Family Homes",7/28/2020,,114300,2978,"3232 CLIMBING GARDENS CT",CONROE,TX,77301,"LADERA CREEK",26,CONTRACTOR,,,,,,,,,,,"LENNAR HOMES",,,,,"LENNAR HOMES","550 GREENS PKWY",HOUSTON,TX,77067-4537,"(281) 875-1000",http://www.lennar.com/,,,
TX,MONTGOMERY,BR-20-008329,"Single Family Homes",7/30/2020,,114300,2717,"3213 CLIMBING GARDENS CT",CONROE,TX,77301,"LADERA CREEK",36,CONTRACTOR,,,,,,,,,,,"LENNAR HOMES",,,,,"LENNAR HOMES","550 GREENS PKWY",HOUSTON,TX,77067-4537,"(281) 875-1000",http://www.lennar.com/,,,
TX,MONTGOMERY,BR-20-008339,"Single Family Homes",7/31/2020,,253990,2816,"142 SCARLET MAPLE CT",CONROE,TX,77479,"THE WOODLANDS HILLS",24,CONTRACTOR,,,,,,,,,,,"DAVID WEEKLEY HOMES",,,,,"DAVID WEEKLEY HOMES","14444 NORTHWEST",HOUSTON,TX,77040,"(713) 570-5021",http://www.davidweekleyhomes.com/,,,
TX,MONTGOMERY,BR-20-008344,"Single Family Homes",7/28/2020,,350000,3422,"223 MARBLE GARDEN LN",CONROE,TX,77304,"GRAND CENTRAL PARK",20,CONTRACTOR,,,,,,,,,,,"JAEGER HOMES ",,,,,"JAEGER HOMES ","13111 CAMERON CREST LN","SUGAR LAND",TX,77498-7417,"(281) 491-5845",,"(281) 242-2083","CHRIS JAEGER",ChrisAJaeger@JaegerHomesInc.com
TX,MONTGOMERY,BR-20-008352,"Single Family Homes",7/29/2020,,121000,4541,"207 CALM SAVANNA CT",CONROE,TX,77318,"THE WOODLANDS HILLS",19,CONTRACTOR,,,,,,,,,,,"HUNTINGTON HOMES",,,,,"HUNTINGTON HOMES","5601 DEMOCRACY DR",PLANO,TX,75024-3687,"(817) 714-8687",http://www.huntingtoncustomhomes.com/,,"AMY KINNEY",
TX,MONTGOMERY,BR-20-008356,"Single Family Homes",7/28/2020,,118818,2660,"3309 ROLLING VIEW CT",CONROE,TX,77301,"LADERA CREEK",56,CONTRACTOR,,,,,,,,,,,"STYLECRAFT BUILDERS ",,,,,"STYLECRAFT BUILDERS ","4090 STATE HIGHWAY 6 S","COLLEGE STATION",TX,77845-8962,"(979) 764-9900",,"(979) 690-3069","TANNER BREWSTER",tabrewster@stylecraft-builders.com
TX,MONTGOMERY,BR-20-008359,"Single Family Homes",7/29/2020,,200990,2236,"1913 HIDDEN CEDAR DR",CONROE,TX,77301,"HIDDEN CREEK PRESERVE",4,CONTRACTOR,,,,,,,,,,,"HISTORY MAKER HOMES",,,,,"HISTORY MAKER HOMES","9001 AIRPORT FWY SUITE 400","NORTH RICHLAND HILLS",TX,76180-7769,"(817) 429-8008",http://www.historymaker.com/,"(817) 507-1102","JILL BARFIELD",
TX,MONTGOMERY,BR-20-008361,"Single Family Homes",7/29/2020,,156800,3017,"2641 SAGEDALE DR",CONROE,TX,77301,"LADERA CREEK",32,CONTRACTOR,,,,,,,,,,,"LENNAR HOMES",,,,,"LENNAR HOMES","550 GREENS PKWY",HOUSTON,TX,77067-4537,"(281) 875-1000",http://www.lennar.com/,,,
TX,MONTGOMERY,BR-20-008365,"Single Family Homes",7/31/2020,,280290,3370,"4404 LONGLEAF TIMBERS CT",CONROE,TX,77304,"THE WOODS OF CONROE",27,CONTRACTOR,,,,,,,,,,,"PULTE HOMES",,,,,"PULTE HOMES","16670 PARK ROW",HOUSTON,TX,77084-6866,"(281) 749-8000",,,,
TX,MONTGOMERY,BR-20-008368,"Single Family Homes",7/17/2020,,172356,3304,"104 WIND FLOWER TRACK CT",CONROE,TX,77318,"THE WOODLANDS HILLS",6,CONTRACTOR,,,,,,,,,,,"CHESMAR HOMES",,,,,"CHESMAR HOMES","450 GEARS RD STE 400",HOUSTON,TX,77067-4513,"(281) 598-1111",http://chesmar.com,"(281) 598-1115",,customerservice.houston@chesmar.com
TX,MONTGOMERY,BR-20-008370,"Single Family Homes",7/31/2020,,199450,2226,"4408 LONGLEAF TIMBERS CT",CONROE,TX,77304,"THE WOODS OF CONROE",28,CONTRACTOR,,,,,,,,,,,"PULTE HOMES",,,,,"PULTE HOMES","16670 PARK ROW",HOUSTON,TX,77084-6866,"(281) 749-8000",,,,
TX,MONTGOMERY,BR-20-008373,"Single Family Homes",7/31/2020,,190260,1901,"4409 LONGLEAF TIMBERS CT",CONROE,TX,77304,"THE WOODS OF CONROE",23,CONTRACTOR,,,,,,,,,,,"PULTE HOMES",,,,,"PULTE HOMES","16670 PARK ROW",HOUSTON,TX,77084-6866,"(281) 749-8000",,,,
TX,MONTGOMERY,BR-20-008378,"Single Family Homes",7/31/2020,,202970,2177,"4412 LONGLEAF TIMBERS CT",CONROE,TX,77304,"THE WOODS OF CONROE",29,CONTRACTOR,,,,,,,,,,,"PULTE HOMES",,,,,"PULTE HOMES","16670 PARK ROW",HOUSTON,TX,77084-6866,"(281) 749-8000",,,,
TX,MONTGOMERY,BR-20-008391,"Single Family Homes",7/31/2020,,209010,2292,"4417 LONGLEAF TIMBERS CT",CONROE,TX,77304,"THE WOODS OF CONROE",21,CONTRACTOR,,,,,,,,,,,"PULTE HOMES",,,,,"PULTE HOMES","16670 PARK ROW",HOUSTON,TX,77084-6866,"(281) 749-8000",,,,
TX,MONTGOMERY,BR-20-008394,"Single Family Homes",7/31/2020,,192590,1952,"4420 LONGLEAF TIMBERS CT",CONROE,TX,77304,"THE WOODS OF CONROE",31,CONTRACTOR,,,,,,,,,,,"PULTE HOMES",,,,,"PULTE HOMES","16670 PARK ROW",HOUSTON,TX,77084-6866,"(281) 749-8000",,,,
TX,MONTGOMERY,BR-20-008398,"Single Family Homes",7/31/2020,,228290,2535,"4423 LONGLEAF TIMBERS CT",CONROE,TX,77304,"THE WOODS OF CONROE",20,CONTRACTOR,,,,,,,,,,,"PULTE HOMES",,,,,"PULTE HOMES","16670 PARK ROW",HOUSTON,TX,77084-6866,"(281) 749-8000",,,,
TX,MONTGOMERY,BR-20-008514,"Single Family Homes",7/31/2020,,120000,2364,"4428 LONGLEAF TIMBERS CT",CONROE,TX,77304,"THE WOODS OF CONROE",33,CONTRACTOR,,,,,,,,,,,"PULTE HOMES",,,,,"PULTE HOMES","16670 PARK ROW",HOUSTON,TX,77084-6866,"(281) 749-8000",,,,
TX,MONTGOMERY,BR-20-008532,"Single Family Homes",7/29/2020,,145769,2728,"138 SILVA CREEK TRL",CONROE,TX,77318,"THE WOODLANDS HILLS",6,CONTRACTOR,,,,,,,,,,,"CHESMAR HOMES",,,,,"CHESMAR HOMES","450 GEARS RD STE 400",HOUSTON,TX,77067-4513,"(281) 598-1111",http://chesmar.com,"(281) 598-1115",,customerservice.houston@chesmar.com
TX,MONTGOMERY,BR-20-008535,"Single Family Homes",7/30/2020,,215000,3359,"134 SILVA CREEK TRL",CONROE,TX,77318,"THE WOODLANDS HILLS",7,CONTRACTOR,,,,,,,,,,,"GRAND VIEW BUILDERS",,,,,"GRAND VIEW BUILDERS","525 N SAM HOUSTON PKWY E STE 600",HOUSTON,TX,77060-4015,"(281) 741-8946",http://www.gvbtx.com/,,,
TX,MONTGOMERY,BR-20-008586,"Single Family Homes",7/31/2020,,279055,3283,"3120 STATELY CHESTNUT CT",CONROE,TX,77301,"BARTON CREEK RANCH",28,CONTRACTOR,,,,,,,,,,,"LENNAR HOMES",,,,,"LENNAR HOMES","550 GREENS PKWY",HOUSTON,TX,77067-4537,"(281) 875-1000",http://www.lennar.com/,,,
TX,MONTGOMERY,BR-20-008658,"Single Family Homes",7/31/2020,,305900,2734,"526 CEDAR HARBOR CT",CONROE,TX,77304,"GRAND CENTRAL PARK",6,CONTRACTOR,,,,,,,,,,,"PERRY HOMES",,,,,"PERRY HOMES","9000 GULF FWY",HOUSTON,TX,77017-7018,"(713) 417-1396",,,,
TX,MONTGOMERY,174138-20,"Single Family Homes",7/16/2020,,200000,,"13958 CHALLENGER",WILLIS,TX,77318,"CORINTHIAN POINT",,"PATRICK STOKEY","15627 SUNFISH ROAD",WILLIS,TX,77318,,Owner,,,,,OWNER,,,,,OWNER,,,,,,,,,
TX,MONTGOMERY,"173940 20","Single Family Homes",7/13/2020,,140000,,"27477 ROCKIN R",HOUSTON,TX,77356,"HOLIDAY OAKS",,"ELENO TELLO","27477 ROCKING R ST",SPLENDORA,TX,77373,,Owner,,,,,OWNER,,,,,OWNER,,,,,,,,,
TX,MONTGOMERY,173961-20,"Single Family Homes",7/14/2020,,150400,,"28406 SUNRISE VIEW DR",HOUSTON,TX,77356,"WOODSONS RESERVE",,CONTRACTOR,,,,,,,,,,,"TOLL BROTHERS",,,,,"TOLL BROTHERS","10110 W SAM HOUSTON PKWY N STE 350",HOUSTON,TX,77064-7508,"(281) 664-7255",,,,
TX,MONTGOMERY,174120-20,"Single Family Homes",7/15/2020,,150400,,"28328 WOODSONS FOREST DR",HOUSTON,TX,77356,"WOODSONS RESERVE",,CONTRACTOR,,,,,,,,,,,"TOLL BROTHERS",,,,,"TOLL BROTHERS","10110 W SAM HOUSTON PKWY N STE 350",HOUSTON,TX,77064-7508,"(281) 664-7255",,,,
TX,MONTGOMERY,173953-20,"Single Family Homes",7/14/2020,,80000,,"28102 WHISPERING MAPLE WAY",HOUSTON,TX,77356,"BENDERS LANDING ESTATES",,"BRIAN TRUDEAU","28102 WHISPERING MAPLE WAY",SPRING,TX,77356,,Owner,,,,,OWNER,,,,,OWNER,,,,,,,,,
TX,MONTGOMERY,174150-20,"Single Family Homes",7/16/2020,,100000,,"17246 PECOS DR",HOUSTON,TX,77356,"RIO VISTA",,CONTRACTOR,,,,,,,,,,,"TWO SONS ENVIRONMENTAL SERVICES",,,,,"TWO SONS ENVIRONMENTAL SERVICES","23565 FM 1314 RD",PORTER,TX,77365-3724,"(281) 354-9284",http://www.two-sons.net,"(281) 354-2107",,twosonsenvironmental@yahoo.com
TX,MONTGOMERY,174153-20,"Single Family Homes",7/16/2020,,100000,,"19634 RIVERWALK DR",HOUSTON,TX,77356,RIVERWALK,,CONTRACTOR,,,,,,,,,,,"TWO SONS ENVIRONMENTAL SERVICES",,,,,"TWO SONS ENVIRONMENTAL SERVICES","23565 FM 1314 RD",PORTER,TX,77365-3724,"(281) 354-9284",http://www.two-sons.net,"(281) 354-2107",,twosonsenvironmental@yahoo.com
TX,MONTGOMERY,174159-20,"Single Family Homes",7/16/2020,,255320,,"1010 BLOSSOM FIELD LN",HOUSTON,TX,77356,WOODTRACE,,CONTRACTOR,,,,,,,,,,,"VILLAGE BUILDERS",,,,,"VILLAGE BUILDERS","550 GREENS PKWY STE 210",HOUSTON,TX,77067-4538,"(281) 873-4663",,,,
TX,MONTGOMERY,"174139 20","Single Family Homes",7/16/2020,,75000,,"17295 CROCKETT FOREST DR",HOUSTON,TX,77356,"CROCKETT FOREST",,CONTRACTOR,,,,,,,,,,,"5 STAR SEPTIC SOLUTIONS",,,,,"5 STAR SEPTIC SOLUTIONS","14141 HWY 105 E",CONROE,TX,77306,"(936) 264-6935",,,,
TX,MONTGOMERY,"173878 20","Single Family Homes",7/13/2020,,205000,,"412 CHRISTIANS CT",HOUSTON,TX,77356,WOODFOREST,,CONTRACTOR,,,,,,,,,,,"WESTIN HOMES",,,,,"WESTIN HOMES","1 SUGAR CREEK CENTER BLVD STE 600","SUGAR LAND",TX,77478-3787,"(281) 240-1551",http://www.westin-homes.com,,,
TX,MONTGOMERY,174052-20,"Single Family Homes",7/15/2020,,225000,,"15102 MAHOGANY TR",HOUSTON,TX,77356,ARTAVIA,,CONTRACTOR,,,,,,,,,,,"WESTIN HOMES",,,,,"WESTIN HOMES","1 SUGAR CREEK CENTER BLVD STE 600","SUGAR LAND",TX,77478-3787,"(281) 240-1551",http://www.westin-homes.com,,,
TX,MONTGOMERY,174063-20,"Single Family Homes",7/15/2020,,270000,,"15126 BOTANICAL GARDEN DR",HOUSTON,TX,77356,ARTAVIA,,CONTRACTOR,,,,,,,,,,,"WESTIN HOMES",,,,,"WESTIN HOMES","1 SUGAR CREEK CENTER BLVD STE 600","SUGAR LAND",TX,77478-3787,"(281) 240-1551",http://www.westin-homes.com,,,
TX,MONTGOMERY,174064-20,"Single Family Homes",7/15/2020,,235000,,"25220 AUTUMN WATER ST",HOUSTON,TX,77356,"WOODRIDGE FOREST",,CONTRACTOR,,,,,,,,,,,"WESTIN HOMES",,,,,"WESTIN HOMES","1 SUGAR CREEK CENTER BLVD STE 600","SUGAR LAND",TX,77478-3787,"(281) 240-1551",http://www.westin-homes.com,,,
TX,MONTGOMERY,174065-20,"Single Family Homes",7/15/2020,,259000,,"404 CHRISTIANS COURT",HOUSTON,TX,77356,WOODFOREST,,CONTRACTOR,,,,,,,,,,,"WESTIN HOMES",,,,,"WESTIN HOMES","1 SUGAR CREEK CENTER BLVD STE 600","SUGAR LAND",TX,77478-3787,"(281) 240-1551",http://www.westin-homes.com,,,
TX,MONTGOMERY,174066-20,"Single Family Homes",7/15/2020,,251000,,"409 CHRISTIANS CT",HOUSTON,TX,77356,WOODFOREST,,CONTRACTOR,,,,,,,,,,,"WESTIN HOMES",,,,,"WESTIN HOMES","1 SUGAR CREEK CENTER BLVD STE 600","SUGAR LAND",TX,77478-3787,"(281) 240-1551",http://www.westin-homes.com,,,
TX,MONTGOMERY,174102-20,"Single Family Homes",7/15/2020,,235000,,"440 AUBURN PINES DR",HOUSTON,TX,77356,WOODFOREST,,CONTRACTOR,,,,,,,,,,,"WESTIN HOMES",,,,,"WESTIN HOMES","1 SUGAR CREEK CENTER BLVD STE 600","SUGAR LAND",TX,77478-3787,"(281) 240-1551",http://www.westin-homes.com,,,
TX,MONTGOMERY,174669-20,"Single Family Homes",7/30/2020,,250000,,"4206 N HONEA EGYPT ROAD",HOUSTON,TX,77356,"MONTGOMERY TRACE",,CONTRACTOR,,,,,,,,,,,"AES SEPTIC",,,,,"AES SEPTIC","30703 N CRIPPLE CREEK DR",MAGNOLIA,TX,77354-1973,"(281) 356-5000",,,,
TX,MONTGOMERY,174557-20,"Single Family Homes",7/28/2020,,80000,,"28924 CHAMPION OAK DR",HOUSTON,TX,77356,"CHAMPIONS GLEN",,"DIANA AGUIRRE","29703 TEMPLE ST",MAGNOLIA,TX,77354,,Owner,,,,,OWNER,,,,,OWNER,,,,,,,,,
TX,MONTGOMERY,174677-20,"Single Family Homes",7/31/2020,,140170,,"21263 LUCKNOW LN",HOUSTON,TX,77356,"KINGS MILL",,CONTRACTOR,,,,,,,,,,,"ANGLIA HOMES",,,,,"ANGLIA HOMES","17510 RED OAK DR",HOUSTON,TX,77090,"(281) 943-5288",http://www.angliahomeslp.com/,,,
TX,MONTGOMERY,174606-20,"Single Family Homes",7/29/2020,,200000,,"2612 BLOOMING FIELD LN",HOUSTON,TX,77356,"MEADOWS AT IMPERIAL OAKS",,CONTRACTOR,,,,,,,,,,,"ASHTON WOODS HOMES",,,,,"ASHTON WOODS HOMES","10110 W SAM HOUSTON PKWY N",HOUSTON,TX,77064-7508,"(832) 478-9028",,,,
TX,MONTGOMERY,174571-20,"Single Family Homes",7/29/2020,,300000,,"21313 WILDFLOWER CT",HOUSTON,TX,77356,"MAGNOLIA RESERVE",,CONTRACTOR,,,,,,,,,,,"BETHEL HOMES",,,,,"BETHEL HOMES","295 MAGNOLIA RESERVE LOOP",MAGNOLIA,TX,77354,"(346) 328-2646",https://bethelhomesllc.com/,,,
TX,MONTGOMERY,174572-20,"Single Family Homes",7/29/2020,,300000,,"329 TREATY OAK CT",HOUSTON,TX,77356,"MAGNOLIA RESERVE",,CONTRACTOR,,,,,,,,,,,"BETHEL HOMES",,,,,"BETHEL HOMES","295 MAGNOLIA RESERVE LOOP",MAGNOLIA,TX,77354,"(346) 328-2646",https://bethelhomesllc.com/,,,
TX,MONTGOMERY,174574-20,"Single Family Homes",7/29/2020,,300000,,"328 TREATY OAK CT",HOUSTON,TX,77356,"MAGNOLIA RESERVE",,CONTRACTOR,,,,,,,,,,,"BETHEL HOMES",,,,,"BETHEL HOMES","295 MAGNOLIA RESERVE LOOP",MAGNOLIA,TX,77354,"(346) 328-2646",https://bethelhomesllc.com/,,,
TX,MONTGOMERY,"174682- 20","Single Family Homes",7/31/2020,,200000,,"13790 COALTOWN ROAD",HOUSTON,TX,77356,"ROGERS ROAD ESTATES",,"MICHAEL BROCK","13794 COALTOWN ROAD",WILLIS,TX,77378,,Owner,,,,,OWNER,,,,,OWNER,,,,,,,,,
TX,MONTGOMERY,174647-20,"Single Family Homes",7/30/2020,,111595,,"10718 SCENIC DR",HOUSTON,TX,77356,"CAPE CONROE",,CONTRACTOR,,,,,,,,,,,"CAMILLO PROPERTIES",,,,,"CAMILLO PROPERTIES","6707 GESSNER RD",HOUSTON,TX,77040-4017,"(832) 500-0284",http://www.camillorentalhomes.com/,"(281) 325-0245",,
TX,MONTGOMERY,174672-20,"Single Family Homes",7/30/2020,,104225,,"515 FANTASY LN",HOUSTON,TX,77356,"CAPE CONROE",,CONTRACTOR,,,,,,,,,,,"CAMILLO PROPERTIES",,,,,"CAMILLO PROPERTIES","6707 GESSNER RD",HOUSTON,TX,77040-4017,"(832) 500-0284",http://www.camillorentalhomes.com/,"(281) 325-0245",,
TX,MONTGOMERY,174674-20,"Single Family Homes",7/30/2020,,111595,,"10918 HILLSIDE",HOUSTON,TX,77356,"CAPE CONROE",,CONTRACTOR,,,,,,,,,,,"CAMILLO PROPERTIES",,,,,"CAMILLO PROPERTIES","6707 GESSNER RD",HOUSTON,TX,77040-4017,"(832) 500-0284",http://www.camillorentalhomes.com/,"(281) 325-0245",,
TX,MONTGOMERY,174643-20,"Single Family Homes",7/30/2020,,190125,,"18874 CEDAR BIRCH LN",HOUSTON,TX,77356,"GLEN OAKS",,CONTRACTOR,,,,,,,,,,,"CASTLEROCK COMMUNITIES",,,,,"CASTLEROCK COMMUNITIES","7670 WOODWAY DR STE 300",HOUSTON,TX,77063-1520,"(713) 600-7000",http://c-rock.com,"(713) 600-0000",,
TX,MONTGOMERY,174679-20,"Single Family Homes",7/31/2020,,154816,,"18870 CEDAR BIRCH LN",HOUSTON,TX,77356,"GLEN OAKS",,CONTRACTOR,,,,,,,,,,,"CASTLEROCK COMMUNITIES",,,,,"CASTLEROCK COMMUNITIES","7670 WOODWAY DR STE 300",HOUSTON,TX,77063-1520,"(713) 600-7000",http://c-rock.com,"(713) 600-0000",,
TX,MONTGOMERY,174680-20,"Single Family Homes",7/31/2020,,123000,,"20003 NORTHPARK OAK LN",HOUSTON,TX,77356,"NORTHPARK WOODS",,CONTRACTOR,,,,,,,,,,,"CENTURY COMMUNITIES",,,,,"CENTURY COMMUNITIES","4700 W SAM HOUSTON PKWY N STE 130",HOUSTON,TX,77041-8219,"(281) 741-8946",https://www.centurycommunities.com/,,,
TX,MONTGOMERY,174676-20,"Single Family Homes",7/31/2020,,214000,,"143 CHESTNUT RUN CT",HOUSTON,TX,77356,"THE MEADOWS AT JACOBS RESERVE",,CONTRACTOR,,,,,,,,,,,"CENTURY COMMUNITIES",,,,,"CENTURY COMMUNITIES","4700 W SAM HOUSTON PKWY N STE 130",HOUSTON,TX,77041-8219,"(281) 741-8946",https://www.centurycommunities.com/,,,
TX,MONTGOMERY,174565-20,"Single Family Homes",7/28/2020,,145258,,"9804 PRESERVE WAY",HOUSTON,TX,77356,"HARPERS PRESERVE",,CONTRACTOR,,,,,,,,,,,"CHESMAR HOMES",,,,,"CHESMAR HOMES","450 GEARS RD STE 400",HOUSTON,TX,77067-4513,"(281) 598-1111",http://chesmar.com,"(281) 598-1115",,customerservice.houston@chesmar.com
TX,MONTGOMERY,174566-20,"Single Family Homes",7/28/2020,,142265,,"9820 PRESERVE WAY",HOUSTON,TX,77356,"HARPERS PRESERVE",,CONTRACTOR,,,,,,,,,,,"CHESMAR HOMES",,,,,"CHESMAR HOMES","450 GEARS RD STE 400",HOUSTON,TX,77067-4513,"(281) 598-1111",http://chesmar.com,"(281) 598-1115",,customerservice.houston@chesmar.com
TX,MONTGOMERY,174568-20,"Single Family Homes",7/28/2020,,149227,,"8005 WHISPER GROVE DR",HOUSTON,TX,77356,NORTHGROVE,,CONTRACTOR,,,,,,,,,,,"CHESMAR HOMES",,,,,"CHESMAR HOMES","450 GEARS RD STE 400",HOUSTON,TX,77067-4513,"(281) 598-1111",http://chesmar.com,"(281) 598-1115",,customerservice.houston@chesmar.com
TX,MONTGOMERY,174569-20,"Single Family Homes",7/28/2020,,148498,,"346 OVERLOOK PEAK DR",HOUSTON,TX,77356,WOODFOREST,,CONTRACTOR,,,,,,,,,,,"CHESMAR HOMES",,,,,"CHESMAR HOMES","450 GEARS RD STE 400",HOUSTON,TX,77067-4513,"(281) 598-1111",http://chesmar.com,"(281) 598-1115",,customerservice.houston@chesmar.com
TX,MONTGOMERY,174525-20,"Single Family Homes",7/28/2020,,304170,,"177 SKIPPER JACK DR",HOUSTON,TX,77356,"RIDGELAKE SHORES",,"DILLON CONLEY","PO BOX 273",CONROE,TX,77305,,Owner,,,,,OWNER,,,,,OWNER,,,,,,,,,
TX,MONTGOMERY,174693-20,"Single Family Homes",7/31/2020,,166000,,"9757 COLD CREEK DR",HOUSTON,TX,77356,"LAKEWOOD TRAILS",,"DILLON CONLEY","9757 COLD CREEK DR",HOUSTON,TX,77227-7377,,Owner,,,,,OWNER,,,,,OWNER,,,,,,,,,
TX,MONTGOMERY,174696-20,"Single Family Homes",7/31/2020,,154000,,"9809 COLD CREEK DR",HOUSTON,TX,77356,"LAKEWOOD TRAILS",,"DILLON CONLEY","PO BOX 273",CONROE,TX,77305,,Owner,,,,,OWNER,,,,,OWNER,,,,,,,,,
TX,MONTGOMERY,174482-20,"Single Family Homes",7/27/2020,,131985,,"14356 ZION GATE CROSSING",HOUSTON,TX,77356,"FOSTERS RIDGE",,CONTRACTOR,,,,,,,,,,,"DR HORTON",,,,,"DR HORTON","14100 SOUTHWEST",HOUSTON,TX,77478,"(281) 201-5559",,,,
TX,MONTGOMERY,"174483 20","Single Family Homes",7/27/2020,,160830,,"14369 ZION GATE CROSSING",HOUSTON,TX,77356,"FOSTERS RIDGE",,CONTRACTOR,,,,,,,,,,,"DR HORTON",,,,,"DR HORTON","14100 SOUTHWEST",HOUSTON,TX,77478,"(281) 201-5559",,,,
TX,MONTGOMERY,"174484 20","Single Family Homes",7/27/2020,,179865,,"14359 ZION GATE CROSSING",HOUSTON,TX,77356,"FOSTERS RIDGE",,CONTRACTOR,,,,,,,,,,,"DR HORTON",,,,,"DR HORTON","14100 SOUTHWEST",HOUSTON,TX,77478,"(281) 201-5559",,,,
TX,MONTGOMERY,174495-20,"Single Family Homes",7/27/2020,,131985,,"14379 ZION GATE CROSSING",HOUSTON,TX,77356,"FOSTERS RIDGE",,CONTRACTOR,,,,,,,,,,,"DR HORTON",,,,,"DR HORTON","14100 SOUTHWEST",HOUSTON,TX,77478,"(281) 201-5559",,,,
TX,MONTGOMERY,174496-20,"Single Family Homes",7/27/2020,,95130,,"13828 ROCK ISLAND TR",HOUSTON,TX,77356,"FOSTERS RIDGE",,CONTRACTOR,,,,,,,,,,,"DR HORTON",,,,,"DR HORTON","14100 SOUTHWEST",HOUSTON,TX,77478,"(281) 201-5559",,,,
TX,MONTGOMERY,174537-20,"Single Family Homes",7/28/2020,,147690,,"14380 ZION GATE CROSSING",HOUSTON,TX,77356,"FOSTERS RIDGE",,CONTRACTOR,,,,,,,,,,,"DR HORTON",,,,,"DR HORTON","14100 SOUTHWEST",HOUSTON,TX,77478,"(281) 201-5559",,,,
TX,MONTGOMERY,"174538 20","Single Family Homes",7/28/2020,,139815,,"14384 ZION GATE CROSSING",HOUSTON,TX,77356,"FOSTERS RIDGE",,CONTRACTOR,,,,,,,,,,,"DR HORTON",,,,,"DR HORTON","14100 SOUTHWEST",HOUSTON,TX,77478,"(281) 201-5559",,,,
TX,MONTGOMERY,174539-20,"Single Family Homes",7/28/2020,,158265,,"14385 ZION GATE CROSSING",HOUSTON,TX,77356,"FOSTERS RIDGE",,CONTRACTOR,,,,,,,,,,,"DR HORTON",,,,,"DR HORTON","14100 SOUTHWEST",HOUSTON,TX,77478,"(281) 201-5559",,,,
TX,MONTGOMERY,174540-20,"Single Family Homes",7/28/2020,,179865,,"14388 ZION GATE CROSSING",HOUSTON,TX,77356,"FOSTERS RIDGE",,CONTRACTOR,,,,,,,,,,,"DR HORTON",,,,,"DR HORTON","14100 SOUTHWEST",HOUSTON,TX,77478,"(281) 201-5559",,,,
TX,MONTGOMERY,174541-20,"Single Family Homes",7/28/2020,,146565,,"14372 ZION GATE CROSSING",HOUSTON,TX,77356,"FOSTERS RIDGE",,CONTRACTOR,,,,,,,,,,,"DR HORTON",,,,,"DR HORTON","14100 SOUTHWEST",HOUSTON,TX,77478,"(281) 201-5559",,,,
TX,MONTGOMERY,"174542 20","Single Family Homes",7/28/2020,,171360,,"14393 ZION GATE CROSSING",HOUSTON,TX,77356,"FOSTERS RIDGE",,CONTRACTOR,,,,,,,,,,,"DR HORTON",,,,,"DR HORTON","14100 SOUTHWEST",HOUSTON,TX,77478,"(281) 201-5559",,,,
TX,MONTGOMERY,174543-20,"Single Family Homes",7/28/2020,,146565,,"14389 ZION GATE CROSSING",HOUSTON,TX,77356,"FOSTERS RIDGE",,CONTRACTOR,,,,,,,,,,,"DR HORTON",,,,,"DR HORTON","14100 SOUTHWEST",HOUSTON,TX,77478,"(281) 201-5559",,,,
TX,MONTGOMERY,174544-20,"Single Family Homes",7/28/2020,,187290,,"14146 ASPEN WOODS CT",HOUSTON,TX,77356,"FOSTERS RIDGE",,CONTRACTOR,,,,,,,,,,,"DR HORTON",,,,,"DR HORTON","14100 SOUTHWEST",HOUSTON,TX,77478,"(281) 201-5559",,,,
TX,MONTGOMERY,174545-20,"Single Family Homes",7/28/2020,,160830,,"14376 ZION GATE CROSSING",HOUSTON,TX,77356,"FOSTERS RIDGE",,CONTRACTOR,,,,,,,,,,,"DR HORTON",,,,,"DR HORTON","14100 SOUTHWEST",HOUSTON,TX,77478,"(281) 201-5559",,,,
TX,MONTGOMERY,174546-20,"Single Family Homes",7/28/2020,,147690,,"14375 ZION GATE CROSSING",HOUSTON,TX,77356,"FOSTERS RIDGE",,CONTRACTOR,,,,,,,,,,,"DR HORTON",,,,,"DR HORTON","14100 SOUTHWEST",HOUSTON,TX,77478,"(281) 201-5559",,,,
TX,MONTGOMERY,174575-20,"Single Family Homes",7/29/2020,,96525,,"9521 MOUNTAIN MAPLE PLACE",HOUSTON,TX,77356,"HARPERS PRESERVE",,CONTRACTOR,,,,,,,,,,,"DR HORTON",,,,,"DR HORTON","14100 SOUTHWEST",HOUSTON,TX,77478,"(281) 201-5559",,,,
TX,MONTGOMERY,174576-20,"Single Family Homes",7/29/2020,,99675,,"16891 PINK WINTERGREEN DR",HOUSTON,TX,77356,"HARPERS PRESERVE",,CONTRACTOR,,,,,,,,,,,"DR HORTON",,,,,"DR HORTON","14100 SOUTHWEST",HOUSTON,TX,77478,"(281) 201-5559",,,,
TX,MONTGOMERY,174577-20,"Single Family Homes",7/29/2020,,132525,,"16856 PINK WINTERGREEN DR",HOUSTON,TX,77356,"HARPERS PRESERVE",,CONTRACTOR,,,,,,,,,,,"DR HORTON",,,,,"DR HORTON","14100 SOUTHWEST",HOUSTON,TX,77478,"(281) 201-5559",,,,
TX,MONTGOMERY,174578-20,"Single Family Homes",7/29/2020,,132525,,"9291 INLAND LEATHER LN",HOUSTON,TX,77356,"HARPERS PRESERVE",,CONTRACTOR,,,,,,,,,,,"DR HORTON",,,,,"DR HORTON","14100 SOUTHWEST",HOUSTON,TX,77478,"(281) 201-5559",,,,
TX,MONTGOMERY,174579-20,"Single Family Homes",7/29/2020,,117045,,"17164 UPLAND BENT CT",HOUSTON,TX,77356,"HARPERS PRESERVE",,CONTRACTOR,,,,,,,,,,,"DR HORTON",,,,,"DR HORTON","14100 SOUTHWEST",HOUSTON,TX,77478,"(281) 201-5559",,,,
TX,MONTGOMERY,174633-20,"Single Family Homes",7/30/2020,,119250,,"9294 INLAND LEATHER LN",HOUSTON,TX,77356,"HARPERS PRESERVE",,CONTRACTOR,,,,,,,,,,,"DR HORTON",,,,,"DR HORTON","14100 SOUTHWEST",HOUSTON,TX,77478,"(281) 201-5559",,,,
TX,MONTGOMERY,174634-20,"Single Family Homes",7/30/2020,,92115,,"16895 PINK WINTERGREEN DR",HOUSTON,TX,77356,"HARPERS PRESERVE",,CONTRACTOR,,,,,,,,,,,"DR HORTON",,,,,"DR HORTON","14100 SOUTHWEST",HOUSTON,TX,77478,"(281) 201-5559",,,,
TX,MONTGOMERY,174635-20,"Single Family Homes",7/30/2020,,94005,,"16899 PINK WINTERGREEN DR",HOUSTON,TX,77356,"HARPERS PRESERVE",,CONTRACTOR,,,,,,,,,,,"DR HORTON",,,,,"DR HORTON","14100 SOUTHWEST",HOUSTON,TX,77478,"(281) 201-5559",,,,
TX,MONTGOMERY,174636-20,"Single Family Homes",7/30/2020,,126405,,"9509 MOUNTAIN MAPLE PLACE",HOUSTON,TX,77356,"HARPERS PRESERVE",,CONTRACTOR,,,,,,,,,,,"DR HORTON",,,,,"DR HORTON","14100 SOUTHWEST",HOUSTON,TX,77478,"(281) 201-5559",,,,
TX,MONTGOMERY,174637-20,"Single Family Homes",7/30/2020,,119565,,"9517 MOUNTAIN MAPLE PLACE",HOUSTON,TX,77356,"HARPERS PRESERVE",,CONTRACTOR,,,,,,,,,,,"DR HORTON",,,,,"DR HORTON","14100 SOUTHWEST",HOUSTON,TX,77478,"(281) 201-5559",,,,
TX,MONTGOMERY,174639-20,"Single Family Homes",7/30/2020,,119565,,"16832 PINK WINTERGREEN DR",HOUSTON,TX,77356,"HARPERS PRESERVE",,CONTRACTOR,,,,,,,,,,,"DR HORTON",,,,,"DR HORTON","14100 SOUTHWEST",HOUSTON,TX,77478,"(281) 201-5559",,,,
TX,MONTGOMERY,174649-20,"Single Family Homes",7/30/2020,,112515,,"18271 WOODPECKER TR",HOUSTON,TX,77356,"PORTERS MILL",,CONTRACTOR,,,,,,,,,,,"DR HORTON",,,,,"DR HORTON","14100 SOUTHWEST",HOUSTON,TX,77478,"(281) 201-5559",,,,
TX,MONTGOMERY,174650-20,"Single Family Homes",7/30/2020,,95130,,"18275 WOODPECKER TR",HOUSTON,TX,77356,"PORTERS MILL",,CONTRACTOR,,,,,,,,,,,"DR HORTON",,,,,"DR HORTON","14100 SOUTHWEST",HOUSTON,TX,77478,"(281) 201-5559",,,,
TX,MONTGOMERY,174651-20,"Single Family Homes",7/30/2020,,103050,,"18279 WOODPECKER TR",HOUSTON,TX,77356,"PORTERS MILL",,CONTRACTOR,,,,,,,,,,,"DR HORTON",,,,,"DR HORTON","14100 SOUTHWEST",HOUSTON,TX,77478,"(281) 201-5559",,,,
TX,MONTGOMERY,174652-20,"Single Family Homes",7/30/2020,,88065,,"18283 WOODPECKER TR",HOUSTON,TX,77356,"PORTERS MILL",,CONTRACTOR,,,,,,,,,,,"DR HORTON",,,,,"DR HORTON","14100 SOUTHWEST",HOUSTON,TX,77478,"(281) 201-5559",,,,
TX,MONTGOMERY,174653-20,"Single Family Homes",7/30/2020,,10550,,"1828? WOODPECKER TR",HOUSTON,TX,77356,"PORTERS MILL",,CONTRACTOR,,,,,,,,,,,"DR HORTON",,,,,"DR HORTON","14100 SOUTHWEST",HOUSTON,TX,77478,"(281) 201-5559",,,,
TX,MONTGOMERY,174654-20,"Single Family Homes",7/30/2020,,103050,,"18295 WOODPECKER TR",HOUSTON,TX,77356,"PORTERS MILL",,CONTRACTOR,,,,,,,,,,,"DR HORTON",,,,,"DR HORTON","14100 SOUTHWEST",HOUSTON,TX,77478,"(281) 201-5559",,,,
TX,MONTGOMERY,174655-20,"Single Family Homes",7/30/2020,,157050,,"18360 KLAMATH FALLS LN",HOUSTON,TX,77356,"PORTERS MILL",,CONTRACTOR,,,,,,,,,,,"DR HORTON",,,,,"DR HORTON","14100 SOUTHWEST",HOUSTON,TX,77478,"(281) 201-5559",,,,
TX,MONTGOMERY,174656-20,"Single Family Homes",7/30/2020,,112515,,"18356 KLAMATH FALLS LN",HOUSTON,TX,77356,"PORTERS MILL",,CONTRACTOR,,,,,,,,,,,"DR HORTON",,,,,"DR HORTON","14100 SOUTHWEST",HOUSTON,TX,77478,"(281) 201-5559",,,,
TX,MONTGOMERY,174657-20,"Single Family Homes",7/30/2020,,95130,,"18352 KLAMATH FALLS LN",HOUSTON,TX,77356,"PORTERS MILL",,CONTRACTOR,,,,,,,,,,,"DR HORTON",,,,,"DR HORTON","14100 SOUTHWEST",HOUSTON,TX,77478,"(281) 201-5559",,,,
TX,MONTGOMERY,174658-20,"Single Family Homes",7/30/2020,,121455,,"18364 KLAMATH FALLS LN",HOUSTON,TX,77356,"PORTERS MILL",,CONTRACTOR,,,,,,,,,,,"DR HORTON",,,,,"DR HORTON","14100 SOUTHWEST",HOUSTON,TX,77478,"(281) 201-5559",,,,
TX,MONTGOMERY,174659-20,"Single Family Homes",7/30/2020,,112515,,"18259 WOODPECKER TR",HOUSTON,TX,77356,"PORTERS MILL",,CONTRACTOR,,,,,,,,,,,"DR HORTON",,,,,"DR HORTON","14100 SOUTHWEST",HOUSTON,TX,77478,"(281) 201-5559",,,,
TX,MONTGOMERY,174661-20,"Single Family Homes",7/30/2020,,95130,,"18263 WOODPECKER TR",HOUSTON,TX,77356,"PORTERS MILL",,CONTRACTOR,,,,,,,,,,,"DR HORTON",,,,,"DR HORTON","14100 SOUTHWEST",HOUSTON,TX,77478,"(281) 201-5559",,,,
TX,MONTGOMERY,174662-20,"Single Family Homes",7/30/2020,,121455,,"18267 WOODPECKER TR",HOUSTON,TX,77356,"PORTERS MILL",,CONTRACTOR,,,,,,,,,,,"DR HORTON",,,,,"DR HORTON","14100 SOUTHWEST",HOUSTON,TX,77478,"(281) 201-5559",,,,
TX,MONTGOMERY,174663-20,"Single Family Homes",7/30/2020,,132885,,"18291 WOODPECKER TR",HOUSTON,TX,77356,"PORTERS MILL",,CONTRACTOR,,,,,,,,,,,"DR HORTON",,,,,"DR HORTON","14100 SOUTHWEST",HOUSTON,TX,77478,"(281) 201-5559",,,,
TX,MONTGOMERY,174666-20,"Single Family Homes",7/30/2020,,100800,,"14706 CLOVER SUMMIT CT",HOUSTON,TX,77356,"MILL CREEK ESTATES",,CONTRACTOR,,,,,,,,,,,"DR HORTON",,,,,"DR HORTON","14100 SOUTHWEST",HOUSTON,TX,77478,"(281) 201-5559",,,,
TX,MONTGOMERY,174630-20,"Single Family Homes",7/30/2020,,224506,,"307 BELLFLOWER PIACE",HOUSTON,TX,77356,"BONTERRA AT WOODFOREST",,CONTRACTOR,,,,,,,,,,,"DARLING HOMES",,,,,"DARLING HOMES","10255 RICHMOND AVE STE 150",HOUSTON,TX,77042-4382,"(713) 690-6902",http://www.darlinghomes.com/,,,
TX,MONTGOMERY,174613-20,"Single Family Homes",7/29/2020,,500000,,"27711 SIANDRA CREEK",HOUSTON,TX,77356,"BENDERS LANDING ESTATES",,CONTRACTOR,,,,,,,,,,,"DESIGN TECH HOMES",,,,,"DESIGN TECH HOMES","18750 INTERSTATE",HOUSTON,TX,77373,"(281) 825-4425",https://www.dth.com,,,
TX,MONTGOMERY,174631-20,"Single Family Homes",7/30/2020,,1200000,,"755 FISH CREEK THOROUGHFARE",HOUSTON,TX,77356,,,CONTRACTOR,,,,,,,,,,,"THE DIMENSION GROUP",,,,,"THE DIMENSION GROUP","10755 SANDHILL RD",DALLAS,TX,75238-1215,"(214) 343-9400",http://www.dimensiongrp.com/,"(214) 341-9060",,
TX,MONTGOMERY,174591-20,"Single Family Homes",7/29/2020,,556495,,"1112 HAWK OWL CT",HOUSTON,TX,77356,"HARPERS PRESERVE",,CONTRACTOR,,,,,,,,,,,"DREES CUSTOM HOMES",,,,,"DREES CUSTOM HOMES","9720 CYPRESSWOOD DR",HOUSTON,TX,77070-3355,"(281) 653-8850",http://www.dreeshomes.com,,,
TX,MONTGOMERY,174514-20,"Single Family Homes",7/27/2020,,319140,,"9963 PRESERVE WAY",HOUSTON,TX,77356,"HARPERS PRESERVE",,CONTRACTOR,,,,,,,,,,,"EHT OF TEXAS LP",,,,,"EHT OF TEXAS LP","10235 LITTLE",HOUSTON,TX,77040,"(713) 557-3685",,,,
TX,MONTGOMERY,174516-20,"Single Family Homes",7/27/2020,,244980,,"10034 PRESERVE WAY",HOUSTON,TX,77356,"HARPERS PRESERVE",,CONTRACTOR,,,,,,,,,,,"EHT OF TEXAS LP",,,,,"EHT OF TEXAS LP","10235 LITTLE",HOUSTON,TX,77040,"(713) 557-3685",,,,
TX,MONTGOMERY,174500-20,"Single Family Homes",7/27/2020,,205990,,"2343 LA SALLE WOODS",HOUSTON,TX,77356,WESTLAKE,,CONTRACTOR,,,,,,,,,,,"FIRST AMERICA HOMES",,,,,"FIRST AMERICA HOMES","1400 WOODLOCH FOREST DR STE 200","THE WOODLANDS",TX,77380-1179,"(713) 452-1700",http://www.firstamericahomes.com/,,,info@firstamericahomes.com
TX,MONTGOMERY,174502-20,"Single Family Homes",7/27/2020,,203990,,"2355 LA SALLE WOODS",HOUSTON,TX,77356,,,CONTRACTOR,,,,,,,,,,,"FIRST AMERICA HOMES",,,,,"FIRST AMERICA HOMES","1400 WOODLOCH FOREST DR STE 200","THE WOODLANDS",TX,77380-1179,"(713) 452-1700",http://www.firstamericahomes.com/,,,info@firstamericahomes.com
TX,MONTGOMERY,174581-20,"Single Family Homes",7/29/2020,,226990,,"11514 MARCI LN",HOUSTON,TX,77356,"CLEAR VIEW ESTATES",,CONTRACTOR,,,,,,,,,,,"FIRST AMERICA HOMES",,,,,"FIRST AMERICA HOMES","1400 WOODLOCH FOREST DR STE 200","THE WOODLANDS",TX,77380-1179,"(713) 452-1700",http://www.firstamericahomes.com/,,,info@firstamericahomes.com
TX,MONTGOMERY,174629-20,"Single Family Homes",7/30/2020,,191990,,"14629 EAST PINE HEART DR",HOUSTON,TX,77356,"GRANGER PINES",,CONTRACTOR,,,,,,,,,,,"FIRST AMERICA HOMES",,,,,"FIRST AMERICA HOMES","1400 WOODLOCH FOREST DR STE 200","THE WOODLANDS",TX,77380-1179,"(713) 452-1700",http://www.firstamericahomes.com/,,,info@firstamericahomes.com
TX,MONTGOMERY,174481-20,"Single Family Homes",7/27/2020,,120000,,"7815 TIMBER SWITCH ROAD",HOUSTON,TX,77356,"TIMBER SWITCH",,"DANIEL GARZA","7811 WHITE ROCK ROAD",CLEVELAND,TX,77368,,Owner,,,,,OWNER,,,,,OWNER,,,,,,,,,
TX,MONTGOMERY,174505-20,"Single Family Homes",7/27/2020,,200000,,"27005 STRAKE LN",HOUSTON,TX,77356,NORTHGROVE,,CONTRACTOR,,,,,,,,,,,"HIGHLAND HOMES",,,,,"HIGHLAND HOMES","10930 W SAM HOUSTON PKWY N STE 100",HOUSTON,TX,77064-6331,"(281) 517-9800",,,,
TX,MONTGOMERY,174506-20,"Single Family Homes",7/27/2020,,200000,,"7900 SPRING RUN DR",HOUSTON,TX,77356,NORTHGROVE,,CONTRACTOR,,,,,,,,,,,"HIGHLAND HOMES",,,,,"HIGHLAND HOMES","10930 W SAM HOUSTON PKWY N STE 100",HOUSTON,TX,77064-6331,"(281) 517-9800",,,,
TX,MONTGOMERY,174508-20,"Single Family Homes",7/27/2020,,200000,,"8014 WHISPER GROVE DR",HOUSTON,TX,77356,NORTHGROVE,,CONTRACTOR,,,,,,,,,,,"HIGHLAND HOMES",,,,,"HIGHLAND HOMES","10930 W SAM HOUSTON PKWY N STE 100",HOUSTON,TX,77064-6331,"(281) 517-9800",,,,
TX,MONTGOMERY,174509-20,"Single Family Homes",7/27/2020,,200000,,"27013 SOFIA FOREST DR",HOUSTON,TX,77356,NORTHGROVE,,CONTRACTOR,,,,,,,,,,,"HIGHLAND HOMES",,,,,"HIGHLAND HOMES","10930 W SAM HOUSTON PKWY N STE 100",HOUSTON,TX,77064-6331,"(281) 517-9800",,,,
TX,MONTGOMERY,174511-20,"Single Family Homes",7/27/2020,,200000,,"7924 SPRING RON DR",HOUSTON,TX,77356,NORTHGROVE,,CONTRACTOR,,,,,,,,,,,"HIGHLAND HOMES",,,,,"HIGHLAND HOMES","10930 W SAM HOUSTON PKWY N STE 100",HOUSTON,TX,77064-6331,"(281) 517-9800",,,,
TX,MONTGOMERY,"174694 20","Single Family Homes",7/31/2020,,344615,,"15103 MAHOGANY TRAILS",HOUSTON,TX,77356,ARTAVIA,,CONTRACTOR,,,,,,,,,,,"HIGHLAND HOMES",,,,,"HIGHLAND HOMES","10930 W SAM HOUSTON PKWY N STE 100",HOUSTON,TX,77064-6331,"(281) 517-9800",,,,
TX,MONTGOMERY,174695-20,"Single Family Homes",7/31/2020,,293865,,"17147 CRIMSON CREST DR",HOUSTON,TX,77356,ARTAVIA,,CONTRACTOR,,,,,,,,,,,"HIGHLAND HOMES",,,,,"HIGHLAND HOMES","10930 W SAM HOUSTON PKWY N STE 100",HOUSTON,TX,77064-6331,"(281) 517-9800",,,,
TX,MONTGOMERY,174640-20,"Single Family Homes",7/30/2020,,325495,,"17426 ORCHID FALLS LN",HOUSTON,TX,77356,ARTAVIA,,CONTRACTOR,,,,,,,,,,,"J PATRICK HOMES",,,,,"J PATRICK HOMES","9700 RICHMOND AVE STE 162",HOUSTON,TX,77042-4698,"(713) 789-8004",,,,
TX,MONTGOMERY,174563-20,"Single Family Homes",7/28/2020,,497400,,"6910 APACHE CREEK",HOUSTON,TX,77356,"HIGH MEADOW ESTATES",,CONTRACTOR,,,,,,,,,,,"JJS CUSTOM BUILT HOMES",,,,,"JJS CUSTOM BUILT HOMES","11102 LAKE WINDCREST",MAGNOLIA,TX,77354,"(713) 539-7248",,,,
TX,MONTGOMERY,174588-20,"Single Family Homes",7/29/2020,,260000,,"8772 UTE CREEK LN",HOUSTON,TX,77356,"CIMARRON CREEK",,CONTRACTOR,,,,,,,,,,,"KB HOME",,,,,"KB HOME","11314 RICHMOND AVE",HOUSTON,TX,77082-2616,"(281) 668-3800",,,,
TX,MONTGOMERY,174589-20,"Single Family Homes",7/29/2020,,128000,,"25641 RAMSEY HEIGHTS WAY",HOUSTON,TX,77356,"BROOKWOOD FOREST",,CONTRACTOR,,,,,,,,,,,"KB HOME",,,,,"KB HOME","11314 RICHMOND AVE",HOUSTON,TX,77082-2616,"(281) 668-3800",,,,
TX,MONTGOMERY,174686-20,"Single Family Homes",7/31/2020,,162000,,"8776 UTE CREEK LN",HOUSTON,TX,77356,"CIMARRON CREEK",,CONTRACTOR,,,,,,,,,,,"KB HOME",,,,,"KB HOME","11314 RICHMOND AVE",HOUSTON,TX,77082-2616,"(281) 668-3800",,,,
TX,MONTGOMERY,174687-20,"Single Family Homes",7/31/2020,,128000,,"25653 RAMSEY HEIGHTS WAY",HOUSTON,TX,77356,"BROOKWOOD FOREST",,CONTRACTOR,,,,,,,,,,,"KB HOME",,,,,"KB HOME","11314 RICHMOND AVE",HOUSTON,TX,77082-2616,"(281) 668-3800",,,,
TX,MONTGOMERY,174626-20,"Single Family Homes",7/30/2020,,175000,,"12050 MUSTANG AVE",HOUSTON,TX,77356,"TEXAS NATIONAL",,CONTRACTOR,,,,,,,,,,,"LAKEVIEW BUILDERS",,,,,"LAKEVIEW BUILDERS","1411 HANNINGTON DR",KATY,TX,77450-5018,"(281) 726-0044",http://www.lakeviewtx.com/,,"TOM DORSETT",
TX,MONTGOMERY,174551-20,"Single Family Homes",7/28/2020,,135500,,"18921 COLLINA WAY",HOUSTON,TX,77356,TAVOLA,,CONTRACTOR,,,,,,,,,,,"LENNAR HOMES",,,,,"LENNAR HOMES","550 GREENS PKWY",HOUSTON,TX,77067-4537,"(281) 875-1000",http://www.lennar.com/,,,
TX,MONTGOMERY,174552-20,"Single Family Homes",7/28/2020,,120000,,"5823 ROSEHILLL FOREST LN",HOUSTON,TX,77356,"COUNTRY COLONY",,CONTRACTOR,,,,,,,,,,,"LENNAR HOMES",,,,,"LENNAR HOMES","550 GREENS PKWY",HOUSTON,TX,77067-4537,"(281) 875-1000",http://www.lennar.com/,,,
TX,MONTGOMERY,174599-20,"Single Family Homes",7/29/2020,,142870,,"1327 WINDING WILLOW DR",HOUSTON,TX,77356,"ARBOR TRACE",,CONTRACTOR,,,,,,,,,,,"LENNAR HOMES",,,,,"LENNAR HOMES","550 GREENS PKWY",HOUSTON,TX,77067-4537,"(281) 875-1000",http://www.lennar.com/,,,
TX,MONTGOMERY,174600-20,"Single Family Homes",7/29/2020,,99060,,"1323 WINDING WILLOW DR",HOUSTON,TX,77356,"ARBOR TRACE",,CONTRACTOR,,,,,,,,,,,"LENNAR HOMES",,,,,"LENNAR HOMES","550 GREENS PKWY",HOUSTON,TX,77067-4537,"(281) 875-1000",http://www.lennar.com/,,,
TX,MONTGOMERY,174601-20,"Single Family Homes",7/29/2020,,167505,,"1324 WINDING WILLOW DR",HOUSTON,TX,77356,"ARBOR TRACE",,CONTRACTOR,,,,,,,,,,,"LENNAR HOMES",,,,,"LENNAR HOMES","550 GREENS PKWY",HOUSTON,TX,77067-4537,"(281) 875-1000",http://www.lennar.com/,,,
TX,MONTGOMERY,174644-20,"Single Family Homes",7/30/2020,,255000,,"5023 WOODED LAKE DR",HOUSTON,TX,77356,"WOODSON'S RESERVE",,CONTRACTOR,,,,,,,,,,,"LENNAR HOMES",,,,,"LENNAR HOMES","550 GREENS PKWY",HOUSTON,TX,77067-4537,"(281) 875-1000",http://www.lennar.com/,,,
TX,MONTGOMERY,"174645 20","Single Family Homes",7/30/2020,,250000,,"5015 WOODED LAKE DR",HOUSTON,TX,77356,"WOODSON'S RESERVE",,CONTRACTOR,,,,,,,,,,,"LENNAR HOMES",,,,,"LENNAR HOMES","550 GREENS PKWY",HOUSTON,TX,77067-4537,"(281) 875-1000",http://www.lennar.com/,,,
TX,MONTGOMERY,174646-20,"Single Family Homes",7/30/2020,,196000,,"28215 WHITMORE BEND DR",HOUSTON,TX,77356,"WOODSON'S RESERVE",,CONTRACTOR,,,,,,,,,,,"LENNAR HOMES",,,,,"LENNAR HOMES","550 GREENS PKWY",HOUSTON,TX,77067-4537,"(281) 875-1000",http://www.lennar.com/,,,
TX,MONTGOMERY,174628-20,"Single Family Homes",7/30/2020,,80000,,"16524 ROCK WREN TR",HOUSTON,TX,77356,"MONTGOMERY CREEK RANCH",,CONTRACTOR,,,,,,,,,,,"LONG LAKE HOMES",,,,,"LONG LAKE HOMES","15915 KATY FWY STE 405",HOUSTON,TX,77094-1710,"(281) 646-1727",http://www.longlakeltd.com/,,"DAVID BIGLER",
TX,MONTGOMERY,174617-20,"Single Family Homes",7/29/2020,,557000,,"26126 UPPER BEACON PLACE",HOUSTON,TX,77356,"CROWN RANCH",,"RAYMOND MARKIEWICZ","2102 CANDY ST",PINEHURST,TX,77362,,Owner,,,,,OWNER,,,,,OWNER,,,,,,,,,
TX,MONTGOMERY,174609-20,"Single Family Homes",7/29/2020,,233000,,"23818 VIA CAMINO LN",HOUSTON,TX,77356,TAVOLA,,CONTRACTOR,,,,,,,,,,,"MERITAGE HOMES",,,,,"MERITAGE HOMES","2901 W SAM HOUSTON PKWY N",HOUSTON,TX,77043-1630,"(713) 357-1184",,,,
TX,MONTGOMERY,174610-20,"Single Family Homes",7/29/2020,,211000,,"23842 VIA CAMINO LN",HOUSTON,TX,77356,TAVOLA,,CONTRACTOR,,,,,,,,,,,"MERITAGE HOMES",,,,,"MERITAGE HOMES","2901 W SAM HOUSTON PKWY N",HOUSTON,TX,77043-1630,"(713) 357-1184",,,,
TX,MONTGOMERY,174593-20,"Single Family Homes",7/29/2020,,316990,,"17405 CHESTNUT COVE DR",HOUSTON,TX,77356,ARTAVIA,,CONTRACTOR,,,,,,,,,,,"MHI MCGUYER HOMEBUILDERS",,,,,"MHI MCGUYER HOMEBUILDERS","7676 WOODWAY DR",HOUSTON,TX,77063-1526,"(713) 260-4107",,,,
TX,MONTGOMERY,174594-20,"Single Family Homes",7/29/2020,,312990,,"17529 SUNSET SKIES ROAD",HOUSTON,TX,77356,ARTAVIA,,CONTRACTOR,,,,,,,,,,,"MHI MCGUYER HOMEBUILDERS",,,,,"MHI MCGUYER HOMEBUILDERS","7676 WOODWAY DR",HOUSTON,TX,77063-1526,"(713) 260-4107",,,,
TX,MONTGOMERY,174660-20,"Single Family Homes",7/30/2020,,412000,,"112 PORT AU PRINCE CT",HOUSTON,TX,77356,"RIDGELAKE SHORES",,"MORE, TED & STEPHANIE","515-A S. FRY ROAD #318",KATY,TX,77450,,Owner,,,,,OWNER,,,,,OWNER,,,,,,,,,
TX,MONTGOMERY,174697-20,"Single Family Homes",7/31/2020,,180075,,"15418 TOWER WOOD",HOUSTON,TX,77356,"TOWER WOOD",,"SILVIA ORTIZ","4022 BYTRAIL COURT",HUMBLE,TX,77346,,Owner,,,,,OWNER,,,,,OWNER,,,,,,,,,
TX,MONTGOMERY,174561-20,"Single Family Homes",7/28/2020,,240000,,"24968 MORTON ROAD",HOUSTON,TX,77356,"BEAR CREEK RANCH",,"RICKY OVERALL","P 0. BOX 2005","NEW CANEY",TX,77357,,Owner,,,,,OWNER,,,,,OWNER,,,,,,,,,
TX,MONTGOMERY,174517-20,"Single Family Homes",7/27/2020,,335813,,"8122 CAROLINA HAWX DR",HOUSTON,TX,77356,NORTHGROVE,,CONTRACTOR,,,,,,,,,,,"PERRY HOMES",,,,,"PERRY HOMES","9000 GULF FWY",HOUSTON,TX,77017-7018,"(713) 417-1396",,,,
TX,MONTGOMERY,174518-20,"Single Family Homes",7/27/2020,,324225,,"8108 TYRELL HEIGHTS DR",HOUSTON,TX,77356,NORTHGROVE,,CONTRACTOR,,,,,,,,,,,"PERRY HOMES",,,,,"PERRY HOMES","9000 GULF FWY",HOUSTON,TX,77017-7018,"(713) 417-1396",,,,
TX,MONTGOMERY,174520-20,"Single Family Homes",7/27/2020,,295538,,"27110 SOFIA FOREST DR",HOUSTON,TX,77356,NORTHGROVE,,CONTRACTOR,,,,,,,,,,,"PERRY HOMES",,,,,"PERRY HOMES","9000 GULF FWY",HOUSTON,TX,77017-7018,"(713) 417-1396",,,,
TX,MONTGOMERY,174526-20,"Single Family Homes",7/28/2020,,381375,,"27104 SOFIA FOREST DR",HOUSTON,TX,77356,NORTHGROVE,,CONTRACTOR,,,,,,,,,,,"PERRY HOMES",,,,,"PERRY HOMES","9000 GULF FWY",HOUSTON,TX,77017-7018,"(713) 417-1396",,,,
TX,MONTGOMERY,174527-20,"Single Family Homes",7/28/2020,,341100,,"8112 TYRELL HEIGHTS DR",HOUSTON,TX,77356,NORTHGROVE,,CONTRACTOR,,,,,,,,,,,"PERRY HOMES",,,,,"PERRY HOMES","9000 GULF FWY",HOUSTON,TX,77017-7018,"(713) 417-1396",,,,
TX,MONTGOMERY,174528-20,"Single Family Homes",7/28/2020,,272700,,"8140 TYRELL HEIGHTS DR",HOUSTON,TX,77356,NORTHGROVE,,CONTRACTOR,,,,,,,,,,,"PERRY HOMES",,,,,"PERRY HOMES","9000 GULF FWY",HOUSTON,TX,77017-7018,"(713) 417-1396",,,,
TX,MONTGOMERY,174529-20,"Single Family Homes",7/28/2020,,235125,,"211 CREST EDGE ST",HOUSTON,TX,77356,WOODFOREST,,CONTRACTOR,,,,,,,,,,,"PERRY HOMES",,,,,"PERRY HOMES","9000 GULF FWY",HOUSTON,TX,77017-7018,"(713) 417-1396",,,,
TX,MONTGOMERY,174553-20,"Single Family Homes",7/28/2020,,239175,,"18957 ROSEWOOD TERRACE DR",HOUSTON,TX,77356,TAVOLA,,CONTRACTOR,,,,,,,,,,,"PERRY HOMES",,,,,"PERRY HOMES","9000 GULF FWY",HOUSTON,TX,77017-7018,"(713) 417-1396",,,,
TX,MONTGOMERY,174554-20,"Single Family Homes",7/28/2020,,325425,,"28225 WOODLAND BEND CT",HOUSTON,TX,77356,"WOODSONS RESERVE",,CONTRACTOR,,,,,,,,,,,"PERRY HOMES",,,,,"PERRY HOMES","9000 GULF FWY",HOUSTON,TX,77017-7018,"(713) 417-1396",,,,
TX,MONTGOMERY,174675-20,"Single Family Homes",7/31/2020,,220425,,"17192 SANDSTONE ST",HOUSTON,TX,77356,ARTAVIA,,CONTRACTOR,,,,,,,,,,,"PERRY HOMES",,,,,"PERRY HOMES","9000 GULF FWY",HOUSTON,TX,77017-7018,"(713) 417-1396",,,,
TX,MONTGOMERY,174703-20,"Single Family Homes",7/31/2020,,273675,,"23544 RED JUNIPER LN",HOUSTON,TX,77356,TAVOLA,,CONTRACTOR,,,,,,,,,,,"PERRY HOMES",,,,,"PERRY HOMES","9000 GULF FWY",HOUSTON,TX,77017-7018,"(713) 417-1396",,,,
TX,MONTGOMERY,174704-20,"Single Family Homes",7/31/2020,,324675,,"23548 RED JUNIPER LN",HOUSTON,TX,77356,TAVOLA,,CONTRACTOR,,,,,,,,,,,"PERRY HOMES",,,,,"PERRY HOMES","9000 GULF FWY",HOUSTON,TX,77017-7018,"(713) 417-1396",,,,
TX,MONTGOMERY,174641-20,"Single Family Homes",7/30/2020,,262140,,"242 FLAXEN CHESTNUT",HOUSTON,TX,77356,"DEL WEBB",,CONTRACTOR,,,,,,,,,,,"PULTE HOMES",,,,,"PULTE HOMES","16670 PARK ROW",HOUSTON,TX,77084-6866,"(281) 749-8000",,,,
TX,MONTGOMERY,174642-20,"Single Family Homes",7/30/2020,,269390,,"418 THISTLE THORN DR",HOUSTON,TX,77356,"DEL WEBB",,CONTRACTOR,,,,,,,,,,,"PULTE HOMES",,,,,"PULTE HOMES","16670 PARK ROW",HOUSTON,TX,77084-6866,"(281) 749-8000",,,,
TX,MONTGOMERY,174559-20,"Single Family Homes",7/28/2020,,218790,,"228 STALWART HILL TR",HOUSTON,TX,77356,"BLACK OAK",,CONTRACTOR,,,,,,,,,,,"RAUSCH COLEMAN HOMES",,,,,"RAUSCH COLEMAN HOMES","9504 N IH35 STE 310","SAN ANTONIO",TX,78233,"(210) 231-0703",https://www.rauschcolemanhomes.com/,,,
TX,MONTGOMERY,174690-20,"Single Family Homes",7/31/2020,,350000,,"17377 AMARYLLIS LN",HOUSTON,TX,77356,ARTAVIA,,CONTRACTOR,,,,,,,,,,,"RAVENNA HOMES",,,,,"RAVENNA HOMES","28902 POWDER RIDGE DR",KATY,TX,77494-1918,"(281) 693-7209",,,,
TX,MONTGOMERY,174691-20,"Single Family Homes",7/31/2020,,350000,,"17425 ORCHARD FALLS LN",HOUSTON,TX,77356,ARTAVIA,,CONTRACTOR,,,,,,,,,,,"RAVENNA HOMES",,,,,"RAVENNA HOMES","28902 POWDER RIDGE DR",KATY,TX,77494-1918,"(281) 693-7209",,,,
TX,MONTGOMERY,174488-20,"Single Family Homes",7/27/2020,,200000,,"2375 VIRGINIA",HOUSTON,TX,77356,"MARVIN GARDENS",,"ANDREW ROSS","PO BOX 1167",PINEHURST,TX,77362,,Owner,,,,,OWNER,,,,,OWNER,,,,,,,,,
TX,MONTGOMERY,174515-20,"Single Family Homes",7/27/2020,,200000,,"2379 VIRGINIA",HOUSTON,TX,77356,"MARVIN GARDENS",,"ANDREW ROSS","PO BOX 1167",PINEHURST,TX,77362,,Owner,,,,,OWNER,,,,,OWNER,,,,,,,,,
TX,HARRIS,20051479,"Single Family Homes",8/12/2020,,700000,,"13030 RUMMEL CREEK",HOUSTON,TX,77079,,,CONTRACTOR,,,,,,,,,,,"ANNE'S PERMIT",,,,,"ANNE'S PERMIT","2617C W HOLCOMBE BLVD",HOUSTON,TX,77025,"(713) 666-2025",,,,
TX,HARRIS,20066421,"Single Family Homes",8/13/2020,,350000,,"2230 POTOMAC",HOUSTON,TX,77057,,,CONTRACTOR,,,,,,,,,,,"ANNE'S PERMIT",,,,,"ANNE'S PERMIT","2617C W HOLCOMBE BLVD",HOUSTON,TX,77025,"(713) 666-2025",,,,
TX,HARRIS,20016047,"Single Family Homes",8/12/2020,,355500,,"4215 TOPPING",HOUSTON,TX,77093,,,"CASTILLO MARCIANO","4215 TOPPING",HOUSTON,TX,77093,,Owner,,,,,OWNER,,,,,OWNER,,,,,,,,,
TX,HARRIS,20064930,"Single Family Homes",8/13/2020,,147000,,"9902 CLARK RD",HOUSTON,TX,77076,,,CONTRACTOR,,,,,,,,,,,"CLARK ROAD DEVELOPMENT",,,,,"CLARK ROAD DEVELOPMENT","2339 UNIVERSITY BLVD",HOUSTON,TX,77005,"(346) 704-4704",,,,
TX,HARRIS,20047258,"Single Family Homes",8/11/2020,,245905,,"2105 BEVIS",HOUSTON,TX,77008,,,CONTRACTOR,,,,,,,,,,,"METRO LIVING",,,,,"METRO LIVING","9610 LONG POINT ST",HOUSTON,TX,77085,"(281) 685-9961",,,,
TX,HARRIS,20047259,"Single Family Homes",8/11/2020,,245905,,"2107 BEVIS",HOUSTON,TX,77008,,,CONTRACTOR,,,,,,,,,,,"METRO LIVING",,,,,"METRO LIVING","9610 LONG POINT ST",HOUSTON,TX,77085,"(281) 685-9961",,,,
TX,HARRIS,20047260,"Single Family Homes",8/11/2020,,245905,,"2109 BEVIS",HOUSTON,TX,77008,,,CONTRACTOR,,,,,,,,,,,"METRO LIVING",,,,,"METRO LIVING","9610 LONG POINT ST",HOUSTON,TX,77085,"(281) 685-9961",,,,
TX,HARRIS,20047261,"Single Family Homes",8/11/2020,,245905,,"2111 BEVIS",HOUSTON,TX,77008,,,CONTRACTOR,,,,,,,,,,,"METRO LIVING",,,,,"METRO LIVING","9610 LONG POINT ST",HOUSTON,TX,77085,"(281) 685-9961",,,,
TX,HARRIS,20070328,"Single Family Homes",8/14/2020,,172762,,"14034 PLACID BAYOU ",HOUSTON,TX,77045,,,CONTRACTOR,,,,,,,,,,,"BRIGHTON HOMES & PARKWOOD",,,,,"BRIGHTON HOMES & PARKWOOD","13111 NORTHWEST FWY",HOUSTON,TX,77040-6318,"(713) 460-6279",,,,
TX,HARRIS,20067780,"Single Family Homes",8/12/2020,,201528,,"4005 CENTRE GLEN",HOUSTON,TX,77043,,,CONTRACTOR,,,,,,,,,,,"BRIGHTON HOMES & PARKWOOD",,,,,"BRIGHTON HOMES & PARKWOOD","13111 NORTHWEST FWY",HOUSTON,TX,77040-6318,"(713) 460-6279",,,,
TX,HARRIS,20065610,"Single Family Homes",8/12/2020,,181257,,"14226 COUTURIE FOREST",HOUSTON,TX,77045,,,CONTRACTOR,,,,,,,,,,,"BRIGHTON HOMES & PARKWOOD",,,,,"BRIGHTON HOMES & PARKWOOD","13111 NORTHWEST FWY",HOUSTON,TX,77040-6318,"(713) 460-6279",,,,
TX,HARRIS,20065612,"Single Family Homes",8/12/2020,,227518,,"10714 ZACHARY COVE",HOUSTON,TX,77016,,,CONTRACTOR,,,,,,,,,,,"BRIGHTON HOMES & PARKWOOD",,,,,"BRIGHTON HOMES & PARKWOOD","13111 NORTHWEST FWY",HOUSTON,TX,77040-6318,"(713) 460-6279",,,,
TX,HARRIS,20017212,"Single Family Homes",8/14/2020,,158960,,"5826 SOUTHINGTON",HOUSTON,TX,77033,,,CONTRACTOR,,,,,,,,,,,"BURGHLI HOMES",,,,,"BURGHLI HOMES","4615 NORTH FREEWAY",HOUSTON,TX,77022,"(713) 691-3948",http://burghlihomes.com/,,,
TX,HARRIS,20059980,"Single Family Homes",8/12/2020,,151000,,"4625 SUNFLOWER",HOUSTON,TX,77051,,,CONTRACTOR,,,,,,,,,,,"CENSEO HOMES",,,,,"CENSEO HOMES","1800 AUGUSTA DR",HOUSTON,TX,77057-3149,"(281) 932-5303",,,,
TX,HARRIS,20069415,"Single Family Homes",8/12/2020,,213990,,"722 COBALT CREST",HOUSTON,TX,77336,,,CONTRACTOR,,,,,,,,,,,"CENTURY COMMUNITIES",,,,,"CENTURY COMMUNITIES","4700 W SAM HOUSTON PKWY N STE 130",HOUSTON,TX,77041-8219,"(281) 741-8946",https://www.centurycommunities.com/,,,
TX,HARRIS,20069423,"Single Family Homes",8/13/2020,,228990,,"731 COBALT CREST",HOUSTON,TX,77336,,,CONTRACTOR,,,,,,,,,,,"CENTURY COMMUNITIES",,,,,"CENTURY COMMUNITIES","4700 W SAM HOUSTON PKWY N STE 130",HOUSTON,TX,77041-8219,"(281) 741-8946",https://www.centurycommunities.com/,,,
TX,HARRIS,19102697,"Single Family Homes",8/14/2020,,165000,,"1311 REINERMAN ST",HOUSTON,TX,77007,,,CONTRACTOR,,,,,,,,,,,"CITY CHOICE GROUP",,,,,"CITY CHOICE GROUP","1314 ROY ST",HOUSTON,TX,77007-3343,"(713) 681-5858",http://citychoicehomes.com,,,
TX,HARRIS,20064511,"Single Family Homes",8/11/2020,,185000,,"2761 CLINTON",HOUSTON,TX,77020,,,CONTRACTOR,,,,,,,,,,,"CITYSIDE HOMES",,,,,"CITYSIDE HOMES","10778 VINECREST DR STE 100",HOUSTON,TX,77086-1778,"(281) 831-2252",http://www.citysidehomes.com/,"(713) 868-7239",,
TX,HARRIS,20006217,"Single Family Homes",8/12/2020,,230000,,"5114 BLOSSOM",HOUSTON,TX,77007,,,CONTRACTOR,,,,,,,,,,,"CITYSIDE HOMES",,,,,"CITYSIDE HOMES","10778 VINECREST DR STE 100",HOUSTON,TX,77086-1778,"(281) 831-2252",http://www.citysidehomes.com/,"(713) 868-7239",,
TX,HARRIS,20006218,"Single Family Homes",8/12/2020,,230000,,"5116 BLOSSOM",HOUSTON,TX,77007,,,CONTRACTOR,,,,,,,,,,,"CITYSIDE HOMES",,,,,"CITYSIDE HOMES","10778 VINECREST DR STE 100",HOUSTON,TX,77086-1778,"(281) 831-2252",http://www.citysidehomes.com/,"(713) 868-7239",,
TX,HARRIS,20058155,"Single Family Homes",8/11/2020,,181000,,"2757 CLINTON",HOUSTON,TX,77020,,,CONTRACTOR,,,,,,,,,,,"CITYSIDE HOMES",,,,,"CITYSIDE HOMES","10778 VINECREST DR STE 100",HOUSTON,TX,77086-1778,"(281) 831-2252",http://www.citysidehomes.com/,"(713) 868-7239",,
TX,HARRIS,20058156,"Single Family Homes",8/11/2020,,188000,,"2759 CLINTON",HOUSTON,TX,77020,,,CONTRACTOR,,,,,,,,,,,"CITYSIDE HOMES",,,,,"CITYSIDE HOMES","10778 VINECREST DR STE 100",HOUSTON,TX,77086-1778,"(281) 831-2252",http://www.citysidehomes.com/,"(713) 868-7239",,
TX,HARRIS,20058157,"Single Family Homes",8/12/2020,,181000,,"2763 CLINTON",HOUSTON,TX,77020,,,CONTRACTOR,,,,,,,,,,,"CITYSIDE HOMES",,,,,"CITYSIDE HOMES","10778 VINECREST DR STE 100",HOUSTON,TX,77086-1778,"(281) 831-2252",http://www.citysidehomes.com/,"(713) 868-7239",,
TX,HARRIS,20059431,"Single Family Homes",8/14/2020,,189164,,"8040 CHATEAU",HOUSTON,TX,77028,,,CONTRACTOR,,,,,,,,,,,"COMMANDER ENTERPRISES",,,,,"COMMANDER ENTERPRISES","15535 W BELLFORT BLVD",SUGARLAND,TX,77498,"(346) 813-1115",http://commanderenterprises.us,,,
TX,HARRIS,19126312,"Single Family Homes",8/13/2020,,1117000,,"1512 NORTH",HOUSTON,TX,77006,,,CONTRACTOR,,,,,,,,,,,"COVINGTON BUILDERS",,,,,"COVINGTON BUILDERS","3419 MERCER ST",HOUSTON,TX,77027-6507,"(713) 668-9157",http://www.covingtonbuilders.com,"(713) 839-7072","DAVID PALMORE",David@covingtonbuilders.com
TX,HARRIS,20057176,"Single Family Homes",8/11/2020,,179990,,"12518 FLEET RIVER",HOUSTON,TX,77047,,,CONTRACTOR,,,,,,,,,,,"DR HORTON",,,,,"DR HORTON","14100 SOUTHWEST",HOUSTON,TX,77478,"(281) 201-5559",,,,
TX,HARRIS,20057177,"Single Family Homes",8/13/2020,,220990,,"12522 FLEET RIVER",HOUSTON,TX,77047,,,CONTRACTOR,,,,,,,,,,,"DR HORTON",,,,,"DR HORTON","14100 SOUTHWEST",HOUSTON,TX,77478,"(281) 201-5559",,,,
TX,HARRIS,20057179,"Single Family Homes",8/11/2020,,189990,,"12530 FLEET RIVER",HOUSTON,TX,77047,,,CONTRACTOR,,,,,,,,,,,"DR HORTON",,,,,"DR HORTON","14100 SOUTHWEST",HOUSTON,TX,77478,"(281) 201-5559",,,,
TX,HARRIS,20057182,"Single Family Homes",8/11/2020,,195990,,"12546 FLEET RIVER",HOUSTON,TX,77047,,,CONTRACTOR,,,,,,,,,,,"DR HORTON",,,,,"DR HORTON","14100 SOUTHWEST",HOUSTON,TX,77478,"(281) 201-5559",,,,
TX,HARRIS,20057199,"Single Family Homes",8/11/2020,,179990,,"12612 FLEET RIVER ",HOUSTON,TX,77047,,,CONTRACTOR,,,,,,,,,,,"DR HORTON",,,,,"DR HORTON","14100 SOUTHWEST",HOUSTON,TX,77478,"(281) 201-5559",,,,
TX,HARRIS,20046529,"Single Family Homes",8/11/2020,,465000,,"3204 FLORAL GARDEN",HOUSTON,TX,77365,,,CONTRACTOR,,,,,,,,,,,"DREES CUSTOM HOMES",,,,,"DREES CUSTOM HOMES","9720 CYPRESSWOOD DR",HOUSTON,TX,77070-3355,"(281) 653-8850",http://www.dreeshomes.com,,,
TX,HARRIS,20057620,"Single Family Homes",8/13/2020,,525000,,"3315 OPAL STONE",HOUSTON,TX,77365,,,CONTRACTOR,,,,,,,,,,,"DREES CUSTOM HOMES",,,,,"DREES CUSTOM HOMES","9720 CYPRESSWOOD DR",HOUSTON,TX,77070-3355,"(281) 653-8850",http://www.dreeshomes.com,,,
TX,HARRIS,20064060,"Single Family Homes",8/12/2020,,183375,,"4010 BLACK LOCUST",HOUSTON,TX,77088,,,CONTRACTOR,,,,,,,,,,,"ECHOSTATE SOLUTIONS",,,,,"ECHOSTATE SOLUTIONS","25807 WESTHEIMER PKWY",KATY,TX,77494,"(281) 665-3563",,,,
TX,HARRIS,20070513,"Single Family Homes",8/14/2020,,188990,,"10754 NATHANIEL VALLEY",HOUSTON,TX,77016,,,CONTRACTOR,,,,,,,,,,,"FIRST AMERICA HOMES",,,,,"FIRST AMERICA HOMES","1400 WOODLOCH FOREST DR STE 200","THE WOODLANDS",TX,77380-1179,"(713) 452-1700",http://www.firstamericahomes.com/,,,info@firstamericahomes.com
TX,HARRIS,20064768,"Single Family Homes",8/14/2020,,185990,,"7615 NEVAEH CREST",HOUSTON,TX,77016,,,CONTRACTOR,,,,,,,,,,,"FIRST AMERICA HOMES",,,,,"FIRST AMERICA HOMES","1400 WOODLOCH FOREST DR STE 200","THE WOODLANDS",TX,77380-1179,"(713) 452-1700",http://www.firstamericahomes.com/,,,info@firstamericahomes.com
TX,HARRIS,20049741,"Single Family Homes",8/14/2020,,275990,,"4422 SANTORINI",HOUSTON,TX,77045,,,CONTRACTOR,,,,,,,,,,,"FIRST AMERICA HOMES",,,,,"FIRST AMERICA HOMES","1400 WOODLOCH FOREST DR STE 200","THE WOODLANDS",TX,77380-1179,"(713) 452-1700",http://www.firstamericahomes.com/,,,info@firstamericahomes.com
TX,HARRIS,20064799,"Single Family Homes",8/13/2020,,398000,,"3318 OPAL STONE",HOUSTON,TX,77365,,,CONTRACTOR,,,,,,,,,,,"J PATRICK HOMES",,,,,"J PATRICK HOMES","9700 RICHMOND AVE STE 162",HOUSTON,TX,77042-4698,"(713) 789-8004",,,,
TX,HARRIS,20058360,"Single Family Homes",8/13/2020,,432783,,"1502 CHESHIRE",HOUSTON,TX,77018,,,CONTRACTOR,,,,,,,,,,,"JAMESTOWN ESTATE HOMES",,,,,"JAMESTOWN ESTATE HOMES","2313 W SAM HOUSTON PKWY N STE 141",HOUSTON,TX,77043-2039,"(832) 358-5800",http://jamestownestatehomes.com,,,
TX,HARRIS,20069082,"Single Family Homes",8/11/2020,,247000,,"11024 MIKULA",HOUSTON,TX,77043,,,CONTRACTOR,,,,,,,,,,,"LENNAR HOMES",,,,,"LENNAR HOMES","550 GREENS PKWY",HOUSTON,TX,77067-4537,"(281) 875-1000",http://www.lennar.com/,,,
TX,HARRIS,20046800,"Single Family Homes",8/12/2020,,252330,,"608 WILLARD",HOUSTON,TX,77006,,,CONTRACTOR,,,,,,,,,,,"LITTLE VERONICA",,,,,"LITTLE VERONICA","10023 WESTVIEW",HOUSTON,TX,77055,"(713) 861-1601",,,,
TX,HARRIS,20046801,"Single Family Homes",8/12/2020,,252330,,"610 WILLARD",HOUSTON,TX,77006,,,CONTRACTOR,,,,,,,,,,,"LITTLE VERONICA",,,,,"LITTLE VERONICA","10023 WESTVIEW",HOUSTON,TX,77055,"(713) 861-1601",,,,
TX,HARRIS,20065096,"Single Family Homes",8/11/2020,,423144,,"3025 BLUE BONNET",HOUSTON,TX,77025,,,CONTRACTOR,,,,,,,,,,,"MCDANIEL HOMES",,,,,"MCDANIEL HOMES","1805 BRANCH HILL DR",PEARLAND,TX,77581-6198,"(281) 914-8286",https://mcdanielhomes.net/,,"Ryan McDaniel",
TX,HARRIS,20032458,"Single Family Homes",8/12/2020,,201620,,"5434 CUERTA ",HOUSTON,TX,77023,,,CONTRACTOR,,,,,,,,,,,"MERITAGE HOMES",,,,,"MERITAGE HOMES","2901 W SAM HOUSTON PKWY N",HOUSTON,TX,77043-1630,"(713) 357-1184",,,,
TX,HARRIS,20032457,"Single Family Homes",8/14/2020,,187170,,"5438 CUERTA ",HOUSTON,TX,77023,,,CONTRACTOR,,,,,,,,,,,"MERITAGE HOMES",,,,,"MERITAGE HOMES","2901 W SAM HOUSTON PKWY N",HOUSTON,TX,77043-1630,"(713) 357-1184",,,,
TX,HARRIS,20057653,"Single Family Homes",8/11/2020,,201620,,"9810 MAGNOLIA VILLAGE",HOUSTON,TX,77080,,,CONTRACTOR,,,,,,,,,,,"MERITAGE HOMES",,,,,"MERITAGE HOMES","2901 W SAM HOUSTON PKWY N",HOUSTON,TX,77043-1630,"(713) 357-1184",,,,
TX,HARRIS,20063639,"Single Family Homes",8/11/2020,,150535,,"9812 MAGNOLIA VILLAGE",HOUSTON,TX,77080,,,CONTRACTOR,,,,,,,,,,,"MERITAGE HOMES",,,,,"MERITAGE HOMES","2901 W SAM HOUSTON PKWY N",HOUSTON,TX,77043-1630,"(713) 357-1184",,,,
TX,HARRIS,20041359,"Single Family Homes",8/12/2020,,322660,,"9904 PRAIRIE HOUSE",HOUSTON,TX,77080,,,CONTRACTOR,,,,,,,,,,,"MERITAGE HOMES",,,,,"MERITAGE HOMES","2901 W SAM HOUSTON PKWY N",HOUSTON,TX,77043-1630,"(713) 357-1184",,,,
TX,HARRIS,20071106,"Single Family Homes",8/14/2020,,203575,,"9914 GRANARY MILL ",HOUSTON,TX,77080,,,CONTRACTOR,,,,,,,,,,,"MERITAGE HOMES",,,,,"MERITAGE HOMES","2901 W SAM HOUSTON PKWY N",HOUSTON,TX,77043-1630,"(713) 357-1184",,,,
TX,HARRIS,20047123,"Single Family Homes",8/12/2020,,412000,,"940 DUNLEIGH MEADOWS",HOUSTON,TX,77055,,,CONTRACTOR,,,,,,,,,,,"MHI MCGUYER HOMEBUILDERS",,,,,"MHI MCGUYER HOMEBUILDERS","7676 WOODWAY DR",HOUSTON,TX,77063-1526,"(713) 260-4107",,,,
TX,HARRIS,19143228,"Single Family Homes",8/12/2020,,166000,,"7714 NASSER",HOUSTON,TX,77055,,,CONTRACTOR,,,,,,,,,,,"HOUSTON PERMIT EXPEDITER",,,,,"HOUSTON PERMIT EXPEDITER","5929 QUEENSLOCH DR APT 129",HOUSTON,TX,77096-3862,"(713) 452-0306",http://www.houstonpermitexpediter.com/,,,vrico@houstonpermitexpediter.com
TX,HARRIS,20047257,"Single Family Homes",8/11/2020,,245905,,"2103 BEVIS",HOUSTON,TX,77008,,,CONTRACTOR,,,,,,,,,,,"CREATIVE DESIGN STUDIO",,,,,"CREATIVE DESIGN STUDIO","6520 RADCLIFFE ST",HOUSTON,TX,77091-2250,"(832) 646-2405",http://www.creativedesignstudiousa.com/,,,
TX,HARRIS,20019724,"Single Family Homes",8/13/2020,,187145,,"5046 VAN FLEET",HOUSTON,TX,77033,,,CONTRACTOR,,,,,,,,,,,"ROSTON INVESTMENT",,,,,"ROSTON INVESTMENT","5680 HIGHWAY 6, SUITE 256","MISSOURI CITY",TX,77459,"(832) 304-4655",,,,
TX,HARRIS,20067477,"Single Family Homes",8/12/2020,,240891,,"1539 LAIRD",HOUSTON,TX,77008,,,"CAMERON SHOAEE","9575 KATY",HOUSTON,TX,77024,"(832) 465-0892",Owner,,,,,OWNER,,,,,OWNER,,,,,,,,,
TX,HARRIS,20067480,"Single Family Homes",8/12/2020,,240891,,"1541 LAIRD",HOUSTON,TX,77008,,,CONTRACTOR,,,,,,,,,,,"BERNSTEIN REALTY",,,,,"BERNSTEIN REALTY","9575 KATY FREEWAY, SUITE 205",HOUSTON,TX,77024,"(713) 932-1032",,,,
TX,HARRIS,20023491,"Single Family Homes",8/11/2020,,150000,,"7515 SANDLE",HOUSTON,TX,77088,,,CONTRACTOR,,,,,,,,,,,"SPECTRUM CONSTRUCTION",,,,,"SPECTRUM CONSTRUCTION","5116 BISSONNET STREET",BELLAIRE,TX,77401,"(713) 820-2465",,,,
TX,HARRIS,20061155,"Single Family Homes",8/11/2020,,399000,,"975 ALTHEA",HOUSTON,TX,77018,,,CONTRACTOR,,,,,,,,,,,"THAKKAR & CO",,,,,"THAKKAR & CO","550 WESTCOTT STREET, SUITE 449",HOUSTON,TX,77007,"(281) 300-6881",,,,
TX,HARRIS,20051195,"Single Family Homes",8/13/2020,,343056,,"711 RIDGE",HOUSTON,TX,77009,,,CONTRACTOR,,,,,,,,,,,"THE MODERN BUNGALOW ",,,,,"THE MODERN BUNGALOW ","820 RUTLAND ST",HOUSTON,TX,77007-1530,"(713) 855-9598",,,,
TX,HARRIS,20025193,"Single Family Homes",8/12/2020,,720000,,"6227 LYNBROOK",HOUSTON,TX,77057,,,CONTRACTOR,,,,,,,,,,,"UNIKA HOMES",,,,,"UNIKA HOMES","1137 KEY ST",HOUSTON,TX,77009-5216,"(281) 669-6196",,,"PABLO PEREIRA",
TX,HARRIS,20051341,"Single Family Homes",8/14/2020,,209390,,"10834 FALL MILL",HOUSTON,TX,77075,,,CONTRACTOR,,,,,,,,,,,"MARIA VARGAS",,,,,"MARIA VARGAS","1311 BROADFIELD BLVD",HOUSTON,TX,77084-5186,"(281) 529-9127",,,,
TX,HARRIS,20024653,"Single Family Homes",8/12/2020,,381050,,"1823 CALABASAS ",HOUSTON,TX,77080,,,CONTRACTOR,,,,,,,,,,,"MARIA VARGAS",,,,,"MARIA VARGAS","1311 BROADFIELD BLVD",HOUSTON,TX,77084-5186,"(281) 529-9127",,,,
TX,HARRIS,20018281,"Single Family Homes",8/12/2020,,215238,,"217 E 30TH",HOUSTON,TX,77018,,,CONTRACTOR,,,,,,,,,,,"VERTEX DEVELOPMENT",,,,,"VERTEX DEVELOPMENT","1517 SAULNIER ST",HOUSTON,TX,77019-4531,"(713) 397-9753",,,,
TX,HARRIS,20064964,"Single Family Homes",8/14/2020,,615500,,"4012 ESSEX",HOUSTON,TX,77027,,,"DAN G HOFFMAN AND NANCY G HOFFMAN","4012 ESSEX",HOUSTON,TX,77027,,Owner,,,,,"610 GALLERIA INVESTMENT GROUP",,,,,"610 GALLERIA INVESTMENT GROUP","1600 POST OAK BOULEVARD # 1802",HOUSTON,TX,77056,"(617) 756-1254",,,,
TX,HARRIS,19093999,"Single Family Homes",8/12/2020,,400000,,"4002 TURNBERRY",HOUSTON,TX,77025,,,"DOAN DANNY VINH","4002 TURNBERRY",HOUSTON,TX,77025,"(713) 874-4777",Owner,,,,,OWNER,,,,,OWNER,,,,,,,,,
TX,HARRIS,19015231,"Single Family Homes",8/12/2020,,565000,,"7506 JANAK",HOUSTON,TX,77055,,,"GARDUNO JOSE","7506 JANAK",HOUSTON,TX,77055,,Owner,,,,,"UNIKA CONSTRUCTION",,,,,"UNIKA CONSTRUCTION","PO BOX 70184",HOUSTON,TX,77270-0184,"(281) 669-6196",http://www.unikaconstruction.com/,"(866) 689-3373","PABLO PEREIRA",pablo@unikaconstruction.com
TX,HARRIS,20036298,"Single Family Homes",8/11/2020,,400000,,"4729 CARLEEN",HOUSTON,TX,77092,,,"HAAKONSEN RUNE","4729 CARLEEN",HOUSTON,TX,77092,,Owner,,,,,"DREES CUSTOM HOMES",,,,,"DREES CUSTOM HOMES","9720 CYPRESSWOOD DR",HOUSTON,TX,77070-3355,"(281) 653-8850",http://www.dreeshomes.com,,,
TX,HARRIS,20031747,"Single Family Homes",8/11/2020,,140000,,"7831 CAROLWOOD",HOUSTON,TX,77028,,,"JONES PAMELA","7831 CAROLWOOD",HOUSTON,TX,77028,,Owner,,,,,"DSW HOMES",,,,,"DSW HOMES","12607 N",HOUSTON,TX,77034,"(832) 385-0069",http://www.dswhomes.com/,,,
TX,HARRIS,20058958,"Single Family Homes",8/12/2020,,342000,,"906 WALTON",HOUSTON,TX,77009,,,"LLC MILLENI","906 WALTON",HOUSTON,TX,77009,,Owner,,,,,"MILLENI, LLC",,,,,"MILLENI, LLC","3440 RILEY FUZZEL RD",HOUSTON,TX,77386,"(832) 517-1907",,,,
TX,HARRIS,18126958,"Single Family Homes",8/13/2020,,76000,,"815 E 23RD",HOUSTON,TX,77009,,,"MELLADO MIGUEL","815 E 23RD",HOUSTON,TX,77009,"(713) 882-7100",Owner,,,,,OWNER,,,,,OWNER,,,,,,,,,
TX,HARRIS,20030787,"Single Family Homes",8/13/2020,,201000,,"10034 COMANCHE",HOUSTON,TX,77041,,,"MONTENEGRO LUIS","10034 COMANCHE",HOUSTON,TX,77041,,Owner,,,,,"O GUERRERO CONSTRUCTION",,,,,"O GUERRERO CONSTRUCTION","19635 RIVER BOTTOM RD",KATY,TX,77449-7315,"(281) 960-6729",,,,
TX,HARRIS,20031784,"Single Family Homes",8/12/2020,,431063,,"2812 LOCKETT",HOUSTON,TX,77021,,,"NGUYEN JOHN","2812 LOCKETT",HOUSTON,TX,77021,,Owner,,,,,"HOUSTON PERMIT EXPEDITER",,,,,"HOUSTON PERMIT EXPEDITER","5929 QUEENSLOCH DR APT 129",HOUSTON,TX,77096-3862,"(713) 452-0306",http://www.houstonpermitexpediter.com/,,,vrico@houstonpermitexpediter.com
TX,HARRIS,20059128,"Single Family Homes",8/14/2020,,700000,,"3609 OVERBROOK",HOUSTON,TX,77027,,,CONTRACTOR,,,,,,,,,,,"WELCH BUILDERS",,,,,"WELCH BUILDERS","4605 POST OAK PLACE DR",HOUSTON,TX,77027-9729,"(713) 960-9925",http://www.welchbuilders.net,"(713) 979-4904",,
TX,HARRIS,20047480,"Single Family Homes",8/13/2020,,166500,,"4815 CAPLIN",HOUSTON,TX,77026,,,"PETERSON COETTA","4815 CAPLIN",HOUSTON,TX,77026,,Owner,,,,,"JW TURNER CONSTRUCTION",,,,,"JW TURNER CONSTRUCTION","14215 MARY JANE LN",TOMBALL,TX,77377-6356,"(281) 290-9011",,,,
TX,HARRIS,20057400,"Single Family Homes",8/12/2020,,169145,,"4204 GALESBURG",HOUSTON,TX,77051,,,"RICHARDSON MELVIN","4204 GALESBURG",HOUSTON,TX,77051,,Owner,,,,,OWNER,,,,,OWNER,,,,,,,,,
TX,HARRIS,20017050,"Single Family Homes",8/13/2020,,267800,,"7908 VIRGIL",HOUSTON,TX,77088,,,"ROSS MARKESHA","7908 VIRGIL",HOUSTON,TX,77088,,Owner,,,,,OWNER,,,,,OWNER,,,,,,,,,
TX,HARRIS,19061439,"Single Family Homes",8/12/2020,,130000,,"8010 DE PRIEST",HOUSTON,TX,77088,,,"SHEILA SHANNON","8010 DE PRIEST",HOUSTON,TX,77088,,Owner,,,,,"CROWN RIDGE BUILDERS",,,,,"CROWN RIDGE BUILDERS","28618 FM 2920",HOUSTON,TX,77484,"(281) 682-5593",,,,
TX,HARRIS,20048905,"Single Family Homes",8/11/2020,,202000,,"13521 GRANADA",HOUSTON,TX,77015,,,"VELAZQUEZ KARINA","13521 GRANADA",HOUSTON,TX,77015,,Owner,,,,,OWNER,,,,,OWNER,,,,,,,,,
TX,HARRIS,20049024,"Single Family Homes",8/11/2020,,205000,,"13529 GRANADA",HOUSTON,TX,77015,,,"VELAZQUEZ KARINA","13521 GRANADA",HOUSTON,TX,77015,,Owner,,,,,OWNER,,,,,OWNER,,,,,,,,,
TX,HARRIS,20059035,"Single Family Homes",8/11/2020,,92000,,"762 MARJORIE",HOUSTON,TX,77088,,,"VERA ROLANDO","762 MARJORIE",HOUSTON,TX,77088,,Owner,,,,,"ODAS GROUP",,,,,"ODAS GROUP","9222 BIRCH SPRINGS DR",HOUSTON,TX,77095-7242,"(713) 553-3457",,,,
TX,HARRIS,19050011,"Single Family Homes",8/11/2020,,230000,,"1112 DART",HOUSTON,TX,77007,,,"WILLIAMS JONATHAN","1112 DART",HOUSTON,TX,77007,,Owner,,,,,OWNER,,,,,OWNER,,,,,,,,,
TX,HARRIS,20058334,"Single Family Homes",8/11/2020,,105000,,"4642 SUNFLOWER",HOUSTON,TX,77051,,,"WYCHE GARNNETT GERY","4642 SUNFLOWER",HOUSTON,TX,77051,,Owner,,,,,"TEAM HBC",,,,,"TEAM HBC","12955 SOUTH FWY",HOUSTON,TX,77047-1900,"(713) 637-4356",,,,
TX,HARRIS,2003200020,"Single Family Homes",7/16/2020,,388635,5979,"19510 ROCK QUILLWORT DR",HOUSTON,TX,77356,"BRIDGELAND PARKLAND VILLAGE",,CONTRACTOR,,,,,,,,,,,"TRENDMAKER HOMES",,,,,"TRENDMAKER HOMES","16340 PARK TEN PL STE 250",HOUSTON,TX,77084-5144,"(281) 675-3200",,"(281) 675-3251","MARTIN EVANS",
TX,HARRIS,2007260005,"Single Family Homes",7/16/2020,,96000,1800,"7322 GREENFORD VILLAGE WAY",HOUSTON,TX,77356,"IMPERIAL FOREST",,CONTRACTOR,,,,,,,,,,,"STARLIGHT HOMES",,,,,"STARLIGHT HOMES","10110 W SAM HOUSTON PKWY N",HOUSTON,TX,77064-7508,"(832) 478-9032",,,,
TX,HARRIS,2003200066,"Single Family Homes",7/16/2020,,178685,2749,"15839 LLOYD PARK DR",HOUSTON,TX,77356,"BRIDGELAND PARKLAND VILLAGE",,CONTRACTOR,,,,,,,,,,,"TRENDMAKER HOMES",,,,,"TRENDMAKER HOMES","16340 PARK TEN PL STE 250",HOUSTON,TX,77084-5144,"(281) 675-3200",,"(281) 675-3251","MARTIN EVANS",
TX,HARRIS,2007150166,"Single Family Homes",7/16/2020,,260500,2580,"16719 RUELLIA FIELD RD",HOUSTON,TX,77356,,,CONTRACTOR,,,,,,,,,,,"PERRY HOMES",,,,,"PERRY HOMES","9000 GULF FWY",HOUSTON,TX,77017-7018,"(713) 417-1396",,,,
TX,HARRIS,2002260110,"Single Family Homes",7/16/2020,,229694,3478,"25002 HEATHER GLADE TRL",HOUSTON,TX,77356,"LAKES AT CREEKSIDE",,CONTRACTOR,,,,,,,,,,,"TRENDMAKER HOMES",,,,,"TRENDMAKER HOMES","16340 PARK TEN PL STE 250",HOUSTON,TX,77084-5144,"(281) 675-3200",,"(281) 675-3251","MARTIN EVANS",
TX,HARRIS,2004130050,"Single Family Homes",7/16/2020,,257400,3960,"25307 HOLLOWGATE PARK LN",HOUSTON,TX,77356,"LAKES AT CREEKSIDE",,CONTRACTOR,,,,,,,,,,,"TRENDMAKER HOMES",,,,,"TRENDMAKER HOMES","16340 PARK TEN PL STE 250",HOUSTON,TX,77084-5144,"(281) 675-3200",,"(281) 675-3251","MARTIN EVANS",
TX,HARRIS,2007100022,"Single Family Homes",7/16/2020,,120000,2460,"7306 GREENFORD VILLAGE WAY",HOUSTON,TX,77356,"IMPERIAL FOREST",,CONTRACTOR,,,,,,,,,,,"STARLIGHT HOMES",,,,,"STARLIGHT HOMES","10110 W SAM HOUSTON PKWY N",HOUSTON,TX,77064-7508,"(832) 478-9032",,,,
TX,HARRIS,2007150186,"Single Family Homes",7/16/2020,,200000,2000,"15815 FORMASTON FOREST",HOUSTON,TX,77356,BALMORAL,,CONTRACTOR,,,,,,,,,,,"SHEA HOMES HOUSTON",,,,,"SHEA HOMES HOUSTON","8300 CYPRESS CREEK PKWY STE 400",HOUSTON,TX,77070-5643,"(832) 869-4007",http://www.sheahomes.com/,,,
TX,HARRIS,2002180108,"Single Family Homes",7/16/2020,,78820,2187,"18519 INSPIRATION DR",HOUSTON,TX,77356,"BRIDGELAND PARKLAND VILLAGE",,CONTRACTOR,,,,,,,,,,,"DAVID WEEKLEY HOMES",,,,,"DAVID WEEKLEY HOMES","14444 NORTHWEST",HOUSTON,TX,77040,"(713) 570-5021",http://www.davidweekleyhomes.com/,,,
TX,HARRIS,2004150053,"Single Family Homes",7/16/2020,,112280,3143,"16011 CELEBRATION LN",HOUSTON,TX,77356,"BRIDGELAND PARKLAND VILLAGE",,CONTRACTOR,,,,,,,,,,,"DAVID WEEKLEY HOMES",,,,,"DAVID WEEKLEY HOMES","14444 NORTHWEST",HOUSTON,TX,77040,"(713) 570-5021",http://www.davidweekleyhomes.com/,,,
TX,HARRIS,2003200032,"Single Family Homes",7/16/2020,,364385,5609,"19502 LACE CACTUS DR",HOUSTON,TX,77356,"BRIDGELAND PARKLAND VILLAGE",,CONTRACTOR,,,,,,,,,,,"TRENDMAKER HOMES",,,,,"TRENDMAKER HOMES","16340 PARK TEN PL STE 250",HOUSTON,TX,77084-5144,"(281) 675-3200",,"(281) 675-3251","MARTIN EVANS",
TX,HARRIS,2005120043,"Single Family Homes",7/16/2020,,105770,3022,"16106 DEDICATION DR",HOUSTON,TX,77356,"BRIDGELAND PARKLAND VILLAGE",,CONTRACTOR,,,,,,,,,,,"DAVID WEEKLEY HOMES",,,,,"DAVID WEEKLEY HOMES","14444 NORTHWEST",HOUSTON,TX,77040,"(713) 570-5021",http://www.davidweekleyhomes.com/,,,
TX,HARRIS,2005130038,"Single Family Homes",7/16/2020,,83230,2378,"15810 DEDICATION DR",HOUSTON,TX,77356,"BRIDGELAND PARKLAND VILLAGE",,CONTRACTOR,,,,,,,,,,,"DAVID WEEKLEY HOMES",,,,,"DAVID WEEKLEY HOMES","14444 NORTHWEST",HOUSTON,TX,77040,"(713) 570-5021",http://www.davidweekleyhomes.com/,,,
TX,HARRIS,2003040083,"Single Family Homes",7/16/2020,,339365,5221,"20310 TANGALA DR",HOUSTON,TX,77356,"FALLS AT DRY CREEK",,CONTRACTOR,,,,,,,,,,,"TRENDMAKER HOMES",,,,,"TRENDMAKER HOMES","16340 PARK TEN PL STE 250",HOUSTON,TX,77084-5144,"(281) 675-3200",,"(281) 675-3251","MARTIN EVANS",
TX,HARRIS,2004140079,"Single Family Homes",7/16/2020,,96110,2746,"11834 DEEPWATER RIDGE WAY",HOUSTON,TX,77356,"TOWNE LAKE",,CONTRACTOR,,,,,,,,,,,"DAVID WEEKLEY HOMES",,,,,"DAVID WEEKLEY HOMES","14444 NORTHWEST",HOUSTON,TX,77040,"(713) 570-5021",http://www.davidweekleyhomes.com/,,,
TX,HARRIS,2003250070,"Single Family Homes",7/16/2020,,211000,3241,"9810 MILLS ORCHARD DR",HOUSTON,TX,77356,"MILLS CREEK CROSSING",,CONTRACTOR,,,,,,,,,,,"KB HOME",,,,,"KB HOME","11314 RICHMOND AVE",HOUSTON,TX,77082-2616,"(281) 668-3800",,,,
TX,HARRIS,2003030214,"Single Family Homes",7/16/2020,,105000,22241,"10129 SWISHER ST",HOUSTON,TX,77356,TAYLOR,,"ALFREDO HERNANDEZ","10129 SWISHER ST",HOUSTON,TX,77356,,Owner,,,,,OWNER,,,,,OWNER,,,,,,,,,
TX,HARRIS,2003240043,"Single Family Homes",7/16/2020,,237835,3659,"16422 ROSEMARY GROVE LN",HOUSTON,TX,77356,"HIDDEN ARBOR",,CONTRACTOR,,,,,,,,,,,"TRENDMAKER HOMES",,,,,"TRENDMAKER HOMES","16340 PARK TEN PL STE 250",HOUSTON,TX,77084-5144,"(281) 675-3200",,"(281) 675-3251","MARTIN EVANS",
TX,HARRIS,2006190199,"Single Family Homes",7/16/2020,,79720,3986,"18014 COWBOY CREEK TRL",HOUSTON,TX,77356,"TOWNE LAKE",,CONTRACTOR,,,,,,,,,,,"MHI MCGUYER HOMEBUILDERS",,,,,"MHI MCGUYER HOMEBUILDERS","7676 WOODWAY DR",HOUSTON,TX,77063-1526,"(713) 260-4107",,,,
TX,HARRIS,2007210166,"Single Family Homes",7/16/2020,,350000,3546,"19323 GOODNIGHT PEAK TRL",HOUSTON,TX,77356,"BRIDGELAND PARKLAND VILLAGE",,CONTRACTOR,,,,,,,,,,,"RAVENNA HOMES",,,,,"RAVENNA HOMES","28902 POWDER RIDGE DR",KATY,TX,77494-1918,"(281) 693-7209",,,,
TX,HARRIS,2005220101,"Single Family Homes",7/16/2020,,397688,3535,"15011 LITTLE FOX CANYON TRL",HOUSTON,TX,77356,"BRIDGELAND PARKLAND VILLAGE",,CONTRACTOR,,,,,,,,,,,"PERRY HOMES",,,,,"PERRY HOMES","9000 GULF FWY",HOUSTON,TX,77017-7018,"(713) 417-1396",,,,
TX,HARRIS,2005220066,"Single Family Homes",7/16/2020,,356175,3835,"15115 ROJO GRANDE TRL",HOUSTON,TX,77356,"BRIDGELAND PARKLAND VILLAGE",,CONTRACTOR,,,,,,,,,,,"PERRY HOMES",,,,,"PERRY HOMES","9000 GULF FWY",HOUSTON,TX,77017-7018,"(713) 417-1396",,,,
TX,HARRIS,2005220109,"Single Family Homes",7/16/2020,,397688,3535,"15030 LITTLE FOX CANYON TRL",HOUSTON,TX,77356,"BRIDGELAND PARKLAND VILLAGE",,CONTRACTOR,,,,,,,,,,,"PERRY HOMES",,,,,"PERRY HOMES","9000 GULF FWY",HOUSTON,TX,77017-7018,"(713) 417-1396",,,,
TX,HARRIS,2006050157,"Single Family Homes",7/16/2020,,431438,3835,"15103 CANYON PARK VIEW DR",HOUSTON,TX,77356,"BRIDGELAND PARKLAND VILLAGE",,CONTRACTOR,,,,,,,,,,,"PERRY HOMES",,,,,"PERRY HOMES","9000 GULF FWY",HOUSTON,TX,77017-7018,"(713) 417-1396",,,,
TX,HARRIS,2005220110,"Single Family Homes",7/16/2020,,303675,2933,"15034 LITTLE FOX CANYON TRL",HOUSTON,TX,77356,"BRIDGELAND PARKLAND VILLAGE",,CONTRACTOR,,,,,,,,,,,"PERRY HOMES",,,,,"PERRY HOMES","9000 GULF FWY",HOUSTON,TX,77017-7018,"(713) 417-1396",,,,
TX,HARRIS,2006080176,"Single Family Homes",7/16/2020,,54000,1732,"23558 WILLOW CREEK DR",HOUSTON,TX,77356,"SUBURBAN RANCHES",,"RENO  LESLEE  LOVELAND","23558 WILLOW CREEK DR",HOUSTON,TX,77356,,Owner,,,,,OWNER,,,,,OWNER,,,,,,,,,
TX,HARRIS,2005290201,"Single Family Homes",7/16/2020,,50000,5400,"4606 PRAIRIE WING POINT",HOUSTON,TX,77356,"KATY LAKE ESTATES",,"JAMSHID GHARIB AND MARCIA GHARIB","4606 PRAIRIE WING POINT",HOUSTON,TX,77356,,Owner,,,,,OWNER,,,,,OWNER,,,,,,,,,
TX,HARRIS,2006240148,"Single Family Homes",7/16/2020,,379688,3375,"15123 ROJO GRANDE TRL",HOUSTON,TX,77356,"BRIDGELAND PARKLAND VILLAGE",,CONTRACTOR,,,,,,,,,,,"PERRY HOMES",,,,,"PERRY HOMES","9000 GULF FWY",HOUSTON,TX,77017-7018,"(713) 417-1396",,,,
TX,HARRIS,2007270061,"Single Family Homes",7/16/2020,,174135,2679,"5814 SAVANNA PASTURE RD",HOUSTON,TX,77356,"KATY CROSSING",,CONTRACTOR,,,,,,,,,,,"LENNAR HOMES",,,,,"LENNAR HOMES","550 GREENS PKWY",HOUSTON,TX,77067-4537,"(281) 875-1000",http://www.lennar.com/,,,
TX,HARRIS,2007140028,"Single Family Homes",7/16/2020,,120000,1400,"16107 CHAROLAIS DR",HOUSTON,TX,77356,,,"SANDRA DANIEL","16107 CHAROLAIS DR",HOUSTON,TX,77356,,Owner,,,,,OWNER,,,,,OWNER,,,,,,,,,
TX,HARRIS,2006290068,"Single Family Homes",7/16/2020,,379688,3375,"15003 LITTLE FOX CANYON TRL",HOUSTON,TX,77356,"BRIDGELAND PARKLAND VILLAGE",,CONTRACTOR,,,,,,,,,,,"PERRY HOMES",,,,,"PERRY HOMES","9000 GULF FWY",HOUSTON,TX,77017-7018,"(713) 417-1396",,,,
TX,HARRIS,2005220080,"Single Family Homes",7/16/2020,,319425,3389,"15011 CANYON PARK VIEW DR",HOUSTON,TX,77356,"BRIDGELAND PARKLAND VILLAGE",,CONTRACTOR,,,,,,,,,,,"PERRY HOMES",,,,,"PERRY HOMES","9000 GULF FWY",HOUSTON,TX,77017-7018,"(713) 417-1396",,,,
TX,HARRIS,2003240048,"Single Family Homes",7/16/2020,,302055,4647,"16426 ROSEMARY GROVE LN",HOUSTON,TX,77356,"HIDDEN ARBOR",,CONTRACTOR,,,,,,,,,,,"TRENDMAKER HOMES",,,,,"TRENDMAKER HOMES","16340 PARK TEN PL STE 250",HOUSTON,TX,77084-5144,"(281) 675-3200",,"(281) 675-3251","MARTIN EVANS",
TX,HARRIS,2007160136,"Single Family Homes",7/16/2020,,122500,2723,"4739 ALBA ASH LN",HOUSTON,TX,77356,"VENTANA LAKES",,CONTRACTOR,,,,,,,,,,,"DR HORTON",,,,,"DR HORTON","14100 SOUTHWEST",HOUSTON,TX,77478,"(281) 201-5559",,,,
TX,HARRIS,2007150013,"Single Family Homes",7/16/2020,,107550,2390,"4806 AVELLINO BASE DR",HOUSTON,TX,77356,"VENTANA LAKES",,CONTRACTOR,,,,,,,,,,,"DR HORTON",,,,,"DR HORTON","14100 SOUTHWEST",HOUSTON,TX,77478,"(281) 201-5559",,,,
TX,HARRIS,2007140166,"Single Family Homes",7/16/2020,,88065,2141,"22823 TUSCANY RIDGE LN",HOUSTON,TX,77356,"VENTANA LAKES",,CONTRACTOR,,,,,,,,,,,"DR HORTON",,,,,"DR HORTON","14100 SOUTHWEST",HOUSTON,TX,77478,"(281) 201-5559",,,,
TX,HARRIS,2007150019,"Single Family Homes",7/16/2020,,103050,2291,"4735 LOMBARDY FIRE TRL",HOUSTON,TX,77356,"VENTANA LAKES",,CONTRACTOR,,,,,,,,,,,"DR HORTON",,,,,"DR HORTON","14100 SOUTHWEST",HOUSTON,TX,77478,"(281) 201-5559",,,,
TX,HARRIS,2005220011,"Single Family Homes",7/16/2020,,140000,12841,"59 WILLOWCREEK RANCH RD",HOUSTON,TX,77356,"WILLOWCREEK RANCH",,"FEI LUNG CHAN","59 WILLOWCREEK RANCH RD",HOUSTON,TX,77356,,Owner,,,,,OWNER,,,,,OWNER,,,,,,,,,
TX,HARRIS,2007100095,"Single Family Homes",7/16/2020,,145860,2244,"5807 BIG BLUESTEM LN",HOUSTON,TX,77356,"KATY CROSSING",,CONTRACTOR,,,,,,,,,,,"LENNAR HOMES",,,,,"LENNAR HOMES","550 GREENS PKWY",HOUSTON,TX,77067-4537,"(281) 875-1000",http://www.lennar.com/,,,
TX,HARRIS,2007090109,"Single Family Homes",7/16/2020,,103050,2291,"4774 AVELLINO BASE DR",HOUSTON,TX,77356,"VENTANA LAKES",,CONTRACTOR,,,,,,,,,,,"DR HORTON",,,,,"DR HORTON","14100 SOUTHWEST",HOUSTON,TX,77478,"(281) 201-5559",,,,
TX,HARRIS,2007070092,"Single Family Homes",7/16/2020,,157040,2416,"5810 BIG BLUESTEM LN",HOUSTON,TX,77356,"KATY CROSSING",,CONTRACTOR,,,,,,,,,,,"LENNAR HOMES",,,,,"LENNAR HOMES","550 GREENS PKWY",HOUSTON,TX,77067-4537,"(281) 875-1000",http://www.lennar.com/,,,
TX,HARRIS,2007070012,"Single Family Homes",7/16/2020,,85428,2459,"4807 AVELLINO BASE DR",HOUSTON,TX,77356,"VENTANA LAKES",,CONTRACTOR,,,,,,,,,,,"DR HORTON",,,,,"DR HORTON","14100 SOUTHWEST",HOUSTON,TX,77478,"(281) 201-5559",,,,
TX,HARRIS,2007070015,"Single Family Homes",7/16/2020,,75432,2221,"4815 AVELLINO BASE DR",HOUSTON,TX,77356,"VENTANA LAKES",,CONTRACTOR,,,,,,,,,,,"DR HORTON",,,,,"DR HORTON","14100 SOUTHWEST",HOUSTON,TX,77478,"(281) 201-5559",,,,
TX,HARRIS,2007070014,"Single Family Homes",7/16/2020,,71064,2117,"4811 AVELLINO BASE DR",HOUSTON,TX,77356,"VENTANA LAKES",,CONTRACTOR,,,,,,,,,,,"DR HORTON",,,,,"DR HORTON","14100 SOUTHWEST",HOUSTON,TX,77478,"(281) 201-5559",,,,
TX,HARRIS,2007070013,"Single Family Homes",7/16/2020,,114786,3158,"4810 AVELLINO BASE DR",HOUSTON,TX,77356,"VENTANA LAKES",,CONTRACTOR,,,,,,,,,,,"DR HORTON",,,,,"DR HORTON","14100 SOUTHWEST",HOUSTON,TX,77478,"(281) 201-5559",,,,
TX,HARRIS,2007070017,"Single Family Homes",7/16/2020,,85428,2459,"22814 PALERMO RIM LN",HOUSTON,TX,77356,"VENTANA LAKES",,CONTRACTOR,,,,,,,,,,,"DR HORTON",,,,,"DR HORTON","14100 SOUTHWEST",HOUSTON,TX,77478,"(281) 201-5559",,,,
TX,HARRIS,2007070016,"Single Family Homes",7/16/2020,,114786,3158,"4803 AVELLINO BASE DR",HOUSTON,TX,77356,"VENTANA LAKES",,CONTRACTOR,,,,,,,,,,,"DR HORTON",,,,,"DR HORTON","14100 SOUTHWEST",HOUSTON,TX,77478,"(281) 201-5559",,,,
TX,HARRIS,2007060170,"Single Family Homes",7/16/2020,,65478,1984,"22714 TUSCANY RIDGE LN",HOUSTON,TX,77356,"VENTANA LAKES",,CONTRACTOR,,,,,,,,,,,"DR HORTON",,,,,"DR HORTON","14100 SOUTHWEST",HOUSTON,TX,77478,"(281) 201-5559",,,,
TX,HARRIS,2007070003,"Single Family Homes",7/16/2020,,107562,2986,"22922 TUSCANY RIDGE LN",HOUSTON,TX,77356,"VENTANA LAKES",,CONTRACTOR,,,,,,,,,,,"DR HORTON",,,,,"DR HORTON","14100 SOUTHWEST",HOUSTON,TX,77478,"(281) 201-5559",,,,
TX,HARRIS,2007060172,"Single Family Homes",7/16/2020,,71065,2117,"22718 TUSCANY RIDGE LN",HOUSTON,TX,77356,"VENTANA LAKES",,CONTRACTOR,,,,,,,,,,,"DR HORTON",,,,,"DR HORTON","14100 SOUTHWEST",HOUSTON,TX,77478,"(281) 201-5559",,,,
TX,HARRIS,2007070005,"Single Family Homes",7/16/2020,,76902,2256,"4750 AVELLINO BASE DR",HOUSTON,TX,77356,"VENTANA LAKES",,CONTRACTOR,,,,,,,,,,,"DR HORTON",,,,,"DR HORTON","14100 SOUTHWEST",HOUSTON,TX,77478,"(281) 201-5559",,,,
TX,HARRIS,2007070004,"Single Family Homes",7/16/2020,,114786,3158,"4746 AVELLINO BASE DR",HOUSTON,TX,77356,"VENTANA LAKES",,CONTRACTOR,,,,,,,,,,,"DR HORTON",,,,,"DR HORTON","14100 SOUTHWEST",HOUSTON,TX,77478,"(281) 201-5559",,,,
TX,HARRIS,2007060181,"Single Family Homes",7/16/2020,,65478,1984,"22806 TUSCANY RIDGE LN",HOUSTON,TX,77356,"VENTANA LAKES",,CONTRACTOR,,,,,,,,,,,"DR HORTON",,,,,"DR HORTON","14100 SOUTHWEST",HOUSTON,TX,77478,"(281) 201-5559",,,,
TX,HARRIS,2007060180,"Single Family Homes",7/16/2020,,75432,2221,"22803 TUSCANY RIDGE LN",HOUSTON,TX,77356,"VENTANA LAKES",,CONTRACTOR,,,,,,,,,,,"DR HORTON",,,,,"DR HORTON","14100 SOUTHWEST",HOUSTON,TX,77478,"(281) 201-5559",,,,
TX,HARRIS,2007060183,"Single Family Homes",7/16/2020,,75432,2221,"22810 TUSCANY RIDGE LN",HOUSTON,TX,77356,"VENTANA LAKES",,CONTRACTOR,,,,,,,,,,,"DR HORTON",,,,,"DR HORTON","14100 SOUTHWEST",HOUSTON,TX,77478,"(281) 201-5559",,,,
TX,HARRIS,2007060182,"Single Family Homes",7/16/2020,,71064,2117,"22807 TUSCANY RIDGE LN",HOUSTON,TX,77356,"VENTANA LAKES",,CONTRACTOR,,,,,,,,,,,"DR HORTON",,,,,"DR HORTON","14100 SOUTHWEST",HOUSTON,TX,77478,"(281) 201-5559",,,,
TX,HARRIS,2007060185,"Single Family Homes",7/16/2020,,71064,2117,"22814 TUSCANY RIDGE LN",HOUSTON,TX,77356,"VENTANA LAKES",,CONTRACTOR,,,,,,,,,,,"DR HORTON",,,,,"DR HORTON","14100 SOUTHWEST",HOUSTON,TX,77478,"(281) 201-5559",,,,
TX,HARRIS,2007060184,"Single Family Homes",7/16/2020,,85428,2459,"22811 TUSCANY RIDGE LN",HOUSTON,TX,77356,"VENTANA LAKES",,CONTRACTOR,,,,,,,,,,,"DR HORTON",,,,,"DR HORTON","14100 SOUTHWEST",HOUSTON,TX,77478,"(281) 201-5559",,,,
TX,HARRIS,2007060187,"Single Family Homes",7/16/2020,,76902,2256,"22818 TUSCANY RIDGE LN",HOUSTON,TX,77356,"VENTANA LAKES",,CONTRACTOR,,,,,,,,,,,"DR HORTON",,,,,"DR HORTON","14100 SOUTHWEST",HOUSTON,TX,77478,"(281) 201-5559",,,,
TX,HARRIS,2007060186,"Single Family Homes",7/16/2020,,114786,3158,"22815 TUSCANY RIDGE LN",HOUSTON,TX,77356,"VENTANA LAKES",,CONTRACTOR,,,,,,,,,,,"DR HORTON",,,,,"DR HORTON","14100 SOUTHWEST",HOUSTON,TX,77478,"(281) 201-5559",,,,
TX,HARRIS,2007060189,"Single Family Homes",7/16/2020,,96348,2719,"22822 TUSCANY RIDGE LN",HOUSTON,TX,77356,"VENTANA LAKES",,CONTRACTOR,,,,,,,,,,,"DR HORTON",,,,,"DR HORTON","14100 SOUTHWEST",HOUSTON,TX,77478,"(281) 201-5559",,,,
TX,HARRIS,2007060188,"Single Family Homes",7/16/2020,,75432,2221,"22819 TUSCANY RIDGE LN",HOUSTON,TX,77356,"VENTANA LAKES",,CONTRACTOR,,,,,,,,,,,"DR HORTON",,,,,"DR HORTON","14100 SOUTHWEST",HOUSTON,TX,77478,"(281) 201-5559",,,,
TX,HARRIS,2007060191,"Single Family Homes",7/16/2020,,71064,2117,"22903 TUSCANY RIDGE LN",HOUSTON,TX,77356,"VENTANA LAKES",,CONTRACTOR,,,,,,,,,,,"DR HORTON",,,,,"DR HORTON","14100 SOUTHWEST",HOUSTON,TX,77478,"(281) 201-5559",,,,
TX,HARRIS,2007060190,"Single Family Homes",7/16/2020,,75432,2221,"22902 TUSCANY RIDGE LN",HOUSTON,TX,77356,"VENTANA LAKES",,CONTRACTOR,,,,,,,,,,,"DR HORTON",,,,,"DR HORTON","14100 SOUTHWEST",HOUSTON,TX,77478,"(281) 201-5559",,,,
TX,HARRIS,2007060193,"Single Family Homes",7/16/2020,,75432,2221,"22907 TUSCANY RIDGE LN",HOUSTON,TX,77356,"VENTANA LAKES",,CONTRACTOR,,,,,,,,,,,"DR HORTON",,,,,"DR HORTON","14100 SOUTHWEST",HOUSTON,TX,77478,"(281) 201-5559",,,,
TX,HARRIS,2007060192,"Single Family Homes",7/16/2020,,85428,2459,"22906 TUSCANY RIDGE LN",HOUSTON,TX,77356,"VENTANA LAKES",,CONTRACTOR,,,,,,,,,,,"DR HORTON",,,,,"DR HORTON","14100 SOUTHWEST",HOUSTON,TX,77478,"(281) 201-5559",,,,
TX,HARRIS,2007070001,"Single Family Homes",7/16/2020,,71064,2117,"22914 TUSCANY RIDGE LN",HOUSTON,TX,77356,"VENTANA LAKES",,CONTRACTOR,,,,,,,,,,,"DR HORTON",,,,,"DR HORTON","14100 SOUTHWEST",HOUSTON,TX,77478,"(281) 201-5559",,,,
TX,HARRIS,2007060194,"Single Family Homes",7/16/2020,,85512,2461,"22910 TUSCANY RIDGE LN",HOUSTON,TX,77356,"VENTANA LAKES",,CONTRACTOR,,,,,,,,,,,"DR HORTON",,,,,"DR HORTON","14100 SOUTHWEST",HOUSTON,TX,77478,"(281) 201-5559",,,,
TX,HARRIS,2007070007,"Single Family Homes",7/16/2020,,71064,2117,"4758 AVELLINO BASE DR",HOUSTON,TX,77356,"VENTANA LAKES",,CONTRACTOR,,,,,,,,,,,"DR HORTON",,,,,"DR HORTON","14100 SOUTHWEST",HOUSTON,TX,77478,"(281) 201-5559",,,,
TX,HARRIS,2007070002,"Single Family Homes",7/16/2020,,65478,1984,"22918 TUSCANY RIDGE LN",HOUSTON,TX,77356,"VENTANA LAKES",,CONTRACTOR,,,,,,,,,,,"DR HORTON",,,,,"DR HORTON","14100 SOUTHWEST",HOUSTON,TX,77478,"(281) 201-5559",,,,
TX,HARRIS,2007070009,"Single Family Homes",7/16/2020,,76902,2256,"4766 AVELLINO BASE DR",HOUSTON,TX,77356,"VENTANA LAKES",,CONTRACTOR,,,,,,,,,,,"DR HORTON",,,,,"DR HORTON","14100 SOUTHWEST",HOUSTON,TX,77478,"(281) 201-5559",,,,
TX,HARRIS,2007070008,"Single Family Homes",7/16/2020,,114786,3158,"4762 AVELLINO BASE DR",HOUSTON,TX,77356,"VENTANA LAKES",,CONTRACTOR,,,,,,,,,,,"DR HORTON",,,,,"DR HORTON","14100 SOUTHWEST",HOUSTON,TX,77478,"(281) 201-5559",,,,
TX,HARRIS,2007070011,"Single Family Homes",7/16/2020,,65478,1984,"4802 AVELLINO BASE DR",HOUSTON,TX,77356,"VENTANA LAKES",,CONTRACTOR,,,,,,,,,,,"DR HORTON",,,,,"DR HORTON","14100 SOUTHWEST",HOUSTON,TX,77478,"(281) 201-5559",,,,
TX,HARRIS,2007070010,"Single Family Homes",7/16/2020,,75432,2221,"4770 AVELLINO BASE DR",HOUSTON,TX,77356,"VENTANA LAKES",,CONTRACTOR,,,,,,,,,,,"DR HORTON",,,,,"DR HORTON","14100 SOUTHWEST",HOUSTON,TX,77478,"(281) 201-5559",,,,
TX,HARRIS,2005220097,"Single Family Homes",7/16/2020,,356175,3835,"15127 ROJO GRANDE TRL",HOUSTON,TX,77356,"BRIDGELAND PARKLAND VILLAGE",,CONTRACTOR,,,,,,,,,,,"PERRY HOMES",,,,,"PERRY HOMES","9000 GULF FWY",HOUSTON,TX,77017-7018,"(713) 417-1396",,,,
TX,HARRIS,2007070006,"Single Family Homes",7/16/2020,,75432,2221,"4754 AVELLINO BASE DR",HOUSTON,TX,77356,"VENTANA LAKES",,CONTRACTOR,,,,,,,,,,,"DR HORTON",,,,,"DR HORTON","14100 SOUTHWEST",HOUSTON,TX,77478,"(281) 201-5559",,,,
TX,HARRIS,2007060169,"Single Family Homes",7/16/2020,,71064,2117,"22711 TUSCANY RIDGE LN",HOUSTON,TX,77356,"VENTANA LAKES",,CONTRACTOR,,,,,,,,,,,"DR HORTON",,,,,"DR HORTON","14100 SOUTHWEST",HOUSTON,TX,77478,"(281) 201-5559",,,,
TX,HARRIS,2007060174,"Single Family Homes",7/16/2020,,75432,2221,"22719 TUSCANY RIDGE LN",HOUSTON,TX,77356,"VENTANA LAKES",,CONTRACTOR,,,,,,,,,,,"DR HORTON",,,,,"DR HORTON","14100 SOUTHWEST",HOUSTON,TX,77478,"(281) 201-5559",,,,
TX,HARRIS,2007060171,"Single Family Homes",7/16/2020,,76902,2256,"22715 TUSCANY RIDGE LN",HOUSTON,TX,77356,"VENTANA LAKES",,CONTRACTOR,,,,,,,,,,,"DR HORTON",,,,,"DR HORTON","14100 SOUTHWEST",HOUSTON,TX,77478,"(281) 201-5559",,,,
TX,HARRIS,2007060176,"Single Family Homes",7/16/2020,,114786,3158,"22723 TUSCANY RIDGE LN",HOUSTON,TX,77356,"VENTANA LAKES",,CONTRACTOR,,,,,,,,,,,"DR HORTON",,,,,"DR HORTON","14100 SOUTHWEST",HOUSTON,TX,77478,"(281) 201-5559",,,,
TX,HARRIS,2007060175,"Single Family Homes",7/16/2020,,107562,2986,"22722 TUSCANY RIDGE LN",HOUSTON,TX,77356,"VENTANA LAKES",,CONTRACTOR,,,,,,,,,,,"DR HORTON",,,,,"DR HORTON","14100 SOUTHWEST",HOUSTON,TX,77478,"(281) 201-5559",,,,
TX,HARRIS,2007060178,"Single Family Homes",7/16/2020,,71065,2117,"22727 TUSCANY RIDGE LN",HOUSTON,TX,77356,"VENTANA LAKES",,CONTRACTOR,,,,,,,,,,,"DR HORTON",,,,,"DR HORTON","14100 SOUTHWEST",HOUSTON,TX,77478,"(281) 201-5559",,,,
TX,HARRIS,2007060177,"Single Family Homes",7/16/2020,,75432,2221,"22726 TUSCANY RIDGE LN",HOUSTON,TX,77356,"VENTANA LAKES",,CONTRACTOR,,,,,,,,,,,"DR HORTON",,,,,"DR HORTON","14100 SOUTHWEST",HOUSTON,TX,77478,"(281) 201-5559",,,,
TX,HARRIS,2007010099,"Single Family Homes",7/16/2020,,112700,2007,"15203 LAKE ERIE DR",HOUSTON,TX,77356,"BALMORAL PARK LAKES",,CONTRACTOR,,,,,,,,,,,"K HOVNANIAN HOMES",,,,,"K HOVNANIAN HOMES","13111 NORTHWEST FWY STE 200",HOUSTON,TX,77040-6311,"(713) 460-0264",,,,
TX,HARRIS,2007060179,"Single Family Homes",7/16/2020,,114786,3158,"22802 TUSCANY RIDGE LN",HOUSTON,TX,77356,"VENTANA LAKES",,CONTRACTOR,,,,,,,,,,,"DR HORTON",,,,,"DR HORTON","14100 SOUTHWEST",HOUSTON,TX,77478,"(281) 201-5559",,,,
TX,HARRIS,2007020001,"Single Family Homes",7/16/2020,,1257050,2241,"22914 MODICA RIFT LN",HOUSTON,TX,77356,"VENTANA LAKES",,CONTRACTOR,,,,,,,,,,,"DR HORTON",,,,,"DR HORTON","14100 SOUTHWEST",HOUSTON,TX,77478,"(281) 201-5559",,,,
TX,HARRIS,2007010113,"Single Family Homes",7/16/2020,,780000,7565,"10 PRONGHORN PL",HOUSTON,TX,77356,"THE WOODLANDS CARLTON WOODS",,"DAVID W SCOTT","10 PRONGHORN PL",HOUSTON,TX,77356,,Owner,,,,,OWNER,,,,,OWNER,,,,,,,,,
TX,HARRIS,2007020003,"Single Family Homes",7/16/2020,,169650,2331,"22714 PALERMO RIM LANE RD",HOUSTON,TX,77356,"VENTANA LAKES",,CONTRACTOR,,,,,,,,,,,"DR HORTON",,,,,"DR HORTON","14100 SOUTHWEST",HOUSTON,TX,77478,"(281) 201-5559",,,,
TX,HARRIS,2007020002,"Single Family Homes",7/16/2020,,91350,2699,"22915 MODICA RIFT LN",HOUSTON,TX,77356,"VENTANA LAKES",,CONTRACTOR,,,,,,,,,,,"DR HORTON",,,,,"DR HORTON","14100 SOUTHWEST",HOUSTON,TX,77478,"(281) 201-5559",,,,
TX,HARRIS,2007020005,"Single Family Homes",7/16/2020,,107550,2390,"22722 PALERMO RIM LN",HOUSTON,TX,77356,"VENTANA LAKES",,CONTRACTOR,,,,,,,,,,,"DR HORTON",,,,,"DR HORTON","14100 SOUTHWEST",HOUSTON,TX,77478,"(281) 201-5559",,,,
TX,HARRIS,2007020004,"Single Family Homes",7/16/2020,,103050,2290,"22718 PALERMO RIM LN",HOUSTON,TX,77356,"VENTANA LAKES",,CONTRACTOR,,,,,,,,,,,"DR HORTON",,,,,"DR HORTON","14100 SOUTHWEST",HOUSTON,TX,77478,"(281) 201-5559",,,,
TX,HARRIS,2007020007,"Single Family Homes",7/16/2020,,125640,2132,"22802 PALERMO RIM LN",HOUSTON,TX,77356,"VENTANA LAKES",,CONTRACTOR,,,,,,,,,,,"DR HORTON",,,,,"DR HORTON","14100 SOUTHWEST",HOUSTON,TX,77478,"(281) 201-5559",,,,
TX,HARRIS,2007020006,"Single Family Homes",7/16/2020,,112515,2501,"22726 PALERMO RIM LN",HOUSTON,TX,77356,"VENTANA LAKES",,CONTRACTOR,,,,,,,,,,,"DR HORTON",,,,,"DR HORTON","14100 SOUTHWEST",HOUSTON,TX,77478,"(281) 201-5559",,,,
TX,HARRIS,2007020009,"Single Family Homes",7/16/2020,,95130,2141,"22810 PALERMO RIM LN",HOUSTON,TX,77356,"VENTANA LAKES",,CONTRACTOR,,,,,,,,,,,"DR HORTON",,,,,"DR HORTON","14100 SOUTHWEST",HOUSTON,TX,77478,"(281) 201-5559",,,,
TX,HARRIS,2007020008,"Single Family Homes",7/16/2020,,91350,2699,"22806 PALERMO RIM LN",HOUSTON,TX,77356,"VENTANA LAKES",,CONTRACTOR,,,,,,,,,,,"DR HORTON",,,,,"DR HORTON","14100 SOUTHWEST",HOUSTON,TX,77478,"(281) 201-5559",,,,
TX,HARRIS,2007020017,"Single Family Homes",7/16/2020,,107550,2388,"4743 ALBA ASH LN",HOUSTON,TX,77356,"VENTANA LAKES",,CONTRACTOR,,,,,,,,,,,"DR HORTON",,,,,"DR HORTON","14100 SOUTHWEST",HOUSTON,TX,77478,"(281) 201-5559",,,,
TX,HARRIS,2007020016,"Single Family Homes",7/16/2020,,112515,2501,"4742 ALBA ASH LN",HOUSTON,TX,77356,"VENTANA LAKES",,CONTRACTOR,,,,,,,,,,,"DR HORTON",,,,,"DR HORTON","14100 SOUTHWEST",HOUSTON,TX,77478,"(281) 201-5559",,,,
TX,HARRIS,2007020019,"Single Family Homes",7/16/2020,,95130,2114,"4751 ALBA ASH LN",HOUSTON,TX,77356,"VENTANA LAKES",,CONTRACTOR,,,,,,,,,,,"DR HORTON",,,,,"DR HORTON","14100 SOUTHWEST",HOUSTON,TX,77478,"(281) 201-5559",,,,
TX,HARRIS,2007020018,"Single Family Homes",7/16/2020,,103050,2291,"4747 ALBA ASH LN",HOUSTON,TX,77356,"VENTANA LAKES",,CONTRACTOR,,,,,,,,,,,"DR HORTON",,,,,"DR HORTON","14100 SOUTHWEST",HOUSTON,TX,77478,"(281) 201-5559",,,,
TX,HARRIS,2007020020,"Single Family Homes",7/16/2020,,169650,2331,"4755 ALBA ASH LN",HOUSTON,TX,77356,"VENTANA LAKES",,CONTRACTOR,,,,,,,,,,,"DR HORTON",,,,,"DR HORTON","14100 SOUTHWEST",HOUSTON,TX,77478,"(281) 201-5559",,,,
TX,HARRIS,2007020011,"Single Family Homes",7/16/2020,,107550,2390,"22822 PALERMO RIM LN",HOUSTON,TX,77356,"VENTANA LAKES",,CONTRACTOR,,,,,,,,,,,"DR HORTON",,,,,"DR HORTON","14100 SOUTHWEST",HOUSTON,TX,77478,"(281) 201-5559",,,,
TX,HARRIS,2007020010,"Single Family Homes",7/16/2020,,103050,2291,"22818 PALERMO RIM LN",HOUSTON,TX,77356,"VENTANA LAKES",,CONTRACTOR,,,,,,,,,,,"DR HORTON",,,,,"DR HORTON","14100 SOUTHWEST",HOUSTON,TX,77478,"(281) 201-5559",,,,
TX,HARRIS,2007020013,"Single Family Homes",7/16/2020,,95130,2114,"4734 ALBA ASH LN",HOUSTON,TX,77356,"VENTANA LAKES",,CONTRACTOR,,,,,,,,,,,"DR HORTON",,,,,"DR HORTON","14100 SOUTHWEST",HOUSTON,TX,77478,"(281) 201-5559",,,,
TX,HARRIS,2007020012,"Single Family Homes",7/16/2020,,103050,2290,"4730 ALBA ASH LN",HOUSTON,TX,77356,"VENTANA LAKES",,CONTRACTOR,,,,,,,,,,,"DR HORTON",,,,,"DR HORTON","14100 SOUTHWEST",HOUSTON,TX,77478,"(281) 201-5559",,,,
TX,HARRIS,2006300052,"Single Family Homes",7/16/2020,,171340,2636,"5830 BIG BLUESTEM LN",HOUSTON,TX,77356,"KATY CROSSING",,CONTRACTOR,,,,,,,,,,,"LENNAR HOMES",,,,,"LENNAR HOMES","550 GREENS PKWY",HOUSTON,TX,77067-4537,"(281) 875-1000",http://www.lennar.com/,,,
TX,HARRIS,2007020014,"Single Family Homes",7/16/2020,,91350,2699,"4738 ALBA ASH LN",HOUSTON,TX,77356,"VENTANA LAKES",,CONTRACTOR,,,,,,,,,,,"DR HORTON",,,,,"DR HORTON","14100 SOUTHWEST",HOUSTON,TX,77478,"(281) 201-5559",,,,
TX,HARRIS,2007070032,"Single Family Homes",7/16/2020,,197000,3032,"4607 CEDAR SAGE DR",HOUSTON,TX,77356,"ASHBEL CROSSING",,CONTRACTOR,,,,,,,,,,,"LENNAR HOMES",,,,,"LENNAR HOMES","550 GREENS PKWY",HOUSTON,TX,77067-4537,"(281) 875-1000",http://www.lennar.com/,,,
TX,HARRIS,2007060111,"Single Family Homes",7/16/2020,,236790,2308,"17803 FRIESIAN PASTURES CT",HOUSTON,TX,77356,WINDROW,,CONTRACTOR,,,,,,,,,,,"PULTE HOMES",,,,,"PULTE HOMES","16670 PARK ROW",HOUSTON,TX,77084-6866,"(281) 749-8000",,,,
TX,HARRIS,2007060114,"Single Family Homes",7/16/2020,,212670,2029,"23938 BUSHEL PARK DR",HOUSTON,TX,77356,WINDROW,,CONTRACTOR,,,,,,,,,,,"PULTE HOMES",,,,,"PULTE HOMES","16670 PARK ROW",HOUSTON,TX,77084-6866,"(281) 749-8000",,,,
TX,HARRIS,2007070180,"Single Family Homes",7/16/2020,,106965,1763,"24031 FARMSTEAD DR",HOUSTON,TX,77356,WINDROW,,CONTRACTOR,,,,,,,,,,,"CASTLEROCK COMMUNITIES",,,,,"CASTLEROCK COMMUNITIES","7670 WOODWAY DR STE 300",HOUSTON,TX,77063-1520,"(713) 600-7000",http://c-rock.com,"(713) 600-0000",,
TX,HARRIS,2007070182,"Single Family Homes",7/16/2020,,190000,2596,"7235 MERRYLANDS DR",HOUSTON,TX,77356,MERRYLANDS,,CONTRACTOR,,,,,,,,,,,"LEGEND HOMES",,,,,"LEGEND HOMES","10410 WINDAMERE LAKES BLVD",HOUSTON,TX,77065-4996,"(281) 671-9060",http://legendhomecorp.com/,"(281) 671-9055",,
TX,HARRIS,2007070183,"Single Family Homes",7/16/2020,,194000,2433,"17618 HARBOURFRONT RD",HOUSTON,TX,77356,MERRYLANDS,,CONTRACTOR,,,,,,,,,,,"LEGEND HOMES",,,,,"LEGEND HOMES","10410 WINDAMERE LAKES BLVD",HOUSTON,TX,77065-4996,"(281) 671-9060",http://legendhomecorp.com/,"(281) 671-9055",,
TX,HARRIS,2007060002,"Single Family Homes",7/16/2020,,89505,1989,"2418 RAINIER MIST RD",HOUSTON,TX,77356,BRECKENRIDGE,,CONTRACTOR,,,,,,,,,,,"DR HORTON",,,,,"DR HORTON","14100 SOUTHWEST",HOUSTON,TX,77478,"(281) 201-5559",,,,
TX,HARRIS,2007060157,"Single Family Homes",7/16/2020,,105737,2459,"8002 TAMARIND LN",HOUSTON,TX,77356,"SPRINGFIELD ESTATES",,CONTRACTOR,,,,,,,,,,,"DR HORTON",,,,,"DR HORTON","14100 SOUTHWEST",HOUSTON,TX,77478,"(281) 201-5559",,,,
TX,HARRIS,2007070045,"Single Family Homes",7/16/2020,,132975,2132,"2326 GEORGINA FALLS DR",HOUSTON,TX,77356,BRECKENRIDGE,,CONTRACTOR,,,,,,,,,,,"DR HORTON",,,,,"DR HORTON","14100 SOUTHWEST",HOUSTON,TX,77478,"(281) 201-5559",,,,
TX,HARRIS,2007070046,"Single Family Homes",7/16/2020,,100800,2240,"2322 GEORGINA FALLS DR",HOUSTON,TX,77356,BRECKENRIDGE,,CONTRACTOR,,,,,,,,,,,"DR HORTON",,,,,"DR HORTON","14100 SOUTHWEST",HOUSTON,TX,77478,"(281) 201-5559",,,,
TX,HARRIS,2007070048,"Single Family Homes",7/16/2020,,107460,2388,"23714 HARROW FIELD LN",HOUSTON,TX,77356,BRECKENRIDGE,,CONTRACTOR,,,,,,,,,,,"DR HORTON",,,,,"DR HORTON","14100 SOUTHWEST",HOUSTON,TX,77478,"(281) 201-5559",,,,
TX,HARRIS,2007070049,"Single Family Homes",7/16/2020,,132975,2132,"23706 HARROW FIELD LN",HOUSTON,TX,77356,BRECKENRIDGE,,CONTRACTOR,,,,,,,,,,,"DR HORTON",,,,,"DR HORTON","14100 SOUTHWEST",HOUSTON,TX,77478,"(281) 201-5559",,,,
TX,HARRIS,2007070051,"Single Family Homes",7/16/2020,,132885,2208,"23702 HARROW FIELD LN",HOUSTON,TX,77356,BRECKENRIDGE,,CONTRACTOR,,,,,,,,,,,"DR HORTON",,,,,"DR HORTON","14100 SOUTHWEST",HOUSTON,TX,77478,"(281) 201-5559",,,,
TX,HARRIS,2007070053,"Single Family Homes",7/16/2020,,89505,2348,"23622 HARROW FIELD LN",HOUSTON,TX,77356,BRECKENRIDGE,,CONTRACTOR,,,,,,,,,,,"DR HORTON",,,,,"DR HORTON","14100 SOUTHWEST",HOUSTON,TX,77478,"(281) 201-5559",,,,
TX,HARRIS,2007070058,"Single Family Homes",7/16/2020,,96525,2165,"23614 HARROW FIELD LN",HOUSTON,TX,77356,BRECKENRIDGE,,CONTRACTOR,,,,,,,,,,,"DR HORTON",,,,,"DR HORTON","14100 SOUTHWEST",HOUSTON,TX,77478,"(281) 201-5559",,,,
TX,HARRIS,2007070060,"Single Family Homes",7/16/2020,,100800,2240,"23610 HARROW FIELD LN",HOUSTON,TX,77356,BRECKENRIDGE,,CONTRACTOR,,,,,,,,,,,"DR HORTON",,,,,"DR HORTON","14100 SOUTHWEST",HOUSTON,TX,77478,"(281) 201-5559",,,,
TX,HARRIS,2007070061,"Single Family Homes",7/16/2020,,107460,2388,"23606 HARROW FIELD LN",HOUSTON,TX,77356,BRECKENRIDGE,,CONTRACTOR,,,,,,,,,,,"DR HORTON",,,,,"DR HORTON","14100 SOUTHWEST",HOUSTON,TX,77478,"(281) 201-5559",,,,
TX,HARRIS,2007070063,"Single Family Homes",7/16/2020,,132885,2225,"23602 HARROW FIELD LN",HOUSTON,TX,77356,BRECKENRIDGE,,CONTRACTOR,,,,,,,,,,,"DR HORTON",,,,,"DR HORTON","14100 SOUTHWEST",HOUSTON,TX,77478,"(281) 201-5559",,,,
TX,HARRIS,2007070067,"Single Family Homes",7/16/2020,,132975,2132,"23542 HARROW FIELD LN",HOUSTON,TX,77356,BRECKENRIDGE,,CONTRACTOR,,,,,,,,,,,"DR HORTON",,,,,"DR HORTON","14100 SOUTHWEST",HOUSTON,TX,77478,"(281) 201-5559",,,,
TX,HARRIS,2007070071,"Single Family Homes",7/16/2020,,141660,2348,"23538 HARROW FIELD LN",HOUSTON,TX,77356,BRECKENRIDGE,,CONTRACTOR,,,,,,,,,,,"DR HORTON",,,,,"DR HORTON","14100 SOUTHWEST",HOUSTON,TX,77478,"(281) 201-5559",,,,
TX,HARRIS,2007070074,"Single Family Homes",7/16/2020,,112515,2717,"5906 DOVERSHIRE BLUFF WAY",HOUSTON,TX,77356,"DOVERSHIRE PLACE",,CONTRACTOR,,,,,,,,,,,"DR HORTON",,,,,"DR HORTON","14100 SOUTHWEST",HOUSTON,TX,77478,"(281) 201-5559",,,,
TX,HARRIS,2007070079,"Single Family Homes",7/16/2020,,131175,2915,"5902 DOVERSHIRE BLUFF WAY",HOUSTON,TX,77356,"DOVERSHIRE PLACE",,CONTRACTOR,,,,,,,,,,,"DR HORTON",,,,,"DR HORTON","14100 SOUTHWEST",HOUSTON,TX,77478,"(281) 201-5559",,,,
TX,HARRIS,2007070082,"Single Family Homes",7/16/2020,,103050,2507,"24519 CHARLTON GREEN LN",HOUSTON,TX,77356,"DOVERSHIRE PLACE",,CONTRACTOR,,,,,,,,,,,"DR HORTON",,,,,"DR HORTON","14100 SOUTHWEST",HOUSTON,TX,77478,"(281) 201-5559",,,,
TX,HARRIS,2007070089,"Single Family Homes",7/16/2020,,107550,2604,"24603 CHARLTON GREEN LN",HOUSTON,TX,77356,"DOVERSHIRE PLACE",,CONTRACTOR,,,,,,,,,,,"DR HORTON",,,,,"DR HORTON","14100 SOUTHWEST",HOUSTON,TX,77478,"(281) 201-5559",,,,
TX,HARRIS,19013620,"Warehouse & Manufacturing",8/5/2020,,400000,,"9050 WALD RD BLD",HOUSTON,TX,77034,,,CONTRACTOR,,,,,,,,,,,"BENCHMARK CONSTRUCTION",,,,,"BENCHMARK CONSTRUCTION","650 N SAM HOUSTON PKWY E STE 500",HOUSTON,TX,77060-5918,"(713) 921-2500",http://www.benchmarkhouston.com/,"(713) 921-2549",,tdadoly@benchmarkhouston.com
TX,HARRIS,20028450,"Warehouse & Manufacturing",8/6/2020,,2614288,,"12711 WESTHEIMER RD BLD",HOUSTON,TX,77077,,,CONTRACTOR,,,,,,,,,,,"SOVRAN AQUISITION",,,,,"SOVRAN AQUISITION","6467 MAIN",HOUSTON,TX,14221,"(281) 382-7575",,,,
TX,HARRIS,20060165,"Warehouse & Manufacturing",8/12/2020,Renovation,119000,,"15730 PARK ROW DR",HOUSTON,TX,77084,,,CONTRACTOR,,,,,,,,,,,"ANGLER CONSTRUCTION",,,,,"ANGLER CONSTRUCTION","5005 WOODWAY",HOUSTON,TX,77056,"(713) 629-5860",http://anglerco.com/,,,
TX,HARRIS,20058119,"Warehouse & Manufacturing",8/14/2020,Renovation,940000,,"2710 REED RD",HOUSTON,TX,77051,,,CONTRACTOR,,,,,,,,,,,"BELLICUM PHARMACEUTICALS",,,,,"BELLICUM PHARMACEUTICALS","2130 WEST HOLCOMBE BOULEVARD, SUITE 800.",HOUSTON,TX,77030,"(832) 384-1100",,,,
