state,county,permno,ptype,pdate,pdescription,jvalue,jsqfeet,jaddr,jcity,jstate,jzip,jsubdiv,jlotno,aname,aaddr,acity,astate,azip,aphone,atype,aurl,afax,aprimarycontact,aemail,bldcode,units,bldgs,ctype,legal,contractor,caddress,ccity,cstate,czip,cphone,curl,cfax,cprimarycontact,cemail
TX,HARRIS,1912020140,"Auto Sales & Services",5/15/2020,,750000,4068,"6850 FRY RD",HOUSTON,TX,77356,,,"JIFFY LUBE","6850 FRY RD",HOUSTON,TX,77356,,Owner,,,,,OWNER,,,,,OWNER,,,,,,,,,
TX,HARRIS,1911260055,"Auto Sales & Services",5/15/2020,,7381489,74110,"19333 I-45 NORTH FWY",HOUSTON,TX,77356,,,DEMONTROND,"19333 I-45 NORTH FWY",HOUSTON,TX,77356,,Owner,,,,,OWNER,,,,,OWNER,,,,,,,,,
TX,HARRIS,20041762,"Auto Sales & Services",6/30/2020,Renovation,878452,,"10050 SOUTHWEST",HOUSTON,TX,77074,,,"JIHAD OTHMAN","7007 DISCOVERY",HOUSTON,TX,43017,"(949) 266-7086",Applicant,,,,,OWNER,,,,,OWNER,,,,,,,,,
TX,HARRIS,20000153,"Commercial Swimming Pool & Spas",6/30/2020,,64800,,"6400 WASHINGTON AVE BLD",HOUSTON,TX,77007,,,CONTRACTOR,,,,,,,,,,,"PATIO POOLS OF HOUSTON",,,,,"PATIO POOLS OF HOUSTON","5904 FAIRDALE LN",HOUSTON,TX,77057-6307,"(713) 789-1710",http://www.patio-pools.com/,"(713) 789-0715",,info@patio-pools.com
TX,"FORT BEND",COM1901496,"Educational Institution",5/7/2020,Renovation,250000,,"3019 FM 1092 RD","MISSOURI CITY",TX,77459,,,CONTRACTOR,,,,,,,,,,,"JR THOMAS GROUP",,,,,"JR THOMAS GROUP","3857 WICHITA ST",HOUSTON,TX,77004-6536,"(713) 429-3694",,,,
TX,"FORT BEND",COM1901528,"Educational Institution",5/28/2020,Renovation,89841,,"695 INDEPENDENCE BLVD","MISSOURI CITY",TX,77489,,,CONTRACTOR,,,,,,,,,,,"CRAIN GROUP",,,,,"CRAIN GROUP","2635 MILLER RANCH RD",PEARLAND,TX,77584-5609,"(713) 436-8727",http://www.craingroup.com/,"(713) 436-8730","BRAD CRAIN",lisa@crainzamora.com
TX,"FORT BEND",COM1901556,"Educational Institution",5/1/2020,Renovation,1043411,,"1510 COLUMBIA BLUE DR","MISSOURI CITY",TX,77489,,,"RDLR ARCHITECTS","800 SAMPSON ST STE104",HOUSTON,TX,77003,"(713) 868-3121",Architect,https://rdlr.com/,,"HOWARD E MERRILL",,OWNER,,,,,OWNER,,,,,,,,,
TX,"FORT BEND",COM2001762,"Educational Institution",5/28/2020,Renovation,1400000,,"1220 BUFFALO RUN","MISSOURI CITY",TX,77489,,,CONTRACTOR,,,,,,,,,,,"CARLOS TORRES CONSTRUCTION",,,,,"CARLOS TORRES CONSTRUCTION","101 23RD ST N","TEXAS CITY",TX,77590,"(409) 599-1143",,,"CARLOS TORRES",
TX,HARRIS,20040123,"Educational Institution",5/27/2020,,600000,14800,"300 W BAKER RD",BAYTOWN,TX,77521,,,CONTRACTOR,,,,,,,,,,,"BARTLETT COCKE CONSTRUCTION",,,,,"BARTLETT COCKE CONSTRUCTION","1750 VALLEY VIEW LN STE 335","FARMERS BRANCH",TX,75234-9036,"(512) 514-8055",http://bartlettcocke.com/,,,
TX,HARRIS,20019450,"Educational Institution",6/25/2020,Renovation,1259000,,"6402 LANGFIELD",HOUSTON,TX,77092,,,CONTRACTOR,,,,,,,,,,,"ICI CONSTRUCTION",,,,,"ICI CONSTRUCTION","24715 W HARDY RD",SPRING,TX,77373-5764,"(281) 355-5151",,"(281) 355-1144",,
TX,HARRIS,1912280007,"Hospital & Other Medical",5/15/2020,,1300000,9742,"23133 MORTON RANCH RD",HOUSTON,TX,77356,,,"JAWAD RAWRA","23133 MORTON RANCH RD",HOUSTON,TX,77356,,Owner,,,,,OWNER,,,,,OWNER,,,,,,,,,
TX,HARRIS,20020038,"Hospital & Other Medical",5/15/2020,,3101945,363500,"4401 GARTH RD",BAYTOWN,TX,77521,,,CONTRACTOR,,,,,,,,,,,"TELLEPSEN BUILDERS",,,,,"TELLEPSEN BUILDERS","777 BENMAR DR STE 400",HOUSTON,TX,77060-3607,"(281) 447-8100",,"(281) 447-8177","HOWARD TELLEPSEN",
TX,BRAZOS,CNEW2019-000011,"Hospital & Other Medical",5/6/2020,,120285,1685,"8175 ATLAS PEAR DR GAR 1","COLLEGE STATION",TX,77845,,,CONTRACTOR,,,,,,,,,,,"HENSLEY LAMKIN RACHEL",,,,,"HENSLEY LAMKIN RACHEL","14881 QUORUM DR STE 550",DALLAS,TX,75254-7092,"(972) 726-9400",http://www.hlrinc.net/,,"ROBERT LAMKIN",INFO@HLRINC.NETMAP
TX,BRAZOS,CTFO2020-000010,"Hospital & Other Medical",5/8/2020,,48000,1148,"3006 BARRON RD 300","COLLEGE STATION",TX,77845,,,CONTRACTOR,,,,,,,,,,,"HANCOCK CUSTOM HOMES",,,,,"HANCOCK CUSTOM HOMES","PO BOX 11214","COLLEGE STATION",TX,77842-1214,"(979) 412-6301",http://www.homesbyhancock.com/,,,info@homesbyhancock.com
TX,BRAZOS,RMDL2020-000049,"Hospital & Other Medical",5/22/2020,,300000,4330,"700 UNIVERSITY DR E 110-B","COLLEGE STATION",TX,77845,,,CONTRACTOR,,,,,,,,,,,"PRAXIS DESIGN BUILD",,,,,"PRAXIS DESIGN BUILD","920 BARCHETTA DR","COLLEGE STATION",TX,77845-4339,"(979) 492-4908",,,,
TX,HARRIS,20050410,"Multi Family Apartments & Condos",5/27/2020,,200000,,"501 MASSEY TOMPKINS RD BLDG",BAYTOWN,TX,77521,,,CONTRACTOR,,,,,,,,,,,"GEMSTAR CONSTRUCTION",,,,,"GEMSTAR CONSTRUCTION","21707 INVERNESS FOREST BLVD",HOUSTON,TX,77073-1339,"(281) 821-1195",http://www.gemstarconstruction.com,"(281) 821-6824",,info@gemstarconstruction.com
TX,BRAZOS,MF2019-000005,"Multi Family Apartments & Condos",5/18/2020,,3393886,47543,"8175 ATLAS PEAR DR BL 3","COLLEGE STATION",TX,77845,,,CONTRACTOR,,,,,,,,,,,"ALLIANCE RESIDENTIAL BUILDERS",,,,,"ALLIANCE RESIDENTIAL BUILDERS","2525 E CAMELBACK RD STE 500",PHOENIX,AZ,85016-4227,"(602) 778-2800",http://www.allresco.com/,,,
TX,BRAZOS,MF2019-000008,"Multi Family Apartments & Condos",5/18/2020,,3393886,47543,"8175 ATLAS PEAR DR BL 5","COLLEGE STATION",TX,77845,,,CONTRACTOR,,,,,,,,,,,"ALLIANCE RESIDENTIAL BUILDERS",,,,,"ALLIANCE RESIDENTIAL BUILDERS","2525 E CAMELBACK RD STE 500",PHOENIX,AZ,85016-4227,"(602) 778-2800",http://www.allresco.com/,,,
TX,BRAZOS,RMDL2020-000052,"Multi Family Renovations & Additions",5/7/2020,Renovation,35000,7232,"1501 ATHENS DR","COLLEGE STATION",TX,77845,,,CONTRACTOR,,,,,,,,,,,"ELLIS CUSTOM HOMES",,,,,"ELLIS CUSTOM HOMES","101 GROVE ST","COLLEGE STATION",TX,77840-2836,"(979) 695-8394",http://www.elliscustomhomes.com,"(979) 764-7999",,
TX,HARRIS,CB-000870-2020,"Offices, R&D, & Professional",5/19/2020,,1400000,20000,"3001 AWESOME LN","DEER PARK",TX,77536,,,CONTRACTOR,,,,,,,,,,,"E & S CONSTRUCTION",,,,,"E & S CONSTRUCTION","PO BOX 5427",PASADENA,TX,77508-5427,"(281) 476-4722",,,,
TX,HARRIS,CB-000923-2020,"Offices, R&D, & Professional",5/26/2020,Renovation,39000,6906,"4400 1/2 SH 225 E","DEER PARK",TX,77536,,,CONTRACTOR,,,,,,,,,,,"GARRISON CONSTRUCTION GROUP",,,,,"GARRISON CONSTRUCTION GROUP","4234 SOUTHWESTERN ST",HOUSTON,TX,77005-3555,"(281) 451-6987",https://garrisonconstructiongroup.com/,,,info@garrisonconstructiongroup.com
TX,HARRIS,20030160,"Offices, R&D, & Professional",5/8/2020,,49950,2880,"7599 GARTH RD STE 500",BAYTOWN,TX,77521,,,"JACK'S GROCERY","7599 GARTH RD STE 500",BAYTOWN,TX,77521,,Owner,,,,,OWNER,,,,,OWNER,,,,,,,,,
TX,BRAZOS,CTFO2020-000011,"Offices, R&D, & Professional",5/8/2020,,45000,1586,"4524 MILLS PARK CIR 100","COLLEGE STATION",TX,77845,,,CONTRACTOR,,,,,,,,,,,"RNL HOME BUILDERS",,,,,"RNL HOME BUILDERS","4253 ROCKY RHODES DRIVE","COLLEGE STATION",TX,77845,"(979) 402-2531",http://www.rnlhomebuilders.com,,,RNLHomebuilders@gmail.com
TX,HARRIS,20044647,"Offices, R&D, & Professional",6/24/2020,Renovation,290000,,"16700 PARK ROW",HOUSTON,TX,77084,,,CONTRACTOR,,,,,,,,,,,"BCHC HOLDING",,,,,"BCHC HOLDING","9219 KATY FWY STE 144",HOUSTON,TX,77024,"(832) 544-1243",,,,
TX,HARRIS,20014175,"Offices, R&D, & Professional",6/24/2020,Renovation,200000,,"4265 SAN FELIPE ST",HOUSTON,TX,77027,,,CONTRACTOR,,,,,,,,,,,"BURTON CONSTRUCTION",,,,,"BURTON CONSTRUCTION","10550 WESTPARK DR",HOUSTON,TX,77042-5231,"(281) 313-5055",http://www.burtonconstruction.com/,,"BRAD BURTON",info@burtonconstruction.com
TX,HARRIS,20054474,"Offices, R&D, & Professional",6/26/2020,Renovation,507431,,"5599 SAN FELIPE ST",HOUSTON,TX,77056,,,CONTRACTOR,,,,,,,,,,,"BYRD INTERIOR CONSTRUCTION",,,,,"BYRD INTERIOR CONSTRUCTION","2123 W GOVERNORS CIR # 100",HOUSTON,TX,77092-8746,"(713) 688-8850",http://www.byrdinterior.com/,,"JOHN BYRD",jbyrd@byrdinterior.com
TX,HARRIS,20051725,"Offices, R&D, & Professional",6/29/2020,Renovation,239108,,"24 GREENWAY PLAZA",HOUSTON,TX,77046,,,CONTRACTOR,,,,,,,,,,,"CANNON ENTERPRISES",,,,,"CANNON ENTERPRISES","230 RILEY FUZZEL RD",SPRING,TX,77373,"(281) 353-6868",,,,
TX,HARRIS,20056357,"Offices, R&D, & Professional",6/25/2020,Renovation,240720,,"717 TEXAS ST",HOUSTON,TX,77002,,,CONTRACTOR,,,,,,,,,,,HINES,,,,,HINES,"2800 POST OAK BLVD",HOUSTON,TX,77056-6100,"(713) 237-5645",https://www.hines.com,,,
TX,HARRIS,20044176,"Offices, R&D, & Professional",6/25/2020,Renovation,47529,,"9360 KIRBY DR",HOUSTON,TX,77054,,,CONTRACTOR,,,,,,,,,,,"HYPERION DEVELOPMENT",,,,,"HYPERION DEVELOPMENT","4501 MAGNOLIA COVE DR",KINGWOOD,TX,77345-2252,"(281) 359-1177",,,,
TX,HARRIS,20051402,"Offices, R&D, & Professional",6/29/2020,Renovation,32000,,"16225 PARK TEN PLACE",HOUSTON,TX,77084,,,CONTRACTOR,,,,,,,,,,,"JEM CONSTRUCTION",,,,,"JEM CONSTRUCTION","16107 KENSINGTON DR # 471","SUGAR LAND",TX,77479-4224,"(281) 494-7712",http://jemconstructiongroup.com/,,,rward@jemconstructiongroup.com
TX,HARRIS,20013941,"Offices, R&D, & Professional",6/23/2020,,48000,,"9461 HAMMERLY BLVD",HOUSTON,TX,77080,,,CONTRACTOR,,,,,,,,,,,"T&L DESIGNS",,,,,"T&L DESIGNS","13115 PENTACLE LN",HOUSTON,TX,77085,"(832) 367-3670",,,,
TX,HARRIS,20049738,"Offices, R&D, & Professional",6/26/2020,Renovation,100000,,"2777 ALLEN PKY",HOUSTON,TX,77019,,,CONTRACTOR,,,,,,,,,,,"MERIDIAN CONSTRUCTORS",,,,,"MERIDIAN CONSTRUCTORS","6105 BRITTMOORE RD STE B",HOUSTON,TX,77041-5695,"(281) 759-1200",http://www.meridianconstructors.com,"(281) 759-1230",,development@meridianconstructors.com
TX,HARRIS,20049937,"Offices, R&D, & Professional",6/29/2020,Renovation,960000,,"5718 WESTHEIMER RD",HOUSTON,TX,77057,,,CONTRACTOR,,,,,,,,,,,"ODONNELL SNIDER CONSTRUCTION",,,,,"ODONNELL SNIDER CONSTRUCTION","1900 WEST LOOP S",HOUSTON,TX,77027-3214,"(346) 352-3098",http://odonnellsnider.com/,,,
TX,HARRIS,20016472,"Offices, R&D, & Professional",6/23/2020,Addition,300000,,"1000 LOUISIANA ST",HOUSTON,TX,77002,,,CONTRACTOR,,,,,,,,,,,"SAGE COMMERCIAL GROUP",,,,,"SAGE COMMERCIAL GROUP","12400 W HIGHWAY 71","BEE CAVE",TX,78738-6517,"(512) 431-6415",http://sagecommercialgroup.com/,,"TONY TUBBS",
TX,HARRIS,2002110177,"Other Commercial",5/15/2020,,1176560,14707,"535 AIRTEX DR",HOUSTON,TX,77356,,,"AIRTEX RETAIL CENTER","535 AIRTEX DR",HOUSTON,TX,77356,,Owner,,,,,OWNER,,,,,OWNER,,,,,,,,,
TX,HARRIS,2002180142,"Other Commercial",5/15/2020,,562500,7500,"24043 WESTFIELD COMMERCE DR",HOUSTON,TX,77356,,,CONTRACTOR,,,,,,,,,,,"URBAN CONSTRUCTION SOUTHWEST INC",,,,,"URBAN CONSTRUCTION SOUTHWEST INC","2537 S GESSNER RD STE 220",HOUSTON,TX,77063-2061,"(713) 339-5380",,,,
TX,HARRIS,2002180147,"Other Commercial",5/15/2020,,412500,5500,"24039 WESTFIELD COMMERCE DR",HOUSTON,TX,77356,"CLAY ROAD COMMERCE PARK",,CONTRACTOR,,,,,,,,,,,"URBAN CONSTRUCTION SOUTHWEST INC",,,,,"URBAN CONSTRUCTION SOUTHWEST INC","2537 S GESSNER RD STE 220",HOUSTON,TX,77063-2061,"(713) 339-5380",,,,
TX,HARRIS,2002180153,"Other Commercial",5/15/2020,,487500,6500,"24035 WESTFIELD COMMERCE DR",HOUSTON,TX,77356,"CLAY ROAD COMMERCE PARK",,CONTRACTOR,,,,,,,,,,,"URBAN CONSTRUCTION SOUTHWEST INC",,,,,"URBAN CONSTRUCTION SOUTHWEST INC","2537 S GESSNER RD STE 220",HOUSTON,TX,77063-2061,"(713) 339-5380",,,,
TX,HARRIS,2002180163,"Other Commercial",5/15/2020,,450000,6000,"24031 WESTFIELD COMMERCE DR",HOUSTON,TX,77356,"CLAY ROAD COMMERCE PARK",,CONTRACTOR,,,,,,,,,,,"URBAN CONSTRUCTION SOUTHWEST INC",,,,,"URBAN CONSTRUCTION SOUTHWEST INC","2537 S GESSNER RD STE 220",HOUSTON,TX,77063-2061,"(713) 339-5380",,,,
TX,HARRIS,2002180170,"Other Commercial",5/15/2020,,675000,9000,"4220 CLAY BUSINESS DR",HOUSTON,TX,77356,"CLAY ROAD COMMERCE PARK",,CONTRACTOR,,,,,,,,,,,"URBAN CONSTRUCTION SOUTHWEST INC",,,,,"URBAN CONSTRUCTION SOUTHWEST INC","2537 S GESSNER RD STE 220",HOUSTON,TX,77063-2061,"(713) 339-5380",,,,
TX,HARRIS,2002180175,"Other Commercial",5/15/2020,,495000,6600,"4224 CLAY BUSINESS DR",HOUSTON,TX,77356,"CLAY ROAD COMMERCE PARK",,CONTRACTOR,,,,,,,,,,,"URBAN CONSTRUCTION SOUTHWEST INC",,,,,"URBAN CONSTRUCTION SOUTHWEST INC","2537 S GESSNER RD STE 220",HOUSTON,TX,77063-2061,"(713) 339-5380",,,,
TX,HARRIS,2002180177,"Other Commercial",5/15/2020,,585000,7800,"4228 CLAY BUSINESS DR",HOUSTON,TX,77356,,,CONTRACTOR,,,,,,,,,,,"URBAN CONSTRUCTION SOUTHWEST INC",,,,,"URBAN CONSTRUCTION SOUTHWEST INC","2537 S GESSNER RD STE 220",HOUSTON,TX,77063-2061,"(713) 339-5380",,,,
TX,HARRIS,2002180179,"Other Commercial",5/15/2020,,540000,7200,"4232 CLAY BUSINESS DR",HOUSTON,TX,77356,,,CONTRACTOR,,,,,,,,,,,"URBAN CONSTRUCTION SOUTHWEST INC",,,,,"URBAN CONSTRUCTION SOUTHWEST INC","2537 S GESSNER RD STE 220",HOUSTON,TX,77063-2061,"(713) 339-5380",,,,
TX,HARRIS,2003180007,"Other Commercial",5/15/2020,,450000,6000,"21239 FM 529 RD",HOUSTON,TX,77356,,,"COVERY RIDGE LLC","21239 FM 529 RD",HOUSTON,TX,77356,,Owner,,,,,OWNER,,,,,OWNER,,,,,,,,,
TX,HARRIS,2004020107,"Other Commercial",5/15/2020,,675000,9000,"1307 FIVE FORKS DR",HOUSTON,TX,77356,"STUEBNER PLAZA",,"DARREL KIRTLEY","1307 FIVE FORKS DR",HOUSTON,TX,77356,,Owner,,,,,OWNER,,,,,OWNER,,,,,,,,,
TX,HARRIS,2001150015,"Other Commercial",5/15/2020,,600000,7500,"19427 CHAMPION FOREST DR",HOUSTON,TX,77356,,,"GLEANLOCH FARMS 18","19427 CHAMPION FOREST DR",HOUSTON,TX,77356,,Owner,,,,,OWNER,,,,,OWNER,,,,,,,,,
TX,HARRIS,2002060092,"Other Commercial",5/15/2020,,1466250,19550,"5330 FRY RD",HOUSTON,TX,77356,,,"KEVIN CHOUNG","5330 FRY RD",HOUSTON,TX,77356,,Owner,,,,,OWNER,,,,,OWNER,,,,,,,,,
TX,BRAZOS,RMDL2020-000040,"Other Commercial",5/6/2020,,55000,2119,"1902 TEXAS AVE S","COLLEGE STATION",TX,77845,,,CONTRACTOR,,,,,,,,,,,"JAXON CONSTRUCTION",,,,,"JAXON CONSTRUCTION","PO BOX 256","COLLEGE STATION",TX,77841-0256,"(936) 870-6768",http://jaxonhomeimprovement.com/,,,
TX,BRAZOS,CSHL2019-000011,"Other Commercial",5/11/2020,,1500000,6480,"713 UNIVERSITY DR E","COLLEGE STATION",TX,77845,,,CONTRACTOR,,,,,,,,,,,JACODY,,,,,JACODY,"10770 STATE HIGHWAY 30 STE 40","COLLEGE STATION",TX,77845-7939,"(979) 774-5613",,,"CODY MCKEAN",
TX,BRAZOS,CACC2020-000011,"Other Commercial",5/13/2020,,650500,44500,"4952 LAKEWAY DR","COLLEGE STATION",TX,77845,,,CONTRACTOR,,,,,,,,,,,WIT-CON,,,,,WIT-CON,"4116 BF GOODRICH BLVD",MEMPHIS,TN,38118-6920,"(901) 490-7177",http://www.wit-con.com/,"(901) 360-0880","JIM CARTER",jim.carter@wit-con.com
TX,BRAZOS,RACC2019-000040,"Residential Garages & Carports",5/15/2020,,54796,1507,"1602 LENERT CIR","COLLEGE STATION",TX,77845,,,"SHABEER JAFFAR","1602 LENERT CIR","COLLEGE STATION",TX,77845,,Owner,,,,,"HANCOCK CUSTOM HOMES",,,,,"HANCOCK CUSTOM HOMES","PO BOX 11214","COLLEGE STATION",TX,77842-1214,"(979) 412-6301",http://www.homesbyhancock.com/,,,info@homesbyhancock.com
TX,HARRIS,2005010096,"Residential Renovations & Additions",5/15/2020,Renovation,40000,3000,"23314 ARCHDAEL MEADOW LN",HOUSTON,TX,77356,"ELYSON ",,CONTRACTOR,,,,,,,,,,,"HIGHLAND HOMES",,,,,"HIGHLAND HOMES","10930 W SAM HOUSTON PKWY N STE 100",HOUSTON,TX,77064-6331,"(281) 517-9800",,,,
TX,HARRIS,20020352,"Residential Renovations & Additions",5/7/2020,Renovation,,1104,"214 E STERLING ST",BAYTOWN,TX,77521,,,CONTRACTOR,,,,,,,,,,,"TEXAS FOUNDATION & REMODELING",,,,,"TEXAS FOUNDATION & REMODELING","3206 AIRPORT BLVD",HOUSTON,TX,77051-4106,"(713) 835-9743",,,,
TX,HARRIS,20050152,"Residential Renovations & Additions",5/29/2020,Renovation,,1619,"1901 ADAMS ST",BAYTOWN,TX,77521,,,"HARRIS GOUNER","1901 ADAMS ST",BAYTOWN,TX,77521,,Owner,,,,,"STAR CREEK CONSTRUCTION",,,,,"STAR CREEK CONSTRUCTION","1406 EAST JAMES, TX ",BAYTOWN,TX,77520,"(832) 293-1982",,,,
TX,HARRIS,20010257,"Residential Renovations & Additions",5/7/2020,Renovation,,1624,"3412 WISCONSIN ST",BAYTOWN,TX,77521,,,"THOMAS KING","3412 WISCONSIN ST",BAYTOWN,TX,77521,,Owner,,,,,"MOVADO'S CONSTRUCTION & REMODELING",,,,,"MOVADO'S CONSTRUCTION & REMODELING","14810 SHEFFIELD TERRACE",CHANNELVIEW,TX,77530,"(832) 519-7948",,,,
TX,BRAZOS,RADD2020-000009,"Residential Renovations & Additions",5/4/2020,Renovation,50000,,"5103 SYCAMORE HILLS DR","COLLEGE STATION",TX,77845,,,"MATHEW KUTTOLAMADOM","5103 SYCAMORE HILLS DR","COLLEGE STATION",TX,77845,,Owner,,,,,"ABSOLUTE HOME IMPROVEMENT",,,,,"ABSOLUTE HOME IMPROVEMENT","4608 BOGEY CT","COLLEGE STATION",TX,77845-8999,"(979) 571-0250",,,,
TX,BRAZOS,RMDL2020-000019,"Residential Renovations & Additions",5/5/2020,Renovation,125000,,"505 UNIVERSITY DR E BL 3","COLLEGE STATION",TX,77845,,,CONTRACTOR,,,,,,,,,,,"CLARKE & WYNDHAM PROPERTY MANAGEMENT",,,,,"CLARKE & WYNDHAM PROPERTY MANAGEMENT","3608 E 29TH ST #100",BRYAN,TX,77802,"(979) 846-4384",,,,
TX,BRAZOS,RMDL2020-000054,"Residential Renovations & Additions",5/12/2020,Renovation,50000,2258,"1101 HALEY PL","COLLEGE STATION",TX,77845,,,"ROBERT GRAHAM","1101 HALEY PL","COLLEGE STATION",TX,77845,,Owner,,,,,"RIDGEWOOD CUSTOM HOMES",,,,,"RIDGEWOOD CUSTOM HOMES","106 PHEASANT RUN CT",SUNSET,TX,76270-2176,"(940) 872-9911",,,,
TX,MONTGOMERY,"1729 06-20","Residential Renovations & Additions",6/5/2020,Addition,50000,,"190 EVANS TERRACE",HOUSTON,TX,77316,WOODFOREST,,CONTRACTOR,,,,,,,,,,,"DWR CONSTRUCTION",,,,,"DWR CONSTRUCTION","445 SPRING HILL DR",SPRING,TX,77386-6001,"(281) 419-4144",http://www.dwrconstruction.com/,"(281) 419-6455","MIKE ARNETT",mdarnett1@gmail.com
TX,BRAZOS,RMDL2020-000056,"Residential Renovations & Additions",5/26/2020,Renovation,40000,2894,"1817 SHADOWWOOD DR","COLLEGE STATION",TX,77845,,,"XI ZHANG","1817 SHADOWWOOD DR","COLLEGE STATION",TX,77845,,Owner,,,,,"AGGIELAND CONTRACTING",,,,,"AGGIELAND CONTRACTING","310 FREEMAN AVE",BRYAN,TX,77803-5052,"(979) 900-7117",http://www.aggielandcontracting.com/,,,
TX,HARRIS,20021667,"Residential Renovations & Additions",6/23/2020,Renovation,150000,,"307 WINNIE",HOUSTON,TX,77009,,,"CASTILLO JAMES AND SARAH","307 WINNIE",HOUSTON,TX,77009,,Owner,,,,,"FW HERITAGE",,,,,"FW HERITAGE","1847 DART ST",HOUSTON,TX,77007-4432,"(832) 531-3911",,,"DOMINIC YAP",fw-heritage@hotmail.com
TX,HARRIS,20048800,"Residential Renovations & Additions",6/25/2020,Addition,31091,,"1507 CHESHIRE",HOUSTON,TX,77018,,,"ASHLEY & MICHAEL SMITH","1507 CHESHIRE",HOUSTON,TX,77018,,Owner,,,,,"HYDE ELECTRIC",,,,,"HYDE ELECTRIC","4923 NORTHRUP DRIVE TX ",HOUSTON,TX,77092,"(713) 894-6075",,,"GARCIA PABLO",
TX,HARRIS,2005060064,"Residential Swimming Pools & Spas",5/15/2020,,112220,594,"7419 WINDSONG BEND RD",HOUSTON,TX,77356,"LAUREL PARK",,"CHRISTOPHER AND MONICA WHITMEYER","7419 WINDSONG BEND RD",HOUSTON,TX,77356,,Owner,,,,,OWNER,,,,,OWNER,,,,,,,,,
TX,HARRIS,2005060076,"Residential Swimming Pools & Spas",5/15/2020,,114705,,"14230 AUTUMN MIST",HOUSTON,TX,77356,"LONGWOOD VILLAGE",,"JOHN AND ANDREA LEMBCKE","14230 AUTUMN MIST",HOUSTON,TX,77356,,Owner,,,,,OWNER,,,,,OWNER,,,,,,,,,
TX,HARRIS,2005060049,"Residential Swimming Pools & Spas",5/15/2020,,39410,,"80 BLUE NORTHER DR",HOUSTON,TX,77356,,,"PAUL AND KRISTINA OTTERSTROM","80 BLUE NORTHER DR",HOUSTON,TX,77356,,Owner,,,,,OWNER,,,,,OWNER,,,,,,,,,
TX,HARRIS,2004280129,"Residential Swimming Pools & Spas",5/15/2020,,54600,,"18503 WILD TRACE LN",HOUSTON,TX,77356,"WILDWOOD AT OAKCREST",,"ADAN ESCARENO","18503 WILD TRACE LN",HOUSTON,TX,77356,,Owner,,,,,OWNER,,,,,OWNER,,,,,,,,,
TX,HARRIS,2005040050,"Residential Swimming Pools & Spas",5/15/2020,,41700,,"23831 ROSSINI OPERA DR",HOUSTON,TX,77356,"VENTANA LAKES",,CONTRACTOR,,,,,,,,,,,"BLUE HAVEN POOLS",,,,,"BLUE HAVEN POOLS","13349 N CENTRAL EXPY",DALLAS,TX,75243-1103,"(972) 644-0494",,,,
TX,HARRIS,2005060154,"Residential Swimming Pools & Spas",5/15/2020,,45000,525,"7418 SHEPHERDS GLEN LN",HOUSTON,TX,77356,"LAUREL PARK",,"STEVEN FRANCO","7418 SHEPHERDS GLEN LN",HOUSTON,TX,77356,,Owner,,,,,OWNER,,,,,OWNER,,,,,,,,,
TX,HARRIS,2005110102,"Residential Swimming Pools & Spas",5/15/2020,,55000,,"14526 IRON HORSESHOE LN",HOUSTON,TX,77356,"SUMMER LAKE RANCH",,"STEPHAN PERRY","14526 IRON HORSESHOE LN",HOUSTON,TX,77356,,Owner,,,,,OWNER,,,,,OWNER,,,,,,,,,
TX,HARRIS,2004080082,"Residential Swimming Pools & Spas",5/15/2020,,41000,,"11620 TIMBER HOLLOW",HOUSTON,TX,77356,,,"ERIK CONTRERAS","11620 TIMBER HOLLOW",HOUSTON,TX,77356,,Owner,,,,,OWNER,,,,,OWNER,,,,,,,,,
TX,HARRIS,2004300024,"Residential Swimming Pools & Spas",5/15/2020,,247100,,"11207 INDIAN TRAILS DR",HOUSTON,TX,77356,,,"JAIME RUBIO","11207 INDIAN TRAILS DR",HOUSTON,TX,77356,,Owner,,,,,OWNER,,,,,OWNER,,,,,,,,,
TX,HARRIS,2005130155,"Residential Swimming Pools & Spas",5/15/2020,,46000,,"8126 RENMARK LN",HOUSTON,TX,77356,,,"BETHANY WEBSTER","8126 RENMARK LN",HOUSTON,TX,77356,,Owner,,,,,OWNER,,,,,OWNER,,,,,,,,,
TX,HARRIS,2005010087,"Residential Swimming Pools & Spas",5/15/2020,,52400,,"16631 AVENFIELD RD",HOUSTON,TX,77356,"LAKEWOOD FOREST",,"JASON AND SHAWNA HONEYCUTT","16631 AVENFIELD RD",HOUSTON,TX,77356,,Owner,,,,,OWNER,,,,,OWNER,,,,,,,,,
TX,HARRIS,2004300055,"Residential Swimming Pools & Spas",5/15/2020,,66938,,"6711 STAR LEDGE CT",HOUSTON,TX,77356,,,"RAMONA ORIZ","6711 STAR LEDGE CT",HOUSTON,TX,77356,,Owner,,,,,OWNER,,,,,OWNER,,,,,,,,,
TX,HARRIS,2005050016,"Residential Swimming Pools & Spas",5/15/2020,,58775,,"16703 WOLF PASS DR",HOUSTON,TX,77356,"FALLS AT DRY CREEK",,SAMMONS,"16703 WOLF PASS DR",HOUSTON,TX,77356,,Owner,,,,,OWNER,,,,,OWNER,,,,,,,,,
TX,HARRIS,2004290050,"Residential Swimming Pools & Spas",5/15/2020,,50000,,"24130 CANE FIELDS RD",HOUSTON,TX,77356,"KATY OAKS",,"MICHAEL LEAGUE","24130 CANE FIELDS RD",HOUSTON,TX,77356,,Owner,,,,,OWNER,,,,,OWNER,,,,,,,,,
TX,HARRIS,2005040040,"Residential Swimming Pools & Spas",5/15/2020,,51500,,"22923 GENTLE SHADOW DR",HOUSTON,TX,77356,"BAUER LANDING",,"DALLEN DAINS","22923 GENTLE SHADOW DR",HOUSTON,TX,77356,,Owner,,,,,OWNER,,,,,OWNER,,,,,,,,,
TX,HARRIS,2005040061,"Residential Swimming Pools & Spas",5/15/2020,,54900,,"9006 SPRINGCROFT CT",HOUSTON,TX,77356,"INVERNESS ESTATES",,"ALEXIS CUNNIGHAM","9006 SPRINGCROFT CT",HOUSTON,TX,77356,,Owner,,,,,OWNER,,,,,OWNER,,,,,,,,,
TX,HARRIS,RB-000648-2020,"Residential Swimming Pools & Spas",5/4/2020,,66287,492,"4305 JUNIPER LN","DEER PARK",TX,77536,,,"ADRIANA & DAVID MARTINEZ","4305 JUNIPER LN","DEER PARK",TX,77536,,Owner,,,,,"PRECISION POOLS & SPAS",,,,,"PRECISION POOLS & SPAS","10639 CLODINE RD",RICHMOND,TX,77407-8523,"(281) 265-2774",https://www.precisionswimmingpools.com,,,sales@precisionswimmingpools.com
TX,HARRIS,RB-000671-2020,"Residential Swimming Pools & Spas",5/4/2020,,35892,344,"3906 PENNY LN","DEER PARK",TX,77536,,,"JOHN & DIANA LABAUVE","3906 PENNY LN","DEER PARK",TX,77536,,Owner,,,,,"TEAM AQUA POOLS & SPAS",,,,,"TEAM AQUA POOLS & SPAS","12826 RIPPLEWOOD LN",HOUSTON,TX,77015-2056,"(713) 450-1053",,,,
TX,HARRIS,RB-000770-2020,"Residential Swimming Pools & Spas",5/29/2020,,43689,407,"3406 SOMERSET LN","DEER PARK",TX,77536,,,"JEREMY FLOYD","3406 SOMERSET LN","DEER PARK",TX,77536,,Owner,,,,,"TEAM AQUA POOLS & SPAS",,,,,"TEAM AQUA POOLS & SPAS","12826 RIPPLEWOOD LN",HOUSTON,TX,77015-2056,"(713) 450-1053",,,,
TX,HARRIS,2004290093,"Residential Swimming Pools & Spas",5/15/2020,,45000,,"10118 SAGEROYAL LN",HOUSTON,TX,77356,SAGEMEADOW,,"JAY A ARANDA","10118 SAGEROYAL LN",HOUSTON,TX,77356,,Owner,,,,,OWNER,,,,,OWNER,,,,,,,,,
TX,HARRIS,2004300147,"Residential Swimming Pools & Spas",5/15/2020,,38000,,"24131 CANE FIELDS RD",HOUSTON,TX,77356,"KATY OAKS",,"JERRY FULCHER","24131 CANE FIELDS RD",HOUSTON,TX,77356,,Owner,,,,,OWNER,,,,,OWNER,,,,,,,,,
TX,HARRIS,2005010001,"Residential Swimming Pools & Spas",5/16/2020,,56685,400,"18327 MELISSA SPRINGS DR",HOUSTON,TX,77356,"MEMORIAL SPRINGS",,"ERIKA FOSTER","18327 MELISSA SPRINGS DR",HOUSTON,TX,77356,,Owner,,,,,OWNER,,,,,OWNER,,,,,,,,,
TX,HARRIS,2004300101,"Residential Swimming Pools & Spas",5/15/2020,,47027,,"4331 COUNTRYCROSSING DR",HOUSTON,TX,77356,"COUNTRY LAKE ESTATES",,"AMBER JOHNSON","4331 COUNTRYCROSSING DR",HOUSTON,TX,77356,,Owner,,,,,"ANTHONY & SYLVAN POOLS",,,,,"ANTHONY & SYLVAN POOLS","1424 W SAM HOUSTON PKWY N",HOUSTON,TX,77043-3193,"(713) 467-6458",http://www.anthonysylvan.com/,,,
TX,HARRIS,20200218,"Residential Swimming Pools & Spas",5/8/2020,,,702,"11914 KNIPPWOOD LN",HOUSTON,TX,77024,,,"PETER & ELLEN KING","11914 KNIPPWOOD LN",HOUSTON,TX,77024,,Owner,,,,,"PLATINUM POOLS",,,,,"PLATINUM POOLS","4500 BLALOCK RD",HOUSTON,TX,77041-9121,"(281) 870-1600",,,,
TX,HARRIS,20200247,"Residential Swimming Pools & Spas",5/26/2020,,,529,"42 WILLIAMSBURG LN",HOUSTON,TX,77024,,,"MINH LY","42 WILLIAMSBURG LN",HOUSTON,TX,77024,,Owner,,,,,"LY CUSTOM HOMES",,,,,"LY CUSTOM HOMES","718 BUNKER HILL ROAD",HOUSTON,TX,77024,"(972) 965-7738",,,,
TX,HARRIS,2005080102,"Residential Swimming Pools & Spas",5/15/2020,,35000,,"13902 RIVENDELL CREST LN",HOUSTON,TX,77356,"ALDEN WOODS",,NELSON,"13902 RIVENDELL CREST LN",HOUSTON,TX,77356,,Owner,,,,,OWNER,,,,,OWNER,,,,,,,,,
TX,HARRIS,2004290104,"Residential Swimming Pools & Spas",5/15/2020,,70000,,"11 STAR IRIS PL",HOUSTON,TX,77356,CREEKSIDE,,"JEFF AND SUSAN ANDEINI","11 STAR IRIS PL",HOUSTON,TX,77356,,Owner,,,,,OWNER,,,,,OWNER,,,,,,,,,
TX,HARRIS,2005110106,"Residential Swimming Pools & Spas",5/15/2020,,40000,,"20438 CORBIN CREEK DR",HOUSTON,TX,77356,"FALLS AT DRY CREEK",,"FAWAD KHAN","20438 CORBIN CREEK DR",HOUSTON,TX,77356,,Owner,,,,,OWNER,,,,,OWNER,,,,,,,,,
TX,HARRIS,2005050113,"Residential Swimming Pools & Spas",5/15/2020,,30000,,"5441 CLARA RD",HOUSTON,TX,77356,,,"GABRIELA VAZQUEZ","5441 CLARA RD",HOUSTON,TX,77356,,Owner,,,,,OWNER,,,,,OWNER,,,,,,,,,
TX,HARRIS,2004280034,"Residential Swimming Pools & Spas",5/15/2020,,60000,,"22311 OXTON CT",HOUSTON,TX,77356,,,"ADAN & ALISHA FLORES","22311 OXTON CT",HOUSTON,TX,77356,,Owner,,,,,"RIVAS POOL DESIGN",,,,,"RIVAS POOL DESIGN","11007 GLENORA DR",HOUSTON,TX,77065-3538,"(832) 279-1233",,,,rivaspooldesign832@hotmail.com
TX,HARRIS,2004290023,"Residential Swimming Pools & Spas",5/15/2020,,65350,,"18119 VAN BERKEL LN",HOUSTON,TX,77356,"BRIDGES ON LAKE",,"FRANK IREY","18119 VAN BERKEL LN",HOUSTON,TX,77356,,Owner,,,,,OWNER,,,,,OWNER,,,,,,,,,
TX,BRAZOS,2020-000027,"Residential Swimming Pools & Spas",5/6/2020,,45000,,"1306 MULLINS LOOP S","COLLEGE STATION",TX,77845,,,"DEBORAH DAW","1306 MULLINS LOOP S","COLLEGE STATION",TX,77845,,Owner,,,,,"THE POOL GUY",,,,,"THE POOL GUY","2151 HARVEY MITCHELL PKWY S STE 313","COLLEGE STATION",TX,77840-5243,"(979) 575-6200",,,,
TX,BRAZOS,POOL2020-000029,"Residential Swimming Pools & Spas",5/7/2020,,115000,,"4430 SPRING MEADOWS DR","COLLEGE STATION",TX,77845,,,"DENNIS & MARY BRUNSON","4430 SPRING MEADOWS DR","COLLEGE STATION",TX,77845,,Owner,,,,,"PREMIER POOLS & SPAS",,,,,"PREMIER POOLS & SPAS","2810 BUSINESS CENTER DR STE 126",PEARLAND,TX,77584-9783,"(713) 436-4944",,"(713) 436-0081","BILL UNGER",bunger@ppas.com
TX,BRAZOS,POOL2020-000030,"Residential Swimming Pools & Spas",5/7/2020,,58450,,"5201 FLINT HILLS DR","COLLEGE STATION",TX,77845,,,"COREY & ANDREA CORMIER","5201 FLINT HILLS DR","COLLEGE STATION",TX,77845,,Owner,,,,,"MOBLEY POOLS",,,,,"MOBLEY POOLS","2004 E VILLA MARIA RD",BRYAN,TX,77802-2540,"(979) 776-5557",http://www.mobleypools.com/,"(979) 776-5290","JASON FOSTER",Jason@mobleypools.com
TX,BRAZOS,POOL2020-000020,"Residential Swimming Pools & Spas",5/8/2020,,25000,," 8434 LAUREN DR","COLLEGE STATION",TX,77845,,,"JOHN & MICHELLE HIGH"," 8434 LAUREN DR","COLLEGE STATION",TX,77845,,Owner,,,,,"THE POOL GUY",,,,,"THE POOL GUY","2151 HARVEY MITCHELL PKWY S STE 313","COLLEGE STATION",TX,77840-5243,"(979) 575-6200",,,,
TX,BRAZOS,POOL2020-000039,"Residential Swimming Pools & Spas",5/11/2020,,49300,,"703 CORAL RIDGE W","COLLEGE STATION",TX,77845,,,"PAUL & IRENE CUBSTEAD","703 CORAL RIDGE W","COLLEGE STATION",TX,77845,,Owner,,,,,"MOBLEY POOLS",,,,,"MOBLEY POOLS","2004 E VILLA MARIA RD",BRYAN,TX,77802-2540,"(979) 776-5557",http://www.mobleypools.com/,"(979) 776-5290","JASON FOSTER",Jason@mobleypools.com
TX,BRAZOS,POOL2020-000028,"Residential Swimming Pools & Spas",5/13/2020,,32000,,"3808 LORIKEET LN","COLLEGE STATION",TX,77845,,,CONTRACTOR,,,,,,,,,,,"MAROON POOLS & CO",,,,,"MAROON POOLS & CO","707 TEXAS AVE S STE 205D","COLLEGE STATION",TX,77840-1980,"(979) 220-0524",https://www.maroonpoolsco.com/,,,info@maroonpoolsco.com
TX,BRAZOS,POOL2020-000032,"Residential Swimming Pools & Spas",5/13/2020,,39999,,"4407 TODDINGTON LN","COLLEGE STATION",TX,77845,,,"JEREMAINE & JULIE WHITE","4407 TODDINGTON LN","COLLEGE STATION",TX,77845,,Owner,,,,,"SUNSHINE FUN POOLS ",,,,,"SUNSHINE FUN POOLS ","4200 STATE HIGHWAY 6 S","COLLEGE STATION",TX,77845-8966,"(979) 690-3343",,,,
TX,BRAZOS,POOL2020-000035,"Residential Swimming Pools & Spas",5/13/2020,,43000,,"2712 SCATTERBY CV","COLLEGE STATION",TX,77845,,,"ALAN & ANN RICKS","2712 SCATTERBY CV","COLLEGE STATION",TX,77845,,Owner,,,,,"HEATH TOWNSEND HOMES",,,,,"HEATH TOWNSEND HOMES","2306 KENDAL GREEN CIR","COLLEGE STATION",TX,77845-4840,"(979) 574-0374",http://heathtownsendhomes.com/,,,heath@heathtownsendhomes.com
TX,BRAZOS,POOL2020-000022,"Residential Swimming Pools & Spas",5/15/2020,,78000,,"5314 CONGRESSIONAL DR","COLLEGE STATION",TX,77845,,,"CHAD & STEPHANIE JONES","5314 CONGRESSIONAL DR","COLLEGE STATION",TX,77845,,Owner,,,,,"TRADITIONS POOLS & LANDSCAPE",,,,,"TRADITIONS POOLS & LANDSCAPE","PO BOX 11262","COLLEGE STATION",TX,77842-1262,"(979) 203-5559",,,,info@traditionspools.com
TX,BRAZOS,POOL2020-000041,"Residential Swimming Pools & Spas",5/15/2020,,60000,,"1204 QUARRY OAKS DR","COLLEGE STATION",TX,77845,,,"RETHA & DAVID YOUELL","1204 QUARRY OAKS DR","COLLEGE STATION",TX,77845,,Owner,,,,,"5K HOMES",,,,,"5K HOMES","7235 RIVER PLACE CT","COLLEGE STATION",TX,77845-7114,"(979) 690-0756",,,,
TX,BRAZOS,2020-000045,"Residential Swimming Pools & Spas",5/15/2020,,40000,,"1101 CHESAPEAKE LN","COLLEGE STATION",TX,77845,,,"BILLY & ELAINE COURVELLE","1101 CHESAPEAKE LN","COLLEGE STATION",TX,77845,,Owner,,,,,"SUNSHINE FUN POOLS ",,,,,"SUNSHINE FUN POOLS ","4200 STATE HIGHWAY 6 S","COLLEGE STATION",TX,77845-8966,"(979) 690-3343",,,,
TX,BRAZOS,POOL2020-000046,"Residential Swimming Pools & Spas",5/15/2020,,40000,,"2310 KENDAL GREEN CIR","COLLEGE STATION",TX,77845,,,"MELISSA SUEHS","2310 KENDAL GREEN CIR","COLLEGE STATION",TX,77845,,Owner,,,,,"SUNSHINE FUN POOLS ",,,,,"SUNSHINE FUN POOLS ","4200 STATE HIGHWAY 6 S","COLLEGE STATION",TX,77845-8966,"(979) 690-3343",,,,
TX,BRAZOS,POOL2020-000034,"Residential Swimming Pools & Spas",5/18/2020,,75000,,"11736 DURRAND ST","COLLEGE STATION",TX,77845,,,"JAMES & KATHLEEN HUTCHINS","11736 DURRAND ST","COLLEGE STATION",TX,77845,,Owner,,,,,"SWIMMING POOL SOLUTIONS",,,,,"SWIMMING POOL SOLUTIONS","11771 GREAT OAKS DR","COLLEGE STATION",TX,77845-5072,"(979) 595-6065",,,,
TX,BRAZOS,POOL2020-000043,"Residential Swimming Pools & Spas",5/22/2020,,60000,,"4900 HOLDEN CIR","COLLEGE STATION",TX,77845,,,"MARC & NICOLE SERRET","4900 HOLDEN CIR","COLLEGE STATION",TX,77845,,Owner,,,,,"THE POOL GUY",,,,,"THE POOL GUY","2151 HARVEY MITCHELL PKWY S STE 313","COLLEGE STATION",TX,77840-5243,"(979) 575-6200",,,,
TX,BRAZOS,POOL2020-000044,"Residential Swimming Pools & Spas",5/22/2020,,52000,,"4719 JOHNSON CREEK LOOP","COLLEGE STATION",TX,77845,,,"MICHAEL & TILL PATTON","4719 JOHNSON CREEK LOOP","COLLEGE STATION",TX,77845,,Owner,,,,,"THE POOL GUY",,,,,"THE POOL GUY","2151 HARVEY MITCHELL PKWY S STE 313","COLLEGE STATION",TX,77840-5243,"(979) 575-6200",,,,
TX,BRAZOS,POOL2020-000050,"Residential Swimming Pools & Spas",5/27/2020,,25000,,"319 AGATE CT","COLLEGE STATION",TX,77845,,,"DANIEL ALGE","319 AGATE CT","COLLEGE STATION",TX,77845,,Owner,,,,,"PARADISE OASIS POOLS",,,,,"PARADISE OASIS POOLS","404 UNIVERSITY DR E STE B","COLLEGE STATION",TX,77840-1743,"(979) 704-6102",http://www.paradiseoasispools.com/,,,
TX,BRAZOS,POOL2020-000049,"Residential Swimming Pools & Spas",5/29/2020,,53000,,"2515 PORTLAND AVE","COLLEGE STATION",TX,77845,,,CONTRACTOR,,,,,,,,,,,"PREMIER POOLS & SPAS",,,,,"PREMIER POOLS & SPAS","2810 BUSINESS CENTER DR STE 126",PEARLAND,TX,77584-9783,"(713) 436-4944",,"(713) 436-0081","BILL UNGER",bunger@ppas.com
TX,HARRIS,20055699,"Residential Swimming Pools & Spas",6/30/2020,,39672,,"439 WILCHESTER",HOUSTON,TX,77079,,,"BAZIRGAN MATTHEW","439 WILCHESTER",HOUSTON,TX,77079,,Owner,,,,,"PLATINUM POOLS",,,,,"PLATINUM POOLS","4500 BLALOCK RD",HOUSTON,TX,77041-9121,"(281) 870-1600",,,,
TX,HARRIS,20054313,"Residential Swimming Pools & Spas",6/30/2020,,40000,,"3127 SOFT FERN",HOUSTON,TX,77339,,,"CHANCEY PAT","3127 SOFT FERN",HOUSTON,TX,77339,"(832) 807-4401",Owner,,,,,OWNER,,,,,OWNER,,,,,,,,,
TX,HARRIS,20055506,"Residential Swimming Pools & Spas",6/24/2020,,44319,,"2226 SAXON",HOUSTON,TX,77018,,,CONTRACTOR,,,,,,,,,,,"ANTHONY & SYLVAN POOLS",,,,,"ANTHONY & SYLVAN POOLS","1424 W SAM HOUSTON PKWY N",HOUSTON,TX,77043-3193,"(713) 467-6458",http://www.anthonysylvan.com/,,,
TX,HARRIS,20051135,"Residential Swimming Pools & Spas",6/25/2020,,39000,,"1615 BERNARD",HOUSTON,TX,77058,,,"JENNIFER GUERRA","1615 BERNARD",HOUSTON,TX,77058,,Owner,,,,,"AQUATIC POOLS & HOT TUBS",,,,,"AQUATIC POOLS & HOT TUBS","5301 GULF FWY","LA MARQUE",TX,77568-2703,"(409) 986-7600",,,,
TX,HARRIS,20055800,"Residential Swimming Pools & Spas",6/29/2020,,50000,,"1213 DU BARRY",HOUSTON,TX,77018,,,CONTRACTOR,,,,,,,,,,,"AQUALIFE POOL SERVICES",,,,,"AQUALIFE POOL SERVICES","PO BOX 841368",HOUSTON,TX,77284-1368,"(832) 896-1420",,,,
TX,HARRIS,20051006,"Residential Swimming Pools & Spas",6/25/2020,,46500,,"6414 LINDYANN",HOUSTON,TX,77008,,,CONTRACTOR,,,,,,,,,,,"S&G POOL PLASTERING",,,,,"S&G POOL PLASTERING","8702 LAZY BROOK LN","LA PORTE",TX,77571-7609,"(832) 814-9701",http://www.sngpoolplastering.com/,"(281) 930-7954",,sngpoolplastering@hotmail.com
TX,HARRIS,19078932,"Residential Swimming Pools & Spas",6/29/2020,,250000,,"21919 NORTHPARK",HOUSTON,TX,77339,,,CONTRACTOR,,,,,,,,,,,"JORDAN FOSTER CONSTRUCTION",,,,,"JORDAN FOSTER CONSTRUCTION","9801 WESTHEIMER RD STE 320",HOUSTON,TX,77042-3978,"(832) 615-1270",http://www.cfjordan.com/busdev.html,,,
TX,HARRIS,20049594,"Residential Swimming Pools & Spas",6/23/2020,,65000,,"6224 CEDAR CREEK",HOUSTON,TX,77057,,,"PHILIP & ALLISON WISE","6224 CEDAR CREEK",HOUSTON,TX,77057,,Owner,,,,,"FRANKEL BUILDING GROUP",,,,,"FRANKEL BUILDING GROUP","5701 WOODWAY DR STE 200",HOUSTON,TX,77057-1505,"(713) 623-4646",http://www.frankelbuildinggroup.com/,,"BRIAN ADAMS",
TX,BRAZOS,RMDL2020-000041,"Restaurant and Bar",5/13/2020,,48000,,"815 UNIVERSITY DR","COLLEGE STATION",TX,77845,,,CONTRACTOR,,,,,,,,,,,"DUNGAN DESIGN GROUP",,,,,"DUNGAN DESIGN GROUP","8826 SANTA FE DRIVE, SUITE 304","OVERLAND PARK",TX,66208,"(913) 341-2466",https://www.dungandesigngroup.com/,,,
TX,HARRIS,20026079,"Restaurant and Bar",6/26/2020,Renovation,450000,,"2800 SAGE RD",HOUSTON,TX,77056,,,CONTRACTOR,,,,,,,,,,,"CONSTRUCTION CONCEPTS",,,,,"CONSTRUCTION CONCEPTS","5633 SOUTHWEST",HOUSTON,TX,77057,"(832) 860-3434",,,,
TX,HARRIS,20051864,"Restaurant and Bar",6/26/2020,Renovation,185000,,"14627 MEMORIAL DR",HOUSTON,TX,77079,,,"JASON MIDDLETON","11750 KATY FREEWAY",HOUSTON,TX,77079,"(281) 832-9385",Applicant,,,,,OWNER,,,,,OWNER,,,,,,,,,
TX,HARRIS,20007626,"Restaurant and Bar",6/23/2020,,1300000,,"7420 FONDREN",HOUSTON,TX,77074,,,"MAS RESTAURANT GROUP","10600 SHADOW WOOD DR",HOUSTON,TX,77043,"(281) 731-3205",Applicant,,,,,OWNER,,,,,OWNER,,,,,,,,,
TX,HARRIS,19136578,"Restaurant and Bar",6/23/2020,,47500,,"1801 S DAIRY ASHFORD RD",HOUSTON,TX,77077,,,"RJS ARCHITECTS","9601 KATY FWY",HOUSTON,TX,77024,"(713) 467-6279",Architect,,,,,OWNER,,,,,OWNER,,,,,,,,,
TX,HARRIS,2004020114,Retail,5/15/2020,,800000,4749,"1641 LOUETTA RD",HOUSTON,TX,77356,,,"VAQUERO VENTURES","1641 LOUETTA RD",HOUSTON,TX,77356,,Owner,,,,,OWNER,,,,,OWNER,,,,,,,,,
TX,HARRIS,2003040086,Retail,5/15/2020,,500000,5058,"22250 NORTHWEST FWY",HOUSTON,TX,77356,"TELGE PLAZA",,"ANASHA PROPERTY LLC","22250 NORTHWEST FWY",HOUSTON,TX,77356,,Owner,,,,,OWNER,,,,,OWNER,,,,,,,,,
TX,HARRIS,CB-000772-2020,Retail,5/8/2020,Renovation,45000,,"202 E THIRTEENTH ST","DEER PARK",TX,77536,,,CONTRACTOR,,,,,,,,,,,"GULF COAST PLUMBING AND UTILITY",,,,,"GULF COAST PLUMBING AND UTILITY","429 CLUB LAKE DR",ROCKPORT,TX,78382,"(361) 386-0178",,,,
TX,HARRIS,2003130129,Retail,5/15/2020,,1500000,4755,"23013 CLAY RD",HOUSTON,TX,77356,"CROSSING AT KATY",,"PRUDENT DEVELOPMENT","23013 CLAY RD",HOUSTON,TX,77356,,Owner,,,,,OWNER,,,,,OWNER,,,,,,,,,
TX,HARRIS,19110417,Retail,5/11/2020,,1350000,4772,"4061 EAST FWY",BAYTOWN,TX,77521,,,CONTRACTOR,,,,,,,,,,,"READY CONSTRUCTION SERVICE",,,,,"READY CONSTRUCTION SERVICE","8350 N CENTRAL EXPY STE 1313",DALLAS,TX,75206-1619,"(214) 561-6515",http://readyconstruction.com,,,bhollier@readyconstruction.com
TX,HARRIS,20030241,Retail,5/7/2020,,35000,20000,"5035 GARTH RD",BAYTOWN,TX,77521,,,CONTRACTOR,,,,,,,,,,,"APEX CONSTRUCTION",,,,,"APEX CONSTRUCTION","15719 LILLIA",HOUSTON,TX,77060,"(281) 741-3223",http://www.apexdfwbuilders.com,,,
TX,HARRIS,20047892,Retail,6/24/2020,Renovation,45832,,"13300 KATY",HOUSTON,TX,77079,,,"KELLEY JENTRY","1907 SOUTHWEST",HOUSTON,TX,77098,"(832) 846-5711",Applicant,,,,,OWNER,,,,,OWNER,,,,,,,,,
TX,HARRIS,2005010108,"Single Family Homes",5/15/2020,,219375,,"19838 BLUE ROAN DR",HOUSTON,TX,77356,AMIRA,,CONTRACTOR,,,,,,,,,,,"PERRY HOMES",,,,,"PERRY HOMES","9000 GULF FWY",HOUSTON,TX,77017-7018,"(713) 417-1396",,,,
TX,HARRIS,2004170069,"Single Family Homes",5/15/2020,,382838,3403,"20318 APPALOOSA HILL DR",HOUSTON,TX,77356,AMIRA,,CONTRACTOR,,,,,,,,,,,"PERRY HOMES",,,,,"PERRY HOMES","9000 GULF FWY",HOUSTON,TX,77017-7018,"(713) 417-1396",,,,
TX,HARRIS,2005080006,"Single Family Homes",5/15/2020,,245250,2180,"19607 FAYETTE COUNTY DR",HOUSTON,TX,77356,"BRIDGELAND PARKLAND VILLAGE",,CONTRACTOR,,,,,,,,,,,"PERRY HOMES",,,,,"PERRY HOMES","9000 GULF FWY",HOUSTON,TX,77017-7018,"(713) 417-1396",,,,
TX,HARRIS,2004300041,"Single Family Homes",5/15/2020,,219375,1950,"9422 WINDWARD BLUFF WAY",HOUSTON,TX,77356,"LAKES AT CREEKSIDE",,CONTRACTOR,,,,,,,,,,,"PERRY HOMES",,,,,"PERRY HOMES","9000 GULF FWY",HOUSTON,TX,77017-7018,"(713) 417-1396",,,,
TX,HARRIS,2004300071,"Single Family Homes",5/15/2020,,219375,1950,"24607 SONGLARK BEND DR",HOUSTON,TX,77356,"LAKES AT CREEKSIDE",,CONTRACTOR,,,,,,,,,,,"PERRY HOMES",,,,,"PERRY HOMES","9000 GULF FWY",HOUSTON,TX,77017-7018,"(713) 417-1396",,,,
TX,HARRIS,2005010046,"Single Family Homes",5/15/2020,,196088,1743,"19919 WILD HORSE HOLLOW LN",HOUSTON,TX,77356,AMIRA,,CONTRACTOR,,,,,,,,,,,"PERRY HOMES",,,,,"PERRY HOMES","9000 GULF FWY",HOUSTON,TX,77017-7018,"(713) 417-1396",,,,
TX,HARRIS,2005010049,"Single Family Homes",5/15/2020,,410625,3650,"20222 MAHOGANY BAY LN",HOUSTON,TX,77356,AMIRA,,CONTRACTOR,,,,,,,,,,,"PERRY HOMES",,,,,"PERRY HOMES","9000 GULF FWY",HOUSTON,TX,77017-7018,"(713) 417-1396",,,,
TX,HARRIS,2005110071,"Single Family Homes",5/15/2020,,265999,1888,"9422 OAKHEATH CANYON CT",HOUSTON,TX,77356,"LAKES AT CREEKSIDE",,CONTRACTOR,,,,,,,,,,,"DAVID WEEKLEY HOMES",,,,,"DAVID WEEKLEY HOMES","14444 NORTHWEST",HOUSTON,TX,77040,"(713) 570-5021",http://www.davidweekleyhomes.com/,,,
TX,HARRIS,2003310096,"Single Family Homes",5/15/2020,,133350,2385,"15223 YELLOWSTONE LAKE DR",HOUSTON,TX,77356,"BALMORAL PARK LAKES",,CONTRACTOR,,,,,,,,,,,"K HOVNANIAN HOMES",,,,,"K HOVNANIAN HOMES","13111 NORTHWEST FWY STE 200",HOUSTON,TX,77040-6311,"(713) 460-0264",,,,
TX,HARRIS,2005060110,"Single Family Homes",5/15/2020,,154560,2599,"14202 CAMPO VISTA DR",HOUSTON,TX,77356,"TERRA DEL SOL",,CONTRACTOR,,,,,,,,,,,"K HOVNANIAN HOMES",,,,,"K HOVNANIAN HOMES","13111 NORTHWEST FWY STE 200",HOUSTON,TX,77040-6311,"(713) 460-0264",,,,
TX,HARRIS,2005070160,"Single Family Homes",5/15/2020,,116970,2081,"7747 MESA RANCH TRL",HOUSTON,TX,77356,"TERRA DEL SOL",,CONTRACTOR,,,,,,,,,,,"K HOVNANIAN HOMES",,,,,"K HOVNANIAN HOMES","13111 NORTHWEST FWY STE 200",HOUSTON,TX,77040-6311,"(713) 460-0264",,,,
TX,HARRIS,2005080085,"Single Family Homes",5/15/2020,,189770,3124,"12427 STARRY SUMMER LN",HOUSTON,TX,77356,"SUNSET RIDGE",,CONTRACTOR,,,,,,,,,,,"K HOVNANIAN HOMES",,,,,"K HOVNANIAN HOMES","13111 NORTHWEST FWY STE 200",HOUSTON,TX,77040-6311,"(713) 460-0264",,,,
TX,HARRIS,2005080086,"Single Family Homes",5/15/2020,,140630,2402,"12519 STARRY SUMMER LN",HOUSTON,TX,77356,"SUNSET RIDGE",,CONTRACTOR,,,,,,,,,,,"K HOVNANIAN HOMES",,,,,"K HOVNANIAN HOMES","13111 NORTHWEST FWY STE 200",HOUSTON,TX,77040-6311,"(713) 460-0264",,,,
TX,HARRIS,2005080087,"Single Family Homes",5/15/2020,,210000,3399,"12523 STARRY SUMMER LN",HOUSTON,TX,77356,"SUNSET RIDGE",,CONTRACTOR,,,,,,,,,,,"K HOVNANIAN HOMES",,,,,"K HOVNANIAN HOMES","13111 NORTHWEST FWY STE 200",HOUSTON,TX,77040-6311,"(713) 460-0264",,,,
TX,HARRIS,2005080088,"Single Family Homes",5/15/2020,,143080,2439,"15111 STARRY SPRING CT",HOUSTON,TX,77356,"SUNSET RIDGE",,CONTRACTOR,,,,,,,,,,,"K HOVNANIAN HOMES",,,,,"K HOVNANIAN HOMES","13111 NORTHWEST FWY STE 200",HOUSTON,TX,77040-6311,"(713) 460-0264",,,,
TX,HARRIS,2005080090,"Single Family Homes",5/15/2020,,140630,2402,"15119 STARRY SPRING CT",HOUSTON,TX,77356,"SUNSET RIDGE",,CONTRACTOR,,,,,,,,,,,"K HOVNANIAN HOMES",,,,,"K HOVNANIAN HOMES","13111 NORTHWEST FWY STE 200",HOUSTON,TX,77040-6311,"(713) 460-0264",,,,
TX,HARRIS,2005080091,"Single Family Homes",5/15/2020,,189770,3124,"15115 STARRY SPRING CT",HOUSTON,TX,77356,"SUNSET RIDGE",,CONTRACTOR,,,,,,,,,,,"K HOVNANIAN HOMES",,,,,"K HOVNANIAN HOMES","13111 NORTHWEST FWY STE 200",HOUSTON,TX,77040-6311,"(713) 460-0264",,,,
TX,HARRIS,2005080093,"Single Family Homes",5/15/2020,,189770,3124,"15131 SILKY MORNING CT",HOUSTON,TX,77356,"SUNSET RIDGE",,CONTRACTOR,,,,,,,,,,,"K HOVNANIAN HOMES",,,,,"K HOVNANIAN HOMES","13111 NORTHWEST FWY STE 200",HOUSTON,TX,77040-6311,"(713) 460-0264",,,,
TX,HARRIS,2004300005,"Single Family Homes",5/15/2020,,109750,2196,"31431 ELKCREEK BEND DR",HOUSTON,TX,77356,"STONE CREEK RANCH",,CONTRACTOR,,,,,,,,,,,"SA LIBERTY HOME BUILDERS",,,,,"SA LIBERTY HOME BUILDERS","2821 JORDENS RD STE 500",HOUSTON,TX,77084-7355,"(281) 645-0225",,,,
TX,HARRIS,2004300006,"Single Family Homes",5/15/2020,,98631,2300,"9515 CIMARRONCITO LN",HOUSTON,TX,77356,"WOODLAND PINES",,CONTRACTOR,,,,,,,,,,,"SA LIBERTY HOME BUILDERS",,,,,"SA LIBERTY HOME BUILDERS","2821 JORDENS RD STE 500",HOUSTON,TX,77084-7355,"(281) 645-0225",,,,
TX,HARRIS,2004300007,"Single Family Homes",5/15/2020,,103353,2553,"9414 CIMARRONCITO LN",HOUSTON,TX,77356,"WOODLAND PINES",,CONTRACTOR,,,,,,,,,,,"SA LIBERTY HOME BUILDERS",,,,,"SA LIBERTY HOME BUILDERS","2821 JORDENS RD STE 500",HOUSTON,TX,77084-7355,"(281) 645-0225",,,,
TX,HARRIS,2004300008,"Single Family Homes",5/15/2020,,157114,3836,"31219 KAILUA DR",HOUSTON,TX,77356,"STONE CREEK RANCH",,CONTRACTOR,,,,,,,,,,,"SA LIBERTY HOME BUILDERS",,,,,"SA LIBERTY HOME BUILDERS","2821 JORDENS RD STE 500",HOUSTON,TX,77084-7355,"(281) 645-0225",,,,
TX,HARRIS,2004300009,"Single Family Homes",5/15/2020,,146549,3212,"16302 ONEAWA DR",HOUSTON,TX,77356,"STONE CREEK RANCH",,CONTRACTOR,,,,,,,,,,,"SA LIBERTY HOME BUILDERS",,,,,"SA LIBERTY HOME BUILDERS","2821 JORDENS RD STE 500",HOUSTON,TX,77084-7355,"(281) 645-0225",,,,
TX,HARRIS,2005010018,"Single Family Homes",5/15/2020,,123812,2571,"16314 NEFF PARK DR",HOUSTON,TX,77356,"STONE CREEK RANCH",,CONTRACTOR,,,,,,,,,,,"SA LIBERTY HOME BUILDERS",,,,,"SA LIBERTY HOME BUILDERS","2821 JORDENS RD STE 500",HOUSTON,TX,77084-7355,"(281) 645-0225",,,,
TX,HARRIS,2005010020,"Single Family Homes",5/15/2020,,108979,2196,"16330 NEFF PARK DR",HOUSTON,TX,77356,"STONE CREEK RANCH",,CONTRACTOR,,,,,,,,,,,"SA LIBERTY HOME BUILDERS",,,,,"SA LIBERTY HOME BUILDERS","2821 JORDENS RD STE 500",HOUSTON,TX,77084-7355,"(281) 645-0225",,,,
TX,HARRIS,2005110111,"Single Family Homes",5/15/2020,,130275,2895,"11111 CUNNINGHAM FIR TRL",HOUSTON,TX,77356,"FAIRWAY FARMS",,CONTRACTOR,,,,,,,,,,,"DR HORTON",,,,,"DR HORTON","14100 SOUTHWEST",HOUSTON,TX,77478,"(281) 201-5559",,,,
TX,HARRIS,2005080020,"Single Family Homes",5/15/2020,,108000,1739,"8603 RIVER CREST DR",HOUSTON,TX,77356,"WOOSTER CROSSING",,CONTRACTOR,,,,,,,,,,,"LENNAR HOMES",,,,,"LENNAR HOMES","550 GREENS PKWY",HOUSTON,TX,77067-4537,"(281) 875-1000",http://www.lennar.com/,,,
TX,HARRIS,2005070090,"Single Family Homes",5/15/2020,,235990,2761,"2414 SANDBAR SHARK CT",HOUSTON,TX,77356,"LAKES AT MASON PARK",,CONTRACTOR,,,,,,,,,,,"HISTORY MAKER HOMES",,,,,"HISTORY MAKER HOMES","9001 AIRPORT FWY SUITE 400","NORTH RICHLAND HILLS",TX,76180-7769,"(817) 429-8008",http://www.historymaker.com/,"(817) 507-1102","JILL BARFIELD",
TX,HARRIS,2005070020,"Single Family Homes",5/15/2020,,89505,1989,"5531 KINGSTON CREST LN",HOUSTON,TX,77356,"JASMINE HEIGHTS",,CONTRACTOR,,,,,,,,,,,"DR HORTON",,,,,"DR HORTON","14100 SOUTHWEST",HOUSTON,TX,77478,"(281) 201-5559",,,,
TX,HARRIS,2005070022,"Single Family Homes",5/15/2020,,107460,2388,"5535 KINGSTON CREST LN",HOUSTON,TX,77356,"JASMINE HEIGHTS",,CONTRACTOR,,,,,,,,,,,"DR HORTON",,,,,"DR HORTON","14100 SOUTHWEST",HOUSTON,TX,77478,"(281) 201-5559",,,,
TX,HARRIS,2005070023,"Single Family Homes",5/15/2020,,110700,2460,"5539 KINGSTON CREST LN",HOUSTON,TX,77356,"JASMINE HEIGHTS",,CONTRACTOR,,,,,,,,,,,"DR HORTON",,,,,"DR HORTON","14100 SOUTHWEST",HOUSTON,TX,77478,"(281) 201-5559",,,,
TX,HARRIS,2005070032,"Single Family Homes",5/15/2020,,132975,2955,"21410 VICTORIA HARBOR DR",HOUSTON,TX,77356,"JASMINE HEIGHTS",,CONTRACTOR,,,,,,,,,,,"DR HORTON",,,,,"DR HORTON","14100 SOUTHWEST",HOUSTON,TX,77478,"(281) 201-5559",,,,
TX,HARRIS,2005070033,"Single Family Homes",5/15/2020,,132885,2953,"21406 VICTORIA HARBOR DR",HOUSTON,TX,77356,"JASMINE HEIGHTS",,CONTRACTOR,,,,,,,,,,,"DR HORTON",,,,,"DR HORTON","14100 SOUTHWEST",HOUSTON,TX,77478,"(281) 201-5559",,,,
TX,HARRIS,2005070035,"Single Family Homes",5/15/2020,,141660,3148,"21402 VICTORIA HARBOR DR",HOUSTON,TX,77356,"JASMINE HEIGHTS",,CONTRACTOR,,,,,,,,,,,"DR HORTON",,,,,"DR HORTON","14100 SOUTHWEST",HOUSTON,TX,77478,"(281) 201-5559",,,,
TX,HARRIS,2005070037,"Single Family Homes",5/15/2020,,132975,2955,"21302 ORONO HEIGHTS TRL",HOUSTON,TX,77356,"JASMINE HEIGHTS",,CONTRACTOR,,,,,,,,,,,"DR HORTON",,,,,"DR HORTON","14100 SOUTHWEST",HOUSTON,TX,77478,"(281) 201-5559",,,,
TX,HARRIS,2005070038,"Single Family Homes",5/15/2020,,132885,2953,"21306 ORONO HEIGHTS TRL",HOUSTON,TX,77356,"JASMINE HEIGHTS",,CONTRACTOR,,,,,,,,,,,"DR HORTON",,,,,"DR HORTON","14100 SOUTHWEST",HOUSTON,TX,77478,"(281) 201-5559",,,,
TX,HARRIS,2005070039,"Single Family Homes",5/15/2020,,96525,2145,"21310 ORONO HEIGHTS TRL",HOUSTON,TX,77356,"JASMINE HEIGHTS",,CONTRACTOR,,,,,,,,,,,"DR HORTON",,,,,"DR HORTON","14100 SOUTHWEST",HOUSTON,TX,77478,"(281) 201-5559",,,,
TX,HARRIS,2005070040,"Single Family Homes",5/15/2020,,141660,3148,"5506 KINGSTON CREST LN",HOUSTON,TX,77356,"JASMINE HEIGHTS",,CONTRACTOR,,,,,,,,,,,"DR HORTON",,,,,"DR HORTON","14100 SOUTHWEST",HOUSTON,TX,77478,"(281) 201-5559",,,,
TX,HARRIS,2005070042,"Single Family Homes",5/15/2020,,122985,2733,"4439 FOLLINA TRL",HOUSTON,TX,77356,"VENTANA LAKES",,CONTRACTOR,,,,,,,,,,,"DR HORTON",,,,,"DR HORTON","14100 SOUTHWEST",HOUSTON,TX,77478,"(281) 201-5559",,,,
TX,HARRIS,2005070045,"Single Family Homes",5/15/2020,,107550,2390,"4435 FOLLINA TRL",HOUSTON,TX,77356,"VENTANA LAKES",,CONTRACTOR,,,,,,,,,,,"DR HORTON",,,,,"DR HORTON","14100 SOUTHWEST",HOUSTON,TX,77478,"(281) 201-5559",,,,
TX,HARRIS,2005070047,"Single Family Homes",5/15/2020,,122535,2723,"4431 FOLLINA TRL",HOUSTON,TX,77356,"VENTANA LAKES",,CONTRACTOR,,,,,,,,,,,"DR HORTON",,,,,"DR HORTON","14100 SOUTHWEST",HOUSTON,TX,77478,"(281) 201-5559",,,,
TX,HARRIS,2005070048,"Single Family Homes",5/15/2020,,103050,2290,"4427 FOLLINA TRL",HOUSTON,TX,77356,"VENTANA LAKES",,CONTRACTOR,,,,,,,,,,,"DR HORTON",,,,,"DR HORTON","14100 SOUTHWEST",HOUSTON,TX,77478,"(281) 201-5559",,,,
TX,HARRIS,2005070050,"Single Family Homes",5/15/2020,,122985,2733,"4423 FOLLINA TRL",HOUSTON,TX,77356,"VENTANA LAKES",,CONTRACTOR,,,,,,,,,,,"DR HORTON",,,,,"DR HORTON","14100 SOUTHWEST",HOUSTON,TX,77478,"(281) 201-5559",,,,
TX,HARRIS,2005080100,"Single Family Homes",5/15/2020,,110000,2117,"24131 PALOMINO SAGE TRL",HOUSTON,TX,77356,"PORTER RANCH",,CONTRACTOR,,,,,,,,,,,"LENNAR HOMES",,,,,"LENNAR HOMES","550 GREENS PKWY",HOUSTON,TX,77067-4537,"(281) 875-1000",http://www.lennar.com/,,,
TX,HARRIS,2005090013,"Single Family Homes",5/15/2020,,210000,1984,"16310 TULIPAN SPRING TRL",HOUSTON,TX,77356,GROVES,,CONTRACTOR,,,,,,,,,,,"PERRY HOMES",,,,,"PERRY HOMES","9000 GULF FWY",HOUSTON,TX,77017-7018,"(713) 417-1396",,,,
TX,HARRIS,2005100001,"Single Family Homes",5/15/2020,,260500,2504,"12139 MCKAVETT FORT DR",HOUSTON,TX,77356,GROVES,,CONTRACTOR,,,,,,,,,,,"PERRY HOMES",,,,,"PERRY HOMES","9000 GULF FWY",HOUSTON,TX,77017-7018,"(713) 417-1396",,,,
TX,HARRIS,2005050133,"Single Family Homes",5/15/2020,,262500,2545,"12102 MCKAVETT FORT DR",HOUSTON,TX,77356,GROVES,,CONTRACTOR,,,,,,,,,,,"PERRY HOMES",,,,,"PERRY HOMES","9000 GULF FWY",HOUSTON,TX,77017-7018,"(713) 417-1396",,,,
TX,HARRIS,2005060147,"Single Family Homes",5/15/2020,,250555,2501,"16302 WHITEOAK CANYON DR",HOUSTON,TX,77356,GROVES,,CONTRACTOR,,,,,,,,,,,"PERRY HOMES",,,,,"PERRY HOMES","9000 GULF FWY",HOUSTON,TX,77017-7018,"(713) 417-1396",,,,
TX,HARRIS,2005060149,"Single Family Homes",5/15/2020,,320500,3118,"12114 DRUMMOND MAPLE DR",HOUSTON,TX,77356,GROVES,,CONTRACTOR,,,,,,,,,,,"PERRY HOMES",,,,,"PERRY HOMES","9000 GULF FWY",HOUSTON,TX,77017-7018,"(713) 417-1396",,,,
TX,HARRIS,2005060150,"Single Family Homes",5/15/2020,,340500,3410,"16718 LANTANA VALLEY PL",HOUSTON,TX,77356,GROVES,,CONTRACTOR,,,,,,,,,,,"PERRY HOMES",,,,,"PERRY HOMES","9000 GULF FWY",HOUSTON,TX,77017-7018,"(713) 417-1396",,,,
TX,HARRIS,2005060151,"Single Family Homes",5/15/2020,,320500,3190,"16823 BEECHWOOD FOREST WAY",HOUSTON,TX,77356,GROVES,,CONTRACTOR,,,,,,,,,,,"PERRY HOMES",,,,,"PERRY HOMES","9000 GULF FWY",HOUSTON,TX,77017-7018,"(713) 417-1396",,,,
TX,HARRIS,2005100003,"Single Family Homes",5/15/2020,,200100,1984,"12115 TEXAS TRUMPET TRL",HOUSTON,TX,77356,GROVES,,CONTRACTOR,,,,,,,,,,,"PERRY HOMES",,,,,"PERRY HOMES","9000 GULF FWY",HOUSTON,TX,77017-7018,"(713) 417-1396",,,,
TX,HARRIS,2005060141,"Single Family Homes",5/15/2020,,210500,1773,"16323 PINTADO FOREST RD",HOUSTON,TX,77356,GROVES,,CONTRACTOR,,,,,,,,,,,"PERRY HOMES",,,,,"PERRY HOMES","9000 GULF FWY",HOUSTON,TX,77017-7018,"(713) 417-1396",,,,
TX,HARRIS,2005060143,"Single Family Homes",5/15/2020,,250500,2169,"12042 TEXAS TRUMPET TRL",HOUSTON,TX,77356,GROVES,,CONTRACTOR,,,,,,,,,,,"PERRY HOMES",,,,,"PERRY HOMES","9000 GULF FWY",HOUSTON,TX,77017-7018,"(713) 417-1396",,,,
TX,HARRIS,2005060144,"Single Family Homes",5/15/2020,,270500,2574,"16834 BEECHWOOD FOREST WAY",HOUSTON,TX,77356,GROVES,,CONTRACTOR,,,,,,,,,,,"PERRY HOMES",,,,,"PERRY HOMES","9000 GULF FWY",HOUSTON,TX,77017-7018,"(713) 417-1396",,,,
TX,HARRIS,2003040080,"Single Family Homes",5/15/2020,,213280,3501,"1505 COUNTRY CLUB DR",HOUSTON,TX,77356,,,CONTRACTOR,,,,,,,,,,,"DH HOMES",,,,,"DH HOMES","102 COUNTRY CROSING CIR",MAGNOLIA,TX,77354-3511,"(713) 570-6840",,,,
TX,HARRIS,2003040091,"Single Family Homes",5/15/2020,,228400,3452,"1513 COUNTRY CLUB DR",HOUSTON,TX,77356,,,CONTRACTOR,,,,,,,,,,,"DH HOMES",,,,,"DH HOMES","102 COUNTRY CROSING CIR",MAGNOLIA,TX,77354-3511,"(713) 570-6840",,,,
TX,HARRIS,2005110023,"Single Family Homes",5/15/2020,,64125,1815,"3527 BARTOLO BRUSH CT",HOUSTON,TX,77356,"CAMILLO LAKES ",,CONTRACTOR,,,,,,,,,,,"CAMILLO PROPERTIES",,,,,"CAMILLO PROPERTIES","6707 GESSNER RD",HOUSTON,TX,77040-4017,"(832) 500-0284",http://www.camillorentalhomes.com/,"(281) 325-0245",,
TX,HARRIS,2005110024,"Single Family Homes",5/15/2020,,68805,1915,"3531 BARTOLO BRUSH CT",HOUSTON,TX,77356,"CAMILLO LAKES ",,CONTRACTOR,,,,,,,,,,,"CAMILLO PROPERTIES",,,,,"CAMILLO PROPERTIES","6707 GESSNER RD",HOUSTON,TX,77040-4017,"(832) 500-0284",http://www.camillorentalhomes.com/,"(281) 325-0245",,
TX,HARRIS,2005110026,"Single Family Homes",5/15/2020,,80910,2184,"3535 BARTOLO BRUSH CT",HOUSTON,TX,77356,"CAMILLO LAKES",,CONTRACTOR,,,,,,,,,,,"CAMILLO PROPERTIES",,,,,"CAMILLO PROPERTIES","6707 GESSNER RD",HOUSTON,TX,77040-4017,"(832) 500-0284",http://www.camillorentalhomes.com/,"(281) 325-0245",,
TX,HARRIS,2005110028,"Single Family Homes",5/15/2020,,57330,1654,"3539 BARTOLO BRUSH CT",HOUSTON,TX,77356,"CAMILLO LAKES",,CONTRACTOR,,,,,,,,,,,"CAMILLO PROPERTIES",,,,,"CAMILLO PROPERTIES","6707 GESSNER RD",HOUSTON,TX,77040-4017,"(832) 500-0284",http://www.camillorentalhomes.com/,"(281) 325-0245",,
TX,HARRIS,2005110029,"Single Family Homes",5/15/2020,,64125,1815,"3543 BARTOLO BRUSH CT",HOUSTON,TX,77356,"CAMILLO LAKES",,CONTRACTOR,,,,,,,,,,,"CAMILLO PROPERTIES",,,,,"CAMILLO PROPERTIES","6707 GESSNER RD",HOUSTON,TX,77040-4017,"(832) 500-0284",http://www.camillorentalhomes.com/,"(281) 325-0245",,
TX,HARRIS,2005110030,"Single Family Homes",5/15/2020,,63855,1805,"3547 BARTOLO BRUSH CT",HOUSTON,TX,77356,"CAMILLO LAKES",,CONTRACTOR,,,,,,,,,,,"CAMILLO PROPERTIES",,,,,"CAMILLO PROPERTIES","6707 GESSNER RD",HOUSTON,TX,77040-4017,"(832) 500-0284",http://www.camillorentalhomes.com/,"(281) 325-0245",,
TX,HARRIS,2005110031,"Single Family Homes",5/15/2020,,62145,1771,"3551 BARTOLO BRUSH CT",HOUSTON,TX,77356,"CAMILLO LAKES",,CONTRACTOR,,,,,,,,,,,"CAMILLO PROPERTIES",,,,,"CAMILLO PROPERTIES","6707 GESSNER RD",HOUSTON,TX,77040-4017,"(832) 500-0284",http://www.camillorentalhomes.com/,"(281) 325-0245",,
TX,HARRIS,2005110032,"Single Family Homes",5/15/2020,,68805,1915,"3555 BARTOLO BRUSH CT",HOUSTON,TX,77356,"CAMILLO LAKES",,CONTRACTOR,,,,,,,,,,,"CAMILLO PROPERTIES",,,,,"CAMILLO PROPERTIES","6707 GESSNER RD",HOUSTON,TX,77040-4017,"(832) 500-0284",http://www.camillorentalhomes.com/,"(281) 325-0245",,
TX,HARRIS,2005050053,"Single Family Homes",5/15/2020,,160300,4580,"11203 OAKCREST MANOR LN",HOUSTON,TX,77356,"TOWNE LAKE",,CONTRACTOR,,,,,,,,,,,"DAVID WEEKLEY HOMES",,,,,"DAVID WEEKLEY HOMES","14444 NORTHWEST",HOUSTON,TX,77040,"(713) 570-5021",http://www.davidweekleyhomes.com/,,,
TX,HARRIS,2005080057,"Single Family Homes",5/15/2020,,122535,2723,"25507 PINYON HILL TRL",HOUSTON,TX,77356,"FAIRWAY FARMS",,CONTRACTOR,,,,,,,,,,,"DR HORTON",,,,,"DR HORTON","14100 SOUTHWEST",HOUSTON,TX,77478,"(281) 201-5559",,,,
TX,HARRIS,2005080059,"Single Family Homes",5/15/2020,,130275,2895,"25423 PINYON HILL TRL",HOUSTON,TX,77356,"FAIRWAY FARMS",,CONTRACTOR,,,,,,,,,,,"DR HORTON",,,,,"DR HORTON","14100 SOUTHWEST",HOUSTON,TX,77478,"(281) 201-5559",,,,
TX,HARRIS,2005080061,"Single Family Homes",5/15/2020,,122500,2723,"12038 LOCH MUICK DR",HOUSTON,TX,77356,BALMORAL,,CONTRACTOR,,,,,,,,,,,"DR HORTON",,,,,"DR HORTON","14100 SOUTHWEST",HOUSTON,TX,77478,"(281) 201-5559",,,,
TX,HARRIS,2004170002,"Single Family Homes",5/15/2020,,299500,2822,"14415 JAKES RUN DR",HOUSTON,TX,77356,"COYOTE CROSSING",,CONTRACTOR,,,,,,,,,,,"EAGLE POINT HOMES",,,,,"EAGLE POINT HOMES","4110 LANDON LN",BAYTOWN,TX,77523-9530,"(281) 573-9800",http://www.eaglepointhomes.net/,"(281) 573-9538",,sales@eaglepointhomes.net
TX,HARRIS,2005010005,"Single Family Homes",5/15/2020,,65000,2806,"19030 STOCK DR",HOUSTON,TX,77356,"REMINGTON CREEK RANCH",,CONTRACTOR,,,,,,,,,,,"LONG LAKE HOMES",,,,,"LONG LAKE HOMES","15915 KATY FWY STE 405",HOUSTON,TX,77094-1710,"(281) 646-1727",http://www.longlakeltd.com/,,"DAVID BIGLER",
TX,HARRIS,2005010006,"Single Family Homes",5/15/2020,,72000,3005,"15435 WANDERING CREEK TRL",HOUSTON,TX,77356,"SHELDON RIDGE",,CONTRACTOR,,,,,,,,,,,"LONG LAKE HOMES",,,,,"LONG LAKE HOMES","15915 KATY FWY STE 405",HOUSTON,TX,77094-1710,"(281) 646-1727",http://www.longlakeltd.com/,,"DAVID BIGLER",
TX,HARRIS,2005010007,"Single Family Homes",5/15/2020,,80000,3238,"15422 WANDERING CREEK TRL",HOUSTON,TX,77356,"SHELDON RIDGE",,CONTRACTOR,,,,,,,,,,,"LONG LAKE HOMES",,,,,"LONG LAKE HOMES","15915 KATY FWY STE 405",HOUSTON,TX,77094-1710,"(281) 646-1727",http://www.longlakeltd.com/,,"DAVID BIGLER",
TX,HARRIS,2005010011,"Single Family Homes",5/15/2020,,77000,3614,"4410 BUENTELLO DR",HOUSTON,TX,77356,,,CONTRACTOR,,,,,,,,,,,"LONG LAKE HOMES",,,,,"LONG LAKE HOMES","15915 KATY FWY STE 405",HOUSTON,TX,77094-1710,"(281) 646-1727",http://www.longlakeltd.com/,,"DAVID BIGLER",
TX,HARRIS,2005010053,"Single Family Homes",5/15/2020,,67000,2526,"807 ROUGH CUT CT",HOUSTON,TX,77356,"EAGLE LANDING",,CONTRACTOR,,,,,,,,,,,"LONG LAKE HOMES",,,,,"LONG LAKE HOMES","15915 KATY FWY STE 405",HOUSTON,TX,77094-1710,"(281) 646-1727",http://www.longlakeltd.com/,,"DAVID BIGLER",
TX,HARRIS,2005010055,"Single Family Homes",5/15/2020,,72000,3003,"927 ROUGH CUT CT",HOUSTON,TX,77356,"EAGLE LANDING",,CONTRACTOR,,,,,,,,,,,"LONG LAKE HOMES",,,,,"LONG LAKE HOMES","15915 KATY FWY STE 405",HOUSTON,TX,77094-1710,"(281) 646-1727",http://www.longlakeltd.com/,,"DAVID BIGLER",
TX,HARRIS,2005010059,"Single Family Homes",5/15/2020,,58500,2503,"1066 RANCH OAK DR",HOUSTON,TX,77356,"REMINGTON CREEK RANCH",,CONTRACTOR,,,,,,,,,,,"LONG LAKE HOMES",,,,,"LONG LAKE HOMES","15915 KATY FWY STE 405",HOUSTON,TX,77094-1710,"(281) 646-1727",http://www.longlakeltd.com/,,"DAVID BIGLER",
TX,HARRIS,2005010079,"Single Family Homes",5/15/2020,,81000,3586,"23826 PADAUK TREE TRL",HOUSTON,TX,77356,"MORTON CREEK RANCH",,CONTRACTOR,,,,,,,,,,,"LONG LAKE HOMES",,,,,"LONG LAKE HOMES","15915 KATY FWY STE 405",HOUSTON,TX,77094-1710,"(281) 646-1727",http://www.longlakeltd.com/,,"DAVID BIGLER",
TX,HARRIS,2005010080,"Single Family Homes",5/15/2020,,64000,2177,"17611 DAYLIGHT WOOD WAY",HOUSTON,TX,77356,"CLAYTONS PARK EAST",,CONTRACTOR,,,,,,,,,,,"LONG LAKE HOMES",,,,,"LONG LAKE HOMES","15915 KATY FWY STE 405",HOUSTON,TX,77094-1710,"(281) 646-1727",http://www.longlakeltd.com/,,"DAVID BIGLER",
TX,HARRIS,2005010082,"Single Family Homes",5/15/2020,,72000,3005,"3222 LOTUS BLOSSOM ST",HOUSTON,TX,77356,,,CONTRACTOR,,,,,,,,,,,"LONG LAKE HOMES",,,,,"LONG LAKE HOMES","15915 KATY FWY STE 405",HOUSTON,TX,77094-1710,"(281) 646-1727",http://www.longlakeltd.com/,,"DAVID BIGLER",
TX,HARRIS,2005050010,"Single Family Homes",5/15/2020,,74000,2884,"24503 EUCALYPTUS WAY",HOUSTON,TX,77356,"BRADBURY FOREST",,CONTRACTOR,,,,,,,,,,,"LONG LAKE HOMES",,,,,"LONG LAKE HOMES","15915 KATY FWY STE 405",HOUSTON,TX,77094-1710,"(281) 646-1727",http://www.longlakeltd.com/,,"DAVID BIGLER",
TX,HARRIS,2005060091,"Single Family Homes",5/15/2020,,232000,4951,"16824 DRY CREEK FALLS BLVD",HOUSTON,TX,77356,"FALLS AT DRY CREEK",,CONTRACTOR,,,,,,,,,,,"VILLAGE BUILDERS",,,,,"VILLAGE BUILDERS","550 GREENS PKWY STE 210",HOUSTON,TX,77067-4538,"(281) 873-4663",,,,
TX,HARRIS,2005040015,"Single Family Homes",5/15/2020,,166000,3733,"6610 LAKE OASIS DR",HOUSTON,TX,77356,"KATY LAKES",,CONTRACTOR,,,,,,,,,,,"GEHAN HOMES",,,,,"GEHAN HOMES","2050 W SAM HOUSTON PKWY S",HOUSTON,TX,77042-2079,"(713) 243-3545",http://www.gehanhomes.com,,,
TX,HARRIS,2005060116,"Single Family Homes",5/15/2020,,539900,5581,"12906 STALLION CREEK CT",HOUSTON,TX,77356,BRIDLECREEK,,CONTRACTOR,,,,,,,,,,,"PARTNERS IN BUILDING",,,,,"PARTNERS IN BUILDING","1803 RANCH ROAD 620 N",LAKEWAY,TX,78734-2611,"(512) 266-6701",http://www.partnersinbuilding.com,"(713) 937-1445",,info@partnersinbuilding.com
TX,HARRIS,2005060050,"Single Family Homes",5/15/2020,,305213,2998,"6327 WINTHROP TERRACE TRL",HOUSTON,TX,77356,ELYSON,,CONTRACTOR,,,,,,,,,,,"TAYLOR MORRISON OF TEXAS",,,,,"TAYLOR MORRISON OF TEXAS","5353 W SAM HOUSTON PKWY N STE 190",HOUSTON,TX,77041-5186,"(281) 598-3000",,,,
TX,HARRIS,2005060048,"Single Family Homes",5/15/2020,,90000,2000,"4431 SILVERGRASS LN",HOUSTON,TX,77356,"KATY POINTE",,CONTRACTOR,,,,,,,,,,,"MERITAGE HOMES",,,,,"MERITAGE HOMES","2901 W SAM HOUSTON PKWY N",HOUSTON,TX,77043-1630,"(713) 357-1184",,,,
TX,HARRIS,2005060065,"Single Family Homes",5/15/2020,,90000,2000,"24202 WILD BRAMBLE LN",HOUSTON,TX,77356,"KATY POINTE ",,CONTRACTOR,,,,,,,,,,,"MERITAGE HOMES",,,,,"MERITAGE HOMES","2901 W SAM HOUSTON PKWY N",HOUSTON,TX,77043-1630,"(713) 357-1184",,,,
TX,HARRIS,2005060073,"Single Family Homes",5/15/2020,,90000,2000,"4427 LOW MEADOW LN",HOUSTON,TX,77356,"KATY POINTE",,CONTRACTOR,,,,,,,,,,,"MERITAGE HOMES",,,,,"MERITAGE HOMES","2901 W SAM HOUSTON PKWY N",HOUSTON,TX,77043-1630,"(713) 357-1184",,,,
TX,HARRIS,2005070144,"Single Family Homes",5/15/2020,,152385,2366,"23951 NORTHWOOD TERRACE LN",HOUSTON,TX,77356,ELYSON,,CONTRACTOR,,,,,,,,,,,"CHESMAR HOMES",,,,,"CHESMAR HOMES","450 GEARS RD STE 400",HOUSTON,TX,77067-4513,"(281) 598-1111",http://chesmar.com,"(281) 598-1115",,customerservice.houston@chesmar.com
TX,HARRIS,2005070139,"Single Family Homes",5/15/2020,,146706,2425,"23019 PENSTEMON TRL",HOUSTON,TX,77356,ELYSON,,CONTRACTOR,,,,,,,,,,,"CHESMAR HOMES",,,,,"CHESMAR HOMES","450 GEARS RD STE 400",HOUSTON,TX,77067-4513,"(281) 598-1111",http://chesmar.com,"(281) 598-1115",,customerservice.houston@chesmar.com
TX,HARRIS,2005060088,"Single Family Homes",5/15/2020,,145000,3092,"6722 CHICOMA ST",HOUSTON,TX,77356,"VISTAS OF KLEIN LAKE",,CONTRACTOR,,,,,,,,,,,"VILLAGE BUILDERS",,,,,"VILLAGE BUILDERS","550 GREENS PKWY STE 210",HOUSTON,TX,77067-4538,"(281) 873-4663",,,,
TX,HARRIS,2005050039,"Single Family Homes",5/15/2020,,122210,2222,"15230 LILY BANK DR",HOUSTON,TX,77356,BALMORAL,,CONTRACTOR,,,,,,,,,,,"CASTLEROCK COMMUNITIES",,,,,"CASTLEROCK COMMUNITIES","7670 WOODWAY DR STE 300",HOUSTON,TX,77063-1520,"(713) 600-7000",http://c-rock.com,"(713) 600-0000",,
TX,HARRIS,2005080017,"Single Family Homes",5/15/2020,,102000,1632,"4318 CEDAR ELM ST",HOUSTON,TX,77356,,,CONTRACTOR,,,,,,,,,,,"LENNAR HOMES",,,,,"LENNAR HOMES","550 GREENS PKWY",HOUSTON,TX,77067-4537,"(281) 875-1000",http://www.lennar.com/,,,
TX,HARRIS,2005070049,"Single Family Homes",5/15/2020,,94095,2091,"2414 CRYSTAL PEAK TRL",HOUSTON,TX,77356,BRECKENRIDGE,,CONTRACTOR,,,,,,,,,,,"DR HORTON",,,,,"DR HORTON","14100 SOUTHWEST",HOUSTON,TX,77478,"(281) 201-5559",,,,
TX,HARRIS,2005070051,"Single Family Homes",5/15/2020,,140040,3112,"2418 CRYSTAL PEAK TRL",HOUSTON,TX,77356,BRECKENRIDGE,,CONTRACTOR,,,,,,,,,,,"DR HORTON",,,,,"DR HORTON","14100 SOUTHWEST",HOUSTON,TX,77478,"(281) 201-5559",,,,
TX,HARRIS,2005070052,"Single Family Homes",5/15/2020,,93510,2078,"2422 CRYSTAL PEAK TRL",HOUSTON,TX,77356,BRECKENRIDGE,,CONTRACTOR,,,,,,,,,,,"DR HORTON",,,,,"DR HORTON","14100 SOUTHWEST",HOUSTON,TX,77478,"(281) 201-5559",,,,
TX,HARRIS,2005070053,"Single Family Homes",5/15/2020,,90540,2012,"2426 CRYSTAL PEAK TRL",HOUSTON,TX,77356,BRECKENRIDGE,,CONTRACTOR,,,,,,,,,,,"DR HORTON",,,,,"DR HORTON","14100 SOUTHWEST",HOUSTON,TX,77478,"(281) 201-5559",,,,
TX,HARRIS,2005070055,"Single Family Homes",5/15/2020,,119250,2650,"2430 CRYSTAL PEAK TRL",HOUSTON,TX,77356,BRECKENRIDGE,,CONTRACTOR,,,,,,,,,,,"DR HORTON",,,,,"DR HORTON","14100 SOUTHWEST",HOUSTON,TX,77478,"(281) 201-5559",,,,
TX,HARRIS,2005070056,"Single Family Homes",5/15/2020,,146565,3257,"25427 PINYON HILL TRL",HOUSTON,TX,77356,"FAIRWAY FARMS",,CONTRACTOR,,,,,,,,,,,"DR HORTON",,,,,"DR HORTON","14100 SOUTHWEST",HOUSTON,TX,77478,"(281) 201-5559",,,,
TX,HARRIS,2005070058,"Single Family Homes",5/15/2020,,147690,3282,"25503 PINYON HILL TRL",HOUSTON,TX,77356,"FAIRWAY FARMS",,CONTRACTOR,,,,,,,,,,,"DR HORTON",,,,,"DR HORTON","14100 SOUTHWEST",HOUSTON,TX,77478,"(281) 201-5559",,,,
TX,HARRIS,2005070060,"Single Family Homes",5/15/2020,,147690,3282,"25710 LOBLOLLY WOOD DR",HOUSTON,TX,77356,"FAIRWAY FARMS",,CONTRACTOR,,,,,,,,,,,"DR HORTON",,,,,"DR HORTON","14100 SOUTHWEST",HOUSTON,TX,77478,"(281) 201-5559",,,,
TX,HARRIS,2005080018,"Single Family Homes",5/15/2020,,97000,1560,"4319 CEDAR ELM ST",HOUSTON,TX,77356,,,CONTRACTOR,,,,,,,,,,,"LENNAR HOMES",,,,,"LENNAR HOMES","550 GREENS PKWY",HOUSTON,TX,77067-4537,"(281) 875-1000",http://www.lennar.com/,,,
TX,HARRIS,2005140054,"Single Family Homes",5/15/2020,,125640,2754,"15202 DINNET BERM DR",HOUSTON,TX,77356,BALMORAL,,CONTRACTOR,,,,,,,,,,,"DR HORTON",,,,,"DR HORTON","14100 SOUTHWEST",HOUSTON,TX,77478,"(281) 201-5559",,,,
TX,HARRIS,2005140107,"Single Family Homes",5/15/2020,,112545,2501,"4410 NAVELLI WAY",HOUSTON,TX,77356,"VENTANA LAKES",,CONTRACTOR,,,,,,,,,,,"DR HORTON",,,,,"DR HORTON","14100 SOUTHWEST",HOUSTON,TX,77478,"(281) 201-5559",,,,
TX,HARRIS,2005120099,"Single Family Homes",5/15/2020,,146643,2425,"12227 CASTANO CREEK DR",HOUSTON,TX,77356,GROVES,,CONTRACTOR,,,,,,,,,,,"CHESMAR HOMES",,,,,"CHESMAR HOMES","450 GEARS RD STE 400",HOUSTON,TX,77067-4513,"(281) 598-1111",http://chesmar.com,"(281) 598-1115",,customerservice.houston@chesmar.com
TX,HARRIS,2005120101,"Single Family Homes",5/15/2020,,143906,2075,"16926 RUELLIA FIELD RD",HOUSTON,TX,77356,GROVES,,CONTRACTOR,,,,,,,,,,,"CHESMAR HOMES",,,,,"CHESMAR HOMES","450 GEARS RD STE 400",HOUSTON,TX,77067-4513,"(281) 598-1111",http://chesmar.com,"(281) 598-1115",,customerservice.houston@chesmar.com
TX,HARRIS,2005120014,"Single Family Homes",5/15/2020,,113002,1702,"31118 ALBANY BROOK LN",HOUSTON,TX,77356,DELLROSE,,CONTRACTOR,,,,,,,,,,,"CHESMAR HOMES",,,,,"CHESMAR HOMES","450 GEARS RD STE 400",HOUSTON,TX,77067-4513,"(281) 598-1111",http://chesmar.com,"(281) 598-1115",,customerservice.houston@chesmar.com
TX,HARRIS,2003250072,"Single Family Homes",5/15/2020,,199000,3062,"13042 CHESTNUT STREAM TRL",HOUSTON,TX,77356,"MILLS CREEK CROSSING",,CONTRACTOR,,,,,,,,,,,"KB HOME",,,,,"KB HOME","11314 RICHMOND AVE",HOUSTON,TX,77082-2616,"(281) 668-3800",,,,
TX,HARRIS,2005140118,"Single Family Homes",5/15/2020,,153000,2360,"16518 LIVE OAK CANYON DR",HOUSTON,TX,77356,"HILLSDALE CREEK",,CONTRACTOR,,,,,,,,,,,"KB HOME",,,,,"KB HOME","11314 RICHMOND AVE",HOUSTON,TX,77082-2616,"(281) 668-3800",,,,
TX,HARRIS,2005140138,"Single Family Homes",5/15/2020,,146000,2241,"5334 ROSE TRELLIS ST",HOUSTON,TX,77356,"KATY MANOR",,CONTRACTOR,,,,,,,,,,,"KB HOME",,,,,"KB HOME","11314 RICHMOND AVE",HOUSTON,TX,77082-2616,"(281) 668-3800",,,,
TX,HARRIS,2005140140,"Single Family Homes",5/15/2020,,180000,2770,"5251 CRIMSON FLAGG CT",HOUSTON,TX,77356,"KATY MANOR",,CONTRACTOR,,,,,,,,,,,"KB HOME",,,,,"KB HOME","11314 RICHMOND AVE",HOUSTON,TX,77082-2616,"(281) 668-3800",,,,
TX,HARRIS,2004280022,"Single Family Homes",5/15/2020,,105875,3205,"18406 WINDING WILLOW OAK WAY",HOUSTON,TX,77356,"TOWNE LAKE",,CONTRACTOR,,,,,,,,,,,"DAVID WEEKLEY HOMES",,,,,"DAVID WEEKLEY HOMES","14444 NORTHWEST",HOUSTON,TX,77040,"(713) 570-5021",http://www.davidweekleyhomes.com/,,,
TX,HARRIS,2005060109,"Single Family Homes",5/15/2020,,50000,1401,"2906 JORENT DR",HOUSTON,TX,77356,"LEWIS HIGHLAND",,"MIGUEL HERNANDEZ","2906 JORENT DR",HOUSTON,TX,77356,,Owner,,,,,OWNER,,,,,OWNER,,,,,,,,,
TX,HARRIS,2005110066,"Single Family Homes",5/15/2020,,190800,2120,"31114 BIRCH MILLS DR",HOUSTON,TX,77356,DELLROSE,,CONTRACTOR,,,,,,,,,,,"EHT OF TEXAS LP",,,,,"EHT OF TEXAS LP","10235 LITTLE",HOUSTON,TX,77040,"(713) 557-3685",,,,
TX,HARRIS,2005110067,"Single Family Homes",5/15/2020,,138600,1540,"31115 ALBANY BROOK LN",HOUSTON,TX,77356,DELLROSE,,CONTRACTOR,,,,,,,,,,,"EHT OF TEXAS LP",,,,,"EHT OF TEXAS LP","10235 LITTLE",HOUSTON,TX,77040,"(713) 557-3685",,,,
TX,HARRIS,2005110046,"Single Family Homes",5/15/2020,,75000,1500,"6739 SCARLET SAGEBRUSH ST",HOUSTON,TX,77356,LANTANA,,CONTRACTOR,,,,,,,,,,,"M/I HOMES",,,,,"M/I HOMES","10910 NORTH SAM HOUSTON PKWY W",HOUSTON,TX,77064,"(832) 912-1012",,,,
TX,HARRIS,2002270017,"Single Family Homes",5/15/2020,,262601,3989,"24919 HEATHER GLADE TRL",HOUSTON,TX,77356,"LAKES AT CREEKSIDE",,CONTRACTOR,,,,,,,,,,,"TRENDMAKER HOMES",,,,,"TRENDMAKER HOMES","16340 PARK TEN PL STE 250",HOUSTON,TX,77084-5144,"(281) 675-3200",,"(281) 675-3251","MARTIN EVANS",
TX,HARRIS,2003020065,"Single Family Homes",5/15/2020,,235258,3581,"24915 GINGERBUSH LN",HOUSTON,TX,77356,"LAKES AT CREEKSIDE",,CONTRACTOR,,,,,,,,,,,"TRENDMAKER HOMES",,,,,"TRENDMAKER HOMES","16340 PARK TEN PL STE 250",HOUSTON,TX,77084-5144,"(281) 675-3200",,"(281) 675-3251","MARTIN EVANS",
TX,HARRIS,2003030077,"Single Family Homes",5/15/2020,,311311,4746,"24923 HEATHER GLADE TRL",HOUSTON,TX,77356,"LAKES AT CREEKSIDE",,CONTRACTOR,,,,,,,,,,,"TRENDMAKER HOMES",,,,,"TRENDMAKER HOMES","16340 PARK TEN PL STE 250",HOUSTON,TX,77084-5144,"(281) 675-3200",,"(281) 675-3251","MARTIN EVANS",
TX,HARRIS,2003100006,"Single Family Homes",5/15/2020,,309789,4720,"24906 HEATHER GLADE TRL",HOUSTON,TX,77356,"LAKES AT CREEKSIDE",,CONTRACTOR,,,,,,,,,,,"TRENDMAKER HOMES",,,,,"TRENDMAKER HOMES","16340 PARK TEN PL STE 250",HOUSTON,TX,77084-5144,"(281) 675-3200",,"(281) 675-3251","MARTIN EVANS",
TX,HARRIS,2003100008,"Single Family Homes",5/15/2020,,229705,3478,"8915 SQUARE VIEW LN",HOUSTON,TX,77356,"LAKES AT CREEKSIDE",,CONTRACTOR,,,,,,,,,,,"TRENDMAKER HOMES",,,,,"TRENDMAKER HOMES","16340 PARK TEN PL STE 250",HOUSTON,TX,77084-5144,"(281) 675-3200",,"(281) 675-3251","MARTIN EVANS",
TX,HARRIS,2003200023,"Single Family Homes",5/15/2020,,350000,8153,"13318 TROPICANA DR",HOUSTON,TX,77356,"TWIN LAKES",,"ALI LAKHANY","13318 TROPICANA DR",HOUSTON,TX,77356,,Owner,,,,,OWNER,,,,,OWNER,,,,,,,,,
TX,HARRIS,2004130079,"Single Family Homes",5/15/2020,,350000,8351,"5403 CHINA DOLL CT",HOUSTON,TX,77356,"TWIN LAKES",,"EMAD LAKHANY","5403 CHINA DOLL CT",HOUSTON,TX,77356,,Owner,,,,,OWNER,,,,,OWNER,,,,,,,,,
TX,HARRIS,2005140136,"Single Family Homes",5/15/2020,,135000,2070,"5219 TALL TOWER ST",HOUSTON,TX,77356,"KATY MANOR",,CONTRACTOR,,,,,,,,,,,"KB HOME",,,,,"KB HOME","11314 RICHMOND AVE",HOUSTON,TX,77082-2616,"(281) 668-3800",,,,
TX,HARRIS,2005140137,"Single Family Homes",5/15/2020,,146000,2241,"5247 CRIMSON FLAGG CT",HOUSTON,TX,77356,"KATY MANOR",,CONTRACTOR,,,,,,,,,,,"KB HOME",,,,,"KB HOME","11314 RICHMOND AVE",HOUSTON,TX,77082-2616,"(281) 668-3800",,,,
TX,HARRIS,2005120067,"Single Family Homes",5/15/2020,,65000,2446,"18303 WINDING ELM TRL",HOUSTON,TX,77356,"GRAND OAKS",,CONTRACTOR,,,,,,,,,,,"LONG LAKE HOMES",,,,,"LONG LAKE HOMES","15915 KATY FWY STE 405",HOUSTON,TX,77094-1710,"(281) 646-1727",http://www.longlakeltd.com/,,"DAVID BIGLER",
TX,HARRIS,2005120016,"Single Family Homes",5/15/2020,,98800,2470,"19410 PACERS GAIT LN",HOUSTON,TX,77356,AMIRA,,CONTRACTOR,,,,,,,,,,,"BEAZER HOMES ",,,,,"BEAZER HOMES ","10235 W LITTLE YORK",HOUSTON,TX,77040,"(713) 849-2252",http://www.beazer.com/,,,
TX,HARRIS,2005120040,"Single Family Homes",5/15/2020,,81865,2274,"18515 GRATIFICATION LN",HOUSTON,TX,77356,"BRIDGELAND PARKLAND VILLAGE",,CONTRACTOR,,,,,,,,,,,"DAVID WEEKLEY HOMES",,,,,"DAVID WEEKLEY HOMES","14444 NORTHWEST",HOUSTON,TX,77040,"(713) 570-5021",http://www.davidweekleyhomes.com/,,,
TX,HARRIS,2005140141,"Single Family Homes",5/15/2020,,65300,3065,"13406 WEDGEWOOD THICKET WAY",HOUSTON,TX,77356,"ALDEN WOODS",,CONTRACTOR,,,,,,,,,,,"MHI MCGUYER HOMEBUILDERS",,,,,"MHI MCGUYER HOMEBUILDERS","7676 WOODWAY DR",HOUSTON,TX,77063-1526,"(713) 260-4107",,,,
TX,HARRIS,2004240021,"Single Family Homes",5/15/2020,,120000,2336,"24814 ROSSO STIPPLE TRL",HOUSTON,TX,77356,"CAMILLO LAKES ",,CONTRACTOR,,,,,,,,,,,"LEGEND HOMES",,,,,"LEGEND HOMES","10410 WINDAMERE LAKES BLVD",HOUSTON,TX,77065-4996,"(281) 671-9060",http://legendhomecorp.com/,"(281) 671-9055",,
TX,HARRIS,2004240024,"Single Family Homes",5/15/2020,,172000,2492,"24818 ROSSO STIPPLE TRL",HOUSTON,TX,77356,"CAMILLO LAKES ",,CONTRACTOR,,,,,,,,,,,"LEGEND HOMES",,,,,"LEGEND HOMES","10410 WINDAMERE LAKES BLVD",HOUSTON,TX,77065-4996,"(281) 671-9060",http://legendhomecorp.com/,"(281) 671-9055",,
TX,HARRIS,2004240046,"Single Family Homes",5/15/2020,,104000,2521,"24822 ROSSO STIPPLE TRL",HOUSTON,TX,77356,"CAMILLO LAKES ",,CONTRACTOR,,,,,,,,,,,"LEGEND HOMES",,,,,"LEGEND HOMES","10410 WINDAMERE LAKES BLVD",HOUSTON,TX,77065-4996,"(281) 671-9060",http://legendhomecorp.com/,"(281) 671-9055",,
TX,HARRIS,2004240047,"Single Family Homes",5/15/2020,,116000,3044,"24830 ROSSO STIPPLE TRL",HOUSTON,TX,77356,"CAMILLO LAKES ",,CONTRACTOR,,,,,,,,,,,"LEGEND HOMES",,,,,"LEGEND HOMES","10410 WINDAMERE LAKES BLVD",HOUSTON,TX,77065-4996,"(281) 671-9060",http://legendhomecorp.com/,"(281) 671-9055",,
TX,HARRIS,2004240048,"Single Family Homes",5/15/2020,,104000,2125,"24834 ROSSO STIPPLE TRL",HOUSTON,TX,77356,"CAMILLO LAKES ",,CONTRACTOR,,,,,,,,,,,"LEGEND HOMES",,,,,"LEGEND HOMES","10410 WINDAMERE LAKES BLVD",HOUSTON,TX,77065-4996,"(281) 671-9060",http://legendhomecorp.com/,"(281) 671-9055",,
TX,HARRIS,2004240051,"Single Family Homes",5/15/2020,,116000,3044,"3827 GIORGIO PASTEL PL",HOUSTON,TX,77356,"CAMILLO LAKES",,CONTRACTOR,,,,,,,,,,,"LEGEND HOMES",,,,,"LEGEND HOMES","10410 WINDAMERE LAKES BLVD",HOUSTON,TX,77065-4996,"(281) 671-9060",http://legendhomecorp.com/,"(281) 671-9055",,
TX,HARRIS,2004240049,"Single Family Homes",5/15/2020,,104000,2521,"3835 GIORGIO PASTEL PL",HOUSTON,TX,77356,"CAMILLO LAKES ",,CONTRACTOR,,,,,,,,,,,"LEGEND HOMES",,,,,"LEGEND HOMES","10410 WINDAMERE LAKES BLVD",HOUSTON,TX,77065-4996,"(281) 671-9060",http://legendhomecorp.com/,"(281) 671-9055",,
TX,HARRIS,2004240019,"Single Family Homes",5/15/2020,,144000,3044,"24534 LORENZO GLAZE TRL",HOUSTON,TX,77356,"CAMILLO LAKES ",,CONTRACTOR,,,,,,,,,,,"LEGEND HOMES",,,,,"LEGEND HOMES","10410 WINDAMERE LAKES BLVD",HOUSTON,TX,77065-4996,"(281) 671-9060",http://legendhomecorp.com/,"(281) 671-9055",,
TX,HARRIS,2005050011,"Single Family Homes",5/15/2020,,355093,4245,"13403 WEDGEWOOD THICKET WAY",HOUSTON,TX,77356,"ALDEN WOODS",,CONTRACTOR,,,,,,,,,,,"TAYLOR MORRISON OF TEXAS",,,,,"TAYLOR MORRISON OF TEXAS","5353 W SAM HOUSTON PKWY N STE 190",HOUSTON,TX,77041-5186,"(281) 598-3000",,,,
TX,HARRIS,2005050087,"Single Family Homes",5/15/2020,,103945,1892,"16619 TAURUS RUN DR",HOUSTON,TX,77356,"ATASCOCITA TRACE",,CONTRACTOR,,,,,,,,,,,"ANGLIA HOMES",,,,,"ANGLIA HOMES","17510 RED OAK DR",HOUSTON,TX,77090,"(281) 943-5288",http://www.angliahomeslp.com/,,,
TX,HARRIS,2005050089,"Single Family Homes",5/15/2020,,112345,2268,"2618 CHAPLIN PLACE DR",HOUSTON,TX,77356,"ATASCOCITA TRACE",,CONTRACTOR,,,,,,,,,,,"ANGLIA HOMES",,,,,"ANGLIA HOMES","17510 RED OAK DR",HOUSTON,TX,77090,"(281) 943-5288",http://www.angliahomeslp.com/,,,
TX,HARRIS,2005050090,"Single Family Homes",5/15/2020,,113920,2487,"16922 BERETTA BEND DR",HOUSTON,TX,77356,"ATASCOCITA TRACE",,CONTRACTOR,,,,,,,,,,,"ANGLIA HOMES",,,,,"ANGLIA HOMES","17510 RED OAK DR",HOUSTON,TX,77090,"(281) 943-5288",http://www.angliahomeslp.com/,,,
TX,HARRIS,2005050091,"Single Family Homes",5/15/2020,,106045,1857,"2619 CHAPLIN PLACE DR",HOUSTON,TX,77356,"ATASCOCITA TRACE",,CONTRACTOR,,,,,,,,,,,"ANGLIA HOMES",,,,,"ANGLIA HOMES","17510 RED OAK DR",HOUSTON,TX,77090,"(281) 943-5288",http://www.angliahomeslp.com/,,,
TX,HARRIS,2005050096,"Single Family Homes",5/15/2020,,133345,2320,"24603 LAKE BASIN CT",HOUSTON,TX,77356,"LAKECREST FOREST",,CONTRACTOR,,,,,,,,,,,"ANGLIA HOMES",,,,,"ANGLIA HOMES","17510 RED OAK DR",HOUSTON,TX,77090,"(281) 943-5288",http://www.angliahomeslp.com/,,,
TX,HARRIS,2005060043,"Single Family Homes",5/15/2020,,121795,1673,"15206 KINORD RUN DR",HOUSTON,TX,77356,BALMORAL,,CONTRACTOR,,,,,,,,,,,"ANGLIA HOMES",,,,,"ANGLIA HOMES","17510 RED OAK DR",HOUSTON,TX,77090,"(281) 943-5288",http://www.angliahomeslp.com/,,,
TX,HARRIS,2005060038,"Single Family Homes",5/15/2020,,90000,2000,"4415 SILVERGRASS LN",HOUSTON,TX,77356,"KATY POINTE",,CONTRACTOR,,,,,,,,,,,"MERITAGE HOMES",,,,,"MERITAGE HOMES","2901 W SAM HOUSTON PKWY N",HOUSTON,TX,77043-1630,"(713) 357-1184",,,,
TX,HARRIS,2005060040,"Single Family Homes",5/15/2020,,90000,2000,"4419 SILVERGRASS LN",HOUSTON,TX,77356,"KATY POINTE ",,CONTRACTOR,,,,,,,,,,,"MERITAGE HOMES",,,,,"MERITAGE HOMES","2901 W SAM HOUSTON PKWY N",HOUSTON,TX,77043-1630,"(713) 357-1184",,,,
TX,HARRIS,2005060044,"Single Family Homes",5/15/2020,,90000,2000,"4423 SILVERGRASS LN",HOUSTON,TX,77356,"KATY POINTE ",,CONTRACTOR,,,,,,,,,,,"MERITAGE HOMES",,,,,"MERITAGE HOMES","2901 W SAM HOUSTON PKWY N",HOUSTON,TX,77043-1630,"(713) 357-1184",,,,
TX,HARRIS,2005060047,"Single Family Homes",5/15/2020,,90000,2000,"4427 SILVERGRASS LN",HOUSTON,TX,77356,"KATY POINTE",,CONTRACTOR,,,,,,,,,,,"MERITAGE HOMES",,,,,"MERITAGE HOMES","2901 W SAM HOUSTON PKWY N",HOUSTON,TX,77043-1630,"(713) 357-1184",,,,
TX,HARRIS,2005060056,"Single Family Homes",5/15/2020,,90000,2000,"24226 WILD BRAMBLE LN",HOUSTON,TX,77356,"KATY POINTE",,CONTRACTOR,,,,,,,,,,,"MERITAGE HOMES",,,,,"MERITAGE HOMES","2901 W SAM HOUSTON PKWY N",HOUSTON,TX,77043-1630,"(713) 357-1184",,,,
TX,HARRIS,2005060058,"Single Family Homes",5/15/2020,,90000,2000,"24222 WILD BRAMBLE LN",HOUSTON,TX,77356,"KATY POINTE",,CONTRACTOR,,,,,,,,,,,"MERITAGE HOMES",,,,,"MERITAGE HOMES","2901 W SAM HOUSTON PKWY N",HOUSTON,TX,77043-1630,"(713) 357-1184",,,,
TX,HARRIS,2005060062,"Single Family Homes",5/15/2020,,90000,2000,"24218 WILD BRAMBLE LN",HOUSTON,TX,77356,"KATY POINTE",,CONTRACTOR,,,,,,,,,,,"MERITAGE HOMES",,,,,"MERITAGE HOMES","2901 W SAM HOUSTON PKWY N",HOUSTON,TX,77043-1630,"(713) 357-1184",,,,
TX,HARRIS,2005060070,"Single Family Homes",5/15/2020,,90000,2000,"24206 WILD BRAMBLE LN",HOUSTON,TX,77356,"KATY POINTE",,CONTRACTOR,,,,,,,,,,,"MERITAGE HOMES",,,,,"MERITAGE HOMES","2901 W SAM HOUSTON PKWY N",HOUSTON,TX,77043-1630,"(713) 357-1184",,,,
TX,HARRIS,2003260120,"Single Family Homes",5/15/2020,,350000,4572,"22802 ROSEHOLLOW TRL",HOUSTON,TX,77356,"ROSEWOOD HILLS",,"MATHEW HURST","22802 ROSEHOLLOW TRL",HOUSTON,TX,77356,,Owner,,,,,OWNER,,,,,OWNER,,,,,,,,,
TX,HARRIS,2004270052,"Single Family Homes",5/15/2020,,219600,2440,"21235 TRUMPET LILY TRL",HOUSTON,TX,77356,"ROSE MEADOW FARMS",,CONTRACTOR,,,,,,,,,,,"RAUSCH COLEMAN HOMES",,,,,"RAUSCH COLEMAN HOMES","9504 N IH35 STE 310","SAN ANTONIO",TX,78233,"(210) 231-0703",https://www.rauschcolemanhomes.com/,,,
TX,HARRIS,2004270050,"Single Family Homes",5/15/2020,,196020,2178,"18631 YELLOW LILY TRL",HOUSTON,TX,77356,"ROSE MEADOW FARMS",,CONTRACTOR,,,,,,,,,,,"RAUSCH COLEMAN HOMES",,,,,"RAUSCH COLEMAN HOMES","9504 N IH35 STE 310","SAN ANTONIO",TX,78233,"(210) 231-0703",https://www.rauschcolemanhomes.com/,,,
TX,HARRIS,2004080136,"Single Family Homes",5/15/2020,,91805,2623,"15806 CELEBRATION LN",HOUSTON,TX,77356,"BRIDGELAND PARKLAND VILLAGE",,CONTRACTOR,,,,,,,,,,,"DAVID WEEKLEY HOMES",,,,,"DAVID WEEKLEY HOMES","14444 NORTHWEST",HOUSTON,TX,77040,"(713) 570-5021",http://www.davidweekleyhomes.com/,,,
TX,HARRIS,2004290004,"Single Family Homes",5/15/2020,,225487.94,2488,"8022 DURKLYN LN",HOUSTON,TX,77356,"SCHROEDER OAKS",,"LABUS LTD","8022 DURKLYN LN",HOUSTON,TX,77356,,Owner,,,,,OWNER,,,,,OWNER,,,,,,,,,
TX,HARRIS,2005060075,"Single Family Homes",5/15/2020,,90000,2000,"4423 LOW MEADOW LN",HOUSTON,TX,77356,"KATY POINTE",,CONTRACTOR,,,,,,,,,,,"MERITAGE HOMES",,,,,"MERITAGE HOMES","2901 W SAM HOUSTON PKWY N",HOUSTON,TX,77043-1630,"(713) 357-1184",,,,
TX,HARRIS,2005060078,"Single Family Homes",5/15/2020,,90000,2000,"4422 SILVERGRASS LN",HOUSTON,TX,77356,"KATY POINTE",,CONTRACTOR,,,,,,,,,,,"MERITAGE HOMES",,,,,"MERITAGE HOMES","2901 W SAM HOUSTON PKWY N",HOUSTON,TX,77043-1630,"(713) 357-1184",,,,
TX,HARRIS,2005060080,"Single Family Homes",5/15/2020,,90000,2000,"4418 SILVERGRASS LN",HOUSTON,TX,77356,"KATY POINTE",,CONTRACTOR,,,,,,,,,,,"MERITAGE HOMES",,,,,"MERITAGE HOMES","2901 W SAM HOUSTON PKWY N",HOUSTON,TX,77043-1630,"(713) 357-1184",,,,
TX,HARRIS,2005060081,"Single Family Homes",5/15/2020,,90000,2000,"4414 SILVERGRASS LN",HOUSTON,TX,77356,"KATY POINTE",,CONTRACTOR,,,,,,,,,,,"MERITAGE HOMES",,,,,"MERITAGE HOMES","2901 W SAM HOUSTON PKWY N",HOUSTON,TX,77043-1630,"(713) 357-1184",,,,
TX,HARRIS,2004020133,"Single Family Homes",5/15/2020,,133814,1869,"23333 SANDPIPER TRL",HOUSTON,TX,77356,"SANDPIPER VILLAGE",,CONTRACTOR,,,,,,,,,,,"VISTAMONT HOME BUILDERS",,,,,"VISTAMONT HOME BUILDERS","12602 N FWY ST",HOUSTON,TX,77060,"(855) 713-1088",,,,
TX,HARRIS,2004020141,"Single Family Homes",5/15/2020,,123954,1944,"23335 SANDPIPER TRL",HOUSTON,TX,77356,"SANDPIPER VILLAGE",,CONTRACTOR,,,,,,,,,,,"VISTAMONT HOME BUILDERS",,,,,"VISTAMONT HOME BUILDERS","12602 N FWY ST",HOUSTON,TX,77060,"(855) 713-1088",,,,
TX,HARRIS,2004020150,"Single Family Homes",5/15/2020,,116599,1829,"23337 SANDPIPER TRL",HOUSTON,TX,77356,"SANDPIPER VILLAGE",,CONTRACTOR,,,,,,,,,,,"VISTAMONT HOME BUILDERS",,,,,"VISTAMONT HOME BUILDERS","12602 N FWY ST",HOUSTON,TX,77060,"(855) 713-1088",,,,
TX,HARRIS,2005060107,"Single Family Homes",5/15/2020,,138732,2692,"12930 SILVERBANK RUN DR",HOUSTON,TX,77356,BALMORAL,,CONTRACTOR,,,,,,,,,,,"COLINA HOMES",,,,,"COLINA HOMES","1314 N DURHAM DR",HOUSTON,TX,77008-3734,"(281) 528-9090",http://colinahomes.com/,,,postmaster@colinahomes.com
TX,HARRIS,2005050054,"Single Family Homes",5/15/2020,,147000,2918,"17322 MARIE TERRACE CT",HOUSTON,TX,77356,DELLROSE,,CONTRACTOR,,,,,,,,,,,"LENNAR HOMES",,,,,"LENNAR HOMES","550 GREENS PKWY",HOUSTON,TX,77067-4537,"(281) 875-1000",http://www.lennar.com/,,,
TX,HARRIS,2005050055,"Single Family Homes",5/15/2020,,160000,3030,"17331 LYNN ORCHARD DR",HOUSTON,TX,77356,DELLROSE,,CONTRACTOR,,,,,,,,,,,"LENNAR HOMES",,,,,"LENNAR HOMES","550 GREENS PKWY",HOUSTON,TX,77067-4537,"(281) 875-1000",http://www.lennar.com/,,,
TX,HARRIS,2005060089,"Single Family Homes",5/15/2020,,201000,4568,"18902 BALMORHEA PARK DR",HOUSTON,TX,77356,"BRIDGELAND PARKLAND VILLAGE",,CONTRACTOR,,,,,,,,,,,"VILLAGE BUILDERS",,,,,"VILLAGE BUILDERS","550 GREENS PKWY STE 210",HOUSTON,TX,77067-4538,"(281) 873-4663",,,,
TX,HARRIS,2005060090,"Single Family Homes",5/15/2020,,244000,4996,"19903 CERRO VISTA ST",HOUSTON,TX,77356,"VISTAS OF KLEIN LAKE",,CONTRACTOR,,,,,,,,,,,"VILLAGE BUILDERS",,,,,"VILLAGE BUILDERS","550 GREENS PKWY STE 210",HOUSTON,TX,77067-4538,"(281) 873-4663",,,,
TX,HARRIS,2004280061,"Single Family Homes",5/15/2020,,182000,2803,"6015 BRISTOL SPUR LN",HOUSTON,TX,77356,ELYSON,,CONTRACTOR,,,,,,,,,,,"WESTIN HOMES",,,,,"WESTIN HOMES","1 SUGAR CREEK CENTER BLVD STE 600","SUGAR LAND",TX,77478-3787,"(281) 240-1551",http://www.westin-homes.com,,,
TX,HARRIS,2005040018,"Single Family Homes",5/15/2020,,198930,1413,"5810 BUCKNER CREEK CT",HOUSTON,TX,77356,"KATY CROSSING",,CONTRACTOR,,,,,,,,,,,"PULTE HOMES",,,,,"PULTE HOMES","16670 PARK ROW",HOUSTON,TX,77084-6866,"(281) 749-8000",,,,
TX,HARRIS,2002100004,"Single Family Homes",5/15/2020,,213000,3601,"11354 THOMPSON BEND DR",HOUSTON,TX,77356,"BALMORAL PARK LAKES",,CONTRACTOR,,,,,,,,,,,"WESTIN HOMES",,,,,"WESTIN HOMES","1 SUGAR CREEK CENTER BLVD STE 600","SUGAR LAND",TX,77478-3787,"(281) 240-1551",http://www.westin-homes.com,,,
TX,HARRIS,2004290007,"Single Family Homes",5/15/2020,,194000,4015,"15202 THOMPSON RIDGE DR",HOUSTON,TX,77356,"WILDWOOD AT OAKCREST",,CONTRACTOR,,,,,,,,,,,"VILLAGE BUILDERS",,,,,"VILLAGE BUILDERS","550 GREENS PKWY STE 210",HOUSTON,TX,77067-4538,"(281) 873-4663",,,,
TX,HARRIS,2005040016,"Single Family Homes",5/15/2020,,58995,1697,"3514 BARTOLO BRUSH CT",HOUSTON,TX,77356,"CAMILLO LAKES",,CONTRACTOR,,,,,,,,,,,"CAMILLO PROPERTIES",,,,,"CAMILLO PROPERTIES","6707 GESSNER RD",HOUSTON,TX,77040-4017,"(832) 500-0284",http://www.camillorentalhomes.com/,"(281) 325-0245",,
TX,HARRIS,2005040019,"Single Family Homes",5/15/2020,,63855,1805,"3510 BARTOLO BRUSH CT",HOUSTON,TX,77356,"CAMILLO LAKES",,CONTRACTOR,,,,,,,,,,,"CAMILLO PROPERTIES",,,,,"CAMILLO PROPERTIES","6707 GESSNER RD",HOUSTON,TX,77040-4017,"(832) 500-0284",http://www.camillorentalhomes.com/,"(281) 325-0245",,
TX,HARRIS,2005040020,"Single Family Homes",5/15/2020,,57330,1654,"3506 BARTOLO BRUSH CT",HOUSTON,TX,77356,"CAMILLO LAKES",,CONTRACTOR,,,,,,,,,,,"CAMILLO PROPERTIES",,,,,"CAMILLO PROPERTIES","6707 GESSNER RD",HOUSTON,TX,77040-4017,"(832) 500-0284",http://www.camillorentalhomes.com/,"(281) 325-0245",,
TX,HARRIS,2005040021,"Single Family Homes",5/15/2020,,55755,1650,"3502 BARTOLO BRUSH CT",HOUSTON,TX,77356,"CAMILLO LAKES",,CONTRACTOR,,,,,,,,,,,"CAMILLO PROPERTIES",,,,,"CAMILLO PROPERTIES","6707 GESSNER RD",HOUSTON,TX,77040-4017,"(832) 500-0284",http://www.camillorentalhomes.com/,"(281) 325-0245",,
TX,HARRIS,2005040022,"Single Family Homes",5/15/2020,,87210,2324,"3503 BARTOLO BRUSH CT",HOUSTON,TX,77356,"CAMILLO LAKES",,CONTRACTOR,,,,,,,,,,,"CAMILLO PROPERTIES",,,,,"CAMILLO PROPERTIES","6707 GESSNER RD",HOUSTON,TX,77040-4017,"(832) 500-0284",http://www.camillorentalhomes.com/,"(281) 325-0245",,
TX,HARRIS,2005040024,"Single Family Homes",5/15/2020,,68805,1915,"3507 BARTOLO BRUSH CT",HOUSTON,TX,77356,"CAMILLO LAKES ",,CONTRACTOR,,,,,,,,,,,"CAMILLO PROPERTIES",,,,,"CAMILLO PROPERTIES","6707 GESSNER RD",HOUSTON,TX,77040-4017,"(832) 500-0284",http://www.camillorentalhomes.com/,"(281) 325-0245",,
TX,HARRIS,2005040025,"Single Family Homes",5/15/2020,,62145,1771,"3511 BARTOLO BRUSH CT",HOUSTON,TX,77356,"CAMILLO LAKES",,CONTRACTOR,,,,,,,,,,,"CAMILLO PROPERTIES",,,,,"CAMILLO PROPERTIES","6707 GESSNER RD",HOUSTON,TX,77040-4017,"(832) 500-0284",http://www.camillorentalhomes.com/,"(281) 325-0245",,
TX,HARRIS,2005040026,"Single Family Homes",5/15/2020,,64125,1815,"3515 BARTOLO BRUSH CT",HOUSTON,TX,77356,"CAMILLO LAKES",,CONTRACTOR,,,,,,,,,,,"CAMILLO PROPERTIES",,,,,"CAMILLO PROPERTIES","6707 GESSNER RD",HOUSTON,TX,77040-4017,"(832) 500-0284",http://www.camillorentalhomes.com/,"(281) 325-0245",,
TX,HARRIS,2005040027,"Single Family Homes",5/15/2020,,57330,1654,"3519 BARTOLO BRUSH CT",HOUSTON,TX,77356,"CAMILLO LAKES",,CONTRACTOR,,,,,,,,,,,"CAMILLO PROPERTIES",,,,,"CAMILLO PROPERTIES","6707 GESSNER RD",HOUSTON,TX,77040-4017,"(832) 500-0284",http://www.camillorentalhomes.com/,"(281) 325-0245",,
TX,HARRIS,RB-000575-2020,"Single Family Homes",5/13/2020,,210000,2591,"2822 E REATA DR","DEER PARK",TX,77536,,,CONTRACTOR,,,,,,,,,,,"WARWICK HOMES",,,,,"WARWICK HOMES","4620 N BRAESWOOD BLVD APT 423",HOUSTON,TX,77096-2870,"(713) 385-1902",http://www.warwickhomestx.com/,"(713) 660-8503","TOM CAUTHEN",tom@warwickhomestx.com
TX,HARRIS,RB-000827-2020,"Single Family Homes",5/13/2020,,,3952,"2317 W LONESOME DOVE","DEER PARK",TX,77536,,,"RAFAEL & KERRI RAMOS","1718 SHOSHONI DR","DEER PARK",TX,77536,,Applicant,,,,,OWNER,,,,,OWNER,,,,,,,,,
TX,HARRIS,2005040028,"Single Family Homes",5/15/2020,,62145,1771,"3523 BARTOLO BRUSH CT",HOUSTON,TX,77356,"CAMILLO LAKES",,CONTRACTOR,,,,,,,,,,,"CAMILLO PROPERTIES",,,,,"CAMILLO PROPERTIES","6707 GESSNER RD",HOUSTON,TX,77040-4017,"(832) 500-0284",http://www.camillorentalhomes.com/,"(281) 325-0245",,
TX,HARRIS,RB-000862-2020,"Single Family Homes",5/19/2020,,,2665,"1201E PASADENA BLVD","DEER PARK",TX,77536,,,CONTRACTOR,,,,,,,,,,,"PINNACLE DEVELOPMENT GROUP",,,,,"PINNACLE DEVELOPMENT GROUP","9619 MUIRFIELD DR",GRANBURY,TX,76049,"(682) 500-2669",,,,
TX,HARRIS,2005040079,"Single Family Homes",5/15/2020,,126000,2799,"20207 CREEKDALE BEND DR",HOUSTON,TX,77356,,,CONTRACTOR,,,,,,,,,,,"LENNAR HOMES",,,,,"LENNAR HOMES","550 GREENS PKWY",HOUSTON,TX,77067-4537,"(281) 875-1000",http://www.lennar.com/,,,
TX,HARRIS,2005040080,"Single Family Homes",5/15/2020,,163000,3345,"15322 LANCASTER FALLS DR",HOUSTON,TX,77356,"WILDWOOD AT OAKCREST",,CONTRACTOR,,,,,,,,,,,"LENNAR HOMES",,,,,"LENNAR HOMES","550 GREENS PKWY",HOUSTON,TX,77067-4537,"(281) 875-1000",http://www.lennar.com/,,,
TX,HARRIS,2004240009,"Single Family Homes",5/15/2020,,95000,1955,"4502 EVERGREEN MEADOW CT",HOUSTON,TX,77356,"CYPRESS MEADOW",,"YADIRA DELGADO","4502 EVERGREEN MEADOW CT",HOUSTON,TX,77356,,Owner,,,,,OWNER,,,,,OWNER,,,,,,,,,
TX,HARRIS,2004240007,"Single Family Homes",5/15/2020,,95000,1955,"4614 CREEK BRIDGE LN",HOUSTON,TX,77356,"CYPRESS MEADOW",,"YADIRA DELGADO","4502 EVERGREEN MEADOW CT",HOUSTON,TX,77356,,Owner,,,,,OWNER,,,,,OWNER,,,,,,,,,
TX,HARRIS,2004290070,"Single Family Homes",5/15/2020,,140630,2402,"15135 SILKY MORNING CT",HOUSTON,TX,77356,"SUNSET RIDGE",,CONTRACTOR,,,,,,,,,,,"K HOVNANIAN HOMES",,,,,"K HOVNANIAN HOMES","13111 NORTHWEST FWY STE 200",HOUSTON,TX,77040-6311,"(713) 460-0264",,,,
TX,HARRIS,2004290092,"Single Family Homes",5/15/2020,,116970,4260,"7735 MESA RANCH TRL",HOUSTON,TX,77356,"TERRA DEL SOL",,CONTRACTOR,,,,,,,,,,,"K HOVNANIAN HOMES",,,,,"K HOVNANIAN HOMES","13111 NORTHWEST FWY STE 200",HOUSTON,TX,77040-6311,"(713) 460-0264",,,,
TX,HARRIS,2004300120,"Single Family Homes",5/15/2020,,156124,2208,"8915 WESTFIELD GLEN CT",HOUSTON,TX,77356,"ELDRIDGE PARK",,CONTRACTOR,,,,,,,,,,,"K HOVNANIAN HOMES",,,,,"K HOVNANIAN HOMES","13111 NORTHWEST FWY STE 200",HOUSTON,TX,77040-6311,"(713) 460-0264",,,,
TX,HARRIS,2005010066,"Single Family Homes",5/15/2020,,154560,2699,"7723 MESA RANCH TRL",HOUSTON,TX,77356,"TERRA DEL SOL",,CONTRACTOR,,,,,,,,,,,"K HOVNANIAN HOMES",,,,,"K HOVNANIAN HOMES","13111 NORTHWEST FWY STE 200",HOUSTON,TX,77040-6311,"(713) 460-0264",,,,
TX,HARRIS,2005010100,"Single Family Homes",5/15/2020,,187180,3073,"12423 STARRY SUMMER LN",HOUSTON,TX,77356,"SUNSET RIDGE",,CONTRACTOR,,,,,,,,,,,"K HOVNANIAN HOMES",,,,,"K HOVNANIAN HOMES","13111 NORTHWEST FWY STE 200",HOUSTON,TX,77040-6311,"(713) 460-0264",,,,
TX,HARRIS,2005010089,"Single Family Homes",5/15/2020,,400000,3000,"6402 BLUESTEM MEADOW TRCE",HOUSTON,TX,77356,ELYSON,,CONTRACTOR,,,,,,,,,,,"HIGHLAND HOMES",,,,,"HIGHLAND HOMES","10930 W SAM HOUSTON PKWY N STE 100",HOUSTON,TX,77064-6331,"(281) 517-9800",,,,
TX,HARRIS,2005050056,"Single Family Homes",5/15/2020,,101000,2199,"5830 PRAIRIE CHAPEL RD",HOUSTON,TX,77356,"KATY CROSSING",,CONTRACTOR,,,,,,,,,,,"LENNAR HOMES",,,,,"LENNAR HOMES","550 GREENS PKWY",HOUSTON,TX,77067-4537,"(281) 875-1000",http://www.lennar.com/,,,
TX,HARRIS,2004160020,"Single Family Homes",5/15/2020,,111790,3194,"19543 SHADY HIKE LN",HOUSTON,TX,77356,"BRIDGELAND PARKLAND VILLAGE",,CONTRACTOR,,,,,,,,,,,"DAVID WEEKLEY HOMES",,,,,"DAVID WEEKLEY HOMES","14444 NORTHWEST",HOUSTON,TX,77040,"(713) 570-5021",http://www.davidweekleyhomes.com/,,,
TX,HARRIS,2004160023,"Single Family Homes",5/15/2020,,103040,2944,"15030 BUSHY BLUESTEM CT",HOUSTON,TX,77356,"BRIDGELAND PARKLAND VILLAGE",,CONTRACTOR,,,,,,,,,,,"DAVID WEEKLEY HOMES",,,,,"DAVID WEEKLEY HOMES","14444 NORTHWEST",HOUSTON,TX,77040,"(713) 570-5021",http://www.davidweekleyhomes.com/,,,
TX,HARRIS,2004010144,"Single Family Homes",5/15/2020,,102390,2854,"18622 PARKLAND CROSSING",HOUSTON,TX,77356,"BRIDGELAND PARKLAND VILLAGE",,CONTRACTOR,,,,,,,,,,,"DAVID WEEKLEY HOMES",,,,,"DAVID WEEKLEY HOMES","14444 NORTHWEST",HOUSTON,TX,77040,"(713) 570-5021",http://www.davidweekleyhomes.com/,,,
TX,HARRIS,2005050076,"Single Family Homes",5/15/2020,,262490,1694,"24523 SONGLARK BEND DR",HOUSTON,TX,77356,"LAKES AT CREEKSIDE",,CONTRACTOR,,,,,,,,,,,"DAVID WEEKLEY HOMES",,,,,"DAVID WEEKLEY HOMES","14444 NORTHWEST",HOUSTON,TX,77040,"(713) 570-5021",http://www.davidweekleyhomes.com/,,,
TX,HARRIS,2005050103,"Single Family Homes",5/15/2020,,155000,1969,"17607 HOLROYD RD",HOUSTON,TX,77356,MERRYLANDS,,CONTRACTOR,,,,,,,,,,,"LEGEND HOMES",,,,,"LEGEND HOMES","10410 WINDAMERE LAKES BLVD",HOUSTON,TX,77065-4996,"(281) 671-9060",http://legendhomecorp.com/,"(281) 671-9055",,
TX,HARRIS,2005130084,"Single Family Homes",5/15/2020,,128385,2853,"11018 CUNNINGHAM FIR TRL",HOUSTON,TX,77356,"FAIRWAY FARMS",,CONTRACTOR,,,,,,,,,,,"DR HORTON",,,,,"DR HORTON","14100 SOUTHWEST",HOUSTON,TX,77478,"(281) 201-5559",,,,
TX,HARRIS,2005130089,"Single Family Homes",5/15/2020,,147375,3275,"11103 CUNNINGHAM FIR TRL",HOUSTON,TX,77356,"FAIRWAY FARMS",,CONTRACTOR,,,,,,,,,,,"DR HORTON",,,,,"DR HORTON","14100 SOUTHWEST",HOUSTON,TX,77478,"(281) 201-5559",,,,
TX,HARRIS,2005130090,"Single Family Homes",5/15/2020,,122535,2723,"25335 PINYON HILL TRL",HOUSTON,TX,77356,"FAIRWAY FARMS",,CONTRACTOR,,,,,,,,,,,"DR HORTON",,,,,"DR HORTON","14100 SOUTHWEST",HOUSTON,TX,77478,"(281) 201-5559",,,,
TX,HARRIS,2005130094,"Single Family Homes",5/15/2020,,147690,3282,"16019 BRYCE PECAN WAY",HOUSTON,TX,77356,"STONE CREEK RANCH",,CONTRACTOR,,,,,,,,,,,"DR HORTON",,,,,"DR HORTON","14100 SOUTHWEST",HOUSTON,TX,77478,"(281) 201-5559",,,,
TX,HARRIS,2005140055,"Single Family Homes",5/15/2020,,112515,2501,"12206 DINNET BERM DR",HOUSTON,TX,77356,BALMORAL,,CONTRACTOR,,,,,,,,,,,"DR HORTON",,,,,"DR HORTON","14100 SOUTHWEST",HOUSTON,TX,77478,"(281) 201-5559",,,,
TX,HARRIS,2005140056,"Single Family Homes",5/15/2020,,169650,3770,"12210 LOCH MUICK DR",HOUSTON,TX,77356,BALMORAL,,CONTRACTOR,,,,,,,,,,,"DR HORTON",,,,,"DR HORTON","14100 SOUTHWEST",HOUSTON,TX,77478,"(281) 201-5559",,,,
TX,HARRIS,2005140057,"Single Family Homes",5/15/2020,,122500,2723,"15202 DAVAN SPRINGS DR",HOUSTON,TX,77356,BALMORAL,,CONTRACTOR,,,,,,,,,,,"DR HORTON",,,,,"DR HORTON","14100 SOUTHWEST",HOUSTON,TX,77478,"(281) 201-5559",,,,
TX,HARRIS,2005140058,"Single Family Homes",5/15/2020,,157050,3490,"15206 DINNET BERM DR",HOUSTON,TX,77356,BALMORAL,,CONTRACTOR,,,,,,,,,,,"DR HORTON",,,,,"DR HORTON","14100 SOUTHWEST",HOUSTON,TX,77478,"(281) 201-5559",,,,
TX,HARRIS,2005140060,"Single Family Homes",5/15/2020,,95130,2114,"15307 DINNET BERM DR",HOUSTON,TX,77356,BALMORAL,,CONTRACTOR,,,,,,,,,,,"DR HORTON",,,,,"DR HORTON","14100 SOUTHWEST",HOUSTON,TX,77478,"(281) 201-5559",,,,
TX,HARRIS,2005140061,"Single Family Homes",5/15/2020,,96525,2145,"2335 GEORGINA FALLS DR",HOUSTON,TX,77356,,,CONTRACTOR,,,,,,,,,,,"DR HORTON",,,,,"DR HORTON","14100 SOUTHWEST",HOUSTON,TX,77478,"(281) 201-5559",,,,
TX,HARRIS,20200201,"Single Family Homes",5/4/2020,,,4345,"411 STREY LN",HOUSTON,TX,77024,,,CONTRACTOR,,,,,,,,,,,"DAVID WEEKLEY HOMES",,,,,"DAVID WEEKLEY HOMES","14444 NORTHWEST",HOUSTON,TX,77040,"(713) 570-5021",http://www.davidweekleyhomes.com/,,,
TX,HARRIS,20200211,"Single Family Homes",5/6/2020,,,3886,"307 RAINIER DR",HOUSTON,TX,77024,,,CONTRACTOR,,,,,,,,,,,"BRAUGHTON BUILDERS",,,,,"BRAUGHTON BUILDERS","2418 FOREST OAKS BLVD",HOUSTON,TX,77017-7145,"(713) 553-4183",http://www.braughtonbuilders.com/,,,
TX,HARRIS,2005140091,"Single Family Homes",5/15/2020,,101000,1913,"5802 BUCKNER CREEK CT",HOUSTON,TX,77356,,,CONTRACTOR,,,,,,,,,,,"LENNAR HOMES",,,,,"LENNAR HOMES","550 GREENS PKWY",HOUSTON,TX,77067-4537,"(281) 875-1000",http://www.lennar.com/,,,
TX,HARRIS,2005120109,"Single Family Homes",5/15/2020,,84000,1848,"17919 PORT O CALL ST",HOUSTON,TX,77356,NEWPORT,,CONTRACTOR,,,,,,,,,,,"GEHAN HOMES",,,,,"GEHAN HOMES","2050 W SAM HOUSTON PKWY S",HOUSTON,TX,77042-2079,"(713) 243-3545",http://www.gehanhomes.com,,,
TX,HARRIS,2005120127,"Single Family Homes",5/15/2020,,106000,2450,"31518 KAILUA DR",HOUSTON,TX,77356,"STONE CREEK RANCH",,CONTRACTOR,,,,,,,,,,,"GEHAN HOMES",,,,,"GEHAN HOMES","2050 W SAM HOUSTON PKWY S",HOUSTON,TX,77042-2079,"(713) 243-3545",http://www.gehanhomes.com,,,
TX,HARRIS,2005120122,"Single Family Homes",5/15/2020,,109000,2450,"16315 ROCKDALE LANDING DR",HOUSTON,TX,77356,"STONE CREEK RANCH",,CONTRACTOR,,,,,,,,,,,"GEHAN HOMES",,,,,"GEHAN HOMES","2050 W SAM HOUSTON PKWY S",HOUSTON,TX,77042-2079,"(713) 243-3545",http://www.gehanhomes.com,,,
TX,HARRIS,2005120117,"Single Family Homes",5/15/2020,,115000,2350,"16311 ROCKDALE LANDING DR",HOUSTON,TX,77356,"STONE CREEK RANCH",,CONTRACTOR,,,,,,,,,,,"GEHAN HOMES",,,,,"GEHAN HOMES","2050 W SAM HOUSTON PKWY S",HOUSTON,TX,77042-2079,"(713) 243-3545",http://www.gehanhomes.com,,,
TX,HARRIS,2005130110,"Single Family Homes",5/15/2020,,148600,3099,"12430 SABINE POINT DR",HOUSTON,TX,77356,BALMORAL,,CONTRACTOR,,,,,,,,,,,"GEHAN HOMES",,,,,"GEHAN HOMES","2050 W SAM HOUSTON PKWY S",HOUSTON,TX,77042-2079,"(713) 243-3545",http://www.gehanhomes.com,,,
TX,HARRIS,2004300025,"Single Family Homes",5/15/2020,,75000,1500,"6706 SCARLET SAGEBRUSH ST",HOUSTON,TX,77356,LANTANA,,CONTRACTOR,,,,,,,,,,,"M/I HOMES",,,,,"M/I HOMES","10910 NORTH SAM HOUSTON PKWY W",HOUSTON,TX,77064,"(832) 912-1012",,,,
TX,HARRIS,2004300027,"Single Family Homes",5/15/2020,,75000,1500,"21835 SARASOTA SPICE ST",HOUSTON,TX,77356,"ROSEHILL RESERVE",,CONTRACTOR,,,,,,,,,,,"M/I HOMES",,,,,"M/I HOMES","10910 NORTH SAM HOUSTON PKWY W",HOUSTON,TX,77064,"(832) 912-1012",,,,
TX,HARRIS,2005140087,"Single Family Homes",5/15/2020,,107550,2390,"4419 FOLLINA TRL",HOUSTON,TX,77356,"VENTANA LAKES",,CONTRACTOR,,,,,,,,,,,"DR HORTON",,,,,"DR HORTON","14100 SOUTHWEST",HOUSTON,TX,77478,"(281) 201-5559",,,,
TX,HARRIS,2005140096,"Single Family Homes",5/15/2020,,112545,2501,"4415 FOLLINA TRL",HOUSTON,TX,77356,"VENTANA LAKES",,CONTRACTOR,,,,,,,,,,,"DR HORTON",,,,,"DR HORTON","14100 SOUTHWEST",HOUSTON,TX,77478,"(281) 201-5559",,,,
TX,HARRIS,2005140097,"Single Family Homes",5/15/2020,,103050,2290,"4411 FOLLINA TRL",HOUSTON,TX,77356,"VENTANA LAKES",,CONTRACTOR,,,,,,,,,,,"DR HORTON",,,,,"DR HORTON","14100 SOUTHWEST",HOUSTON,TX,77478,"(281) 201-5559",,,,
TX,HARRIS,2005140102,"Single Family Homes",5/15/2020,,122985,2733,"4407 FOLLINA TRL",HOUSTON,TX,77356,"VENTANA LAKES",,CONTRACTOR,,,,,,,,,,,"DR HORTON",,,,,"DR HORTON","14100 SOUTHWEST",HOUSTON,TX,77478,"(281) 201-5559",,,,
TX,HARRIS,2005140110,"Single Family Homes",5/15/2020,,103050,2290,"4414 NAVELLI WAY",HOUSTON,TX,77356,"VENTANA LAKES",,CONTRACTOR,,,,,,,,,,,"DR HORTON",,,,,"DR HORTON","14100 SOUTHWEST",HOUSTON,TX,77478,"(281) 201-5559",,,,
TX,HARRIS,2005140112,"Single Family Homes",5/15/2020,,122985,2733,"4418 NAVELLI WAY",HOUSTON,TX,77356,"VENTANA LAKES",,CONTRACTOR,,,,,,,,,,,"DR HORTON",,,,,"DR HORTON","14100 SOUTHWEST",HOUSTON,TX,77478,"(281) 201-5559",,,,
TX,HARRIS,2005140115,"Single Family Homes",5/15/2020,,107550,2390,"4422 NAVELLI WAY",HOUSTON,TX,77356,"VENTANA LAKES",,CONTRACTOR,,,,,,,,,,,"DR HORTON",,,,,"DR HORTON","14100 SOUTHWEST",HOUSTON,TX,77478,"(281) 201-5559",,,,
TX,HARRIS,2005140117,"Single Family Homes",5/15/2020,,103050,2290,"4426 NAVELLI WAY",HOUSTON,TX,77356,"VENTANA LAKES",,CONTRACTOR,,,,,,,,,,,"DR HORTON",,,,,"DR HORTON","14100 SOUTHWEST",HOUSTON,TX,77478,"(281) 201-5559",,,,
TX,HARRIS,2005140119,"Single Family Homes",5/15/2020,,107550,2390,"4434 NAVELLI WAY",HOUSTON,TX,77356,"VENTANA LAKES",,CONTRACTOR,,,,,,,,,,,"DR HORTON",,,,,"DR HORTON","14100 SOUTHWEST",HOUSTON,TX,77478,"(281) 201-5559",,,,
TX,HARRIS,2004280104,"Single Family Homes",5/15/2020,,302351,3614,"14431 HUECO MOUNTAIN DR",HOUSTON,TX,77356,"COPPER RIDGE",,CONTRACTOR,,,,,,,,,,,"NEWMARK HOMES",,,,,"NEWMARK HOMES","10455 BRIAR FOREST SUITE 200",HOUSTON,TX,77042,"(713) 346-0200",http://www.newmarkhomes.com/,"(713) 346-0226",,
TX,HARRIS,2004280107,"Single Family Homes",5/15/2020,,299834,3541,"14210 ARCHER COUNTRY TRL",HOUSTON,TX,77356,"COPPER RIDGE",,CONTRACTOR,,,,,,,,,,,"NEWMARK HOMES",,,,,"NEWMARK HOMES","10455 BRIAR FOREST SUITE 200",HOUSTON,TX,77042,"(713) 346-0200",http://www.newmarkhomes.com/,"(713) 346-0226",,
TX,HARRIS,2005120046,"Single Family Homes",5/15/2020,,323384,3434,"11735 LOST MAPLES SPRINGS DR",HOUSTON,TX,77356,"TOWNE LAKE",,CONTRACTOR,,,,,,,,,,,"NEWMARK HOMES",,,,,"NEWMARK HOMES","10455 BRIAR FOREST SUITE 200",HOUSTON,TX,77042,"(713) 346-0200",http://www.newmarkhomes.com/,"(713) 346-0226",,
TX,HARRIS,2005110050,"Single Family Homes",5/15/2020,,166265,3023,"24415 PINEY HARBOR LN",HOUSTON,TX,77356,"KATY LAKES",,CONTRACTOR,,,,,,,,,,,"CASTLEROCK COMMUNITIES",,,,,"CASTLEROCK COMMUNITIES","7670 WOODWAY DR STE 300",HOUSTON,TX,77063-1520,"(713) 600-7000",http://c-rock.com,"(713) 600-0000",,
TX,HARRIS,2005110056,"Single Family Homes",5/15/2020,,189640,3448,"24430 PINEY HARBOR LN",HOUSTON,TX,77356,"KATY LAKES",,CONTRACTOR,,,,,,,,,,,"CASTLEROCK COMMUNITIES",,,,,"CASTLEROCK COMMUNITIES","7670 WOODWAY DR STE 300",HOUSTON,TX,77063-1520,"(713) 600-7000",http://c-rock.com,"(713) 600-0000",,
TX,HARRIS,2005140105,"Single Family Homes",5/15/2020,,107550,2390,"4403 FOLLINA TRL",HOUSTON,TX,77356,"VENTANA LAKES",,CONTRACTOR,,,,,,,,,,,"DR HORTON",,,,,"DR HORTON","14100 SOUTHWEST",HOUSTON,TX,77478,"(281) 201-5559",,,,
TX,HARRIS,2005140075,"Single Family Homes",5/15/2020,,100800,2240,"21338 VICTORIA HARBOR DR",HOUSTON,TX,77356,"JASMINE HEIGHTS",,CONTRACTOR,,,,,,,,,,,"DR HORTON",,,,,"DR HORTON","14100 SOUTHWEST",HOUSTON,TX,77478,"(281) 201-5559",,,,
TX,HARRIS,2005060162,"Single Family Homes",5/15/2020,,200000,2789,"28235 FM 2920 RD",HOUSTON,TX,77356,,,"RAY & JUDY SALAZAR","28235 FM 2920 RD",HOUSTON,TX,77356,,Owner,,,,,OWNER,,,,,OWNER,,,,,,,,,
TX,HARRIS,2004040022,"Single Family Homes",5/15/2020,,243000,3688,"23206 MULBERRY THICKET TRL",HOUSTON,TX,77356,ELYSON,,CONTRACTOR,,,,,,,,,,,"WESTIN HOMES",,,,,"WESTIN HOMES","1 SUGAR CREEK CENTER BLVD STE 600","SUGAR LAND",TX,77478-3787,"(281) 240-1551",http://www.westin-homes.com,,,
TX,HARRIS,2004040024,"Single Family Homes",5/15/2020,,259000,3913,"15234 WILD PLUM THICKET LN",HOUSTON,TX,77356,"BRIDGELAND PARKLAND VILLAGE",,CONTRACTOR,,,,,,,,,,,"WESTIN HOMES",,,,,"WESTIN HOMES","1 SUGAR CREEK CENTER BLVD STE 600","SUGAR LAND",TX,77478-3787,"(281) 240-1551",http://www.westin-homes.com,,,
TX,HARRIS,2004050006,"Single Family Homes",5/15/2020,,182000,2804,"23011 PENSTEMON TRL",HOUSTON,TX,77356,ELYSON,,CONTRACTOR,,,,,,,,,,,"WESTIN HOMES",,,,,"WESTIN HOMES","1 SUGAR CREEK CENTER BLVD STE 600","SUGAR LAND",TX,77478-3787,"(281) 240-1551",http://www.westin-homes.com,,,
TX,HARRIS,2004060087,"Single Family Homes",5/15/2020,,182000,2805,"23015 PENSTEMON TRL",HOUSTON,TX,77356,ELYSON,,CONTRACTOR,,,,,,,,,,,"WESTIN HOMES",,,,,"WESTIN HOMES","1 SUGAR CREEK CENTER BLVD STE 600","SUGAR LAND",TX,77478-3787,"(281) 240-1551",http://www.westin-homes.com,,,
TX,HARRIS,2004090145,"Single Family Homes",5/15/2020,,182000,2805,"23027 PENSTEMON TRL",HOUSTON,TX,77356,ELYSON,,CONTRACTOR,,,,,,,,,,,"WESTIN HOMES",,,,,"WESTIN HOMES","1 SUGAR CREEK CENTER BLVD STE 600","SUGAR LAND",TX,77478-3787,"(281) 240-1551",http://www.westin-homes.com,,,
TX,HARRIS,2004020154,"Single Family Homes",5/15/2020,,243000,3682,"12310 SKENE BEND DR",HOUSTON,TX,77356,BALMORAL,,CONTRACTOR,,,,,,,,,,,"WESTIN HOMES",,,,,"WESTIN HOMES","1 SUGAR CREEK CENTER BLVD STE 600","SUGAR LAND",TX,77478-3787,"(281) 240-1551",http://www.westin-homes.com,,,
TX,HARRIS,2004270025,"Single Family Homes",5/15/2020,,291000,4380,"97 WINTER SUNRISE CIR",HOUSTON,TX,77356,"WOODLANDS CREEKSIDE PARK",,CONTRACTOR,,,,,,,,,,,"WESTIN HOMES",,,,,"WESTIN HOMES","1 SUGAR CREEK CENTER BLVD STE 600","SUGAR LAND",TX,77478-3787,"(281) 240-1551",http://www.westin-homes.com,,,
TX,HARRIS,2005010015,"Single Family Homes",5/15/2020,,287000,4378,"86 WINTER SUNRISE CIR",HOUSTON,TX,77356,"WOODLANDS CREEKSIDE PARK",,CONTRACTOR,,,,,,,,,,,"WESTIN HOMES",,,,,"WESTIN HOMES","1 SUGAR CREEK CENTER BLVD STE 600","SUGAR LAND",TX,77478-3787,"(281) 240-1551",http://www.westin-homes.com,,,
TX,HARRIS,2005010016,"Single Family Homes",5/15/2020,,250000,3944,"82 WINTER SUNRISE CIR",HOUSTON,TX,77356,"WOODLANDS CREEKSIDE PARK",,CONTRACTOR,,,,,,,,,,,"WESTIN HOMES",,,,,"WESTIN HOMES","1 SUGAR CREEK CENTER BLVD STE 600","SUGAR LAND",TX,77478-3787,"(281) 240-1551",http://www.westin-homes.com,,,
TX,HARRIS,2004020156,"Single Family Homes",5/15/2020,,243000,3688,"19807 BROKEN CACTUS DR",HOUSTON,TX,77356,MIRAMESA,,CONTRACTOR,,,,,,,,,,,"WESTIN HOMES",,,,,"WESTIN HOMES","1 SUGAR CREEK CENTER BLVD STE 600","SUGAR LAND",TX,77478-3787,"(281) 240-1551",http://www.westin-homes.com,,,
TX,HARRIS,2004030116,"Single Family Homes",5/15/2020,,243000,3688,"15719 BRAEMAR COVE DR",HOUSTON,TX,77356,BALMORAL,,CONTRACTOR,,,,,,,,,,,"WESTIN HOMES",,,,,"WESTIN HOMES","1 SUGAR CREEK CENTER BLVD STE 600","SUGAR LAND",TX,77478-3787,"(281) 240-1551",http://www.westin-homes.com,,,
TX,HARRIS,2004030156,"Single Family Homes",5/15/2020,,251000,2807,"15723 BRAEMAR COVE DR",HOUSTON,TX,77356,BALMORAL,,CONTRACTOR,,,,,,,,,,,"WESTIN HOMES",,,,,"WESTIN HOMES","1 SUGAR CREEK CENTER BLVD STE 600","SUGAR LAND",TX,77478-3787,"(281) 240-1551",http://www.westin-homes.com,,,
TX,HARRIS,2004030160,"Single Family Homes",5/15/2020,,264000,4001,"16107 FOLK FESTIVAL PL",HOUSTON,TX,77356,"BRIDGELAND PARKLAND VILLAGE",,CONTRACTOR,,,,,,,,,,,"WESTIN HOMES",,,,,"WESTIN HOMES","1 SUGAR CREEK CENTER BLVD STE 600","SUGAR LAND",TX,77478-3787,"(281) 240-1551",http://www.westin-homes.com,,,
TX,HARRIS,2004040021,"Single Family Homes",5/15/2020,,264000,4001,"19019 FESTIVAL HILL CT",HOUSTON,TX,77356,"BRIDGELAND PARKLAND VILLAGE",,CONTRACTOR,,,,,,,,,,,"WESTIN HOMES",,,,,"WESTIN HOMES","1 SUGAR CREEK CENTER BLVD STE 600","SUGAR LAND",TX,77478-3787,"(281) 240-1551",http://www.westin-homes.com,,,
TX,HARRIS,2004030154,"Single Family Homes",5/15/2020,,264000,4001,"16 VIOLET SUNSET LN",HOUSTON,TX,77356,"THE WOODLANDS CREEKSIDE PARK",,CONTRACTOR,,,,,,,,,,,"WESTIN HOMES",,,,,"WESTIN HOMES","1 SUGAR CREEK CENTER BLVD STE 600","SUGAR LAND",TX,77478-3787,"(281) 240-1551",http://www.westin-homes.com,,,
TX,HARRIS,2004300059,"Single Family Homes",5/15/2020,,216000,4589,"20218 LIBERTY RUN DR",HOUSTON,TX,77356,"FALLS AT DRY CREEK",,CONTRACTOR,,,,,,,,,,,"VILLAGE BUILDERS",,,,,"VILLAGE BUILDERS","550 GREENS PKWY STE 210",HOUSTON,TX,77067-4538,"(281) 873-4663",,,,
TX,HARRIS,2004300061,"Single Family Homes",5/15/2020,,164200,3121,"6718 SANDIA CREST ST",HOUSTON,TX,77356,,,CONTRACTOR,,,,,,,,,,,"VILLAGE BUILDERS",,,,,"VILLAGE BUILDERS","550 GREENS PKWY STE 210",HOUSTON,TX,77067-4538,"(281) 873-4663",,,,
TX,HARRIS,2004300042,"Single Family Homes",5/15/2020,,100800,2240,"21319 ORONO HEIGHTS TRL",HOUSTON,TX,77356,"JASMINE HEIGHTS",,CONTRACTOR,,,,,,,,,,,"DR HORTON",,,,,"DR HORTON","14100 SOUTHWEST",HOUSTON,TX,77478,"(281) 201-5559",,,,
TX,HARRIS,2004300044,"Single Family Homes",5/15/2020,,132885,2953,"21323 ORONO HEIGHTS TRL",HOUSTON,TX,77356,"JASMINE HEIGHTS",,CONTRACTOR,,,,,,,,,,,"DR HORTON",,,,,"DR HORTON","14100 SOUTHWEST",HOUSTON,TX,77478,"(281) 201-5559",,,,
TX,HARRIS,SFD2020-0086,"Single Family Homes",5/19/2020,,162620,,"344 PALOMA ST",WEATHERFORD,TX,76087,LOCKWOOD,,CONTRACTOR,,,,,,,,,,,"LILLIAN CUSTOM HOMES",,,,,"LILLIAN CUSTOM HOMES","509 FERRIS AVE",WAXAHACHIE,TX,75165-3343,"(972) 937-8990",http://lilliancustomhomes.com/,,,
TX,HARRIS,20040040,"Single Family Homes",5/15/2020,,,2068,"6818 ASPEN PEAK DR",BAYTOWN,TX,77521,,,CONTRACTOR,,,,,,,,,,,"CHESMAR HOMES",,,,,"CHESMAR HOMES","450 GEARS RD STE 400",HOUSTON,TX,77067-4513,"(281) 598-1111",http://chesmar.com,"(281) 598-1115",,customerservice.houston@chesmar.com
TX,HARRIS,20040041,"Single Family Homes",5/15/2020,,,2765,"8411 SILVER STREAK DR",BAYTOWN,TX,77521,,,CONTRACTOR,,,,,,,,,,,"CHESMAR HOMES",,,,,"CHESMAR HOMES","450 GEARS RD STE 400",HOUSTON,TX,77067-4513,"(281) 598-1111",http://chesmar.com,"(281) 598-1115",,customerservice.houston@chesmar.com
TX,HARRIS,20050024,"Single Family Homes",5/18/2020,,,2099,"4015 COUNTRY CLUB DR",BAYTOWN,TX,77521,,,CONTRACTOR,,,,,,,,,,,"DR HORTON",,,,,"DR HORTON","14100 SOUTHWEST",HOUSTON,TX,77478,"(281) 201-5559",,,,
TX,HARRIS,20050029,"Single Family Homes",5/18/2020,,,2152,"4011 COUNTRY CLUB DR",BAYTOWN,TX,77521,,,CONTRACTOR,,,,,,,,,,,"DR HORTON",,,,,"DR HORTON","14100 SOUTHWEST",HOUSTON,TX,77478,"(281) 201-5559",,,,
TX,HARRIS,20050087,"Single Family Homes",5/18/2020,,,2032,"3223 MAGELLAN RIDGE LN",BAYTOWN,TX,77521,,,CONTRACTOR,,,,,,,,,,,"DR HORTON",,,,,"DR HORTON","14100 SOUTHWEST",HOUSTON,TX,77478,"(281) 201-5559",,,,
TX,HARRIS,20050090,"Single Family Homes",5/18/2020,,,3003,"3215 MAGELLAN RIDGE LN",BAYTOWN,TX,77521,,,CONTRACTOR,,,,,,,,,,,"DR HORTON",,,,,"DR HORTON","14100 SOUTHWEST",HOUSTON,TX,77478,"(281) 201-5559",,,,
TX,HARRIS,20050091,"Single Family Homes",5/18/2020,,,2032,"3207 MAGELLAN RIDGE LN",BAYTOWN,TX,77521,,,CONTRACTOR,,,,,,,,,,,"DR HORTON",,,,,"DR HORTON","14100 SOUTHWEST",HOUSTON,TX,77478,"(281) 201-5559",,,,
TX,HARRIS,20050092,"Single Family Homes",5/18/2020,,,2032,"3115 MAGELLAN RIDGE LN",BAYTOWN,TX,77521,,,CONTRACTOR,,,,,,,,,,,"DR HORTON",,,,,"DR HORTON","14100 SOUTHWEST",HOUSTON,TX,77478,"(281) 201-5559",,,,
TX,HARRIS,20050093,"Single Family Homes",5/18/2020,,,1796,"3111 MAGELLAN RIDGE LN",BAYTOWN,TX,77521,,,CONTRACTOR,,,,,,,,,,,"DR HORTON",,,,,"DR HORTON","14100 SOUTHWEST",HOUSTON,TX,77478,"(281) 201-5559",,,,
TX,HARRIS,20030320,"Single Family Homes",5/6/2020,,,3388,"2210 ROSILLO BROOK DR",BAYTOWN,TX,77521,,,CONTRACTOR,,,,,,,,,,,"LONG LAKE HOMES",,,,,"LONG LAKE HOMES","15915 KATY FWY STE 405",HOUSTON,TX,77094-1710,"(281) 646-1727",http://www.longlakeltd.com/,,"DAVID BIGLER",
TX,HARRIS,20030321,"Single Family Homes",5/6/2020,,,2352,"2206 ROSILLO BROOK DR",BAYTOWN,TX,77521,,,CONTRACTOR,,,,,,,,,,,"LONG LAKE HOMES",,,,,"LONG LAKE HOMES","15915 KATY FWY STE 405",HOUSTON,TX,77094-1710,"(281) 646-1727",http://www.longlakeltd.com/,,"DAVID BIGLER",
TX,HARRIS,20030322,"Single Family Homes",5/6/2020,,,3700,"2203 ROSILLO BROOK DR",BAYTOWN,TX,77521,,,CONTRACTOR,,,,,,,,,,,"LONG LAKE HOMES",,,,,"LONG LAKE HOMES","15915 KATY FWY STE 405",HOUSTON,TX,77094-1710,"(281) 646-1727",http://www.longlakeltd.com/,,"DAVID BIGLER",
TX,HARRIS,20030323,"Single Family Homes",5/6/2020,,,3312,"2202 ROSILLO BROOK DR",BAYTOWN,TX,77521,,,CONTRACTOR,,,,,,,,,,,"LONG LAKE HOMES",,,,,"LONG LAKE HOMES","15915 KATY FWY STE 405",HOUSTON,TX,77094-1710,"(281) 646-1727",http://www.longlakeltd.com/,,"DAVID BIGLER",
TX,HARRIS,20040193,"Single Family Homes",5/6/2020,,,2782,"5015 CHIMNEY SWIFT LN",BAYTOWN,TX,77521,,,CONTRACTOR,,,,,,,,,,,"CASTLEROCK COMMUNITIES",,,,,"CASTLEROCK COMMUNITIES","7670 WOODWAY DR STE 300",HOUSTON,TX,77063-1520,"(713) 600-7000",http://c-rock.com,"(713) 600-0000",,
TX,HARRIS,20040199,"Single Family Homes",5/6/2020,,,2419,"5002 CHIMNEY SWIFT LN",BAYTOWN,TX,77521,,,CONTRACTOR,,,,,,,,,,,"CASTLEROCK COMMUNITIES",,,,,"CASTLEROCK COMMUNITIES","7670 WOODWAY DR STE 300",HOUSTON,TX,77063-1520,"(713) 600-7000",http://c-rock.com,"(713) 600-0000",,
TX,HARRIS,20040194,"Single Family Homes",5/6/2020,,,3720,"4718 PAINTED BUNTING LN",BAYTOWN,TX,77521,,,CONTRACTOR,,,,,,,,,,,"CASTLEROCK COMMUNITIES",,,,,"CASTLEROCK COMMUNITIES","7670 WOODWAY DR STE 300",HOUSTON,TX,77063-1520,"(713) 600-7000",http://c-rock.com,"(713) 600-0000",,
TX,HARRIS,20040196,"Single Family Homes",5/6/2020,,,2323,"10019 EAGLE PINES DR",BAYTOWN,TX,77521,,,CONTRACTOR,,,,,,,,,,,"CASTLEROCK COMMUNITIES",,,,,"CASTLEROCK COMMUNITIES","7670 WOODWAY DR STE 300",HOUSTON,TX,77063-1520,"(713) 600-7000",http://c-rock.com,"(713) 600-0000",,
TX,HARRIS,20040197,"Single Family Homes",5/6/2020,,,2323,"10031 PINE VALLEY CT",BAYTOWN,TX,77521,,,CONTRACTOR,,,,,,,,,,,"CASTLEROCK COMMUNITIES",,,,,"CASTLEROCK COMMUNITIES","7670 WOODWAY DR STE 300",HOUSTON,TX,77063-1520,"(713) 600-7000",http://c-rock.com,"(713) 600-0000",,
TX,HARRIS,20050189,"Single Family Homes",5/22/2020,,,1640,"1803 TEXOMA ST",BAYTOWN,TX,77521,,,CONTRACTOR,,,,,,,,,,,"INTERIOR-E CONSTRUCTION",,,,,"INTERIOR-E CONSTRUCTION","11152 WEST HEIMER ROAD SUITE 1101",HOUSTON,TX,77042,"(832) 338-4306",,,,
TX,HARRIS,20030396,"Single Family Homes",5/14/2020,,,2193,"10014 PINE VALLEY CT",BAYTOWN,TX,77521,,,CONTRACTOR,,,,,,,,,,,"CASTLEROCK COMMUNITIES",,,,,"CASTLEROCK COMMUNITIES","7670 WOODWAY DR STE 300",HOUSTON,TX,77063-1520,"(713) 600-7000",http://c-rock.com,"(713) 600-0000",,
TX,BRAZOS,RES2020-000173,"Single Family Homes",5/6/2020,,285000,4128,"1731 BLANCO BEND DR","COLLEGE STATION",TX,77845,,,CONTRACTOR,,,,,,,,,,,"PITMAN CUSTOM HOMES",,,,,"PITMAN CUSTOM HOMES","1401 SEBESTA RD","COLLEGE STATION",TX,77845-5527,"(979) 693-6699",http://www.pitmancustomhomes.com,,JIMMY,
TX,BRAZOS,RES2020-000175,"Single Family Homes",5/6/2020,,160000,2313,"3824 SPRINGFIELD DR","COLLEGE STATION",TX,77845,,,CONTRACTOR,,,,,,,,,,,"AMBIT HOMES",,,,,"AMBIT HOMES","18063 LATIGO CT","COLLEGE STATION",TX,77845-6391,"(979) 429-3552",,,,
TX,BRAZOS,RES2020-000178,"Single Family Homes",5/6/2020,,221160,3629,"6314 SPARTAN DR","COLLEGE STATION",TX,77845,,,CONTRACTOR,,,,,,,,,,,"OMEGA BUILDERS GROUP",,,,,"OMEGA BUILDERS GROUP","7353 W ADAMS AVE",TEMPLE,TX,76502-5539,"(254) 773-9966",,,,
TX,BRAZOS,RES2020-000179,"Single Family Homes",5/8/2020,,137702,2221,"15006 WINDY MEADOW LN","COLLEGE STATION",TX,77845,,,CONTRACTOR,,,,,,,,,,,"STYLECRAFT BUILDERS ",,,,,"STYLECRAFT BUILDERS ","4090 STATE HIGHWAY 6 S","COLLEGE STATION",TX,77845-8962,"(979) 764-9900",,"(979) 690-3069","TANNER BREWSTER",tabrewster@stylecraft-builders.com
TX,BRAZOS,RES2019-000403,"Single Family Homes",5/11/2020,,224884,3382,"301 GROVE ST","COLLEGE STATION",TX,77845,,,CONTRACTOR,,,,,,,,,,,"HANCOCK CUSTOM HOMES",,,,,"HANCOCK CUSTOM HOMES","PO BOX 11214","COLLEGE STATION",TX,77842-1214,"(979) 412-6301",http://www.homesbyhancock.com/,,,info@homesbyhancock.com
TX,BRAZOS,RES2020-000170,"Single Family Homes",5/11/2020,,193000,2886,"216 ESTATES CIR","COLLEGE STATION",TX,77845,,,CONTRACTOR,,,,,,,,,,,"MASTER'S TOUCH CUSTOM HOMES",,,,,"MASTER'S TOUCH CUSTOM HOMES","317 RR 620 S STE 101",LAKEWAY,TX,78734-4727,"(512) 999-5591",,,,
TX,BRAZOS,RES2020-000171,"Single Family Homes",5/11/2020,,193000,2886,"222 ESTATES CIR","COLLEGE STATION",TX,77845,,,CONTRACTOR,,,,,,,,,,,"MASTER'S TOUCH CUSTOM HOMES",,,,,"MASTER'S TOUCH CUSTOM HOMES","317 RR 620 S STE 101",LAKEWAY,TX,78734-4727,"(512) 999-5591",,,,
TX,BRAZOS,RES2020-000172,"Single Family Homes",5/11/2020,,193000,2886,"224 ESTATES CIR","COLLEGE STATION",TX,77845,,,CONTRACTOR,,,,,,,,,,,"MASTER'S TOUCH CUSTOM HOMES",,,,,"MASTER'S TOUCH CUSTOM HOMES","317 RR 620 S STE 101",LAKEWAY,TX,78734-4727,"(512) 999-5591",,,,
TX,BRAZOS,RES2020-000174,"Single Family Homes",5/11/2020,,206338,3148,"6327 DAYTONA DR","COLLEGE STATION",TX,77845,,,CONTRACTOR,,,,,,,,,,,"KALEO HOMES",,,,,"KALEO HOMES","4109 WOODCREST DR",BRYAN,TX,77802-3649,"(979) 575-2182",,,,
TX,BRAZOS,RES2020-000176,"Single Family Homes",5/11/2020,,175000,2812,"277 ESTATES CIR","COLLEGE STATION",TX,77845,,,CONTRACTOR,,,,,,,,,,,"MASTER'S TOUCH CUSTOM HOMES",,,,,"MASTER'S TOUCH CUSTOM HOMES","317 RR 620 S STE 101",LAKEWAY,TX,78734-4727,"(512) 999-5591",,,,
TX,BRAZOS,RES2020-000177,"Single Family Homes",5/11/2020,,175000,2812,"285 ESTATES CIR","COLLEGE STATION",TX,77845,,,CONTRACTOR,,,,,,,,,,,"MASTER'S TOUCH CUSTOM HOMES",,,,,"MASTER'S TOUCH CUSTOM HOMES","317 RR 620 S STE 101",LAKEWAY,TX,78734-4727,"(512) 999-5591",,,,
TX,BRAZOS,RES2020-000169,"Single Family Homes",5/12/2020,,289751,5622,"1235 QUARRY OAKS DR","COLLEGE STATION",TX,77845,,,CONTRACTOR,,,,,,,,,,,"FLAGSHIP CUSTOM HOMES",,,,,"FLAGSHIP CUSTOM HOMES","14391 S DOWLING RD","COLLEGE STATION",TX,77845-3473,"(203) 667-4581",http://wordpress.flagshiptx.com/,,,info@flagshiptx.com
TX,BRAZOS,RES2020-000181,"Single Family Homes",5/13/2020,,222400,2780,"3906 BROWNWAY CT","COLLEGE STATION",TX,77845,,,CONTRACTOR,,,,,,,,,,,"REECE HOMES",,,,,"REECE HOMES","1818 TAYLOR",HOUSTON,TX,77545,"(713) 826-7262",http://www.reece-homes.com/,,,
TX,BRAZOS,RES2020-000185,"Single Family Homes",5/14/2020,,206469,2549,"4016 HERU CT","COLLEGE STATION",TX,77845,,,CONTRACTOR,,,,,,,,,,,"AVONLEY HOMES",,,,,"AVONLEY HOMES","3900 STATE HIGHWAY 6 S STE 110","COLLEGE STATION",TX,77845-5831,"(979) 635-4800",https://www.avonleyhomes.com/,,,info@avonleyhomes.com
TX,BRAZOS,RES2020-000187,"Single Family Homes",5/15/2020,,135964,2496,"6312 SPARTAN DR","COLLEGE STATION",TX,77845,,,CONTRACTOR,,,,,,,,,,,"OMEGA BUILDERS GROUP",,,,,"OMEGA BUILDERS GROUP","7353 W ADAMS AVE",TEMPLE,TX,76502-5539,"(254) 773-9966",,,,
TX,BRAZOS,RES2020-000190,"Single Family Homes",5/20/2020,,232848,3528,"1400 CRYSTAL LN","COLLEGE STATION",TX,77845,,,CONTRACTOR,,,,,,,,,,,"RIDGEWOOD CUSTOM HOMES",,,,,"RIDGEWOOD CUSTOM HOMES","106 PHEASANT RUN CT",SUNSET,TX,76270-2176,"(940) 872-9911",,,,
TX,BRAZOS,RES2020-000094,"Single Family Homes",5/22/2020,,165000,2613,"408 THOMPSON ST","COLLEGE STATION",TX,77845,,,CONTRACTOR,,,,,,,,,,,"BLUESTONE PARTNERS",,,,,"BLUESTONE PARTNERS","2913 OVERLAND TRAIL #100",SHERMAN,TX,75092,"(903) 813-1415",http://www.bluestone.ws,"(903) 893-2124","JIM CROSS",jimcross@bluestone.ws
TX,MONTGOMERY,172476-20,"Single Family Homes",5/20/2020,,298765,,"17183 CRIMSON CREST DR",CONROE,TX,77302,ARTAVIA,,CONTRACTOR,,,,,,,,,,,"HIGHLAND HOMES",,,,,"HIGHLAND HOMES","10930 W SAM HOUSTON PKWY N STE 100",HOUSTON,TX,77064-6331,"(281) 517-9800",,,,
TX,MONTGOMERY,172413-20,"Single Family Homes",5/19/2020,,334900,,"9888 PRESERVE WAY",CONROE,TX,77385,"HARPERS PRESERVE",,CONTRACTOR,,,,,,,,,,,"HISTORY MAKER HOMES",,,,,"HISTORY MAKER HOMES","9001 AIRPORT FWY SUITE 400","NORTH RICHLAND HILLS",TX,76180-7769,"(817) 429-8008",http://www.historymaker.com/,"(817) 507-1102","JILL BARFIELD",
TX,MONTGOMERY,172540-20,"Single Family Homes",5/22/2020,,1500000,,"26418 JACKS BARN RD",HOUSTON,TX,77316,"BLUEJACK NATIONAL",,CONTRACTOR,,,,,,,,,,,"K&C CLASSIC HOMES",,,,,"K&C CLASSIC HOMES","100 WAUGH DR STE 400",HOUSTON,TX,77007-5962,"(713) 333-6547",http://www.kandcclassichomes.com/,"(713) 951-0191",,info@kandcclassichomes.com
TX,MONTGOMERY,172397-20,"Single Family Homes",5/18/2020,,213000,,"20856 LANGWORTH PLACE",HOUSTON,TX,77365,"BROOKWOOD FOREST",,CONTRACTOR,,,,,,,,,,,"KB HOME",,,,,"KB HOME","11314 RICHMOND AVE",HOUSTON,TX,77082-2616,"(281) 668-3800",,,,
TX,MONTGOMERY,"172398 20","Single Family Homes",5/18/2020,,162000,,"20675 KINGS CLIFF PLACE","MONTGOMERY COUNTY",TX,77356,"BROOKWOOD FOREST",,CONTRACTOR,,,,,,,,,,,"KB HOME",,,,,"KB HOME","11314 RICHMOND AVE",HOUSTON,TX,77082-2616,"(281) 668-3800",,,,
TX,MONTGOMERY,172399-20,"Single Family Homes",5/18/2020,,128000,,"20153 LANGWELL DR",HOUSTON,TX,77365,"BROOKWOOD FOREST",,CONTRACTOR,,,,,,,,,,,"KB HOME",,,,,"KB HOME","11314 RICHMOND AVE",HOUSTON,TX,77082-2616,"(281) 668-3800",,,,
TX,MONTGOMERY,172400-20,"Single Family Homes",5/18/2020,,194000,,"25676 RAMSEY HEIGHTS WAY",HOUSTON,TX,77365,"BROOKWOOD FOREST",,CONTRACTOR,,,,,,,,,,,"KB HOME",,,,,"KB HOME","11314 RICHMOND AVE",HOUSTON,TX,77082-2616,"(281) 668-3800",,,,
TX,MONTGOMERY,172401-20,"Single Family Homes",5/18/2020,,127000,,"20857 LANGWORTH PLACE",HOUSTON,TX,77365,"BROOKWOOD FOREST",,CONTRACTOR,,,,,,,,,,,"KB HOME",,,,,"KB HOME","11314 RICHMOND AVE",HOUSTON,TX,77082-2616,"(281) 668-3800",,,,
TX,MONTGOMERY,172402-20,"Single Family Homes",5/18/2020,,202000,,"8773 UTE CREEK LN",MAGNOLIA,TX,77354,"CIMARRON CREEK",,CONTRACTOR,,,,,,,,,,,"KB HOME",,,,,"KB HOME","11314 RICHMOND AVE",HOUSTON,TX,77082-2616,"(281) 668-3800",,,,
TX,MONTGOMERY,172403-20,"Single Family Homes",5/18/2020,,129000,,"3836 CIMARRON GAP LN",MAGNOLIA,TX,77354,"CIMARRON CREEK",,CONTRACTOR,,,,,,,,,,,"KB HOME",,,,,"KB HOME","11314 RICHMOND AVE",HOUSTON,TX,77082-2616,"(281) 668-3800",,,,
TX,MONTGOMERY,172446-20,"Single Family Homes",5/19/2020,,246660,,"16131 HIDALGO ST",HOUSTON,TX,77056,"DEER PINES",,CONTRACTOR,,,,,,,,,,,"KENDALL HOMES",,,,,"KENDALL HOMES","427 MASON PARK BLVD",KATY,TX,77450-6187,"(281) 398-4010",http://www.kendallhomes.net/,"(281) 398-4011",,
TX,MONTGOMERY,172524-20,"Single Family Homes",5/21/2020,,177000,,"29479 WESTHOPE DR",HOUSTON,TX,77386,"LEGENDS TRACE",,CONTRACTOR,,,,,,,,,,,"LEGEND HOMES",,,,,"LEGEND HOMES","10410 WINDAMERE LAKES BLVD",HOUSTON,TX,77065-4996,"(281) 671-9060",http://legendhomecorp.com/,"(281) 671-9055",,
TX,MONTGOMERY,172404-20,"Single Family Homes",5/18/2020,,156800,,"23828 BRENTA VALLEY DR",HOUSTON,TX,77357,TAVOLA,,CONTRACTOR,,,,,,,,,,,"LENNAR HOMES",,,,,"LENNAR HOMES","550 GREENS PKWY",HOUSTON,TX,77067-4537,"(281) 875-1000",http://www.lennar.com/,,,
TX,MONTGOMERY,172405-20,"Single Family Homes",5/18/2020,,121600,,"18919 VIA FLORA DR",HOUSTON,TX,77357,TAVOLA,,CONTRACTOR,,,,,,,,,,,"LENNAR HOMES",,,,,"LENNAR HOMES","550 GREENS PKWY",HOUSTON,TX,77067-4537,"(281) 875-1000",http://www.lennar.com/,,,
TX,MONTGOMERY,172406-20,"Single Family Homes",5/18/2020,,121000,,"18936 COLLINA WAY",HOUSTON,TX,77357,TAVOLA,,CONTRACTOR,,,,,,,,,,,"LENNAR HOMES",,,,,"LENNAR HOMES","550 GREENS PKWY",HOUSTON,TX,77067-4537,"(281) 875-1000",http://www.lennar.com/,,,
TX,MONTGOMERY,172412-20,"Single Family Homes",5/19/2020,,120700,,"23840 BRENTA VALLEY DR",HOUSTON,TX,77357,TAVOLA,,CONTRACTOR,,,,,,,,,,,"LENNAR HOMES",,,,,"LENNAR HOMES","550 GREENS PKWY",HOUSTON,TX,77067-4537,"(281) 875-1000",http://www.lennar.com/,,,
TX,MONTGOMERY,172464-20,"Single Family Homes",5/20/2020,,167505,,"1360 WINDING WILLOW DR",HOUSTON,TX,77362,"ARBOR TRACE",,CONTRACTOR,,,,,,,,,,,"LENNAR HOMES",,,,,"LENNAR HOMES","550 GREENS PKWY",HOUSTON,TX,77067-4537,"(281) 875-1000",http://www.lennar.com/,,,
TX,MONTGOMERY,172465-20,"Single Family Homes",5/20/2020,,110500,,"1363 WINDING WILLOW DR",HOUSTON,TX,77362,"ARBOR TRACE",,CONTRACTOR,,,,,,,,,,,"LENNAR HOMES",,,,,"LENNAR HOMES","550 GREENS PKWY",HOUSTON,TX,77067-4537,"(281) 875-1000",http://www.lennar.com/,,,
TX,MONTGOMERY,172466-20,"Single Family Homes",5/20/2020,,215670,,"524 SAGE TIMBERS LN",HOUSTON,TX,77362,WOODTRACE,,CONTRACTOR,,,,,,,,,,,"LENNAR HOMES",,,,,"LENNAR HOMES","550 GREENS PKWY",HOUSTON,TX,77067-4537,"(281) 875-1000",http://www.lennar.com/,,,
TX,MONTGOMERY,172471-20,"Single Family Homes",5/20/2020,,154500,,"22501 GRAN SASSO DR",HOUSTON,TX,77357,TAVOLA,,CONTRACTOR,,,,,,,,,,,"LENNAR HOMES",,,,,"LENNAR HOMES","550 GREENS PKWY",HOUSTON,TX,77067-4537,"(281) 875-1000",http://www.lennar.com/,,,
TX,MONTGOMERY,172474-20,"Single Family Homes",5/20/2020,,176300,,"18840 COLLINS VIEW DR",HOUSTON,TX,77357,TAVOLA,,CONTRACTOR,,,,,,,,,,,"LENNAR HOMES",,,,,"LENNAR HOMES","550 GREENS PKWY",HOUSTON,TX,77067-4537,"(281) 875-1000",http://www.lennar.com/,,,
TX,MONTGOMERY,172407-20,"Single Family Homes",5/18/2020,,103000,,"9894 CLIMBING TREE ST",CONROE,TX,77385,"MONTGOMERY CREEK RANCH",,CONTRACTOR,,,,,,,,,,,"LONG LAKE HOMES",,,,,"LONG LAKE HOMES","15915 KATY FWY STE 405",HOUSTON,TX,77094-1710,"(281) 646-1727",http://www.longlakeltd.com/,,"DAVID BIGLER",
TX,MONTGOMERY,172408-20,"Single Family Homes",5/18/2020,,72000,,"16396 SNOWY EGRET LN",CONROE,TX,77385,"MONTGOMERY CREEK RANCH",,CONTRACTOR,,,,,,,,,,,"LONG LAKE HOMES",,,,,"LONG LAKE HOMES","15915 KATY FWY STE 405",HOUSTON,TX,77094-1710,"(281) 646-1727",http://www.longlakeltd.com/,,"DAVID BIGLER",
TX,MONTGOMERY,172409-20,"Single Family Homes",5/18/2020,,80000,,"29204 MOSSBRAE FALLS CT",HOUSTON,TX,77386,"FOREST VILLAGE",,CONTRACTOR,,,,,,,,,,,"LONG LAKE HOMES",,,,,"LONG LAKE HOMES","15915 KATY FWY STE 405",HOUSTON,TX,77094-1710,"(281) 646-1727",http://www.longlakeltd.com/,,"DAVID BIGLER",
TX,MONTGOMERY,172504-20,"Single Family Homes",5/21/2020,,193950,,"4233 DAVIS OAK DR",HOUSTON,TX,77386,"WOODSONS RESERVE",,CONTRACTOR,,,,,,,,,,,"M/I HOMES",,,,,"M/I HOMES","10910 NORTH SAM HOUSTON PKWY W",HOUSTON,TX,77064,"(832) 912-1012",,,,
TX,MONTGOMERY,172505-20,"Single Family Homes",5/21/2020,,171500,,"28210 WHITMORE BEND DR",HOUSTON,TX,77386,"WOODSONS RESERVE",,CONTRACTOR,,,,,,,,,,,"M/I HOMES",,,,,"M/I HOMES","10910 NORTH SAM HOUSTON PKWY W",HOUSTON,TX,77064,"(832) 912-1012",,,,
TX,MONTGOMERY,172506-20,"Single Family Homes",5/21/2020,,169800,,"18934 ARNOLD CREEK LN",HOUSTON,TX,77357,TAVOLA,,CONTRACTOR,,,,,,,,,,,"M/I HOMES",,,,,"M/I HOMES","10910 NORTH SAM HOUSTON PKWY W",HOUSTON,TX,77064,"(832) 912-1012",,,,
TX,MONTGOMERY,172387-20,"Single Family Homes",5/18/2020,,280425,,"4050 EMERSON COVE DR","THE WOODLANDS",TX,77386,"ALLEGRO AT HARMONY",,CONTRACTOR,,,,,,,,,,,"PERRY HOMES",,,,,"PERRY HOMES","9000 GULF FWY",HOUSTON,TX,77017-7018,"(713) 417-1396",,,,
TX,MONTGOMERY,172389-20,"Single Family Homes",5/18/2020,,291485,,"4067 EMERSON COVE DR","THE WOODLANDS",TX,77386,"ALLEGRO AT HARMONY",,CONTRACTOR,,,,,,,,,,,"PERRY HOMES",,,,,"PERRY HOMES","9000 GULF FWY",HOUSTON,TX,77017-7018,"(713) 417-1396",,,,
TX,MONTGOMERY,172390-20,"Single Family Homes",5/18/2020,,281925,,"4109 EMERSON COVE DR","THE WOODLANDS",TX,77386,"ALLEGRO AT HARMONY",,CONTRACTOR,,,,,,,,,,,"PERRY HOMES",,,,,"PERRY HOMES","9000 GULF FWY",HOUSTON,TX,77017-7018,"(713) 417-1396",,,,
TX,MONTGOMERY,172452-20,"Single Family Homes",5/19/2020,,309675,,"17107 CRIMSON CREST DR",HOUSTON,TX,77302,ARTAVIA,,CONTRACTOR,,,,,,,,,,,"PERRY HOMES",,,,,"PERRY HOMES","9000 GULF FWY",HOUSTON,TX,77017-7018,"(713) 417-1396",,,,
TX,MONTGOMERY,172448-20,"Single Family Homes",5/19/2020,,390000,,"591 CAMWOOD ST",MAGNOLIA,TX,77355,"CLEAR CREEK FOREST",,CONTRACTOR,,,,,,,,,,,"ROSS DESIGN SERVICES",,,,,"ROSS DESIGN SERVICES","PO BOX 1167",PINEHURST,TX,77362,"(281) 384-3976",http://rossdesignservice.com/,,"ANDREW ROSS",
TX,MONTGOMERY,"172449 20","Single Family Homes",5/19/2020,,300000,,"537 CAMWOOD ST",MAGNOLIA,TX,77355,"CLEAR CREEK FOREST",,CONTRACTOR,,,,,,,,,,,"ROSS DESIGN SERVICES",,,,,"ROSS DESIGN SERVICES","PO BOX 1167",PINEHURST,TX,77362,"(281) 384-3976",http://rossdesignservice.com/,,"ANDREW ROSS",
TX,MONTGOMERY,172473-20,"Single Family Homes",5/20/2020,,300000,,"11680 GRAND VIEW DR",HOUSTON,TX,77356,"GRAND HARBOR",,CONTRACTOR,,,,,,,,,,,"SCHENCK BUILDERS",,,,,"SCHENCK BUILDERS","1527 CAFE DUMONDE",CONROE,TX,77304-4933,"(936) 648-4823",http://schenckbuilders.com/,"(832) 218-0805","YVETTE SCHENCK",info@schenckbuilders.com
TX,MONTGOMERY,172518-20,"Single Family Homes",5/21/2020,,85000,,"16696 STONEFIELD ST",HOUSTON,TX,77316,"LAKE CONROE VILLAGE",,CONTRACTOR,,,,,,,,,,,"SUGARCREEK BUILDERS",,,,,"SUGARCREEK BUILDERS","3202 PEBBLE TRACE DR",HOUSTON,TX,77068-2089,"(281) 730-7850",,,"DAVID STEELE ",
TX,GALVESTON,172519-20,"Single Family Homes",5/21/2020,,85000,,"16692 STONEFIELD ST",HOUSTON,TX,77316,"LAKE CONROE VILLAGE",,CONTRACTOR,,,,,,,,,,,"SUGARCREEK BUILDERS",,,,,"SUGARCREEK BUILDERS","3202 PEBBLE TRACE DR",HOUSTON,TX,77068-2089,"(281) 730-7850",,,"DAVID STEELE ",
TX,MONTGOMERY,172511-20,"Single Family Homes",5/21/2020,,241533,,"3839 SUPREMES TRAIL",HOUSTON,TX,77386,"ALLEGRO AT HARMONY",,CONTRACTOR,,,,,,,,,,,"TAYLOR MORRISON OF TEXAS",,,,,"TAYLOR MORRISON OF TEXAS","5353 W SAM HOUSTON PKWY N STE 190",HOUSTON,TX,77041-5186,"(281) 598-3000",,,,
TX,MONTGOMERY,172544-20,"Single Family Homes",5/22/2020,,619795,,"11911 WEST BORDER OAK DR",HOUSTON,TX,77354,"THOUSAND OAKS",,CONTRACTOR,,,,,,,,,,,"TERMEER DESIGN GROUP",,,,,"TERMEER DESIGN GROUP","314 SAWDUST RD STE 110",SPRING,TX,77380-2345,"(281) 292-8400",,,,
TX,MONTGOMERY,172424-20,"Single Family Homes",5/19/2020,,192700,,"28321 STERLING OAK DR","MONTGOMERY COUNTY",TX,77386,"WOODSONS RESERVE",,CONTRACTOR,,,,,,,,,,,"TOLL BROTHERS",,,,,"TOLL BROTHERS","10110 W SAM HOUSTON PKWY N STE 350",HOUSTON,TX,77064-7508,"(281) 664-7255",,,,
TX,MONTGOMERY,172510-20,"Single Family Homes",5/21/2020,,500000,,"8547 TOMBRON GROVE RD",HOUSTON,TX,77354,NORTHGROVE,,CONTRACTOR,,,,,,,,,,,"TOLL BROTHERS",,,,,"TOLL BROTHERS","10110 W SAM HOUSTON PKWY N STE 350",HOUSTON,TX,77064-7508,"(281) 664-7255",,,,
TX,MONTGOMERY,172537-20,"Single Family Homes",5/22/2020,,550000,,"5110 LIBERTY LAKE CT",HOUSTON,TX,77386,"WOODSONS RESERVE",,CONTRACTOR,,,,,,,,,,,"TOLL BROTHERS",,,,,"TOLL BROTHERS","10110 W SAM HOUSTON PKWY N STE 350",HOUSTON,TX,77064-7508,"(281) 664-7255",,,,
TX,MONTGOMERY,172538-20,"Single Family Homes",5/22/2020,,700000,,"5107 LIBERTY LAKE CT",HOUSTON,TX,77386,"WOODSONS RESERVE",,CONTRACTOR,,,,,,,,,,,"TOLL BROTHERS",,,,,"TOLL BROTHERS","10110 W SAM HOUSTON PKWY N STE 350",HOUSTON,TX,77064-7508,"(281) 664-7255",,,,
TX,MONTGOMERY,172539-20,"Single Family Homes",5/22/2020,,900000,,"28031 ROYAL SWAN LN",HOUSTON,TX,77316,"WOODSONS RESERVE",,CONTRACTOR,,,,,,,,,,,"TOLL BROTHERS",,,,,"TOLL BROTHERS","10110 W SAM HOUSTON PKWY N STE 350",HOUSTON,TX,77064-7508,"(281) 664-7255",,,,
TX,MONTGOMERY,172819-20,"Single Family Homes",6/3/2020,,300000,,"23461 CANNONDALE LOOP",HOUSTON,TX,77316,"HIGH MEADOW ESTATES",,CONTRACTOR,,,,,,,,,,,"AES SEPTIC",,,,,"AES SEPTIC","30703 N CRIPPLE CREEK DR",MAGNOLIA,TX,77354-1973,"(281) 356-5000",,,,
TX,MONTGOMERY,172848-20,"Single Family Homes",6/3/2020,,400000,,"37732 MARIAS WAY",MAGNOLIA,TX,77354,"PRAIRIES EDGE",,CONTRACTOR,,,,,,,,,,,"AES SEPTIC",,,,,"AES SEPTIC","30703 N CRIPPLE CREEK DR",MAGNOLIA,TX,77354-1973,"(281) 356-5000",,,,
TX,MONTGOMERY,172885-20,"Single Family Homes",6/5/2020,,132000,,"12528 HILLTOP MILL ROAD",MAGNOLIA,TX,77354,"MOSTYN SPRINGS",,CONTRACTOR,,,,,,,,,,,"CENTURY COMMUNITIES",,,,,"CENTURY COMMUNITIES","4700 W SAM HOUSTON PKWY N STE 130",HOUSTON,TX,77041-8219,"(281) 741-8946",https://www.centurycommunities.com/,,,
TX,MONTGOMERY,172886-20,"Single Family Homes",6/5/2020,,146000,,"25743 NORTHPARK PALM DRIVE",HOUSTON,TX,77356,"NORTHPARK WOODS",,CONTRACTOR,,,,,,,,,,,"CENTURY COMMUNITIES",,,,,"CENTURY COMMUNITIES","4700 W SAM HOUSTON PKWY N STE 130",HOUSTON,TX,77041-8219,"(281) 741-8946",https://www.centurycommunities.com/,,,
TX,MONTGOMERY,172739-20,"Single Family Homes",6/1/2020,,203356,,"4558 SILVER MOON DRIVE",HOUSTON,TX,77386,"WOODSONS RESERVE",,CONTRACTOR,,,,,,,,,,,"CHESMAR HOMES",,,,,"CHESMAR HOMES","450 GEARS RD STE 400",HOUSTON,TX,77067-4513,"(281) 598-1111",http://chesmar.com,"(281) 598-1115",,customerservice.houston@chesmar.com
TX,MONTGOMERY,172740-20,"Single Family Homes",6/1/2020,,126747,,"342 OVERLOOK PEAK DRIVE",HOUSTON,TX,77304,WOODFOREST,,CONTRACTOR,,,,,,,,,,,"CHESMAR HOMES",,,,,"CHESMAR HOMES","450 GEARS RD STE 400",HOUSTON,TX,77067-4513,"(281) 598-1111",http://chesmar.com,"(281) 598-1115",,customerservice.houston@chesmar.com
TX,MONTGOMERY,172782-20,"Single Family Homes",6/2/2020,,141481,,"9864 PRESERVE WAY",SHENANDOAH,TX,77385,"HARPERS PRESERVE",,CONTRACTOR,,,,,,,,,,,"CHESMAR HOMES",,,,,"CHESMAR HOMES","450 GEARS RD STE 400",HOUSTON,TX,77067-4513,"(281) 598-1111",http://chesmar.com,"(281) 598-1115",,customerservice.houston@chesmar.com
TX,MONTGOMERY,172788-20,"Single Family Homes",6/2/2020,,170144,,"4575 SILVER MOON DR",HOUSTON,TX,77386,"WOODSONS RESERVE",,CONTRACTOR,,,,,,,,,,,"CHESMAR HOMES",,,,,"CHESMAR HOMES","450 GEARS RD STE 400",HOUSTON,TX,77067-4513,"(281) 598-1111",http://chesmar.com,"(281) 598-1115",,customerservice.houston@chesmar.com
TX,MONTGOMERY,"172909 20","Single Family Homes",6/5/2020,,169360,,"27121 ORLEANS HILL COURT",HOUSTON,TX,77354,NORTHGROVE,,CONTRACTOR,,,,,,,,,,,"CHESMAR HOMES",,,,,"CHESMAR HOMES","450 GEARS RD STE 400",HOUSTON,TX,77067-4513,"(281) 598-1111",http://chesmar.com,"(281) 598-1115",,customerservice.houston@chesmar.com
TX,MONTGOMERY,172911-20,"Single Family Homes",6/5/2020,,171423,,"8109 ROSEMARY SAGA DR",MAGNOLIA,TX,77354,NORTHGROVE,,CONTRACTOR,,,,,,,,,,,"CHESMAR HOMES",,,,,"CHESMAR HOMES","450 GEARS RD STE 400",HOUSTON,TX,77067-4513,"(281) 598-1111",http://chesmar.com,"(281) 598-1115",,customerservice.houston@chesmar.com
TX,MONTGOMERY,172913-20,"Single Family Homes",6/5/2020,,150742,,"8105 ROSEMARY SAGE DRIVE",MAGNOLIA,TX,77354,NORTHGROVE,,CONTRACTOR,,,,,,,,,,,"CHESMAR HOMES",,,,,"CHESMAR HOMES","450 GEARS RD STE 400",HOUSTON,TX,77067-4513,"(281) 598-1111",http://chesmar.com,"(281) 598-1115",,customerservice.houston@chesmar.com
TX,MONTGOMERY,172921-20,"Single Family Homes",6/5/2020,,203098,,"4579 SILVER MOON DRIVE",HOUSTON,TX,77386,"WOODSONS RESERVE",,CONTRACTOR,,,,,,,,,,,"CHESMAR HOMES",,,,,"CHESMAR HOMES","450 GEARS RD STE 400",HOUSTON,TX,77067-4513,"(281) 598-1111",http://chesmar.com,"(281) 598-1115",,customerservice.houston@chesmar.com
TX,MONTGOMERY,172816-20,"Single Family Homes",6/3/2020,,280000,,"10845 BUCK RIDGE ROAD",HOUSTON,TX,77316,,,CONTRACTOR,,,,,,,,,,,"CONROE SEPTIC SERVICE",,,,,"CONROE SEPTIC SERVICE","PO BOX 273",CONROE,TX,77305,"(936) 588-1170",https://www.conroesepticservice.com/,,,sales@conroesepticservice.com
TX,MONTGOMERY,172817-20,"Single Family Homes",6/3/2020,,335000,,"12225 HIGH FIRE ROAD",HOUSTON,TX,77356,"HILL CREEK",,CONTRACTOR,,,,,,,,,,,"CONROE SEPTIC SERVICE",,,,,"CONROE SEPTIC SERVICE","PO BOX 273",CONROE,TX,77305,"(936) 588-1170",https://www.conroesepticservice.com/,,,sales@conroesepticservice.com
TX,MONTGOMERY,172874-20,"Single Family Homes",6/4/2020,,85000,,"15682 HOLLY DRIVE",HOUSTON,TX,77356,"HIDDEN FOREST ESTATES",,CONTRACTOR,,,,,,,,,,,"CONROE SEPTIC SERVICE",,,,,"CONROE SEPTIC SERVICE","PO BOX 273",CONROE,TX,77305,"(936) 588-1170",https://www.conroesepticservice.com/,,,sales@conroesepticservice.com
TX,MONTGOMERY,172920-20,"Single Family Homes",6/5/2020,,268830,,"9725 COLD CREEK DR",CONROE,TX,77306,"LAKEWOOD TRAILS",,CONTRACTOR,,,,,,,,,,,"RAUSCH COLEMAN HOMES",,,,,"RAUSCH COLEMAN HOMES","9504 N IH35 STE 310","SAN ANTONIO",TX,78233,"(210) 231-0703",https://www.rauschcolemanhomes.com/,,,
TX,MONTGOMERY,172924-20,"Single Family Homes",6/5/2020,,268830,,"9729 COLD CREEK DR",CONROE,TX,77306,"LAKEWOOD TRAILS",,CONTRACTOR,,,,,,,,,,,"RAUSCH COLEMAN HOMES",,,,,"RAUSCH COLEMAN HOMES","9504 N IH35 STE 310","SAN ANTONIO",TX,78233,"(210) 231-0703",https://www.rauschcolemanhomes.com/,,,
TX,MONTGOMERY,172780-20,"Single Family Homes",6/2/2020,,147375,,"484 WESTLAKE LANDING",CONROE,TX,77304,"HILLS OF WESTLAKE",,CONTRACTOR,,,,,,,,,,,"DR HORTON",,,,,"DR HORTON","14100 SOUTHWEST",HOUSTON,TX,77478,"(281) 201-5559",,,,
TX,MONTGOMERY,172785-20,"Single Family Homes",6/2/2020,,122500,,"14123 RILEY CREEK COURT",HOUSTON,TX,77316,"FOSTERS RIDGE",,CONTRACTOR,,,,,,,,,,,"DR HORTON",,,,,"DR HORTON","14100 SOUTHWEST",HOUSTON,TX,77478,"(281) 201-5559",,,,
TX,MONTGOMERY,172867-20,"Single Family Homes",6/4/2020,,157050,,"14131 RILEY CREEK COURT",HOUSTON,TX,77316,"FOSTERS RIDGE",,CONTRACTOR,,,,,,,,,,,"DR HORTON",,,,,"DR HORTON","14100 SOUTHWEST",HOUSTON,TX,77478,"(281) 201-5559",,,,
TX,MONTGOMERY,172800-20,"Single Family Homes",6/2/2020,,264990,,"467 BILLINGSGALE CHASE",CONROE,TX,77304,"HILLS OF WESTLAKE",,CONTRACTOR,,,,,,,,,,,"DAVID WEEKLEY HOMES",,,,,"DAVID WEEKLEY HOMES","14444 NORTHWEST",HOUSTON,TX,77040,"(713) 570-5021",http://www.davidweekleyhomes.com/,,,
TX,MONTGOMERY,172801-20,"Single Family Homes",6/2/2020,,283990,,"322 PLEASANT HILL WAY",CONROE,TX,77304,"HILLS OF WESTLAKE",,CONTRACTOR,,,,,,,,,,,"DAVID WEEKLEY HOMES",,,,,"DAVID WEEKLEY HOMES","14444 NORTHWEST",HOUSTON,TX,77040,"(713) 570-5021",http://www.davidweekleyhomes.com/,,,
TX,MONTGOMERY,172802-20,"Single Family Homes",6/2/2020,,255990,,"504 BILLINGSGALE CHASE",CONROE,TX,77304,"HILLS OF WESTLAKE",,CONTRACTOR,,,,,,,,,,,"DAVID WEEKLEY HOMES",,,,,"DAVID WEEKLEY HOMES","14444 NORTHWEST",HOUSTON,TX,77040,"(713) 570-5021",http://www.davidweekleyhomes.com/,,,
TX,MONTGOMERY,172826-20,"Single Family Homes",6/3/2020,,283490,,"451 STONEBROOK LANE",CONROE,TX,77304,"HILLS OF WESTLAKE",,CONTRACTOR,,,,,,,,,,,"DAVID WEEKLEY HOMES",,,,,"DAVID WEEKLEY HOMES","14444 NORTHWEST",HOUSTON,TX,77040,"(713) 570-5021",http://www.davidweekleyhomes.com/,,,
TX,MONTGOMERY,172827-20,"Single Family Homes",6/3/2020,,283990,,"362 PLEASANT HILL WAY",CONROE,TX,77304,"HILLS OF WESTLAKE",,CONTRACTOR,,,,,,,,,,,"DAVID WEEKLEY HOMES",,,,,"DAVID WEEKLEY HOMES","14444 NORTHWEST",HOUSTON,TX,77040,"(713) 570-5021",http://www.davidweekleyhomes.com/,,,
TX,MONTGOMERY,172870-20,"Single Family Homes",6/4/2020,,306990,,"32108 PARK PLAINS DRIVE",HOUSTON,TX,77385,"MEADOWS AT IMPERIAL OAKS",,CONTRACTOR,,,,,,,,,,,"DAVID WEEKLEY HOMES",,,,,"DAVID WEEKLEY HOMES","14444 NORTHWEST",HOUSTON,TX,77040,"(713) 570-5021",http://www.davidweekleyhomes.com/,,,
TX,MONTGOMERY,172733-20,"Single Family Homes",6/1/2020,,226890,,"105 BUNGALOW DRIVE",HOUSTON,TX,77316,WOODFOREST,,CONTRACTOR,,,,,,,,,,,"EHT OF TEXAS LP",,,,,"EHT OF TEXAS LP","10235 LITTLE",HOUSTON,TX,77040,"(713) 557-3685",,,,
TX,MONTGOMERY,172765-20,"Single Family Homes",6/2/2020,,244080,,"9920 PRESERVE WAY",SHENANDOAH,TX,77385,"HARPERS PRESERVE",,CONTRACTOR,,,,,,,,,,,"EHT OF TEXAS LP",,,,,"EHT OF TEXAS LP","10235 LITTLE",HOUSTON,TX,77040,"(713) 557-3685",,,,
TX,MONTGOMERY,172766-20,"Single Family Homes",6/2/2020,,244980,,"9924 PRESERVE WAY",SHENANDOAH,TX,77385,"HARPERS PRESERVE",,CONTRACTOR,,,,,,,,,,,"EHT OF TEXAS LP",,,,,"EHT OF TEXAS LP","10235 LITTLE",HOUSTON,TX,77040,"(713) 557-3685",,,,
TX,MONTGOMERY,172910-20,"Single Family Homes",6/5/2020,,430000,,"9029 WATER CREST COURT",HOUSTON,TX,77316,"MONTGOMERY TRACE",,CONTRACTOR,,,,,,,,,,,"ENVIRONMENTAL RESOURCES",,,,,"ENVIRONMENTAL RESOURCES","112 SHERBROOK CIR",CONROE,TX,77385-7749,"(936) 672-7025",,,,
TX,MONTGOMERY,172830-20,"Single Family Homes",6/3/2020,,190990,,"16708 SCOTS PINES COURT",HOUSTON,TX,77316,"GRANGER PINES",,CONTRACTOR,,,,,,,,,,,"FIRST AMERICA HOMES",,,,,"FIRST AMERICA HOMES","1400 WOODLOCH FOREST DR STE 200","THE WOODLANDS",TX,77380-1179,"(713) 452-1700",http://www.firstamericahomes.com/,,,info@firstamericahomes.com
TX,MONTGOMERY,172831-20,"Single Family Homes",6/3/2020,,187990,,"16700 SCOTS PINES COURT",HOUSTON,TX,77316,"GRANGER PINES",,CONTRACTOR,,,,,,,,,,,"FIRST AMERICA HOMES",,,,,"FIRST AMERICA HOMES","1400 WOODLOCH FOREST DR STE 200","THE WOODLANDS",TX,77380-1179,"(713) 452-1700",http://www.firstamericahomes.com/,,,info@firstamericahomes.com
TX,MONTGOMERY,172832-20,"Single Family Homes",6/3/2020,,207990,,"14529 SUGAR PINES DRIVE",HOUSTON,TX,77316,"GRANGER PINES",,CONTRACTOR,,,,,,,,,,,"FIRST AMERICA HOMES",,,,,"FIRST AMERICA HOMES","1400 WOODLOCH FOREST DR STE 200","THE WOODLANDS",TX,77380-1179,"(713) 452-1700",http://www.firstamericahomes.com/,,,info@firstamericahomes.com
TX,MONTGOMERY,172850-20,"Single Family Homes",6/3/2020,,272990,,"16126 HIDALGO STREET",CONROE,TX,77303,"DEER PINES",,CONTRACTOR,,,,,,,,,,,"FIRST AMERICA HOMES",,,,,"FIRST AMERICA HOMES","1400 WOODLOCH FOREST DR STE 200","THE WOODLANDS",TX,77380-1179,"(713) 452-1700",http://www.firstamericahomes.com/,,,info@firstamericahomes.com
TX,MONTGOMERY,172853-20,"Single Family Homes",6/3/2020,,305990,,"16205 FAYETTE STREET",HOUSTON,TX,77316,"DEER PINES",,CONTRACTOR,,,,,,,,,,,"FIRST AMERICA HOMES",,,,,"FIRST AMERICA HOMES","1400 WOODLOCH FOREST DR STE 200","THE WOODLANDS",TX,77380-1179,"(713) 452-1700",http://www.firstamericahomes.com/,,,info@firstamericahomes.com
TX,MONTGOMERY,172855-20,"Single Family Homes",6/3/2020,,305990,,"9901 POLK STREET",HOUSTON,TX,77316,"DEER PINES",,CONTRACTOR,,,,,,,,,,,"FIRST AMERICA HOMES",,,,,"FIRST AMERICA HOMES","1400 WOODLOCH FOREST DR STE 200","THE WOODLANDS",TX,77380-1179,"(713) 452-1700",http://www.firstamericahomes.com/,,,info@firstamericahomes.com
TX,MONTGOMERY,172858-20,"Single Family Homes",6/3/2020,,305990,,"16209 FAYETTE ST",HOUSTON,TX,77316,"DEER PINES",,CONTRACTOR,,,,,,,,,,,"FIRST AMERICA HOMES",,,,,"FIRST AMERICA HOMES","1400 WOODLOCH FOREST DR STE 200","THE WOODLANDS",TX,77380-1179,"(713) 452-1700",http://www.firstamericahomes.com/,,,info@firstamericahomes.com
TX,MONTGOMERY,172898-20,"Single Family Homes",6/5/2020,,185990,,"14692 EAST PINE HEART DR",CONROE,TX,77302,"GRANGER PINES",,CONTRACTOR,,,,,,,,,,,"FIRST AMERICA HOMES",,,,,"FIRST AMERICA HOMES","1400 WOODLOCH FOREST DR STE 200","THE WOODLANDS",TX,77380-1179,"(713) 452-1700",http://www.firstamericahomes.com/,,,info@firstamericahomes.com
TX,MONTGOMERY,172900-20,"Single Family Homes",6/5/2020,,182730,,"22343 LOG ORCHARD LANE",HOUSTON,TX,77365,"WOODRIDGE FOREST",,CONTRACTOR,,,,,,,,,,,"GEHAN HOMES",,,,,"GEHAN HOMES","2050 W SAM HOUSTON PKWY S",HOUSTON,TX,77042-2079,"(713) 243-3545",http://www.gehanhomes.com,,,
TX,MONTGOMERY,"172908 20","Single Family Homes",6/5/2020,,865000,,"5604 BRIGHT TIMBER LANDING DR",HOUSTON,TX,77386,"BENDERS LANDING ESTATES",,CONTRACTOR,,,,,,,,,,,"HAMES CUSTOM BUILDERS",,,,,"HAMES CUSTOM BUILDERS","27519 S RONDELET DR",SPRING,TX,77386-2093,"(281) 900-3216",http://www.hamescustombuilders.com/,,,
TX,MONTGOMERY,172923-20,"Single Family Homes",6/5/2020,,297990,,"17071 EASTER LILY DR",CONROE,TX,77385,"HARPERS PRESERVE",,CONTRACTOR,,,,,,,,,,,"HISTORY MAKER HOMES",,,,,"HISTORY MAKER HOMES","9001 AIRPORT FWY SUITE 400","NORTH RICHLAND HILLS",TX,76180-7769,"(817) 429-8008",http://www.historymaker.com/,"(817) 507-1102","JILL BARFIELD",
TX,MONTGOMERY,172856-20,"Single Family Homes",6/3/2020,,200000,,"12498 NICHOLSON RD",CONROE,TX,77303,,,CONTRACTOR,,,,,,,,,,,"GERALD JACO",,,,,"GERALD JACO","30119 W GENEVA",SPRING,TX,77386,"(832) 754-7785",,,,
TX,MONTGOMERY,172912-20,"Single Family Homes",6/5/2020,,50000,,"25905 ESSEX",HOUSTON,TX,77357,"KINGS COLONY",,CONTRACTOR,,,,,,,,,,,"JOHNSON'S SEPTIC SERVICES",,,,,"JOHNSON'S SEPTIC SERVICES","909 HAVARD ROAD",HUFFMAN,TX,77336,"(281) 948-0993",http://www.septicsbyjohnson.com/,,,septicsbyjohnson@gmail.com
TX,MONTGOMERY,172741-20,"Single Family Homes",6/1/2020,,182000,,"8757 UTE CREEK LANE",MAGNOLIA,TX,77354,"CIMARRON CREEK",,CONTRACTOR,,,,,,,,,,,"KB HOME",,,,,"KB HOME","11314 RICHMOND AVE",HOUSTON,TX,77082-2616,"(281) 668-3800",,,,
TX,MONTGOMERY,172835-20,"Single Family Homes",6/3/2020,,158000,,"29482 WESTHOPE DRIVE",HOUSTON,TX,77386,"LEGENDS TRACE",,CONTRACTOR,,,,,,,,,,,"LEGEND HOMES",,,,,"LEGEND HOMES","10410 WINDAMERE LAKES BLVD",HOUSTON,TX,77065-4996,"(281) 671-9060",http://legendhomecorp.com/,"(281) 671-9055",,
TX,MONTGOMERY,172839-20,"Single Family Homes",6/3/2020,,129545,,"1352 WINDING WILLOW DR",HOUSTON,TX,77362,"ARBOR TRACE",,CONTRACTOR,,,,,,,,,,,"LENNAR HOMES",,,,,"LENNAR HOMES","550 GREENS PKWY",HOUSTON,TX,77067-4537,"(281) 875-1000",http://www.lennar.com/,,,
TX,MONTGOMERY,172860-20,"Single Family Homes",6/4/2020,,142870,,"1355 WINDING WILLOW DR",HOUSTON,TX,77362,"ARBOR TRACE",,CONTRACTOR,,,,,,,,,,,"LENNAR HOMES",,,,,"LENNAR HOMES","550 GREENS PKWY",HOUSTON,TX,77067-4537,"(281) 875-1000",http://www.lennar.com/,,,
TX,MONTGOMERY,172914-20,"Single Family Homes",6/5/2020,,90334,,"25198 DICKENS DR",MAGNOLIA,TX,77355,"WILLIAMS TRACE",,CONTRACTOR,,,,,,,,,,,"LGI HOMES",,,,,"LGI HOMES","1450 LAKE ROBBINS SUITE 430",CONROE,TX,77380,"(210) 563-4648",,"(281) 210-2601",,
TX,MONTGOMERY,172914-20,"Single Family Homes",6/5/2020,,90334,,"25198 DICKENS DRIVE",MAGNOLIA,TX,77355,"WILLIAMS TRACE",,CONTRACTOR,,,,,,,,,,,"LGI HOMES",,,,,"LGI HOMES","1450 LAKE ROBBINS SUITE 430",CONROE,TX,77380,"(210) 563-4648",,"(281) 210-2601",,
TX,MONTGOMERY,172915-20,"Single Family Homes",6/5/2020,,73912,,"25208 DICKENS DRIVE",MAGNOLIA,TX,77355,,,CONTRACTOR,,,,,,,,,,,"LGI HOMES",,,,,"LGI HOMES","1450 LAKE ROBBINS SUITE 430",CONROE,TX,77380,"(210) 563-4648",,"(281) 210-2601",,
TX,MONTGOMERY,172916-20,"Single Family Homes",6/5/2020,,104754,,"25224 DICKENS DRIVE",MAGNOLIA,TX,77355,"WILLIAMS TRACE",,CONTRACTOR,,,,,,,,,,,"LGI HOMES",,,,,"LGI HOMES","1450 LAKE ROBBINS SUITE 430",CONROE,TX,77380,"(210) 563-4648",,"(281) 210-2601",,
TX,MONTGOMERY,172917-20,"Single Family Homes",6/5/2020,,73912,,"25234 DICKENS DRIVE",MAGNOLIA,TX,77355,"WILLIAMS TRACE",,CONTRACTOR,,,,,,,,,,,"LGI HOMES",,,,,"LGI HOMES","1450 LAKE ROBBINS SUITE 430",CONROE,TX,77380,"(210) 563-4648",,"(281) 210-2601",,
TX,MONTGOMERY,172918-20,"Single Family Homes",6/5/2020,,67531,,"25238 DICKENS DRIVE",MAGNOLIA,TX,77355,"WILI,IAMS TRACE",,CONTRACTOR,,,,,,,,,,,"LGI HOMES",,,,,"LGI HOMES","1450 LAKE ROBBINS SUITE 430",CONROE,TX,77380,"(210) 563-4648",,"(281) 210-2601",,
TX,MONTGOMERY,172919-20,"Single Family Homes",6/5/2020,,104754,,"25242 DICKENS DRIVE",MAGNOLIA,TX,77554,"WILLIAMS TRACE",,CONTRACTOR,,,,,,,,,,,"LGI HOMES",,,,,"LGI HOMES","1450 LAKE ROBBINS SUITE 430",CONROE,TX,77380,"(210) 563-4648",,"(281) 210-2601",,
TX,MONTGOMERY,172812-20,"Single Family Homes",6/3/2020,,64000,,"2233 ORCHARD ORIOLE DRIVE",HOUSTON,TX,77385,"MONTGOMERY CREEK RANCH",,CONTRACTOR,,,,,,,,,,,"LONG LAKE HOMES",,,,,"LONG LAKE HOMES","15915 KATY FWY STE 405",HOUSTON,TX,77094-1710,"(281) 646-1727",http://www.longlakeltd.com/,,"DAVID BIGLER",
TX,MONTGOMERY,172926-20,"Single Family Homes",6/5/2020,,193950,,"4210 DAVIS OAKS DRIVE",HOUSTON,TX,77386,"WOODSONS RESERVE",,CONTRACTOR,,,,,,,,,,,"M/I HOMES",,,,,"M/I HOMES","10910 NORTH SAM HOUSTON PKWY W",HOUSTON,TX,77064,"(832) 912-1012",,,,
TX,MONTGOMERY,"172843 20","Single Family Homes",6/3/2020,,63000,,"789 BRADFORD STREET",HOUSTON,TX,77316,"CROCKETT TRACE ESTATES",,"ALFA MARTINEZ","107 GOLDEN COVE",KYLE,TX,78640,,Applicant,,,,,OWNER,,,,,OWNER,,,,,,,,,
TX,MONTGOMERY,172752-20,"Single Family Homes",6/1/2020,,186694,,"529 PINEWOOD DRIVE",CONROE,TX,77385,"LAKE CHATEAU WOODS",,CONTRACTOR,,,,,,,,,,,"VANGUARD BUILDERS",,,,,"VANGUARD BUILDERS","9803 HWY 242, SUITE 200, #168",CONROE,TX,77385,"(281) 220-9087",https://www.vanguardbuilders.com/,,,JWynn@vanguardbuilders.com
TX,BRAZOS,RES2020-000182,"Single Family Homes",5/27/2020,,271593,3353,"1908 COTTONWOOD TERRACE CT","COLLEGE STATION",TX,77845,,,CONTRACTOR,,,,,,,,,,,"REECE HOMES",,,,,"REECE HOMES","1818 TAYLOR",HOUSTON,TX,77545,"(713) 826-7262",http://www.reece-homes.com/,,,
TX,BRAZOS,RES2020-000183,"Single Family Homes",5/27/2020,,214650,2865," 1914 COTTONWOOD TERRACE CT","COLLEGE STATION",TX,77845,,,CONTRACTOR,,,,,,,,,,,"REECE HOMES",,,,,"REECE HOMES","1818 TAYLOR",HOUSTON,TX,77545,"(713) 826-7262",http://www.reece-homes.com/,,,
TX,BRAZOS,RES2020-000184,"Single Family Homes",5/27/2020,,245835,3035,"1918 COTTONWOOD TERRACE CT","COLLEGE STATION",TX,77845,,,CONTRACTOR,,,,,,,,,,,"REECE HOMES",,,,,"REECE HOMES","1818 TAYLOR",HOUSTON,TX,77545,"(713) 826-7262",http://www.reece-homes.com/,,,
TX,BRAZOS,RES2020-000189,"Single Family Homes",5/27/2020,,263574,3254,"1910 COTTONWOOD TERRACE CT","COLLEGE STATION",TX,77845,,,CONTRACTOR,,,,,,,,,,,"REECE HOMES",,,,,"REECE HOMES","1818 TAYLOR",HOUSTON,TX,77545,"(713) 826-7262",http://www.reece-homes.com/,,,
TX,BRAZOS,RES2020-000191,"Single Family Homes",5/29/2020,,290000,3272,"4104 CANEY CREEK CT","COLLEGE STATION",TX,77845,,,CONTRACTOR,,,,,,,,,,,"SPIRIT DESIGN BUILD",,,,,"SPIRIT DESIGN BUILD","PO BOX 305",WELLBORN,TX,77881-0305,"(979) 690-0456",http://www.spiritdesignbuild.com/,,,
TX,BRAZOS,RES2020-000192,"Single Family Homes",5/28/2020,,139080,2656,"6313 SOUTHERN CROSS DR","COLLEGE STATION",TX,77845,,,CONTRACTOR,,,,,,,,,,,"OMEGA BUILDERS GROUP",,,,,"OMEGA BUILDERS GROUP","7353 W ADAMS AVE",TEMPLE,TX,76502-5539,"(254) 773-9966",,,,
TX,BRAZOS,RES2020-000194,"Single Family Homes",5/28/2020,,214038,3243,"1911 COTTONWOOD TERRACE CT","COLLEGE STATION",TX,77845,,,CONTRACTOR,,,,,,,,,,,"RNL HOME BUILDERS",,,,,"RNL HOME BUILDERS","4253 ROCKY RHODES DRIVE","COLLEGE STATION",TX,77845,"(979) 402-2531",http://www.rnlhomebuilders.com,,,RNLHomebuilders@gmail.com
TX,BRAZOS,RES2020-000195,"Single Family Homes",5/28/2020,,207438,3143,"1916 COTTONWOOD TERRACE CT","COLLEGE STATION",TX,77845,,,CONTRACTOR,,,,,,,,,,,"RNL HOME BUILDERS",,,,,"RNL HOME BUILDERS","4253 ROCKY RHODES DRIVE","COLLEGE STATION",TX,77845,"(979) 402-2531",http://www.rnlhomebuilders.com,,,RNLHomebuilders@gmail.com
TX,HARRIS,20040196,"Single Family Homes",6/23/2020,,100000,,"9535 NYSSA",HOUSTON,TX,77078,,,"AGUILAR EDGAR","9535 NYSSA",HOUSTON,TX,77078,"(832) 518-0857",Owner,,,,,OWNER,,,,,OWNER,,,,,,,,,
TX,HARRIS,20016460,"Single Family Homes",6/30/2020,,327348,,"1010 E T C JESTER",HOUSTON,TX,77008,,,"ALLEN ROBERT BRUCE","1010 E T C JESTER",HOUSTON,TX,77008,,Owner,,,,,"HERZOG HOMES",,,,,"HERZOG HOMES","1617 W 23RD ST",HOUSTON,TX,77008-1510,"(832) 314-9000",,,"HERZOG DAVID",
TX,HARRIS,18028959,"Single Family Homes",6/30/2020,,305675,,"2718 NICHOLSON",HOUSTON,TX,77008,,,"ANDERSON GLENN","2718 NICHOLSON",HOUSTON,TX,77008,,Owner,,,,,"GEO GLENN ENTERPRISE",,,,,"GEO GLENN ENTERPRISE","13395 MURPHY ROAD",STAFFORD,TX,77477,"(281) 403-2051",,,,
TX,HARRIS,20049042,"Single Family Homes",6/30/2020,,201000,,"2015 JADEITE",HOUSTON,TX,770077,,,"ANNE'S PERMIT","2617C W HOLCOMBE BLVD",HOUSTON,TX,77025,"(281) 249-7754",Owner,,,,,OWNER,,,,,OWNER,,,,,,,,,
TX,HARRIS,20021970,"Single Family Homes",6/23/2020,,330000,,"8553 MONTRIDGE",HOUSTON,TX,77055,,,"ANNE'S PERMIT","2617C W HOLCOMBE BLVD",HOUSTON,TX,77025,,Owner,,,,,OWNER,,,,,OWNER,,,,,,,,,
TX,HARRIS,20048665,"Single Family Homes",6/30/2020,,355000,,"9858 BRIARWILD",HOUSTON,TX,77080,,,"ANNE'S PERMIT","2617C W HOLCOMBE BLVD",HOUSTON,TX,77025,,Applicant,,,,,OWNER,,,,,OWNER,,,,,,,,,
TX,HARRIS,20043376,"Single Family Homes",6/29/2020,,115000,,"3507 ASKEW",HOUSTON,TX,77087,,,"BENAVIDES SANDRA","3507 ASKEW",HOUSTON,TX,77087,,Owner,,,,,"WILLIAMS HEATHER",,,,,"WILLIAMS HEATHER","14215 MARY",HOUSTON,TX,77006,"(832) 929-7736",,,,
TX,HARRIS,19103871,"Single Family Homes",6/30/2020,,95000,,"7925 BIRMINGHAM",HOUSTON,TX,77028,,,"BROWN ROKITHA","7925 BIRMINGHAM",HOUSTON,TX,77028,,Owner,,,,,"MASTER REMODELERS",,,,,"MASTER REMODELERS","5114 SANDY MEADOW LN","LEAGUE CITY",TX,77573-6252,"(713) 705-6436",http://www.masterremodelerstx.com/,,,
TX,HARRIS,19103872,"Single Family Homes",6/30/2020,,95000,,"3706 COURTNEY",HOUSTON,TX,77026,,,"CHATMON CURTIS","3706 COURTNEY",HOUSTON,TX,77026,,Owner,,,,,"MASTER REMODELERS",,,,,"MASTER REMODELERS","5114 SANDY MEADOW LN","LEAGUE CITY",TX,77573-6252,"(713) 705-6436",http://www.masterremodelerstx.com/,,,
TX,HARRIS,20032866,"Single Family Homes",6/25/2020,,150000,,"3433 SEABROOK",HOUSTON,TX,77021,,,CONTRACTOR,,,,,,,,,,,"AMBASSADOR BUILDING GROUP",,,,,"AMBASSADOR BUILDING GROUP","4771 SWEETWATER BLVD #110","SUGAR LAND",TX,77479,"(832) 605-6400",,,,
TX,HARRIS,20037329,"Single Family Homes",6/24/2020,,338500,,"1738 EBONY",HOUSTON,TX,77018,,,CONTRACTOR,,,,,,,,,,,"ANJA'S PERMIT ASSISTANCE",,,,,"ANJA'S PERMIT ASSISTANCE","PO BOX 1471",HOUSTON,TX,77251-1471,"(281) 222-5227",,,,
TX,HARRIS,19044709,"Single Family Homes",6/29/2020,,103000,,"5422 AMY ST",HOUSTON,TX,77028,,,"BAILEY TRUSTEEN","5422 AMY ST",HOUSTON,TX,77028,"(281) 357-9500",Applicant,,,,,OWNER,,,,,OWNER,,,,,,,,,
TX,HARRIS,19006509,"Single Family Homes",6/24/2020,,212000,,"5822 E POST OAK",HOUSTON,TX,77055,,,CONTRACTOR,,,,,,,,,,,"COLINA HOMES",,,,,"COLINA HOMES","1314 N DURHAM DR",HOUSTON,TX,77008-3734,"(281) 528-9090",http://colinahomes.com/,,,postmaster@colinahomes.com
TX,HARRIS,19006495,"Single Family Homes",6/24/2020,,212000,,"5824 E POST OAK",HOUSTON,TX,77055,,,CONTRACTOR,,,,,,,,,,,"COLINA HOMES",,,,,"COLINA HOMES","1314 N DURHAM DR",HOUSTON,TX,77008-3734,"(281) 528-9090",http://colinahomes.com/,,,postmaster@colinahomes.com
TX,HARRIS,20055713,"Single Family Homes",6/30/2020,,196565,,"14214 COUTURIE FOREST",HOUSTON,TX,77045,,,CONTRACTOR,,,,,,,,,,,"BRIGHTON HOMES & PARKWOOD",,,,,"BRIGHTON HOMES & PARKWOOD","13111 NORTHWEST FWY",HOUSTON,TX,77040-6318,"(713) 460-6279",,,,
TX,HARRIS,20049630,"Single Family Homes",6/26/2020,,191603,,"14302 COUTURIE FOREST ",HOUSTON,TX,77045,,,CONTRACTOR,,,,,,,,,,,"BRIGHTON HOMES & PARKWOOD",,,,,"BRIGHTON HOMES & PARKWOOD","13111 NORTHWEST FWY",HOUSTON,TX,77040-6318,"(713) 460-6279",,,,
TX,HARRIS,20049627,"Single Family Homes",6/30/2020,,208845,,"14218 COUTURIE FOREST ",HOUSTON,TX,77045,,,CONTRACTOR,,,,,,,,,,,"BRIGHTON HOMES & PARKWOOD",,,,,"BRIGHTON HOMES & PARKWOOD","13111 NORTHWEST FWY",HOUSTON,TX,77040-6318,"(713) 460-6279",,,,
TX,HARRIS,19112055,"Single Family Homes",6/26/2020,,129504,,"13902 LEABRANDON",HOUSTON,TX,77045,,,CONTRACTOR,,,,,,,,,,,"LEA HOMES",,,,,"LEA HOMES","24301 BRAZOS TOWN XING",ROSENBERG,TX,77471-6286,"(832) 620-6635",,,"JOE ALDACO",
TX,HARRIS,20045586,"Single Family Homes",6/26/2020,,184189,,"4409 ABACO ",HOUSTON,TX,77045,,,CONTRACTOR,,,,,,,,,,,"CONTEMPO BUILDER",,,,,"CONTEMPO BUILDER","1808 SNAKE RIVER RD STE D",KATY,TX,77449-7746,"(832) 275-2469",http://www.contempobuilder.com,"(281) 596-4376","JULIO FERNANDEZ",julio@contempobuilder.com
TX,HARRIS,20050180,"Single Family Homes",6/26/2020,,462700,,"1641 MARSHALL",HOUSTON,TX,77006,,,CONTRACTOR,,,,,,,,,,,"CROIX CUSTOM HOMES ",,,,,"CROIX CUSTOM HOMES ","411 N SAM HOUSTON PKWY E STE 540",HOUSTON,TX,77060-3545,"(713) 802-1602",http://www.croixhomes.com/,"(713) 802-1629","MIKE CROIX",
TX,HARRIS,17124255,"Single Family Homes",6/24/2020,,190000,,"4410 ALEDO",HOUSTON,TX,77051,,,CONTRACTOR,,,,,,,,,,,"VIZION URBANA",,,,,"VIZION URBANA","4704 ALLEN ST",HOUSTON,TX,77007-3410,"(832) 859-2909",http://vizionurbana.com/HOME.html,"(866) 225-3092","REYES DIEGO",diego@vizionurbana.com
TX,HARRIS,19143704,"Single Family Homes",6/25/2020,,400000,,"610 TABOR",HOUSTON,TX,77009,,,CONTRACTOR,,,,,,,,,,,"DUMANA CONSTRUCTION",,,,,"DUMANA CONSTRUCTION","8010 MEADOW POND DR","MISSOURI CITY",TX,77459-5713,"(832) 661-1177",,,,
TX,HARRIS,19137451,"Single Family Homes",6/23/2020,,150000,,"3706 DREYFUS",HOUSTON,TX,77021,,,CONTRACTOR,,,,,,,,,,,"LAZER DEVELOPMENT",,,,,"LAZER DEVELOPMENT","10902 SHAWNBROOK DR",HOUSTON,TX,77071-1516,"(832) 731-2154",,,"LAWRENCE E GARVIN",
TX,HARRIS,20022886,"Single Family Homes",6/27/2020,,156781,,"6211 GAINESVILLE",HOUSTON,TX,77020,,,CONTRACTOR,,,,,,,,,,,"LAZER DEVELOPMENT",,,,,"LAZER DEVELOPMENT","10902 SHAWNBROOK DR",HOUSTON,TX,77071-1516,"(832) 731-2154",,,"LAWRENCE E GARVIN",
TX,HARRIS,18025235,"Single Family Homes",6/25/2020,,206240,,"4011 WARD",HOUSTON,TX,77021,,,CONTRACTOR,,,,,,,,,,,"GLOBAL REAL ESTATE ASSISTANCE",,,,,"GLOBAL REAL ESTATE ASSISTANCE","8524 HWY 6 N",HOUSTON,TX,77095,"(281) 746-3422",,,,
TX,HARRIS,18025236,"Single Family Homes",6/25/2020,,206240,,"4013 WARD",HOUSTON,TX,77021,,,CONTRACTOR,,,,,,,,,,,"GLOBAL REAL ESTATE ASSISTANCE",,,,,"GLOBAL REAL ESTATE ASSISTANCE","8524 HWY 6 N",HOUSTON,TX,77095,"(281) 746-3422",,,,
TX,HARRIS,18025230,"Single Family Homes",6/25/2020,,198925,,"6721 SAINT AUGUSTINE",HOUSTON,TX,77021,,,CONTRACTOR,,,,,,,,,,,"GLOBAL REAL ESTATE ASSISTANCE",,,,,"GLOBAL REAL ESTATE ASSISTANCE","8524 HWY 6 N",HOUSTON,TX,77095,"(281) 746-3422",,,,
TX,HARRIS,18025229,"Single Family Homes",6/25/2020,,198925,,"6723 SAINT AUGUSTINE",HOUSTON,TX,77021,,,CONTRACTOR,,,,,,,,,,,"GLOBAL REAL ESTATE ASSISTANCE",,,,,"GLOBAL REAL ESTATE ASSISTANCE","8524 HWY 6 N",HOUSTON,TX,77095,"(281) 746-3422",,,,
TX,HARRIS,18025228,"Single Family Homes",6/25/2020,,198925,,"6725 SAINT AUGUSTINE",HOUSTON,TX,77021,,,CONTRACTOR,,,,,,,,,,,"GLOBAL REAL ESTATE ASSISTANCE",,,,,"GLOBAL REAL ESTATE ASSISTANCE","8524 HWY 6 N",HOUSTON,TX,77095,"(281) 746-3422",,,,
TX,HARRIS,20053386,"Single Family Homes",6/30/2020,,250000,,"1203 E 23RD",HOUSTON,TX,77009,,,"HAMILTON RYAN ANTHONY","17010 THOMAS RIDGE LN",CYPRESS,TX,77433,"(281) 793-1429",Applicant,,,,,OWNER,,,,,OWNER,,,,,,,,,
TX,HARRIS,20017387,"Single Family Homes",6/26/2020,,150000,,"140 MILBY ST",HOUSTON,TX,77003,,,"LILIA HOFFMAN","27 GRAY STONE",HOUSTON,TX,92677,"(281) 704-2936",Applicant,,,,,OWNER,,,,,OWNER,,,,,,,,,
TX,HARRIS,20025544,"Single Family Homes",6/24/2020,,294675,,"5926 WINTHROP GLEN",HOUSTON,TX,77365,,,CONTRACTOR,,,,,,,,,,,"GARCO CONSTRUCTION",,,,,"GARCO CONSTRUCTION","5818 SPLITTING WILLOW",HOUSTON,TX,77365,"(281) 399-8440",,,"HUGHES JOSH",
TX,HARRIS,20045503,"Single Family Homes",6/25/2020,,229873,,"3407 ASHER LANDING",HOUSTON,TX,77080,,,CONTRACTOR,,,,,,,,,,,"INTOWN HOMES",,,,,"INTOWN HOMES","1520 OLIVER ST",HOUSTON,TX,77007,"(713) 961-3877",http://www.intown-homes.com/,,,
TX,HARRIS,20015052,"Single Family Homes",6/30/2020,,150000,,"5310 SUNBEAM",HOUSTON,TX,77033,,,CONTRACTOR,,,,,,,,,,,"TEAM HBC",,,,,"TEAM HBC","12955 SOUTH FWY",HOUSTON,TX,77047-1900,"(713) 637-4356",,,,
TX,HARRIS,20043316,"Single Family Homes",6/26/2020,,800000,,"12639 PEBBLEBROOK",HOUSTON,TX,77024,,,CONTRACTOR,,,,,,,,,,,"LANDMARK HOMEBUILDERS",,,,,"LANDMARK HOMEBUILDERS","612 W BOUGH LN",HOUSTON,TX,77024-4017,"(713) 446-3444",http://www.landmarkhomebuilders.com/,,"CHARLES JORGENSEN",
TX,HARRIS,20004280,"Single Family Homes",6/29/2020,,123000,,"5658 WESTOVER",HOUSTON,TX,77033,,,CONTRACTOR,,,,,,,,,,,"JW TURNER CONSTRUCTION",,,,,"JW TURNER CONSTRUCTION","14215 MARY JANE LN",TOMBALL,TX,77377-6356,"(281) 290-9011",,,,
TX,HARRIS,20042263,"Single Family Homes",6/26/2020,,550000,,"1439 CHIPPENDALE",HOUSTON,TX,77018,,,CONTRACTOR,,,,,,,,,,,"RANIER CUSTOM HOMES",,,,,"RANIER CUSTOM HOMES","11806 PEBBLETON DR",HOUSTON,TX,77070-2356,"(281) 460-2607",,,"KEVIN KOURY",
TX,HARRIS,20049917,"Single Family Homes",6/23/2020,,196000,,"11003 CRESCENT LIGHT ",HOUSTON,TX,77043,,,CONTRACTOR,,,,,,,,,,,"LEGEND HOMES",,,,,"LEGEND HOMES","10410 WINDAMERE LAKES BLVD",HOUSTON,TX,77065-4996,"(281) 671-9060",http://legendhomecorp.com/,"(281) 671-9055",,
TX,HARRIS,20047175,"Single Family Homes",6/24/2020,,213000,,"11014 CRESCENT LIGHT",HOUSTON,TX,77043,,,CONTRACTOR,,,,,,,,,,,"LEGEND HOMES",,,,,"LEGEND HOMES","10410 WINDAMERE LAKES BLVD",HOUSTON,TX,77065-4996,"(281) 671-9060",http://legendhomecorp.com/,"(281) 671-9055",,
TX,HARRIS,20047176,"Single Family Homes",6/24/2020,,174000,,"11015 CRESCENT LIGHT",HOUSTON,TX,77043,,,CONTRACTOR,,,,,,,,,,,"LEGEND HOMES",,,,,"LEGEND HOMES","10410 WINDAMERE LAKES BLVD",HOUSTON,TX,77065-4996,"(281) 671-9060",http://legendhomecorp.com/,"(281) 671-9055",,
TX,HARRIS,20048540,"Single Family Homes",6/30/2020,,209000,,"1525 CANTER BAYOU ",HOUSTON,TX,77043,,,CONTRACTOR,,,,,,,,,,,"LEGEND HOMES",,,,,"LEGEND HOMES","10410 WINDAMERE LAKES BLVD",HOUSTON,TX,77065-4996,"(281) 671-9060",http://legendhomecorp.com/,"(281) 671-9055",,
TX,HARRIS,20050438,"Single Family Homes",6/24/2020,,181342,,"6203 EL COBRE",HOUSTON,TX,77048,,,CONTRACTOR,,,,,,,,,,,"LGI HOMES",,,,,"LGI HOMES","1450 LAKE ROBBINS SUITE 430",CONROE,TX,77380,"(210) 563-4648",,"(281) 210-2601",,
TX,HARRIS,20036312,"Single Family Homes",6/23/2020,,269000,,"1604 VERMONT",HOUSTON,TX,77006,,,CONTRACTOR,,,,,,,,,,,"MAZZARINO CONSTRUCTION & DEVELOPMENT",,,,,"MAZZARINO CONSTRUCTION & DEVELOPMENT","7155 OLD KATY RD STE N260",HOUSTON,TX,77024-2257,"(713) 861-1809",,,,
TX,HARRIS,20036319,"Single Family Homes",6/23/2020,,269000,,"1606 VERMONT",HOUSTON,TX,77006,,,CONTRACTOR,,,,,,,,,,,"LITTLE VERONICA",,,,,"LITTLE VERONICA","10023 WESTVIEW",HOUSTON,TX,77055,"(713) 861-1601",,,,
TX,HARRIS,20046915,"Single Family Homes",6/23/2020,,253000,,"1608 VERMONT",HOUSTON,TX,77006,,,CONTRACTOR,,,,,,,,,,,"MAZZARINO CONSTRUCTION & DEVELOPMENT",,,,,"MAZZARINO CONSTRUCTION & DEVELOPMENT","7155 OLD KATY RD STE N260",HOUSTON,TX,77024-2257,"(713) 861-1809",,,,
TX,HARRIS,20046916,"Single Family Homes",6/23/2020,,253000,,"1610 VERMONT",HOUSTON,TX,77006,,,CONTRACTOR,,,,,,,,,,,"MAZZARINO CONSTRUCTION & DEVELOPMENT",,,,,"MAZZARINO CONSTRUCTION & DEVELOPMENT","7155 OLD KATY RD STE N260",HOUSTON,TX,77024-2257,"(713) 861-1809",,,,
TX,HARRIS,20036389,"Single Family Homes",6/30/2020,,252330,,"1011 CROCKER",HOUSTON,TX,77019,,,CONTRACTOR,,,,,,,,,,,"MAZZARINO CONSTRUCTION & DEVELOPMENT",,,,,"MAZZARINO CONSTRUCTION & DEVELOPMENT","7155 OLD KATY RD STE N260",HOUSTON,TX,77024-2257,"(713) 861-1809",,,,
TX,HARRIS,20036390,"Single Family Homes",6/30/2020,,252330,,"1011 CROCKER ST",HOUSTON,TX,77019,,,CONTRACTOR,,,,,,,,,,,"MAZZARINO CONSTRUCTION & DEVELOPMENT",,,,,"MAZZARINO CONSTRUCTION & DEVELOPMENT","7155 OLD KATY RD STE N260",HOUSTON,TX,77024-2257,"(713) 861-1809",,,,
TX,HARRIS,20019956,"Single Family Homes",6/29/2020,,148992,,"7305 HOFFMAN",HOUSTON,TX,77028,,,CONTRACTOR,,,,,,,,,,,"MAYBERRY HOMES",,,,,"MAYBERRY HOMES","4412 ALMEDA RD",HOUSTON,TX,77004-4902,"(713) 523-8585",http://www.mayberryhomes.net,,,
TX,HARRIS,20019985,"Single Family Homes",6/25/2020,,148992,,"7319 HOFFMAN",HOUSTON,TX,77028,,,CONTRACTOR,,,,,,,,,,,"MAYBERRY HOMES",,,,,"MAYBERRY HOMES","4412 ALMEDA RD",HOUSTON,TX,77004-4902,"(713) 523-8585",http://www.mayberryhomes.net,,,
TX,HARRIS,20036006,"Single Family Homes",6/25/2020,,148992,,"7421 HOFFMAN",HOUSTON,TX,77028,,,CONTRACTOR,,,,,,,,,,,"MAYBERRY HOMES",,,,,"MAYBERRY HOMES","4412 ALMEDA RD",HOUSTON,TX,77004-4902,"(713) 523-8585",http://www.mayberryhomes.net,,,
TX,HARRIS,20049969,"Single Family Homes",6/26/2020,,436671,,"3762 GRENNOCH",HOUSTON,TX,77025,,,CONTRACTOR,,,,,,,,,,,"MCDANIEL HOMES",,,,,"MCDANIEL HOMES","1805 BRANCH HILL DR",PEARLAND,TX,77581-6198,"(281) 914-8286",https://mcdanielhomes.net/,,"Ryan McDaniel",
TX,HARRIS,20025110,"Single Family Homes",6/30/2020,,249475,,"3105 MEADOW MAKER ",HOUSTON,TX,77080,,,CONTRACTOR,,,,,,,,,,,"MERITAGE HOMES",,,,,"MERITAGE HOMES","2901 W SAM HOUSTON PKWY N",HOUSTON,TX,77043-1630,"(713) 357-1184",,,,
TX,HARRIS,20032448,"Single Family Homes",6/25/2020,,246840,,"3109 CRAFTSMAN ",HOUSTON,TX,77080,,,CONTRACTOR,,,,,,,,,,,"MERITAGE HOMES",,,,,"MERITAGE HOMES","2901 W SAM HOUSTON PKWY N",HOUSTON,TX,77043-1630,"(713) 357-1184",,,,
TX,HARRIS,20047767,"Single Family Homes",6/25/2020,,187170,,"3112 FLOWER MARKET ",HOUSTON,TX,77080,,,CONTRACTOR,,,,,,,,,,,"MERITAGE HOMES",,,,,"MERITAGE HOMES","2901 W SAM HOUSTON PKWY N",HOUSTON,TX,77043-1630,"(713) 357-1184",,,,
TX,HARRIS,20049914,"Single Family Homes",6/25/2020,,196095,,"3117 MEADOW MAKER ",HOUSTON,TX,77080,,,CONTRACTOR,,,,,,,,,,,"MERITAGE HOMES",,,,,"MERITAGE HOMES","2901 W SAM HOUSTON PKWY N",HOUSTON,TX,77043-1630,"(713) 357-1184",,,,
TX,HARRIS,20025112,"Single Family Homes",6/25/2020,,246245,,"3208 CRAFTSMAN",HOUSTON,TX,77080,,,CONTRACTOR,,,,,,,,,,,"MERITAGE HOMES",,,,,"MERITAGE HOMES","2901 W SAM HOUSTON PKWY N",HOUSTON,TX,77043-1630,"(713) 357-1184",,,,
TX,HARRIS,20016984,"Single Family Homes",6/30/2020,,345000,,"921 BLACKSHIRE ",HOUSTON,TX,77055,,,CONTRACTOR,,,,,,,,,,,"MHI MCGUYER HOMEBUILDERS",,,,,"MHI MCGUYER HOMEBUILDERS","7676 WOODWAY DR",HOUSTON,TX,77063-1526,"(713) 260-4107",,,,
TX,HARRIS,18069232,"Single Family Homes",6/25/2020,,120000,,"572 JANISCH",HOUSTON,TX,77018,,,CONTRACTOR,,,,,,,,,,,"ORACLE CITY HOMES",,,,,"ORACLE CITY HOMES","6502 ALDER DR",HOUSTON,TX,77081-4402,"(832) 649-5600",,,,
TX,HARRIS,19074905,"Single Family Homes",6/26/2020,,180000,,"2513 HOLLISTER",HOUSTON,TX,77080,,,CONTRACTOR,,,,,,,,,,,"AEM CONSTRUCTION",,,,,"AEM CONSTRUCTION","2500 T C JESTER",HOUSTON,TX,77008,"(346) 714-0607",,,"PEREZ ERIK",
TX,HARRIS,19074901,"Single Family Homes",6/26/2020,,180000,,"2521 HOLLISTER",HOUSTON,TX,77080,,,CONTRACTOR,,,,,,,,,,,"AEM CONSTRUCTION",,,,,"AEM CONSTRUCTION","2500 T C JESTER",HOUSTON,TX,77008,"(346) 714-0607",,,"PEREZ ERIK",
TX,HARRIS,19074898,"Single Family Homes",6/26/2020,,180000,,"2527 HOLLISTER",HOUSTON,TX,77080,,,CONTRACTOR,,,,,,,,,,,"AEM CONSTRUCTION",,,,,"AEM CONSTRUCTION","2500 T C JESTER",HOUSTON,TX,77008,"(346) 714-0607",,,"PEREZ ERIK",
TX,HARRIS,19074897,"Single Family Homes",6/26/2020,,180000,,"2529 HOLLISTER",HOUSTON,TX,77080,,,CONTRACTOR,,,,,,,,,,,"AEM CONSTRUCTION",,,,,"AEM CONSTRUCTION","2500 T C JESTER",HOUSTON,TX,77008,"(346) 714-0607",,,"PEREZ ERIK",
TX,HARRIS,19074889,"Single Family Homes",6/26/2020,,180000,,"2545 HOLLISTER",HOUSTON,TX,77080,,,CONTRACTOR,,,,,,,,,,,"AEM CONSTRUCTION",,,,,"AEM CONSTRUCTION","2500 T C JESTER",HOUSTON,TX,77008,"(346) 714-0607",,,"PEREZ ERIK",
TX,HARRIS,18069279,"Single Family Homes",6/25/2020,,120000,,"576 JANISCH",HOUSTON,TX,77018,,,CONTRACTOR,,,,,,,,,,,"SERVICES ON THE BALL",,,,,"SERVICES ON THE BALL","11757 KATY FWY STE 700A",HOUSTON,TX,77079-1733,"(832) 671-0414",https://www.sobllc.com,,,hgomia@sobllc.com
TX,HARRIS,18069285,"Single Family Homes",6/25/2020,,120000,,"580 JANISCH",HOUSTON,TX,77018,,,CONTRACTOR,,,,,,,,,,,"SERVICES ON THE BALL",,,,,"SERVICES ON THE BALL","11757 KATY FWY STE 700A",HOUSTON,TX,77079-1733,"(832) 671-0414",https://www.sobllc.com,,,hgomia@sobllc.com
TX,MONTGOMERY,172901-20,"Single Family Homes",6/5/2020,,238425,,"18743 MONTERO LANE",HOUSTON,TX,77357,TAVOLA,,CONTRACTOR,,,,,,,,,,,"PERRY HOMES",,,,,"PERRY HOMES","9000 GULF FWY",HOUSTON,TX,77017-7018,"(713) 417-1396",,,,
TX,MONTGOMERY,172902-20,"Single Family Homes",6/5/2020,,306675,,"4517 SILVER PINE COURT",HOUSTON,TX,77386,"WOODSONS RESERVE",,CONTRACTOR,,,,,,,,,,,"PERRY HOMES",,,,,"PERRY HOMES","9000 GULF FWY",HOUSTON,TX,77017-7018,"(713) 417-1396",,,,
TX,MONTGOMERY,172903-20,"Single Family Homes",6/5/2020,,310425,,"4513 SILVER PINE COURT",HOUSTON,TX,77386,"WOODSONS RESERVE",,CONTRACTOR,,,,,,,,,,,"PERRY HOMES",,,,,"PERRY HOMES","9000 GULF FWY",HOUSTON,TX,77017-7018,"(713) 417-1396",,,,
TX,MONTGOMERY,172904-20,"Single Family Homes",6/5/2020,,377175,,"28435 SUNRISE VIEW DRIVE",HOUSTON,TX,77386,"WOODSONS RESERVE",,CONTRACTOR,,,,,,,,,,,"PERRY HOMES",,,,,"PERRY HOMES","9000 GULF FWY",HOUSTON,TX,77017-7018,"(713) 417-1396",,,,
TX,MONTGOMERY,172905-20,"Single Family Homes",6/5/2020,,377175,,"28352 WOODSONS FOREST DRIVE",HOUSTON,TX,77386,"WOODSONS RESERVE",,CONTRACTOR,,,,,,,,,,,"PERRY HOMES",,,,,"PERRY HOMES","9000 GULF FWY",HOUSTON,TX,77017-7018,"(713) 417-1396",,,,
TX,MONTGOMERY,172803-20,"Single Family Homes",6/2/2020,,143320,,"7938 BLACK OAK DRIVE",MAGNOLIA,TX,77354,"BLACK OAK",,CONTRACTOR,,,,,,,,,,,"RAUSCH COLEMAN HOMES",,,,,"RAUSCH COLEMAN HOMES","9504 N IH35 STE 310","SAN ANTONIO",TX,78233,"(210) 231-0703",https://www.rauschcolemanhomes.com/,,,
TX,MONTGOMERY,172806-20,"Single Family Homes",6/2/2020,,138765,,"126 VALIANT RIDGE TRAIL",MAGNOLIA,TX,77354,"BLACK OAK",,CONTRACTOR,,,,,,,,,,,"RAUSCH COLEMAN HOMES",,,,,"RAUSCH COLEMAN HOMES","9504 N IH35 STE 310","SAN ANTONIO",TX,78233,"(210) 231-0703",https://www.rauschcolemanhomes.com/,,,
TX,MONTGOMERY,172807-20,"Single Family Homes",6/2/2020,,151525,,"7910 BLACK OAK DRIVE",MAGNOLIA,TX,77354,"BLACK OAK",,CONTRACTOR,,,,,,,,,,,"RAUSCH COLEMAN HOMES",,,,,"RAUSCH COLEMAN HOMES","9504 N IH35 STE 310","SAN ANTONIO",TX,78233,"(210) 231-0703",https://www.rauschcolemanhomes.com/,,,
TX,MONTGOMERY,172887-20,"Single Family Homes",6/5/2020,,151525,,"206 STALWART HILL TRAIL",MAGNOLIA,TX,77354,"BLACK OAK",,CONTRACTOR,,,,,,,,,,,"RAUSCH COLEMAN HOMES",,,,,"RAUSCH COLEMAN HOMES","9504 N IH35 STE 310","SAN ANTONIO",TX,78233,"(210) 231-0703",https://www.rauschcolemanhomes.com/,,,
TX,MONTGOMERY,172888-20,"Single Family Homes",6/5/2020,,138765,,"113 COURAGEOUS SIDE WAY",MAGNOLIA,TX,77354,"BLACK OAK",,CONTRACTOR,,,,,,,,,,,"RAUSCH COLEMAN HOMES",,,,,"RAUSCH COLEMAN HOMES","9504 N IH35 STE 310","SAN ANTONIO",TX,78233,"(210) 231-0703",https://www.rauschcolemanhomes.com/,,,
TX,MONTGOMERY,172875-20,"Single Family Homes",6/4/2020,,450000,,"14635 CHEVELLE LANE",WILLIS,TX,77378,"EMERALD LAKES",,CONTRACTOR,,,,,,,,,,,"ROSS DESIGN SERVICES",,,,,"ROSS DESIGN SERVICES","PO BOX 1167",PINEHURST,TX,77362,"(281) 384-3976",http://rossdesignservice.com/,,"ANDREW ROSS",
TX,MONTGOMERY,172877-20,"Single Family Homes",6/4/2020,,495000,,"11699 CANYON COURT",HOUSTON,TX,77386,"CANYON CROSSING",,CONTRACTOR,,,,,,,,,,,"ROSS DESIGN SERVICES",,,,,"ROSS DESIGN SERVICES","PO BOX 1167",PINEHURST,TX,77362,"(281) 384-3976",http://rossdesignservice.com/,,"ANDREW ROSS",
TX,MONTGOMERY,172811-20,"Single Family Homes",6/2/2020,,100000,,"5024 LAKESHORE DRIVE",WILLIS,TX,77318,"SEVEN COVES",,CONTRACTOR,,,,,,,,,,,"STARTER HOMES OF TEXAS",,,,,"STARTER HOMES OF TEXAS","9803 HIGHWAY 242 STE 200 # 211",CONROE,TX,77385-4369,"(281) 367-4200",,,,
TX,MONTGOMERY,172769-20,"Single Family Homes",6/2/2020,,180000,,"28290 EMERALD BEND DRIVE",HOUSTON,TX,77386,"WOODSONS RESERVE",,CONTRACTOR,,,,,,,,,,,"TOLL BROTHERS",,,,,"TOLL BROTHERS","10110 W SAM HOUSTON PKWY N STE 350",HOUSTON,TX,77064-7508,"(281) 664-7255",,,,
TX,MONTGOMERY,172865-20,"Single Family Homes",6/4/2020,,185000,,"28211 CLEAR BREEZE COURT",HOUSTON,TX,77386,"WOODSONS RESERVE",,CONTRACTOR,,,,,,,,,,,"TOLL BROTHERS",,,,,"TOLL BROTHERS","10110 W SAM HOUSTON PKWY N STE 350",HOUSTON,TX,77064-7508,"(281) 664-7255",,,,
TX,MONTGOMERY,172866-20,"Single Family Homes",6/4/2020,,175000,,"28307 EMERALD BEND DRIVE",HOUSTON,TX,77386,"WOODSONS RESERVE",,CONTRACTOR,,,,,,,,,,,"TOLL BROTHERS",,,,,"TOLL BROTHERS","10110 W SAM HOUSTON PKWY N STE 350",HOUSTON,TX,77064-7508,"(281) 664-7255",,,,
TX,MONTGOMERY,172862-20,"Single Family Homes",6/4/2020,,100000,,"19664 DESNA DRIVE",HOUSTON,TX,77365,RIVERWALK,,CONTRACTOR,,,,,,,,,,,"TWO SONS ENVIRONMENTAL SERVICES",,,,,"TWO SONS ENVIRONMENTAL SERVICES","23565 FM 1314 RD",PORTER,TX,77365-3724,"(281) 354-9284",http://www.two-sons.net,"(281) 354-2107",,twosonsenvironmental@yahoo.com
TX,MONTGOMERY,172840-20,"Single Family Homes",6/3/2020,,110500,,"1356 WINDING WILLOW DRIVE",HOUSTON,TX,77362,"ARBOR TRACE",,CONTRACTOR,,,,,,,,,,,"VILLAGE BUILDERS",,,,,"VILLAGE BUILDERS","550 GREENS PKWY STE 210",HOUSTON,TX,77067-4538,"(281) 873-4663",,,,
TX,MONTGOMERY,172841-20,"Single Family Homes",6/3/2020,,129545,,"1359 WINDING WILLOW DRIVE",HOUSTON,TX,77362,"ARBOR TRACE",,CONTRACTOR,,,,,,,,,,,"VILLAGE BUILDERS",,,,,"VILLAGE BUILDERS","550 GREENS PKWY STE 210",HOUSTON,TX,77067-4538,"(281) 873-4663",,,,
TX,MONTGOMERY,172871-20,"Single Family Homes",6/4/2020,,338990,,"17306 AMARYLLIS LANE",CONROE,TX,77302,ARTAVIA,,CONTRACTOR,,,,,,,,,,,"DAVID WEEKLEY HOMES",,,,,"DAVID WEEKLEY HOMES","14444 NORTHWEST",HOUSTON,TX,77040,"(713) 570-5021",http://www.davidweekleyhomes.com/,,,
TX,MONTGOMERY,172872-20,"Single Family Homes",6/4/2020,,335990,,"15305 GARNET GROVES DRIVE",CONROE,TX,77302,ARTAVIA,,CONTRACTOR,,,,,,,,,,,"DAVID WEEKLEY HOMES",,,,,"DAVID WEEKLEY HOMES","14444 NORTHWEST",HOUSTON,TX,77040,"(713) 570-5021",http://www.davidweekleyhomes.com/,,,
TX,MONTGOMERY,172857-20,"Single Family Homes",6/3/2020,,220000,,"25216 AUTUMN WATER SHEET",HOUSTON,TX,77386,"WOODRIDGE FOREST",,CONTRACTOR,,,,,,,,,,,"WESTIN HOMES",,,,,"WESTIN HOMES","1 SUGAR CREEK CENTER BLVD STE 600","SUGAR LAND",TX,77478-3787,"(281) 240-1551",http://www.westin-homes.com,,,
TX,MONTGOMERY,172883-20,"Single Family Homes",6/5/2020,,298632,,"5733 LAKESIDE VILLAS COURT",CONROE,TX,77304,"VILLAS AT WHITE OAK RANCH",,CONTRACTOR,,,,,,,,,,,"WOODFALLS DEVELOPMENT GROUP LLC",,,,,"WOODFALLS DEVELOPMENT GROUP LLC","12675 LONGMIRE WAY",CONROE,TX,77304-1077,"(936) 703-5445",https://www.woodfallstx.com,"(936) 703-5272",,
TX,MONTGOMERY,172884-20,"Single Family Homes",6/5/2020,,301050,,"5737 LAKESIDE VILLAS COURT",CONROE,TX,77356,"VILLAS AT WHITE OAK RANCH",,CONTRACTOR,,,,,,,,,,,"WOODFALLS DEVELOPMENT GROUP LLC",,,,,"WOODFALLS DEVELOPMENT GROUP LLC","12675 LONGMIRE WAY",CONROE,TX,77304-1077,"(936) 703-5445",https://www.woodfallstx.com,"(936) 703-5272",,
TX,HARRIS,2002240001,"Warehouse & Manufacturing",5/15/2020,,517500,5968,"23512 KUYKENDAHL RD",HOUSTON,TX,77356,EZWERKS,,"GREG MEREKA","23512 KUYKENDAHL RD",HOUSTON,TX,77356,,Owner,,,,,OWNER,,,,,OWNER,,,,,,,,,
TX,HARRIS,20040216,"Warehouse & Manufacturing",5/29/2020,,90000,275000,"6430 THOMPSON RD STE 100",BAYTOWN,TX,77521,,,CONTRACTOR,,,,,,,,,,,"STARTEX CONSTRUCTION",,,,,"STARTEX CONSTRUCTION","5201 MITCHELLDALE ST",HOUSTON,TX,77092-7205,"(713) 952-8455",,"(713) 688-5190","JEFF HERRIN",jeffherrin@sbcglobal.net
TX,HARRIS,20040215,"Warehouse & Manufacturing",5/20/2020,,90000,275000,"2700 EAST FWY #100",BAYTOWN,TX,77521,,,CONTRACTOR,,,,,,,,,,,"STARTEX CONSTRUCTION",,,,,"STARTEX CONSTRUCTION","5201 MITCHELLDALE ST",HOUSTON,TX,77092-7205,"(713) 952-8455",,"(713) 688-5190","JEFF HERRIN",jeffherrin@sbcglobal.net
TX,MONTGOMERY,172879-20,"Warehouse & Manufacturing",6/4/2020,Addition,60000,,"22150 LOOP 494",HOUSTON,TX,77357,,,"BRAD ARBAUGH","18024 CINDY LN",CONROE,TX,77302,"(281) 354-0162",Applicant,,,,,OWNER,,,,,OWNER,,,,,,,,,
TX,BRAZOS,CNEW2020-000010,"Warehouse & Manufacturing",5/29/2020,,5650365,99789,"2474 EARL RUDDER FWY S","COLLEGE STATION",TX,77845,,,CONTRACTOR,,,,,,,,,,,"SBS CONSTRUCTION",,,,,"SBS CONSTRUCTION","17 SCENIC LOOP",HOUSTON,TX,77079,"(210) 379-7708",http://www.sbsworld.net/,,,
TX,HARRIS,20041875,"Warehouse & Manufacturing",6/26/2020,,1900000,,"11150 BELTLINE",HOUSTON,TX,77067,,,CONTRACTOR,,,,,,,,,,,"CORVUS CONSTRUCTION",,,,,"CORVUS CONSTRUCTION","4309 WAY OUT WEST DR",HOUSTON,TX,77092-1457,"(713) 699-3100",,,,
TX,HARRIS,20017101,"Warehouse & Manufacturing",6/26/2020,Addition,465000,,"15425 INTERNATIONAL PLAZA",HOUSTON,TX,77032,,,"JB INSTALLERS INC","401 WAGERS",HOUSTON,TX,77301,"(936) 443-5964",Applicant,,,,,OWNER,,,,,OWNER,,,,,,,,,
TX,HARRIS,18137265,"Warehouse & Manufacturing",6/23/2020,,183680,,"5710 HOGUE ST BLDG",HOUSTON,TX,77087,,,CONTRACTOR,,,,,,,,,,,"CATALYST TECHNICAL GROUP",,,,,"CATALYST TECHNICAL GROUP","440 COBIA DR STE 1503",KATY,TX,77494,"(832) 913-1888",http://texasctgroup.com/,,"MIKE DJOKIC",info@texasctgroup.com
