state,county,permno,ptype,pdate,pdescription,jvalue,jsqfeet,jaddr,jcity,jstate,jzip,jsubdiv,jlotno,aname,aaddr,acity,astate,azip,aphone,atype,aurl,afax,aprimarycontact,aemail,bldcode,units,bldgs,ctype,legal,contractor,caddress,ccity,cstate,czip,cphone,curl,cfax,cprimarycontact,cemail
TX,HARRIS,20035731,"Churches & Other Religious",11/18/2020,Addition,552000,,"1208 MEADOW",HOUSTON,TX,77020,,,CONTRACTOR,,,,,,,,,,,"DERRICK VAUGHN",,,,,"DERRICK VAUGHN","16800 W IMPERIAL VALLEY ST BLDG",HOUSTON,TX,77007,"(323) 337-5397",,,,
TX,BRAZOS,CNEW2020-000014,"Churches & Other Religious",10/15/2020,,4156000,15458,"1590 SEBESTA RD","COLLEGE STATION",TX,77845,,,CONTRACTOR,,,,,,,,,,,"DRYMALLA CONSTRUCTION",,,,,"DRYMALLA CONSTRUCTION","15255 GULF FWY STE 126C",HOUSTON,TX,77034-5375,"(281) 442-2693",http://www.drymalla.com/,,"DOUG BARKER",info@drymalla.com
TX,BRAZOS,POOL2020-000082,"Commercial Swimming Pool & Spas",10/20/2020,,132900,,"2338 HARVEY MITCHELL PKWY S","COLLEGE STATION",TX,77845,,,CONTRACTOR,,,,,,,,,,,"PATIO POOLS OF HOUSTON",,,,,"PATIO POOLS OF HOUSTON","5904 FAIRDALE LN",HOUSTON,TX,77057-6307,"(713) 789-1710",http://www.patio-pools.com/,"(713) 789-0715",,info@patio-pools.com
TX,HARRIS,20089881,"Duplex, Triplex, & Fourplex",11/20/2020,,149000,,"4423 TRIGG ST A",HOUSTON,TX,77093,,,CONTRACTOR,,,,,,,,,,,"ASHLEY GRAYBILL",,,,,"ASHLEY GRAYBILL","14643 DALLAS PKWY STE",HOUSTON,TX,75254,"(469) 225-7633",,,,
TX,HARRIS,20090002,"Duplex, Triplex, & Fourplex",11/17/2020,,220160,,"5403 GROVETON ST A",HOUSTON,TX,77033,,,CONTRACTOR,,,,,,,,,,,"JAMES THIBODEAUX HOMES ",,,,,"JAMES THIBODEAUX HOMES ","9597 JONES RD",HOUSTON,TX,77065,"(832) 992-4528",,,,
TX,HARRIS,20092139,"Duplex, Triplex, & Fourplex",11/19/2020,,290000,,"7966 HENSON ST",HOUSTON,TX,77028,,,CONTRACTOR,,,,,,,,,,,"TTK PROPERTIES",,,,,"TTK PROPERTIES","9234 CYPRESS CREEK PKWY",HOUSTON,TX,77070-6208,"(281) 894-1800",,,,
TX,HARRIS,20078979,"Duplex, Triplex, & Fourplex",11/18/2020,,188496,,"6047 SHELBURNE ST 1",HOUSTON,TX,77396,,,"VALERIO LOZANO","6047 SHELBURNE ST 1",HOUSTON,TX,77396,,Owner,,,,,"MARIA CERVANTES",,,,,"MARIA CERVANTES","6123 SHIRLEY",HOUSTON,TX,77396,"(281) 701-9757",,,,
TX,BELL,"20 00005936","Duplex, Triplex, & Fourplex",10/13/2020,,,3376,"2105 MARTIN L KING JR BLVD",KILLEEN,TX,76543,,,CONTRACTOR,,,,,,,,,,,"SHANONDOAH HOMES",,,,,"SHANONDOAH HOMES","2536 FAUX PINE DR","HARKER HEIGHTS",TX,76548-2995,"(254) 681-1845",http://shanondoahhomes.com/,,,info@shannondoahhomes.com
TX,BELL,"20 00005935","Duplex, Triplex, & Fourplex",10/13/2020,,,3018,"2107 MARTIN L KING JR BLVD",KILLEEN,TX,76543,,,CONTRACTOR,,,,,,,,,,,"SHANONDOAH HOMES",,,,,"SHANONDOAH HOMES","2536 FAUX PINE DR","HARKER HEIGHTS",TX,76548-2995,"(254) 681-1845",http://shanondoahhomes.com/,,,info@shannondoahhomes.com
TX,BELL,"20 00006698","Duplex, Triplex, & Fourplex",10/23/2020,,,3158,"6010 HARRIET TUBMAN AVE",KILLEEN,TX,76543,,,CONTRACTOR,,,,,,,,,,,"FLINTROCK BUILDERS",,,,,"FLINTROCK BUILDERS","105 EAST, FARM TO MARKET 2410","HARKER HEIGHTS",TX,76548,"(254) 393-1412",,,,
TX,BELL,"20 00006925","Duplex, Triplex, & Fourplex",10/27/2020,,,1752,"207 W AVENUE A",KILLEEN,TX,76541,,,CONTRACTOR,,,,,,,,,,,"AMERITEX HOMES",,,,,"AMERITEX HOMES","4835 LYNDON B JOHNSON FWY",DALLAS,TX,75244-6005,"(214) 765-0596",,,,
TX,BELL,"20 00006696","Duplex, Triplex, & Fourplex",10/30/2020,,,3158,"6002 HARRIET TUBMAN AVE",KILLEEN,TX,76543,,,CONTRACTOR,,,,,,,,,,,"FLINTROCK BUILDERS",,,,,"FLINTROCK BUILDERS","105 EAST, FARM TO MARKET 2410","HARKER HEIGHTS",TX,76548,"(254) 393-1412",,,,
TX,BELL,"20 00006142","Duplex, Triplex, & Fourplex",10/1/2020,,,2098,"5802 HARRIET TUBMAN AVE",KILLEEN,TX,76543,,,CONTRACTOR,,,,,,,,,,,"DR HORTON",,,,,"DR HORTON","14100 SOUTHWEST",HOUSTON,TX,77478,"(281) 201-5559",,,,
TX,BELL,"20 00006141","Duplex, Triplex, & Fourplex",10/1/2020,,,2719,"5702 HARRIET TUBMAN AVE",KILLEEN,TX,76543,,,CONTRACTOR,,,,,,,,,,,"DR HORTON",,,,,"DR HORTON","14100 SOUTHWEST",HOUSTON,TX,77478,"(281) 201-5559",,,,
TX,BELL,"20 00006094","Duplex, Triplex, & Fourplex",10/1/2020,,,2237,"5305 PRIMAVERA LN",KILLEEN,TX,76549,,,CONTRACTOR,,,,,,,,,,,"JUBILEE HOMES",,,,,"JUBILEE HOMES","125 E BEELINE LN","HARKER HEIGHTS",TX,76548-1261,"(254) 699-0010",,,,
TX,BELL,"20 00004797","Duplex, Triplex, & Fourplex",10/1/2020,,,2598,"4102 BROOKSIDE DR",KILLEEN,TX,76542,,,CONTRACTOR,,,,,,,,,,,"WELMOR HOMES",,,,,"WELMOR HOMES","PO BOX 690643",KILLEEN,TX,76549,"(254) 702-9006",,,,
TX,BELL,"20 00004065","Duplex, Triplex, & Fourplex",10/1/2020,,,3105,"4315 HOPE LN",KILLEEN,TX,76542,,,CONTRACTOR,,,,,,,,,,,"WELMOR HOMES",,,,,"WELMOR HOMES","PO BOX 690643",KILLEEN,TX,76549,"(254) 702-9006",,,,
TX,BELL,"20 00006135","Duplex, Triplex, & Fourplex",10/2/2020,,,2098,"5803 HARRIET TUBMAN AVE",KILLEEN,TX,76543,,,CONTRACTOR,,,,,,,,,,,"DR HORTON",,,,,"DR HORTON","14100 SOUTHWEST",HOUSTON,TX,77478,"(281) 201-5559",,,,
TX,BELL,"20 00006338","Duplex, Triplex, & Fourplex",10/5/2020,,,2191,"1107 ROSA PARKS DR",KILLEEN,TX,76541,,,CONTRACTOR,,,,,,,,,,,"DR HORTON",,,,,"DR HORTON","14100 SOUTHWEST",HOUSTON,TX,77478,"(281) 201-5559",,,,
TX,BELL,"20 00006337","Duplex, Triplex, & Fourplex",10/6/2020,,,2430,"1103 ROSA PARKS DR",KILLEEN,TX,76541,,,CONTRACTOR,,,,,,,,,,,"DR HORTON",,,,,"DR HORTON","14100 SOUTHWEST",HOUSTON,TX,77478,"(281) 201-5559",,,,
TX,HARRIS,20070745,"Educational Institution",10/9/2020,,40000000,,"8060 SPENCER HWY",PASADENA,TX,77505,,,CONTRACTOR,,,,,,,,,,,"TELLEPSEN BUILDERS",,,,,"TELLEPSEN BUILDERS","777 BENMAR DR STE 400",HOUSTON,TX,77060-3607,"(281) 447-8100",,"(281) 447-8177","HOWARD TELLEPSEN",
TX,HARRIS,201114,"Educational Institution",10/16/2020,Renovation,12700000,,"9155 WILL CLAYTON PKWY",HUMBLE,TX,77338,,,CONTRACTOR,,,,,,,,,,,"MANHATTAN CONSTRUCTION",,,,,"MANHATTAN CONSTRUCTION","2120 MONTROSE BLVD",HOUSTON,TX,77006-1248,"(713) 529-0000",,"(713) 526-9176",,
TX,HARRIS,20079928,"Educational Institution",11/17/2020,,1060000,,"5804 PREMIER",HOUSTON,TX,77040,,,"DARRELL IRVIN","24715 W HARDY",HOUSTON,TX,77373,"(281) 517-6861",Applicant,,,,,OWNER,,,,,OWNER,,,,,,,,,
TX,BRAZOS,CNEW2015-00580,"Educational Institution",10/21/2020,,1000000,40000,"210 TECHNOLOGY WAY","COLLEGE STATION",TX,77845,,,CONTRACTOR,,,,,,,,,,,"CITY OF COLLEGE STATION",,,,,"CITY OF COLLEGE STATION","1101 TEXAS AVE","COLLEGE STATION",TX,77840,"(979) 764-3500",,,,
TX,GALVESTON,2020-00079,"Hospital & Other Medical",10/28/2020,,8000000,,"320 21ST ST",GALVESTON,TX,77450,,,"ROOTH CLARA","320 21ST ST",GALVESTON,TX,77450,,Owner,,,,,OWNER,,,,,OWNER,,,,,,,,,
TX,GALVESTON,2020-3242,"Hospital & Other Medical",10/2/2020,,35000,,"186 S FRIENDSWOOD DR",FRIENDSWOOD,TX,77546,,,CONTRACTOR,,,,,,,,,,,"ELITE CONSTRUCTION",,,,,"ELITE CONSTRUCTION","12223 MEADOWDALE",HOUSTON,TX,77477,"(281) 975-8887",,,,
TX,HARRIS,201148,"Hospital & Other Medical",10/30/2020,Renovation,6700000,,"18951 MEMORIAL NORTH",HUMBLE,TX,77338,,,CONTRACTOR,,,,,,,,,,,"FORNEY CONSTRUCTION",,,,,"FORNEY CONSTRUCTION","8945 LONG POINT RD STE 200",HOUSTON,TX,77055-3036,"(713) 224-1900",http://www.forneycc.com/,"(713) 224-1901",,
TX,HARRIS,20084255,"Hospital & Other Medical",11/18/2020,,65000,,"11800 ASTORIA BLVD FL",HOUSTON,TX,77089,,,CONTRACTOR,,,,,,,,,,,"ENDURANCE BUILDERS",,,,,"ENDURANCE BUILDERS","2190 NORTH LOOP W STE 300",HOUSTON,TX,77018-8006,"(832) 623-7351",http://www.endbs.com/,,"BOB FLOWERS",
TX,HARRIS,20080812,"Hospital & Other Medical",11/19/2020,Renovation,75000,,"15021 KATY FWY",HOUSTON,TX,77094,,,CONTRACTOR,,,,,,,,,,,"ODONNELL SNIDER CONSTRUCTION",,,,,"ODONNELL SNIDER CONSTRUCTION","1900 WEST LOOP S",HOUSTON,TX,77027-3214,"(346) 352-3098",http://odonnellsnider.com/,,,
TX,HARRIS,20097431,"Hospital & Other Medical",11/17/2020,Renovation,480000,,"23330 EASTEX FWY",HOUSTON,TX,77339,,,CONTRACTOR,,,,,,,,,,,"TI CONSTRUCTORS",,,,,"TI CONSTRUCTORS","1260 GUNTER ST",BEAUMONT,TX,77705-5816,"(409) 454-5581",,,,
TX,GALVESTON,2020-00160,"Multi Family Apartments & Condos",10/8/2020,,35373,,"2207 AVE E STURCT",GALVESTON,TX,77450,,,CONTRACTOR,,,,,,,,,,,"BUILDING SOLUTIONS",,,,,"BUILDING SOLUTIONS","1523 STRAND ST",GALVESTON,TX,77550-2415,"(409) 765-5628",http://buildinggalveston.com,"(409) 765-5488","CHRIS ARNESON",info@buildinggalveston.com
TX,GALVESTON,2020-00163,"Multi Family Apartments & Condos",10/20/2020,,45000,,"2108 25TH ST",GALVESTON,TX,77450,,,CONTRACTOR,,,,,,,,,,,"LETS REMODEL & CONSTRUCTION",,,,,"LETS REMODEL & CONSTRUCTION","9815 CARVER DR","LOWA COLONY",TX,77583,"(281) 900-9261",https://www.letsrandc.com/,,,
TX,GALVESTON,2020-00096,"Multi Family Apartments & Condos",10/30/2020,,300000,,"2201 AVE D ST",GALVESTON,TX,77450,,,"BROWN DALE","2201 AVE D ST",GALVESTON,TX,77450,,Owner,,,,,OWNER,,,,,OWNER,,,,,,,,,
TX,HARRIS,20090752,"Multi Family Apartments & Condos",10/27/2020,,48740,,"1105 BROADWAY",PASADENA,TX,77506,,,CONTRACTOR,,,,,,,,,,,"BRAND CONSTRUCTION SERVICES",,,,,"BRAND CONSTRUCTION SERVICES","PO BOX 590456",HOUSTON,TX,77259-0456,"(281) 455-1664",http://www.brand-llc.com/,,"Darrell Shannon",dshannon@brand-llc.com
TX,GALVESTON,2020-00943,"Multi Family Renovations & Additions",10/1/2020,,43191,,"11945 FM 3005 # 108",GALVESTON,TX,77450,,,CONTRACTOR,,,,,,,,,,,"STORM TIGHT WINDOWS OF TEXAS",,,,,"STORM TIGHT WINDOWS OF TEXAS","16920 N TEXAS AVE SUITE C-9",WEBSTER,TX,77598,"(844) 362-5137",,,,
TX,HARRIS,2005110145,"Offices, R&D, & Professional",10/16/2020,,364500,4860,"14914 MUESCHKE RD",HOUSTON,TX,77356,"CYPRESS LAND DEVELOPMENT RESERVE",,"BISHOP SQUARE LLC","14914 MUESCHKE RD",HOUSTON,TX,77356,,Owner,,,,,OWNER,,,,,OWNER,,,,,,,,,
TX,GALVESTON,2020-00125,"Offices, R&D, & Professional",10/7/2020,,33950,,"424 19TH ST",GALVESTON,TX,77450,,,CONTRACTOR,,,,,,,,,,,"O'BRIEN ROOFING & CONSTRUCTION",,,,,"O'BRIEN ROOFING & CONSTRUCTION","29257 LEGENDS BEAM DR",SPRING,TX,77386-3857,"(832) 444-5342",,,,
TX,HARRIS,20105946,"Offices, R&D, & Professional",11/18/2020,Renovation,140000,,"1990 POST OAK BLVD",HOUSTON,TX,77056,,,CONTRACTOR,,,,,,,,,,,"BASIC BUILDERS",,,,,"BASIC BUILDERS","10118 TALLEY LN",HOUSTON,TX,77041-6130,"(713) 460-3991",http://basicbuildersonline.com/,"(713) 460-3991",,info@basicbuilders.net
TX,HARRIS,20103229,"Offices, R&D, & Professional",11/20/2020,,156653,,"2925 BRIARPARK DR",HOUSTON,TX,77042,,,CONTRACTOR,,,,,,,,,,,"BYRD INTERIOR CONSTRUCTION",,,,,"BYRD INTERIOR CONSTRUCTION","2123 W GOVERNORS CIR # 100",HOUSTON,TX,77092-8746,"(713) 688-8850",http://www.byrdinterior.com/,,"JOHN BYRD",jbyrd@byrdinterior.com
TX,HARRIS,20097649,"Offices, R&D, & Professional",11/19/2020,Renovation,75000,,"757 N ELDRIDGE PKY",HOUSTON,TX,77079,,,CONTRACTOR,,,,,,,,,,,"BYRD INTERIOR CONSTRUCTION",,,,,"BYRD INTERIOR CONSTRUCTION","2123 W GOVERNORS CIR # 100",HOUSTON,TX,77092-8746,"(713) 688-8850",http://www.byrdinterior.com/,,"JOHN BYRD",jbyrd@byrdinterior.com
TX,HARRIS,20091383,"Offices, R&D, & Professional",11/19/2020,Renovation,149500,,"3200 SOUTHWEST FWY",HOUSTON,TX,77027,,,CONTRACTOR,,,,,,,,,,,"BYRD INTERIOR CONSTRUCTION",,,,,"BYRD INTERIOR CONSTRUCTION","2123 W GOVERNORS CIR # 100",HOUSTON,TX,77092-8746,"(713) 688-8850",http://www.byrdinterior.com/,,"JOHN BYRD",jbyrd@byrdinterior.com
TX,HARRIS,20050804,"Offices, R&D, & Professional",11/19/2020,,14086524,,"6900 HOLLISTER",HOUSTON,TX,77040,,,CONTRACTOR,,,,,,,,,,,"CLAY CONSTRUCTION & DEVELOP",,,,,"CLAY CONSTRUCTION & DEVELOP","5599 SAN FELIPE",HOUSTON,TX,77055,"(855) 263-3475",,,,
TX,HARRIS,20093678,"Offices, R&D, & Professional",11/20/2020,,910279,,"13026 GULF COMMERCE",HOUSTON,TX,77034,,,CONTRACTOR,,,,,,,,,,,"WYCOFF CONSTRUCTION & DEVELOPMENT",,,,,"WYCOFF CONSTRUCTION & DEVELOPMENT","351 COLUMBIA MEMORIAL PARKWAY SUITE A","LEAGUE CITY",TX,77573,"(281) 334-4472",http://www.wycoffconstruction.com/,"(281) 334-5392",,
TX,HARRIS,20091965,"Offices, R&D, & Professional",11/18/2020,,48000,,"16281 IMPERIAL VALLEY DR",HOUSTON,TX,77060,,,"CARL JONES","16281 IMPERIAL VALLEY DR",HOUSTON,TX,77006,"(281) 687-4521",Applicant,,,,,OWNER,,,,,OWNER,,,,,,,,,
TX,HARRIS,20099198,"Offices, R&D, & Professional",11/20/2020,Renovation,750000,,"3720 DACOMA",HOUSTON,TX,77092,,,"CISNEROS DESIGN STUDIO","7026 OLD KATY ROAD RD",HOUSTON,TX,77024,"(713) 520-7745",Architect,https://www.cisnerosdesignstudio.com/,,"MAJOR MATT",cisneros@cisnerosdesignstudio.com,OWNER,,,,,OWNER,,,,,,,,,
TX,HARRIS,20096961,"Offices, R&D, & Professional",11/20/2020,Renovation,700000,,"1000 LOUISIANA ST",HOUSTON,TX,77002,,,CONTRACTOR,,,,,,,,,,,"ODONNELL SNIDER CONSTRUCTION",,,,,"ODONNELL SNIDER CONSTRUCTION","1900 WEST LOOP S",HOUSTON,TX,77027-3214,"(346) 352-3098",http://odonnellsnider.com/,,,
TX,HARRIS,20105459,"Offices, R&D, & Professional",11/19/2020,,117667,,"7880 AIRPORT",HOUSTON,TX,77061,,,"STEPHEN SIKES","2900 WOODDRIDGE",HOUSTON,TX,77087,"(713) 410-2310",Applicant,,,,,OWNER,,,,,OWNER,,,,,,,,,
TX,HARRIS,20091675,"Offices, R&D, & Professional",11/20/2020,,325000,,"4201 MAIN ST",HOUSTON,TX,77002,,,CONTRACTOR,,,,,,,,,,,"GILBANE BUILDING COMPANY",,,,,"GILBANE BUILDING COMPANY","811 MAIN ST STE 2450",HOUSTON,TX,77002-6136,"(713) 209-1873",,,,
TX,HARRIS,20091676,"Offices, R&D, & Professional",11/20/2020,,750000,,"4201 MAIN ST L",HOUSTON,TX,77002,,,CONTRACTOR,,,,,,,,,,,"GILBANE BUILDING COMPANY",,,,,"GILBANE BUILDING COMPANY","811 MAIN ST STE 2450",HOUSTON,TX,77002-6136,"(713) 209-1873",,,,
TX,HARRIS,20100741,"Offices, R&D, & Professional",11/19/2020,Renovation,49500,,"1045 GEMINI ST",HOUSTON,TX,77058,,,CONTRACTOR,,,,,,,,,,,"THORNTON CRISTY",,,,,"THORNTON CRISTY","2004 PARK",HOUSTON,TX,77565,"(210) 425-3381",,,,
TX,MONTGOMERY,177285-20,"Offices, R&D, & Professional",10/14/2020,,900000,,"32303 FM 2978",HOUSTON,TX,77356,"WESTWOOD TWO",,CONTRACTOR,,,,,,,,,,,"IDENTITY ARCHITECTS",,,,,"IDENTITY ARCHITECTS","111 TRAVIS ST",HOUSTON,TX,77002-1740,"(713) 595-2191",,,,
TX,BRAZOS,CTFO2020-000020,"Offices, R&D, & Professional",10/9/2020,"Finish Out",250000,1411,"711 UNIVERSITY DR E # 300","COLLEGE STATION",TX,77840,,,CONTRACTOR,,,,,,,,,,,"MID AMERICA CONTRACTING",,,,,"MID AMERICA CONTRACTING","3900 E PKWY",GROVE,TX,77619,,,,,
TX,BRAZOS,CNEW2020-000017,"Offices, R&D, & Professional",10/14/2020,,26000000,67915,"3940 BIOMEDICAL WAY","COLLEGE STATION",TX,77845,,,CONTRACTOR,,,,,,,,,,,"DPR CONSTRUCTION",,,,,"DPR CONSTRUCTION","3131 MCKINNEY AVE STE 210",DALLAS,TX,75204-2475,"(214) 979-9900",,,,
TX,HARRIS,2007290076,"Other Commercial",10/16/2020,,4000000,85797,"7621 N SAM HOUSTON PKWY W",HOUSTON,TX,77356,"GRAND NATIONAL",,CONTRACTOR,,,,,,,,,,,HINES,,,,,HINES,"2800 POST OAK BLVD",HOUSTON,TX,77056-6100,"(713) 237-5645",https://www.hines.com,,,
TX,HARRIS,20020510,"Parking Structures & Carports",11/19/2020,,26650000,,"4111 FANNIN",HOUSTON,TX,77004,,,CONTRACTOR,,,,,,,,,,,"GILBANE BUILDING COMPANY",,,,,"GILBANE BUILDING COMPANY","811 MAIN ST STE 2450",HOUSTON,TX,77002-6136,"(713) 209-1873",,,,
TX,HARRIS,20091952,"Residential Garages & Carports",11/17/2020,,68633,,"1204 ENID",HOUSTON,TX,77009,,,"MARTHA AGUILAR","1204 ENID",HOUSTON,TX,77009,,Owner,,,,,OWNER,,,,,OWNER,,,,,,,,,
TX,HARRIS,20020037,"Residential Garages & Carports",11/19/2020,,100000,,"3312 OZARK ST",HOUSTON,TX,77021,,,"LLOYD ALPHONSO","3312 OZARK ST",HOUSTON,TX,77021,,Owner,,,,,"KEVIN BINGHAM",,,,,"KEVIN BINGHAM","3347 OZARK ST",HOUSTON,TX,77021,"(832) 573-1756",,,,
TX,BRAZOS,RADD2020-000029,"Residential Garages & Carports",10/30/2020,Addition,60000,600,"215 LEE AVE","COLLEGE STATION",TX,77845,OAKWOOD,,"NANCY & KELLY BERTSCH","215 LEE AVE","COLLEGE STATION",TX,77845,,Owner,,,,,"JEFFERSON CHRISTIAN HOMES",,,,,"JEFFERSON CHRISTIAN HOMES","3644 COPPERCREST DR #103",BRYAN,TX,77802,"(979) 694-1272",,,,
TX,HARRIS,2010270064,"Residential Renovations & Additions",10/16/2020,Renovation,43520,2176,"15031 EVES NECKLACE CT",HOUSTON,TX,77356,"BRIDGELAND PARKLAND VILLAGE",,CONTRACTOR,,,,,,,,,,,"DAVID WEEKLEY HOMES",,,,,"DAVID WEEKLEY HOMES","14444 NORTHWEST",HOUSTON,TX,77040,"(713) 570-5021",http://www.davidweekleyhomes.com/,,,
TX,HARRIS,2010280181,"Residential Renovations & Additions",10/16/2020,Renovation,45880,2294,"11503 RAVEN CLAW DR",HOUSTON,TX,77356,"GROVE LANDING",,CONTRACTOR,,,,,,,,,,,"MHI MCGUYER HOMEBUILDERS",,,,,"MHI MCGUYER HOMEBUILDERS","7676 WOODWAY DR",HOUSTON,TX,77063-1526,"(713) 260-4107",,,,
TX,GALVESTON,2020-01010,"Residential Renovations & Additions",10/14/2020,Renovation,30000,,"5109 DENVER DR",GALVESTON,TX,77450,,,"DAVID & KIMBERLY COLOMBO","5109 DENVER DR",GALVESTON,TX,77450,,Owner,,,,,OWNER,,,,,OWNER,,,,,,,,,
TX,GALVESTON,2020-00574,"Residential Renovations & Additions",10/15/2020,Renovation,31000,,"5405 AVE P 1/2",GALVESTON,TX,77450,,,"SAEZ LUIS & VERONICA PASTERNAK","5405 AVE P 1/2",GALVESTON,TX,77450,,Owner,,,,,OWNER,,,,,OWNER,,,,,,,,,
TX,GALVESTON,2020-00967,"Residential Renovations & Additions",10/15/2020,Renovation,40000,,"5214 AVE R",GALVESTON,TX,77450,,,"GATSON ODESSA","5214 AVE R",GALVESTON,TX,77450,,Owner,,,,,OWNER,,,,,OWNER,,,,,,,,,
TX,GALVESTON,2020-01007,"Residential Renovations & Additions",10/15/2020,Renovation,34674,,"3909 PIRATES BEACH CIRCLE",GALVESTON,TX,77450,,,CONTRACTOR,,,,,,,,,,,"WERNER CONSTRUCTION",,,,,"WERNER CONSTRUCTION","2105 LAKEWAY DR","LEAGUE CITY",TX,77573,"(855) 713-1088",https://werner.construction/,,,bb@wernercos.com
TX,GALVESTON,2020-00735,"Residential Renovations & Additions",10/20/2020,Renovation,48000,,"104 WHITING AVE",GALVESTON,TX,77450,,,"ROBERT & MONA BARRAGAN","104 WHITING AVE",GALVESTON,TX,77450,,Owner,,,,,"ALIGN PRO",,,,,"ALIGN PRO","15502 GALVESTON RD SUITE 312",WEBSTER,TX,77598,"(832) 284-4502",http://www.alignprollc.com/,,,
TX,GALVESTON,2020-00694,"Residential Renovations & Additions",10/21/2020,Renovation,30000,,"4122 LIBERTY DR",GALVESTON,TX,77450,,,"JOHN & HETHER DE PASQUALE","4122 LIBERTY DR",GALVESTON,TX,77450,,Owner,,,,,"MOYNAHAN BUILDERS",,,,,"MOYNAHAN BUILDERS","6533 SEA ISLE",GALVESTON,TX,77554-5145,"(281) 704-2743",,,,
TX,GALVESTON,2020-01041,"Residential Renovations & Additions",10/21/2020,Renovation,55000,,"4251 SANDPIPER LN",GALVESTON,TX,77450,,,"ANDERSON STEPHANIE","4251 SANDPIPER LN",GALVESTON,TX,77450,,Owner,,,,,OWNER,,,,,OWNER,,,,,,,,,
TX,GALVESTON,2020-00994,"Residential Renovations & Additions",10/22/2020,Renovation,140000,,"25243 SAUSALITO DR",GALVESTON,TX,77450,,,"HARRISON ISAAC BRANDEN","25243 SAUSALITO DR",GALVESTON,TX,77450,,Owner,,,,,OWNER,,,,,OWNER,,,,,,,,,
TX,GALVESTON,2020-01035,"Residential Renovations & Additions",10/22/2020,Renovation,30000,,"22119 LAMPASAS DR",GALVESTON,TX,77450,,,"DOYLE & LINDA SLATON","22119 LAMPASAS DR",GALVESTON,TX,77450,,Owner,,,,,"OLSON PILINGS SERVICE",,,,,"OLSON PILINGS SERVICE","6075 SEA ISLE",GALVESTON,TX,77554-9627,"(409) 737-5074",http://www.olsonpilings.com/,,,olsonpilings@aim.com
TX,GALVESTON,2020-00996,"Residential Renovations & Additions",10/23/2020,Renovation,50000,,"4515 WOODROW AVE",GALVESTON,TX,77450,,,"MASON & RACHEAL SCHRAUFNAGEL","4515 WOODROW AVE",GALVESTON,TX,77450,,Owner,,,,,"MCDANIEL CONSTRUCTION ",,,,,"MCDANIEL CONSTRUCTION ","2304 URSULINE ST",GALVESTON,TX,77550-4531,"(409) 762-6772",,,"MIKE MCDANIEL",
TX,GALVESTON,2020-00467,"Residential Renovations & Additions",10/26/2020,Renovation,75000,,"11136 SPORTSMAN ROAD",GALVESTON,TX,77450,,,"STEPHEN & MEG RICE","11136 SPORTSMAN ROAD",GALVESTON,TX,77450,,Owner,,,,,"LEBOEUF HOMES",,,,,"LEBOEUF HOMES","6023 AVENUE S # 315",GALVESTON,TX,77551-5419,"(409) 744-0344",http://www.leboeufhomes.com/aboutus.html,"(409) 744-0523","DOUGLAS LEBOEUF",
TX,GALVESTON,2020-01071,"Residential Renovations & Additions",10/26/2020,Renovation,36000,,"3811 AVE N 1/2 FRONT",GALVESTON,TX,77450,,,"JOSEPH & WF SEWELL","3811 AVE N 1/2 FRONT",GALVESTON,TX,77450,,Owner,,,,,"SOUTHERN HOMES",,,,,"SOUTHERN HOMES","16510 TERMINI SAN LUIS PASS RD",GALVESTON,TX,77554-9635,"(409) 737-4640",,,"TERRY HENSON",
TX,GALVESTON,2020-01069,"Residential Renovations & Additions",10/27/2020,Renovation,35000,,"3726 ANTASCOSA KEY",GALVESTON,TX,77450,,,"JACOB & DARLA LORFING","3726 ANTASCOSA KEY",GALVESTON,TX,77450,,Owner,,,,,"OLSON PILINGS SERVICE",,,,,"OLSON PILINGS SERVICE","6075 SEA ISLE",GALVESTON,TX,77554-9627,"(409) 737-5074",http://www.olsonpilings.com/,,,olsonpilings@aim.com
TX,GALVESTON,2020-01070,"Residential Renovations & Additions",10/27/2020,Renovation,30000,,"4244 PELICAN LN",GALVESTON,TX,77450,,,"RAGIEL STEVEN & LEAH","4244 PELICAN LN",GALVESTON,TX,77450,,Owner,,,,,OWNER,,,,,OWNER,,,,,,,,,
TX,GALVESTON,2020-01057,"Residential Renovations & Additions",10/29/2020,Addition,110000,,"1405 AVE M 1/2",GALVESTON,TX,77450,,,"NORTON WILLIAM GLENN & CONNIE MARIE","1405 AVE M 1/2",GALVESTON,TX,77450,,Owner,,,,,OWNER,,,,,OWNER,,,,,,,,,
TX,GALVESTON,2020-01082,"Residential Renovations & Additions",10/29/2020,Renovation,30000,,"1927 AVE M",GALVESTON,TX,77450,,,"MELBOURNE PLACE LP","1927 AVE M 1/2",GALVESTON,TX,77450,,Owner,,,,,OWNER,,,,,OWNER,,,,,,,,,
TX,GALVESTON,2020-01093,"Residential Renovations & Additions",10/29/2020,Renovation,40000,,"5628 BORDEN AVE",GALVESTON,TX,77450,,,"LITTLE JAMES& SUZANNE","5628 BORDEN AVE",HOUSTON,TX,77450,,Owner,,,,,OWNER,,,,,OWNER,,,,,,,,,
TX,HARRIS,20090019,"Residential Renovations & Additions",10/13/2020,Renovation,35000,,"2716 ALMENDARES AV",PASADENA,TX,77506,,,"CARLOS TORRES","2716 ALMENDARES AV",PASADENA,TX,77506,,Owner,,,,,"PENA REMODELING",,,,,"PENA REMODELING","3718 TROUT ST",HOUSTON,TX,77093-5824,"(832) 245-7776",,,"AGUSTINA PENA",
TX,HARRIS,20090606,"Residential Renovations & Additions",10/13/2020,Renovation,30000,,"3514 TRUXTON DR",PASADENA,TX,77503,,,"DIMITRIOS PAPADOPOULOS","3514 TRUXTON DR",PASADENA,TX,77503,,Owner,,,,,"HOWARD JAMES PROPERTIES",,,,,"HOWARD JAMES PROPERTIES","9805 W FAIRMONT PKWY C","LA PORTE",TX,77571,"(832) 480-0887",,,,
TX,HARRIS,20100348,"Residential Renovations & Additions",10/21/2020,Renovation,30000,,"2611 THOMAS AV",PASADENA,TX,77506,,,"MATT JANNIER","2611 THOMAS AV",PASADENA,TX,77506,,Owner,,,,,"DSD CONSTRUCTION",,,,,"DSD CONSTRUCTION","3518 TANGLEBRIAR DR",PASADENA,TX,77503,"(832) 798-0385",,,,
TX,MONTGOMERY,200609,"Residential Renovations & Additions",10/26/2020,Renovation,150000,,"27270 PAULA LN","OAK RIDGE NORTH",TX,77385,,,"LOREN NAUSS","27270 PAULA LN","OAK RIDGE NORTH",TX,77385,,Owner,,,,,"AIM-TECH SOLUTIONS",,,,,"AIM-TECH SOLUTIONS","EASTGATE VILLAGE DR",SPRING,TX,77373,"(346) 814-2492",https://www.aim-techsolutions.com/,,,info@aim-techsolutions.com
TX,MONTGOMERY,200626,"Residential Renovations & Additions",10/15/2020,Renovation,42400,,"28215 LAURA LN","OAK RIDGE NORTH",TX,77385,,,"JOHN ARCHER","28215 LAURA LN","OAK RIDGE NORTH",TX,77385,,Owner,,,,,"SCM DESIGN GROUP",,,,,"SCM DESIGN GROUP","1790 HUGHES LANDING BLVD SUITE 400","THE WOODLANDS",TX,77380,"(281) 516-8180",https://www.scm-design.com,,,
TX,HARRIS,200988,"Residential Renovations & Additions",10/1/2020,Addition,75000,,"301 GRANBERRY ST",HUMBLE,TX,77338,,,"CANDA VINSON","4540 OHAHA RD # 204",GARLAND,TX,750436,"(903) 441-6818",Applicant,,,,,OWNER,,,,,OWNER,,,,,,,,,
TX,HARRIS,201144,"Residential Renovations & Additions",10/30/2020,Renovation,83701,,"1307 BRENNA LN",HUMBLE,TX,77338,,,CONTRACTOR,,,,,,,,,,,"FIRE RECONSTRUCTION",,,,,"FIRE RECONSTRUCTION","20220 HEMPSTEAD RD STE 33",HOUSTON,TX,77065-5659,"(281) 859-3999",http://www.firereconstructioninc.com,"(281) 859-3960","TRAVIS HOFFART",firereconstructioninc@live.com
TX,HARRIS,20100357,"Residential Renovations & Additions",11/21/2020,Renovation,63000,,"7405 AVENUE",HOUSTON,TX,77011,,,"JOSE AMADOR","7405 AVENUE",HOUSTON,TX,77011,"(832) 272-1387",Applicant,,,,,OWNER,,,,,OWNER,,,,,,,,,
TX,HARRIS,20085022,"Residential Renovations & Additions",11/20/2020,Renovation,45000,,"4111 FALKIRK",HOUSTON,TX,77025,,,"DAVID BROECKELMANN","4111 FALKIRK",HOUSTON,TX,77025,,Owner,,,,,"INCRETE OF HOUSTON",,,,,"INCRETE OF HOUSTON","12201 CARLSBAD ST",HOUSTON,TX,77085-1207,"(281) 499-3990",http://www.increteofhouston.com/,"(281) 403-9197",,sconcrete@gmail.com
TX,HARRIS,20086485,"Residential Renovations & Additions",11/20/2020,Renovation,234332,,"2626 REAGAN",HOUSTON,TX,77009,,,"BROWN KYLE","2626 REAGAN",HOUSTON,TX,77009,,Owner,,,,,"SARAH KADASH",,,,,"SARAH KADASH","9597 JONES RD",HOUSTON,TX,77065,"(281) 802-9615",,,,
TX,HARRIS,20080766,"Residential Renovations & Additions",11/21/2020,Renovation,103000,,"2709 COLQUITT",HOUSTON,TX,77098,,,"CHOU LONG ANNE","2709 COLQUITT",HOUSTON,TX,55555,,Owner,,,,,"JULIO LUNA",,,,,"JULIO LUNA","608 TRICHELLE",HOUSTON,TX,77087,"(713) 252-9972",,,,
TX,HARRIS,20097217,"Residential Renovations & Additions",11/20/2020,Addition,89000,,"1513 GENTRY",HOUSTON,TX,77009,,,"BLANCA MORAN","1513 GENTRY",HOUSTON,TX,77009,,Owner,,,,,"MSN PROPERTIES",,,,,"MSN PROPERTIES","2215 YALE ST",HOUSTON,TX,77008,"(832) 609-0695",,,,
TX,HARRIS,20061883,"Residential Renovations & Additions",11/18/2020,Addition,360015,,"4943 BRAESHEATHER",HOUSTON,TX,77096,,,"MARK SARVER","1245 W CARDINAL",HOUSTON,TX,77705,"(409) 344-1753",Applicant,,,,,OWNER,,,,,OWNER,,,,,,,,,
TX,HARRIS,20106602,"Residential Renovations & Additions",11/20/2020,Renovation,35550,,"5722 WINSOME",HOUSTON,TX,77057,,,"CUNG GIAO","5722 WINSOME",HOUSTON,TX,77057,,Owner,,,,,"HESTIA CONSTRUCTION & DESIGN",,,,,"HESTIA CONSTRUCTION & DESIGN","16000 BARKERS POINT LN STE 202",HOUSTON,TX,77079-4000,"(832) 399-2060",,,,
TX,HARRIS,20102918,"Residential Renovations & Additions",11/20/2020,Addition,31000,,"6411 HARTWICK",HOUSTON,TX,77016,,,"ERVIN DAVIS","6411 HARTWICK",HOUSTON,TX,77016,,Owner,,,,,"FREEDOM FOREVER TX",,,,,"FREEDOM FOREVER TX","15550 VICKERY DR SUITE 100",HOUSTON,TX,77032-2581,"(888) 557-6431",,,,
TX,HARRIS,20093559,"Residential Renovations & Additions",11/17/2020,Addition,150000,,"3007 S BRAESWOOD",HOUSTON,TX,77025,,,"ELIZABETH & JAMES DEVANEY","3007 S BRAESWOOD",HOUSTON,TX,77025,,Owner,,,,,"THE CAGE GROUP",,,,,"THE CAGE GROUP","2900 W DALLAS",HOUSTON,TX,77019,"(832) 350-5105",,,,
TX,HARRIS,20096338,"Residential Renovations & Additions",11/17/2020,Addition,51403,,"4526 TALINA",HOUSTON,TX,77041,,,"GARCIA HERIBERTO","4526 TALINA",HOUSTON,TX,77041,,Owner,,,,,"ASPECT CONSTRUCTION",,,,,"ASPECT CONSTRUCTION","4022 BYTRAIL",HOUSTON,TX,77346,"(832) 875-7955",,,"ORTIZ SILVIA",
TX,HARRIS,20035993,"Residential Renovations & Additions",11/19/2020,Addition,60000,,"7913 WESTWOOD",HOUSTON,TX,77055,,,"GREGG & GINA GARRISON","7913 WESTWOOD",HOUSTON,TX,77055,,Owner,,,,,"BILL EDWARDS",,,,,"BILL EDWARDS","3101 RICHMOND AVE",HOUSTON,TX,77098,"(713) 320-3693",,,,
TX,HARRIS,20081542,"Residential Renovations & Additions",11/17/2020,Renovation,38000,,"1645 BEALL",HOUSTON,TX,77008,,,"KRYSTLE GIBBS","1645 BEALL",HOUSTON,TX,77008,,Owner,,,,,OWNER,,,,,OWNER,,,,,,,,,
TX,HARRIS,20099319,"Residential Renovations & Additions",11/20/2020,Addition,80000,,"1520 ALLSTON",HOUSTON,TX,77008,,,"HAINES PAUL","1520 ALLSTON",HOUSTON,TX,77008,,Owner,,,,,"COLOR HOUSES",,,,,"COLOR HOUSES","106 COSMOS ST",HOUSTON,TX,77009-5602,"(281) 772-6156",,,,
TX,HARRIS,20094902,"Residential Renovations & Additions",11/17/2020,Addition,36000,,"3107 BEAUCHAMP",HOUSTON,TX,77009,,,"ALAINA HEBERT","3107 BEAUCHAMP",HOUSTON,TX,77009,,Owner,,,,,"STEVE ALLEN DESIGNS",,,,,"STEVE ALLEN DESIGNS","1414 DEL",HOUSTON,TX,77018,"(713) 818-4979",,,,
TX,HARRIS,20096631,"Residential Renovations & Additions",11/17/2020,Addition,42767,,"6803 HAMPDEN POINT",HOUSTON,TX,77040,,,"HENRY BROASTER CAREN","6803 HAMPDEN POINT",HOUSTON,TX,77040,,Owner,,,,,"MARC JONES CONSTRUCTION",,,,,"MARC JONES CONSTRUCTION","12011 DENTON DR",DALLAS,TX,75234-7211,"(832) 778-4911",,,,
TX,HARRIS,20104113,"Residential Renovations & Additions",11/17/2020,Renovation,75000,,"1921 COULCREST",HOUSTON,TX,77055,,,"ANN JOHNSON","1921 COULCREST",HOUSTON,TX,77055,,Owner,,,,,"ANJA'S PERMIT ASSISTANCE",,,,,"ANJA'S PERMIT ASSISTANCE","PO BOX 1471",HOUSTON,TX,77251-1471,"(281) 222-5227",,,,
TX,HARRIS,20076390,"Residential Renovations & Additions",11/19/2020,Addition,40000,,"901 MELBOURNE",HOUSTON,TX,77022,,,"JOZWIAK MATTHEW","901 MELBOURNE",HOUSTON,TX,77022,,Owner,,,,,"M & M CONSTRUCTION",,,,,"M & M CONSTRUCTION","4402 HIGH POINT ST",HOUSTON,TX,77053,"(832) 331-4370",,,"DANIEL MARENTES",
TX,HARRIS,20085834,"Residential Renovations & Additions",11/19/2020,Addition,200000,,"1059 LAMONTE",HOUSTON,TX,77018,,,"KENNETH MICHALK & PEGGY MOSHER","1059 LAMONTE",HOUSTON,TX,77018,,Owner,,,,,"FACUNDO HOMEBUILDERS",,,,,"FACUNDO HOMEBUILDERS","983 ALTHEA DR",HOUSTON,TX,77018-5303,"(281) 235-7375",http://facundohomebuilders.com/,"(713) 681-4798","MIGUEL FACUNDO",facundohomebuilder@comcast.net
TX,HARRIS,20101958,"Residential Renovations & Additions",11/17/2020,Renovation,30000,,"732 WENDEL",HOUSTON,TX,77009,,,"MARY MCGOVERN","732 WENDEL",HOUSTON,TX,77009,,Owner,,,,,"JOSE SANCHEZ",,,,,"JOSE SANCHEZ","9302 SHOREHAM ST",HOUSTON,TX,77093-6748,"(281) 733-3221",,,,
TX,HARRIS,20095428,"Residential Renovations & Additions",11/18/2020,Addition,31450,,"3603 OAK GARDENS",HOUSTON,TX,77339,,,"RACHEL RAYWELSH","3603 OAK GARDENS",HOUSTON,TX,77339,"(281) 639-0037",Owner,,,,,OWNER,,,,,OWNER,,,,,,,,,
TX,HARRIS,20104861,"Residential Renovations & Additions",11/20/2020,Addition,152235,,"6731 COUCH",HOUSTON,TX,77091,,,"ROBERT SIMS","6731 COUCH",HOUSTON,TX,77091,"(832) 490-0030",Owner,,,,,OWNER,,,,,OWNER,,,,,,,,,
TX,HARRIS,20087430,"Residential Renovations & Additions",11/19/2020,Addition,86000,,"1739 HEANEY",HOUSTON,TX,77093,,,"MARIA SANABRIA","1739 HEANEY",HOUSTON,TX,77093,,Owner,,,,,OWNER,,,,,OWNER,,,,,,,,,
TX,HARRIS,20093148,"Residential Renovations & Additions",11/17/2020,Addition,129000,,"1519 TULANE",HOUSTON,TX,77008,,,"LISA SUCH","1519 TULANE",HOUSTON,TX,77008,,Owner,,,,,"CHRISTOPHER SCHMIDT",,,,,"CHRISTOPHER SCHMIDT","733 W 38TH",HOUSTON,TX,77018,"(832) 723-8280",,,,
TX,BRAZOS,RADD2020-000032,"Residential Renovations & Additions",10/14/2020,Addition,397000,2252,"1405 POST OAK CIR","COLLEGE STATION",TX,77840,"POST OAK",,"DONALD & CAMERON HOUSE","1405 POST OAK CIR","COLLEGE STATION",TX,77840,,Owner,,,,,"BORSKI HOMES",,,,,"BORSKI HOMES","3030 E 29TH ST STE 120",BRYAN,TX,77802-2740,"(979) 776-5852",http://www.borskihomes.com/,,,homeinfo@borskihomes.com
TX,BRAZOS,RADD2020-000034,"Residential Renovations & Additions",10/26/2020,Addition,48000,510,"4803 ST ANDREWS DR","COLLEGE STATION",TX,77840,"PEBBLE CREEK",,"MELVIN & GAIL ROTHER","4803 ST ANDREWS DR","COLLEGE STATION",TX,77840,,Owner,,,,,"JDB CONTRACTING",,,,,"JDB CONTRACTING","2116 FOUNTAIN AVE",BRYAN,TX,77801-1119,"(979) 822-6317",,"(979) 822-6318",,
TX,HARRIS,2009280030,"Residential Swimming Pools & Spas",10/16/2020,,48000,,"20619 MOUNT HIGHLAND PARK RD",HOUSTON,TX,77356,"LAUREL PARK",,"KEVIN ROUHSELANG","20619 MOUNT HIGHLAND PARK RD",HOUSTON,TX,77356,,Owner,,,,,OWNER,,,,,OWNER,,,,,,,,,
TX,HARRIS,2009250122,"Residential Swimming Pools & Spas",10/16/2020,,64176,,"17911 WINKLER WILLOW CT",HOUSTON,TX,77356,TREELINE,,"RYAN AND TRISTEN MEEKS","17911 WINKLER WILLOW CT",HOUSTON,TX,77356,,Owner,,,,,OWNER,,,,,OWNER,,,,,,,,,
TX,HARRIS,2010150091,"Residential Swimming Pools & Spas",10/16/2020,,43500,,"22511 TUWA RD",HOUSTON,TX,77356,,,"JOHN HOLIDAY","22511 TUWA RD",HOUSTON,TX,77356,,Owner,,,,,OWNER,,,,,OWNER,,,,,,,,,
TX,HARRIS,2010230042,"Residential Swimming Pools & Spas",10/16/2020,,105000,,"18619 SPELLMAN RIDGE DR",HOUSTON,TX,77356,WILDWOOD,,"JACK MAYWALD","18619 SPELLMAN RIDGE DR",HOUSTON,TX,77356,,Owner,,,,,OWNER,,,,,OWNER,,,,,,,,,
TX,HARRIS,2010220088,"Residential Swimming Pools & Spas",10/16/2020,,70000,,"14319 LAKEPOINTE BEND LN",HOUSTON,TX,77356,LAKES,,"MATTHEW & AMANDA BRAUTIGAM","14319 LAKEPOINTE BEND LN",HOUSTON,TX,77356,,Owner,,,,,"PIERCE POOLS & OUTDOOR VISION",,,,,"PIERCE POOLS & OUTDOOR VISION","10410 CLUBHOUSE CIR",MAGNOLIA,TX,77354-6916,"(281) 830-5404",http://www.piercepoolsco.com,"(281) 520-4240",,info@piercepoolsco.com
TX,HARRIS,2010190129,"Residential Swimming Pools & Spas",10/16/2020,,73000,,"1835 SPARROWS RDG",HOUSTON,TX,77356,"PARKLAKE VILLAGE",,"RAFAEL & MARIA LARA","1835 SPARROWS RDG",HOUSTON,TX,77356,,Owner,,,,,"ANTHONY & SYLVAN POOLS",,,,,"ANTHONY & SYLVAN POOLS","1424 W SAM HOUSTON PKWY N",HOUSTON,TX,77043-3193,"(713) 467-6458",http://www.anthonysylvan.com/,,,
TX,HARRIS,2010200164,"Residential Swimming Pools & Spas",10/16/2020,,67549,,"9315 HADERIA CT",HOUSTON,TX,77356,"GLEANNLOCH FARMS",,"VENKATESH AND SHYLAJA GOWDA","9315 HADERIA CT",HOUSTON,TX,77356,,Owner,,,,,OWNER,,,,,OWNER,,,,,,,,,
TX,HARRIS,2010190148,"Residential Swimming Pools & Spas",10/16/2020,,68533,,"14102 PARK ANTIQUE LN",HOUSTON,TX,77356,"PARK AT ARBORDALE",,"ANDY THOMPSON","14102 PARK ANTIQUE LN",HOUSTON,TX,77356,,Owner,,,,,OWNER,,,,,OWNER,,,,,,,,,
TX,HARRIS,2010190158,"Residential Swimming Pools & Spas",10/16/2020,,76325,,"17319 LYNN ORCHARD DR",HOUSTON,TX,77356,DELLROSE,,"JOHN K STONACH","17319 LYNN ORCHARD DR",HOUSTON,TX,77356,,Owner,,,,,OWNER,,,,,OWNER,,,,,,,,,
TX,GALVESTON,2020-00071,"Residential Swimming Pools & Spas",10/12/2020,,89993,,"3507 CHRISTMAS TREE POINT ROAD",GALVESTON,TX,77450,,,"FRANK BAYOUTH","3507 CHRISTMAS TREE POINT ROAD",GALVESTON,TX,77450,,Owner,,,,,"RAINEY POOL",,,,,"RAINEY POOL","1101 GULF FWY S","LEAGUE CITY",TX,77573-5115,"(281) 914-3684",http://www.raineypools.com/,"(281) 338-1557",,info@raineypools.com
TX,GALVESTON,2020-00062,"Residential Swimming Pools & Spas",10/13/2020,,30000,,"112 DOLPHIN AVE",GALVESTON,TX,77450,,,"CAROL JENKINS","112 DOLPHIN AVE",GALVESTON,TX,77450,,Owner,,,,,"AQUAMARINE POOLS",,,,,"AQUAMARINE POOLS","25730 INTERSTATE 45",HOUSTON,TX,77386,"(281) 734-2543",,,,
TX,GALVESTON,2020-00044,"Residential Swimming Pools & Spas",10/21/2020,,154000,,"2819 BELUCHE DR",GALVESTON,TX,77450,,,"JEFFREY & CYNTHIA BROWN","2819 BELUCHE DR",GALVESTON,TX,77450,,Owner,,,,,"DECORATIVE POOLS & LANDSCAPE",,,,,"DECORATIVE POOLS & LANDSCAPE","1320 HIGHWAY 3 S STE C2","LEAGUE CITY",TX,77573-5459,"(281) 335-8316",,,,
TX,GALVESTON,2020-00048,"Residential Swimming Pools & Spas",10/26/2020,,35000,,"3302 AVE L",GALVESTON,TX,77450,,,"BRIAN SMITH","3302 AVE L",GALVESTON,TX,77450,,Owner,,,,,"PACIFIC POOLS OF HOUSTON",,,,,"PACIFIC POOLS OF HOUSTON","12230 DOVER ST",HOUSTON,TX,77031-2826,"(281) 530-5100",http://www.pacificpoolsofhouston.com/,"(281) 530-5101","KEVIN HARPER",kevin@pacificpoolsofhouston.com
TX,GALVESTON,2020-00068,"Residential Swimming Pools & Spas",10/27/2020,,111131,,"3432 TREASURE CIRCLE",GALVESTON,TX,77450,,,"PAUL & JANET AMEND","3432 TREASURE CIRCLE",GALVESTON,TX,77450,,Owner,,,,,"RAINEY POOL",,,,,"RAINEY POOL","1101 GULF FWY S","LEAGUE CITY",TX,77573-5115,"(281) 914-3684",http://www.raineypools.com/,"(281) 338-1557",,info@raineypools.com
TX,GALVESTON,2020-00072,"Residential Swimming Pools & Spas",10/28/2020,,57536,,"1204 103RD ST",GALVESTON,TX,77450,,,"RUSSELL & SUSIE KELLEY","1204 103RD ST",GALVESTON,TX,77450,,Owner,,,,,"RAINEY POOL",,,,,"RAINEY POOL","1101 GULF FWY S","LEAGUE CITY",TX,77573-5115,"(281) 914-3684",http://www.raineypools.com/,"(281) 338-1557",,info@raineypools.com
TX,GALVESTON,2020-00064,"Residential Swimming Pools & Spas",10/29/2020,,35000,,"13722 SAN DOMINGO DR",GALVESTON,TX,77450,,,"MIRANDA VERONICA","13722 SAN DOMINGO DR",GALVESTON,TX,77450,,Owner,,,,,OWNER,,,,,OWNER,,,,,,,,,
TX,HARRIS,20060174,"Residential Swimming Pools & Spas",10/2/2020,,76300,,"5315 SUMMER OAK",PASADENA,TX,77505,,,"HIRAM PEREZ","5315 SUMMER OAK",PASADENA,TX,77505,,Owner,,,,,"PREMIER POOLS & SPAS",,,,,"PREMIER POOLS & SPAS","1333 MCDERMOTT STE 200",ALLEN,TX,75013,"(214) 620-1044",,,,
TX,HARRIS,20070637,"Residential Swimming Pools & Spas",10/30/2020,,65000,,"16402 GARDEN PATH CT",PASADENA,TX,77059,,,"JESSICA MURPHY","16402 GARDEN PATH CT",PASADENA,TX,77059,,Owner,,,,,"PREMIER POOLS & SPAS",,,,,"PREMIER POOLS & SPAS","1333 MCDERMOTT STE 200",ALLEN,TX,75013,"(214) 620-1044",,,,
TX,HARRIS,20070639,"Residential Swimming Pools & Spas",10/7/2020,,50000,,"6502 AVENEL DR",PASADENA,TX,77505,,,"CHRISTOPHER ROWLAN","6502 AVENEL DR",PASADENA,TX,77505,,Owner,,,,,"HORIZON OUTDOOR CONSTRUCTION",,,,,"HORIZON OUTDOOR CONSTRUCTION","5903 BROADWAY ST",PEARLAND,TX,77581-7807,"(281) 997-7272",,,"ROBERT OLMSTEAD",
TX,HARRIS,20070747,"Residential Swimming Pools & Spas",10/2/2020,,30000,,"4210 ROYAL MANOR DR",PASADENA,TX,77505,,,"MILTON & LORETTA DEAN","4210 ROYAL MANOR DR",PASADENA,TX,77505,,Owner,,,,,"BACKYARD AMENITIES",,,,,"BACKYARD AMENITIES","11163 OLD NEEDLEPOINT RD STE 100",BAYTOWN,TX,77523-9784,"(281) 837-8234",http://www.backyardamenities.com,,,info@backyardamenities.com
TX,HARRIS,20080292,"Residential Swimming Pools & Spas",10/7/2020,,64885,,"2008 S PALM CT",PASADENA,TX,77502,,,CONTRACTOR,,,,,,,,,,,"PREMIER POOLS & SPAS",,,,,"PREMIER POOLS & SPAS","1333 MCDERMOTT STE 200",ALLEN,TX,75013,"(214) 620-1044",,,,
TX,HARRIS,20080598,"Residential Swimming Pools & Spas",10/30/2020,,42300,,"4019 CUJANES ST",PASADENA,TX,77504,,,"JAMES & JODIE GOODE","4019 CUJANES ST",PASADENA,TX,77504,,Owner,,,,,"BLUE HAVEN POOLS",,,,,"BLUE HAVEN POOLS","2201 HIGHWAY 6 S",HOUSTON,TX,77077-4321,"(281) 497-5711",,,,
TX,HARRIS,20080599,"Residential Swimming Pools & Spas",10/30/2020,,55000,,"527 SMITH AV",PASADENA,TX,77504,,,"JOSE MATA","527 SMITH AV",PASADENA,TX,77504,,Owner,,,,,"BLUE HAVEN POOLS",,,,,"BLUE HAVEN POOLS","2201 HIGHWAY 6 S",HOUSTON,TX,77077-4321,"(281) 497-5711",,,,
TX,GALVESTON,2020-3305,"Residential Swimming Pools & Spas",10/5/2020,,30000,,"807 MEADOW LARK AVE",FRIENDSWOOD,TX,77546,,,"TERRELL & SHANNA TUMIS","807 MEADOW LARK AVE",FRIENDSWOOD,TX,77546,,Owner,,,,,"BACKYARD AMENITIES",,,,,"BACKYARD AMENITIES","11163 OLD NEEDLEPOINT RD STE 100",BAYTOWN,TX,77523-9784,"(281) 837-8234",http://www.backyardamenities.com,,,info@backyardamenities.com
TX,GALVESTON,2020-3340,"Residential Swimming Pools & Spas",10/5/2020,,68000,,"1909 WILDERNESS TRL",FRIENDSWOOD,TX,77546,,,"ESTEBAN RODRIGUEZ","1909 WILDERNESS TRL",FRIENDSWOOD,TX,77546,,Owner,,,,,"WATERPOINTE POOLS",,,,,"WATERPOINTE POOLS","2405 S GRAND BLVD",PEARLAND,TX,77581-4297,"(832) 856-1881",https://www.waterpointepools.com/,,,jay@waterpointepools.com
TX,GALVESTON,2020-3383,"Residential Swimming Pools & Spas",10/6/2020,,67198,,"2805 BURR OAK DR",FRIENDSWOOD,TX,77546,,,CONTRACTOR,,,,,,,,,,,"PREFERRED POOLS",,,,,"PREFERRED POOLS","1130 WINFIELD LN",KEMAH,TX,77565-3182,"(281) 334-1150",http://www.preferredpoolsofhouston.com/,,,
TX,GALVESTON,2020-3384,"Residential Swimming Pools & Spas",10/7/2020,,87488,,"2580 SCENIC HILLS DR",FRIENDSWOOD,TX,77546,,,"KEEGAN & BRITTANY SAVELL","2580 SCENIC HILLS DR",FRIENDSWOOD,TX,77546,,Owner,,,,,"PREFERRED POOLS",,,,,"PREFERRED POOLS","1130 WINFIELD LN",KEMAH,TX,77565-3182,"(281) 334-1150",http://www.preferredpoolsofhouston.com/,,,
TX,GALVESTON,2020-3398,"Residential Swimming Pools & Spas",10/8/2020,,50000,,"2509 WEST RANCH DR",FRIENDSWOOD,TX,77546,,,"CAROLA BUSTAMANTE","2509 WEST RANCH DR",FRIENDSWOOD,TX,77546,,Owner,,,,,"J3 POOLS",,,,,"J3 POOLS","PO BOX 1456",PEARLAND,TX,77588-1456,"(281) 489-0126",https://www.j3pools.com/,,,J3Pools@gmail.com
TX,GALVESTON,2020-3468,"Residential Swimming Pools & Spas",10/15/2020,,25000,,"2203 BAILEY BEND LN",FRIENDSWOOD,TX,77546,,,"KENNETH & JERILYN COOK","2203 BAILEY BEND LN",FRIENDSWOOD,TX,77546,,Owner,,,,,"AQUA LUXE",,,,,"AQUA LUXE","601 N GREAT SOUTHWEST PKWY",ARLINGTON,TX,76011-5424,"(972) 523-0073",,,,
TX,GALVESTON,2020-3566,"Residential Swimming Pools & Spas",10/21/2020,,72000,,"2800 HARVEST HILL CT",FRIENDSWOOD,TX,77546,,,CONTRACTOR,,,,,,,,,,,"RAINEY POOL",,,,,"RAINEY POOL","1101 GULF FWY S","LEAGUE CITY",TX,77573-5115,"(281) 914-3684",http://www.raineypools.com/,"(281) 338-1557",,info@raineypools.com
TX,GALVESTON,2020-3637,"Residential Swimming Pools & Spas",10/28/2020,,65000,,"404 MYRA ST",FRIENDSWOOD,TX,77546,,,"CHRISTOPHER & COURTNEY SHIELDS","404 MYRA ST",FRIENDSWOOD,TX,77546,,Owner,,,,,"RAINEY POOL",,,,,"RAINEY POOL","1101 GULF FWY S","LEAGUE CITY",TX,77573-5115,"(281) 914-3684",http://www.raineypools.com/,"(281) 338-1557",,info@raineypools.com
TX,GALVESTON,2020-3664,"Residential Swimming Pools & Spas",10/29/2020,,35000,,"206 STANLEY CT",FRIENDSWOOD,TX,77546,,,"GARY & VICKI WALSTON","206 STANLEY CT",FRIENDSWOOD,TX,77546,,Owner,,,,,"ST JOHN POOLS",,,,,"ST JOHN POOLS","7403 NORTHGROVE CT",PEARLAND,TX,77581-6627,"(281) 989-9902",,,,
TX,MONTGOMERY,200537,"Residential Swimming Pools & Spas",10/27/2020,,52000,,"26727 WESTWOOD DR","OAK RIDGE NORTH",TX,77386,,,"MARCOS & DORIS GARCIA","26727 WESTWOOD DR","OAK RIDGE NORTH",TX,77386,,Owner,,,,,"MASTERPIECE POOLS",,,,,"MASTERPIECE POOLS","719 SAWDUST RD STE 102",SPRING,TX,77380-2946,"(832) 817-9706",http://www.masterpiecepools.com/,,,
TX,MONTGOMERY,200578,"Residential Swimming Pools & Spas",10/5/2020,,30000,,"27281 WELLS LN","OAK RIDGE NORTH",TX,77385,,,"CAREY & MARIAH WHEELOCK","27281 WELLS LN","OAK RIDGE NORTH",TX,77385,,Owner,,,,,"AQUAMARINE POOLS",,,,,"AQUAMARINE POOLS","25730 INTERSTATE 45",HOUSTON,TX,77386,"(281) 734-2543",,,,
TX,HARRIS,RB-001989-2020,"Residential Swimming Pools & Spas",10/15/2020,,45797,,"2618 SALT GRASS TRI","DEER PARK",TX,77536,,,"JEFFERY & LYNNIE JONES","2618 SALT GRASS TRI","DEER PARK",TX,77536,,Owner,,,,,"RICHARD'S TOTAL BACKYARD SOLUTIONS ",,,,,"RICHARD'S TOTAL BACKYARD SOLUTIONS ","1701 HIGHWAY 6 S",HOUSTON,TX,77077-2803,"(713) 777-7665",http://richardstbs.com/,,"JULIE RICHARD",info@totalbackyardsolutions.com
TX,MONTGOMERY,20201446,"Residential Swimming Pools & Spas",10/2/2020,,71536,,"619 ROSEWOOD DR",SHENANDOAH,TX,77381,,,"JOEY KING","619 ROSEWOOD DR",SHENANDOAH,TX,77381,,Owner,,,,,OWNER,,,,,OWNER,,,,,,,,,
TX,MONTGOMERY,20201485,"Residential Swimming Pools & Spas",10/27/2020,,120000,,"149 SILVERWOOD RANCH",SHENANDOAH,TX,77386,,,"JUDITH BUSH ","149 SILVERWOOD RANCH",SHENANDOAH,TX,77386,,Owner,,,,,OWNER,,,,,OWNER,,,,,,,,,
TX,HARRIS,20085271,"Residential Swimming Pools & Spas",11/20/2020,,56000,,"927 ROBBIE",HOUSTON,TX,77009,,,"BLOCK DOUG","927 ROBBIE",HOUSTON,TX,77009,,Owner,,,,,"VOLLMER CUSTOM POOLS",,,,,"VOLLMER CUSTOM POOLS","27027 WESTHEIMER PKWY STE 2200",KATY,TX,77494-5378,"(281) 830-5680",http://www.vollmercustompools.com/,,"DAVID VOLLMER",
TX,HARRIS,20098775,"Residential Swimming Pools & Spas",11/17/2020,,55000,,"10302 SHADY RIVER",HOUSTON,TX,77042,,,CONTRACTOR,,,,,,,,,,,"JUAN RODRIGUEZ",,,,,"JUAN RODRIGUEZ","119 STAR RIDGE",HOUSTON,TX,77382,"(281) 460-5824",,,,
TX,HARRIS,20059670,"Residential Swimming Pools & Spas",11/20/2020,,57475,,"13411 SUMMIT RESERVE",HOUSTON,TX,77059,,,"DUBEC CLINTON","13411 SUMMIT RESERVE",HOUSTON,TX,77059,,Owner,,,,,"POOLS BY JACK",,,,,"POOLS BY JACK","7803 BEAUFORT DR",SPRING,TX,77379-4601,"(281) 370-0031",,,,
TX,HARRIS,20092811,"Residential Swimming Pools & Spas",11/17/2020,,31000,,"3622 BELFAST BEND",HOUSTON,TX,77059,,,"HABLUETZEL WALLY","3622 BELFAST BEND",HOUSTON,TX,77059,,Owner,,,,,"MCKINNEY CUSTOM POOLS",,,,,"MCKINNEY CUSTOM POOLS","15718 PARK CENTER WAY",HOUSTON,TX,77059-4050,"(281) 489-9800",http://www.mckinneycustompools.net,,,
TX,HARRIS,20088007,"Residential Swimming Pools & Spas",11/20/2020,,73000,,"1006 S COMMONS VIEW",HOUSTON,TX,77336,,,"JOHN MILFORD","1006 S COMMONS VIEW",HOUSTON,TX,77336,,Owner,,,,,"GM OUTDOOR LIVING, POOL & SPA",,,,,"GM OUTDOOR LIVING, POOL & SPA","6942 FM 1960 RD E STE 387",HUMBLE,TX,77346-2706,"(281) 446-1702",http://gmoutdoorliving.com,,,
TX,HARRIS,20057669,"Residential Swimming Pools & Spas",11/19/2020,,32000,,"5735 STILLBROOKE",HOUSTON,TX,77096,,,"TAYLOR OLGA","5735 STILLBROOKE",HOUSTON,TX,77096,,Owner,,,,,"CINDI FORSTER",,,,,"CINDI FORSTER","2211 RAYFORD STE 111 RD PMB",HOUSTON,TX,77386,"(713) 371-6292",,,,
TX,HARRIS,20103707,"Residential Swimming Pools & Spas",11/19/2020,,15000,,"52 E BROAD OAKS",HOUSTON,TX,77056,,,"RATHE LAURA LEE","52 E BROAD OAKS",HOUSTON,TX,77056,,Owner,,,,,"SUNSHINE POOLS",,,,,"SUNSHINE POOLS","1739 N BELT LINE RD",MESQUITE,TX,75149-1720,"(972) 289-2000",http://www.sunshine-pools.com/,,"DANI VASSAR",dani.vassar@sunshine-pools.com
TX,HARRIS,20095273,"Residential Swimming Pools & Spas",11/20/2020,,73000,,"1039 MARTIN",HOUSTON,TX,77018,,,"ANDY SCARDINO","1039 MARTIN",HOUSTON,TX,77018,,Owner,,,,,"MCKINNEY CUSTOM POOLS",,,,,"MCKINNEY CUSTOM POOLS","15718 PARK CENTER WAY",HOUSTON,TX,77059-4050,"(281) 489-9800",http://www.mckinneycustompools.net,,,
TX,HARRIS,20102102,"Residential Swimming Pools & Spas",11/18/2020,,56727,,"4045 WICKERSHAM",HOUSTON,TX,77027,,,"RISHI SHAH","4045 WICKERSHAM",HOUSTON,TX,77027,,Owner,,,,,"MURRAY SHEILA",,,,,"MURRAY SHEILA","26909 KATY FWY",KATY,TX,77494,"(832) 683-2269",,,,
TX,HARRIS,20075362,"Residential Swimming Pools & Spas",11/19/2020,,53000,,"28707 RIVERSIDE CREST",HOUSTON,TX,77336,,,"WHITE TERRANCE PAYTON","28707 RIVERSIDE CREST",HOUSTON,TX,77336,,Owner,,,,,"BLUE HAVEN POOLS",,,,,"BLUE HAVEN POOLS","2201 HIGHWAY 6 S",HOUSTON,TX,77077-4321,"(281) 497-5711",,,,
TX,HARRIS,20063190,"Residential Swimming Pools & Spas",11/17/2020,,44000,,"2315 PINE BEND",HOUSTON,TX,77339,,,"RUSSELL WIDNER","2315 PINE BEND",HOUSTON,TX,77339,,Owner,,,,,OWNER,,,,,OWNER,,,,,,,,,
TX,BRAZOS,POOL2020-000084,"Residential Swimming Pools & Spas",10/26/2020,,40000,,"4121 SHALLOW CREEK LOOP","COLLEGE STATION",TX,77845,"CREEK MEADOWS",,"JACKIE HOWELL","4121 SHALLOW CREEK LOOP","COLLEGE STATION",TX,77845,,Owner,,,,,"SUNSHINE FUN POOLS ",,,,,"SUNSHINE FUN POOLS ","4200 STATE HIGHWAY 6 S","COLLEGE STATION",TX,77845-8966,"(979) 690-3343",,,,
TX,BRAZOS,POOL2020-000093,"Residential Swimming Pools & Spas",10/28/2020,,68000,,"1203 MISSION HILLS DR","COLLEGE STATION",TX,77845,"PEBBLE CREEK",,"DANA & VAVIE BOYD","1203 MISSION HILLS DR","COLLEGE STATION",TX,77845,,Owner,,,,,"MOBLEY POOLS",,,,,"MOBLEY POOLS","2004 E VILLA MARIA RD",BRYAN,TX,77802-2540,"(979) 776-5557",http://www.mobleypools.com/,"(979) 776-5290","JASON FOSTER",Jason@mobleypools.com
TX,HARRIS,1906040088,"Restaurant and Bar",10/16/2020,,375000,5000,"10502 ALTONBURY LN",HOUSTON,TX,77356,"BRAEBURN GARDENS",,"THOMAS EVANGELICAL CHURCH IN INDIA","10502 ALTONBURY LN",HOUSTON,TX,77356,,Owner,,,,,OWNER,,,,,OWNER,,,,,,,,,
TX,HARRIS,20080376,"Restaurant and Bar",10/2/2020,,125000,,"7730 SPENCER HWY #145",PASADENA,TX,77505,,,CONTRACTOR,,,,,,,,,,,"PREMIER CONSTRUCTION",,,,,"PREMIER CONSTRUCTION","18207 HOLLY",HOUSTON,TX,77375,"(832) 228-2865",http://www.premierconst.org/,,,
TX,GALVESTON,2020-2947,"Restaurant and Bar",10/27/2020,,150000,,"1765 S FRIENDSWOOD DR 101",FRIENDSWOOD,TX,77505,,,CONTRACTOR,,,,,,,,,,,"STRECH CONSTRUCTION",,,,,"STRECH CONSTRUCTION","5422 TYLER PARK LN",KATY,TX,77494-1526,"(281) 905-1088",,,,strechconstruction@gmail.com
TX,HARRIS,201060,"Restaurant and Bar",10/15/2020,Renovation,185000,,"1902 S HOUSTON AVE",HUMBLE,TX,77396,,,CONTRACTOR,,,,,,,,,,,"KMR CONSTRUCTION",,,,,"KMR CONSTRUCTION","21311 REFUGE CREEK DR",CYPRESS,TX,77433-3585,"(281) 256-8498",,,"KENNETH ROCH",
TX,HARRIS,20055217,"Restaurant and Bar",11/18/2020,,600000,,"600 N SHEPHERD DR",HOUSTON,TX,77007,,,CONTRACTOR,,,,,,,,,,,"TRINITY CONSTRUCTORS",,,,,"TRINITY CONSTRUCTORS","806 HOUSE WREN LOOP",PFLUGERVILLE,TX,78660-5790,"(512) 576-0636",,,,
TX,HARRIS,20088626,"Restaurant and Bar",11/18/2020,,125000,,"2617 W HOLCOMBE BLVD",HOUSTON,TX,77025,,,"RPI MANAGEMENT","5333 GULFTON",HOUSTON,TX,77081,"(713) 662-7745",Applicant,,,,,OWNER,,,,,OWNER,,,,,,,,,
TX,HARRIS,20049132,"Restaurant and Bar",11/19/2020,Renovation,100000,,"6550 BERTNER ST G",HOUSTON,TX,77030,,,CONTRACTOR,,,,,,,,,,,"MATRIX CONTRACTORS",,,,,"MATRIX CONTRACTORS","9100 SOUTHWEST",HOUSTON,TX,77074,"(713) 677-0421",http://www.matrixcontractorstx.com,,,
TX,BRAZOS,RMDL2020-000109,"Restaurant and Bar",10/22/2020,Renovation,199990,1898,"4461 STATE HIGHWAY 6 S # 200","COLLEGE STATION",TX,77845,,,CONTRACTOR,,,,,,,,,,,"ALBANY CONSTRUCTION",,,,,"ALBANY CONSTRUCTION","2802 ALBANY ST",HOUSTON,TX,77006,"(936) 419-6474",,,,
TX,BRAZOS,CNEW2020-000016,"Restaurant and Bar",10/26/2020,,750000,2297,"2422 TEXAS AVE S","COLLEGE STATION",TX,77845,,,CONTRACTOR,,,,,,,,,,,"ANCHOR CONSTRUCTION & MANAGEMENT",,,,,"ANCHOR CONSTRUCTION & MANAGEMENT","4415 HWY 6","SUGAR LAND",TX,77478,"(281) 201-2700",,,"RAY MUDAFR",
TX,HARRIS,20070540,Retail,10/20/2020,,200000,,"5200 FAIRMONT PKWY",PASADENA,TX,77505,,,"POWER HOUSE RETAIL SERVICES INC","3234 MIDCOURT RD STE 122",CARROLLTON,TX,75006,"(817) 297-8575",Applicant,,,"JIM STEINMAN",,OWNER,,,,,OWNER,,,,,,,,,
TX,HARRIS,20090380,Retail,10/28/2020,,200000,,"6768 SPENCER HIGHWAY",PASADENA,TX,77505,,,CONTRACTOR,,,,,,,,,,,"Q BUILDERS ",,,,,"Q BUILDERS ","1010 DEVONPORT",HOUSTON,TX,77586,"(281) 773-3939",,,,
TX,HARRIS,20090753,Retail,10/28/2020,,180000,,"2816 PRESTON AVE",PASADENA,TX,77503,,,CONTRACTOR,,,,,,,,,,,"Q BUILDERS ",,,,,"Q BUILDERS ","1010 DEVONPORT",HOUSTON,TX,77586,"(281) 773-3939",,,,
TX,GALVESTON,2020-3275,Retail,10/7/2020,,199000,,"313 S FRIENDSWOOD DR 105",FRIENDSWOOD,TX,77546,,,"INTERIOR EXPRESSIONS BY KAREN PUGH","313 S FRIENDSWOOD DR 105",FRIENDSWOOD,TX,77546,,Applicant,,,,,OWNER,,,,,OWNER,,,,,,,,,
TX,HARRIS,20095898,Retail,11/17/2020,,110000,,"3333 LAKE ST FL",HOUSTON,TX,77098,,,CONTRACTOR,,,,,,,,,,,"JACOB WHITE CONSTRUCTION",,,,,"JACOB WHITE CONSTRUCTION","PO BOX 890688",HOUSTON,TX,77289-0688,"(281) 480-7510",http://www.jacobwhitecc.com/,"(281) 480-7510",,info@jacobwhitecc.com
TX,HARRIS,18072980,Retail,11/19/2020,,483000,,"1213 FEDERAL",HOUSTON,TX,77015,,,CONTRACTOR,,,,,,,,,,,"RDT CONSTRUCTION",,,,,"RDT CONSTRUCTION","6201 BONHOMME RD STE",HOUSTON,TX,77036,"(832) 397-9101",http://www.rdtconstruction.com/,"(281) 441-3322","MARIO LUNA",info@rdtconstruction.com
TX,HARRIS,19141791,Retail,11/17/2020,,330000,,"3109 BLALOCK",HOUSTON,TX,77080,,,CONTRACTOR,,,,,,,,,,,"REAL DESIGNS",,,,,"REAL DESIGNS","11770 WESTHEIMER RD APT 106",HOUSTON,TX,77077-6717,"(832) 645-7862",,,,
TX,HARRIS,20101490,Retail,11/17/2020,Renovation,55000,,"3333 LAKE ST",HOUSTON,TX,77098,,,CONTRACTOR,,,,,,,,,,,"JACOB WHITE CONSTRUCTION",,,,,"JACOB WHITE CONSTRUCTION","2000 W PARKWOOD 100",HOUSTON,TX,77546,"(281) 286-6666",http://www.jacobwhitecc.com/,"(281) 480-7510",,info@jacobwhitecc.com
TX,HARRIS,20020512,Retail,11/19/2020,,100000,,"4111 FANNIN ST",HOUSTON,TX,77004,,,CONTRACTOR,,,,,,,,,,,"GILBANE BUILDING COMPANY",,,,,"GILBANE BUILDING COMPANY","811 MAIN ST STE 2450",HOUSTON,TX,77002-6136,"(713) 209-1873",,,,
TX,MONTGOMERY,177346-20,Retail,10/16/2020,,135000,,"27718 ROBINSON ROAD",HOUSTON,TX,77356,,,CONTRACTOR,,,,,,,,,,,"JOHN MAYES",,,,,"JOHN MAYES","5102 N MAIN ST",HOUSTON,TX,77009-3685,"(713) 426-0552",,,,
TX,BRAZOS,CSHL2018-000012,Retail,10/27/2020,,550000,7900,"3500 HARVEY RD","COLLEGE STATION",TX,77845,,,CONTRACTOR,,,,,,,,,,,"GRAND CONSTRUCTION",,,,,"GRAND CONSTRUCTION","9009 RICHMOND AVE",HOUSTON,TX,77063-4943,"(281) 739-3561",,,,
TX,HARRIS,2009300148,"Single Family Homes",10/16/2020,,55755,1650,"17359 CUTHBERT ST",HOUSTON,TX,77356,MERRYLANDS,,CONTRACTOR,,,,,,,,,,,"CAMILLO PROPERTIES",,,,,"CAMILLO PROPERTIES","6707 GESSNER RD",HOUSTON,TX,77040-4017,"(832) 500-0284",http://www.camillorentalhomes.com/,"(281) 325-0245",,
TX,HARRIS,2010010010,"Single Family Homes",10/16/2020,,57330,1654,"24314 ROSSI GARDENS CIR",HOUSTON,TX,77356,"TREVISO GARDENS",,CONTRACTOR,,,,,,,,,,,"CAMILLO PROPERTIES",,,,,"CAMILLO PROPERTIES","6707 GESSNER RD",HOUSTON,TX,77040-4017,"(832) 500-0284",http://www.camillorentalhomes.com/,"(281) 325-0245",,
TX,HARRIS,2010010018,"Single Family Homes",10/16/2020,,179135,3257,"12446 ASHGROVE POINT DR",HOUSTON,TX,77356,BALMORAL,,CONTRACTOR,,,,,,,,,,,"CASTLEROCK COMMUNITIES",,,,,"CASTLEROCK COMMUNITIES","7670 WOODWAY DR STE 300",HOUSTON,TX,77063-1520,"(713) 600-7000",http://c-rock.com,"(713) 600-0000",,
TX,HARRIS,2010010016,"Single Family Homes",10/16/2020,,133925,2435,"15239 READEN CRESCENT DR",HOUSTON,TX,77356,BALMORAL,,CONTRACTOR,,,,,,,,,,,"CASTLEROCK COMMUNITIES",,,,,"CASTLEROCK COMMUNITIES","7670 WOODWAY DR STE 300",HOUSTON,TX,77063-1520,"(713) 600-7000",http://c-rock.com,"(713) 600-0000",,
TX,HARRIS,2010010012,"Single Family Homes",10/16/2020,,112915,2053,"15222 LILYBANK DR",HOUSTON,TX,77356,BALMORAL,,CONTRACTOR,,,,,,,,,,,"CASTLEROCK COMMUNITIES",,,,,"CASTLEROCK COMMUNITIES","7670 WOODWAY DR STE 300",HOUSTON,TX,77063-1520,"(713) 600-7000",http://c-rock.com,"(713) 600-0000",,
TX,HARRIS,2010060008,"Single Family Homes",10/16/2020,,92000,2492,"18643 BARWON RIVER CT",HOUSTON,TX,77356,ADELAIDE,,CONTRACTOR,,,,,,,,,,,"LEGEND HOMES",,,,,"LEGEND HOMES","10410 WINDAMERE LAKES BLVD",HOUSTON,TX,77065-4996,"(281) 671-9060",http://legendhomecorp.com/,"(281) 671-9055",,
TX,HARRIS,2010060010,"Single Family Homes",10/16/2020,,138279,3010,"11926 MCCALLISTER RUN DR",HOUSTON,TX,77356,BALMORAL,,CONTRACTOR,,,,,,,,,,,"TAYLOR MORRISON OF TEXAS",,,,,"TAYLOR MORRISON OF TEXAS","5353 W SAM HOUSTON PKWY N STE 190",HOUSTON,TX,77041-5186,"(281) 598-3000",,,,
TX,HARRIS,2009280012,"Single Family Homes",10/16/2020,,83046,2147,"10639 HILLSIDE CREEK DR",HOUSTON,TX,77356,"BALMORAL PARK LAKES",,CONTRACTOR,,,,,,,,,,,"LGI HOMES",,,,,"LGI HOMES","1450 LAKE ROBBINS SUITE 430",CONROE,TX,77380,"(210) 563-4648",,"(281) 210-2601",,
TX,HARRIS,2009280013,"Single Family Homes",10/16/2020,,77514,1826,"10635 HILLSIDE CREEK DR",HOUSTON,TX,77356,"BALMORAL PARK LAKES",,CONTRACTOR,,,,,,,,,,,"LGI HOMES",,,,,"LGI HOMES","1450 LAKE ROBBINS SUITE 430",CONROE,TX,77380,"(210) 563-4648",,"(281) 210-2601",,
TX,HARRIS,2009280015,"Single Family Homes",10/16/2020,,103650,3029,"10631 HILLSIDE CREEK DR",HOUSTON,TX,77356,"BALMORAL PARK LAKES",,CONTRACTOR,,,,,,,,,,,"LGI HOMES",,,,,"LGI HOMES","1450 LAKE ROBBINS SUITE 430",CONROE,TX,77380,"(210) 563-4648",,"(281) 210-2601",,
TX,HARRIS,2009280016,"Single Family Homes",10/16/2020,,83046,2147,"10627 HILLSIDE CREEK DR",HOUSTON,TX,77356,"BALMORAL PARK LAKES",,CONTRACTOR,,,,,,,,,,,"LGI HOMES",,,,,"LGI HOMES","1450 LAKE ROBBINS SUITE 430",CONROE,TX,77380,"(210) 563-4648",,"(281) 210-2601",,
TX,HARRIS,2009280017,"Single Family Homes",10/16/2020,,91878,2204,"10623 HILLSIDE CREEK DR",HOUSTON,TX,77356,"BALMORAL PARK LAKES",,CONTRACTOR,,,,,,,,,,,"LGI HOMES",,,,,"LGI HOMES","1450 LAKE ROBBINS SUITE 430",CONROE,TX,77380,"(210) 563-4648",,"(281) 210-2601",,
TX,HARRIS,2009280018,"Single Family Homes",10/16/2020,,77514,1826,"10619 HILLSIDE CREEK DR",HOUSTON,TX,77356,"BALMORAL PARK LAKES",,CONTRACTOR,,,,,,,,,,,"LGI HOMES",,,,,"LGI HOMES","1450 LAKE ROBBINS SUITE 430",CONROE,TX,77380,"(210) 563-4648",,"(281) 210-2601",,
TX,HARRIS,2009280019,"Single Family Homes",10/16/2020,,83046,2147,"10615 HILLSIDE CREEK DR",HOUSTON,TX,77356,"BALMORAL PARK LAKES",,CONTRACTOR,,,,,,,,,,,"LGI HOMES",,,,,"LGI HOMES","1450 LAKE ROBBINS SUITE 430",CONROE,TX,77380,"(210) 563-4648",,"(281) 210-2601",,
TX,HARRIS,2009280020,"Single Family Homes",10/16/2020,,91878,2204,"10611 HILLSIDE CREEK DR",HOUSTON,TX,77356,"BALMORAL PARK LAKES",,CONTRACTOR,,,,,,,,,,,"LGI HOMES",,,,,"LGI HOMES","1450 LAKE ROBBINS SUITE 430",CONROE,TX,77380,"(210) 563-4648",,"(281) 210-2601",,
TX,HARRIS,2009280021,"Single Family Homes",10/16/2020,,102496,2643,"10607 HILLSIDE CREEK DR",HOUSTON,TX,77356,"BALMORAL PARK LAKES",,CONTRACTOR,,,,,,,,,,,"LGI HOMES",,,,,"LGI HOMES","1450 LAKE ROBBINS SUITE 430",CONROE,TX,77380,"(210) 563-4648",,"(281) 210-2601",,
TX,HARRIS,2009280022,"Single Family Homes",10/16/2020,,102263,2637,"10603 HILLSIDE CREEK DR",HOUSTON,TX,77356,"BALMORAL PARK LAKES",,CONTRACTOR,,,,,,,,,,,"LGI HOMES",,,,,"LGI HOMES","1450 LAKE ROBBINS SUITE 430",CONROE,TX,77380,"(210) 563-4648",,"(281) 210-2601",,
TX,HARRIS,2009280024,"Single Family Homes",10/16/2020,,103650,3029,"15435 MEADOW BROOK PASS DR",HOUSTON,TX,77356,"BALMORAL PARK LAKES",,CONTRACTOR,,,,,,,,,,,"LGI HOMES",,,,,"LGI HOMES","1450 LAKE ROBBINS SUITE 430",CONROE,TX,77380,"(210) 563-4648",,"(281) 210-2601",,
TX,HARRIS,2009280027,"Single Family Homes",10/16/2020,,77514,1826,"15426 OAK BEND SPRINGS DR",HOUSTON,TX,77356,"BALMORAL PARK LAKES",,CONTRACTOR,,,,,,,,,,,"LGI HOMES",,,,,"LGI HOMES","1450 LAKE ROBBINS SUITE 430",CONROE,TX,77380,"(210) 563-4648",,"(281) 210-2601",,
TX,HARRIS,2009280028,"Single Family Homes",10/16/2020,,83046,2147,"15422 OAK BEND SPRINGS DR",HOUSTON,TX,77356,"BALMORAL PARK LAKES",,CONTRACTOR,,,,,,,,,,,"LGI HOMES",,,,,"LGI HOMES","1450 LAKE ROBBINS SUITE 430",CONROE,TX,77380,"(210) 563-4648",,"(281) 210-2601",,
TX,HARRIS,2009280029,"Single Family Homes",10/16/2020,,91878,2204,"15418 OAK BEND SPRINGS DR",HOUSTON,TX,77356,"BALMORAL PARK LAKES",,CONTRACTOR,,,,,,,,,,,"LGI HOMES",,,,,"LGI HOMES","1450 LAKE ROBBINS SUITE 430",CONROE,TX,77380,"(210) 563-4648",,"(281) 210-2601",,
TX,HARRIS,2009280025,"Single Family Homes",10/16/2020,,83046,2147,"15430 OAK BEND SPRINGS DR",HOUSTON,TX,77356,"BALMORAL PARK LAKES",,CONTRACTOR,,,,,,,,,,,"LGI HOMES",,,,,"LGI HOMES","1450 LAKE ROBBINS SUITE 430",CONROE,TX,77380,"(210) 563-4648",,"(281) 210-2601",,
TX,HARRIS,2010010168,"Single Family Homes",10/16/2020,,186410,3282,"12302 BEDFORD BEND DR",HOUSTON,TX,77356,BALMORAL,,CONTRACTOR,,,,,,,,,,,"K HOVNANIAN HOMES",,,,,"K HOVNANIAN HOMES","13111 NORTHWEST FWY STE 200",HOUSTON,TX,77040-6311,"(713) 460-0264",,,,
TX,HARRIS,2010010171,"Single Family Homes",10/16/2020,,116200,2056,"15318 BELLFIELD GROVE DR",HOUSTON,TX,77356,BALMORAL,,CONTRACTOR,,,,,,,,,,,"K HOVNANIAN HOMES",,,,,"K HOVNANIAN HOMES","13111 NORTHWEST FWY STE 200",HOUSTON,TX,77040-6311,"(713) 460-0264",,,,
TX,HARRIS,2009140049,"Single Family Homes",10/16/2020,,140245,2571,"16431 ELKCREEK DR",HOUSTON,TX,77356,"STONE CREEK RANCH",,CONTRACTOR,,,,,,,,,,,"SA LIBERTY HOME BUILDERS",,,,,"SA LIBERTY HOME BUILDERS","2821 JORDENS RD STE 500",HOUSTON,TX,77084-7355,"(281) 645-0225",,,,
TX,HARRIS,2009140051,"Single Family Homes",10/16/2020,,164921,3212,"32215 CASA LINDA DR",HOUSTON,TX,77356,"STONE CREEK RANCH",,CONTRACTOR,,,,,,,,,,,"SA LIBERTY HOME BUILDERS",,,,,"SA LIBERTY HOME BUILDERS","2821 JORDENS RD STE 500",HOUSTON,TX,77084-7355,"(281) 645-0225",,,,
TX,HARRIS,2009160141,"Single Family Homes",10/16/2020,,175436,2963,"31410 SANDPIPER CREEK DR",HOUSTON,TX,77356,"STONE CREEK RANCH",,CONTRACTOR,,,,,,,,,,,"SA LIBERTY HOME BUILDERS",,,,,"SA LIBERTY HOME BUILDERS","2821 JORDENS RD STE 500",HOUSTON,TX,77084-7355,"(281) 645-0225",,,,
TX,HARRIS,2009160142,"Single Family Homes",10/16/2020,,174746,3212,"31402 SANDPIPER CREEK DR",HOUSTON,TX,77356,"STONE CREEK RANCH",,CONTRACTOR,,,,,,,,,,,"SA LIBERTY HOME BUILDERS",,,,,"SA LIBERTY HOME BUILDERS","2821 JORDENS RD STE 500",HOUSTON,TX,77084-7355,"(281) 645-0225",,,,
TX,HARRIS,2009160149,"Single Family Homes",10/16/2020,,194131,3634,"31406 SANDPIPER CREEK DR",HOUSTON,TX,77356,"STONE CREEK RANCH",,CONTRACTOR,,,,,,,,,,,"SA LIBERTY HOME BUILDERS",,,,,"SA LIBERTY HOME BUILDERS","2821 JORDENS RD STE 500",HOUSTON,TX,77084-7355,"(281) 645-0225",,,,
TX,HARRIS,2010010197,"Single Family Homes",10/16/2020,,233990,2068,"17710 SUGAR MAGNOLIA LN",HOUSTON,TX,77356,"KLEIN GROVE",,CONTRACTOR,,,,,,,,,,,"HISTORY MAKER HOMES",,,,,"HISTORY MAKER HOMES","9001 AIRPORT FWY SUITE 400","NORTH RICHLAND HILLS",TX,76180-7769,"(817) 429-8008",http://www.historymaker.com/,"(817) 507-1102","JILL BARFIELD",
TX,HARRIS,2009280060,"Single Family Homes",10/16/2020,,174600,1940,"17302 TIDEWATER CYPRESS TRL",HOUSTON,TX,77356,DELLROSE,,CONTRACTOR,,,,,,,,,,,"EHT OF TEXAS LP",,,,,"EHT OF TEXAS LP","10235 LITTLE",HOUSTON,TX,77040,"(713) 557-3685",,,,
TX,HARRIS,2010020092,"Single Family Homes",10/16/2020,,254990,2947,"17715 LEMON SKY LN",HOUSTON,TX,77356,"KLEIN GROVE",,CONTRACTOR,,,,,,,,,,,"HISTORY MAKER HOMES",,,,,"HISTORY MAKER HOMES","9001 AIRPORT FWY SUITE 400","NORTH RICHLAND HILLS",TX,76180-7769,"(817) 429-8008",http://www.historymaker.com/,"(817) 507-1102","JILL BARFIELD",
TX,HARRIS,2010020095,"Single Family Homes",10/16/2020,,272990,3115,"7134 POPPYSEED TRL",HOUSTON,TX,77356,"KLEIN GROVE",,CONTRACTOR,,,,,,,,,,,"HISTORY MAKER HOMES",,,,,"HISTORY MAKER HOMES","9001 AIRPORT FWY SUITE 400","NORTH RICHLAND HILLS",TX,76180-7769,"(817) 429-8008",http://www.historymaker.com/,"(817) 507-1102","JILL BARFIELD",
TX,HARRIS,2010020098,"Single Family Homes",10/16/2020,,272990,3137,"7114 POPPYSEED TRL",HOUSTON,TX,77356,,,CONTRACTOR,,,,,,,,,,,"HISTORY MAKER HOMES",,,,,"HISTORY MAKER HOMES","9001 AIRPORT FWY SUITE 400","NORTH RICHLAND HILLS",TX,76180-7769,"(817) 429-8008",http://www.historymaker.com/,"(817) 507-1102","JILL BARFIELD",
TX,HARRIS,2010020106,"Single Family Homes",10/16/2020,,256990,3213,"7222 POPPYSEED TRL",HOUSTON,TX,77356,"KLEIN GROVE",,CONTRACTOR,,,,,,,,,,,"HISTORY MAKER HOMES",,,,,"HISTORY MAKER HOMES","9001 AIRPORT FWY SUITE 400","NORTH RICHLAND HILLS",TX,76180-7769,"(817) 429-8008",http://www.historymaker.com/,"(817) 507-1102","JILL BARFIELD",
TX,HARRIS,2010020120,"Single Family Homes",10/16/2020,,105000,2971,"111 POLAR BEAR TRL",HOUSTON,TX,77356,"KODIAK CROSSING",,CONTRACTOR,,,,,,,,,,,"DEVON STREET HOMES",,,,,"DEVON STREET HOMES","4545 POST OAK PLACE DR STE 345",HOUSTON,TX,77027-3198,"(713) 622-1009",http://www.devonstreethomes.com,"(713) 622-1094",,
TX,HARRIS,2010020100,"Single Family Homes",10/16/2020,,105400,1623,"15866 MOUNTLONG DR",HOUSTON,TX,77356,BALMORAL,,CONTRACTOR,,,,,,,,,,,"LENNAR HOMES",,,,,"LENNAR HOMES","550 GREENS PKWY",HOUSTON,TX,77067-4537,"(281) 875-1000",http://www.lennar.com/,,,
TX,HARRIS,2010020101,"Single Family Homes",10/16/2020,,105400,1623,"15890 MOUNTLONG DR",HOUSTON,TX,77356,BALMORAL,,CONTRACTOR,,,,,,,,,,,"LENNAR HOMES",,,,,"LENNAR HOMES","550 GREENS PKWY",HOUSTON,TX,77067-4537,"(281) 875-1000",http://www.lennar.com/,,,
TX,HARRIS,2010020103,"Single Family Homes",10/16/2020,,105400,1623,"11843 KNOCKDRIN DR",HOUSTON,TX,77356,BALMORAL,,CONTRACTOR,,,,,,,,,,,"LENNAR HOMES",,,,,"LENNAR HOMES","550 GREENS PKWY",HOUSTON,TX,77067-4537,"(281) 875-1000",http://www.lennar.com/,,,
TX,HARRIS,2010020107,"Single Family Homes",10/16/2020,,105400,1623,"11835 KNOCKDRIN DR",HOUSTON,TX,77356,BALMORAL,,CONTRACTOR,,,,,,,,,,,"LENNAR HOMES",,,,,"LENNAR HOMES","550 GREENS PKWY",HOUSTON,TX,77067-4537,"(281) 875-1000",http://www.lennar.com/,,,
TX,HARRIS,2010020113,"Single Family Homes",10/16/2020,,105400,1623,"11831 KNOCKDRIN DR",HOUSTON,TX,77356,BALMORAL,,CONTRACTOR,,,,,,,,,,,"LENNAR HOMES",,,,,"LENNAR HOMES","550 GREENS PKWY",HOUSTON,TX,77067-4537,"(281) 875-1000",http://www.lennar.com/,,,
TX,HARRIS,2010020116,"Single Family Homes",10/16/2020,,105400,1623,"11823 KNOCKDRIN DR",HOUSTON,TX,77356,BALMORAL,,CONTRACTOR,,,,,,,,,,,"LENNAR HOMES",,,,,"LENNAR HOMES","550 GREENS PKWY",HOUSTON,TX,77067-4537,"(281) 875-1000",http://www.lennar.com/,,,
TX,HARRIS,2008310133,"Single Family Homes",10/16/2020,,60000,,"8230 TRINITY AVE",HOUSTON,TX,77356,"NORTH HOUSTON",,"NEFALI HERNANDEZ","8230 TRINITY AVE",HOUSTON,TX,77356,,Owner,,,,,OWNER,,,,,OWNER,,,,,,,,,
TX,HARRIS,2009300029,"Single Family Homes",10/16/2020,,256500,2500,"20815 BROADSWORD DR",HOUSTON,TX,77356,"ALBURY TRAILS ESTATES",,CONTRACTOR,,,,,,,,,,,"HARRISBURG HOMES",,,,,"HARRISBURG HOMES","21615 FIREMIST WAY",CYPRESS,TX,77433-3507,"(713) 249-8196",http://www.harrisburgtx.com/,,SHAWN,info@harrisburgtx.com
TX,HARRIS,2009250019,"Single Family Homes",10/16/2020,,157300,2420,"18626 PORTHAVEN ROSE LN",HOUSTON,TX,77356,"ROSE MEADOW FARMS",,CONTRACTOR,,,,,,,,,,,"RAUSCH COLEMAN HOMES",,,,,"RAUSCH COLEMAN HOMES","9504 N IH35 STE 310","SAN ANTONIO",TX,78233,"(210) 231-0703",https://www.rauschcolemanhomes.com/,,,
TX,HARRIS,2009250087,"Single Family Homes",10/16/2020,,116155,1787,"21246 TRUMPET LILY TRL",HOUSTON,TX,77356,"ROSE MEADOW FARMS",,CONTRACTOR,,,,,,,,,,,"RAUSCH COLEMAN HOMES",,,,,"RAUSCH COLEMAN HOMES","9504 N IH35 STE 310","SAN ANTONIO",TX,78233,"(210) 231-0703",https://www.rauschcolemanhomes.com/,,,
TX,HARRIS,2009250085,"Single Family Homes",10/16/2020,,116155,1787,"21243 TRUMPET LILY TRL",HOUSTON,TX,77356,"ROSE MEADOW FARMS",,CONTRACTOR,,,,,,,,,,,"RAUSCH COLEMAN HOMES",,,,,"RAUSCH COLEMAN HOMES","9504 N IH35 STE 310","SAN ANTONIO",TX,78233,"(210) 231-0703",https://www.rauschcolemanhomes.com/,,,
TX,HARRIS,2010010110,"Single Family Homes",10/16/2020,,212000,3260,"4711 SABINE CREEK WAY",HOUSTON,TX,77356,"MEADOWS AT WESTFIELD VILLAGE",,CONTRACTOR,,,,,,,,,,,"KB HOME",,,,,"KB HOME","11314 RICHMOND AVE",HOUSTON,TX,77082-2616,"(281) 668-3800",,,,
TX,HARRIS,2010010106,"Single Family Homes",10/16/2020,,196000,3012,"4602 SABINE CREEK WAY",HOUSTON,TX,77356,"MEADOWS AT WESTFIELD VILLAGE",,CONTRACTOR,,,,,,,,,,,"KB HOME",,,,,"KB HOME","11314 RICHMOND AVE",HOUSTON,TX,77082-2616,"(281) 668-3800",,,,
TX,HARRIS,2010010104,"Single Family Homes",10/16/2020,,212000,3260,"20602 ALTA FIELDS CT",HOUSTON,TX,77356,"MEADOWS AT WESTFIELD VILLAGE",,CONTRACTOR,,,,,,,,,,,"KB HOME",,,,,"KB HOME","11314 RICHMOND AVE",HOUSTON,TX,77082-2616,"(281) 668-3800",,,,
TX,HARRIS,2008190130,"Single Family Homes",10/16/2020,,235000,3354,"21318 LEE RD RD",HOUSTON,TX,77356,AMBERWOOD,,CONTRACTOR,,,,,,,,,,,"PLEASANTVIEW HOMES",,,,,"PLEASANTVIEW HOMES","14614 WILDWOOD SPRINGS LN",HOUSTON,TX,77044,"(713) 907-8954",,,,
TX,HARRIS,2010020142,"Single Family Homes",10/16/2020,,179335,2759,"24023 SHUMARD GROVE LN",HOUSTON,TX,77356,"BECKER MEADOWS ",,CONTRACTOR,,,,,,,,,,,"LENNAR HOMES",,,,,"LENNAR HOMES","550 GREENS PKWY",HOUSTON,TX,77067-4537,"(281) 875-1000",http://www.lennar.com/,,,
TX,HARRIS,2010020152,"Single Family Homes",10/16/2020,,200395,3083,"17223 BAINHAM FOREST TRL",HOUSTON,TX,77356,DELLROSE,,CONTRACTOR,,,,,,,,,,,"LENNAR HOMES",,,,,"LENNAR HOMES","550 GREENS PKWY",HOUSTON,TX,77067-4537,"(281) 875-1000",http://www.lennar.com/,,,
TX,HARRIS,2010020178,"Single Family Homes",10/16/2020,,123240,1896,"24019 SHUMARD GROVE LN",HOUSTON,TX,77356,"BECKER MEADOWS ",,CONTRACTOR,,,,,,,,,,,"LENNAR HOMES",,,,,"LENNAR HOMES","550 GREENS PKWY",HOUSTON,TX,77067-4537,"(281) 875-1000",http://www.lennar.com/,,,
TX,HARRIS,2010020184,"Single Family Homes",10/16/2020,,157040,2416,"17227 BAINHAM FOREST TRL",HOUSTON,TX,77356,DELLROSE,,CONTRACTOR,,,,,,,,,,,"LENNAR HOMES",,,,,"LENNAR HOMES","550 GREENS PKWY",HOUSTON,TX,77067-4537,"(281) 875-1000",http://www.lennar.com/,,,
TX,HARRIS,2010050034,"Single Family Homes",10/16/2020,,119856,2397,"6315 CANTIGNY LAKE DR",HOUSTON,TX,77356,"KATY LAKES",,CONTRACTOR,,,,,,,,,,,"COLINA HOMES",,,,,"COLINA HOMES","1314 N DURHAM DR",HOUSTON,TX,77008-3734,"(281) 528-9090",http://colinahomes.com/,,,postmaster@colinahomes.com
TX,HARRIS,2010050035,"Single Family Homes",10/16/2020,,184998,2803,"6318 CANTIGNY LAKE DR",HOUSTON,TX,77356,"KATY LAKES",,CONTRACTOR,,,,,,,,,,,"COLINA HOMES",,,,,"COLINA HOMES","1314 N DURHAM DR",HOUSTON,TX,77008-3734,"(281) 528-9090",http://colinahomes.com/,,,postmaster@colinahomes.com
TX,HARRIS,2010050036,"Single Family Homes",10/16/2020,,119856,2397,"6319 CAMBRAI WOOD LN",HOUSTON,TX,77356,"KATY LAKES",,CONTRACTOR,,,,,,,,,,,"COLINA HOMES",,,,,"COLINA HOMES","1314 N DURHAM DR",HOUSTON,TX,77008-3734,"(281) 528-9090",http://colinahomes.com/,,,postmaster@colinahomes.com
TX,HARRIS,2010280108,"Single Family Homes",10/16/2020,,138000,2210,"6619 NORTHCHESTER DR",HOUSTON,TX,77356,"KATY LAKES",,CONTRACTOR,,,,,,,,,,,"GEHAN HOMES",,,,,"GEHAN HOMES","2050 W SAM HOUSTON PKWY S",HOUSTON,TX,77042-2079,"(713) 243-3545",http://www.gehanhomes.com,,,
TX,HARRIS,2010280104,"Single Family Homes",10/16/2020,,1530000,2210,"24418 SKYTRAIL DR",HOUSTON,TX,77356,"KATY LAKES",,CONTRACTOR,,,,,,,,,,,"GEHAN HOMES",,,,,"GEHAN HOMES","2050 W SAM HOUSTON PKWY S",HOUSTON,TX,77042-2079,"(713) 243-3545",http://www.gehanhomes.com,,,
TX,HARRIS,2010270136,"Single Family Homes",10/16/2020,,145000,24710,"6623 NORTHCHESTER DR",HOUSTON,TX,77356,"KATY LAKES",,CONTRACTOR,,,,,,,,,,,"GEHAN HOMES",,,,,"GEHAN HOMES","2050 W SAM HOUSTON PKWY S",HOUSTON,TX,77042-2079,"(713) 243-3545",http://www.gehanhomes.com,,,
TX,HARRIS,2010270133,"Single Family Homes",10/16/2020,,218000,4130,"6327 BELLEAU LAKE DR",HOUSTON,TX,77356,"KATY LAKES",,CONTRACTOR,,,,,,,,,,,"GEHAN HOMES",,,,,"GEHAN HOMES","2050 W SAM HOUSTON PKWY S",HOUSTON,TX,77042-2079,"(713) 243-3545",http://www.gehanhomes.com,,,
TX,HARRIS,2010270153,"Single Family Homes",10/16/2020,,121023,1885,"16819 LISBON LN",HOUSTON,TX,77356,NEWPORT,,CONTRACTOR,,,,,,,,,,,"GEHAN HOMES",,,,,"GEHAN HOMES","2050 W SAM HOUSTON PKWY S",HOUSTON,TX,77042-2079,"(713) 243-3545",http://www.gehanhomes.com,,,
TX,HARRIS,2010190095,"Single Family Homes",10/16/2020,,146921,3153,"13226 BLASS CT",HOUSTON,TX,77356,"TIDWELL LAKES",,CONTRACTOR,,,,,,,,,,,"DH HOMES",,,,,"DH HOMES","102 COUNTRY CROSING CIR",MAGNOLIA,TX,77354-3511,"(713) 570-6840",,,,
TX,HARRIS,2010300039,"Single Family Homes",10/16/2020,,239999,2097,"7130 POPPYSEED TRL",HOUSTON,TX,77356,"KLEIN GROVE",,CONTRACTOR,,,,,,,,,,,"HISTORY MAKER HOMES",,,,,"HISTORY MAKER HOMES","9001 AIRPORT FWY SUITE 400","NORTH RICHLAND HILLS",TX,76180-7769,"(817) 429-8008",http://www.historymaker.com/,"(817) 507-1102","JILL BARFIELD",
TX,HARRIS,2010280190,"Single Family Homes",10/16/2020,,157040,2416,"31434 WHITCOMBE SUMMIT WAY",HOUSTON,TX,77356,DELLROSE,,CONTRACTOR,,,,,,,,,,,"LENNAR HOMES",,,,,"LENNAR HOMES","550 GREENS PKWY",HOUSTON,TX,77067-4537,"(281) 875-1000",http://www.lennar.com/,,,
TX,HARRIS,2010280197,"Single Family Homes",10/16/2020,,137605,2117,"5813 HEDWIG HILL LN",HOUSTON,TX,77356,"KATY CROSSING",,CONTRACTOR,,,,,,,,,,,"LENNAR HOMES",,,,,"LENNAR HOMES","550 GREENS PKWY",HOUSTON,TX,77067-4537,"(281) 875-1000",http://www.lennar.com/,,,
TX,HARRIS,2010290120,"Single Family Homes",10/16/2020,,119210,1834,"18406 HILLTOP CLIMB DR",HOUSTON,TX,77356,"BECKER MEADOWS ",,CONTRACTOR,,,,,,,,,,,"LENNAR HOMES",,,,,"LENNAR HOMES","550 GREENS PKWY",HOUSTON,TX,77067-4537,"(281) 875-1000",http://www.lennar.com/,,,
TX,HARRIS,2010290121,"Single Family Homes",10/16/2020,,123240,1896,"18410 HILLTOP CLIMB DR",HOUSTON,TX,77356,"BECKER MEADOWS ",,CONTRACTOR,,,,,,,,,,,"LENNAR HOMES",,,,,"LENNAR HOMES","550 GREENS PKWY",HOUSTON,TX,77067-4537,"(281) 875-1000",http://www.lennar.com/,,,
TX,HARRIS,2010300092,"Single Family Homes",10/17/2020,,195990,2024,"12679 TAYMOUTH MANOR DR",HOUSTON,TX,77356,BALMORAL,,CONTRACTOR,,,,,,,,,,,"HISTORY MAKER HOMES",,,,,"HISTORY MAKER HOMES","9001 AIRPORT FWY SUITE 400","NORTH RICHLAND HILLS",TX,76180-7769,"(817) 429-8008",http://www.historymaker.com/,"(817) 507-1102","JILL BARFIELD",
TX,HARRIS,2010290053,"Single Family Homes",10/16/2020,,118300,1820,"23315 BRIARSTONE HARBOR TRL",HOUSTON,TX,77356,"KATY TRAILS",,CONTRACTOR,,,,,,,,,,,"RAUSCH COLEMAN HOMES",,,,,"RAUSCH COLEMAN HOMES","9504 N IH35 STE 310","SAN ANTONIO",TX,78233,"(210) 231-0703",https://www.rauschcolemanhomes.com/,,,
TX,HARRIS,2010290056,"Single Family Homes",10/16/2020,,126425,1945,"23322 BRIARSTONE HARBOR TRL",HOUSTON,TX,77356,"KATY TRAILS",,CONTRACTOR,,,,,,,,,,,"RAUSCH COLEMAN HOMES",,,,,"RAUSCH COLEMAN HOMES","9504 N IH35 STE 310","SAN ANTONIO",TX,78233,"(210) 231-0703",https://www.rauschcolemanhomes.com/,,,
TX,HARRIS,2010290058,"Single Family Homes",10/16/2020,,182975,2815,"23318 BRIARSTONE HARBOR TRL",HOUSTON,TX,77356,"KATY TRAILS",,CONTRACTOR,,,,,,,,,,,"RAUSCH COLEMAN HOMES",,,,,"RAUSCH COLEMAN HOMES","9504 N IH35 STE 310","SAN ANTONIO",TX,78233,"(210) 231-0703",https://www.rauschcolemanhomes.com/,,,
TX,HARRIS,2010290060,"Single Family Homes",10/16/2020,,141050,2170,"23319 BRIARSTONE HARBOR TRL",HOUSTON,TX,77356,"KATY TRAILS",,CONTRACTOR,,,,,,,,,,,"RAUSCH COLEMAN HOMES",,,,,"RAUSCH COLEMAN HOMES","9504 N IH35 STE 310","SAN ANTONIO",TX,78233,"(210) 231-0703",https://www.rauschcolemanhomes.com/,,,
TX,HARRIS,2010290062,"Single Family Homes",10/16/2020,,132145,2033,"23323 BRIARSTONE HARBOR TRL",HOUSTON,TX,77356,"KATY TRAILS",,CONTRACTOR,,,,,,,,,,,"RAUSCH COLEMAN HOMES",,,,,"RAUSCH COLEMAN HOMES","9504 N IH35 STE 310","SAN ANTONIO",TX,78233,"(210) 231-0703",https://www.rauschcolemanhomes.com/,,,
TX,HARRIS,2010290048,"Single Family Homes",10/16/2020,,126425,1945,"23410 BRIARSTONE HARBOR TRL",HOUSTON,TX,77356,"KATY TRAILS",,CONTRACTOR,,,,,,,,,,,"RAUSCH COLEMAN HOMES",,,,,"RAUSCH COLEMAN HOMES","9504 N IH35 STE 310","SAN ANTONIO",TX,78233,"(210) 231-0703",https://www.rauschcolemanhomes.com/,,,
TX,HARRIS,2010300098,"Single Family Homes",10/16/2020,,195990,2249,"12671 TAYMOUTH MANOR DR",HOUSTON,TX,77356,BALMORAL,,CONTRACTOR,,,,,,,,,,,"HISTORY MAKER HOMES",,,,,"HISTORY MAKER HOMES","9001 AIRPORT FWY SUITE 400","NORTH RICHLAND HILLS",TX,76180-7769,"(817) 429-8008",http://www.historymaker.com/,"(817) 507-1102","JILL BARFIELD",
TX,HARRIS,2010300103,"Single Family Homes",10/16/2020,,195990,2277,"12667 TAYMOUTH MANOR DR",HOUSTON,TX,77356,,,CONTRACTOR,,,,,,,,,,,"HISTORY MAKER HOMES",,,,,"HISTORY MAKER HOMES","9001 AIRPORT FWY SUITE 400","NORTH RICHLAND HILLS",TX,76180-7769,"(817) 429-8008",http://www.historymaker.com/,"(817) 507-1102","JILL BARFIELD",
TX,HARRIS,2010300108,"Single Family Homes",10/16/2020,,195990,2235,"12675 TAYMOUTH MANOR DR",HOUSTON,TX,77356,BALMORAL,,CONTRACTOR,,,,,,,,,,,"HISTORY MAKER HOMES",,,,,"HISTORY MAKER HOMES","9001 AIRPORT FWY SUITE 400","NORTH RICHLAND HILLS",TX,76180-7769,"(817) 429-8008",http://www.historymaker.com/,"(817) 507-1102","JILL BARFIELD",
TX,HARRIS,2010290101,"Single Family Homes",10/16/2020,,117640,2941,"19426 TROTTING GREEN TRL",HOUSTON,TX,77356,AMIRA,,CONTRACTOR,,,,,,,,,,,"BEAZER HOMES ",,,,,"BEAZER HOMES ","10235 W LITTLE YORK",HOUSTON,TX,77040,"(713) 849-2252",http://www.beazer.com/,,,
TX,HARRIS,2010290104,"Single Family Homes",10/16/2020,,118200,2955,"19202 TROTTING GREEN TRL",HOUSTON,TX,77356,,,CONTRACTOR,,,,,,,,,,,"BEAZER HOMES ",,,,,"BEAZER HOMES ","10235 W LITTLE YORK",HOUSTON,TX,77040,"(713) 849-2252",http://www.beazer.com/,,,
TX,HARRIS,2010290110,"Single Family Homes",10/16/2020,,117640,2941,"20414 LUSITANO GLEN LN",HOUSTON,TX,77356,AMIRA,,CONTRACTOR,,,,,,,,,,,"BEAZER HOMES ",,,,,"BEAZER HOMES ","10235 W LITTLE YORK",HOUSTON,TX,77040,"(713) 849-2252",http://www.beazer.com/,,,
TX,HARRIS,2010290128,"Single Family Homes",10/16/2020,,85920,2148,"6634 FIDDLEWOOD THICKET LN",HOUSTON,TX,77356,LANTANA,,CONTRACTOR,,,,,,,,,,,"BEAZER HOMES ",,,,,"BEAZER HOMES ","10235 W LITTLE YORK",HOUSTON,TX,77040,"(713) 849-2252",http://www.beazer.com/,,,
TX,HARRIS,2010290138,"Single Family Homes",10/16/2020,,106720,2668,"6735 VERBENA BLOSSOM TRL",HOUSTON,TX,77356,LANTANA,,CONTRACTOR,,,,,,,,,,,"BEAZER HOMES ",,,,,"BEAZER HOMES ","10235 W LITTLE YORK",HOUSTON,TX,77040,"(713) 849-2252",http://www.beazer.com/,,,
TX,HARRIS,2010290142,"Single Family Homes",10/16/2020,,106720,2668,"6706 VERBENA BLOSSOM TRL",HOUSTON,TX,77356,LANTANA,,CONTRACTOR,,,,,,,,,,,"BEAZER HOMES ",,,,,"BEAZER HOMES ","10235 W LITTLE YORK",HOUSTON,TX,77040,"(713) 849-2252",http://www.beazer.com/,,,
TX,HARRIS,2010290147,"Single Family Homes",10/16/2020,,82440,2061,"6523 FIDDLEWOOD THICKET LN",HOUSTON,TX,77356,,,CONTRACTOR,,,,,,,,,,,"BEAZER HOMES ",,,,,"BEAZER HOMES ","10235 W LITTLE YORK",HOUSTON,TX,77040,"(713) 849-2252",http://www.beazer.com/,,,
TX,HARRIS,2010290149,"Single Family Homes",10/16/2020,,99200,2980,"5207 SUNWAY DR",HOUSTON,TX,77356,MARISOL,,CONTRACTOR,,,,,,,,,,,"BEAZER HOMES ",,,,,"BEAZER HOMES ","10235 W LITTLE YORK",HOUSTON,TX,77040,"(713) 849-2252",http://www.beazer.com/,,,
TX,HARRIS,2010300072,"Single Family Homes",10/16/2020,,121640,3041,"15403 BACKBONE RIDGE DR",HOUSTON,TX,77356,"BRIDGELAND PARKLAND VILLAGE",,CONTRACTOR,,,,,,,,,,,"BEAZER HOMES ",,,,,"BEAZER HOMES ","10235 W LITTLE YORK",HOUSTON,TX,77040,"(713) 849-2252",http://www.beazer.com/,,,
TX,HARRIS,2010300085,"Single Family Homes",10/16/2020,,118200,2955,"20419 LUSITANO GLEN LN",HOUSTON,TX,77356,AMIRA,,CONTRACTOR,,,,,,,,,,,"BEAZER HOMES ",,,,,"BEAZER HOMES ","10235 W LITTLE YORK",HOUSTON,TX,77040,"(713) 849-2252",http://www.beazer.com/,,,
TX,HARRIS,2010300090,"Single Family Homes",10/16/2020,,89520,2238,"21518 AUTUMN SUMMIT ST",HOUSTON,TX,77356,LANTANA,,CONTRACTOR,,,,,,,,,,,"BEAZER HOMES ",,,,,"BEAZER HOMES ","10235 W LITTLE YORK",HOUSTON,TX,77040,"(713) 849-2252",http://www.beazer.com/,,,
TX,HARRIS,2010300094,"Single Family Homes",10/16/2020,,73240,1831,"5034 SUNWAY DR",HOUSTON,TX,77356,MARISOL,,CONTRACTOR,,,,,,,,,,,"BEAZER HOMES ",,,,,"BEAZER HOMES ","10235 W LITTLE YORK",HOUSTON,TX,77040,"(713) 849-2252",http://www.beazer.com/,,,
TX,HARRIS,2010300097,"Single Family Homes",10/16/2020,,87760,2194,"5023 YELLOW RAYS TRL",HOUSTON,TX,77356,MARISOL,,CONTRACTOR,,,,,,,,,,,"BEAZER HOMES ",,,,,"BEAZER HOMES ","10235 W LITTLE YORK",HOUSTON,TX,77040,"(713) 849-2252",http://www.beazer.com/,,,
TX,HARRIS,2010300104,"Single Family Homes",10/16/2020,,87760,2194,"5026 YELLOW RAYS TRL",HOUSTON,TX,77356,MARISOL,,CONTRACTOR,,,,,,,,,,,"BEAZER HOMES ",,,,,"BEAZER HOMES ","10235 W LITTLE YORK",HOUSTON,TX,77040,"(713) 849-2252",http://www.beazer.com/,,,
TX,HARRIS,2010300124,"Single Family Homes",10/16/2020,,195990,2256,"12659 TAYMOUTH MANOR DR",HOUSTON,TX,77356,BALMORAL,,CONTRACTOR,,,,,,,,,,,"HISTORY MAKER HOMES",,,,,"HISTORY MAKER HOMES","9001 AIRPORT FWY SUITE 400","NORTH RICHLAND HILLS",TX,76180-7769,"(817) 429-8008",http://www.historymaker.com/,"(817) 507-1102","JILL BARFIELD",
TX,HARRIS,2010300126,"Single Family Homes",10/16/2020,,195990,2245,"12655 TAYMOUTH MANOR DR",HOUSTON,TX,77356,BALMORAL,,CONTRACTOR,,,,,,,,,,,"HISTORY MAKER HOMES",,,,,"HISTORY MAKER HOMES","9001 AIRPORT FWY SUITE 400","NORTH RICHLAND HILLS",TX,76180-7769,"(817) 429-8008",http://www.historymaker.com/,"(817) 507-1102","JILL BARFIELD",
TX,HARRIS,2010300127,"Single Family Homes",10/16/2020,,195990,2232,"12663 TAYMOUTH MANOR DR",HOUSTON,TX,77356,BALMORAL,,CONTRACTOR,,,,,,,,,,,"HISTORY MAKER HOMES",,,,,"HISTORY MAKER HOMES","9001 AIRPORT FWY SUITE 400","NORTH RICHLAND HILLS",TX,76180-7769,"(817) 429-8008",http://www.historymaker.com/,"(817) 507-1102","JILL BARFIELD",
TX,HARRIS,2010280183,"Single Family Homes",10/16/2020,,227700,4444,"7 KALMIA BRANCH CT",HOUSTON,TX,77356,"THE WOODLANDS CREEKSIDE PARK",,CONTRACTOR,,,,,,,,,,,"TOLL BROTHERS",,,,,"TOLL BROTHERS","10110 W SAM HOUSTON PKWY N STE 350",HOUSTON,TX,77064-7508,"(281) 664-7255",,,,
TX,HARRIS,2010290025,"Single Family Homes",10/16/2020,,243000,3688,"23210 BANFIELD CREEK CT",HOUSTON,TX,77356,ELYSON,,CONTRACTOR,,,,,,,,,,,"WESTIN HOMES",,,,,"WESTIN HOMES","1 SUGAR CREEK CENTER BLVD STE 600","SUGAR LAND",TX,77478-3787,"(281) 240-1551",http://www.westin-homes.com,,,
TX,HARRIS,2010290026,"Single Family Homes",10/16/2020,,260000,3934,"16323 WHITEOAK CANYON DR",HOUSTON,TX,77356,GROVES,,CONTRACTOR,,,,,,,,,,,"WESTIN HOMES",,,,,"WESTIN HOMES","1 SUGAR CREEK CENTER BLVD STE 600","SUGAR LAND",TX,77478-3787,"(281) 240-1551",http://www.westin-homes.com,,,
TX,HARRIS,2010290042,"Single Family Homes",10/16/2020,,295650,2628,"19218 BRINDLED BAY CT",HOUSTON,TX,77356,AMIRA,,CONTRACTOR,,,,,,,,,,,"PERRY HOMES",,,,,"PERRY HOMES","9000 GULF FWY",HOUSTON,TX,77017-7018,"(713) 417-1396",,,,
TX,HARRIS,2010290046,"Single Family Homes",10/16/2020,,460125,4090,"19414 TROTTING GREEN TRL",HOUSTON,TX,77356,AMIRA,,CONTRACTOR,,,,,,,,,,,"PERRY HOMES",,,,,"PERRY HOMES","9000 GULF FWY",HOUSTON,TX,77017-7018,"(713) 417-1396",,,,
TX,HARRIS,2010270163,"Single Family Homes",10/16/2020,,101985,1569,"15826 MOUNTLONG DR",HOUSTON,TX,77356,BALMORAL,,CONTRACTOR,,,,,,,,,,,"LENNAR HOMES",,,,,"LENNAR HOMES","550 GREENS PKWY",HOUSTON,TX,77067-4537,"(281) 875-1000",http://www.lennar.com/,,,
TX,HARRIS,2010270164,"Single Family Homes",10/16/2020,,128310,1974,"15822 MOUNTLONG DR",HOUSTON,TX,77356,BALMORAL,,CONTRACTOR,,,,,,,,,,,"LENNAR HOMES",,,,,"LENNAR HOMES","550 GREENS PKWY",HOUSTON,TX,77067-4537,"(281) 875-1000",http://www.lennar.com/,,,
TX,HARRIS,2010270165,"Single Family Homes",10/16/2020,,93990,1446,"15818 MOUNTLONG DR",HOUSTON,TX,77356,BALMORAL,,CONTRACTOR,,,,,,,,,,,"LENNAR HOMES",,,,,"LENNAR HOMES","550 GREENS PKWY",HOUSTON,TX,77067-4537,"(281) 875-1000",http://www.lennar.com/,,,
TX,HARRIS,2010270167,"Single Family Homes",10/16/2020,,128310,1974,"15814 MOUNTLONG DR",HOUSTON,TX,77356,BALMORAL,,CONTRACTOR,,,,,,,,,,,"LENNAR HOMES",,,,,"LENNAR HOMES","550 GREENS PKWY",HOUSTON,TX,77067-4537,"(281) 875-1000",http://www.lennar.com/,,,
TX,HARRIS,2010290049,"Single Family Homes",10/16/2020,,417938,3715,"20606 GRAZING FOAL LN",HOUSTON,TX,77356,AMIRA,,CONTRACTOR,,,,,,,,,,,"PERRY HOMES",,,,,"PERRY HOMES","9000 GULF FWY",HOUSTON,TX,77017-7018,"(713) 417-1396",,,,
TX,HARRIS,2010290054,"Single Family Homes",10/16/2020,,377550,3356,"19215 TROTTING GREEN TRL",HOUSTON,TX,77356,AMIRA,,CONTRACTOR,,,,,,,,,,,"PERRY HOMES",,,,,"PERRY HOMES","9000 GULF FWY",HOUSTON,TX,77017-7018,"(713) 417-1396",,,,
TX,HARRIS,2010290067,"Single Family Homes",10/16/2020,,448425,3986,"20418 LUSITANO GLEN LN",HOUSTON,TX,77356,AMIRA,,CONTRACTOR,,,,,,,,,,,"PERRY HOMES",,,,,"PERRY HOMES","9000 GULF FWY",HOUSTON,TX,77017-7018,"(713) 417-1396",,,,
TX,HARRIS,2010290069,"Single Family Homes",10/16/2020,,375188,3335,"19214 TROTTING GREEN TRL",HOUSTON,TX,77356,AMIRA,,CONTRACTOR,,,,,,,,,,,"PERRY HOMES",,,,,"PERRY HOMES","9000 GULF FWY",HOUSTON,TX,77017-7018,"(713) 417-1396",,,,
TX,HARRIS,2010290073,"Single Family Homes",10/16/2020,,431888,3839,"19210 TROTTING GREEN TRL",HOUSTON,TX,77356,AMIRA,,CONTRACTOR,,,,,,,,,,,"PERRY HOMES",,,,,"PERRY HOMES","9000 GULF FWY",HOUSTON,TX,77017-7018,"(713) 417-1396",,,,
TX,HARRIS,2010290078,"Single Family Homes",10/16/2020,,380700,3384,"19211 FILLY PARK CIR",HOUSTON,TX,77356,AMIRA,,CONTRACTOR,,,,,,,,,,,"PERRY HOMES",,,,,"PERRY HOMES","9000 GULF FWY",HOUSTON,TX,77017-7018,"(713) 417-1396",,,,
TX,HARRIS,2010160001,"Single Family Homes",10/16/2020,,90000,1800,"6734 VERBENA BLOSSOM TRL",HOUSTON,TX,77356,LANTANA,,CONTRACTOR,,,,,,,,,,,"M/I HOMES",,,,,"M/I HOMES","10910 NORTH SAM HOUSTON PKWY W",HOUSTON,TX,77064,"(832) 912-1012",,,,
TX,HARRIS,2010160002,"Single Family Homes",10/16/2020,,90000,1800,"6730 VERBENA BLOSSOM TRL",HOUSTON,TX,77356,LANTANA,,CONTRACTOR,,,,,,,,,,,"M/I HOMES",,,,,"M/I HOMES","10910 NORTH SAM HOUSTON PKWY W",HOUSTON,TX,77064,"(832) 912-1012",,,,
TX,HARRIS,2010160003,"Single Family Homes",10/16/2020,,80000,1500,"6726 VERBENA BLOSSOM TRL",HOUSTON,TX,77356,,,CONTRACTOR,,,,,,,,,,,"M/I HOMES",,,,,"M/I HOMES","10910 NORTH SAM HOUSTON PKWY W",HOUSTON,TX,77064,"(832) 912-1012",,,,
TX,HARRIS,2010160004,"Single Family Homes",10/16/2020,,80000,1500,"6714 VERBENA BLOSSOM TRL",HOUSTON,TX,77356,LANTANA,,CONTRACTOR,,,,,,,,,,,"M/I HOMES",,,,,"M/I HOMES","10910 NORTH SAM HOUSTON PKWY W",HOUSTON,TX,77064,"(832) 912-1012",,,,
TX,HARRIS,2010160005,"Single Family Homes",10/16/2020,,90000,1800,"6630 FIDDLEWOOD THICKET LN",HOUSTON,TX,77356,LANTANA,,CONTRACTOR,,,,,,,,,,,"M/I HOMES",,,,,"M/I HOMES","10910 NORTH SAM HOUSTON PKWY W",HOUSTON,TX,77064,"(832) 912-1012",,,,
TX,HARRIS,2010160006,"Single Family Homes",10/16/2020,,90000,1800,"6626 FIDDLEWOOD THICKET LN",HOUSTON,TX,77356,LANTANA,,CONTRACTOR,,,,,,,,,,,"M/I HOMES",,,,,"M/I HOMES","10910 NORTH SAM HOUSTON PKWY W",HOUSTON,TX,77064,"(832) 912-1012",,,,
TX,HARRIS,2010160007,"Single Family Homes",10/16/2020,,80000,1500,"6622 FIDDLEWOOD THICKET LN",HOUSTON,TX,77356,LANTANA,,CONTRACTOR,,,,,,,,,,,"M/I HOMES",,,,,"M/I HOMES","10910 NORTH SAM HOUSTON PKWY W",HOUSTON,TX,77064,"(832) 912-1012",,,,
TX,HARRIS,2010160008,"Single Family Homes",10/16/2020,,80000,1500,"6610 FIDDLEWOOD THICKET LN",HOUSTON,TX,77356,LANTANA,,CONTRACTOR,,,,,,,,,,,"M/I HOMES",,,,,"M/I HOMES","10910 NORTH SAM HOUSTON PKWY W",HOUSTON,TX,77064,"(832) 912-1012",,,,
TX,HARRIS,2010160009,"Single Family Homes",10/16/2020,,90000,1800,"6430 FIDDLEWOOD THICKET LN",HOUSTON,TX,77356,LANTANA,,CONTRACTOR,,,,,,,,,,,"M/I HOMES",,,,,"M/I HOMES","10910 NORTH SAM HOUSTON PKWY W",HOUSTON,TX,77064,"(832) 912-1012",,,,
TX,HARRIS,2010160010,"Single Family Homes",10/16/2020,,90000,1800,"6410 FIDDLEWOOD THICKET LN",HOUSTON,TX,77356,LANTANA,,CONTRACTOR,,,,,,,,,,,"M/I HOMES",,,,,"M/I HOMES","10910 NORTH SAM HOUSTON PKWY W",HOUSTON,TX,77064,"(832) 912-1012",,,,
TX,HARRIS,2010160011,"Single Family Homes",10/16/2020,,90000,1800,"6402 FIDDLEWOOD THICKET LN",HOUSTON,TX,77356,LANTANA,,CONTRACTOR,,,,,,,,,,,"M/I HOMES",,,,,"M/I HOMES","10910 NORTH SAM HOUSTON PKWY W",HOUSTON,TX,77064,"(832) 912-1012",,,,
TX,HARRIS,2010160012,"Single Family Homes",10/16/2020,,90000,1800,"6415 FIDDLEWOOD THICKET LN",HOUSTON,TX,77356,LANTANA,,CONTRACTOR,,,,,,,,,,,"M/I HOMES",,,,,"M/I HOMES","10910 NORTH SAM HOUSTON PKWY W",HOUSTON,TX,77064,"(832) 912-1012",,,,
TX,HARRIS,2010160013,"Single Family Homes",10/16/2020,,90000,1800,"6427 FIDDLEWOOD THICKET LN",HOUSTON,TX,77356,LANTANA,,CONTRACTOR,,,,,,,,,,,"M/I HOMES",,,,,"M/I HOMES","10910 NORTH SAM HOUSTON PKWY W",HOUSTON,TX,77064,"(832) 912-1012",,,,
TX,HARRIS,2010160014,"Single Family Homes",10/16/2020,,80000,1500,"6431 FIDDLEWOOD THICKET LN",HOUSTON,TX,77356,LANTANA,,CONTRACTOR,,,,,,,,,,,"M/I HOMES",,,,,"M/I HOMES","10910 NORTH SAM HOUSTON PKWY W",HOUSTON,TX,77064,"(832) 912-1012",,,,
TX,HARRIS,2010160015,"Single Family Homes",10/16/2020,,90000,1500,"6515 FIDDLEWOOD THICKET LN",HOUSTON,TX,77356,LANTANA,,CONTRACTOR,,,,,,,,,,,"M/I HOMES",,,,,"M/I HOMES","10910 NORTH SAM HOUSTON PKWY W",HOUSTON,TX,77064,"(832) 912-1012",,,,
TX,HARRIS,2010160016,"Single Family Homes",10/16/2020,,80000,1500,"6651 FIDDLEWOOD THICKET LN",HOUSTON,TX,77356,LANTANA,,CONTRACTOR,,,,,,,,,,,"M/I HOMES",,,,,"M/I HOMES","10910 NORTH SAM HOUSTON PKWY W",HOUSTON,TX,77064,"(832) 912-1012",,,,
TX,HARRIS,2010160017,"Single Family Homes",10/16/2020,,90000,1800,"6655 FIDDLEWOOD THICKET LN",HOUSTON,TX,77356,LANTANA,,CONTRACTOR,,,,,,,,,,,"M/I HOMES",,,,,"M/I HOMES","10910 NORTH SAM HOUSTON PKWY W",HOUSTON,TX,77064,"(832) 912-1012",,,,
TX,HARRIS,2010160018,"Single Family Homes",10/16/2020,,90000,,"6803 VERBENA BLOSSOM TRL",HOUSTON,TX,77356,,,CONTRACTOR,,,,,,,,,,,"M/I HOMES",,,,,"M/I HOMES","10910 NORTH SAM HOUSTON PKWY W",HOUSTON,TX,77064,"(832) 912-1012",,,,
TX,HARRIS,2010160019,"Single Family Homes",10/16/2020,,90000,1800,"6807 VERBENA BLOSSOM TRL",HOUSTON,TX,77356,LANTANA,,CONTRACTOR,,,,,,,,,,,"M/I HOMES",,,,,"M/I HOMES","10910 NORTH SAM HOUSTON PKWY W",HOUSTON,TX,77064,"(832) 912-1012",,,,
TX,HARRIS,2010160020,"Single Family Homes",10/16/2020,,90000,1800,"6814 VERBENA BLOSSOM TRL",HOUSTON,TX,77356,LANTANA,,CONTRACTOR,,,,,,,,,,,"M/I HOMES",,,,,"M/I HOMES","10910 NORTH SAM HOUSTON PKWY W",HOUSTON,TX,77064,"(832) 912-1012",,,,
TX,HARRIS,2010200007,"Single Family Homes",10/16/2020,,90000,1800,"6531 FIDDLEWOOD THICKET LN",HOUSTON,TX,77356,LANTANA,,CONTRACTOR,,,,,,,,,,,"M/I HOMES",,,,,"M/I HOMES","10910 NORTH SAM HOUSTON PKWY W",HOUSTON,TX,77064,"(832) 912-1012",,,,
TX,HARRIS,2010090017,"Single Family Homes",10/16/2020,,140000,2800,"15122 PILANT LAKE CT",HOUSTON,TX,77356,"BRIDGELAND PARKLAND VILLAGE",,CONTRACTOR,,,,,,,,,,,"M/I HOMES",,,,,"M/I HOMES","10910 NORTH SAM HOUSTON PKWY W",HOUSTON,TX,77064,"(832) 912-1012",,,,
TX,HARRIS,2010300005,"Single Family Homes",10/16/2020,,191950,1577,"4727 PRAIRIE CHASE DR",HOUSTON,TX,77356,"RETREAT AT CHAMPIONS LANDING",,CONTRACTOR,,,,,,,,,,,"PULTE HOMES",,,,,"PULTE HOMES","16670 PARK ROW",HOUSTON,TX,77084-6866,"(281) 749-8000",,,,
TX,HARRIS,2010290178,"Single Family Homes",10/16/2020,,264165,2071,"5074 KLEIN ORCHARD DR",HOUSTON,TX,77356,TRACES,,CONTRACTOR,,,,,,,,,,,"HIGHLAND HOMES",,,,,"HIGHLAND HOMES","10930 W SAM HOUSTON PKWY N STE 100",HOUSTON,TX,77064-6331,"(281) 517-9800",,,,
TX,HARRIS,2010290180,"Single Family Homes",10/16/2020,,267890,2366,"5063 KLEIN ORCHARD DR",HOUSTON,TX,77356,TRACES,,CONTRACTOR,,,,,,,,,,,"HIGHLAND HOMES",,,,,"HIGHLAND HOMES","10930 W SAM HOUSTON PKWY N STE 100",HOUSTON,TX,77064-6331,"(281) 517-9800",,,,
TX,HARRIS,2010230052,"Single Family Homes",10/16/2020,,182773,2733,"6019 BRIARSTONE CREST DR",HOUSTON,TX,77356,ELYSON,,CONTRACTOR,,,,,,,,,,,"CHESMAR HOMES",,,,,"CHESMAR HOMES","450 GEARS RD STE 400",HOUSTON,TX,77067-4513,"(281) 598-1111",http://chesmar.com,"(281) 598-1115",,customerservice.houston@chesmar.com
TX,HARRIS,2010230054,"Single Family Homes",10/16/2020,,178792,2587,"23311 IVORY SEDGE TRL",HOUSTON,TX,77356,ELYSON,,CONTRACTOR,,,,,,,,,,,"CHESMAR HOMES",,,,,"CHESMAR HOMES","450 GEARS RD STE 400",HOUSTON,TX,77067-4513,"(281) 598-1111",http://chesmar.com,"(281) 598-1115",,customerservice.houston@chesmar.com
TX,HARRIS,2010230075,"Single Family Homes",10/16/2020,,163574,2432,"7022 HOUSE WREN CT",HOUSTON,TX,77356,ELYSON,,CONTRACTOR,,,,,,,,,,,"CHESMAR HOMES",,,,,"CHESMAR HOMES","450 GEARS RD STE 400",HOUSTON,TX,77067-4513,"(281) 598-1111",http://chesmar.com,"(281) 598-1115",,customerservice.houston@chesmar.com
TX,HARRIS,2010230077,"Single Family Homes",10/16/2020,,134383,1702,"7006 HOUSE WREN CT",HOUSTON,TX,77356,ELYSON,,CONTRACTOR,,,,,,,,,,,"CHESMAR HOMES",,,,,"CHESMAR HOMES","450 GEARS RD STE 400",HOUSTON,TX,77067-4513,"(281) 598-1111",http://chesmar.com,"(281) 598-1115",,customerservice.houston@chesmar.com
TX,HARRIS,2010230080,"Single Family Homes",10/16/2020,,154714,2247,"7035 HOUSE WREN CT",HOUSTON,TX,77356,ELYSON,,CONTRACTOR,,,,,,,,,,,"CHESMAR HOMES",,,,,"CHESMAR HOMES","450 GEARS RD STE 400",HOUSTON,TX,77067-4513,"(281) 598-1111",http://chesmar.com,"(281) 598-1115",,customerservice.houston@chesmar.com
TX,HARRIS,2010150140,"Single Family Homes",10/16/2020,,218000,3352,"25631 REIGN WAYMAN CT",HOUSTON,TX,77356,"KATY MANOR SOUTH",,CONTRACTOR,,,,,,,,,,,"KB HOME",,,,,"KB HOME","11314 RICHMOND AVE",HOUSTON,TX,77082-2616,"(281) 668-3800",,,,
TX,HARRIS,2010280151,"Single Family Homes",10/16/2020,,131000,2008,"4646 SABINE CREEK WAY",HOUSTON,TX,77356,"MEADOWS AT WESTFIELD VILLAGE",,CONTRACTOR,,,,,,,,,,,"KB HOME",,,,,"KB HOME","11314 RICHMOND AVE",HOUSTON,TX,77082-2616,"(281) 668-3800",,,,
TX,HARRIS,2010280145,"Single Family Homes",10/16/2020,,131000,2008,"4231 SHADY PALMETTO DR",HOUSTON,TX,77356,"CYPRESS CREEK LANDING",,CONTRACTOR,,,,,,,,,,,"KB HOME",,,,,"KB HOME","11314 RICHMOND AVE",HOUSTON,TX,77082-2616,"(281) 668-3800",,,,
TX,HARRIS,2010280112,"Single Family Homes",10/16/2020,,104000,1590,"12811 CROMBIE DR",HOUSTON,TX,77356,BALMORAL,,CONTRACTOR,,,,,,,,,,,"GEHAN HOMES",,,,,"GEHAN HOMES","2050 W SAM HOUSTON PKWY S",HOUSTON,TX,77042-2079,"(713) 243-3545",http://www.gehanhomes.com,,,
TX,HARRIS,2010280110,"Single Family Homes",10/16/2020,,100000,1520,"15443 CORDACH DR",HOUSTON,TX,77356,BALMORAL,,CONTRACTOR,,,,,,,,,,,"GEHAN HOMES",,,,,"GEHAN HOMES","2050 W SAM HOUSTON PKWY S",HOUSTON,TX,77042-2079,"(713) 243-3545",http://www.gehanhomes.com,,,
TX,HARRIS,2010250008,"Single Family Homes",10/16/2020,,292005,4359,"55 PERENNIAL CANYON DR",HOUSTON,TX,77356,"THE WOODLANDS CREEKSIDE PARK",,CONTRACTOR,,,,,,,,,,,"TAYLOR MORRISON OF TEXAS",,,,,"TAYLOR MORRISON OF TEXAS","5353 W SAM HOUSTON PKWY N STE 190",HOUSTON,TX,77041-5186,"(281) 598-3000",,,,
TX,HARRIS,2010210006,"Single Family Homes",10/16/2020,,285000,3600,"15918 BRIDGES FAIRWAY LN",HOUSTON,TX,77356,"FOUNTAINS OF NORTHGATE",,"EUSEBIO TORRES","15918 BRIDGES FAIRWAY LN",HOUSTON,TX,77356,,Owner,,,,,OWNER,,,,,OWNER,,,,,,,,,
TX,HARRIS,2010280035,"Single Family Homes",10/16/2020,,130000,3020,"503 SEALANDER ST",HOUSTON,TX,77356,NEWPORT,,"JOAQUIN RENDON","503 SEALANDER ST",HOUSTON,TX,77356,,Owner,,,,,OWNER,,,,,OWNER,,,,,,,,,
TX,HARRIS,2010280150,"Single Family Homes",10/16/2020,,132975,2132,"2430 ORMES FOREST LN",HOUSTON,TX,77356,BRECKENRIDGE,,CONTRACTOR,,,,,,,,,,,"DR HORTON",,,,,"DR HORTON","14100 SOUTHWEST",HOUSTON,TX,77478,"(281) 201-5559",,,,
TX,HARRIS,2010280152,"Single Family Homes",10/16/2020,,141660,2388,"2431 ORMES FOREST LN",HOUSTON,TX,77356,BRECKENRIDGE,,CONTRACTOR,,,,,,,,,,,"DR HORTON",,,,,"DR HORTON","14100 SOUTHWEST",HOUSTON,TX,77478,"(281) 201-5559",,,,
TX,HARRIS,2010280155,"Single Family Homes",10/16/2020,,141660,2348,"2427 ORMES FOREST LN",HOUSTON,TX,77356,BRECKENRIDGE,,CONTRACTOR,,,,,,,,,,,"DR HORTON",,,,,"DR HORTON","14100 SOUTHWEST",HOUSTON,TX,77478,"(281) 201-5559",,,,
TX,HARRIS,2010280158,"Single Family Homes",10/16/2020,,107460,2388,"2410 STAVERTON CIR",HOUSTON,TX,77356,"BRECKENRIDGE WEST",,CONTRACTOR,,,,,,,,,,,"DR HORTON",,,,,"DR HORTON","14100 SOUTHWEST",HOUSTON,TX,77478,"(281) 201-5559",,,,
TX,HARRIS,2010280162,"Single Family Homes",10/16/2020,,96525,2165,"2414 STAVERTON CIR",HOUSTON,TX,77356,"BRECKENRIDGE WEST",,CONTRACTOR,,,,,,,,,,,"DR HORTON",,,,,"DR HORTON","14100 SOUTHWEST",HOUSTON,TX,77478,"(281) 201-5559",,,,
TX,HARRIS,2010280166,"Single Family Homes",10/16/2020,,132975,2132,"2418 STAVERTON CIR",HOUSTON,TX,77356,BRECKENRIDGE,,CONTRACTOR,,,,,,,,,,,"DR HORTON",,,,,"DR HORTON","14100 SOUTHWEST",HOUSTON,TX,77478,"(281) 201-5559",,,,
TX,HARRIS,2010280169,"Single Family Homes",10/16/2020,,141660,2132,"2423 STAVERTON CIR",HOUSTON,TX,77356,BRECKENRIDGE,,CONTRACTOR,,,,,,,,,,,"DR HORTON",,,,,"DR HORTON","14100 SOUTHWEST",HOUSTON,TX,77478,"(281) 201-5559",,,,
TX,HARRIS,2010280171,"Single Family Homes",10/16/2020,,141660,2348,"2422 STAVERTON CIR",HOUSTON,TX,77356,BRECKENRIDGE,,CONTRACTOR,,,,,,,,,,,"DR HORTON",,,,,"DR HORTON","14100 SOUTHWEST",HOUSTON,TX,77478,"(281) 201-5559",,,,
TX,HARRIS,2010280173,"Single Family Homes",10/16/2020,,96525,2165,"2419 STAVERTON CIR",HOUSTON,TX,77356,BRECKENRIDGE,,CONTRACTOR,,,,,,,,,,,"DR HORTON",,,,,"DR HORTON","14100 SOUTHWEST",HOUSTON,TX,77478,"(281) 201-5559",,,,
TX,HARRIS,2010280174,"Single Family Homes",10/16/2020,,96525,2165,"2415 STAVERTON CIR",HOUSTON,TX,77356,BRECKENRIDGE,,CONTRACTOR,,,,,,,,,,,"DR HORTON",,,,,"DR HORTON","14100 SOUTHWEST",HOUSTON,TX,77478,"(281) 201-5559",,,,
TX,HARRIS,2010280175,"Single Family Homes",10/16/2020,,89505,1989,"2411 STAVERTON CIR",HOUSTON,TX,77356,BRECKENRIDGE,,CONTRACTOR,,,,,,,,,,,"DR HORTON",,,,,"DR HORTON","14100 SOUTHWEST",HOUSTON,TX,77478,"(281) 201-5559",,,,
TX,HARRIS,2010280177,"Single Family Homes",10/16/2020,,107460,2348,"2407 STAVERTON CIR",HOUSTON,TX,77356,BRECKENRIDGE,,CONTRACTOR,,,,,,,,,,,"DR HORTON",,,,,"DR HORTON","14100 SOUTHWEST",HOUSTON,TX,77478,"(281) 201-5559",,,,
TX,HARRIS,2010280178,"Single Family Homes",10/16/2020,,141660,2348,"2403 STAVERTON CIR",HOUSTON,TX,77356,BRECKENRIDGE,,CONTRACTOR,,,,,,,,,,,"DR HORTON",,,,,"DR HORTON","14100 SOUTHWEST",HOUSTON,TX,77478,"(281) 201-5559",,,,
TX,HARRIS,2010280180,"Single Family Homes",10/16/2020,,132975,2132,"23623 LARKSPUR VALLEY LN",HOUSTON,TX,77356,BRECKENRIDGE,,CONTRACTOR,,,,,,,,,,,"DR HORTON",,,,,"DR HORTON","14100 SOUTHWEST",HOUSTON,TX,77478,"(281) 201-5559",,,,
TX,HARRIS,2010280182,"Single Family Homes",10/16/2020,,100800,2240,"23619 LARKSPUR VALLEY LN",HOUSTON,TX,77356,BRECKENRIDGE,,CONTRACTOR,,,,,,,,,,,"DR HORTON",,,,,"DR HORTON","14100 SOUTHWEST",HOUSTON,TX,77478,"(281) 201-5559",,,,
TX,HARRIS,2010280184,"Single Family Homes",10/16/2020,,107460,2388,"23607 LARKSPUR VALLEY LN",HOUSTON,TX,77356,BRECKENRIDGE,,CONTRACTOR,,,,,,,,,,,"DR HORTON",,,,,"DR HORTON","14100 SOUTHWEST",HOUSTON,TX,77478,"(281) 201-5559",,,,
TX,HARRIS,2010280186,"Single Family Homes",10/16/2020,,132975,2132,"23603 LARKSPUR VALLEY LN",HOUSTON,TX,77356,BRECKENRIDGE,,CONTRACTOR,,,,,,,,,,,"DR HORTON",,,,,"DR HORTON","14100 SOUTHWEST",HOUSTON,TX,77478,"(281) 201-5559",,,,
TX,HARRIS,2010280200,"Single Family Homes",10/16/2020,,92400,2310,"5139 SUNWAY DR",HOUSTON,TX,77356,MARISOL,,CONTRACTOR,,,,,,,,,,,"BEAZER HOMES ",,,,,"BEAZER HOMES ","10235 W LITTLE YORK",HOUSTON,TX,77040,"(713) 849-2252",http://www.beazer.com/,,,
TX,HARRIS,2010230115,"Single Family Homes",10/16/2020,,107130,1766,"14923 HIDALGO VALLEY LN",HOUSTON,TX,77356,"DARBYDALE CROSSING",,CONTRACTOR,,,,,,,,,,,"CASTLEROCK COMMUNITIES",,,,,"CASTLEROCK COMMUNITIES","7670 WOODWAY DR STE 300",HOUSTON,TX,77063-1520,"(713) 600-7000",http://c-rock.com,"(713) 600-0000",,
TX,HARRIS,2010230116,"Single Family Homes",10/16/2020,,126555,2301,"14919 HIDALGO VALLEY LN",HOUSTON,TX,77356,"DARBYDALE CROSSING",,CONTRACTOR,,,,,,,,,,,"CASTLEROCK COMMUNITIES",,,,,"CASTLEROCK COMMUNITIES","7670 WOODWAY DR STE 300",HOUSTON,TX,77063-1520,"(713) 600-7000",http://c-rock.com,"(713) 600-0000",,
TX,HARRIS,2010230118,"Single Family Homes",10/16/2020,,108185,1967,"14915 HIDALGO VALLEY LN",HOUSTON,TX,77356,"DARBYDALE CROSSING",,CONTRACTOR,,,,,,,,,,,"CASTLEROCK COMMUNITIES",,,,,"CASTLEROCK COMMUNITIES","7670 WOODWAY DR STE 300",HOUSTON,TX,77063-1520,"(713) 600-7000",http://c-rock.com,"(713) 600-0000",,
TX,HARRIS,2010230120,"Single Family Homes",10/16/2020,,107130,1766,"14911 HIDALGO VALLEY LN",HOUSTON,TX,77356,"DARBYDALE CROSSING",,CONTRACTOR,,,,,,,,,,,"CASTLEROCK COMMUNITIES",,,,,"CASTLEROCK COMMUNITIES","7670 WOODWAY DR STE 300",HOUSTON,TX,77063-1520,"(713) 600-7000",http://c-rock.com,"(713) 600-0000",,
TX,HARRIS,2010230122,"Single Family Homes",10/16/2020,,126555,2301,"14907 HIDALGO VALLEY LN",HOUSTON,TX,77356,"DARBYDALE CROSSING",,CONTRACTOR,,,,,,,,,,,"CASTLEROCK COMMUNITIES",,,,,"CASTLEROCK COMMUNITIES","7670 WOODWAY DR STE 300",HOUSTON,TX,77063-1520,"(713) 600-7000",http://c-rock.com,"(713) 600-0000",,
TX,HARRIS,2010260041,"Single Family Homes",10/16/2020,,92400,2310,"5211 SUNWAY DR",HOUSTON,TX,77356,MARISOL,,CONTRACTOR,,,,,,,,,,,"BEAZER HOMES ",,,,,"BEAZER HOMES ","10235 W LITTLE YORK",HOUSTON,TX,77040,"(713) 849-2252",http://www.beazer.com/,,,
TX,HARRIS,2010260045,"Single Family Homes",10/16/2020,,110920,2773,"15111 RED BUCKEYE DR",HOUSTON,TX,77356,"BRIDGELAND PARKLAND VILLAGE",,CONTRACTOR,,,,,,,,,,,"BEAZER HOMES ",,,,,"BEAZER HOMES ","10235 W LITTLE YORK",HOUSTON,TX,77040,"(713) 849-2252",http://www.beazer.com/,,,
TX,HARRIS,2010150127,"Single Family Homes",10/16/2020,,390488,3471,"16727 RUELLIA FIELD RD",HOUSTON,TX,77356,GROVES,,CONTRACTOR,,,,,,,,,,,"PERRY HOMES",,,,,"PERRY HOMES","9000 GULF FWY",HOUSTON,TX,77017-7018,"(713) 417-1396",,,,
TX,HARRIS,2010150121,"Single Family Homes",10/16/2020,,377550,3356,"12215 DRUMMOND MAPLE DR",HOUSTON,TX,77356,GROVES,,CONTRACTOR,,,,,,,,,,,"PERRY HOMES",,,,,"PERRY HOMES","9000 GULF FWY",HOUSTON,TX,77017-7018,"(713) 417-1396",,,,
TX,HARRIS,2010150194,"Single Family Homes",10/16/2020,,268875,2390,"19423 FILLY CHASE CT",HOUSTON,TX,77356,AMIRA,,CONTRACTOR,,,,,,,,,,,"PERRY HOMES",,,,,"PERRY HOMES","9000 GULF FWY",HOUSTON,TX,77017-7018,"(713) 417-1396",,,,
TX,HARRIS,2010260109,"Single Family Homes",10/16/2020,,340000,3400,"23806 SONGLARK VALLEY PL",HOUSTON,TX,77356,ELYSON,,CONTRACTOR,,,,,,,,,,,"HIGHLAND HOMES",,,,,"HIGHLAND HOMES","10930 W SAM HOUSTON PKWY N STE 100",HOUSTON,TX,77064-6331,"(281) 517-9800",,,,
TX,HARRIS,2010150191,"Single Family Homes",10/16/2020,,293513,2609,"19419 FILLY CHASE CT",HOUSTON,TX,77356,AMIRA,,CONTRACTOR,,,,,,,,,,,"PERRY HOMES",,,,,"PERRY HOMES","9000 GULF FWY",HOUSTON,TX,77017-7018,"(713) 417-1396",,,,
TX,HARRIS,2010210031,"Single Family Homes",10/16/2020,,327825,2914,"19035 ANDALUSIAN GLEN DR",HOUSTON,TX,77356,AMIRA,,CONTRACTOR,,,,,,,,,,,"PERRY HOMES",,,,,"PERRY HOMES","9000 GULF FWY",HOUSTON,TX,77017-7018,"(713) 417-1396",,,,
TX,HARRIS,2010200047,"Single Family Homes",10/16/2020,,272700,2424,"19430 FILLY CHASE CT",HOUSTON,TX,77356,AMIRA,,CONTRACTOR,,,,,,,,,,,"PERRY HOMES",,,,,"PERRY HOMES","9000 GULF FWY",HOUSTON,TX,77017-7018,"(713) 417-1396",,,,
TX,HARRIS,2010290020,"Single Family Homes",10/16/2020,,182000,2805,"23615 BLACKHAW BLOSSUM LN",HOUSTON,TX,77356,ELYSON,,CONTRACTOR,,,,,,,,,,,"WESTIN HOMES",,,,,"WESTIN HOMES","1 SUGAR CREEK CENTER BLVD STE 600","SUGAR LAND",TX,77478-3787,"(281) 240-1551",http://www.westin-homes.com,,,
TX,HARRIS,2010290022,"Single Family Homes",10/16/2020,,251000,3851,"23327 BELLWICK CREST PL",HOUSTON,TX,77356,ELYSON,,CONTRACTOR,,,,,,,,,,,"WESTIN HOMES",,,,,"WESTIN HOMES","1 SUGAR CREEK CENTER BLVD STE 600","SUGAR LAND",TX,77478-3787,"(281) 240-1551",http://www.westin-homes.com,,,
TX,HARRIS,2010290024,"Single Family Homes",10/16/2020,,251000,3807,"23206 BANFIELD CREEK CT",HOUSTON,TX,77356,ELYSON,,CONTRACTOR,,,,,,,,,,,"WESTIN HOMES",,,,,"WESTIN HOMES","1 SUGAR CREEK CENTER BLVD STE 600","SUGAR LAND",TX,77478-3787,"(281) 240-1551",http://www.westin-homes.com,,,
TX,HARRIS,2010200108,"Single Family Homes",10/16/2020,,195000,3006,"25606 CAMILLA MAE CT",HOUSTON,TX,77356,"KATY MANOR SOUTH",,CONTRACTOR,,,,,,,,,,,"KB HOME",,,,,"KB HOME","11314 RICHMOND AVE",HOUSTON,TX,77082-2616,"(281) 668-3800",,,,
TX,HARRIS,2010230178,"Single Family Homes",10/16/2020,,164010,2982,"15238 READEN CRESCENT DR",HOUSTON,TX,77356,BALMORAL,,CONTRACTOR,,,,,,,,,,,"CASTLEROCK COMMUNITIES",,,,,"CASTLEROCK COMMUNITIES","7670 WOODWAY DR STE 300",HOUSTON,TX,77063-1520,"(713) 600-7000",http://c-rock.com,"(713) 600-0000",,
TX,HARRIS,2010230175,"Single Family Homes",10/16/2020,,133925,2435,"12426 ASHGROVE POINT DR",HOUSTON,TX,77356,BALMORAL,,CONTRACTOR,,,,,,,,,,,"CASTLEROCK COMMUNITIES",,,,,"CASTLEROCK COMMUNITIES","7670 WOODWAY DR STE 300",HOUSTON,TX,77063-1520,"(713) 600-7000",http://c-rock.com,"(713) 600-0000",,
TX,HARRIS,2007130074,"Single Family Homes",10/16/2020,,139000,3570,"16323 ROCKDALE LANDING DR",HOUSTON,TX,77356,"STONE CREEK RANCH",,CONTRACTOR,,,,,,,,,,,"GEHAN HOMES",,,,,"GEHAN HOMES","2050 W SAM HOUSTON PKWY S",HOUSTON,TX,77042-2079,"(713) 243-3545",http://www.gehanhomes.com,,,
TX,HARRIS,2010230070,"Single Family Homes",10/16/2020,,238870,2456,"5824 HEDWIG HILL LN",HOUSTON,TX,77356,"KATY CROSSING",,CONTRACTOR,,,,,,,,,,,"PULTE HOMES",,,,,"PULTE HOMES","16670 PARK ROW",HOUSTON,TX,77084-6866,"(281) 749-8000",,,,
TX,HARRIS,2010080112,"Single Family Homes",10/16/2020,,122310,2196,"31227 ROOS RIVER DR",HOUSTON,TX,77356,"STONE CREEK RANCH",,CONTRACTOR,,,,,,,,,,,"SA LIBERTY HOME BUILDERS",,,,,"SA LIBERTY HOME BUILDERS","2821 JORDENS RD STE 500",HOUSTON,TX,77084-7355,"(281) 645-0225",,,,
TX,HARRIS,2010190116,"Single Family Homes",10/16/2020,,122310,2196,"31506 ELKCREEK BEND DR",HOUSTON,TX,77356,"STONE CREEK RANCH",,CONTRACTOR,,,,,,,,,,,"SA LIBERTY HOME BUILDERS",,,,,"SA LIBERTY HOME BUILDERS","2821 JORDENS RD STE 500",HOUSTON,TX,77084-7355,"(281) 645-0225",,,,
TX,HARRIS,2010220069,"Single Family Homes",10/16/2020,,165034,3212,"31515 ELKCREEK BEND DR",HOUSTON,TX,77356,"STONE CREEK RANCH",,CONTRACTOR,,,,,,,,,,,"SA LIBERTY HOME BUILDERS",,,,,"SA LIBERTY HOME BUILDERS","2821 JORDENS RD STE 500",HOUSTON,TX,77084-7355,"(281) 645-0225",,,,
TX,HARRIS,2010230168,"Single Family Homes",10/16/2020,,207000,4030,"24910 GINGERBRUSH LN",HOUSTON,TX,77356,"LAKES AT CREEKSIDE",,CONTRACTOR,,,,,,,,,,,"TOLL BROTHERS",,,,,"TOLL BROTHERS","10110 W SAM HOUSTON PKWY N STE 350",HOUSTON,TX,77064-7508,"(281) 664-7255",,,,
TX,HARRIS,2010010095,"Single Family Homes",10/16/2020,,122000,1446,"8810 CROTEAU",HOUSTON,TX,77356,"MEMORIAL PARKWAY",,"JOSE MARTIN","8810 CROTEAU",HOUSTON,TX,77356,,Owner,,,,,OWNER,,,,,OWNER,,,,,,,,,
TX,HARRIS,2010160121,"Single Family Homes",10/16/2020,,140000,2986,"2203 OAKWELL LN",HOUSTON,TX,77356,WESTGREEN,,"FLORIBERTO SATIBANEZ","2203 OAKWELL LN",HOUSTON,TX,77356,,Owner,,,,,OWNER,,,,,OWNER,,,,,,,,,
TX,HARRIS,2010190134,"Single Family Homes",10/16/2020,,152245,2576,"2918 LAKECREST RIDGE DR",HOUSTON,TX,77356,"LAKECREST FOREST",,CONTRACTOR,,,,,,,,,,,"ANGLIA HOMES",,,,,"ANGLIA HOMES","17510 RED OAK DR",HOUSTON,TX,77090,"(281) 943-5288",http://www.angliahomeslp.com/,,,
TX,HARRIS,2010080016,"Single Family Homes",10/16/2020,,85920,2148,"20102 PERCHERON PARK LN",HOUSTON,TX,77356,AMIRA,,CONTRACTOR,,,,,,,,,,,"BEAZER HOMES ",,,,,"BEAZER HOMES ","10235 W LITTLE YORK",HOUSTON,TX,77040,"(713) 849-2252",http://www.beazer.com/,,,
TX,HARRIS,2010150066,"Single Family Homes",10/16/2020,,117120,2928,"4603 RED YUCCA DR",HOUSTON,TX,77356,"ASHBEL CROSSING",,CONTRACTOR,,,,,,,,,,,"BEAZER HOMES ",,,,,"BEAZER HOMES ","10235 W LITTLE YORK",HOUSTON,TX,77040,"(713) 849-2252",http://www.beazer.com/,,,
TX,HARRIS,2010050062,"Single Family Homes",10/16/2020,,82440,2061,"9123 BRAZO DR",HOUSTON,TX,77356,"ASHBEL CROSSING ",,CONTRACTOR,,,,,,,,,,,"BEAZER HOMES ",,,,,"BEAZER HOMES ","10235 W LITTLE YORK",HOUSTON,TX,77040,"(713) 849-2252",http://www.beazer.com/,,,
TX,HARRIS,2009250050,"Single Family Homes",10/16/2020,,92400,2310,"5114 SUNWAY DR",HOUSTON,TX,77356,MARISOL,,CONTRACTOR,,,,,,,,,,,"BEAZER HOMES ",,,,,"BEAZER HOMES ","10235 W LITTLE YORK",HOUSTON,TX,77040,"(713) 849-2252",http://www.beazer.com/,,,
TX,HARRIS,2010230013,"Single Family Homes",10/16/2020,,197000,3032,"12306 MACBRICE LN",HOUSTON,TX,77356,GROVES,,CONTRACTOR,,,,,,,,,,,"LENNAR HOMES",,,,,"LENNAR HOMES","550 GREENS PKWY",HOUSTON,TX,77067-4537,"(281) 875-1000",http://www.lennar.com/,,,
TX,HARRIS,2010230018,"Single Family Homes",10/16/2020,,153200,2357,"4419 FRONTIER TRL",HOUSTON,TX,77356,"ASHBEL CROSSING ",,CONTRACTOR,,,,,,,,,,,"LENNAR HOMES",,,,,"LENNAR HOMES","550 GREENS PKWY",HOUSTON,TX,77067-4537,"(281) 875-1000",http://www.lennar.com/,,,
TX,HARRIS,2010280032,"Single Family Homes",10/16/2020,,108350,1970,"17906 COSTRELL DR",HOUSTON,TX,77356,WINDROW,,CONTRACTOR,,,,,,,,,,,"CASTLEROCK COMMUNITIES",,,,,"CASTLEROCK COMMUNITIES","7670 WOODWAY DR STE 300",HOUSTON,TX,77063-1520,"(713) 600-7000",http://c-rock.com,"(713) 600-0000",,
TX,HARRIS,2010280039,"Single Family Homes",10/16/2020,,114895,2089,"17939 COSTRELL DR",HOUSTON,TX,77356,WINDROW,,CONTRACTOR,,,,,,,,,,,"CASTLEROCK COMMUNITIES",,,,,"CASTLEROCK COMMUNITIES","7670 WOODWAY DR STE 300",HOUSTON,TX,77063-1520,"(713) 600-7000",http://c-rock.com,"(713) 600-0000",,
TX,HARRIS,2010280057,"Single Family Homes",10/16/2020,,235000,2426,"6427 LAKEVIEW HAVEN DR",HOUSTON,TX,77356,KINGFIELD,,CONTRACTOR,,,,,,,,,,,"PULTE HOMES",,,,,"PULTE HOMES","16670 PARK ROW",HOUSTON,TX,77084-6866,"(281) 749-8000",,,,
TX,HARRIS,2010230087,"Single Family Homes",10/16/2020,,79000,3197,"1019 STEEL BLUE DR",HOUSTON,TX,77356,"REMINGTON CREEK RANCH",,CONTRACTOR,,,,,,,,,,,"LONG LAKE HOMES",,,,,"LONG LAKE HOMES","15915 KATY FWY STE 405",HOUSTON,TX,77094-1710,"(281) 646-1727",http://www.longlakeltd.com/,,"DAVID BIGLER",
TX,HARRIS,2010230088,"Single Family Homes",10/16/2020,,100000,4000,"19002 FLINTLOCK FOREST LN",HOUSTON,TX,77356,"VILLAGES OF CYPRESS LAKES",,CONTRACTOR,,,,,,,,,,,"LONG LAKE HOMES",,,,,"LONG LAKE HOMES","15915 KATY FWY STE 405",HOUSTON,TX,77094-1710,"(281) 646-1727",http://www.longlakeltd.com/,,"DAVID BIGLER",
TX,HARRIS,2010230093,"Single Family Homes",10/16/2020,,68000,2794,"18515 APPLETREE RIDGE RD",HOUSTON,TX,77356,"GRAND OAKS",,CONTRACTOR,,,,,,,,,,,"LONG LAKE HOMES",,,,,"LONG LAKE HOMES","15915 KATY FWY STE 405",HOUSTON,TX,77094-1710,"(281) 646-1727",http://www.longlakeltd.com/,,"DAVID BIGLER",
TX,HARRIS,2010230098,"Single Family Homes",10/16/2020,,75000,3354,"14623 SYCAMORE SIDE WAY",HOUSTON,TX,77356,"TELGE RANCH",,CONTRACTOR,,,,,,,,,,,"LONG LAKE HOMES",,,,,"LONG LAKE HOMES","15915 KATY FWY STE 405",HOUSTON,TX,77094-1710,"(281) 646-1727",http://www.longlakeltd.com/,,"DAVID BIGLER",
TX,HARRIS,2010230099,"Single Family Homes",10/15/2020,,72000,3005,"14642 LARK SKY WAY",HOUSTON,TX,77356,"TELGE RANCH",,CONTRACTOR,,,,,,,,,,,"LONG LAKE HOMES",,,,,"LONG LAKE HOMES","15915 KATY FWY STE 405",HOUSTON,TX,77094-1710,"(281) 646-1727",http://www.longlakeltd.com/,,"DAVID BIGLER",
TX,HARRIS,2010230100,"Single Family Homes",10/16/2020,,72000,3003,"14631 LARK SKY WAY",HOUSTON,TX,77356,"TELGE RANCH",,CONTRACTOR,,,,,,,,,,,"LONG LAKE HOMES",,,,,"LONG LAKE HOMES","15915 KATY FWY STE 405",HOUSTON,TX,77094-1710,"(281) 646-1727",http://www.longlakeltd.com/,,"DAVID BIGLER",
TX,HARRIS,2010230103,"Single Family Homes",10/16/2020,,75000,3243,"14614 SYCAMORE SIDE WAY",HOUSTON,TX,77356,"TELGE RANCH",,CONTRACTOR,,,,,,,,,,,"LONG LAKE HOMES",,,,,"LONG LAKE HOMES","15915 KATY FWY STE 405",HOUSTON,TX,77094-1710,"(281) 646-1727",http://www.longlakeltd.com/,,"DAVID BIGLER",
TX,HARRIS,2010230104,"Single Family Homes",10/16/2020,,96000,4187,"20506 ENRIQUE DR",HOUSTON,TX,77356,"WESTFIELD RANCH",,CONTRACTOR,,,,,,,,,,,"LONG LAKE HOMES",,,,,"LONG LAKE HOMES","15915 KATY FWY STE 405",HOUSTON,TX,77094-1710,"(281) 646-1727",http://www.longlakeltd.com/,,"DAVID BIGLER",
TX,HARRIS,2010270018,"Single Family Homes",10/16/2020,,64000,2177,"947 WILLOWICK BAY DR",HOUSTON,TX,77356,"EAGLE LANDING",,CONTRACTOR,,,,,,,,,,,"LONG LAKE HOMES",,,,,"LONG LAKE HOMES","15915 KATY FWY STE 405",HOUSTON,TX,77094-1710,"(281) 646-1727",http://www.longlakeltd.com/,,"DAVID BIGLER",
TX,HARRIS,2010270021,"Single Family Homes",10/16/2020,,59800,4072,"2763 WOLLEMI PINE TRL",HOUSTON,TX,77356,"MORTON CREEK RANCH",,CONTRACTOR,,,,,,,,,,,"LONG LAKE HOMES",,,,,"LONG LAKE HOMES","15915 KATY FWY STE 405",HOUSTON,TX,77094-1710,"(281) 646-1727",http://www.longlakeltd.com/,,"DAVID BIGLER",
TX,HARRIS,2010270023,"Single Family Homes",10/16/2020,,66000,2535,"14630 SYCAMORE SIDE WAY",HOUSTON,TX,77356,"TELGE RANCH",,CONTRACTOR,,,,,,,,,,,"LONG LAKE HOMES",,,,,"LONG LAKE HOMES","15915 KATY FWY STE 405",HOUSTON,TX,77094-1710,"(281) 646-1727",http://www.longlakeltd.com/,,"DAVID BIGLER",
TX,HARRIS,2010220061,"Single Family Homes",10/16/2020,,535500,3137,"10802 PAINTED CRESCENT CT",HOUSTON,TX,77356,"TOWNE LAKE",,CONTRACTOR,,,,,,,,,,,"CALDWELL HOMES",,,,,"CALDWELL HOMES","18127 TWILIGHT SHORES LN",CYPRESS,TX,77433-7046,"(281) 378-3364",http://caldwellhomes.com/,,,info@caldwellhomes.com
TX,HARRIS,2010280101,"Single Family Homes",10/16/2020,,369390,3182,"23115 IVORY SEDGE TRL",HOUSTON,TX,77356,ELYSON,,CONTRACTOR,,,,,,,,,,,"PULTE HOMES",,,,,"PULTE HOMES","16670 PARK ROW",HOUSTON,TX,77084-6866,"(281) 749-8000",,,,
TX,HARRIS,2010230066,"Single Family Homes",10/16/2020,,58700,2735,"3 PEACE TREE WAY",HOUSTON,TX,77356,"THE WOODLANDS CREEKSIDE PARK",,CONTRACTOR,,,,,,,,,,,"MHI MCGUYER HOMEBUILDERS",,,,,"MHI MCGUYER HOMEBUILDERS","7676 WOODWAY DR",HOUSTON,TX,77063-1526,"(713) 260-4107",,,,
TX,HARRIS,2010260028,"Single Family Homes",10/16/2020,,1216440,2595,"20215 GRAY YEARLING DR",HOUSTON,TX,77356,AMIRA,,CONTRACTOR,,,,,,,,,,,"BEAZER HOMES ",,,,,"BEAZER HOMES ","10235 W LITTLE YORK",HOUSTON,TX,77040,"(713) 849-2252",http://www.beazer.com/,,,
TX,HARRIS,2010260038,"Single Family Homes",10/16/2020,,106160,2654,"19039 ANDALUSIAN GLEN LN",HOUSTON,TX,77356,AMIRA,,CONTRACTOR,,,,,,,,,,,"BEAZER HOMES ",,,,,"BEAZER HOMES ","10235 W LITTLE YORK",HOUSTON,TX,77040,"(713) 849-2252",http://www.beazer.com/,,,
TX,HARRIS,2010260039,"Single Family Homes",10/16/2020,,118200,2955,"20307 APPALOOSA HILL DR",HOUSTON,TX,77356,AMIRA,,CONTRACTOR,,,,,,,,,,,"BEAZER HOMES ",,,,,"BEAZER HOMES ","10235 W LITTLE YORK",HOUSTON,TX,77040,"(713) 849-2252",http://www.beazer.com/,,,
TX,HARRIS,2010260044,"Single Family Homes",10/16/2020,,124160,3104,"19038 COURSER FIELD CT",HOUSTON,TX,77356,AMIRA,,CONTRACTOR,,,,,,,,,,,"BEAZER HOMES ",,,,,"BEAZER HOMES ","10235 W LITTLE YORK",HOUSTON,TX,77040,"(713) 849-2252",http://www.beazer.com/,,,
TX,GALVESTON,2020-00659,"Single Family Homes",10/1/2020,,300000,,"22523 BAY POINT DR",GALVESTON,TX,77450,,,"CABANA INVESTMENTS LLC","22523 BAY POINT DR",GALVESTON,TX,77450,,Owner,,,,,OWNER,,,,,OWNER,,,,,,,,,
TX,GALVESTON,2020-00927,"Single Family Homes",10/1/2020,,300000,,"4219 NUECES DR",GALVESTON,TX,77450,,,"JERNIGAN JAMES & LISA","4219 NUECES DR",GALVESTON,TX,77450,,Owner,,,,,OWNER,,,,,OWNER,,,,,,,,,
TX,GALVESTON,2020-00736,"Single Family Homes",10/5/2020,,250000,,"3327 AVE P 1/2",GALVESTON,TX,77450,,,CONTRACTOR,,,,,,,,,,,"CARR CONSTRUCTION SERVICES",,,,,"CARR CONSTRUCTION SERVICES","3111 BROADWAY ST",GALVESTON,TX,77550-4225,"(409) 974-4673",,,,
TX,GALVESTON,2020-00894,"Single Family Homes",10/8/2020,,903234,,"25603 SNOWY EGRET DR",GALVESTON,TX,77450,,,CONTRACTOR,,,,,,,,,,,"GALVESTON CUSTOM HOMES",,,,,"GALVESTON CUSTOM HOMES","9715 BARK RIDGE LN",HOUSTON,TX,77095-5536,"(832) 526-9134",,"(832) 526-9134","TOM TRAN",
TX,GALVESTON,2019-01196,"Single Family Homes",10/14/2020,,500000,,"4110 DEFENDER LN",GALVESTON,TX,77450,,,CONTRACTOR,,,,,,,,,,,"ISC CONSTRUCTION",,,,,"ISC CONSTRUCTION","1005 WINFIELD LN",KEMAH,TX,77565-3183,"(281) 535-2313",,,,
TX,GALVESTON,2020-00265,"Single Family Homes",10/14/2020,,215000,,"21206 SCISSOR TAIL LN",GALVESTON,TX,77450,,,CONTRACTOR,,,,,,,,,,,"BUCCANEER CONSTRUCTION",,,,,"BUCCANEER CONSTRUCTION","2207 ANDERS LN",KEMAH,TX,77565-3167,"(281) 291-7087",,,,
TX,GALVESTON,2020-00965,"Single Family Homes",10/14/2020,,400000,,"4019 SPANISH MAIN BLVD",GALVESTON,TX,77450,,,CONTRACTOR,,,,,,,,,,,"SANDCASTLE CONSTRUCTION",,,,,"SANDCASTLE CONSTRUCTION","7103 SPANISH GRANT",GALVESTON,TX,77554-7750,"(409) 457-4208",,,,ronniehansen@comcast.net
TX,GALVESTON,2020-00945,"Single Family Homes",10/15/2020,,140000,,"2203 56TH ST",GALVESTON,TX,77450,,,CONTRACTOR,,,,,,,,,,,"DSW HOMES",,,,,"DSW HOMES","12607 N",HOUSTON,TX,77034,"(832) 385-0069",http://www.dswhomes.com/,,,
TX,GALVESTON,2020-00956,"Single Family Homes",10/16/2020,,50000,,"3510 87TH ST",GALVESTON,TX,77450,,,CONTRACTOR,,,,,,,,,,,"FOSTER BROTHERS CONSTRUCTION",,,,,"FOSTER BROTHERS CONSTRUCTION","4107 AVE M 1/2",GALVESTON,TX,77550,"(940) 367-6139",https://www.fosterbrothersconstruction.com/,,,fosterbrothersconstruction@gmail.com
TX,GALVESTON,2020-01012,"Single Family Homes",10/16/2020,,650000,,"11390 BEACHSIDE DR",GALVESTON,TX,77450,,,CONTRACTOR,,,,,,,,,,,"KAHALA DEVELOPMENT",,,,,"KAHALA DEVELOPMENT","11727 TERMINI SAN LUIS PASS RD",GALVESTON,TX,77554-6293,"(409) 737-2200",,,,
TX,GALVESTON,2020-00912,"Single Family Homes",10/19/2020,,184000,,"2906 AVE M 1/2",GALVESTON,TX,77450,,,CONTRACTOR,,,,,,,,,,,"TEGRITY HOMES",,,,,"TEGRITY HOMES","19422 HIGHWAY 6 STE B",MANVEL,TX,77578-3755,"(281) 224-9160",,,,
TX,GALVESTON,2020-00972,"Single Family Homes",10/19/2020,,380000,,"3731 ANTASCOSA KEY DR",GALVESTON,TX,77450,,,CONTRACTOR,,,,,,,,,,,"CAM BUILDERS",,,,,"CAM BUILDERS","12502 EXCHANGE DR",STAFFORD,TX,77477-3608,"(281) 240-3573",http://www.cambuilders.com,"(281) 240-3580",,jennaf@cambuilders.com
TX,GALVESTON,2020-00916,"Single Family Homes",10/20/2020,,866167,,"26118 BAY BREEZE DR",GALVESTON,TX,77450,,,CONTRACTOR,,,,,,,,,,,"GALVESTON CUSTOM HOMES",,,,,"GALVESTON CUSTOM HOMES","9715 BARK RIDGE LN",HOUSTON,TX,77095-5536,"(832) 526-9134",,"(832) 526-9134","TOM TRAN",
TX,GALVESTON,2020-01004,"Single Family Homes",10/20/2020,,380000,,"22918 CUADRO ST",GALVESTON,TX,77450,,,CONTRACTOR,,,,,,,,,,,"DEL CAMPO CUSTOMS",,,,,"DEL CAMPO CUSTOMS","2601 S BROADWAY #38","LA PORTE",TX,77571,"(281) 797-0645",,,,
TX,GALVESTON,2020-01024,"Single Family Homes",10/22/2020,,390000,,"18903 SHAMAN DR",GALVESTON,TX,77450,,,CONTRACTOR,,,,,,,,,,,"SANDCASTLE CONSTRUCTION",,,,,"SANDCASTLE CONSTRUCTION","7103 SPANISH GRANT",GALVESTON,TX,77554-7750,"(409) 457-4208",,,,ronniehansen@comcast.net
TX,GALVESTON,2020-01005,"Single Family Homes",10/26/2020,,300000,,"22118 GUADALUPE DR",GALVESTON,TX,77450,,,CONTRACTOR,,,,,,,,,,,"WILLIAM JAMES BUILDERS",,,,,"WILLIAM JAMES BUILDERS","2501 BLUEBONNET CT",GALVESTON,TX,77551-1809,"(409) 224-8788",,,,
TX,GALVESTON,2020-01020,"Single Family Homes",10/26/2020,,400000,,"3719 LAGUNA",GALVESTON,TX,77450,,,CONTRACTOR,,,,,,,,,,,"BAY POINT BUILDERS",,,,,"BAY POINT BUILDERS","4807 PINE HEATHER CT",HOUSTON,TX,77059-3296,"(832) 731-5311",,,"CHRISTOPHER WEBB",
TX,GALVESTON,2020-01040,"Single Family Homes",10/26/2020,,250000,,"3926 FORT BEND",GALVESTON,TX,77450,,,CONTRACTOR,,,,,,,,,,,"BEACH TO BAY CONSTRUCTION",,,,,"BEACH TO BAY CONSTRUCTION","2501 GULF DR N APT 103","BRADENTON BEACH",FL,34217-2272,"(941) 778-8660",,,"SEAN CORETTA",
TX,GALVESTON,2020-00993,"Single Family Homes",10/28/2020,,275000,,"22408 BAY VISTA",GALVESTON,TX,77450,,,CONTRACTOR,,,,,,,,,,,"CONTENDER CONSTRUCTION & ROOFING GROUP",,,,,"CONTENDER CONSTRUCTION & ROOFING GROUP","PO BOX 420448",HOUSTON,TX,77242-0448,"(713) 632-4144",http://contenderconstruction.com/,,STEPHEN,contactus@contenderconstruction.com
TX,GALVESTON,2020-01054,"Single Family Homes",10/28/2020,,240000,,"3806 MENDOCINO DR",GALVESTON,TX,77450,,,"FOLLIS JAMES MARK","3806 MENDOCINO DR",GALVESTON,TX,77450,,Owner,,,,,OWNER,,,,,OWNER,,,,,,,,,
TX,GALVESTON,2020-00971,"Single Family Homes",10/29/2020,,60000,,"2401 33RD ST",GALVESTON,TX,77450,,,"LTL FAMILY HOLDINGS LLC","2401 33RD ST",GALVESTON,TX,77450,,Owner,,,,,OWNER,,,,,OWNER,,,,,,,,,
TX,HARRIS,20080016,"Single Family Homes",10/6/2020,,217630,,"7823 LEIGHTON TRL",PASADENA,TX,77505,,,CONTRACTOR,,,,,,,,,,,"K HOVNANIAN HOMES",,,,,"K HOVNANIAN HOMES","13111 NORTHWEST FWY STE 200",HOUSTON,TX,77040-6311,"(713) 460-0264",,,,
TX,HARRIS,20080613,"Single Family Homes",10/6/2020,,179480,,"7807 ST CLAIR DR",PASADENA,TX,77505,,,CONTRACTOR,,,,,,,,,,,"K HOVNANIAN HOMES",,,,,"K HOVNANIAN HOMES","13111 NORTHWEST FWY STE 200",HOUSTON,TX,77040-6311,"(713) 460-0264",,,,
TX,HARRIS,20080614,"Single Family Homes",10/6/2020,,187180,,"7810 BELLWICK CT",PASADENA,TX,77505,,,CONTRACTOR,,,,,,,,,,,"K HOVNANIAN HOMES",,,,,"K HOVNANIAN HOMES","13111 NORTHWEST FWY STE 200",HOUSTON,TX,77040-6311,"(713) 460-0264",,,,
TX,HARRIS,20080615,"Single Family Homes",10/6/2020,,143080,,"5807 WESTRICK LN",PASADENA,TX,77505,,,CONTRACTOR,,,,,,,,,,,"K HOVNANIAN HOMES",,,,,"K HOVNANIAN HOMES","13111 NORTHWEST FWY STE 200",HOUSTON,TX,77040-6311,"(713) 460-0264",,,,
TX,HARRIS,20080616,"Single Family Homes",10/6/2020,,190120,,"5414 OAKHURST TRL",PASADENA,TX,77505,,,CONTRACTOR,,,,,,,,,,,"K HOVNANIAN HOMES",,,,,"K HOVNANIAN HOMES","13111 NORTHWEST FWY STE 200",HOUSTON,TX,77040-6311,"(713) 460-0264",,,,
TX,HARRIS,20080617,"Single Family Homes",10/6/2020,,179480,,"5722 ASHLAND LN",PASADENA,TX,77505,,,CONTRACTOR,,,,,,,,,,,"K HOVNANIAN HOMES",,,,,"K HOVNANIAN HOMES","13111 NORTHWEST FWY STE 200",HOUSTON,TX,77040-6311,"(713) 460-0264",,,,
TX,HARRIS,20080665,"Single Family Homes",10/6/2020,,196770,,"5510 HIGHLAND DR",PASADENA,TX,77505,,,CONTRACTOR,,,,,,,,,,,"K HOVNANIAN HOMES",,,,,"K HOVNANIAN HOMES","13111 NORTHWEST FWY STE 200",HOUSTON,TX,77040-6311,"(713) 460-0264",,,,
TX,HARRIS,20080667,"Single Family Homes",10/6/2020,,214990,,"5511 WYNDHAM SUMMIT WAY",PASADENA,TX,77505,,,CONTRACTOR,,,,,,,,,,,"K HOVNANIAN HOMES",,,,,"K HOVNANIAN HOMES","13111 NORTHWEST FWY STE 200",HOUSTON,TX,77040-6311,"(713) 460-0264",,,,
TX,HARRIS,20080669,"Single Family Homes",10/6/2020,,242900,,"5522 SIERRA CT",PASADENA,TX,77505,,,CONTRACTOR,,,,,,,,,,,"K HOVNANIAN HOMES",,,,,"K HOVNANIAN HOMES","13111 NORTHWEST FWY STE 200",HOUSTON,TX,77040-6311,"(713) 460-0264",,,,
TX,HARRIS,20080670,"Single Family Homes",10/6/2020,,143080,,"5719 WESTRICK LN",PASADENA,TX,77505,,,CONTRACTOR,,,,,,,,,,,"K HOVNANIAN HOMES",,,,,"K HOVNANIAN HOMES","13111 NORTHWEST FWY STE 200",HOUSTON,TX,77040-6311,"(713) 460-0264",,,,
TX,HARRIS,20080671,"Single Family Homes",10/6/2020,,190120,,"7803 ST CLAIR DR",PASADENA,TX,77505,,,CONTRACTOR,,,,,,,,,,,"K HOVNANIAN HOMES",,,,,"K HOVNANIAN HOMES","13111 NORTHWEST FWY STE 200",HOUSTON,TX,77040-6311,"(713) 460-0264",,,,
TX,HARRIS,20080672,"Single Family Homes",10/6/2020,,214990,,"7811 LEIGHTON TRL",PASADENA,TX,77505,,,CONTRACTOR,,,,,,,,,,,"K HOVNANIAN HOMES",,,,,"K HOVNANIAN HOMES","13111 NORTHWEST FWY STE 200",HOUSTON,TX,77040-6311,"(713) 460-0264",,,,
TX,HARRIS,20090049,"Single Family Homes",10/6/2020,,242900,,"5515 WYNDHAM SUMMIT WAY",PASADENA,TX,77505,,,CONTRACTOR,,,,,,,,,,,"K HOVNANIAN HOMES",,,,,"K HOVNANIAN HOMES","13111 NORTHWEST FWY STE 200",HOUSTON,TX,77040-6311,"(713) 460-0264",,,,
TX,HARRIS,20090053,"Single Family Homes",10/6/2020,,143080,,"573 L WESTRICK LN",PASADENA,TX,77505,,,CONTRACTOR,,,,,,,,,,,"K HOVNANIAN HOMES",,,,,"K HOVNANIAN HOMES","13111 NORTHWEST FWY STE 200",HOUSTON,TX,77040-6311,"(713) 460-0264",,,,
TX,HARRIS,20090477,"Single Family Homes",10/6/2020,,143080,,"5418 OAKHURST TRL",PASADENA,TX,77505,,,CONTRACTOR,,,,,,,,,,,"K HOVNANIAN HOMES",,,,,"K HOVNANIAN HOMES","13111 NORTHWEST FWY STE 200",HOUSTON,TX,77040-6311,"(713) 460-0264",,,,
TX,HARRIS,20090479,"Single Family Homes",10/6/2020,,179480,,"7814 BELLWICK CT",PASADENA,TX,77505,,,CONTRACTOR,,,,,,,,,,,"K HOVNANIAN HOMES",,,,,"K HOVNANIAN HOMES","13111 NORTHWEST FWY STE 200",HOUSTON,TX,77040-6311,"(713) 460-0264",,,,
TX,HARRIS,20090481,"Single Family Homes",10/6/2020,,179480,,"5502 OAKHURST TRL",PASADENA,TX,77505,,,CONTRACTOR,,,,,,,,,,,"K HOVNANIAN HOMES",,,,,"K HOVNANIAN HOMES","13111 NORTHWEST FWY STE 200",HOUSTON,TX,77040-6311,"(713) 460-0264",,,,
TX,HARRIS,20090582,"Single Family Homes",10/6/2020,,190120,,"5730 WESTRICK LN",PASADENA,TX,77505,,,CONTRACTOR,,,,,,,,,,,"K HOVNANIAN HOMES",,,,,"K HOVNANIAN HOMES","13111 NORTHWEST FWY STE 200",HOUSTON,TX,77040-6311,"(713) 460-0264",,,,
TX,HARRIS,20090583,"Single Family Homes",10/6/2020,,205170,,"5543 FAIRFIELD LN",PASADENA,TX,77505,,,CONTRACTOR,,,,,,,,,,,"K HOVNANIAN HOMES",,,,,"K HOVNANIAN HOMES","13111 NORTHWEST FWY STE 200",HOUSTON,TX,77040-6311,"(713) 460-0264",,,,
TX,HARRIS,20090605,"Single Family Homes",10/13/2020,,120000,,"1112 RICHARD AV",PASADENA,TX,77506,,,CONTRACTOR,,,,,,,,,,,"CHAPAS CARPENTRY",,,,,"CHAPAS CARPENTRY","3218 SUITER WAY",PASADENA,TX,77503,"(281) 898-1065",,,,
TX,HARRIS,20090712,"Single Family Homes",10/27/2020,,155570,,"5603 OAKHURST TRL",PASADENA,TX,77505,,,CONTRACTOR,,,,,,,,,,,"K HOVNANIAN HOMES",,,,,"K HOVNANIAN HOMES","13111 NORTHWEST FWY STE 200",HOUSTON,TX,77040-6311,"(713) 460-0264",,,,
TX,HARRIS,20090802,"Single Family Homes",10/27/2020,,217630,,"5515 FAIRFIELD LN",PASADENA,TX,77505,,,CONTRACTOR,,,,,,,,,,,"K HOVNANIAN HOMES",,,,,"K HOVNANIAN HOMES","13111 NORTHWEST FWY STE 200",HOUSTON,TX,77040-6311,"(713) 460-0264",,,,
TX,HARRIS,20090803,"Single Family Homes",10/27/2020,,207270,,"5511 FAIRFIELD LN",PASADENA,TX,77505,,,CONTRACTOR,,,,,,,,,,,"K HOVNANIAN HOMES",,,,,"K HOVNANIAN HOMES","13111 NORTHWEST FWY STE 200",HOUSTON,TX,77040-6311,"(713) 460-0264",,,,
TX,HARRIS,20100219,"Single Family Homes",10/27/2020,,210000,,"5619 OAKHURST TRL",PASADENA,TX,77505,,,CONTRACTOR,,,,,,,,,,,"K HOVNANIAN HOMES",,,,,"K HOVNANIAN HOMES","13111 NORTHWEST FWY STE 200",HOUSTON,TX,77040-6311,"(713) 460-0264",,,,
TX,HARRIS,20070079,"Single Family Homes",10/6/2020,,92000,,"2311 ROSEMEAD DR",PASADENA,TX,77506,,,CONTRACTOR,,,,,,,,,,,"O GUERRERO CONSTRUCTION",,,,,"O GUERRERO CONSTRUCTION","19635 RIVER BOTTOM RD",KATY,TX,77449-7315,"(281) 960-6729",,,,
TX,HARRIS,201001,"Single Family Homes",10/6/2020,,125000,,"2924 PHEASANT RUN",HUMBLE,TX,77396,,,CONTRACTOR,,,,,,,,,,,"AMERIGROUP CONSTRUCTION",,,,,"AMERIGROUP CONSTRUCTION","8611 SWEETBRUSH DR",HOUSTON,TX,77064-1625,"(281) 807-7702",,,,
TX,HARRIS,20102672,"Single Family Homes",11/20/2020,,159000,,"10934 BRAMBLING WOOD",HOUSTON,TX,77043,,,CONTRACTOR,,,,,,,,,,,"ANNE'S PERMIT",,,,,"ANNE'S PERMIT","2617C W HOLCOMBE BLVD",HOUSTON,TX,77025,"(713) 666-2025",,,,
TX,HARRIS,20102242,"Single Family Homes",11/19/2020,,160000,,"10940 BRAMBLING WOOD",HOUSTON,TX,77043,,,CONTRACTOR,,,,,,,,,,,"ANNE'S PERMIT",,,,,"ANNE'S PERMIT","2617C W HOLCOMBE BLVD",HOUSTON,TX,77025,"(713) 666-2025",,,,
TX,HARRIS,20101530,"Single Family Homes",11/19/2020,,233000,,"1407 BIONDO",HOUSTON,TX,77008,,,CONTRACTOR,,,,,,,,,,,"ANNE'S PERMIT",,,,,"ANNE'S PERMIT","2617C W HOLCOMBE BLVD",HOUSTON,TX,77025,"(713) 666-2025",,,,
TX,HARRIS,20101529,"Single Family Homes",11/17/2020,,181000,,"1410 CALLAKING",HOUSTON,TX,77008,,,CONTRACTOR,,,,,,,,,,,"ANNE'S PERMIT",,,,,"ANNE'S PERMIT","2617C W HOLCOMBE BLVD",HOUSTON,TX,77025,"(713) 666-2025",,,,
TX,HARRIS,20069687,"Single Family Homes",11/18/2020,,233000,,"106 WELLINGTON ROW",HOUSTON,TX,77024,,,CONTRACTOR,,,,,,,,,,,"ANNE'S PERMIT",,,,,"ANNE'S PERMIT","2617C W HOLCOMBE BLVD",HOUSTON,TX,77025,"(713) 666-2025",,,,
TX,HARRIS,20069688,"Single Family Homes",11/18/2020,,266000,,"108 WELLINGTON ROW",HOUSTON,TX,77024,,,CONTRACTOR,,,,,,,,,,,"ANNE'S PERMIT",,,,,"ANNE'S PERMIT","2617C W HOLCOMBE BLVD",HOUSTON,TX,77025,"(713) 666-2025",,,,
TX,HARRIS,20069689,"Single Family Homes",11/18/2020,,266000,,"110 WELLINGTON ROW",HOUSTON,TX,77024,,,CONTRACTOR,,,,,,,,,,,"ANNE'S PERMIT",,,,,"ANNE'S PERMIT","2617C W HOLCOMBE BLVD",HOUSTON,TX,77025,"(713) 666-2025",,,,
TX,HARRIS,20069690,"Single Family Homes",11/18/2020,,233000,,"112 WELLINGTON ROW",HOUSTON,TX,77024,,,CONTRACTOR,,,,,,,,,,,"ANNE'S PERMIT",,,,,"ANNE'S PERMIT","2617C W HOLCOMBE BLVD",HOUSTON,TX,77025,"(713) 666-2025",,,,
TX,HARRIS,20048053,"Single Family Homes",11/18/2020,,164435,,"6104 GLEN LEE",HOUSTON,TX,77396,,,"ANABEL BENITEZ","6104 GLEN LEE",HOUSTON,TX,77396,,Owner,,,,,OWNER,,,,,OWNER,,,,,,,,,
TX,HARRIS,20090759,"Single Family Homes",11/19/2020,,161000,,"5523 CAREY",HOUSTON,TX,77028,,,"JOSE CASTRO","5523 CAREY",HOUSTON,TX,77028,,Owner,,,,,OWNER,,,,,OWNER,,,,,,,,,
TX,HARRIS,20090990,"Single Family Homes",11/18/2020,,190000,,"6518 LETCHER",HOUSTON,TX,77028,,,"RIGOBERTO CAVAZOS","6518 LETCHER",HOUSTON,TX,77028,,Owner,,,,,"OLVERA DESIGNS",,,,,"OLVERA DESIGNS","809 OAK GLEN",HOUSTON,TX,77076,"(281) 850-8877",,,"OSVALDO OLVERA",
TX,HARRIS,20086028,"Single Family Homes",11/20/2020,,192000,,"6712 PARKER OAKS",HOUSTON,TX,77076,,,CONTRACTOR,,,,,,,,,,,"351 E PARKER DEVELOPMENT LLC",,,,,"351 E PARKER DEVELOPMENT LLC","6343 SKYLINE DR",HOUSTON,TX,77057,"(713) 472-9776",,,,
TX,HARRIS,20086022,"Single Family Homes",11/19/2020,,175000,,"6711 PARKER OAKS",HOUSTON,TX,77076,,,CONTRACTOR,,,,,,,,,,,"351 E PARKER DEVELOPMENT LLC",,,,,"351 E PARKER DEVELOPMENT LLC","6343 SKYLINE DR",HOUSTON,TX,77057,"(713) 472-9776",,,,
TX,HARRIS,20090235,"Single Family Homes",11/20/2020,,192000,,"8476 BERRY BRUSH",HOUSTON,TX,77022,,,CONTRACTOR,,,,,,,,,,,"720 BERRY DEVELOPMENT LLC",,,,,"720 BERRY DEVELOPMENT LLC","6343 SKYLINE DR",HOUSTON,TX,77057,"(713) 472-9776",,,,
TX,HARRIS,20090234,"Single Family Homes",11/20/2020,,175000,,"8475 BERRY BRUSH",HOUSTON,TX,77022,,,CONTRACTOR,,,,,,,,,,,"720 BERRY DEVELOPMENT LLC",,,,,"720 BERRY DEVELOPMENT LLC","6343 SKYLINE DR",HOUSTON,TX,77057,"(713) 472-9776",,,,
TX,HARRIS,20097185,"Single Family Homes",11/17/2020,,295000,,"843 BLACKSHIRE",HOUSTON,TX,77055,,,"KELLY BIENVENU","4265 SAN FELIPE ST",HOUSTON,TX,77027,"(713) 870-8170",Applicant,,,,,OWNER,,,,,OWNER,,,,,,,,,
TX,HARRIS,20055708,"Single Family Homes",11/18/2020,,159893,,"12810 MARCIANO",HOUSTON,TX,77048,,,CONTRACTOR,,,,,,,,,,,"COLINA HOMES",,,,,"COLINA HOMES","1314 N DURHAM DR",HOUSTON,TX,77008-3734,"(281) 528-9090",http://colinahomes.com/,,,postmaster@colinahomes.com
TX,HARRIS,20056092,"Single Family Homes",11/19/2020,,142000,,"12902 MARCIANO",HOUSTON,TX,77048,,,CONTRACTOR,,,,,,,,,,,"COLINA HOMES",,,,,"COLINA HOMES","1314 N DURHAM DR",HOUSTON,TX,77008-3734,"(281) 528-9090",http://colinahomes.com/,,,postmaster@colinahomes.com
TX,HARRIS,20066837,"Single Family Homes",11/17/2020,,166285,,"13308 MYRTLE MEADOWS",HOUSTON,TX,77048,,,CONTRACTOR,,,,,,,,,,,"COLINA HOMES",,,,,"COLINA HOMES","1314 N DURHAM DR",HOUSTON,TX,77008-3734,"(281) 528-9090",http://colinahomes.com/,,,postmaster@colinahomes.com
TX,HARRIS,20062358,"Single Family Homes",11/20/2020,,166286,,"5108 ITIEL",HOUSTON,TX,77048,,,CONTRACTOR,,,,,,,,,,,"COLINA HOMES",,,,,"COLINA HOMES","1314 N DURHAM DR",HOUSTON,TX,77008-3734,"(281) 528-9090",http://colinahomes.com/,,,postmaster@colinahomes.com
TX,HARRIS,20102631,"Single Family Homes",11/20/2020,,227518,,"10731 NATHANIEL VALLEY",HOUSTON,TX,77016,,,CONTRACTOR,,,,,,,,,,,"BRIGHTON HOMES & PARKWOOD",,,,,"BRIGHTON HOMES & PARKWOOD","13111 NORTHWEST FWY",HOUSTON,TX,77040-6318,"(713) 460-6279",,,,
TX,HARRIS,20013524,"Single Family Homes",11/20/2020,,202624,,"7708 N MAIN",HOUSTON,TX,77022,,,CONTRACTOR,,,,,,,,,,,"CEA LOVELESS DESIGN BUILD ",,,,,"CEA LOVELESS DESIGN BUILD ","312 W 20TH ST",HOUSTON,TX,77008-2402,"(832) 436-7209",,,,
TX,HARRIS,20101658,"Single Family Homes",11/19/2020,,210000,,"24707 KESSING CREEK",HOUSTON,TX,77336,,,CONTRACTOR,,,,,,,,,,,"CENTURY COMMUNITIES",,,,,"CENTURY COMMUNITIES","4700 W SAM HOUSTON PKWY N STE 130",HOUSTON,TX,77041-8219,"(281) 741-8946",https://www.centurycommunities.com/,,,
TX,HARRIS,20014991,"Single Family Homes",11/19/2020,,160000,,"940 DEWALT",HOUSTON,TX,77088,,,CONTRACTOR,,,,,,,,,,,"COTTAGE LANE HOMES",,,,,"COTTAGE LANE HOMES","7887 SAN FELIPE",HOUSTON,TX,77063,"(832) 509-9071",,,,
TX,HARRIS,20014990,"Single Family Homes",11/19/2020,,179000,,"965 MARJORIE",HOUSTON,TX,77088,,,CONTRACTOR,,,,,,,,,,,"COTTAGE LANE HOMES",,,,,"COTTAGE LANE HOMES","7887 SAN FELIPE",HOUSTON,TX,77063,"(832) 509-9071",,,,
TX,HARRIS,20099326,"Single Family Homes",11/19/2020,,235990,,"12503 WALMGATE",HOUSTON,TX,77047,,,CONTRACTOR,,,,,,,,,,,"DR HORTON",,,,,"DR HORTON","14100 SOUTHWEST",HOUSTON,TX,77478,"(281) 201-5559",,,,
TX,HARRIS,20097080,"Single Family Homes",11/18/2020,,220990,,"12505 WALMGATE",HOUSTON,TX,77047,,,CONTRACTOR,,,,,,,,,,,"DR HORTON",,,,,"DR HORTON","14100 SOUTHWEST",HOUSTON,TX,77478,"(281) 201-5559",,,,
TX,HARRIS,20097076,"Single Family Homes",11/18/2020,,220990,,"12507 NEWPORT ARCH",HOUSTON,TX,77047,,,CONTRACTOR,,,,,,,,,,,"DR HORTON",,,,,"DR HORTON","14100 SOUTHWEST",HOUSTON,TX,77478,"(281) 201-5559",,,,
TX,HARRIS,20096561,"Single Family Homes",11/18/2020,,240990,,"12515 WALMGATE",HOUSTON,TX,77047,,,CONTRACTOR,,,,,,,,,,,"DR HORTON",,,,,"DR HORTON","14100 SOUTHWEST",HOUSTON,TX,77478,"(281) 201-5559",,,,
TX,HARRIS,20097082,"Single Family Homes",11/19/2020,,240990,,"12519 ABBEY HOUSE",HOUSTON,TX,77047,,,CONTRACTOR,,,,,,,,,,,"DR HORTON",,,,,"DR HORTON","14100 SOUTHWEST",HOUSTON,TX,77478,"(281) 201-5559",,,,
TX,HARRIS,20097081,"Single Family Homes",11/19/2020,,220990,,"12521 ABBEY HOUSE",HOUSTON,TX,77047,,,CONTRACTOR,,,,,,,,,,,"DR HORTON",,,,,"DR HORTON","14100 SOUTHWEST",HOUSTON,TX,77478,"(281) 201-5559",,,,
TX,HARRIS,20097560,"Single Family Homes",11/19/2020,,220990,,"12521 WALMGATE",HOUSTON,TX,77047,,,CONTRACTOR,,,,,,,,,,,"DR HORTON",,,,,"DR HORTON","14100 SOUTHWEST",HOUSTON,TX,77478,"(281) 201-5559",,,,
TX,HARRIS,20097372,"Single Family Homes",11/19/2020,,245990,,"12531 WALMGATE",HOUSTON,TX,77047,,,CONTRACTOR,,,,,,,,,,,"DR HORTON",,,,,"DR HORTON","14100 SOUTHWEST",HOUSTON,TX,77478,"(281) 201-5559",,,,
TX,HARRIS,20097374,"Single Family Homes",11/19/2020,,220990,,"12537 WALMGATE",HOUSTON,TX,77047,,,CONTRACTOR,,,,,,,,,,,"DR HORTON",,,,,"DR HORTON","14100 SOUTHWEST",HOUSTON,TX,77478,"(281) 201-5559",,,,
TX,HARRIS,20059205,"Single Family Homes",11/20/2020,,169990,,"12542 FLEET RIVER",HOUSTON,TX,77047,,,CONTRACTOR,,,,,,,,,,,"DR HORTON",,,,,"DR HORTON","14100 SOUTHWEST",HOUSTON,TX,77478,"(281) 201-5559",,,,
TX,HARRIS,20099324,"Single Family Homes",11/19/2020,,235990,,"12551 WALMGATE",HOUSTON,TX,77047,,,CONTRACTOR,,,,,,,,,,,"DR HORTON",,,,,"DR HORTON","14100 SOUTHWEST",HOUSTON,TX,77478,"(281) 201-5559",,,,
TX,HARRIS,20097371,"Single Family Homes",11/19/2020,,220990,,"12555 WALMGATE",HOUSTON,TX,77047,,,CONTRACTOR,,,,,,,,,,,"DR HORTON",,,,,"DR HORTON","14100 SOUTHWEST",HOUSTON,TX,77478,"(281) 201-5559",,,,
TX,HARRIS,20080870,"Single Family Homes",11/20/2020,,353430,,"12007 ROYAL OAKS RUN",HOUSTON,TX,77082,,,CONTRACTOR,,,,,,,,,,,"EHT OF TEXAS LP",,,,,"EHT OF TEXAS LP","10235 LITTLE",HOUSTON,TX,77040,"(713) 557-3685",,,,
TX,HARRIS,20084072,"Single Family Homes",11/19/2020,,184000,,"3715 REDBUD",HOUSTON,TX,77051,,,CONTRACTOR,,,,,,,,,,,"FLAX GOLD HORIZONS",,,,,"FLAX GOLD HORIZONS","7909 W GRAND PKWY",HOUSTON,TX,77407,"(281) 961-7616",,,"CHASITY FLAX",
TX,HARRIS,20084071,"Single Family Homes",11/19/2020,,184000,,"3717 REDBUD",HOUSTON,TX,77051,,,CONTRACTOR,,,,,,,,,,,"FLAX GOLD HORIZONS",,,,,"FLAX GOLD HORIZONS","7909 W GRAND PKWY",HOUSTON,TX,77407,"(281) 961-7616",,,"CHASITY FLAX",
TX,HARRIS,20084070,"Single Family Homes",11/19/2020,,184000,,"3719 REDBUD",HOUSTON,TX,77051,,,CONTRACTOR,,,,,,,,,,,"FLAX GOLD HORIZONS",,,,,"FLAX GOLD HORIZONS","7909 W GRAND PKWY",HOUSTON,TX,77407,"(281) 961-7616",,,"CHASITY FLAX",
TX,HARRIS,20044556,"Single Family Homes",11/17/2020,,757020,,"3810 WESTERMAN",HOUSTON,TX,77005,,,CONTRACTOR,,,,,,,,,,,"FRANKEL HOMES",,,,,"FRANKEL HOMES","7800 WASHINGTON",HOUSTON,TX,77007,"(713) 623-4646",,,,
TX,HARRIS,20059567,"Single Family Homes",11/20/2020,,150000,,"13321 BARNESWORTH",HOUSTON,TX,77049,,,CONTRACTOR,,,,,,,,,,,"ASHLEY GRAYBILL",,,,,"ASHLEY GRAYBILL","14643 DALLAS PKWY STE",HOUSTON,TX,75254,"(469) 225-7633",,,,
TX,HARRIS,20085810,"Single Family Homes",11/17/2020,,261100,,"8243 CANYON",HOUSTON,TX,77051,,,CONTRACTOR,,,,,,,,,,,"CASTLEROCK COMMUNITIES",,,,,"CASTLEROCK COMMUNITIES","7670 WOODWAY DR STE 300",HOUSTON,TX,77063-1520,"(713) 600-7000",http://c-rock.com,"(713) 600-0000",,
TX,HARRIS,20095085,"Single Family Homes",11/19/2020,,308431,,"1207 HICKORY ST",HOUSTON,TX,77007,,,CONTRACTOR,,,,,,,,,,,"INTOWN HOMES",,,,,"INTOWN HOMES","1520 OLIVER ST",HOUSTON,TX,77007,"(713) 961-3877",http://www.intown-homes.com/,,,
TX,HARRIS,20093745,"Single Family Homes",11/18/2020,,294300,,"2507 KOLBE REACH",HOUSTON,TX,77080,,,CONTRACTOR,,,,,,,,,,,"INTOWN HOMES",,,,,"INTOWN HOMES","1520 OLIVER ST",HOUSTON,TX,77007,"(713) 961-3877",http://www.intown-homes.com/,,,
TX,HARRIS,18115116,"Single Family Homes",11/20/2020,,229032,,"6009 COTTAGE GROVE LAKE ",HOUSTON,TX,77007,,,CONTRACTOR,,,,,,,,,,,"INTOWN HOMES",,,,,"INTOWN HOMES","1520 OLIVER ST",HOUSTON,TX,77007,"(713) 961-3877",http://www.intown-homes.com/,,,
TX,HARRIS,20014981,"Single Family Homes",11/19/2020,,227433,,"1211 HICKORY ST",HOUSTON,TX,77007,,,CONTRACTOR,,,,,,,,,,,"INTOWN HOMES",,,,,"INTOWN HOMES","1520 OLIVER ST",HOUSTON,TX,77007,"(713) 961-3877",http://www.intown-homes.com/,,,
TX,HARRIS,18115117,"Single Family Homes",11/20/2020,,175369,,"6011 COTTAGE GROVE LAKE",HOUSTON,TX,77007,,,CONTRACTOR,,,,,,,,,,,"INTOWN HOMES",,,,,"INTOWN HOMES","1520 OLIVER ST",HOUSTON,TX,77007,"(713) 961-3877",http://www.intown-homes.com/,,,
TX,HARRIS,18115118,"Single Family Homes",11/20/2020,,230293,,"6013 COTTAGE GROVE LAKE",HOUSTON,TX,77007,,,CONTRACTOR,,,,,,,,,,,"INTOWN HOMES",,,,,"INTOWN HOMES","1520 OLIVER ST",HOUSTON,TX,77007,"(713) 961-3877",http://www.intown-homes.com/,,,
TX,HARRIS,20094602,"Single Family Homes",11/18/2020,,258000,,"1419 MAPLE STREAM",HOUSTON,TX,77043,,,CONTRACTOR,,,,,,,,,,,"LENNAR HOMES",,,,,"LENNAR HOMES","550 GREENS PKWY",HOUSTON,TX,77067-4537,"(281) 875-1000",http://www.lennar.com/,,,
TX,HARRIS,20100520,"Single Family Homes",11/17/2020,,300000,,"3302 BELLWICK CHASE",HOUSTON,TX,77365,,,CONTRACTOR,,,,,,,,,,,"LENNAR HOMES",,,,,"LENNAR HOMES","550 GREENS PKWY",HOUSTON,TX,77067-4537,"(281) 875-1000",http://www.lennar.com/,,,
TX,HARRIS,19094989,"Single Family Homes",11/20/2020,,145092,,"4628 N MCCARTY ST BLD",HOUSTON,TX,77013,,,CONTRACTOR,,,,,,,,,,,"M & M PAWNSHOP CORP",,,,,"M & M PAWNSHOP CORP","4628 N MCCARTY",HOUSTON,TX,77013,"(713) 515-0158",,,,
TX,HARRIS,20084326,"Single Family Homes",11/19/2020,,193375,,"3405 LUCA",HOUSTON,TX,77021,,,CONTRACTOR,,,,,,,,,,,"METRO LIVING STUDIO",,,,,"METRO LIVING STUDIO","9610 LONG POINT RD STE 220",HOUSTON,TX,77055,"(832) 742-9572",,,,
TX,HARRIS,20084327,"Single Family Homes",11/19/2020,,193375,,"3407 LUCA",HOUSTON,TX,77021,,,CONTRACTOR,,,,,,,,,,,"METRO LIVING STUDIO",,,,,"METRO LIVING STUDIO","9610 LONG POINT RD STE 220",HOUSTON,TX,77055,"(832) 742-9572",,,,
TX,HARRIS,20084328,"Single Family Homes",11/19/2020,,193375,,"3409 LUCA",HOUSTON,TX,77021,,,CONTRACTOR,,,,,,,,,,,"METRO LIVING STUDIO",,,,,"METRO LIVING STUDIO","9610 LONG POINT RD STE 220",HOUSTON,TX,77055,"(832) 742-9572",,,,
TX,HARRIS,20084755,"Single Family Homes",11/19/2020,,194990,,"6713 PEERLESS",HOUSTON,TX,77021,,,CONTRACTOR,,,,,,,,,,,"METRO LIVING STUDIO",,,,,"METRO LIVING STUDIO","9610 LONG POINT RD STE 220",HOUSTON,TX,77055,"(832) 742-9572",,,,
TX,HARRIS,20084754,"Single Family Homes",11/19/2020,,194990,,"6715 PEERLESS",HOUSTON,TX,77021,,,CONTRACTOR,,,,,,,,,,,"METRO LIVING STUDIO",,,,,"METRO LIVING STUDIO","9610 LONG POINT RD STE 220",HOUSTON,TX,77055,"(832) 742-9572",,,,
TX,HARRIS,20084753,"Single Family Homes",11/19/2020,,194990,,"6717 PEERLESS",HOUSTON,TX,77021,,,CONTRACTOR,,,,,,,,,,,"METRO LIVING STUDIO",,,,,"METRO LIVING STUDIO","9610 LONG POINT RD STE 220",HOUSTON,TX,77055,"(832) 742-9572",,,,
TX,HARRIS,20085625,"Single Family Homes",11/19/2020,,200000,,"952 FISHER ST",HOUSTON,TX,77018,,,CONTRACTOR,,,,,,,,,,,"PARK HYOJUNG",,,,,"PARK HYOJUNG","27911 EMORY COVE",HOUSTON,TX,77386,"(832) 526-8191",,,,
TX,HARRIS,20085630,"Single Family Homes",11/19/2020,,200000,,"954 FISHER ST",HOUSTON,TX,77018,,,CONTRACTOR,,,,,,,,,,,"PARK HYOJUNG",,,,,"PARK HYOJUNG","27911 EMORY COVE",HOUSTON,TX,77386,"(832) 526-8191",,,,
TX,HARRIS,20028570,"Single Family Homes",11/17/2020,,165000,,"4703 INDEPENDENCE HEIGHTS",HOUSTON,TX,77018,,,CONTRACTOR,,,,,,,,,,,"PEREZ BUILDER",,,,,"PEREZ BUILDER","6807 LYONS AVE",HOUSTON,TX,77020,"(281) 932-3205",https://perezbuilder.com/,,"JOSE PEREZ",joe@perezbuilders.com
TX,HARRIS,20028571,"Single Family Homes",11/17/2020,,165000,,"4704 INDEPENDENCE HEIGHTS ",HOUSTON,TX,77018,,,CONTRACTOR,,,,,,,,,,,"PEREZ BUILDER",,,,,"PEREZ BUILDER","6807 LYONS AVE",HOUSTON,TX,77020,"(281) 932-3205",https://perezbuilder.com/,,"JOSE PEREZ",joe@perezbuilders.com
TX,HARRIS,20028572,"Single Family Homes",11/17/2020,,165000,,"4705 INDEPENDENCE HEIGHTS",HOUSTON,TX,77018,,,CONTRACTOR,,,,,,,,,,,"PEREZ BUILDER",,,,,"PEREZ BUILDER","6807 LYONS AVE",HOUSTON,TX,77020,"(281) 932-3205",https://perezbuilder.com/,,"JOSE PEREZ",joe@perezbuilders.com
TX,HARRIS,20028573,"Single Family Homes",11/17/2020,,165000,,"4706 INDEPENDENCE HEIGHTS",HOUSTON,TX,77018,,,CONTRACTOR,,,,,,,,,,,"PEREZ BUILDER",,,,,"PEREZ BUILDER","6807 LYONS AVE",HOUSTON,TX,77020,"(281) 932-3205",https://perezbuilder.com/,,"JOSE PEREZ",joe@perezbuilders.com
TX,HARRIS,20035661,"Single Family Homes",11/19/2020,,181000,,"1104 BROOKS",HOUSTON,TX,77009,,,CONTRACTOR,,,,,,,,,,,"D & Q DESIGN",,,,,"D & Q DESIGN","16018 AUTUMN FALLS LN",HOUSTON,TX,77095,"(281) 818-5609",,,"ACACIO REYNA",
TX,HARRIS,20035662,"Single Family Homes",11/19/2020,,181000,,"1106 BROOKS",HOUSTON,TX,77009,,,CONTRACTOR,,,,,,,,,,,"D & Q DESIGN",,,,,"D & Q DESIGN","9597 JONES RD",HOUSTON,TX,77065-4815,"(281) 818-5609",,,"BUCKWALTER JACOB",
TX,HARRIS,20035663,"Single Family Homes",11/19/2020,,181000,,"1108 BROOKS",HOUSTON,TX,77009,,,CONTRACTOR,,,,,,,,,,,"D & Q DESIGN",,,,,"D & Q DESIGN","16018 AUTUMN FALLS LN",HOUSTON,TX,77095,"(281) 818-5609",,,"ACACIO REYNA",
TX,HARRIS,20035660,"Single Family Homes",11/19/2020,,185360,,"1512 FULTON",HOUSTON,TX,77009,,,CONTRACTOR,,,,,,,,,,,"D & Q DESIGN",,,,,"D & Q DESIGN","16018 AUTUMN FALLS LN",HOUSTON,TX,77095,"(281) 818-5609",,,"ACACIO REYNA",
TX,HARRIS,20035659,"Single Family Homes",11/19/2020,,185360,,"1514 FULTON",HOUSTON,TX,77009,,,CONTRACTOR,,,,,,,,,,,"D & Q DESIGN",,,,,"D & Q DESIGN","16018 AUTUMN FALLS LN",HOUSTON,TX,77095,"(281) 818-5609",,,"ACACIO REYNA",
TX,HARRIS,20035658,"Single Family Homes",11/19/2020,,185360,,"1516 FULTON",HOUSTON,TX,77009,,,CONTRACTOR,,,,,,,,,,,"D & Q DESIGN",,,,,"D & Q DESIGN","16018 AUTUMN FALLS LN",HOUSTON,TX,77095,"(281) 818-5609",,,"ACACIO REYNA",
TX,HARRIS,20035657,"Single Family Homes",11/19/2020,,185360,,"1522 FULTON",HOUSTON,TX,77009,,,CONTRACTOR,,,,,,,,,,,"D & Q DESIGN",,,,,"D & Q DESIGN","16018 AUTUMN FALLS LN",HOUSTON,TX,77095,"(281) 818-5609",,,"ACACIO REYNA",
TX,HARRIS,20089994,"Single Family Homes",11/17/2020,,203882,,"5417 WESTBROOK",HOUSTON,TX,77016,,,CONTRACTOR,,,,,,,,,,,"TC BUILDERS",,,,,"TC BUILDERS","6067 BONESS RD",HUMBLE,TX,77396,"(832) 350-0938",,,,
TX,HARRIS,19119676,"Single Family Homes",11/19/2020,,274199,,"3309 TIMBERGROVE HEIGHTS",HOUSTON,TX,77008,,,CONTRACTOR,,,,,,,,,,,"TEXAS IN TOWNHOMES",,,,,"TEXAS IN TOWNHOMES","1520 OLIVER",HOUSTON,TX,77007,"(713) 967-3877",,,,
TX,HARRIS,19119295,"Single Family Homes",11/19/2020,,204640,,"3315 TIMBERGROVE HEIGHTS",HOUSTON,TX,77008,,,CONTRACTOR,,,,,,,,,,,"TEXAS IN TOWNHOMES",,,,,"TEXAS IN TOWNHOMES","1520 OLIVER",HOUSTON,TX,77007,"(713) 967-3877",,,,
TX,HARRIS,20101100,"Single Family Homes",11/18/2020,,342000,,"13221 NEWCASTLE CREEK",HOUSTON,TX,77059,,,CONTRACTOR,,,,,,,,,,,"TRENDMAKER HOMES",,,,,"TRENDMAKER HOMES","16340 PARK TEN PL STE 250",HOUSTON,TX,77084-5144,"(281) 675-3200",,"(281) 675-3251","MARTIN EVANS",
TX,HARRIS,20101097,"Single Family Homes",11/20/2020,,544000,,"13919 MULBERRY RIVER",HOUSTON,TX,77059,,,CONTRACTOR,,,,,,,,,,,"TRENDMAKER HOMES",,,,,"TRENDMAKER HOMES","16340 PARK TEN PL STE 250",HOUSTON,TX,77084-5144,"(281) 675-3200",,"(281) 675-3251","MARTIN EVANS",
TX,HARRIS,20102412,"Single Family Homes",11/19/2020,,358990,,"10320 HARMON SMITH",HOUSTON,TX,77054,,,CONTRACTOR,,,,,,,,,,,"MARIA VARGAS",,,,,"MARIA VARGAS","1311 BROADFIELD BLVD",HOUSTON,TX,77084-5186,"(281) 529-9127",,,,
TX,HARRIS,20097207,"Single Family Homes",11/20/2020,,369540,,"3104 YUKON TRACE",HOUSTON,TX,77063,,,CONTRACTOR,,,,,,,,,,,"MARIA VARGAS",,,,,"MARIA VARGAS","1311 BROADFIELD BLVD",HOUSTON,TX,77084-5186,"(281) 529-9127",,,,
TX,HARRIS,20095674,"Single Family Homes",11/19/2020,,401470,,"3404 AVONDALE VIEW",HOUSTON,TX,77054,,,CONTRACTOR,,,,,,,,,,,"MARIA VARGAS",,,,,"MARIA VARGAS","1311 BROADFIELD BLVD",HOUSTON,TX,77084-5186,"(281) 529-9127",,,,
TX,HARRIS,20073044,"Single Family Homes",11/20/2020,,191930,,"7027 PIPER RIDGE",HOUSTON,TX,77075,,,CONTRACTOR,,,,,,,,,,,"MARIA VARGAS",,,,,"MARIA VARGAS","1311 BROADFIELD BLVD",HOUSTON,TX,77084-5186,"(281) 529-9127",,,,
TX,HARRIS,20091601,"Single Family Homes",11/20/2020,,339636,,"17006 BURKE LAKE",HOUSTON,TX,77044,,,CONTRACTOR,,,,,,,,,,,"WESTIN HOMES",,,,,"WESTIN HOMES","1 SUGAR CREEK CENTER BLVD STE 600","SUGAR LAND",TX,77478-3787,"(281) 240-1551",http://www.westin-homes.com,,,
TX,HARRIS,20097737,"Single Family Homes",11/18/2020,,270000,,"10510 WOLBROOK",HOUSTON,TX,77016,,,"ELVIA DON","10510 WOLBROOK",HOUSTON,TX,77016,,Owner,,,,,OWNER,,,,,OWNER,,,,,,,,,
TX,HARRIS,20072772,"Single Family Homes",11/18/2020,,272340,,"4239 APOLLO",HOUSTON,TX,77018,,,"FRY LUCAS","4239 APOLLO",HOUSTON,TX,77018,"(832) 689-8800",Owner,,,,,OWNER,,,,,OWNER,,,,,,,,,
TX,HARRIS,20001295,"Single Family Homes",11/19/2020,,260000,,"3513 MEADWAY",HOUSTON,TX,77082,,,"CHRISTIAN LANDAVERDE","3513 MEADWAY",HOUSTON,TX,77082,,Owner,,,,,OWNER,,,,,OWNER,,,,,,,,,
TX,HARRIS,20081967,"Single Family Homes",11/18/2020,,123138,,"2407 ABERNATHY",HOUSTON,TX,77026,,,"CATHERINE PETERSON","2407 ABERNATHY",HOUSTON,TX,77026,,Owner,,,,,"SOUTHWEST HOMES",,,,,"SOUTHWEST HOMES","14504 NORTH FWY",SPRING,TX,77090-6808,"(866) 354-3400",http://www.southwesthomestexas.com,"(281) 821-1237","JEFF WYATT",jeff.wyatt@southwesthomestexas.com
TX,HARRIS,20095697,"Single Family Homes",11/19/2020,,163000,,"6819 SAINT AUGUSTINE",HOUSTON,TX,77021,,,"GERARDO RANGEL","6819 SAINT AUGUSTINE",HOUSTON,TX,77021,"(832) 993-1101",Applicant,,,,,OWNER,,,,,OWNER,,,,,,,,,
TX,HARRIS,20086248,"Single Family Homes",11/17/2020,,148000,,"7505 POINTER",HOUSTON,TX,77016,,,"DAVID SANCHEZ","7505 POINTER",HOUSTON,TX,77016,,Owner,,,,,OWNER,,,,,OWNER,,,,,,,,,
TX,HARRIS,20093828,"Single Family Homes",11/18/2020,,180000,,"6420 BRENT",HOUSTON,TX,77085,,,"MIGUEL SERMENO","6420 BRENT",HOUSTON,TX,77085,,Owner,,,,,OWNER,,,,,OWNER,,,,,,,,,
TX,HARRIS,20095997,"Single Family Homes",11/18/2020,,95000,,"6208 ALDERSON",HOUSTON,TX,77020,,,"RAFAEL VILLELA","6208 ALDERSON",HOUSTON,TX,77020,,Owner,,,,,OWNER,,,,,OWNER,,,,,,,,,
TX,HARRIS,20085259,"Single Family Homes",11/18/2020,,148560,,"10242 BRIDGELAND",HOUSTON,TX,77041,,,"REYES WILLIAM","10242 BRIDGELAND",HOUSTON,TX,77041,,Owner,,,,,OWNER,,,,,OWNER,,,,,,,,,
TX,HARRIS,20088490,"Single Family Homes",11/17/2020,,433500,,"14115 KELLYWOOD",HOUSTON,TX,77079,,,"STEVEN WORTHAM","14115 KELLYWOOD",HOUSTON,TX,77079,,Owner,,,,,"ABBCOTT CONSTRUCTION COMPANY",,,,,"ABBCOTT CONSTRUCTION COMPANY","5201 MEMORIAL DR",HOUSTON,TX,77007-8237,"(281) 467-2460",http://www.abbcott.com/,,,
TX,HARRIS,20082699,"Single Family Homes",11/17/2020,,431000,,"6026 W MONTGOMERY",HOUSTON,TX,77091,,,"ZARAGOZA GUILLEN NENCY","6026 W MONTGOMERY",HOUSTON,TX,77091,,Owner,,,,,OWNER,,,,,OWNER,,,,,,,,,
TX,HARRIS,20088419,"Single Family Homes",11/18/2020,,296622,,"406 ENID",HOUSTON,TX,77009,,,"ASHLEY ZAVALA","406 ENID",HOUSTON,TX,77009,,Owner,,,,,"JACOB BUCKWALTER",,,,,"JACOB BUCKWALTER","9597 JONES RD",HOUSTON,TX,77065-4815,"(832) 272-8423",,,,
TX,MONTGOMERY,177195-20,"Single Family Homes",10/13/2020,,180630,,"14106 ASPEN WOODS CT",HOUSTON,TX,77356,"FOSTERS RIDGE",,CONTRACTOR,,,,,,,,,,,"DR HORTON",,,,,"DR HORTON","14100 SOUTHWEST",HOUSTON,TX,77478,"(281) 201-5559",,,,
TX,MONTGOMERY,177196-20,"Single Family Homes",10/13/2020,,164925,,"14015 BEARTOOTH BEND TRAIL",HOUSTON,TX,77356,"FOSTERS RIDGE",,CONTRACTOR,,,,,,,,,,,"DR HORTON",,,,,"DR HORTON","14100 SOUTHWEST",HOUSTON,TX,77478,"(281) 201-5559",,,,
TX,MONTGOMERY,177197-20,"Single Family Homes",10/13/2020,,138780,,"435 STONEBROOK LN",HOUSTON,TX,77356,"HILLS OF WESTLAKE",,CONTRACTOR,,,,,,,,,,,"DR HORTON",,,,,"DR HORTON","14100 SOUTHWEST",HOUSTON,TX,77478,"(281) 201-5559",,,,
TX,HARRIS,177198-20,"Single Family Homes",10/13/2020,,141420,,"341 PLEASANT HILL WAY",HOUSTON,TX,77356,"HILLS OF WESTLAKE",,CONTRACTOR,,,,,,,,,,,"DR HORTON",,,,,"DR HORTON","14100 SOUTHWEST",HOUSTON,TX,77478,"(281) 201-5559",,,,
TX,HARRIS,177199-20,"Single Family Homes",10/13/2020,,160830,,"476 WESTLAKE LANDING",HOUSTON,TX,77356,"HILLS OF WESTLAKE",,CONTRACTOR,,,,,,,,,,,"DR HORTON",,,,,"DR HORTON","14100 SOUTHWEST",HOUSTON,TX,77478,"(281) 201-5559",,,,
TX,HARRIS,177304-20,"Single Family Homes",10/15/2020,,138780,,"450 STONEBROOK LN",HOUSTON,TX,77356,"HILLS OF WESTLAKE",,CONTRACTOR,,,,,,,,,,,"DR HORTON",,,,,"DR HORTON","14100 SOUTHWEST",HOUSTON,TX,77478,"(281) 201-5559",,,,
TX,HARRIS,177348-20,"Single Family Homes",10/16/2020,,209565,,"14011 BEAR.TOOTH BEND TRAIL",HOUSTON,TX,77356,"FOSTERS RIDGE",,CONTRACTOR,,,,,,,,,,,"DR HORTON",,,,,"DR HORTON","14100 SOUTHWEST",HOUSTON,TX,77478,"(281) 201-5559",,,,
TX,MONTGOMERY,177332-20,"Single Family Homes",10/16/2020,,224506,,"113 PEPPER GRASS PLACE",HOUSTON,TX,77356,"BONTERRA AT WOODFOREST",,CONTRACTOR,,,,,,,,,,,"DARLING HOMES",,,,,"DARLING HOMES","10255 RICHMOND AVE STE 150",HOUSTON,TX,77042-4382,"(713) 690-6902",http://www.darlinghomes.com/,,,
TX,MONTGOMERY,177349-20,"Single Family Homes",10/16/2020,,92000,,"27230 GREY FOX RUN",HOUSTON,TX,77356,"MILL CREEK NORTH",,CONTRACTOR,,,,,,,,,,,"DEVON STREET HOMES",,,,,"DEVON STREET HOMES","4545 POST OAK PLACE DR STE 345",HOUSTON,TX,77027-3198,"(713) 622-1009",http://www.devonstreethomes.com,"(713) 622-1094",,
TX,MONTGOMERY,177282-20,"Single Family Homes",10/14/2020,,700000,,"28314 WHISPERING MAPLE WAY",HOUSTON,TX,77356,"BENDERS LANDING ESTATES",,CONTRACTOR,,,,,,,,,,,"DREAMTECH HOMES",,,,,"DREAMTECH HOMES","7422 NANTUCKET POINT LN",SPRING,TX,77389-2400,"(281) 357-4970",http://dreamtechhomes.com/,,,njolly@dreamtechhomes.com
TX,MONTGOMERY,177247-20,"Single Family Homes",10/14/2020,,317700,,"9998 PRESERVE WAY",HOUSTON,TX,77356,"HARPERS PRESERVE",,CONTRACTOR,,,,,,,,,,,"EHT OF TEXAS LP",,,,,"EHT OF TEXAS LP","10235 LITTLE",HOUSTON,TX,77040,"(713) 557-3685",,,,
TX,MONTGOMERY,177159-20,"Single Family Homes",10/12/2020,,325000,,"4219 CROSS CUT",HOUSTON,TX,77356,"PEACH CREEK PLANTATION",,CONTRACTOR,,,,,,,,,,,"ENVIRONMENTAL RESOURCES",,,,,"ENVIRONMENTAL RESOURCES","112 SHERBROOK CIR",CONROE,TX,77385-7749,"(936) 672-7025",,,,
TX,MONTGOMERY,177223-20,"Single Family Homes",10/13/2020,,192990,,"13922 KATLIN ROAD",HOUSTON,TX,77356,"WAUKEGAN WAY",,CONTRACTOR,,,,,,,,,,,"FIRST AMERICA HOMES",,,,,"FIRST AMERICA HOMES","1401 WOODLANDS PARKWAY","THE WOODLANDS",TX,77380-1179,"(713) 452-1700",https://www.firstamericahomes.com/,,,info@firstamericahomes.com
TX,MONTGOMERY,177225-20,"Single Family Homes",10/13/2020,,310990,,"16217 FAYETTE ST",HOUSTON,TX,77356,"DEER PINES",,CONTRACTOR,,,,,,,,,,,"FIRST AMERICA HOMES",,,,,"FIRST AMERICA HOMES","1401 WOODLANDS PARKWAY","THE WOODLANDS",TX,77380-1179,"(713) 452-1700",https://www.firstamericahomes.com/,,,info@firstamericahomes.com
TX,MONTGOMERY,177227-20,"Single Family Homes",10/13/2020,,312990,,"16261 FAYETTE STREET",HOUSTON,TX,77356,"DEER PINES",,CONTRACTOR,,,,,,,,,,,"FIRST AMERICA HOMES",,,,,"FIRST AMERICA HOMES","1401 WOODLANDS PARKWAY","THE WOODLANDS",TX,77380-1179,"(713) 452-1700",https://www.firstamericahomes.com/,,,info@firstamericahomes.com
TX,MONTGOMERY,"177228- 20","Single Family Homes",10/13/2020,,210990,,"26108 MORGAN CEMETERY ROAD",HOUSTON,TX,77356,"LIBERTY ESTATES",,CONTRACTOR,,,,,,,,,,,"FIRST AMERICA HOMES",,,,,"FIRST AMERICA HOMES","1401 WOODLANDS PARKWAY","THE WOODLANDS",TX,77380-1179,"(713) 452-1700",https://www.firstamericahomes.com/,,,info@firstamericahomes.com
TX,MONTGOMERY,177229-20,"Single Family Homes",10/13/2020,,207990,,"26100 MORGAN CEMETERY ROAD",HOUSTON,TX,77356,"LIBERTY ESTATES",,CONTRACTOR,,,,,,,,,,,"FIRST AMERICA HOMES",,,,,"FIRST AMERICA HOMES","1401 WOODLANDS PARKWAY","THE WOODLANDS",TX,77380-1179,"(713) 452-1700",https://www.firstamericahomes.com/,,,info@firstamericahomes.com
TX,MONTGOMERY,177230-20,"Single Family Homes",10/13/2020,,208990,,"26158 MORGAN CEMETERY ROAD",HOUSTON,TX,77356,"LIBERTY ESTATES",,CONTRACTOR,,,,,,,,,,,"FIRST AMERICA HOMES",,,,,"FIRST AMERICA HOMES","1401 WOODLANDS PARKWAY","THE WOODLANDS",TX,77380-1179,"(713) 452-1700",https://www.firstamericahomes.com/,,,info@firstamericahomes.com
TX,MONTGOMERY,177231-20,"Single Family Homes",10/13/2020,,237990,,"26150 MORGAN CEMETERY ROAD",HOUSTON,TX,77356,"LIBERTY ESTATES",,CONTRACTOR,,,,,,,,,,,"FIRST AMERICA HOMES",,,,,"FIRST AMERICA HOMES","1401 WOODLANDS PARKWAY","THE WOODLANDS",TX,77380-1179,"(713) 452-1700",https://www.firstamericahomes.com/,,,info@firstamericahomes.com
TX,MONTGOMERY,177289-20,"Single Family Homes",10/15/2020,,197990,,"14085 WAUKEGAN WAY SOUTH",HOUSTON,TX,77356,"WAUKEGAN WAY",,CONTRACTOR,,,,,,,,,,,"FIRST AMERICA HOMES",,,,,"FIRST AMERICA HOMES","1401 WOODLANDS PARKWAY","THE WOODLANDS",TX,77380-1179,"(713) 452-1700",https://www.firstamericahomes.com/,,,info@firstamericahomes.com
TX,MONTGOMERY,177290-20,"Single Family Homes",10/15/2020,,194990,,"13942 KATLIN ROAD",HOUSTON,TX,77396,"WAUKEGAN WAY",,CONTRACTOR,,,,,,,,,,,"FIRST AMERICA HOMES",,,,,"FIRST AMERICA HOMES","1401 WOODLANDS PARKWAY","THE WOODLANDS",TX,77380-1179,"(713) 452-1700",https://www.firstamericahomes.com/,,,info@firstamericahomes.com
TX,MONTGOMERY,177291-20,"Single Family Homes",10/15/2020,,189990,,"13930 KARLIN ROAD",HOUSTON,TX,77356,"WAUKEGAN WAY",,CONTRACTOR,,,,,,,,,,,"FIRST AMERICA HOMES",,,,,"FIRST AMERICA HOMES","1401 WOODLANDS PARKWAY","THE WOODLANDS",TX,77380-1179,"(713) 452-1700",https://www.firstamericahomes.com/,,,info@firstamericahomes.com
TX,MONTGOMERY,177275-20,"Single Family Homes",10/14/2020,,954259,,"36733 RANCH BAUER",HOUSTON,TX,77396,"HIGH MEADOW RANCH",,"DAVID FRERICH","36733 RANCH BAUER",HOUSTON,TX,77396,,Owner,,,,,OWNER,,,,,OWNER,,,,,,,,,
TX,MONTGOMERY,177256-20,"Single Family Homes",10/14/2020,,350935,,"40837 WESSON LN",HOUSTON,TX,77396,"MOSTYN MANOR",,CONTRACTOR,,,,,,,,,,,"HARRISBURG HOMES",,,,,"HARRISBURG HOMES","21615 FIREMIST WAY",CYPRESS,TX,77433-3507,"(713) 249-8196",http://www.harrisburgtx.com/,,SHAWN,info@harrisburgtx.com
TX,MONTGOMERY,177220-20,"Single Family Homes",10/13/2020,,342385,,"17193 FOXTROT WAY",HOUSTON,TX,77356,ARTAVIA,,CONTRACTOR,,,,,,,,,,,"HIGHLAND HOMES",,,,,"HIGHLAND HOMES","10930 W SAM HOUSTON PKWY N STE 100",HOUSTON,TX,77064-6331,"(281) 517-9800",,,,
TX,MONTGOMERY,177221-20,"Single Family Homes",10/13/2020,,407655,,"15148 MAHOGANY TRAILS",HOUSTON,TX,77356,ARTAVIA,,CONTRACTOR,,,,,,,,,,,"HIGHLAND HOMES",,,,,"HIGHLAND HOMES","10930 W SAM HOUSTON PKWY N STE 100",HOUSTON,TX,77064-6331,"(281) 517-9800",,,,
TX,MONTGOMERY,177261-20,"Single Family Homes",10/14/2020,,500000,,"212 WESTERN PINE CT",HOUSTON,TX,77396,WOODFOREST,,CONTRACTOR,,,,,,,,,,,"HIGHLAND HOMES",,,,,"HIGHLAND HOMES","10930 W SAM HOUSTON PKWY N STE 100",HOUSTON,TX,77064-6331,"(281) 517-9800",,,,
TX,MONTGOMERY,177262-20,"Single Family Homes",10/14/2020,,500000,,"126 SUGAR PINE CT",HOUSTON,TX,77356,WOODFOREST,,CONTRACTOR,,,,,,,,,,,"HIGHLAND HOMES",,,,,"HIGHLAND HOMES","10930 W SAM HOUSTON PKWY N STE 100",HOUSTON,TX,77064-6331,"(281) 517-9800",,,,
TX,MONTGOMERY,177264-20,"Single Family Homes",10/14/2020,,539500,,"121 SUGAR PINE CT",HOUSTON,TX,77356,WOODFOREST,,CONTRACTOR,,,,,,,,,,,"HIGHLAND HOMES",,,,,"HIGHLAND HOMES","10930 W SAM HOUSTON PKWY N STE 100",HOUSTON,TX,77064-6331,"(281) 517-9800",,,,
TX,MONTGOMERY,177266-20,"Single Family Homes",10/14/2020,,335420,,"111 VINE MINT DR",HOUSTON,TX,77396,WOODFOREST,,CONTRACTOR,,,,,,,,,,,"HIGHLAND HOMES",,,,,"HIGHLAND HOMES","10930 W SAM HOUSTON PKWY N STE 100",HOUSTON,TX,77064-6331,"(281) 517-9800",,,,
TX,MONTGOMERY,177268-20,"Single Family Homes",10/14/2020,,750000,,"319 SOUTH OPULENT DR",HOUSTON,TX,77356,"NOBLE GREENS AT WOODFOREST",,CONTRACTOR,,,,,,,,,,,"HIGHLAND HOMES",,,,,"HIGHLAND HOMES","10930 W SAM HOUSTON PKWY N STE 100",HOUSTON,TX,77064-6331,"(281) 517-9800",,,,
TX,MONTGOMERY,177269-20,"Single Family Homes",10/14/2020,,634470,,"327 SOUTH OPULENT DR",HOUSTON,TX,77356,"NOBLE GREENS AT WOODFOREST",,CONTRACTOR,,,,,,,,,,,"HIGHLAND HOMES",,,,,"HIGHLAND HOMES","10930 W SAM HOUSTON PKWY N STE 100",HOUSTON,TX,77064-6331,"(281) 517-9800",,,,
TX,MONTGOMERY,177274-20,"Single Family Homes",10/14/2020,,650000,,"116 CASTERLY GREENS CT",HOUSTON,TX,77356,"NOBLE GREENS AT WOODFOREST",,CONTRACTOR,,,,,,,,,,,"HIGHLAND HOMES",,,,,"HIGHLAND HOMES","10930 W SAM HOUSTON PKWY N STE 100",HOUSTON,TX,77064-6331,"(281) 517-9800",,,,
TX,MONTGOMERY,177288-20,"Single Family Homes",10/15/2020,,588470,,"223 SOUTH EMPRESS GREEN PLACE",HOUSTON,TX,77356,"NOBLE GREENS AT WOODFOREST",,CONTRACTOR,,,,,,,,,,,"HIGHLAND HOMES",,,,,"HIGHLAND HOMES","10930 W SAM HOUSTON PKWY N STE 100",HOUSTON,TX,77064-6331,"(281) 517-9800",,,,
TX,MONTGOMERY,177292-20,"Single Family Homes",10/15/2020,,116000,,"20525 FITZWILLIAM LN",HOUSTON,TX,77356,"BROOKWOOD FOREST",,CONTRACTOR,,,,,,,,,,,"KB HOME",,,,,"KB HOME","11314 RICHMOND AVE",HOUSTON,TX,77082-2616,"(281) 668-3800",,,,
TX,MONTGOMERY,177293-20,"Single Family Homes",10/15/2020,,131000,,"8606 CIMARRON MESA LN",HOUSTON,TX,77356,"CIMARRON CREEK",,CONTRACTOR,,,,,,,,,,,"KB HOME",,,,,"KB HOME","11314 RICHMOND AVE",HOUSTON,TX,77082-2616,"(281) 668-3800",,,,
TX,MONTGOMERY,177308-20,"Single Family Homes",10/15/2020,,700000,,"264 WEST PINES DR",HOUSTON,TX,77356,BENTWATER,,CONTRACTOR,,,,,,,,,,,"KLM CUSTOM HOMES",,,,,"KLM CUSTOM HOMES","81 POSSUM TROT","LIBERTY HILL",TX,78642-6264,"(512) 927-7091",http://www.klmcustomhomes.com/,,"MATT JONES",
TX,MONTGOMERY,177171-20,"Single Family Homes",10/12/2020,,169700,,"23839 VIA CAMINO LN",HOUSTON,TX,77356,TAVOLA,,CONTRACTOR,,,,,,,,,,,"LENNAR HOMES",,,,,"LENNAR HOMES","550 GREENS PKWY",HOUSTON,TX,77067-4537,"(281) 875-1000",http://www.lennar.com/,,,
TX,MONTGOMERY,177172-20,"Single Family Homes",10/12/2020,,124000,,"23843 VIA CAMINO LN",HOUSTON,TX,77396,TAVOLA,,CONTRACTOR,,,,,,,,,,,"LENNAR HOMES",,,,,"LENNAR HOMES","550 GREENS PKWY",HOUSTON,TX,77067-4537,"(281) 875-1000",http://www.lennar.com/,,,
TX,MONTGOMERY,177173-20,"Single Family Homes",10/12/2020,,202700,,"23830 VIA LEONI DR",HOUSTON,TX,77356,TAVOLA,,CONTRACTOR,,,,,,,,,,,"LENNAR HOMES",,,,,"LENNAR HOMES","550 GREENS PKWY",HOUSTON,TX,77067-4537,"(281) 875-1000",http://www.lennar.com/,,,
TX,MONTGOMERY,177216-20,"Single Family Homes",10/13/2020,,153000,,"23839 VIA LEONI DR",HOUSTON,TX,77356,TAVOLA,,CONTRACTOR,,,,,,,,,,,"LENNAR HOMES",,,,,"LENNAR HOMES","550 GREENS PKWY",HOUSTON,TX,77067-4537,"(281) 875-1000",http://www.lennar.com/,,,
TX,MONTGOMERY,177217-20,"Single Family Homes",10/13/2020,,135500,,"19046 CICERONE CT",HOUSTON,TX,77356,TAVOLA,,CONTRACTOR,,,,,,,,,,,"LENNAR HOMES",,,,,"LENNAR HOMES","550 GREENS PKWY",HOUSTON,TX,77067-4537,"(281) 875-1000",http://www.lennar.com/,,,
TX,MONTGOMERY,177218-20,"Single Family Homes",10/13/2020,,204000,,"23460 YAUPON HILLS DR",HOUSTON,TX,77356,TAVOLA,,CONTRACTOR,,,,,,,,,,,"LENNAR HOMES",,,,,"LENNAR HOMES","550 GREENS PKWY",HOUSTON,TX,77067-4537,"(281) 875-1000",http://www.lennar.com/,,,
TX,MONTGOMERY,177253-20,"Single Family Homes",10/14/2020,,110500,,"1235 BLUE HAZEL CT",HOUSTON,TX,77356,"ARBOR TRACE",,CONTRACTOR,,,,,,,,,,,"LENNAR HOMES",,,,,"LENNAR HOMES","550 GREENS PKWY",HOUSTON,TX,77067-4537,"(281) 875-1000",http://www.lennar.com/,,,
TX,MONTGOMERY,177254-20,"Single Family Homes",10/14/2020,,176605,,"121 STELLAR PINA DR",HOUSTON,TX,77356,WOODFOREST,,CONTRACTOR,,,,,,,,,,,"LENNAR HOMES",,,,,"LENNAR HOMES","550 GREENS PKWY",HOUSTON,TX,77067-4537,"(281) 875-1000",http://www.lennar.com/,,,
TX,MONTGOMERY,177297-20,"Single Family Homes",10/15/2020,,152500,,"19050 CICERONE CT",HOUSTON,TX,77356,TAVOLA,,CONTRACTOR,,,,,,,,,,,"LENNAR HOMES",,,,,"LENNAR HOMES","550 GREENS PKWY",HOUSTON,TX,77067-4537,"(281) 875-1000",http://www.lennar.com/,,,
TX,MONTGOMERY,177298-20,"Single Family Homes",10/15/2020,,147900,,"5992 RIMINI LANDING LN",HOUSTON,TX,77356,"COUNTRY COLONY",,CONTRACTOR,,,,,,,,,,,"LENNAR HOMES",,,,,"LENNAR HOMES","550 GREENS PKWY",HOUSTON,TX,77067-4537,"(281) 875-1000",http://www.lennar.com/,,,
TX,MONTGOMERY,177299-20,"Single Family Homes",10/15/2020,,147900,,"11056 NORTH LAKE MIST LN",HOUSTON,TX,77356,"LAKE BREEZE",,CONTRACTOR,,,,,,,,,,,"LENNAR HOMES",,,,,"LENNAR HOMES","550 GREENS PKWY",HOUSTON,TX,77067-4537,"(281) 875-1000",http://www.lennar.com/,,,
TX,MONTGOMERY,177341-20,"Single Family Homes",10/16/2020,,205700,,"5059 ROBIN PARK CT",HOUSTON,TX,77356,"ROYAL BROOK AT KINGWOOD",,CONTRACTOR,,,,,,,,,,,"LENNAR HOMES",,,,,"LENNAR HOMES","550 GREENS PKWY",HOUSTON,TX,77067-4537,"(281) 875-1000",http://www.lennar.com/,,,
TX,MONTGOMERY,177342-20,"Single Family Homes",10/16/2020,,127200,,"19054 CICERONE CT",HOUSTON,TX,77356,TAVOLA,,CONTRACTOR,,,,,,,,,,,"LENNAR HOMES",,,,,"LENNAR HOMES","550 GREENS PKWY",HOUSTON,TX,77067-4537,"(281) 875-1000",http://www.lennar.com/,,,
TX,MONTGOMERY,177343-20,"Single Family Homes",10/16/2020,,204230,,"246 CREST SIGHTS DR",HOUSTON,TX,77356,WOODFOREST,,CONTRACTOR,,,,,,,,,,,"LENNAR HOMES",,,,,"LENNAR HOMES","550 GREENS PKWY",HOUSTON,TX,77067-4537,"(281) 875-1000",http://www.lennar.com/,,,
TX,MONTGOMERY,177212-20,"Single Family Homes",10/13/2020,,72000,,"2138 ARTIC LOON DR",HOUSTON,TX,77356,"MONTGOMERY CREEK RANCH",,CONTRACTOR,,,,,,,,,,,"LONG LAKE HOMES",,,,,"LONG LAKE HOMES","15915 KATY FWY STE 405",HOUSTON,TX,77094-1710,"(281) 646-1727",http://www.longlakeltd.com/,,"DAVID BIGLER",
TX,MONTGOMERY,177214-20,"Single Family Homes",10/13/2020,,80000,,"29201 ENCHANTED FALLS CIRCLE",HOUSTON,TX,77396,"FOREST VILLAGE",,CONTRACTOR,,,,,,,,,,,"LONG LAKE HOMES",,,,,"LONG LAKE HOMES","15915 KATY FWY STE 405",HOUSTON,TX,77094-1710,"(281) 646-1727",http://www.longlakeltd.com/,,"DAVID BIGLER",
TX,MONTGOMERY,177215-20,"Single Family Homes",10/13/2020,,80000,,"29208 MOSSBRAE FALLS CT",HOUSTON,TX,77396,"FOREST VILLAGE",,CONTRACTOR,,,,,,,,,,,"LONG LAKE HOMES",,,,,"LONG LAKE HOMES","15915 KATY FWY STE 405",HOUSTON,TX,77094-1710,"(281) 646-1727",http://www.longlakeltd.com/,,"DAVID BIGLER",
TX,MONTGOMERY,177340-20,"Single Family Homes",10/16/2020,,199153,,"23416 ATBERT DR",HOUSTON,TX,77356,"TIMBER LANE ACRES",,"MARISSA MARTINEZ","8607 COUNTY ROAD 48",ROSHARON,TX,77583,,Owner,,,,,OWNER,,,,,OWNER,,,,,,,,,
TX,MONTGOMERY,177263-20,"Single Family Homes",10/14/2020,,301990,,"30953 LAUREL CREEK LN",HOUSTON,TX,77356,"MEADOWS AT IMPERIAL OAKS",,CONTRACTOR,,,,,,,,,,,"MHI MCGUYER HOMEBUILDERS",,,,,"MHI MCGUYER HOMEBUILDERS","7676 WOODWAY DR",HOUSTON,TX,77063-1526,"(713) 260-4107",,,,
TX,MONTGOMERY,177333-20,"Single Family Homes",10/16/2020,,282990,,"2905 YAUPON GROVE LN",HOUSTON,TX,77356,"MEADOWS AT IMPERIAL OAKS",,CONTRACTOR,,,,,,,,,,,"MHI MCGUYER HOMEBUILDERS",,,,,"MHI MCGUYER HOMEBUILDERS","7676 WOODWAY DR",HOUSTON,TX,77063-1526,"(713) 260-4107",,,,
TX,MONTGOMERY,177328-20,"Single Family Homes",10/15/2020,,160000,,"5333 WEEPING BOW",HOUSTON,TX,77356,"CADDO VILLAGE",,CONTRACTOR,,,,,,,,,,,"MKM SUPERIOR HOMES",,,,,"MKM SUPERIOR HOMES","PO BOX 1179",PINEHURST,TX,77362-1179,"(281) 252-5571",,,"RONALD LAROCHE",
TX,MONTGOMERY,177329-20,"Single Family Homes",10/15/2020,,175000,,"8958 WEST BUFFALO CIRCLE",HOUSTON,TX,77356,"CADDO VILLAGE",,CONTRACTOR,,,,,,,,,,,"MKM SUPERIOR HOMES",,,,,"MKM SUPERIOR HOMES","PO BOX 1179",PINEHURST,TX,77362-1179,"(281) 252-5571",,,"RONALD LAROCHE",
TX,MONTGOMERY,177226-20,"Single Family Homes",10/13/2020,,113500,,"15814 BEECHNUT DR",HOUSTON,TX,77356,"HIDDEN FOREST ESTATES",,CONTRACTOR,,,,,,,,,,,"MORRHAUS HOMES",,,,,"MORRHAUS HOMES","525 WOODLAND SQUARE BLVD STE 250",CONROE,TX,77356,"(936) 270-1150",,,,
TX,MONTGOMERY,177232-20,"Single Family Homes",10/13/2020,,123500,,"15843 OAK DR",HOUSTON,TX,77356,"HIDDEN FOREST ESTATES",,CONTRACTOR,,,,,,,,,,,"MORRHAUS HOMES",,,,,"MORRHAUS HOMES","525 WOODLAND SQUARE BLVD STE 250",CONROE,TX,77356,"(936) 270-1150",,,,
TX,MONTGOMERY,177234-20,"Single Family Homes",10/13/2020,,113500,,"15806 BEECHNUT DR",HOUSTON,TX,77356,"HIDDEN FOREST ESTATES",,CONTRACTOR,,,,,,,,,,,"MORRHAUS HOMES",,,,,"MORRHAUS HOMES","525 WOODLAND SQUARE BLVD STE 250",CONROE,TX,77356,"(936) 270-1150",,,,
TX,MONTGOMERY,177235-20,"Single Family Homes",10/13/2020,,108000,,"19933 ASH LN",HOUSTON,TX,77356,"HIDDEN FOREST ESTATES",,CONTRACTOR,,,,,,,,,,,"MORRHAUS HOMES",,,,,"MORRHAUS HOMES","525 WOODLAND SQUARE BLVD STE 250",CONROE,TX,77356,"(936) 270-1150",,,,
TX,MONTGOMERY,177238-20,"Single Family Homes",10/13/2020,,113500,,"15809 SWEETGUM ROAD",HOUSTON,TX,77356,"HIDDEN FOREST ESTATES",,CONTRACTOR,,,,,,,,,,,"MORRHAUS HOMES",,,,,"MORRHAUS HOMES","525 WOODLAND SQUARE BLVD STE 250",CONROE,TX,77356,"(936) 270-1150",,,,
TX,MONTGOMERY,177239-20,"Single Family Homes",10/13/2020,,113500,,"20260 HEMLOCK LN",HOUSTON,TX,77396,"HIDDEN FOREST ESTATES",,CONTRACTOR,,,,,,,,,,,"MORRHAUS HOMES",,,,,"MORRHAUS HOMES","525 WOODLAND SQUARE BLVD STE 250",CONROE,TX,77356,"(936) 270-1150",,,,
TX,MONTGOMERY,177240-20,"Single Family Homes",10/13/2020,,113500,,"20272 HEMLOCK LN",HOUSTON,TX,77356,"HIDDEN FOREST ESTATES",,CONTRACTOR,,,,,,,,,,,"MORRHAUS HOMES",,,,,"MORRHAUS HOMES","525 WOODLAND SQUARE BLVD STE 250",CONROE,TX,77356,"(936) 270-1150",,,,
TX,MONTGOMERY,177233-20,"Single Family Homes",10/13/2020,,50000,,"1006 YELLOWSTONE RIVER ROAD",HOUSTON,TX,77356,"LAKE CONROE FOREST",,CONTRACTOR,,,,,,,,,,,"OMG BUILDERS",,,,,"OMG BUILDERS","2257 N LOOP 336 W STE 140-303",CONROE,TX,77304,"(832) 457-9442",,,,
TX,MONTGOMERY,177236-20,"Single Family Homes",10/13/2020,,50000,,"1004 YELLOWSTONE RIVER RD",HOUSTON,TX,77356,"LAKE CONROE FOREST",,CONTRACTOR,,,,,,,,,,,"OMG BUILDERS",,,,,"OMG BUILDERS","2257 N LOOP 336 W STE 140-303",CONROE,TX,77304,"(832) 457-9442",,,,
TX,MONTGOMERY,177356-20,"Single Family Homes",10/16/2020,,50000,,"15678 HOLLY DR",HOUSTON,TX,77356,"HIDDEN FOREST ESTATES",,CONTRACTOR,,,,,,,,,,,"OMG BUILDERS",,,,,"OMG BUILDERS","2257 N LOOP 336 W STE 140-303",CONROE,TX,77304,"(832) 457-9442",,,,
TX,MONTGOMERY,177242-20,"Single Family Homes",10/14/2020,,320175,,"4524 WOODLAND BEND CT",HOUSTON,TX,77356,"WOODSONS RESERVE",,CONTRACTOR,,,,,,,,,,,"PERRY HOMES",,,,,"PERRY HOMES","9000 GULF FWY",HOUSTON,TX,77017-7018,"(713) 417-1396",,,,
TX,MONTGOMERY,177243-20,"Single Family Homes",10/14/2020,,281700,,"14920 FIERY ROSE DR",HOUSTON,TX,77356,ARTAVIA,,CONTRACTOR,,,,,,,,,,,"PERRY HOMES",,,,,"PERRY HOMES","9000 GULF FWY",HOUSTON,TX,77017-7018,"(713) 417-1396",,,,
TX,MONTGOMERY,177244-20,"Single Family Homes",10/14/2020,,277538,,"17167 CRIMSON CREST DR",HOUSTON,TX,77356,ARTAVIA,,CONTRACTOR,,,,,,,,,,,"PERRY HOMES",,,,,"PERRY HOMES","9000 GULF FWY",HOUSTON,TX,77017-7018,"(713) 417-1396",,,,
TX,MONTGOMERY,177310-20,"Single Family Homes",10/15/2020,,237375,,"8116 TYRELL HEIGHTS DR",HOUSTON,TX,77356,NORTHGROVE,,CONTRACTOR,,,,,,,,,,,"PERRY HOMES",,,,,"PERRY HOMES","9000 GULF FWY",HOUSTON,TX,77017-7018,"(713) 417-1396",,,,
TX,MONTGOMERY,177319-20,"Single Family Homes",10/15/2020,,280466,,"8141 TYRELL HEIGHTS DR",HOUSTON,TX,77356,NORTHGROVE,,CONTRACTOR,,,,,,,,,,,"PERRY HOMES",,,,,"PERRY HOMES","9000 GULF FWY",HOUSTON,TX,77017-7018,"(713) 417-1396",,,,
TX,MONTGOMERY,177320-20,"Single Family Homes",10/15/2020,,259763,,"8148 TYRELL HEIGHT DR",HOUSTON,TX,77356,NORTHGROVE,,CONTRACTOR,,,,,,,,,,,"PERRY HOMES",,,,,"PERRY HOMES","9000 GULF FWY",HOUSTON,TX,77017-7018,"(713) 417-1396",,,,
TX,MONTGOMERY,177324-20,"Single Family Homes",10/15/2020,,237375,,"27130 SOFIA FOREST DR",HOUSTON,TX,77356,NORTHGROVE,,CONTRACTOR,,,,,,,,,,,"PERRY HOMES",,,,,"PERRY HOMES","9000 GULF FWY",HOUSTON,TX,77017-7018,"(713) 417-1396",,,,
TX,BRAZOS,RES2020-000300,"Single Family Homes",10/5/2020,,226908,3438,"1906 COTTONWOOD TERRACE CT","COLLEGE STATION",TX,77845,"MISSION RANCH",,CONTRACTOR,,,,,,,,,,,"RNL HOME BUILDERS",,,,,"RNL HOME BUILDERS","4253 ROCKY RHODES DRIVE","COLLEGE STATION",TX,77845,"(979) 402-2531",http://www.rnlhomebuilders.com,,,RNLHomebuilders@gmail.com
TX,BRAZOS,RES2020-000332,"Single Family Homes",10/5/2020,,128974,2186,"1003 TOLEDO BEND DR","COLLEGE STATION",TX,77845,"MIDTOWN RESERVE",,CONTRACTOR,,,,,,,,,,,"DR HORTON",,,,,"DR HORTON","14100 SOUTHWEST",HOUSTON,TX,77478,"(281) 201-5559",,,,
TX,BRAZOS,RES2020-000333,"Single Family Homes",10/6/2020,,117174,1986,"1314 MCQUEENY DR","COLLEGE STATION",TX,77845,,,CONTRACTOR,,,,,,,,,,,"DR HORTON",,,,,"DR HORTON","14100 SOUTHWEST",HOUSTON,TX,77478,"(281) 201-5559",,,,
TX,BRAZOS,RES2020-000334,"Single Family Homes",10/9/2020,,435000,4464,"5014 YELLOW TANAGER CT","COLLEGE STATION",TX,77845,"BIRD POND",,CONTRACTOR,,,,,,,,,,,"MAGRUDER HOMES",,,,,"MAGRUDER HOMES","PO BOX 10572","COLLEGE STATION",TX,77842-0572,"(979) 324-6682",http://magruderhomes.com/,"(979) 696-2383",,john@magruderhomes.com
TX,BRAZOS,RES2020-000335,"Single Family Homes",10/7/2020,,115109,1951,"1011 TOLEDO BEND DR","COLLEGE STATION",TX,77845,"MIDTOWN RESERVE",,CONTRACTOR,,,,,,,,,,,"DR HORTON",,,,,"DR HORTON","14100 SOUTHWEST",HOUSTON,TX,77478,"(281) 201-5559",,,,
TX,BRAZOS,RES2020-000336,"Single Family Homes",10/8/2020,,194370,3153,"6320 SOUTHERN CROSS DR","COLLEGE STATION",TX,77845,"SOUTHERN POINTE",,CONTRACTOR,,,,,,,,,,,"STYLECRAFT BUILDERS ",,,,,"STYLECRAFT BUILDERS ","4090 STATE HIGHWAY 6 S","COLLEGE STATION",TX,77845-8962,"(979) 764-9900",,"(979) 690-3069","TANNER BREWSTER",tabrewster@stylecraft-builders.com
TX,BRAZOS,RES2020-000338,"Single Family Homes",10/9/2020,,265000,4143,"4704 PEARL RIVER CT","COLLEGE STATION",TX,77845,"GREENS PRAIRIE RESERVE",,CONTRACTOR,,,,,,,,,,,"PITMAN CUSTOM HOMES",,,,,"PITMAN CUSTOM HOMES","1401 SEBESTA RD","COLLEGE STATION",TX,77845-5527,"(979) 693-6699",http://www.pitmancustomhomes.com,,JIMMY,
TX,BRAZOS,RES2020-000339,"Single Family Homes",10/8/2020,,103899,1761,"1007 TOLEDO BEND DR","COLLEGE STATION",TX,77845,"MIDTOWN RESERVE",,CONTRACTOR,,,,,,,,,,,"DR HORTON",,,,,"DR HORTON","14100 SOUTHWEST",HOUSTON,TX,77478,"(281) 201-5559",,,,
TX,BRAZOS,RES2020-000337,"Single Family Homes",10/14/2020,,425000,4336,"4809 PEARL RIVER CT","COLLEGE STATION",TX,77845,"GREENS PRAIRIE RESERVE",,CONTRACTOR,,,,,,,,,,,"AMBIT HOMES",,,,,"AMBIT HOMES","18063 LATIGO CT","COLLEGE STATION",TX,77845-6391,"(979) 429-3552",,,,
TX,BRAZOS,RES2020-000340,"Single Family Homes",10/14/2020,,290000,4091,"1767 BLANCO BEND DR","COLLEGE STATION",TX,77845,"MISSION RANCH",,CONTRACTOR,,,,,,,,,,,"PITMAN CUSTOM HOMES",,,,,"PITMAN CUSTOM HOMES","1401 SEBESTA RD","COLLEGE STATION",TX,77845-5527,"(979) 693-6699",http://www.pitmancustomhomes.com,,JIMMY,
TX,BRAZOS,RES2020-000342,"Single Family Homes",10/14/2020,,128974,2186,"1316 MCQUEENY DR","COLLEGE STATION",TX,77845,,,CONTRACTOR,,,,,,,,,,,"DR HORTON",,,,,"DR HORTON","14100 SOUTHWEST",HOUSTON,TX,77478,"(281) 201-5559",,,,
TX,BRAZOS,RES2020-000266,"Single Family Homes",10/15/2020,,400000,6464,"3709 COOPER CT","COLLEGE STATION",TX,77845,"MISSION RANCH",,CONTRACTOR,,,,,,,,,,,"MARIOTT HOMES",,,,,"MARIOTT HOMES","209 ROCK PRAIRIE RD","COLLEGE STATION",TX,77845-8796,"(979) 696-1787",http://mariotthomes.com/,,,
TX,BRAZOS,RES2020-000343,"Single Family Homes",10/14/2020,,223972,3654,"6304 DAYTONA DR","COLLEGE STATION",TX,77845,"SOUTHERN POINTE",,CONTRACTOR,,,,,,,,,,,"OMEGA BUILDERS GROUP",,,,,"OMEGA BUILDERS GROUP","7353 W ADAMS AVE",TEMPLE,TX,76502-5539,"(254) 773-9966",,,,
TX,BRAZOS,RES2020-000344,"Single Family Homes",10/16/2020,,115134,1857,"15017 INDIAN CREEK LN","COLLEGE STATION",TX,77845,"CREEK MEADOWS",,CONTRACTOR,,,,,,,,,,,"STYLECRAFT BUILDERS ",,,,,"STYLECRAFT BUILDERS ","4090 STATE HIGHWAY 6 S","COLLEGE STATION",TX,77845-8962,"(979) 764-9900",,"(979) 690-3069","TANNER BREWSTER",tabrewster@stylecraft-builders.com
TX,BRAZOS,RES2020-000347,"Single Family Homes",10/15/2020,,107852,1828,"1306 MCQUEENY DR","COLLEGE STATION",TX,77845,,,CONTRACTOR,,,,,,,,,,,"DR HORTON",,,,,"DR HORTON","14100 SOUTHWEST",HOUSTON,TX,77478,"(281) 201-5559",,,,
TX,BRAZOS,RES2020-000348,"Single Family Homes",10/15/2020,,137702,2221,"6312 ELDORA DR","COLLEGE STATION",TX,77845,"SOUTHERN POINTE",,CONTRACTOR,,,,,,,,,,,"STYLECRAFT BUILDERS ",,,,,"STYLECRAFT BUILDERS ","4090 STATE HIGHWAY 6 S","COLLEGE STATION",TX,77845-8962,"(979) 764-9900",,"(979) 690-3069","TANNER BREWSTER",tabrewster@stylecraft-builders.com
TX,BRAZOS,RES2020-000349,"Single Family Homes",10/15/2020,,165478,2669,"4100 BROOKLAND CT","COLLEGE STATION",TX,77845,BRIDGEWOOD,,CONTRACTOR,,,,,,,,,,,"STYLECRAFT BUILDERS ",,,,,"STYLECRAFT BUILDERS ","4090 STATE HIGHWAY 6 S","COLLEGE STATION",TX,77845-8962,"(979) 764-9900",,"(979) 690-3069","TANNER BREWSTER",tabrewster@stylecraft-builders.com
TX,BRAZOS,RES2020-000351,"Single Family Homes",10/16/2020,,160146,2583,"6324 SPARTAN DR","COLLEGE STATION",TX,77845,"SOUTHERN POINTE",,CONTRACTOR,,,,,,,,,,,"STYLECRAFT BUILDERS ",,,,,"STYLECRAFT BUILDERS ","4090 STATE HIGHWAY 6 S","COLLEGE STATION",TX,77845-8962,"(979) 764-9900",,"(979) 690-3069","TANNER BREWSTER",tabrewster@stylecraft-builders.com
TX,BRAZOS,RES2020-000341,"Single Family Homes",10/19/2020,,139830,2370,"1312 MCQUEENY DR","COLLEGE STATION",TX,77845,,,CONTRACTOR,,,,,,,,,,,"DR HORTON",,,,,"DR HORTON","14100 SOUTHWEST",HOUSTON,TX,77478,"(281) 201-5559",,,,
TX,BRAZOS,RES2020-000346,"Single Family Homes",10/19/2020,,238788,3618,"1903 COTTONWOOD TERRACE CT","COLLEGE STATION",TX,77845,"MISSION RANCH",,CONTRACTOR,,,,,,,,,,,"RNL HOME BUILDERS",,,,,"RNL HOME BUILDERS","4253 ROCKY RHODES DRIVE","COLLEGE STATION",TX,77845,"(979) 402-2531",http://www.rnlhomebuilders.com,,,RNLHomebuilders@gmail.com
TX,BRAZOS,RES2020-000350,"Single Family Homes",10/19/2020,,155268,2363,"1407 CAUDILL ST","COLLEGE STATION",TX,77840,"SOUTH KNOLL",,CONTRACTOR,,,,,,,,,,,"HANCOCK CUSTOM HOMES",,,,,"HANCOCK CUSTOM HOMES","PO BOX 11214","COLLEGE STATION",TX,77842-1214,"(979) 412-6301",http://www.homesbyhancock.com/,,,info@homesbyhancock.com
TX,BRAZOS,RES2020-000345,"Single Family Homes",10/20/2020,,107844,2193,"1013 DOVE CHASE LN","COLLEGE STATION",TX,77845,"DOVE CROSSING",,CONTRACTOR,,,,,,,,,,,"ED FROEHLING BUILDERS ",,,,,"ED FROEHLING BUILDERS ","3887 HIGH LONESOME","COLLEGE STATION",TX,77845-9443,"(979) 694-0565",http://edfroehlingbuilder.com,,,
TX,BRAZOS,RES2020-000352,"Single Family Homes",10/20/2020,,140976,2715,"908 DOVE CHASE LN","COLLEGE STATION",TX,77845,"DOVE CROSSING",,CONTRACTOR,,,,,,,,,,,"ED FROEHLING BUILDERS ",,,,,"ED FROEHLING BUILDERS ","3887 HIGH LONESOME","COLLEGE STATION",TX,77845-9443,"(979) 694-0565",http://edfroehlingbuilder.com,,,
TX,BRAZOS,RES2020-000354,"Single Family Homes",10/22/2020,,192721,3159,"1306 CRYSTAL LN","COLLEGE STATION",TX,77845,"WATERFORD HEIGHTS",,CONTRACTOR,,,,,,,,,,,"PITMAN CUSTOM HOMES",,,,,"PITMAN CUSTOM HOMES","1401 SEBESTA RD","COLLEGE STATION",TX,77845-5527,"(979) 693-6699",http://www.pitmancustomhomes.com,,JIMMY,
TX,BRAZOS,RES2020-000355,"Single Family Homes",10/22/2020,,227000,3604,"1319 CRYSTAL LN","COLLEGE STATION",TX,77845,"WATERFORD HEIGHTS",,CONTRACTOR,,,,,,,,,,,"PITMAN CUSTOM HOMES",,,,,"PITMAN CUSTOM HOMES","1401 SEBESTA RD","COLLEGE STATION",TX,77845-5527,"(979) 693-6699",http://www.pitmancustomhomes.com,,JIMMY,
TX,BRAZOS,RES2020-000357,"Single Family Homes",10/21/2020,,286254,3534,"4721 PEARL RIVER CT","COLLEGE STATION",TX,77845,"GREENS PRAIRIE RESERVE",,CONTRACTOR,,,,,,,,,,,"REECE HOMES",,,,,"REECE HOMES","1818 TAYLOR",HOUSTON,TX,77545,"(713) 826-7262",http://www.reece-homes.com/,,,
TX,BRAZOS,RES2020-000358,"Single Family Homes",10/21/2020,,136998,2322,"1318 MCQUEENY DR","COLLEGE STATION",TX,77845,,,CONTRACTOR,,,,,,,,,,,"DR HORTON",,,,,"DR HORTON","14100 SOUTHWEST",HOUSTON,TX,77478,"(281) 201-5559",,,,
TX,BRAZOS,RES2020-000359,"Single Family Homes",10/21/2020,,108737,1843,"824 MINERAL WELLS LN","COLLEGE STATION",TX,77845,,,CONTRACTOR,,,,,,,,,,,"DR HORTON",,,,,"DR HORTON","14100 SOUTHWEST",HOUSTON,TX,77478,"(281) 201-5559",,,,
TX,BRAZOS,RES2020-000360,"Single Family Homes",10/21/2020,,130567,2213,"820 MINERAL WELLS LN","COLLEGE STATION",TX,77845,,,CONTRACTOR,,,,,,,,,,,"DR HORTON",,,,,"DR HORTON","14100 SOUTHWEST",HOUSTON,TX,77478,"(281) 201-5559",,,,
TX,BRAZOS,RES2020-000361,"Single Family Homes",10/21/2020,,127617,2163,"818 MINERAL WELLS LN","COLLEGE STATION",TX,77845,,,CONTRACTOR,,,,,,,,,,,"DR HORTON",,,,,"DR HORTON","14100 SOUTHWEST",HOUSTON,TX,77478,"(281) 201-5559",,,,
TX,BRAZOS,RES2020-000362,"Single Family Homes",10/21/2020,,144963,2457,"816 MINERAL WELLS LN","COLLEGE STATION",TX,77845,,,CONTRACTOR,,,,,,,,,,,"DR HORTON",,,,,"DR HORTON","14100 SOUTHWEST",HOUSTON,TX,77478,"(281) 201-5559",,,,
TX,BRAZOS,RES2020-000363,"Single Family Homes",10/21/2020,,110448,1872,"814 MINERAL WELLS LN","COLLEGE STATION",TX,77845,,,CONTRACTOR,,,,,,,,,,,"DR HORTON",,,,,"DR HORTON","14100 SOUTHWEST",HOUSTON,TX,77478,"(281) 201-5559",,,,
TX,BRAZOS,RES2020-000364,"Single Family Homes",10/22/2020,,108737,1843,"808 MINERAL WELLS LN","COLLEGE STATION",TX,77845,,,CONTRACTOR,,,,,,,,,,,"DR HORTON",,,,,"DR HORTON","14100 SOUTHWEST",HOUSTON,TX,77478,"(281) 201-5559",,,,
TX,BRAZOS,RES2020-000365,"Single Family Homes",10/22/2020,,130567,2213,"806 MINERAL WELLS LN","COLLEGE STATION",TX,77845,,,CONTRACTOR,,,,,,,,,,,"DR HORTON",,,,,"DR HORTON","14100 SOUTHWEST",HOUSTON,TX,77478,"(281) 201-5559",,,,
TX,BRAZOS,RES2020-000366,"Single Family Homes",10/22/2020,,127322,2158,"804 MINERAL WELLS LN","COLLEGE STATION",TX,77845,,,CONTRACTOR,,,,,,,,,,,"DR HORTON",,,,,"DR HORTON","14100 SOUTHWEST",HOUSTON,TX,77478,"(281) 201-5559",,,,
TX,BRAZOS,RES2020-000367,"Single Family Homes",10/22/2020,,110448,1872,"802 MINERAL WELLS LN","COLLEGE STATION",TX,77845,,,CONTRACTOR,,,,,,,,,,,"DR HORTON",,,,,"DR HORTON","14100 SOUTHWEST",HOUSTON,TX,77478,"(281) 201-5559",,,,
TX,BRAZOS,RES2020-000368,"Single Family Homes",10/22/2020,,130567,2213,"812 MINERAL WELLS LN","COLLEGE STATION",TX,77840,,,CONTRACTOR,,,,,,,,,,,"DR HORTON",,,,,"DR HORTON","14100 SOUTHWEST",HOUSTON,TX,77478,"(281) 201-5559",,,,
TX,BRAZOS,RES2020-000356,"Single Family Homes",10/26/2020,,117823,1997,"1025 TOLEDO BEND DR","COLLEGE STATION",TX,77845,"MIDTOWN RESERVE",,CONTRACTOR,,,,,,,,,,,"DR HORTON",,,,,"DR HORTON","14100 SOUTHWEST",HOUSTON,TX,77478,"(281) 201-5559",,,,
TX,BRAZOS,RES2020-000376,"Single Family Homes",10/26/2020,,127617,2163,"810 MINERAL WELLS LN","COLLEGE STATION",TX,77845,"MIDTOWN RESERVE",,CONTRACTOR,,,,,,,,,,,"DR HORTON",,,,,"DR HORTON","14100 SOUTHWEST",HOUSTON,TX,77478,"(281) 201-5559",,,,
TX,BRAZOS,RES2020-000377,"Single Family Homes",10/26/2020,,127322,2158,"809 DOUBLE MOUNTAIN RD","COLLEGE STATION",TX,77845,"MIDTOWN RESERVE",,CONTRACTOR,,,,,,,,,,,"DR HORTON",,,,,"DR HORTON","14100 SOUTHWEST",HOUSTON,TX,77478,"(281) 201-5559",,,,
TX,BRAZOS,RES2020-000378,"Single Family Homes",10/26/2020,,110448,1872,"807 DOUBLE MOUNTAIN RD","COLLEGE STATION",TX,77845,"MIDTOWN RESERVE",,CONTRACTOR,,,,,,,,,,,"DR HORTON",,,,,"DR HORTON","14100 SOUTHWEST",HOUSTON,TX,77478,"(281) 201-5559",,,,
TX,BRAZOS,RES2020-000379,"Single Family Homes",10/26/2020,,117823,1997,"948 TOLEDO BEND DR","COLLEGE STATION",TX,77845,"MIDTOWN RESERVE",,CONTRACTOR,,,,,,,,,,,"DR HORTON",,,,,"DR HORTON","14100 SOUTHWEST",HOUSTON,TX,77478,"(281) 201-5559",,,,
TX,BRAZOS,RES2020-000397,"Single Family Homes",10/26/2020,,128974,2186,"1037 TOLEDO BEND DR","COLLEGE STATION",TX,77845,"MIDTOWN RESERVE",,CONTRACTOR,,,,,,,,,,,"DR HORTON",,,,,"DR HORTON","14100 SOUTHWEST",HOUSTON,TX,77478,"(281) 201-5559",,,,
TX,BRAZOS,RES2020-000398,"Single Family Homes",10/26/2020,,103840,1760,"1035 TOLEDO BEND DR","COLLEGE STATION",TX,77845,"MIDTOWN RESERVE",,CONTRACTOR,,,,,,,,,,,"DR HORTON",,,,,"DR HORTON","14100 SOUTHWEST",HOUSTON,TX,77478,"(281) 201-5559",,,,
TX,BRAZOS,RES2020-000399,"Single Family Homes",10/26/2020,,117174,1986,"1019 TOLEDO BEND DR","COLLEGE STATION",TX,77845,"MIDTOWN RESERVE",,CONTRACTOR,,,,,,,,,,,"DR HORTON",,,,,"DR HORTON","14100 SOUTHWEST",HOUSTON,TX,77478,"(281) 201-5559",,,,
TX,BRAZOS,RES2020-000400,"Single Family Homes",10/26/2020,,107852,1828,"1021 TOLEDO BEND DR","COLLEGE STATION",TX,77845,"MIDTOWN RESERVE",,CONTRACTOR,,,,,,,,,,,"DR HORTON",,,,,"DR HORTON","14100 SOUTHWEST",HOUSTON,TX,77478,"(281) 201-5559",,,,
TX,BRAZOS,RES2020-000402,"Single Family Homes",10/26/2020,,117823,1997,"1036 TOLEDO BEND DR","COLLEGE STATION",TX,77845,"MIDTOWN RESERVE",,CONTRACTOR,,,,,,,,,,,"DR HORTON",,,,,"DR HORTON","14100 SOUTHWEST",HOUSTON,TX,77478,"(281) 201-5559",,,,
TX,BRAZOS,RES2020-000403,"Single Family Homes",10/26/2020,,117823,1997,"1017 TOLEDO BEND DR","COLLEGE STATION",TX,77845,"MIDTOWN RESERVE",,CONTRACTOR,,,,,,,,,,,"DR HORTON",,,,,"DR HORTON","14100 SOUTHWEST",HOUSTON,TX,77478,"(281) 201-5559",,,,
TX,BRAZOS,RES2020-000408,"Single Family Homes",10/26/2020,,144963,2457,"811 DOUBLE MOUNTAIN RD","COLLEGE STATION",TX,77845,"MIDTOWN RESERVE",,CONTRACTOR,,,,,,,,,,,"DR HORTON",,,,,"DR HORTON","14100 SOUTHWEST",HOUSTON,TX,77478,"(281) 201-5559",,,,
TX,BRAZOS,RES2020-000410,"Single Family Homes",10/26/2020,,144963,2457,"805 DOUBLE MOUNTAIN RD","COLLEGE STATION",TX,77845,"MIDTOWN RESERVE",,CONTRACTOR,,,,,,,,,,,"DR HORTON",,,,,"DR HORTON","14100 SOUTHWEST",HOUSTON,TX,77478,"(281) 201-5559",,,,
TX,BRAZOS,RES2020-000396,"Single Family Homes",10/29/2020,,450000,5306,"1791 BLANCO BEND DR","COLLEGE STATION",TX,77845,"MISSION RANCH",,CONTRACTOR,,,,,,,,,,,"RAVENNA HOMES",,,,,"RAVENNA HOMES","28902 POWDER RIDGE DR",KATY,TX,77494-1918,"(281) 693-7209",,,,
TX,BRAZOS,RES2020-000401,"Single Family Homes",10/29/2020,,242100,3418,"6325 DAYTONA DR","COLLEGE STATION",TX,77845,"SOUTHERN POINTE",,CONTRACTOR,,,,,,,,,,,"KALEO HOMES",,,,,"KALEO HOMES","4109 WOODCREST DR",BRYAN,TX,77802-3649,"(979) 575-2182",,,,
TX,BRAZOS,RES2020-000404,"Single Family Homes",10/27/2020,,139830,2370,"1033 TOLEDO BEND DR","COLLEGE STATION",TX,77845,"MIDTOWN RESERVE",,CONTRACTOR,,,,,,,,,,,"DR HORTON",,,,,"DR HORTON","14100 SOUTHWEST",HOUSTON,TX,77478,"(281) 201-5559",,,,
TX,BRAZOS,RES2020-000405,"Single Family Homes",10/27/2020,,128974,2186,"1042 TOLEDO BEND DR","COLLEGE STATION",TX,77845,"MIDTOWN RESERVE",,CONTRACTOR,,,,,,,,,,,"DR HORTON",,,,,"DR HORTON","14100 SOUTHWEST",HOUSTON,TX,77478,"(281) 201-5559",,,,
TX,BRAZOS,RES2020-000406,"Single Family Homes",10/27/2020,,134815,2285,"1045 TOLEDO BEND DR","COLLEGE STATION",TX,77845,"MIDTOWN RESERVE",,CONTRACTOR,,,,,,,,,,,"DR HORTON",,,,,"DR HORTON","14100 SOUTHWEST",HOUSTON,TX,77478,"(281) 201-5559",,,,
TX,BRAZOS,RES2020-000407,"Single Family Homes",10/27/2020,,139830,2370,"1039 TOLEDO BEND DR","COLLEGE STATION",TX,77845,"MIDTOWN RESERVE",,CONTRACTOR,,,,,,,,,,,"DR HORTON",,,,,"DR HORTON","14100 SOUTHWEST",HOUSTON,TX,77478,"(281) 201-5559",,,,
TX,BRAZOS,RES2020-000409,"Single Family Homes",10/27/2020,,128974,2186,"1023 TOLEDO BEND DR","COLLEGE STATION",TX,77845,"MIDTOWN RESERVE",,CONTRACTOR,,,,,,,,,,,"DR HORTON",,,,,"DR HORTON","14100 SOUTHWEST",HOUSTON,TX,77478,"(281) 201-5559",,,,
TX,BRAZOS,RES2020-000411,"Single Family Homes",10/30/2020,,195453,2413,"3916 BROWNWAY CT","COLLEGE STATION",TX,77845,"BREWSTER POINTE",,CONTRACTOR,,,,,,,,,,,"AVONLEY HOMES",,,,,"AVONLEY HOMES","3900 STATE HIGHWAY 6 S STE 110","COLLEGE STATION",TX,77845-5831,"(979) 635-4800",https://www.avonleyhomes.com/,,,info@avonleyhomes.com
TX,BRAZOS,RES2020-000412,"Single Family Homes",10/30/2020,,179820,2220,"4004 HERU CT","COLLEGE STATION",TX,77845,"BREWSTER POINTE",,CONTRACTOR,,,,,,,,,,,"AVONLEY HOMES",,,,,"AVONLEY HOMES","3900 STATE HIGHWAY 6 S STE 110","COLLEGE STATION",TX,77845-5831,"(979) 635-4800",https://www.avonleyhomes.com/,,,info@avonleyhomes.com
TX,MONTGOMERY,177325-20,"Single Family Homes",10/15/2020,,306900,,"8120 TYRELL HEIGHTS DR",HOUSTON,TX,77356,NORTHGROVE,,CONTRACTOR,,,,,,,,,,,"PERRY HOMES",,,,,"PERRY HOMES","9000 GULF FWY",HOUSTON,TX,77017-7018,"(713) 417-1396",,,,
TX,MONTGOMERY,177326-20,"Single Family Homes",10/15/2020,,297601,,"8125 ROSEMARY SAGE DR",HOUSTON,TX,77356,NORTHGROVE,,CONTRACTOR,,,,,,,,,,,"PERRY HOMES",,,,,"PERRY HOMES","9000 GULF FWY",HOUSTON,TX,77017-7018,"(713) 417-1396",,,,
TX,MONTGOMERY,177360-20,"Single Family Homes",10/16/2020,,280463,,"18912 ROSEWOOD TERRACE DR",HOUSTON,TX,77356,TAVOLA,,CONTRACTOR,,,,,,,,,,,"PERRY HOMES",,,,,"PERRY HOMES","9000 GULF FWY",HOUSTON,TX,77017-7018,"(713) 417-1396",,,,
TX,MONTGOMERY,177361-20,"Single Family Homes",10/16/2020,,308025,,"18955 ROSEWOOD TERRACE DR",HOUSTON,TX,77356,TAVOLA,,CONTRACTOR,,,,,,,,,,,"PERRY HOMES",,,,,"PERRY HOMES","9000 GULF FWY",HOUSTON,TX,77017-7018,"(713) 417-1396",,,,
TX,MONTGOMERY,177213-20,"Single Family Homes",10/13/2020,,283390,,"438 THISTLE THORN DR",HOUSTON,TX,77356,"DEL WEBB",,CONTRACTOR,,,,,,,,,,,"PULTE HOMES",,,,,"PULTE HOMES","16670 PARK ROW",HOUSTON,TX,77084-6866,"(281) 749-8000",,,,
TX,MONTGOMERY,177161-20,"Single Family Homes",10/12/2020,,300000,,"255 ARGOSY LN",HOUSTON,TX,77356,"RIDGELAKE SHORES",,"JUAN REYES ","26202 OAK RIDGE DR B104",SPRING,TX,77380,,Owner,,,,,OWNER,,,,,OWNER,,,,,,,,,
TX,MONTGOMERY,177277-20,"Single Family Homes",10/14/2020,,530000,,"30415 MAURICE RD",HOUSTON,TX,77356,"HIGHLAND ESTATES",,"NICK RIFE","8927 ALCINA DR",TOMBALL,TX,77380,,Owner,,,,,OWNER,,,,,OWNER,,,,,,,,,
TX,MONTGOMERY,177279-20,"Single Family Homes",10/14/2020,,750000,,"2 RANCH CREEK WAY",HOUSTON,TX,77362,"THE RANCHES AT PINEHURST",,"ANDREW ROSS","PO BOX 1167",PINEHURST,TX,77362,,Owner,,,,,OWNER,,,,,OWNER,,,,,,,,,
TX,MONTGOMERY,177316-20,"Single Family Homes",10/15/2020,,208500,,"28464 SUNRISE VIEW DR",HOUSTON,TX,77356,"WOODSONS RESERVE",,CONTRACTOR,,,,,,,,,,,"TOLL BROTHERS",,,,,"TOLL BROTHERS","10110 W SAM HOUSTON PKWY N STE 350",HOUSTON,TX,77064-7508,"(281) 664-7255",,,,
TX,MONTGOMERY,177350-20,"Single Family Homes",10/16/2020,,220250,,"28357 STERLING OAK DR",HOUSTON,TX,77356,"WOODSON'S RESERVE",,CONTRACTOR,,,,,,,,,,,"TOLL BROTHERS",,,,,"TOLL BROTHERS","10110 W SAM HOUSTON PKWY N STE 350",HOUSTON,TX,77064-7508,"(281) 664-7255",,,,
TX,MONTGOMERY,177345-20,"Single Family Homes",10/16/2020,,225000,,"3339 MASTERS DR",HOUSTON,TX,77356,"WALDEN ON LAKE CONROE",,CONTRACTOR,,,,,,,,,,,"TRICOR HOMES",,,,,"TRICOR HOMES","13315 BOCA RATON CIR",MONTGOMERY,TX,77356-8577,"(936) 448-2733",http://tricorgroupusa.com,"(936) 582-5434",,info@tricorgroupusa.com
TX,MONTGOMERY,177200-20,"Single Family Homes",10/13/2020,,110000,,"22864 WESER DR",HOUSTON,TX,77356,"RIVER WALK",,CONTRACTOR,,,,,,,,,,,"TWO SONS ENVIRONMENTAL SERVICES",,,,,"TWO SONS ENVIRONMENTAL SERVICES","23565 FM 1314 RD",PORTER,TX,77365-3724,"(281) 354-9284",http://www.two-sons.net,"(281) 354-2107",,twosonsenvironmental@yahoo.com
TX,MONTGOMERY,177300-20,"Single Family Homes",10/15/2020,,110000,,"22753 SONORA DR",HOUSTON,TX,77356,RIVERWALK,,CONTRACTOR,,,,,,,,,,,"TWO SONS ENVIRONMENTAL SERVICES",,,,,"TWO SONS ENVIRONMENTAL SERVICES","23565 FM 1314 RD",PORTER,TX,77365-3724,"(281) 354-9284",http://www.two-sons.net,"(281) 354-2107",,twosonsenvironmental@yahoo.com
TX,MONTGOMERY,177317-20,"Single Family Homes",10/15/2020,,200000,,"19474 RIVERWALK DR",HOUSTON,TX,77356,RIVERWALK,,CONTRACTOR,,,,,,,,,,,"TWO SONS ENVIRONMENTAL SERVICES",,,,,"TWO SONS ENVIRONMENTAL SERVICES","23565 FM 1314 RD",PORTER,TX,77365-3724,"(281) 354-9284",http://www.two-sons.net,"(281) 354-2107",,twosonsenvironmental@yahoo.com
TX,MONTGOMERY,177336-20,"Single Family Homes",10/16/2020,,170000,,"6522 WOODLAND OAKS DR",HOUSTON,TX,77356,"WOODLAND OAKS",,"JOE VALLE","9730 WINDFERN ROAD",HOUSTON,TX,77356,,Owner,,,,,OWNER,,,,,OWNER,,,,,,,,,
TX,MONTGOMERY,177337-20,"Single Family Homes",10/16/2020,,175000,,"6631 HAYDEN DR",HOUSTON,TX,77356,"WOODLAND OAKS",,"JOE VALLE","9730 WINDFERN ROAD",HOUSTON,TX,77064,,Owner,,,,,OWNER,,,,,OWNER,,,,,,,,,
TX,MONTGOMERY,177338-20,"Single Family Homes",10/16/2020,,170000,,"6507 DURANGO DR",HOUSTON,TX,77356,"WOODLAND OAKS",,"JOE VALLE ","9730 WINDFERN ROAD",HOUSTON,TX,77064,,Owner,,,,,OWNER,,,,,OWNER,,,,,,,,,
TX,MONTGOMERY,177255-20,"Single Family Homes",10/14/2020,,291785,,"927 FALCON HOLLOW LN",HOUSTON,TX,77356,WOODTRACE,,CONTRACTOR,,,,,,,,,,,"VILLAGE BUILDERS",,,,,"VILLAGE BUILDERS","550 GREENS PKWY STE 210",HOUSTON,TX,77067-4538,"(281) 873-4663",,,,
TX,MONTGOMERY,177330-20,"Single Family Homes",10/15/2020,,363000,,"9775 DEER HAVEN RON",HOUSTON,TX,77356,"DEER HAVEN VILLAGE",,"RYAN WIGGINS","8982 DEER HAVEN CIRCLE",WILLIS,TX,77378,,Owner,,,,,OWNER,,,,,OWNER,,,,,,,,,
TX,MONTGOMERY,177203-20,"Single Family Homes",10/13/2020,,524929,,"6004 PARKSIDE VILLAS CT",HOUSTON,TX,77356,"VILLAS AT WHITE OAK RANCH",,CONTRACTOR,,,,,,,,,,,"WOODFALLS DEVELOPMENT GROUP LLC",,,,,"WOODFALLS DEVELOPMENT GROUP LLC","12675 LONGMIRE WAY",CONROE,TX,77304-1077,"(936) 703-5445",https://www.woodfallstx.com,"(936) 703-5272",,
TX,MONTGOMERY,177204-20,"Single Family Homes",10/13/2020,,472584,,"12161 CREEKSIDE VILLAS CT",HOUSTON,TX,77356,"VILLAS AT WHITE OAK RANCH",,CONTRACTOR,,,,,,,,,,,"WOODFALLS DEVELOPMENT GROUP LLC",,,,,"WOODFALLS DEVELOPMENT GROUP LLC","12675 LONGMIRE WAY",CONROE,TX,77304-1077,"(936) 703-5445",https://www.woodfallstx.com,"(936) 703-5272",,
TX,MONTGOMERY,177205-20,"Single Family Homes",10/13/2020,,322275,,"12140 CREEKSIDE VILLAS CT",HOUSTON,TX,77356,"VILLAS AT WHITE OAK RANCH",,CONTRACTOR,,,,,,,,,,,"WOODFALLS DEVELOPMENT GROUP LLC",,,,,"WOODFALLS DEVELOPMENT GROUP LLC","12675 LONGMIRE WAY",CONROE,TX,77304-1077,"(936) 703-5445",https://www.woodfallstx.com,"(936) 703-5272",,
TX,MONTGOMERY,177495-20,"Single Family Homes",10/22/2020,,150000,,"21010 KAREN SWITCH ROAD",HOUSTON,TX,77356,,,CONTRACTOR,,,,,,,,,,,"AES SEPTIC",,,,,"AES SEPTIC","30703 N CRIPPLE CREEK DR",MAGNOLIA,TX,77354-1973,"(281) 356-5000",,,,
TX,MONTGOMERY,177496-20,"Single Family Homes",10/22/2020,,250000,,"5410 WHITE BIRCH RUN",HOUSTON,TX,77356,"BENDERS LANDING ESTATES",,CONTRACTOR,,,,,,,,,,,"AES SEPTIC",,,,,"AES SEPTIC","30703 N CRIPPLE CREEK DR",MAGNOLIA,TX,77354-1973,"(281) 356-5000",,,,
TX,MONTGOMERY,177446-20,"Single Family Homes",10/21/2020,,75000,,"15225 ARROWHEAD LOOP W",HOUSTON,TX,77356,"ARROWHEARD LAKES",,CONTRACTOR,,,,,,,,,,,"ASGI HOMES",,,,,"ASGI HOMES","2257 N LOOP 336 W STE 140-370",CONROE,TX,77304-3566,"(888) 991-0005",http://www.asgihomes.com,,,
TX,MONTGOMERY,177449-20,"Single Family Homes",10/21/2020,,75000,,"15231 ARROWHEAD LOOP W",HOUSTON,TX,77356,"ARROWHEAD LAKES",,CONTRACTOR,,,,,,,,,,,"ASGI HOMES",,,,,"ASGI HOMES","2257 N LOOP 336 W STE 140-370",CONROE,TX,77304-3566,"(888) 991-0005",http://www.asgihomes.com,,,
TX,MONTGOMERY,177512-20,"Single Family Homes",10/22/2020,,75000,,"14862 BIG SPRING CIRCLE",HOUSTON,TX,77356,"ARROWHEAD LAKES",,CONTRACTOR,,,,,,,,,,,"ASGI HOMES",,,,,"ASGI HOMES","2257 N LOOP 336 W STE 140-370",CONROE,TX,77304-3566,"(888) 991-0005",http://www.asgihomes.com,,,
TX,MONTGOMERY,"177453- 20","Single Family Homes",10/21/2020,,115860,,"32056 AUGUST WOODS WAY",HOUSTON,TX,77356,"MEADOWS AT IMPERIAL OAKS",,CONTRACTOR,,,,,,,,,,,"ASHTON WOODS HOMES",,,,,"ASHTON WOODS HOMES","10110 W SAM HOUSTON PKWY N",HOUSTON,TX,77064-7508,"(832) 478-9028",,,,
TX,MONTGOMERY,"177454 -20","Single Family Homes",10/21/2020,,130920,,"32083 AUGUST WOODS WAY",HOUSTON,TX,77356,"MEADOWS AT IMPERIAL OAKS",,CONTRACTOR,,,,,,,,,,,"ASHTON WOODS HOMES",,,,,"ASHTON WOODS HOMES","10110 W SAM HOUSTON PKWY N",HOUSTON,TX,77064-7508,"(832) 478-9028",,,,
TX,MONTGOMERY,177455-20,"Single Family Homes",10/21/2020,,143100,,"30969 LAUREN CREEK LN",HOUSTON,TX,77356,"MEADOWS AT IMPERIAL OAKS",,CONTRACTOR,,,,,,,,,,,"ASHTON WOODS HOMES",,,,,"ASHTON WOODS HOMES","10110 W SAM HOUSTON PKWY N",HOUSTON,TX,77064-7508,"(832) 478-9028",,,,
TX,MONTGOMERY,"177371- 20","Single Family Homes",10/19/2020,,130000,,"24230 GLEN LOCH DR",HOUSTON,TX,77356,"TIMBER LAKES",,"MOHAMED AZAZY","150 S STAR RIDGE CIRCLE",SPRING,TX,77386,,Owner,,,,,OWNER,,,,,OWNER,,,,,,,,,
TX,MONTGOMERY,177375-20,"Single Family Homes",10/19/2020,,133835,,"2321 HARMONY GLADE LN",HOUSTON,TX,77356,"SOLSTICE AT HARMONY",,CONTRACTOR,,,,,,,,,,,"CASTLEROCK COMMUNITIES",,,,,"CASTLEROCK COMMUNITIES","7670 WOODWAY DR STE 300",HOUSTON,TX,77063-1520,"(713) 600-7000",http://c-rock.com,"(713) 600-0000",,
TX,MONTGOMERY,177463-20,"Single Family Homes",10/21/2020,,134846,,"315 NORTH SPOTTED FERN DR",HOUSTON,TX,77356,"WOOD FOREST",,CONTRACTOR,,,,,,,,,,,"CHESMAR HOMES",,,,,"CHESMAR HOMES","450 GEARS RD STE 400",HOUSTON,TX,77067-4513,"(281) 598-1111",http://chesmar.com,"(281) 598-1115",,customerservice.houston@chesmar.com
TX,MONTGOMERY,177465-20,"Single Family Homes",10/21/2020,,135154,,"311 NORTH SPOTTED FERN DR",HOUSTON,TX,77356,WOODFOREST,,CONTRACTOR,,,,,,,,,,,"CHESMAR HOMES",,,,,"CHESMAR HOMES","450 GEARS RD STE 400",HOUSTON,TX,77067-4513,"(281) 598-1111",http://chesmar.com,"(281) 598-1115",,customerservice.houston@chesmar.com
TX,MONTGOMERY,177560-20,"Single Family Homes",10/23/2020,,224506,,"286 NORTH WILD PETUNIA TRAIL",HOUSTON,TX,77356,"BONTERRA AT WOODFOREST",,CONTRACTOR,,,,,,,,,,,"DARLING HOMES",,,,,"DARLING HOMES","10255 RICHMOND AVE STE 150",HOUSTON,TX,77042-4382,"(713) 690-6902",http://www.darlinghomes.com/,,,
TX,MONTGOMERY,177561-20,"Single Family Homes",10/23/2020,,224506,,"110 SOUTH OCOTILLO RIDGE",HOUSTON,TX,77356,"BONTERRA AT WOODFOREST",,CONTRACTOR,,,,,,,,,,,"DARLING HOMES",,,,,"DARLING HOMES","10255 RICHMOND AVE STE 150",HOUSTON,TX,77042-4382,"(713) 690-6902",http://www.darlinghomes.com/,,,
TX,MONTGOMERY,177562-20,"Single Family Homes",10/23/2020,,224506,,"141 PEPPER GRASS PLACE",HOUSTON,TX,77356,"BONTERRA AT WOODFOREST",,CONTRACTOR,,,,,,,,,,,"DARLING HOMES",,,,,"DARLING HOMES","10255 RICHMOND AVE STE 150",HOUSTON,TX,77042-4382,"(713) 690-6902",http://www.darlinghomes.com/,,,
TX,MONTGOMERY,177563-20,"Single Family Homes",10/23/2020,,224506,,"304 NORTH ARROWHEAD LN",HOUSTON,TX,77356,"BONTERRA AT WOODFOREST",,CONTRACTOR,,,,,,,,,,,"DARLING HOMES",,,,,"DARLING HOMES","10255 RICHMOND AVE STE 150",HOUSTON,TX,77042-4382,"(713) 690-6902",http://www.darlinghomes.com/,,,
TX,MONTGOMERY,177564-20,"Single Family Homes",10/23/2020,,224506,,"316 NORTH ARROWHEAD LN",HOUSTON,TX,77356,"BONTERRA AT WOODFOREST",,CONTRACTOR,,,,,,,,,,,"DARLING HOMES",,,,,"DARLING HOMES","10255 RICHMOND AVE STE 150",HOUSTON,TX,77042-4382,"(713) 690-6902",http://www.darlinghomes.com/,,,
TX,MONTGOMERY,17'7566-20,"Single Family Homes",10/23/2020,,224506,,"129 PEPPER GRASS PLACE",HOUSTON,TX,77356,"BONTERRA AT WOODFOREST",,CONTRACTOR,,,,,,,,,,,"DARLING HOMES",,,,,"DARLING HOMES","10255 RICHMOND AVE STE 150",HOUSTON,TX,77042-4382,"(713) 690-6902",http://www.darlinghomes.com/,,,
TX,MONTGOMERY,177567-20,"Single Family Homes",10/23/2020,,224506,,"119 EAST BUFFALO CWVER CT",HOUSTON,TX,77356,"BONTERRA AT WOODFOREST",,CONTRACTOR,,,,,,,,,,,"DARLING HOMES",,,,,"DARLING HOMES","10255 RICHMOND AVE STE 150",HOUSTON,TX,77042-4382,"(713) 690-6902",http://www.darlinghomes.com/,,,
TX,MONTGOMERY,177570-20,"Single Family Homes",10/23/2020,,224506,,"110 WEST SILKY SEPHORA CT",HOUSTON,TX,77356,"BONTERRA AT WOODFOREST",,CONTRACTOR,,,,,,,,,,,"DARLING HOMES",,,,,"DARLING HOMES","10255 RICHMOND AVE STE 150",HOUSTON,TX,77042-4382,"(713) 690-6902",http://www.darlinghomes.com/,,,
TX,MONTGOMERY,177382-20,"Single Family Homes",10/19/2020,,627990,,"116 EAST SHELL PORT SQUARE",HOUSTON,TX,77356,"LAKE WOODLANDS EAST SHORE",,CONTRACTOR,,,,,,,,,,,"DAVID WEEKLEY HOMES",,,,,"DAVID WEEKLEY HOMES","14444 NORTHWEST",HOUSTON,TX,77040,"(713) 570-5021",http://www.davidweekleyhomes.com/,,,
TX,MONTGOMERY,177384-20,"Single Family Homes",10/19/2020,,627990,,"32 AMERSON BAY WAY",HOUSTON,TX,77356,"LAKE WOODLANDS EAST SHORE",,CONTRACTOR,,,,,,,,,,,"DAVID WEEKLEY HOMES",,,,,"DAVID WEEKLEY HOMES","14444 NORTHWEST",HOUSTON,TX,77040,"(713) 570-5021",http://www.davidweekleyhomes.com/,,,
TX,MONTGOMERY,177544-20,"Single Family Homes",10/23/2020,,342990,,"32156 PARK PLAINS DR",HOUSTON,TX,77356,"MEADOWS AT IMPERIAL OAKS",,CONTRACTOR,,,,,,,,,,,"DAVID WEEKLEY HOMES",,,,,"DAVID WEEKLEY HOMES","14444 NORTHWEST",HOUSTON,TX,77040,"(713) 570-5021",http://www.davidweekleyhomes.com/,,,
TX,MONTGOMERY,177545-20,"Single Family Homes",10/23/2020,,319990,,"2903 OAKCREST MEADOW CT",HOUSTON,TX,77356,"MEADOWS AT IMPERIAL OAKS",,CONTRACTOR,,,,,,,,,,,"DAVID WEEKLEY HOMES",,,,,"DAVID WEEKLEY HOMES","14444 NORTHWEST",HOUSTON,TX,77040,"(713) 570-5021",http://www.davidweekleyhomes.com/,,,
TX,MONTGOMERY,177546-20,"Single Family Homes",10/23/2020,,377990,,"32104 PARK PLAINS DR",HOUSTON,TX,77356,"MEADOWS AT IMPERIAL OAKS",,CONTRACTOR,,,,,,,,,,,"DAVID WEEKLEY HOMES",,,,,"DAVID WEEKLEY HOMES","14444 NORTHWEST",HOUSTON,TX,77040,"(713) 570-5021",http://www.davidweekleyhomes.com/,,,
TX,MONTGOMERY,"177376 - 20","Single Family Homes",10/19/2020,,115000,,"10044 SWIFT FOX CT",HOUSTON,TX,77356,"MILL CREEK NORTH",,CONTRACTOR,,,,,,,,,,,"DEVON STREET HOMES",,,,,"DEVON STREET HOMES","4545 POST OAK PLACE DR STE 345",HOUSTON,TX,77027-3198,"(713) 622-1009",http://www.devonstreethomes.com,"(713) 622-1094",,
TX,MONTGOMERY,177377-20,"Single Family Homes",10/19/2020,,92000,,"10013 SWIFT FOX CT",HOUSTON,TX,77356,"MILL CREEK NORTH",,CONTRACTOR,,,,,,,,,,,"DEVON STREET HOMES",,,,,"DEVON STREET HOMES","4545 POST OAK PLACE DR STE 345",HOUSTON,TX,77027-3198,"(713) 622-1009",http://www.devonstreethomes.com,"(713) 622-1094",,
TX,MONTGOMERY,177369-20,"Single Family Homes",10/19/2020,,638307,,"1031 WOODED LANDING LN",HOUSTON,TX,77356,WOODTRACE,,CONTRACTOR,,,,,,,,,,,"DREES CUSTOM HOMES",,,,,"DREES CUSTOM HOMES","9720 CYPRESSWOOD DR",HOUSTON,TX,77070-3355,"(281) 653-8850",http://www.dreeshomes.com,,,
TX,MONTGOMERY,177370-20,"Single Family Homes",10/19/2020,,493847,,"10101 SOUTH GOSHAWK TR",HOUSTON,TX,77356,"HARPER'S PRESERVE",,CONTRACTOR,,,,,,,,,,,"DREES CUSTOM HOMES",,,,,"DREES CUSTOM HOMES","9720 CYPRESSWOOD DR",HOUSTON,TX,77070-3355,"(281) 653-8850",http://www.dreeshomes.com,,,
TX,MONTGOMERY,177515-20,"Single Family Homes",10/22/2020,,100000,,"11627 VISTAWOOD",HOUSTON,TX,77356,"WALNUT COVE",,CONTRACTOR,,,,,,,,,,,"DULCE VISTA HOMES",,,,,"DULCE VISTA HOMES","6 N CHANTSONG CIR","THE WOODLANDS",TX,77382-2610,"(713) 301-4913",http://www.dulcevistahomes.com/,,"MICHAEL WATSON",
TX,MONTGOMERY,177516-20,"Single Family Homes",10/22/2020,,100000,,"11625 VISTAWOOD",HOUSTON,TX,77356,"WALNUT COVE",,CONTRACTOR,,,,,,,,,,,"DULCE VISTA HOMES",,,,,"DULCE VISTA HOMES","6 N CHANTSONG CIR","THE WOODLANDS",TX,77382-2610,"(713) 301-4913",http://www.dulcevistahomes.com/,,"MICHAEL WATSON",
TX,MONTGOMERY,177518-20,"Single Family Homes",10/22/2020,,100000,,"11623 VISTAWOOD",HOUSTON,TX,77356,"WALNUT COVE",,CONTRACTOR,,,,,,,,,,,"DULCE VISTA HOMES",,,,,"DULCE VISTA HOMES","6 N CHANTSONG CIR","THE WOODLANDS",TX,77382-2610,"(713) 301-4913",http://www.dulcevistahomes.com/,,"MICHAEL WATSON",
TX,MONTGOMERY,177417-20,"Single Family Homes",10/20/2020,,226620,,"9952 PRESERVE WAY",HOUSTON,TX,77356,"HARPERS PRESERVE",,CONTRACTOR,,,,,,,,,,,"EHT OF TEXAS LP",,,,,"EHT OF TEXAS LP","10235 LITTLE",HOUSTON,TX,77040,"(713) 557-3685",,,,
TX,MONTGOMERY,177573-20,"Single Family Homes",10/23/2020,,248990,,"11425 NATALIA LN",HOUSTON,TX,77356,"CLEAR VIEW ESTATES",,CONTRACTOR,,,,,,,,,,,"FIRST AMERICA HOMES",,,,,"FIRST AMERICA HOMES","1401 WOODLANDS PARKWAY","THE WOODLANDS",TX,77380-1179,"(713) 452-1700",https://www.firstamericahomes.com/,,,info@firstamericahomes.com
TX,MONTGOMERY,177517-20,"Single Family Homes",10/22/2020,,408771,,"12615 LUGER LN",HOUSTON,TX,77356,"MOSTYN MANOR",,CONTRACTOR,,,,,,,,,,,"HARRISBURG HOMES",,,,,"HARRISBURG HOMES","21615 FIREMIST WAY",CYPRESS,TX,77433-3507,"(713) 249-8196",http://www.harrisburgtx.com/,,SHAWN,info@harrisburgtx.com
TX,MONTGOMERY,177559-20,"Single Family Homes",10/23/2020,,385320,,"32318 TALL OAKS WAY",HOUSTON,TX,77356,"THOUSAND OAKS",,CONTRACTOR,,,,,,,,,,,"HARRISBURG HOMES",,,,,"HARRISBURG HOMES","21615 FIREMIST WAY",CYPRESS,TX,77433-3507,"(713) 249-8196",http://www.harrisburgtx.com/,,SHAWN,info@harrisburgtx.com
TX,MONTGOMERY,177522-20,"Single Family Homes",10/23/2020,,200000,,"7806 AXIS RIDGE DR",HOUSTON,TX,77356,NORTHGROVE,,CONTRACTOR,,,,,,,,,,,"HIGHLAND HOMES",,,,,"HIGHLAND HOMES","10930 W SAM HOUSTON PKWY N STE 100",HOUSTON,TX,77064-6331,"(281) 517-9800",,,,
TX,MONTGOMERY,177523-20,"Single Family Homes",10/23/2020,,200000,,"27028 HIDDEN ROCK CT",HOUSTON,TX,77356,NORTHGROVE,,CONTRACTOR,,,,,,,,,,,"HIGHLAND HOMES",,,,,"HIGHLAND HOMES","10930 W SAM HOUSTON PKWY N STE 100",HOUSTON,TX,77064-6331,"(281) 517-9800",,,,
TX,MONTGOMERY,177524-20,"Single Family Homes",10/23/2020,,180000,,"7805 AXIS RIDGE DR",HOUSTON,TX,77356,NORTHGROVE,,CONTRACTOR,,,,,,,,,,,"HIGHLAND HOMES",,,,,"HIGHLAND HOMES","10930 W SAM HOUSTON PKWY N STE 100",HOUSTON,TX,77064-6331,"(281) 517-9800",,,,
TX,MONTGOMERY,177526-20,"Single Family Homes",10/23/2020,,200000,,"7801 AXIS RIDGE DR",HOUSTON,TX,77356,NORTHGROVE,,CONTRACTOR,,,,,,,,,,,"HIGHLAND HOMES",,,,,"HIGHLAND HOMES","10930 W SAM HOUSTON PKWY N STE 100",HOUSTON,TX,77064-6331,"(281) 517-9800",,,,
TX,MONTGOMERY,177527-20,"Single Family Homes",10/23/2020,,200000,,"27119 HIDDEN ROCK CT",HOUSTON,TX,77356,NORTHGROVE,,CONTRACTOR,,,,,,,,,,,"HIGHLAND HOMES",,,,,"HIGHLAND HOMES","10930 W SAM HOUSTON PKWY N STE 100",HOUSTON,TX,77064-6331,"(281) 517-9800",,,,
TX,MONTGOMERY,"177468 20","Single Family Homes",10/21/2020,,143000,,"18816 SAWTOOTH OAK CT",HOUSTON,TX,77356,"GLEN OAKS",,CONTRACTOR,,,,,,,,,,,"K HOVNANIAN HOMES",,,,,"K HOVNANIAN HOMES","13111 NORTHWEST FWY STE 200",HOUSTON,TX,77040-6311,"(713) 460-0264",,,,
TX,HARRIS,2008270178,"Warehouse & Manufacturing",10/16/2020,,250000,8400,"21239 FM 529 RD",HOUSTON,TX,77356,,,CONTRACTOR,,,,,,,,,,,"EPOCH CONSTRUCTION",,,,,"EPOCH CONSTRUCTION","10696 HADDINGTON DR",HOUSTON,TX,77043-2847,"(281) 888-6761",http://epochconstruction.net,"(281) 501-1125",,info@epochconstruction.net
TX,HARRIS,CB-001758-2020,"Warehouse & Manufacturing",10/15/2020,Renovation,250000,,"2851E PASADENA BLVD STE 100","DEER PARK",TX,77536,,,CONTRACTOR,,,,,,,,,,,"ACTIVE INDUSTRIAL FIRE PROTECTION",,,,,"ACTIVE INDUSTRIAL FIRE PROTECTION","13100 WORTHAM CENTER DR FL 3",HOUSTON,TX,77065-5625,"(713) 491-6539",https://activeindustrialfireprotection.com/,,,sales@aifpllc.com
TX,HARRIS,CB-001981-2020,"Warehouse & Manufacturing",10/14/2020,Renovation,1300000,,"4600 UNDERWOOD RD","DEER PARK",TX,77536,,,CONTRACTOR,,,,,,,,,,,"GSD CONSTRUCTION",,,,,"GSD CONSTRUCTION","1901 HOUSTON AVE",HOUSTON,TX,77007-4143,"(713) 917-6837",http://www.generalsd.com/,"(832) 415-0587","AARON DAVIS",a.davis@generalsd.com
TX,HARRIS,201071,"Warehouse & Manufacturing",10/19/2020,Renovation,270000,,"7259 RANKIN RD",HUMBLE,TX,77396,,,CONTRACTOR,,,,,,,,,,,"CADENCE MCSHANE CONSTRUCTION",,,,,"CADENCE MCSHANE CONSTRUCTION","11757 KATY FWY STE 675",HOUSTON,TX,77079-1719,"(713) 681-8500",http://cadencemcshane.com,"(713) 681-9990","Colby Rose",crose@cadencemcshane.com
TX,HARRIS,20050805,"Warehouse & Manufacturing",11/19/2020,,2000000,,"6900 HOLLISTER ST BLD",HOUSTON,TX,77040,,,CONTRACTOR,,,,,,,,,,,"CLAY CONSTRUCTION & DEVELOP",,,,,"CLAY CONSTRUCTION & DEVELOP","5599 SAN FELIPE",HOUSTON,TX,77055,"(855) 263-3475",,,,
TX,HARRIS,20002609,"Warehouse & Manufacturing",11/20/2020,,1540000,,"2222 N WAYSIDE DR BLD",HOUSTON,TX,77020,,,CONTRACTOR,,,,,,,,,,,"GRA - GULF COAST CONSTRUCTION",,,,,"GRA - GULF COAST CONSTRUCTION","2400 CENTRAL PKWY STE",HOUSTON,TX,77092,"(713) 934-7797",https://gra-gcc.com/,,"MCCARTHY SCOTT",
