state,county,permno,ptype,pdate,pdescription,jvalue,jsqfeet,jaddr,jcity,jstate,jzip,jsubdiv,jlotno,aname,aaddr,acity,astate,azip,aphone,atype,aurl,afax,aprimarycontact,aemail,bldcode,units,bldgs,ctype,legal,contractor,caddress,ccity,cstate,czip,cphone,curl,cfax,cprimarycontact,cemail
TX,HARRIS,20051193,"Auto Sales & Services",12/16/2020,,500000,,"8381 SOUTH SAM HOUSTON EAST",HOUSTON,TX,77075,,,CONTRACTOR,,,,,,,,,,,"BOVAY ENGINEERS",,,,,"BOVAY ENGINEERS","9100 SOUTHWEST FWY STE 201",HOUSTON,TX,77074-1513,"(713) 777-8400",http://www.bovayengineers.com/,"(713) 541-5535",,info@bovayengineers.com
TX,BELL,"20 00005951","Churches & Other Religious",11/19/2020,,68300,2150,"3000 LITTLE NOLAN RD",KILLEEN,TX,76548,,,CONTRACTOR,,,,,,,,,,,"MARTINKA CONSTRUCTION",,,,,"MARTINKA CONSTRUCTION","201 ROADRUNNER LN",KILLEEN,TX,76542-4211,"(254) 535-4036",,,,
TX,BELL,"20 00005645","Churches & Other Religious",11/24/2020,,345000,,"102 E CHURCH AVE",KILLEEN,TX,76548,,,CONTRACTOR,,,,,,,,,,,"AYCOCK CONSTRUCTION",,,,,"AYCOCK CONSTRUCTION","1300 E FM 2410 RD","HARKER HEIGHTS",TX,76548-6848,"(254) 698-2551",http://www.aycockconstruction.com/,"(254) 698-1169",,aycock2551@yahoo.com
TX,HARRIS,2005090004,"Churches & Other Religious",11/16/2020,,3385500,33855,"14130 HARGRAVE RD",HOUSTON,TX,77356,"LANIER THEOLOGICAL LIBRARY",,"MARK LANIER","14130 HARGRAVE RD",HOUSTON,TX,77356,,Owner,,,,,OWNER,,,,,OWNER,,,,,,,,,
TX,BELL,"20 00006818","Duplex, Triplex, & Fourplex",11/18/2020,,,3158,"5906 HARRIET TUBMAN AVE",KILLEEN,TX,76248,,,CONTRACTOR,,,,,,,,,,,"FLINTROCK BUILDERS",,,,,"FLINTROCK BUILDERS","105 EAST, FARM TO MARKET 2410","HARKER HEIGHTS",TX,76548,"(254) 393-1412",,,,
TX,BELL,"20 00006671","Duplex, Triplex, & Fourplex",11/18/2020,,,3158,"5902 HARRIET TUBMAN AVE",KILLEEN,TX,76548,,,CONTRACTOR,,,,,,,,,,,"FLINTROCK BUILDERS",,,,,"FLINTROCK BUILDERS","105 EAST, FARM TO MARKET 2410","HARKER HEIGHTS",TX,76548,"(254) 393-1412",,,,
TX,BELL,"20 00006695","Duplex, Triplex, & Fourplex",11/5/2020,,,3158,"6000 HARRIET TUBMAN AVE",KILLEEN,TX,76248,,,CONTRACTOR,,,,,,,,,,,"FLINTROCK BUILDERS",,,,,"FLINTROCK BUILDERS","105 EAST, FARM TO MARKET 2410","HARKER HEIGHTS",TX,76548,"(254) 393-1412",,,,
TX,BELL,"20 00006685","Duplex, Triplex, & Fourplex",11/18/2020,,,3158,"5900 HARRIET TUBMAN AVE",KILLEEN,TX,76248,,,CONTRACTOR,,,,,,,,,,,"FLINTROCK BUILDERS",,,,,"FLINTROCK BUILDERS","105 EAST, FARM TO MARKET 2410","HARKER HEIGHTS",TX,76548,"(254) 393-1412",,,,
TX,BELL,"20 00006691","Duplex, Triplex, & Fourplex",11/18/2020,,,3158,"5904 HARRIET TUBMAN AVE",KILLEEN,TX,76248,,,CONTRACTOR,,,,,,,,,,,"FLINTROCK BUILDERS",,,,,"FLINTROCK BUILDERS","105 EAST, FARM TO MARKET 2410","HARKER HEIGHTS",TX,76548,"(254) 393-1412",,,,
TX,BELL,"20 00006693","Duplex, Triplex, & Fourplex",11/5/2020,,,3158,"5910 HARRIET TUBMAN AVE",KILLEEN,TX,76248,,,CONTRACTOR,,,,,,,,,,,"FLINTROCK BUILDERS",,,,,"FLINTROCK BUILDERS","105 EAST, FARM TO MARKET 2410","HARKER HEIGHTS",TX,76548,"(254) 393-1412",,,,
TX,BELL,"20 00006686","Duplex, Triplex, & Fourplex",11/18/2020,,,3158,"5814 HARRIET TUBMAN AVE",KILLEEN,TX,76248,,,CONTRACTOR,,,,,,,,,,,"FLINTROCK BUILDERS",,,,,"FLINTROCK BUILDERS","105 EAST, FARM TO MARKET 2410","HARKER HEIGHTS",TX,76548,"(254) 393-1412",,,,
TX,BELL,"20 00006694","Duplex, Triplex, & Fourplex",11/5/2020,,,3158,"5912 HARRIET TUBMAN AVE",KILLEEN,TX,76548,,,CONTRACTOR,,,,,,,,,,,"FLINTROCK BUILDERS",,,,,"FLINTROCK BUILDERS","105 EAST, FARM TO MARKET 2410","HARKER HEIGHTS",TX,76548,"(254) 393-1412",,,,
TX,BELL,"20 00006692","Duplex, Triplex, & Fourplex",11/5/2020,,,3158,"5908 HARRIET TUBMAN AVE",KILLEEN,TX,76248,,,CONTRACTOR,,,,,,,,,,,"FLINTROCK BUILDERS",,,,,"FLINTROCK BUILDERS","105 EAST, FARM TO MARKET 2410","HARKER HEIGHTS",TX,76548,"(254) 393-1412",,,,
TX,HARRIS,20090729,"Educational Institution",11/3/2020,,14900000,,"8060 SPENCER HWY 3",PASADENA,TX,77504,,,CONTRACTOR,,,,,,,,,,,"BROOKSTONE CONSTRUCTION",,,,,"BROOKSTONE CONSTRUCTION","3715 DACOMA ST",HOUSTON,TX,77092,"(713) 683-8800",,,,
TX,HARRIS,20094528,"Educational Institution",12/18/2020,,104900,,"15817 BLUE RIDGE",HOUSTON,TX,77489,,,CONTRACTOR,,,,,,,,,,,"PRIME CONTRACTORS",,,,,"PRIME CONTRACTORS","17355 VILLAGE GREEN DR","JERSEY VILLAGE",TX,77040-1150,"(281) 999-0875",http://www.primecontractorsinc.com/,"(281) 999-0885",,
TX,HARRIS,1909120114,"Hospital & Other Medical",11/16/2020,,1750000,6147,"15016 FM 529 RD",HOUSTON,TX,77356,HEARTHSTONE,,"TERRY WARD","15016 FM 529 RD",HOUSTON,TX,77356,,Owner,,,,,OWNER,,,,,OWNER,,,,,,,,,
TX,MONTGOMERY,20201513,"Hospital & Other Medical",11/4/2020,,318160,,"1120 MEDICAL PLAZA LEV 1",SHENANDOAH,TX,77586,,,"MEMORIAN HERMAN","1120 MEDICAL PLAZA LEV 1",SHENANDOAH,TX,77586,,Owner,,,,,OWNER,,,,,OWNER,,,,,,,,,
TX,MONTGOMERY,1533,"Hospital & Other Medical",11/3/2020,,116102,,"9250 PINECROFT DR",SHENANDOAH,TX,77386,,,"MEMORIAL HEALTHCARE SYSTEMS","9250 PINECROFT DR",SHENANDOAH,TX,77386,,Owner,,,,,OWNER,,,,,OWNER,,,,,,,,,
TX,HARRIS,20073299,"Hospital & Other Medical",12/15/2020,,1500000,,"10830 KATY",HOUSTON,TX,77043,,,CONTRACTOR,,,,,,,,,,,"STEWART DEVELOPMENT & CONSTRUCTION",,,,,"STEWART DEVELOPMENT & CONSTRUCTION","16565 VILLAGE",HOUSTON,TX,77040,"(855) 263-3475",,,,
TX,HARRIS,2008250109,"Hospital & Other Medical",11/16/2020,,3600000,17565,"15049 WALLISVILLE RD",HOUSTON,TX,77356,"WALLISVILLE PASS",,"DOW HEALTHCARE MANAGEMENT LLC","15049 WALLISVILLE RD",HOUSTON,TX,77356,,Owner,,,,,OWNER,,,,,OWNER,,,,,,,,,
TX,HARRIS,1910080206,"Hotel, Motel & Assisted Living",11/16/2020,,2700000,27081,"1720 HIGHWAY 90",HOUSTON,TX,77356,"STAR CENTER",,CONTRACTOR,,,,,,,,,,,"LEGACY PARTNERS RESIDENTIAL DEVELOPMENT",,,,,"LEGACY PARTNERS RESIDENTIAL DEVELOPMENT","13155 NOEL RD STE 825",DALLAS,TX,75240-1521,"(972) 728-7219",,,,
TX,HARRIS,20071703,"Multi Family Apartments & Condos",12/18/2020,,3998946,,"19302 GLENWEST DR BLD",HOUSTON,TX,77546,,,CONTRACTOR,,,,,,,,,,,"BOXER PROPERTY",,,,,"BOXER PROPERTY","720 N POST OAK RD STE 500",HOUSTON,TX,77024-3928,"(713) 777-7368",http://www.boxerproperty.com,"(713) 780-9708",,
TX,HARRIS,2002270134,"Multi Family Apartments & Condos",11/16/2020,,2242725,10207,"2911 W EL DORADO BLVD",HOUSTON,TX,77356,"PROSPERITY FRIENDSWOOD",,"ALLORA FRIENDSWOOD","2911 W EL DORADO BLVD",HOUSTON,TX,77356,,Owner,,,,,OWNER,,,,,OWNER,,,,,,,,,
TX,MONTGOMERY,178482-20,"Multi Family Renovations & Additions",11/25/2020,Renovation,50000,,"15685-15695 PECAN DRIVE",HOUSTON,TX,77356,"HIDDEN FOREST ESTATES",,CONTRACTOR,,,,,,,,,,,"OMG BUILDERS",,,,,"OMG BUILDERS","2257 N LOOP 336 W STE 140-303",CONROE,TX,77304,"(832) 457-9442",,,,
TX,HARRIS,2002050059,"Offices, R&D, & Professional",11/16/2020,,1300000,8983,"23227 RED RIVER DR",HOUSTON,TX,77356,"KINGSPLACE PARK",,CONTRACTOR,,,,,,,,,,,"HENNESSEE COMPANIES",,,,,"HENNESSEE COMPANIES","24215 KINGSLAND BLVD",KATY,TX,77494-2976,"(281) 579-8880",http://www.hcibuilders.com/,"(281) 579-1822",,info@hcibuilders.com
TX,BRAZORIA,"20 - 2165","Offices, R&D, & Professional",11/10/2020,,32627,,"1600 E HWY 6",ALVIN,TX,77511,,,CONTRACTOR,,,,,,,,,,,"BITTICK EQUIPMENT INSTALLATIONS INC",,,,,"BITTICK EQUIPMENT INSTALLATIONS INC","12500 US-59",SPLENDORA,TX,77372,"(281) 689-8181",,,,
TX,HARRIS,20080705,"Offices, R&D, & Professional",11/16/2020,,600000,,"4744 VISTA RD",PASADENA,TX,77057,,,CONTRACTOR,,,,,,,,,,,"WALLACE DEVELOPMENT",,,,,"WALLACE DEVELOPMENT","2600 ROSEWOOD AVE",AUSTIN,TX,78702-2412,"(512) 636-0400",,,,
TX,BELL,"20 00005237","Offices, R&D, & Professional",11/30/2020,,225000,,"2150 E ELMS RD",KILLEEN,TX,76548,,,"ELM CENTER","2150 E ELMS RD",KILLEEN,TX,76548,,Owner,,,,,OWNER,,,,,OWNER,,,,,,,,,
TX,BELL,"20 00007327","Offices, R&D, & Professional",11/12/2020,,45000,,"3917 E STAN SCHLUETER LP",KILLEEN,TX,76548,,,CONTRACTOR,,,,,,,,,,,"MARCON CONSTRUCTION",,,,,"MARCON CONSTRUCTION","708 E HOWARD LN",AUSTIN,TX,78753-9743,"(512) 990-7808",,,,
TX,HARRIS,20023995,"Offices, R&D, & Professional",12/21/2020,,2500000,,"3202 COMMERCE",HOUSTON,TX,77003,,,CONTRACTOR,,,,,,,,,,,"JARVIS CIVIL ENGINEERING",,,,,"JARVIS CIVIL ENGINEERING","1310 RAYFORD PARK RD, STE 207",SPRING,TX,77386,"(281) 757-8133",,,,
TX,HARRIS,20107937,"Offices, R&D, & Professional",12/15/2020,,84880,,"1300 WEST SAM HOUSTON SOUTH PKY",HOUSTON,TX,77002,,,CONTRACTOR,,,,,,,,,,,"CANNON ENTERPRISES",,,,,"CANNON ENTERPRISES","230 RILEY FUZZEL RD",SPRING,TX,77373,"(281) 353-6868",,,,
TX,HARRIS,20090255,"Offices, R&D, & Professional",12/16/2020,,441000,,"11044 BAY COMMERCE",HOUSTON,TX,77034,,,CONTRACTOR,,,,,,,,,,,"WYCOFF DEVELOPMENT",,,,,"WYCOFF DEVELOPMENT","145 MAGELLAN",HOUSTON,TX,77598,"(281) 332-0260",,,,
TX,HARRIS,20093211,"Offices, R&D, & Professional",12/16/2020,,221000,,"11044 BAY COMMERCE DR",HOUSTON,TX,77034,,,CONTRACTOR,,,,,,,,,,,"WYCOFF DEVELOPMENT",,,,,"WYCOFF DEVELOPMENT","145 MAGELLAN",HOUSTON,TX,77598,"(281) 332-0260",,,,
TX,HARRIS,20105292,"Offices, R&D, & Professional",12/16/2020,,200000,,"811 LOUISIANA ST",HOUSTON,TX,77002,,,CONTRACTOR,,,,,,,,,,,"ENDURANCE BUILDERS",,,,,"ENDURANCE BUILDERS","2190 NORTH LOOP W STE 300",HOUSTON,TX,77018-8006,"(832) 623-7351",http://www.endbs.com/,,"BOB FLOWERS",
TX,HARRIS,20112450,"Offices, R&D, & Professional",12/16/2020,,100000,,"10375 RICHMOND AVE",HOUSTON,TX,77042,,,CONTRACTOR,,,,,,,,,,,"ENDURANCE BUILDERS",,,,,"ENDURANCE BUILDERS","2190 NORTH LOOP W STE 300",HOUSTON,TX,77018-8006,"(832) 623-7351",http://www.endbs.com/,,"BOB FLOWERS",
TX,HARRIS,20107422,"Offices, R&D, & Professional",12/17/2020,,250000,,"2000 WEST LOOP SOUTH",HOUSTON,TX,77027,,,CONTRACTOR,,,,,,,,,,,"GALLANT BUILDERS",,,,,"GALLANT BUILDERS","6990 PORTWEST DR",HOUSTON,TX,77024-8039,"(713) 275-9900",http://www.gallantbuilders.com/,,,
TX,HARRIS,20107909,"Offices, R&D, & Professional",12/17/2020,,1800000,,"1100 LOUISIANA ST",HOUSTON,TX,77002,,,CONTRACTOR,,,,,,,,,,,"GALLANT BUILDERS",,,,,"GALLANT BUILDERS","6990 PORTWEST DR",HOUSTON,TX,77024-8039,"(713) 275-9900",http://www.gallantbuilders.com/,,,
TX,HARRIS,20113121,"Offices, R&D, & Professional",12/18/2020,,40000,,"2050 WEST SAM HOUSTON SOUTH PKY",HOUSTON,TX,77002,,,CONTRACTOR,,,,,,,,,,,"HASTINGS CONSTRUCTION GROUP",,,,,"HASTINGS CONSTRUCTION GROUP","1 GREENWAY PLZ STE 425",HOUSTON,TX,77046-0115,"(713) 622-8811",http://hastingsconstructiontx.com,"(713) 622-8801","BRUCE HASTINGS",
TX,HARRIS,20100425,"Offices, R&D, & Professional",12/17/2020,,276298,,"1800 WEST LOOP SOUTH",HOUSTON,TX,77027,,,CONTRACTOR,,,,,,,,,,,"IRON HORSE BUILDERS",,,,,"IRON HORSE BUILDERS","4200 MONTROSE BLVD STE 500",HOUSTON,TX,77006-5459,"(713) 529-4504",http://ironhorsebldrs.com,,,info@ironhorsebldrs.com
TX,HARRIS,20107554,"Offices, R&D, & Professional",12/18/2020,,242000,,"500 JEFFERSON ST",HOUSTON,TX,77002,,,CONTRACTOR,,,,,,,,,,,"QUALITY MAKEOVER",,,,,"QUALITY MAKEOVER","8415 WINDELL LN.",HOUSTON,TX,77040-1423,"(832) 620-3154",,,,
TX,HARRIS,20105847,"Offices, R&D, & Professional",12/21/2020,,340000,,"1000 LOUISIANA ST",HOUSTON,TX,77002,,,CONTRACTOR,,,,,,,,,,,"ODONNELL SNIDER CONSTRUCTION",,,,,"ODONNELL SNIDER CONSTRUCTION","1900 WEST LOOP S STE 350",HOUSTON,TX,77027-3236,"(713) 782-2238",http://odonnellsnider.com/,"(713) 782-2238",,bwhyte@odonnellsnider.com
TX,HARRIS,20113661,"Offices, R&D, & Professional",12/21/2020,,190000,,"1301 FANNIN ST FL",HOUSTON,TX,77002,,,CONTRACTOR,,,,,,,,,,,"ODONNELL SNIDER CONSTRUCTION",,,,,"ODONNELL SNIDER CONSTRUCTION","1900 WEST LOOP S STE 350",HOUSTON,TX,77027-3236,"(713) 782-2238",http://odonnellsnider.com/,"(713) 782-2238",,bwhyte@odonnellsnider.com
TX,HARRIS,20095052,"Offices, R&D, & Professional",12/16/2020,,480000,,"5333 WESTHEIMER RD",HOUSTON,TX,77056,,,CONTRACTOR,,,,,,,,,,,"ODONNELL SNIDER CONSTRUCTION",,,,,"ODONNELL SNIDER CONSTRUCTION","1900 WEST LOOP S STE 350",HOUSTON,TX,77027-3236,"(713) 782-2238",http://odonnellsnider.com/,"(713) 782-2238",,bwhyte@odonnellsnider.com
TX,HARRIS,20108711,"Offices, R&D, & Professional",12/21/2020,,110000,,"3250 BRIARPARK DR",HOUSTON,TX,77042,,,CONTRACTOR,,,,,,,,,,,"RUPPEL CONSTRUCTION",,,,,"RUPPEL CONSTRUCTION","1830 S KIRKWOOD RD STE 200",HOUSTON,TX,77077-5032,"(281) 531-6336",http://www.ruppelconstruction.com/,"(281) 531-6336",,info@ruppelconstruction.com
TX,HARRIS,20034830,"Offices, R&D, & Professional",12/16/2020,,49500,,"2700 POST OAK BLVD FL",HOUSTON,TX,77056,,,CONTRACTOR,,,,,,,,,,,"THREE GALLERIA OFFICE BUILDING",,,,,"THREE GALLERIA OFFICE BUILDING","5065 WESTHEIMER RD",HOUSTON,TX,77056,"(713) 396-7282",,,,
TX,HARRIS,20104594,"Offices, R&D, & Professional",12/16/2020,,575000,,"1200 BINZ ST",HOUSTON,TX,77004,,,CONTRACTOR,,,,,,,,,,,"TRIMAR BUILDERS",,,,,"TRIMAR BUILDERS","20015 FAWN HOLLOW CT",HUMBLE,TX,77346-1715,"(832) 368-7347",,,,
TX,HARRIS,20110207,"Offices, R&D, & Professional",12/21/2020,,78000,,"3555 TIMMONS LN",HOUSTON,TX,77027,,,"UNILEV MANAGMENT","1 RIVERWAY",HOUSTON,TX,77056,"(713) 403-2538",Applicant,,,,,OWNER,,,,,OWNER,,,,,,,,,
TX,HARRIS,20097876,"Offices, R&D, & Professional",12/17/2020,,44000,,"1020 WEST LOOP NORTH",HOUSTON,TX,77055,,,CONTRACTOR,,,,,,,,,,,"BEESON PROPERTIES",,,,,"BEESON PROPERTIES","550 WAUGH DR",HOUSTON,TX,77019-2002,"(713) 622-5595",http://beesonproperties.com/,,"DREW BEESON",drew@beesonproperties.com
TX,HARRIS,2010130136,"Offices, R&D, & Professional",11/16/2020,,395000,3733,"155 BELLA KATY DR",HOUSTON,TX,77356,,,CONTRACTOR,,,,,,,,,,,"KILCOMMINS GROUP DEVELOPMENT COMPANIES",,,,,"KILCOMMINS GROUP DEVELOPMENT COMPANIES","23211 RED RIVER DR",KATY,TX,77494-2031,"(877) 405-7355",https://www.kilcomminsgroup.com,,,
TX,HARRIS,"20 - 0637","Other Commercial",11/24/2020,,40000,,"1354 NASA SUITE I PKWY SUITE # J","NASSAU BAY",TX,77058,,,CONTRACTOR,,,,,,,,,,,"3D BUILDERS",,,,,"3D BUILDERS","2914 MANILA LN",HOUSTON,TX,77043-1311,"(281) 726-1815",,,"DAVID DANIELS",david@threedbuilder.com
TX,HARRIS,20087142,"Other Commercial",12/16/2020,,30000,,"3623 W ALABAMA",HOUSTON,TX,77027,,,CONTRACTOR,,,,,,,,,,,"WOOD PARTNERS",,,,,"WOOD PARTNERS","8 GREENWAY PLAZA SUITE 600",HOUSTON,TX,77046-0890,"(713) 439-7900",http://www.woodpartners.com/,,,
TX,HARRIS,2009010078,"Other Commercial",11/16/2020,,1260150,16802,"9802 ANTOINE DR",HOUSTON,TX,77356,URBANIKA,,CONTRACTOR,,,,,,,,,,,"URBANIKA GROUP",,,,,"URBANIKA GROUP","26022 BUDDE RD","THE WOODLANDS",TX,77380,"(281) 771-5191",,,,
TX,HARRIS,2008050001,"Other Commercial",11/16/2020,,337500,4500,"10920 JONES RD",HOUSTON,TX,77356,"APEX ZODIAC",,"KISMET FATE LTD","10920 JONES RD",HOUSTON,TX,77356,,Owner,,,,,OWNER,,,,,OWNER,,,,,,,,,
TX,HARRIS,1910060008,"Other Commercial",11/16/2020,,843750,11250,"10910 JONES RD",HOUSTON,TX,77356,"APEX ZODIAC",,"KISMET FATE LTD","10910 JONES RD",HOUSTON,TX,77356,,Owner,,,,,OWNER,,,,,OWNER,,,,,,,,,
TX,BRAZORIA,"20 - 2242","Parking Structures & Carports",11/30/2020,,80000,,"3833 MUSTANG RD",ALVIN,TX,77511,,,CONTRACTOR,,,,,,,,,,,"BROWNSTONE CONSTRUCTION",,,,,"BROWNSTONE CONSTRUCTION","6517 MAPLERIDGE ST",HOUSTON,TX,77081-4610,"(713) 432-7727",http://thebrownstonegroup.net/,"(713) 432-0129","WILLIAM BROWN",bill@thebrownstonegroup.net
TX,MONTGOMERY,20201020,"Parking Structures & Carports",12/3/2019,,1000010,,"8900 SIX PINES DR",SHENANDOAH,TX,77386,,,CONTRACTOR,,,,,,,,,,,"MCRT INVESTMENTS",,,,,"MCRT INVESTMENTS","5910 N CENTRAL EXPY STE 1100",DALLAS,TX,75206,"(561) 998-4451",,,,
TX,HARRIS,20074428,"Residential Garages & Carports",12/16/2020,,39500,,"4124 FERNWOOD",HOUSTON,TX,77021,,,"JOSHI MANINDRA","4124 FERNWOOD",HOUSTON,TX,77021,,Owner,,,,,"ANJA'S PERMIT ASSISTANCE",,,,,"ANJA'S PERMIT ASSISTANCE","PO BOX 1471",HOUSTON,TX,77251-1471,"(281) 222-5227",,,,
TX,HARRIS,2011020132,"Residential Renovations & Additions",11/16/2020,Renovation,39360,1968,"5078 KLEIN ORCHARD DR",HOUSTON,TX,77356,TRACES,,CONTRACTOR,,,,,,,,,,,"MHI MCGUYER HOMEBUILDERS",,,,,"MHI MCGUYER HOMEBUILDERS","7676 WOODWAY DR",HOUSTON,TX,77063-1526,"(713) 260-4107",,,,
TX,HARRIS,2011020136,"Residential Renovations & Additions",11/16/2020,Renovation,38520,1926,"12323 SUMMER ORCHARD DR",HOUSTON,TX,77356,TRACES,,CONTRACTOR,,,,,,,,,,,"MHI MCGUYER HOMEBUILDERS",,,,,"MHI MCGUYER HOMEBUILDERS","7676 WOODWAY DR",HOUSTON,TX,77063-1526,"(713) 260-4107",,,,
TX,MONTGOMERY,178386-20,"Residential Renovations & Additions",11/23/2020,Renovation,40000,,"22155 BROOK FOREST DR",HOUSTON,TX,77356,BROOKFOREST,,"JOSE LUIS ARRONTE","5419 MATILDA BEND LN",KATY,TX,77449,,Owner,,,,,OWNER,,,,,OWNER,,,,,,,,,
TX,HARRIS,2001284,"Residential Renovations & Additions",11/9/2020,Renovation,,2500,"18 LAKEWOOD DRIVE",SEABROOK,TX,77586,,,"DWIGHT BENGTSON","18 LAKEWOOD DRIVE",SEABROOK,TX,77586,,Owner,,,,,"CASADA HOMES & REMODELING",,,,,"CASADA HOMES & REMODELING","10600 HERMANN LN",BRENHAM,TX,77833,"(281) 960-9778",,,,
TX,HARRIS,2001302,"Residential Renovations & Additions",11/13/2020,Renovation,,695,"2743 SANDPEBBLE DR",SEABROOK,TX,77586,,,"ISRAEL RICHNER","2743 SANDPEBBLE DR",SEABROOK,TX,77586,,Owner,,,,,"TESLA ENERGY OPERATIONS",,,,,"TESLA ENERGY OPERATIONS","3055 CLEARVIEW WAY","SAN MATEO",CA,94402-3709,"(888) 765-2489",,,,
TX,HARRIS,2001338,"Residential Renovations & Additions",11/23/2020,Renovation,,540,"2513 WILD OAK FOREST LN",SEABROOK,TX,77586,,,"ALEXANDER & ALLISON ARMER","2513 WILD OAK FOREST LN",SEABROOK,TX,77586,,Owner,,,,,"TESLA ENERGY OPERATIONS",,,,,"TESLA ENERGY OPERATIONS","3055 CLEARVIEW WAY","SAN MATEO",CA,94402-3709,"(888) 765-2489",,,,
TX,HARRIS,2001344,"Residential Renovations & Additions",11/24/2020,Renovation,,640,"2402 BLUE CANOE CT",SEABROOK,TX,77586,,,"DYLAN & ADINA FULTON","2402 BLUE CANOE CT",SEABROOK,TX,77586,,Owner,,,,,"EXCELL BOAT LIFTS & DOCKS",,,,,"EXCELL BOAT LIFTS & DOCKS","12450 HWY 3 BLDG 3",WEBSTER,TX,77598,"(281) 481-5555",http://excellboatlifts.com/,"(281) 984-7218",,info@excellboatlifts.com
TX,HARRIS,20109161,"Residential Renovations & Additions",12/19/2020,Renovation,95000,,"2706 HAVERHILL",HOUSTON,TX,77008,,,"GEORGE WATERS","2706 HAVERHILL",HOUSTON,TX,77008,,Owner,,,,,"ANNE'S PERMIT",,,,,"ANNE'S PERMIT","2617C W HOLCOMBE BLVD",HOUSTON,TX,77025,"(713) 666-2025",,,,
TX,HARRIS,20104039,"Residential Renovations & Additions",12/16/2020,Renovation,378350,,"104 FARISH",HOUSTON,TX,77024,,,"JOHN CHANEY","104 FARISH",HOUSTON,TX,77024,,Owner,,,,,"TESLA ENERGY OPERATIONS",,,,,"TESLA ENERGY OPERATIONS","3055 CLEARVIEW WAY","SAN MATEO",CA,94402-3709,"(888) 765-2489",,,,
TX,HARRIS,20112287,"Residential Renovations & Additions",12/15/2020,Renovation,55000,,"4043 CHARLESTON",HOUSTON,TX,77021,,,CONTRACTOR,,,,,,,,,,,"AAH BETTER LYFE",,,,,"AAH BETTER LYFE","14423 ALMEECE ST",HOUSTON,TX,77045,"(832) 541-2120",,,,
TX,HARRIS,20103289,"Residential Renovations & Additions",12/15/2020,Renovation,84402,,"10915 ATWELL",HOUSTON,TX,77096,,,CONTRACTOR,,,,,,,,,,,"JACOB BUCKWALTER",,,,,"JACOB BUCKWALTER","9597 JONES RD",HOUSTON,TX,77065-4815,"(832) 272-8423",,,,
TX,HARRIS,20103605,"Residential Renovations & Additions",12/19/2020,Renovation,60000,,"7922 CHEVY CHASE",HOUSTON,TX,77063,,,"PAUL & LAURA GOEHRS","7922 CHEVY CHASE",HOUSTON,TX,77063,,Owner,,,,,"RIGHT AWAY PAINTING AND REMODELING",,,,,"RIGHT AWAY PAINTING AND REMODELING","1702 KOWIS",HOUSTON,TX,77093,"(832) 541-8042",,,,
TX,HARRIS,20073622,"Residential Renovations & Additions",12/17/2020,Renovation,200000,,"1535 RUTLAND",HOUSTON,TX,77008,,,CONTRACTOR,,,,,,,,,,,"LEAM DESIGN BUILD",,,,,"LEAM DESIGN BUILD","1226 KRIST DR",HOUSTON,TX,77055,"(713) 447-1773",https://www.leamdesignbuild.com/,,,info@leamdesignbuild.com
TX,HARRIS,20108784,"Residential Renovations & Additions",12/21/2020,Renovation,30000,,"8935 SPRINGVIEW",HOUSTON,TX,77080,,,CONTRACTOR,,,,,,,,,,,"JENE SIMMONS",,,,,"JENE SIMMONS","9817 SHADOW WOOD DR",HOUSTON,TX,77080-7107,"(832) 524-7199",,,,
TX,HARRIS,20102788,"Residential Renovations & Additions",12/16/2020,Renovation,31500,,"1925 COULCREST",HOUSTON,TX,77055,,,"JEREMY CROSS","1925 COULCREST",HOUSTON,TX,77055,,Owner,,,,,"STARLYN VILLARREAL",,,,,"STARLYN VILLARREAL","5750 SAM HOUSTON",HOUSTON,TX,77032,"(832) 356-4616",,,,
TX,HARRIS,20110837,"Residential Renovations & Additions",12/16/2020,Renovation,70000,,"819 GLENCHESTER",HOUSTON,TX,77079,,,"JENNIFER DAY","819 GLENCHESTER",HOUSTON,TX,77079,,Owner,,,,,"HOUSTON PLANS & PERMITS",,,,,"HOUSTON PLANS & PERMITS","1415 NORTH LOOP W STE 750",HOUSTON,TX,77008-1666,"(281) 372-1555",http://www.plansandpermits.net/,,,
TX,HARRIS,20111119,"Residential Renovations & Additions",12/21/2020,Renovation,35000,,"2631 GREENBRIAR",HOUSTON,TX,77098,,,"GARCIA RONALD DAVID","2631 GREENBRIAR",HOUSTON,TX,77098,,Owner,,,,,OWNER,,,,,OWNER,,,,,,,,,
TX,HARRIS,20090122,"Residential Renovations & Additions",12/21/2020,Renovation,149000,,"13723 BROKEN BRIDGE",HOUSTON,TX,77085,,,"MARLON GUIDRY","13723 BROKEN BRIDGE",HOUSTON,TX,77085,,Owner,,,,,OWNER,,,,,OWNER,,,,,,,,,
TX,HARRIS,20096394,"Residential Renovations & Additions",12/16/2020,Renovation,125000,,"3711 GLEN HAVEN",HOUSTON,TX,77025,,,"HILL MONICA","3711 GLEN HAVEN",HOUSTON,TX,77025,,Owner,,,,,"CAREY HILL",,,,,"CAREY HILL","826 SOBODA",HOUSTON,TX,77079,"(832) 523-3504",,,,
TX,HARRIS,20098340,"Residential Renovations & Additions",12/15/2020,Renovation,39000,,"5214 GANO",HOUSTON,TX,77009,,,"HINOJOSA HOMER","5214 GANO",HOUSTON,TX,77009,,Owner,,,,,"VICTOR ORTIZ",,,,,"VICTOR ORTIZ","4022 BYTRAIL",HOUSTON,TX,77346,"(832) 352-0242",,,,
TX,HARRIS,20099731,"Residential Renovations & Additions",12/21/2020,Renovation,83571,,"5063 DUMFRIES",HOUSTON,TX,77096,,,"LENZ  MATTHEW","5063 DUMFRIES",HOUSTON,TX,77096,"(832) 956-0909",Owner,,,,,OWNER,,,,,OWNER,,,,,,,,,
TX,HARRIS,20059897,"Residential Renovations & Additions",12/21/2020,Renovation,75000,,"2402 ANSBURY",HOUSTON,TX,77018,,,"MARKELOFF ERIC AND BROOKE","2402 ANSBURY",HOUSTON,TX,77018,,Owner,,,,,OWNER,,,,,OWNER,,,,,,,,,
TX,HARRIS,2011110075,"Residential Renovations & Additions",11/16/2020,Renovation,40000,2080,"17502 E STRACK DR",HOUSTON,TX,77356,"NORTHWOOD FARMS",,"SAFY ENTERPRISE","17502 E STRACK DR",HOUSTON,TX,77356,,Owner,,,,,OWNER,,,,,OWNER,,,,,,,,,
TX,HARRIS,2010280010,"Residential Swimming Pools & Spas",11/16/2020,,43811,,"12003 ISLE VISTA DR",HOUSTON,TX,77356,"LAKES ON ELDRIDGE",,"JOSE CARLOS SUREZ MORAN","12003 ISLE VISTA DR",HOUSTON,TX,77356,,Owner,,,,,OWNER,,,,,OWNER,,,,,,,,,
TX,HARRIS,2010140099,"Residential Swimming Pools & Spas",11/16/2020,,58377,,"16611 CANCY CREEK CT",HOUSTON,TX,77356,"BRIDGELAND HIDDEN CREEK",,"RODRIGUEZ VANESSA","16611 CANCY CREEK CT",HOUSTON,TX,77356,,Owner,,,,,OWNER,,,,,OWNER,,,,,,,,,
TX,HARRIS,2010270082,"Residential Swimming Pools & Spas",11/16/2020,,45000,,"14703 RED CANARY CT",HOUSTON,TX,77356,"FAIRFIELD VILLAGE",,"MATTHEW AND HEATHER SMITH","14703 RED CANARY CT",HOUSTON,TX,77356,,Owner,,,,,OWNER,,,,,OWNER,,,,,,,,,
TX,HARRIS,2011080007,"Residential Swimming Pools & Spas",11/16/2020,,30000,,"26014 LE BERGE DR",HOUSTON,TX,77356,,,"LARRY LOVELACE","26014 LE BERGE DR",HOUSTON,TX,77356,,Owner,,,,,OWNER,,,,,OWNER,,,,,,,,,
TX,BRAZORIA,"20 - 2115","Residential Swimming Pools & Spas",11/3/2020,,55249,,"1813 CORONEL ST",ALVIN,TX,77511,,,CONTRACTOR,,,,,,,,,,,"BLUE HAVEN POOLS",,,,,"BLUE HAVEN POOLS","2201 HIGHWAY 6 S",HOUSTON,TX,77077-4321,"(281) 497-5711",,,,
TX,BRAZORIA,"20 - 2212","Residential Swimming Pools & Spas",11/11/2020,,55000,,"314 SHIRAZ DR",ALVIN,TX,77511,,15,"THEO & LESLIE MOORE","314 SHIRAZ DR",ALVIN,TX,77511,,Owner,,,,,"CASTLEROCK COMMUNITIES",,,,,"CASTLEROCK COMMUNITIES","7670 WOODWAY DR STE 300",HOUSTON,TX,77063-1520,"(713) 600-7000",http://c-rock.com,"(713) 600-0000",,
TX,HARRIS,2001324,"Residential Swimming Pools & Spas",11/18/2020,,,750,"2910 SEA CHANNEL DR",SEABROOK,TX,77586,,,"HEATH JORDAL","2910 SEA CHANNEL DR",SEABROOK,TX,77586,,Owner,,,,,"RICHARD'S TOTAL BACKYARD SOLUTIONS ",,,,,"RICHARD'S TOTAL BACKYARD SOLUTIONS ","1701 HIGHWAY 6 S",HOUSTON,TX,77077-2803,"(713) 777-7665",http://richardstbs.com/,,"JULIE RICHARD",info@totalbackyardsolutions.com
TX,HARRIS,20100112,"Residential Swimming Pools & Spas",11/16/2020,,41000,,"4330 ARBORETUM",PASADENA,TX,77505,,,"WESLEY GARCIA","4330 ARBORETUM",PASADENA,TX,77505,,Owner,,,,,"AMERICAN POOLS",,,,,"AMERICAN POOLS","10528 TANNER RD",HOUSTON,TX,77041-7217,"(713) 466-0796",http://www.americanpools-sa.com/,,"WAYNE STRINGER",info@americanpools-sa.com
TX,HARRIS,20100118,"Residential Swimming Pools & Spas",11/3/2020,,35795,,"4807 ROARING",PASADENA,TX,77504,,,"BANDA EDWARD","4807 ROARING",PASADENA,TX,77504,,Owner,,,,,"ANTHONY & SYLVAN POOLS",,,,,"ANTHONY & SYLVAN POOLS","1424 W SAM HOUSTON PKWY N",HOUSTON,TX,77043-3193,"(713) 467-6458",http://www.anthonysylvan.com/,,,
TX,HARRIS,"20 - 0647","Residential Swimming Pools & Spas",12/3/2020,,,500,"18219 NASSAU BAY DR","NASSAU BAY",TX,77058,,,"SCOTT SEYL","18219 NASSAU BAY DR","NASSAU BAY",TX,77058,,Owner,,,,,"PEARLAND POOLS",,,,,"PEARLAND POOLS","5510 MAGNOLIA",HOUSTON,TX,77584,"(281) 412-6445",http://www.pearlandpools.com/,"(281) 412-2791",,info@pearlandpools.com
TX,BELL,"20 00007024","Residential Swimming Pools & Spas",11/16/2020,,80000,,"6302 FLAT SLATE DR",KILLEEN,TX,76548,,,"NOAH & KRISTINA RHEINGANS","6302 FLAT SLATE DR",KILLEEN,TX,76548,,Owner,,,,,"OCEAN QUEST POOLS",,,,,"OCEAN QUEST POOLS","150 W AMITY RD",BELTON,TX,76513-8050,"(254) 933-8370",http://www.oceanquest.com/,,,
TX,BELL,"20 00006788","Residential Swimming Pools & Spas",11/19/2020,,50000,,"2006 AMETHYST DR",KILLEEN,TX,76548,,,"JOHN & JACQUELINE POMEROY","2006 AMETHYST DR",KILLEEN,TX,76548,,Owner,,,,,"EPIC POOLS",,,,,"EPIC POOLS","2200 E RANCIER AVE",KILLEEN,TX,76543-3406,"(254) 630-6944",https://epic-pools.com/contact-us,,,
TX,BELL,"20 00007615","Residential Swimming Pools & Spas",11/20/2020,,60790,,"6805 GEORGE CV",KILLEEN,TX,76548,,,"MARCELO ESPINOZA","6805 GEORGE CV",KILLEEN,TX,76548,,Owner,,,,,"PREMIER POOLS & SPAS",,,,,"PREMIER POOLS & SPAS","1333 MCDERMOTT STE 200",ALLEN,TX,75013,"(214) 620-1044",,,,
TX,HARRIS,20086047,"Residential Swimming Pools & Spas",12/18/2020,,40000,,"4641 MONTROSE BLVD",HOUSTON,TX,77006,,,CONTRACTOR,,,,,,,,,,,"ALLIANCE RESIDENTIAL BUILDERS",,,,,"ALLIANCE RESIDENTIAL BUILDERS","2525 E CAMELBACK RD STE 500",PHOENIX,AZ,85016-4227,"(602) 778-2800",http://www.allresco.com/,,,
TX,HARRIS,20091988,"Residential Swimming Pools & Spas",12/17/2020,,60416,,"610 ARCHER",HOUSTON,TX,77009,,,"HEATHER FIFE","610 ARCHER",HOUSTON,TX,77009,,Owner,,,,,"PEAK POOLS & SPAS",,,,,"PEAK POOLS & SPAS","5535 MEMORIAL DR",HOUSTON,TX,77007-8021,"(281) 849-4335",http://www.peakpoolsandspas.com/,,"CLAUDIA PEAK",peakpools@outlook.co
TX,HARRIS,20107844,"Residential Swimming Pools & Spas",12/17/2020,,66000,,"5334 WIGTON",HOUSTON,TX,77096,,,"BRAD GROESBECK","5334 WIGTON",HOUSTON,TX,77096,,Owner,,,,,"INDIGO BLUE CUSTOM POOLS",,,,,"INDIGO BLUE CUSTOM POOLS","1304 COHN ST",HOUSTON,TX,77007,"(832) 792-3535",https://www.indigobluecustompools.com/,,,indigobluecustompools@gmail.com
TX,HARRIS,20114009,"Residential Swimming Pools & Spas",12/17/2020,,65700,,"13315 TAYLORCREST",HOUSTON,TX,77079,,,"RYAN LASKOWSKI","13315 TAYLORCREST",HOUSTON,TX,77079,,Owner,,,,,"ROB RYAN CONSTRUCTION",,,,,"ROB RYAN CONSTRUCTION","3500 E T C JESTER BLVD STE E",HOUSTON,TX,77018-6020,"(832) 330-3536",http://www.robryanconstruction.com/,,"BRANDON KINES",info@robryanconstruction.com
TX,HARRIS,2011120118,"Residential Swimming Pools & Spas",11/16/2020,,39272,,"22218 PACIFIC OCEAN DR",HOUSTON,TX,77356,"BRIDGESTONE LAKES",,"HUGO DAVILA","22218 PACIFIC OCEAN DR",HOUSTON,TX,77356,,Owner,,,,,"ANTHONY & SYLVAN POOLS",,,,,"ANTHONY & SYLVAN POOLS","1424 W SAM HOUSTON PKWY N",HOUSTON,TX,77043-3193,"(713) 467-6458",http://www.anthonysylvan.com/,,,
TX,HARRIS,2011130045,"Residential Swimming Pools & Spas",11/16/2020,,41000,200,"9626 REX CREEK CT",HOUSTON,TX,77356,"CHAMPIONS TRAILS",,"MARGARET WALKINGSTICK","9626 REX CREEK CT",HOUSTON,TX,77356,,Owner,,,,,OWNER,,,,,OWNER,,,,,,,,,
TX,HARRIS,2009280075,"Residential Swimming Pools & Spas",11/16/2020,,59509,,"4610 OSAGE DR",HOUSTON,TX,77356,"MEADOW LAKE",,"RONALD & JOYCE TATE","4610 OSAGE DR",HOUSTON,TX,77356,,Owner,,,,,"BLUE HAVEN POOLS",,,,,"BLUE HAVEN POOLS","2201 HIGHWAY 6 S",HOUSTON,TX,77077-4321,"(281) 497-5711",,,,
TX,HARRIS,2011130022,"Residential Swimming Pools & Spas",11/16/2020,,52655,,"5222 WESTRIDGE PL",HOUSTON,TX,77356,"LAKES ON ELDRIDGE",,"BOB AND PATTI STANWOOD","5222 WESTRIDGE PL",HOUSTON,TX,77356,,Owner,,,,,OWNER,,,,,OWNER,,,,,,,,,
TX,HARRIS,2011120155,"Residential Swimming Pools & Spas",11/16/2020,,134564,,"86 SOUTH WATERBRIDGE DR",HOUSTON,TX,77356,"THE WOODLANDS CREEKSIDE",,"ANGEL BERNAL","86 SOUTH WATERBRIDGE DR",HOUSTON,TX,77356,,Owner,,,,,OWNER,,,,,OWNER,,,,,,,,,
TX,HARRIS,2011040016,"Residential Swimming Pools & Spas",11/16/2020,,76277,,"11 BRITTANY ROSE PL",HOUSTON,TX,77356,"THE WOODLANDS CREEKSIDE",,"KUDA KOHPOSH & JAMIE NARENDRA","11 BRITTANY ROSE PL",HOUSTON,TX,77356,,Owner,,,,,OWNER,,,,,OWNER,,,,,,,,,
TX,HARRIS,2011100168,"Residential Swimming Pools & Spas",11/16/2020,,104466,,"20146 E HACHITA CIR",HOUSTON,TX,77356,"VISTAS OF KLEIN",,"ROBERT SCOTT","20146 E HACHITA CIR",HOUSTON,TX,75201,,Owner,,,,,OWNER,,,,,OWNER,,,,,,,,,
TX,HARRIS,2011120106,"Residential Swimming Pools & Spas",11/16/2020,,613390,,"17330 CREEKSIDE TERRACE CT",HOUSTON,TX,77356,"STONEBROOK ESTATES",,"FURQAN HUSSAIN","17330 CREEKSIDE TERRACE CT",HOUSTON,TX,77356,,Owner,,,,,"ANTHONY & SYLVAN POOLS",,,,,"ANTHONY & SYLVAN POOLS","1424 W SAM HOUSTON PKWY N",HOUSTON,TX,77043-3193,"(713) 467-6458",http://www.anthonysylvan.com/,,,
TX,HARRIS,2011120110,"Residential Swimming Pools & Spas",11/16/2020,,66250,,"54 NEW OAK TRL",HOUSTON,TX,77356,"KINGS LAKE ESTATES",,"BRIAN & LETISHA MCGEE","54 NEW OAK TRL",HOUSTON,TX,77356,,Owner,,,,,"ANTHONY & SYLVAN POOLS",,,,,"ANTHONY & SYLVAN POOLS","1424 W SAM HOUSTON PKWY N",HOUSTON,TX,77043-3193,"(713) 467-6458",http://www.anthonysylvan.com/,,,
TX,HARRIS,2010130127,"Residential Swimming Pools & Spas",11/16/2020,,61271,,"4150 SCONE ST",HOUSTON,TX,77356,"PINE FOREST VILLAGE",,"ANTHONY PATE","4150 SCONE ST",HOUSTON,TX,77356,,Owner,,,,,"BLUE HAVEN POOLS",,,,,"BLUE HAVEN POOLS","2201 HIGHWAY 6 S",HOUSTON,TX,77077-4321,"(281) 497-5711",,,,
TX,HARRIS,2009010026,"Restaurant and Bar",11/16/2020,,63000,,"8020 FAIRBANKS N HOUSTON RD",HOUSTON,TX,77356,"KARTAR PLAZA",,"ERIC DANIEL CORONADO","8020 FAIRBANKS N HOUSTON RD",HOUSTON,TX,77356,,Owner,,,,,OWNER,,,,,OWNER,,,,,,,,,
TX,BELL,"20 00000674","Restaurant and Bar",11/13/2020,,965000,2300,"1516 S FORT HOOD ST",KILLEEN,TX,76248,,,DUNKIN,"1516 S FORT HOOD ST",KILLEEN,TX,76248,,Owner,,,,,"RILEY SCOTT CONSTRUCTION",,,,,"RILEY SCOTT CONSTRUCTION","1702 MORGAN'S POINT RD",BELTON,TX,76513,"(254) 239-5147",,,,
TX,HARRIS,19137672,"Restaurant and Bar",12/15/2020,,950000,,"3905 WASHINGTON",HOUSTON,TX,77007,,,CONTRACTOR,,,,,,,,,,,"DECO DESIGN GROUP",,,,,"DECO DESIGN GROUP","5959 RICHMOND AVE STE 320",HOUSTON,TX,77057-6325,"(832) 831-6444",,,"Tarek Hassan",
TX,HARRIS,20064059,"Restaurant and Bar",12/15/2020,,275000,,"3909 WASHINGTON",HOUSTON,TX,77007,,,CONTRACTOR,,,,,,,,,,,"DECO DESIGN GROUP",,,,,"DECO DESIGN GROUP","5959 RICHMOND AVE STE 320",HOUSTON,TX,77057-6325,"(832) 831-6444",,,"Tarek Hassan",
TX,HARRIS,20093045,"Restaurant and Bar",12/18/2020,,75000,,"11081 WESTHEIMER RD",HOUSTON,TX,77042,,,CONTRACTOR,,,,,,,,,,,"BRANNAN DESIGNS",,,,,"BRANNAN DESIGNS","1322 SPACE PARK DR SUITE C246",HOUSTON,TX,77058,"(281) 488-2003",,,,
TX,HARRIS,20069070,"Restaurant and Bar",12/17/2020,,83000,,"1950 EL DORADO BLVD",HOUSTON,TX,77062,,,CONTRACTOR,,,,,,,,,,,"MID-CON CONTRACTORS",,,,,"MID-CON CONTRACTORS","11799 FM 1485 RD",CONROE,TX,77306-7435,"(936) 231-1300",,,"SHELBY STEWART",
TX,MONTGOMERY,178476-20,Retail,11/25/2020,,500000,,"14325 ROGERS ROAD",HOUSTON,TX,77356,,,"CARREL-MONTANO RANCH","20215 HICKORY WIND DR",HUMBLE,TX,77346,,Owner,,,,,OWNER,,,,,OWNER,,,,,,,,,
TX,HARRIS,20030303,Retail,11/18/2020,,45000,,"3210 LILAC ST",PASADENA,TX,77505,,,CONTRACTOR,,,,,,,,,,,"ALAMO CONCRETE PRODUCTS",,,,,"ALAMO CONCRETE PRODUCTS","6981 E EVANS RD","SAN ANTONIO",TX,78266-2805,"(210) 208-1880",,,,
TX,HARRIS,20090967,Retail,11/10/2020,,99500,,"7340 SPENCER HWY",PASADENA,TX,77511,,,CONTRACTOR,,,,,,,,,,,"LMC CORPORATION",,,,,"LMC CORPORATION","10812 HLLPOINT DR ","SAN ANTONIO",TX,78217,"(210) 650-3951",,,,
TX,HARRIS,20100082,Retail,11/5/2020,,60885,,"1104 PARKSIDE RD RR",PASADENA,TX,77502,,,CONTRACTOR,,,,,,,,,,,"KIM NEAL & ASSOCIATES",,,,,"KIM NEAL & ASSOCIATES","5613 LAFAYETTE DR",FRISCO,TX,75035-8353,"(214) 682-5831",,,"WES BLACKWOOD",knallcwb@aol.com
TX,BELL,"20 00005247",Retail,11/4/2020,,8007000,20060,"4400 CHAPARRAL RD",KILLEEN,TX,76548,,,CONTRACTOR,,,,,,,,,,,"AMERICAN CONSTRUCTORS",,,,,"AMERICAN CONSTRUCTORS","11900 W PARMER LN STE 200","CEDAR PARK",TX,78613-2061,"(512) 328-2026",,,,
TX,BELL,"20 00003293",Retail,11/4/2020,,129000,3543,"1535 W STAN SCHLUETER LP",KILLEEN,TX,76548,,,CONTRACTOR,,,,,,,,,,,"MORRISON GROUP",,,,,"MORRISON GROUP","311 E VICKERY BLVD","FORT WORTH",TX,76104-1352,"(817) 870-2227",,,"BRYCE POOLE",
TX,HARRIS,20076221,Retail,12/16/2020,,79761,,"8503 SOUTH SAM HOUSTON EAST",HOUSTON,TX,77075,,,CONTRACTOR,,,,,,,,,,,"BUREAU VERITAS NORTH AMERICA",,,,,"BUREAU VERITAS NORTH AMERICA","1000 JUPITER RD STE 800",PLANO,TX,75074-3724,"(800) 906-7199",,,,
TX,HARRIS,2011030016,"Single Family Homes",11/16/2020,,144550,3131,"31719 CASA LINDA DR",HOUSTON,TX,77356,"STONE CREEK RANCH",,CONTRACTOR,,,,,,,,,,,"GEHAN HOMES",,,,,"GEHAN HOMES","2050 W SAM HOUSTON PKWY S",HOUSTON,TX,77042-2079,"(713) 243-3545",http://www.gehanhomes.com,,,
TX,HARRIS,2011030099,"Single Family Homes",11/16/2020,,364163,3237,"14518 COBALT BEND TRL",HOUSTON,TX,77356,"COPPER RIDGE AT INDIAN",,CONTRACTOR,,,,,,,,,,,"PERRY HOMES",,,,,"PERRY HOMES","9000 GULF FWY",HOUSTON,TX,77017-7018,"(713) 417-1396",,,,
TX,HARRIS,2011030100,"Single Family Homes",11/16/2020,,328050,2916,"14131 ARCHER COUNTY TRL",HOUSTON,TX,77356,"COPPER RIDGE AT INDIAN",,CONTRACTOR,,,,,,,,,,,"PERRY HOMES",,,,,"PERRY HOMES","9000 GULF FWY",HOUSTON,TX,77017-7018,"(713) 417-1396",,,,
TX,HARRIS,2011030102,"Single Family Homes",11/16/2020,,321750,2860,"14526 COBALT BEND TRL",HOUSTON,TX,77356,"COPPER RIDGE",,CONTRACTOR,,,,,,,,,,,"PERRY HOMES",,,,,"PERRY HOMES","9000 GULF FWY",HOUSTON,TX,77017-7018,"(713) 417-1396",,,,
TX,HARRIS,2010290135,"Single Family Homes",11/16/2020,,247000,3800,"12819 SIERRA NATIONAL DR",HOUSTON,TX,77356,GROVES,,CONTRACTOR,,,,,,,,,,,"VILLAGE BUILDERS",,,,,"VILLAGE BUILDERS","550 GREENS PKWY STE 210",HOUSTON,TX,77067-4538,"(281) 873-4663",,,,
TX,HARRIS,2011030105,"Single Family Homes",11/16/2020,,331200,2944,"14531 HUECO MOUNTAIN DR",HOUSTON,TX,77356,"COPPER RIDGE",,CONTRACTOR,,,,,,,,,,,"PERRY HOMES",,,,,"PERRY HOMES","9000 GULF FWY",HOUSTON,TX,77017-7018,"(713) 417-1396",,,,
TX,HARRIS,2010130122,"Single Family Homes",11/16/2020,,70175,2807,"19807 UPPER CANYON CT",HOUSTON,TX,77356,"BRIDGELAND PARKLAND VILLAGE",,CONTRACTOR,,,,,,,,,,,"DAVID WEEKLEY HOMES",,,,,"DAVID WEEKLEY HOMES","14444 NORTHWEST",HOUSTON,TX,77040,"(713) 570-5021",http://www.davidweekleyhomes.com/,,,
TX,HARRIS,2011030107,"Single Family Homes",11/16/2020,,345150,3068,"14119 ARCHER COUNTY TRL",HOUSTON,TX,77356,"COPPER RIDGE",,CONTRACTOR,,,,,,,,,,,"PERRY HOMES",,,,,"PERRY HOMES","9000 GULF FWY",HOUSTON,TX,77017-7018,"(713) 417-1396",,,,
TX,HARRIS,2011030109,"Single Family Homes",11/16/2020,,331200,2944,"13718 DURO BLUFF DR",HOUSTON,TX,77356,"COPPER RIDGE",,CONTRACTOR,,,,,,,,,,,"PERRY HOMES",,,,,"PERRY HOMES","9000 GULF FWY",HOUSTON,TX,77017-7018,"(713) 417-1396",,,,
TX,HARRIS,2011030110,"Single Family Homes",11/16/2020,,335813,2985,"14527 HUECO MOUNTAIN DR",HOUSTON,TX,77356,"COPPER RIDGE",,CONTRACTOR,,,,,,,,,,,"PERRY HOMES",,,,,"PERRY HOMES","9000 GULF FWY",HOUSTON,TX,77017-7018,"(713) 417-1396",,,,
TX,HARRIS,2011030114,"Single Family Homes",11/16/2020,,344475,3062,"13723 DURO BLUFF DR",HOUSTON,TX,77356,"COPPER RIDGE",,CONTRACTOR,,,,,,,,,,,"PERRY HOMES",,,,,"PERRY HOMES","9000 GULF FWY",HOUSTON,TX,77017-7018,"(713) 417-1396",,,,
TX,HARRIS,2011030115,"Single Family Homes",11/16/2020,,249990,2242,"25434 PIRATES ONE DR",HOUSTON,TX,77356,"GROVE LANDING",,CONTRACTOR,,,,,,,,,,,"DAVID WEEKLEY HOMES",,,,,"DAVID WEEKLEY HOMES","14444 NORTHWEST",HOUSTON,TX,77040,"(713) 570-5021",http://www.davidweekleyhomes.com/,,,
TX,HARRIS,2010280125,"Single Family Homes",11/16/2020,,202772,4257,"13419 HARTFORD BAY TRL",HOUSTON,TX,77356,"ALDEN WOODS",,CONTRACTOR,,,,,,,,,,,"TAYLOR MORRISON OF TEXAS",,,,,"TAYLOR MORRISON OF TEXAS","5353 W SAM HOUSTON PKWY N STE 190",HOUSTON,TX,77041-5186,"(281) 598-3000",,,,
TX,HARRIS,2011020138,"Single Family Homes",11/16/2020,,56600,2830,"17307 MARIE TERRACE CT",HOUSTON,TX,77356,DELLROSE,,CONTRACTOR,,,,,,,,,,,"MHI MCGUYER HOMEBUILDERS",,,,,"MHI MCGUYER HOMEBUILDERS","7676 WOODWAY DR",HOUSTON,TX,77063-1526,"(713) 260-4107",,,,
TX,HARRIS,2010280163,"Single Family Homes",11/16/2020,,109890,3663,"18315 PEDERNALES SPRINGS DR",HOUSTON,TX,77356,"TOWNE LAKE",,CONTRACTOR,,,,,,,,,,,"DAVID WEEKLEY HOMES",,,,,"DAVID WEEKLEY HOMES","14444 NORTHWEST",HOUSTON,TX,77040,"(713) 570-5021",http://www.davidweekleyhomes.com/,,,
TX,HARRIS,2011030145,"Single Family Homes",11/16/2020,,273600,2432,"19214 BRINDLED BAY CT",HOUSTON,TX,77356,AMIRA,,CONTRACTOR,,,,,,,,,,,"PERRY HOMES",,,,,"PERRY HOMES","9000 GULF FWY",HOUSTON,TX,77017-7018,"(713) 417-1396",,,,
TX,HARRIS,2010270024,"Single Family Homes",11/16/2020,,140000,2800,"15130 RED BUCKEYE DR",HOUSTON,TX,77356,"BRIDGELAND PARKLAND VILLAGE",,CONTRACTOR,,,,,,,,,,,"M/I HOMES",,,,,"M/I HOMES","10910 NORTH SAM HOUSTON PKWY W",HOUSTON,TX,77064,"(832) 912-1012",,,,
TX,HARRIS,2010280193,"Single Family Homes",11/16/2020,,378500,2000,"18206 NOLAN RIVER WAY",HOUSTON,TX,77356,"TOWNE LAKE",,CONTRACTOR,,,,,,,,,,,"CALDWELL HOMES",,,,,"CALDWELL HOMES","18127 TWILIGHT SHORES LN",CYPRESS,TX,77433-7046,"(281) 378-3364",http://caldwellhomes.com/,,,info@caldwellhomes.com
TX,HARRIS,2011030173,"Single Family Homes",11/16/2020,,334990,4022,"6502 TIBURON LAKES DR",HOUSTON,TX,77356,"KATY LAKES",,CONTRACTOR,,,,,,,,,,,"HISTORY MAKER HOMES",,,,,"HISTORY MAKER HOMES","9001 AIRPORT FWY SUITE 400","NORTH RICHLAND HILLS",TX,76180-7769,"(817) 429-8008",http://www.historymaker.com/,"(817) 507-1102","JILL BARFIELD",
TX,HARRIS,2010270079,"Single Family Homes",11/16/2020,,163200,2511,"9119 BRAZOS DR",HOUSTON,TX,77356,"ASHBEL CROSSING ",,CONTRACTOR,,,,,,,,,,,"LENNAR HOMES",,,,,"LENNAR HOMES","550 GREENS PKWY",HOUSTON,TX,77067-4537,"(281) 875-1000",http://www.lennar.com/,,,
TX,HARRIS,2010230127,"Single Family Homes",11/16/2020,,100130,1766,"14906 DARBYDALE DR",HOUSTON,TX,77356,"DARBYDALE CROSSING",,CONTRACTOR,,,,,,,,,,,"CASTLEROCK COMMUNITIES",,,,,"CASTLEROCK COMMUNITIES","7670 WOODWAY DR STE 300",HOUSTON,TX,77063-1520,"(713) 600-7000",http://c-rock.com,"(713) 600-0000",,
TX,HARRIS,2010220090,"Single Family Homes",11/16/2020,,166530,2562,"18402 HILLTOP CLIMB DR",HOUSTON,TX,77356,"BECKER MEADOWS",,CONTRACTOR,,,,,,,,,,,"LENNAR HOMES",,,,,"LENNAR HOMES","550 GREENS PKWY",HOUSTON,TX,77067-4537,"(281) 875-1000",http://www.lennar.com/,,,
TX,HARRIS,2009280077,"Single Family Homes",11/16/2020,,84980,2363,"18502 PARKLAND CROSSING",HOUSTON,TX,77356,"BRIDGELAND PARKLAND VILLAGE",,CONTRACTOR,,,,,,,,,,,"DAVID WEEKLEY HOMES",,,,,"DAVID WEEKLEY HOMES","14444 NORTHWEST",HOUSTON,TX,77040,"(713) 570-5021",http://www.davidweekleyhomes.com/,,,
TX,HARRIS,2009240129,"Single Family Homes",11/16/2020,,304538,2707,"20223 GRAY YEARLING TRL",HOUSTON,TX,77356,AMIRA,,CONTRACTOR,,,,,,,,,,,"PERRY HOMES",,,,,"PERRY HOMES","9000 GULF FWY",HOUSTON,TX,77017-7018,"(713) 417-1396",,,,
TX,HARRIS,2010260087,"Single Family Homes",11/16/2020,,79530,1446,"15831 KINLOUGH DR",HOUSTON,TX,77356,BALMORAL,,CONTRACTOR,,,,,,,,,,,"LENNAR HOMES",,,,,"LENNAR HOMES","550 GREENS PKWY",HOUSTON,TX,77067-4537,"(281) 875-1000",http://www.lennar.com/,,,
TX,HARRIS,2011040025,"Single Family Homes",11/16/2020,,86295,1569,"15810 MOUNTLONG DR",HOUSTON,TX,77356,BALMORAL,,CONTRACTOR,,,,,,,,,,,"LENNAR HOMES",,,,,"LENNAR HOMES","550 GREENS PKWY",HOUSTON,TX,77067-4537,"(281) 875-1000",http://www.lennar.com/,,,
TX,HARRIS,2011040027,"Single Family Homes",11/16/2020,,108570,1974,"15806 MOUNTLONG DR",HOUSTON,TX,77356,BALMORAL,,CONTRACTOR,,,,,,,,,,,"LENNAR HOMES",,,,,"LENNAR HOMES","550 GREENS PKWY",HOUSTON,TX,77067-4537,"(281) 875-1000",http://www.lennar.com/,,,
TX,HARRIS,2011040033,"Single Family Homes",11/16/2020,,108570,1974,"15806 BREMORE DR",HOUSTON,TX,77356,BALMORAL,,CONTRACTOR,,,,,,,,,,,"LENNAR HOMES",,,,,"LENNAR HOMES","550 GREENS PKWY",HOUSTON,TX,77067-4537,"(281) 875-1000",http://www.lennar.com/,,,
TX,HARRIS,2011040036,"Single Family Homes",11/16/2020,,79530,1446,"15810 BREMORE DR",HOUSTON,TX,77356,BALMORAL,,CONTRACTOR,,,,,,,,,,,"LENNAR HOMES",,,,,"LENNAR HOMES","550 GREENS PKWY",HOUSTON,TX,77067-4537,"(281) 875-1000",http://www.lennar.com/,,,
TX,HARRIS,2011040038,"Single Family Homes",11/16/2020,,108570,1974,"15814 BREMORE DR",HOUSTON,TX,77356,BALMORAL,,CONTRACTOR,,,,,,,,,,,"LENNAR HOMES",,,,,"LENNAR HOMES","550 GREENS PKWY",HOUSTON,TX,77067-4537,"(281) 875-1000",http://www.lennar.com/,,,
TX,HARRIS,2011040040,"Single Family Homes",11/16/2020,,108570,1974,"15818 BREMORE DR",HOUSTON,TX,77356,BALMORAL,,CONTRACTOR,,,,,,,,,,,"LENNAR HOMES",,,,,"LENNAR HOMES","550 GREENS PKWY",HOUSTON,TX,77067-4537,"(281) 875-1000",http://www.lennar.com/,,,
TX,HARRIS,2011040042,"Single Family Homes",11/16/2020,,86295,1569,"15822 BREMORE DR",HOUSTON,TX,77356,BALMORAL,,CONTRACTOR,,,,,,,,,,,"LENNAR HOMES",,,,,"LENNAR HOMES","550 GREENS PKWY",HOUSTON,TX,77067-4537,"(281) 875-1000",http://www.lennar.com/,,,
TX,HARRIS,2011040045,"Single Family Homes",11/16/2020,,108570,1974,"15826 BREMORE DR",HOUSTON,TX,77356,BALMORAL,,CONTRACTOR,,,,,,,,,,,"LENNAR HOMES",,,,,"LENNAR HOMES","550 GREENS PKWY",HOUSTON,TX,77067-4537,"(281) 875-1000",http://www.lennar.com/,,,
TX,HARRIS,2011040048,"Single Family Homes",11/16/2020,,108570,1974,"15831 BREMORE DR",HOUSTON,TX,77356,BALMORAL,,CONTRACTOR,,,,,,,,,,,"LENNAR HOMES",,,,,"LENNAR HOMES","550 GREENS PKWY",HOUSTON,TX,77067-4537,"(281) 875-1000",http://www.lennar.com/,,,
TX,HARRIS,2011040049,"Single Family Homes",11/16/2020,,79530,1446,"15827 BREMORE DR",HOUSTON,TX,77356,BALMORAL,,CONTRACTOR,,,,,,,,,,,"LENNAR HOMES",,,,,"LENNAR HOMES","550 GREENS PKWY",HOUSTON,TX,77067-4537,"(281) 875-1000",http://www.lennar.com/,,,
TX,HARRIS,2011040056,"Single Family Homes",11/16/2020,,86295,1569,"15830 BREMORE DR",HOUSTON,TX,77356,BALMORAL,,CONTRACTOR,,,,,,,,,,,"LENNAR HOMES",,,,,"LENNAR HOMES","550 GREENS PKWY",HOUSTON,TX,77067-4537,"(281) 875-1000",http://www.lennar.com/,,,
TX,HARRIS,2011040058,"Single Family Homes",11/16/2020,,108570,1974,"15834 BREMORE DR",HOUSTON,TX,77356,BALMORAL,,CONTRACTOR,,,,,,,,,,,"LENNAR HOMES",,,,,"LENNAR HOMES","550 GREENS PKWY",HOUSTON,TX,77067-4537,"(281) 875-1000",http://www.lennar.com/,,,
TX,HARRIS,2011040059,"Single Family Homes",11/16/2020,,79530,1446,"15838 BREMORE DR",HOUSTON,TX,77356,BALMORAL,,CONTRACTOR,,,,,,,,,,,"LENNAR HOMES",,,,,"LENNAR HOMES","550 GREENS PKWY",HOUSTON,TX,77067-4537,"(281) 875-1000",http://www.lennar.com/,,,
TX,HARRIS,2011040060,"Single Family Homes",11/16/2020,,108570,1974,"15842 BREMORE DR",HOUSTON,TX,77356,BALMORAL,,CONTRACTOR,,,,,,,,,,,"LENNAR HOMES",,,,,"LENNAR HOMES","550 GREENS PKWY",HOUSTON,TX,77067-4537,"(281) 875-1000",http://www.lennar.com/,,,
TX,HARRIS,2011040063,"Single Family Homes",11/16/2020,,86295,1569,"15846 BREMORE DR",HOUSTON,TX,77356,BALMORAL,,CONTRACTOR,,,,,,,,,,,"LENNAR HOMES",,,,,"LENNAR HOMES","550 GREENS PKWY",HOUSTON,TX,77067-4537,"(281) 875-1000",http://www.lennar.com/,,,
TX,HARRIS,2011040065,"Single Family Homes",11/16/2020,,108570,1974,"15850 BREMORE DR",HOUSTON,TX,77356,BALMORAL,,CONTRACTOR,,,,,,,,,,,"LENNAR HOMES",,,,,"LENNAR HOMES","550 GREENS PKWY",HOUSTON,TX,77067-4537,"(281) 875-1000",http://www.lennar.com/,,,
TX,HARRIS,2011020037,"Single Family Homes",11/16/2020,,191895,3390,"21310 ROSE LOCH LN",HOUSTON,TX,77356,"ROSEHILL RESERVE",,CONTRACTOR,,,,,,,,,,,"GEHAN HOMES",,,,,"GEHAN HOMES","2050 W SAM HOUSTON PKWY S",HOUSTON,TX,77042-2079,"(713) 243-3545",http://www.gehanhomes.com,,,
TX,HARRIS,2011040041,"Single Family Homes",11/16/2020,,153000,2357,"914 BREECH DR",HOUSTON,TX,77356,,,CONTRACTOR,,,,,,,,,,,"LENNAR HOMES",,,,,"LENNAR HOMES","550 GREENS PKWY",HOUSTON,TX,77067-4537,"(281) 875-1000",http://www.lennar.com/,,,
TX,HARRIS,2011040043,"Single Family Homes",11/16/2020,,153000,2357,"907 YAW CT",HOUSTON,TX,77356,,,CONTRACTOR,,,,,,,,,,,"LENNAR HOMES",,,,,"LENNAR HOMES","550 GREENS PKWY",HOUSTON,TX,77067-4537,"(281) 875-1000",http://www.lennar.com/,,,
TX,HARRIS,2011040047,"Single Family Homes",11/16/2020,,129000,1987,"1013 BREECH DR",HOUSTON,TX,77356,,,CONTRACTOR,,,,,,,,,,,"LENNAR HOMES",,,,,"LENNAR HOMES","550 GREENS PKWY",HOUSTON,TX,77067-4537,"(281) 875-1000",http://www.lennar.com/,,,
TX,HARRIS,2010300073,"Single Family Homes",11/16/2020,,118120,1957,"17014 BERETTA BEND DR",HOUSTON,TX,77356,"ATASCOCITA TRACE",,CONTRACTOR,,,,,,,,,,,"ANGLIA HOMES",,,,,"ANGLIA HOMES","17510 RED OAK DR",HOUSTON,TX,77090,"(281) 943-5288",http://www.angliahomeslp.com/,,,
TX,HARRIS,2010300091,"Single Family Homes",11/16/2020,,141220,2268,"15126 DALMAK GREEN DR",HOUSTON,TX,77356,BALMORAL,,CONTRACTOR,,,,,,,,,,,"ANGLIA HOMES",,,,,"ANGLIA HOMES","17510 RED OAK DR",HOUSTON,TX,77090,"(281) 943-5288",http://www.angliahomeslp.com/,,,
TX,HARRIS,2010300096,"Single Family Homes",11/16/2020,,125995,1616,"15206 PROVOST CRAIG DR",HOUSTON,TX,77356,BALMORAL,,CONTRACTOR,,,,,,,,,,,"ANGLIA HOMES",,,,,"ANGLIA HOMES","17510 RED OAK DR",HOUSTON,TX,77090,"(281) 943-5288",http://www.angliahomeslp.com/,,,
TX,HARRIS,2011030039,"Single Family Homes",11/16/2020,,294750,2620,"16326 SILVER EMPEROR ST",HOUSTON,TX,77356,GROVES,,CONTRACTOR,,,,,,,,,,,"PERRY HOMES",,,,,"PERRY HOMES","9000 GULF FWY",HOUSTON,TX,77017-7018,"(713) 417-1396",,,,
TX,HARRIS,2010280201,"Single Family Homes",11/16/2020,,298145,4433,"19915 RED CHILI ST",HOUSTON,TX,77356,"VISTAS OF KLEIN LAKE",,CONTRACTOR,,,,,,,,,,,"VILLAGE BUILDERS",,,,,"VILLAGE BUILDERS","550 GREENS PKWY STE 210",HOUSTON,TX,77067-4538,"(281) 873-4663",,,,
TX,HARRIS,2010300129,"Single Family Homes",11/16/2020,,230450,4609,"24907 GINGERBUSH LN",HOUSTON,TX,77356,"LAKES AT CREEKSIDE",,CONTRACTOR,,,,,,,,,,,"TOLL BROTHERS",,,,,"TOLL BROTHERS","10110 W SAM HOUSTON PKWY N STE 350",HOUSTON,TX,77064-7508,"(281) 664-7255",,,,
TX,HARRIS,2011030048,"Single Family Homes",11/16/2020,,89505,1989,"23615 LARKSPUR VALLEY LN",HOUSTON,TX,77356,BRECKENRIDGE,,CONTRACTOR,,,,,,,,,,,"DR HORTON",,,,,"DR HORTON","14100 SOUTHWEST",HOUSTON,TX,77478,"(281) 201-5559",,,,
TX,HARRIS,2010270022,"Single Family Homes",11/16/2020,,170629,1357,"16510 N MEDITERRANEAN ST",HOUSTON,TX,77356,NEWPORT,,"DOROTHY MARIE ARDS","16510 N MEDITERRANEAN ST",HOUSTON,TX,77356,,Owner,,,,,OWNER,,,,,OWNER,,,,,,,,,
TX,HARRIS,2011030056,"Single Family Homes",11/16/2020,,96525,2165,"23611 LARKSPUR VALLEY LN",HOUSTON,TX,77356,BRECKENRIDGE,,CONTRACTOR,,,,,,,,,,,"DR HORTON",,,,,"DR HORTON","14100 SOUTHWEST",HOUSTON,TX,77478,"(281) 201-5559",,,,
TX,HARRIS,2010290086,"Single Family Homes",11/16/2020,,85920,2148,"19439 TROTTER CAMP TRL",HOUSTON,TX,77356,AMIRA,,CONTRACTOR,,,,,,,,,,,"BEAZER HOMES ",,,,,"BEAZER HOMES ","10235 W LITTLE YORK",HOUSTON,TX,77040,"(713) 849-2252",http://www.beazer.com/,,,
TX,HARRIS,2010290087,"Single Family Homes",11/16/2020,,85920,2148,"19410 TROTTER CAMP TRL",HOUSTON,TX,77356,AMIRA,,CONTRACTOR,,,,,,,,,,,"BEAZER HOMES ",,,,,"BEAZER HOMES ","10235 W LITTLE YORK",HOUSTON,TX,77040,"(713) 849-2252",http://www.beazer.com/,,,
TX,HARRIS,2010290095,"Single Family Homes",11/16/2020,,110920,2773,"20322 GRAY YEARLING TRL",HOUSTON,TX,77356,AMIRA,,CONTRACTOR,,,,,,,,,,,"BEAZER HOMES ",,,,,"BEAZER HOMES ","10235 W LITTLE YORK",HOUSTON,TX,77040,"(713) 849-2252",http://www.beazer.com/,,,
TX,HARRIS,2010290123,"Single Family Homes",11/16/2020,,85920,2148,"6642 FIDDLEWOOD THICKET LN",HOUSTON,TX,77356,LANTANA,,CONTRACTOR,,,,,,,,,,,"BEAZER HOMES ",,,,,"BEAZER HOMES ","10235 W LITTLE YORK",HOUSTON,TX,77040,"(713) 849-2252",http://www.beazer.com/,,,
TX,HARRIS,2010290136,"Single Family Homes",11/16/2020,,89520,2238,"6506 FIDDLEWOOD THICKET LN",HOUSTON,TX,77356,LANTANA,,CONTRACTOR,,,,,,,,,,,"BEAZER HOMES ",,,,,"BEAZER HOMES ","10235 W LITTLE YORK",HOUSTON,TX,77040,"(713) 849-2252",http://www.beazer.com/,,,
TX,HARRIS,2010290145,"Single Family Homes",11/16/2020,,82440,2061,"6702 VERBENA BLOSSOM TRL",HOUSTON,TX,77356,LANTANA,,CONTRACTOR,,,,,,,,,,,"BEAZER HOMES ",,,,,"BEAZER HOMES ","10235 W LITTLE YORK",HOUSTON,TX,77040,"(713) 849-2252",http://www.beazer.com/,,,
TX,HARRIS,2010290151,"Single Family Homes",11/16/2020,,111480,2787,"5203 SUNWAY DR",HOUSTON,TX,77356,MARISOL,,CONTRACTOR,,,,,,,,,,,"BEAZER HOMES ",,,,,"BEAZER HOMES ","10235 W LITTLE YORK",HOUSTON,TX,77040,"(713) 849-2252",http://www.beazer.com/,,,
TX,HARRIS,2010300077,"Single Family Homes",11/16/2020,,119920,2998,"4615 RED YUCCA DR",HOUSTON,TX,77356,"ASHBEL CROSSING",,CONTRACTOR,,,,,,,,,,,"BEAZER HOMES ",,,,,"BEAZER HOMES ","10235 W LITTLE YORK",HOUSTON,TX,77040,"(713) 849-2252",http://www.beazer.com/,,,
TX,HARRIS,2010280038,"Single Family Homes",11/16/2020,,102263,2637,"10738 HILLSIDE CREEK DR",HOUSTON,TX,77356,"BALMORAL PARK",,CONTRACTOR,,,,,,,,,,,"LGI HOMES",,,,,"LGI HOMES","1450 LAKE ROBBINS SUITE 430",CONROE,TX,77380,"(210) 563-4648",,"(281) 210-2601",,
TX,HARRIS,2010280040,"Single Family Homes",11/16/2020,,77514,1826,"10734 HILLSIDE CREEK DR",HOUSTON,TX,77356,"BALMORAL PARK",,CONTRACTOR,,,,,,,,,,,"LGI HOMES",,,,,"LGI HOMES","1450 LAKE ROBBINS SUITE 430",CONROE,TX,77380,"(210) 563-4648",,"(281) 210-2601",,
TX,HARRIS,2010280043,"Single Family Homes",11/16/2020,,103650,3029,"10730 HILLSIDE CREEK DR",HOUSTON,TX,77356,"BALMORAL PARK",,CONTRACTOR,,,,,,,,,,,"LGI HOMES",,,,,"LGI HOMES","1450 LAKE ROBBINS SUITE 430",CONROE,TX,77380,"(210) 563-4648",,"(281) 210-2601",,
TX,HARRIS,2010280044,"Single Family Homes",11/16/2020,,83046,2147,"10726 HILLSIDE CREEK DR",HOUSTON,TX,77356,"BALMORAL PARK LAKES",,CONTRACTOR,,,,,,,,,,,"LGI HOMES",,,,,"LGI HOMES","1450 LAKE ROBBINS SUITE 430",CONROE,TX,77380,"(210) 563-4648",,"(281) 210-2601",,
TX,HARRIS,2010280063,"Single Family Homes",11/16/2020,,103650,3029,"10722 HILLSIDE CREEK DR",HOUSTON,TX,77356,"BALMORAL PARK LAKES",,CONTRACTOR,,,,,,,,,,,"LGI HOMES",,,,,"LGI HOMES","1450 LAKE ROBBINS SUITE 430",CONROE,TX,77380,"(210) 563-4648",,"(281) 210-2601",,
TX,HARRIS,2010280073,"Single Family Homes",11/16/2020,,91878,2204,"10718 HILLSIDE CREEK DR",HOUSTON,TX,77356,"BALMORAL PARK LAKES",,CONTRACTOR,,,,,,,,,,,"LGI HOMES",,,,,"LGI HOMES","1450 LAKE ROBBINS SUITE 430",CONROE,TX,77380,"(210) 563-4648",,"(281) 210-2601",,
TX,HARRIS,2010280074,"Single Family Homes",11/16/2020,,103650,3029,"10714 HILLSIDE CREEK DR",HOUSTON,TX,77356,"BALMORAL PARK LAKES",,CONTRACTOR,,,,,,,,,,,"LGI HOMES",,,,,"LGI HOMES","1450 LAKE ROBBINS SUITE 430",CONROE,TX,77380,"(210) 563-4648",,"(281) 210-2601",,
TX,HARRIS,2010280075,"Single Family Homes",11/16/2020,,83046,2147,"10710 HILLSIDE CREEK DR",HOUSTON,TX,77356,"BALMORAL PARK",,CONTRACTOR,,,,,,,,,,,"LGI HOMES",,,,,"LGI HOMES","1450 LAKE ROBBINS SUITE 430",CONROE,TX,77380,"(210) 563-4648",,"(281) 210-2601",,
TX,HARRIS,2010280079,"Single Family Homes",11/16/2020,,91878,2204,"10706 HILLSIDE CREEK DR",HOUSTON,TX,77356,"BALMORAL PARK LAKES",,CONTRACTOR,,,,,,,,,,,"LGI HOMES",,,,,"LGI HOMES","1450 LAKE ROBBINS SUITE 430",CONROE,TX,77380,"(210) 563-4648",,"(281) 210-2601",,
TX,HARRIS,2010280081,"Single Family Homes",11/16/2020,,103650,3029,"10702 HILLSIDE CREEK DR",HOUSTON,TX,77356,"BALMORAL PARK",,CONTRACTOR,,,,,,,,,,,"LGI HOMES",,,,,"LGI HOMES","1450 LAKE ROBBINS SUITE 430",CONROE,TX,77380,"(210) 563-4648",,"(281) 210-2601",,
TX,HARRIS,2010280082,"Single Family Homes",11/16/2020,,77514,1826,"10642 HILLSIDE CREEK DR",HOUSTON,TX,77356,"BALMORAL PARK LAKES",,CONTRACTOR,,,,,,,,,,,"LGI HOMES",,,,,"LGI HOMES","1450 LAKE ROBBINS SUITE 430",CONROE,TX,77380,"(210) 563-4648",,"(281) 210-2601",,
TX,HARRIS,2010280083,"Single Family Homes",11/16/2020,,83046,2147,"10638 HILLSIDE CREEK DR",HOUSTON,TX,77356,"BALMORAL PARK LAKES",,CONTRACTOR,,,,,,,,,,,"LGI HOMES",,,,,"LGI HOMES","1450 LAKE ROBBINS SUITE 430",CONROE,TX,77380,"(210) 563-4648",,"(281) 210-2601",,
TX,HARRIS,2010280084,"Single Family Homes",11/16/2020,,103650,3029,"10634 HILLSIDE CREEK DR",HOUSTON,TX,77356,"BALMORAL PARK LAKES",,CONTRACTOR,,,,,,,,,,,"LGI HOMES",,,,,"LGI HOMES","1450 LAKE ROBBINS SUITE 430",CONROE,TX,77380,"(210) 563-4648",,"(281) 210-2601",,
TX,HARRIS,2010280086,"Single Family Homes",11/16/2020,,102496,2643,"10630 HILLSIDE CREEK DR",HOUSTON,TX,77356,"BALMORAL PARK LAKES",,CONTRACTOR,,,,,,,,,,,"LGI HOMES",,,,,"LGI HOMES","1450 LAKE ROBBINS SUITE 430",CONROE,TX,77380,"(210) 563-4648",,"(281) 210-2601",,
TX,HARRIS,2010280088,"Single Family Homes",11/16/2020,,103650,3029,"10626 HILLSIDE CREEK DR",HOUSTON,TX,77356,"BALMORAL PARK LAKES",,CONTRACTOR,,,,,,,,,,,"LGI HOMES",,,,,"LGI HOMES","1450 LAKE ROBBINS SUITE 430",CONROE,TX,77380,"(210) 563-4648",,"(281) 210-2601",,
TX,HARRIS,2011030038,"Single Family Homes",11/16/2020,,217000,3044,"17539 DESMOND ST",HOUSTON,TX,77356,MERRYLANDS,,CONTRACTOR,,,,,,,,,,,"LEGEND HOMES",,,,,"LEGEND HOMES","10410 WINDAMERE LAKES BLVD",HOUSTON,TX,77065-4996,"(281) 671-9060",http://legendhomecorp.com/,"(281) 671-9055",,
TX,HARRIS,2011030040,"Single Family Homes",11/16/2020,,150000,1717,"17531 DESMOND ST",HOUSTON,TX,77356,MERRYLANDS,,CONTRACTOR,,,,,,,,,,,"LEGEND HOMES",,,,,"LEGEND HOMES","10410 WINDAMERE LAKES BLVD",HOUSTON,TX,77065-4996,"(281) 671-9060",http://legendhomecorp.com/,"(281) 671-9055",,
TX,HARRIS,2011030041,"Single Family Homes",11/16/2020,,164000,2336,"17535 DESMOND ST",HOUSTON,TX,77356,MERRYLANDS,,CONTRACTOR,,,,,,,,,,,"LEGEND HOMES",,,,,"LEGEND HOMES","10410 WINDAMERE LAKES BLVD",HOUSTON,TX,77065-4996,"(281) 671-9060",http://legendhomecorp.com/,"(281) 671-9055",,
TX,HARRIS,2011030042,"Single Family Homes",11/16/2020,,172000,2716,"17519 DESMOND ST",HOUSTON,TX,77356,MERRYLANDS,,CONTRACTOR,,,,,,,,,,,"LEGEND HOMES",,,,,"LEGEND HOMES","10410 WINDAMERE LAKES BLVD",HOUSTON,TX,77065-4996,"(281) 671-9060",http://legendhomecorp.com/,"(281) 671-9055",,
TX,HARRIS,2011030044,"Single Family Homes",11/16/2020,,149000,1770,"17523 DESMOND ST",HOUSTON,TX,77356,MERRYLANDS,,CONTRACTOR,,,,,,,,,,,"LEGEND HOMES",,,,,"LEGEND HOMES","10410 WINDAMERE LAKES BLVD",HOUSTON,TX,77065-4996,"(281) 671-9060",http://legendhomecorp.com/,"(281) 671-9055",,
TX,HARRIS,2011030046,"Single Family Homes",11/16/2020,,172000,2521,"17527 DESMOND ST",HOUSTON,TX,77356,MERRYLANDS,,CONTRACTOR,,,,,,,,,,,"LEGEND HOMES",,,,,"LEGEND HOMES","10410 WINDAMERE LAKES BLVD",HOUSTON,TX,77065-4996,"(281) 671-9060",http://legendhomecorp.com/,"(281) 671-9055",,
TX,HARRIS,2011030052,"Single Family Homes",11/16/2020,,150000,1717,"17507 DESMOND ST",HOUSTON,TX,77356,MERRYLANDS,,CONTRACTOR,,,,,,,,,,,"LEGEND HOMES",,,,,"LEGEND HOMES","10410 WINDAMERE LAKES BLVD",HOUSTON,TX,77065-4996,"(281) 671-9060",http://legendhomecorp.com/,"(281) 671-9055",,
TX,HARRIS,2011030053,"Single Family Homes",11/16/2020,,217000,3044,"17511 DESMOND ST",HOUSTON,TX,77356,MERRYLANDS,,CONTRACTOR,,,,,,,,,,,"LEGEND HOMES",,,,,"LEGEND HOMES","10410 WINDAMERE LAKES BLVD",HOUSTON,TX,77065-4996,"(281) 671-9060",http://legendhomecorp.com/,"(281) 671-9055",,
TX,HARRIS,2011030055,"Single Family Homes",11/16/2020,,155000,2113,"17515 DESMOND ST",HOUSTON,TX,77356,MERRYLANDS,,CONTRACTOR,,,,,,,,,,,"LEGEND HOMES",,,,,"LEGEND HOMES","10410 WINDAMERE LAKES BLVD",HOUSTON,TX,77065-4996,"(281) 671-9060",http://legendhomecorp.com/,"(281) 671-9055",,
TX,HARRIS,2011030058,"Single Family Homes",11/16/2020,,164000,2336,"17443 DESMOND ST",HOUSTON,TX,77356,MERRYLANDS,,CONTRACTOR,,,,,,,,,,,"LEGEND HOMES",,,,,"LEGEND HOMES","10410 WINDAMERE LAKES BLVD",HOUSTON,TX,77065-4996,"(281) 671-9060",http://legendhomecorp.com/,"(281) 671-9055",,
TX,HARRIS,2011030061,"Single Family Homes",11/16/2020,,172000,2521,"17447 DESMOND ST",HOUSTON,TX,77356,MERRYLANDS,,CONTRACTOR,,,,,,,,,,,"LEGEND HOMES",,,,,"LEGEND HOMES","10410 WINDAMERE LAKES BLVD",HOUSTON,TX,77065-4996,"(281) 671-9060",http://legendhomecorp.com/,"(281) 671-9055",,
TX,HARRIS,2011030063,"Single Family Homes",11/16/2020,,150000,1770,"17503 DESMOND ST",HOUSTON,TX,77356,MERRYLANDS,,CONTRACTOR,,,,,,,,,,,"LEGEND HOMES",,,,,"LEGEND HOMES","10410 WINDAMERE LAKES BLVD",HOUSTON,TX,77065-4996,"(281) 671-9060",http://legendhomecorp.com/,"(281) 671-9055",,
TX,HARRIS,2011030065,"Single Family Homes",11/16/2020,,172000,2492,"17423 DESMOND ST",HOUSTON,TX,77356,MERRYLANDS,,CONTRACTOR,,,,,,,,,,,"LEGEND HOMES",,,,,"LEGEND HOMES","10410 WINDAMERE LAKES BLVD",HOUSTON,TX,77065-4996,"(281) 671-9060",http://legendhomecorp.com/,"(281) 671-9055",,
TX,HARRIS,2011030066,"Single Family Homes",11/16/2020,,155000,2113,"17439 DESMOND ST",HOUSTON,TX,77356,MERRYLANDS,,CONTRACTOR,,,,,,,,,,,"LEGEND HOMES",,,,,"LEGEND HOMES","10410 WINDAMERE LAKES BLVD",HOUSTON,TX,77065-4996,"(281) 671-9060",http://legendhomecorp.com/,"(281) 671-9055",,
TX,HARRIS,2010280069,"Single Family Homes",11/16/2020,,235350,2615,"15618 BELTIE DR",HOUSTON,TX,77356,BALMORAL,,CONTRACTOR,,,,,,,,,,,"EHT OF TEXAS LP",,,,,"EHT OF TEXAS LP","10235 LITTLE",HOUSTON,TX,77040,"(713) 557-3685",,,,
TX,HARRIS,2011030074,"Single Family Homes",11/16/2020,,132026,2876,"11915 MCCALLISTER RUN DR",HOUSTON,TX,77356,BALMORAL,,CONTRACTOR,,,,,,,,,,,"TAYLOR MORRISON OF TEXAS",,,,,"TAYLOR MORRISON OF TEXAS","5353 W SAM HOUSTON PKWY N STE 190",HOUSTON,TX,77041-5186,"(281) 598-3000",,,,
TX,HARRIS,2010290077,"Single Family Homes",11/16/2020,,99000,1400,"12814 CROMBIE DR",HOUSTON,TX,77356,BALMORAL,,CONTRACTOR,,,,,,,,,,,"GEHAN HOMES",,,,,"GEHAN HOMES","2050 W SAM HOUSTON PKWY S",HOUSTON,TX,77042-2079,"(713) 243-3545",http://www.gehanhomes.com,,,
TX,HARRIS,2010290074,"Single Family Homes",11/16/2020,,130000,2230,"12810 CROMBIE DR",HOUSTON,TX,77356,BALMORAL,,CONTRACTOR,,,,,,,,,,,"GEHAN HOMES",,,,,"GEHAN HOMES","2050 W SAM HOUSTON PKWY S",HOUSTON,TX,77042-2079,"(713) 243-3545",http://www.gehanhomes.com,,,
TX,HARRIS,2010290070,"Single Family Homes",11/16/2020,,125000,1990,"12806 CROMBIE DR",HOUSTON,TX,77356,BALMORAL,,CONTRACTOR,,,,,,,,,,,"GEHAN HOMES",,,,,"GEHAN HOMES","2050 W SAM HOUSTON PKWY S",HOUSTON,TX,77042-2079,"(713) 243-3545",http://www.gehanhomes.com,,,
TX,HARRIS,2011020006,"Single Family Homes",11/16/2020,,96000,1400,"15419 CORDACH DR",HOUSTON,TX,77356,BALMORAL,,CONTRACTOR,,,,,,,,,,,"GEHAN HOMES",,,,,"GEHAN HOMES","2050 W SAM HOUSTON PKWY S",HOUSTON,TX,77042-2079,"(713) 243-3545",http://www.gehanhomes.com,,,
TX,HARRIS,2010280106,"Single Family Homes",11/16/2020,,116000,1750,"15403 FORMASTON DR",HOUSTON,TX,77356,BALMORAL,,CONTRACTOR,,,,,,,,,,,"GEHAN HOMES",,,,,"GEHAN HOMES","2050 W SAM HOUSTON PKWY S",HOUSTON,TX,77042-2079,"(713) 243-3545",http://www.gehanhomes.com,,,
TX,HARRIS,2010280109,"Single Family Homes",11/16/2020,,116226,1910,"15427 FALKIRK GREEN DR",HOUSTON,TX,77356,BALMORAL,,CONTRACTOR,,,,,,,,,,,"GEHAN HOMES",,,,,"GEHAN HOMES","2050 W SAM HOUSTON PKWY S",HOUSTON,TX,77042-2079,"(713) 243-3545",http://www.gehanhomes.com,,,
TX,HARRIS,2010300112,"Single Family Homes",11/16/2020,,400000,3000,"23819 RIMINI VALLEY WAY",HOUSTON,TX,77356,ELYSON,,CONTRACTOR,,,,,,,,,,,"HIGHLAND HOMES",,,,,"HIGHLAND HOMES","10930 W SAM HOUSTON PKWY N STE 100",HOUSTON,TX,77064-6331,"(281) 517-9800",,,,
TX,HARRIS,2011020018,"Single Family Homes",11/16/2020,,320000,2262,"16415 LITTLE PINE CREEK DR",HOUSTON,TX,77356,GROVES,,CONTRACTOR,,,,,,,,,,,"HIGHLAND HOMES",,,,,"HIGHLAND HOMES","10930 W SAM HOUSTON PKWY N STE 100",HOUSTON,TX,77064-6331,"(281) 517-9800",,,,
TX,HARRIS,2011020144,"Single Family Homes",11/16/2020,,277665,2385,"5050 KLEIN ORCHARD DR",HOUSTON,TX,77356,,,CONTRACTOR,,,,,,,,,,,"HIGHLAND HOMES",,,,,"HIGHLAND HOMES","10930 W SAM HOUSTON PKWY N STE 100",HOUSTON,TX,77064-6331,"(281) 517-9800",,,,
TX,HARRIS,2011020148,"Single Family Homes",11/16/2020,,285165,2665,"5111 KLEIN ORCHARD DR",HOUSTON,TX,77356,TRACES,,CONTRACTOR,,,,,,,,,,,"HIGHLAND HOMES",,,,,"HIGHLAND HOMES","10930 W SAM HOUSTON PKWY N STE 100",HOUSTON,TX,77064-6331,"(281) 517-9800",,,,
TX,HARRIS,2011020152,"Single Family Homes",11/16/2020,,299963,2750,"5014 MINT ORCHARD DR",HOUSTON,TX,77356,TRACES,,CONTRACTOR,,,,,,,,,,,"HIGHLAND HOMES",,,,,"HIGHLAND HOMES","10930 W SAM HOUSTON PKWY N STE 100",HOUSTON,TX,77064-6331,"(281) 517-9800",,,,
TX,HARRIS,2011020020,"Single Family Homes",11/16/2020,,320000,2262,"12155 TEXAS TRUMPET TRL",HOUSTON,TX,77356,GROVES,,CONTRACTOR,,,,,,,,,,,"HIGHLAND HOMES",,,,,"HIGHLAND HOMES","10930 W SAM HOUSTON PKWY N STE 100",HOUSTON,TX,77064-6331,"(281) 517-9800",,,,
TX,HARRIS,2010150133,"Single Family Homes",11/16/2020,,467325,4154,"12210 HICKORY ARROYO DR",HOUSTON,TX,77356,GROVES,,CONTRACTOR,,,,,,,,,,,"PERRY HOMES",,,,,"PERRY HOMES","9000 GULF FWY",HOUSTON,TX,77017-7018,"(713) 417-1396",,,,
TX,HARRIS,2010290017,"Single Family Homes",11/16/2020,,128000,1978,"12506 WILMAR LN",HOUSTON,TX,77356,,,CONTRACTOR,,,,,,,,,,,"LENNAR HOMES",,,,,"LENNAR HOMES","550 GREENS PKWY",HOUSTON,TX,77067-4537,"(281) 875-1000",http://www.lennar.com/,,,
TX,HARRIS,2010290139,"Single Family Homes",11/16/2020,,144000,2221,"16136 BARGE WAY",HOUSTON,TX,77356,,,CONTRACTOR,,,,,,,,,,,"LENNAR HOMES",,,,,"LENNAR HOMES","550 GREENS PKWY",HOUSTON,TX,77067-4537,"(281) 875-1000",http://www.lennar.com/,,,
TX,HARRIS,2010290143,"Single Family Homes",11/16/2020,,149300,2297,"16134 BARGE WAY",HOUSTON,TX,77356,,,CONTRACTOR,,,,,,,,,,,"LENNAR HOMES",,,,,"LENNAR HOMES","550 GREENS PKWY",HOUSTON,TX,77067-4537,"(281) 875-1000",http://www.lennar.com/,,,
TX,HARRIS,2010290144,"Single Family Homes",11/16/2020,,148500,2280,"1009 BREECH DR",HOUSTON,TX,77356,,,CONTRACTOR,,,,,,,,,,,"LENNAR HOMES",,,,,"LENNAR HOMES","550 GREENS PKWY",HOUSTON,TX,77067-4537,"(281) 875-1000",http://www.lennar.com/,,,
TX,HARRIS,2010290146,"Single Family Homes",11/16/2020,,142500,2193,"1011 BREECH DR",HOUSTON,TX,77356,,,CONTRACTOR,,,,,,,,,,,"LENNAR HOMES",,,,,"LENNAR HOMES","550 GREENS PKWY",HOUSTON,TX,77067-4537,"(281) 875-1000",http://www.lennar.com/,,,
TX,HARRIS,2011020008,"Single Family Homes",11/16/2020,,197000,3032,"9223 SPANISH HILLS DR",HOUSTON,TX,77356,"ASHBEL CROSSING",,CONTRACTOR,,,,,,,,,,,"LENNAR HOMES",,,,,"LENNAR HOMES","550 GREENS PKWY",HOUSTON,TX,77067-4537,"(281) 875-1000",http://www.lennar.com/,,,
TX,HARRIS,2009290091,"Single Family Homes",11/16/2020,,142310,4066,"11627 MAGNOLIA CREST COVE CT",HOUSTON,TX,77356,"TOWNE LAKE",,CONTRACTOR,,,,,,,,,,,"DAVID WEEKLEY HOMES",,,,,"DAVID WEEKLEY HOMES","14444 NORTHWEST",HOUSTON,TX,77040,"(713) 570-5021",http://www.davidweekleyhomes.com/,,,
TX,HARRIS,2011300164,"Single Family Homes",11/16/2020,,157040,2416,"31414 WHITCOMBE SUMMIT WAY",HOUSTON,TX,77356,DELLROSE,,CONTRACTOR,,,,,,,,,,,"LENNAR HOMES",,,,,"LENNAR HOMES","550 GREENS PKWY",HOUSTON,TX,77067-4537,"(281) 875-1000",http://www.lennar.com/,,,
TX,HARRIS,2011300159,"Single Family Homes",11/16/2020,,166530,2562,"24015 HIDEOUT CT",HOUSTON,TX,77356,"BECKER MEADOWS ",,CONTRACTOR,,,,,,,,,,,"LENNAR HOMES",,,,,"LENNAR HOMES","550 GREENS PKWY",HOUSTON,TX,77067-4537,"(281) 875-1000",http://www.lennar.com/,,,
TX,HARRIS,2011300161,"Single Family Homes",11/16/2020,,103740,1596,"24014 HIDEOUT CT",HOUSTON,TX,77356,"BECKER MEADOWS ",,CONTRACTOR,,,,,,,,,,,"LENNAR HOMES",,,,,"LENNAR HOMES","550 GREENS PKWY",HOUSTON,TX,77067-4537,"(281) 875-1000",http://www.lennar.com/,,,
TX,HARRIS,2011240168,"Single Family Homes",11/16/2020,,303990,4016,"6314 CANTIGNY LAKE DR",HOUSTON,TX,77356,"KATY LAKES",,CONTRACTOR,,,,,,,,,,,"HISTORY MAKER HOMES",,,,,"HISTORY MAKER HOMES","9001 AIRPORT FWY SUITE 400","NORTH RICHLAND HILLS",TX,76180-7769,"(817) 429-8008",http://www.historymaker.com/,"(817) 507-1102","JILL BARFIELD",
TX,HARRIS,2011200128,"Single Family Homes",11/16/2020,,105000,2969,"519 ASIATIC BLACK BEAR WAY",HOUSTON,TX,77356,"KODIAK CROSSING",,CONTRACTOR,,,,,,,,,,,"DEVON STREET HOMES",,,,,"DEVON STREET HOMES","4545 POST OAK PLACE DR STE 345",HOUSTON,TX,77027-3198,"(713) 622-1009",http://www.devonstreethomes.com,"(713) 622-1094",,
TX,HARRIS,2010270017,"Single Family Homes",11/16/2020,,170629,1357,"7114 SILVER STAR DR",HOUSTON,TX,77356,"NORTHWEST PARK",,"JAQUIELINE C MEDARVE MIRANDA","7114 SILVER STAR DR",HOUSTON,TX,77356,,Owner,,,,,OWNER,,,,,OWNER,,,,,,,,,
TX,HARRIS,2011040144,"Single Family Homes",11/16/2020,,128000,1528,"4515 S GASTON ST",HOUSTON,TX,77356,"NORTH HOUSTON",,"ANUAR TAGER","4515 S GASTON ST",HOUSTON,TX,77356,,Owner,,,,,OWNER,,,,,OWNER,,,,,,,,,
TX,HARRIS,2011200059,"Single Family Homes",11/16/2020,,,2388,"4307 ARNO RIVER CT",HOUSTON,TX,77356,"VENTANA LAKES",,CONTRACTOR,,,,,,,,,,,"DR HORTON",,,,,"DR HORTON","14100 SOUTHWEST",HOUSTON,TX,77478,"(281) 201-5559",,,,
TX,HARRIS,2011200086,"Single Family Homes",11/16/2020,,107550,2388,"4307 VERONA HILLS LN",HOUSTON,TX,77356,"VENTANA LAKES",,CONTRACTOR,,,,,,,,,,,"DR HORTON",,,,,"DR HORTON","14100 SOUTHWEST",HOUSTON,TX,77478,"(281) 201-5559",,,,
TX,HARRIS,2011200088,"Single Family Homes",11/16/2020,,112515,2501,"4303 VERONA HILLS LN",HOUSTON,TX,77356,"VENTANA LAKES",,CONTRACTOR,,,,,,,,,,,"DR HORTON",,,,,"DR HORTON","14100 SOUTHWEST",HOUSTON,TX,77478,"(281) 201-5559",,,,
TX,HARRIS,2011200089,"Single Family Homes",11/16/2020,,103050,2291,"4305 ORSINI LN",HOUSTON,TX,77356,"VENTANA LAKES",,CONTRACTOR,,,,,,,,,,,"DR HORTON",,,,,"DR HORTON","14100 SOUTHWEST",HOUSTON,TX,77478,"(281) 201-5559",,,,
TX,HARRIS,2011200091,"Single Family Homes",11/16/2020,,112515,2501,"4301 ORSINI LN",HOUSTON,TX,77356,"VENTANA LAKES",,CONTRACTOR,,,,,,,,,,,"DR HORTON",,,,,"DR HORTON","14100 SOUTHWEST",HOUSTON,TX,77478,"(281) 201-5559",,,,
TX,HARRIS,2011200098,"Single Family Homes",11/16/2020,,103050,2291,"22631 CREMONA VILLAGE TRL",HOUSTON,TX,77356,"VENTANA LAKES",,CONTRACTOR,,,,,,,,,,,"DR HORTON",,,,,"DR HORTON","14100 SOUTHWEST",HOUSTON,TX,77478,"(281) 201-5559",,,,
TX,HARRIS,2011200101,"Single Family Homes",11/16/2020,,107550,2388,"22627 CREMONA VILLAGE TRL",HOUSTON,TX,77356,"VENTANA LAKES",,CONTRACTOR,,,,,,,,,,,"DR HORTON",,,,,"DR HORTON","14100 SOUTHWEST",HOUSTON,TX,77478,"(281) 201-5559",,,,
TX,HARRIS,2011200103,"Single Family Homes",11/16/2020,,95130,2114,"22623 CREMONA VILLAGE TRL",HOUSTON,TX,77356,"VENTANA LAKES",,CONTRACTOR,,,,,,,,,,,"DR HORTON",,,,,"DR HORTON","14100 SOUTHWEST",HOUSTON,TX,77478,"(281) 201-5559",,,,
TX,HARRIS,2011200104,"Single Family Homes",11/16/2020,,103050,2290,"22619 CREMONA VILLAGE TRL",HOUSTON,TX,77356,"VENTANA LAKES",,CONTRACTOR,,,,,,,,,,,"DR HORTON",,,,,"DR HORTON","14100 SOUTHWEST",HOUSTON,TX,77478,"(281) 201-5559",,,,
TX,HARRIS,2011200108,"Single Family Homes",11/16/2020,,112515,2501,"22615 CREMONA VILLAGE TRL",HOUSTON,TX,77356,"VENTANA LAKES",,CONTRACTOR,,,,,,,,,,,"DR HORTON",,,,,"DR HORTON","14100 SOUTHWEST",HOUSTON,TX,77478,"(281) 201-5559",,,,
TX,HARRIS,2011200111,"Single Family Homes",11/16/2020,,169650,2331,"22611 CREMONA VILLAGE TRL",HOUSTON,TX,77356,"VENTANA LAKES",,CONTRACTOR,,,,,,,,,,,"DR HORTON",,,,,"DR HORTON","14100 SOUTHWEST",HOUSTON,TX,77478,"(281) 201-5559",,,,
TX,HARRIS,2011200120,"Single Family Homes",11/16/2020,,107550,2390,"4311 NERVESA DR",HOUSTON,TX,77356,"VENTANA LAKES",,CONTRACTOR,,,,,,,,,,,"DR HORTON",,,,,"DR HORTON","14100 SOUTHWEST",HOUSTON,TX,77478,"(281) 201-5559",,,,
TX,HARRIS,2011200121,"Single Family Homes",11/16/2020,,103050,2291,"4307 NERVESA DR",HOUSTON,TX,77356,"VENTANA LAKES",,CONTRACTOR,,,,,,,,,,,"DR HORTON",,,,,"DR HORTON","14100 SOUTHWEST",HOUSTON,TX,77478,"(281) 201-5559",,,,
TX,HARRIS,2011200131,"Single Family Homes",11/16/2020,,169650,2331,"4302 ORSINI LN",HOUSTON,TX,77356,"VENTANA LAKES",,CONTRACTOR,,,,,,,,,,,"DR HORTON",,,,,"DR HORTON","14100 SOUTHWEST",HOUSTON,TX,77478,"(281) 201-5559",,,,
TX,HARRIS,2011200135,"Single Family Homes",11/16/2020,,107550,2388,"4306 ORSINI LN",HOUSTON,TX,77356,"VENTANA LAKES",,CONTRACTOR,,,,,,,,,,,"DR HORTON",,,,,"DR HORTON","14100 SOUTHWEST",HOUSTON,TX,77478,"(281) 201-5559",,,,
TX,HARRIS,2011200141,"Single Family Homes",11/16/2020,,,2290,"4310 ORSINI LN",HOUSTON,TX,77356,"VENTANA LAKES",,CONTRACTOR,,,,,,,,,,,"DR HORTON",,,,,"DR HORTON","14100 SOUTHWEST",HOUSTON,TX,77478,"(281) 201-5559",,,,
TX,HARRIS,2011200152,"Single Family Homes",11/16/2020,,95130,2114,"4314 ORSINI LN",HOUSTON,TX,77356,"VENTANA LAKES",,CONTRACTOR,,,,,,,,,,,"DR HORTON",,,,,"DR HORTON","14100 SOUTHWEST",HOUSTON,TX,77478,"(281) 201-5559",,,,
TX,HARRIS,2011200154,"Single Family Homes",11/16/2020,,125640,2132,"4318 ORSINI LN",HOUSTON,TX,77356,"VENTANA LAKES",,CONTRACTOR,,,,,,,,,,,"DR HORTON",,,,,"DR HORTON","14100 SOUTHWEST",HOUSTON,TX,77478,"(281) 201-5559",,,,
TX,HARRIS,2011200156,"Single Family Homes",11/16/2020,,103050,2291,"4322 ORSINI LN",HOUSTON,TX,77356,"VENTANA LAKES",,CONTRACTOR,,,,,,,,,,,"DR HORTON",,,,,"DR HORTON","14100 SOUTHWEST",HOUSTON,TX,77478,"(281) 201-5559",,,,
TX,HARRIS,2011200162,"Single Family Homes",11/16/2020,,107550,2388,"4330 ORSINI LN",HOUSTON,TX,77356,"VENTANA LAKES",,CONTRACTOR,,,,,,,,,,,"DR HORTON",,,,,"DR HORTON","14100 SOUTHWEST",HOUSTON,TX,77478,"(281) 201-5559",,,,
TX,BRAZORIA,"20 - 1989","Single Family Homes",11/18/2020,,196243,,"302 VINEYARD CT",ALVIN,TX,77511,,,CONTRACTOR,,,,,,,,,,,"CASTLEROCK COMMUNITIES",,,,,"CASTLEROCK COMMUNITIES","7670 WOODWAY DR STE 300",HOUSTON,TX,77063-1520,"(713) 600-7000",http://c-rock.com,"(713) 600-0000",,
TX,BRAZORIA,"20 - 2000","Single Family Homes",11/18/2020,,190569,,"23210 BORDEAUX DR",ALVIN,TX,77511,,,CONTRACTOR,,,,,,,,,,,"CASTLEROCK COMMUNITIES",,,,,"CASTLEROCK COMMUNITIES","7670 WOODWAY DR STE 300",HOUSTON,TX,77063-1520,"(713) 600-7000",http://c-rock.com,"(713) 600-0000",,
TX,BRAZORIA,"20 - 2077","Single Family Homes",11/3/2020,,166488,,"2165 COLONIAL",ALVIN,TX,77511,,,CONTRACTOR,,,,,,,,,,,"K HOVNANIAN HOMES",,,,,"K HOVNANIAN HOMES","13111 NORTHWEST FWY STE 200",HOUSTON,TX,77040-6311,"(713) 460-0264",,,,
TX,BRAZORIA,"20 - 2127","Single Family Homes",11/2/2020,,140831,,"641 W FAIRWAY LAKE DR",ALVIN,TX,77511,,,CONTRACTOR,,,,,,,,,,,"RAUSCH COLEMAN HOMES",,,,,"RAUSCH COLEMAN HOMES","9504 N IH35 STE 310","SAN ANTONIO",TX,78233,"(210) 231-0703",https://www.rauschcolemanhomes.com/,,,
TX,BRAZORIA,"20 - 2133","Single Family Homes",11/10/2020,,173170,,"23218 BORDEAUX DR",ALVIN,TX,77511,,,CONTRACTOR,,,,,,,,,,,"CASTLEROCK COMMUNITIES",,,,,"CASTLEROCK COMMUNITIES","7670 WOODWAY DR STE 300",HOUSTON,TX,77063-1520,"(713) 600-7000",http://c-rock.com,"(713) 600-0000",,
TX,BRAZORIA,"20 - 2159","Single Family Homes",11/5/2020,,197567,,"1843 BELLE PL",ALVIN,TX,77511,,13,CONTRACTOR,,,,,,,,,,,"K HOVNANIAN HOMES",,,,,"K HOVNANIAN HOMES","13111 NORTHWEST FWY STE 200",HOUSTON,TX,77040-6311,"(713) 460-0264",,,,
TX,BRAZORIA,"20 - 2160","Single Family Homes",11/5/2020,,196748,,"1847 BELLE PL",ALVIN,TX,77511,,,CONTRACTOR,,,,,,,,,,,"K HOVNANIAN HOMES",,,,,"K HOVNANIAN HOMES","13111 NORTHWEST FWY STE 200",HOUSTON,TX,77040-6311,"(713) 460-0264",,,,
TX,BRAZORIA,"20 - 2261","Single Family Homes",11/24/2020,,126647,,"1204 MARE STABLE CT",ALVIN,TX,77511,,19,CONTRACTOR,,,,,,,,,,,"M/I HOMES",,,,,"M/I HOMES","10910 NORTH SAM HOUSTON PKWY W",HOUSTON,TX,77064,"(832) 912-1012",,,,
TX,BRAZORIA,"20 - 2262","Single Family Homes",11/24/2020,,108303,,"1203 MARE STABLE CT",ALVIN,TX,77511,,,CONTRACTOR,,,,,,,,,,,"M/I HOMES",,,,,"M/I HOMES","10910 NORTH SAM HOUSTON PKWY W",HOUSTON,TX,77064,"(832) 912-1012",,,,
TX,BRAZORIA,"20 - 2263","Single Family Homes",11/24/2020,,167497,,"1202 MARE STABLE CT",ALVIN,TX,77511,,18,CONTRACTOR,,,,,,,,,,,"M/I HOMES",,,,,"M/I HOMES","10910 NORTH SAM HOUSTON PKWY W",HOUSTON,TX,77064,"(832) 912-1012",,,,
TX,BRAZORIA,"20 - 2265","Single Family Homes",11/24/2020,,126647,,"1208 MARE STABLE CT",ALVIN,TX,77511,,21,CONTRACTOR,,,,,,,,,,,"M/I HOMES",,,,,"M/I HOMES","10910 NORTH SAM HOUSTON PKWY W",HOUSTON,TX,77064,"(832) 912-1012",,,,
TX,BRAZORIA,"20 - 2266","Single Family Homes",11/24/2020,,126647,,"2507 GELDING MANOR DR",ALVIN,TX,77511,,32,CONTRACTOR,,,,,,,,,,,"M/I HOMES",,,,,"M/I HOMES","10910 NORTH SAM HOUSTON PKWY W",HOUSTON,TX,77064,"(832) 912-1012",,,,
TX,BRAZORIA,"20 - 2267","Single Family Homes",11/24/2020,,126647,,"1242 LANCER LEAP DR",ALVIN,TX,77511,,3,CONTRACTOR,,,,,,,,,,,"M/I HOMES",,,,,"M/I HOMES","10910 NORTH SAM HOUSTON PKWY W",HOUSTON,TX,77064,"(832) 912-1012",,,,
TX,BRAZORIA,"20 - 2298","Single Family Homes",11/24/2020,,108303,,"2497 GELDING MANOR DR",ALVIN,TX,77511,,27,CONTRACTOR,,,,,,,,,,,"M/I HOMES",,,,,"M/I HOMES","10910 NORTH SAM HOUSTON PKWY W",HOUSTON,TX,77064,"(832) 912-1012",,,,
TX,BRAZORIA,"20 - 2299","Single Family Homes",11/24/2020,,167497,,"2496 GELDING MANOR DR",ALVIN,TX,77511,,15,CONTRACTOR,,,,,,,,,,,"M/I HOMES",,,,,"M/I HOMES","10910 NORTH SAM HOUSTON PKWY W",HOUSTON,TX,77064,"(832) 912-1012",,,,
TX,BRAZORIA,"20 - 2300","Single Family Homes",11/24/2020,,167497,,"1244 LANCER LEAP DR",ALVIN,TX,77511,,6,CONTRACTOR,,,,,,,,,,,"M/I HOMES",,,,,"M/I HOMES","10910 NORTH SAM HOUSTON PKWY W",HOUSTON,TX,77064,"(832) 912-1012",,,,
TX,BRAZORIA,"20 - 2301","Single Family Homes",11/24/2020,,167497,,"2507 SHINING SPUR CT",ALVIN,TX,77511,,5,CONTRACTOR,,,,,,,,,,,"M/I HOMES",,,,,"M/I HOMES","10910 NORTH SAM HOUSTON PKWY W",HOUSTON,TX,77064,"(832) 912-1012",,,,
TX,BRAZORIA,"20 - 2302","Single Family Homes",11/24/2020,,167497,,"1205 MARE STABLE CT",ALVIN,TX,77511,,16,CONTRACTOR,,,,,,,,,,,"M/I HOMES",,,,,"M/I HOMES","10910 NORTH SAM HOUSTON PKWY W",HOUSTON,TX,77064,"(832) 912-1012",,,,
TX,BRAZORIA,"20 - 2264","Single Family Homes",11/16/2020,,42587,,"909 MCGINTY",ALVIN,TX,77511,,,CONTRACTOR,,,,,,,,,,,"ANTHONY & SYLVAN POOLS",,,,,"ANTHONY & SYLVAN POOLS","1424 W SAM HOUSTON PKWY N",HOUSTON,TX,77043-3193,"(713) 467-6458",http://www.anthonysylvan.com/,,,
TX,MONTGOMERY,178449-20,"Single Family Homes",11/24/2020,,325000,,"21986 WHITETAIL CROSSING",HOUSTON,TX,77356,"NORTHCREST RANCH",,"MICHAEL P ALLARD","13307 BARBSTONE DR",HOUSTON,TX,77356,,Owner,,,,,OWNER,,,,,OWNER,,,,,,,,,
TX,MONTGOMERY,178441-20,"Single Family Homes",11/24/2020,,375000,,"12320 NORTH CHESTNUT HILLS DR",HOUSTON,TX,77356,"DEER TRAIL ESTATES",,CONTRACTOR,,,,,,,,,,,"ALTA DEVELOPMENT GROUP",,,,,"ALTA DEVELOPMENT GROUP","3915 W DAVIS STE 130",CONROE,TX,77304,"(956) 578-2704",,,,
TX,MONTGOMERY,178381-20,"Single Family Homes",11/23/2020,,1756705,,"106 BENTHAVEN CT",HOUSTON,TX,77356,BENTWATER,,CONTRACTOR,,,,,,,,,,,"BRAND R CONSTRUCTION",,,,,"BRAND R CONSTRUCTION","229 VICTORIA CT",MONTGOMERY,TX,77356-8441,"(936) 449-4105",http://host.trustab.org/brandrconstruction,,"ROY HEUVAL",
TX,MONTGOMERY,178404-20,"Single Family Homes",11/24/2020,,300000,,"22854 AMAZON DR",HOUSTON,TX,77356,RIVERWALK,,"CHRIS BRECHTEL","21335 SOMERSET SHORES XING",KINGWOOD,TX,77356,,Owner,,,,,OWNER,,,,,OWNER,,,,,,,,,
TX,MONTGOMERY,178468-20,"Single Family Homes",11/25/2020,,140140,,"20111 BUSHWICK FALLS DR",HOUSTON,TX,77356,FAIRWATER,,CONTRACTOR,,,,,,,,,,,"CASTLEROCK COMMUNITIES",,,,,"CASTLEROCK COMMUNITIES","7670 WOODWAY DR STE 300",HOUSTON,TX,77063-1520,"(713) 600-7000",http://c-rock.com,"(713) 600-0000",,
TX,MONTGOMERY,178469-20,"Single Family Homes",11/25/2020,,122210,,"20115 BUSHWICK FALLS DR",HOUSTON,TX,77356,FAIRWATER,,CONTRACTOR,,,,,,,,,,,"CASTLEROCK COMMUNITIES",,,,,"CASTLEROCK COMMUNITIES","7670 WOODWAY DR STE 300",HOUSTON,TX,77063-1520,"(713) 600-7000",http://c-rock.com,"(713) 600-0000",,
TX,MONTGOMERY,178471-20,"Single Family Homes",11/25/2020,,186010,,"20123 BUSHWICK FALLS DR",HOUSTON,TX,77356,FAIRWATER,,CONTRACTOR,,,,,,,,,,,"CASTLEROCK COMMUNITIES",,,,,"CASTLEROCK COMMUNITIES","7670 WOODWAY DR STE 300",HOUSTON,TX,77063-1520,"(713) 600-7000",http://c-rock.com,"(713) 600-0000",,
TX,MONTGOMERY,178472-20,"Single Family Homes",11/25/2020,,185075,,"20135 BUSHWICK FALLS DR",HOUSTON,TX,77356,FAIRWATER,,CONTRACTOR,,,,,,,,,,,"CASTLEROCK COMMUNITIES",,,,,"CASTLEROCK COMMUNITIES","7670 WOODWAY DR STE 300",HOUSTON,TX,77063-1520,"(713) 600-7000",http://c-rock.com,"(713) 600-0000",,
TX,MONTGOMERY,178473-20,"Single Family Homes",11/25/2020,,172315,,"20124 BUSHWICK FALLS DR",HOUSTON,TX,77356,FAIRWATER,,CONTRACTOR,,,,,,,,,,,"CASTLEROCK COMMUNITIES",,,,,"CASTLEROCK COMMUNITIES","7670 WOODWAY DR STE 300",HOUSTON,TX,77063-1520,"(713) 600-7000",http://c-rock.com,"(713) 600-0000",,
TX,MONTGOMERY,178474-20,"Single Family Homes",11/25/2020,,143000,,"20120 BUSHWICK FALLS DR",HOUSTON,TX,77356,FAIRWATER,,CONTRACTOR,,,,,,,,,,,"CASTLEROCK COMMUNITIES",,,,,"CASTLEROCK COMMUNITIES","7670 WOODWAY DR STE 300",HOUSTON,TX,77063-1520,"(713) 600-7000",http://c-rock.com,"(713) 600-0000",,
TX,MONTGOMERY,178393-20,"Single Family Homes",11/23/2020,,173000,,"25448 NORTHPARK LAKE DR",HOUSTON,TX,77356,"NORTHPARK WOODS",,CONTRACTOR,,,,,,,,,,,"CENTURY COMMUNITIES",,,,,"CENTURY COMMUNITIES","4700 W SAM HOUSTON PKWY N STE 130",HOUSTON,TX,77041-8219,"(281) 741-8946",https://www.centurycommunities.com/,,,
TX,MONTGOMERY,178394-20,"Single Family Homes",11/23/2020,,112000,,"25444 NORTHPARK LAKE DR",HOUSTON,TX,77356,"NORTHPARK WOODS",,CONTRACTOR,,,,,,,,,,,"CENTURY COMMUNITIES",,,,,"CENTURY COMMUNITIES","4700 W SAM HOUSTON PKWY N STE 130",HOUSTON,TX,77041-8219,"(281) 741-8946",https://www.centurycommunities.com/,,,
TX,MONTGOMERY,178395-20,"Single Family Homes",11/23/2020,,122000,,"25440 NORTHPARK LAKE DR",HOUSTON,TX,77356,"NORTHPARK WOODS",,CONTRACTOR,,,,,,,,,,,"CENTURY COMMUNITIES",,,,,"CENTURY COMMUNITIES","4700 W SAM HOUSTON PKWY N STE 130",HOUSTON,TX,77041-8219,"(281) 741-8946",https://www.centurycommunities.com/,,,
TX,MONTGOMERY,178398-20,"Single Family Homes",11/24/2020,,137000,,"25658 NORTHPARK PALM DR",HOUSTON,TX,77356,"NORTHPARK WOODS",,CONTRACTOR,,,,,,,,,,,"CENTURY COMMUNITIES",,,,,"CENTURY COMMUNITIES","4700 W SAM HOUSTON PKWY N STE 130",HOUSTON,TX,77041-8219,"(281) 741-8946",https://www.centurycommunities.com/,,,
TX,MONTGOMERY,178399-20,"Single Family Homes",11/24/2020,,112000,,"25662 NORTHPARK PALM DR",HOUSTON,TX,77356,"NORTHPARK WOODS",,CONTRACTOR,,,,,,,,,,,"CENTURY COMMUNITIES",,,,,"CENTURY COMMUNITIES","4700 W SAM HOUSTON PKWY N STE 130",HOUSTON,TX,77041-8219,"(281) 741-8946",https://www.centurycommunities.com/,,,
TX,MONTGOMERY,178400-20,"Single Family Homes",11/24/2020,,140000,,"25654 NORTHPARK PALM DR",HOUSTON,TX,77356,"NORTHPARK WOODS",,CONTRACTOR,,,,,,,,,,,"CENTURY COMMUNITIES",,,,,"CENTURY COMMUNITIES","4700 W SAM HOUSTON PKWY N STE 130",HOUSTON,TX,77041-8219,"(281) 741-8946",https://www.centurycommunities.com/,,,
TX,MONTGOMERY,178401-20,"Single Family Homes",11/24/2020,,122000,,"25650 NORTHPARK PALM DR",HOUSTON,TX,77356,"NORTHPARK WOODS",,CONTRACTOR,,,,,,,,,,,"CENTURY COMMUNITIES",,,,,"CENTURY COMMUNITIES","4700 W SAM HOUSTON PKWY N STE 130",HOUSTON,TX,77041-8219,"(281) 741-8946",https://www.centurycommunities.com/,,,
TX,MONTGOMERY,178403-20,"Single Family Homes",11/24/2020,,140000,,"20027 TUFT CANYON CT",HOUSTON,TX,77356,"NORTHPARK WOODS",,CONTRACTOR,,,,,,,,,,,"CENTURY COMMUNITIES",,,,,"CENTURY COMMUNITIES","4700 W SAM HOUSTON PKWY N STE 130",HOUSTON,TX,77041-8219,"(281) 741-8946",https://www.centurycommunities.com/,,,
TX,MONTGOMERY,178406-20,"Single Family Homes",11/24/2020,,173000,,"20033 TUFT CANYON CT",HOUSTON,TX,77356,"NORTHPARK WOODS",,CONTRACTOR,,,,,,,,,,,"CENTURY COMMUNITIES",,,,,"CENTURY COMMUNITIES","4700 W SAM HOUSTON PKWY N STE 130",HOUSTON,TX,77041-8219,"(281) 741-8946",https://www.centurycommunities.com/,,,
TX,MONTGOMERY,178407-20,"Single Family Homes",11/24/2020,,137000,,"20039 LUFT CANYON CT",HOUSTON,TX,77356,"NORTHPARK WOODS",,CONTRACTOR,,,,,,,,,,,"CENTURY COMMUNITIES",,,,,"CENTURY COMMUNITIES","4700 W SAM HOUSTON PKWY N STE 130",HOUSTON,TX,77041-8219,"(281) 741-8946",https://www.centurycommunities.com/,,,
TX,MONTGOMERY,178411-20,"Single Family Homes",11/24/2020,,140000,,"20043 TUFT CANYON CT",HOUSTON,TX,77356,"NORTHPARK WOODS",,CONTRACTOR,,,,,,,,,,,"CENTURY COMMUNITIES",,,,,"CENTURY COMMUNITIES","4700 W SAM HOUSTON PKWY N STE 130",HOUSTON,TX,77041-8219,"(281) 741-8946",https://www.centurycommunities.com/,,,
TX,MONTGOMERY,178412-20,"Single Family Homes",11/24/2020,,197000,,"20047 TUFT CANYON CT",HOUSTON,TX,77356,"NORTHPARK WOODS",,CONTRACTOR,,,,,,,,,,,"CENTURY COMMUNITIES",,,,,"CENTURY COMMUNITIES","4700 W SAM HOUSTON PKWY N STE 130",HOUSTON,TX,77041-8219,"(281) 741-8946",https://www.centurycommunities.com/,,,
TX,MONTGOMERY,178413-20,"Single Family Homes",11/24/2020,,140000,,"25670 NORTHPARK PALM DR",HOUSTON,TX,77356,"NORTHPARK WOODS",,CONTRACTOR,,,,,,,,,,,"CENTURY COMMUNITIES",,,,,"CENTURY COMMUNITIES","4700 W SAM HOUSTON PKWY N STE 130",HOUSTON,TX,77041-8219,"(281) 741-8946",https://www.centurycommunities.com/,,,
TX,MONTGOMERY,178423-20,"Single Family Homes",11/24/2020,,122000,,"25674 NORTHPARK PALM DR",HOUSTON,TX,77356,"NORTHPL\RK WOODS",,CONTRACTOR,,,,,,,,,,,"CENTURY COMMUNITIES",,,,,"CENTURY COMMUNITIES","4700 W SAM HOUSTON PKWY N STE 130",HOUSTON,TX,77041-8219,"(281) 741-8946",https://www.centurycommunities.com/,,,
TX,MONTGOMERY,178424-20,"Single Family Homes",11/24/2020,,112000,,"25678 NORTHPARK PALM DR",HOUSTON,TX,77356,"NORTHPARK WOODS",,CONTRACTOR,,,,,,,,,,,"CENTURY COMMUNITIES",,,,,"CENTURY COMMUNITIES","4700 W SAM HOUSTON PKWY N STE 130",HOUSTON,TX,77041-8219,"(281) 741-8946",https://www.centurycommunities.com/,,,
TX,MONTGOMERY,178425-20,"Single Family Homes",11/24/2020,,137000,,"25682 NORTHPARK PALM DR",HOUSTON,TX,77356,"NORTHPARK WOODS",,CONTRACTOR,,,,,,,,,,,"CENTURY COMMUNITIES",,,,,"CENTURY COMMUNITIES","4700 W SAM HOUSTON PKWY N STE 130",HOUSTON,TX,77041-8219,"(281) 741-8946",https://www.centurycommunities.com/,,,
TX,MONTGOMERY,178434-20,"Single Family Homes",11/24/2020,,122000,,"25686 NORTHPARK PALM DR",HOUSTON,TX,77356,"NORTHPARK WOODS",,CONTRACTOR,,,,,,,,,,,"CENTURY COMMUNITIES",,,,,"CENTURY COMMUNITIES","4700 W SAM HOUSTON PKWY N STE 130",HOUSTON,TX,77041-8219,"(281) 741-8946",https://www.centurycommunities.com/,,,
TX,MONTGOMERY,178435-20,"Single Family Homes",11/24/2020,,112000,,"25690 NORTHPARK PALM DR",HOUSTON,TX,77356,"NORTHPARK WOODS",,CONTRACTOR,,,,,,,,,,,"CENTURY COMMUNITIES",,,,,"CENTURY COMMUNITIES","4700 W SAM HOUSTON PKWY N STE 130",HOUSTON,TX,77041-8219,"(281) 741-8946",https://www.centurycommunities.com/,,,
TX,MONTGOMERY,178436-20,"Single Family Homes",11/24/2020,,122000,,"25666 NORTHPARK PALM DR",HOUSTON,TX,77356,"NORTHPARK WOODS",,CONTRACTOR,,,,,,,,,,,"CENTURY COMMUNITIES",,,,,"CENTURY COMMUNITIES","4700 W SAM HOUSTON PKWY N STE 130",HOUSTON,TX,77041-8219,"(281) 741-8946",https://www.centurycommunities.com/,,,
TX,MONTGOMERY,178437-20,"Single Family Homes",11/24/2020,,129000,,"25456 NORTHPARK LAKE DR",HOUSTON,TX,77356,"NORTHPARK WOODS",,CONTRACTOR,,,,,,,,,,,"CENTURY COMMUNITIES",,,,,"CENTURY COMMUNITIES","4700 W SAM HOUSTON PKWY N STE 130",HOUSTON,TX,77041-8219,"(281) 741-8946",https://www.centurycommunities.com/,,,
TX,MONTGOMERY,178438-20,"Single Family Homes",11/24/2020,,119000,,"25460 NORTHPARK LAKE DR",HOUSTON,TX,77356,"NORTHPARK WOODS",,CONTRACTOR,,,,,,,,,,,"CENTURY COMMUNITIES",,,,,"CENTURY COMMUNITIES","4700 W SAM HOUSTON PKWY N STE 130",HOUSTON,TX,77041-8219,"(281) 741-8946",https://www.centurycommunities.com/,,,
TX,MONTGOMERY,178439-20,"Single Family Homes",11/24/2020,,147000,,"25464 NORTHPARK LAKE DR",HOUSTON,TX,77356,"NORTHPARK WOODS",,CONTRACTOR,,,,,,,,,,,"CENTURY COMMUNITIES",,,,,"CENTURY COMMUNITIES","4700 W SAM HOUSTON PKWY N STE 130",HOUSTON,TX,77041-8219,"(281) 741-8946",https://www.centurycommunities.com/,,,
TX,MONTGOMERY,178451-20,"Single Family Homes",11/25/2020,,144000,,"25468 NORTHPARK LAKE DR",HOUSTON,TX,77356,"NORTHPARK WOODS",,CONTRACTOR,,,,,,,,,,,"CENTURY COMMUNITIES",,,,,"CENTURY COMMUNITIES","4700 W SAM HOUSTON PKWY N STE 130",HOUSTON,TX,77041-8219,"(281) 741-8946",https://www.centurycommunities.com/,,,
TX,MONTGOMERY,178452-20,"Single Family Homes",11/25/2020,,144000,,"25475 NORTHPARK LAKE DR",HOUSTON,TX,77356,"NORTHPARK WOODS",,CONTRACTOR,,,,,,,,,,,"CENTURY COMMUNITIES",,,,,"CENTURY COMMUNITIES","4700 W SAM HOUSTON PKWY N STE 130",HOUSTON,TX,77041-8219,"(281) 741-8946",https://www.centurycommunities.com/,,,
TX,MONTGOMERY,178453-20,"Single Family Homes",11/25/2020,,197000,,"20048 TUFT CANYON CT",HOUSTON,TX,77356,"NORTHPARK WOODS",,CONTRACTOR,,,,,,,,,,,"CENTURY COMMUNITIES",,,,,"CENTURY COMMUNITIES","4700 W SAM HOUSTON PKWY N STE 130",HOUSTON,TX,77041-8219,"(281) 741-8946",https://www.centurycommunities.com/,,,
TX,MONTGOMERY,178454-20,"Single Family Homes",11/25/2020,,122000,,"20044 TUFT CANYON CT",HOUSTON,TX,77356,"NORTHPARK WOODS",,CONTRACTOR,,,,,,,,,,,"CENTURY COMMUNITIES",,,,,"CENTURY COMMUNITIES","4700 W SAM HOUSTON PKWY N STE 130",HOUSTON,TX,77041-8219,"(281) 741-8946",https://www.centurycommunities.com/,,,
TX,MONTGOMERY,178455-20,"Single Family Homes",11/25/2020,,146000,,"20040 TUFT CANYON CT",HOUSTON,TX,77356,"NORTHPARK WOODS",,CONTRACTOR,,,,,,,,,,,"CENTURY COMMUNITIES",,,,,"CENTURY COMMUNITIES","4700 W SAM HOUSTON PKWY N STE 130",HOUSTON,TX,77041-8219,"(281) 741-8946",https://www.centurycommunities.com/,,,
TX,MONTGOMERY,178456-20,"Single Family Homes",11/25/2020,,112000,,"20024 TUFT CANYON CT",HOUSTON,TX,77356,"NORTHPARK WOODS",,CONTRACTOR,,,,,,,,,,,"CENTURY COMMUNITIES",,,,,"CENTURY COMMUNITIES","4700 W SAM HOUSTON PKWY N STE 130",HOUSTON,TX,77041-8219,"(281) 741-8946",https://www.centurycommunities.com/,,,
TX,MONTGOMERY,178457-20,"Single Family Homes",11/25/2020,,146000,,"20036 TUFT CANYON CT",HOUSTON,TX,77356,"NORTHPARK WOODS",,CONTRACTOR,,,,,,,,,,,"CENTURY COMMUNITIES",,,,,"CENTURY COMMUNITIES","4700 W SAM HOUSTON PKWY N STE 130",HOUSTON,TX,77041-8219,"(281) 741-8946",https://www.centurycommunities.com/,,,
TX,MONTGOMERY,178458-20,"Single Family Homes",11/25/2020,,112000,,"20032 TUFT CANYON CT",HOUSTON,TX,77356,"NORTHPARK WOODS",,CONTRACTOR,,,,,,,,,,,"CENTURY COMMUNITIES",,,,,"CENTURY COMMUNITIES","4700 W SAM HOUSTON PKWY N STE 130",HOUSTON,TX,77041-8219,"(281) 741-8946",https://www.centurycommunities.com/,,,
TX,MONTGOMERY,178459-20,"Single Family Homes",11/25/2020,,137000,,"20028 TUFT CANYON CT",HOUSTON,TX,77356,"NORTHPARK WOODS",,CONTRACTOR,,,,,,,,,,,"CENTURY COMMUNITIES",,,,,"CENTURY COMMUNITIES","4700 W SAM HOUSTON PKWY N STE 130",HOUSTON,TX,77041-8219,"(281) 741-8946",https://www.centurycommunities.com/,,,
TX,MONTGOMERY,178460-20,"Single Family Homes",11/25/2020,,122000,,"20020 TUFT CANYON CT",HOUSTON,TX,77356,"NORTHPARK WOODS",,CONTRACTOR,,,,,,,,,,,"CENTURY COMMUNITIES",,,,,"CENTURY COMMUNITIES","4700 W SAM HOUSTON PKWY N STE 130",HOUSTON,TX,77041-8219,"(281) 741-8946",https://www.centurycommunities.com/,,,
TX,MONTGOMERY,178461-20,"Single Family Homes",11/25/2020,,112000,,"20016 TUFT CANYON CT",HOUSTON,TX,77356,"NORTHPARK WOODS",,CONTRACTOR,,,,,,,,,,,"CENTURY COMMUNITIES",,,,,"CENTURY COMMUNITIES","4700 W SAM HOUSTON PKWY N STE 130",HOUSTON,TX,77041-8219,"(281) 741-8946",https://www.centurycommunities.com/,,,
TX,MONTGOMERY,178462-20,"Single Family Homes",11/25/2020,,137000,,"20012 TUFT CANYON CT",HOUSTON,TX,77356,"NORTHPARK WOODS",,CONTRACTOR,,,,,,,,,,,"CENTURY COMMUNITIES",,,,,"CENTURY COMMUNITIES","4700 W SAM HOUSTON PKWY N STE 130",HOUSTON,TX,77041-8219,"(281) 741-8946",https://www.centurycommunities.com/,,,
TX,MONTGOMERY,178463-20,"Single Family Homes",11/25/2020,,122000,,"20008 TUFT CANYON CT",HOUSTON,TX,77356,"NORTHPARK WOODS",,CONTRACTOR,,,,,,,,,,,"CENTURY COMMUNITIES",,,,,"CENTURY COMMUNITIES","4700 W SAM HOUSTON PKWY N STE 130",HOUSTON,TX,77041-8219,"(281) 741-8946",https://www.centurycommunities.com/,,,
TX,MONTGOMERY,178464-20,"Single Family Homes",11/25/2020,,112000,,"20004 TUFT CANYON CT",HOUSTON,TX,77356,"NORTHPARK WOODS",,CONTRACTOR,,,,,,,,,,,"CENTURY COMMUNITIES",,,,,"CENTURY COMMUNITIES","4700 W SAM HOUSTON PKWY N STE 130",HOUSTON,TX,77041-8219,"(281) 741-8946",https://www.centurycommunities.com/,,,
TX,MONTGOMERY,178465-20,"Single Family Homes",11/25/2020,,197000,,"25452 NORTHPARK LAKE DR",HOUSTON,TX,77356,"NORTHPARK WOODS",,CONTRACTOR,,,,,,,,,,,"CENTURY COMMUNITIES",,,,,"CENTURY COMMUNITIES","4700 W SAM HOUSTON PKWY N STE 130",HOUSTON,TX,77041-8219,"(281) 741-8946",https://www.centurycommunities.com/,,,
TX,MONTGOMERY,178466-20,"Single Family Homes",11/25/2020,,112000,,"25428 NORTHPARK LAKE DR",HOUSTON,TX,77356,"NORTHPARK WOODS",,CONTRACTOR,,,,,,,,,,,"CENTURY COMMUNITIES",,,,,"CENTURY COMMUNITIES","4700 W SAM HOUSTON PKWY N STE 130",HOUSTON,TX,77041-8219,"(281) 741-8946",https://www.centurycommunities.com/,,,
TX,MONTGOMERY,178467-20,"Single Family Homes",11/25/2020,,140000,,"25432 NORTHPARK LAKE DR",HOUSTON,TX,77356,"NORTHPARK WOODS",,CONTRACTOR,,,,,,,,,,,"CENTURY COMMUNITIES",,,,,"CENTURY COMMUNITIES","4700 W SAM HOUSTON PKWY N STE 130",HOUSTON,TX,77041-8219,"(281) 741-8946",https://www.centurycommunities.com/,,,
TX,MONTGOMERY,178470-20,"Single Family Homes",11/25/2020,,133000,,"25436 NORTHPARK LAKE DR",HOUSTON,TX,77356,"NORTHPARK WOODS",,CONTRACTOR,,,,,,,,,,,"CENTURY COMMUNITIES",,,,,"CENTURY COMMUNITIES","4700 W SAM HOUSTON PKWY N STE 130",HOUSTON,TX,77041-8219,"(281) 741-8946",https://www.centurycommunities.com/,,,
TX,MONTGOMERY,178392-20,"Single Family Homes",11/23/2020,,418693,,"6804 RED HOLLY CT",HOUSTON,TX,77356,"HIGH MEADOW ESTATES",,"CONLEY DILLON","PO BOX 273",CONROE,TX,77305,,Owner,,,,,OWNER,,,,,OWNER,,,,,,,,,
TX,MONTGOMERY,178440-20,"Single Family Homes",11/24/2020,,700000,,"27510 SHORES CT",HOUSTON,TX,77356,"BENDERS LANDING ESTATES",,"MICHAEL CORDON ","24903 NORTHAMPTON FOREST DR",SPRING,TX,77356,,Owner,,,,,OWNER,,,,,OWNER,,,,,,,,,
TX,MONTGOMERY,178380-20,"Single Family Homes",11/23/2020,,159031,,"6107 WHITE OAK LEAF LOOP",HOUSTON,TX,77356,"DEER TRAIL ESTATES",,CONTRACTOR,,,,,,,,,,,"DH HOMES",,,,,"DH HOMES","102 COUNTRY CROSING CIR",MAGNOLIA,TX,77354-3511,"(713) 570-6840",,,,
TX,MONTGOMERY,178388-20,"Single Family Homes",11/23/2020,,500000,,"27319 SIANDRA CREEK LN",HOUSTON,TX,77356,"BENDERS LANDING ESTATES",,CONTRACTOR,,,,,,,,,,,"DREAM TECH HOMES",,,,,"DREAM TECH HOMES","16103 MAPLEWICK DR",TOMBALL,TX,77377-8596,"(713) 860-6796",,,,
TX,MONTGOMERY,178433-20,"Single Family Homes",11/24/2020,,377319,,"17010 INDIGO HILLS DR",HOUSTON,TX,77356,"INDIGO RANCH",,CONTRACTOR,,,,,,,,,,,"DUNN & STONE BUILDERS",,,,,"DUNN & STONE BUILDERS","33926 THOUSAND OAKS BLVD",MAGNOLIA,TX,77354-6268,"(281) 259-3577",http://www.dunnandstonebuilders.com,,,
TX,MONTGOMERY,178487-20,"Single Family Homes",11/25/2020,,75000,,"17790 AUTUMN LEAF LN",HOUSTON,TX,77356,"AUTUMN ACRES",,"SERGIO GALVAN ELIZANDO","17790 AUTUMN LEAF LN","NEW CANEY",TX,77356,,Owner,,,,,OWNER,,,,,OWNER,,,,,,,,,
TX,MONTGOMERY,178428-20,"Single Family Homes",11/24/2020,,335990,,"16102 HILDAGO ST",HOUSTON,TX,77356,"DEER PINES",,CONTRACTOR,,,,,,,,,,,"FIRST AMERICA HOMES",,,,,"FIRST AMERICA HOMES","1401 WOODLANDS PARKWAY","THE WOODLANDS",TX,77380-1179,"(713) 452-1700",https://www.firstamericahomes.com/,,,info@firstamericahomes.com
TX,MONTGOMERY,178443-20,"Single Family Homes",11/24/2020,,347000,,"14916 FIERY ROSE DR",HOUSTON,TX,77356,ARTAVIA,,CONTRACTOR,,,,,,,,,,,"HIGHLAND HOMES",,,,,"HIGHLAND HOMES","10930 W SAM HOUSTON PKWY N STE 100",HOUSTON,TX,77064-6331,"(281) 517-9800",,,,
TX,MONTGOMERY,178444-20,"Single Family Homes",11/24/2020,,334000,,"17079 CRIMSON CREST DR",HOUSTON,TX,77356,ARTAVIA,,CONTRACTOR,,,,,,,,,,,"HIGHLAND HOMES",,,,,"HIGHLAND HOMES","10930 W SAM HOUSTON PKWY N STE 100",HOUSTON,TX,77064-6331,"(281) 517-9800",,,,
TX,MONTGOMERY,178445-20,"Single Family Homes",11/24/2020,,294000,,"17083 CRIMSON CREST DR",HOUSTON,TX,77356,ARTAVIA,,CONTRACTOR,,,,,,,,,,,"HIGHLAND HOMES",,,,,"HIGHLAND HOMES","10930 W SAM HOUSTON PKWY N STE 100",HOUSTON,TX,77064-6331,"(281) 517-9800",,,,
TX,MONTGOMERY,178447-20,"Single Family Homes",11/24/2020,,352000,,"17182 FOXTROT WAY",HOUSTON,TX,77356,ARTAVIA,,CONTRACTOR,,,,,,,,,,,"HIGHLAND HOMES",,,,,"HIGHLAND HOMES","10930 W SAM HOUSTON PKWY N STE 100",HOUSTON,TX,77064-6331,"(281) 517-9800",,,,
TX,MONTGOMERY,178361-20,"Single Family Homes",11/23/2020,,300000,,"13005 SHEPARD HILL",HOUSTON,TX,77356,,,CONTRACTOR,,,,,,,,,,,"KAYLAN KUSTOM HOMES",,,,,"KAYLAN KUSTOM HOMES","PO BOX 134",TOMBALL,TX,77377-0134,"(281) 259-9999",,,,
TX,MONTGOMERY,178496-20,"Single Family Homes",11/25/2020,,100620,,"15064 MEADOW GLEN NORTH",HOUSTON,TX,77356,"MEADOW GLEN",,CONTRACTOR,,,,,,,,,,,"KENDALL HOMES",,,,,"KENDALL HOMES","427 MASON PARK BLVD",KATY,TX,77450-6187,"(281) 398-4010",http://www.kendallhomes.net/,"(281) 398-4011",,
TX,MONTGOMERY,178415-20,"Single Family Homes",11/24/2020,,500000,,"925 PARADISE LN",HOUSTON,TX,77356,"CAPE CONROE",,"SALLY LARUE","10519 BILSING COVE",MONTGOMERY,TX,77373,,Owner,,,,,OWNER,,,,,OWNER,,,,,,,,,
TX,HARRIS,2001291,"Single Family Homes",11/10/2020,,,4112,"2513 LOGANBERRY CIR",SEABROOK,TX,77586,,,CONTRACTOR,,,,,,,,,,,"PRECISION HOMES CUSTOM BUILDERS",,,,,"PRECISION HOMES CUSTOM BUILDERS","1314 SPRING STUEBNER RD",SPRING,TX,77373-8201,"(281) 353-9883",,,,
TX,MONTGOMERY,178487-20,"Single Family Homes",11/25/2020,,75000,,"17790 AUTUMN LEAF LANE",HOUSTON,TX,77357,"AUTUMN ACRES",,"SERGIO ELIZANDO","17790 AUTUMN LEAF LANE","NEW CANEY",TX,77357,,Owner,,,,,OWNER,,,,,OWNER,,,,,,,,,
TX,MONTGOMERY,178361-20,"Single Family Homes",11/23/2020,,300000,,"13005 SHEPARD HILL RD",WILLIS,TX,77318,,,CONTRACTOR,,,,,,,,,,,"KAYLAN KUSTOM HOMES",,,,,"KAYLAN KUSTOM HOMES","PO BOX 134",TOMBALL,TX,77377-0134,"(281) 259-9999",,,,
TX,MONTGOMERY,178496-20,"Single Family Homes",11/25/2020,,100620,,"15064 MEADOW GLEN N",HOUSTON,TX,77306,"MEADOW GLEN",,CONTRACTOR,,,,,,,,,,,"KENDALL HOMES",,,,,"KENDALL HOMES","427 MASON PARK BLVD",KATY,TX,77450-6187,"(281) 398-4010",http://www.kendallhomes.net/,"(281) 398-4011",,
TX,MONTGOMERY,178346-20,"Single Family Homes",11/23/2020,,163000,,"22119 FALCON CASTLE LN",HOUSTON,TX,77373,"BROOKLYN TRAILS",,CONTRACTOR,,,,,,,,,,,"LEGEND HOMES",,,,,"LEGEND HOMES","10410 WINDAMERE LAKES BLVD",HOUSTON,TX,77065-4996,"(281) 671-9060",http://legendhomecorp.com/,"(281) 671-9055",,
TX,MONTGOMERY,178351-20,"Single Family Homes",11/23/2020,,129554,,"1215 BLUE HAZEL CT",HOUSTON,TX,77362,"ARBOR TRACE",,CONTRACTOR,,,,,,,,,,,"LENNAR HOMES",,,,,"LENNAR HOMES","550 GREENS PKWY",HOUSTON,TX,77067-4537,"(281) 875-1000",http://www.lennar.com/,,,
TX,MONTGOMERY,178352-20,"Single Family Homes",11/23/2020,,104650,,"1211 BLUE HAZEL CT",HOUSTON,TX,77362,"ARBOR TRACE",,CONTRACTOR,,,,,,,,,,,"LENNAR HOMES",,,,,"LENNAR HOMES","550 GREENS PKWY",HOUSTON,TX,77067-4537,"(281) 875-1000",http://www.lennar.com/,,,
TX,MONTGOMERY,178353-20,"Single Family Homes",11/23/2020,,110500,,"1218 BLUE HAZEL CT",HOUSTON,TX,77362,"ARBOR TRACE",,CONTRACTOR,,,,,,,,,,,"LENNAR HOMES",,,,,"LENNAR HOMES","550 GREENS PKWY",HOUSTON,TX,77067-4537,"(281) 875-1000",http://www.lennar.com/,,,
TX,MONTGOMERY,178418-20,"Single Family Homes",11/24/2020,,153000,,"19008 PINEWOOD GROVE TRL",HOUSTON,TX,77356,TAVOLA,,CONTRACTOR,,,,,,,,,,,"LENNAR HOMES",,,,,"LENNAR HOMES","550 GREENS PKWY",HOUSTON,TX,77067-4537,"(281) 875-1000",http://www.lennar.com/,,,
TX,MONTGOMERY,178419-20,"Single Family Homes",11/24/2020,,172500,,"4504 GLENWICK GROVE CT",HOUSTON,TX,77365,"COUNTRY COLONY",,CONTRACTOR,,,,,,,,,,,"LENNAR HOMES",,,,,"LENNAR HOMES","550 GREENS PKWY",HOUSTON,TX,77067-4537,"(281) 875-1000",http://www.lennar.com/,,,
TX,MONTGOMERY,"178420 -20","Single Family Homes",11/24/2020,,112000,,"4508 GLENWICK COURT",HOUSTON,TX,77365,"COUNTRY COLONY",,CONTRACTOR,,,,,,,,,,,"LENNAR HOMES",,,,,"LENNAR HOMES","550 GREENS PKWY",HOUSTON,TX,77067-4537,"(281) 875-1000",http://www.lennar.com/,,,
TX,MONTGOMERY,178358-20,"Single Family Homes",11/23/2020,,901000,,"5515 NORTH OSSINEKE DR",HOUSTON,TX,77386,"BENDERS LANDING ESTATES",,CONTRACTOR,,,,,,,,,,,"LEWIS CUSTOM BUILDERS",,,,,"LEWIS CUSTOM BUILDERS","3707 BIRNHAM BEND CIR",SPRING,TX,77386-1761,"(281) 650-7871",,,,
TX,MONTGOMERY,178389-20,"Single Family Homes",11/23/2020,,290000,,"902 DOUGLAS FIR DR",HOUSTON,TX,77354,WESTWOOD,,CONTRACTOR,,,,,,,,,,,"MENDOZA HOME BUILDERS",,,,,"MENDOZA HOME BUILDERS","10611 DEN OAK DR",HOUSTON,TX,77065-3736,"(832) 618-3071",,,,
TX,MONTGOMERY,178391-20,"Single Family Homes",11/23/2020,,270000,,"906 DOUGLAS FIR DR",MAGNOLIA,TX,77354,WESTWOOD,,CONTRACTOR,,,,,,,,,,,"MENDOZA HOME BUILDERS",,,,,"MENDOZA HOME BUILDERS","10611 DEN OAK DR",HOUSTON,TX,77065-3736,"(832) 618-3071",,,,
TX,MONTGOMERY,178377-20,"Single Family Homes",11/23/2020,,650000,,"4073 PLEASANT RIDGE DR",HOUSTON,TX,77386,"WOODSONS RESERVE",,CONTRACTOR,,,,,,,,,,,"TOLL BROTHERS",,,,,"TOLL BROTHERS","10110 W SAM HOUSTON PKWY N STE 350",HOUSTON,TX,77064-7508,"(281) 664-7255",,,,
TX,MONTGOMERY,178378-20,"Single Family Homes",11/23/2020,,550000,,"5414 CAROLINE LAKE DR",HOUSTON,TX,77386,"WOODSONS RESERVE",,CONTRACTOR,,,,,,,,,,,"TOLL BROTHERS",,,,,"TOLL BROTHERS","10110 W SAM HOUSTON PKWY N STE 350",HOUSTON,TX,77064-7508,"(281) 664-7255",,,,
TX,MONTGOMERY,178379-20,"Single Family Homes",11/23/2020,,700000,,"28027 ROYAL SWAN LANE",HOUSTON,TX,77386,"WOODSONS RESERVE",,CONTRACTOR,,,,,,,,,,,"TOLL BROTHERS",,,,,"TOLL BROTHERS","10110 W SAM HOUSTON PKWY N STE 350",HOUSTON,TX,77064-7508,"(281) 664-7255",,,,
TX,MONTGOMERY,178382-20,"Single Family Homes",11/23/2020,,800000,,"5217 LIBERTY COVE DR",HOUSTON,TX,77386,"WOODSONS RESERVE",,CONTRACTOR,,,,,,,,,,,"TOLL BROTHERS",,,,,"TOLL BROTHERS","10110 W SAM HOUSTON PKWY N STE 350",HOUSTON,TX,77064-7508,"(281) 664-7255",,,,
TX,MONTGOMERY,178383-20,"Single Family Homes",11/23/2020,,700000,,"5212 LIBERTY COVE DR",HOUSTON,TX,77386,"WOODSONS RESERVE",,CONTRACTOR,,,,,,,,,,,"TOLL BROTHERS",,,,,"TOLL BROTHERS","10110 W SAM HOUSTON PKWY N STE 350",HOUSTON,TX,77064-7508,"(281) 664-7255",,,,
TX,MONTGOMERY,178384-20,"Single Family Homes",11/23/2020,,600000,,"5419 CAROLINE LAKE DR",HOUSTON,TX,77386,"WOODSONS RESERVE",,CONTRACTOR,,,,,,,,,,,"TOLL BROTHERS",,,,,"TOLL BROTHERS","10110 W SAM HOUSTON PKWY N STE 350",HOUSTON,TX,77064-7508,"(281) 664-7255",,,,
TX,MONTGOMERY,178387-20,"Single Family Homes",11/23/2020,,600000,,"5358 CHERRY SPRING DR",HOUSTON,TX,77386,"WOODSONS RESERVE",,CONTRACTOR,,,,,,,,,,,"TOLL BROTHERS",,,,,"TOLL BROTHERS","10110 W SAM HOUSTON PKWY N STE 350",HOUSTON,TX,77064-7508,"(281) 664-7255",,,,
TX,MONTGOMERY,178385-20,"Single Family Homes",11/23/2020,,240045,,"6079 WINDWARD FALLS WAY",HOUSTON,TX,77365,"ROYAL BROOK AT KINGWOOD",,CONTRACTOR,,,,,,,,,,,"TRENDMAKER HOMES",,,,,"TRENDMAKER HOMES","16340 PARK TEN PL STE 250",HOUSTON,TX,77084-5144,"(281) 675-3200",,"(281) 675-3251","MARTIN EVANS",
TX,MONTGOMERY,178446-20,"Single Family Homes",11/24/2020,,175000,,"3602 EMERSON DR",HOUSTON,TX,77356,WALDEN,,CONTRACTOR,,,,,,,,,,,"VESTED CONSTRUCTION",,,,,"VESTED CONSTRUCTION","18500 MICHAELS RUN",MONTGOMERY,TX,77316,"(936) 244-0340",,,,
TX,MONTGOMERY,178477-20,"Single Family Homes",11/25/2020,,307125,,"1030 BLOSSOM FIELD LN",HOUSTON,TX,77362,WOODTRACE,,CONTRACTOR,,,,,,,,,,,"VILLAGE BUILDERS",,,,,"VILLAGE BUILDERS","550 GREENS PKWY STE 210",HOUSTON,TX,77067-4538,"(281) 873-4663",,,,
TX,MONTGOMERY,178479-20,"Single Family Homes",11/25/2020,,265555,,"34123 SPICEWOOD RIDGE LN",HOUSTON,TX,77362,WOODTRACE,,CONTRACTOR,,,,,,,,,,,"VILLAGE BUILDERS",,,,,"VILLAGE BUILDERS","550 GREENS PKWY STE 210",HOUSTON,TX,77067-4538,"(281) 873-4663",,,,
TX,MONTGOMERY,178480-20,"Single Family Homes",11/25/2020,,205400,,"1010 HAVENSHIRE RIDGE LN",HOUSTON,TX,77362,WOODTRACE,,CONTRACTOR,,,,,,,,,,,"VILLAGE BUILDERS",,,,,"VILLAGE BUILDERS","550 GREENS PKWY STE 210",HOUSTON,TX,77067-4538,"(281) 873-4663",,,,
TX,MONTGOMERY,178348-20,"Single Family Homes",11/23/2020,,248200,,"25217 LIBERTY MILL DR",HOUSTON,TX,77380,"WOODMILL CREEK",,CONTRACTOR,,,,,,,,,,,"PELICAN BUILDERS",,,,,"PELICAN BUILDERS","4265 SAN FELIPE ST STE 720",HOUSTON,TX,77027-2956,"(713) 877-8170",http://www.pelicanbuilders.com/,"(713) 871-0798",,info@pelicanbuilders.com
TX,MONTGOMERY,20200929,"Single Family Homes",11/18/2020,,100000,162,"18535 FM 1488",MAGNOLIA,TX,77356,,,"TRI MARSH REALTY LLC","917 PALOS VERDES TRL","SOUTH LAKE",TX,76092,"(972) 480-1788",Applicant,,,,,OWNER,,,,,OWNER,,,,,,,,,
TX,MONTGOMERY,2020939,"Single Family Homes",11/23/2020,,,2538,"131 ROGERDALE RIVER DR",MAGNOLIA,TX,77354,,,CONTRACTOR,,,,,,,,,,,"LENNAR HOMES",,,,,"LENNAR HOMES","550 GREENS PKWY",HOUSTON,TX,77067-4537,"(281) 875-1000",http://www.lennar.com/,,,
TX,HARRIS,20080487,"Single Family Homes",11/20/2020,,150000,,"905 SEYMOUR",PASADENA,TX,77506,,,CONTRACTOR,,,,,,,,,,,"GOLDEN HOUSE BUILDERS",,,,,"GOLDEN HOUSE BUILDERS","22931 BANQUERO",HOUSTON,TX,77373,"(832) 969-8254",,,,
TX,HARRIS,20100324,"Single Family Homes",11/30/2020,,217630,,"7810 SENTOSA CREEK LN",PASADENA,TX,77505,,,CONTRACTOR,,,,,,,,,,,"K HOVNANIAN HOMES",,,,,"K HOVNANIAN HOMES","13111 NORTHWEST FWY STE 200",HOUSTON,TX,77040-6311,"(713) 460-0264",,,,
TX,HARRIS,20100629,"Single Family Homes",11/30/2020,,143080,,"5707 ASHLAND LN",PASADENA,TX,77505,,,CONTRACTOR,,,,,,,,,,,"K HOVNANIAN HOMES",,,,,"K HOVNANIAN HOMES","13111 NORTHWEST FWY STE 200",HOUSTON,TX,77040-6311,"(713) 460-0264",,,,
TX,HARRIS,20100630,"Single Family Homes",11/30/2020,,143080,,"5739 WESTRICK LN",PASADENA,TX,77505,,,CONTRACTOR,,,,,,,,,,,"K HOVNANIAN HOMES",,,,,"K HOVNANIAN HOMES","13111 NORTHWEST FWY STE 200",HOUSTON,TX,77040-6311,"(713) 460-0264",,,,
TX,HARRIS,20100631,"Single Family Homes",11/30/2020,,205170,,"7802 LEIGHTON TRL",PASADENA,TX,77505,,,CONTRACTOR,,,,,,,,,,,"K HOVNANIAN HOMES",,,,,"K HOVNANIAN HOMES","13111 NORTHWEST FWY STE 200",HOUSTON,TX,77040-6311,"(713) 460-0264",,,,
TX,HARRIS,20110217,"Single Family Homes",11/25/2020,,180000,,"204 W ELLAINE AVE",PASADENA,TX,77506,,,CONTRACTOR,,,,,,,,,,,"BUILDERS EXCELLENT RAPID FRAMING & CORNICE",,,,,"BUILDERS EXCELLENT RAPID FRAMING & CORNICE","8413 BARKLEY ST",HOUSTON,TX,77017-4723,"(281) 703-0018",,,,
TX,HARRIS,20100378,"Single Family Homes",11/4/2020,,56600,,"6501 BRAMLEY DR",PASADENA,TX,77503,,,CONTRACTOR,,,,,,,,,,,"ROBERTSON HOMES",,,,,"ROBERTSON HOMES","11713 TANGLEBRIAR TRL",AUSTIN,TX,78750-1361,"(512) 789-6398",http://www.robertson-homes.com,"(512) 335-8928","MICHAEL ROBERTSON",
TX,HARRIS,20101112,"Single Family Homes",11/20/2020,,49000,,"5115 ANTHONY LA",PASADENA,TX,77505,,,"RENEE WELCH","5115 ANTHONY LA",PASADENA,TX,77505,,Owner,,,,,"IEC DESIGN",,,,,"IEC DESIGN","817 SOUTHMORE AVE #209",PASADENA,TX,77502,"(281) 295-1697",,,,
TX,HARRIS,19120130,"Single Family Homes",11/30/2020,,1110500,,"2536 SPENCER HWY",PASADENA,TX,77504,,,CONTRACTOR,,,,,,,,,,,"US BUILDERS",,,,,"US BUILDERS","88141 GAYLORD DR",HOUSTON,TX,77024,"(713) 661-1987",,,,
TX,HARRIS,20060370,"Single Family Homes",11/19/2020,,1500000,,"7705 SPENCER HWY",PASADENA,TX,77505,,,CONTRACTOR,,,,,,,,,,,"WARWICK CONSTRUCTION",,,,,"WARWICK CONSTRUCTION","365 FM 1959 RD",HOUSTON,TX,77034-5413,"(832) 448-7000",,,,
TX,HARRIS,20080655,"Single Family Homes",11/4/2020,,700000,,"3497 E SAM HOUSTON PKWY S",PASADENA,TX,77505,,,CONTRACTOR,,,,,,,,,,,"DMAC CONSTRUCTION AND DEVELOPMENT",,,,,"DMAC CONSTRUCTION AND DEVELOPMENT","1819 FIRST OAKS ST STE 100",RICHMOND,TX,77406-1440,"(832) 328-3339",,,,
TX,MONTGOMERY,20201455,"Single Family Homes",11/11/2020,,447990,,"126 CHATWORTH LN",SHENANDOAH,TX,77356,,,CONTRACTOR,,,,,,,,,,,"DAVID WEEKLEY HOMES",,,,,"DAVID WEEKLEY HOMES","14444 NORTHWEST",HOUSTON,TX,77040,"(713) 570-5021",http://www.davidweekleyhomes.com/,,,
TX,MONTGOMERY,1530,"Single Family Homes",11/16/2020,,280000,,"357 N CENTRO CIRCLE",SHENANDOAH,TX,77386,,,CONTRACTOR,,,,,,,,,,,"PHSH CONSTRUCTION",,,,,"PHSH CONSTRUCTION","3934 CYPRESS CREEK PKWY STE 201",HOUSTON,TX,77068,"(832) 286-4485",,,,
TX,MONTGOMERY,1537,"Single Family Homes",11/11/2020,,435990,,"534 KINGSTON LN",SHENANDOAH,TX,77586,,,CONTRACTOR,,,,,,,,,,,"DAVID WEEKLEY HOMES",,,,,"DAVID WEEKLEY HOMES","14444 NORTHWEST",HOUSTON,TX,77040,"(713) 570-5021",http://www.davidweekleyhomes.com/,,,
TX,MONTGOMERY,1557,"Single Family Homes",11/24/2020,,396490,,"514 KINGSTON LN",SHENANDOAH,TX,77586,,,CONTRACTOR,,,,,,,,,,,"DAVID WEEKLEY HOMES",,,,,"DAVID WEEKLEY HOMES","14444 NORTHWEST",HOUSTON,TX,77040,"(713) 570-5021",http://www.davidweekleyhomes.com/,,,
TX,BELL,"20 00006852","Single Family Homes",11/9/2020,,,2148,"908 EARP DR",KILLEEN,TX,76548,,,CONTRACTOR,,,,,,,,,,,"PRECISION VALUE HOMES",,,,,"PRECISION VALUE HOMES","14304 E BUSINESS 190","COPPERAS COVE",TX,76522-6267,"(254) 290-7826",http://www.pvhtx.com/,"(254) 518-1130","BO HOLLOMAN",pvhtx@yahoo.com
TX,BELL,"20 00006819","Single Family Homes",11/9/2020,,,2138,"909 MARLOW CV",KILLEEN,TX,76548,,,CONTRACTOR,,,,,,,,,,,"PRECISION VALUE HOMES",,,,,"PRECISION VALUE HOMES","14304 E BUSINESS 190","COPPERAS COVE",TX,76522-6267,"(254) 290-7826",http://www.pvhtx.com/,"(254) 518-1130","BO HOLLOMAN",pvhtx@yahoo.com
TX,BELL,"20 00007412","Single Family Homes",11/12/2020,,,1966,"6309 HERCULES AVE",KILLEEN,TX,76548,,,CONTRACTOR,,,,,,,,,,,"STYLECRAFT BUILDERS ",,,,,"STYLECRAFT BUILDERS ","4090 STATE HIGHWAY 6 S","COLLEGE STATION",TX,77845-8962,"(979) 764-9900",,"(979) 690-3069","TANNER BREWSTER",tabrewster@stylecraft-builders.com
TX,BELL,"20 00002514","Single Family Homes",11/17/2020,,,1966,"811 MCLINTOCK CV",KILLEEN,TX,76548,,,CONTRACTOR,,,,,,,,,,,"STYLECRAFT BUILDERS ",,,,,"STYLECRAFT BUILDERS ","4090 STATE HIGHWAY 6 S","COLLEGE STATION",TX,77845-8962,"(979) 764-9900",,"(979) 690-3069","TANNER BREWSTER",tabrewster@stylecraft-builders.com
TX,BELL,"20 00007531","Single Family Homes",11/24/2020,,,1913,"9618 MALKIER DR",KILLEEN,TX,76548,,,CONTRACTOR,,,,,,,,,,,"DR HORTON",,,,,"DR HORTON","14100 SOUTHWEST",HOUSTON,TX,77478,"(281) 201-5559",,,,
TX,BELL,"20 00005448","Single Family Homes",11/16/2020,,,2598,"4104 BROOKSIDE DR",KILLEEN,TX,76548,,,CONTRACTOR,,,,,,,,,,,"WELMOR HOMES",,,,,"WELMOR HOMES","PO BOX 690643",KILLEEN,TX,76549,"(254) 702-9006",,,,
TX,BELL,"20 00004013","Single Family Homes",11/23/2020,,,2225,"6203 HERCULES AVE",KILLEEN,TX,76548,,,CONTRACTOR,,,,,,,,,,,"STYLECRAFT BUILDERS ",,,,,"STYLECRAFT BUILDERS ","4090 STATE HIGHWAY 6 S","COLLEGE STATION",TX,77845-8962,"(979) 764-9900",,"(979) 690-3069","TANNER BREWSTER",tabrewster@stylecraft-builders.com
TX,BELL,"20 00007135","Single Family Homes",11/4/2020,,,3237,"8206 PRESCOTT DR",KILLEEN,TX,76548,,,CONTRACTOR,,,,,,,,,,,"CAROTHERS HOMES",,,,,"CAROTHERS HOMES","2025 MEMORY LN STE 200","HARKER HEIGHTS",TX,76548-7488,"(254) 519-2682",,,,
TX,BELL,"20 00007620","Single Family Homes",11/24/2020,,,3261,"8402 GRAYSON TRL",KILLEEN,TX,76548,,,CONTRACTOR,,,,,,,,,,,"CAROTHERS BUILDERS LLC",,,,,"CAROTHERS BUILDERS LLC","2025 MEMORY LN STE 200","HARKER HEIGHTS",TX,76548-7488,"(254) 519-2682",http://www.carothershomes.com,,,
TX,BELL,"20 00006821","Single Family Homes",11/4/2020,,,2591,"8804 GRAND OAKS LN",KILLEEN,TX,76548,,,CONTRACTOR,,,,,,,,,,,"CAROTHERS HOMES",,,,,"CAROTHERS HOMES","2025 MEMORY LN STE 200","HARKER HEIGHTS",TX,76548-7488,"(254) 519-2682",,,,
TX,BELL,"20 00007618","Single Family Homes",11/24/2020,,,2848,"8400 GRAYSON TRL",KILLEEN,TX,76548,,,CONTRACTOR,,,,,,,,,,,"CAROTHERS BUILDERS LLC",,,,,"CAROTHERS BUILDERS LLC","2025 MEMORY LN STE 200","HARKER HEIGHTS",TX,76548-7488,"(254) 519-2682",http://www.carothershomes.com,,,
TX,BELL,"20 00006566","Single Family Homes",11/2/2020,,,2339,"9700 MALKIER DR",KILLEEN,TX,76548,,,CONTRACTOR,,,,,,,,,,,"DR HORTON",,,,,"DR HORTON","14100 SOUTHWEST",HOUSTON,TX,77478,"(281) 201-5559",,,,
TX,BELL,"20 00007417","Single Family Homes",11/12/2020,,,2696,"804 HOLLIDAY DR",KILLEEN,TX,76548,,,CONTRACTOR,,,,,,,,,,,"TIPPIT HOMES",,,,,"TIPPIT HOMES","2830 FM 182",GATESVILLE,TX,76528-3411,"(254) 535-3432",,,,
TX,BELL,"20 00007197","Single Family Homes",11/2/2020,,,2191,"9617 MALKIER DR",KILLEEN,TX,76548,,,CONTRACTOR,,,,,,,,,,,"DR HORTON",,,,,"DR HORTON","14100 SOUTHWEST",HOUSTON,TX,77478,"(281) 201-5559",,,,
TX,BELL,"20 00007545","Single Family Homes",11/24/2020,,,1913,"3602 TANCHICO DR",KILLEEN,TX,76548,,,CONTRACTOR,,,,,,,,,,,"DR HORTON",,,,,"DR HORTON","14100 SOUTHWEST",HOUSTON,TX,77478,"(281) 201-5559",,,,
TX,BELL,"20 00007439","Single Family Homes",11/17/2020,,,3792,"3701 DODGE CITY DR",KILLEEN,TX,76548,,,CONTRACTOR,,,,,,,,,,,"CASA BONITA LTD",,,,,"CASA BONITA LTD","4300 CHANTZ DR",KILLEEN,TX,76542-7800,"(254) 290-4034",,,,
TX,BELL,"20 00006969","Single Family Homes",11/2/2020,,,2191,"9701 FALME LN",KILLEEN,TX,76548,,,CONTRACTOR,,,,,,,,,,,"DR HORTON",,,,,"DR HORTON","14100 SOUTHWEST",HOUSTON,TX,77478,"(281) 201-5559",,,,
TX,BELL,"20 00007321","Single Family Homes",11/13/2020,,,2614,"5304 LA PIEDRA LN",KILLEEN,TX,76548,,,CONTRACTOR,,,,,,,,,,,"CAROTHERS HOMES",,,,,"CAROTHERS HOMES","2025 MEMORY LN STE 200","HARKER HEIGHTS",TX,76548-7488,"(254) 519-2682",,,,
TX,BELL,"20 00007528","Single Family Homes",11/24/2020,,,2615,"9619 FALME LN",KILLEEN,TX,76548,,,CONTRACTOR,,,,,,,,,,,"DR HORTON",,,,,"DR HORTON","14100 SOUTHWEST",HOUSTON,TX,77478,"(281) 201-5559",,,,
TX,BELL,"20 00007419","Single Family Homes",11/12/2020,,,2904,"805 HOLLIDAY DR",KILLEEN,TX,76548,,,CONTRACTOR,,,,,,,,,,,"TIPPIT HOMES",,,,,"TIPPIT HOMES","2830 FM 182",GATESVILLE,TX,76528-3411,"(254) 535-3432",,,,
TX,BELL,"20 00007182","Single Family Homes",11/2/2020,,,2339,"9614 MALKIER DR",KILLEEN,TX,76548,,,CONTRACTOR,,,,,,,,,,,"DR HORTON",,,,,"DR HORTON","14100 SOUTHWEST",HOUSTON,TX,77478,"(281) 201-5559",,,,
TX,BELL,"20 00007619","Single Family Homes",11/24/2020,,,2912,"8310 GRAYSON TRL",KILLEEN,TX,76548,,,CONTRACTOR,,,,,,,,,,,"CAROTHERS BUILDERS LLC",,,,,"CAROTHERS BUILDERS LLC","2025 MEMORY LN STE 200","HARKER HEIGHTS",TX,76548-7488,"(254) 519-2682",http://www.carothershomes.com,,,
TX,BELL,"20 00003394","Single Family Homes",11/20/2020,,,3137,"6207 CORDILLERA DR",KILLEEN,TX,76548,,,CONTRACTOR,,,,,,,,,,,"PURSER HOMES",,,,,"PURSER HOMES","6705 ALVIN DR",KILLEEN,TX,76542-6334,"(254) 432-6648",http://www.purserhomes.com/,"(254) 432-6449",,sales@purserhomes.com
TX,BELL,"20 00007180","Single Family Homes",11/2/2020,,,2919,"9620 MALKIER DR",KILLEEN,TX,76548,,,CONTRACTOR,,,,,,,,,,,"DR HORTON",,,,,"DR HORTON","14100 SOUTHWEST",HOUSTON,TX,77478,"(281) 201-5559",,,,
TX,BELL,"20 00007196","Single Family Homes",11/2/2020,,,2098,"9615 MALKIER DR",KILLEEN,TX,76548,,,CONTRACTOR,,,,,,,,,,,"DR HORTON",,,,,"DR HORTON","14100 SOUTHWEST",HOUSTON,TX,77478,"(281) 201-5559",,,,
TX,BELL,"20 00007324","Single Family Homes",11/13/2020,,,2614,"5300 LA PIEDRA LN",KILLEEN,TX,76548,,,CONTRACTOR,,,,,,,,,,,"CAROTHERS HOMES",,,,,"CAROTHERS HOMES","2025 MEMORY LN STE 200","HARKER HEIGHTS",TX,76548-7488,"(254) 519-2682",,,,
TX,BELL,"20 00007532","Single Family Homes",11/24/2020,,,1913,"9617 FALME LN",KILLEEN,TX,76548,,,CONTRACTOR,,,,,,,,,,,"DR HORTON",,,,,"DR HORTON","14100 SOUTHWEST",HOUSTON,TX,77478,"(281) 201-5559",,,,
TX,BELL,"20 00007134","Single Family Homes",11/4/2020,,,3221,"8208 PRESCOTT DR",KILLEEN,TX,76548,,,CONTRACTOR,,,,,,,,,,,"CAROTHERS HOMES",,,,,"CAROTHERS HOMES","2025 MEMORY LN STE 200","HARKER HEIGHTS",TX,76548-7488,"(254) 519-2682",,,,
TX,BELL,"20 00007136","Single Family Homes",11/4/2020,,,3237,"8212 PRESCOTT DR",KILLEEN,TX,76548,,,CONTRACTOR,,,,,,,,,,,"CAROTHERS HOMES",,,,,"CAROTHERS HOMES","2025 MEMORY LN STE 200","HARKER HEIGHTS",TX,76548-7488,"(254) 519-2682",,,,
TX,BELL,"20 00007322","Single Family Homes",11/9/2020,,,2887,"5208 LA PIEDRA LN",KILLEEN,TX,76548,,,CONTRACTOR,,,,,,,,,,,"CAROTHERS HOMES",,,,,"CAROTHERS HOMES","2025 MEMORY LN STE 200","HARKER HEIGHTS",TX,76548-7488,"(254) 519-2682",,,,
TX,BELL,"20 00007201","Single Family Homes",11/2/2020,,,2615,"9611 MALKIER DR",KILLEEN,TX,76548,,,CONTRACTOR,,,,,,,,,,,"DR HORTON",,,,,"DR HORTON","14100 SOUTHWEST",HOUSTON,TX,77478,"(281) 201-5559",,,,
TX,BELL,"20 00007748","Single Family Homes",11/30/2020,,,3221,"6104 GRAND TERRACE DR",KILLEEN,TX,76548,,,CONTRACTOR,,,,,,,,,,,"CAROTHERS HOMES",,,,,"CAROTHERS HOMES","2025 MEMORY LN STE 200","HARKER HEIGHTS",TX,76548-7488,"(254) 519-2682",,,,
TX,BELL,"20 00007137","Single Family Homes",11/4/2020,,,3221,"8210 PRESCOTT DR",KILLEEN,TX,76548,,,CONTRACTOR,,,,,,,,,,,"CAROTHERS HOMES",,,,,"CAROTHERS HOMES","2025 MEMORY LN STE 200","HARKER HEIGHTS",TX,76548-7488,"(254) 519-2682",,,,
TX,BELL,"20 00006976","Single Family Homes",11/2/2020,,,2098,"9704 FALME LN",KILLEEN,TX,76548,,,CONTRACTOR,,,,,,,,,,,"DR HORTON",,,,,"DR HORTON","14100 SOUTHWEST",HOUSTON,TX,77478,"(281) 201-5559",,,,
TX,BELL,"20 00007428","Single Family Homes",11/16/2020,,,2588,"808 HOLLIDAY DR",KILLEEN,TX,76548,,,CONTRACTOR,,,,,,,,,,,"TIPPIT HOMES",,,,,"TIPPIT HOMES","2830 FM 182",GATESVILLE,TX,76528-3411,"(254) 535-3432",,,,
TX,BELL,"20 00007427","Single Family Homes",11/12/2020,,,2877,"803 HOLLIDAY DR",KILLEEN,TX,76548,,,CONTRACTOR,,,,,,,,,,,"TIPPIT HOMES",,,,,"TIPPIT HOMES","2830 FM 182",GATESVILLE,TX,76528-3411,"(254) 535-3432",,,,
TX,BELL,"20 00007181","Single Family Homes",11/2/2020,,,3116,"9616 MALKIER DR",KILLEEN,TX,76548,,,CONTRACTOR,,,,,,,,,,,"DR HORTON",,,,,"DR HORTON","14100 SOUTHWEST",HOUSTON,TX,77478,"(281) 201-5559",,,,
TX,BELL,"20 00007751","Single Family Homes",11/30/2020,,,3221,"6010 GRAND TERRACE DR",KILLEEN,TX,76548,,,CONTRACTOR,,,,,,,,,,,"CAROTHERS HOMES",,,,,"CAROTHERS HOMES","2025 MEMORY LN STE 200","HARKER HEIGHTS",TX,76548-7488,"(254) 519-2682",,,,
TX,BELL,"20 00007529","Single Family Homes",11/24/2020,,,1945,"9613 MALKIER DR",KILLEEN,TX,76548,,,CONTRACTOR,,,,,,,,,,,"DR HORTON",,,,,"DR HORTON","14100 SOUTHWEST",HOUSTON,TX,77478,"(281) 201-5559",,,,
TX,BELL,"20 00002290","Single Family Homes",11/19/2020,,,3774,"904 MCLINTOCK CV",KILLEEN,TX,76548,,,CONTRACTOR,,,,,,,,,,,"STYLECRAFT BUILDERS ",,,,,"STYLECRAFT BUILDERS ","4090 STATE HIGHWAY 6 S","COLLEGE STATION",TX,77845-8962,"(979) 764-9900",,"(979) 690-3069","TANNER BREWSTER",tabrewster@stylecraft-builders.com
TX,BELL,"20 00007530","Single Family Homes",11/24/2020,,,2339,"9615 FALME LN",KILLEEN,TX,76548,,,CONTRACTOR,,,,,,,,,,,"DR HORTON",,,,,"DR HORTON","14100 SOUTHWEST",HOUSTON,TX,77478,"(281) 201-5559",,,,
TX,BELL,"20 00007410","Single Family Homes",11/13/2020,,,2896,"6614 CASSIDY LN",KILLEEN,TX,76548,,,CONTRACTOR,,,,,,,,,,,"STYLECRAFT BUILDERS ",,,,,"STYLECRAFT BUILDERS ","4090 STATE HIGHWAY 6 S","COLLEGE STATION",TX,77845-8962,"(979) 764-9900",,"(979) 690-3069","TANNER BREWSTER",tabrewster@stylecraft-builders.com
TX,BELL,"20 00007533","Single Family Homes",11/24/2020,,,1945,"9702 FALME LN",KILLEEN,TX,76548,,,CONTRACTOR,,,,,,,,,,,"DR HORTON",,,,,"DR HORTON","14100 SOUTHWEST",HOUSTON,TX,77478,"(281) 201-5559",,,,
TX,BELL,"20 00007550","Single Family Homes",11/24/2020,,,1945,"9703 MALKIER DR",KILLEEN,TX,76548,,,CONTRACTOR,,,,,,,,,,,"DR HORTON",,,,,"DR HORTON","14100 SOUTHWEST",HOUSTON,TX,77478,"(281) 201-5559",,,,
TX,BELL,"20 00007198","Single Family Homes",11/2/2020,,,2341,"9619 MALKIER DR",KILLEEN,TX,76548,,,CONTRACTOR,,,,,,,,,,,"DR HORTON",,,,,"DR HORTON","14100 SOUTHWEST",HOUSTON,TX,77478,"(281) 201-5559",,,,
TX,BELL,"20 00007750","Single Family Homes",11/30/2020,,,3221,"6100 GRAND TERRACE DR",KILLEEN,TX,76548,,,CONTRACTOR,,,,,,,,,,,"CAROTHERS HOMES",,,,,"CAROTHERS HOMES","2025 MEMORY LN STE 200","HARKER HEIGHTS",TX,76548-7488,"(254) 519-2682",,,,
TX,BELL,"20 00007463","Single Family Homes",11/19/2020,,,3262,"7805 PRESCOTT DR",KILLEEN,TX,76548,,,CONTRACTOR,,,,,,,,,,,"A&G HOMES",,,,,"A&G HOMES","109 N 6TH ST",GATESVILLE,TX,76528-1320,"(254) 845-7862",,,,
TX,BELL,"20 00007464","Single Family Homes",11/19/2020,,,3114,"7803 PRESCOTT DR",KILLEEN,TX,76548,,,CONTRACTOR,,,,,,,,,,,"A&G HOMES",,,,,"A&G HOMES","109 N 6TH ST",GATESVILLE,TX,76528-1320,"(254) 845-7862",,,,
TX,BELL,"20 00007546","Single Family Homes",11/24/2020,,,1945,"3704 TANCHICO DR",KILLEEN,TX,76548,,,CONTRACTOR,,,,,,,,,,,"DR HORTON",,,,,"DR HORTON","14100 SOUTHWEST",HOUSTON,TX,77478,"(281) 201-5559",,,,
TX,BELL,"20 00007754","Single Family Homes",11/25/2020,,,2722,"4106 BROOKSIDE DR",KILLEEN,TX,76548,,,CONTRACTOR,,,,,,,,,,,"WELMOR HOMES",,,,,"WELMOR HOMES","PO BOX 690643",KILLEEN,TX,76549,"(254) 702-9006",,,,
TX,BELL,"20 00007462","Single Family Homes",11/19/2020,,,3520,"7807 PRESCOTT DR",KILLEEN,TX,76548,,,CONTRACTOR,,,,,,,,,,,"A&G HOMES",,,,,"A&G HOMES","109 N 6TH ST",GATESVILLE,TX,76528-1320,"(254) 845-7862",,,,
TX,BELL,"20 00007413","Single Family Homes",11/13/2020,,,3153,"801 EARP DR",KILLEEN,TX,76548,,,CONTRACTOR,,,,,,,,,,,"STYLECRAFT BUILDERS ",,,,,"STYLECRAFT BUILDERS ","4090 STATE HIGHWAY 6 S","COLLEGE STATION",TX,77845-8962,"(979) 764-9900",,"(979) 690-3069","TANNER BREWSTER",tabrewster@stylecraft-builders.com
TX,BELL,"20 00007320","Single Family Homes",11/9/2020,,,2887,"5302 LA PIEDRA LN",KILLEEN,TX,76548,,,CONTRACTOR,,,,,,,,,,,"CAROTHERS HOMES",,,,,"CAROTHERS HOMES","2025 MEMORY LN STE 200","HARKER HEIGHTS",TX,76548-7488,"(254) 519-2682",,,,
TX,BELL,"20 00007465","Single Family Homes",11/19/2020,,,3327,"7801 PRESCOTT DR",KILLEEN,TX,76548,,,CONTRACTOR,,,,,,,,,,,"A&G HOMES",,,,,"A&G HOMES","109 N 6TH ST",GATESVILLE,TX,76528-1320,"(254) 845-7862",,,,
TX,BELL,"20 00006974","Single Family Homes",11/2/2020,,,3116,"9707 FALME LN",KILLEEN,TX,76548,,,CONTRACTOR,,,,,,,,,,,"DR HORTON",,,,,"DR HORTON","14100 SOUTHWEST",HOUSTON,TX,77478,"(281) 201-5559",,,,
TX,BELL,"20 00007323","Single Family Homes",11/9/2020,,,2138,"5306 LA PIEDRA LN",KILLEEN,TX,76548,,,CONTRACTOR,,,,,,,,,,,"CAROTHERS HOMES",,,,,"CAROTHERS HOMES","2025 MEMORY LN STE 200","HARKER HEIGHTS",TX,76548-7488,"(254) 519-2682",,,,
TX,BELL,"20 00007524","Single Family Homes",11/24/2020,,,2098,"9621 FALME LN",KILLEEN,TX,76548,,,CONTRACTOR,,,,,,,,,,,"DR HORTON",,,,,"DR HORTON","14100 SOUTHWEST",HOUSTON,TX,77478,"(281) 201-5559",,,,
TX,HARRIS,20042747,"Single Family Homes",12/17/2020,,172000,,"9337 FREELAND",HOUSTON,TX,77075,,,"ABDELRAZEH RADWAN","9337 FREELAND",HOUSTON,TX,77075,,Owner,,,,,OWNER,,,,,OWNER,,,,,,,,,
TX,HARRIS,20109530,"Single Family Homes",12/17/2020,,113000,,"793 STRAWBERRY PINES",HOUSTON,TX,77025,,,CONTRACTOR,,,,,,,,,,,"ANNE'S PERMIT",,,,,"ANNE'S PERMIT","2617C W HOLCOMBE BLVD",HOUSTON,TX,77025,"(713) 666-2025",,,,
TX,HARRIS,20092401,"Single Family Homes",12/18/2020,,90000,,"8125 WOODLYN",HOUSTON,TX,77028,,,"AVILA GLADIS","8125 WOODLYN",HOUSTON,TX,77028,,Owner,,,,,"DSW HOMES",,,,,"DSW HOMES","502 E 20TH ST",HOUSTON,TX,77008-2665,"(832) 552-9687",http://www.dswhomes.com/,,,
TX,HARRIS,20097809,"Single Family Homes",12/16/2020,,329000,,"9314 FAIRFIELD OAKS",HOUSTON,TX,77365,,,CONTRACTOR,,,,,,,,,,,"ASHTON WOODS HOMES",,,,,"ASHTON WOODS HOMES","10110 W SAM HOUSTON PKWY N",HOUSTON,TX,77064-7508,"(832) 478-9028",,,,
TX,HARRIS,19006499,"Single Family Homes",12/18/2020,,198000,,"5836 E POST OAK",HOUSTON,TX,77055,,,CONTRACTOR,,,,,,,,,,,"COLINA HOMES",,,,,"COLINA HOMES","1314 N DURHAM DR",HOUSTON,TX,77008-3734,"(281) 528-9090",http://colinahomes.com/,,,postmaster@colinahomes.com
TX,HARRIS,19006502,"Single Family Homes",12/18/2020,,198000,,"5838 E POST OAK",HOUSTON,TX,77055,,,CONTRACTOR,,,,,,,,,,,"COLINA HOMES",,,,,"COLINA HOMES","1314 N DURHAM DR",HOUSTON,TX,77008-3734,"(281) 528-9090",http://colinahomes.com/,,,postmaster@colinahomes.com
TX,HARRIS,20110520,"Single Family Homes",12/17/2020,,215826,,"14219 COUTURIE FOREST ",HOUSTON,TX,77045,,,CONTRACTOR,,,,,,,,,,,"K HOVNANIAN HOMES",,,,,"K HOVNANIAN HOMES","13111 NORTHWEST FWY STE 200",HOUSTON,TX,77040-6311,"(713) 460-0264",,,,
TX,HARRIS,20110723,"Single Family Homes",12/18/2020,,208845,,"14303 COUTURIE FOREST ",HOUSTON,TX,77045,,,CONTRACTOR,,,,,,,,,,,"K HOVNANIAN HOMES",,,,,"K HOVNANIAN HOMES","13111 NORTHWEST FWY STE 200",HOUSTON,TX,77040-6311,"(713) 460-0264",,,,
TX,HARRIS,20110516,"Single Family Homes",12/21/2020,,204219,,"14311 COUTURIE FOREST",HOUSTON,TX,77045,,,CONTRACTOR,,,,,,,,,,,"K HOVNANIAN HOMES",,,,,"K HOVNANIAN HOMES","13111 NORTHWEST FWY STE 200",HOUSTON,TX,77040-6311,"(713) 460-0264",,,,
TX,HARRIS,20109409,"Single Family Homes",12/17/2020,,167884,,"2823 STAR SKY",HOUSTON,TX,77045,,,CONTRACTOR,,,,,,,,,,,"K HOVNANIAN HOMES",,,,,"K HOVNANIAN HOMES","13111 NORTHWEST FWY STE 200",HOUSTON,TX,77040-6311,"(713) 460-0264",,,,
TX,HARRIS,20110519,"Single Family Homes",12/17/2020,,220452,,"2830 PAINTED SUNRISE",HOUSTON,TX,77045,,,CONTRACTOR,,,,,,,,,,,"K HOVNANIAN HOMES",,,,,"K HOVNANIAN HOMES","13111 NORTHWEST FWY STE 200",HOUSTON,TX,77040-6311,"(713) 460-0264",,,,
TX,HARRIS,20107873,"Single Family Homes",12/17/2020,,172762,,"2914 STAR SKY",HOUSTON,TX,77045,,,CONTRACTOR,,,,,,,,,,,"K HOVNANIAN HOMES",,,,,"K HOVNANIAN HOMES","13111 NORTHWEST FWY STE 200",HOUSTON,TX,77040-6311,"(713) 460-0264",,,,
TX,HARRIS,20110874,"Single Family Homes",12/21/2020,,229536,,"2918 STAR SKY",HOUSTON,TX,77045,,,CONTRACTOR,,,,,,,,,,,"K HOVNANIAN HOMES",,,,,"K HOVNANIAN HOMES","13111 NORTHWEST FWY STE 200",HOUSTON,TX,77040-6311,"(713) 460-0264",,,,
TX,HARRIS,20097818,"Single Family Homes",12/16/2020,,338000,,"3419 OAKHEATH MANOR",HOUSTON,TX,77365,,,CONTRACTOR,,,,,,,,,,,"CANADA KARLA",,,,,"CANADA KARLA","272 WESTWOOD DR","LEAGUE CITY",TX,77573,"(713) 443-7818",,,,
TX,HARRIS,20095939,"Single Family Homes",12/17/2020,,185000,,"5202 FAIRCHILD",HOUSTON,TX,77028,,,CONTRACTOR,,,,,,,,,,,"CENSEO HOMES",,,,,"CENSEO HOMES","1800 AUGUSTA DR",HOUSTON,TX,77057-3149,"(281) 932-5303",,,,
TX,HARRIS,20094986,"Single Family Homes",12/16/2020,,131000,,"325 CONNECTICUT",HOUSTON,TX,77029,,,CONTRACTOR,,,,,,,,,,,"CENSEO HOMES",,,,,"CENSEO HOMES","1800 AUGUSTA DR",HOUSTON,TX,77057-3149,"(281) 932-5303",,,,
TX,HARRIS,20107415,"Single Family Homes",12/21/2020,,222000,,"5702 PRAISE",HOUSTON,TX,77048,,,CONTRACTOR,,,,,,,,,,,"CENSEO HOMES",,,,,"CENSEO HOMES","1800 AUGUSTA DR",HOUSTON,TX,77057-3149,"(281) 932-5303",,,,
TX,HARRIS,20092722,"Single Family Homes",12/15/2020,,306952,,"1809 MCDUFFIE",HOUSTON,TX,77019,,,CONTRACTOR,,,,,,,,,,,"ON POINT CUSTOM HOMES",,,,,"ON POINT CUSTOM HOMES","3939 ESSEX LN",HOUSTON,TX,77027-5190,"(713) 600-2427",,,"EARL CORRELL",
TX,HARRIS,20065991,"Single Family Homes",12/21/2020,,225990,,"12507 ABBEY HOUSE",HOUSTON,TX,77047,,,CONTRACTOR,,,,,,,,,,,"DR HORTON",,,,,"DR HORTON","14100 SOUTHWEST",HOUSTON,TX,77478,"(281) 201-5559",,,,
TX,HARRIS,20109420,"Single Family Homes",12/17/2020,,209990,,"12517 WALMGATE",HOUSTON,TX,77047,,,CONTRACTOR,,,,,,,,,,,"DR HORTON",,,,,"DR HORTON","14100 SOUTHWEST",HOUSTON,TX,77478,"(281) 201-5559",,,,
TX,HARRIS,20094300,"Single Family Homes",12/17/2020,,245990,,"12539 COLCHESTER CREEK",HOUSTON,TX,77047,,,CONTRACTOR,,,,,,,,,,,"DR HORTON",,,,,"DR HORTON","14100 SOUTHWEST",HOUSTON,TX,77478,"(281) 201-5559",,,,
TX,HARRIS,20093918,"Single Family Homes",12/21/2020,,200990,,"12542 COLCHESTER CREEK",HOUSTON,TX,77047,,,CONTRACTOR,,,,,,,,,,,"DR HORTON",,,,,"DR HORTON","14100 SOUTHWEST",HOUSTON,TX,77478,"(281) 201-5559",,,,
TX,HARRIS,20054216,"Single Family Homes",12/15/2020,,357000,,"1406 CHANTILLY",HOUSTON,TX,77018,,,CONTRACTOR,,,,,,,,,,,"DAVID WEEKLEY HOMES",,,,,"DAVID WEEKLEY HOMES","14444 NORTHWEST",HOUSTON,TX,77040,"(713) 570-5021",http://www.davidweekleyhomes.com/,,,
TX,HARRIS,20100975,"Single Family Homes",12/16/2020,,200000,,"4038 SMOOTH OAK",HOUSTON,TX,77053,,,"DRAKE OMARI","4038 SMOOTH OAK",HOUSTON,TX,77545,"(281) 896-6419",Applicant,,,,,OWNER,,,,,OWNER,,,,,,,,,
TX,HARRIS,20082306,"Single Family Homes",12/21/2020,,264990,,"4433 IBIZA",HOUSTON,TX,77045,,,CONTRACTOR,,,,,,,,,,,"FIRST AMERICA HOMES",,,,,"FIRST AMERICA HOMES","1401 WOODLANDS PARKWAY","THE WOODLANDS",TX,77380-1179,"(713) 452-1700",https://www.firstamericahomes.com/,,,info@firstamericahomes.com
TX,HARRIS,20084940,"Single Family Homes",12/21/2020,,240000,,"1706 TABOR",HOUSTON,TX,77009,,,"GOLDWRIGHT INVESTMENTS","11500 NORTHWEST",HOUSTON,TX,77092,"(281) 865-2925",Applicant,,,,,OWNER,,,,,OWNER,,,,,,,,,
TX,HARRIS,20045605,"Single Family Homes",12/15/2020,,201365,,"2307 EMANCIPATION AVE",HOUSTON,TX,77004,,,CONTRACTOR,,,,,,,,,,,METROLIVINGSTUDIO,,,,,METROLIVINGSTUDIO,"9610 LONG POINT RD SUITE 220",HOUSTON,TX,77068,"(832) 742-9572",,,,
TX,HARRIS,20045608,"Single Family Homes",12/15/2020,,201365,,"2309 EMANCIPATION AVE",HOUSTON,TX,77004,,,CONTRACTOR,,,,,,,,,,,METROLIVINGSTUDIO,,,,,METROLIVINGSTUDIO,"9610 LONG POINT RD SUITE 220",HOUSTON,TX,77068,"(832) 742-9572",,,,
TX,HARRIS,20010120,"Single Family Homes",12/16/2020,,186135,,"2302 KOLBE RUN",HOUSTON,TX,77080,,,CONTRACTOR,,,,,,,,,,,"INTOWN HOMES",,,,,"INTOWN HOMES","1520 OLIVER ST",HOUSTON,TX,77007,"(713) 961-3877",http://www.intown-homes.com/,,,
TX,HARRIS,20008199,"Single Family Homes",12/16/2020,,202789,,"2304 KOLBE RUN",HOUSTON,TX,77080,,,CONTRACTOR,,,,,,,,,,,"INTOWN HOMES",,,,,"INTOWN HOMES","1520 OLIVER ST",HOUSTON,TX,77007,"(713) 961-3877",http://www.intown-homes.com/,,,
TX,HARRIS,20087173,"Single Family Homes",12/17/2020,,191733,,"1421 W 23RD ST",HOUSTON,TX,77008,,,CONTRACTOR,,,,,,,,,,,"MANCO ASSOCIATES",,,,,"MANCO ASSOCIATES","903 W 19TH ST",HOUSTON,TX,77008-3301,"(832) 203-8334",,,,
TX,HARRIS,20106698,"Single Family Homes",12/21/2020,,156000,,"4916 JONINA",HOUSTON,TX,77048,,,CONTRACTOR,,,,,,,,,,,"KB HOME",,,,,"KB HOME","11314 RICHMOND AVE",HOUSTON,TX,77082-2616,"(281) 668-3800",,,,
TX,HARRIS,20069272,"Single Family Homes",12/16/2020,,190000,,"2017 LOU ELLEN LN",HOUSTON,TX,77018,,,"CHRISTOPHER KIM","8410 OAK LEAF POINT",HOUSTON,TX,77055,"(832) 335-5994",Applicant,,,,,OWNER,,,,,OWNER,,,,,,,,,
TX,HARRIS,20110663,"Single Family Homes",12/17/2020,,191000,,"210 FULTON STATION",HOUSTON,TX,77009,,,CONTRACTOR,,,,,,,,,,,"LENNAR HOMES",,,,,"LENNAR HOMES","550 GREENS PKWY",HOUSTON,TX,77067-4537,"(281) 875-1000",http://www.lennar.com/,,,
TX,HARRIS,20110662,"Single Family Homes",12/17/2020,,190000,,"214 FULTON STATION",HOUSTON,TX,77009,,,CONTRACTOR,,,,,,,,,,,"LENNAR HOMES",,,,,"LENNAR HOMES","550 GREENS PKWY",HOUSTON,TX,77067-4537,"(281) 875-1000",http://www.lennar.com/,,,
TX,HARRIS,20110866,"Single Family Homes",12/21/2020,,190000,,"4723 GLEN ISLE",HOUSTON,TX,77009,,,CONTRACTOR,,,,,,,,,,,"LENNAR HOMES",,,,,"LENNAR HOMES","550 GREENS PKWY",HOUSTON,TX,77067-4537,"(281) 875-1000",http://www.lennar.com/,,,
TX,HARRIS,20110867,"Single Family Homes",12/21/2020,,191000,,"4727 GLEN ISLE",HOUSTON,TX,77009,,,CONTRACTOR,,,,,,,,,,,"LENNAR HOMES",,,,,"LENNAR HOMES","550 GREENS PKWY",HOUSTON,TX,77067-4537,"(281) 875-1000",http://www.lennar.com/,,,
TX,HARRIS,20109507,"Single Family Homes",12/21/2020,,239000,,"11019 MIKULA",HOUSTON,TX,77043,,,CONTRACTOR,,,,,,,,,,,"LENNAR HOMES",,,,,"LENNAR HOMES","550 GREENS PKWY",HOUSTON,TX,77067-4537,"(281) 875-1000",http://www.lennar.com/,,,
TX,HARRIS,20108573,"Single Family Homes",12/16/2020,,337000,,"9314 PROVIDENCE BEND",HOUSTON,TX,77365,,,CONTRACTOR,,,,,,,,,,,"LENNAR HOMES",,,,,"LENNAR HOMES","550 GREENS PKWY",HOUSTON,TX,77067-4537,"(281) 875-1000",http://www.lennar.com/,,,
TX,HARRIS,20110848,"Single Family Homes",12/17/2020,,185000,,"9318 VICTORIA VALLEY",HOUSTON,TX,77365,,,CONTRACTOR,,,,,,,,,,,"LENNAR HOMES",,,,,"LENNAR HOMES","550 GREENS PKWY",HOUSTON,TX,77067-4537,"(281) 875-1000",http://www.lennar.com/,,,
TX,HARRIS,20085493,"Single Family Homes",12/16/2020,,194990,,"6642 DEL RIO",HOUSTON,TX,77021,,,CONTRACTOR,,,,,,,,,,,METROLIVINGSTUDIO,,,,,METROLIVINGSTUDIO,"9610 LONG POINT RD SUITE 220",HOUSTON,TX,77068,"(832) 742-9572",,,,
TX,HARRIS,20085495,"Single Family Homes",12/16/2020,,194990,,"6638 DEL RIO",HOUSTON,TX,77021,,,CONTRACTOR,,,,,,,,,,,METROLIVINGSTUDIO,,,,,METROLIVINGSTUDIO,"9610 LONG POINT RD SUITE 220",HOUSTON,TX,77068,"(832) 742-9572",,,,
TX,HARRIS,20085494,"Single Family Homes",12/16/2020,,194990,,"6640 DEL RIO",HOUSTON,TX,77021,,,CONTRACTOR,,,,,,,,,,,METROLIVINGSTUDIO,,,,,METROLIVINGSTUDIO,"9610 LONG POINT RD SUITE 220",HOUSTON,TX,77068,"(832) 742-9572",,,,
TX,HARRIS,20062481,"Single Family Homes",12/16/2020,,80000,,"5834 NORTHERN OAK",HOUSTON,TX,77016,,,CONTRACTOR,,,,,,,,,,,"DAVID MARTINEZ",,,,,"DAVID MARTINEZ","13130 DAYWOOD DR",HOUSTON,TX,77038-1739,"(713) 249-6911",,,,
TX,HARRIS,20110982,"Single Family Homes",12/21/2020,,187170,,"1718 LA MAGNOLIA",HOUSTON,TX,77023,,,CONTRACTOR,,,,,,,,,,,"MERITAGE HOMES",,,,,"MERITAGE HOMES","2901 W SAM HOUSTON PKWY N",HOUSTON,TX,77043-1630,"(713) 357-1184",,,,
TX,HARRIS,20110490,"Single Family Homes",12/21/2020,,187170,,"1915 LA MAGNOLIA",HOUSTON,TX,77023,,,CONTRACTOR,,,,,,,,,,,"MERITAGE HOMES",,,,,"MERITAGE HOMES","2901 W SAM HOUSTON PKWY N",HOUSTON,TX,77043-1630,"(713) 357-1184",,,,
TX,HARRIS,20110754,"Single Family Homes",12/16/2020,,187170,,"1923 LA MAGNOLIA",HOUSTON,TX,77023,,,CONTRACTOR,,,,,,,,,,,"MERITAGE HOMES",,,,,"MERITAGE HOMES","2901 W SAM HOUSTON PKWY N",HOUSTON,TX,77043-1630,"(713) 357-1184",,,,
TX,HARRIS,20107055,"Single Family Homes",12/15/2020,,176970,,"3110 LITTLE GEM",HOUSTON,TX,77080,,,CONTRACTOR,,,,,,,,,,,"MERITAGE HOMES",,,,,"MERITAGE HOMES","2901 W SAM HOUSTON PKWY N",HOUSTON,TX,77043-1630,"(713) 357-1184",,,,
TX,HARRIS,20108241,"Single Family Homes",12/16/2020,,187170,,"3112 LITTLE GEM",HOUSTON,TX,77080,,,CONTRACTOR,,,,,,,,,,,"MERITAGE HOMES",,,,,"MERITAGE HOMES","2901 W SAM HOUSTON PKWY N",HOUSTON,TX,77043-1630,"(713) 357-1184",,,,
TX,HARRIS,20108240,"Single Family Homes",12/17/2020,,176970,,"3114 LITTLE GEM",HOUSTON,TX,77080,,,CONTRACTOR,,,,,,,,,,,"MERITAGE HOMES",,,,,"MERITAGE HOMES","2901 W SAM HOUSTON PKWY N",HOUSTON,TX,77043-1630,"(713) 357-1184",,,,
TX,HARRIS,20108058,"Single Family Homes",12/18/2020,,340000,,"4604 EIGEL ST",HOUSTON,TX,77007,,,"RAJ SESHADRI","13 SOVEREIGN",HOUSTON,TX,77469,"(281) 435-3346",Applicant,,,,,OWNER,,,,,OWNER,,,,,,,,,
TX,HARRIS,20092838,"Single Family Homes",12/18/2020,,250000,,"4611 MAXIE",HOUSTON,TX,77007,,,CONTRACTOR,,,,,,,,,,,"RIVERWAY BUILDERS",,,,,"RIVERWAY BUILDERS","1027 YALE ST",HOUSTON,TX,77008-6989,"(713) 621-6111",,,,
TX,HARRIS,20092839,"Single Family Homes",12/18/2020,,250000,,"4613 MAXIE",HOUSTON,TX,77007,,,CONTRACTOR,,,,,,,,,,,"RIVERWAY BUILDERS",,,,,"RIVERWAY BUILDERS","1027 YALE ST",HOUSTON,TX,77008-6989,"(713) 621-6111",,,,
TX,HARRIS,20092840,"Single Family Homes",12/18/2020,,250000,,"4615 MAXIE",HOUSTON,TX,77007,,,CONTRACTOR,,,,,,,,,,,"RIVERWAY BUILDERS",,,,,"RIVERWAY BUILDERS","1027 YALE ST",HOUSTON,TX,77008-6989,"(713) 621-6111",,,,
TX,HARRIS,20106611,"Single Family Homes",12/21/2020,,582309,,"1623 LYNNVIEW",HOUSTON,TX,77055,,,CONTRACTOR,,,,,,,,,,,"ROBRYAN CONSTRUCTION",,,,,"ROBRYAN CONSTRUCTION","3500 E T C JESTER BLVD STE E",HOUSTON,TX,77018-6020,"(281) 477-0647",http://www.robryanconstruction.com/,,info@robryanconstruction.com,
TX,HARRIS,20098127,"Single Family Homes",12/18/2020,,188000,,"309 BLUEBERRY",HOUSTON,TX,77018,,,CONTRACTOR,,,,,,,,,,,"FAWAZ SALAAM",,,,,"FAWAZ SALAAM","5514 HICKORY VILLAGE",HOUSTON,TX,77345,"(361) 643-3633",,,,
TX,HARRIS,20098126,"Single Family Homes",12/18/2020,,212000,,"311 BLUEBERRY",HOUSTON,TX,77018,,,CONTRACTOR,,,,,,,,,,,"FAWAZ SALAAM",,,,,"FAWAZ SALAAM","5514 HICKORY VILLAGE",HOUSTON,TX,77345,"(361) 643-3633",,,,
TX,HARRIS,20098125,"Single Family Homes",12/18/2020,,212000,,"313 BLUEBERRY",HOUSTON,TX,77018,,,CONTRACTOR,,,,,,,,,,,"FAWAZ SALAAM",,,,,"FAWAZ SALAAM","5514 HICKORY VILLAGE",HOUSTON,TX,77345,"(361) 643-3633",,,,
TX,HARRIS,19121047,"Single Family Homes",12/15/2020,,142900,,"4350 MAGGIE",HOUSTON,TX,77051,,,CONTRACTOR,,,,,,,,,,,"PRIME DESIGN & CONST",,,,,"PRIME DESIGN & CONST","5868 WESTHEIMER RD STE 403",HOUSTON,TX,77057-5641,"(281) 827-5544",,,,
TX,HARRIS,20108639,"Single Family Homes",12/18/2020,,306000,,"13224 NEWCASTLE CREEK",HOUSTON,TX,77059,,,CONTRACTOR,,,,,,,,,,,"TRENDMAKER HOMES",,,,,"TRENDMAKER HOMES","16340 PARK TEN PL STE 250",HOUSTON,TX,77084-5144,"(281) 675-3200",,"(281) 675-3251","MARTIN EVANS",
TX,HARRIS,20100916,"Single Family Homes",12/15/2020,,514000,,"14007 MULBERRY RIVER",HOUSTON,TX,77059,,,CONTRACTOR,,,,,,,,,,,"TRENDMAKER HOMES",,,,,"TRENDMAKER HOMES","16340 PARK TEN PL STE 250",HOUSTON,TX,77084-5144,"(281) 675-3200",,"(281) 675-3251","MARTIN EVANS",
TX,HARRIS,19147631,"Single Family Homes",12/18/2020,,234000,,"1222 W 21ST",HOUSTON,TX,77008,,,CONTRACTOR,,,,,,,,,,,"GRAYWOLF PROPERTY MANAGEMENT",,,,,"GRAYWOLF PROPERTY MANAGEMENT","11929 W AIRPORT BLVD",STAFFORD,TX,77477-2451,"(832) 576-8615",,,,
TX,HARRIS,19147632,"Single Family Homes",12/18/2020,,234000,,"1224 W 21ST",HOUSTON,TX,77008,,,CONTRACTOR,,,,,,,,,,,"GRAYWOLF PROPERTY MANAGEMENT",,,,,"GRAYWOLF PROPERTY MANAGEMENT","11929 W AIRPORT BLVD",STAFFORD,TX,77477-2451,"(832) 576-8615",,,,
TX,HARRIS,20109781,"Single Family Homes",12/16/2020,,202990,,"12623 BAKER BEND",HOUSTON,TX,77034,,,CONTRACTOR,,,,,,,,,,,"MARIA VARGAS",,,,,"MARIA VARGAS","1311 BROADFIELD BLVD",HOUSTON,TX,77084-5186,"(281) 529-9127",,,,
TX,HARRIS,20110913,"Single Family Homes",12/21/2020,,220490,,"12631 BAKER BEND",HOUSTON,TX,77034,,,CONTRACTOR,,,,,,,,,,,"MARIA VARGAS",,,,,"MARIA VARGAS","1311 BROADFIELD BLVD",HOUSTON,TX,77084-5186,"(281) 529-9127",,,,
TX,HARRIS,20050598,"Single Family Homes",12/16/2020,,336120,,"3425 AVONDALE VIEW",HOUSTON,TX,77054,,,CONTRACTOR,,,,,,,,,,,"MARIA VARGAS",,,,,"MARIA VARGAS","1311 BROADFIELD BLVD",HOUSTON,TX,77084-5186,"(281) 529-9127",,,,
TX,HARRIS,19036615,"Single Family Homes",12/17/2020,,170000,,"4502 TREVOR PARK",HOUSTON,TX,77018,,,CONTRACTOR,,,,,,,,,,,"CITY CHOICE GROUP",,,,,"CITY CHOICE GROUP","1314 ROY ST",HOUSTON,TX,77007-3343,"(713) 681-5858",http://citychoicehomes.com,,,
TX,HARRIS,19036620,"Single Family Homes",12/17/2020,,170000,,"4504 TREVOR PARK",HOUSTON,TX,77018,,,CONTRACTOR,,,,,,,,,,,"CITY CHOICE GROUP",,,,,"CITY CHOICE GROUP","1314 ROY ST",HOUSTON,TX,77007-3343,"(713) 681-5858",http://citychoicehomes.com,,,
TX,HARRIS,20103146,"Single Family Homes",12/16/2020,,90000,,"9030 MADERA",HOUSTON,TX,77078,,,"VATRINA CURL","9030 MADERA",HOUSTON,TX,77078,,Owner,,,,,STONEWATER,,,,,STONEWATER,"2005 POST OFFICE STREET ",GALVESTON,TX,77550,"(409) 727-6437",,,,
TX,HARRIS,20090408,"Single Family Homes",12/18/2020,,592000,,"102 CINNAMON OAK",HOUSTON,TX,77079,,,"DAVID AND CINDY MEEH","102 CINNAMON OAK",HOUSTON,TX,77079,,Owner,,,,,"DAVID WEEKLEY HOMES",,,,,"DAVID WEEKLEY HOMES","14444 NORTHWEST",HOUSTON,TX,77040,"(713) 570-5021",http://www.davidweekleyhomes.com/,,,
TX,HARRIS,20031975,"Single Family Homes",12/15/2020,,140000,,"3710 CHAPMAN",HOUSTON,TX,77009,,,"ROSA DE LA FUENTE","3710 CHAPMAN",HOUSTON,TX,77009,,Owner,,,,,"DSW HOMES",,,,,"DSW HOMES","502 E 20TH ST",HOUSTON,TX,77008-2665,"(832) 552-9687",http://www.dswhomes.com/,,,
TX,HARRIS,20082762,"Single Family Homes",12/17/2020,,500000,,"723 CINNAMON OAK",HOUSTON,TX,77079,,,"MARK EDELMAN","723 CINNAMON OAK",HOUSTON,TX,77079,,Owner,,,,,"KYLE CRIBBS",,,,,"KYLE CRIBBS","1752 SAM HOUSTON",HOUSTON,TX,77043,"(713) 817-4272",,,,
TX,HARRIS,20082022,"Single Family Homes",12/16/2020,,123321,,"7429 VIRGIL",HOUSTON,TX,77088,,,"MARISELA ESCALERA","7429 VIRGIL",HOUSTON,TX,77088,,Owner,,,,,OWNER,,,,,OWNER,,,,,,,,,
TX,HARRIS,20093866,"Single Family Homes",12/17/2020,,90000,,"4619 BUCK",HOUSTON,TX,77020,,,"ANITA JACKSON","4619 BUCK",HOUSTON,TX,77020,,Owner,,,,,"DSW HOMES",,,,,"DSW HOMES","502 E 20TH ST",HOUSTON,TX,77008-2665,"(832) 552-9687",http://www.dswhomes.com/,,,
TX,HARRIS,19086849,"Single Family Homes",12/15/2020,,110000,,"11005 MAPLE LEAF",HOUSTON,TX,77016,,,"BERNADETTE JOHNSON","7510 MCLEAN",HOUSTON,TX,77051,,Owner,,,,,OWNER,,,,,OWNER,,,,,,,,,
TX,HARRIS,20074660,"Single Family Homes",12/21/2020,,115000,,"3302 DULCREST",HOUSTON,TX,77051,,,"DETRICK JOHNSON","3302 DULCREST",HOUSTON,TX,77051,,Owner,,,,,"BRIZO CONSTRUCTION",,,,,"BRIZO CONSTRUCTION","1908 AVENUE L","SANTA FE",TX,77510-8917,"(409) 316-4762",,,,
TX,HARRIS,20049824,"Single Family Homes",12/18/2020,,178484,,"7141 CAROTHERS",HOUSTON,TX,77028,,,"JOHNSON EVVIE","7141 CAROTHERS",HOUSTON,TX,77028,,Owner,,,,,"BURGHLI HOMES",,,,,"BURGHLI HOMES","4615 NORTH FREEWAY",HOUSTON,TX,77022,"(713) 691-3948",http://burghlihomes.com/,,,
TX,HARRIS,20064306,"Single Family Homes",12/15/2020,,200770,,"2607 NAGLE",HOUSTON,TX,77004,,,"ALESANDRO MASSA","2607 NAGLE",HOUSTON,TX,77004,,Owner,,,,,"WESTPOINT CONSTRUCTION",,,,,"WESTPOINT CONSTRUCTION","2450 LOUISIANA ST",HOUSTON,TX,77006,"(832) 439-4858",,,,
TX,HARRIS,2011200164,"Single Family Homes",11/16/2020,,103050,2290,"4334 ORSINI LN",HOUSTON,TX,77356,"VENTANA LAKES",,CONTRACTOR,,,,,,,,,,,"DR HORTON",,,,,"DR HORTON","14100 SOUTHWEST",HOUSTON,TX,77478,"(281) 201-5559",,,,
TX,HARRIS,2011200165,"Single Family Homes",11/16/2020,,112515,2501,"4314 VERONA HILLS LN",HOUSTON,TX,77356,"VENTANA LAKES",,CONTRACTOR,,,,,,,,,,,"DR HORTON",,,,,"DR HORTON","14100 SOUTHWEST",HOUSTON,TX,77478,"(281) 201-5559",,,,
TX,HARRIS,2011200168,"Single Family Homes",11/16/2020,,107550,2390,"4310 VERONA HILLS LN",HOUSTON,TX,77356,"VENTANA LAKES",,CONTRACTOR,,,,,,,,,,,"DR HORTON",,,,,"DR HORTON","14100 SOUTHWEST",HOUSTON,TX,77478,"(281) 201-5559",,,,
TX,HARRIS,2011200171,"Single Family Homes",11/16/2020,,169650,2331,"4306 VERONA HILLS LN",HOUSTON,TX,77356,"VENTANA LAKES",,CONTRACTOR,,,,,,,,,,,"DR HORTON",,,,,"DR HORTON","14100 SOUTHWEST",HOUSTON,TX,77478,"(281) 201-5559",,,,
TX,HARRIS,2011250043,"Single Family Homes",11/16/2020,,132975,2132,"23630 BLODGETT PEAK TRL",HOUSTON,TX,77356,BRECKENRIDGE,,CONTRACTOR,,,,,,,,,,,"DR HORTON",,,,,"DR HORTON","14100 SOUTHWEST",HOUSTON,TX,77478,"(281) 201-5559",,,,
TX,HARRIS,2011250045,"Single Family Homes",11/16/2020,,100800,2240,"23634 BLODGETT PEAK TRL",HOUSTON,TX,77356,BRECKENRIDGE,,CONTRACTOR,,,,,,,,,,,"DR HORTON",,,,,"DR HORTON","14100 SOUTHWEST",HOUSTON,TX,77478,"(281) 201-5559",,,,
TX,HARRIS,2011250046,"Single Family Homes",11/16/2020,,141660,2348,"23642 BLODGETT PEAK TRL",HOUSTON,TX,77356,BRECKENRIDGE,,CONTRACTOR,,,,,,,,,,,"DR HORTON",,,,,"DR HORTON","14100 SOUTHWEST",HOUSTON,TX,77478,"(281) 201-5559",,,,
TX,HARRIS,2011250047,"Single Family Homes",11/16/2020,,132975,2132,"23702 BLODGETT PEAK TRL",HOUSTON,TX,77356,BRECKENRIDGE,,CONTRACTOR,,,,,,,,,,,"DR HORTON",,,,,"DR HORTON","14100 SOUTHWEST",HOUSTON,TX,77478,"(281) 201-5559",,,,
TX,HARRIS,2011250048,"Single Family Homes",11/16/2020,,132975,2132,"23718 BLODGETT PEAK TRL",HOUSTON,TX,77356,BRECKENRIDGE,,CONTRACTOR,,,,,,,,,,,"DR HORTON",,,,,"DR HORTON","14100 SOUTHWEST",HOUSTON,TX,77478,"(281) 201-5559",,,,
TX,HARRIS,2011190122,"Single Family Homes",11/16/2020,,204320,2470,"17703 RED SAGE CT",HOUSTON,TX,77356,WINDROW,,CONTRACTOR,,,,,,,,,,,"PULTE HOMES",,,,,"PULTE HOMES","16670 PARK ROW",HOUSTON,TX,77084-6866,"(281) 749-8000",,,,
TX,HARRIS,2010120113,"Single Family Homes",11/16/2020,,134569,1855,"16202 NORTHERN CARDINAL LN",HOUSTON,TX,77356,"BRIDGELAND PARKLAND VILLAGE",,CONTRACTOR,,,,,,,,,,,"CHESMAR HOMES",,,,,"CHESMAR HOMES","450 GEARS RD STE 400",HOUSTON,TX,77067-4513,"(281) 598-1111",http://chesmar.com,"(281) 598-1115",,customerservice.houston@chesmar.com
TX,HARRIS,2010120123,"Single Family Homes",11/16/2020,,135543,1855,"16126 NORTHERN CARDINAL LN",HOUSTON,TX,77356,"BRIDGELAND PARKLAND VILLAGE",,CONTRACTOR,,,,,,,,,,,"CHESMAR HOMES",,,,,"CHESMAR HOMES","450 GEARS RD STE 400",HOUSTON,TX,77067-4513,"(281) 598-1111",http://chesmar.com,"(281) 598-1115",,customerservice.houston@chesmar.com
TX,HARRIS,2010260115,"Single Family Homes",11/16/2020,,130748,1702,"12227 TEXAS TRUMPET TRL",HOUSTON,TX,77356,GROVES,,CONTRACTOR,,,,,,,,,,,"CHESMAR HOMES",,,,,"CHESMAR HOMES","450 GEARS RD STE 400",HOUSTON,TX,77067-4513,"(281) 598-1111",http://chesmar.com,"(281) 598-1115",,customerservice.houston@chesmar.com
TX,HARRIS,2010260121,"Single Family Homes",11/16/2020,,161551,2425,"16426 LITTLE PINE CREEK DR",HOUSTON,TX,77356,GROVES,,CONTRACTOR,,,,,,,,,,,"CHESMAR HOMES",,,,,"CHESMAR HOMES","450 GEARS RD STE 400",HOUSTON,TX,77067-4513,"(281) 598-1111",http://chesmar.com,"(281) 598-1115",,customerservice.houston@chesmar.com
TX,HARRIS,2010300048,"Single Family Homes",11/16/2020,,162448,2630,"31203 BIRCH MILLS DR",HOUSTON,TX,77356,DELLROSE,,CONTRACTOR,,,,,,,,,,,"CHESMAR HOMES",,,,,"CHESMAR HOMES","450 GEARS RD STE 400",HOUSTON,TX,77067-4513,"(281) 598-1111",http://chesmar.com,"(281) 598-1115",,customerservice.houston@chesmar.com
TX,HARRIS,2011050074,"Single Family Homes",11/16/2020,,156376,2370,"31107 BIRCH MILLS DR",HOUSTON,TX,77356,DELLROSE,,CONTRACTOR,,,,,,,,,,,"CHESMAR HOMES",,,,,"CHESMAR HOMES","450 GEARS RD STE 400",HOUSTON,TX,77067-4513,"(281) 598-1111",http://chesmar.com,"(281) 598-1115",,customerservice.houston@chesmar.com
TX,HARRIS,2011180053,"Single Family Homes",11/16/2020,,170464,2622,"21539 HENRYS BLUSH DR",HOUSTON,TX,77356,"ROSEHILL RESERVE",,CONTRACTOR,,,,,,,,,,,"CHESMAR HOMES",,,,,"CHESMAR HOMES","450 GEARS RD STE 400",HOUSTON,TX,77067-4513,"(281) 598-1111",http://chesmar.com,"(281) 598-1115",,customerservice.houston@chesmar.com
TX,HARRIS,2011180108,"Single Family Homes",11/16/2020,,171706,2506,"19014 CRESTED MOSS AVE",HOUSTON,TX,77356,"ROSEHILL RESERVE",,CONTRACTOR,,,,,,,,,,,"CHESMAR HOMES",,,,,"CHESMAR HOMES","450 GEARS RD STE 400",HOUSTON,TX,77067-4513,"(281) 598-1111",http://chesmar.com,"(281) 598-1115",,customerservice.houston@chesmar.com
TX,HARRIS,2011240177,"Single Family Homes",11/16/2020,,128000,1962,"12547 NEWCASTLE PARK LN",HOUSTON,TX,77356,"LAKEWOOD PINES",,CONTRACTOR,,,,,,,,,,,"KB HOME",,,,,"KB HOME","11314 RICHMOND AVE",HOUSTON,TX,77082-2616,"(281) 668-3800",,,,
TX,HARRIS,2011210005,"Single Family Homes",11/16/2020,,188000,2894,"4819 EMERSON MANOR DR",HOUSTON,TX,77356,"KATY MANOR",,CONTRACTOR,,,,,,,,,,,"KB HOME",,,,,"KB HOME","11314 RICHMOND AVE",HOUSTON,TX,77082-2616,"(281) 668-3800",,,,
TX,HARRIS,2011210006,"Single Family Homes",11/16/2020,,188000,2894,"4719 EMERSON MANOR DR",HOUSTON,TX,77356,"KATY MANOR",,CONTRACTOR,,,,,,,,,,,"KB HOME",,,,,"KB HOME","11314 RICHMOND AVE",HOUSTON,TX,77082-2616,"(281) 668-3800",,,,
TX,HARRIS,2011210007,"Single Family Homes",11/16/2020,,199000,3062,"12555 CAMELLIA GLADE LN",HOUSTON,TX,77356,"LAKEWOOD PINES",,CONTRACTOR,,,,,,,,,,,"KB HOME",,,,,"KB HOME","11314 RICHMOND AVE",HOUSTON,TX,77082-2616,"(281) 668-3800",,,,
TX,HARRIS,2011190090,"Single Family Homes",11/16/2020,,150000,2305,"4154 SHADY PALMETTO DR",HOUSTON,TX,77356,"CYPRESS CREEK LANDING",,CONTRACTOR,,,,,,,,,,,"KB HOME",,,,,"KB HOME","11314 RICHMOND AVE",HOUSTON,TX,77082-2616,"(281) 668-3800",,,,
TX,HARRIS,2011190085,"Single Family Homes",11/16/2020,,199000,3062,"12527 NEWCASTLE PARK LN",HOUSTON,TX,77356,"LAKEWOOD PINES",,CONTRACTOR,,,,,,,,,,,"KB HOME",,,,,"KB HOME","11314 RICHMOND AVE",HOUSTON,TX,77082-2616,"(281) 668-3800",,,,
TX,HARRIS,2011170132,"Single Family Homes",11/16/2020,,113000,1737,"13019 CHESTNUT STREAM TRL",HOUSTON,TX,77356,"MILLS CREEK CROSSING",,CONTRACTOR,,,,,,,,,,,"KB HOME",,,,,"KB HOME","11314 RICHMOND AVE",HOUSTON,TX,77082-2616,"(281) 668-3800",,,,
TX,HARRIS,2011170039,"Single Family Homes",11/16/2020,,165000,2540,"13030 MILLS GROVE DR",HOUSTON,TX,77356,"MILLS CREEK CROSSING",,CONTRACTOR,,,,,,,,,,,"KB HOME",,,,,"KB HOME","11314 RICHMOND AVE",HOUSTON,TX,77082-2616,"(281) 668-3800",,,,
TX,HARRIS,2011110125,"Single Family Homes",11/16/2020,,140873,1907,"19906 HOUSE FINCH CT",HOUSTON,TX,77356,"BRIDGELAND PARKLAND VILLAGE",,CONTRACTOR,,,,,,,,,,,"CHESMAR HOMES",,,,,"CHESMAR HOMES","450 GEARS RD STE 400",HOUSTON,TX,77067-4513,"(281) 598-1111",http://chesmar.com,"(281) 598-1115",,customerservice.houston@chesmar.com
TX,HARRIS,2011110128,"Single Family Homes",11/16/2020,,139478,1907,"19902 HOUSE FINCH CT",HOUSTON,TX,77356,"BRIDGELAND PARKLAND VILLAGE",,CONTRACTOR,,,,,,,,,,,"CHESMAR HOMES",,,,,"CHESMAR HOMES","450 GEARS RD STE 400",HOUSTON,TX,77067-4513,"(281) 598-1111",http://chesmar.com,"(281) 598-1115",,customerservice.houston@chesmar.com
TX,HARRIS,2011180046,"Single Family Homes",11/16/2020,,183446,2654,"16842 RAMSAY CASCADES DR",HOUSTON,TX,77356,GROVES,,CONTRACTOR,,,,,,,,,,,"CHESMAR HOMES",,,,,"CHESMAR HOMES","450 GEARS RD STE 400",HOUSTON,TX,77067-4513,"(281) 598-1111",http://chesmar.com,"(281) 598-1115",,customerservice.houston@chesmar.com
TX,HARRIS,2011180048,"Single Family Homes",11/16/2020,,183446,2654,"12315 WOODNOTE LN",HOUSTON,TX,77356,GROVES,,CONTRACTOR,,,,,,,,,,,"CHESMAR HOMES",,,,,"CHESMAR HOMES","450 GEARS RD STE 400",HOUSTON,TX,77067-4513,"(281) 598-1111",http://chesmar.com,"(281) 598-1115",,customerservice.houston@chesmar.com
TX,HARRIS,2011180050,"Single Family Homes",11/16/2020,,124044,1671,"16122 NORTHERN CARDINAL LN",HOUSTON,TX,77356,"BRIDGELAND PARKLAND VILLAGE",,CONTRACTOR,,,,,,,,,,,"CHESMAR HOMES",,,,,"CHESMAR HOMES","450 GEARS RD STE 400",HOUSTON,TX,77067-4513,"(281) 598-1111",http://chesmar.com,"(281) 598-1115",,customerservice.houston@chesmar.com
TX,HARRIS,2011180052,"Single Family Homes",11/16/2020,,122904,1671,"16118 NORTHERN CARDINAL LN",HOUSTON,TX,77356,"BRIDGELAND PARKLAND VILLAGE",,CONTRACTOR,,,,,,,,,,,"CHESMAR HOMES",,,,,"CHESMAR HOMES","450 GEARS RD STE 400",HOUSTON,TX,77067-4513,"(281) 598-1111",http://chesmar.com,"(281) 598-1115",,customerservice.houston@chesmar.com
TX,HARRIS,2011180109,"Single Family Homes",11/16/2020,,190448,2596,"19010 CRESTED MOSS AVE",HOUSTON,TX,77356,"ROSEHILL RESERVE",,CONTRACTOR,,,,,,,,,,,"CHESMAR HOMES",,,,,"CHESMAR HOMES","450 GEARS RD STE 400",HOUSTON,TX,77067-4513,"(281) 598-1111",http://chesmar.com,"(281) 598-1115",,customerservice.houston@chesmar.com
TX,HARRIS,2011200017,"Single Family Homes",11/16/2020,,163469,2140,"16867 RAMSAY CASCADES DR",HOUSTON,TX,77356,GROVES,,CONTRACTOR,,,,,,,,,,,"CHESMAR HOMES",,,,,"CHESMAR HOMES","450 GEARS RD STE 400",HOUSTON,TX,77067-4513,"(281) 598-1111",http://chesmar.com,"(281) 598-1115",,customerservice.houston@chesmar.com
TX,HARRIS,2011200019,"Single Family Homes",11/16/2020,,159458,2425,"16306 SUNDEW BEND DR",HOUSTON,TX,77356,GROVES,,CONTRACTOR,,,,,,,,,,,"CHESMAR HOMES",,,,,"CHESMAR HOMES","450 GEARS RD STE 400",HOUSTON,TX,77067-4513,"(281) 598-1111",http://chesmar.com,"(281) 598-1115",,customerservice.houston@chesmar.com
TX,HARRIS,2011190125,"Single Family Homes",11/16/2020,,194450,1896,"17707 RED SAGE CT",HOUSTON,TX,77356,WINDROW,,CONTRACTOR,,,,,,,,,,,"PULTE HOMES",,,,,"PULTE HOMES","16670 PARK ROW",HOUSTON,TX,77084-6866,"(281) 749-8000",,,,
TX,HARRIS,2011200021,"Single Family Homes",11/16/2020,,168763,2510,"21502 HENRYS BLUSH DR",HOUSTON,TX,77356,"ROSEHILL RESERVE",,CONTRACTOR,,,,,,,,,,,"CHESMAR HOMES",,,,,"CHESMAR HOMES","450 GEARS RD STE 400",HOUSTON,TX,77067-4513,"(281) 598-1111",http://chesmar.com,"(281) 598-1115",,customerservice.houston@chesmar.com
TX,HARRIS,2011200043,"Single Family Homes",11/16/2020,,168840,2510,"21514 HENRYS BLUSH DR",HOUSTON,TX,77356,"ROSEHILL RESERVE",,CONTRACTOR,,,,,,,,,,,"CHESMAR HOMES",,,,,"CHESMAR HOMES","450 GEARS RD STE 400",HOUSTON,TX,77067-4513,"(281) 598-1111",http://chesmar.com,"(281) 598-1115",,customerservice.houston@chesmar.com
TX,HARRIS,2011240032,"Single Family Homes",11/16/2020,,174601,2510,"21203 BELLE GLOS CT",HOUSTON,TX,77356,"ROSEHILL RESERVE",,CONTRACTOR,,,,,,,,,,,"CHESMAR HOMES",,,,,"CHESMAR HOMES","450 GEARS RD STE 400",HOUSTON,TX,77067-4513,"(281) 598-1111",http://chesmar.com,"(281) 598-1115",,customerservice.houston@chesmar.com
TX,HARRIS,2011190127,"Single Family Homes",11/16/2020,,204320,2082,"17711 RED SAGE CT",HOUSTON,TX,77356,WINDROW,,CONTRACTOR,,,,,,,,,,,"PULTE HOMES",,,,,"PULTE HOMES","16670 PARK ROW",HOUSTON,TX,77084-6866,"(281) 749-8000",,,,
TX,HARRIS,2011190129,"Single Family Homes",11/16/2020,,212160,2825,"17715 RED SAGE CT",HOUSTON,TX,77356,WINDROW,,CONTRACTOR,,,,,,,,,,,"PULTE HOMES",,,,,"PULTE HOMES","16670 PARK ROW",HOUSTON,TX,77084-6866,"(281) 749-8000",,,,
TX,HARRIS,2011190131,"Single Family Homes",11/16/2020,,198480,2470,"17719 RED SAGE CT",HOUSTON,TX,77356,WINDROW,,CONTRACTOR,,,,,,,,,,,"PULTE HOMES",,,,,"PULTE HOMES","16670 PARK ROW",HOUSTON,TX,77084-6866,"(281) 749-8000",,,,
TX,HARRIS,2011110112,"Single Family Homes",11/16/2020,,90000,2000,"20119 MORGAN SHORES DR",HOUSTON,TX,77356,MIRAMESA,,CONTRACTOR,,,,,,,,,,,"MERITAGE HOMES",,,,,"MERITAGE HOMES","2901 W SAM HOUSTON PKWY N",HOUSTON,TX,77043-1630,"(713) 357-1184",,,,
TX,HARRIS,2011110113,"Single Family Homes",11/16/2020,,90000,2000,"20123 MORGAN SHORES DR",HOUSTON,TX,77356,MIRAMESA,,CONTRACTOR,,,,,,,,,,,"MERITAGE HOMES",,,,,"MERITAGE HOMES","2901 W SAM HOUSTON PKWY N",HOUSTON,TX,77043-1630,"(713) 357-1184",,,,
TX,HARRIS,2011120012,"Single Family Homes",11/16/2020,,90000,2000,"20203 MORGAN SHORES DR",HOUSTON,TX,77356,MIRAMESA,,CONTRACTOR,,,,,,,,,,,"MERITAGE HOMES",,,,,"MERITAGE HOMES","2901 W SAM HOUSTON PKWY N",HOUSTON,TX,77043-1630,"(713) 357-1184",,,,
TX,HARRIS,2011120013,"Single Family Homes",11/16/2020,,90000,2000,"20207 MORGAN SHORES DR",HOUSTON,TX,77356,MIRAMESA,,CONTRACTOR,,,,,,,,,,,"MERITAGE HOMES",,,,,"MERITAGE HOMES","2901 W SAM HOUSTON PKWY N",HOUSTON,TX,77043-1630,"(713) 357-1184",,,,
TX,HARRIS,2011200117,"Single Family Homes",11/16/2020,,61680,2884,"19 OVERLAND HEATH DR",HOUSTON,TX,77356,"THE WOODLANDS CREEKSIDE",,CONTRACTOR,,,,,,,,,,,"MHI MCGUYER HOMEBUILDERS",,,,,"MHI MCGUYER HOMEBUILDERS","7676 WOODWAY DR",HOUSTON,TX,77063-1526,"(713) 260-4107",,,,
TX,HARRIS,2011250107,"Single Family Homes",11/16/2020,,303990,3962,"6331 CANTIGNY LAKE DR",HOUSTON,TX,77356,"KATY LAKES",,CONTRACTOR,,,,,,,,,,,"HISTORY MAKER HOMES",,,,,"HISTORY MAKER HOMES","9001 AIRPORT FWY SUITE 400","NORTH RICHLAND HILLS",TX,76180-7769,"(817) 429-8008",http://www.historymaker.com/,"(817) 507-1102","JILL BARFIELD",
TX,HARRIS,2011280007,"Single Family Homes",11/16/2020,,173322,3796,"15823 TAYDEN POINT DR",HOUSTON,TX,77356,BALMORAL,,CONTRACTOR,,,,,,,,,,,"TAYLOR MORRISON OF TEXAS",,,,,"TAYLOR MORRISON OF TEXAS","5353 W SAM HOUSTON PKWY N STE 190",HOUSTON,TX,77041-5186,"(281) 598-3000",,,,
TX,HARRIS,2011300069,"Single Family Homes",11/16/2020,,166265,3023,"24307 OASIS BEND DR",HOUSTON,TX,77356,"KATY LAKES",,CONTRACTOR,,,,,,,,,,,"CASTLEROCK COMMUNITIES",,,,,"CASTLEROCK COMMUNITIES","7670 WOODWAY DR STE 300",HOUSTON,TX,77063-1520,"(713) 600-7000",http://c-rock.com,"(713) 600-0000",,
TX,HARRIS,2011170051,"Single Family Homes",11/16/2020,,351000,2518,"15602 UPPER LOCHTON DR",HOUSTON,TX,77356,BALMORAL,,CONTRACTOR,,,,,,,,,,,"HIGHLAND HOMES",,,,,"HIGHLAND HOMES","10930 W SAM HOUSTON PKWY N STE 100",HOUSTON,TX,77064-6331,"(281) 517-9800",,,,
TX,HARRIS,2011250094,"Single Family Homes",11/16/2020,,690695,4270,"19014 BALMORHEA PARK DR",HOUSTON,TX,77356,"BRIDGELAND PARKLAND VILLAGE",,CONTRACTOR,,,,,,,,,,,"HIGHLAND HOMES",,,,,"HIGHLAND HOMES","10930 W SAM HOUSTON PKWY N STE 100",HOUSTON,TX,77064-6331,"(281) 517-9800",,,,
TX,HARRIS,2011300081,"Single Family Homes",11/16/2020,,225300,4396,"25023 GINGERBRUSH LN",HOUSTON,TX,77356,"LAKES AT CREEKSIDE",,CONTRACTOR,,,,,,,,,,,"TOLL BROTHERS",,,,,"TOLL BROTHERS","10110 W SAM HOUSTON PKWY N STE 350",HOUSTON,TX,77064-7508,"(281) 664-7255",,,,
TX,HARRIS,2011190078,"Single Family Homes",11/16/2020,,126280,1698,"19423 PACERS GAIT LN",HOUSTON,TX,77356,AMIRA,,CONTRACTOR,,,,,,,,,,,"BEAZER HOMES ",,,,,"BEAZER HOMES ","10235 W LITTLE YORK",HOUSTON,TX,77040,"(713) 849-2252",http://www.beazer.com/,,,
TX,HARRIS,2011190097,"Single Family Homes",11/16/2020,,110920,2773,"15130 PILANT LAKE CT",HOUSTON,TX,77356,"BRIDGELAND PARKLAND VILLAGE",,CONTRACTOR,,,,,,,,,,,"BEAZER HOMES ",,,,,"BEAZER HOMES ","10235 W LITTLE YORK",HOUSTON,TX,77040,"(713) 849-2252",http://www.beazer.com/,,,
TX,HARRIS,2011300091,"Single Family Homes",11/16/2020,,82440,2061,"21515 AUTUMN SUMMIT ST",HOUSTON,TX,77356,LANTANA,,CONTRACTOR,,,,,,,,,,,"BEAZER HOMES ",,,,,"BEAZER HOMES ","10235 W LITTLE YORK",HOUSTON,TX,77040,"(713) 849-2252",http://www.beazer.com/,,,
TX,HARRIS,2011240026,"Single Family Homes",11/16/2020,,150315,2733,"407 ALASKA CEDAR DR",HOUSTON,TX,77356,"PECAN ESTATES",,CONTRACTOR,,,,,,,,,,,"CASTLEROCK COMMUNITIES",,,,,"CASTLEROCK COMMUNITIES","7670 WOODWAY DR STE 300",HOUSTON,TX,77063-1520,"(713) 600-7000",http://c-rock.com,"(713) 600-0000",,
TX,HARRIS,2011130085,"Single Family Homes",11/16/2020,,285077,2280,"17018 GLENLEDI DR",HOUSTON,TX,77356,,,"SONIA BANKS","17018 GLENLEDI DR",HOUSTON,TX,77356,,Owner,,,,,OWNER,,,,,OWNER,,,,,,,,,
TX,HARRIS,2011170149,"Single Family Homes",11/16/2020,,331701,3100,"20906 BROADSWORD DR",HOUSTON,TX,77356,"ALBURY TRAILS ESTATES",,CONTRACTOR,,,,,,,,,,,"HARRISBURG HOMES",,,,,"HARRISBURG HOMES","21615 FIREMIST WAY",CYPRESS,TX,77433-3507,"(713) 249-8196",http://www.harrisburgtx.com/,,SHAWN,info@harrisburgtx.com
TX,HARRIS,2011120064,"Single Family Homes",11/16/2020,,295763,2629,"19410 FILLY CHASE CT",HOUSTON,TX,77356,AMIRA,,CONTRACTOR,,,,,,,,,,,"PERRY HOMES",,,,,"PERRY HOMES","9000 GULF FWY",HOUSTON,TX,77017-7018,"(713) 417-1396",,,,
TX,HARRIS,2010150055,"Single Family Homes",11/16/2020,,346048,5305,"16607 PRESTON FALLS DR",HOUSTON,TX,77356,"FALLS AT DRY CREEK",,CONTRACTOR,,,,,,,,,,,"TRENDMAKER HOMES",,,,,"TRENDMAKER HOMES","16340 PARK TEN PL STE 250",HOUSTON,TX,77084-5144,"(281) 675-3200",,"(281) 675-3251","MARTIN EVANS",
TX,HARRIS,2008270140,"Single Family Homes",11/16/2020,,342355,5267,"19507 ROCK QUILLWORT RD",HOUSTON,TX,77356,"BRIDGELAND PARKLAND VILLAGE",,CONTRACTOR,,,,,,,,,,,"TRENDMAKER HOMES",,,,,"TRENDMAKER HOMES","16340 PARK TEN PL STE 250",HOUSTON,TX,77084-5144,"(281) 675-3200",,"(281) 675-3251","MARTIN EVANS",
TX,HARRIS,2011090126,"Single Family Homes",11/16/2020,,64000,2177,"20710 BEESTON GLADE LN",HOUSTON,TX,77356,"WESTFIELD RANCH",,CONTRACTOR,,,,,,,,,,,"LONG LAKE HOMES",,,,,"LONG LAKE HOMES","15915 KATY FWY STE 405",HOUSTON,TX,77094-1710,"(281) 646-1727",http://www.longlakeltd.com/,,"DAVID BIGLER",
TX,HARRIS,2011190064,"Single Family Homes",11/16/2020,,80000,3186,"6322 EARLY WINTER DR",HOUSTON,TX,77356,"CYPRESSWOOD POINT",,CONTRACTOR,,,,,,,,,,,"LONG LAKE HOMES",,,,,"LONG LAKE HOMES","15915 KATY FWY STE 405",HOUSTON,TX,77094-1710,"(281) 646-1727",http://www.longlakeltd.com/,,"DAVID BIGLER",
TX,HARRIS,2011190065,"Single Family Homes",11/16/2020,,80000,3186,"3011 BUGATTI DR",HOUSTON,TX,77356,"MORTON CREEK RANCH",,CONTRACTOR,,,,,,,,,,,"LONG LAKE HOMES",,,,,"LONG LAKE HOMES","15915 KATY FWY STE 405",HOUSTON,TX,77094-1710,"(281) 646-1727",http://www.longlakeltd.com/,,"DAVID BIGLER",
TX,HARRIS,2011190066,"Single Family Homes",11/16/2020,,80000,3238,"3335 ETRING LN",HOUSTON,TX,77356,"MORTON CREEK RANCH",,CONTRACTOR,,,,,,,,,,,"LONG LAKE HOMES",,,,,"LONG LAKE HOMES","15915 KATY FWY STE 405",HOUSTON,TX,77094-1710,"(281) 646-1727",http://www.longlakeltd.com/,,"DAVID BIGLER",
TX,HARRIS,2011190067,"Single Family Homes",11/16/2020,,80000,3238,"15014 LONGLEAF FOREST DR",HOUSTON,TX,77356,"EAGLE LANDING",,CONTRACTOR,,,,,,,,,,,"LONG LAKE HOMES",,,,,"LONG LAKE HOMES","15915 KATY FWY STE 405",HOUSTON,TX,77094-1710,"(281) 646-1727",http://www.longlakeltd.com/,,"DAVID BIGLER",
TX,HARRIS,2011190068,"Single Family Homes",11/16/2020,,81000,3592,"15119 ROSALINA TERRACE TRL",HOUSTON,TX,77356,"VILLAGES OF CYPRESS LAKES",,CONTRACTOR,,,,,,,,,,,"LONG LAKE HOMES",,,,,"LONG LAKE HOMES","15915 KATY FWY STE 405",HOUSTON,TX,77094-1710,"(281) 646-1727",http://www.longlakeltd.com/,,"DAVID BIGLER",
TX,HARRIS,2011190070,"Single Family Homes",11/16/2020,,75000,3243,"15123 ROSALINA TERRACE TRL",HOUSTON,TX,77356,"VILLAGES OF CYPRESS LAKES",,CONTRACTOR,,,,,,,,,,,"LONG LAKE HOMES",,,,,"LONG LAKE HOMES","15915 KATY FWY STE 405",HOUSTON,TX,77094-1710,"(281) 646-1727",http://www.longlakeltd.com/,,"DAVID BIGLER",
TX,HARRIS,2011230043,"Single Family Homes",11/16/2020,,65000,2806,"7306 FOX CLEARING TRL",HOUSTON,TX,77356,FOXWOOD,,CONTRACTOR,,,,,,,,,,,"LONG LAKE HOMES",,,,,"LONG LAKE HOMES","15915 KATY FWY STE 405",HOUSTON,TX,77094-1710,"(281) 646-1727",http://www.longlakeltd.com/,,"DAVID BIGLER",
TX,HARRIS,2011230044,"Single Family Homes",11/16/2020,,72000,3005,"915 WILLOWICK BAY DR",HOUSTON,TX,77356,"EAGLE LANDING",,CONTRACTOR,,,,,,,,,,,"LONG LAKE HOMES",,,,,"LONG LAKE HOMES","15915 KATY FWY STE 405",HOUSTON,TX,77094-1710,"(281) 646-1727",http://www.longlakeltd.com/,,"DAVID BIGLER",
TX,HARRIS,2011230045,"Single Family Homes",11/16/2020,,72000,3003,"15210 KINORD RUN DR",HOUSTON,TX,77356,BALMORAL,,CONTRACTOR,,,,,,,,,,,"LONG LAKE HOMES",,,,,"LONG LAKE HOMES","15915 KATY FWY STE 405",HOUSTON,TX,77094-1710,"(281) 646-1727",http://www.longlakeltd.com/,,"DAVID BIGLER",
TX,HARRIS,2011230047,"Single Family Homes",11/16/2020,,80000,3238,"15102 PROVOST CRAIG DR",HOUSTON,TX,77356,BALMORAL,,CONTRACTOR,,,,,,,,,,,"LONG LAKE HOMES",,,,,"LONG LAKE HOMES","15915 KATY FWY STE 405",HOUSTON,TX,77094-1710,"(281) 646-1727",http://www.longlakeltd.com/,,"DAVID BIGLER",
TX,HARRIS,2011230185,"Single Family Homes",11/16/2020,,70000,2748,"907 WILLOWICK BAY DR",HOUSTON,TX,77356,"EAGLE LANDING",,CONTRACTOR,,,,,,,,,,,"LONG LAKE HOMES",,,,,"LONG LAKE HOMES","15915 KATY FWY STE 405",HOUSTON,TX,77094-1710,"(281) 646-1727",http://www.longlakeltd.com/,,"DAVID BIGLER",
TX,HARRIS,2011240085,"Single Family Homes",11/16/2020,,122210,2222,"12322 BEDFORD BEND DR",HOUSTON,TX,77356,BALMORAL,,CONTRACTOR,,,,,,,,,,,"CASTLEROCK COMMUNITIES",,,,,"CASTLEROCK COMMUNITIES","7670 WOODWAY DR STE 300",HOUSTON,TX,77063-1520,"(713) 600-7000",http://c-rock.com,"(713) 600-0000",,
TX,HARRIS,2011240082,"Single Family Homes",11/16/2020,,400000,3068,"15203 PRAIRIE DOG TOWN LN",HOUSTON,TX,77356,"BRIDGELAND PARKLAND VILLAGE",,CONTRACTOR,,,,,,,,,,,"RAVENNA HOMES",,,,,"RAVENNA HOMES","28902 POWDER RIDGE DR",KATY,TX,77494-1918,"(281) 693-7209",,,,
TX,HARRIS,2011240086,"Single Family Homes",11/16/2020,,400000,2909,"15223 PRAIRIE DOG TOWN LN",HOUSTON,TX,77356,"BRIDGELAND PARKLAND VILLAGE",,CONTRACTOR,,,,,,,,,,,"RAVENNA HOMES",,,,,"RAVENNA HOMES","28902 POWDER RIDGE DR",KATY,TX,77494-1918,"(281) 693-7209",,,,
TX,HARRIS,2011240089,"Single Family Homes",11/16/2020,,350000,2688,"15227 PRAIRIE DOG TOWN LN",HOUSTON,TX,77356,"BRIDGELAND PARKLAND VILLAGE",,CONTRACTOR,,,,,,,,,,,"RAVENNA HOMES",,,,,"RAVENNA HOMES","28902 POWDER RIDGE DR",KATY,TX,77494-1918,"(281) 693-7209",,,,
TX,HARRIS,2011180132,"Single Family Homes",11/16/2020,,992050,6792,"19426 CARPENTERS BAYOU CT",HOUSTON,TX,77356,"BRIDGELAND PARKLAND VILLAGE",,CONTRACTOR,,,,,,,,,,,"PARTNERS IN BUILDING",,,,,"PARTNERS IN BUILDING","1803 RANCH ROAD 620 N",LAKEWAY,TX,78734-2611,"(512) 266-6701",http://www.partnersinbuilding.com,"(713) 937-1445",,info@partnersinbuilding.com
TX,HARRIS,2011120053,"Single Family Homes",11/16/2020,,315990,3779,"15218 LILYBANK DR",HOUSTON,TX,77356,BALMORAL,,CONTRACTOR,,,,,,,,,,,"HISTORY MAKER HOMES",,,,,"HISTORY MAKER HOMES","9001 AIRPORT FWY SUITE 400","NORTH RICHLAND HILLS",TX,76180-7769,"(817) 429-8008",http://www.historymaker.com/,"(817) 507-1102","JILL BARFIELD",
TX,HARRIS,2011230179,"Single Family Homes",11/16/2020,,61300,3065,"13707 BULBINE MEADOW TRL",HOUSTON,TX,77356,"ENCLAVE AT LONGWOOD",,CONTRACTOR,,,,,,,,,,,"MHI MCGUYER HOMEBUILDERS",,,,,"MHI MCGUYER HOMEBUILDERS","7676 WOODWAY DR",HOUSTON,TX,77063-1526,"(713) 260-4107",,,,
TX,HARRIS,2011230184,"Single Family Homes",11/16/2020,,50900,2545,"13634 GREENWOOD GABLE LN",HOUSTON,TX,77356,ENCLAVE,,CONTRACTOR,,,,,,,,,,,"MHI MCGUYER HOMEBUILDERS",,,,,"MHI MCGUYER HOMEBUILDERS","7676 WOODWAY DR",HOUSTON,TX,77063-1526,"(713) 260-4107",,,,
TX,HARRIS,2011200203,"Single Family Homes",11/16/2020,,103050,2290,"4351 ORSINI LN",HOUSTON,TX,77356,"VENTANA LAKES",,CONTRACTOR,,,,,,,,,,,"DR HORTON",,,,,"DR HORTON","14100 SOUTHWEST",HOUSTON,TX,77478,"(281) 201-5559",,,,
TX,HARRIS,2011200204,"Single Family Homes",11/16/2020,,112515,2501,"4355 ORSINI LN",HOUSTON,TX,77356,"VENTANA LAKES",,CONTRACTOR,,,,,,,,,,,"DR HORTON",,,,,"DR HORTON","14100 SOUTHWEST",HOUSTON,TX,77478,"(281) 201-5559",,,,
TX,HARRIS,2011200206,"Single Family Homes",11/16/2020,,169650,2331,"22634 CREMONA VILLAGE TRL",HOUSTON,TX,77356,"VENTANA LAKES",,CONTRACTOR,,,,,,,,,,,"DR HORTON",,,,,"DR HORTON","14100 SOUTHWEST",HOUSTON,TX,77478,"(281) 201-5559",,,,
TX,HARRIS,2011200209,"Single Family Homes",11/16/2020,,157050,2242,"22630 CREMONA VILLAGE LN",HOUSTON,TX,77356,"VENTANA LAKES",,CONTRACTOR,,,,,,,,,,,"DR HORTON",,,,,"DR HORTON","14100 SOUTHWEST",HOUSTON,TX,77478,"(281) 201-5559",,,,
TX,HARRIS,2011230130,"Single Family Homes",11/16/2020,,122500,2723,"4215 ISOLETTA CT",HOUSTON,TX,77356,"VENTANA LAKES",,CONTRACTOR,,,,,,,,,,,"DR HORTON",,,,,"DR HORTON","14100 SOUTHWEST",HOUSTON,TX,77478,"(281) 201-5559",,,,
TX,HARRIS,2011230131,"Single Family Homes",11/16/2020,,95130,2290,"4219 ISOLETTA CT",HOUSTON,TX,77356,"VENTANA LAKES",,CONTRACTOR,,,,,,,,,,,"DR HORTON",,,,,"DR HORTON","14100 SOUTHWEST",HOUSTON,TX,77478,"(281) 201-5559",,,,
TX,HARRIS,2011230133,"Single Family Homes",11/16/2020,,95130,2114,"4223 ISOLETTA CT",HOUSTON,TX,77356,"VENTANA LAKES",,CONTRACTOR,,,,,,,,,,,"DR HORTON",,,,,"DR HORTON","14100 SOUTHWEST",HOUSTON,TX,77478,"(281) 201-5559",,,,
TX,HARRIS,2011230140,"Single Family Homes",11/16/2020,,132885,2225,"4227 ISOLETTA CT",HOUSTON,TX,77356,"VENTANA LAKES",,CONTRACTOR,,,,,,,,,,,"DR HORTON",,,,,"DR HORTON","14100 SOUTHWEST",HOUSTON,TX,77478,"(281) 201-5559",,,,
TX,HARRIS,2011230144,"Single Family Homes",11/16/2020,,95130,2114,"4231 ISOLETTA CT",HOUSTON,TX,77356,"VENTANA LAKES",,CONTRACTOR,,,,,,,,,,,"DR HORTON",,,,,"DR HORTON","14100 SOUTHWEST",HOUSTON,TX,77478,"(281) 201-5559",,,,
TX,HARRIS,2011200201,"Single Family Homes",11/16/2020,,107550,2388,"4347 ORSINI LN",HOUSTON,TX,77356,"VENTANA LAKES",,CONTRACTOR,,,,,,,,,,,"DR HORTON",,,,,"DR HORTON","14100 SOUTHWEST",HOUSTON,TX,77478,"(281) 201-5559",,,,
TX,HARRIS,2011230182,"Single Family Homes",11/16/2020,,103050,2291,"4210 ISOLETTA CT",HOUSTON,TX,77356,"VENTANA LAKES",,CONTRACTOR,,,,,,,,,,,"DR HORTON",,,,,"DR HORTON","14100 SOUTHWEST",HOUSTON,TX,77478,"(281) 201-5559",,,,
TX,HARRIS,2011230173,"Single Family Homes",11/16/2020,,107550,2390,"4214 ISOLETTA CT",HOUSTON,TX,77356,"VENTANA LAKES",,CONTRACTOR,,,,,,,,,,,"DR HORTON",,,,,"DR HORTON","14100 SOUTHWEST",HOUSTON,TX,77478,"(281) 201-5559",,,,
TX,HARRIS,2011230171,"Single Family Homes",11/16/2020,,169650,2331,"4218 ISOLETTA CT",HOUSTON,TX,77356,"VENTANA LAKES",,CONTRACTOR,,,,,,,,,,,"DR HORTON",,,,,"DR HORTON","14100 SOUTHWEST",HOUSTON,TX,77478,"(281) 201-5559",,,,
TX,HARRIS,2011230169,"Single Family Homes",11/16/2020,,103050,2291,"4222 ISOLETTA CT",HOUSTON,TX,77356,"VENTANA LAKES",,CONTRACTOR,,,,,,,,,,,"DR HORTON",,,,,"DR HORTON","14100 SOUTHWEST",HOUSTON,TX,77478,"(281) 201-5559",,,,
TX,HARRIS,2011230166,"Single Family Homes",11/16/2020,,112515,2501,"4226 ISOLETTA CT",HOUSTON,TX,77356,"VENTANA LAKES",,CONTRACTOR,,,,,,,,,,,"DR HORTON",,,,,"DR HORTON","14100 SOUTHWEST",HOUSTON,TX,77478,"(281) 201-5559",,,,
TX,HARRIS,2011230163,"Single Family Homes",11/16/2020,,107550,2388,"4230 ISOLETTA CT",HOUSTON,TX,77356,"VENTANA LAKES",,CONTRACTOR,,,,,,,,,,,"DR HORTON",,,,,"DR HORTON","14100 SOUTHWEST",HOUSTON,TX,77478,"(281) 201-5559",,,,
TX,HARRIS,2011230160,"Single Family Homes",11/16/2020,,103050,2290,"4302 ISOLETTA CT",HOUSTON,TX,77356,"VENTANA LAKES",,CONTRACTOR,,,,,,,,,,,"DR HORTON",,,,,"DR HORTON","14100 SOUTHWEST",HOUSTON,TX,77478,"(281) 201-5559",,,,
TX,HARRIS,2011230156,"Single Family Homes",11/16/2020,,122500,2723,"4306 ISOLETTA CT",HOUSTON,TX,77356,"VENTANA LAKES",,CONTRACTOR,,,,,,,,,,,"DR HORTON",,,,,"DR HORTON","14100 SOUTHWEST",HOUSTON,TX,77478,"(281) 201-5559",,,,
TX,HARRIS,2011230151,"Single Family Homes",11/16/2020,,107550,2388,"4319 ISOLETTA CT",HOUSTON,TX,77356,"VENTANA LAKES",,CONTRACTOR,,,,,,,,,,,"DR HORTON",,,,,"DR HORTON","14100 SOUTHWEST",HOUSTON,TX,77478,"(281) 201-5559",,,,
TX,HARRIS,2011230149,"Single Family Homes",11/16/2020,,103050,2290,"4315 ISOLETTA CT",HOUSTON,TX,77356,"VENTANA LAKES",,CONTRACTOR,,,,,,,,,,,"DR HORTON",,,,,"DR HORTON","14100 SOUTHWEST",HOUSTON,TX,77478,"(281) 201-5559",,,,
TX,HARRIS,2011230148,"Single Family Homes",11/16/2020,,112515,2501,"4311 ISOLETTA CT",HOUSTON,TX,77356,"VENTANA LAKES",,CONTRACTOR,,,,,,,,,,,"DR HORTON",,,,,"DR HORTON","14100 SOUTHWEST",HOUSTON,TX,77478,"(281) 201-5559",,,,
TX,HARRIS,2011230147,"Single Family Homes",11/16/2020,,,2241,"4307 ISOLETTA CT",HOUSTON,TX,77356,"VENTANA LAKES",,CONTRACTOR,,,,,,,,,,,"DR HORTON",,,,,"DR HORTON","14100 SOUTHWEST",HOUSTON,TX,77478,"(281) 201-5559",,,,
TX,HARRIS,2011180055,"Single Family Homes",11/16/2020,,135970,2140,"24706 LAKE BASIN CT",HOUSTON,TX,77356,"LAKECREST FOREST",,CONTRACTOR,,,,,,,,,,,"ANGLIA HOMES",,,,,"ANGLIA HOMES","17510 RED OAK DR",HOUSTON,TX,77090,"(281) 943-5288",http://www.angliahomeslp.com/,,,
TX,HARRIS,2011190020,"Single Family Homes",11/16/2020,,120220,1931,"1319 GREEN HIGHLAND DR",HOUSTON,TX,77356,"HIGHLAND GLEN",,CONTRACTOR,,,,,,,,,,,"ANGLIA HOMES",,,,,"ANGLIA HOMES","17510 RED OAK DR",HOUSTON,TX,77090,"(281) 943-5288",http://www.angliahomeslp.com/,,,
TX,HARRIS,2011240147,"Single Family Homes",11/16/2020,,460534,4562,"11610 WHITEWAVE BEND CT",HOUSTON,TX,77356,"TOWNE LAKE",,CONTRACTOR,,,,,,,,,,,"DREES CUSTOM HOMES",,,,,"DREES CUSTOM HOMES","9720 CYPRESSWOOD DR",HOUSTON,TX,77070-3355,"(281) 653-8850",http://www.dreeshomes.com,,,
TX,HARRIS,2011200159,"Single Family Homes",11/16/2020,,112515,2501,"4326 ORSINI LN",HOUSTON,TX,77356,"VENTANA LAKES",,CONTRACTOR,,,,,,,,,,,"DR HORTON",,,,,"DR HORTON","14100 SOUTHWEST",HOUSTON,TX,77478,"(281) 201-5559",,,,
TX,HARRIS,2011200183,"Single Family Homes",11/16/2020,,169650,2331,"4331 ORSINI LN",HOUSTON,TX,77356,"VENTANA LAKES",,CONTRACTOR,,,,,,,,,,,"DR HORTON",,,,,"DR HORTON","14100 SOUTHWEST",HOUSTON,TX,77478,"(281) 201-5559",,,,
TX,HARRIS,2011200188,"Single Family Homes",11/16/2020,,112515,2501,"4335 ORSINI LN",HOUSTON,TX,77356,"VENTANA LAKES",,CONTRACTOR,,,,,,,,,,,"DR HORTON",,,,,"DR HORTON","14100 SOUTHWEST",HOUSTON,TX,77478,"(281) 201-5559",,,,
TX,HARRIS,2011200190,"Single Family Homes",11/16/2020,,103050,2291,"4339 ORSINI LN",HOUSTON,TX,77356,"VENTANA LAKES",,CONTRACTOR,,,,,,,,,,,"DR HORTON",,,,,"DR HORTON","14100 SOUTHWEST",HOUSTON,TX,77478,"(281) 201-5559",,,,
TX,HARRIS,2011200196,"Single Family Homes",11/16/2020,,122500,2712,"4343 ORSINI LN",HOUSTON,TX,77356,"VENTANA LAKES",,CONTRACTOR,,,,,,,,,,,"DR HORTON",,,,,"DR HORTON","14100 SOUTHWEST",HOUSTON,TX,77478,"(281) 201-5559",,,,
TX,HARRIS,2011200181,"Single Family Homes",11/16/2020,,103050,2291,"4327 ORSINI LN",HOUSTON,TX,77356,"VENTANA LAKES",,CONTRACTOR,,,,,,,,,,,"DR HORTON",,,,,"DR HORTON","14100 SOUTHWEST",HOUSTON,TX,77478,"(281) 201-5559",,,,
TX,HARRIS,2011230145,"Single Family Homes",11/16/2020,,103050,2291,"4303 ISOLETTA CT",HOUSTON,TX,77356,"VENTANA LAKES",,CONTRACTOR,,,,,,,,,,,"DR HORTON",,,,,"DR HORTON","14100 SOUTHWEST",HOUSTON,TX,77478,"(281) 201-5559",,,,
TX,HARRIS,2011200174,"Single Family Homes",11/16/2020,,118650,2263,"24735 SONGLARK BEND DR",HOUSTON,TX,77356,"LAKES AT CREEKSIDE",,CONTRACTOR,,,,,,,,,,,"TOLL BROTHERS",,,,,"TOLL BROTHERS","10110 W SAM HOUSTON PKWY N STE 350",HOUSTON,TX,77064-7508,"(281) 664-7255",,,,
TX,HARRIS,2011230180,"Single Family Homes",11/16/2020,,95130,2114,"8227 TAMARIND LN",HOUSTON,TX,77356,"SPRINGFIELD ESTATES",,CONTRACTOR,,,,,,,,,,,"DR HORTON",,,,,"DR HORTON","14100 SOUTHWEST",HOUSTON,TX,77478,"(281) 201-5559",,,,
TX,HARRIS,2011190081,"Single Family Homes",11/16/2020,,126280,2707,"19419 CANTER FIELD CT",HOUSTON,TX,77356,AMIRA,,CONTRACTOR,,,,,,,,,,,"BEAZER HOMES ",,,,,"BEAZER HOMES ","10235 W LITTLE YORK",HOUSTON,TX,77040,"(713) 849-2252",http://www.beazer.com/,,,
TX,HARRIS,2011190084,"Single Family Homes",11/16/2020,,118200,2955,"20410 GRAZING FOAL DR",HOUSTON,TX,77356,AMIRA,,CONTRACTOR,,,,,,,,,,,"BEAZER HOMES ",,,,,"BEAZER HOMES ","10235 W LITTLE YORK",HOUSTON,TX,77040,"(713) 849-2252",http://www.beazer.com/,,,
TX,HARRIS,2011190087,"Single Family Homes",11/16/2020,,126280,3157,"9203 HARTFORD VALLEY LN",HOUSTON,TX,77356,"ASHBEL CROSSING",,CONTRACTOR,,,,,,,,,,,"BEAZER HOMES ",,,,,"BEAZER HOMES ","10235 W LITTLE YORK",HOUSTON,TX,77040,"(713) 849-2252",http://www.beazer.com/,,,
TX,HARRIS,2011190091,"Single Family Homes",11/16/2020,,126280,3157,"9410 TEXAS OLIVE CT",HOUSTON,TX,77356,"ASHBEL CROSSING",,CONTRACTOR,,,,,,,,,,,"BEAZER HOMES ",,,,,"BEAZER HOMES ","10235 W LITTLE YORK",HOUSTON,TX,77040,"(713) 849-2252",http://www.beazer.com/,,,
TX,HARRIS,2011180085,"Single Family Homes",11/16/2020,,126425,1926,"23402 BRIARSTONE HARBOR TRL",HOUSTON,TX,77356,"KATY TRAILS",,CONTRACTOR,,,,,,,,,,,"RAUSCH COLEMAN HOMES",,,,,"RAUSCH COLEMAN HOMES","9504 N IH35 STE 310","SAN ANTONIO",TX,78233,"(210) 231-0703",https://www.rauschcolemanhomes.com/,,,
TX,HARRIS,2011180087,"Single Family Homes",11/16/2020,,140660,2164,"23334 BRIARSTONE HARBOR TRL",HOUSTON,TX,77356,"KATY TRAILS",,CONTRACTOR,,,,,,,,,,,"RAUSCH COLEMAN HOMES",,,,,"RAUSCH COLEMAN HOMES","9504 N IH35 STE 310","SAN ANTONIO",TX,78233,"(210) 231-0703",https://www.rauschcolemanhomes.com/,,,
TX,HARRIS,2011180090,"Single Family Homes",11/16/2020,,141050,2196,"23331 BRIARSTONE HARBOR TRL",HOUSTON,TX,77356,"KATY TRAILS",,CONTRACTOR,,,,,,,,,,,"RAUSCH COLEMAN HOMES",,,,,"RAUSCH COLEMAN HOMES","9504 N IH35 STE 310","SAN ANTONIO",TX,78233,"(210) 231-0703",https://www.rauschcolemanhomes.com/,,,
TX,HARRIS,2011230153,"Single Family Homes",11/16/2020,,148900,2292,"9115 BRAZOS DR",HOUSTON,TX,77356,"ASHBEL CROSSING",,CONTRACTOR,,,,,,,,,,,"LENNAR HOMES",,,,,"LENNAR HOMES","550 GREENS PKWY",HOUSTON,TX,77067-4537,"(281) 875-1000",http://www.lennar.com/,,,
TX,HARRIS,2011230161,"Single Family Homes",11/16/2020,,153000,2357,"9039 BRAZOS DR",HOUSTON,TX,77356,"ASHBEL CROSSING ",,CONTRACTOR,,,,,,,,,,,"LENNAR HOMES",,,,,"LENNAR HOMES","550 GREENS PKWY",HOUSTON,TX,77067-4537,"(281) 875-1000",http://www.lennar.com/,,,
TX,HARRIS,2011060017,"Single Family Homes",11/16/2020,,266917,2308,"210 HARRIS RD",HOUSTON,TX,77356,HARRIS,,"JOSE & MICHELLE PERZ","210 HARRIS RD",HOUSTON,TX,77356,,Owner,,,,,OWNER,,,,,OWNER,,,,,,,,,
TX,HARRIS,2011230217,"Single Family Homes",11/16/2020,,104000,1969,"3739 W ALESSANO LN",HOUSTON,TX,77356,"CAMILLO LAKES",,CONTRACTOR,,,,,,,,,,,"LEGEND HOMES",,,,,"LEGEND HOMES","10410 WINDAMERE LAKES BLVD",HOUSTON,TX,77065-4996,"(281) 671-9060",http://legendhomecorp.com/,"(281) 671-9055",,
TX,HARRIS,2011230216,"Single Family Homes",11/16/2020,,95000,2113,"24511 LORENZO GLAZE TRL",HOUSTON,TX,77356,"CAMILLO LAKES",,CONTRACTOR,,,,,,,,,,,"LEGEND HOMES",,,,,"LEGEND HOMES","10410 WINDAMERE LAKES BLVD",HOUSTON,TX,77065-4996,"(281) 671-9060",http://legendhomecorp.com/,"(281) 671-9055",,
TX,HARRIS,2011110153,"Single Family Homes",11/16/2020,,144000,2978,"24322 BELLO EVERETT LAKE DR",HOUSTON,TX,77356,"MARCELLO LAKES",,CONTRACTOR,,,,,,,,,,,"LEGEND HOMES",,,,,"LEGEND HOMES","10410 WINDAMERE LAKES BLVD",HOUSTON,TX,77065-4996,"(281) 671-9060",http://legendhomecorp.com/,"(281) 671-9055",,
TX,HARRIS,2011110155,"Single Family Homes",11/16/2020,,142000,2814,"3718 EAST ALESSANO LN",HOUSTON,TX,77356,"MARCELLO LAKES",,CONTRACTOR,,,,,,,,,,,"LEGEND HOMES",,,,,"LEGEND HOMES","10410 WINDAMERE LAKES BLVD",HOUSTON,TX,77065-4996,"(281) 671-9060",http://legendhomecorp.com/,"(281) 671-9055",,
TX,HARRIS,2011110158,"Single Family Homes",11/16/2020,,156000,3687,"3714 EAST ALESSANO LN",HOUSTON,TX,77356,"MARCELLO LAKES",,CONTRACTOR,,,,,,,,,,,"LEGEND HOMES",,,,,"LEGEND HOMES","10410 WINDAMERE LAKES BLVD",HOUSTON,TX,77065-4996,"(281) 671-9060",http://legendhomecorp.com/,"(281) 671-9055",,
TX,HARRIS,2011230232,"Single Family Homes",11/16/2020,,185000,3725,"24306 BELLO EVERETT LAKE DR",HOUSTON,TX,77356,"MARCELLO LAKES",,CONTRACTOR,,,,,,,,,,,"LEGEND HOMES",,,,,"LEGEND HOMES","10410 WINDAMERE LAKES BLVD",HOUSTON,TX,77065-4996,"(281) 671-9060",http://legendhomecorp.com/,"(281) 671-9055",,
TX,HARRIS,2011230211,"Single Family Homes",11/16/2020,,104000,1562,"24519 LORENZO GLAZE TRL",HOUSTON,TX,77356,"CAMILLO LAKES",,CONTRACTOR,,,,,,,,,,,"LEGEND HOMES",,,,,"LEGEND HOMES","10410 WINDAMERE LAKES BLVD",HOUSTON,TX,77065-4996,"(281) 671-9060",http://legendhomecorp.com/,"(281) 671-9055",,
TX,HARRIS,2011230219,"Single Family Homes",11/16/2020,,147000,2139,"3743 W ALESSANO LN",HOUSTON,TX,77356,"CAMILLO LAKES",,CONTRACTOR,,,,,,,,,,,"LEGEND HOMES",,,,,"LEGEND HOMES","10410 WINDAMERE LAKES BLVD",HOUSTON,TX,77065-4996,"(281) 671-9060",http://legendhomecorp.com/,"(281) 671-9055",,
TX,HARRIS,2011180111,"Single Family Homes",11/16/2020,,402415,3569,"25614 MUIRFIELD BEND CT",HOUSTON,TX,77356,"AUGUSTA PINES",,CONTRACTOR,,,,,,,,,,,"DREAMTECH HOMES",,,,,"DREAMTECH HOMES","7422 NANTUCKET POINT LN",SPRING,TX,77389-2400,"(281) 357-4970",http://dreamtechhomes.com/,,,njolly@dreamtechhomes.com
TX,HARRIS,2011230222,"Single Family Homes",11/16/2020,,95000,2113,"3747 W ALESSANO LN",HOUSTON,TX,77356,"CAMILLO LAKES",,CONTRACTOR,,,,,,,,,,,"LEGEND HOMES",,,,,"LEGEND HOMES","10410 WINDAMERE LAKES BLVD",HOUSTON,TX,77065-4996,"(281) 671-9060",http://legendhomecorp.com/,"(281) 671-9055",,
TX,HARRIS,2011180112,"Single Family Homes",11/16/2020,,401921,3409,"25618 MUIRFIELD BEND CT",HOUSTON,TX,77356,"AUGUSTA PINES",,CONTRACTOR,,,,,,,,,,,"DREAMTECH HOMES",,,,,"DREAMTECH HOMES","7422 NANTUCKET POINT LN",SPRING,TX,77389-2400,"(281) 357-4970",http://dreamtechhomes.com/,,,njolly@dreamtechhomes.com
TX,HARRIS,2011230224,"Single Family Homes",11/16/2020,,100000,2336,"3751 W ALESSANO LN",HOUSTON,TX,77356,"CAMILLO LAKES",,CONTRACTOR,,,,,,,,,,,"LEGEND HOMES",,,,,"LEGEND HOMES","10410 WINDAMERE LAKES BLVD",HOUSTON,TX,77065-4996,"(281) 671-9060",http://legendhomecorp.com/,"(281) 671-9055",,
TX,HARRIS,2011230225,"Single Family Homes",11/16/2020,,100000,2336,"3750 STEFANO PALETTE CT",HOUSTON,TX,77356,"CAMILLO LAKES",,CONTRACTOR,,,,,,,,,,,"LEGEND HOMES",,,,,"LEGEND HOMES","10410 WINDAMERE LAKES BLVD",HOUSTON,TX,77065-4996,"(281) 671-9060",http://legendhomecorp.com/,"(281) 671-9055",,
TX,HARRIS,2011230228,"Single Family Homes",11/16/2020,,106000,2549,"3603 GIORGIO PASTEL PL",HOUSTON,TX,77356,"CAMILLO LAKES",,CONTRACTOR,,,,,,,,,,,"LEGEND HOMES",,,,,"LEGEND HOMES","10410 WINDAMERE LAKES BLVD",HOUSTON,TX,77065-4996,"(281) 671-9060",http://legendhomecorp.com/,"(281) 671-9055",,
TX,HARRIS,2011230230,"Single Family Homes",11/16/2020,,106000,2549,"3611 GIORGIO PASTEL PL",HOUSTON,TX,77356,"CAMILLO LAKES",,CONTRACTOR,,,,,,,,,,,"LEGEND HOMES",,,,,"LEGEND HOMES","10410 WINDAMERE LAKES BLVD",HOUSTON,TX,77065-4996,"(281) 671-9060",http://legendhomecorp.com/,"(281) 671-9055",,
TX,HARRIS,2011160138,"Single Family Homes",11/16/2020,,90000,1800,"6527 FIDDLEWOOD THICKET LN",HOUSTON,TX,77356,LANTANA,,CONTRACTOR,,,,,,,,,,,"M/I HOMES",,,,,"M/I HOMES","10910 NORTH SAM HOUSTON PKWY W",HOUSTON,TX,77064,"(832) 912-1012",,,,
TX,HARRIS,2011190150,"Single Family Homes",11/16/2020,,90000,1800,"6647 FIDDLEWOOD THICKET LN",HOUSTON,TX,77356,LANTANA,,CONTRACTOR,,,,,,,,,,,"M/I HOMES",,,,,"M/I HOMES","10910 NORTH SAM HOUSTON PKWY W",HOUSTON,TX,77064,"(832) 912-1012",,,,
TX,HARRIS,2011190147,"Single Family Homes",11/16/2020,,90000,1800,"6718 VERBENA BLOSSOM TRL",HOUSTON,TX,77356,LANTANA,,CONTRACTOR,,,,,,,,,,,"M/I HOMES",,,,,"M/I HOMES","10910 NORTH SAM HOUSTON PKWY W",HOUSTON,TX,77064,"(832) 912-1012",,,,
TX,HARRIS,2011120010,"Single Family Homes",11/16/2020,,140000,2800,"15126 PILANT LAKE CT",HOUSTON,TX,77356,"BRIDGELAND PARKLAND VILLAGE",,CONTRACTOR,,,,,,,,,,,"M/I HOMES",,,,,"M/I HOMES","10910 NORTH SAM HOUSTON PKWY W",HOUSTON,TX,77064,"(832) 912-1012",,,,
TX,HARRIS,2011120177,"Single Family Homes",11/16/2020,,321657,3500,"20818 MYSTICAL LEGEND DR",HOUSTON,TX,77356,"ALBURY TRAILS ESTATES",,CONTRACTOR,,,,,,,,,,,"HARRISBURG HOMES",,,,,"HARRISBURG HOMES","21615 FIREMIST WAY",CYPRESS,TX,77433-3507,"(713) 249-8196",http://www.harrisburgtx.com/,,SHAWN,info@harrisburgtx.com
TX,HARRIS,2010160104,"Single Family Homes",11/16/2020,,100000,3079,"1016 SMOKEY LN",HOUSTON,TX,77356,"CROSBY MEADOWS",,"RAUL OTERO","1016 SMOKEY LN",HOUSTON,TX,77356,,Owner,,,,,OWNER,,,,,OWNER,,,,,,,,,
TX,HARRIS,2011180156,"Single Family Homes",11/16/2020,,176605,2717,"15138 RED BUCKEYE DR",HOUSTON,TX,77356,"BRIDGELAND PARKLAND VILLAGE",,CONTRACTOR,,,,,,,,,,,"LENNAR HOMES",,,,,"LENNAR HOMES","550 GREENS PKWY",HOUSTON,TX,77067-4537,"(281) 875-1000",http://www.lennar.com/,,,
TX,HARRIS,2011230059,"Single Family Homes",11/16/2020,,140465,2161,"31419 WHITCOMBE SUMMIT WAY",HOUSTON,TX,77356,DELLROSE,,CONTRACTOR,,,,,,,,,,,"LENNAR HOMES",,,,,"LENNAR HOMES","550 GREENS PKWY",HOUSTON,TX,77067-4537,"(281) 875-1000",http://www.lennar.com/,,,
TX,HARRIS,2011230021,"Single Family Homes",11/16/2020,,225000,3617,"9014 BRIGHT HARBOR DR",HOUSTON,TX,77356,MIRAMESA,,CONTRACTOR,,,,,,,,,,,"WESTIN HOMES",,,,,"WESTIN HOMES","1 SUGAR CREEK CENTER BLVD STE 600","SUGAR LAND",TX,77478-3787,"(281) 240-1551",http://www.westin-homes.com,,,
TX,HARRIS,2011230022,"Single Family Homes",11/16/2020,,225000,3464,"19819 BROKEN CACTUS DR",HOUSTON,TX,77356,MIRAMESA,,CONTRACTOR,,,,,,,,,,,"WESTIN HOMES",,,,,"WESTIN HOMES","1 SUGAR CREEK CENTER BLVD STE 600","SUGAR LAND",TX,77478-3787,"(281) 240-1551",http://www.westin-homes.com,,,
TX,HARRIS,2011230024,"Single Family Homes",11/16/2020,,215000,3461,"15634 SCOLTY REACH LN",HOUSTON,TX,77356,BALMORAL,,CONTRACTOR,,,,,,,,,,,"WESTIN HOMES",,,,,"WESTIN HOMES","1 SUGAR CREEK CENTER BLVD STE 600","SUGAR LAND",TX,77478-3787,"(281) 240-1551",http://www.westin-homes.com,,,
TX,HARRIS,2011230025,"Single Family Homes",11/16/2020,,247000,4336,"15635 SCOLTY REACH LN",HOUSTON,TX,77356,BALMORAL,,CONTRACTOR,,,,,,,,,,,"WESTIN HOMES",,,,,"WESTIN HOMES","1 SUGAR CREEK CENTER BLVD STE 600","SUGAR LAND",TX,77478-3787,"(281) 240-1551",http://www.westin-homes.com,,,
TX,HARRIS,2011230026,"Single Family Homes",11/16/2020,,259000,3913,"23227 MULBERRY THICKET TRL",HOUSTON,TX,77356,ELYSON,,CONTRACTOR,,,,,,,,,,,"WESTIN HOMES",,,,,"WESTIN HOMES","1 SUGAR CREEK CENTER BLVD STE 600","SUGAR LAND",TX,77478-3787,"(281) 240-1551",http://www.westin-homes.com,,,
TX,HARRIS,2011040106,"Single Family Homes",11/16/2020,,250000,1925,"20915 LARK LN",HOUSTON,TX,77356,"HOLLY SPRINGS",,"EDITH SPENRATH","20915 LARK LN",HOUSTON,TX,77356,,Owner,,,,,OWNER,,,,,OWNER,,,,,,,,,
TX,HARRIS,2011210003,"Single Family Homes",11/16/2020,,196000,3012,"14723 WILLOW DRIFT LN",HOUSTON,TX,77356,"CYPRESS CREEK LANDING",,CONTRACTOR,,,,,,,,,,,"KB HOME",,,,,"KB HOME","11314 RICHMOND AVE",HOUSTON,TX,77082-2616,"(281) 668-3800",,,,
TX,HARRIS,2011210004,"Single Family Homes",11/16/2020,,181000,2785,"14607 MONTEREY CYPRESS DR",HOUSTON,TX,77356,"CYPRESS CREEK LANDING",,CONTRACTOR,,,,,,,,,,,"KB HOME",,,,,"KB HOME","11314 RICHMOND AVE",HOUSTON,TX,77082-2616,"(281) 668-3800",,,,
TX,HARRIS,2011160023,"Single Family Homes",11/16/2020,,165000,2546,"4807 EMERSON MANOR DR",HOUSTON,TX,77356,"KATY MANOR",,CONTRACTOR,,,,,,,,,,,"KB HOME",,,,,"KB HOME","11314 RICHMOND AVE",HOUSTON,TX,77082-2616,"(281) 668-3800",,,,
TX,HARRIS,2011160118,"Single Family Homes",11/16/2020,,165000,2546,"25531 CAMILLA MAE CT",HOUSTON,TX,77356,"KATY MANOR",,CONTRACTOR,,,,,,,,,,,"KB HOME",,,,,"KB HOME","11314 RICHMOND AVE",HOUSTON,TX,77082-2616,"(281) 668-3800",,,,
TX,HARRIS,2011210008,"Single Family Homes",11/16/2020,,105000,1611,"12511 CAMELLIA GLADE LN",HOUSTON,TX,77356,"LAKEWOOD PINES",,CONTRACTOR,,,,,,,,,,,"KB HOME",,,,,"KB HOME","11314 RICHMOND AVE",HOUSTON,TX,77082-2616,"(281) 668-3800",,,,
TX,HARRIS,2011180066,"Single Family Homes",11/16/2020,,142935,2199,"4830 CHESTNUT VALLEY LN",HOUSTON,TX,77356,"PORTER RANCH",,CONTRACTOR,,,,,,,,,,,"LENNAR HOMES",,,,,"LENNAR HOMES","550 GREENS PKWY",HOUSTON,TX,77067-4537,"(281) 875-1000",http://www.lennar.com/,,,
TX,HARRIS,2011180067,"Single Family Homes",11/16/2020,,137605,2117,"4838 CHESTNUT VALLEY LN",HOUSTON,TX,77356,"PORTER RANCH",,CONTRACTOR,,,,,,,,,,,"LENNAR HOMES",,,,,"LENNAR HOMES","550 GREENS PKWY",HOUSTON,TX,77067-4537,"(281) 875-1000",http://www.lennar.com/,,,
TX,HARRIS,2011180068,"Single Family Homes",11/16/2020,,179790,2766,"4807 CHESTNUT VALLEY LN",HOUSTON,TX,77356,"PORTER RANCH",,CONTRACTOR,,,,,,,,,,,"LENNAR HOMES",,,,,"LENNAR HOMES","550 GREENS PKWY",HOUSTON,TX,77067-4537,"(281) 875-1000",http://www.lennar.com/,,,
TX,HARRIS,2011180070,"Single Family Homes",11/16/2020,,142935,2199,"4811 CHESTNUT VALLEY LN",HOUSTON,TX,77356,"PORTER RANCH",,CONTRACTOR,,,,,,,,,,,"LENNAR HOMES",,,,,"LENNAR HOMES","550 GREENS PKWY",HOUSTON,TX,77067-4537,"(281) 875-1000",http://www.lennar.com/,,,
TX,HARRIS,2011180071,"Single Family Homes",11/16/2020,,124345,1913,"4815 CHESTNUT VALLEY LN",HOUSTON,TX,77356,"PORTER RANCH",,CONTRACTOR,,,,,,,,,,,"LENNAR HOMES",,,,,"LENNAR HOMES","550 GREENS PKWY",HOUSTON,TX,77067-4537,"(281) 875-1000",http://www.lennar.com/,,,
TX,HARRIS,2011180072,"Single Family Homes",11/16/2020,,137605,2117,"4823 CHESTNUT VALLEY LN",HOUSTON,TX,77356,"PORTER RANCH",,CONTRACTOR,,,,,,,,,,,"LENNAR HOMES",,,,,"LENNAR HOMES","550 GREENS PKWY",HOUSTON,TX,77067-4537,"(281) 875-1000",http://www.lennar.com/,,,
TX,HARRIS,2011200064,"Single Family Homes",11/16/2020,,60020,3001,"25402 KIDWILDER DR",HOUSTON,TX,77356,"GROVE LANDING",,CONTRACTOR,,,,,,,,,,,"MHI MCGUYER HOMEBUILDERS",,,,,"MHI MCGUYER HOMEBUILDERS","7676 WOODWAY DR",HOUSTON,TX,77063-1526,"(713) 260-4107",,,,
TX,HARRIS,2011200093,"Single Family Homes",11/16/2020,,221250,4315,"25010 GINGERBRUSH LN",HOUSTON,TX,77356,"LAKES AT CREEKSIDE",,CONTRACTOR,,,,,,,,,,,"TOLL BROTHERS",,,,,"TOLL BROTHERS","10110 W SAM HOUSTON PKWY N STE 350",HOUSTON,TX,77064-7508,"(281) 664-7255",,,,
TX,HARRIS,2011120153,"Single Family Homes",11/16/2020,,178805,3251,"523 ALMOND WILLOW LN",HOUSTON,TX,77356,"PECAN ESTATES",,CONTRACTOR,,,,,,,,,,,"CASTLEROCK COMMUNITIES",,,,,"CASTLEROCK COMMUNITIES","7670 WOODWAY DR STE 300",HOUSTON,TX,77063-1520,"(713) 600-7000",http://c-rock.com,"(713) 600-0000",,
TX,HARRIS,2011200143,"Single Family Homes",11/16/2020,,110220,2004,"518 BARREN OAK LN",HOUSTON,TX,77356,"PECAN ESTATES",,CONTRACTOR,,,,,,,,,,,"CASTLEROCK COMMUNITIES",,,,,"CASTLEROCK COMMUNITIES","7670 WOODWAY DR STE 300",HOUSTON,TX,77063-1520,"(713) 600-7000",http://c-rock.com,"(713) 600-0000",,
TX,HARRIS,2011200145,"Single Family Homes",11/16/2020,,126555,2301,"17958 COSTRELL DR",HOUSTON,TX,77356,WINDROW,,CONTRACTOR,,,,,,,,,,,"CASTLEROCK COMMUNITIES",,,,,"CASTLEROCK COMMUNITIES","7670 WOODWAY DR STE 300",HOUSTON,TX,77063-1520,"(713) 600-7000",http://c-rock.com,"(713) 600-0000",,
TX,HARRIS,2011200032,"Single Family Homes",11/16/2020,,367816,2380,"19726 UPPER CANYON CT",HOUSTON,TX,77356,"BRIDGELAND PARKLAND VILLAGE",,CONTRACTOR,,,,,,,,,,,"HIGHLAND HOMES",,,,,"HIGHLAND HOMES","10930 W SAM HOUSTON PKWY N STE 100",HOUSTON,TX,77064-6331,"(281) 517-9800",,,,
TX,HARRIS,2011200186,"Single Family Homes",11/16/2020,,54320,2716,"11310 SAWATCH LN",HOUSTON,TX,77356,"GROVE LANDING",,CONTRACTOR,,,,,,,,,,,"MHI MCGUYER HOMEBUILDERS",,,,,"MHI MCGUYER HOMEBUILDERS","7676 WOODWAY DR",HOUSTON,TX,77063-1526,"(713) 260-4107",,,,
TX,HARRIS,2011200185,"Single Family Homes",11/16/2020,,284990,3696,"7146 POPPYSEED TRL",HOUSTON,TX,77356,"KLEIN GROVE",,CONTRACTOR,,,,,,,,,,,"HISTORY MAKER HOMES",,,,,"HISTORY MAKER HOMES","9001 AIRPORT FWY SUITE 400","NORTH RICHLAND HILLS",TX,76180-7769,"(817) 429-8008",http://www.historymaker.com/,"(817) 507-1102","JILL BARFIELD",
TX,HARRIS,2011120103,"Single Family Homes",11/16/2020,,122940,2049,"9438 CADDO RIDGE LN",HOUSTON,TX,77356,"TOWNE LAKE",,CONTRACTOR,,,,,,,,,,,"ASHTON WOODS HOMES",,,,,"ASHTON WOODS HOMES","10110 W SAM HOUSTON PKWY N",HOUSTON,TX,77064-7508,"(832) 478-9028",,,,
TX,HARRIS,2011020112,"Single Family Homes",11/16/2020,,160860,2681,"15614 BELTIE DR",HOUSTON,TX,77356,BALMORAL,,CONTRACTOR,,,,,,,,,,,"ASHTON WOODS HOMES",,,,,"ASHTON WOODS HOMES","10110 W SAM HOUSTON PKWY N",HOUSTON,TX,77064-7508,"(832) 478-9028",,,,
TX,HARRIS,2010060167,"Single Family Homes",11/16/2020,,161400,2690,"31426 WHITCOMBE SUMMIT WAY",HOUSTON,TX,77356,DELLROSE,,CONTRACTOR,,,,,,,,,,,"ASHTON WOODS HOMES",,,,,"ASHTON WOODS HOMES","10110 W SAM HOUSTON PKWY N",HOUSTON,TX,77064-7508,"(832) 478-9028",,,,
TX,HARRIS,2011120088,"Single Family Homes",11/16/2020,,217140,3619,"15642 BELTIE DR",HOUSTON,TX,77356,BALMORAL,,CONTRACTOR,,,,,,,,,,,"ASHTON WOODS HOMES",,,,,"ASHTON WOODS HOMES","10110 W SAM HOUSTON PKWY N",HOUSTON,TX,77064-7508,"(832) 478-9028",,,,
TX,HARRIS,2011210015,"Single Family Homes",11/16/2020,,264005,3979,"15906 TALALA TRL",HOUSTON,TX,77356,"BRIDGELAND PARKLAND VILLAGE",,CONTRACTOR,,,,,,,,,,,"TAYLOR MORRISON OF TEXAS",,,,,"TAYLOR MORRISON OF TEXAS","5353 W SAM HOUSTON PKWY N STE 190",HOUSTON,TX,77041-5186,"(281) 598-3000",,,,
TX,HARRIS,2011210017,"Single Family Homes",11/16/2020,,291005,4781,"19507 PECAN FLATS PL",HOUSTON,TX,77356,"BRIDGELAND PARKLAND VILLAGE",,CONTRACTOR,,,,,,,,,,,"TAYLOR MORRISON OF TEXAS",,,,,"TAYLOR MORRISON OF TEXAS","5353 W SAM HOUSTON PKWY N STE 190",HOUSTON,TX,77041-5186,"(281) 598-3000",,,,
TX,HARRIS,2009240065,"Single Family Homes",11/16/2020,,150000,2500,"8419 UPPERBROOK ST",HOUSTON,TX,77356,WESTBANK,,"CARLOS GOMEZ","8419 UPPERBROOK ST",HOUSTON,TX,77356,,Owner,,,,,OWNER,,,,,OWNER,,,,,,,,,
TX,HARRIS,2011220010,"Single Family Homes",11/16/2020,,250887,3190,"15630 PORCUPINE LN",HOUSTON,TX,77356,"BRIDGELAND PARKLAND VILLAGE",,CONTRACTOR,,,,,,,,,,,"TAYLOR MORRISON OF TEXAS",,,,,"TAYLOR MORRISON OF TEXAS","5353 W SAM HOUSTON PKWY N STE 190",HOUSTON,TX,77041-5186,"(281) 598-3000",,,,
TX,HARRIS,2011220011,"Single Family Homes",11/16/2020,,230441,2150,"9106 ESKESEN DR",HOUSTON,TX,77356,"BRIDGE CREEK",,CONTRACTOR,,,,,,,,,,,"TAYLOR MORRISON OF TEXAS",,,,,"TAYLOR MORRISON OF TEXAS","5353 W SAM HOUSTON PKWY N STE 190",HOUSTON,TX,77041-5186,"(281) 598-3000",,,,
TX,HARRIS,2011220012,"Single Family Homes",11/16/2020,,260114,2956,"9123 BRIXHAM DR",HOUSTON,TX,77356,"BRIDGE CREEK",,CONTRACTOR,,,,,,,,,,,"TAYLOR MORRISON OF TEXAS",,,,,"TAYLOR MORRISON OF TEXAS","5353 W SAM HOUSTON PKWY N STE 190",HOUSTON,TX,77041-5186,"(281) 598-3000",,,,
TX,HARRIS,2011220013,"Single Family Homes",11/16/2020,,242259,2916,"9219 BROWNING RUN DR",HOUSTON,TX,77356,"BRIDGE CREEK",,CONTRACTOR,,,,,,,,,,,"TAYLOR MORRISON OF TEXAS",,,,,"TAYLOR MORRISON OF TEXAS","5353 W SAM HOUSTON PKWY N STE 190",HOUSTON,TX,77041-5186,"(281) 598-3000",,,,
TX,HARRIS,2011180006,"Single Family Homes",11/16/2020,,119210,1834,"24011 HIDEOUT CT",HOUSTON,TX,77356,"BECKER MEADOWS ",,CONTRACTOR,,,,,,,,,,,"LENNAR HOMES",,,,,"LENNAR HOMES","550 GREENS PKWY",HOUSTON,TX,77067-4537,"(281) 875-1000",http://www.lennar.com/,,,
TX,HARRIS,2011180154,"Single Family Homes",11/16/2020,,103740,1598,"24003 HIDEOUT CT",HOUSTON,TX,77356,"BECKER MEADOWS ",,CONTRACTOR,,,,,,,,,,,"LENNAR HOMES",,,,,"LENNAR HOMES","550 GREENS PKWY",HOUSTON,TX,77067-4537,"(281) 875-1000",http://www.lennar.com/,,,
TX,HARRIS,2011180155,"Single Family Homes",11/16/2020,,179335,2759,"24007 HIDEOUT CT",HOUSTON,TX,77356,"BECKER MEADOWS",,CONTRACTOR,,,,,,,,,,,"LENNAR HOMES",,,,,"LENNAR HOMES","550 GREENS PKWY",HOUSTON,TX,77067-4537,"(281) 875-1000",http://www.lennar.com/,,,
TX,HARRIS,2011180158,"Single Family Homes",11/16/2020,,148850,2290,"31423 WHITCOMBE SUMMIT WAY",HOUSTON,TX,77356,DELLROSE,,CONTRACTOR,,,,,,,,,,,"LENNAR HOMES",,,,,"LENNAR HOMES","550 GREENS PKWY",HOUSTON,TX,77067-4537,"(281) 875-1000",http://www.lennar.com/,,,
TX,HARRIS,2011100084,"Single Family Homes",11/16/2020,,170000,1818,"403 COMMONS TRAIL LN",HOUSTON,TX,77356,"COMMONS OF LAKE",,"THERESA DRIVER","403 COMMONS TRAIL LN",HOUSTON,TX,77356,,Owner,,,,,OWNER,,,,,OWNER,,,,,,,,,
TX,HARRIS,2010280007,"Single Family Homes",11/16/2020,,215640,2396,"31250 PINEBROOK FALLS LN",HOUSTON,TX,77356,DELLROSE,,CONTRACTOR,,,,,,,,,,,"EHT OF TEXAS LP",,,,,"EHT OF TEXAS LP","10235 LITTLE",HOUSTON,TX,77040,"(713) 557-3685",,,,
TX,HARRIS,2011130033,"Single Family Homes",11/16/2020,,194940,2166,"15606 BARONIAL CASTLE DR",HOUSTON,TX,77356,BALMORAL,,CONTRACTOR,,,,,,,,,,,"EHT OF TEXAS LP",,,,,"EHT OF TEXAS LP","10235 LITTLE",HOUSTON,TX,77040,"(713) 557-3685",,,,
TX,HARRIS,2011190050,"Single Family Homes",11/16/2020,,174600,1940,"17326 TIDEWATER CYPRESS TRL",HOUSTON,TX,77356,DELLROSE,,CONTRACTOR,,,,,,,,,,,"EHT OF TEXAS LP",,,,,"EHT OF TEXAS LP","10235 LITTLE",HOUSTON,TX,77040,"(713) 557-3685",,,,
TX,HARRIS,2011230061,"Single Family Homes",11/16/2020,,184998,2803,"24427 ARGONNE FOREST DR",HOUSTON,TX,77356,"KATY LAKES",,CONTRACTOR,,,,,,,,,,,"COLINA HOMES",,,,,"COLINA HOMES","1314 N DURHAM DR",HOUSTON,TX,77008-3734,"(281) 528-9090",http://colinahomes.com/,,,postmaster@colinahomes.com
TX,HARRIS,2011230066,"Single Family Homes",11/16/2020,,120186,2445,"24419 WHITE SPRUCE LN",HOUSTON,TX,77356,"KATY LAKES",,CONTRACTOR,,,,,,,,,,,"COLINA HOMES",,,,,"COLINA HOMES","1314 N DURHAM DR",HOUSTON,TX,77008-3734,"(281) 528-9090",http://colinahomes.com/,,,postmaster@colinahomes.com
TX,HARRIS,2011230068,"Single Family Homes",11/16/2020,,184998,2803,"24422 SKYTRAIL DR",HOUSTON,TX,77356,"KATY LAKES",,CONTRACTOR,,,,,,,,,,,"COLINA HOMES",,,,,"COLINA HOMES","1314 N DURHAM DR",HOUSTON,TX,77008-3734,"(281) 528-9090",http://colinahomes.com/,,,postmaster@colinahomes.com
TX,HARRIS,2011230073,"Single Family Homes",11/16/2020,,119856,2397,"24414 ARGONNE FOREST DR",HOUSTON,TX,77356,"KATY LAKES",,CONTRACTOR,,,,,,,,,,,"COLINA HOMES",,,,,"COLINA HOMES","1314 N DURHAM DR",HOUSTON,TX,77008-3734,"(281) 528-9090",http://colinahomes.com/,,,postmaster@colinahomes.com
TX,HARRIS,2011230077,"Single Family Homes",11/16/2020,,158000,3409,"6423 TIMARRON LAKES DR",HOUSTON,TX,77356,"KATY LAKES",,CONTRACTOR,,,,,,,,,,,"COLINA HOMES",,,,,"COLINA HOMES","1314 N DURHAM DR",HOUSTON,TX,77008-3734,"(281) 528-9090",http://colinahomes.com/,,,postmaster@colinahomes.com
TX,HARRIS,2011230079,"Single Family Homes",11/16/2020,,120186,2445,"6319 CANTIGNY LAKE DR",HOUSTON,TX,77356,"KATY LAKES",,CONTRACTOR,,,,,,,,,,,"COLINA HOMES",,,,,"COLINA HOMES","1314 N DURHAM DR",HOUSTON,TX,77008-3734,"(281) 528-9090",http://colinahomes.com/,,,postmaster@colinahomes.com
TX,HARRIS,2011230082,"Single Family Homes",11/16/2020,,158000,3409,"6430 TIBURON LAKES DR",HOUSTON,TX,77356,"KATY LAKES",,CONTRACTOR,,,,,,,,,,,"COLINA HOMES",,,,,"COLINA HOMES","1314 N DURHAM DR",HOUSTON,TX,77008-3734,"(281) 528-9090",http://colinahomes.com/,,,postmaster@colinahomes.com
TX,HARRIS,2011230084,"Single Family Homes",11/16/2020,,158000,3409,"6306 CAMBRAI WOOD LN",HOUSTON,TX,77356,"KATY LAKES",,CONTRACTOR,,,,,,,,,,,"COLINA HOMES",,,,,"COLINA HOMES","1314 N DURHAM DR",HOUSTON,TX,77008-3734,"(281) 528-9090",http://colinahomes.com/,,,postmaster@colinahomes.com
TX,HARRIS,2011230085,"Single Family Homes",11/16/2020,,168000,2527,"6326 CANTIGNY LAKE DR",HOUSTON,TX,77356,"KATY LAKES",,CONTRACTOR,,,,,,,,,,,"COLINA HOMES",,,,,"COLINA HOMES","1314 N DURHAM DR",HOUSTON,TX,77008-3734,"(281) 528-9090",http://colinahomes.com/,,,postmaster@colinahomes.com
TX,HARRIS,2011230177,"Single Family Homes",11/16/2020,,250990,2234,"25415 KIDWILDER DR",HOUSTON,TX,77356,"GROVE LANDING",,CONTRACTOR,,,,,,,,,,,"DAVID WEEKLEY HOMES",,,,,"DAVID WEEKLEY HOMES","14444 NORTHWEST",HOUSTON,TX,77040,"(713) 570-5021",http://www.davidweekleyhomes.com/,,,
TX,HARRIS,2011230080,"Single Family Homes",11/16/2020,,142245,3161,"8311 TAMARIND LN",HOUSTON,TX,77356,"SPRINGFIELD ESTATES",,CONTRACTOR,,,,,,,,,,,"DR HORTON",,,,,"DR HORTON","14100 SOUTHWEST",HOUSTON,TX,77478,"(281) 201-5559",,,,
TX,HARRIS,2011230150,"Single Family Homes",11/16/2020,,122535,2723,"8307 TAMARIND LN",HOUSTON,TX,77356,"SPRINGFIELD ESTATES",,CONTRACTOR,,,,,,,,,,,"DR HORTON",,,,,"DR HORTON","14100 SOUTHWEST",HOUSTON,TX,77478,"(281) 201-5559",,,,
TX,HARRIS,2011230154,"Single Family Homes",11/16/2020,,107460,2388,"8303 TAMARIND LN",HOUSTON,TX,77356,"SPRINGFIELD ESTATES",,CONTRACTOR,,,,,,,,,,,"DR HORTON",,,,,"DR HORTON","14100 SOUTHWEST",HOUSTON,TX,77478,"(281) 201-5559",,,,
TX,HARRIS,2011230158,"Single Family Homes",11/16/2020,,142245,3161,"8247 TAMARIND LN",HOUSTON,TX,77356,"SPRINGFIELD ESTATES",,CONTRACTOR,,,,,,,,,,,"DR HORTON",,,,,"DR HORTON","14100 SOUTHWEST",HOUSTON,TX,77478,"(281) 201-5559",,,,
TX,HARRIS,2011230162,"Single Family Homes",11/16/2020,,112545,2501,"8243 TAMARIND LN",HOUSTON,TX,77356,"SPRINGFIELD ESTATES",,CONTRACTOR,,,,,,,,,,,"DR HORTON",,,,,"DR HORTON","14100 SOUTHWEST",HOUSTON,TX,77478,"(281) 201-5559",,,,
TX,HARRIS,2011230167,"Single Family Homes",11/16/2020,,133695,2971,"8239 TAMARIND LN",HOUSTON,TX,77356,"SPRINGFIELD ESTATES",,CONTRACTOR,,,,,,,,,,,"DR HORTON",,,,,"DR HORTON","14100 SOUTHWEST",HOUSTON,TX,77478,"(281) 201-5559",,,,
TX,HARRIS,2011230170,"Single Family Homes",11/16/2020,,122535,2723,"8235 TAMARIND LN",HOUSTON,TX,77356,"SPRINGFIELD ESTATES",,CONTRACTOR,,,,,,,,,,,"DR HORTON",,,,,"DR HORTON","14100 SOUTHWEST",HOUSTON,TX,77478,"(281) 201-5559",,,,
TX,HARRIS,2011230172,"Single Family Homes",11/16/2020,,103050,2290,"8231 TAMARIND LN",HOUSTON,TX,77356,"SPRINGFIELD ESTATES",,CONTRACTOR,,,,,,,,,,,"DR HORTON",,,,,"DR HORTON","14100 SOUTHWEST",HOUSTON,TX,77478,"(281) 201-5559",,,,
TX,HARRIS,2011170027,"Single Family Homes",11/16/2020,,75000,3243,"14627 LARK SKY WAY",HOUSTON,TX,77356,"TELGE RANCH",,CONTRACTOR,,,,,,,,,,,"LONG LAKE HOMES",,,,,"LONG LAKE HOMES","15915 KATY FWY STE 405",HOUSTON,TX,77094-1710,"(281) 646-1727",http://www.longlakeltd.com/,,"DAVID BIGLER",
TX,HARRIS,2011170028,"Single Family Homes",11/16/2020,,75000,3243,"14626 SYCAMORE SIDE WAY",HOUSTON,TX,77356,"TELGE RANCH",,CONTRACTOR,,,,,,,,,,,"LONG LAKE HOMES",,,,,"LONG LAKE HOMES","15915 KATY FWY STE 405",HOUSTON,TX,77094-1710,"(281) 646-1727",http://www.longlakeltd.com/,,"DAVID BIGLER",
TX,HARRIS,2011170029,"Single Family Homes",11/16/2020,,64000,2177,"14610 SYCAMORE SIDE WAY",HOUSTON,TX,77356,"TELGE RANCH",,CONTRACTOR,,,,,,,,,,,"LONG LAKE HOMES",,,,,"LONG LAKE HOMES","15915 KATY FWY STE 405",HOUSTON,TX,77094-1710,"(281) 646-1727",http://www.longlakeltd.com/,,"DAVID BIGLER",
TX,HARRIS,2011170030,"Single Family Homes",11/16/2020,,72000,3005,"15415 CRATHIE BEND DR",HOUSTON,TX,77356,BALMORAL,,CONTRACTOR,,,,,,,,,,,"LONG LAKE HOMES",,,,,"LONG LAKE HOMES","15915 KATY FWY STE 405",HOUSTON,TX,77094-1710,"(281) 646-1727",http://www.longlakeltd.com/,,"DAVID BIGLER",
TX,HARRIS,2011170031,"Single Family Homes",11/16/2020,,67000,2526,"15126 MONAL TRIE DR",HOUSTON,TX,77356,BALMORAL,,CONTRACTOR,,,,,,,,,,,"LONG LAKE HOMES",,,,,"LONG LAKE HOMES","15915 KATY FWY STE 405",HOUSTON,TX,77094-1710,"(281) 646-1727",http://www.longlakeltd.com/,,"DAVID BIGLER",
TX,HARRIS,2008060070,"Single Family Homes",11/16/2020,,103075,2880,"18626 IMAGINATION WAY",HOUSTON,TX,77356,"BRIDGELAND PARKLAND VILLAGE",,CONTRACTOR,,,,,,,,,,,"DAVID WEEKLEY HOMES",,,,,"DAVID WEEKLEY HOMES","14444 NORTHWEST",HOUSTON,TX,77040,"(713) 570-5021",http://www.davidweekleyhomes.com/,,,
TX,HARRIS,2011170009,"Single Family Homes",11/16/2020,,137431,2664,"31514 KAILUA DR",HOUSTON,TX,77356,"STONE CREEK RANCH",,CONTRACTOR,,,,,,,,,,,"GEHAN HOMES",,,,,"GEHAN HOMES","2050 W SAM HOUSTON PKWY S",HOUSTON,TX,77042-2079,"(713) 243-3545",http://www.gehanhomes.com,,,
TX,HARRIS,2011120140,"Single Family Homes",11/16/2020,,94280,4514,"9503 SANDIA SPRINGS CIR",HOUSTON,TX,77356,"TOWNE LAKE",,CONTRACTOR,,,,,,,,,,,"MHI MCGUYER HOMEBUILDERS",,,,,"MHI MCGUYER HOMEBUILDERS","7676 WOODWAY DR",HOUSTON,TX,77063-1526,"(713) 260-4107",,,,
TX,HARRIS,2011110106,"Single Family Homes",11/16/2020,,363500,2341,"18130 TWILIGHT SHORES LN",HOUSTON,TX,77356,"TOWNE LAKE",,CONTRACTOR,,,,,,,,,,,"CALDWELL HOMES",,,,,"CALDWELL HOMES","18127 TWILIGHT SHORES LN",CYPRESS,TX,77433-7046,"(281) 378-3364",http://caldwellhomes.com/,,,info@caldwellhomes.com
TX,HARRIS,2011120043,"Single Family Homes",11/16/2020,,433500,2655,"10626 HAZEL HILLS DR",HOUSTON,TX,77356,"TOWNE LAKE",,CONTRACTOR,,,,,,,,,,,"CALDWELL HOMES",,,,,"CALDWELL HOMES","18127 TWILIGHT SHORES LN",CYPRESS,TX,77433-7046,"(281) 378-3364",http://caldwellhomes.com/,,,info@caldwellhomes.com
TX,HARRIS,2011180100,"Single Family Homes",11/16/2020,,320000,1936,"12219 CASTANO CREEK DR",HOUSTON,TX,77356,GROVES,,CONTRACTOR,,,,,,,,,,,"HIGHLAND HOMES",,,,,"HIGHLAND HOMES","10930 W SAM HOUSTON PKWY N STE 100",HOUSTON,TX,77064-6331,"(281) 517-9800",,,,
TX,HARRIS,2011110161,"Single Family Homes",11/16/2020,,271425,4935,"31606 LILAC TERRACE LN",HOUSTON,TX,77356,"STONE CREEK RANCH",,CONTRACTOR,,,,,,,,,,,"CASTLEROCK COMMUNITIES",,,,,"CASTLEROCK COMMUNITIES","7670 WOODWAY DR STE 300",HOUSTON,TX,77063-1520,"(713) 600-7000",http://c-rock.com,"(713) 600-0000",,
TX,HARRIS,2010220006,"Single Family Homes",11/16/2020,,380010,4189,"13018 MUSTANG RIVER DR",HOUSTON,TX,77356,BRIDLECREEK,,CONTRACTOR,,,,,,,,,,,"EHT OF TEXAS LP",,,,,"EHT OF TEXAS LP","10235 LITTLE",HOUSTON,TX,77040,"(713) 557-3685",,,,
TX,HARRIS,2009180131,"Warehouse & Manufacturing",11/16/2020,,1294000,17250,"11966 WALTERS RD",HOUSTON,TX,77356,"SPEARS BUSINESS PARK",,"ORKAND STORAGE SYSTEMS","7815 LEGEND COVE CT",HOUSTON,TX,77095,"(832) 876-9815",Applicant,,,,,OWNER,,,,,OWNER,,,,,,,,,
TX,MONTGOMERY,178355-20,"Warehouse & Manufacturing",11/23/2020,Renovation,50000,,"5226 SAPP RD",CONROE,TX,77304,,,CONTRACTOR,,,,,,,,,,,"RUNDUM MEIR OF NORTH AMERICA",,,,,"RUNDUM MEIR OF NORTH AMERICA","214 NORTH LOOP 336 E",CONROE,TX,77301,"(281) 863-9448",,,,
TX,HARRIS,20100839,"Warehouse & Manufacturing",11/17/2020,,3300000,,"2911 PASADENA BLVD",PASADENA,TX,77356,,,CONTRACTOR,,,,,,,,,,,"GRA - GULF COAST CONSTRUCTION",,,,,"GRA - GULF COAST CONSTRUCTION","2400 CENTRAL PKWY STE",HOUSTON,TX,77092,"(713) 934-7797",https://gra-gcc.com/,,"MCCARTHY SCOTT",
TX,HARRIS,19120032,"Warehouse & Manufacturing",12/17/2020,,40000,,"655 YALE ST",HOUSTON,TX,77007,,,"BRETT BARRIER","440 COBIA DR",HOUSTON,TX,77494,"(361) 701-9548",Applicant,,,,,OWNER,,,,,OWNER,,,,,,,,,
TX,HARRIS,20097467,"Warehouse & Manufacturing",12/15/2020,,2222553,,"1440 GREENGRASS",HOUSTON,TX,77008,,,CONTRACTOR,,,,,,,,,,,"SCOTT & REID GENERAL",,,,,"SCOTT & REID GENERAL","5100 WESTHEIMER RD STE 200",HOUSTON,TX,77056-5597,"(469) 374-3400",http://www.scottandreid.com,"(469) 374-0060","PHIL VANDERHILL",email@scottandreid.com
TX,HARRIS,20058023,"Warehouse & Manufacturing",12/17/2020,,160000,,"12017 CARLSBAD ST BLD",HOUSTON,TX,77085,,,"ESHRA VATANI","5700 NW CENTRAL DR STE",HOUSTON,TX,77092,"(713) 291-2780",Applicant,,,,,OWNER,,,,,OWNER,,,,,,,,,
TX,HARRIS,2009040135,"Warehouse & Manufacturing",11/16/2020,,30000000,314748,"22300 NORTHCREST DR",HOUSTON,TX,77356,"NORTHCREST INDUSTRIAL",,"NORTHCREST SPRING STUEBER LTD","22300 NORTHCREST DR",HOUSTON,TX,77356,,Owner,,,,,OWNER,,,,,OWNER,,,,,,,,,
TX,HARRIS,2007230109,"Warehouse & Manufacturing",11/16/2020,,840000,11200,"17903 SHAW RD",HOUSTON,TX,77356,"SHAW STORAGE",,"NORTHPOINT STORAGE","17903 SHAW RD",HOUSTON,TX,77067,,Owner,,,,,OWNER,,,,,OWNER,,,,,,,,,
