state,county,permno,ptype,pdate,pdescription,jvalue,jsqfeet,jaddr,jcity,jstate,jzip,jsubdiv,jlotno,aname,aaddr,acity,astate,azip,aphone,atype,aurl,afax,aprimarycontact,aemail,bldcode,units,bldgs,ctype,legal,contractor,caddress,ccity,cstate,czip,cphone,curl,cfax,cprimarycontact,cemail
TX,BELL,FY-21-48,"Auto Sales & Services",4/16/2021,,1000000,,"1414 MARLANDWOOD RD",TEMPLE,TX,76502,"HILLTOP ESTATES",,CONTRACTOR,,,,,,,,,,,"BRR ARCHITECTURE",,,,,"BRR ARCHITECTURE","6700 ANTIOCH RD STE 300",MERRIAM,KS,66204-1391,"(913) 236-3385",http://www.brrarch.com/,"(913) 262-9044","BOYD RAU",boyd.rau@brrarch.com
TX,BELL,FY-21-22,"Churches & Other Religious",4/16/2021,,190000,,"254 GREEN HOLLOW DR 101",TEMPLE,TX,76502,"VILLAGES OF WESTFIELD",,CONTRACTOR,,,,,,,,,,,"KIELLA HOMEBUILDERS",,,,,"KIELLA HOMEBUILDERS","7462 W ADAMS AVE",TEMPLE,TX,76502-5558,"(254) 778-0092",,,,
TX,BRAZOS,POOL2021-000028,"Commercial Swimming Pool & Spas",4/13/2021,,399800,,"1827 FEATHER RUN","COLLEGE STATION",TX,77845,,,"MISSION RANCH COMMUNITY ASSOCI","1827 FEATHER RUN","COLLEGE STATION",TX,77845,,Owner,,,,,"INVISION POOLS",,,,,"INVISION POOLS","22503 KATY FWY",KATY,TX,77450-1512,"(281) 994-4268",,,"DEREK ODER",
TX,BELL,21-86,"Duplex, Triplex, & Fourplex",4/16/2021,,,2714,"2329 ZANOLETTI CT A",TEMPLE,TX,76502,"PECAN CREEK",,CONTRACTOR,,,,,,,,,,,"FLINTROCK BUILDERS",,,,,"FLINTROCK BUILDERS","105 EAST, FARM TO MARKET 2410","HARKER HEIGHTS",TX,76548,"(254) 393-1412",,,,
TX,BELL,21-87,"Duplex, Triplex, & Fourplex",4/16/2021,,,2714,"2325 ZANOLETTI CT A",TEMPLE,TX,76502,"PECAN CREEK",,CONTRACTOR,,,,,,,,,,,"FLINTROCK BUILDERS",,,,,"FLINTROCK BUILDERS","105 EAST, FARM TO MARKET 2410","HARKER HEIGHTS",TX,76548,"(254) 393-1412",,,,
TX,BELL,21-88,"Duplex, Triplex, & Fourplex",4/16/2021,,,2714,"2321 ZANOLETTI CT A",TEMPLE,TX,76502,"PECAN CREEK",,CONTRACTOR,,,,,,,,,,,"FLINTROCK BUILDERS",,,,,"FLINTROCK BUILDERS","105 EAST, FARM TO MARKET 2410","HARKER HEIGHTS",TX,76548,"(254) 393-1412",,,,
TX,BELL,21-89,"Duplex, Triplex, & Fourplex",4/16/2021,,,3178,"2317 ZANOLETTI CT A",TEMPLE,TX,76502,"PECAN CREEK",,CONTRACTOR,,,,,,,,,,,"FLINTROCK BUILDERS",,,,,"FLINTROCK BUILDERS","105 EAST, FARM TO MARKET 2410","HARKER HEIGHTS",TX,76548,"(254) 393-1412",,,,
TX,HARRIS,20078073,"Duplex, Triplex, & Fourplex",5/28/2021,,149000,,"5411 BRETSHIRE DR",HOUSTON,TX,77016,,,CONTRACTOR,,,,,,,,,,,"ASHLEY GRAYBILL",,,,,"ASHLEY GRAYBILL","14643 DALLAS PKWY STE",HOUSTON,TX,75254,"(469) 225-7633",,,,
TX,HARRIS,21024341,"Duplex, Triplex, & Fourplex",5/28/2021,Renovations,107000,,"1922 ELYSIAN",HOUSTON,TX,77026,,,CONTRACTOR,,,,,,,,,,,"SURFACE INNOVATION SERVICES",,,,,"SURFACE INNOVATION SERVICES","3615 LAUREL",HOUSTON,TX,77388,"(832) 212-3987",https://surfaceinnovationservices.wordpress.com/,,"KAYLA MEDELLIN",contact@surfaceinnovationservices.com
TX,HARRIS,21027513,"Duplex, Triplex, & Fourplex",5/28/2021,,402000,,"3608 LANNISTER",HOUSTON,TX,77055,,,CONTRACTOR,,,,,,,,,,,"TOLL BROTHERS",,,,,"TOLL BROTHERS","10110 W SAM HOUSTON PKWY N STE 350",HOUSTON,TX,77064-7508,"(281) 664-7255",,,,
TX,HARRIS,20072433,"Educational Institution",5/26/2021,Renovations,3046540,,"11300 HARWIN",HOUSTON,TX,77072,,,CONTRACTOR,,,,,,,,,,,PERMIT-EXPEDITERS,,,,,PERMIT-EXPEDITERS,"5868 A1 WESTHEIMER ROAD STE 212",HOUSTON,TX,77057-5641,"(713) 503-7226",http://permit-expediters.com/,"(713) 339-4351","TAMI RACK",p-einc@att.net
TX,BRAZOS,CNEW2020-000020,"Educational Institution",5/6/2021,,560625,,"140 GRAHAM RD","COLLEGE STATION",TX,77845,,,"WOODS & VILLAR INVESTMENT GROU","140 GRAHAM RD","COLLEGE STATION",TX,77845,,Owner,,,,,"JHW CONTRACTORS",,,,,"JHW CONTRACTORS","2114 SOUTHWOOD DR","COLLEGE STATION",TX,77840-4863,"(979) 693-1617",,,,
TX,BELL,FY-21-16,"Hospital & Other Medical",4/16/2021,,1400000,,"235 HILLIARD RD",TEMPLE,TX,78666,,,CONTRACTOR,,,,,,,,,,,"PAUL ARMSTRONG CONSTRUCTION",,,,,"PAUL ARMSTRONG CONSTRUCTION","4111 US HIGHWAY 80 E",MESQUITE,TX,75150-6615,"(972) 285-6711",,,,
TX,BELL,FY-21-44,"Hospital & Other Medical",4/16/2021,,75000,,"2401 S 31ST ST 9",TEMPLE,TX,76502,,,CONTRACTOR,,,,,,,,,,,"KDK GROUP",,,,,"KDK GROUP","1779 WELLS BRANCH PKWY STE 110B",AUSTIN,TX,78728-7022,"(512) 987-8041",,,,
TX,BRAZOS,21-0130,"Hospital & Other Medical",5/7/2021,Renovation,125000,5500,"219 N MAIN ST",BRYAN,TX,77803,,,CONTRACTOR,,,,,,,,,,,"PRECISION DEMOLITION",,,,,"PRECISION DEMOLITION","1125 E STATE HIGHWAY 121",LEWISVILLE,TX,75057-4406,"(972) 434-0800",https://www.precisiondemolition.com,"(972) 434-0803",,Info@precisiondemolition.com
TX,BRAZOS,RMDL2021-000028,"Hospital & Other Medical",4/7/2021,,1050000,344359,"700 SCOTT AND WHITE DR","COLLEGE STATION",TX,77845,,,"SCOTT & WHITE HEALTHCARE","700 SCOTT AND WHITE DR","COLLEGE STATION",TX,77845,,Owner,,,,,"WHITING TURNER CONSTRUCTION",,,,,"WHITING TURNER CONSTRUCTION","13105 NORTHWEST FWY",HOUSTON,TX,77040-6312,"(713) 996-8000",,,,
TX,BRAZOS,RMDL2021-000030,"Hospital & Other Medical",4/14/2021,,152000,1500,"3939 BIOMEDICAL WAY","COLLEGE STATION",TX,77845,,,"FUJIFILM DIOSYNTH BIOTECHNOLOG","3939 BIOMEDICAL WAY","COLLEGE STATION",TX,77845,,Owner,,,,,"A BRUSH ABOVE",,,,,"A BRUSH ABOVE","4400 REGAL OAKS DR","COLLEGE STATION",TX,77845-8805,"(979) 704-3077",http://www.bcsbrush.com/,,,
TX,HARRIS,21033719,"Hospital & Other Medical",5/27/2021,Renovations,180000,,"6100 MAIN",HOUSTON,TX,77005,,,CONTRACTOR,,,,,,,,,,,"B BELL BUILDERS",,,,,"B BELL BUILDERS","104 INDUSTRIAL BLVD STE 100","SUGAR LAND",TX,77478-3287,"(281) 276-1500",http://www.bbellbuilders.com/,"(281) 276-1505","NICK KOTHARI",nkothari@bbellbuilders.com
TX,HARRIS,21019349,"Hospital & Other Medical",5/26/2021,Renovations,1800000,,"6565 FANNIN K2 ST FL",HOUSTON,TX,77002,,,CONTRACTOR,,,,,,,,,,,"SPAWGLASS CONTRACTORS",,,,,"SPAWGLASS CONTRACTORS","13800 WEST RD",HOUSTON,TX,77041-1114,"(281) 970-5300",,,,
TX,HARRIS,21026491,"Hospital & Other Medical",5/26/2021,Renovations,1100000,,"6411 FANNIN ST FL",HOUSTON,TX,77030,,,CONTRACTOR,,,,,,,,,,,"ENDURANCE BUILDERS",,,,,"ENDURANCE BUILDERS","2190 NORTH LOOP W STE 300",HOUSTON,TX,77018-8006,"(832) 623-7351",http://www.endbs.com/,,"BOB FLOWERS",
TX,HARRIS,20032902,"Hospital & Other Medical",5/25/2021,Renovations,206394,,"12141 RICHMOND",HOUSTON,TX,77082,,,"JASON FAIREY","930 14TH ST",HOUSTON,TX,77590,"(281) 808-3830",Applicant,,,,,OWNER,,,,,OWNER,,,,,,,,,
TX,HARRIS,21009603,"Hospital & Other Medical",5/28/2021,,450000,,"6434 W LITTLE YORK RD",HOUSTON,TX,77091,,,"MICHAEL NEWHOUSE","1674 W SAM HOUSTON",HOUSTON,TX,77043,"(281) 830-6697",Applicant,,,,,OWNER,,,,,OWNER,,,,,,,,,
TX,HARRIS,20083101,"Hospital & Other Medical",5/28/2021,,172200,,"4455 N BRAESWOOD BLVD",HOUSTON,TX,77096,,,CONTRACTOR,,,,,,,,,,,"LINEA DESIGN STUDIO",,,,,"LINEA DESIGN STUDIO","2020 RICHMOND AVE. STE. 202",HOUSTON,TX,77098,"(713) 589-2335",,,,
TX,BRAZOS,RMDL2021-000066,"Hospital & Other Medical",5/10/2021,,125000,,"205 BRENTWOOD DR E","COLLEGE STATION",TX,77840,,,"HOPE PREGNANCY CENTERS OF BRAZ","205 BRENTWOOD DR E","COLLEGE STATION",TX,77840,,Owner,,,,,"KEYS & WALSH CONSTRUCTION",,,,,"KEYS & WALSH CONSTRUCTION","12633 STATE HIGHWAY 30","COLLEGE STATION",TX,77845-7736,"(979) 774-3600",http://www.keysandwalsh.com/,"(979) 774-3611",,
TX,BELL,FY-21-17,"Hotel, Motel & Assisted Living",4/16/2021,,300000,,"2704 S 37TH ST",TEMPLE,TX,76504,,,"SISCO OF TURLEY","2704 S 37TH ST",TEMPLE,TX,76504,,Owner,,,,,OWNER,,,,,OWNER,,,,,,,,,
TX,BRAZOS,RMDL2021-000061,"Hotel, Motel & Assisted Living",4/27/2021,,40000,3600,"4094 STATE HIGHWAY 6 S","COLLEGE STATION",TX,77845," SPRINGBROOK",,"FRENCH DOUG","4094 STATE HIGHWAY 6 S","COLLEGE STATION",TX,77845,,Owner,,,,,"STYLECRAFT BUILDERS ",,,,,"STYLECRAFT BUILDERS ","4090 STATE HIGHWAY 6 S","COLLEGE STATION",TX,77845-8962,"(979) 764-9900",,"(979) 690-3069","TANNER BREWSTER",tabrewster@stylecraft-builders.com
TX,BRAZOS,21-1174,"Multi Family Apartments & Condos",5/25/2021,,153820,1803,"301 W 32ST ST #101",BRYAN,TX,77803,,,CONTRACTOR,,,,,,,,,,,"BLUESTONE PARTNERS",,,,,"BLUESTONE PARTNERS","2913 OVERLAND TRAIL #100",SHERMAN,TX,75092,"(903) 813-1415",http://www.bluestone.ws,"(903) 893-2124","JIM CROSS",jimcross@bluestone.ws
TX,BRAZOS,21-1175,"Multi Family Apartments & Condos",5/25/2021,,155034,1838,"301 W 31ST ST #102",BRYAN,TX,77803,"BRYAN ORIGINAL TOWNSITE",3,CONTRACTOR,,,,,,,,,,,"BLUESTONE PARTNERS",,,,,"BLUESTONE PARTNERS","2913 OVERLAND TRAIL #100",SHERMAN,TX,75092,"(903) 813-1415",http://www.bluestone.ws,"(903) 893-2124","JIM CROSS",jimcross@bluestone.ws
TX,BRAZOS,21-1176,"Multi Family Apartments & Condos",5/25/2021,,153820,1838,"301 W 31ST ST #103",BRYAN,TX,77803,"BRYAN ORIGINAL TOWNSITE",5,CONTRACTOR,,,,,,,,,,,"BLUESTONE PARTNERS",,,,,"BLUESTONE PARTNERS","2913 OVERLAND TRAIL #100",SHERMAN,TX,75092,"(903) 813-1415",http://www.bluestone.ws,"(903) 893-2124","JIM CROSS",jimcross@bluestone.ws
TX,BRAZOS,21-1177,"Multi Family Apartments & Condos",5/25/2021,,153034,1838,"301 W 31ST ST #104",BRYAN,TX,77803,"BRYAN ORIGINAL TOWNSITE",7,CONTRACTOR,,,,,,,,,,,"BLUESTONE PARTNERS",,,,,"BLUESTONE PARTNERS","2913 OVERLAND TRAIL #100",SHERMAN,TX,75092,"(903) 813-1415",http://www.bluestone.ws,"(903) 893-2124","JIM CROSS",jimcross@bluestone.ws
TX,BRAZOS,21-1178,"Multi Family Apartments & Condos",5/25/2021,,155034,1838,"301 W 31ST ST #105",BRYAN,TX,77803,"BRYAN ORIGINAL TOWNSITE",9,CONTRACTOR,,,,,,,,,,,"BLUESTONE PARTNERS",,,,,"BLUESTONE PARTNERS","2913 OVERLAND TRAIL #100",SHERMAN,TX,75092,"(903) 813-1415",http://www.bluestone.ws,"(903) 893-2124","JIM CROSS",jimcross@bluestone.ws
TX,BRAZOS,RES2021-000174,"Multi Family Apartments & Condos",4/16/2021,,97380,1311,"3009 MARVEL CT","COLLEGE STATION",TX,77845,,,CONTRACTOR,,,,,,,,,,,"THE BARRACKS CONSTRUCTION GROUP",,,,,"THE BARRACKS CONSTRUCTION GROUP","514 DEACON DR W","COLLEGE STATION",TX,77845-4395,"(979) 693-5000",http://www.barrackstownhomes.com/,"(979) 307-5316",,
TX,BRAZOS,RES2021-000175,"Multi Family Apartments & Condos",4/16/2021,,134620,1820,"3011 MARVEL CT","COLLEGE STATION",TX,77845,,,CONTRACTOR,,,,,,,,,,,"THE BARRACKS CONSTRUCTION GROUP",,,,,"THE BARRACKS CONSTRUCTION GROUP","514 DEACON DR W","COLLEGE STATION",TX,77845-4395,"(979) 693-5000",http://www.barrackstownhomes.com/,"(979) 307-5316",,
TX,BRAZOS,RES2021-000176,"Multi Family Apartments & Condos",4/16/2021,,134620,1820,"3013 MARVEL CT","COLLEGE STATION",TX,77845,BARRACKS,,CONTRACTOR,,,,,,,,,,,"THE BARRACKS CONSTRUCTION GROUP",,,,,"THE BARRACKS CONSTRUCTION GROUP","514 DEACON DR W","COLLEGE STATION",TX,77845-4395,"(979) 693-5000",http://www.barrackstownhomes.com/,"(979) 307-5316",,
TX,BRAZOS,RES2021-000177,"Multi Family Apartments & Condos",4/16/2021,,97380,1311,"3015 MARVEL CT","COLLEGE STATION",TX,77845,BARRACKS,,CONTRACTOR,,,,,,,,,,,"THE BARRACKS CONSTRUCTION GROUP",,,,,"THE BARRACKS CONSTRUCTION GROUP","514 DEACON DR W","COLLEGE STATION",TX,77845-4395,"(979) 693-5000",http://www.barrackstownhomes.com/,"(979) 307-5316",,
TX,BRAZOS,RES2021-000178,"Multi Family Apartments & Condos",4/21/2021,,139620,2024,"3014 MARVEL CT","COLLEGE STATION",TX,77845,BARRACKS,,CONTRACTOR,,,,,,,,,,,"THE BARRACKS CONSTRUCTION GROUP",,,,,"THE BARRACKS CONSTRUCTION GROUP","514 DEACON DR W","COLLEGE STATION",TX,77845-4395,"(979) 693-5000",http://www.barrackstownhomes.com/,"(979) 307-5316",,
TX,BRAZOS,RES2021-000197,"Multi Family Apartments & Condos",4/21/2021,,126604,2042,"3923 YUKON LN","COLLEGE STATION",TX,77845,"BARRON CROSSING",,CONTRACTOR,,,,,,,,,,,"STYLECRAFT BUILDERS ",,,,,"STYLECRAFT BUILDERS ","4090 STATE HIGHWAY 6 S","COLLEGE STATION",TX,77845-8962,"(979) 764-9900",,"(979) 690-3069","TANNER BREWSTER",tabrewster@stylecraft-builders.com
TX,BRAZOS,RES2021-000198,"Multi Family Apartments & Condos",4/21/2021,,115692,1866,"3925 YUKON LN","COLLEGE STATION",TX,77845,"BARRON CROSSING",,CONTRACTOR,,,,,,,,,,,"STYLECRAFT BUILDERS ",,,,,"STYLECRAFT BUILDERS ","4090 STATE HIGHWAY 6 S","COLLEGE STATION",TX,77845-8962,"(979) 764-9900",,"(979) 690-3069","TANNER BREWSTER",tabrewster@stylecraft-builders.com
TX,BRAZOS,RES2021-000199,"Multi Family Apartments & Condos",4/21/2021,,115692,1866,"3927 YUKON LN","COLLEGE STATION",TX,77845,"BARRON CROSSING",,CONTRACTOR,,,,,,,,,,,"STYLECRAFT BUILDERS ",,,,,"STYLECRAFT BUILDERS ","4090 STATE HIGHWAY 6 S","COLLEGE STATION",TX,77845-8962,"(979) 764-9900",,"(979) 690-3069","TANNER BREWSTER",tabrewster@stylecraft-builders.com
TX,BRAZOS,RES2021-000200,"Multi Family Apartments & Condos",4/21/2021,,100068,1614,"3929 YUKON LN","COLLEGE STATION",TX,77845,"BARRON CROSSING",,CONTRACTOR,,,,,,,,,,,"STYLECRAFT BUILDERS ",,,,,"STYLECRAFT BUILDERS ","4090 STATE HIGHWAY 6 S","COLLEGE STATION",TX,77845-8962,"(979) 764-9900",,"(979) 690-3069","TANNER BREWSTER",tabrewster@stylecraft-builders.com
TX,BRAZOS,RES2021-000201,"Multi Family Apartments & Condos",4/21/2021,,100068,1614,"3931 YUKON LN","COLLEGE STATION",TX,77845,"BARRON CROSSING",,CONTRACTOR,,,,,,,,,,,"STYLECRAFT BUILDERS ",,,,,"STYLECRAFT BUILDERS ","4090 STATE HIGHWAY 6 S","COLLEGE STATION",TX,77845-8962,"(979) 764-9900",,"(979) 690-3069","TANNER BREWSTER",tabrewster@stylecraft-builders.com
TX,BRAZOS,RES2021-000202,"Multi Family Apartments & Condos",4/21/2021,,126604,2042,"3933 YUKON LN","COLLEGE STATION",TX,77845,"BARRON CROSSING",,CONTRACTOR,,,,,,,,,,,"STYLECRAFT BUILDERS ",,,,,"STYLECRAFT BUILDERS ","4090 STATE HIGHWAY 6 S","COLLEGE STATION",TX,77845-8962,"(979) 764-9900",,"(979) 690-3069","TANNER BREWSTER",tabrewster@stylecraft-builders.com
TX,BRAZOS,RES2021-000205,"Multi Family Apartments & Condos",4/22/2021,,136998,2322,"809 MINERAL WELLS LN","COLLEGE STATION",TX,77845,MIDTOWN,,CONTRACTOR,,,,,,,,,,,"DR HORTON",,,,,"DR HORTON","14100 SOUTHWEST",HOUSTON,TX,77478,"(281) 201-5559",,,,
TX,BRAZOS,RES2021-000206,"Multi Family Apartments & Condos",4/21/2021,,139620,2024,"3012 MARVEL CT","COLLEGE STATION",TX,77845,BARRACKS,,CONTRACTOR,,,,,,,,,,,"THE BARRACKS CONSTRUCTION GROUP",,,,,"THE BARRACKS CONSTRUCTION GROUP","514 DEACON DR W","COLLEGE STATION",TX,77845-4395,"(979) 693-5000",http://www.barrackstownhomes.com/,"(979) 307-5316",,
TX,BRAZOS,RES2021-000207,"Multi Family Apartments & Condos",4/21/2021,,139620,2024,"3010 MARVEL CT","COLLEGE STATION",TX,77845,BARRACKS,,CONTRACTOR,,,,,,,,,,,"THE BARRACKS CONSTRUCTION GROUP",,,,,"THE BARRACKS CONSTRUCTION GROUP","514 DEACON DR W","COLLEGE STATION",TX,77845-4395,"(979) 693-5000",http://www.barrackstownhomes.com/,"(979) 307-5316",,
TX,BRAZOS,RES2021-000208,"Multi Family Apartments & Condos",4/21/2021,,97380,1311,"3008 MARVEL CT","COLLEGE STATION",TX,77845,BARRACKS,,CONTRACTOR,,,,,,,,,,,"THE BARRACKS CONSTRUCTION GROUP",,,,,"THE BARRACKS CONSTRUCTION GROUP","514 DEACON DR W","COLLEGE STATION",TX,77845-4395,"(979) 693-5000",http://www.barrackstownhomes.com/,"(979) 307-5316",,
TX,BRAZOS,RES2021-000209,"Multi Family Apartments & Condos",4/21/2021,,97380,1311,"3006 MARVEL CT","COLLEGE STATION",TX,77845,,,CONTRACTOR,,,,,,,,,,,"THE BARRACKS CONSTRUCTION GROUP",,,,,"THE BARRACKS CONSTRUCTION GROUP","514 DEACON DR W","COLLEGE STATION",TX,77845-4395,"(979) 693-5000",http://www.barrackstownhomes.com/,"(979) 307-5316",,
TX,BRAZOS,RES2021-000210,"Multi Family Apartments & Condos",4/21/2021,,139620,2024,"3004 MARVEL CT","COLLEGE STATION",TX,77845,BARRACKS,,CONTRACTOR,,,,,,,,,,,"THE BARRACKS CONSTRUCTION GROUP",,,,,"THE BARRACKS CONSTRUCTION GROUP","514 DEACON DR W","COLLEGE STATION",TX,77845-4395,"(979) 693-5000",http://www.barrackstownhomes.com/,"(979) 307-5316",,
TX,BRAZOS,RES2021-000211,"Multi Family Apartments & Condos",4/21/2021,,139620,2024,"3002 MARVEL CT","COLLEGE STATION",TX,77845,BARRACKS,,CONTRACTOR,,,,,,,,,,,"THE BARRACKS CONSTRUCTION GROUP",,,,,"THE BARRACKS CONSTRUCTION GROUP","514 DEACON DR W","COLLEGE STATION",TX,77845-4395,"(979) 693-5000",http://www.barrackstownhomes.com/,"(979) 307-5316",,
TX,BRAZOS,RES2021-000212,"Multi Family Apartments & Condos",4/21/2021,,97380,1311,"3000 MARVEL CT","COLLEGE STATION",TX,77845,,,CONTRACTOR,,,,,,,,,,,"THE BARRACKS CONSTRUCTION GROUP",,,,,"THE BARRACKS CONSTRUCTION GROUP","514 DEACON DR W","COLLEGE STATION",TX,77845-4395,"(979) 693-5000",http://www.barrackstownhomes.com/,"(979) 307-5316",,
TX,HARRIS,21039462,"Multi Family Apartments & Condos",5/25/2021,Renovations,262634,,"101 WESTCOTT ST",HOUSTON,TX,77007,,,"BERNIE & GEORGI DUNN ","101 WESTCOTT ST",HOUSTON,TX,77007,,Owner,,,,,"PE PRICE & ASSOCIATES",,,,,"PE PRICE & ASSOCIATES","4003 PERRY KNOLL CT","SUGAR LAND",TX,77479-5259,"(281) 980-6166",,,"Patrick Price",
TX,BRAZOS,RMDL2021-000076,"Multi Family Apartments & Condos",5/14/2021,,106892,,"300 HOLLEMAN DR E BL 1","COLLEGE STATION",TX,77840,,,CONTRACTOR,,,,,,,,,,,"PRESTIGE GENERAL CONTRACTORS",,,,,"PRESTIGE GENERAL CONTRACTORS","2002 S STEMMONS FWY STE 900","LAKE DALLAS",TX,75065-3648,"(940) 498-2660",,,,
TX,BELL,FY-21-5,"Offices, R&D, & Professional",4/16/2021,,400000,,"354 GREEN HOLLOW DR",TEMPLE,TX,76502,"VILLAGES OF WESTFIELD",,CONTRACTOR,,,,,,,,,,,"LM ARMSTRONG COSTRUCTION",,,,,"LM ARMSTRONG COSTRUCTION","2027 S 61ST ST #112B",TEMPLE,TX,76504,"(254) 913-0461",,,,
TX,BELL,FY-21-19,"Offices, R&D, & Professional",4/16/2021,,80000,,"212 PALOMA DR 110",TEMPLE,TX,76502,"LAKEWOOD PROFESSIONAL",,CONTRACTOR,,,,,,,,,,,"LM ARMSTRONG COSTRUCTION",,,,,"LM ARMSTRONG COSTRUCTION","2027 S 61ST ST #112B",TEMPLE,TX,76504,"(254) 913-0461",,,,
TX,BELL,FY-21-20,"Offices, R&D, & Professional",4/16/2021,,80000,,"212 PALOMA DR 120",TEMPLE,TX,76502,"LAKEWOOD PROFESSIONAL",,CONTRACTOR,,,,,,,,,,,"LM ARMSTRONG COSTRUCTION",,,,,"LM ARMSTRONG COSTRUCTION","2027 S 61ST ST #112B",TEMPLE,TX,76504,"(254) 913-0461",,,,
TX,BELL,FY-21-46,"Offices, R&D, & Professional",4/16/2021,,41215,,"115 N GENERAL BRUCE DR",TEMPLE,TX,76502,,,CONTRACTOR,,,,,,,,,,,"STEVE WILSON & ASSOCIATES",,,,,"STEVE WILSON & ASSOCIATES","13562 CARLOS FIFTH CT","CORPUS CHRISTI",TX,78418-6913,"(361) 425-1846",,,,
TX,BRAZOS,CNEW2021-000005,"Offices, R&D, & Professional",4/13/2021,,7000000,25200,"1150 COPPERFIELD PKWY","COLLEGE STATION",TX,77845,,,"CRESCENT POINTE LTD","1150 COPPERFIELD PKWY","COLLEGE STATION",TX,77845,,Owner,,,,,"GAMMA CONSTRUCTION COMPANY",,,,,"GAMMA CONSTRUCTION COMPANY","2808 JOANEL ST",HOUSTON,TX,77027-5306,"(713) 963-0086",http://www.gammaconst.com/,"(713) 963-0961",,
TX,BRAZOS,CTFO2021-000011,"Offices, R&D, & Professional",4/27/2021,,110000,2200,"4438 STATE HIGHWAY 6 S 203","COLLEGE STATION",TX,77303,,,"CALLAWAY JONES","4438 STATE HIGHWAY 6 S 203","COLLEGE STATION",TX,77303,,Owner,,,,,"BLUESTONE PARTNERS",,,,,"BLUESTONE PARTNERS","2913 OVERLAND TRAIL #100",SHERMAN,TX,75092,"(903) 813-1415",http://www.bluestone.ws,"(903) 893-2124","JIM CROSS",jimcross@bluestone.ws
TX,BRAZOS,CTFO2021-000005,"Offices, R&D, & Professional",4/29/2021,,150000,2244,"4438 STATE HIGHWAY 6 S 301","COLLEGE STATION",TX,77845,"TOWER POINT",,"RYAN LINICK","4438 STATE HIGHWAY 6 S 301","COLLEGE STATION",TX,77845,"(979) 353-6632",Owner,,,,,OWNER,,,,,OWNER,,,,,,,,,
TX,HARRIS,21026674,"Offices, R&D, & Professional",5/25/2021,,90000,,"1301 FANNIN ST FL",HOUSTON,TX,77002,,,CONTRACTOR,,,,,,,,,,,"BASIC BUILDERS",,,,,"BASIC BUILDERS","10118 TALLEY LN",HOUSTON,TX,77041-6130,"(713) 460-3991",http://basicbuildersonline.com/,"(713) 460-3991",,info@basicbuilders.net
TX,HARRIS,21035126,"Offices, R&D, & Professional",5/27/2021,Renovations,586000,,"6002 ROGERDALE RD",HOUSTON,TX,77072,,,CONTRACTOR,,,,,,,,,,,"BYRD INTERIOR CONSTRUCTION",,,,,"BYRD INTERIOR CONSTRUCTION","2123 W GOVERNORS CIR # 100",HOUSTON,TX,77092-8746,"(713) 688-8850",http://www.byrdinterior.com/,,"JOHN BYRD",jbyrd@byrdinterior.com
TX,HARRIS,21046035,"Offices, R&D, & Professional",5/26/2021,Renovations,35000,,"6002 ROGERDALE RD FL",HOUSTON,TX,77072,,,CONTRACTOR,,,,,,,,,,,"BYRD INTERIOR CONSTRUCTION",,,,,"BYRD INTERIOR CONSTRUCTION","2123 W GOVERNORS CIR # 100",HOUSTON,TX,77092-8746,"(713) 688-8850",http://www.byrdinterior.com/,,"JOHN BYRD",jbyrd@byrdinterior.com
TX,HARRIS,21035122,"Offices, R&D, & Professional",5/28/2021,,400000,,"4900 WOODWAY DR FL",HOUSTON,TX,77056,,,CONTRACTOR,,,,,,,,,,,"ENDURANCE BUILDERS",,,,,"ENDURANCE BUILDERS","2190 NORTH LOOP W STE 300",HOUSTON,TX,77018-8006,"(832) 623-7351",http://www.endbs.com/,,"BOB FLOWERS",
TX,HARRIS,21020488,"Offices, R&D, & Professional",5/28/2021,,610000,,"600 N SHEPHERD DR",HOUSTON,TX,77007,,,CONTRACTOR,,,,,,,,,,,"GALLANT BUILDERS",,,,,"GALLANT BUILDERS","6990 PORTWEST DR STE 170",HOUSTON,TX,77024-8088,"(713) 275-9900",https://www.gallantbuilders.com/,"(713) 275-9901",,
TX,HARRIS,21016145,"Offices, R&D, & Professional",5/25/2021,,191114,,"790 WEST SAM HOUSTON NORTH PKY",HOUSTON,TX,77024,,,CONTRACTOR,,,,,,,,,,,"BRANDT CONSTRUCTORS & FACILITY SERVICES",,,,,"BRANDT CONSTRUCTORS & FACILITY SERVICES","4430 PINEMONT DRIVE",HOUSTON,TX,77018,"(713) 581-3874",,,,
TX,HARRIS,21030185,"Offices, R&D, & Professional",5/28/2021,,2864400,,"1801 POST OAK BLVD",HOUSTON,TX,77056,,,CONTRACTOR,,,,,,,,,,,"SCOTT & REID GENERAL",,,,,"SCOTT & REID GENERAL","5100 WESTHEIMER RD STE 200",HOUSTON,TX,77056-5597,"(469) 374-3400",http://www.scottandreid.com,"(469) 374-0060","PHIL VANDERHILL",email@scottandreid.com
TX,HARRIS,21025844,"Offices, R&D, & Professional",5/26/2021,Renovations,593000,,"5075 WESTHEIMER RD",HOUSTON,TX,77002,,,CONTRACTOR,,,,,,,,,,,"THREE GALLERIA OFFICE BUILDING",,,,,"THREE GALLERIA OFFICE BUILDING","5065 WESTHEIMER RD",HOUSTON,TX,77056,"(713) 396-7282",,,,
TX,HARRIS,21008251,"Offices, R&D, & Professional",5/26/2021,Renovations,237811,,"12121 RICHMOND AVE",HOUSTON,TX,77082,,,"DAVID ZEBOLD","12121 RICHMOND AVE",HOUSTON,TX,77082,"(615) 872-1181",Applicant,,,,,OWNER,,,,,OWNER,,,,,,,,,
TX,BRAZOS,CACC2021-000011,"Offices, R&D, & Professional",5/4/2021,,50000,,"1827 FEATHER RUN","COLLEGE STATION",TX,77840,,,"BCS MISSION RANCH, LP","1827 FEATHER RUN","COLLEGE STATION",TX,77840,,Owner,,,,,"CALDWELL COMPANIES",,,,,"CALDWELL COMPANIES","1700 RESEARCH PKWY STE 110","COLLEGE STATION",TX,77845-8815,"(979) 260-7000",http://caldwellcos.com/,,"CLINT COOPER",
TX,BRAZOS,CACC2021-000014,"Offices, R&D, & Professional",5/7/2021,,32725,,"216 HARVEY RD","COLLEGE STATION",TX,77845,,,"SHADE STRUCTURE","216 HARVEY RD","COLLEGE STATION",TX,77845,,Owner,,,,,"LONE STAR PATIO BUILDERS ",,,,,"LONE STAR PATIO BUILDERS ","16000 STUEBNER AIRLINE RD STE 500",SPRING,TX,77379-7363,"(281) 773-1255",http://www.asklonestar.com/,,"BRIAN SONNIER",brians@asklonestar.com
TX,BRAZOS,CNEW2021-000009,"Offices, R&D, & Professional",5/13/2021,,300000,,"4156 STATE HIGHWAY 6 S","COLLEGE STATION",TX,77845,,,CONTRACTOR,,,,,,,,,,,"JHW CONTRACTORS",,,,,"JHW CONTRACTORS","2114 SOUTHWOOD DR","COLLEGE STATION",TX,77840-4863,"(979) 693-1617",,,,
TX,BRAZOS,RMDL2021-000046,"Offices, R&D, & Professional",5/12/2021,,1200000,,"1505 OLYMPIA WAY","COLLEGE STATION",TX,77845,,,"ALPHA CHI OMEGA NATIONAL HOUSING CORPORATION","1505 OLYMPIA WAY","COLLEGE STATION",TX,77845,,Owner,,,,,"SPRING VALLEY CONSTRUCTION",,,,,"SPRING VALLEY CONSTRUCTION","10950 ALDER CIR",DALLAS,TX,75238-1353,"(214) 340-9800",http://www.svcc.biz/,"(214) 340-9100",,visions@svcc.biz
TX,MONTGOMERY,"183326 21","Offices, R&D, & Professional",4/26/2021,,268000,,"4026 PINEHURST MEADOW",HOUSTON,TX,77356,"HIGH MEADOW INDUSTRIAL PARK",,CONTRACTOR,,,,,,,,,,,"THE RICH MYERS TEAM﻿",,,,,"THE RICH MYERS TEAM﻿","15234 BEISERT CIR",MAGNOLIA,TX,77355,"(281) 330-9155",,,,
TX,BELL,21-6,"Other Commercial",4/16/2021,,750000,,"212 PALOMA DR",TEMPLE,TX,76502,LAKEWOOD,,CONTRACTOR,,,,,,,,,,,"LM ARMSTRONG COSTRUCTION",,,,,"LM ARMSTRONG COSTRUCTION","2027 S 61ST ST #112B",TEMPLE,TX,76504,"(254) 913-0461",,,,
TX,BELL,FY-21-7-BDNS,"Other Commercial",4/16/2021,,900000,7215,"5709 W ADAMS AVE",TEMPLE,TX,76502,,,"GARCIA OF NEAL ARCHITECTURAL","5709 W ADAMS AVE",TEMPLE,TX,76502,,Applicant,,,,,OWNER,,,,,OWNER,,,,,,,,,
TX,BRAZOS,21-0625,"Other Commercial",5/28/2021,,180000,,"2609 E 29TH ST",BRYAN,TX,77802,,,CONTRACTOR,,,,,,,,,,,"CREATE CONSTRUCTION",,,,,"CREATE CONSTRUCTION","210 N DWIGHT AVE",DALLAS,TX,75211,"(214) 664-8589",,,,
TX,BRAZOS,RMDL2021-000054,"Other Commercial",4/14/2021,,48500,14923,"2408 TEXAS AVE S A","COLLEGE STATION",TX,77845,,,"EDIFIS PARKWAY LTD","2408 TEXAS AVE S A","COLLEGE STATION",TX,77845,,Owner,,,,,"B L WOODS CONSTRUCTION INC.",,,,,"B L WOODS CONSTRUCTION INC.","1825 S DIVISION AVE",ORLANDO,FL,32805-4729,"(402) 841-6157",http://consstruct.com/,"(402) 841-6158","BRENT WOODS",
TX,BRAZOS,CSHL2020-000010,"Other Commercial",5/7/2021,,150000,,"1421 WELLBORN RD","COLLEGE STATION",TX,77845,,,CONTRACTOR,,,,,,,,,,,JACODY,,,,,JACODY,"10770 STATE HIGHWAY 30 STE 40","COLLEGE STATION",TX,77845-7939,"(979) 774-5613",,,"CODY MCKEAN",
TX,BRAZOS,RACC2021-000009,"Other Residential",4/13/2021,,50000,,"1311 LEACREST DR","COLLEGE STATION",TX,77845,,,CONTRACTOR,,,,,,,,,,,"BLUESTONE PARTNERS",,,,,"BLUESTONE PARTNERS","2913 OVERLAND TRAIL #100",SHERMAN,TX,75092,"(903) 813-1415",http://www.bluestone.ws,"(903) 893-2124","JIM CROSS",jimcross@bluestone.ws
TX,BRAZOS,CTFO2021-000007,"Parks, Recreation, Entertainment, & RV Park",5/4/2021,,425000,,"777 GRAHAM RD 201","COLLEGE STATION",TX,77845,,,CONTRACTOR,,,,,,,,,,,"CRT GC INC",,,,,"CRT GC INC","4519 MILLS PARK CIR STE 300","COLLEGE STATION",TX,77845-1109,"(979) 267-5046",,,,
TX,BRAZOS,RACC2021-000011,"Residential Garages & Carports",4/14/2021,,66700,,"11736 SPANISH OAK CT","COLLEGE STATION",TX,77845,,,"EVERTS STEVE & TERESA","11736 SPANISH OAK CT","COLLEGE STATION",TX,77845,,Owner,,,,,"SUNSET HOMES",,,,,"SUNSET HOMES","3946 ARBOLEDA DR","COLLEGE STATION",TX,77845-5065,"(979) 680-1033",,,"JOHN ALBERNAZ",
TX,HARRIS,21005763,"Residential Garages & Carports",5/26/2021,,50000,,"1245 WAVERLY",HOUSTON,TX,77008,,,"EVAN KEIFER","1245 WAVERLY",HOUSTON,TX,77008,,Owner,,,,,OWNER,,,,,OWNER,,,,,,,,,
TX,HARRIS,20093209,"Residential Garages & Carports",5/25/2021,Renovations,35000,,"1503 CARIBE",HOUSTON,TX,77047,,,"VICTORIO PALACIOS","1503 CARIBE",HOUSTON,TX,77047,,Owner,,,,,OWNER,,,,,OWNER,,,,,,,,,
TX,BELL,FY-21-129,"Residential Renovations & Additions",4/16/2021,Renovations,,12146,"2015 S 7TH ST",TEMPLE,TX,76502,,,"LAURA  OF CALHOUN","2015 S 7TH ST",TEMPLE,TX,76502,,Owner,,,,,OWNER,,,,,OWNER,,,,,,,,,
TX,BELL,FY-21-130,"Residential Renovations & Additions",4/16/2021,Renovations,,3693,"5989 BUGGY RIDE RD",TEMPLE,TX,76502,,,"RENEWAL BY ANDERSON","5989 BUGGY RIDE RD",TEMPLE,TX,76502,,Applicant,,,,,OWNER,,,,,OWNER,,,,,,,,,
TX,BRAZOS,21-1485,"Residential Renovations & Additions",5/3/2021,Renovation,165000,3241,"3501 SPRING LN",BRYAN,TX,77802,"PARKWAY TERRACE",,"JACOB & JOYCE KIDD","3501 SPRING LN",BRYAN,TX,77802,,Owner,,,,,"GERARD CONSTRUCTION",,,,,"GERARD CONSTRUCTION","13002 LYNN HAVEN",HOUSTON,TX,77429,"(713) 681-6782",,,,
TX,BRAZOS,21-1368,"Residential Renovations & Additions",5/5/2021,Renovation,80000,1586,"4001 ASPEN ST",BRYAN,TX,77801,,,"KATHLEEN & PETER CLARK","4001 ASPEN ST",BRYAN,TX,77801,,Owner,,,,,"ANDEL CONSTRUCTION",,,,,"ANDEL CONSTRUCTION","8251 W STATE HIGHWAY 21",BRYAN,TX,77807,"(214) 499-7066",,,,
TX,BRAZOS,21-1871,"Residential Renovations & Additions",5/7/2021,Renovation,31832,,"3011 HICKORTY RIDGE CIR",BRYAN,TX,77807,TRADITIONS,,"JOHN & HELEN BINKS","3011 HICKORTY RIDGE CIR",BRYAN,TX,77807,,Owner,,,,,"CR SYSTEMS",,,,,"CR SYSTEMS","1809 GROESBECK ST",BRYAN,TX,77803-4419,"(979) 280-0767",https://crsystemsinc.com/,,,office@crsystemsinc.com
TX,BRAZOS,21-1062,"Residential Renovations & Additions",5/10/2021,Renovation,62000,1195,"1603 CARVER ST",BRYAN,TX,77803,BROADWAY,,CONTRACTOR,,,,,,,,,,,"REMODELING BCS",,,,,"REMODELING BCS","3100 TEXAS AVE SOUTH","COLLEGE STATION",TX,77845,"(979) 200-3335",https://remodelingbcs.com/,,,
TX,BRAZOS,21-1956,"Residential Renovations & Additions",5/12/2021,Renovation,31698,,"3603 DORCHESTER CT",BRYAN,TX,77802,,,"DON & TANYA HACKNEY","3603 DORCHESTER CT",BRYAN,TX,77802,,Owner,,,,,"ALL ROOFING AND REMODELING",,,,,"ALL ROOFING AND REMODELING","4750 FARM TO MARKET 2920 SUITE 503",SPRING,TX,77388,"(832) 698-2101",,,,
TX,BRAZOS,21-2194,"Residential Renovations & Additions",5/24/2021,Renovation,33399,,"2518 WESTWOOD MAIN DR",BRYAN,TX,77807,"LA BRISA",,"JOACHIM BENGS","2518 WESTWOOD MAIN DR",BRYAN,TX,77807,,Owner,,,,,"ERNIE SMITH & SONS ROOFING",,,,,"ERNIE SMITH & SONS ROOFING","19422B HWY 6",MANVEL,TX,77578,"(281) 245-0700",,,,
TX,BRAZOS,21-2255,"Residential Renovations & Additions",5/25/2021,Renovation,59000,,"118 S BRYAN AVE",BRYAN,TX,77803,"BRYAN ORIGINAL TOWNSITE",,CONTRACTOR,,,,,,,,,,,"FINAL TOUCH ROOFING",,,,,"FINAL TOUCH ROOFING","2518 1ST ST",ROSENBERG,TX,77471,"(281) 341-5779",,,,
TX,BRAZOS,RMDL2021-000040,"Residential Renovations & Additions",4/5/2021,Renovations,45000,3548,"1115 LANGFORD ST","COLLEGE STATION",TX,77845,KNOLL,,"RUMBACH ANDREW & NATALIE FRANZ","1115 LANGFORD ST","COLLEGE STATION",TX,77845,,Owner,,,,,"CAPITAL CONSTRUCTION SERVICES",,,,,"CAPITAL CONSTRUCTION SERVICES","100 E WHITESTONE BLVD STE 148-302","CEDAR PARK",TX,78613-1904,"(512) 291-5007",http://www.capitalbuild.com/,,,
TX,BRAZOS,RMDL2021-000044,"Residential Renovations & Additions",4/5/2021,Renovations,30000,,"102 STERLING ST A","COLLEGE STATION",TX,77845,"MARIN ACRES",,"F D SCHMITZ PROPERTIES","102 STERLING ST A","COLLEGE STATION",TX,77845,,Owner,,,,,"CROWLEY CUSTOM HOMES",,,,,"CROWLEY CUSTOM HOMES","543 WILLIAM D FITCH PKWY STE 115","COLLEGE STATION",TX,77845-6142,"(979) 777-0285",http://www.crowleyconstructioninc.com/,"(866) 351-6031","ROBERT CROWLEY",robert@crowleyconstructioninc.com
TX,BRAZOS,RMDL2021-000045,"Residential Renovations & Additions",4/5/2021,Renovations,30000,400,"102 STERLING ST B","COLLEGE STATION",TX,77845,"MARIN ACRES",,"F D SCHMITZ PROPERTIES LLC","102 STERLING ST B","COLLEGE STATION",TX,77845,,Owner,,,,,"CROWLEY CUSTOM HOMES",,,,,"CROWLEY CUSTOM HOMES","543 WILLIAM D FITCH PKWY STE 115","COLLEGE STATION",TX,77845-6142,"(979) 777-0285",http://www.crowleyconstructioninc.com/,"(866) 351-6031","ROBERT CROWLEY",robert@crowleyconstructioninc.com
TX,BRAZOS,RADD2021-000005,"Residential Renovations & Additions",4/6/2021,Renovations,50000,,"1310 LEACREST DR","COLLEGE STATION",TX,77845,LEACREST,,"LORRAINE & JACOB MADEWELL","1310 LEACREST DR","COLLEGE STATION",TX,77845,,Owner,,,,,OWNER,,,,,OWNER,,,,,,,,,
TX,BRAZOS,STRM2021-000008,"Residential Renovations & Additions",4/7/2021,Renovations,36000,,"2333 TRACE MEADOWS","COLLEGE STATION",TX,77845,,,"PAUL TANNEHILL","2333 TRACE MEADOWS","COLLEGE STATION",TX,77845,,Owner,,,,,"CORNERSTONE COMMERCIAL",,,,,"CORNERSTONE COMMERCIAL","6323 RINCON WAY",DALLAS,TX,75214-2040,"(469) 951-9497",,,,
TX,BRAZOS,RMDL2021-000052,"Residential Renovations & Additions",4/12/2021,Renovations,50000,2200,"407 CHIMNEY HILL DR","COLLEGE STATION",TX,77845,,,"MICHAEL & SHANNON HALFORD","407 CHIMNEY HILL DR","COLLEGE STATION",TX,77845,,Owner,,,,,OWNER,,,,,OWNER,,,,,,,,,
TX,BRAZOS,RMDL2021-000056,"Residential Renovations & Additions",4/26/2021,Renovations,138000,,"5205 BANDON DUNES CT","COLLEGE STATION",TX,77845,,,"PARRISH BLAKE E & KATELIN E","5205 BANDON DUNES CT","COLLEGE STATION",TX,77845,,Owner,,,,,"CROWLEY CUSTOM HOMES",,,,,"CROWLEY CUSTOM HOMES","543 WILLIAM D FITCH PKWY STE 115","COLLEGE STATION",TX,77845-6142,"(979) 777-0285",http://www.crowleyconstructioninc.com/,"(866) 351-6031","ROBERT CROWLEY",robert@crowleyconstructioninc.com
TX,BRAZOS,RMDL2021-000058,"Residential Renovations & Additions",4/30/2021,Renovations,200000,4395,"5308 JUPITER HILLS CT","COLLEGE STATION",TX,77845,,,"DEREK C & KATHRYN STOGNER","5308 JUPITER HILLS CT","COLLEGE STATION",TX,77845,,Owner,,,,,"KD HOMEBUILDERS",,,,,"KD HOMEBUILDERS","3010 E VILLA MARIA RD",BRYAN,TX,77803-5015,"(979) 774-4571",http://www.kdhomebuilders.com/,"(979) 776-2746",,kdhomebuilders@verizon.net
TX,HARRIS,21029228,"Residential Renovations & Additions",5/26/2021,Addition,65779,,"8418 COOKWOOD",HOUSTON,TX,77072,,,"ARMANDO ALVARADO","8418 COOKWOOD",HOUSTON,TX,77072,,Owner,,,,,"JUSTIN MERKEY",,,,,"JUSTIN MERKEY","6999 LITTLE YORK",HOUSTON,TX,77040,"(832) 798-6353",,,,
TX,HARRIS,21041292,"Residential Renovations & Additions",5/27/2021,Addition,48245,,"12534 N GARDEN",HOUSTON,TX,77071,,,"SHASKYIA BEHN","12534 N GARDEN",HOUSTON,TX,77071,,Owner,,,,,"ERICA FORD",,,,,"ERICA FORD","525 W BASELINE",HOUSTON,TX,85210,"(480) 226-6769",,,,
TX,HARRIS,21036606,"Residential Renovations & Additions",5/25/2021,Addition,90048,,"14235 KELLYWOOD",HOUSTON,TX,77079,,,"CHRIS BENA","14235 KELLYWOOD",HOUSTON,TX,77079,,Owner,,,,,OWNER,,,,,OWNER,,,,,,,,,
TX,HARRIS,21028334,"Residential Renovations & Additions",5/29/2021,Addition,300000,,"2419 LAKE VILLAGE",HOUSTON,TX,77339,,,"MICAJAH BOATRIGHT","2419 LAKE VILLAGE",HOUSTON,TX,77339,,Owner,,,,,"STUDIO H&H ARCHITECTS",,,,,"STUDIO H&H ARCHITECTS","3 GLOWING STAR PLACE",SPRING,TX,77382,"(832) 724-9726",,,,
TX,HARRIS,21024976,"Residential Renovations & Additions",5/26/2021,Addition,44366,,"4610 N RIPPLE RIDGE",HOUSTON,TX,77053,,,"VERDIA BOYCE","4610 N RIPPLE RIDGE",HOUSTON,TX,77053,,Owner,,,,,"ERICA FORD",,,,,"ERICA FORD","525 W BASELINE",HOUSTON,TX,85210,"(480) 226-6769",,,,
TX,HARRIS,21044143,"Residential Renovations & Additions",5/27/2021,Addition,49765,,"1943 RUNNING SPRINGS",HOUSTON,TX,77339,,,"WALDROUP BRIAN","1943 RUNNING SPRINGS",HOUSTON,TX,77339,,Owner,,,,,"AHMAD BARAKAT ",,,,,"AHMAD BARAKAT ","559 COUNTRY CLUB DR","SIMI VALLEY",CA,93065-0640,"(805) 298-3016",,,,barakat4re@gmail.com
TX,HARRIS,21039102,"Residential Renovations & Additions",5/25/2021,Addition,51336,,"5002 HICKORY GREEN",HOUSTON,TX,77339,,,"BURTON DON & LISA","5002 HICKORY GREEN",HOUSTON,TX,77339,,Owner,,,,,"ARTISTRY OUTDOORS",,,,,"ARTISTRY OUTDOORS","15214 CHESTNUT FALLS DR",CYPRESS,TX,77433-5622,"(713) 827-0530",,,,
TX,HARRIS,21040380,"Residential Renovations & Additions",5/25/2021,Addition,31875,,"13202 JAMES TERRACE",HOUSTON,TX,77059,,,CONTRACTOR,,,,,,,,,,,"MATTHEW FRANZ",,,,,"MATTHEW FRANZ","9007 TUSCANY WAY",AUSTIN,TX,78754,"(619) 405-5936",,,,
TX,HARRIS,21033514,"Residential Renovations & Additions",5/28/2021,Renovations,40000,,"7807 MEADOWBRIAR",HOUSTON,TX,77063,,,"EDIS HOBSON","16239 CASCADE",HOUSTON,TX,77044,"(832) 628-0203",Applicant,,,,,OWNER,,,,,OWNER,,,,,,,,,
TX,HARRIS,21036819,"Residential Renovations & Additions",5/26/2021,Addition,100000,,"13926 MYRTLEA",HOUSTON,TX,77079,,,"CHARLES CENTANNI","13926 MYRTLEA",HOUSTON,TX,77079,,Owner,,,,,"REALTEX CUSTOM HOMES",,,,,"REALTEX CUSTOM HOMES","14027 MEMORIAL DR",HOUSTON,TX,77079,"(281) 531-8822",https://www.realexcustomhomes.com/,,"NICHOLAS PETERS",
TX,HARRIS,21029070,"Residential Renovations & Additions",5/27/2021,Addition,75000,,"13807 PERTHSHIRE",HOUSTON,TX,77079,,,"DEUTSCH JENNIFER","13807 PERTHSHIRE",HOUSTON,TX,77079,,Owner,,,,,OWNER,,,,,OWNER,,,,,,,,,
TX,HARRIS,21044789,"Residential Renovations & Additions",5/28/2021,Renovations,45595,,"5243 CHEENA",HOUSTON,TX,77096,,,"KEITH DIAS","5243 CHEENA",HOUSTON,TX,77096,,Owner,,,,,"3D REMODELING",,,,,"3D REMODELING","11288 STATE HWY 36",TEMPLE,TX,76502,"(254) 718-2018",,,,
TX,HARRIS,21034261,"Residential Renovations & Additions",5/25/2021,Renovations,35000,,"1920 W LAMAR",HOUSTON,TX,77019,,,"LANDRY GREGORY","1920 W LAMAR",HOUSTON,TX,77019,,Owner,,,,,"ASL CONSTRUCTION",,,,,"ASL CONSTRUCTION","6011 CALDICOTE STREET",HUMBLE,TX,77346,"(281) 924-5138",,,,
TX,HARRIS,21031800,"Residential Renovations & Additions",5/27/2021,Addition,30000,,"3830 ECHO MOUNTAIN",HOUSTON,TX,77345,,,"JEREMY HUDSON","3830 ECHO MOUNTAIN",HOUSTON,TX,77345,,Owner,,,,,"BILLY PARKER EXTERIORS",,,,,"BILLY PARKER EXTERIORS","5218 WALNUT",HOUSTON,TX,77345,"(832) 722-5964",,,,
TX,HARRIS,21031802,"Residential Renovations & Additions",5/27/2021,Addition,30000,,"3218 PARKDALE",HOUSTON,TX,77339,,,"KIBLER BILL","3218 PARKDALE",HOUSTON,TX,77339,,Owner,,,,,"BILLY PARKER EXTERIORS",,,,,"BILLY PARKER EXTERIORS","5218 WALNUT",HOUSTON,TX,77345,"(832) 722-5964",,,,
TX,HARRIS,21039595,"Residential Renovations & Additions",5/25/2021,Addition,70000,,"2203 ADDISON",HOUSTON,TX,77030,,,"TEDD & JENNIFER LITTON","2203 ADDISON",HOUSTON,TX,77030,,Owner,,,,,"THE POOL MAN",,,,,"THE POOL MAN","19111 CYPRESS ROSE",HOUSTON,TX,77377,"(713) 781-0760",http://www.poolmaninc.com,,,
TX,HARRIS,20103361,"Residential Renovations & Additions",5/28/2021,Addition,30000,,"1003 S COMMONS VIEW",HOUSTON,TX,77336,,,"ROCCO LOCASO","1003 S COMMONS VIEW",HOUSTON,TX,77336,"(713) 634-8255",Owner,,,,,OWNER,,,,,OWNER,,,,,,,,,
TX,HARRIS,21039918,"Residential Renovations & Additions",5/29/2021,Addition,57363,,"8134 LINDA VISTA",HOUSTON,TX,77028,,,"OCTAVIO MANDUJANO","8134 LINDA VISTA",HOUSTON,TX,77028,,Owner,,,,,"OC PLANS & PERMITS",,,,,"OC PLANS & PERMITS","525 N SAM HOUSTON PKWY E",HOUSTON,TX,77060-4037,"(281) 570-7270",,,,
TX,HARRIS,21023874,"Residential Renovations & Additions",5/25/2021,Addition,175000,,"107 MUNFORD",HOUSTON,TX,77008,,,"DONALD ALONGI","107 MUNFORD",HOUSTON,TX,77008,,Owner,,,,,OWNER,,,,,OWNER,,,,,,,,,
TX,HARRIS,21015722,"Residential Renovations & Additions",5/25/2021,Renovations,40000,,"8537 PANATELLA",HOUSTON,TX,77055,,,"EASLEY PEYTON","8537 PANATELLA",HOUSTON,TX,77055,,Owner,,,,,OWNER,,,,,OWNER,,,,,,,,,
TX,HARRIS,21046402,"Residential Renovations & Additions",5/28/2021,Renovations,39259,,"353 N POST OAK LN",HOUSTON,TX,77024,,,POLOA,"353 N POST OAK LN",HOUSTON,TX,77024,,Owner,,,,,"WORLDWIDE CONTRACTING AND ROOFING",,,,,"WORLDWIDE CONTRACTING AND ROOFING","8727 PAGEWOOD LANE",HOUSTON,TX,77063,"(713) 417-7512",,,,
TX,HARRIS,21039447,"Residential Renovations & Additions",5/27/2021,Renovations,140000,,"1182 CHAMBOARD",HOUSTON,TX,77018,,,"LUKE REILLY","1182 CHAMBOARD",HOUSTON,TX,77018,,Owner,,,,,"MAX CONSTRUCTION",,,,,"MAX CONSTRUCTION","3530 ELMRIDGE ST",HOUSTON,TX,77025-4112,"(713) 240-0523",,,,
TX,HARRIS,21033284,"Residential Renovations & Additions",5/28/2021,Addition,80000,,"3418 OAKDALE",HOUSTON,TX,77004,,,"GREGORY RICHARD","3418 OAKDALE",HOUSTON,TX,77004,,Owner,,,,,"AVALON SUITES",,,,,"AVALON SUITES","5850 SAN FELIPE ST",HOUSTON,TX,77057,"(713) 400-7800",https://avalon-suites.com/,,,
TX,HARRIS,21040602,"Residential Renovations & Additions",5/25/2021,Addition,53296,,"11407 GONDOLA",HOUSTON,TX,77477,,,"SHERI SHOEMAKE","11407 GONDOLA",HOUSTON,TX,77477,,Owner,,,,,"MARC JONES CONSTRUCTION",,,,,"MARC JONES CONSTRUCTION","12011 DENTON DR",DALLAS,TX,75234-7211,"(832) 778-4911",,,,
TX,HARRIS,20075453,"Residential Renovations & Additions",5/25/2021,Addition,56185,,"801 HOLLY RIDGE",HOUSTON,TX,77024,,,"YUNAN YANG","801 HOLLY RIDGE",HOUSTON,TX,77024,,Owner,,,,,OWNER,,,,,OWNER,,,,,,,,,
TX,BRAZOS,RMDL2021-000057,"Residential Renovations & Additions",5/3/2021,Renovations,125000,,"1005 MUIRFIELD VILLAGE","COLLEGE STATION",TX,77845,,,"WILLIFORD CONNER RYNE & JENNIF","1005 MUIRFIELD VILLAGE","COLLEGE STATION",TX,77845,,Owner,,,,,"CROWLEY CUSTOM HOMES",,,,,"CROWLEY CUSTOM HOMES","543 WILLIAM D FITCH PKWY STE 115","COLLEGE STATION",TX,77845-6142,"(979) 777-0285",http://www.crowleyconstructioninc.com/,"(866) 351-6031","ROBERT CROWLEY",robert@crowleyconstructioninc.com
TX,BRAZOS,RMDL2021-000064,"Residential Renovations & Additions",5/3/2021,Renovations,117000,,"700 LEE AVE","COLLEGE STATION",TX,77840,WOODSON,,HENKHAUS,"700 LEE AVE","COLLEGE STATION",TX,77840,,Owner,,,,,"CROWLEY CUSTOM HOMES",,,,,"CROWLEY CUSTOM HOMES","543 WILLIAM D FITCH PKWY STE 115","COLLEGE STATION",TX,77845-6142,"(979) 777-0285",http://www.crowleyconstructioninc.com/,"(866) 351-6031","ROBERT CROWLEY",robert@crowleyconstructioninc.com
TX,BRAZOS,RES2021-000233,"Residential Renovations & Additions",5/4/2021,Renovations,156054,,"6315 ROCKFORD DR","COLLEGE STATION",TX,77845,"SOUTHERN POINTE",,CONTRACTOR,,,,,,,,,,,"STYLECRAFT BUILDERS ",,,,,"STYLECRAFT BUILDERS ","4090 STATE HIGHWAY 6 S","COLLEGE STATION",TX,77845-8962,"(979) 764-9900",,"(979) 690-3069","TANNER BREWSTER",tabrewster@stylecraft-builders.com
TX,BRAZOS,RMDL2021-000084,"Residential Renovations & Additions",5/17/2021,Renovations,30000,,"6013 AUGUSTA CIR","COLLEGE STATION",TX,77840,PEBBLE,,"KAREN BRADSHAW","6013 AUGUSTA CIR","COLLEGE STATION",TX,77840,,Owner,,,,,"ELLIS CUSTOM HOMES",,,,,"ELLIS CUSTOM HOMES","101 GROVE ST","COLLEGE STATION",TX,77840-2836,"(979) 695-8394",http://www.elliscustomhomes.com,"(979) 764-7999",,
TX,BELL,FY-21-45,"Residential Swimming Pools & Spas",4/16/2021,,,,"1009 SPRING TERRACE LOOP",TEMPLE,TX,76502,"WESTFIELD DEVELOPMENT",,"TONY FEDERER","1009 SPRING TERRACE LOOP",TEMPLE,TX,76502,,Applicant,,,,,OWNER,,,,,OWNER,,,,,,,,,
TX,BELL,21-46,"Residential Swimming Pools & Spas",4/16/2021,,50000,,"1309 N 9TH ST",TEMPLE,TX,76502,,,"BRYCE & CASSANDRA  ALLEN","1309 N 9TH ST",TEMPLE,TX,76502,,Owner,,,,,POOL-OLOGY,,,,,POOL-OLOGY,"127 LACEY LOU LN",SALADO,TX,76571,"(844) 336-7665",https://www.pool-ology.com/,,,
TX,BELL,FY-21-47,"Residential Swimming Pools & Spas",4/16/2021,,55438,,"2514 SPOTTED DOVE DR",TEMPLE,TX,76502,,,"THOMAS & ALLISON STOJANOWSKI","2514 SPOTTED DOVE DR",TEMPLE,TX,76502,,Owner,,,,,"MAXIMUS POOLS",,,,,"MAXIMUS POOLS","608 S MAIN ST",BELTON,TX,76513-3464,"(254) 613-4436",http://www.maximuspools.com/,,,info@maximuspools.com
TX,BELL,FY-21-48-POOL,"Residential Swimming Pools & Spas",4/16/2021,,40000,,"4319 SUNFLOWER LN",TEMPLE,TX,75602,,,"ROBERT & MARY ANNEN","4319 SUNFLOWER LN",TEMPLE,TX,76502,,Owner,,,,,"RAMIREZ SWIMMING POOLS",,,,,"RAMIREZ SWIMMING POOLS","5206 S GENERAL BRUCE DR",TEMPLE,TX,76502-4826,"(254) 773-0765",,,,
TX,BRAZOS,21-1304,"Residential Swimming Pools & Spas",4/29/2021,,50000,,"3229 ARUNDALA WAY",BRYAN,TX,77808,,,"SINDYE TONOLE","3229 ARUNDALA WAY",BRYAN,TX,77808,,Owner,,,,,"SUNSHINE FUN POOLS ",,,,,"SUNSHINE FUN POOLS ","4200 STATE HIGHWAY 6 S","COLLEGE STATION",TX,77845-8966,"(979) 690-3343",,,,
TX,BRAZOS,21-1603,"Residential Swimming Pools & Spas",5/5/2021,,55000,,"3001 BLACKFOOT CT",BRYAN,TX,77808,,,CONTRACTOR,,,,,,,,,,,"SUNSHINE FUN POOLS ",,,,,"SUNSHINE FUN POOLS ","4200 STATE HIGHWAY 6 S","COLLEGE STATION",TX,77845-8966,"(979) 690-3343",,,,
TX,BRAZOS,21-1607,"Residential Swimming Pools & Spas",5/5/2021,,74000,,"3416 LOCKETT HALL CIR",BRYAN,TX,77808,,,"OLAYEMI CHUKWUOGO","3416 LOCKETT HALL CIR",BRYAN,TX,77808,,Owner,,,,,"SUNSHINE FUN POOLS ",,,,,"SUNSHINE FUN POOLS ","4200 STATE HIGHWAY 6 S","COLLEGE STATION",TX,77845-8966,"(979) 690-3343",,,,
TX,BRAZOS,21-1818,"Residential Swimming Pools & Spas",5/12/2021,,74900,,"3225 OLD SPRING WAY",BRYAN,TX,77808,,,"MARVIN & SHERRI OLDHAM","3225 OLD SPRING WAY",BRYAN,TX,77808,,Owner,,,,,"PREMIER POOLS & SPAS",,,,,"PREMIER POOLS & SPAS","2810 BUSINESS CENTER DR STE 126",PEARLAND,TX,77584-9783,"(713) 436-4944",,"(713) 436-0081","BILL UNGER",bunger@ppas.com
TX,BRAZOS,21-1727,"Residential Swimming Pools & Spas",5/25/2021,,76500,,"3063 EMBERS LP",BRYAN,TX,77808,,,"CHARLES & DENISE MARTIN","3063 EMBERS LP",BRYAN,TX,77808,,Owner,,,,,"PREMIER POOLS & SPAS",,,,,"PREMIER POOLS & SPAS","2810 BUSINESS CENTER DR STE 126",PEARLAND,TX,77584-9783,"(713) 436-4944",,"(713) 436-0081","BILL UNGER",bunger@ppas.com
TX,HARRIS,21-0021,"Residential Swimming Pools & Spas",4/12/2021,,,,"8806 CEDARBRAKE DR","SPRING VALLEY",TX,77055,,,CONTRACTOR,,,,,,,,,,,"CODY POOLS",,,,,"CODY POOLS","26615 I45 NORTH",HOUSTON,TX,77380,"(713) 422-3266",http://www.codypools.com,,,
TX,HARRIS,21-00233,"Residential Swimming Pools & Spas",4/8/2021,,,,"1303 MODISTE","SPRING VALLEY",TX,77055,,,"KATHLEEN PERLEY","1303 MODISTE","SPRING VALLEY",TX,77055,,Owner,,,,,"SMITH CUSTOM POOLS",,,,,"SMITH CUSTOM POOLS","9310 PECOS ST",HOUSTON,TX,77055-4410,"(713) 494-9290",,,,
TX,BRAZOS,POOL2021-000033,"Residential Swimming Pools & Spas",4/6/2021,,137000,,"700 PRESTWICK CT","COLLEGE STATION",TX,77845,"PEBBLE CREEK",,"CANNON SHANE & COURTNEY","700 PRESTWICK CT","COLLEGE STATION",TX,77845,,Owner,,,,,"MOBLEY POOLS",,,,,"MOBLEY POOLS","2004 E VILLA MARIA RD",BRYAN,TX,77802-2540,"(979) 776-5557",http://www.mobleypools.com/,"(979) 776-5290","JASON FOSTER",Jason@mobleypools.com
TX,BRAZOS,POOL2021-000035,"Residential Swimming Pools & Spas",4/15/2021,,50000,,"4709 PEARL RIVER CT","COLLEGE STATION",TX,77845,,,"AUFILL PEYTON & KIMBERLY","4709 PEARL RIVER CT","COLLEGE STATION",TX,77845,,Owner,,,,,"SUNSHINE FUN POOLS ",,,,,"SUNSHINE FUN POOLS ","4200 STATE HIGHWAY 6 S","COLLEGE STATION",TX,77845-8966,"(979) 690-3343",,,,
TX,BRAZOS,POOL2021-000036,"Residential Swimming Pools & Spas",4/19/2021,,58000,,"2605 CHILLINGHAM CT","COLLEGE STATION",TX,77845,,,"KAREN BAYARDHON","2605 CHILLINGHAM CT","COLLEGE STATION",TX,77845,,Owner,,,,,"BRAZOS LONESTAR POOLS",,,,,"BRAZOS LONESTAR POOLS","13180 CLOVER LN",IOLA,TX,77861-4376,"(979) 268-3989",http://brazoslonestarpoolsbcs.com/,,,info@brazoslonestarpoolsbcs.com
TX,BRAZOS,POOL2021-000037,"Residential Swimming Pools & Spas",4/20/2021,,75000,,"1900 FROST DR","COLLEGE STATION",TX,77845,"FOXCREEK ESTATES",,"ESCHBERGER ANNE MARIE","1900 FROST DR","COLLEGE STATION",TX,77845,,Owner,,,,,"SUNSHINE FUN POOLS ",,,,,"SUNSHINE FUN POOLS ","4200 STATE HIGHWAY 6 S","COLLEGE STATION",TX,77845-8966,"(979) 690-3343",,,,
TX,BRAZOS,POOL2021-000040,"Residential Swimming Pools & Spas",4/22/2021,,88836,,"4900 CROOKED BRANCH CT","COLLEGE STATION",TX,77845,,,"CURNUTT KATHLEEN M & DANIEL J","4900 CROOKED BRANCH CT","COLLEGE STATION",TX,77845,,Owner,,,,,"POLAR BEAR POOLS & PATIOS",,,,,"POLAR BEAR POOLS & PATIOS","540 GRAHAM RD","COLLEGE STATION",TX,77845-9661,"(979) 571-9088",https://polarbearpoolsandpatios.com/,,,Doug@PolarBearPoolsAndPatios.com
TX,BRAZOS,POOL2021-000039,"Residential Swimming Pools & Spas",4/30/2021,,43600,,"1312 CHESAPEAKE CT","COLLEGE STATION",TX,77845,,,"STANLEY CADE & JAYME","1312 CHESAPEAKE CT","COLLEGE STATION",TX,77845,,Owner,,,,,"POLAR BEAR POOLS & PATIOS",,,,,"POLAR BEAR POOLS & PATIOS","540 GRAHAM RD","COLLEGE STATION",TX,77845-9661,"(979) 571-9088",https://polarbearpoolsandpatios.com/,,,Doug@PolarBearPoolsAndPatios.com
TX,HARRIS,21048388,"Residential Swimming Pools & Spas",5/28/2021,,42562,,"16602 LAKE CHAMPLAIN",HOUSTON,TX,77044,,,"ABRAHAM ALCANTAR","16602 LAKE CHAMPLAIN",HOUSTON,RI,77044,,Owner,,,,,"NORMA PAREDES",,,,,"NORMA PAREDES","16230 BELLFORT",HOUSTON,TX,77498,"(281) 832-5989",,,,
TX,HARRIS,21044973,"Residential Swimming Pools & Spas",5/27/2021,,60524,,"1023 BAYLAND",HOUSTON,TX,77009,,,"KATHARINE ANDRESEN","1023 BAYLAND",HOUSTON,TX,77009,,Owner,,,,,"HOUSTON COOL POOLS",,,,,"HOUSTON COOL POOLS","21902 STATE HIGHWAY 249",HOUSTON,TX,77070-1526,"(281) 645-6631",http://www.houstoncoolpools.com/,,"MIKE LOPEZ",info@houstoncoolpools.com
TX,HARRIS,21022215,"Residential Swimming Pools & Spas",5/26/2021,,56000,,"12822 BORIS COVE",HOUSTON,TX,77047,,,"BALLARD SHNAY","12822 BORIS COVE",HOUSTON,TX,77047,,Owner,,,,,OWNER,,,,,OWNER,,,,,,,,,
TX,HARRIS,21047626,"Residential Swimming Pools & Spas",5/27/2021,,65000,,"30 E BROAD OAKS DR",HOUSTON,TX,77056,,,"BRIAN BURGHER","30 E BROAD OAKS DR",HOUSTON,TX,77056,,Owner,,,,,"SUNSHINE POOLS",,,,,"SUNSHINE POOLS","1739 N BELT LINE RD",MESQUITE,TX,75149-1720,"(972) 289-2000",http://www.sunshine-pools.com/,,"DANI VASSAR",dani.vassar@sunshine-pools.com
TX,HARRIS,21046558,"Residential Swimming Pools & Spas",5/25/2021,,75000,,"5520 GRAND LAKE",HOUSTON,TX,77081,,,"SUDIPTA CHAUDHURI","5520 GRAND LAKE",HOUSTON,TX,77081,,Owner,,,,,"CUSTOM OUTDOORS",,,,,"CUSTOM OUTDOORS","6518 SKYVIEW",HOUSTON,TX,77041,"(281) 773-9104",http://www.customoutdoors.com/,,,
TX,HARRIS,21048689,"Residential Swimming Pools & Spas",5/28/2021,,37500,,"1502 CHIPPENDALE",HOUSTON,TX,77018,,,CONTRACTOR,,,,,,,,,,,"ANJA'S PERMIT ASSISTANCE",,,,,"ANJA'S PERMIT ASSISTANCE","PO BOX 1471",HOUSTON,TX,77251-1471,"(281) 222-5227",,,,
TX,HARRIS,21035258,"Residential Swimming Pools & Spas",5/27/2021,,69397,,"1642 WAKEFIELD",HOUSTON,TX,77018,,,"ROBBY ROLLANS","1642 WAKEFIELD",HOUSTON,TX,77018,,Owner,,,,,"BACKYARD POOL SPECIALISTS",,,,,"BACKYARD POOL SPECIALISTS","11115 MILLS RD STE 102",CYPRESS,TX,77429-3036,"(281) 890-3040",http://www.bpspools.com,"(281) 890-6521",,Rosanne@bpspools.com
TX,HARRIS,21039524,"Residential Swimming Pools & Spas",5/27/2021,,30000,,"6402 SCHILLER",HOUSTON,TX,77055,,,CONTRACTOR,,,,,,,,,,,"JACOB BUCKWALTER",,,,,"JACOB BUCKWALTER","9597 JONES RD",HOUSTON,TX,77065-4815,"(832) 272-8423",,,,
TX,HARRIS,21046566,"Residential Swimming Pools & Spas",5/25/2021,,45000,,"14014 MULBERRY RIVER",HOUSTON,TX,77059,,,CONTRACTOR,,,,,,,,,,,"C3 BUILDING SOLUTIONS",,,,,"C3 BUILDING SOLUTIONS","5535 MEMORIAL DRIVE",HOUSTON,TX,77007,"(713) 369-0925",http://www.c3buildingsolutions.com,,,
TX,HARRIS,21030744,"Residential Swimming Pools & Spas",5/25/2021,,95000,,"12527 MOSSYCUP",HOUSTON,TX,77024,,,"WILLIAM & KATHY KILPATRICK","12527 MOSSYCUP",HOUSTON,TX,77024,,Owner,,,,,"FRASER 1ST CLASS",,,,,"FRASER 1ST CLASS","29122 QUAIL ST",KATY,TX,77493-7579,"(281) 665-1113",http://fraserfirstclass.com/,,"DOUG FRASER",
TX,HARRIS,21017415,"Residential Swimming Pools & Spas",5/26/2021,,50000,,"3817 ABERDEEN",HOUSTON,TX,77025,,,CONTRACTOR,,,,,,,,,,,"AP SIGNATURE HOMES",,,,,"AP SIGNATURE HOMES","6602 WESTVIEW DR",HOUSTON,TX,77055,"(281) 831-6640",https://www.apsignaturehomes.com/,,,alpeynado@hotmail.com
TX,HARRIS,21029945,"Residential Swimming Pools & Spas",5/27/2021,,70000,,"912 S SHEPHERD",HOUSTON,TX,77019,,,CONTRACTOR,,,,,,,,,,,"SUNSHINE POOLS",,,,,"SUNSHINE POOLS","1739 N BELT LINE RD",MESQUITE,TX,75149-1720,"(972) 289-2000",http://www.sunshine-pools.com/,,"DANI VASSAR",dani.vassar@sunshine-pools.com
TX,HARRIS,21045528,"Residential Swimming Pools & Spas",5/25/2021,,72000,,"4706 NATURAL BRIDGE",HOUSTON,TX,77345,,,"HUGO DELAROSA","4706 NATURAL BRIDGE",HOUSTON,TX,77345,,Owner,,,,,"FOX FAMILY POOLS",,,,,"FOX FAMILY POOLS","1420 FM 1960 BYPASS RD E STE 100",HUMBLE,TX,77338-3934,"(281) 550-7665",http://www.foxfamilypools.com/,"(281) 446-6734",,
TX,HARRIS,21042304,"Residential Swimming Pools & Spas",5/25/2021,,90663,,"6734 CINDY",HOUSTON,TX,77008,,,"HEGWOOD VERNON AND CHRISTINE","6734 CINDY",HOUSTON,TX,77008,,Owner,,,,,"BACKYARD AMENITIES",,,,,"BACKYARD AMENITIES","11163 OLD NEEDLEPOINT RD STE 100",BAYTOWN,TX,77523-9784,"(281) 837-8234",http://www.backyardamenities.com,,,info@backyardamenities.com
TX,HARRIS,21043767,"Residential Swimming Pools & Spas",5/28/2021,,86000,,"1506 ADKINS",HOUSTON,TX,77055,,,"HENRIK NIELSEN","1506 ADKINS",HOUSTON,TX,77055,,Owner,,,,,OWNER,,,,,OWNER,,,,,,,,,
TX,HARRIS,21018710,"Residential Swimming Pools & Spas",5/26/2021,,61000,,"11005 MAPLE LEAF",HOUSTON,TX,77016,,,"BERNADETTE JOHNSON","11005 MAPLE LEAF",HOUSTON,TX,77016,,Owner,,,,,"RICHARD'S TOTAL BACKYARD SOLUTIONS ",,,,,"RICHARD'S TOTAL BACKYARD SOLUTIONS ","1701 HIGHWAY 6 S",HOUSTON,TX,77077-2803,"(713) 777-7665",http://richardstbs.com/,,"JULIE RICHARD",info@totalbackyardsolutions.com
TX,HARRIS,21039696,"Residential Swimming Pools & Spas",5/25/2021,,112303,,"14002 MULBERRY RIVER",HOUSTON,TX,77059,,,"BRIAN LAMBERT","14002 MULBERRY RIVER",HOUSTON,TX,77059,,Owner,,,,,"BACKYARD AMENITIES",,,,,"BACKYARD AMENITIES","11163 OLD NEEDLEPOINT RD STE 100",BAYTOWN,TX,77523-9784,"(281) 837-8234",http://www.backyardamenities.com,,,info@backyardamenities.com
TX,HARRIS,21041037,"Residential Swimming Pools & Spas",5/25/2021,,50000,,"5632 LYNBROOK",HOUSTON,TX,77056,,,"MAXWELL ROBERT ELTON","5632 LYNBROOK",HOUSTON,TX,77056,,Owner,,,,,"COY POOLS",,,,,"COY POOLS","9730 BRAESMONT DR",HOUSTON,TX,77096,"(713) 493-5799",https://www.coypools.com/,,,brian@coypools.com
TX,HARRIS,21021679,"Residential Swimming Pools & Spas",5/25/2021,,55000,,"2754 QUINCANNON",HOUSTON,TX,77043,,,"KYLE THOMPSON","3414 LILAC",HOUSTON,TX,77494,"(281) 896-8762",Applicant,,,,,OWNER,,,,,OWNER,,,,,,,,,
TX,HARRIS,21037351,"Residential Swimming Pools & Spas",5/27/2021,,106760,,"2822 MOUNTAIN GREEN",HOUSTON,TX,77345,,,"RALPH RODRIGUEZ","2822 MOUNTAIN GREEN",HOUSTON,TX,77345,,Owner,,,,,"RODRIGUEZ POOL CONSTRUCTION",,,,,"RODRIGUEZ POOL CONSTRUCTION","24430 SUNNY GLEN DR",HUFFMAN,TX,77336-2861,"(832) 715-1434",http://www.rpc-pools.com/,,"PEDRO RODRIGUEZ",rodriguezpoolconstruction@yahoo.com
TX,HARRIS,21045623,"Residential Swimming Pools & Spas",5/25/2021,,77908,,"12410 RIP VAN WINKLE",HOUSTON,TX,77024,,,"CHRISTINE ROTHERMEL","12410 RIP VAN WINKLE",HOUSTON,TX,77024,,Owner,,,,,"PLATINUM POOLS",,,,,"PLATINUM POOLS","4500 BLALOCK RD",HOUSTON,TX,77041-9121,"(281) 870-1600",,,,
TX,HARRIS,21026661,"Residential Swimming Pools & Spas",5/25/2021,,60000,,"3870 WILLOWICK",HOUSTON,TX,77019,,,"RODOLFO SANCHEZ","3870 WILLOWICK",HOUSTON,TX,77019,,Owner,,,,,"SUNDANCE CUSTOM POOLS",,,,,"SUNDANCE CUSTOM POOLS","12837 LOUETTA RD STE 104",CYPRESS,TX,77429-5611,"(281) 290-7997",http://www.sundancecustompools.com/,"(281) 252-8422",,info@sundancecustompools.com
TX,HARRIS,21046199,"Residential Swimming Pools & Spas",5/25/2021,,75000,,"13302 ALCHESTER",HOUSTON,TX,77079,,,"RAUL VEGA","13302 ALCHESTER",HOUSTON,TX,77079,,Owner,,,,,"SUNSET POOLS",,,,,"SUNSET POOLS","11908 ANDERSON MILL RD",AUSTIN,TX,78726-1100,"(512) 636-8621",http://sunsetpoolsinc.com,,,
TX,BRAZOS,POOL2021-000044,"Residential Swimming Pools & Spas",5/4/2021,,89000,,"15716 BUFFALO CREEK LOOP","COLLEGE STATION",TX,77840,"CREEK MEADOWS",,"ONEILL JOHN & MARIE ELIZABETH","15716 BUFFALO CREEK LOOP","COLLEGE STATION",TX,77840,,Owner,,,,,"MOBLEY POOLS",,,,,"MOBLEY POOLS","2004 E VILLA MARIA RD",BRYAN,TX,77802-2540,"(979) 776-5557",http://www.mobleypools.com/,"(979) 776-5290","JASON FOSTER",Jason@mobleypools.com
TX,BRAZOS,POOL2021-000034,"Residential Swimming Pools & Spas",5/5/2021,,40000,,"5200 CASCADES DR","COLLEGE STATION",TX,77845,"PEBBLE CREEK",,"COX ARIS DAVON & CHRISTOPHER R","5200 CASCADES DR","COLLEGE STATION",TX,77845,,Owner,,,,,"AQUATEX POOL SERVICE",,,,,"AQUATEX POOL SERVICE","PO BOX 342036",AUSTIN,TX,78734,"(512) 696-8165",,,,
TX,BRAZOS,RMDL2021-000073,"Residential Swimming Pools & Spas",5/11/2021,,60000,,"4201 BALLY MORE DR","COLLEGE STATION",TX,77840,WATERFORD,,"KAHUNA ENTERPRISES LLC","4201 BALLY MORE DR","COLLEGE STATION",TX,77840,,Owner,,,,,"RIDGEWOOD CUSTOM HOMES",,,,,"RIDGEWOOD CUSTOM HOMES","106 PHEASANT RUN CT",SUNSET,TX,76270-2176,"(940) 872-9911",,,,
TX,BRAZOS,POOL2021-000046,"Residential Swimming Pools & Spas",5/11/2021,,86700,,"4505 TONBRIDGE DR","COLLEGE STATION",TX,77845,,,"YAGUA CARLOS & NORMA REVOCABLE","4505 TONBRIDGE DR","COLLEGE STATION",TX,77845,,Owner,,,,,"PREMIER POOLS & SPAS",,,,,"PREMIER POOLS & SPAS","2810 BUSINESS CENTER DR STE 126",PEARLAND,TX,77584-9783,"(713) 436-4944",,"(713) 436-0081","BILL UNGER",bunger@ppas.com
TX,BRAZOS,POOL2021-000038,"Residential Swimming Pools & Spas",5/13/2021,,38000,,"4001 NOIRMONT CT","COLLEGE STATION",TX,77845,,,"DUTTON ASHLEY","4001 NOIRMONT CT","COLLEGE STATION",TX,77845,,Owner,,,,,"BIG DIAMOND POOLS",,,,,"BIG DIAMOND POOLS","1031 BIG DIAMOND WAY",SPRING,TX,77379,"(713) 875-0126",http://www.bigdiamondpools.com/,,,
TX,BRAZOS,POOL2021-000041,"Residential Swimming Pools & Spas",5/18/2021,,55000,,"4903 FALLEN OAK CV","COLLEGE STATION",TX,77845,,,"DAVID & MEGHAN VERGHESE","4903 FALLEN OAK CV","COLLEGE STATION",TX,77845,,Owner,,,,,"SUNSHINE FUN POOLS ",,,,,"SUNSHINE FUN POOLS ","4200 STATE HIGHWAY 6 S","COLLEGE STATION",TX,77845-8966,"(979) 690-3343",,,,
TX,BRAZOS,21-1483,"Restaurant and Bar",5/3/2021,Renovation,94000,,"902 S TEXAS AVE",BRYAN,TX,77803,,,CONTRACTOR,,,,,,,,,,,"RJ HARRIS CONSTRUCTION",,,,,"RJ HARRIS CONSTRUCTION","611 FM 1960 BYPASS RD E",HUMBLE,TX,77338-3777,"(281) 548-1600",,,,
TX,BRAZOS,RMDL2021-000059,"Restaurant and Bar",4/23/2021,,45000,,"4040 STATE HIGHWAY 6 S 100","COLLEGE STATION",TX,77845,,,"STELLA SOUTHERN CAFE LLC","4040 STATE HIGHWAY 6 S 100","COLLEGE STATION",TX,77845,,Owner,,,,,"CREATE CONSTRUCTION",,,,,"CREATE CONSTRUCTION","210 N DWIGHT AVE",DALLAS,TX,75211,"(214) 664-8589",,,,
TX,BRAZOS,RMDL2021-000031,"Restaurant and Bar",5/20/2021,,48000,,"700 UNIVERSITY DR E B","COLLEGE STATION",TX,77845,,,CONTRACTOR,,,,,,,,,,,"M & M CONSTRUCTION",,,,,"M & M CONSTRUCTION","611 POST OAK DR","DRIPPING SPRINGS",TX,78620-4117,"(512) 787-6179",,,,
TX,BELL,21-16,Retail,4/16/2021,,47500,,"7373 HONEYSUCKLE DR 120",TEMPLE,TX,76502,"WESTFIELD DEVELOPMENT",,CONTRACTOR,,,,,,,,,,,"KIELLA HOMEBUILDERS",,,,,"KIELLA HOMEBUILDERS","7462 W ADAMS AVE",TEMPLE,TX,76502-5558,"(254) 778-0092",,,,
TX,BRAZOS,RMDL2021-000026,Retail,4/6/2021,,170500,3906,"1501 UNIVERSITY DR E 800","COLLEGE STATION",TX,77845,,,CONTRACTOR,,,,,,,,,,,"ACTION RETAIL CONSTRUCTION SERVICES ",,,,,"ACTION RETAIL CONSTRUCTION SERVICES ","203 SADDLE DR",ROCKWALL,TX,75087-9244,"(972) 772-1981",http://actionrcs.com/,,"BUDDY JOHNSON",
TX,BRAZOS,CACC2021-000012,Retail,4/13/2021,,75000,,"3101 HARVEY RD","COLLEGE STATION",TX,77845,"VETERANS PARK",,CONTRACTOR,,,,,,,,,,,"E CONTRACTORS USA",,,,,"E CONTRACTORS USA","7120 GRAND BLVD STE 200",HOUSTON,TX,77054-3411,"(713) 842-3313",,,"KARUN SREERAMA",
TX,HARRIS,21006989,Retail,5/27/2021,Renovations,121279,,"6102 SCOTT",HOUSTON,TX,77021,,,CONTRACTOR,,,,,,,,,,,CASCO,,,,,CASCO,"12 SUNNEN DR. SUITE 100",MAPLEWOOD,MO,63143,"(314) 821-1100",https://cascocorp.com/,,,
TX,HARRIS,20055430,Retail,5/25/2021,,550000,,"5410 W BELLFORT",HOUSTON,TX,77035,,,CONTRACTOR,,,,,,,,,,,"DOAN & ASSOCIATES",,,,,"DOAN & ASSOCIATES","11700 SOUTHWEST FWY",HOUSTON,TX,77031-3618,"(281) 564-2200",http://www.doanassociates.com/,,,doan@doanassociates.com
TX,HARRIS,21002832,Retail,5/27/2021,Renovations,1400000,,"7110 OLD KATY RD",HOUSTON,TX,77024,,,CONTRACTOR,,,,,,,,,,,"HARVEY CLEARY BUILDERS",,,,,"HARVEY CLEARY BUILDERS","3630 WESTCHASE DR",HOUSTON,TX,77042-5224,"(713) 783-7919",http://www.harvey-cleary.com/,,,
TX,HARRIS,21025744,Retail,5/27/2021,Renovations,150000,,"2525 KIRBY",HOUSTON,TX,77019,,,CONTRACTOR,,,,,,,,,,,"MIRADOR GROUP",,,,,"MIRADOR GROUP","6575 WEST LOOP S STE 570",BELLAIRE,TX,77401-3513,"(713) 661-6606",,,,
TX,BRAZOS,RMDL2021-000051,Retail,5/6/2021,,115000,,"2001 TEXAS AVE S 800","COLLEGE STATION",TX,77840,"POOHS PARK",,"DE ANZA PROPERTIES  LLC","2001 TEXAS AVE S 800","COLLEGE STATION",TX,77840,,Owner,,,,,"CAFFEY & SONS",,,,,"CAFFEY & SONS","609 E 32ND ST",BRYAN,TX,77803-4614,"(979) 589-2109",,,"KEVIN CAFFEY",
TX,BRAZOS,RMDL2021-000062,Retail,5/5/2021,,255780,,"2400 EARL RUDDER FWY S","COLLEGE STATION",TX,77845,,,"WOLF PIN LLC","2400 EARL RUDDER FWY S","COLLEGE STATION",TX,77845,,Owner,,,,,"REC INDUSTRIES",,,,,"REC INDUSTRIES","12580 STATE HWY 30","COLLEGE STATION",TX,77845,"(979) 776-8245",https://recind.com/,"(979) 774-4973",,
TX,BRAZOS,CTFO2019-000050,Retail,5/10/2021,,99000,,"3515 HARVEY RD","COLLEGE STATION",TX,77845,,,CONTRACTOR,,,,,,,,,,,"NZ CONSTRUCTION",,,,,"NZ CONSTRUCTION","4450 S WAYSIDE DR STE 101",HOUSTON,TX,77087-1126,"(281) 850-7100",,,,
TX,BRAZOS,RMDL2021-000055,Retail,5/20/2021,,300000,,"205 UNIVERSITY DR","COLLEGE STATION",TX,77845,,,CONTRACTOR,,,,,,,,,,,"KEYS & WALSH CONSTRUCTION",,,,,"KEYS & WALSH CONSTRUCTION","12633 STATE HIGHWAY 30","COLLEGE STATION",TX,77845-7736,"(979) 774-3600",http://www.keysandwalsh.com/,"(979) 774-3611",,
TX,BRAZOS,RMDL2021-000079,Retail,5/20/2021,,250000,,"505 UNIVERSITY DR","COLLEGE STATION",TX,77845,,,"INSOMNIA COOKIES","505 UNIVERSITY DR","COLLEGE STATION",TX,77845,,Owner,,,,,"OCTANE DESIGN & FLOORING",,,,,"OCTANE DESIGN & FLOORING","16150 KIETH HARROW BLVD  APT 1413",HOUSTON,TX,77084-5323,"(832) 249-0746",,,,
TX,MONTGOMERY,183071-21,"Single Family Homes",4/19/2021,,192990,,"9227 LAIDEN CREEK TRAIL",HOUSTON,TX,77356,"CANEY MILLS",,CONTRACTOR,,,,,,,,,,,"FIRST AMERICA HOMES",,,,,"FIRST AMERICA HOMES","1401 WOODLANDS PARKWAY","THE WOODLANDS",TX,77380-1179,"(713) 452-1700",https://www.firstamericahomes.com/,,,info@firstamericahomes.com
TX,MONTGOMERY,183072-21,"Single Family Homes",4/19/2021,,181990,,"9231 LAIDEN CREEK TRAIL",HOUSTON,TX,77356,"CANEY MILLS",,CONTRACTOR,,,,,,,,,,,"FIRST AMERICA HOMES",,,,,"FIRST AMERICA HOMES","1401 WOODLANDS PARKWAY","THE WOODLANDS",TX,77380-1179,"(713) 452-1700",https://www.firstamericahomes.com/,,,info@firstamericahomes.com
TX,MONTGOMERY,183087-21,"Single Family Homes",4/20/2021,,204990,,"9235 LAIDEN CREEK TRAIL",HOUSTON,TX,77356,"CANEY MILLS",,CONTRACTOR,,,,,,,,,,,"FIRST AMERICA HOMES",,,,,"FIRST AMERICA HOMES","1401 WOODLANDS PARKWAY","THE WOODLANDS",TX,77380-1179,"(713) 452-1700",https://www.firstamericahomes.com/,,,info@firstamericahomes.com
TX,MONTGOMERY,183090-21,"Single Family Homes",4/20/2021,,221990,,"9258 LAIDEN CREEK TRAIL",HOUSTON,TX,77356,"CANEY MILLS",,CONTRACTOR,,,,,,,,,,,"FIRST AMERICA HOMES",,,,,"FIRST AMERICA HOMES","1401 WOODLANDS PARKWAY","THE WOODLANDS",TX,77380-1179,"(713) 452-1700",https://www.firstamericahomes.com/,,,info@firstamericahomes.com
TX,MONTGOMERY,183091-21,"Single Family Homes",4/20/2021,,222990,,"9240 LAIDEN CREEK TR",HOUSTON,TX,77356,"CANEY MILLS",,CONTRACTOR,,,,,,,,,,,"FIRST AMERICA HOMES",,,,,"FIRST AMERICA HOMES","1401 WOODLANDS PARKWAY","THE WOODLANDS",TX,77380-1179,"(713) 452-1700",https://www.firstamericahomes.com/,,,info@firstamericahomes.com
TX,MONTGOMERY,183093-21,"Single Family Homes",4/20/2021,,181990,,"9244 LAIDEN CREEK TR",HOUSTON,TX,77356,"CANEY MILLS",,CONTRACTOR,,,,,,,,,,,"FIRST AMERICA HOMES",,,,,"FIRST AMERICA HOMES","1401 WOODLANDS PARKWAY","THE WOODLANDS",TX,77380-1179,"(713) 452-1700",https://www.firstamericahomes.com/,,,info@firstamericahomes.com
TX,MONTGOMERY,183094-21,"Single Family Homes",4/20/2021,,192990,,"9239 LAIDEN CREEK TRAIL",HOUSTON,TX,77356,"CANEY MILLS",,CONTRACTOR,,,,,,,,,,,"FIRST AMERICA HOMES",,,,,"FIRST AMERICA HOMES","1401 WOODLANDS PARKWAY","THE WOODLANDS",TX,77380-1179,"(713) 452-1700",https://www.firstamericahomes.com/,,,info@firstamericahomes.com
TX,MONTGOMERY,183249-21,"Single Family Homes",4/22/2021,,235990,,"14509 SUGAR PINES DR",HOUSTON,TX,77356,"GRANGER PINES",,CONTRACTOR,,,,,,,,,,,"FIRST AMERICA HOMES",,,,,"FIRST AMERICA HOMES","1401 WOODLANDS PARKWAY","THE WOODLANDS",TX,77380-1179,"(713) 452-1700",https://www.firstamericahomes.com/,,,info@firstamericahomes.com
TX,MONTGOMERY,183250-21,"Single Family Homes",4/22/2021,,209990,,"14517 SUGAR PINES DR",HOUSTON,TX,77356,"GRANGER PINES",,CONTRACTOR,,,,,,,,,,,"FIRST AMERICA HOMES",,,,,"FIRST AMERICA HOMES","1401 WOODLANDS PARKWAY","THE WOODLANDS",TX,77380-1179,"(713) 452-1700",https://www.firstamericahomes.com/,,,info@firstamericahomes.com
TX,MONTGOMERY,183251-21,"Single Family Homes",4/22/2021,,214990,,"14513 SUGAR PINES DR",HOUSTON,TX,77356,"GRANGER PINES",,CONTRACTOR,,,,,,,,,,,"FIRST AMERICA HOMES",,,,,"FIRST AMERICA HOMES","1401 WOODLANDS PARKWAY","THE WOODLANDS",TX,77380-1179,"(713) 452-1700",https://www.firstamericahomes.com/,,,info@firstamericahomes.com
TX,MONTGOMERY,183255-21,"Single Family Homes",4/22/2021,,213990,,"13987 KATLIN ROAD",HOUSTON,TX,77356,"WAUKEGAN WAY",,CONTRACTOR,,,,,,,,,,,"FIRST AMERICA HOMES",,,,,"FIRST AMERICA HOMES","1401 WOODLANDS PARKWAY","THE WOODLANDS",TX,77380-1179,"(713) 452-1700",https://www.firstamericahomes.com/,,,info@firstamericahomes.com
TX,MONTGOMERY,183256-21,"Single Family Homes",4/22/2021,,228990,,"13983 KATLIN ROAD",HOUSTON,TX,77356,"WAUKEGAN WAY",,CONTRACTOR,,,,,,,,,,,"FIRST AMERICA HOMES",,,,,"FIRST AMERICA HOMES","1401 WOODLANDS PARKWAY","THE WOODLANDS",TX,77380-1179,"(713) 452-1700",https://www.firstamericahomes.com/,,,info@firstamericahomes.com
TX,MONTGOMERY,183197-21,"Single Family Homes",4/22/2021,,260000,,"12008 WHITE OAK RUN",HOUSTON,TX,77356,"WHITE OAK ESTATES",,"CHASE FREDERICK","8555 MATTHEWS LANE",MAGNOLIA,TX,77354,,Owner,,,,,OWNER,,,,,OWNER,,,,,,,,,
TX,MONTGOMERY,183047-21,"Single Family Homes",4/19/2021,,1035286,,"10 LACE POINT",HOUSTON,TX,77356,"CARLTON WOODS",,CONTRACTOR,,,,,,,,,,,"FRONTIER CUSTOM BUILDERS",,,,,"FRONTIER CUSTOM BUILDERS","1801 SHERWOOD FOREST ST",HOUSTON,TX,77043-3001,"(280) 501-4000",http://www.frontiercustombuilders.com/,"(281) 599-8559","WAYNE POOPP",
TX,MONTGOMERY,183223-21,"Single Family Homes",4/22/2021,,360000,,"21525 BIG BUCK DR",HOUSTON,TX,77356,"PEACH CREEK PLANTATION",,"ANDREW GARCIA ","4159 LONGHORN DR",CLEVELAND,TX,77328,,Owner,,,,,OWNER,,,,,OWNER,,,,,,,,,
TX,MONTGOMERY,183193-21,"Single Family Homes",4/22/2021,,247880,,"40807 WESSON LN",HOUSTON,TX,77356,"MOSTYN MANOR",,CONTRACTOR,,,,,,,,,,,"GEHAN HOMES",,,,,"GEHAN HOMES","2050 W SAM HOUSTON PKWY S",HOUSTON,TX,77042-2079,"(713) 243-3545",http://www.gehanhomes.com,,,
TX,MONTGOMERY,"183194 21","Single Family Homes",4/22/2021,,223904,,"40806 WESSON LN",HOUSTON,TX,77356,"MOSTYN MANOR",,CONTRACTOR,,,,,,,,,,,"GEHAN HOMES",,,,,"GEHAN HOMES","2050 W SAM HOUSTON PKWY S",HOUSTON,TX,77042-2079,"(713) 243-3545",http://www.gehanhomes.com,,,
TX,MONTGOMERY,183307-21,"Single Family Homes",4/23/2021,,110000,,"18182 WILLIAM LN",HOUSTON,TX,77356,COUNTRY,,"ESMERALDA GUERRERO","18182 WILLIAM LN",CONROE,TX,77302,,Owner,,,,,OWNER,,,,,OWNER,,,,,,,,,
TX,MONTGOMERY,183305-21,"Single Family Homes",4/23/2021,,380000,,"17186 FOXTROT WAY",HOUSTON,TX,77356,ARTAVIA,,CONTRACTOR,,,,,,,,,,,"HIGHLAND HOMES",,,,,"HIGHLAND HOMES","10930 W SAM HOUSTON PKWY N STE 100",HOUSTON,TX,77064-6331,"(281) 517-9800",,,,
TX,MONTGOMERY,183212-21,"Single Family Homes",4/22/2021,,185400,,"16256 FAYETTE ST",HOUSTON,TX,77356,"DEER PINES",,CONTRACTOR,,,,,,,,,,,"KENDALL HOMES",,,,,"KENDALL HOMES","427 MASON PARK BLVD",KATY,TX,77450-6187,"(281) 398-4010",http://www.kendallhomes.net/,"(281) 398-4011",,
TX,MONTGOMERY,183039-21,"Single Family Homes",4/19/2021,,170000,,"4428 BETHEL COLONY TR",HOUSTON,TX,77356,"COUNTRY COLONY",,CONTRACTOR,,,,,,,,,,,"LENNAR HOMES",,,,,"LENNAR HOMES","550 GREENS PKWY",HOUSTON,TX,77067-4537,"(281) 875-1000",http://www.lennar.com/,,,
TX,MONTGOMERY,183040-21,"Single Family Homes",4/19/2021,,110000,,"5234 ELRINGTON VALLEY LN",HOUSTON,TX,77356,"COUNTRY COLONY",,CONTRACTOR,,,,,,,,,,,"LENNAR HOMES",,,,,"LENNAR HOMES","550 GREENS PKWY",HOUSTON,TX,77067-4537,"(281) 875-1000",http://www.lennar.com/,,,
TX,MONTGOMERY,183041-21,"Single Family Homes",4/19/2021,,112000,,"4432 BETHEL CONLONY TR",HOUSTON,TX,77356,"COUNTRY COLONY",,CONTRACTOR,,,,,,,,,,,"LENNAR HOMES",,,,,"LENNAR HOMES","550 GREENS PKWY",HOUSTON,TX,77067-4537,"(281) 875-1000",http://www.lennar.com/,,,
TX,MONTGOMERY,"183158 21","Single Family Homes",4/21/2021,,189995,,"327 MISTLETOE RIDGE CT",HOUSTON,TX,77356,WOODFOREST,,CONTRACTOR,,,,,,,,,,,"LENNAR HOMES",,,,,"LENNAR HOMES","550 GREENS PKWY",HOUSTON,TX,77067-4537,"(281) 875-1000",http://www.lennar.com/,,,
TX,MONTGOMERY,183164-21,"Single Family Homes",4/21/2021,,121810,,"24047 HAWTHORN LAKES DR",HOUSTON,TX,77356,TAVOLA,,CONTRACTOR,,,,,,,,,,,"LENNAR HOMES",,,,,"LENNAR HOMES","550 GREENS PKWY",HOUSTON,TX,77067-4537,"(281) 875-1000",http://www.lennar.com/,,,
TX,MONTGOMERY,183165-21,"Single Family Homes",4/21/2021,,145860,,"24050 HAWTHORN LAKES DR",HOUSTON,TX,77356,TAVOLA,,CONTRACTOR,,,,,,,,,,,"LENNAR HOMES",,,,,"LENNAR HOMES","550 GREENS PKWY",HOUSTON,TX,77067-4537,"(281) 875-1000",http://www.lennar.com/,,,
TX,MONTGOMERY,183166-21,"Single Family Homes",4/21/2021,,157040,,"24054 HAWTHORN LAKES DR",HOUSTON,TX,77356,TAVOLA,,CONTRACTOR,,,,,,,,,,,"LENNAR HOMES",,,,,"LENNAR HOMES","550 GREENS PKWY",HOUSTON,TX,77067-4537,"(281) 875-1000",http://www.lennar.com/,,,
TX,MONTGOMERY,183172-21,"Single Family Homes",4/21/2021,,119210,,"22679 BOLANZO LN",HOUSTON,TX,77356,TAVOLA,,CONTRACTOR,,,,,,,,,,,"LENNAR HOMES",,,,,"LENNAR HOMES","550 GREENS PKWY",HOUSTON,TX,77067-4537,"(281) 875-1000",http://www.lennar.com/,,,
TX,MONTGOMERY,183173-21,"Single Family Homes",4/21/2021,,143065,,"22663 BOLANZO LN",HOUSTON,TX,77356,TAVOLA,,CONTRACTOR,,,,,,,,,,,"LENNAR HOMES",,,,,"LENNAR HOMES","550 GREENS PKWY",HOUSTON,TX,77067-4537,"(281) 875-1000",http://www.lennar.com/,,,
TX,MONTGOMERY,183174-21,"Single Family Homes",4/21/2021,,196300,,"23584 RED JUNIPER LN",HOUSTON,TX,77356,TAVOLA,,CONTRACTOR,,,,,,,,,,,"LENNAR HOMES",,,,,"LENNAR HOMES","550 GREENS PKWY",HOUSTON,TX,77067-4537,"(281) 875-1000",http://www.lennar.com/,,,
TX,MONTGOMERY,183176-21,"Single Family Homes",4/21/2021,,104650,,"22319 SAN DAMIANO ST",HOUSTON,TX,77356,TAVOLA,,CONTRACTOR,,,,,,,,,,,"LENNAR HOMES",,,,,"LENNAR HOMES","550 GREENS PKWY",HOUSTON,TX,77067-4537,"(281) 875-1000",http://www.lennar.com/,,,
TX,MONTGOMERY,183177-21,"Single Family Homes",4/21/2021,,142870,,"22315 SAN DAMIANO ST",HOUSTON,TX,77356,TAVOLA,,CONTRACTOR,,,,,,,,,,,"LENNAR HOMES",,,,,"LENNAR HOMES","550 GREENS PKWY",HOUSTON,TX,77067-4537,"(281) 875-1000",http://www.lennar.com/,,,
TX,MONTGOMERY,183178-21,"Single Family Homes",4/21/2021,,99060,,"22311 SAN DAMIANO ST",HOUSTON,TX,77356,TAVOLA,,CONTRACTOR,,,,,,,,,,,"LENNAR HOMES",,,,,"LENNAR HOMES","550 GREENS PKWY",HOUSTON,TX,77067-4537,"(281) 875-1000",http://www.lennar.com/,,,
TX,MONTGOMERY,183179-21,"Single Family Homes",4/21/2021,,104650,,"18764 FAUSTINA WAY",HOUSTON,TX,77356,TAVOLA,,CONTRACTOR,,,,,,,,,,,"LENNAR HOMES",,,,,"LENNAR HOMES","550 GREENS PKWY",HOUSTON,TX,77067-4537,"(281) 875-1000",http://www.lennar.com/,,,
TX,MONTGOMERY,183282-21,"Single Family Homes",4/23/2021,,73912,,"25037 AUTHORS DR",HOUSTON,TX,77356,"WILLIAMS TRACE",,CONTRACTOR,,,,,,,,,,,"LGI HOMES",,,,,"LGI HOMES","1450 LAKE ROBBINS SUITE 430",CONROE,TX,77380,"(210) 563-4648",,"(281) 210-2601",,
TX,MONTGOMERY,183283-21,"Single Family Homes",4/23/2021,,73912,,"21023 TITIAN DR",HOUSTON,TX,77356,"WILLIAMS TRACE",,CONTRACTOR,,,,,,,,,,,"LGI HOMES",,,,,"LGI HOMES","1450 LAKE ROBBINS SUITE 430",CONROE,TX,77380,"(210) 563-4648",,"(281) 210-2601",,
TX,MONTGOMERY,183285-21,"Single Family Homes",4/23/2021,,93314,,"26205 RAPHAEL DR",HOUSTON,TX,77356,"WILLIAMS TRACE",,CONTRACTOR,,,,,,,,,,,"LGI HOMES",,,,,"LGI HOMES","1450 LAKE ROBBINS SUITE 430",CONROE,TX,77380,"(210) 563-4648",,"(281) 210-2601",,
TX,MONTGOMERY,183286-21,"Single Family Homes",4/23/2021,,100000,,"26209 RAPHAEL DR",HOUSTON,TX,77356,"WILLIAMS TRACE",,CONTRACTOR,,,,,,,,,,,"LGI HOMES",,,,,"LGI HOMES","1450 LAKE ROBBINS SUITE 430",CONROE,TX,77380,"(210) 563-4648",,"(281) 210-2601",,
TX,MONTGOMERY,183287-21,"Single Family Homes",4/23/2021,,100000,,"21027 TITIAN DR",HOUSTON,TX,77356,"WILLIAMS TRACE",,CONTRACTOR,,,,,,,,,,,"LGI HOMES",,,,,"LGI HOMES","1450 LAKE ROBBINS SUITE 430",CONROE,TX,77380,"(210) 563-4648",,"(281) 210-2601",,
TX,MONTGOMERY,183275-21,"Single Family Homes",4/23/2021,,64000,,"29219 ENCHANTED FALLS CIRCLE",HOUSTON,TX,77356,"FOREST VILLAGE",,CONTRACTOR,,,,,,,,,,,"LONG LAKE HOMES",,,,,"LONG LAKE HOMES","15915 KATY FWY STE 405",HOUSTON,TX,77094-1710,"(281) 646-1727",http://www.longlakeltd.com/,,"DAVID BIGLER",
TX,MONTGOMERY,183135-21,"Single Family Homes",4/20/2021,,130000,,"16682 MEADOWCROFT ST",HOUSTON,TX,77356,"LAKE CONROE VILLAGE",,"ROBERT LOPEZ","4210 HIDDEN WINDS DR",SPRING,TX,77386,,Owner,,,,,OWNER,,,,,OWNER,,,,,,,,,
TX,MONTGOMERY,183101-21,"Single Family Homes",4/20/2021,,93950,,"17692 TREE OF HEAVEN",HOUSTON,TX,77356,"HARPERS PRESERVE",,CONTRACTOR,,,,,,,,,,,"M/I HOMES",,,,,"M/I HOMES","10910 NORTH SAM HOUSTON PKWY W",HOUSTON,TX,77064,"(832) 912-1012",,,,
TX,MONTGOMERY,183103-21,"Single Family Homes",4/20/2021,,85500,,"17689 TREE OF HEAVEN",HOUSTON,TX,77356,"HARPERS PRESERVE",,CONTRACTOR,,,,,,,,,,,"M/I HOMES",,,,,"M/I HOMES","10910 NORTH SAM HOUSTON PKWY W",HOUSTON,TX,77064,"(832) 912-1012",,,,
TX,MONTGOMERY,183195-21,"Single Family Homes",4/22/2021,,107000,,"12565 ROYAL GREEN DR",HOUSTON,TX,77356,"ROYAL FOREST",,"LUZ MALDONADO","12565 ROYAL GREEN DR",CONROE,TX,77303,,Owner,,,,,OWNER,,,,,OWNER,,,,,,,,,
TX,MONTGOMERY,"183150 21","Single Family Homes",4/20/2021,,423990,,"32080 AUGUST WOODS WAY",HOUSTON,TX,77356,"MEADOWS AT IMPERIAL OAKS",,CONTRACTOR,,,,,,,,,,,"MHI MCGUYER HOMEBUILDERS",,,,,"MHI MCGUYER HOMEBUILDERS","7676 WOODWAY DR",HOUSTON,TX,77063-1526,"(713) 260-4107",,,,
TX,MONTGOMERY,"183273 21","Single Family Homes",4/23/2021,,397990,,"32112 PARK PLAINS DR",HOUSTON,TX,77356,"MEADOWS AT IMPERIAL OAKS",,CONTRACTOR,,,,,,,,,,,"MHI MCGUYER HOMEBUILDERS",,,,,"MHI MCGUYER HOMEBUILDERS","7676 WOODWAY DR",HOUSTON,TX,77063-1526,"(713) 260-4107",,,,
TX,MONTGOMERY,183318-21,"Single Family Homes",4/23/2021,,100000,,"4972 HILLTOP RANCH CT",HOUSTON,TX,77356,"HILLTOP RANCH",,CONTRACTOR,,,,,,,,,,,"OMG BUILDERS",,,,,"OMG BUILDERS","2257 N LOOP 336 W STE 140-303",CONROE,TX,77304,"(832) 457-9442",,,,
TX,MONTGOMERY,183156-21,"Single Family Homes",4/21/2021,,332212,,"7806 CHARTER HILL CT",HOUSTON,TX,77356,NORTHGROVE,,CONTRACTOR,,,,,,,,,,,"PERRY HOMES",,,,,"PERRY HOMES","9000 GULF FWY",HOUSTON,TX,77017-7018,"(713) 417-1396",,,,
TX,MONTGOMERY,183157-21,"Single Family Homes",4/21/2021,,334013,,"7845 CHARTER HILL DR",HOUSTON,TX,77356,NORTHGROVE,,CONTRACTOR,,,,,,,,,,,"PERRY HOMES",,,,,"PERRY HOMES","9000 GULF FWY",HOUSTON,TX,77017-7018,"(713) 417-1396",,,,
TX,MONTGOMERY,183162-21,"Single Family Homes",4/21/2021,,420188,,"23635 MAPLEWOOD RIDGE DR",HOUSTON,TX,77356,TAVOLA,,CONTRACTOR,,,,,,,,,,,"PERRY HOMES",,,,,"PERRY HOMES","9000 GULF FWY",HOUSTON,TX,77017-7018,"(713) 417-1396",,,,
TX,MONTGOMERY,183168-21,"Single Family Homes",4/21/2021,,420188,,"23557 RED JUNIPER LN",HOUSTON,TX,77356,TAVOLA,,CONTRACTOR,,,,,,,,,,,"PERRY HOMES",,,,,"PERRY HOMES","9000 GULF FWY",HOUSTON,TX,77017-7018,"(713) 417-1396",,,,
TX,MONTGOMERY,183143-21,"Single Family Homes",4/20/2021,,238490,,"18830 MONT BLANC WAY",HOUSTON,TX,77356,TAVOLA,,CONTRACTOR,,,,,,,,,,,"PULTE HOMES",,,,,"PULTE HOMES","16670 PARK ROW",HOUSTON,TX,77084-6866,"(281) 749-8000",,,,
TX,MONTGOMERY,183144-21,"Single Family Homes",4/20/2021,,293200,,"226 FLAXEN CHESTNUT",HOUSTON,TX,77356,"DEL WEBB",,CONTRACTOR,,,,,,,,,,,"PULTE HOMES",,,,,"PULTE HOMES","16670 PARK ROW",HOUSTON,TX,77084-6866,"(281) 749-8000",,,,
TX,MONTGOMERY,183145-21,"Single Family Homes",4/20/2021,,363170,,"235 SPOTTED SADDLE CT",HOUSTON,TX,77356,"DEL WEBB",,CONTRACTOR,,,,,,,,,,,"PULTE HOMES",,,,,"PULTE HOMES","16670 PARK ROW",HOUSTON,TX,77084-6866,"(281) 749-8000",,,,
TX,MONTGOMERY,183288-21,"Single Family Homes",4/23/2021,,200000,,"27710 COLAPIS DR",HOUSTON,TX,77356,"RIO VISTA",,CONTRACTOR,,,,,,,,,,,"ROCA BUILDERS",,,,,"ROCA BUILDERS","22812 FM 1314 RD STE C",PORTER,TX,77365-5487,"(713) 349-4635",https://www.rocabuilderstx.com/,,,ROCABuildersInc@gmail.com
TX,MONTGOMERY,183142-21,"Single Family Homes",4/20/2021,,683137,,"9 8 FAIRWAY PARK",HOUSTON,TX,77356,BENTWATER,,CONTRACTOR,,,,,,,,,,,"ROYAL TEXAN HOMES",,,,,"ROYAL TEXAN HOMES","15885 HIGHWAY 105 W",MONTGOMERY,TX,77356-5662,"(936) 271-4425",http://www.royaltexan.com/,,,
TX,MONTGOMERY,183312-21,"Single Family Homes",4/23/2021,,490000,,"10815 SEA MIST",HOUSTON,TX,77356,"LAKE WINDCREST",,"CODY SIMS","10815 SEA MIST",MAGNOLIA,TX,77354,,Owner,,,,,OWNER,,,,,OWNER,,,,,,,,,
TX,MONTGOMERY,183125-21,"Single Family Homes",4/20/2021,,100000,,"7074 GENTLE BREEZE DR",HOUSTON,TX,77356,"SEVEN COVES",,CONTRACTOR,,,,,,,,,,,"STARTER HOMES OF TEXAS",,,,,"STARTER HOMES OF TEXAS","9803 HIGHWAY 242 STE 200 # 211",CONROE,TX,77385-4369,"(281) 367-4200",,,,
TX,MONTGOMERY,183126-21,"Single Family Homes",4/20/2021,,100000,,"14008 BROKEN ARROW DR",HOUSTON,TX,77356,"CADDO VILLAGE",,CONTRACTOR,,,,,,,,,,,"STARTER HOMES OF TEXAS",,,,,"STARTER HOMES OF TEXAS","9803 HIGHWAY 242 STE 200 # 211",CONROE,TX,77385-4369,"(281) 367-4200",,,,
TX,MONTGOMERY,183304-21,"Single Family Homes",4/23/2021,,100000,,"16888 WEST IVANHOE",HOUSTON,TX,77356,"LAKE CONROE VILLAGE",,CONTRACTOR,,,,,,,,,,,"STARTER HOMES OF TEXAS",,,,,"STARTER HOMES OF TEXAS","9803 HIGHWAY 242 STE 200 # 211",CONROE,TX,77385-4369,"(281) 367-4200",,,,
TX,MONTGOMERY,183202-21,"Single Family Homes",4/22/2021,,102524,,"13412 WEST SUMMERCHASE CIRCLE",HOUSTON,TX,77356,SUMMERCHASE,,CONTRACTOR,,,,,,,,,,,"STYLECRAFT BUILDERS ",,,,,"STYLECRAFT BUILDERS ","4090 STATE HIGHWAY 6 S","COLLEGE STATION",TX,77845-8962,"(979) 764-9900",,"(979) 690-3069","TANNER BREWSTER",tabrewster@stylecraft-builders.com
TX,MONTGOMERY,183204-21,"Single Family Homes",4/22/2021,,138168,,"14393 SOUTH SUMMERCHASE CIRCLE",HOUSTON,TX,77356,"SUMMER CHASE",,CONTRACTOR,,,,,,,,,,,"STYLECRAFT BUILDERS ",,,,,"STYLECRAFT BUILDERS ","4090 STATE HIGHWAY 6 S","COLLEGE STATION",TX,77845-8962,"(979) 764-9900",,"(979) 690-3069","TANNER BREWSTER",tabrewster@stylecraft-builders.com
TX,MONTGOMERY,183207-21,"Single Family Homes",4/22/2021,,122588,,"14379 NORTH SUMMERCHASE CIRCLE",HOUSTON,TX,77356,"SUMMER CHASE",,CONTRACTOR,,,,,,,,,,,"STYLECRAFT BUILDERS ",,,,,"STYLECRAFT BUILDERS ","4090 STATE HIGHWAY 6 S","COLLEGE STATION",TX,77845-8962,"(979) 764-9900",,"(979) 690-3069","TANNER BREWSTER",tabrewster@stylecraft-builders.com
TX,MONTGOMERY,183208-21,"Single Family Homes",4/22/2021,,122588,,"12049 SUMMERTIME DR",HOUSTON,TX,77356,"SUMMERWOOD TRAILS",,CONTRACTOR,,,,,,,,,,,"STYLECRAFT BUILDERS ",,,,,"STYLECRAFT BUILDERS ","4090 STATE HIGHWAY 6 S","COLLEGE STATION",TX,77845-8962,"(979) 764-9900",,"(979) 690-3069","TANNER BREWSTER",tabrewster@stylecraft-builders.com
TX,MONTGOMERY,183210-21,"Single Family Homes",4/22/2021,,197372,,"12002 SUMMERTIME DR",HOUSTON,TX,77356,"SUMMERWOOD TRAILS",,CONTRACTOR,,,,,,,,,,,"STYLECRAFT BUILDERS ",,,,,"STYLECRAFT BUILDERS ","4090 STATE HIGHWAY 6 S","COLLEGE STATION",TX,77845-8962,"(979) 764-9900",,"(979) 690-3069","TANNER BREWSTER",tabrewster@stylecraft-builders.com
TX,MONTGOMERY,183181-21,"Single Family Homes",4/21/2021,,300000,,"27087 WEST BALSAM FIR CIRCLE",HOUSTON,TX,77356,"BENDERS LANDING ESTATES",,"KEITH SURFACE","16033 NORTH CHARPIOT",HUMBLE,TX,77396,,Owner,,,,,OWNER,,,,,OWNER,,,,,,,,,
TX,MONTGOMERY,183233-21,"Single Family Homes",4/22/2021,,150000,,"323 MAPLE LEAF",HOUSTON,TX,77356,"COUNTRY FOREST",,"KIMBERLY TAKATKA","1019 BOX ELDER DR",MAGNOLIA,TX,77354,,Owner,,,,,OWNER,,,,,OWNER,,,,,,,,,
TX,MONTGOMERY,183146-21,"Single Family Homes",4/20/2021,,183064,,"242 NORTH WILD PETUNIA TR",HOUSTON,TX,77356,"BONTERRA AT WOODFOREST",,CONTRACTOR,,,,,,,,,,,"TAYLOR MORRISON OF TEXAS",,,,,"TAYLOR MORRISON OF TEXAS","5353 W SAM HOUSTON PKWY N STE 190",HOUSTON,TX,77041-5186,"(281) 598-3000",,,,
TX,MONTGOMERY,183149-21,"Single Family Homes",4/20/2021,,206899,,"214 NORTH WILD PETUNIA TR",HOUSTON,TX,77356,"BONTERRA AT WOODFOREST",,CONTRACTOR,,,,,,,,,,,"TAYLOR MORRISON OF TEXAS",,,,,"TAYLOR MORRISON OF TEXAS","5353 W SAM HOUSTON PKWY N STE 190",HOUSTON,TX,77041-5186,"(281) 598-3000",,,,
TX,MONTGOMERY,183151-21,"Single Family Homes",4/20/2021,,165370,,"267 NORTH WILD PETUNIA TR",HOUSTON,TX,77356,"BONTERRA AT WOODFOREST",,CONTRACTOR,,,,,,,,,,,"TAYLOR MORRISON OF TEXAS",,,,,"TAYLOR MORRISON OF TEXAS","5353 W SAM HOUSTON PKWY N STE 190",HOUSTON,TX,77041-5186,"(281) 598-3000",,,,
TX,MONTGOMERY,183159-21,"Single Family Homes",4/21/2021,,203602,,"221 WEST CHRISTINE MANOR DR",HOUSTON,TX,77356,WOODFOREST,,CONTRACTOR,,,,,,,,,,,"TAYLOR MORRISON OF TEXAS",,,,,"TAYLOR MORRISON OF TEXAS","5353 W SAM HOUSTON PKWY N STE 190",HOUSTON,TX,77041-5186,"(281) 598-3000",,,,
TX,MONTGOMERY,183163-21,"Single Family Homes",4/21/2021,,241639,,"104 EAST CHRISTINE MANOR DR",HOUSTON,TX,77356,"WOOD FOREST",,CONTRACTOR,,,,,,,,,,,"TAYLOR MORRISON OF TEXAS",,,,,"TAYLOR MORRISON OF TEXAS","5353 W SAM HOUSTON PKWY N STE 190",HOUSTON,TX,77041-5186,"(281) 598-3000",,,,
TX,MONTGOMERY,183170-21,"Single Family Homes",4/21/2021,,197106,,"328 NORTH ARROWHEAD LN",HOUSTON,TX,77356,"BONTERRA AT WOODFOREST",,CONTRACTOR,,,,,,,,,,,"TAYLOR MORRISON OF TEXAS",,,,,"TAYLOR MORRISON OF TEXAS","5353 W SAM HOUSTON PKWY N STE 190",HOUSTON,TX,77041-5186,"(281) 598-3000",,,,
TX,MONTGOMERY,183182-21,"Single Family Homes",4/21/2021,,231159,,"111 EAST CHRISTINE MANOR DR",HOUSTON,TX,77356,WOODFOREST,,CONTRACTOR,,,,,,,,,,,"TAYLOR MORRISON OF TEXAS",,,,,"TAYLOR MORRISON OF TEXAS","5353 W SAM HOUSTON PKWY N STE 190",HOUSTON,TX,77041-5186,"(281) 598-3000",,,,
TX,MONTGOMERY,183234-21,"Single Family Homes",4/22/2021,,183064,,"294 NORTH WILD PETUNIA TR",HOUSTON,TX,77356,"BONTERRA AT WOODFOREST",,CONTRACTOR,,,,,,,,,,,"TAYLOR MORRISON OF TEXAS",,,,,"TAYLOR MORRISON OF TEXAS","5353 W SAM HOUSTON PKWY N STE 190",HOUSTON,TX,77041-5186,"(281) 598-3000",,,,
TX,MONTGOMERY,183235-21,"Single Family Homes",4/22/2021,,208497,,"323 NORTH TURKS CAP TR",HOUSTON,TX,77356,"BONTERRA AT WOODFOREST",,CONTRACTOR,,,,,,,,,,,"TAYLOR MORRISON OF TEXAS",,,,,"TAYLOR MORRISON OF TEXAS","5353 W SAM HOUSTON PKWY N STE 190",HOUSTON,TX,77041-5186,"(281) 598-3000",,,,
TX,MONTGOMERY,183236-21,"Single Family Homes",4/22/2021,,154435,,"123 WILD WISTERIA LN",HOUSTON,TX,77356,"BONTERRA AT WOODFOREST",,CONTRACTOR,,,,,,,,,,,"TAYLOR MORRISON OF TEXAS",,,,,"TAYLOR MORRISON OF TEXAS","5353 W SAM HOUSTON PKWY N STE 190",HOUSTON,TX,77041-5186,"(281) 598-3000",,,,
TX,MONTGOMERY,183237-21,"Single Family Homes",4/22/2021,,202683,,"127 EAST SILKY SEPHORA CT",HOUSTON,TX,77356,"BONTERRA AT WOODFOREST",,CONTRACTOR,,,,,,,,,,,"TAYLOR MORRISON OF TEXAS",,,,,"TAYLOR MORRISON OF TEXAS","5353 W SAM HOUSTON PKWY N STE 190",HOUSTON,TX,77041-5186,"(281) 598-3000",,,,
TX,MONTGOMERY,183243-21,"Single Family Homes",4/22/2021,,257690,,"106 TANGO LILY ST",HOUSTON,TX,77356,"BONTERRA AT WOODFOREST",,CONTRACTOR,,,,,,,,,,,"TAYLOR MORRISON OF TEXAS",,,,,"TAYLOR MORRISON OF TEXAS","5353 W SAM HOUSTON PKWY N STE 190",HOUSTON,TX,77041-5186,"(281) 598-3000",,,,
TX,MONTGOMERY,183246-21,"Single Family Homes",4/22/2021,,244862,,"138 TANGO LILY ST",HOUSTON,TX,77356,"BONTERRA AT WOODFOREST",,CONTRACTOR,,,,,,,,,,,"TAYLOR MORRISON OF TEXAS",,,,,"TAYLOR MORRISON OF TEXAS","5353 W SAM HOUSTON PKWY N STE 190",HOUSTON,TX,77041-5186,"(281) 598-3000",,,,
TX,MONTGOMERY,183265-21,"Single Family Homes",4/23/2021,,244862,,"114 SOUTH WILD PETUNIA TR",HOUSTON,TX,77356,"BONTERRA AT WOODFOREST",,CONTRACTOR,,,,,,,,,,,"TAYLOR MORRISON OF TEXAS",,,,,"TAYLOR MORRISON OF TEXAS","5353 W SAM HOUSTON PKWY N STE 190",HOUSTON,TX,77041-5186,"(281) 598-3000",,,,
TX,MONTGOMERY,183266-21,"Single Family Homes",4/23/2021,,183064,,"410 WILD PETUNIA CT",HOUSTON,TX,77356,"BONTERRA AT WOODFOREST",,CONTRACTOR,,,,,,,,,,,"TAYLOR MORRISON OF TEXAS",,,,,"TAYLOR MORRISON OF TEXAS","5353 W SAM HOUSTON PKWY N STE 190",HOUSTON,TX,77041-5186,"(281) 598-3000",,,,
TX,MONTGOMERY,183267-21,"Single Family Homes",4/23/2021,,268920,,"327 BELLFLOWER PLACE",HOUSTON,TX,77356,"BONTERRA AT WOODFOREST",,CONTRACTOR,,,,,,,,,,,"TAYLOR MORRISON OF TEXAS",,,,,"TAYLOR MORRISON OF TEXAS","5353 W SAM HOUSTON PKWY N STE 190",HOUSTON,TX,77041-5186,"(281) 598-3000",,,,
TX,MONTGOMERY,183268-21,"Single Family Homes",4/23/2021,,226614,,"118 SOUTH WILD PETUNIA TRAIL",HOUSTON,TX,77356,"BONTERRA AT WOODFOREST",,CONTRACTOR,,,,,,,,,,,"TAYLOR MORRISON OF TEXAS",,,,,"TAYLOR MORRISON OF TEXAS","5353 W SAM HOUSTON PKWY N STE 190",HOUSTON,TX,77041-5186,"(281) 598-3000",,,,
TX,MONTGOMERY,183269-21,"Single Family Homes",4/23/2021,,183064,,"243 NORTH WILD PETUNIA TR",HOUSTON,TX,77356,"BONTERRA AT WOODFOREST",,CONTRACTOR,,,,,,,,,,,"TAYLOR MORRISON OF TEXAS",,,,,"TAYLOR MORRISON OF TEXAS","5353 W SAM HOUSTON PKWY N STE 190",HOUSTON,TX,77041-5186,"(281) 598-3000",,,,
TX,MONTGOMERY,183270-21,"Single Family Homes",4/23/2021,,257690,,"146 SOUTH WILD PETUNIA TRAIL",HOUSTON,TX,77356,"BONTERRA AT WOODFOREST",,CONTRACTOR,,,,,,,,,,,"TAYLOR MORRISON OF TEXAS",,,,,"TAYLOR MORRISON OF TEXAS","5353 W SAM HOUSTON PKWY N STE 190",HOUSTON,TX,77041-5186,"(281) 598-3000",,,,
TX,MONTGOMERY,183271-21,"Single Family Homes",4/23/2021,,160060,,"282 NORTH WILD PETUNIA TR",HOUSTON,TX,77356,"BONTERRA AT WOODFOREST",,CONTRACTOR,,,,,,,,,,,"TAYLOR MORRISON OF TEXAS",,,,,"TAYLOR MORRISON OF TEXAS","5353 W SAM HOUSTON PKWY N STE 190",HOUSTON,TX,77041-5186,"(281) 598-3000",,,,
TX,MONTGOMERY,183272-21,"Single Family Homes",4/23/2021,,253190,,"110 SOUTH WILD PETUNIA TRAIL",HOUSTON,TX,77356,"BONTERRA AT WOODFOREST",,CONTRACTOR,,,,,,,,,,,"TAYLOR MORRISON OF TEXAS",,,,,"TAYLOR MORRISON OF TEXAS","5353 W SAM HOUSTON PKWY N STE 190",HOUSTON,TX,77041-5186,"(281) 598-3000",,,,
TX,MONTGOMERY,183239-21,"Single Family Homes",4/22/2021,,139900,,"28227 CLEAR BREEZE CT",HOUSTON,TX,77356,"WOODSONS RESERVE",,CONTRACTOR,,,,,,,,,,,"TOLL BROTHERS",,,,,"TOLL BROTHERS","10110 W SAM HOUSTON PKWY N STE 350",HOUSTON,TX,77064-7508,"(281) 664-7255",,,,
TX,MONTGOMERY,183240-21,"Single Family Homes",4/22/2021,,233850,,"28642 SUNRISE VIEW DR",HOUSTON,TX,77356,"WOODSONS RESERVE",,CONTRACTOR,,,,,,,,,,,"TOLL BROTHERS",,,,,"TOLL BROTHERS","10110 W SAM HOUSTON PKWY N STE 350",HOUSTON,TX,77064-7508,"(281) 664-7255",,,,
TX,MONTGOMERY,183241-21,"Single Family Homes",4/22/2021,,197450,,"28312 WOODSONS FOREST DR",HOUSTON,TX,77356,"WOODSONS RESERVE",,CONTRACTOR,,,,,,,,,,,"TOLL BROTHERS",,,,,"TOLL BROTHERS","10110 W SAM HOUSTON PKWY N STE 350",HOUSTON,TX,77064-7508,"(281) 664-7255",,,,
TX,MONTGOMERY,183242-21,"Single Family Homes",4/22/2021,,192550,,"28325 STERLING OAK DR",HOUSTON,TX,77356,"WOODSONS RESERVE",,CONTRACTOR,,,,,,,,,,,"TOLL BROTHERS",,,,,"TOLL BROTHERS","10110 W SAM HOUSTON PKWY N STE 350",HOUSTON,TX,77064-7508,"(281) 664-7255",,,,
TX,MONTGOMERY,183244-21,"Single Family Homes",4/22/2021,,189900,,"28306 EMERALD BEND DR",HOUSTON,TX,77356,"WOODSONS RESERVE",,CONTRACTOR,,,,,,,,,,,"TOLL BROTHERS",,,,,"TOLL BROTHERS","10110 W SAM HOUSTON PKWY N STE 350",HOUSTON,TX,77064-7508,"(281) 664-7255",,,,
TX,MONTGOMERY,183245-21,"Single Family Homes",4/22/2021,,168000,,"28263 EMERALD BEND DR",HOUSTON,TX,77356,"WOODSONS RESERVE",,CONTRACTOR,,,,,,,,,,,"TOLL BROTHERS",,,,,"TOLL BROTHERS","10110 W SAM HOUSTON PKWY N STE 350",HOUSTON,TX,77064-7508,"(281) 664-7255",,,,
TX,MONTGOMERY,183247-21,"Single Family Homes",4/22/2021,,219350,,"28288 WOODLEY DR",HOUSTON,TX,77356,"WOODSONS RESERVE",,CONTRACTOR,,,,,,,,,,,"TOLL BROTHERS",,,,,"TOLL BROTHERS","10110 W SAM HOUSTON PKWY N STE 350",HOUSTON,TX,77064-7508,"(281) 664-7255",,,,
TX,MONTGOMERY,183027-21,"Single Family Homes",4/19/2021,,250000,,"17322 PECOS DR",HOUSTON,TX,77356,"RIO VISTA",,CONTRACTOR,,,,,,,,,,,"TWO SONS ENVIRONMENTAL SERVICES",,,,,"TWO SONS ENVIRONMENTAL SERVICES","23565 FM 1314 RD",PORTER,TX,77365-3724,"(281) 354-9284",http://www.two-sons.net,"(281) 354-2107",,twosonsenvironmental@yahoo.com
TX,MONTGOMERY,183035-21,"Single Family Homes",4/19/2021,,200000,,"27611 RIO BLANCO DR",HOUSTON,TX,77356,"RIO VISTA",,CONTRACTOR,,,,,,,,,,,"TWO SONS ENVIRONMENTAL SERVICES",,,,,"TWO SONS ENVIRONMENTAL SERVICES","23565 FM 1314 RD",PORTER,TX,77365-3724,"(281) 354-9284",http://www.two-sons.net,"(281) 354-2107",,twosonsenvironmental@yahoo.com
TX,MONTGOMERY,183116-21,"Single Family Homes",4/20/2021,,250000,,"10905 STIDHAM ROAD",HOUSTON,TX,77356,,,CONTRACTOR,,,,,,,,,,,"TWO SONS ENVIRONMENTAL SERVICES",,,,,"TWO SONS ENVIRONMENTAL SERVICES","23565 FM 1314 RD",PORTER,TX,77365-3724,"(281) 354-9284",http://www.two-sons.net,"(281) 354-2107",,twosonsenvironmental@yahoo.com
TX,MONTGOMERY,183120-21,"Single Family Homes",4/20/2021,,200000,,"11084 NORTH WOODS DR",HOUSTON,TX,77356,"NORTH WOODS",,CONTRACTOR,,,,,,,,,,,"TWO SONS ENVIRONMENTAL SERVICES",,,,,"TWO SONS ENVIRONMENTAL SERVICES","23565 FM 1314 RD",PORTER,TX,77365-3724,"(281) 354-9284",http://www.two-sons.net,"(281) 354-2107",,twosonsenvironmental@yahoo.com
TX,MONTGOMERY,183254-21,"Single Family Homes",4/22/2021,,300000,,"28302 BUENA WAY",HOUSTON,TX,77356,"BENDERS LANDING",,CONTRACTOR,,,,,,,,,,,"TWO SONS ENVIRONMENTAL SERVICES",,,,,"TWO SONS ENVIRONMENTAL SERVICES","23565 FM 1314 RD",PORTER,TX,77365-3724,"(281) 354-9284",http://www.two-sons.net,"(281) 354-2107",,twosonsenvironmental@yahoo.com
TX,MONTGOMERY,183262-21,"Single Family Homes",4/23/2021,,250000,,"22928 RIO GRANDE DR",HOUSTON,TX,77356,RIVERWALK,,CONTRACTOR,,,,,,,,,,,"TWO SONS ENVIRONMENTAL SERVICES",,,,,"TWO SONS ENVIRONMENTAL SERVICES","23565 FM 1314 RD",PORTER,TX,77365-3724,"(281) 354-9284",http://www.two-sons.net,"(281) 354-2107",,twosonsenvironmental@yahoo.com
TX,MONTGOMERY,183167-21,"Single Family Homes",4/21/2021,,266630,,"903 FALCON HOLLOW LN",HOUSTON,TX,77356,WOODTRACE,,CONTRACTOR,,,,,,,,,,,"EMMAUEL VILLAGE BUILDERS",,,,,"EMMAUEL VILLAGE BUILDERS","PO BOX 311105",HOUSTON,TX,77231-3105,"(713) 906-5117",http://evbinc.org,,,info@evbinc.org
TX,MONTGOMERY,183171-21,"Single Family Homes",4/21/2021,,307125,,"2002 ANGEL SHORES CT",HOUSTON,TX,77356,WOODTRACE,,CONTRACTOR,,,,,,,,,,,"VILLAGE BUILDERS",,,,,"VILLAGE BUILDERS","550 GREENS PKWY STE 210",HOUSTON,TX,77067-4538,"(281) 873-4663",,,,
TX,MONTGOMERY,183175-21,"Single Family Homes",4/21/2021,,235105,,"1143 SIENNA FOREST LN",HOUSTON,TX,77356,WOODTRACE,,CONTRACTOR,,,,,,,,,,,"VILLAGE BUILDERS",,,,,"VILLAGE BUILDERS","550 GREENS PKWY STE 210",HOUSTON,TX,77067-4538,"(281) 873-4663",,,,
TX,MONTGOMERY,183124-21,"Single Family Homes",4/20/2021,,120000,,"14290 CREIGHTON ROAD",HOUSTON,TX,77356,,,"JOHN WARNER","14141 HWY 105 EAST",CONROE,TX,77306,,Owner,,,,,OWNER,,,,,OWNER,,,,,,,,,
TX,MONTGOMERY,183153-21,"Single Family Homes",4/21/2021,,480000,,"10270 WHITE ROCK ROAD",HOUSTON,TX,77356,,,"JOHN WARNER","14141 HWY 105 E",CONROE,TX,77306,,Owner,,,,,OWNER,,,,,OWNER,,,,,,,,,
TX,MONTGOMERY,183147-21,"Single Family Homes",4/20/2021,,146820,,"9819 NORTH LAKEVIEW MIST CT",HOUSTON,TX,77356,"RESERVE ON LAKE CONROE",,CONTRACTOR,,,,,,,,,,,"WAN BRIDGE LAND LLC",,,,,"WAN BRIDGE LAND LLC","5210 SPRUCE ST",BELLAIRE,TX,77401,"(713) 564-5331",https://wanbridge.com/,,,
TX,MONTGOMERY,183148-21,"Single Family Homes",4/20/2021,,146820,,"9832 NORTH LAKEVIEW MIST CT",HOUSTON,TX,77356,"RESERVE ON LAKE CONROE",,CONTRACTOR,,,,,,,,,,,"WAN BRIDGE LAND LLC",,,,,"WAN BRIDGE LAND LLC","5210 SPRUCE ST",BELLAIRE,TX,77401,"(713) 564-5331",https://wanbridge.com/,,,
TX,MONTGOMERY,"183083 21","Single Family Homes",4/20/2021,,251000,,"450 PATINA DR",HOUSTON,TX,77356,WOODFOREST,,CONTRACTOR,,,,,,,,,,,"WESTIN HOMES",,,,,"WESTIN HOMES","1 SUGAR CREEK CENTER BLVD STE 600","SUGAR LAND",TX,77478-3787,"(281) 240-1551",http://www.westin-homes.com,,,
TX,MONTGOMERY,183085-21,"Single Family Homes",4/20/2021,,251000,,"8726 BURDEKIN ROAD",HOUSTON,TX,77356,NORTHGROVE,,CONTRACTOR,,,,,,,,,,,"WESTIN HOMES",,,,,"WESTIN HOMES","1 SUGAR CREEK CENTER BLVD STE 600","SUGAR LAND",TX,77478-3787,"(281) 240-1551",http://www.westin-homes.com,,,
TX,MONTGOMERY,183086-21,"Single Family Homes",4/20/2021,,259000,,"446 PATINA DR",HOUSTON,TX,77356,WOODFOREST,,CONTRACTOR,,,,,,,,,,,"WESTIN HOMES",,,,,"WESTIN HOMES","1 SUGAR CREEK CENTER BLVD STE 600","SUGAR LAND",TX,77478-3787,"(281) 240-1551",http://www.westin-homes.com,,,
TX,MONTGOMERY,183088-21,"Single Family Homes",4/20/2021,,251000,,"425 PATINA DR",HOUSTON,TX,77356,WOODFOREST,,CONTRACTOR,,,,,,,,,,,"WESTIN HOMES",,,,,"WESTIN HOMES","1 SUGAR CREEK CENTER BLVD STE 600","SUGAR LAND",TX,77478-3787,"(281) 240-1551",http://www.westin-homes.com,,,
TX,MONTGOMERY,"183293 21","Single Family Homes",4/23/2021,,242000,,"177 SOMERSET POINT BLVD",HOUSTON,TX,77356,"WOOD FOREST",,CONTRACTOR,,,,,,,,,,,"WESTIN HOMES",,,,,"WESTIN HOMES","1 SUGAR CREEK CENTER BLVD STE 600","SUGAR LAND",TX,77478-3787,"(281) 240-1551",http://www.westin-homes.com,,,
TX,MONTGOMERY,"183084 21","Single Family Homes",4/20/2021,,336525,,"6011 PARKSIDE VILLAS CT",HOUSTON,TX,77356,"VILLAS AT WHITE OAK RANCH",,CONTRACTOR,,,,,,,,,,,"WOODFALLS DEVELOPMENT GROUP LLC",,,,,"WOODFALLS DEVELOPMENT GROUP LLC","12675 LONGMIRE WAY",CONROE,TX,77304-1077,"(936) 703-5445",https://www.woodfallstx.com,"(936) 703-5272",,
TX,MONTGOMERY,"183024 21","Single Family Homes",4/19/2021,,60000,,"4122 SWEETGUM DR",HOUSTON,TX,77356,"FOREST FALL LAKE",,"JOSE ZACAULA","4122 SWEETGUM DRIVE",CONROE,TX,77304,,Owner,,,,,OWNER,,,,,OWNER,,,,,,,,,
TX,BELL,21-737,"Single Family Homes",4/16/2021,,93012,2022,"5111 LEANING TREE DR",TEMPLE,TX,76502,,,CONTRACTOR,,,,,,,,,,,"STYLECRAFT BUILDERS ",,,,,"STYLECRAFT BUILDERS ","4090 STATE HIGHWAY 6 S","COLLEGE STATION",TX,77845-8962,"(979) 764-9900",,"(979) 690-3069","TANNER BREWSTER",tabrewster@stylecraft-builders.com
TX,BELL,21-738,"Single Family Homes",4/16/2021,,173926,3781,"1701 SPENCE ST",TEMPLE,TX,76502,"NORTH GATE",,CONTRACTOR,,,,,,,,,,,"STYLECRAFT BUILDERS ",,,,,"STYLECRAFT BUILDERS ","4090 STATE HIGHWAY 6 S","COLLEGE STATION",TX,77845-8962,"(979) 764-9900",,"(979) 690-3069","TANNER BREWSTER",tabrewster@stylecraft-builders.com
TX,BELL,21-739,"Single Family Homes",4/16/2021,,200000,2532,"2727 TORINO REALE AVE",TEMPLE,TX,76502,"BELLA TERRA",,CONTRACTOR,,,,,,,,,,,"JUBILEE HOMES",,,,,"JUBILEE HOMES","125 E BEELINE LN","HARKER HEIGHTS",TX,76548-1261,"(254) 699-0010",,,,
TX,BELL,21-740,"Single Family Homes",4/16/2021,,155894,3389,"5104 LEANING TREE DR",TEMPLE,TX,76502,"THE BEND",,CONTRACTOR,,,,,,,,,,,"STYLECRAFT BUILDERS ",,,,,"STYLECRAFT BUILDERS ","4090 STATE HIGHWAY 6 S","COLLEGE STATION",TX,77845-8962,"(979) 764-9900",,"(979) 690-3069","TANNER BREWSTER",tabrewster@stylecraft-builders.com
TX,BELL,21-741,"Single Family Homes",4/16/2021,,302000,3023,"6506 DREXEL LOOP",TEMPLE,TX,76502,"HIGHLAND PARK",,CONTRACTOR,,,,,,,,,,,"STELLAR HOMES",,,,,"STELLAR HOMES","15714 HILL LN",SELMA,TX,78154-1850,"(210) 496-7555",http://www.thestellarhome.com/,,,
TX,BELL,21-744,"Single Family Homes",4/16/2021,,229600,2355,"713 RIPPLEWOOD DR",TEMPLE,TX,76502,,,CONTRACTOR,,,,,,,,,,,"KIELLA HOMEBUILDERS",,,,,"KIELLA HOMEBUILDERS","7462 W ADAMS AVE",TEMPLE,TX,76502-5558,"(254) 778-0092",,,,
TX,BELL,21-745,"Single Family Homes",4/16/2021,,217150,2201,"604 RIPPLEWOOD DR",TEMPLE,TX,76502,"VILLAGES OF WESTFIELD",,CONTRACTOR,,,,,,,,,,,"KIELLA HOMEBUILDERS",,,,,"KIELLA HOMEBUILDERS","7462 W ADAMS AVE",TEMPLE,TX,76502-5558,"(254) 778-0092",,,,
TX,BELL,21-746,"Single Family Homes",4/16/2021,,218000,2214,"612 RIPPLEWOOD DR",TEMPLE,TX,76502,,,CONTRACTOR,,,,,,,,,,,"KIELLA HOMEBUILDERS",,,,,"KIELLA HOMEBUILDERS","7462 W ADAMS AVE",TEMPLE,TX,76502-5558,"(254) 778-0092",,,,
TX,BELL,21-747,"Single Family Homes",4/16/2021,,217150,2201,"616 RIPPLEWOOD DR",TEMPLE,TX,76502,,,CONTRACTOR,,,,,,,,,,,"KIELLA HOMEBUILDERS",,,,,"KIELLA HOMEBUILDERS","7462 W ADAMS AVE",TEMPLE,TX,76502-5558,"(254) 778-0092",,,,
TX,BELL,21-748,"Single Family Homes",4/16/2021,,296000,2703,"6112 PALOMONTE DR",TEMPLE,TX,76502,,,CONTRACTOR,,,,,,,,,,,"CAROTHERS EXECUTIVE HOMES",,,,,"CAROTHERS EXECUTIVE HOMES","50 S WHEAT RD",BELTON,TX,76513-8220,"(254) 773-0600",http://carothersexecutivehomes.com/,"(254) 791-0323","DAVID SOUTHERLAND",
TX,BELL,21-749,"Single Family Homes",4/16/2021,,,3808,"2614 PRAIRIE CHAPEL CT",TEMPLE,TX,76502,"LEGACY RANCH",,CONTRACTOR,,,,,,,,,,,"ARNOLD BUILDERS",,,,,"ARNOLD BUILDERS","5297 S 31ST ST STE 109",TEMPLE,TX,76502-3515,"(254) 742-1072",http://www.arnoldbuilders.com,"(254) 742-2226",,bobby@arnoldbuilders.com
TX,BELL,21-750,"Single Family Homes",4/16/2021,,279500,2422,"6502 DREXEL LOOP",TEMPLE,TX,76502,"HIGHLAND PARK ESTATES",,CONTRACTOR,,,,,,,,,,,"STELLAR HOMES",,,,,"STELLAR HOMES","15714 HILL LN",SELMA,TX,78154-1850,"(210) 496-7555",http://www.thestellarhome.com/,,,
TX,BELL,21-751,"Single Family Homes",4/16/2021,,236800,2355,"600 RIPPLEWOOD DR",TEMPLE,TX,76502,"VILLAGES OF WESTFIELD",,CONTRACTOR,,,,,,,,,,,"KIELLA HOMEBUILDERS",,,,,"KIELLA HOMEBUILDERS","7462 W ADAMS AVE",TEMPLE,TX,76502-5558,"(254) 778-0092",,,,
TX,BELL,21-752,"Single Family Homes",4/16/2021,,236800,2355,"712 RIPPLEWOOD DR",TEMPLE,TX,76502,"VILLAGES OF WESTFIELD",,CONTRACTOR,,,,,,,,,,,"KIELLA HOMEBUILDERS",,,,,"KIELLA HOMEBUILDERS","7462 W ADAMS AVE",TEMPLE,TX,76502-5558,"(254) 778-0092",,,,
TX,BELL,21-753,"Single Family Homes",4/16/2021,,199150,1874,"725 RIPPLEWOOD DR",TEMPLE,TX,76502,"VILLAGES OF WESTFIELD",,CONTRACTOR,,,,,,,,,,,"KIELLA HOMEBUILDERS",,,,,"KIELLA HOMEBUILDERS","7462 W ADAMS AVE",TEMPLE,TX,76502-5558,"(254) 778-0092",,,,
TX,BELL,21-754,"Single Family Homes",4/16/2021,,184276,4006,"5225 LEANING TREE DR",TEMPLE,TX,76502,,,CONTRACTOR,,,,,,,,,,,"STYLECRAFT BUILDERS ",,,,,"STYLECRAFT BUILDERS ","4090 STATE HIGHWAY 6 S","COLLEGE STATION",TX,77845-8962,"(979) 764-9900",,"(979) 690-3069","TANNER BREWSTER",tabrewster@stylecraft-builders.com
TX,BELL,21-755,"Single Family Homes",4/16/2021,,97520,2120,"5208 LEANING TREE DR",TEMPLE,TX,76502,,,CONTRACTOR,,,,,,,,,,,"STYLECRAFT BUILDERS ",,,,,"STYLECRAFT BUILDERS ","4090 STATE HIGHWAY 6 S","COLLEGE STATION",TX,77845-8962,"(979) 764-9900",,"(979) 690-3069","TANNER BREWSTER",tabrewster@stylecraft-builders.com
TX,BELL,FY-21-756,"Single Family Homes",4/16/2021,,97520,2120,"902 FALLBROOK DR",TEMPLE,TX,76502,"LAKE POINTE",,CONTRACTOR,,,,,,,,,,,"STYLECRAFT BUILDERS ",,,,,"STYLECRAFT BUILDERS ","4090 STATE HIGHWAY 6 S","COLLEGE STATION",TX,77845-8962,"(979) 764-9900",,"(979) 690-3069","TANNER BREWSTER",tabrewster@stylecraft-builders.com
TX,BELL,FY-21-757,"Single Family Homes",4/16/2021,,143934,3129,"908 FALLBROOK DR",TEMPLE,TX,76502,"LAKE POINTE",,CONTRACTOR,,,,,,,,,,,"STYLECRAFT BUILDERS ",,,,,"STYLECRAFT BUILDERS ","4090 STATE HIGHWAY 6 S","COLLEGE STATION",TX,77845-8962,"(979) 764-9900",,"(979) 690-3069","TANNER BREWSTER",tabrewster@stylecraft-builders.com
TX,BELL,FY-21-758,"Single Family Homes",4/16/2021,,97796,2126,"7523 BROADMOOR CV",TEMPLE,TX,76502,"NORTH GATE",,CONTRACTOR,,,,,,,,,,,"STYLECRAFT BUILDERS ",,,,,"STYLECRAFT BUILDERS ","4090 STATE HIGHWAY 6 S","COLLEGE STATION",TX,77845-8962,"(979) 764-9900",,"(979) 690-3069","TANNER BREWSTER",tabrewster@stylecraft-builders.com
TX,BELL,FY-21-759,"Single Family Homes",4/16/2021,,115782,2517,"7730 MERRY OAKS CV",TEMPLE,TX,76502,"NORTH GATE",,CONTRACTOR,,,,,,,,,,,"STYLECRAFT BUILDERS ",,,,,"STYLECRAFT BUILDERS ","4090 STATE HIGHWAY 6 S","COLLEGE STATION",TX,77845-8962,"(979) 764-9900",,"(979) 690-3069","TANNER BREWSTER",tabrewster@stylecraft-builders.com
TX,BELL,FY-21-760,"Single Family Homes",4/16/2021,,120198,2613,"3030 DADE LOOP",TEMPLE,TX,76502,"SOUTH POINTE",,CONTRACTOR,,,,,,,,,,,"STYLECRAFT BUILDERS ",,,,,"STYLECRAFT BUILDERS ","4090 STATE HIGHWAY 6 S","COLLEGE STATION",TX,77845-8962,"(979) 764-9900",,"(979) 690-3069","TANNER BREWSTER",tabrewster@stylecraft-builders.com
TX,BELL,FY-21-761,"Single Family Homes",4/16/2021,,98164,2134,"2043 DADE LOOP",TEMPLE,TX,76502,"SOUTH POINTE",,CONTRACTOR,,,,,,,,,,,"STYLECRAFT BUILDERS ",,,,,"STYLECRAFT BUILDERS ","4090 STATE HIGHWAY 6 S","COLLEGE STATION",TX,77845-8962,"(979) 764-9900",,"(979) 690-3069","TANNER BREWSTER",tabrewster@stylecraft-builders.com
TX,BELL,FY-21-762,"Single Family Homes",4/16/2021,,121210,2635,"917 FALLBROOK DR",TEMPLE,TX,76502,"LAKE POINTE",,CONTRACTOR,,,,,,,,,,,"STYLECRAFT BUILDERS ",,,,,"STYLECRAFT BUILDERS ","4090 STATE HIGHWAY 6 S","COLLEGE STATION",TX,77845-8962,"(979) 764-9900",,"(979) 690-3069","TANNER BREWSTER",tabrewster@stylecraft-builders.com
TX,BELL,FY-21-763,"Single Family Homes",4/16/2021,,,1458,"1310 S 47TH ST",TEMPLE,TX,76502,"TEMPLE HEIGHTS",,CONTRACTOR,,,,,,,,,,,"AMERITEX HOMES",,,,,"AMERITEX HOMES","4835 LYNDON B JOHNSON FWY",DALLAS,TX,75244-6005,"(214) 765-0596",,,,
TX,BELL,FY-21-764,"Single Family Homes",4/16/2021,,,1397,"918 E D AVE",TEMPLE,TX,76502,"ROY CAMPBELL",,CONTRACTOR,,,,,,,,,,,"AMERITEX HOMES",,,,,"AMERITEX HOMES","4835 LYNDON B JOHNSON FWY",DALLAS,TX,75244-6005,"(214) 765-0596",,,,
TX,BRAZOS,21-1505,"Single Family Homes",4/30/2021,,210000,2241,"4106 WABASH CT",BRYAN,TX,77808,OAKMONT,5,CONTRACTOR,,,,,,,,,,,"BLACKSTONE HOMES",,,,,"BLACKSTONE HOMES","2829 TIMMONS LN APT 157",HOUSTON,TX,77027-5357,"(281) 827-8716",,,"ANDREW COLLINS",
TX,BRAZOS,21-1577,"Single Family Homes",4/30/2021,,153912,1849,"977 MARQUIS DR",BRYAN,TX,77803,FOLLETT,10,CONTRACTOR,,,,,,,,,,,"LEGEND CLASSIC HOMES",,,,,"LEGEND CLASSIC HOMES","6634 BEESTON HILL DR",KATY,TX,77449-0195,"(281) 463-9950",http://legendhomeshouston.com/,,,
TX,BRAZOS,21-1584,"Single Family Homes",4/30/2021,,166518,2100,"979 MARQUIS DR",BRYAN,TX,77803,FOLLETT,10,CONTRACTOR,,,,,,,,,,,"LEGEND CLASSIC HOMES",,,,,"LEGEND CLASSIC HOMES","6634 BEESTON HILL DR",KATY,TX,77449-0195,"(281) 463-9950",http://legendhomeshouston.com/,,,
TX,BRAZOS,21-1582,"Single Family Homes",4/30/2021,,160710,1947,"981 MARQUIS DR",BRYAN,TX,77803,FOLLETT,10,CONTRACTOR,,,,,,,,,,,"LEGEND CLASSIC HOMES",,,,,"LEGEND CLASSIC HOMES","6634 BEESTON HILL DR",KATY,TX,77449-0195,"(281) 463-9950",http://legendhomeshouston.com/,,,
TX,BRAZOS,21-1576,"Single Family Homes",4/30/2021,,142032,1707,"983 MARQUIS DR",BRYAN,TX,77803,FOLLETT,10,CONTRACTOR,,,,,,,,,,,"LEGEND CLASSIC HOMES",,,,,"LEGEND CLASSIC HOMES","6634 BEESTON HILL DR",KATY,TX,77449-0195,"(281) 463-9950",http://legendhomeshouston.com/,,,
TX,BRAZOS,21-1580,"Single Family Homes",4/30/2021,,204072,2628,"985 MARQUIS DR",BRYAN,TX,77803,FOLLETT,10,CONTRACTOR,,,,,,,,,,,"LEGEND CLASSIC HOMES",,,,,"LEGEND CLASSIC HOMES","6634 BEESTON HILL DR",KATY,TX,77449-0195,"(281) 463-9950",http://legendhomeshouston.com/,,,
TX,BRAZOS,21-1575,"Single Family Homes",4/30/2021,,175494,2246,"987 MARQUIS DR",BRYAN,TX,77803,FOLLETT,10,CONTRACTOR,,,,,,,,,,,"LEGEND CLASSIC HOMES",,,,,"LEGEND CLASSIC HOMES","6634 BEESTON HILL DR",KATY,TX,77449-0195,"(281) 463-9950",http://legendhomeshouston.com/,,,
TX,BRAZOS,21-1478,"Single Family Homes",5/3/2021,,175890,2082,"4111 WABASH CT",BRYAN,TX,77808,OAKMONT,6,CONTRACTOR,,,,,,,,,,,"STYLECRAFT BUILDERS ",,,,,"STYLECRAFT BUILDERS ","4090 STATE HIGHWAY 6 S","COLLEGE STATION",TX,77845-8962,"(979) 764-9900",,"(979) 690-3069","TANNER BREWSTER",tabrewster@stylecraft-builders.com
TX,BRAZOS,21-1574,"Single Family Homes",5/4/2021,,106194,1200,"1118 RICHARD ST",BRYAN,TX,77803,"THOMAS HEIGHTS",2,CONTRACTOR,,,,,,,,,,,"CENTURY COMMUNITIES",,,,,"CENTURY COMMUNITIES","4700 W SAM HOUSTON PKWY N STE 130",HOUSTON,TX,77041-8219,"(281) 741-8946",https://www.centurycommunities.com/,,,
TX,BRAZOS,21-1567,"Single Family Homes",5/4/2021,,106194,1200,"1120 ALICE ST",BRYAN,TX,77803,"THOMAS HEIGHTS",2,CONTRACTOR,,,,,,,,,,,"CENTURY COMMUNITIES",,,,,"CENTURY COMMUNITIES","4700 W SAM HOUSTON PKWY N STE 130",HOUSTON,TX,77041-8219,"(281) 741-8946",https://www.centurycommunities.com/,,,
TX,BRAZOS,21-1529,"Single Family Homes",5/4/2021,,120714,1195,"1304 LINCOLN ST",BRYAN,TX,77808,"CASTLE HEIGHTS",7,CONTRACTOR,,,,,,,,,,,"AGS CONSTRUCTION",,,,,"AGS CONSTRUCTION","1005 S COULTER DR",BRYAN,TX,77803,"(979) 450-3731",,,,
TX,BRAZOS,21-1352,"Single Family Homes",5/4/2021,,700000,3434,"3215 ELM CREEK CT",BRYAN,TX,77807,TRADITIONS,8,CONTRACTOR,,,,,,,,,,,"JEFFERSON CHRISTIAN CUSTOM HOMES",,,,,"JEFFERSON CHRISTIAN CUSTOM HOMES","2700 EARL RUDDER FWY S STE 2100","COLLEGE STATION",TX,77845-5038,"(979) 694-1272",http://www.jeffersonchristian.net/,"(979) 694-8443","DALE CHRISTIAN ",
TX,BRAZOS,21-1572,"Single Family Homes",5/5/2021,,110220,1200,"1116 RICHARD ST",BRYAN,TX,77803,"THOMAS HEIGHTS",2,CONTRACTOR,,,,,,,,,,,"CENTURY COMMUNITIES",,,,,"CENTURY COMMUNITIES","4700 W SAM HOUSTON PKWY N STE 130",HOUSTON,TX,77041-8219,"(281) 741-8946",https://www.centurycommunities.com/,,,
TX,BRAZOS,21-1566,"Single Family Homes",5/5/2021,,124806,1400,"1120 RICHARD ST",BRYAN,TX,77803,"THOMAS CROSSING",2,CONTRACTOR,,,,,,,,,,,"CENTURY COMMUNITIES",,,,,"CENTURY COMMUNITIES","4700 W SAM HOUSTON PKWY N STE 130",HOUSTON,TX,77041-8219,"(281) 741-8946",https://www.centurycommunities.com/,,,
TX,BRAZOS,21-1656,"Single Family Homes",5/5/2021,,270000,2612,"4216 PEREGRINE WAY",BRYAN,TX,77802,OAKMONT,6,CONTRACTOR,,,,,,,,,,,"PITMAN CUSTOM HOMES",,,,,"PITMAN CUSTOM HOMES","1401 SEBESTA RD","COLLEGE STATION",TX,77845-5527,"(979) 693-6699",http://www.pitmancustomhomes.com,,JIMMY,
TX,BRAZOS,21-1317,"Single Family Homes",5/6/2021,,246000,2226,"2953 ARCHER DR",BRYAN,TX,77808,"AUSTINS COLONY",5,CONTRACTOR,,,,,,,,,,,"PITMAN CUSTOM HOMES",,,,,"PITMAN CUSTOM HOMES","1401 SEBESTA RD","COLLEGE STATION",TX,77845-5527,"(979) 693-6699",http://www.pitmancustomhomes.com,,JIMMY,
TX,BRAZOS,21-1622,"Single Family Homes",5/6/2021,,151932,1743,"4713 LAS CASITAS WAY",BRYAN,TX,77807,"ALAMOSA SPRINGS",6,CONTRACTOR,,,,,,,,,,,"LEGEND CLASSIC HOMES",,,,,"LEGEND CLASSIC HOMES","6634 BEESTON HILL DR",KATY,TX,77449-0195,"(281) 463-9950",http://legendhomeshouston.com/,,,
TX,BRAZOS,21-1569,"Single Family Homes",5/7/2021,,119724,1393,"2100 HERITAGE MEADOW LN",BRYAN,TX,77802,"HERITAGE MEADOW",1,CONTRACTOR,,,,,,,,,,,"BLACKROCK BUILDERS",,,,,"BLACKROCK BUILDERS","553 N POST OAK LN",HOUSTON,TX,77024-4629,"(281) 914-6785",http://www.blackrockbuilderstx.com/,,,
TX,BRAZOS,21-0650,"Single Family Homes",5/7/2021,,132000,1480,"2101 HERITAGE MEADOW LN",BRYAN,TX,77802,"HERITAGE MEADOW",1,CONTRACTOR,,,,,,,,,,,"BLACKROCK BUILDERS",,,,,"BLACKROCK BUILDERS","553 N POST OAK LN",HOUSTON,TX,77024-4629,"(281) 914-6785",http://www.blackrockbuilderstx.com/,,,
TX,BRAZOS,21-1568,"Single Family Homes",5/7/2021,,117000,1287,"2105 HERITAGE MEADOW LN",BRYAN,TX,77802,"HERITAGE MEADOW",2,CONTRACTOR,,,,,,,,,,,"BLACKROCK BUILDERS",,,,,"BLACKROCK BUILDERS","553 N POST OAK LN",HOUSTON,TX,77024-4629,"(281) 914-6785",http://www.blackrockbuilderstx.com/,,,
TX,BRAZOS,21-1571,"Single Family Homes",5/7/2021,,113784,1272,"2125 HERITAGE MEADOW LN",BRYAN,TX,77802,"HERITAGE MEADOW",7,CONTRACTOR,,,,,,,,,,,"BLACKROCK BUILDERS",,,,,"BLACKROCK BUILDERS","553 N POST OAK LN",HOUSTON,TX,77024-4629,"(281) 914-6785",http://www.blackrockbuilderstx.com/,,,
TX,BRAZOS,21-1573,"Single Family Homes",5/7/2021,,123486,1383,"2140 HERITAGE MEADOW LN",BRYAN,TX,77802,"HERITAGE MEADOW",11,CONTRACTOR,,,,,,,,,,,"BLACKROCK BUILDERS",,,,,"BLACKROCK BUILDERS","553 N POST OAK LN",HOUSTON,TX,77024-4629,"(281) 914-6785",http://www.blackrockbuilderstx.com/,,,
TX,BRAZOS,21-0647,"Single Family Homes",5/7/2021,,122000,1329,"2145 HERITAGE MEADOW LN",BRYAN,TX,77802,"HERITAGE MEADOW",12,CONTRACTOR,,,,,,,,,,,"BLACKROCK BUILDERS",,,,,"BLACKROCK BUILDERS","553 N POST OAK LN",HOUSTON,TX,77024-4629,"(281) 914-6785",http://www.blackrockbuilderstx.com/,,,
TX,BRAZOS,21-0648,"Single Family Homes",5/7/2021,,106073,1272,"2148 HERITAGE MEADOW LN",BRYAN,TX,77802,"HERITAGE MEADOW",13,CONTRACTOR,,,,,,,,,,,"BLACKROCK BUILDERS",,,,,"BLACKROCK BUILDERS","553 N POST OAK LN",HOUSTON,TX,77024-4629,"(281) 914-6785",http://www.blackrockbuilderstx.com/,,,
TX,BRAZOS,21-1325,"Single Family Homes",5/7/2021,,123486,1383,"2152 HERITAGE MEADOW LN",BRYAN,TX,77802,"HERITAGE MEADOW",14,CONTRACTOR,,,,,,,,,,,"BLACKROCK BUILDERS",,,,,"BLACKROCK BUILDERS","553 N POST OAK LN",HOUSTON,TX,77024-4629,"(281) 914-6785",http://www.blackrockbuilderstx.com/,,,
TX,BRAZOS,21-0649,"Single Family Homes",5/7/2021,,105505,1115,"2157 HERITAGE MEADOW LN",BRYAN,TX,77802,"HERITAGE MEADOW",15,CONTRACTOR,,,,,,,,,,,"BLACKROCK BUILDERS",,,,,"BLACKROCK BUILDERS","553 N POST OAK LN",HOUSTON,TX,77024-4629,"(281) 914-6785",http://www.blackrockbuilderstx.com/,,,
TX,BRAZOS,21-1612,"Single Family Homes",5/7/2021,,181500,1969,"3019 WOLFPACK LOOP",BRYAN,TX,77807,"AUSTINS COLONY",13,CONTRACTOR,,,,,,,,,,,"BLACKROCK BUILDERS",,,,,"BLACKROCK BUILDERS","553 N POST OAK LN",HOUSTON,TX,77024-4629,"(281) 914-6785",http://www.blackrockbuilderstx.com/,,,
TX,BRAZOS,21-1714,"Single Family Homes",5/7/2021,,285000,2194,"3041 WOLFPACK LOOP",BRYAN,TX,77808,"AUSTINS COLONY",24,CONTRACTOR,,,,,,,,,,,"AMBIT HOMES",,,,,"AMBIT HOMES","18063 LATIGO CT","COLLEGE STATION",TX,77845-6391,"(979) 429-3552",,,,
TX,BRAZOS,21-1723,"Single Family Homes",5/11/2021,,231000,2504,"3252 ROSE HILL LN",BRYAN,TX,77808,GREENBRIER,5,CONTRACTOR,,,,,,,,,,,"RIDGEWOOD CUSTOM HOMES",,,,,"RIDGEWOOD CUSTOM HOMES","106 PHEASANT RUN CT",SUNSET,TX,76270-2176,"(940) 872-9911",,,,
TX,BRAZOS,21-1657,"Single Family Homes",5/11/2021,,200000,1964,"5006 GREYROCK DR",BRYAN,TX,77802,OAKMONT,4,CONTRACTOR,,,,,,,,,,,"HALL HOMES",,,,,"HALL HOMES","PO BOX 12341","COLLEGE STATION",TX,77842-2341,"(979) 551-5259",http://www.hallhomestx.com/,,,rhall@hallhomestx.com
TX,BRAZOS,21-1732,"Single Family Homes",5/12/2021,,110220,1200,"1122 ALICE ST",BRYAN,TX,77803,"THOMAS HEIGHTS",2,CONTRACTOR,,,,,,,,,,,"CENTURY COMMUNITIES",,,,,"CENTURY COMMUNITIES","4700 W SAM HOUSTON PKWY N STE 130",HOUSTON,TX,77041-8219,"(281) 741-8946",https://www.centurycommunities.com/,,,
TX,BRAZOS,21-1733,"Single Family Homes",5/12/2021,,110220,1200,"1804 GROESBECK ST",BRYAN,TX,77803,"THOMAS HEIGHTS",2,CONTRACTOR,,,,,,,,,,,"CENTURY COMMUNITIES",,,,,"CENTURY COMMUNITIES","4700 W SAM HOUSTON PKWY N STE 130",HOUSTON,TX,77041-8219,"(281) 741-8946",https://www.centurycommunities.com/,,,
TX,BRAZOS,21-1819,"Single Family Homes",5/12/2021,,150612,1724,"1916 MERIDIAN CT",BRYAN,TX,77807,"BOULDER CREEK",16,CONTRACTOR,,,,,,,,,,,"RANGER HOME BUILDERS",,,,,"RANGER HOME BUILDERS","547 WILLIAM D FITCH PKWY","COLLEGE STATION",TX,77845-6161,"(979) 255-7526",,,,
TX,BRAZOS,21-1769,"Single Family Homes",5/12/2021,,131142,1509,"2013 THERESA DR",BRYAN,TX,77807,EDGEWATER,6,CONTRACTOR,,,,,,,,,,,"STYLECRAFT BUILDERS ",,,,,"STYLECRAFT BUILDERS ","4090 STATE HIGHWAY 6 S","COLLEGE STATION",TX,77845-8962,"(979) 764-9900",,"(979) 690-3069","TANNER BREWSTER",tabrewster@stylecraft-builders.com
TX,BRAZOS,21-1770,"Single Family Homes",5/12/2021,,122562,1443,"2034 THERESA DR",BRYAN,TX,77807,EDGEWATER,27,CONTRACTOR,,,,,,,,,,,"STYLECRAFT BUILDERS ",,,,,"STYLECRAFT BUILDERS ","4090 STATE HIGHWAY 6 S","COLLEGE STATION",TX,77845-8962,"(979) 764-9900",,"(979) 690-3069","TANNER BREWSTER",tabrewster@stylecraft-builders.com
TX,BRAZOS,21-1682,"Single Family Homes",5/13/2021,,85000,1067,"1524 CASSIB ST",BRYAN,TX,77803,STOVALL,11,CONTRACTOR,,,,,,,,,,,"OAKWOOD CUSTOM HOMES",,,,,"OAKWOOD CUSTOM HOMES","4060 STATE HIGHWAY 6 S ","COLLEGE STATION",TX,77845-8962,"(979) 690-1504",http://oakchb.com/,"(979) 690-2504",,sales@oakchb.com
TX,BRAZOS,21-1516,"Single Family Homes",5/13/2021,,276035,1744,"5210 MONTAGUE LOOP",BRYAN,TX,77803,"PLEASANT HILL",30,CONTRACTOR,,,,,,,,,,,"DR HORTON",,,,,"DR HORTON","14100 SOUTHWEST",HOUSTON,TX,77478,"(281) 201-5559",,,,
TX,BRAZOS,21-1520,"Single Family Homes",5/13/2021,,299520,1882,"5212 MONTAGUE LOOP",BRYAN,TX,77803,"PLEASANT HILL",29,CONTRACTOR,,,,,,,,,,,"DR HORTON",,,,,"DR HORTON","14100 SOUTHWEST",HOUSTON,TX,77478,"(281) 201-5559",,,,
TX,BRAZOS,21-1515,"Single Family Homes",5/13/2021,,264475,1744,"5214 MONTAGUE LOOP",BRYAN,TX,77803,"PLEASANT HILL",28,CONTRACTOR,,,,,,,,,,,"DR HORTON",,,,,"DR HORTON","14100 SOUTHWEST",HOUSTON,TX,77478,"(281) 201-5559",,,,
TX,BRAZOS,21-1517,"Single Family Homes",5/13/2021,,276100,1744,"5217 MONTAGUE LOOP",BRYAN,TX,77803,"PLEASANT HILL",19,CONTRACTOR,,,,,,,,,,,"DR HORTON",,,,,"DR HORTON","14100 SOUTHWEST",HOUSTON,TX,77478,"(281) 201-5559",,,,
TX,BRAZOS,21-1849,"Single Family Homes",5/14/2021,,260000,2281,"3009 BLACKFOOT CT",BRYAN,TX,77808,"AUSTINS COLONY",10,CONTRACTOR,,,,,,,,,,,"KINSINGTON HOMES",,,,,"KINSINGTON HOMES","402 MONTPELIER DR",SOUTHLAKE,TX,76092,"(214) 923-7575",https://www.kensingtonestates.net/,,,kensingtoncustomhomes@gmail.com
TX,BRAZOS,21-1851,"Single Family Homes",5/14/2021,,173910,2082,"4316 APPALACHIAN TRL",BRYAN,TX,77802,OAKMONT,2,CONTRACTOR,,,,,,,,,,,"STYLECRAFT BUILDERS ",,,,,"STYLECRAFT BUILDERS ","4090 STATE HIGHWAY 6 S","COLLEGE STATION",TX,77845-8962,"(979) 764-9900",,"(979) 690-3069","TANNER BREWSTER",tabrewster@stylecraft-builders.com
TX,BRAZOS,21-1912,"Single Family Homes",5/14/2021,,142626,1523,"947 HARPER LN",BRYAN,TX,77803,FOLLETT,39,CONTRACTOR,,,,,,,,,,,"LEGEND CLASSIC HOMES",,,,,"LEGEND CLASSIC HOMES","6634 BEESTON HILL DR",KATY,TX,77449-0195,"(281) 463-9950",http://legendhomeshouston.com/,,,
TX,BRAZOS,21-1911,"Single Family Homes",5/14/2021,,121242,1307,"949 HARPER LN",BRYAN,TX,77803,FOLLETT,38,CONTRACTOR,,,,,,,,,,,"LEGEND CLASSIC HOMES",,,,,"LEGEND CLASSIC HOMES","6634 BEESTON HILL DR",KATY,TX,77449-0195,"(281) 463-9950",http://legendhomeshouston.com/,,,
TX,BRAZOS,21-1910,"Single Family Homes",5/14/2021,,128898,1523,"953 HARPER LN",BRYAN,TX,77803,FOLLETT,36,CONTRACTOR,,,,,,,,,,,"LEGEND CLASSIC HOMES",,,,,"LEGEND CLASSIC HOMES","6634 BEESTON HILL DR",KATY,TX,77449-0195,"(281) 463-9950",http://legendhomeshouston.com/,,,
TX,BRAZOS,21-1908,"Single Family Homes",5/14/2021,,160710,1947,"955 HARPER LN",BRYAN,TX,77803,FOLLETT,35,CONTRACTOR,,,,,,,,,,,"LEGEND CLASSIC HOMES",,,,,"LEGEND CLASSIC HOMES","6634 BEESTON HILL DR",KATY,TX,77449-0195,"(281) 463-9950",http://legendhomeshouston.com/,,,
TX,BRAZOS,21-1909,"Single Family Homes",5/14/2021,,143814,1742,"957 HARPER LN",BRYAN,TX,77803,FOLLETT,34,CONTRACTOR,,,,,,,,,,,"LEGEND CLASSIC HOMES",,,,,"LEGEND CLASSIC HOMES","6634 BEESTON HILL DR",KATY,TX,77449-0195,"(281) 463-9950",http://legendhomeshouston.com/,,,
TX,BRAZOS,21-1907,"Single Family Homes",5/14/2021,,156420,1849,"959 HARPER LN",BRYAN,TX,77803,FOLLETT,33,CONTRACTOR,,,,,,,,,,,"LEGEND CLASSIC HOMES",,,,,"LEGEND CLASSIC HOMES","6634 BEESTON HILL DR",KATY,TX,77449-0195,"(281) 463-9950",http://legendhomeshouston.com/,,,
TX,BRAZOS,21-1846,"Single Family Homes",5/14/2021,,170808,2125,"989 MARQUIS DR",BRYAN,TX,77803,FOLLETT,10,CONTRACTOR,,,,,,,,,,,"LEGEND CLASSIC HOMES",,,,,"LEGEND CLASSIC HOMES","6634 BEESTON HILL DR",KATY,TX,77449-0195,"(281) 463-9950",http://legendhomeshouston.com/,,,
TX,BRAZOS,21-1847,"Single Family Homes",5/14/2021,,138402,1523,"993 MARQUIS DR",BRYAN,TX,77803,FOLLETT,10,CONTRACTOR,,,,,,,,,,,"LEGEND CLASSIC HOMES",,,,,"LEGEND CLASSIC HOMES","6634 BEESTON HILL DR",KATY,TX,77449-0195,"(281) 463-9950",http://legendhomeshouston.com/,,,
TX,BRAZOS,21-1830,"Single Family Homes",5/14/2021,,156420,1849,"997 MARQUIS DR",BRYAN,TX,77803,FOLLETT,10,CONTRACTOR,,,,,,,,,,,"LEGEND CLASSIC HOMES",,,,,"LEGEND CLASSIC HOMES","6634 BEESTON HILL DR",KATY,TX,77449-0195,"(281) 463-9950",http://legendhomeshouston.com/,,,
TX,BRAZOS,21-1858,"Single Family Homes",5/17/2021,,161766,1789,"1907 THORNDYKE LN",BRYAN,TX,77807,"PLEASANT HILL",28,CONTRACTOR,,,,,,,,,,,"OMEGA BUILDERS GROUP",,,,,"OMEGA BUILDERS GROUP","7353 W ADAMS AVE",TEMPLE,TX,76502-5539,"(254) 773-9966",,,,
TX,BRAZOS,21-2112,"Single Family Homes",5/20/2021,,174900,1833,"1950 THORNDYKE LN",BRYAN,TX,77807,"PLEASANT HILL",27,CONTRACTOR,,,,,,,,,,,"OMEGA BUILDERS GROUP",,,,,"OMEGA BUILDERS GROUP","7353 W ADAMS AVE",TEMPLE,TX,76502-5539,"(254) 773-9966",,,,
TX,BRAZOS,21-2128,"Single Family Homes",5/20/2021,,153450,1818,"2004 VIVA RD",BRYAN,TX,77807,EDGEWATER,2,CONTRACTOR,,,,,,,,,,,"STYLECRAFT BUILDERS ",,,,,"STYLECRAFT BUILDERS ","4090 STATE HIGHWAY 6 S","COLLEGE STATION",TX,77845-8962,"(979) 764-9900",,"(979) 690-3069","TANNER BREWSTER",tabrewster@stylecraft-builders.com
TX,BRAZOS,21-2124,"Single Family Homes",5/20/2021,,153912,1818,"2030 VIVA RD",BRYAN,TX,77807,EDGEWATER,10,CONTRACTOR,,,,,,,,,,,"STYLECRAFT BUILDERS ",,,,,"STYLECRAFT BUILDERS ","4090 STATE HIGHWAY 6 S","COLLEGE STATION",TX,77845-8962,"(979) 764-9900",,"(979) 690-3069","TANNER BREWSTER",tabrewster@stylecraft-builders.com
TX,BRAZOS,21-1994,"Single Family Homes",5/20/2021,,121968,1443,"3722 MCKENZIE ST",BRYAN,TX,77803,"CONNORS COVE",3,CONTRACTOR,,,,,,,,,,,"STYLECRAFT BUILDERS ",,,,,"STYLECRAFT BUILDERS ","4090 STATE HIGHWAY 6 S","COLLEGE STATION",TX,77845-8962,"(979) 764-9900",,"(979) 690-3069","TANNER BREWSTER",tabrewster@stylecraft-builders.com
TX,BRAZOS,21-0020,"Single Family Homes",5/20/2021,,240000,2116,"4221 PEREGRINE WAY",BRYAN,TX,77802,OAKMONT,10,CONTRACTOR,,,,,,,,,,,"RIDGEWOOD CUSTOM HOMES",,,,,"RIDGEWOOD CUSTOM HOMES","106 PHEASANT RUN CT",SUNSET,TX,76270-2176,"(940) 872-9911",,,,
TX,BRAZOS,21-2019,"Single Family Homes",5/20/2021,,237950,1535,"5242 MONTAGUE LOOP",BRYAN,TX,77803,"PLEASANT HILL",14,CONTRACTOR,,,,,,,,,,,"DR HORTON",,,,,"DR HORTON","14100 SOUTHWEST",HOUSTON,TX,77478,"(281) 201-5559",,,,
TX,BRAZOS,21-2005,"Single Family Homes",5/20/2021,,200904,2628,"961 HARPER LN",BRYAN,TX,77803,FOLLETT,32,CONTRACTOR,,,,,,,,,,,"LEGEND CLASSIC HOMES",,,,,"LEGEND CLASSIC HOMES","6634 BEESTON HILL DR",KATY,TX,77449-0195,"(281) 463-9950",http://legendhomeshouston.com/,,,
TX,BRAZOS,21-2016,"Single Family Homes",5/20/2021,,161436,2052,"963 HARPER LN",BRYAN,TX,77803,FOLLETT,31,CONTRACTOR,,,,,,,,,,,"LEGEND CLASSIC HOMES",,,,,"LEGEND CLASSIC HOMES","6634 BEESTON HILL DR",KATY,TX,77449-0195,"(281) 463-9950",http://legendhomeshouston.com/,,,
TX,BRAZOS,21-2017,"Single Family Homes",5/20/2021,,149424,1849,"966 RICE DR",BRYAN,TX,77803,FOLLETT,32,CONTRACTOR,,,,,,,,,,,"LEGEND CLASSIC HOMES",,,,,"LEGEND CLASSIC HOMES","6634 BEESTON HILL DR",KATY,TX,77449-0195,"(281) 463-9950",http://legendhomeshouston.com/,,,
TX,BRAZOS,21-1731,"Single Family Homes",5/24/2021,,94974,1209,"1124 ALICE ST",BRYAN,TX,77803,"THOMAS HEIGHTS",2,CONTRACTOR,,,,,,,,,,,"CENTURY COMMUNITIES",,,,,"CENTURY COMMUNITIES","4700 W SAM HOUSTON PKWY N STE 130",HOUSTON,TX,77041-8219,"(281) 741-8946",https://www.centurycommunities.com/,,,
TX,BRAZOS,21-1919,"Single Family Homes",5/24/2021,,198000,2031,"3001 WOLFPACK LOOP",BRYAN,TX,77808,"AUSTINS COLONY",1,CONTRACTOR,,,,,,,,,,,"BLACKROCK BUILDERS",,,,,"BLACKROCK BUILDERS","553 N POST OAK LN",HOUSTON,TX,77024-4629,"(281) 914-6785",http://www.blackrockbuilderstx.com/,,,
TX,BRAZOS,21-1971,"Single Family Homes",5/24/2021,,183216,2153,"3033 WOLFPACK LOOP",BRYAN,TX,77808,"AUSTINS COLONY",20,CONTRACTOR,,,,,,,,,,,"RNL HOME BUILDERS",,,,,"RNL HOME BUILDERS","4253 ROCKY RHODES DRIVE","COLLEGE STATION",TX,77845,"(979) 402-2531",http://www.rnlhomebuilders.com,,,RNLHomebuilders@gmail.com
TX,BRAZOS,21-1860,"Single Family Homes",5/24/2021,,225000,2184,"4107 WABASH CT",BRYAN,TX,77808,OAKMONT,7,CONTRACTOR,,,,,,,,,,,"BLACKSTONE HOMES",,,,,"BLACKSTONE HOMES","2829 TIMMONS LN APT 157",HOUSTON,TX,77027-5357,"(281) 827-8716",,,"ANDREW COLLINS",
TX,BRAZOS,21-1857,"Single Family Homes",5/24/2021,,220000,2065,"4114 VINTAGE ESTATES CT",BRYAN,TX,77808,"VINTAGE ESTATES",2,CONTRACTOR,,,,,,,,,,,"BLACKSTONE HOMES",,,,,"BLACKSTONE HOMES","2829 TIMMONS LN APT 157",HOUSTON,TX,77027-5357,"(281) 827-8716",,,"ANDREW COLLINS",
TX,BRAZOS,21-1859,"Single Family Homes",5/24/2021,,225000,2130,"4117 VINTAGE ESTATES CT",BRYAN,TX,77808,"VINTAGE ESTATES",5,CONTRACTOR,,,,,,,,,,,"BLACKSTONE HOMES",,,,,"BLACKSTONE HOMES","2829 TIMMONS LN APT 157",HOUSTON,TX,77027-5357,"(281) 827-8716",,,"ANDREW COLLINS",
TX,BRAZOS,21-1862,"Single Family Homes",5/24/2021,,205000,1841,"5005 MAROON CREEK DR",BRYAN,TX,77802,OAKMONT,25,CONTRACTOR,,,,,,,,,,,"BLACKSTONE HOMES",,,,,"BLACKSTONE HOMES","2829 TIMMONS LN APT 157",HOUSTON,TX,77027-5357,"(281) 827-8716",,,"ANDREW COLLINS",
TX,BRAZOS,21-1620,"Single Family Homes",5/25/2021,,138402,1523,"4709 LAS CASITAS WAY",BRYAN,TX,77807,"ALAMOSA SPRINGS",5,CONTRACTOR,,,,,,,,,,,"LEGEND CLASSIC HOMES",,,,,"LEGEND CLASSIC HOMES","6634 BEESTON HILL DR",KATY,TX,77449-0195,"(281) 463-9950",http://legendhomeshouston.com/,,,
TX,BRAZOS,21-1621,"Single Family Homes",5/25/2021,,176748,2246,"4711 LAS CASITAS WAY",BRYAN,TX,77807,"ALAMOSA SPRINGS",6,CONTRACTOR,,,,,,,,,,,"LEGEND CLASSIC HOMES",,,,,"LEGEND CLASSIC HOMES","6634 BEESTON HILL DR",KATY,TX,77449-0195,"(281) 463-9950",http://legendhomeshouston.com/,,,
TX,BRAZOS,21-1617,"Single Family Homes",5/25/2021,,156420,1849,"4716 NOPALITOS WAY",BRYAN,TX,77807,"ALAMOSA SPRINGS",1,CONTRACTOR,,,,,,,,,,,"LEGEND CLASSIC HOMES",,,,,"LEGEND CLASSIC HOMES","6634 BEESTON HILL DR",KATY,TX,77449-0195,"(281) 463-9950",http://legendhomeshouston.com/,,,
TX,BRAZOS,21-2242,"Single Family Homes",5/25/2021,,176616,1995,"5306 HEDLEY PL",BRYAN,TX,77807,"PLEASANT HILL",21,CONTRACTOR,,,,,,,,,,,"OMEGA BUILDERS GROUP",,,,,"OMEGA BUILDERS GROUP","7353 W ADAMS AVE",TEMPLE,TX,76502-5539,"(254) 773-9966",,,,
TX,BRAZOS,21-2028,"Single Family Homes",5/26/2021,,291145,2500,"4204 PEREGRINE WAY",BRYAN,TX,77802,OAKMONT,12,CONTRACTOR,,,,,,,,,,,"REECE HOMES",,,,,"REECE HOMES","1818 TAYLOR",HOUSTON,TX,77545,"(713) 826-7262",http://www.reece-homes.com/,,,
TX,BRAZOS,21-2217,"Single Family Homes",5/27/2021,,199914,2342,"1903 THORNDYKE LN",BRYAN,TX,77807,"PLEASANT HILL",26,CONTRACTOR,,,,,,,,,,,"OMEGA BUILDERS GROUP",,,,,"OMEGA BUILDERS GROUP","7353 W ADAMS AVE",TEMPLE,TX,76502-5539,"(254) 773-9966",,,,
TX,BRAZOS,21-1914,"Single Family Homes",5/27/2021,,137808,1562,"1914 MERIDIAN CT",BRYAN,TX,77807,"BOULDER CREEK",17,CONTRACTOR,,,,,,,,,,,"RANGER HOME BUILDERS",,,,,"RANGER HOME BUILDERS","547 WILLIAM D FITCH PKWY","COLLEGE STATION",TX,77845-6161,"(979) 255-7526",,,,
TX,BRAZOS,21-2125,"Single Family Homes",5/27/2021,,117678,1349,"2006 KATHRYN DR",BRYAN,TX,77807,EDGEWATER,33,CONTRACTOR,,,,,,,,,,,"STYLECRAFT BUILDERS ",,,,,"STYLECRAFT BUILDERS ","4090 STATE HIGHWAY 6 S","COLLEGE STATION",TX,77845-8962,"(979) 764-9900",,"(979) 690-3069","TANNER BREWSTER",tabrewster@stylecraft-builders.com
TX,BRAZOS,21-2169,"Single Family Homes",5/27/2021,,117678,1349,"2007 THERESA DR",BRYAN,TX,77807,EDGEWATER,3,CONTRACTOR,,,,,,,,,,,"STYLECRAFT BUILDERS ",,,,,"STYLECRAFT BUILDERS ","4090 STATE HIGHWAY 6 S","COLLEGE STATION",TX,77845-8962,"(979) 764-9900",,"(979) 690-3069","TANNER BREWSTER",tabrewster@stylecraft-builders.com
TX,BRAZOS,21-2316,"Single Family Homes",5/27/2021,,122562,1443,"2008 KATHRYN DR",BRYAN,TX,77807,EDGEWATER,32,CONTRACTOR,,,,,,,,,,,"STYLECRAFT BUILDERS ",,,,,"STYLECRAFT BUILDERS ","4090 STATE HIGHWAY 6 S","COLLEGE STATION",TX,77845-8962,"(979) 764-9900",,"(979) 690-3069","TANNER BREWSTER",tabrewster@stylecraft-builders.com
TX,BRAZOS,21-2165,"Single Family Homes",5/27/2021,,159456,1837,"2008 VIVA RD",BRYAN,TX,77807,EDGEWATER,3,CONTRACTOR,,,,,,,,,,,"STYLECRAFT BUILDERS ",,,,,"STYLECRAFT BUILDERS ","4090 STATE HIGHWAY 6 S","COLLEGE STATION",TX,77845-8962,"(979) 764-9900",,"(979) 690-3069","TANNER BREWSTER",tabrewster@stylecraft-builders.com
TX,BRAZOS,21-2167,"Single Family Homes",5/27/2021,,117678,1349,"2043 THERESA DR",BRYAN,TX,77807,EDGEWATER,17,CONTRACTOR,,,,,,,,,,,"STYLECRAFT BUILDERS ",,,,,"STYLECRAFT BUILDERS ","4090 STATE HIGHWAY 6 S","COLLEGE STATION",TX,77845-8962,"(979) 764-9900",,"(979) 690-3069","TANNER BREWSTER",tabrewster@stylecraft-builders.com
TX,BRAZOS,21-1934,"Single Family Homes",5/27/2021,,305000,2852,"3002 ALPHA CT",BRYAN,TX,77808,"AUSTINS COLONY",6,CONTRACTOR,,,,,,,,,,,"PITMAN CUSTOM HOMES",,,,,"PITMAN CUSTOM HOMES","1401 SEBESTA RD","COLLEGE STATION",TX,77845-5527,"(979) 693-6699",http://www.pitmancustomhomes.com,,JIMMY,
TX,BRAZOS,21-2032,"Single Family Homes",5/27/2021,,133716,1521,"3416 POINTE DU HOC DR",BRYAN,TX,77808,"RUDDER POINTE",4,CONTRACTOR,,,,,,,,,,,"RANGER HOME BUILDERS",,,,,"RANGER HOME BUILDERS","547 WILLIAM D FITCH PKWY","COLLEGE STATION",TX,77845-6161,"(979) 255-7526",,,,
TX,BRAZOS,21-2175,"Single Family Homes",5/27/2021,,164592,1500,"3444 POINTE DU HOC DR",BRYAN,TX,77808,"RUDDER POINTE",11,CONTRACTOR,,,,,,,,,,,"AVONLEY HOMES",,,,,"AVONLEY HOMES","3900 STATE HIGHWAY 6 S STE 110","COLLEGE STATION",TX,77845-5831,"(979) 635-4800",https://www.avonleyhomes.com/,,,info@avonleyhomes.com
TX,BRAZOS,21-1998,"Single Family Homes",5/27/2021,,121968,1443,"3724 MCKENZIE ST",BRYAN,TX,77803,"CONNORS COVE",3,CONTRACTOR,,,,,,,,,,,"STYLECRAFT BUILDERS ",,,,,"STYLECRAFT BUILDERS ","4090 STATE HIGHWAY 6 S","COLLEGE STATION",TX,77845-8962,"(979) 764-9900",,"(979) 690-3069","TANNER BREWSTER",tabrewster@stylecraft-builders.com
TX,BRAZOS,21-2227,"Single Family Homes",5/27/2021,,254945,1533,"5200 MONTAGUE LOOP",BRYAN,TX,77803,"PLEASANT HILL",35,CONTRACTOR,,,,,,,,,,,"DR HORTON",,,,,"DR HORTON","14100 SOUTHWEST",HOUSTON,TX,77478,"(281) 201-5559",,,,
TX,BRAZOS,21-1144,"Single Family Homes",5/28/2021,,120000,1436,"204 EDGE ST",BRYAN,TX,77801,"DELLWOOD PARK",9,CONTRACTOR,,,,,,,,,,,"JORGE RUIZ",,,,,"JORGE RUIZ","5606 HOLSTON HILLS",HOUSTON,TX,77069,"(832) 606-3559",,,,
TX,BRAZOS,21-2027,"Single Family Homes",5/28/2021,,600000,3618,"4772 CONCORDIA DR",BRYAN,TX,77802,MIRAMONT,17,CONTRACTOR,,,,,,,,,,,"MURPHY SIGNATURE HOMES",,,,,"MURPHY SIGNATURE HOMES","1580 COPPERFIELD PKWY","COLLEGE STATION",TX,77845-4674,"(979) 703-1979",https://www.murphysignaturehomes.com/,,,
TX,MONTGOMERY,20210212,"Single Family Homes",4/8/2021,,140465,,"364 JEWETT MEADOW DR",MAGNOLIA,TX,77356,,,"BRUCE MECHANICAL","364 JEWETT MEADOW DR",MAGNOLIA,TX,77356,,Owner,,,,,OWNER,,,,,OWNER,,,,,,,,,
TX,BRAZOS,RES2021-000103,"Single Family Homes",4/5/2021,,327000,3078,"4120 WALLACESHIRE AVE","COLLEGE STATION",TX,77845,CASTLEGATE,,"BRIAN MCDONALD","4120 WALLACESHIRE AVE","COLLEGE STATION",TX,77845,,Owner,,,,,"CREEKVIEW CUSTOM BUILDERS",,,,,"CREEKVIEW CUSTOM BUILDERS","1489 CHEROKEE DR","COLLEGE STATION",TX,77845-8446,"(979) 412-5007",http://www.creekviewcustombuilders.com/,,,
TX,BRAZOS,RES2021-000148,"Single Family Homes",4/5/2021,,193502,3121,"6311 SPARTAN DR","COLLEGE STATION",TX,77845,SOUTHERN,,CONTRACTOR,,,,,,,,,,,"STYLECRAFT BUILDERS ",,,,,"STYLECRAFT BUILDERS ","4090 STATE HIGHWAY 6 S","COLLEGE STATION",TX,77845-8962,"(979) 764-9900",,"(979) 690-3069","TANNER BREWSTER",tabrewster@stylecraft-builders.com
TX,BRAZOS,RES2021-000153,"Single Family Homes",4/5/2021,,110212,1868,"1077 TOLEDO BEND DR","COLLEGE STATION",TX,77845,MIDTOWN,,CONTRACTOR,,,,,,,,,,,"DR HORTON",,,,,"DR HORTON","14100 SOUTHWEST",HOUSTON,TX,77478,"(281) 201-5559",,,,
TX,BRAZOS,RES2021-000154,"Single Family Homes",4/5/2021,,110212,1868,"1233 AMISTAD LOOP","COLLEGE STATION",TX,77845,MIDTOWN,,CONTRACTOR,,,,,,,,,,,"DR HORTON",,,,,"DR HORTON","14100 SOUTHWEST",HOUSTON,TX,77478,"(281) 201-5559",,,,
TX,BRAZOS,RES2021-000083,"Single Family Homes",4/6/2021,,151320,2889,"303 GLADE ST","COLLEGE STATION",TX,77845,,,CONTRACTOR,,,,,,,,,,,"BLUESTONE HOMES",,,,,"BLUESTONE HOMES","210 SOUTH MAINSTREET, SUITE 3",DUNCANVILLE,TX,75116,"(972) 268-2865",https://www.bluestonehomesoftexas.com/,,,Office@BluestoneHomesOfTexas.com
TX,BRAZOS,RES2021-000144,"Single Family Homes",4/7/2021,,209488,2853,"6324 ELDORA DR","COLLEGE STATION",TX,77845,SOUTHERN,,CONTRACTOR,,,,,,,,,,,"KALEO HOMES",,,,,"KALEO HOMES","4109 WOODCREST DR",BRYAN,TX,77802-3649,"(979) 575-2182",,,,
TX,BRAZOS,RES2021-000160,"Single Family Homes",4/7/2021,,120006,2034,"1247 AMISTAD LOOP","COLLEGE STATION",TX,77845,MIDTOWN,,CONTRACTOR,,,,,,,,,,,"DR HORTON",,,,,"DR HORTON","14100 SOUTHWEST",HOUSTON,TX,77478,"(281) 201-5559",,,,
TX,BRAZOS,RES2021-000162,"Single Family Homes",4/7/2021,,110684,1876,"701 GRANGER LN","COLLEGE STATION",TX,77845,MIDTOWN,,CONTRACTOR,,,,,,,,,,,"DR HORTON",,,,,"DR HORTON","14100 SOUTHWEST",HOUSTON,TX,77478,"(281) 201-5559",,,,
TX,BRAZOS,RES2021-000163,"Single Family Homes",4/7/2021,,105551,1789,"703 GRANGER LN","COLLEGE STATION",TX,77845,MIDTOWN,,CONTRACTOR,,,,,,,,,,,"DR HORTON",,,,,"DR HORTON","14100 SOUTHWEST",HOUSTON,TX,77478,"(281) 201-5559",,,,
TX,BRAZOS,RES2021-000164,"Single Family Homes",4/7/2021,,110212,1868,"707 GRANGER LN","COLLEGE STATION",TX,77845,,,CONTRACTOR,,,,,,,,,,,"DR HORTON",,,,,"DR HORTON","14100 SOUTHWEST",HOUSTON,TX,77478,"(281) 201-5559",,,,
TX,BRAZOS,RES2021-000165,"Single Family Homes",4/7/2021,,110684,1876,"709 GRANGER LN","COLLEGE STATION",TX,77845,MIDTOWN,,CONTRACTOR,,,,,,,,,,,"DR HORTON",,,,,"DR HORTON","14100 SOUTHWEST",HOUSTON,TX,77478,"(281) 201-5559",,,,
TX,BRAZOS,RES2021-000167,"Single Family Homes",4/7/2021,,115109,1951,"713 GRANGER LN","COLLEGE STATION",TX,77845,MIDTOWN,,CONTRACTOR,,,,,,,,,,,"DR HORTON",,,,,"DR HORTON","14100 SOUTHWEST",HOUSTON,TX,77478,"(281) 201-5559",,,,
TX,BRAZOS,RES2021-000169,"Single Family Homes",4/6/2021,,250000,3889,"2704 CAINHORN CT","COLLEGE STATION",TX,77845,CASTLEGATE,,CONTRACTOR,,,,,,,,,,,"BLACKSTONE HANDCRAFTED HOMES",,,,,"BLACKSTONE HANDCRAFTED HOMES","2900 CAIN RD","COLLEGE STATION",TX,77845-6224,"(979) 696-4663",http://blackstonehandcrafted.com/,"(979) 696-4664","MATTHEW JOHNSON",
TX,BRAZOS,RES2021-000113,"Single Family Homes",4/9/2021,,600500,4888,"511 OLD JERSEY ST","COLLEGE STATION",TX,77845,"COLLEGE PARK",,"OLD JERSEY JV LLC","511 OLD JERSEY ST","COLLEGE STATION",TX,77845,,Owner,,,,,"ELLIS CUSTOM HOMES",,,,,"ELLIS CUSTOM HOMES","101 GROVE ST","COLLEGE STATION",TX,77840-2836,"(979) 695-8394",http://www.elliscustomhomes.com,"(979) 764-7999",,
TX,BRAZOS,RES2021-000128,"Single Family Homes",4/9/2021,,150000,2292,"1012 DOMINIK DR","COLLEGE STATION",TX,77845,"CARTERS GROVE",,CONTRACTOR,,,,,,,,,,,"NEWPHASE CONSTRUCTION",,,,,"NEWPHASE CONSTRUCTION","1500 UNIVERSITY OAKS BLVD","COLLEGE STATION",TX,77840,"(979) 704-3024",http://www.newphasetx.com/2108230.htm,,,melissa@hometownbcs.com
TX,BRAZOS,RES2021-000130,"Single Family Homes",4/9/2021,,400000,4266,"2712 WOLVESHIRE LN","COLLEGE STATION",TX,77845,CASTLEGATE,,CONTRACTOR,,,,,,,,,,,"HEATH TOWNSEND HOMES",,,,,"HEATH TOWNSEND HOMES","2306 KENDAL GREEN CIR","COLLEGE STATION",TX,77845-4840,"(979) 574-0374",http://heathtownsendhomes.com/,,,heath@heathtownsendhomes.com
TX,BRAZOS,RES2021-000138,"Single Family Homes",4/8/2021,,500000,6843,"1443 ROYAL ADELADE LOOP","COLLEGE STATION",TX,77845,"PEBBLE CREEK",,CONTRACTOR,,,,,,,,,,,"MAGRUDER HOMES",,,,,"MAGRUDER HOMES","PO BOX 10572","COLLEGE STATION",TX,77842-0572,"(979) 324-6682",http://magruderhomes.com/,"(979) 696-2383",,john@magruderhomes.com
TX,BRAZOS,RES2021-000149,"Single Family Homes",4/9/2021,,238700,3612,"4906 PEARL RIVER CT","COLLEGE STATION",TX,77845,,,CONTRACTOR,,,,,,,,,,,"FLAGSHIP CUSTOM HOMES",,,,,"FLAGSHIP CUSTOM HOMES","14391 S DOWLING RD","COLLEGE STATION",TX,77845-3473,"(203) 667-4581",http://wordpress.flagshiptx.com/,,,info@flagshiptx.com
TX,BRAZOS,RES2021-000161,"Single Family Homes",4/8/2021,,109858,1862,"801 MINERAL WELLS LN","COLLEGE STATION",TX,77845,,,CONTRACTOR,,,,,,,,,,,"DR HORTON",,,,,"DR HORTON","14100 SOUTHWEST",HOUSTON,TX,77478,"(281) 201-5559",,,,
TX,BRAZOS,RES2021-000168,"Single Family Homes",4/8/2021,,139308,2650,"6335 SPARTAN DR","COLLEGE STATION",TX,77845,,,CONTRACTOR,,,,,,,,,,,"OMEGA BUILDERS GROUP",,,,,"OMEGA BUILDERS GROUP","7353 W ADAMS AVE",TEMPLE,TX,76502-5539,"(254) 773-9966",,,,
TX,BRAZOS,RES2021-000171,"Single Family Homes",4/13/2021,,152064,2874,"1104 BRUNSWICK CT","COLLEGE STATION",TX,77845,,,CONTRACTOR,,,,,,,,,,,"ED FROEHLING BUILDERS ",,,,,"ED FROEHLING BUILDERS ","3887 HIGH LONESOME","COLLEGE STATION",TX,77845-9443,"(979) 694-0565",http://edfroehlingbuilder.com,,,
TX,BRAZOS,RES2021-000132,"Single Family Homes",4/14/2021,,400000,3707,"2701 SCATTERBY CV","COLLEGE STATION",TX,77845,,,"GREENS PRAIRIE INVESTORS LTD","2701 SCATTERBY CV","COLLEGE STATION",TX,77845,,Owner,,,,,"HEATH TOWNSEND HOMES",,,,,"HEATH TOWNSEND HOMES","2306 KENDAL GREEN CIR","COLLEGE STATION",TX,77845-4840,"(979) 574-0374",http://heathtownsendhomes.com/,,,heath@heathtownsendhomes.com
TX,BRAZOS,RES2021-000152,"Single Family Homes",4/15/2021,,255000,5241,"4408 SELBY CT","COLLEGE STATION",TX,77845,,,"CRAIG & VIRGINIA YORK","4408 SELBY CT","COLLEGE STATION",TX,77845,,Owner,,,,,"MARIOTT HOMES",,,,,"MARIOTT HOMES","209 ROCK PRAIRIE RD","COLLEGE STATION",TX,77845-8796,"(979) 696-1787",http://mariotthomes.com/,,,
TX,BRAZOS,RES2021-000155,"Single Family Homes",4/15/2021,,90801,2022,"705 GRANGER LN","COLLEGE STATION",TX,77845,"MIDTOWN RESERVE",,CONTRACTOR,,,,,,,,,,,"DR HORTON",,,,,"DR HORTON","14100 SOUTHWEST",HOUSTON,TX,77478,"(281) 201-5559",,,,
TX,BRAZOS,RES2021-000156,"Single Family Homes",4/14/2021,,400000,4440,"2702 SCATTERBY CV","COLLEGE STATION",TX,77845,,,"GREENS PRAIRIE INVESTORS LTD","2702 SCATTERBY CV","COLLEGE STATION",TX,77845,,Owner,,,,,"HEATH TOWNSEND HOMES",,,,,"HEATH TOWNSEND HOMES","2306 KENDAL GREEN CIR","COLLEGE STATION",TX,77845-4840,"(979) 574-0374",http://heathtownsendhomes.com/,,,heath@heathtownsendhomes.com
TX,BRAZOS,RES2021-000170,"Single Family Homes",4/15/2021,,143311,2429,"1245 AMISTAD LOOP","COLLEGE STATION",TX,77845,MIDTOWN,,CONTRACTOR,,,,,,,,,,,"DR HORTON",,,,,"DR HORTON","14100 SOUTHWEST",HOUSTON,TX,77478,"(281) 201-5559",,,,
TX,BRAZOS,RES2021-000173,"Single Family Homes",4/15/2021,,200000,2584,"4012 HERU CT","COLLEGE STATION",TX,77845,BREWSTER,,CONTRACTOR,,,,,,,,,,,"HALL HOMES",,,,,"HALL HOMES","PO BOX 12341","COLLEGE STATION",TX,77842-2341,"(979) 551-5259",http://www.hallhomestx.com/,,,rhall@hallhomestx.com
TX,BRAZOS,RES2021-000179,"Single Family Homes",4/15/2021,,119328,2520,"906 DOVE CHASE LN","COLLEGE STATION",TX,77845,DOVE,,CONTRACTOR,,,,,,,,,,,"ED FROEHLING BUILDERS ",,,,,"ED FROEHLING BUILDERS ","3887 HIGH LONESOME","COLLEGE STATION",TX,77845-9443,"(979) 694-0565",http://edfroehlingbuilder.com,,,
TX,BRAZOS,RES2021-000157,"Single Family Homes",4/16/2021,,250000,3546,"1323 CRYSTAL LN","COLLEGE STATION",TX,77845,,,CONTRACTOR,,,,,,,,,,,"PITMAN CUSTOM HOMES",,,,,"PITMAN CUSTOM HOMES","1401 SEBESTA RD","COLLEGE STATION",TX,77845-5527,"(979) 693-6699",http://www.pitmancustomhomes.com,,JIMMY,
TX,BRAZOS,RES2021-000183,"Single Family Homes",4/16/2021,,119298,2022,"1241 AMISTAD LOOP","COLLEGE STATION",TX,77845,,,CONTRACTOR,,,,,,,,,,,"DR HORTON",,,,,"DR HORTON","14100 SOUTHWEST",HOUSTON,TX,77478,"(281) 201-5559",,,,
TX,BRAZOS,RES2021-000129,"Single Family Homes",4/19/2021,,400000,2895,"4714 PEARL RIVER CT","COLLEGE STATION",TX,77845,"GREENS PRAIRIE",,CONTRACTOR,,,,,,,,,,,"HEATH TOWNSEND HOMES",,,,,"HEATH TOWNSEND HOMES","2306 KENDAL GREEN CIR","COLLEGE STATION",TX,77845-4840,"(979) 574-0374",http://heathtownsendhomes.com/,,,heath@heathtownsendhomes.com
TX,BRAZOS,RES2021-000181,"Single Family Homes",4/19/2021,,107852,1828,"1083 TOLEDO BEND DR","COLLEGE STATION",TX,77845,MIDTOWN,,CONTRACTOR,,,,,,,,,,,"DR HORTON",,,,,"DR HORTON","14100 SOUTHWEST",HOUSTON,TX,77478,"(281) 201-5559",,,,
TX,BRAZOS,RES2021-000190,"Single Family Homes",4/19/2021,,120006,2034,"1243 AMISTAD LOOP","COLLEGE STATION",TX,77845,MIDTOWN,,CONTRACTOR,,,,,,,,,,,"DR HORTON",,,,,"DR HORTON","14100 SOUTHWEST",HOUSTON,TX,77478,"(281) 201-5559",,,,
TX,BRAZOS,RES2021-000143,"Single Family Homes",4/20/2021,,168350,2776,"409 MARYEM ST","COLLEGE STATION",TX,77845,"WEST PARK",,"BOARDWALK HOMES LLC","409 MARYEM ST","COLLEGE STATION",TX,77845,,Owner,,,,,"BLUESTONE HOMES",,,,,"BLUESTONE HOMES","210 SOUTH MAINSTREET, SUITE 3",DUNCANVILLE,TX,75116,"(972) 268-2865",https://www.bluestonehomesoftexas.com/,,,Office@BluestoneHomesOfTexas.com
TX,BRAZOS,RES2021-000189,"Single Family Homes",4/20/2021,,255150,3149,"1925 COTTONWOOD TERRACE CT","COLLEGE STATION",TX,77845,"MISSION RANCH",,CONTRACTOR,,,,,,,,,,,"REECE HOMES",,,,,"REECE HOMES","1818 TAYLOR",HOUSTON,TX,77545,"(713) 826-7262",http://www.reece-homes.com/,,,
TX,BRAZOS,RES2021-000191,"Single Family Homes",4/20/2021,,115109,1951,"1239 AMISTAD LOOP","COLLEGE STATION",TX,77845,MIDTOWN,,CONTRACTOR,,,,,,,,,,,"DR HORTON",,,,,"DR HORTON","14100 SOUTHWEST",HOUSTON,TX,77478,"(281) 201-5559",,,,
TX,BRAZOS,RES2021-000193,"Single Family Homes",4/20/2021,,120006,2034,"1235 AMISTAD LOOP","COLLEGE STATION",TX,77845,MIDTOWN,,CONTRACTOR,,,,,,,,,,,"DR HORTON",,,,,"DR HORTON","14100 SOUTHWEST",HOUSTON,TX,77478,"(281) 201-5559",,,,
TX,BRAZOS,RES2021-000204,"Single Family Homes",4/20/2021,,120006,2034,"715 GRANGER LN","COLLEGE STATION",TX,77845,MIDTOWN,,CONTRACTOR,,,,,,,,,,,"DR HORTON",,,,,"DR HORTON","14100 SOUTHWEST",HOUSTON,TX,77478,"(281) 201-5559",,,,
TX,BRAZOS,RES2021-000020,"Single Family Homes",4/22/2021,,190836,2918,"811 FAIRVIEW AVE","COLLEGE STATION",TX,77845,"BREEZY HEIGHTS",,"SHABEER JAFFAR","811 FAIRVIEW AVE","COLLEGE STATION",TX,77845,,Owner,,,,,"HANCOCK CUSTOM HOMES",,,,,"HANCOCK CUSTOM HOMES","PO BOX 11214","COLLEGE STATION",TX,77842-1214,"(979) 412-6301",http://www.homesbyhancock.com/,,,info@homesbyhancock.com
TX,BRAZOS,RES2021-000172,"Single Family Homes",4/23/2021,,375000,3532,"4718 PEARL RIVER CT","COLLEGE STATION",TX,77845,,,CONTRACTOR,,,,,,,,,,,"MAGRUDER HOMES",,,,,"MAGRUDER HOMES","PO BOX 10572","COLLEGE STATION",TX,77842-0572,"(979) 324-6682",http://magruderhomes.com/,"(979) 696-2383",,john@magruderhomes.com
TX,BRAZOS,RES2021-000182,"Single Family Homes",4/23/2021,,155000,3232,"4016 ESKEW DR","COLLEGE STATION",TX,77845,BREWSTER,,"ROUNTREE DEVELOPMENT LTD","4016 ESKEW DR","COLLEGE STATION",TX,77845,,Owner,,,,,"GLENN THOMAS HOMES",,,,,"GLENN THOMAS HOMES","1110 12TH MAN CIR","COLLEGE STATION",TX,77845-8978,"(979) 412-5171",http://www.glennthomashomes.com/,,"GLENN THOMAS",glennthomashomes@gmail.com
TX,BRAZOS,RES2021-000188,"Single Family Homes",4/23/2021,,198000,2296,"3904 BROWNWAY CT","COLLEGE STATION",TX,77845,BREWSTER,,CONTRACTOR,,,,,,,,,,,"BLACKROCK BUILDERS",,,,,"BLACKROCK BUILDERS","553 N POST OAK LN",HOUSTON,TX,77024-4629,"(281) 914-6785",http://www.blackrockbuilderstx.com/,,,
TX,BRAZOS,RES2021-000196,"Single Family Homes",4/23/2021,,285000,3136,"4213 BALLY MORE DR","COLLEGE STATION",TX,77845,,,CONTRACTOR,,,,,,,,,,,"RIDGEWOOD CUSTOM HOMES",,,,,"RIDGEWOOD CUSTOM HOMES","106 PHEASANT RUN CT",SUNSET,TX,76270-2176,"(940) 872-9911",,,,
TX,BRAZOS,RES2021-000192,"Single Family Homes",4/26/2021,,137942,2338,"1237 AMISTAD LOOP","COLLEGE STATION",TX,77845,,,CONTRACTOR,,,,,,,,,,,"DR HORTON",,,,,"DR HORTON","14100 SOUTHWEST",HOUSTON,TX,77478,"(281) 201-5559",,,,
TX,BRAZOS,RES2021-000220,"Single Family Homes",4/26/2021,,134756,2284,"815 MINERAL WELLS LN","COLLEGE STATION",TX,77345,,,CONTRACTOR,,,,,,,,,,,"DR HORTON",,,,,"DR HORTON","14100 SOUTHWEST",HOUSTON,TX,77478,"(281) 201-5559",,,,
TX,BRAZOS,RES2021-000221,"Single Family Homes",4/26/2021,,103840,1760,"807 MINERAL WELLS LN","COLLEGE STATION",TX,77845,,,CONTRACTOR,,,,,,,,,,,"DR HORTON",,,,,"DR HORTON","14100 SOUTHWEST",HOUSTON,TX,77478,"(281) 201-5559",,,,
TX,BRAZOS,RES2021-000222,"Single Family Homes",4/26/2021,,117823,1997,"805 MINERAL WELLS LN","COLLEGE STATION",TX,77845,MIDTOWN,,CONTRACTOR,,,,,,,,,,,"DR HORTON",,,,,"DR HORTON","14100 SOUTHWEST",HOUSTON,TX,77478,"(281) 201-5559",,,,
TX,BRAZOS,RES2021-000223,"Single Family Homes",4/26/2021,,134815,2285,"803 MINERAL WELLS LN","COLLEGE STATION",TX,77845,MIDTOWN,,CONTRACTOR,,,,,,,,,,,"DR HORTON",,,,,"DR HORTON","14100 SOUTHWEST",HOUSTON,TX,77478,"(281) 201-5559",,,,
TX,BRAZOS,RES2021-000227,"Single Family Homes",4/26/2021,,173128,3097,"3684 HASKELL HOLLOW LOOP","COLLEGE STATION",TX,77845,,,CONTRACTOR,,,,,,,,,,,"OMEGA BUILDERS GROUP",,,,,"OMEGA BUILDERS GROUP","7353 W ADAMS AVE",TEMPLE,TX,76502-5539,"(254) 773-9966",,,,
TX,BRAZOS,RES2021-000194,"Single Family Homes",4/28/2021,,400000,4042,"4701 PEARL RIVER CT","COLLEGE STATION",TX,77845,,,CONTRACTOR,,,,,,,,,,,"AMBIT HOMES",,,,,"AMBIT HOMES","18063 LATIGO CT","COLLEGE STATION",TX,77845-6391,"(979) 429-3552",,,,
TX,BRAZOS,RES2021-000195,"Single Family Homes",4/28/2021,,420000,3890,"4712 PEARL RIVER CT","COLLEGE STATION",TX,77845,,,CONTRACTOR,,,,,,,,,,,"AMBIT HOMES",,,,,"AMBIT HOMES","18063 LATIGO CT","COLLEGE STATION",TX,77845-6391,"(979) 429-3552",,,,
TX,BRAZOS,RES2021-000213,"Single Family Homes",4/28/2021,,220000,3410,"1325 CRYSTAL LN","COLLEGE STATION",TX,77845,,,CONTRACTOR,,,,,,,,,,,"HALL HOMES",,,,,"HALL HOMES","PO BOX 12341","COLLEGE STATION",TX,77842-2341,"(979) 551-5259",http://www.hallhomestx.com/,,,rhall@hallhomestx.com
TX,BRAZOS,RES2021-000214,"Single Family Homes",4/27/2021,,131812,2126,"6304 ROCKFORD DR","COLLEGE STATION",TX,77845,"SOUTHERN POINTE",,CONTRACTOR,,,,,,,,,,,"STYLECRAFT BUILDERS ",,,,,"STYLECRAFT BUILDERS ","4090 STATE HIGHWAY 6 S","COLLEGE STATION",TX,77845-8962,"(979) 764-9900",,"(979) 690-3069","TANNER BREWSTER",tabrewster@stylecraft-builders.com
TX,BRAZOS,RES2021-000216,"Single Family Homes",4/27/2021,,137720,2221,"6313 ROCKFORD DR","COLLEGE STATION",TX,77845,"SOUTHERN POINTE",,CONTRACTOR,,,,,,,,,,,"STYLECRAFT BUILDERS ",,,,,"STYLECRAFT BUILDERS ","4090 STATE HIGHWAY 6 S","COLLEGE STATION",TX,77845-8962,"(979) 764-9900",,"(979) 690-3069","TANNER BREWSTER",tabrewster@stylecraft-builders.com
TX,BRAZOS,RES2021-000226,"Single Family Homes",4/27/2021,,223440,3531,"6317 DAYTONA DR","COLLEGE STATION",TX,77845,,,CONTRACTOR,,,,,,,,,,,"OMEGA BUILDERS GROUP",,,,,"OMEGA BUILDERS GROUP","7353 W ADAMS AVE",TEMPLE,TX,76502-5539,"(254) 773-9966",,,,
TX,"FORT BEND",PB21-04371,"Single Family Homes",4/7/2021,,141372,2244,"10524 SMITHS BEND RD","FORT BEND COUNTY",TX,76126,VENTANA,17,CONTRACTOR,,,,,,,,,,,"MERITAGE HOMES",,,,,"MERITAGE HOMES","2901 W SAM HOUSTON PKWY N",HOUSTON,TX,77043-1630,"(713) 357-1184",,,,
TX,HARRIS,21041975,"Single Family Homes",5/27/2021,,202000,,"2503 EASON",HOUSTON,TX,77008,,,CONTRACTOR,,,,,,,,,,,"ANNE'S PERMIT",,,,,"ANNE'S PERMIT","2617C W HOLCOMBE BLVD",HOUSTON,TX,77025,"(713) 666-2025",,,,
TX,HARRIS,21041973,"Single Family Homes",5/27/2021,,180000,,"2512 WALKER DAWN",HOUSTON,TX,77008,,,CONTRACTOR,,,,,,,,,,,"ANNE'S PERMIT",,,,,"ANNE'S PERMIT","2617C W HOLCOMBE BLVD",HOUSTON,TX,77025,"(713) 666-2025",,,,
TX,HARRIS,21040590,"Single Family Homes",5/26/2021,,152000,,"725 STRAWBERRY PINES",HOUSTON,TX,77009,,,CONTRACTOR,,,,,,,,,,,"ANNE'S PERMIT",,,,,"ANNE'S PERMIT","2617C W HOLCOMBE BLVD",HOUSTON,TX,77025,"(713) 666-2025",,,,
TX,HARRIS,21040593,"Single Family Homes",5/25/2021,,144000,,"727 STRAWBERRY PINES",HOUSTON,TX,77009,,,CONTRACTOR,,,,,,,,,,,"ANNE'S PERMIT",,,,,"ANNE'S PERMIT","2617C W HOLCOMBE BLVD",HOUSTON,TX,77025,"(713) 666-2025",,,,
TX,HARRIS,21040991,"Single Family Homes",5/26/2021,,151000,,"729 STRAWBERRY PINES",HOUSTON,TX,77009,,,CONTRACTOR,,,,,,,,,,,"ANNE'S PERMIT",,,,,"ANNE'S PERMIT","2617C W HOLCOMBE BLVD",HOUSTON,TX,77025,"(713) 666-2025",,,,
TX,HARRIS,21040594,"Single Family Homes",5/25/2021,,144000,,"731 STRAWBERRY PINES",HOUSTON,TX,77009,,,CONTRACTOR,,,,,,,,,,,"ANNE'S PERMIT",,,,,"ANNE'S PERMIT","2617C W HOLCOMBE BLVD",HOUSTON,TX,77025,"(713) 666-2025",,,,
TX,HARRIS,21040596,"Single Family Homes",5/30/2021,,144000,,"733 STRAWBERRY PINES",HOUSTON,TX,77009,,,CONTRACTOR,,,,,,,,,,,"ANNE'S PERMIT",,,,,"ANNE'S PERMIT","2617C W HOLCOMBE BLVD",HOUSTON,TX,77025,"(713) 666-2025",,,,
TX,HARRIS,21040990,"Single Family Homes",5/26/2021,,152000,,"735 STRAWBERRY PINES",HOUSTON,TX,77009,,,CONTRACTOR,,,,,,,,,,,"ANNE'S PERMIT",,,,,"ANNE'S PERMIT","2617C W HOLCOMBE BLVD",HOUSTON,TX,77025,"(713) 666-2025",,,,
TX,HARRIS,21038019,"Single Family Homes",5/27/2021,,152000,,"739 STRAWBERRY PINES",HOUSTON,TX,77009,,,CONTRACTOR,,,,,,,,,,,"ANNE'S PERMIT",,,,,"ANNE'S PERMIT","2617C W HOLCOMBE BLVD",HOUSTON,TX,77025,"(713) 666-2025",,,,
TX,HARRIS,21038022,"Single Family Homes",5/27/2021,,152000,,"745 STRAWBERRY PINES",HOUSTON,TX,77009,,,CONTRACTOR,,,,,,,,,,,"ANNE'S PERMIT",,,,,"ANNE'S PERMIT","2617C W HOLCOMBE BLVD",HOUSTON,TX,77025,"(713) 666-2025",,,,
TX,HARRIS,21040582,"Single Family Homes",5/26/2021,,151000,,"10937 BRAMBLING WOOD",HOUSTON,TX,77043,,,CONTRACTOR,,,,,,,,,,,"ANNE'S PERMIT",,,,,"ANNE'S PERMIT","2617C W HOLCOMBE BLVD",HOUSTON,TX,77025,"(713) 666-2025",,,,
TX,HARRIS,21040589,"Single Family Homes",5/25/2021,,195000,,"10937 KEATON LANDING",HOUSTON,TX,77043,,,CONTRACTOR,,,,,,,,,,,"ANNE'S PERMIT",,,,,"ANNE'S PERMIT","2617C W HOLCOMBE BLVD",HOUSTON,TX,77025,"(713) 666-2025",,,,
TX,HARRIS,21040587,"Single Family Homes",5/25/2021,,160000,,"10938 KEATON LANDING ",HOUSTON,TX,77043,,,CONTRACTOR,,,,,,,,,,,"ANNE'S PERMIT",,,,,"ANNE'S PERMIT","2617C W HOLCOMBE BLVD",HOUSTON,TX,77025,"(713) 666-2025",,,,
TX,HARRIS,21040584,"Single Family Homes",5/25/2021,,159000,,"10943 KEATON LANDING",HOUSTON,TX,77043,,,CONTRACTOR,,,,,,,,,,,"ANNE'S PERMIT",,,,,"ANNE'S PERMIT","2617C W HOLCOMBE BLVD",HOUSTON,TX,77025,"(713) 666-2025",,,,
TX,HARRIS,21034111,"Single Family Homes",5/26/2021,,188000,,"949 LILLY FLOWER",HOUSTON,TX,77091,,,CONTRACTOR,,,,,,,,,,,"ANNE'S PERMIT",,,,,"ANNE'S PERMIT","2617C W HOLCOMBE BLVD",HOUSTON,TX,77025,"(713) 666-2025",,,,
TX,HARRIS,21016267,"Single Family Homes",5/25/2021,,168555,,"4637 STASSEN",HOUSTON,TX,77051,,,"JOHANNA ARREOLA","4637 STASSEN",HOUSTON,TX,77051,,Owner,,,,,OWNER,,,,,OWNER,,,,,,,,,
TX,HARRIS,21034825,"Single Family Homes",5/26/2021,,140000,,"8213 LINDA VISTA",HOUSTON,TX,77028,,,CONTRACTOR,,,,,,,,,,,"AMERITEX HOMES",,,,,"AMERITEX HOMES","4835 LYNDON B JOHNSON FWY",DALLAS,TX,75244-6005,"(214) 765-0596",,,,
TX,HARRIS,21037507,"Single Family Homes",5/27/2021,,375000,,"403 WETHERBY TERRACE ",HOUSTON,TX,77024,,,CONTRACTOR,,,,,,,,,,,"PELICAN BUILDERS",,,,,"PELICAN BUILDERS","4265 SAN FELIPE ST STE 720",HOUSTON,TX,77027-2956,"(713) 877-8170",http://www.pelicanbuilders.com/,"(713) 871-0798",,info@pelicanbuilders.com
TX,HARRIS,21005691,"Single Family Homes",5/28/2021,,176295,,"6523 GILLOCK MEADOW",HOUSTON,TX,77048,,,CONTRACTOR,,,,,,,,,,,"COLINA HOMES",,,,,"COLINA HOMES","1314 N DURHAM DR",HOUSTON,TX,77008-3734,"(281) 528-9090",http://colinahomes.com/,,,postmaster@colinahomes.com
TX,HARRIS,21003525,"Single Family Homes",5/28/2021,,176295,,"6526 GILLOCK MEADOW",HOUSTON,TX,77048,,,CONTRACTOR,,,,,,,,,,,"COLINA HOMES",,,,,"COLINA HOMES","1314 N DURHAM DR",HOUSTON,TX,77008-3734,"(281) 528-9090",http://colinahomes.com/,,,postmaster@colinahomes.com
TX,HARRIS,21004006,"Single Family Homes",5/28/2021,,188827,,"6528 GILLOCK MEADOW",HOUSTON,TX,77048,,,CONTRACTOR,,,,,,,,,,,"COLINA HOMES",,,,,"COLINA HOMES","1314 N DURHAM DR",HOUSTON,TX,77008-3734,"(281) 528-9090",http://colinahomes.com/,,,postmaster@colinahomes.com
TX,HARRIS,21042413,"Single Family Homes",5/28/2021,,201528,,"6536 MACROOM MEADOWS",HOUSTON,TX,77048,,,CONTRACTOR,,,,,,,,,,,"COLINA HOMES",,,,,"COLINA HOMES","1314 N DURHAM DR",HOUSTON,TX,77008-3734,"(281) 528-9090",http://colinahomes.com/,,,postmaster@colinahomes.com
TX,HARRIS,21042063,"Single Family Homes",5/28/2021,,159893,,"6540 MACROOM MEADOWS",HOUSTON,TX,77048,,,CONTRACTOR,,,,,,,,,,,"COLINA HOMES",,,,,"COLINA HOMES","1314 N DURHAM DR",HOUSTON,TX,77008-3734,"(281) 528-9090",http://colinahomes.com/,,,postmaster@colinahomes.com
TX,HARRIS,21042225,"Single Family Homes",5/28/2021,,176295,,"6542 MACROOM MEADOWS",HOUSTON,TX,77048,,,CONTRACTOR,,,,,,,,,,,"COLINA HOMES",,,,,"COLINA HOMES","1314 N DURHAM DR",HOUSTON,TX,77008-3734,"(281) 528-9090",http://colinahomes.com/,,,postmaster@colinahomes.com
TX,HARRIS,21002880,"Single Family Homes",5/28/2021,,159893,,"6545 CASTLE LOCH",HOUSTON,TX,77048,,,CONTRACTOR,,,,,,,,,,,"COLINA HOMES",,,,,"COLINA HOMES","1314 N DURHAM DR",HOUSTON,TX,77008-3734,"(281) 528-9090",http://colinahomes.com/,,,postmaster@colinahomes.com
TX,HARRIS,21042570,"Single Family Homes",5/28/2021,,195556,,"6546 MACROOM MEADOWS",HOUSTON,TX,77048,,,CONTRACTOR,,,,,,,,,,,"COLINA HOMES",,,,,"COLINA HOMES","1314 N DURHAM DR",HOUSTON,TX,77008-3734,"(281) 528-9090",http://colinahomes.com/,,,postmaster@colinahomes.com
TX,HARRIS,21042127,"Single Family Homes",5/28/2021,,188827,,"6552 MACROOM MEADOWS",HOUSTON,TX,77048,,,CONTRACTOR,,,,,,,,,,,"COLINA HOMES",,,,,"COLINA HOMES","1314 N DURHAM DR",HOUSTON,TX,77008-3734,"(281) 528-9090",http://colinahomes.com/,,,postmaster@colinahomes.com
TX,HARRIS,21042197,"Single Family Homes",5/28/2021,,195556,,"6554 MACROOM MEADOWS",HOUSTON,TX,77048,,,CONTRACTOR,,,,,,,,,,,"COLINA HOMES",,,,,"COLINA HOMES","1314 N DURHAM DR",HOUSTON,TX,77008-3734,"(281) 528-9090",http://colinahomes.com/,,,postmaster@colinahomes.com
TX,HARRIS,21027751,"Single Family Homes",5/26/2021,,169990,,"24706 COLONY MEADOW",HOUSTON,TX,77336,,,CONTRACTOR,,,,,,,,,,,"CENTURY COMMUNITIES",,,,,"CENTURY COMMUNITIES","4700 W SAM HOUSTON PKWY N STE 130",HOUSTON,TX,77041-8219,"(281) 741-8946",https://www.centurycommunities.com/,,,
TX,HARRIS,20107606,"Single Family Homes",5/25/2021,,175000,,"4442 LEE",HOUSTON,TX,77020,,,CONTRACTOR,,,,,,,,,,,"CRAWFORD PROPERTIES & ESTATE",,,,,"CRAWFORD PROPERTIES & ESTATE","6725 FAIRMONT PKWY STE 122",PASADENA,TX,77505,"(713) 524-9524",,,,
TX,HARRIS,21014500,"Single Family Homes",5/26/2021,,205445,,"6527 COHN",HOUSTON,TX,77091,,,CONTRACTOR,,,,,,,,,,,"LIONS GATE REALTY",,,,,"LIONS GATE REALTY","720 RUSK ST #120",HOUSTON,TX,77002,"(210) 606-6777",,,"ISAAC FLORES",
TX,HARRIS,21014499,"Single Family Homes",5/26/2021,,205445,,"6529 COHN",HOUSTON,TX,77091,,,CONTRACTOR,,,,,,,,,,,"LIONS GATE REALTY",,,,,"LIONS GATE REALTY","720 RUSK ST #120",HOUSTON,TX,77002,"(210) 606-6777",,,"ISAAC FLORES",
TX,HARRIS,21014498,"Single Family Homes",5/26/2021,,205445,,"6531 COHN",HOUSTON,TX,77091,,,CONTRACTOR,,,,,,,,,,,"LIONS GATE REALTY",,,,,"LIONS GATE REALTY","720 RUSK ST #120",HOUSTON,TX,77002,"(210) 606-6777",,,"ISAAC FLORES",
TX,HARRIS,21014497,"Single Family Homes",5/26/2021,,205445,,"6533 COHN",HOUSTON,TX,77091,,,CONTRACTOR,,,,,,,,,,,"LIONS GATE REALTY",,,,,"LIONS GATE REALTY","720 RUSK ST #120",HOUSTON,TX,77002,"(210) 606-6777",,,"ISAAC FLORES",
TX,HARRIS,21014496,"Single Family Homes",5/26/2021,,205445,,"6535 COHN",HOUSTON,TX,77091,,,CONTRACTOR,,,,,,,,,,,"LIONS GATE REALTY",,,,,"LIONS GATE REALTY","720 RUSK ST #120",HOUSTON,TX,77002,"(210) 606-6777",,,"ISAAC FLORES",
TX,HARRIS,21021820,"Single Family Homes",5/28/2021,,319059,,"5130 LOCH LOMOND",HOUSTON,TX,77096,,,CONTRACTOR,,,,,,,,,,,"GENE GILES DESIGN GROUP",,,,,"GENE GILES DESIGN GROUP","3104 EDLOE ST STE 320",HOUSTON,TX,77027-6047,"(713) 680-1333",http://www.genegiles.com/,"(713) 680-1334",,
TX,HARRIS,20114528,"Single Family Homes",5/28/2021,,152000,,"862 RACHEL",HOUSTON,TX,77091,,,CONTRACTOR,,,,,,,,,,,"ASHLEY GRAYBILL",,,,,"ASHLEY GRAYBILL","14643 DALLAS PKWY STE",HOUSTON,TX,75254,"(469) 225-7633",,,,
TX,HARRIS,21025396,"Single Family Homes",5/28/2021,,261100,,"4605 DAVENPORT",HOUSTON,TX,77051,,,CONTRACTOR,,,,,,,,,,,"CASTLEROCK COMMUNITIES",,,,,"CASTLEROCK COMMUNITIES","7670 WOODWAY DR STE 300",HOUSTON,TX,77063-1520,"(713) 600-7000",http://c-rock.com,"(713) 600-0000",,
TX,HARRIS,20111322,"Single Family Homes",5/31/2021,,165000,,"4834 VAN FLEET",HOUSTON,TX,77033,,,CONTRACTOR,,,,,,,,,,,"BLAZER BUILDING TEXAS",,,,,"BLAZER BUILDING TEXAS","3303 HAVENWOOD CHASE",HOUSTON,TX,77584,"(713) 560-7672",,,"ANDREW KAMEN",
TX,HARRIS,21030111,"Single Family Homes",5/25/2021,,208000,,"6015 DIAMOND SKY",HOUSTON,TX,77048,,,CONTRACTOR,,,,,,,,,,,"KB HOME",,,,,"KB HOME","11314 RICHMOND AVE",HOUSTON,TX,77082-2616,"(281) 668-3800",,,,
TX,HARRIS,21040911,"Single Family Homes",5/25/2021,,293000,,"9306 BETHEL HEIGHTS",HOUSTON,TX,77365,,,CONTRACTOR,,,,,,,,,,,"LENNAR HOMES",,,,,"LENNAR HOMES","550 GREENS PKWY",HOUSTON,TX,77067-4537,"(281) 875-1000",http://www.lennar.com/,,,
TX,HARRIS,21042125,"Single Family Homes",5/28/2021,,251000,,"9314 BETHEL HEIGHTS",HOUSTON,TX,77365,,,CONTRACTOR,,,,,,,,,,,"LENNAR HOMES",,,,,"LENNAR HOMES","550 GREENS PKWY",HOUSTON,TX,77067-4537,"(281) 875-1000",http://www.lennar.com/,,,
TX,HARRIS,21040916,"Single Family Homes",5/28/2021,,185000,,"9330 CLEARWATER BLUFF",HOUSTON,TX,77365,,,CONTRACTOR,,,,,,,,,,,"LENNAR HOMES",,,,,"LENNAR HOMES","550 GREENS PKWY",HOUSTON,TX,77067-4537,"(281) 875-1000",http://www.lennar.com/,,,
TX,HARRIS,21024114,"Single Family Homes",5/27/2021,,175000,,"410 E 32ND",HOUSTON,TX,77018,,,CONTRACTOR,,,,,,,,,,,"MAKENZIE HOMES",,,,,"MAKENZIE HOMES","1501 RONSON RD",HOUSTON,TX,77055-3219,"(713) 443-7108",,,,
TX,HARRIS,21009801,"Single Family Homes",5/25/2021,,201620,,"1818 LA MAGNOLIA",HOUSTON,TX,77023,,,CONTRACTOR,,,,,,,,,,,"MERITAGE HOMES",,,,,"MERITAGE HOMES","2901 W SAM HOUSTON PKWY N",HOUSTON,TX,77043-1630,"(713) 357-1184",,,,
TX,HARRIS,21016803,"Single Family Homes",5/27/2021,,174420,,"9834 MAGNOLIA VILLAGE",HOUSTON,TX,77080,,,CONTRACTOR,,,,,,,,,,,"MERITAGE HOMES",,,,,"MERITAGE HOMES","2901 W SAM HOUSTON PKWY N",HOUSTON,TX,77043-1630,"(713) 357-1184",,,,
TX,HARRIS,21033688,"Single Family Homes",5/25/2021,,163341,,"1528 BEACH OAK",HOUSTON,TX,77084,,,CONTRACTOR,,,,,,,,,,,"MERITAGE HOMES",,,,,"MERITAGE HOMES","2901 W SAM HOUSTON PKWY N",HOUSTON,TX,77043-1630,"(713) 357-1184",,,,
TX,HARRIS,21009871,"Single Family Homes",5/26/2021,,170111,,"3008 BAER",HOUSTON,TX,77020,,,"URBAN AREA ARCHITECTS","808 W DALLAS ST",HOUSTON,TX,77384,"(832) 274-2146",Architect,https://urbanareaco.com/,,"NAVARRO MARTIN",,OWNER,,,,,OWNER,,,,,,,,,
TX,HARRIS,21003608,"Single Family Homes",5/26/2021,,160000,,"3010 BAER",HOUSTON,TX,77020,,,"URBAN AREA ARCHITECTS","808 W DALLAS ST STE",HOUSTON,TX,77384,"(832) 274-2146",Architect,https://urbanareaco.com/,,"NAVARRO MARTIN",,OWNER,,,,,OWNER,,,,,,,,,
TX,HARRIS,21027004,"Single Family Homes",5/27/2021,,297351,,"931 LAMONTE",HOUSTON,TX,77018,,,CONTRACTOR,,,,,,,,,,,"ROBRYAN CONSTRUCTION",,,,,"ROBRYAN CONSTRUCTION","3500 E T C JESTER BLVD STE E",HOUSTON,TX,77018-6020,"(281) 477-0647",http://www.robryanconstruction.com/,,info@robryanconstruction.com,
TX,HARRIS,21007963,"Single Family Homes",5/25/2021,,385476,,"5309 JUDALON",HOUSTON,TX,77056,,,CONTRACTOR,,,,,,,,,,,"DAVID SANDERS",,,,,"DAVID SANDERS","5647 CANDLEWOOD DR",HOUSTON,TX,77056-1606,"(281) 630-1924",,,,
TX,HARRIS,21021250,"Single Family Homes",5/26/2021,,169058,,"4305 COKE",HOUSTON,TX,77020,,,"JMACK ARCHITECTS","5353 WEST ALABAMA, SUITE 695",HOUSTON,TX,77056,"(713) 524-9524",Architect,,,,,OWNER,,,,,OWNER,,,,,,,,,
TX,HARRIS,21042283,"Single Family Homes",5/25/2021,,424040,,"4024 DELTA ROSE",HOUSTON,TX,77018,,,CONTRACTOR,,,,,,,,,,,"MARIA VARGAS",,,,,"MARIA VARGAS","1311 BROADFIELD BLVD",HOUSTON,TX,77084-5186,"(281) 529-9127",,,,
TX,HARRIS,21042286,"Single Family Homes",5/27/2021,,418750,,"3402 SIGNOR",HOUSTON,TX,77054,,,CONTRACTOR,,,,,,,,,,,"MARIA VARGAS",,,,,"MARIA VARGAS","1311 BROADFIELD BLVD",HOUSTON,TX,77084-5186,"(281) 529-9127",,,,
TX,HARRIS,21042264,"Single Family Homes",5/27/2021,,373250,,"3406 SIGNOR",HOUSTON,TX,77054,,,CONTRACTOR,,,,,,,,,,,"MARIA VARGAS",,,,,"MARIA VARGAS","1311 BROADFIELD BLVD",HOUSTON,TX,77084-5186,"(281) 529-9127",,,,
TX,HARRIS,21028298,"Single Family Homes",5/27/2021,,373750,,"3111 YUKON TRACE",HOUSTON,TX,77063,,,CONTRACTOR,,,,,,,,,,,"MARIA VARGAS",,,,,"MARIA VARGAS","1311 BROADFIELD BLVD",HOUSTON,TX,77084-5186,"(281) 529-9127",,,,
TX,HARRIS,21042270,"Single Family Homes",5/28/2021,,236100,,"6907 FORBES RUN",HOUSTON,TX,77075,,,CONTRACTOR,,,,,,,,,,,"MARIA VARGAS",,,,,"MARIA VARGAS","1311 BROADFIELD BLVD",HOUSTON,TX,77084-5186,"(281) 529-9127",,,,
TX,HARRIS,21030262,"Single Family Homes",5/27/2021,,249440,,"6910 TELEAN",HOUSTON,TX,77075,,,CONTRACTOR,,,,,,,,,,,"MARIA VARGAS",,,,,"MARIA VARGAS","1311 BROADFIELD BLVD",HOUSTON,TX,77084-5186,"(281) 529-9127",,,,
TX,HARRIS,21035948,"Single Family Homes",5/25/2021,,264650,,"7047 FORBES RUN",HOUSTON,TX,77075,,,CONTRACTOR,,,,,,,,,,,"MARIA VARGAS",,,,,"MARIA VARGAS","1311 BROADFIELD BLVD",HOUSTON,TX,77084-5186,"(281) 529-9127",,,,
TX,HARRIS,21035939,"Single Family Homes",5/27/2021,,405490,,"3413 KNIGHTON HILL",HOUSTON,TX,77054,,,CONTRACTOR,,,,,,,,,,,"MARIA VARGAS",,,,,"MARIA VARGAS","1311 BROADFIELD BLVD",HOUSTON,TX,77084-5186,"(281) 529-9127",,,,
TX,HARRIS,21029929,"Single Family Homes",5/26/2021,,253000,,"828 WAKEFIELD DR",HOUSTON,TX,77018,,,CONTRACTOR,,,,,,,,,,,"ROBERTO RODRIGUEZ",,,,,"ROBERTO RODRIGUEZ","1903 TYLER ST",HOUSTON,TX,77009,"(713) 703-8321",,,,
TX,HARRIS,21029928,"Single Family Homes",5/26/2021,,253000,,"830 WAKEFIELD DR",HOUSTON,TX,77018,,,CONTRACTOR,,,,,,,,,,,"ROBERTO RODRIGUEZ",,,,,"ROBERTO RODRIGUEZ","1903 TYLER ST",HOUSTON,TX,77009,"(713) 703-8321",,,,
TX,HARRIS,21024595,"Single Family Homes",5/27/2021,,423792,,"4130 GLENSHIRE",HOUSTON,TX,77025,,,"DROUGHTON CLARICE","4130 GLENSHIRE",HOUSTON,TX,77025,,Owner,,,,,"JACOB BUCKWALTER",,,,,"JACOB BUCKWALTER","9597 JONES RD",HOUSTON,TX,77065-4815,"(832) 272-8423",,,,
TX,HARRIS,20087321,"Single Family Homes",5/28/2021,,160000,,"4501 GARROW",HOUSTON,TX,77011,,,"CHARLES RAJUAI","3015 MUSTANG",HOUSTON,TX,77578,"(602) 370-5424",Owner,,,,,OWNER,,,,,OWNER,,,,,,,,,
TX,HARRIS,21034398,"Single Family Homes",5/25/2021,,413586,,"1402 GARDENIA",HOUSTON,TX,77018,,,"FASULO DEREK & LAUR","1402 GARDENIA",HOUSTON,TX,77018,,Owner,,,,,"THAKKAR & CO",,,,,"THAKKAR & CO","550 WESTCOTT STREET, SUITE 449",HOUSTON,TX,77007,"(281) 300-6881",,,,
TX,HARRIS,19109773,"Single Family Homes",5/26/2021,,144000,,"6421 NUBEN",HOUSTON,TX,77091,,,"HECTOR FLORES","6421 NUBEN",HOUSTON,TX,77091,"(281) 628-3949",Owner,,,,,OWNER,,,,,OWNER,,,,,,,,,
TX,HARRIS,21028219,"Single Family Homes",5/25/2021,,406913,,"5815 BELROSE",HOUSTON,TX,77035,,,"MICHAEL HLUZA","5815 BELROSE",HOUSTON,TX,77035,,Owner,,,,,"PARTNERS IN BUILDING",,,,,"PARTNERS IN BUILDING","1803 RANCH ROAD 620 N",LAKEWAY,TX,78734-2611,"(512) 266-6701",http://www.partnersinbuilding.com,"(713) 937-1445",,info@partnersinbuilding.com
TX,HARRIS,20063008,"Single Family Homes",5/26/2021,,650000,,"4407 WIGTON",HOUSTON,TX,77096,,,"JUSTIN JOSE","4407 WIGTON",HOUSTON,TX,77096,,Owner,,,,,OWNER,,,,,OWNER,,,,,,,,,
TX,HARRIS,18089490,"Single Family Homes",5/26/2021,,134980,,"7926 FIELDS",HOUSTON,TX,77028,,,"JOSE A RAMIREZ OSORTO","7926 FIELDS",HOUSTON,TX,77028,,Owner,,,,,"JJ PORTILLO HAULING AND DUMPING",,,,,"JJ PORTILLO HAULING AND DUMPING","5421 HAIGHT STREET HOUSTON",HOUSTON,TX,77028,"(832) 434-8543",,,,
TX,HARRIS,20062116,"Single Family Homes",5/27/2021,,195200,,"8242 PARKER",HOUSTON,TX,77078,,,"DOMINGO LOPEZ","8242 PARKER",HOUSTON,TX,77078,,Owner,,,,,OWNER,,,,,OWNER,,,,,,,,,
TX,HARRIS,21021534,"Single Family Homes",5/28/2021,,190000,,"6228 GRANTON",HOUSTON,TX,77026,,,"MAX MELENDEZ","6228 GRANTON",HOUSTON,TX,77026,,Owner,,,,,"AMANDA COLIVAS",,,,,"AMANDA COLIVAS","12605 FEATHERWOOD",HOUSTON,TX,77033,"(832) 538-2882",,,,
TX,HARRIS,21007701,"Single Family Homes",5/25/2021,,120000,,"10602 MANGO",HOUSTON,TX,77089,,,"EDWIN MOLINA","10602 MANGO",HOUSTON,TX,77089,,Owner,,,,,OWNER,,,,,OWNER,,,,,,,,,
TX,HARRIS,21025725,"Single Family Homes",5/25/2021,,190000,,"1112 THERESA",HOUSTON,TX,77051,,,"HENRY PHILLIPS","1112 THERESA",HOUSTON,TX,77051,,Owner,,,,,"AMANDA COLIVAS",,,,,"AMANDA COLIVAS","12605 FEATHERWOOD",HOUSTON,TX,77033,"(832) 538-2882",,,,
TX,HARRIS,20097405,"Single Family Homes",5/25/2021,,146000,,"5468 PEACOCK",HOUSTON,TX,77033,,,"ROSALES CARMEN PATRICIA","5468 PEACOCK",HOUSTON,TX,77033,,Owner,,,,,"DENISE ALBAN",,,,,"DENISE ALBAN","1235 NORTH LOOP STE",HOUSTON,TX,77008,"(713) 875-3844",,,,
TX,HARRIS,20105006,"Single Family Homes",5/25/2021,,141000,,"8026 TALTON",HOUSTON,TX,77028,,,"NEMORIO VILLEGAS","8026 TALTON",HOUSTON,TX,77028,,Owner,,,,,OWNER,,,,,OWNER,,,,,,,,,
TX,HARRIS,21009792,"Single Family Homes",5/25/2021,,345000,,"3705 BRUCE",HOUSTON,TX,77009,,,"STEPHEN WARRELL","3705 BRUCE",HOUSTON,TX,77009,,Owner,,,,,MILLENI,,,,,MILLENI,"3440 RILEY FUZZELL RD",SPRING,TX,77386,"(832) 840-1695",,,"ROBERT STAHLMAN",
TX,BRAZOS,RES2021-000203,"Single Family Homes",5/3/2021,,365000,,"986 MUNSON AVE","COLLEGE STATION",TX,77840,"WOODLAND ACRES",,"IRIS AND GERRY COTE","986 MUNSON AVE","COLLEGE STATION",TX,77840,,Owner,,,,,"GOLDEN HOMES",,,,,"GOLDEN HOMES","2912 CAIN RD","COLLEGE STATION",TX,77845-6224,"(979) 693-8577",,,"MARK GOLDEN",
TX,BRAZOS,RES2021-000224,"Single Family Homes",5/3/2021,,220000,,"3643 HARDIN HILLS DR","COLLEGE STATION",TX,77840,"MISSION RANCH",,CONTRACTOR,,,,,,,,,,,"BLACKSTONE HANDCRAFTED HOMES",,,,,"BLACKSTONE HANDCRAFTED HOMES","2900 CAIN RD","COLLEGE STATION",TX,77845-6224,"(979) 696-4663",http://blackstonehandcrafted.com/,"(979) 696-4664","MATTHEW JOHNSON",
TX,BRAZOS,RES2021-000229,"Single Family Homes",5/3/2021,,372000,,"4909 CRYSTAL RIDGE CT","COLLEGE STATION",TX,77840,,,CONTRACTOR,,,,,,,,,,,"GOLDEN HOMES",,,,,"GOLDEN HOMES","2912 CAIN RD","COLLEGE STATION",TX,77845-6224,"(979) 693-8577",,,"MARK GOLDEN",
TX,BRAZOS,RES2021-000093,"Single Family Homes",5/5/2021,,144820,,"614 PEYTON ST","COLLEGE STATION",TX,77845,"PRAIRIE VIEW HEIGHTS",,"ALPHA BRAVO CAPITAL LLC","614 PEYTON ST","COLLEGE STATION",TX,77845,,Owner,,,,,"BLUESTONE HOMES",,,,,"BLUESTONE HOMES","210 SOUTH MAINSTREET, SUITE 3",DUNCANVILLE,TX,75116,"(972) 268-2865",https://www.bluestonehomesoftexas.com/,,,Office@BluestoneHomesOfTexas.com
TX,BRAZOS,RES2021-000180,"Single Family Homes",5/6/2021,,225000,,"1913 CIBOLO CREEK CT","COLLEGE STATION",TX,77845,MISSION,,CONTRACTOR,,,,,,,,,,,"BLACKSTONE HANDCRAFTED HOMES",,,,,"BLACKSTONE HANDCRAFTED HOMES","2900 CAIN RD","COLLEGE STATION",TX,77845-6224,"(979) 696-4663",http://blackstonehandcrafted.com/,"(979) 696-4664","MATTHEW JOHNSON",
TX,BRAZOS,RES2021-000225,"Single Family Homes",5/5/2021,,300000,,"1721 BLANCO BEND DR","COLLEGE STATION",TX,77840,MISSION,,CONTRACTOR,,,,,,,,,,,"PITMAN CUSTOM HOMES",,,,,"PITMAN CUSTOM HOMES","1401 SEBESTA RD","COLLEGE STATION",TX,77845-5527,"(979) 693-6699",http://www.pitmancustomhomes.com,,JIMMY,
TX,BRAZOS,RES2021-000228,"Single Family Homes",5/6/2021,,273966,,"3636 LLANO RIVER DR","COLLEGE STATION",TX,77845,MISSION,,"BCS MISSION RANCH LP","3636 LLANO RIVER DR","COLLEGE STATION",TX,77845,,Owner,,,,,"RNL HOME BUILDERS",,,,,"RNL HOME BUILDERS","4253 ROCKY RHODES DRIVE","COLLEGE STATION",TX,77845,"(979) 402-2531",http://www.rnlhomebuilders.com,,,RNLHomebuilders@gmail.com
TX,BRAZOS,RES2021-000231,"Single Family Homes",5/5/2021,,183236,,"4020 HERU CT","COLLEGE STATION",TX,77845,BREWSTER,,CONTRACTOR,,,,,,,,,,,"BLACKROCK BUILDERS",,,,,"BLACKROCK BUILDERS","553 N POST OAK LN",HOUSTON,TX,77024-4629,"(281) 914-6785",http://www.blackrockbuilderstx.com/,,,
TX,BRAZOS,RES2021-000234,"Single Family Homes",5/7/2021,,222072,,"6311 DAYTONA DR","COLLEGE STATION",TX,77845,"SOUTHERN POINTE",,CONTRACTOR,,,,,,,,,,,"OMEGA BUILDERS GROUP",,,,,"OMEGA BUILDERS GROUP","7353 W ADAMS AVE",TEMPLE,TX,76502-5539,"(254) 773-9966",,,,
TX,BRAZOS,RES2021-000237,"Single Family Homes",5/7/2021,,179820,,"4013 HERU CT","COLLEGE STATION",TX,77845,BREWSTER,,CONTRACTOR,,,,,,,,,,,"REECE HOMES",,,,,"REECE HOMES","1818 TAYLOR",HOUSTON,TX,77545,"(713) 826-7262",http://www.reece-homes.com/,,,
TX,BRAZOS,RES2021-000238,"Single Family Homes",5/7/2021,,195453,,"4010 HERU CT","COLLEGE STATION",TX,77845,BREWSTER,,CONTRACTOR,,,,,,,,,,,"AVONLEY HOMES",,,,,"AVONLEY HOMES","3900 STATE HIGHWAY 6 S STE 110","COLLEGE STATION",TX,77845-5831,"(979) 635-4800",https://www.avonleyhomes.com/,,,info@avonleyhomes.com
TX,BRAZOS,RES2021-000235,"Single Family Homes",5/10/2021,,173128,,"3508 CROSBY CREEK CT","COLLEGE STATION",TX,77845,,,CONTRACTOR,,,,,,,,,,,"OMEGA BUILDERS GROUP",,,,,"OMEGA BUILDERS GROUP","7353 W ADAMS AVE",TEMPLE,TX,76502-5539,"(254) 773-9966",,,,
TX,BRAZOS,RES2021-000232,"Single Family Homes",5/12/2021,,305000,,"4832 PEARL RIVER CT","COLLEGE STATION",TX,77845,,,CONTRACTOR,,,,,,,,,,,"BENJAMIN RIVERS HOMES",,,,,"BENJAMIN RIVERS HOMES","414 S BRAZOS AVE",BRYAN,TX,77803,"(979) 220-5643",http://www.benjaminrivershomes.com/,,,
TX,BRAZOS,RES2021-000240,"Single Family Homes",5/13/2021,,264708,,"1937 COTTONWOOD TERRACE CT","COLLEGE STATION",TX,77845,MISSION,,CONTRACTOR,,,,,,,,,,,"REECE HOMES",,,,,"REECE HOMES","1818 TAYLOR",HOUSTON,TX,77545,"(713) 826-7262",http://www.reece-homes.com/,,,
TX,BRAZOS,RES2021-000241,"Single Family Homes",5/14/2021,,135964,,"6313 DAYTONA DR","COLLEGE STATION",TX,77845,"SOUTHERN POINTE",,CONTRACTOR,,,,,,,,,,,"OMEGA BUILDERS GROUP",,,,,"OMEGA BUILDERS GROUP","7353 W ADAMS AVE",TEMPLE,TX,76502-5539,"(254) 773-9966",,,,
TX,BRAZOS,RES2021-000239,"Single Family Homes",5/17/2021,,263898,,"1927 COTTONWOOD TERRACE CT","COLLEGE STATION",TX,77521,MISSION,,CONTRACTOR,,,,,,,,,,,"REECE HOMES",,,,,"REECE HOMES","1818 TAYLOR",HOUSTON,TX,77545,"(713) 826-7262",http://www.reece-homes.com/,,,
TX,BRAZOS,RES2021-000242,"Single Family Homes",5/18/2021,,300000,,"1340 CRYSTAL LN","COLLEGE STATION",TX,77845,WATERFORD,,CONTRACTOR,,,,,,,,,,,"RIDGEWOOD CUSTOM HOMES",,,,,"RIDGEWOOD CUSTOM HOMES","106 PHEASANT RUN CT",SUNSET,TX,76270-2176,"(940) 872-9911",,,,
TX,BRAZOS,RES2021-000158,"Single Family Homes",5/19/2021,,300000,,"3758 COOPER CT","COLLEGE STATION",TX,77845,"MISSION RANCH",,CONTRACTOR,,,,,,,,,,,"MARIOTT HOMES",,,,,"MARIOTT HOMES","209 ROCK PRAIRIE RD","COLLEGE STATION",TX,77845-8796,"(979) 696-1787",http://mariotthomes.com/,,,
TX,BRAZOS,RES2021-000166,"Single Family Homes",5/20/2021,,110212,,"711 GRANGER LN","COLLEGE STATION",TX,77845,MIDTOWN,,CONTRACTOR,,,,,,,,,,,"DR HORTON",,,,,"DR HORTON","14100 SOUTHWEST",HOUSTON,TX,77478,"(281) 201-5559",,,,
TX,BRAZOS,RES2021-000215,"Single Family Homes",5/21/2021,,350000,,"5202 FLINT HILLS DR","COLLEGE STATION",TX,77845,"PEBBLE CREEK",,CONTRACTOR,,,,,,,,,,,"MAGRUDER HOMES",,,,,"MAGRUDER HOMES","PO BOX 10572","COLLEGE STATION",TX,77842-0572,"(979) 324-6682",http://magruderhomes.com/,"(979) 696-2383",,john@magruderhomes.com
TX,BRAZOS,RES2021-000243,"Single Family Homes",5/21/2021,,188000,,"3905 BROWNWAY CT","COLLEGE STATION",TX,77845,BREWSTER,,CONTRACTOR,,,,,,,,,,,"BLACKROCK BUILDERS",,,,,"BLACKROCK BUILDERS","553 N POST OAK LN",HOUSTON,TX,77024-4629,"(281) 914-6785",http://www.blackrockbuilderstx.com/,,,
TX,MONTGOMERY,183430-21,"Single Family Homes",4/28/2021,,75000,,"14850 BOWIE LN",HOUSTON,TX,77356,"FRONTIER LAKES",,CONTRACTOR,,,,,,,,,,,"ASGI HOMES",,,,,"ASGI HOMES","2257 N LOOP 336 W STE 140-370",CONROE,TX,77304-3566,"(888) 991-0005",http://www.asgihomes.com,,,
TX,MONTGOMERY,183431-21,"Single Family Homes",4/28/2021,,75000,,"14975 FANNIN ROAD",HOUSTON,TX,77356,"FRONTIER LAKES",,CONTRACTOR,,,,,,,,,,,"ASGI HOMES",,,,,"ASGI HOMES","2257 N LOOP 336 W STE 140-370",CONROE,TX,77304-3566,"(888) 991-0005",http://www.asgihomes.com,,,
TX,MONTGOMERY,183432-21,"Single Family Homes",4/28/2021,,75000,,"14925 FANNIN ROAD",HOUSTON,TX,77356,"FRONTIER LAKES",,CONTRACTOR,,,,,,,,,,,"ASGI HOMES",,,,,"ASGI HOMES","2257 N LOOP 336 W STE 140-370",CONROE,TX,77304-3566,"(888) 991-0005",http://www.asgihomes.com,,,
TX,MONTGOMERY,183508-21,"Single Family Homes",4/29/2021,,75000,,"14920 TRAVIS LN",HOUSTON,TX,77356,"FRONTIER LAKES",,CONTRACTOR,,,,,,,,,,,"ASGI HOMES",,,,,"ASGI HOMES","2257 N LOOP 336 W STE 140-370",CONROE,TX,77304-3566,"(888) 991-0005",http://www.asgihomes.com,,,
TX,MONTGOMERY,183510-21,"Single Family Homes",4/29/2021,,75000,,"15206 CROCKETT ROAD",HOUSTON,TX,77356,"FRONTIER LAKES",,CONTRACTOR,,,,,,,,,,,"ASGI HOMES",,,,,"ASGI HOMES","2257 N LOOP 336 W STE 140-370",CONROE,TX,77304-3566,"(888) 991-0005",http://www.asgihomes.com,,,
TX,MONTGOMERY,183512-21,"Single Family Homes",4/29/2021,,75000,,"15134 AUSTIN ROAD",HOUSTON,TX,77356,"FRONIER LAKES",,CONTRACTOR,,,,,,,,,,,"ASGI HOMES",,,,,"ASGI HOMES","2257 N LOOP 336 W STE 140-370",CONROE,TX,77304-3566,"(888) 991-0005",http://www.asgihomes.com,,,
TX,MONTGOMERY,183485-21,"Single Family Homes",4/29/2021,,60000,,"17920 NONESUCH ROAD",HOUSTON,TX,77356,,,"ROBERTO BERROTERAN","17920 NONESUCH ROAD",HOUSTON,TX,77356,,Owner,,,,,OWNER,,,,,OWNER,,,,,,,,,
TX,MONTGOMERY,"183372 21","Single Family Homes",4/26/2021,,268000,,"10231 SOUTH WILLIAMS ROAD",HOUSTON,TX,77356,,,"TIMOTHY BROWN","10231 SOUTH WILLIAMS ROAD",HOUSTON,TX,77356,,Owner,,,,,OWNER,,,,,OWNER,,,,,,,,,
TX,MONTGOMERY,183324-21,"Single Family Homes",4/26/2021,,99000,,"25384 CLAREMONT HILLS LN",HOUSTON,TX,77356,"BROOKLYN TRAILS",,CONTRACTOR,,,,,,,,,,,"CAMILLO PROPERTIES",,,,,"CAMILLO PROPERTIES","6707 GESSNER RD",HOUSTON,TX,77040-4017,"(832) 500-0284",http://www.camillorentalhomes.com/,"(281) 325-0245",,
TX,MONTGOMERY,183327-21,"Single Family Homes",4/26/2021,,97000,,"25380 CLAREMONT HILLS LN",HOUSTON,TX,77356,"BROOKLYN TRAILS",,CONTRACTOR,,,,,,,,,,,"CAMILLO PROPERTIES",,,,,"CAMILLO PROPERTIES","6707 GESSNER RD",HOUSTON,TX,77040-4017,"(832) 500-0284",http://www.camillorentalhomes.com/,"(281) 325-0245",,
TX,MONTGOMERY,183328-21,"Single Family Homes",4/26/2021,,103000,,"25376 CLAREMONT HILLS LN",HOUSTON,TX,77356,"BROOKLYN TRAILS",,CONTRACTOR,,,,,,,,,,,"CAMILLO PROPERTIES",,,,,"CAMILLO PROPERTIES","6707 GESSNER RD",HOUSTON,TX,77040-4017,"(832) 500-0284",http://www.camillorentalhomes.com/,"(281) 325-0245",,
TX,MONTGOMERY,183329-21,"Single Family Homes",4/26/2021,,107000,,"25372 CLAREMONT HILLS LN",HOUSTON,TX,77356,"BROOKLYN TRAILS",,CONTRACTOR,,,,,,,,,,,"CAMILLO PROPERTIES",,,,,"CAMILLO PROPERTIES","6707 GESSNER RD",HOUSTON,TX,77040-4017,"(832) 500-0284",http://www.camillorentalhomes.com/,"(281) 325-0245",,
TX,MONTGOMERY,183330-21,"Single Family Homes",4/26/2021,,99000,,"22465 CLEAR CASTLE DR",HOUSTON,TX,77356,"BROOKLYN TRAILS",,CONTRACTOR,,,,,,,,,,,"CAMILLO PROPERTIES",,,,,"CAMILLO PROPERTIES","6707 GESSNER RD",HOUSTON,TX,77040-4017,"(832) 500-0284",http://www.camillorentalhomes.com/,"(281) 325-0245",,
TX,MONTGOMERY,183333-21,"Single Family Homes",4/26/2021,,107000,,"22456 CLEAR CASTLE DR",HOUSTON,TX,77356,"BROOKLYN TRAILS",,CONTRACTOR,,,,,,,,,,,"CAMILLO PROPERTIES",,,,,"CAMILLO PROPERTIES","6707 GESSNER RD",HOUSTON,TX,77040-4017,"(832) 500-0284",http://www.camillorentalhomes.com/,"(281) 325-0245",,
TX,MONTGOMERY,183334-21,"Single Family Homes",4/26/2021,,109000,,"22452 CLEAR CASTLE DR",HOUSTON,TX,77356,"BROOKLYN TRAILS",,CONTRACTOR,,,,,,,,,,,"CAMILLO PROPERTIES",,,,,"CAMILLO PROPERTIES","6707 GESSNER RD",HOUSTON,TX,77040-4017,"(832) 500-0284",http://www.camillorentalhomes.com/,"(281) 325-0245",,
TX,MONTGOMERY,183337-21,"Single Family Homes",4/26/2021,,99000,,"22424 CLEAR CASTLE DR",HOUSTON,TX,77356,"BROOKLYN TRAILS",,CONTRACTOR,,,,,,,,,,,"CAMILLO PROPERTIES",,,,,"CAMILLO PROPERTIES","6707 GESSNER RD",HOUSTON,TX,77040-4017,"(832) 500-0284",http://www.camillorentalhomes.com/,"(281) 325-0245",,
TX,MONTGOMERY,183338-21,"Single Family Homes",4/26/2021,,107000,,"22412 CLEAR CASTLE DR",HOUSTON,TX,77356,"BROOKLYN TRAILS",,CONTRACTOR,,,,,,,,,,,"CAMILLO PROPERTIES",,,,,"CAMILLO PROPERTIES","6707 GESSNER RD",HOUSTON,TX,77040-4017,"(832) 500-0284",http://www.camillorentalhomes.com/,"(281) 325-0245",,
TX,MONTGOMERY,183342-21,"Single Family Homes",4/26/2021,,109000,,"22408 CLEAR CASTLE DR",HOUSTON,TX,77356,"BROOKLYN TRAILS",,CONTRACTOR,,,,,,,,,,,"CAMILLO PROPERTIES",,,,,"CAMILLO PROPERTIES","6707 GESSNER RD",HOUSTON,TX,77040-4017,"(832) 500-0284",http://www.camillorentalhomes.com/,"(281) 325-0245",,
TX,MONTGOMERY,183346-21,"Single Family Homes",4/26/2021,,109000,,"22402 CLEAR CASTLE DR",HOUSTON,TX,77356,"BROOKLYN TRAILS",,CONTRACTOR,,,,,,,,,,,"CAMILLO PROPERTIES",,,,,"CAMILLO PROPERTIES","6707 GESSNER RD",HOUSTON,TX,77040-4017,"(832) 500-0284",http://www.camillorentalhomes.com/,"(281) 325-0245",,
TX,MONTGOMERY,183352-21,"Single Family Homes",4/26/2021,,99000,,"22394 CLEAR CASTLE DR",HOUSTON,TX,77356,"BROOKLYN TRAILS",,CONTRACTOR,,,,,,,,,,,"CAMILLO PROPERTIES",,,,,"CAMILLO PROPERTIES","6707 GESSNER RD",HOUSTON,TX,77040-4017,"(832) 500-0284",http://www.camillorentalhomes.com/,"(281) 325-0245",,
TX,MONTGOMERY,183353-21,"Single Family Homes",4/26/2021,,104000,,"22390 CLEAR CASTLE DR",HOUSTON,TX,77356,"BROOKLYN TRAILS",,CONTRACTOR,,,,,,,,,,,"CAMILLO PROPERTIES",,,,,"CAMILLO PROPERTIES","6707 GESSNER RD",HOUSTON,TX,77040-4017,"(832) 500-0284",http://www.camillorentalhomes.com/,"(281) 325-0245",,
TX,MONTGOMERY,183356-21,"Single Family Homes",4/26/2021,,99000,,"22386 CLEAR CASTLE DR",HOUSTON,TX,77356,"BROOKLYN TRAILS",,CONTRACTOR,,,,,,,,,,,"CAMILLO PROPERTIES",,,,,"CAMILLO PROPERTIES","6707 GESSNER RD",HOUSTON,TX,77040-4017,"(832) 500-0284",http://www.camillorentalhomes.com/,"(281) 325-0245",,
TX,MONTGOMERY,183358-21,"Single Family Homes",4/26/2021,,99000,,"22382 CLEAR CASTLE DR",HOUSTON,TX,77356,"BROOKLYN TRAILS",,CONTRACTOR,,,,,,,,,,,"CAMILLO PROPERTIES",,,,,"CAMILLO PROPERTIES","6707 GESSNER RD",HOUSTON,TX,77040-4017,"(832) 500-0284",http://www.camillorentalhomes.com/,"(281) 325-0245",,
TX,MONTGOMERY,183359-21,"Single Family Homes",4/26/2021,,111595,,"1047 LAKE VIEW DR",HOUSTON,TX,77356,"CAPE CONROE",,CONTRACTOR,,,,,,,,,,,"CAMILLO PROPERTIES",,,,,"CAMILLO PROPERTIES","6707 GESSNER RD",HOUSTON,TX,77040-4017,"(832) 500-0284",http://www.camillorentalhomes.com/,"(281) 325-0245",,
TX,MONTGOMERY,183360-21,"Single Family Homes",4/26/2021,,97000,,"22378 CLEAR CASTLE DR",HOUSTON,TX,77356,"BROOKLYN TRAILS",,CONTRACTOR,,,,,,,,,,,"CAMILLO PROPERTIES",,,,,"CAMILLO PROPERTIES","6707 GESSNER RD",HOUSTON,TX,77040-4017,"(832) 500-0284",http://www.camillorentalhomes.com/,"(281) 325-0245",,
TX,MONTGOMERY,183361-21,"Single Family Homes",4/26/2021,,107000,,"22370 CLEAR CASTLE DR",HOUSTON,TX,77356,BROOKLYN,,CONTRACTOR,,,,,,,,,,,"CAMILLO PROPERTIES",,,,,"CAMILLO PROPERTIES","6707 GESSNER RD",HOUSTON,TX,77040-4017,"(832) 500-0284",http://www.camillorentalhomes.com/,"(281) 325-0245",,
TX,MONTGOMERY,183362-21,"Single Family Homes",4/26/2021,,99990,,"10610 SCENIC DR",HOUSTON,TX,77356,"CAPE CONROE",,CONTRACTOR,,,,,,,,,,,"CAMILLO PROPERTIES",,,,,"CAMILLO PROPERTIES","6707 GESSNER RD",HOUSTON,TX,77040-4017,"(832) 500-0284",http://www.camillorentalhomes.com/,"(281) 325-0245",,
TX,MONTGOMERY,183363-21,"Single Family Homes",4/26/2021,,104225,,"610 LAKE VIEW DR",HOUSTON,TX,77356,"CAPE CONROE",,CONTRACTOR,,,,,,,,,,,"CAMILLO PROPERTIES",,,,,"CAMILLO PROPERTIES","6707 GESSNER RD",HOUSTON,TX,77040-4017,"(832) 500-0284",http://www.camillorentalhomes.com/,"(281) 325-0245",,
TX,MONTGOMERY,183364-21,"Single Family Homes",4/26/2021,,111595,,"10820 SAIL VIEW",HOUSTON,TX,77356,"CAPE CONROE",,CONTRACTOR,,,,,,,,,,,"CAMILLO PROPERTIES",,,,,"CAMILLO PROPERTIES","6707 GESSNER RD",HOUSTON,TX,77040-4017,"(832) 500-0284",http://www.camillorentalhomes.com/,"(281) 325-0245",,
TX,BELL,FY-21-18-BDNC,"Warehouse & Manufacturing",4/16/2021,,150000,,"5812 S GENERAL BRUCE DR",TEMPLE,TX,76502,"PROFIT PLACE",,"BRET STAFFORD OF FLOOR CO","5812 S GENERAL BRUCE DR",TEMPLE,TX,76502,,Owner,,,,,OWNER,,,,,OWNER,,,,,,,,,
TX,HARRIS,21023668,"Warehouse & Manufacturing",5/25/2021,,1150000,,"5880 W FUQUA ST",HOUSTON,TX,77085,,,CONTRACTOR,,,,,,,,,,,"CORVUS CONSTRUCTION",,,,,"CORVUS CONSTRUCTION","4309 WAY OUT WEST DR",HOUSTON,TX,77092-1457,"(713) 699-3100",,,,
TX,HARRIS,21008595,"Warehouse & Manufacturing",5/25/2021,,1851195,,"6811 MCHARD RD BLD",HOUSTON,TX,77053,,,CONTRACTOR,,,,,,,,,,,"NORTHWINDS CONSTRUCTION",,,,,"NORTHWINDS CONSTRUCTION","15400 VANTAGE PKWY W",HOUSTON,TX,77032-1924,"(713) 671-5300",http://www.northwindsconst.com/,"(713) 671-5340",,
TX,BRAZOS,CNEW2021-000014,"Warehouse & Manufacturing",5/20/2021,,300000,,"15745 FM 2154 BL 7","COLLEGE STATION",TX,77845,,,CONTRACTOR,,,,,,,,,,,"MAREK BROTHERS CONSTRUCTION",,,,,"MAREK BROTHERS CONSTRUCTION","2115 JUDIWAY ST",HOUSTON,TX,77018-5834,"(713) 681-2626",http://www.marekbros.com,"(713) 681-6540",,info@marekbros.com
TX,BRAZOS,CNEW2021-000015,"Warehouse & Manufacturing",5/20/2021,,250000,,"15745 FM 2154 BL 9","COLLEGE STATION",TX,77845,,,CONTRACTOR,,,,,,,,,,,"MAREK BROTHERS CONSTRUCTION",,,,,"MAREK BROTHERS CONSTRUCTION","2115 JUDIWAY ST",HOUSTON,TX,77018-5834,"(713) 681-2626",http://www.marekbros.com,"(713) 681-6540",,info@marekbros.com
