state,county,permno,ptype,pdate,pdescription,jvalue,jsqfeet,jaddr,jcity,jstate,jzip,jsubdiv,jlotno,aname,aaddr,acity,astate,azip,aphone,atype,aurl,afax,aprimarycontact,aemail,bldcode,units,bldgs,ctype,legal,contractor,caddress,ccity,cstate,czip,cphone,curl,cfax,cprimarycontact,cemail
TX,MONTGOMERY,183466-21,"Churches & Other Religious",4/28/2021,,1800000,,"15206 SUNSET TR",HOUSTON,TX,77356,,,"BURHAN FAKHRI","7108 OLD KATY RD, STE 130",HOUSTON,TX,77356,,Owner,,,,,OWNER,,,,,OWNER,,,,,,,,,
TX,HARRIS,21008572,"Duplex, Triplex, & Fourplex",6/7/2021,,149000,,"9907 LANEWELL ST A",HOUSTON,TX,77029,,,CONTRACTOR,,,,,,,,,,,"ASHLEY GRAYBILL",,,,,"ASHLEY GRAYBILL","14643 DALLAS PKWY STE",HOUSTON,TX,75254,"(469) 225-7633",,,,
TX,HARRIS,19126320,"Duplex, Triplex, & Fourplex",6/7/2021,,161470,,"9106 NOEL ST",HOUSTON,TX,77033,,,"ANTONIO MORALE","9106 NOEL ST",HOUSTON,TX,77033,"(832) 274-6090",Applicant,,,,,OWNER,,,,,OWNER,,,,,,,,,
TX,HARRIS,21030118,"Duplex, Triplex, & Fourplex",6/6/2021,,214144,,"8005 CARVER RD A",HOUSTON,TX,77088,,,CONTRACTOR,,,,,,,,,,,"CCB CONSTRUCTION",,,,,"CCB CONSTRUCTION","9597 JONES RD",HOUSTON,TX,77065-4815,"(972) 839-8593",,,,
TX,HARRIS,21029292,"Duplex, Triplex, & Fourplex",6/3/2021,,298000,,"5225 E HOUSTON RD A",HOUSTON,TX,77028,,,CONTRACTOR,,,,,,,,,,,"TTK PROPERTIES",,,,,"TTK PROPERTIES","9234 CYPRESS CREEK PKWY",HOUSTON,TX,77070-6208,"(281) 894-1800",,,,
TX,HARRIS,21025557,"Duplex, Triplex, & Fourplex",6/1/2021,,298000,,"7314 KARNES ST A",HOUSTON,TX,77020,,,CONTRACTOR,,,,,,,,,,,"TEXAS TURNKEY PROPERTIES",,,,,"TEXAS TURNKEY PROPERTIES","9234 CYPRESS CREEK PKWY",HOUSTON,TX,77070-6208,"(281) 894-1800",,,,
TX,HARRIS,20113361,"Duplex, Triplex, & Fourplex",6/6/2021,,437372,,"6306 LOMA LINDA",HOUSTON,TX,77085,,,"CARMELO CRUZ","6306 LOMA LINDA",HOUSTON,TX,77085,,Owner,,,,,OWNER,,,,,OWNER,,,,,,,,,
TX,MONTGOMERY,183816-21,"Hospital & Other Medical",5/7/2021,,86000,,"4250 WOODRIDGE PARKWAY",HOUSTON,TX,77356,"NORTHEAST CHRISTIAN ACADEMY",,"JASMINE RIOS","2800 BROADWAY ST #C251",PEARLAND,TX,77586,,Owner,,,,,OWNER,,,,,OWNER,,,,,,,,,
TX,HARRIS,21041111,"Hospital & Other Medical",6/3/2021,Renovations,374225,,"6720 BERTNER AVE FL",HOUSTON,TX,77030,,,CONTRACTOR,,,,,,,,,,,"FORNEY CONSTRUCTION",,,,,"FORNEY CONSTRUCTION","8945 LONG POINT RD STE 200",HOUSTON,TX,77055-3036,"(713) 224-1900",http://www.forneycc.com/,"(713) 224-1901",,
TX,HARRIS,21020819,"Hospital & Other Medical",6/2/2021,Renovations,510000,,"6411 FANNIN",HOUSTON,TX,77002,,,CONTRACTOR,,,,,,,,,,,"HARVEY CLEARY BUILDERS",,,,,"HARVEY CLEARY BUILDERS","3630 WESTCHASE DR",HOUSTON,TX,77042-5224,"(713) 783-7919",http://www.harvey-cleary.com/,,,
TX,HARRIS,21044975,"Hotel, Motel & Assisted Living",6/4/2021,,2478282,,"6580 FANNIN",HOUSTON,TX,77303,,,CONTRACTOR,,,,,,,,,,,"LETSOS CO.",,,,,"LETSOS CO.","PO BOX 36927",HOUSTON,TX,77236-6927,"(713) 972-7883",http://www.letsos.com/,"(713) 972-7880",,
TX,MONTGOMERY,184026-21,"Multi Family Apartments & Condos",5/13/2021,,1500000,,"25115 HARPER LN",HOUSTON,TX,77356,,,"RAWAN AHMAD","11302 TANNER RD",HOUSTON,TX,77041,,Owner,,,,,OWNER,,,,,OWNER,,,,,,,,,
TX,GALVESTON,35768-21,"Offices, R&D, & Professional",5/20/2021,,45000,,"2223 AVE J",HOUSTON,TX,77450,,,"LONG CHAN TRAN","PO BOX 428",DICKINSON,TX,77539,"(281) 508-6937",Owner,,,,,OWNER,,,,,OWNER,,,,,,,,,
TX,HARRIS,21032406,"Offices, R&D, & Professional",6/3/2021,Renovations,650000,,"1311 BROADFIELD BLVD",HOUSTON,TX,77084,,,CONTRACTOR,,,,,,,,,,,"BYRD INTERIOR CONSTRUCTION",,,,,"BYRD INTERIOR CONSTRUCTION","2123 W GOVERNORS CIR # 100",HOUSTON,TX,77092-8746,"(713) 688-8850",http://www.byrdinterior.com/,,"JOHN BYRD",jbyrd@byrdinterior.com
TX,HARRIS,21029472,"Offices, R&D, & Professional",6/4/2021,Renovations,47000,,"3151 BRIARPARK DR",HOUSTON,TX,77042,,,CONTRACTOR,,,,,,,,,,,"CANNON ENTERPRISES",,,,,"CANNON ENTERPRISES","230 RILEY FUZZEL RD",SPRING,TX,77373,"(281) 353-6868",,,,
TX,HARRIS,21041106,"Offices, R&D, & Professional",6/7/2021,Renovations,1111350,,"840 WEST SAM HOUSTON NORTH PKY",HOUSTON,TX,77024,,,CONTRACTOR,,,,,,,,,,,"MICHAELA  DRAKE",,,,,"MICHAELA  DRAKE","711 LOUISIANA ST STE",HOUSTON,TX,77002,"(713) 463-4692",,,,
TX,HARRIS,21040457,"Offices, R&D, & Professional",6/2/2021,Renovations,880000,,"9811 KATY FWY",HOUSTON,TX,77024,,,CONTRACTOR,,,,,,,,,,,"MICHAELA  DRAKE",,,,,"MICHAELA  DRAKE","711 LOUISIANA ST STE",HOUSTON,TX,77002,"(713) 463-4692",,,,
TX,HARRIS,21038637,"Offices, R&D, & Professional",6/3/2021,Renovations,1500000,,"1100 LOUISIANA ST",HOUSTON,TX,77002,,,CONTRACTOR,,,,,,,,,,,"GALLANT BUILDERS",,,,,"GALLANT BUILDERS","6990 PORTWEST DR STE 170",HOUSTON,TX,77024-8088,"(713) 275-9900",https://www.gallantbuilders.com/,"(713) 275-9901",,
TX,HARRIS,19084928,"Offices, R&D, & Professional",6/4/2021,,72000,,"5006 N MCCARTY",HOUSTON,TX,77013,,,"ROSA GIRON","5006 N MCCARTY",HOUSTON,TX,77013,,Owner,,,,,OWNER,,,,,OWNER,,,,,,,,,
TX,HARRIS,21030718,"Offices, R&D, & Professional",6/7/2021,Renovations,400000,,"14453 HILLCROFT AVE STE",HOUSTON,TX,77085,,,CONTRACTOR,,,,,,,,,,,"KLOW CONSTRUCTION",,,,,"KLOW CONSTRUCTION","10796 KEMPWOOD DR",HOUSTON,TX,77043,"(713) 412-8663",,"(832) 930-7772",,
TX,HARRIS,21032521,"Offices, R&D, & Professional",6/7/2021,Renovations,200000,,"15115 PARK ROW DR",HOUSTON,TX,77084,,,CONTRACTOR,,,,,,,,,,,"NEWPORT CONSTRUCTION SERVICES",,,,,"NEWPORT CONSTRUCTION SERVICES","9800 RICHMOND AVE",HOUSTON,TX,77042,"(713) 334-2700",http://www.newpropco.com/,,,
TX,HARRIS,21032797,"Offices, R&D, & Professional",6/3/2021,Renovations,522000,,"4265 SAN FELIPE ST",HOUSTON,TX,77027,,,CONTRACTOR,,,,,,,,,,,"ODONNELL SNIDER CONSTRUCTION",,,,,"ODONNELL SNIDER CONSTRUCTION","1900 WEST LOOP S STE 350",HOUSTON,TX,77027-3236,"(713) 782-2238",http://odonnellsnider.com/,"(713) 782-2238",,bwhyte@odonnellsnider.com
TX,MONTGOMERY,184021-21,"Other Commercial",5/13/2021,,900000,,"173 6 SAWDUST ROAD",HOUSTON,TX,77356,,,"RAWAN AHMAD","11302 TANNER RD",HOUSTON,TX,77041,,Owner,,,,,OWNER,,,,,OWNER,,,,,,,,,
TX,HARRIS,19111031,"Parks, Recreation, Entertainment, & RV Park",6/3/2021,Renovations,165000,,"17355 TOMBALL PKY",HOUSTON,TX,77064,,,"ALTON KLEIN","2126 E QUINCY","SOUTH PASADENA",CA,92867,"(626) 799-7010",Applicant,,,,,OWNER,,,,,OWNER,,,,,,,,,
TX,HARRIS,19145741,"Parks, Recreation, Entertainment, & RV Park",6/3/2021,Addition,395000,,"12800 WESTHEIMER RD",HOUSTON,TX,77077,,,CONTRACTOR,,,,,,,,,,,"CARRIER MAUSOLEUMS CONSTRUCTION USA",,,,,"CARRIER MAUSOLEUMS CONSTRUCTION USA","1730 SKYLINE BLVD STE",PORTLAND,OR,97221,"(503) 297-0356",,,,
TX,MONTGOMERY,183756-21,"Residential Renovations & Additions",5/6/2021,,45000,,"13721 AUSTIN MCCOMB ROAD",CONROE,TX,77303,,,"DILLON CONLEY","13721 AUSTIN MCCOMB ROAD",CONROE,TX,77303,,Owner,,,,,OWNER,,,,,OWNER,,,,,,,,,
TX,GALVESTON,35806-21,"Residential Renovations & Additions",5/26/2021,Renovations,41690,,"3264 HIDDEN GOLD",HOUSTON,TX,77650,"CRYSTAL BEACH",,"RON RUSCHE","PO BOX 2454","CRYSTAL BEACH",TX,77650,,Owner,,,,,OWNER,,,,,OWNER,,,,,,,,,
TX,GALVESTON,35779-21,"Residential Renovations & Additions",5/20/2021,Renovations,38505,,"312 11TH ST",HOUSTON,TX,77356,,,"ANA  ASTELLO","312 11TH ST",HOUSTON,TX,77356,,Owner,,,,,"DSW HOMES",,,,,"DSW HOMES","502 E 20TH ST",HOUSTON,TX,77008-2665,"(832) 552-9687",http://www.dswhomes.com/,,,
TX,GALVESTON,35774-21,"Residential Renovations & Additions",5/20/2021,Renovations,47550,,"6419 CASEY",HOUSTON,TX,77356,,,"KENNETH & PATRICIA BICKERSTAFF","6419 CASEY RD","SANTA FE",TX,77517,,Owner,,,,,"AMERICAS HOME PLACE",,,,,"AMERICAS HOME PLACE","1200 N BYPASS 35 STE 8100",ALVIN,TX,77511,"(409) 762-9000",https://www.americashomeplace.com/,,,
TX,GALVESTON,35773-21,"Residential Renovations & Additions",5/20/2021,Renovations,39475,,"7105 DELESANDRI",HOUSTON,TX,77356,,,"KURT DOHMAN","7103 STINGRAY",HITCHCOCK,TX,77563,,Owner,,,,,OWNER,,,,,OWNER,,,,,,,,,
TX,GALVESTON,35693-21,"Residential Renovations & Additions",5/4/2021,Renovations,45105,,"927 OKLAHOMA",HOUSTON,TX,77356,,,"ROMAN BARRERA ALVARO","927 OKLAHOMA",BACLIFF,TX,77518,,Owner,,,,,"DSW HOMES",,,,,"DSW HOMES","502 E 20TH ST",HOUSTON,TX,77008-2665,"(832) 552-9687",http://www.dswhomes.com/,,,
TX,HARRIS,21022492,"Residential Renovations & Additions",6/1/2021,Addition,50000,,"1047 W 41ST",HOUSTON,TX,77018,,,"SPENCER ANDERLE","1047 W 41ST",HOUSTON,TX,77018,,Owner,,,,,"HESS HOMES",,,,,"HESS HOMES","942 LAMONTE LN",HOUSTON,TX,77018-4440,"(832) 309-7916",,,,
TX,HARRIS,21030335,"Residential Renovations & Additions",6/1/2021,Addition,75000,,"2115 BRIARMEAD",HOUSTON,TX,77057,,,"EDWARD & MARY TAUSSIG","2115 BRIARMEAD",HOUSTON,TX,77057,,Owner,,,,,"ANNE'S PERMIT",,,,,"ANNE'S PERMIT","2617C W HOLCOMBE BLVD",HOUSTON,TX,77025,"(713) 666-2025",,,,
TX,HARRIS,21047210,"Residential Renovations & Additions",6/7/2021,Renovations,30000,,"101 WESTCOTT ST",HOUSTON,TX,77007,,,"BAUGUSS GLENN","101 WESTCOTT ST",HOUSTON,TX,77007,,Owner,,,,,"LAURA TOWBER",,,,,"LAURA TOWBER","5711 CLAREWOOD DR",HOUSTON,TX,77081,"(713) 539-2194",,,,
TX,HARRIS,21032607,"Residential Renovations & Additions",6/2/2021,Addition,80000,,"4503 IVANHOE",HOUSTON,TX,77072,,,"BOHN MARK &  MARYANNE","4503 IVANHOE",HOUSTON,TX,77072,,Owner,,,,,"JACOB BUCKWALTER",,,,,"JACOB BUCKWALTER","9597 JONES RD",HOUSTON,TX,77065-4815,"(832) 272-8423",,,,
TX,HARRIS,21029034,"Residential Renovations & Additions",6/6/2021,Addition,180000,,"6639 FAIRFIELD",HOUSTON,TX,77023,,,"JEFFREY CHURCH","6639 FAIRFIELD",HOUSTON,TX,77023,,Owner,,,,,GRAPHITE,,,,,GRAPHITE,"1719 VASSAR ST",HOUSTON,TX,77098,"(713) 526-4396",,,,
TX,HARRIS,21024879,"Residential Renovations & Additions",6/7/2021,Addition,70000,,"901 HEIGHTS",HOUSTON,TX,77008,,,CONTRACTOR,,,,,,,,,,,"BUNGALOW REVIVAL",,,,,"BUNGALOW REVIVAL","238 WEST 19TH ST",HOUSTON,TX,77008-4064,"(713) 861-7494",http://bungalowrevival.com,"(713) 863-7493",,
TX,HARRIS,21038353,"Residential Renovations & Additions",6/4/2021,Addition,150000,,"1707 SPRING",HOUSTON,TX,77007,,,"SCOTT SMITH","1707 SPRING",HOUSTON,TX,77007,,Owner,,,,,"FW HERITAGE",,,,,"FW HERITAGE","1847 DART ST",HOUSTON,TX,77007-4432,"(832) 531-3911",,,"DOMINIC YAP",fw-heritage@hotmail.com
TX,HARRIS,21031114,"Residential Renovations & Additions",6/1/2021,Renovations,90000,,"4310 APOLLO",HOUSTON,TX,77018,,,"TOMMY PHILLIPS","4310 APOLLO",HOUSTON,TX,77018,,Owner,,,,,"LDM DESIGN & CONSTRUCTION",,,,,"LDM DESIGN & CONSTRUCTION","4300 NORTH CENTRAL EXPRESSWAY",DALLAS,TX,75206,"(214) 826-2044",,,,
TX,HARRIS,20078876,"Residential Renovations & Additions",6/7/2021,Renovations,48000,,"1305 ASHLAND",HOUSTON,TX,77008,,,"RHONDA DUPREE","1305 ASHLAND",HOUSTON,TX,77008,,Owner,,,,,"SUPERIOR EXTERIOR",,,,,"SUPERIOR EXTERIOR","14531 MISTY MEADOW LN",HOUSTON,TX,77079-3172,"(713) 785-6926",http://superiorexterior.biz,,,
TX,GALVESTON,2021-33766,"Residential Swimming Pools & Spas",5/26/2021,,,7532,"807 LANTANA DR","LA MARQUE",TX,78641,,,CONTRACTOR,,,,,,,,,,,"BLUE BOTTOM POOL & SPA SUPPLY",,,,,"BLUE BOTTOM POOL & SPA SUPPLY","11416 N FM 620 STE J",AUSTIN,TX,78726-1170,"(512) 436-9572",http://www.bluebottompoolsupply.com/,,,info@bluebottompoolsupply.com
TX,BELL,2021-7044,"Residential Swimming Pools & Spas",5/21/2021,,,,"2427 BLUFF CIRCLE",BELTON,TX,76513,,,"THUAN & KIMBERLY DANG","2427 BLUFF CIRCLE",BELTON,TX,76513,,Owner,,,,,"OCEAN QUEST POOLS",,,,,"OCEAN QUEST POOLS","10208 N FM 620",AUSTIN,TX,78726-2214,"(512) 450-0595",http://www.oceanquest.com/,"(512) 258-7379","DAN HARTNETT",danh@oceanquest.com
TX,HARRIS,21023051,"Residential Swimming Pools & Spas",6/7/2021,,35000,,"5550 BINGLE RD BLDG",HOUSTON,TX,77092,,,"BINGLE WYNHAVEN","5550 BINGLE RD BLDG",HOUSTON,TX,77092,,Owner,,,,,"TRAMMELL CROW RESIDENTIAL SERVICES",,,,,"TRAMMELL CROW RESIDENTIAL SERVICES","10333 RICHMOND AVE",HOUSTON,TX,77042-4244,"(713) 706-1536",,,,
TX,HARRIS,21044778,"Residential Swimming Pools & Spas",6/7/2021,,56500,,"5815 MAJESTIC HARBOR",HOUSTON,TX,77339,,,"CAROLINE CHAMNESS","5815 MAJESTIC HARBOR",HOUSTON,TX,77339,,Owner,,,,,"NELSON POOLS",,,,,"NELSON POOLS","22868 LOOP",HOUSTON,TX,77365,"(281) 540-2911",http://www.nelsonpools.com,,,
TX,MONTGOMERY,21-0447,"Restaurant and Bar",5/28/2021,,479476,3027,"12709 45 IH STE 350",WILLIS,TX,77318,,,CONTRACTOR,,,,,,,,,,,"BRO DESIGN & BUILD",,,,,"BRO DESIGN & BUILD","6100 CORPORATE DR. SUITE 588",HOUSTON,TX,77036,"(832) 860-1133",https://bro-design-build-inc.business.site/,,,
TX,HARRIS,21014840,"Restaurant and Bar",6/4/2021,Renovations,36000,,"1312 W ALABAMA",HOUSTON,TX,77006,,,CONTRACTOR,,,,,,,,,,,"CONSTRUCTION CONCEPTS",,,,,"CONSTRUCTION CONCEPTS","5633 SOUTHWEST",HOUSTON,TX,77057,"(832) 860-3434",,,,
TX,HARRIS,21020410,"Restaurant and Bar",6/3/2021,,150000,,"3201 N SHEPHERD DR",HOUSTON,TX,77018,,,CONTRACTOR,,,,,,,,,,,"CHEUNG SIU HONG",,,,,"CHEUNG SIU HONG","4845 WILLOWBEND BOULEVARD",HOUSTON,TX,77035,"(832) 577-6829",,,,
TX,HARRIS,21024787,"Restaurant and Bar",6/3/2021,Renovations,450000,,"3701 TRAVIS",HOUSTON,TX,77002,,,"PETE GORDON","3701 TRAVIS",HOUSTON,TX,77002,"(713) 875-5501",Applicant,,,,,OWNER,,,,,OWNER,,,,,,,,,
TX,HARRIS,21012135,"Restaurant and Bar",6/3/2021,Renovations,120000,,"3622 MAIN ST",HOUSTON,TX,77002,,,CONTRACTOR,,,,,,,,,,,"SACREY EMMETT ARCHITECT",,,,,"SACREY EMMETT ARCHITECT","8588 KATY FWY STE 260",HOUSTON,TX,77024-1815,"(713) 468-5833",,,,
TX,HARRIS,18085382,"Restaurant and Bar",6/2/2021,Renovations,100000,,"5401 TELEPHONE",HOUSTON,TX,77087,,,CONTRACTOR,,,,,,,,,,,"SNS GENERAL CONTRACTING",,,,,"SNS GENERAL CONTRACTING","2409 SENDERO TRL",LEWISVILLE,TX,75067-6528,"(325) 660-7509",,,,
TX,HARRIS,21023061,Retail,6/3/2021,Renovations,400000,,"12850 MEMORIAL DR",HOUSTON,TX,77024,,,CONTRACTOR,,,,,,,,,,,"PRECISION PERMIT SERVICES",,,,,"PRECISION PERMIT SERVICES","75 60TH ST SW",WYOMING,MI,49548-5761,"(616) 493-9334",http://precisionpermits.com/,"(616) 493-9351","AMY DIEKEVERS",amyd@precisionpermits.com
TX,HARRIS,20112224,Retail,6/3/2021,,44000,,"825 STUDEWOOD ST",HOUSTON,TX,77007,,,"MARCO HERNANDEZ","33 N PALMER",HOUSTON,TX,77003,"(713) 545-4214",Applicant,,,,,OWNER,,,,,OWNER,,,,,,,,,
TX,HARRIS,20116117,Retail,6/3/2021,Renovations,160967,,"8614 CULLEN",HOUSTON,TX,77051,,,CONTRACTOR,,,,,,,,,,,"WHARTON CONSTRUCTION SPECIALISTS",,,,,"WHARTON CONSTRUCTION SPECIALISTS","1504 OAK HOLLOW",HOUSTON,TX,77546,"(281) 990-8062",,,"MARCUS WHARTON",
TX,MONTGOMERY,183486-21,"Single Family Homes",4/29/2021,,137225,,"12002 THOREAU DR",HOUSTON,TX,77356,WALDEN,,CONTRACTOR,,,,,,,,,,,"CAMILLO PROPERTIES",,,,,"CAMILLO PROPERTIES","6707 GESSNER RD",HOUSTON,TX,77040-4017,"(832) 500-0284",http://www.camillorentalhomes.com/,"(281) 325-0245",,
TX,MONTGOMERY,183489-21,"Single Family Homes",4/29/2021,,134145,,"3407 CONCORD CIRCLE",HOUSTON,TX,77356,WALDEN,,CONTRACTOR,,,,,,,,,,,"CAMILLO PROPERTIES",,,,,"CAMILLO PROPERTIES","6707 GESSNER RD",HOUSTON,TX,77040-4017,"(832) 500-0284",http://www.camillorentalhomes.com/,"(281) 325-0245",,
TX,MONTGOMERY,"183493 21","Single Family Homes",4/29/2021,,104225,,"3721 NORTHSHORE DR",HOUSTON,TX,77356,WALDEN,,CONTRACTOR,,,,,,,,,,,"CAMILLO PROPERTIES",,,,,"CAMILLO PROPERTIES","6707 GESSNER RD",HOUSTON,TX,77040-4017,"(832) 500-0284",http://www.camillorentalhomes.com/,"(281) 325-0245",,
TX,MONTGOMERY,183494-21,"Single Family Homes",4/29/2021,,99990,,"12625 WALDEN ROAD",HOUSTON,TX,77356,WALDEN,,CONTRACTOR,,,,,,,,,,,"CAMILLO PROPERTIES",,,,,"CAMILLO PROPERTIES","6707 GESSNER RD",HOUSTON,TX,77040-4017,"(832) 500-0284",http://www.camillorentalhomes.com/,"(281) 325-0245",,
TX,MONTGOMERY,183495-21,"Single Family Homes",4/29/2021,,103020,,"22374 CLEAR CASTLE DR",HOUSTON,TX,77356,"BROOKLYN TRAILS",,CONTRACTOR,,,,,,,,,,,"CAMILLO PROPERTIES",,,,,"CAMILLO PROPERTIES","6707 GESSNER RD",HOUSTON,TX,77040-4017,"(832) 500-0284",http://www.camillorentalhomes.com/,"(281) 325-0245",,
TX,MONTGOMERY,183502-21,"Single Family Homes",4/29/2021,,150000,,"14958 INDIAN HILL TR",HOUSTON,TX,77356,"ARROWHEAD LAKES",,"BARBARA CARRILLO","635 FOX CORFT PARK",CONROE,TX,77302,,Owner,,,,,OWNER,,,,,OWNER,,,,,,,,,
TX,MONTGOMERY,183407-21,"Single Family Homes",4/27/2021,,178530,,"20954 NEW PROPER DR",HOUSTON,TX,77356,"HARRINGTON TRAILS",,CONTRACTOR,,,,,,,,,,,"CASTLEROCK COMMUNITIES",,,,,"CASTLEROCK COMMUNITIES","7670 WOODWAY DR STE 300",HOUSTON,TX,77063-1520,"(713) 600-7000",http://c-rock.com,"(713) 600-0000",,
TX,MONTGOMERY,183409-21,"Single Family Homes",4/27/2021,,160875,,"20959 NEW PROPER DR",HOUSTON,TX,77356,"HARRINGTON TRAILS",,CONTRACTOR,,,,,,,,,,,"CASTLEROCK COMMUNITIES",,,,,"CASTLEROCK COMMUNITIES","7670 WOODWAY DR STE 300",HOUSTON,TX,77063-1520,"(713) 600-7000",http://c-rock.com,"(713) 600-0000",,
TX,MONTGOMERY,183515-21,"Single Family Homes",4/29/2021,,150995,,"18738 LEGEND OAKS DR",HOUSTON,TX,77356,"GLEN OAKS",,CONTRACTOR,,,,,,,,,,,"CASTLEROCK COMMUNITIES",,,,,"CASTLEROCK COMMUNITIES","7670 WOODWAY DR STE 300",HOUSTON,TX,77063-1520,"(713) 600-7000",http://c-rock.com,"(713) 600-0000",,
TX,MONTGOMERY,183516-21,"Single Family Homes",4/29/2021,,191490,,"18627 BIRCH ORCHARD CT",HOUSTON,TX,77356,"GLEN OAKS",,CONTRACTOR,,,,,,,,,,,"CASTLEROCK COMMUNITIES",,,,,"CASTLEROCK COMMUNITIES","7670 WOODWAY DR STE 300",HOUSTON,TX,77063-1520,"(713) 600-7000",http://c-rock.com,"(713) 600-0000",,
TX,MONTGOMERY,183391-21,"Single Family Homes",4/27/2021,,175684,,"27016 HIDDEN ROCK CT",HOUSTON,TX,77356,NORTHGROVE,,CONTRACTOR,,,,,,,,,,,"CHESMAR HOMES",,,,,"CHESMAR HOMES","450 GEARS RD STE 400",HOUSTON,TX,77067-4513,"(281) 598-1111",http://chesmar.com,"(281) 598-1115",,customerservice.houston@chesmar.com
TX,MONTGOMERY,183393-21,"Single Family Homes",4/27/2021,,202735,,"4622 SILVER MOON DR",HOUSTON,TX,77356,"WOODSONS RESERVE",,CONTRACTOR,,,,,,,,,,,"CHESMAR HOMES",,,,,"CHESMAR HOMES","450 GEARS RD STE 400",HOUSTON,TX,77067-4513,"(281) 598-1111",http://chesmar.com,"(281) 598-1115",,customerservice.houston@chesmar.com
TX,MONTGOMERY,183394-21,"Single Family Homes",4/27/2021,,185988,,"396 ANDES DR",HOUSTON,TX,77356,WOODFOREST,,CONTRACTOR,,,,,,,,,,,"CHESMAR HOMES",,,,,"CHESMAR HOMES","450 GEARS RD STE 400",HOUSTON,TX,77067-4513,"(281) 598-1111",http://chesmar.com,"(281) 598-1115",,customerservice.houston@chesmar.com
TX,MONTGOMERY,183400-21,"Single Family Homes",4/27/2021,,177242,,"7821 CHARTER HILL DR",HOUSTON,TX,77356,NORTHGROVE,,CONTRACTOR,,,,,,,,,,,"CHESMAR HOMES",,,,,"CHESMAR HOMES","450 GEARS RD STE 400",HOUSTON,TX,77067-4513,"(281) 598-1111",http://chesmar.com,"(281) 598-1115",,customerservice.houston@chesmar.com
TX,MONTGOMERY,183406-21,"Single Family Homes",4/27/2021,,167370,,"10171 BAYOU OAKS DR",HOUSTON,TX,77356,"HARPERS PRESERVE",,CONTRACTOR,,,,,,,,,,,"CHESMAR HOMES",,,,,"CHESMAR HOMES","450 GEARS RD STE 400",HOUSTON,TX,77067-4513,"(281) 598-1111",http://chesmar.com,"(281) 598-1115",,customerservice.houston@chesmar.com
TX,MONTGOMERY,183408-21,"Single Family Homes",4/27/2021,,167370,,"10251 BAYOU OAKS DR",HOUSTON,TX,77356,"HARPERS PRESERVE",,CONTRACTOR,,,,,,,,,,,"CHESMAR HOMES",,,,,"CHESMAR HOMES","450 GEARS RD STE 400",HOUSTON,TX,77067-4513,"(281) 598-1111",http://chesmar.com,"(281) 598-1115",,customerservice.houston@chesmar.com
TX,MONTGOMERY,183410-21,"Single Family Homes",4/27/2021,,140960,,"10514 WILD CHIVES",HOUSTON,TX,77356,"HARPERS PRESERVE",,CONTRACTOR,,,,,,,,,,,"CHESMAR HOMES",,,,,"CHESMAR HOMES","450 GEARS RD STE 400",HOUSTON,TX,77067-4513,"(281) 598-1111",http://chesmar.com,"(281) 598-1115",,customerservice.houston@chesmar.com
TX,MONTGOMERY,183448-21,"Single Family Homes",4/28/2021,,98930,,"9772 COLD CREEK DR",HOUSTON,TX,77356,"LAKEWOOD TRAILS",,"DILLON CONLEY","PO BOX 273",CONROE,TX,77305,,Owner,,,,,OWNER,,,,,OWNER,,,,,,,,,
TX,MONTGOMERY,183443-21,"Single Family Homes",4/28/2021,,138780,,"10011 ANGELINA WOODS LN",HOUSTON,TX,77356,"FOSTERS RIDGE",,CONTRACTOR,,,,,,,,,,,"DR HORTON",,,,,"DR HORTON","14100 SOUTHWEST",HOUSTON,TX,77478,"(281) 201-5559",,,,
TX,MONTGOMERY,183444-21,"Single Family Homes",4/28/2021,,133110,,"10035 ANGELINA WOODS LN",HOUSTON,TX,77356,"FOSTERS RIDGE",,CONTRACTOR,,,,,,,,,,,"DR HORTON",,,,,"DR HORTON","14100 SOUTHWEST",HOUSTON,TX,77478,"(281) 201-5559",,,,
TX,MONTGOMERY,183445-21,"Single Family Homes",4/28/2021,,128385,,"10023 ANGELINA WOODS LN",HOUSTON,TX,77356,"FOSTERS RIDGE",,CONTRACTOR,,,,,,,,,,,"DR HORTON",,,,,"DR HORTON","14100 SOUTHWEST",HOUSTON,TX,77478,"(281) 201-5559",,,,
TX,MONTGOMERY,183446-21,"Single Family Homes",4/28/2021,,161190,,"14257 LAKE LODGE DR",HOUSTON,TX,77356,"FOSTERS RIDGE",,CONTRACTOR,,,,,,,,,,,"DR HORTON",,,,,"DR HORTON","14100 SOUTHWEST",HOUSTON,TX,77478,"(281) 201-5559",,,,
TX,MONTGOMERY,183447-21,"Single Family Homes",4/28/2021,,161190,,"14195 LAKE LODGE DR",HOUSTON,TX,77356,"FOSTERS RIDGE",,CONTRACTOR,,,,,,,,,,,"DR HORTON",,,,,"DR HORTON","14100 SOUTHWEST",HOUSTON,TX,77478,"(281) 201-5559",,,,
TX,MONTGOMERY,183498-21,"Single Family Homes",4/29/2021,,144405,,"13915 CIBOLA FOREST LN",HOUSTON,TX,77356,"FOSTERS RIDGE",,CONTRACTOR,,,,,,,,,,,"DR HORTON",,,,,"DR HORTON","14100 SOUTHWEST",HOUSTON,TX,77478,"(281) 201-5559",,,,
TX,MONTGOMERY,183499-21,"Single Family Homes",4/29/2021,,133110,,"437 BILLINGSGATE CHASE",HOUSTON,TX,77356,"HILLS OF WESTLAKE",,CONTRACTOR,,,,,,,,,,,"DR HORTON",,,,,"DR HORTON","14100 SOUTHWEST",HOUSTON,TX,77478,"(281) 201-5559",,,,
TX,MONTGOMERY,"183528 21","Single Family Homes",4/30/2021,,95130,,"18513 ENGLAND MILL DR",HOUSTON,TX,77356,"PORTER'S MILL",,CONTRACTOR,,,,,,,,,,,"DR HORTON",,,,,"DR HORTON","14100 SOUTHWEST",HOUSTON,TX,77478,"(281) 201-5559",,,,
TX,MONTGOMERY,183530-21,"Single Family Homes",4/30/2021,,88065,,"18494 TENAHA MILL LN",HOUSTON,TX,77356,"PORTER'S MILL",,CONTRACTOR,,,,,,,,,,,"DR HORTON",,,,,"DR HORTON","14100 SOUTHWEST",HOUSTON,TX,77478,"(281) 201-5559",,,,
TX,MONTGOMERY,"183537 21","Single Family Homes",4/30/2021,,117449,,"20367 TEMBEC DR",HOUSTON,TX,77356,"PORTER'S MILL",,CONTRACTOR,,,,,,,,,,,"DR HORTON",,,,,"DR HORTON","14100 SOUTHWEST",HOUSTON,TX,77478,"(281) 201-5559",,,,
TX,MONTGOMERY,183539-21,"Single Family Homes",4/30/2021,,103050,,"18509 TENAHA MILL LN",HOUSTON,TX,77356,"PORTER'S MILL",,CONTRACTOR,,,,,,,,,,,"DR HORTON",,,,,"DR HORTON","14100 SOUTHWEST",HOUSTON,TX,77478,"(281) 201-5559",,,,
TX,MONTGOMERY,183543-21,"Single Family Homes",4/30/2021,,88065,,"20512 VAUGHN FOREST CT",HOUSTON,TX,77356,"PORTER'S MILL",,CONTRACTOR,,,,,,,,,,,"DR HORTON",,,,,"DR HORTON","14100 SOUTHWEST",HOUSTON,TX,77478,"(281) 201-5559",,,,
TX,MONTGOMERY,183544-21,"Single Family Homes",4/30/2021,,117895,,"20342 TEMBEC DR",HOUSTON,TX,77356,"PORTER'S MILL",,CONTRACTOR,,,,,,,,,,,"DR HORTON",,,,,"DR HORTON","14100 SOUTHWEST",HOUSTON,TX,77478,"(281) 201-5559",,,,
TX,MONTGOMERY,183545-21,"Single Family Homes",4/30/2021,,117895,,"20509 VAUGHN FOREST CT",HOUSTON,TX,77356,"PORTER'S MILL",,CONTRACTOR,,,,,,,,,,,"DR HORTON",,,,,"DR HORTON","14100 SOUTHWEST",HOUSTON,TX,77478,"(281) 201-5559",,,,
TX,MONTGOMERY,183547-21,"Single Family Homes",4/30/2021,,121445,,"20520 VAUGHN FOREST CT",HOUSTON,TX,77356,"PORTER'S MILL",,CONTRACTOR,,,,,,,,,,,"DR HORTON",,,,,"DR HORTON","14100 SOUTHWEST",HOUSTON,TX,77478,"(281) 201-5559",,,,
TX,MONTGOMERY,183521-21,"Single Family Homes",4/30/2021,,343000,,"139 VUE POINT PLACE",HOUSTON,TX,77356,"LAKE WOODLANDS EAST SHORE",,CONTRACTOR,,,,,,,,,,,"DARLING HOMES",,,,,"DARLING HOMES","10255 RICHMOND AVE STE 150",HOUSTON,TX,77042-4382,"(713) 690-6902",http://www.darlinghomes.com/,,,
TX,MONTGOMERY,183522-21,"Single Family Homes",4/30/2021,,434000,,"135 VUE POINT PLACE",HOUSTON,TX,77356,"LAKE WOODLANDS EAST SHORE",,CONTRACTOR,,,,,,,,,,,"DARLING HOMES",,,,,"DARLING HOMES","10255 RICHMOND AVE STE 150",HOUSTON,TX,77042-4382,"(713) 690-6902",http://www.darlinghomes.com/,,,
TX,MONTGOMERY,183437-21,"Single Family Homes",4/28/2021,,300000,,"11396 GRAND HARBOR BLVD",HOUSTON,TX,77356,"GRAND HARBOR",,"JENNY DAVIS","159 SNUG HARBOR DR",MONTGOMERY,TX,77376,,Owner,,,,,OWNER,,,,,OWNER,,,,,,,,,
TX,MONTGOMERY,183401-21,"Single Family Homes",4/27/2021,,537457,,"1120 HAWK OWL CT",HOUSTON,TX,77356,"HARPERS PRESERVE",,CONTRACTOR,,,,,,,,,,,"DREES CUSTOM HOMES",,,,,"DREES CUSTOM HOMES","9720 CYPRESSWOOD DR",HOUSTON,TX,77070-3355,"(281) 653-8850",http://www.dreeshomes.com,,,
TX,MONTGOMERY,183402-21,"Single Family Homes",4/27/2021,,641436,,"613 PLA.TINUM STONE LN",HOUSTON,TX,77356,"WOOD TRACE",,CONTRACTOR,,,,,,,,,,,"DREES CUSTOM HOMES",,,,,"DREES CUSTOM HOMES","9720 CYPRESSWOOD DR",HOUSTON,TX,77070-3355,"(281) 653-8850",http://www.dreeshomes.com,,,
TX,MONTGOMERY,183335-21,"Single Family Homes",4/26/2021,,270090,,"9944 PRESERVE WAY",HOUSTON,TX,77356,"HARPERS PRESERVE",,CONTRACTOR,,,,,,,,,,,"EHT OF TEXAS LP",,,,,"EHT OF TEXAS LP","10235 LITTLE",HOUSTON,TX,77040,"(713) 557-3685",,,,
TX,MONTGOMERY,183336-21,"Single Family Homes",4/26/2021,,261180,,"10042 PRESERVE WAY",HOUSTON,TX,77356,"HARPERS PRESERVE",,CONTRACTOR,,,,,,,,,,,"EHT OF TEXAS LP",,,,,"EHT OF TEXAS LP","10235 LITTLE",HOUSTON,TX,77040,"(713) 557-3685",,,,
TX,MONTGOMERY,183351-21,"Single Family Homes",4/26/2021,,315990,,"16425 STONEWALL ST",HOUSTON,TX,77356,"DEER PINES",,CONTRACTOR,,,,,,,,,,,"FIRST AMERICA HOMES",,,,,"FIRST AMERICA HOMES","1401 WOODLANDS PARKWAY","THE WOODLANDS",TX,77380-1179,"(713) 452-1700",https://www.firstamericahomes.com/,,,info@firstamericahomes.com
TX,MONTGOMERY,183540-21,"Single Family Homes",4/30/2021,,284000,,"21231 HIDDEN BEND LOOP",HOUSTON,TX,77356,"MAGNOLIA RESERVE",,CONTRACTOR,,,,,,,,,,,"GRACEPOINT HOMES",,,,,"GRACEPOINT HOMES","33300 EGYPT LN STE 100",MAGNOLIA,TX,77354-2739,"(281) 681-0400",http://www.gracepointhomes.com/,"(281) 681-0402",,Info@gracepointhomes.com
TX,MONTGOMERY,183395-21,"Single Family Homes",4/27/2021,,506000,,"40808 IVER LN",HOUSTON,TX,77356,"MOSTYN MANOR",,CONTRACTOR,,,,,,,,,,,"HARRISBURG HOMES",,,,,"HARRISBURG HOMES","21615 FIREMIST WAY",CYPRESS,TX,77433-3507,"(713) 249-8196",http://www.harrisburgtx.com/,,SHAWN,info@harrisburgtx.com
TX,MONTGOMERY,183396-21,"Single Family Homes",4/27/2021,,394990,,"40827 WESSON LN",HOUSTON,TX,77356,"MOSTYN MANOR",,CONTRACTOR,,,,,,,,,,,"HARRISBURG HOMES",,,,,"HARRISBURG HOMES","21615 FIREMIST WAY",CYPRESS,TX,77433-3507,"(713) 249-8196",http://www.harrisburgtx.com/,,SHAWN,info@harrisburgtx.com
TX,MONTGOMERY,183381-21,"Single Family Homes",4/27/2021,,741000,,"115 CASTERLY GREENS CT",HOUSTON,TX,77356,"NOBLE GREENS AT WOODFOREST",,CONTRACTOR,,,,,,,,,,,"HIGHLAND HOMES",,,,,"HIGHLAND HOMES","10930 W SAM HOUSTON PKWY N STE 100",HOUSTON,TX,77064-6331,"(281) 517-9800",,,,
TX,MONTGOMERY,"183382 21","Single Family Homes",4/27/2021,,696990,,"224 SOUTH EMPRESS GREEN PLACE",HOUSTON,TX,77356,"NOBLE GREENS AT WOODFOREST",,CONTRACTOR,,,,,,,,,,,"HIGHLAND HOMES",,,,,"HIGHLAND HOMES","10930 W SAM HOUSTON PKWY N STE 100",HOUSTON,TX,77064-6331,"(281) 517-9800",,,,
TX,MONTGOMERY,"183383 21","Single Family Homes",4/27/2021,,675490,,"216 SOUTH EMPRESS GREEN PLACE",HOUSTON,TX,77356,"NOBLE GREENS AT WOODFOREST",,CONTRACTOR,,,,,,,,,,,"HIGHLAND HOMES",,,,,"HIGHLAND HOMES","10930 W SAM HOUSTON PKWY N STE 100",HOUSTON,TX,77064-6331,"(281) 517-9800",,,,
TX,MONTGOMERY,183553-21,"Single Family Homes",4/30/2021,,470000,,"218 PROMONTORY CT",HOUSTON,TX,77356,WOODFOREST,,CONTRACTOR,,,,,,,,,,,"HIGHLAND HOMES",,,,,"HIGHLAND HOMES","10930 W SAM HOUSTON PKWY N STE 100",HOUSTON,TX,77064-6331,"(281) 517-9800",,,,
TX,MONTGOMERY,183554-21,"Single Family Homes",4/30/2021,,466000,,"214 PROMONTORY CT",HOUSTON,TX,77356,WOODFOREST,,CONTRACTOR,,,,,,,,,,,"HIGHLAND HOMES",,,,,"HIGHLAND HOMES","10930 W SAM HOUSTON PKWY N STE 100",HOUSTON,TX,77064-6331,"(281) 517-9800",,,,
TX,MONTGOMERY,183556-21,"Single Family Homes",4/30/2021,,460000,,"210 PROMONTORY CT",HOUSTON,TX,77356,WOODFOREST,,CONTRACTOR,,,,,,,,,,,"HIGHLAND HOMES",,,,,"HIGHLAND HOMES","10930 W SAM HOUSTON PKWY N STE 100",HOUSTON,TX,77064-6331,"(281) 517-9800",,,,
TX,MONTGOMERY,183366-21,"Single Family Homes",4/26/2021,,365990,,"10163 BAYOU OAKS DR",HOUSTON,TX,77356,"HARPERS PRESERVE",,CONTRACTOR,,,,,,,,,,,"HISTORY MAKER HOMES",,,,,"HISTORY MAKER HOMES","9001 AIRPORT FWY SUITE 400","NORTH RICHLAND HILLS",TX,76180-7769,"(817) 429-8008",http://www.historymaker.com/,"(817) 507-1102","JILL BARFIELD",
TX,MONTGOMERY,183367-21,"Single Family Homes",4/26/2021,,353990,,"10122 BAYOU OAKS DR",HOUSTON,TX,77356,"HARPERS PRESERVE",,CONTRACTOR,,,,,,,,,,,"HISTORY MAKER HOMES",,,,,"HISTORY MAKER HOMES","9001 AIRPORT FWY SUITE 400","NORTH RICHLAND HILLS",TX,76180-7769,"(817) 429-8008",http://www.historymaker.com/,"(817) 507-1102","JILL BARFIELD",
TX,MONTGOMERY,183384-21,"Single Family Homes",4/27/2021,,347000,,"10159 BAYOU OAKS DR",HOUSTON,TX,77356,"HARPERS PRESERVE",,CONTRACTOR,,,,,,,,,,,"HISTORY MAKER HOMES",,,,,"HISTORY MAKER HOMES","9001 AIRPORT FWY SUITE 400","NORTH RICHLAND HILLS",TX,76180-7769,"(817) 429-8008",http://www.historymaker.com/,"(817) 507-1102","JILL BARFIELD",
TX,MONTGOMERY,183496-21,"Single Family Homes",4/29/2021,,353990,,"17306 AUTUMN SAGE CT",HOUSTON,TX,77356,"HARPER'S PRESERVE",,CONTRACTOR,,,,,,,,,,,"HISTORY MAKER HOMES",,,,,"HISTORY MAKER HOMES","9001 AIRPORT FWY SUITE 400","NORTH RICHLAND HILLS",TX,76180-7769,"(817) 429-8008",http://www.historymaker.com/,"(817) 507-1102","JILL BARFIELD",
TX,MONTGOMERY,183345-21,"Single Family Homes",4/26/2021,,202000,,"8741 LOOKOUT PEAK LN",HOUSTON,TX,77356,"CIMARRON CREEK",,CONTRACTOR,,,,,,,,,,,"KB HOME",,,,,"KB HOME","11314 RICHMOND AVE",HOUSTON,TX,77082-2616,"(281) 668-3800",,,,
TX,MONTGOMERY,183411-21,"Single Family Homes",4/27/2021,,100620,,"15036 MEADOW GLEN NORTH",HOUSTON,TX,77356,"MEADOW GLEN",,CONTRACTOR,,,,,,,,,,,"KENDALL HOMES",,,,,"KENDALL HOMES","427 MASON PARK BLVD",KATY,TX,77450-6187,"(281) 398-4010",http://www.kendallhomes.net/,"(281) 398-4011",,
TX,MONTGOMERY,183412-21,"Single Family Homes",4/27/2021,,101460,,"15040 MEADOW GLEN NORTH",HOUSTON,TX,77356,"MEADOW GLEN",,CONTRACTOR,,,,,,,,,,,"KENDALL HOMES",,,,,"KENDALL HOMES","427 MASON PARK BLVD",KATY,TX,77450-6187,"(281) 398-4010",http://www.kendallhomes.net/,"(281) 398-4011",,
TX,MONTGOMERY,183375-21,"Single Family Homes",4/26/2021,,151255,,"17541 SUNSET SKIES ROAD",HOUSTON,TX,77356,ARTAVIA,,CONTRACTOR,,,,,,,,,,,"LENNAR HOMES",,,,,"LENNAR HOMES","550 GREENS PKWY",HOUSTON,TX,77067-4537,"(281) 875-1000",http://www.lennar.com/,,,
TX,MONTGOMERY,183376-21,"Single Family Homes",4/26/2021,,193310,,"1'1537 SUNSET SKIES ROAD",HOUSTON,TX,77356,ARTAVIA,,CONTRACTOR,,,,,,,,,,,"LENNAR HOMES",,,,,"LENNAR HOMES","550 GREENS PKWY",HOUSTON,TX,77067-4537,"(281) 875-1000",http://www.lennar.com/,,,
TX,MONTGOMERY,183377-21,"Single Family Homes",4/26/2021,,110565,,"11114 NORTH LAKE MIST LN",HOUSTON,TX,77356,"LAKE BREEZE",,CONTRACTOR,,,,,,,,,,,"LENNAR HOMES",,,,,"LENNAR HOMES","550 GREENS PKWY",HOUSTON,TX,77067-4537,"(281) 875-1000",http://www.lennar.com/,,,
TX,MONTGOMERY,183385-21,"Single Family Homes",4/27/2021,,143065,,"22683 BOLANZO LN",HOUSTON,TX,77356,TAVOLA,,CONTRACTOR,,,,,,,,,,,"LENNAR HOMES",,,,,"LENNAR HOMES","550 GREENS PKWY",HOUSTON,TX,77067-4537,"(281) 875-1000",http://www.lennar.com/,,,
TX,MONTGOMERY,183387-21,"Single Family Homes",4/27/2021,,148000,,"5238 ERLINGTON VALLEY LN",HOUSTON,TX,77356,"COUNTRY COLONY",,CONTRACTOR,,,,,,,,,,,"LENNAR HOMES",,,,,"LENNAR HOMES","550 GREENS PKWY",HOUSTON,TX,77067-4537,"(281) 875-1000",http://www.lennar.com/,,,
TX,MONTGOMERY,183388-21,"Single Family Homes",4/27/2021,,108000,,"4440 BETHEL COLONY TR",HOUSTON,TX,77356,"COUNTRY COLONY",,CONTRACTOR,,,,,,,,,,,"LENNAR HOMES",,,,,"LENNAR HOMES","550 GREENS PKWY",HOUSTON,TX,77067-4537,"(281) 875-1000",http://www.lennar.com/,,,
TX,MONTGOMERY,183434-21,"Single Family Homes",4/28/2021,,121875,,"22680 BOLANZO LN",HOUSTON,TX,77356,TAVOLA,,CONTRACTOR,,,,,,,,,,,"LENNAR HOMES",,,,,"LENNAR HOMES","550 GREENS PKWY",HOUSTON,TX,77067-4537,"(281) 875-1000",http://www.lennar.com/,,,
TX,MONTGOMERY,183435-21,"Single Family Homes",4/28/2021,,99060,,"18768 FAUSTINA WAY",HOUSTON,TX,77356,TAVOLA,,CONTRACTOR,,,,,,,,,,,"LENNAR HOMES",,,,,"LENNAR HOMES","550 GREENS PKWY",HOUSTON,TX,77067-4537,"(281) 875-1000",http://www.lennar.com/,,,
TX,MONTGOMERY,183436-21,"Single Family Homes",4/28/2021,,129454,,"18772 FAUSTINA WAY",HOUSTON,TX,77356,TAVOLA,,CONTRACTOR,,,,,,,,,,,"LENNAR HOMES",,,,,"LENNAR HOMES","550 GREENS PKWY",HOUSTON,TX,77067-4537,"(281) 875-1000",http://www.lennar.com/,,,
TX,MONTGOMERY,183481-21,"Single Family Homes",4/29/2021,,140465,,"24043 HAWTHORN LAKES DR",HOUSTON,TX,77356,TAVOLA,,CONTRACTOR,,,,,,,,,,,"LENNAR HOMES",,,,,"LENNAR HOMES","550 GREENS PKWY",HOUSTON,TX,77067-4537,"(281) 875-1000",http://www.lennar.com/,,,
TX,MONTGOMERY,183483-21,"Single Family Homes",4/29/2021,,104650,,"18776 FAUSTINA WAY",HOUSTON,TX,77356,TAVOLA,,CONTRACTOR,,,,,,,,,,,"LENNAR HOMES",,,,,"LENNAR HOMES","550 GREENS PKWY",HOUSTON,TX,77067-4537,"(281) 875-1000",http://www.lennar.com/,,,
TX,MONTGOMERY,183484-21,"Single Family Homes",4/29/2021,,99060,,"18780 FAUSTINA WAY",HOUSTON,TX,77356,TAVOLA,,CONTRACTOR,,,,,,,,,,,"LENNAR HOMES",,,,,"LENNAR HOMES","550 GREENS PKWY",HOUSTON,TX,77067-4537,"(281) 875-1000",http://www.lennar.com/,,,
TX,MONTGOMERY,183518-21,"Single Family Homes",4/30/2021,,175590,,"310 MISTLETOE RIDGE CT",HOUSTON,TX,77356,WOODFOREST,,CONTRACTOR,,,,,,,,,,,"LENNAR HOMES",,,,,"LENNAR HOMES","550 GREENS PKWY",HOUSTON,TX,77067-4537,"(281) 875-1000",http://www.lennar.com/,,,
TX,MONTGOMERY,183439-21,"Single Family Homes",4/28/2021,,72000,,"2253 YELLOW FERN PATH",HOUSTON,TX,77356,"FOREST VILLAGE",,CONTRACTOR,,,,,,,,,,,"LONG LAKE HOMES",,,,,"LONG LAKE HOMES","15915 KATY FWY STE 405",HOUSTON,TX,77094-1710,"(281) 646-1727",http://www.longlakeltd.com/,,"DAVID BIGLER",
TX,MONTGOMERY,183440-21,"Single Family Homes",4/28/2021,,72000,,"16655 DONLIN DR",HOUSTON,TX,77356,"MONTGOMERY CREEK RANCH",,CONTRACTOR,,,,,,,,,,,"LONG LAKE HOMES",,,,,"LONG LAKE HOMES","15915 KATY FWY STE 405",HOUSTON,TX,77094-1710,"(281) 646-1727",http://www.longlakeltd.com/,,"DAVID BIGLER",
TX,MONTGOMERY,183441-21,"Single Family Homes",4/28/2021,,133000,,"10574 PRESERVE WAY",HOUSTON,TX,77356,"HARPERS PRESERVE",,CONTRACTOR,,,,,,,,,,,"M/I HOMES",,,,,"M/I HOMES","10910 NORTH SAM HOUSTON PKWY W",HOUSTON,TX,77064,"(832) 912-1012",,,,
TX,MONTGOMERY,183442-21,"Single Family Homes",4/28/2021,,134000,,"17680 TREE OF HEAVEN",HOUSTON,TX,77356,"HARPERS PRESERVE",,CONTRACTOR,,,,,,,,,,,"M/I HOMES",,,,,"M/I HOMES","10910 NORTH SAM HOUSTON PKWY W",HOUSTON,TX,77064,"(832) 912-1012",,,,
TX,MONTGOMERY,183320-21,"Single Family Homes",4/26/2021,,433990,,"2810 KINGLY PINE TR",HOUSTON,TX,77356,"MEADOWS AT IMPERIAL OAKS",,CONTRACTOR,,,,,,,,,,,"MHI MCGUYER HOMEBUILDERS",,,,,"MHI MCGUYER HOMEBUILDERS","7676 WOODWAY DR",HOUSTON,TX,77063-1526,"(713) 260-4107",,,,
TX,MONTGOMERY,183389-21,"Single Family Homes",4/27/2021,,418000,,"15427 SUN ROSE ST",HOUSTON,TX,77356,ARTAVIA,,CONTRACTOR,,,,,,,,,,,"MHI MCGUYER HOMEBUILDERS",,,,,"MHI MCGUYER HOMEBUILDERS","7676 WOODWAY DR",HOUSTON,TX,77063-1526,"(713) 260-4107",,,,
TX,MONTGOMERY,183459-21,"Single Family Homes",4/28/2021,,386990,,"17209 CRIMSON CREST DR",HOUSTON,TX,77356,ARTAVIA,,CONTRACTOR,,,,,,,,,,,"MHI MCGUYER HOMEBUILDERS",,,,,"MHI MCGUYER HOMEBUILDERS","7676 WOODWAY DR",HOUSTON,TX,77063-1526,"(713) 260-4107",,,,
TX,MONTGOMERY,183460-21,"Single Family Homes",4/28/2021,,458990,,"17508 AUTUMN LEAVES DR",HOUSTON,TX,77356,ARTAVIA,,CONTRACTOR,,,,,,,,,,,"MHI MCGUYER HOMEBUILDERS",,,,,"MHI MCGUYER HOMEBUILDERS","7676 WOODWAY DR",HOUSTON,TX,77063-1526,"(713) 260-4107",,,,
TX,MONTGOMERY,183461-21,"Single Family Homes",4/28/2021,,400990,,"2711 MEADOW VIEW LN",HOUSTON,TX,77356,"MEADOWS AT IMPERIAL OAKS",,CONTRACTOR,,,,,,,,,,,"MHI MCGUYER HOMEBUILDERS",,,,,"MHI MCGUYER HOMEBUILDERS","7676 WOODWAY DR",HOUSTON,TX,77063-1526,"(713) 260-4107",,,,
TX,MONTGOMERY,183462-21,"Single Family Homes",4/28/2021,,296990,,"2743 MEADOW VIEW LN",HOUSTON,TX,77356,"MEADOWS AT IMPERIAL OAKS",,CONTRACTOR,,,,,,,,,,,"MHI MCGUYER HOMEBUILDERS",,,,,"MHI MCGUYER HOMEBUILDERS","7676 WOODWAY DR",HOUSTON,TX,77063-1526,"(713) 260-4107",,,,
TX,MONTGOMERY,183463-21,"Single Family Homes",4/28/2021,,319990,,"32088 AUGUST WOODS WAY",HOUSTON,TX,77356,"MEADOWS AT IMPERIAL OAKS",,CONTRACTOR,,,,,,,,,,,"MHI MCGUYER HOMEBUILDERS",,,,,"MHI MCGUYER HOMEBUILDERS","7676 WOODWAY DR",HOUSTON,TX,77063-1526,"(713) 260-4107",,,,
TX,MONTGOMERY,183464-21,"Single Family Homes",4/28/2021,,400990,,"32175 PARK PLAINS DR",HOUSTON,TX,77356,"MEADOWS AT IMPERIAL OAKS",,CONTRACTOR,,,,,,,,,,,"MHI MCGUYER HOMEBUILDERS",,,,,"MHI MCGUYER HOMEBUILDERS","7676 WOODWAY DR",HOUSTON,TX,77063-1526,"(713) 260-4107",,,,
TX,MONTGOMERY,183373-21,"Single Family Homes",4/26/2021,,34900,,"16326 BIRCH HOLLOW DR",HOUSTON,TX,77356,"CROCKETT TRACE ESTATES",,"BRYAN PEREZ","16326 BIRCH HOLLOW DR",HOUSTON,TX,77356,,Owner,,,,,OWNER,,,,,OWNER,,,,,,,,,
TX,MONTGOMERY,183414-21,"Single Family Homes",4/27/2021,,501000,,"442 PATINA DR",HOUSTON,TX,77356,WOODFOREST,,CONTRACTOR,,,,,,,,,,,"PERRY HOMES",,,,,"PERRY HOMES","9000 GULF FWY",HOUSTON,TX,77017-7018,"(713) 417-1396",,,,
TX,MONTGOMERY,183415-21,"Single Family Homes",4/27/2021,,467000,,"458 PATINA DR",HOUSTON,TX,77356,WOODFOREST,,CONTRACTOR,,,,,,,,,,,"PERRY HOMES",,,,,"PERRY HOMES","9000 GULF FWY",HOUSTON,TX,77017-7018,"(713) 417-1396",,,,
TX,MONTGOMERY,183416-21,"Single Family Homes",4/27/2021,,296000,,"440 ELEVATION AVENUE",HOUSTON,TX,77356,"WOOD FOREST",,CONTRACTOR,,,,,,,,,,,"PERRY HOMES",,,,,"PERRY HOMES","9000 GULF FWY",HOUSTON,TX,77017-7018,"(713) 417-1396",,,,
TX,MONTGOMERY,183340-21,"Single Family Homes",4/26/2021,,401610,,"248 SPOTTED SADDLE CT",HOUSTON,TX,77356,"DEL WEBB",,CONTRACTOR,,,,,,,,,,,"PULTE HOMES",,,,,"PULTE HOMES","16670 PARK ROW",HOUSTON,TX,77084-6866,"(281) 749-8000",,,,
TX,MONTGOMERY,183490-21,"Single Family Homes",4/29/2021,,357340,,"232 SPOTTED SADDLE CT",HOUSTON,TX,77356,"DEL WEBB",,CONTRACTOR,,,,,,,,,,,"PULTE HOMES",,,,,"PULTE HOMES","16670 PARK ROW",HOUSTON,TX,77084-6866,"(281) 749-8000",,,,
TX,MONTGOMERY,183501-21,"Single Family Homes",4/29/2021,,329735,,"265 FLAXEN CHESTNUT",HOUSTON,TX,77356,"DEL WEBB",,CONTRACTOR,,,,,,,,,,,"PULTE HOMES",,,,,"PULTE HOMES","16670 PARK ROW",HOUSTON,TX,77084-6866,"(281) 749-8000",,,,
TX,MONTGOMERY,183471-21,"Single Family Homes",4/29/2021,,501900,,"24019 RUSTLING OAKS",HOUSTON,TX,77356,,,"ANDREW ROSS","PO BOX 1167",PINEHURST,TX,77362,,Owner,,,,,OWNER,,,,,OWNER,,,,,,,,,
TX,MONTGOMERY,183480-21,"Single Family Homes",4/29/2021,,350000,,"24015 RUSTLING OAK",HOUSTON,TX,77356,,,"ANDREW ROSS","PO BOX 1167",PINEHURST,TX,77362,,Owner,,,,,OWNER,,,,,OWNER,,,,,,,,,
TX,MONTGOMERY,183488-21,"Single Family Homes",4/29/2021,,600000,,"11615 RENAISSANCE DR",HOUSTON,TX,77356,"ISLAND AT GRAND HARBOR",,CONTRACTOR,,,,,,,,,,,"SCHENCK BUILDERS",,,,,"SCHENCK BUILDERS","1527 CAFE DUMONDE",CONROE,TX,77304-4933,"(936) 648-4823",http://schenckbuilders.com/,"(832) 218-0805","YVETTE SCHENCK",info@schenckbuilders.com
TX,MONTGOMERY,183507-21,"Single Family Homes",4/29/2021,,200000,,"22076 VOLANTE DR",HOUSTON,TX,77356,"VIVACE AT HARMONY",,CONTRACTOR,,,,,,,,,,,"SHEA HOMES HOUSTON",,,,,"SHEA HOMES HOUSTON","8300 CYPRESS CREEK PKWY STE 400",HOUSTON,TX,77070-5643,"(832) 869-4007",http://www.sheahomes.com/,,,
TX,MONTGOMERY,183509-21,"Single Family Homes",4/29/2021,,250000,,"2759 ALTISSIMO CT",HOUSTON,TX,77356,"VIVACE AT HARMONY",,CONTRACTOR,,,,,,,,,,,"SHEA HOMES HOUSTON",,,,,"SHEA HOMES HOUSTON","8300 CYPRESS CREEK PKWY STE 400",HOUSTON,TX,77070-5643,"(832) 869-4007",http://www.sheahomes.com/,,,
TX,MONTGOMERY,183513-21,"Single Family Homes",4/29/2021,,250000,,"2725 ALTISSIMO CT",HOUSTON,TX,77356,"VIVACE AT HARMONY",,CONTRACTOR,,,,,,,,,,,"SHEA HOMES HOUSTON",,,,,"SHEA HOMES HOUSTON","8300 CYPRESS CREEK PKWY STE 400",HOUSTON,TX,77070-5643,"(832) 869-4007",http://www.sheahomes.com/,,,
TX,MONTGOMERY,183535-21,"Single Family Homes",4/30/2021,,150000,,"17379 WESTERN HILL DR",HOUSTON,TX,77356,"WESTERN HILL ESTATES",,"RAQUEL SOTO","15003 TOMMY SMITH ROAD",CONROE,TX,77373,,Owner,,,,,OWNER,,,,,OWNER,,,,,,,,,
TX,MONTGOMERY,183325-21,"Single Family Homes",4/26/2021,,100000,,"15063 ARROWHEAD LOOP EAST",HOUSTON,TX,77356,"ARROWHEAD LAKES",,CONTRACTOR,,,,,,,,,,,"STARTER HOMES OF TEXAS",,,,,"STARTER HOMES OF TEXAS","9803 HIGHWAY 242 STE 200 # 211",CONROE,TX,77385-4369,"(281) 367-4200",,,,
TX,MONTGOMERY,183332-21,"Single Family Homes",4/26/2021,,100000,,"12164 LAKE ROLLINGWOOD LOOP",HOUSTON,TX,77356,"LAKE ROLLINGWOOD",,CONTRACTOR,,,,,,,,,,,"STARTER HOMES OF TEXAS",,,,,"STARTER HOMES OF TEXAS","9803 HIGHWAY 242 STE 200 # 211",CONROE,TX,77385-4369,"(281) 367-4200",,,,
TX,MONTGOMERY,183365-21,"Single Family Homes",4/26/2021,,100000,,"11573 PERSIMMON ST",HOUSTON,TX,77356,"WALNUT COVE",,CONTRACTOR,,,,,,,,,,,"STARTER HOMES OF TEXAS",,,,,"STARTER HOMES OF TEXAS","9803 HIGHWAY 242 STE 200 # 211",CONROE,TX,77385-4369,"(281) 367-4200",,,,
TX,MONTGOMERY,183520-21,"Single Family Homes",4/30/2021,,250000,,"2435 NORTHLINE ROAD",HOUSTON,TX,77356,"NORTHLINE OAKS",,"KEITH SURFACE","2435 NORTHLINE ROAD",HOUSTON,TX,77356,,Owner,,,,,OWNER,,,,,OWNER,,,,,,,,,
TX,MONTGOMERY,183523-21,"Single Family Homes",4/30/2021,,400000,,"27484 SOUTH LAZY MEADOW WAY",HOUSTON,TX,77356,"BENDERS LANDING ESTATES",,"KEITH SURFACE","27484 SOUTH LAZY MEADOW WAY",HOUSTON,TX,77356,,Owner,,,,,OWNER,,,,,OWNER,,,,,,,,,
TX,MONTGOMERY,183525-21,"Single Family Homes",4/30/2021,,246399,,"28023 WITHERS DR",HOUSTON,TX,77356,"ALLEGRO AT HARMONY",,CONTRACTOR,,,,,,,,,,,"TAYLOR MORRISON OF TEXAS",,,,,"TAYLOR MORRISON OF TEXAS","5353 W SAM HOUSTON PKWY N STE 190",HOUSTON,TX,77041-5186,"(281) 598-3000",,,,
TX,MONTGOMERY,183526-21,"Single Family Homes",4/30/2021,,253190,,"134 TANGO LILY ST",HOUSTON,TX,77356,"BONTERRA AT WOODFOREST",,CONTRACTOR,,,,,,,,,,,"TAYLOR MORRISON OF TEXAS",,,,,"TAYLOR MORRISON OF TEXAS","5353 W SAM HOUSTON PKWY N STE 190",HOUSTON,TX,77041-5186,"(281) 598-3000",,,,
TX,MONTGOMERY,183477-21,"Single Family Homes",4/29/2021,,1325000,,"418 N COPA PALM LOOP",HOUSTON,TX,77356,"PINE ISLAND AT WOODFOREST",,CONTRACTOR,,,,,,,,,,,"TIPLER DESIGN & BUILD",,,,,"TIPLER DESIGN & BUILD","30643 FM 2978 RD",MAGNOLIA,TX,77354-2316,"(281) 465-4401",https://www.tipler.com/,,,
TX,MONTGOMERY,183331-21,"Single Family Homes",4/26/2021,,200000,,"3502 PEBBLE BEACH BLVD",HOUSTON,TX,77356,"WALDEN ON LAKE CONROE",,CONTRACTOR,,,,,,,,,,,"TRICOR HOMES",,,,,"TRICOR HOMES","13315 BOCA RATON CIR",MONTGOMERY,TX,77356-8577,"(936) 448-2733",http://tricorgroupusa.com,"(936) 582-5434",,info@tricorgroupusa.com
TX,MONTGOMERY,183427-21,"Single Family Homes",4/27/2021,,450000,,"15407 COE LOOP",HOUSTON,TX,77356,,,"JOHN VARGAS","15407 COE LOOP",MAGNOLIA,TX,77355,,Owner,,,,,OWNER,,,,,OWNER,,,,,,,,,
TX,MONTGOMERY,183517-21,"Single Family Homes",4/30/2021,,291785,,"610 PLATINUM STONE LN",HOUSTON,TX,77356,WOODTRACE,,CONTRACTOR,,,,,,,,,,,"VILLAGE BUILDERS",,,,,"VILLAGE BUILDERS","550 GREENS PKWY STE 210",HOUSTON,TX,77067-4538,"(281) 873-4663",,,,
TX,MONTGOMERY,183519-21,"Single Family Homes",4/30/2021,,192456,,"1119 SIENNA FOREST LN",HOUSTON,TX,77356,WOODTRACE,,CONTRACTOR,,,,,,,,,,,"VILLAGE BUILDERS",,,,,"VILLAGE BUILDERS","550 GREENS PKWY STE 210",HOUSTON,TX,77067-4538,"(281) 873-4663",,,,
TX,MONTGOMERY,183379-21,"Single Family Homes",4/27/2021,,500000,,"28135 NICHOLS SAWMILL ROAD",HOUSTON,TX,77356,"INDIGO LAKE ESTATES",,"CHAD J WALL","28135 NICHOLS SAWMILL ROAD",HOUSTON,TX,77356,,Owner,,,,,OWNER,,,,,OWNER,,,,,,,,,
TX,MONTGOMERY,183476-21,"Single Family Homes",4/29/2021,,146820,,"9702 STEWART SPRINGS BLVD",HOUSTON,TX,77356,"THE RESERVE ON LAKE CONROE",,CONTRACTOR,,,,,,,,,,,"WAN BRIDGE LAND LLC",,,,,"WAN BRIDGE LAND LLC","5210 SPRUCE ST",BELLAIRE,TX,77401,"(713) 564-5331",https://wanbridge.com/,,,
TX,MONTGOMERY,"183478 21","Single Family Homes",4/29/2021,,146820,,"9797 STEWART SPRINGS CT",HOUSTON,TX,77356,"THE RESERVE ON LAKE",,CONTRACTOR,,,,,,,,,,,"WAN BRIDGE LAND LLC",,,,,"WAN BRIDGE LAND LLC","5210 SPRUCE ST",BELLAIRE,TX,77401,"(713) 564-5331",https://wanbridge.com/,,,
TX,MONTGOMERY,183479-21,"Single Family Homes",4/29/2021,,146820,,"9684 STEWART SPRINGS BLVD",HOUSTON,TX,77356,"THE RESERVE ON LAKE",,CONTRACTOR,,,,,,,,,,,"WAN BRIDGE LAND LLC",,,,,"WAN BRIDGE LAND LLC","5210 SPRUCE ST",BELLAIRE,TX,77401,"(713) 564-5331",https://wanbridge.com/,,,
TX,MONTGOMERY,183422-21,"Single Family Homes",4/27/2021,,260000,,"8730 BURDEKIN ROAD",HOUSTON,TX,77356,NORTHGROVE,,CONTRACTOR,,,,,,,,,,,"WESTIN HOMES",,,,,"WESTIN HOMES","1 SUGAR CREEK CENTER BLVD STE 600","SUGAR LAND",TX,77478-3787,"(281) 240-1551",http://www.westin-homes.com,,,
TX,MONTGOMERY,183423-21,"Single Family Homes",4/27/2021,,257000,,"25309 MOUNTAIN AIR DR",HOUSTON,TX,77356,"WOODRIDGE FOREST",,CONTRACTOR,,,,,,,,,,,"WESTIN HOMES",,,,,"WESTIN HOMES","1 SUGAR CREEK CENTER BLVD STE 600","SUGAR LAND",TX,77478-3787,"(281) 240-1551",http://www.westin-homes.com,,,
TX,MONTGOMERY,183425-21,"Single Family Homes",4/27/2021,,231000,,"172 SOMERSET POINT BLVD",HOUSTON,TX,77356,WOODFOREST,,CONTRACTOR,,,,,,,,,,,"WESTIN HOMES",,,,,"WESTIN HOMES","1 SUGAR CREEK CENTER BLVD STE 600","SUGAR LAND",TX,77478-3787,"(281) 240-1551",http://www.westin-homes.com,,,
TX,MONTGOMERY,183426-21,"Single Family Homes",4/27/2021,,220000,,"430 PATINA DR",HOUSTON,TX,77356,WOODFOREST,,CONTRACTOR,,,,,,,,,,,"WESTIN HOMES",,,,,"WESTIN HOMES","1 SUGAR CREEK CENTER BLVD STE 600","SUGAR LAND",TX,77478-3787,"(281) 240-1551",http://www.westin-homes.com,,,
TX,MONTGOMERY,183472-21,"Single Family Homes",4/29/2021,,251000,,"17481 CHESTNUT COVE DR",HOUSTON,TX,77356,ARTAVIA,,CONTRACTOR,,,,,,,,,,,"WESTIN HOMES",,,,,"WESTIN HOMES","1 SUGAR CREEK CENTER BLVD STE 600","SUGAR LAND",TX,77478-3787,"(281) 240-1551",http://www.westin-homes.com,,,
TX,MONTGOMERY,183473-21,"Single Family Homes",4/29/2021,,243000,,"169 SOMERSET POINT BLVD",HOUSTON,TX,77356,WOODFOREST,,CONTRACTOR,,,,,,,,,,,"WESTIN HOMES",,,,,"WESTIN HOMES","1 SUGAR CREEK CENTER BLVD STE 600","SUGAR LAND",TX,77478-3787,"(281) 240-1551",http://www.westin-homes.com,,,
TX,MONTGOMERY,183474-21,"Single Family Homes",4/29/2021,,225000,,"193 SOMERSET POINT BLVD",HOUSTON,TX,77356,"WOOD FOREST",,CONTRACTOR,,,,,,,,,,,"WESTIN HOMES",,,,,"WESTIN HOMES","1 SUGAR CREEK CENTER BLVD STE 600","SUGAR LAND",TX,77478-3787,"(281) 240-1551",http://www.westin-homes.com,,,
TX,MONTGOMERY,183475-21,"Single Family Homes",4/29/2021,,249000,,"197 SOMERSET POINT BLVD",HOUSTON,TX,77356,WOODFOREST,,CONTRACTOR,,,,,,,,,,,"WESTIN HOMES",,,,,"WESTIN HOMES","1 SUGAR CREEK CENTER BLVD STE 600","SUGAR LAND",TX,77478-3787,"(281) 240-1551",http://www.westin-homes.com,,,
TX,MONTGOMERY,183532-21,"Single Family Homes",4/30/2021,,360405,,"12116 CREEKSIDE VILLAS CT",HOUSTON,TX,77356,"VILLAS AT WHITE OAK RANCH",,CONTRACTOR,,,,,,,,,,,"WOODFALLS DEVELOPMENT GROUP LLC",,,,,"WOODFALLS DEVELOPMENT GROUP LLC","12675 LONGMIRE WAY",CONROE,TX,77304-1077,"(936) 703-5445",https://www.woodfallstx.com,"(936) 703-5272",,
TX,MONTGOMERY,183534-21,"Single Family Homes",4/30/2021,,419177,,"12136 CREEKSIDE VILLAS CT",HOUSTON,TX,77356,"VILLAS AT WHITE OAK RANCH",,CONTRACTOR,,,,,,,,,,,"WOODFALLS DEVELOPMENT GROUP LLC",,,,,"WOODFALLS DEVELOPMENT GROUP LLC","12675 LONGMIRE WAY",CONROE,TX,77304-1077,"(936) 703-5445",https://www.woodfallstx.com,"(936) 703-5272",,
TX,MONTGOMERY,183546-21,"Single Family Homes",4/30/2021,,516445,,"12133 CREEKSIDE VILLAS CT",HOUSTON,TX,77356,"VILLAS AT WHITE OAK RANCH",,CONTRACTOR,,,,,,,,,,,"WOODFALLS DEVELOPMENT GROUP LLC",,,,,"WOODFALLS DEVELOPMENT GROUP LLC","12675 LONGMIRE WAY",CONROE,TX,77304-1077,"(936) 703-5445",https://www.woodfallstx.com,"(936) 703-5272",,
TX,MONTGOMERY,183549-21,"Single Family Homes",4/30/2021,,361728,,"12132 CREEKSIDE VILLAS CT",HOUSTON,TX,77356,"VILLAS AT WHITE OAK RANCH",,CONTRACTOR,,,,,,,,,,,"WOODFALLS DEVELOPMENT GROUP LLC",,,,,"WOODFALLS DEVELOPMENT GROUP LLC","12675 LONGMIRE WAY",CONROE,TX,77304-1077,"(936) 703-5445",https://www.woodfallstx.com,"(936) 703-5272",,
TX,MONTGOMERY,183550-21,"Single Family Homes",4/30/2021,,360416,,"12113 CREEKSIDE VILLAS CT",HOUSTON,TX,77356,"VILLAS AT WHITE OAK RANCH",,CONTRACTOR,,,,,,,,,,,"WOODFALLS DEVELOPMENT GROUP LLC",,,,,"WOODFALLS DEVELOPMENT GROUP LLC","12675 LONGMIRE WAY",CONROE,TX,77304-1077,"(936) 703-5445",https://www.woodfallstx.com,"(936) 703-5272",,
TX,MONTGOMERY,183690-21,"Single Family Homes",5/5/2021,,395000,,"12304 NORTH CHESTNUT HILLS DR",HOUSTON,TX,77356,"DEER TRAIL ESTATES",,CONTRACTOR,,,,,,,,,,,"ALTA DEVELOPMENT GROUP",,,,,"ALTA DEVELOPMENT GROUP","3915 W DAVIS STE 130",CONROE,TX,77304,"(956) 578-2704",,,,
TX,MONTGOMERY,183692-21,"Single Family Homes",5/5/2021,,165894,,"247 SHOREVIEW DR",HOUSTON,TX,77356,"LAKES AT CROCKETT MARTIN",,CONTRACTOR,,,,,,,,,,,"ANGLIA HOMES",,,,,"ANGLIA HOMES","17510 RED OAK DR",HOUSTON,TX,77090,"(281) 943-5288",http://www.angliahomeslp.com/,,,
TX,MONTGOMERY,183693-21,"Single Family Homes",5/5/2021,,138594,,"208 SHOREVIEW DR",HOUSTON,TX,77356,"LAKES AT CROCKETT MARTIN",,CONTRACTOR,,,,,,,,,,,"ANGLIA HOMES",,,,,"ANGLIA HOMES","17510 RED OAK DR",HOUSTON,TX,77090,"(281) 943-5288",http://www.angliahomeslp.com/,,,
TX,MONTGOMERY,183694-21,"Single Family Homes",5/5/2021,,135969,,"251 SHOREVIEW DR",HOUSTON,TX,77356,"LAKES AT CROCKETT MARTIN",,CONTRACTOR,,,,,,,,,,,"ANGLIA HOMES",,,,,"ANGLIA HOMES","17510 RED OAK DR",HOUSTON,TX,77090,"(281) 943-5288",http://www.angliahomeslp.com/,,,
TX,MONTGOMERY,183743-21,"Single Family Homes",5/6/2021,,137544,,"259 SHOREVIEW DR",HOUSTON,TX,77356,"LAKES AT CROCKETT MARTIN",,CONTRACTOR,,,,,,,,,,,"ANGLIA HOMES",,,,,"ANGLIA HOMES","17510 RED OAK DR",HOUSTON,TX,77090,"(281) 943-5288",http://www.angliahomeslp.com/,,,
TX,MONTGOMERY,183605-21,"Single Family Homes",5/3/2021,,75000,,"14985 CROCKETT ROAD",HOUSTON,TX,77356,"FRONTIER LAKES",,CONTRACTOR,,,,,,,,,,,"ASGI HOMES",,,,,"ASGI HOMES","2257 N LOOP 336 W STE 140-370",CONROE,TX,77304-3566,"(888) 991-0005",http://www.asgihomes.com,,,
TX,MONTGOMERY,183609-21,"Single Family Homes",5/3/2021,,75000,,"14967 FANNIN ROAD",HOUSTON,TX,77356,"FRONTIER LAKES",,CONTRACTOR,,,,,,,,,,,"ASGI HOMES",,,,,"ASGI HOMES","2257 N LOOP 336 W STE 140-370",CONROE,TX,77304-3566,"(888) 991-0005",http://www.asgihomes.com,,,
TX,MONTGOMERY,183617-21,"Single Family Homes",5/3/2021,,75000,,"3512 FRONTIER ROAD",HOUSTON,TX,77356,"FRONTIER LAKES",,CONTRACTOR,,,,,,,,,,,"ASGI HOMES",,,,,"ASGI HOMES","2257 N LOOP 336 W STE 140-370",CONROE,TX,77304-3566,"(888) 991-0005",http://www.asgihomes.com,,,
TX,MONTGOMERY,183623-21,"Single Family Homes",5/3/2021,,75000,,"15008 BONHAM LN",HOUSTON,TX,77356,"FRONTIER LAKES",,CONTRACTOR,,,,,,,,,,,"ASGI HOMES",,,,,"ASGI HOMES","2257 N LOOP 336 W STE 140-370",CONROE,TX,77304-3566,"(888) 991-0005",http://www.asgihomes.com,,,
TX,MONTGOMERY,183624-21,"Single Family Homes",5/3/2021,,75000,,"14967 BURNETT LN",HOUSTON,TX,77356,"FRONTIER LAKES",,CONTRACTOR,,,,,,,,,,,"ASGI HOMES",,,,,"ASGI HOMES","2257 N LOOP 336 W STE 140-370",CONROE,TX,77304-3566,"(888) 991-0005",http://www.asgihomes.com,,,
TX,MONTGOMERY,183626-21,"Single Family Homes",5/3/2021,,75000,,"14987 AUSTIN ROAD",HOUSTON,TX,77356,"FRONTIER LAKES",,CONTRACTOR,,,,,,,,,,,"ASGI HOMES",,,,,"ASGI HOMES","2257 N LOOP 336 W STE 140-370",CONROE,TX,77304-3566,"(888) 991-0005",http://www.asgihomes.com,,,
TX,MONTGOMERY,183734-21,"Single Family Homes",5/5/2021,,75000,,"4676 FRONTIER ROAD",HOUSTON,TX,77356,"FRONTIER LAKES",,CONTRACTOR,,,,,,,,,,,"ASGI HOMES",,,,,"ASGI HOMES","2257 N LOOP 336 W STE 140-370",CONROE,TX,77304-3566,"(888) 991-0005",http://www.asgihomes.com,,,
TX,MONTGOMERY,183561-21,"Single Family Homes",5/3/2021,,100000,,"1890 JEFFCOTE ROAD",HOUSTON,TX,77356,,,"GERARDO BONILLA","1890 JEFFCOTE ROAD",CONROE,TX,77303,,Owner,,,,,OWNER,,,,,OWNER,,,,,,,,,
TX,MONTGOMERY,183841-21,"Single Family Homes",5/7/2021,,600000,,"18414 MELISSA LYNNS D",HOUSTON,TX,77356,"GRAND LAKE ESTATES",,"DAVID BOPP","10 GILLUM BLUFF PLACE","THE WOODLANDS",TX,77356,,Owner,,,,,OWNER,,,,,OWNER,,,,,,,,,
TX,MONTGOMERY,183848-21,"Single Family Homes",5/7/2021,,430000,,"2406 CONASTOGA CT",HOUSTON,TX,77356,"CARRIAGE HILLS",,"STEPHEN BROWN","2406 CONASTOGA CT",HOUSTON,TX,77356,,Owner,,,,,OWNER,,,,,OWNER,,,,,,,,,
TX,MONTGOMERY,183615-21,"Single Family Homes",5/3/2021,,99990,,"419 LAZY LANE",HOUSTON,TX,77356,"CAPE CONROE",,CONTRACTOR,,,,,,,,,,,"CAMILLO PROPERTIES",,,,,"CAMILLO PROPERTIES","6707 GESSNER RD",HOUSTON,TX,77040-4017,"(832) 500-0284",http://www.camillorentalhomes.com/,"(281) 325-0245",,
TX,MONTGOMERY,183746-21,"Single Family Homes",5/6/2021,,115500,,"22444 CLEAR CASTLE DR",HOUSTON,TX,77356,"BROOKLYN TRAILS",,CONTRACTOR,,,,,,,,,,,"CAMILLO PROPERTIES",,,,,"CAMILLO PROPERTIES","6707 GESSNER RD",HOUSTON,TX,77040-4017,"(832) 500-0284",http://www.camillorentalhomes.com/,"(281) 325-0245",,
TX,MONTGOMERY,183748-21,"Single Family Homes",5/6/2021,,109395,,"22448 CLEAR CASTLE DR",HOUSTON,TX,77356,"BROOKLYN TRAILS",,CONTRACTOR,,,,,,,,,,,"CAMILLO PROPERTIES",,,,,"CAMILLO PROPERTIES","6707 GESSNER RD",HOUSTON,TX,77040-4017,"(832) 500-0284",http://www.camillorentalhomes.com/,"(281) 325-0245",,
TX,MONTGOMERY,183750-21,"Single Family Homes",5/6/2021,,104150,,"22451 CLEAR CASTLE DR",HOUSTON,TX,77356,"BROOKLYN TRAILS",,CONTRACTOR,,,,,,,,,,,"CAMILLO PROPERTIES",,,,,"CAMILLO PROPERTIES","6707 GESSNER RD",HOUSTON,TX,77040-4017,"(832) 500-0284",http://www.camillorentalhomes.com/,"(281) 325-0245",,
TX,MONTGOMERY,183752-21,"Single Family Homes",5/6/2021,,97405,,"22420 CLEAR CASTLE DR",HOUSTON,TX,77356,"BROOKLYN TRAILS",,CONTRACTOR,,,,,,,,,,,"CAMILLO PROPERTIES",,,,,"CAMILLO PROPERTIES","6707 GESSNER RD",HOUSTON,TX,77040-4017,"(832) 500-0284",http://www.camillorentalhomes.com/,"(281) 325-0245",,
TX,MONTGOMERY,"183753 21","Single Family Homes",5/6/2021,,99605,,"22428 CLEAR CASTLE DR",HOUSTON,TX,77356,"BROOKLYN TRAILS",,CONTRACTOR,,,,,,,,,,,"CAMILLO PROPERTIES",,,,,"CAMILLO PROPERTIES","6707 GESSNER RD",HOUSTON,TX,77040-4017,"(832) 500-0284",http://www.camillorentalhomes.com/,"(281) 325-0245",,
TX,MONTGOMERY,183755-21,"Single Family Homes",5/6/2021,,107250,,"22432 CLEAR CASTLE DR",HOUSTON,TX,77356,"BROOKLYN TRAILS",,CONTRACTOR,,,,,,,,,,,"CAMILLO PROPERTIES",,,,,"CAMILLO PROPERTIES","6707 GESSNER RD",HOUSTON,TX,77040-4017,"(832) 500-0284",http://www.camillorentalhomes.com/,"(281) 325-0245",,
TX,MONTGOMERY,183758-21,"Single Family Homes",5/6/2021,,115500,,"22433 CLEAR CASTLE DR",HOUSTON,TX,77356,"BROOKLYN TRAILS",,CONTRACTOR,,,,,,,,,,,"CAMILLO PROPERTIES",,,,,"CAMILLO PROPERTIES","6707 GESSNER RD",HOUSTON,TX,77040-4017,"(832) 500-0284",http://www.camillorentalhomes.com/,"(281) 325-0245",,
TX,MONTGOMERY,183767-21,"Single Family Homes",5/6/2021,,104150,,"22436 CLEAR CASTLE DR",HOUSTON,TX,77356,"BROOKLYN TRAILS",,CONTRACTOR,,,,,,,,,,,"CAMILLO PROPERTIES",,,,,"CAMILLO PROPERTIES","6707 GESSNER RD",HOUSTON,TX,77040-4017,"(832) 500-0284",http://www.camillorentalhomes.com/,"(281) 325-0245",,
TX,MONTGOMERY,183768-21,"Single Family Homes",5/6/2021,,99825,,"22440 CLEAR CASTLE DR",HOUSTON,TX,77356,"BROOKLYN TRAILS",,CONTRACTOR,,,,,,,,,,,"CAMILLO PROPERTIES",,,,,"CAMILLO PROPERTIES","6707 GESSNER RD",HOUSTON,TX,77040-4017,"(832) 500-0284",http://www.camillorentalhomes.com/,"(281) 325-0245",,
TX,MONTGOMERY,183772-21,"Single Family Homes",5/6/2021,,115500,,"22398 CLEAR CASTLE DR",HOUSTON,TX,77356,"BROOKLYN TRAILS",,CONTRACTOR,,,,,,,,,,,"CAMILLO PROPERTIES",,,,,"CAMILLO PROPERTIES","6707 GESSNER RD",HOUSTON,TX,77040-4017,"(832) 500-0284",http://www.camillorentalhomes.com/,"(281) 325-0245",,
TX,MONTGOMERY,183775-21,"Single Family Homes",5/6/2021,,103020,,"22416 CLEAR CASTLE DR",HOUSTON,TX,77356,"BROOKLYN TRAILS",,CONTRACTOR,,,,,,,,,,,"CAMILLO PROPERTIES",,,,,"CAMILLO PROPERTIES","6707 GESSNER RD",HOUSTON,TX,77040-4017,"(832) 500-0284",http://www.camillorentalhomes.com/,"(281) 325-0245",,
TX,MONTGOMERY,183777-21,"Single Family Homes",5/6/2021,,107250,,"25413 CLAREMONT HILLS LN",HOUSTON,TX,77356,"BROOKLYN TRAILS",,CONTRACTOR,,,,,,,,,,,"CAMILLO PROPERTIES",,,,,"CAMILLO PROPERTIES","6707 GESSNER RD",HOUSTON,TX,77040-4017,"(832) 500-0284",http://www.camillorentalhomes.com/,"(281) 325-0245",,
TX,MONTGOMERY,183566-21,"Single Family Homes",5/3/2021,,150995,,"18746 LEGEND OAKS DR",HOUSTON,TX,77356,"GLEN OAKS",,CONTRACTOR,,,,,,,,,,,"CASTLEROCK COMMUNITIES",,,,,"CASTLEROCK COMMUNITIES","7670 WOODWAY DR STE 300",HOUSTON,TX,77063-1520,"(713) 600-7000",http://c-rock.com,"(713) 600-0000",,
TX,MONTGOMERY,183599-21,"Single Family Homes",5/3/2021,,148000,,"20914 NEW PROPER DR",HOUSTON,TX,77356,"HARRINGTON TRAILS",,CONTRACTOR,,,,,,,,,,,"CASTLEROCK COMMUNITIES",,,,,"CASTLEROCK COMMUNITIES","7670 WOODWAY DR STE 300",HOUSTON,TX,77063-1520,"(713) 600-7000",http://c-rock.com,"(713) 600-0000",,
TX,MONTGOMERY,183602-21,"Single Family Homes",5/3/2021,,197000,,"1304 MAINLAND SHORES LN",HOUSTON,TX,77356,FAIRWATER,,CONTRACTOR,,,,,,,,,,,"CENTURY COMMUNITIES",,,,,"CENTURY COMMUNITIES","4700 W SAM HOUSTON PKWY N STE 130",HOUSTON,TX,77041-8219,"(281) 741-8946",https://www.centurycommunities.com/,,,
TX,MONTGOMERY,183603-21,"Single Family Homes",5/3/2021,,166000,,"1301 MAINLAND SHORES LN",HOUSTON,TX,77356,FAIRWATER,,CONTRACTOR,,,,,,,,,,,"CENTURY COMMUNITIES",,,,,"CENTURY COMMUNITIES","4700 W SAM HOUSTON PKWY N STE 130",HOUSTON,TX,77041-8219,"(281) 741-8946",https://www.centurycommunities.com/,,,
TX,MONTGOMERY,183625-21,"Single Family Homes",5/3/2021,,113000,,"14179 GREEN WING CIRCLE",HOUSTON,TX,77356,"TEAL CROSSING",,CONTRACTOR,,,,,,,,,,,"CENTURY COMMUNITIES",,,,,"CENTURY COMMUNITIES","4700 W SAM HOUSTON PKWY N STE 130",HOUSTON,TX,77041-8219,"(281) 741-8946",https://www.centurycommunities.com/,,,
TX,MONTGOMERY,183627-21,"Single Family Homes",5/4/2021,,100295,,"13006 NORTH GREEN WING CIRCLE",HOUSTON,TX,77356,"TEAL CROSSING",,CONTRACTOR,,,,,,,,,,,"CENTURY COMMUNITIES",,,,,"CENTURY COMMUNITIES","4700 W SAM HOUSTON PKWY N STE 130",HOUSTON,TX,77041-8219,"(281) 741-8946",https://www.centurycommunities.com/,,,
TX,MONTGOMERY,183628-21,"Single Family Homes",5/4/2021,,113000,,"14211 GREEN WING CIRCLE",HOUSTON,TX,77356,"TEAL CROSSING",,CONTRACTOR,,,,,,,,,,,"CENTURY COMMUNITIES",,,,,"CENTURY COMMUNITIES","4700 W SAM HOUSTON PKWY N STE 130",HOUSTON,TX,77041-8219,"(281) 741-8946",https://www.centurycommunities.com/,,,
TX,MONTGOMERY,183630-21,"Single Family Homes",5/4/2021,,107500,,"14207 GREEN WING CIRCLE",HOUSTON,TX,77356,"TEAL CROSSING",,CONTRACTOR,,,,,,,,,,,"CENTURY COMMUNITIES",,,,,"CENTURY COMMUNITIES","4700 W SAM HOUSTON PKWY N STE 130",HOUSTON,TX,77041-8219,"(281) 741-8946",https://www.centurycommunities.com/,,,
TX,MONTGOMERY,183633-21,"Single Family Homes",5/4/2021,,98450,,"14203 GREEN WING CIRCLE",HOUSTON,TX,77356,"TEAL CROSSING",,CONTRACTOR,,,,,,,,,,,"CENTURY COMMUNITIES",,,,,"CENTURY COMMUNITIES","4700 W SAM HOUSTON PKWY N STE 130",HOUSTON,TX,77041-8219,"(281) 741-8946",https://www.centurycommunities.com/,,,
TX,MONTGOMERY,183636-21,"Single Family Homes",5/4/2021,,116565,,"14199 GREEN WING CIRCLE",HOUSTON,TX,77356,"TEAL CROSSING",,CONTRACTOR,,,,,,,,,,,"CENTURY COMMUNITIES",,,,,"CENTURY COMMUNITIES","4700 W SAM HOUSTON PKWY N STE 130",HOUSTON,TX,77041-8219,"(281) 741-8946",https://www.centurycommunities.com/,,,
TX,MONTGOMERY,183639-21,"Single Family Homes",5/4/2021,,107500,,"14195 GREEN WING CIRCLE",HOUSTON,TX,77356,"TEAL CROSSING",,CONTRACTOR,,,,,,,,,,,"CENTURY COMMUNITIES",,,,,"CENTURY COMMUNITIES","4700 W SAM HOUSTON PKWY N STE 130",HOUSTON,TX,77041-8219,"(281) 741-8946",https://www.centurycommunities.com/,,,
TX,MONTGOMERY,183643-21,"Single Family Homes",5/4/2021,,111680,,"14191 GREEN WING CIRCLE",HOUSTON,TX,77356,"TEAL CROSSING",,CONTRACTOR,,,,,,,,,,,"CENTURY COMMUNITIES",,,,,"CENTURY COMMUNITIES","4700 W SAM HOUSTON PKWY N STE 130",HOUSTON,TX,77041-8219,"(281) 741-8946",https://www.centurycommunities.com/,,,
TX,MONTGOMERY,183644-21,"Single Family Homes",5/4/2021,,100295,,"14187 GREEN WING CIRCLE",HOUSTON,TX,77356,"TEAL CROSSING",,CONTRACTOR,,,,,,,,,,,"CENTURY COMMUNITIES",,,,,"CENTURY COMMUNITIES","4700 W SAM HOUSTON PKWY N STE 130",HOUSTON,TX,77041-8219,"(281) 741-8946",https://www.centurycommunities.com/,,,
TX,MONTGOMERY,183647-21,"Single Family Homes",5/4/2021,,107500,,"14183 GREEN WING CIRCLE",HOUSTON,TX,77356,"TEAL CROSSING",,CONTRACTOR,,,,,,,,,,,"CENTURY COMMUNITIES",,,,,"CENTURY COMMUNITIES","4700 W SAM HOUSTON PKWY N STE 130",HOUSTON,TX,77041-8219,"(281) 741-8946",https://www.centurycommunities.com/,,,
TX,MONTGOMERY,183723-21,"Single Family Homes",5/5/2021,,113000,,"14445 WEIR CREEK ROAD",HOUSTON,TX,77356,"TEAL CROSSING",,CONTRACTOR,,,,,,,,,,,"CENTURY COMMUNITIES",,,,,"CENTURY COMMUNITIES","4700 W SAM HOUSTON PKWY N STE 130",HOUSTON,TX,77041-8219,"(281) 741-8946",https://www.centurycommunities.com/,,,
TX,MONTGOMERY,183560-21,"Single Family Homes",5/3/2021,,181729,,"10549 WILD CHIVES",HOUSTON,TX,77356,"HARPERS PRESERVE",,CONTRACTOR,,,,,,,,,,,"CHESMAR HOMES",,,,,"CHESMAR HOMES","450 GEARS RD STE 400",HOUSTON,TX,77067-4513,"(281) 598-1111",http://chesmar.com,"(281) 598-1115",,customerservice.houston@chesmar.com
TX,MONTGOMERY,183562-21,"Single Family Homes",5/3/2021,,171334,,"10553 WILD CHIVES",HOUSTON,TX,77356,"HARPERS PRESERVE",,CONTRACTOR,,,,,,,,,,,"CHESMAR HOMES",,,,,"CHESMAR HOMES","450 GEARS RD STE 400",HOUSTON,TX,77067-4513,"(281) 598-1111",http://chesmar.com,"(281) 598-1115",,customerservice.houston@chesmar.com
TX,MONTGOMERY,183563-21,"Single Family Homes",5/3/2021,,172925,,"401 ANDES DR",HOUSTON,TX,77356,"WOOD FOREST",,CONTRACTOR,,,,,,,,,,,"CHESMAR HOMES",,,,,"CHESMAR HOMES","450 GEARS RD STE 400",HOUSTON,TX,77067-4513,"(281) 598-1111",http://chesmar.com,"(281) 598-1115",,customerservice.houston@chesmar.com
TX,MONTGOMERY,183844-21,"Single Family Homes",5/7/2021,,201535,,"7825 CHARTER HILL DR",HOUSTON,TX,77356,NORTHGROVE,,CONTRACTOR,,,,,,,,,,,"CHESMAR HOMES",,,,,"CHESMAR HOMES","450 GEARS RD STE 400",HOUSTON,TX,77067-4513,"(281) 598-1111",http://chesmar.com,"(281) 598-1115",,customerservice.houston@chesmar.com
TX,MONTGOMERY,183845-21,"Single Family Homes",5/7/2021,,196104,,"7829 CHARTER HILL DR",HOUSTON,TX,77356,NORTHGROVE,,CONTRACTOR,,,,,,,,,,,"CHESMAR HOMES",,,,,"CHESMAR HOMES","450 GEARS RD STE 400",HOUSTON,TX,77067-4513,"(281) 598-1111",http://chesmar.com,"(281) 598-1115",,customerservice.houston@chesmar.com
TX,MONTGOMERY,183846-21,"Single Family Homes",5/7/2021,,169187,,"8022 WHISPER GROVE DR",HOUSTON,TX,77356,NORTHGROVE,,CONTRACTOR,,,,,,,,,,,"CHESMAR HOMES",,,,,"CHESMAR HOMES","450 GEARS RD STE 400",HOUSTON,TX,77067-4513,"(281) 598-1111",http://chesmar.com,"(281) 598-1115",,customerservice.houston@chesmar.com
TX,MONTGOMERY,183853-21,"Single Family Homes",5/7/2021,,182525,,"408 ANDES DR",HOUSTON,TX,77356,"WOOD FOREST",,CONTRACTOR,,,,,,,,,,,"CHESMAR HOMES",,,,,"CHESMAR HOMES","450 GEARS RD STE 400",HOUSTON,TX,77067-4513,"(281) 598-1111",http://chesmar.com,"(281) 598-1115",,customerservice.houston@chesmar.com
TX,MONTGOMERY,183557-21,"Single Family Homes",5/3/2021,,581000,,"26103 CROWN RANCH BLVD",HOUSTON,TX,77356,"CROWN RANCH",,"DILLON CONLEY","PO BOX 273",CONROE,TX,77305,,Owner,,,,,OWNER,,,,,OWNER,,,,,,,,,
TX,MONTGOMERY,183780-21,"Single Family Homes",5/6/2021,,345000,,"15128 PARADISE POINT",HOUSTON,TX,77356,"PARADISE POINT",,"DILLON CONLEY","PO BOX 273",CONROE,TX,77305,,Owner,,,,,OWNER,,,,,OWNER,,,,,,,,,
TX,MONTGOMERY,183815-21,"Single Family Homes",5/7/2021,,120033,,"18505 TENAHA MILL DR",HOUSTON,TX,77356,"PORTERS MILL",,CONTRACTOR,,,,,,,,,,,"DR HORTON",,,,,"DR HORTON","14100 SOUTHWEST",HOUSTON,TX,77478,"(281) 201-5559",,,,
TX,MONTGOMERY,183817-21,"Single Family Homes",5/7/2021,,130500,,"13903 CIBOLA FOREST LN",HOUSTON,TX,77356,"FOSTERS RIDGE",,CONTRACTOR,,,,,,,,,,,"DR HORTON",,,,,"DR HORTON","14100 SOUTHWEST",HOUSTON,TX,77478,"(281) 201-5559",,,,
TX,MONTGOMERY,183818-21,"Single Family Homes",5/7/2021,,112545,,"14175 LAKE LODGE DR",HOUSTON,TX,77356,"FOSTERS RIDGE",,CONTRACTOR,,,,,,,,,,,"DR HORTON",,,,,"DR HORTON","14100 SOUTHWEST",HOUSTON,TX,77478,"(281) 201-5559",,,,
TX,MONTGOMERY,183810-21,"Single Family Homes",5/7/2021,,405990,,"2807 KINGLY PINE TR",HOUSTON,TX,77356,"MEADOWS AT IMPERIAL OAKS",,CONTRACTOR,,,,,,,,,,,"DAVID WEEKLEY HOMES",,,,,"DAVID WEEKLEY HOMES","14444 NORTHWEST",HOUSTON,TX,77040,"(713) 570-5021",http://www.davidweekleyhomes.com/,,,
TX,MONTGOMERY,183811-21,"Single Family Homes",5/7/2021,,399990,,"2838 KINGLY PINE TR",HOUSTON,TX,77356,"MEADOWS AT IMPERIAL OAKS",,CONTRACTOR,,,,,,,,,,,"DAVID WEEKLEY HOMES",,,,,"DAVID WEEKLEY HOMES","14444 NORTHWEST",HOUSTON,TX,77040,"(713) 570-5021",http://www.davidweekleyhomes.com/,,,
TX,MONTGOMERY,183812-21,"Single Family Homes",5/7/2021,,378990,,"2834 KINGLY PINE TR",HOUSTON,TX,77356,"MEADOWS AT IMPERIAL OAKS",,CONTRACTOR,,,,,,,,,,,"DAVID WEEKLEY HOMES",,,,,"DAVID WEEKLEY HOMES","14444 NORTHWEST",HOUSTON,TX,77040,"(713) 570-5021",http://www.davidweekleyhomes.com/,,,
TX,MONTGOMERY,183813-21,"Single Family Homes",5/7/2021,,405990,,"32400 SOARING WILLOW WAY",HOUSTON,TX,77356,"MEADOWS AT IMPERIAL OAKS",,CONTRACTOR,,,,,,,,,,,"DAVID WEEKLEY HOMES",,,,,"DAVID WEEKLEY HOMES","14444 NORTHWEST",HOUSTON,TX,77040,"(713) 570-5021",http://www.davidweekleyhomes.com/,,,
TX,MONTGOMERY,183849-21,"Single Family Homes",5/7/2021,,279990,,"23851 VIA LEONI DR",HOUSTON,TX,77356,TAVOLA,,CONTRACTOR,,,,,,,,,,,"DAVID WEEKLEY HOMES",,,,,"DAVID WEEKLEY HOMES","14444 NORTHWEST",HOUSTON,TX,77040,"(713) 570-5021",http://www.davidweekleyhomes.com/,,,
TX,MONTGOMERY,183850-21,"Single Family Homes",5/7/2021,,275990,,"23834 VIA LEONI DR",HOUSTON,TX,77356,TAVOLA,,CONTRACTOR,,,,,,,,,,,"DAVID WEEKLEY HOMES",,,,,"DAVID WEEKLEY HOMES","14444 NORTHWEST",HOUSTON,TX,77040,"(713) 570-5021",http://www.davidweekleyhomes.com/,,,
TX,MONTGOMERY,183851-21,"Single Family Homes",5/7/2021,,292990,,"23847 VIA LEONI DR",HOUSTON,TX,77356,TAVOLA,,CONTRACTOR,,,,,,,,,,,"DAVID WEEKLEY HOMES",,,,,"DAVID WEEKLEY HOMES","14444 NORTHWEST",HOUSTON,TX,77040,"(713) 570-5021",http://www.davidweekleyhomes.com/,,,
TX,MONTGOMERY,183704-21,"Single Family Homes",5/5/2021,,99500,,"10007 COTTONTAIL CT",HOUSTON,TX,77356,"MILL CREEK",,CONTRACTOR,,,,,,,,,,,"DEVON STREET HOMES",,,,,"DEVON STREET HOMES","4545 POST OAK PLACE DR STE 345",HOUSTON,TX,77027-3198,"(713) 622-1009",http://www.devonstreethomes.com,"(713) 622-1094",,
TX,MONTGOMERY,183740-21,"Single Family Homes",5/6/2021,,295290,,"10010 PRESERVE WAY",HOUSTON,TX,77356,"HARPER'S PRESERVE",,CONTRACTOR,,,,,,,,,,,"EHT OF TEXAS LP",,,,,"EHT OF TEXAS LP","10235 LITTLE",HOUSTON,TX,77040,"(713) 557-3685",,,,
TX,MONTGOMERY,183769-21,"Single Family Homes",5/6/2021,,279000,,"9956 PRESERVE WAY",HOUSTON,TX,77356,"HARPER'S PRESERVE",,CONTRACTOR,,,,,,,,,,,"EHT OF TEXAS LP",,,,,"EHT OF TEXAS LP","10235 LITTLE",HOUSTON,TX,77040,"(713) 557-3685",,,,
TX,MONTGOMERY,183778-21,"Single Family Homes",5/6/2021,,279000,,"10078 PRESERVE WAY",HOUSTON,TX,77356,"HARPER'S PRESERVE",,CONTRACTOR,,,,,,,,,,,"EHT OF TEXAS LP",,,,,"EHT OF TEXAS LP","10235 LITTLE",HOUSTON,TX,77040,"(713) 557-3685",,,,
TX,MONTGOMERY,183794-21,"Single Family Homes",5/6/2021,,272910,,"10018 PRESERVE WAY",HOUSTON,TX,77356,"HARPERS PRESERVE",,CONTRACTOR,,,,,,,,,,,"EHT OF TEXAS LP",,,,,"EHT OF TEXAS LP","10235 LITTLE",HOUSTON,TX,77040,"(713) 557-3685",,,,
TX,MONTGOMERY,183795-21,"Single Family Homes",5/6/2021,,244980,,"10612 RED TAIL PLACE",HOUSTON,TX,77356,"HARPERS PRESERVE",,CONTRACTOR,,,,,,,,,,,"EHT OF TEXAS LP",,,,,"EHT OF TEXAS LP","10235 LITTLE",HOUSTON,TX,77040,"(713) 557-3685",,,,
TX,MONTGOMERY,183727-21,"Single Family Homes",5/5/2021,,50000,,"13122 JOHNSON MALLARD DR",HOUSTON,TX,77356,"CRYSTAL CREEK ESTATES",,CONTRACTOR,,,,,,,,,,,"ENVIRONMENTAL RESOURCES",,,,,"ENVIRONMENTAL RESOURCES","112 SHERBROOK CIR",CONROE,TX,77385-7749,"(936) 672-7025",,,,
TX,MONTGOMERY,183713-21,"Single Family Homes",5/5/2021,,213990,,"13998 KATLIN ROAD",HOUSTON,TX,77356,"WAUKEGAN WAY",,CONTRACTOR,,,,,,,,,,,"FIRST AMERICA HOMES",,,,,"FIRST AMERICA HOMES","1401 WOODLANDS PARKWAY","THE WOODLANDS",TX,77380-1179,"(713) 452-1700",https://www.firstamericahomes.com/,,,info@firstamericahomes.com
TX,MONTGOMERY,183718-21,"Single Family Homes",5/5/2021,,246990,,"16616 MERRY PINES DR",HOUSTON,TX,77356,"GRANGER PINES",,CONTRACTOR,,,,,,,,,,,"FIRST AMERICA HOMES",,,,,"FIRST AMERICA HOMES","1401 WOODLANDS PARKWAY","THE WOODLANDS",TX,77380-1179,"(713) 452-1700",https://www.firstamericahomes.com/,,,info@firstamericahomes.com
TX,MONTGOMERY,183739-21,"Single Family Homes",5/6/2021,,303990,,"16466 STONEWALL ST",HOUSTON,TX,77356,"DEER PINES",,CONTRACTOR,,,,,,,,,,,"FIRST AMERICA HOMES",,,,,"FIRST AMERICA HOMES","1401 WOODLANDS PARKWAY","THE WOODLANDS",TX,77380-1179,"(713) 452-1700",https://www.firstamericahomes.com/,,,info@firstamericahomes.com
TX,MONTGOMERY,183787-21,"Single Family Homes",5/6/2021,,351990,,"16413 STONEWALL ST",HOUSTON,TX,77356,"DEER PINES",,CONTRACTOR,,,,,,,,,,,"FIRST AMERICA HOMES",,,,,"FIRST AMERICA HOMES","1401 WOODLANDS PARKWAY","THE WOODLANDS",TX,77380-1179,"(713) 452-1700",https://www.firstamericahomes.com/,,,info@firstamericahomes.com
TX,MONTGOMERY,183781-21,"Single Family Homes",5/6/2021,,300000,,"12701 VAUGHT ROAD",HOUSTON,TX,77356,,,"MALISA FORD","18750 I-45",SPRING,TX,77373,,Owner,,,,,OWNER,,,,,OWNER,,,,,,,,,
TX,MONTGOMERY,183732-21,"Single Family Homes",5/5/2021,,247880,,"40861 WESSON LN",HOUSTON,TX,77356,"MOSTYN MANOR",,CONTRACTOR,,,,,,,,,,,"GEHAN HOMES",,,,,"GEHAN HOMES","2050 W SAM HOUSTON PKWY S",HOUSTON,TX,77042-2079,"(713) 243-3545",http://www.gehanhomes.com,,,
TX,MONTGOMERY,183836-21,"Single Family Homes",5/7/2021,,300000,,"140 SANDERLING LN",HOUSTON,TX,77356,WOODFOREST,,CONTRACTOR,,,,,,,,,,,"GRACEPOINT HOMES",,,,,"GRACEPOINT HOMES","33300 EGYPT LN STE 100",MAGNOLIA,TX,77354-2739,"(281) 681-0400",http://www.gracepointhomes.com/,"(281) 681-0402",,Info@gracepointhomes.com
TX,MONTGOMERY,183782-21,"Single Family Homes",5/6/2021,,429514,,"40823 WESSON LN",HOUSTON,TX,77356,"MOSTYN MANOR",,CONTRACTOR,,,,,,,,,,,"HARRISBURG HOMES",,,,,"HARRISBURG HOMES","8765 SPRING CYPRESS RD L213",SPRING,TX,77356,"(713) 249-8196",,,,
TX,MONTGOMERY,183783-21,"Single Family Homes",5/6/2021,,376310,,"40705 DAMOTH DR",HOUSTON,TX,77356,"MOSTYN MANOR",,CONTRACTOR,,,,,,,,,,,"HARRISBURG HOMES",,,,,"HARRISBURG HOMES","21615 FIREMIST WAY",CYPRESS,TX,77433-3507,"(713) 249-8196",http://www.harrisburgtx.com/,,SHAWN,info@harrisburgtx.com
TX,MONTGOMERY,183784-21,"Single Family Homes",5/6/2021,,421445,,"40903 WELBEY CT",HOUSTON,TX,77356,"MOSTYN MANOR",,CONTRACTOR,,,,,,,,,,,"HARRISBURG HOMES",,,,,"HARRISBURG HOMES","21615 FIREMIST WAY",CYPRESS,TX,77433-3507,"(713) 249-8196",http://www.harrisburgtx.com/,,SHAWN,info@harrisburgtx.com
TX,MONTGOMERY,183802-21,"Single Family Homes",5/7/2021,,250000,,"9542 DEER HAVEN CIRCLE",HOUSTON,TX,77356,"DEER HAVEN VILLAGE",,"ANA HERRERA","144 NORTH FOREST DR",WILLIS,TX,77378,,Owner,,,,,OWNER,,,,,OWNER,,,,,,,,,
TX,MONTGOMERY,183691-21,"Single Family Homes",5/5/2021,,480000,,"13708 STAGECOACH ROAD",HOUSTON,TX,77356,,,"TIMOTHY HERRMAN","13211 CLEPPER DR",MONTGOMERY,TX,77375,,Owner,,,,,OWNER,,,,,OWNER,,,,,,,,,
TX,MONTGOMERY,183568-21,"Single Family Homes",5/3/2021,,440000,,"230 PROMONTORY CT",HOUSTON,TX,77356,WOODFOREST,,CONTRACTOR,,,,,,,,,,,"HIGHLAND HOMES",,,,,"HIGHLAND HOMES","10930 W SAM HOUSTON PKWY N STE 100",HOUSTON,TX,77064-6331,"(281) 517-9800",,,,
TX,MONTGOMERY,183569-21,"Single Family Homes",5/3/2021,,485000,,"226 PROMONTORY CT",HOUSTON,TX,77356,WOODFOREST,,CONTRACTOR,,,,,,,,,,,"HIGHLAND HOMES",,,,,"HIGHLAND HOMES","10930 W SAM HOUSTON PKWY N STE 100",HOUSTON,TX,77064-6331,"(281) 517-9800",,,,
TX,MONTGOMERY,183570-21,"Single Family Homes",5/3/2021,,490000,,"222 PROMONTORY CT",HOUSTON,TX,77356,WOODFOREST,,CONTRACTOR,,,,,,,,,,,"HIGHLAND HOMES",,,,,"HIGHLAND HOMES","10930 W SAM HOUSTON PKWY N STE 100",HOUSTON,TX,77064-6331,"(281) 517-9800",,,,
TX,MONTGOMERY,183571-21,"Single Family Homes",5/3/2021,,500000,,"237 PROMONTORY CT",HOUSTON,TX,77356,WOODFOREST,,CONTRACTOR,,,,,,,,,,,"HIGHLAND HOMES",,,,,"HIGHLAND HOMES","10930 W SAM HOUSTON PKWY N STE 100",HOUSTON,TX,77064-6331,"(281) 517-9800",,,,
TX,MONTGOMERY,183573-21,"Single Family Homes",5/3/2021,,550000,,"234 PROMONTORY CT",HOUSTON,TX,77356,WOODFOREST,,CONTRACTOR,,,,,,,,,,,"HIGHLAND HOMES",,,,,"HIGHLAND HOMES","10930 W SAM HOUSTON PKWY N STE 100",HOUSTON,TX,77064-6331,"(281) 517-9800",,,,
TX,MONTGOMERY,183575-21,"Single Family Homes",5/3/2021,,530000,,"233 PROMONTORY CT",HOUSTON,TX,77356,"WOOD FOREST",,CONTRACTOR,,,,,,,,,,,"HIGHLAND HOMES",,,,,"HIGHLAND HOMES","10930 W SAM HOUSTON PKWY N STE 100",HOUSTON,TX,77064-6331,"(281) 517-9800",,,,
TX,MONTGOMERY,183577-21,"Single Family Homes",5/3/2021,,872430,,"320 SOUTH OPULENT DR",HOUSTON,TX,77356,"NOBLE GREENS AT WOODFOREST",,CONTRACTOR,,,,,,,,,,,"HIGHLAND HOMES",,,,,"HIGHLAND HOMES","10930 W SAM HOUSTON PKWY N STE 100",HOUSTON,TX,77064-6331,"(281) 517-9800",,,,
TX,MONTGOMERY,183579-21,"Single Family Homes",5/3/2021,,1200000,,"126 ROYAL PALM AVE",HOUSTON,TX,77356,"PINE ISLAND AT WOODFOREST",,CONTRACTOR,,,,,,,,,,,"HIGHLAND HOMES",,,,,"HIGHLAND HOMES","10930 W SAM HOUSTON PKWY N STE 100",HOUSTON,TX,77064-6331,"(281) 517-9800",,,,
TX,MONTGOMERY,183737-21,"Single Family Homes",5/5/2021,,530000,,"130 SUGAR PINE CT",HOUSTON,TX,77356,WOODFOREST,,CONTRACTOR,,,,,,,,,,,"HIGHLAND HOMES",,,,,"HIGHLAND HOMES","10930 W SAM HOUSTON PKWY N STE 100",HOUSTON,TX,77064-6331,"(281) 517-9800",,,,
TX,MONTGOMERY,"183 744-21","Single Family Homes",5/6/2021,,365000,,"128 EAST CASCADES HEIGHTS DR",HOUSTON,TX,77356,"WOOD FOREST",,CONTRACTOR,,,,,,,,,,,"HIGHLAND HOMES",,,,,"HIGHLAND HOMES","10930 W SAM HOUSTON PKWY N STE 100",HOUSTON,TX,77064-6331,"(281) 517-9800",,,,
TX,MONTGOMERY,183745-21,"Single Family Homes",5/6/2021,,325000,,"339 GREAT HILLS DR",HOUSTON,TX,77356,"WOOD FOREST",,CONTRACTOR,,,,,,,,,,,"HIGHLAND HOMES",,,,,"HIGHLAND HOMES","10930 W SAM HOUSTON PKWY N STE 100",HOUSTON,TX,77064-6331,"(281) 517-9800",,,,
TX,MONTGOMERY,183751-21,"Single Family Homes",5/6/2021,,384280,,"219 SOUTH EMPRESS GREEN",HOUSTON,TX,77356,"NOBLE GREENS AT WOODFOREST",,CONTRACTOR,,,,,,,,,,,"HIGHLAND HOMES",,,,,"HIGHLAND HOMES","10930 W SAM HOUSTON PKWY N STE 100",HOUSTON,TX,77064-6331,"(281) 517-9800",,,,
TX,MONTGOMERY,183754-21,"Single Family Homes",5/6/2021,,395000,,"314 GREAT HILLS DR",HOUSTON,TX,77356,"WOOD FOREST",,CONTRACTOR,,,,,,,,,,,"HIGHLAND HOMES",,,,,"HIGHLAND HOMES","10930 W SAM HOUSTON PKWY N STE 100",HOUSTON,TX,77064-6331,"(281) 517-9800",,,,
TX,MONTGOMERY,183703-21,"Single Family Homes",5/5/2021,,352990,,"17317 AUTUMN SAGE CT",HOUSTON,TX,77356,"HARPERS PRESERVE",,CONTRACTOR,,,,,,,,,,,"HISTORY MAKER HOMES",,,,,"HISTORY MAKER HOMES","9001 AIRPORT FWY SUITE 400","NORTH RICHLAND HILLS",TX,76180-7769,"(817) 429-8008",http://www.historymaker.com/,"(817) 507-1102","JILL BARFIELD",
TX,MONTGOMERY,183629-21,"Single Family Homes",5/4/2021,,427005,,"1027 VILLAGE SHORES LN",HOUSTON,TX,77356,WOODTRACE,,CONTRACTOR,,,,,,,,,,,"J PATRICK HOMES",,,,,"J PATRICK HOMES","9700 RICHMOND AVE STE 162",HOUSTON,TX,77042-4698,"(713) 789-8004",,,,
TX,MONTGOMERY,183631-21,"Single Family Homes",5/4/2021,,369916,,"1014 GROVETON RIDGE LN",HOUSTON,TX,77356,WOODTRACE,,CONTRACTOR,,,,,,,,,,,"J PATRICK HOMES",,,,,"J PATRICK HOMES","9700 RICHMOND AVE STE 162",HOUSTON,TX,77042-4698,"(713) 789-8004",,,,
TX,MONTGOMERY,183634-21,"Single Family Homes",5/4/2021,,397006,,"1027 GROVETON RIDGE LN",HOUSTON,TX,77356,WOODTRACE,,CONTRACTOR,,,,,,,,,,,"J PATRICK HOMES",,,,,"J PATRICK HOMES","9700 RICHMOND AVE STE 162",HOUSTON,TX,77042-4698,"(713) 789-8004",,,,
TX,MONTGOMERY,183638-21,"Single Family Homes",5/4/2021,,400261,,"1003 GROVETON RIDGE LN",HOUSTON,TX,77356,WOODTRACE,,CONTRACTOR,,,,,,,,,,,"J PATRICK HOMES",,,,,"J PATRICK HOMES","9700 RICHMOND AVE STE 162",HOUSTON,TX,77042-4698,"(713) 789-8004",,,,
TX,MONTGOMERY,183640-21,"Single Family Homes",5/4/2021,,393682,,"1015 GROVETON RIDGE LN",HOUSTON,TX,77356,WOODTRACE,,CONTRACTOR,,,,,,,,,,,"J PATRICK HOMES",,,,,"J PATRICK HOMES","9700 RICHMOND AVE STE 162",HOUSTON,TX,77042-4698,"(713) 789-8004",,,,
TX,MONTGOMERY,183642-21,"Single Family Homes",5/4/2021,,396592,,"1009 GROVETON RIDGE LN",HOUSTON,TX,77356,WOODTRACE,,CONTRACTOR,,,,,,,,,,,"J PATRICK HOMES",,,,,"J PATRICK HOMES","9700 RICHMOND AVE STE 162",HOUSTON,TX,77042-4698,"(713) 789-8004",,,,
TX,MONTGOMERY,183592-21,"Single Family Homes",5/3/2021,,167880,,"16220 FAYETTE ST",HOUSTON,TX,77356,"DEER PINES",,CONTRACTOR,,,,,,,,,,,"KENDALL HOMES",,,,,"KENDALL HOMES","427 MASON PARK BLVD",KATY,TX,77450-6187,"(281) 398-4010",http://www.kendallhomes.net/,"(281) 398-4011",,
TX,MONTGOMERY,183597-21,"Single Family Homes",5/3/2021,,256500,,"16240 FAYETTE ST",HOUSTON,TX,77356,"DEER PINES",,CONTRACTOR,,,,,,,,,,,"KENDALL HOMES",,,,,"KENDALL HOMES","427 MASON PARK BLVD",KATY,TX,77450-6187,"(281) 398-4010",http://www.kendallhomes.net/,"(281) 398-4011",,
TX,MONTGOMERY,183687-21,"Single Family Homes",5/4/2021,,400000,,"919 HARVEY LN",HOUSTON,TX,77356,"KIPLING OAKS",,"ALEX LEJEUNE","15326 RIFORD DR",CYPRESS,TX,77429,,Owner,,,,,OWNER,,,,,OWNER,,,,,,,,,
TX,MONTGOMERY,183578-21,"Single Family Homes",5/3/2021,,172315,,"11122 NORTH LAKE MIST LN",HOUSTON,TX,77356,"LAKE BREEZE",,CONTRACTOR,,,,,,,,,,,"LENNAR HOMES",,,,,"LENNAR HOMES","550 GREENS PKWY",HOUSTON,TX,77067-4537,"(281) 875-1000",http://www.lennar.com/,,,
TX,MONTGOMERY,183580-21,"Single Family Homes",5/3/2021,,237770,,"17546 SUNSET SKIES ROAD",HOUSTON,TX,77356,ARTAVIA,,CONTRACTOR,,,,,,,,,,,"LENNAR HOMES",,,,,"LENNAR HOMES","550 GREENS PKWY",HOUSTON,TX,77067-4537,"(281) 875-1000",http://www.lennar.com/,,,
TX,MONTGOMERY,183581-21,"Single Family Homes",5/3/2021,,129545,,"11118 NORTH LAKE MIST LN",HOUSTON,TX,77356,"LAKE BREEZE",,CONTRACTOR,,,,,,,,,,,"LENNAR HOMES",,,,,"LENNAR HOMES","550 GREENS PKWY",HOUSTON,TX,77067-4537,"(281) 875-1000",http://www.lennar.com/,,,
TX,MONTGOMERY,183582-21,"Single Family Homes",5/3/2021,,129545,,"18723 FAUSTINA WAY",HOUSTON,TX,77356,TAVOLA,,CONTRACTOR,,,,,,,,,,,"LENNAR HOMES",,,,,"LENNAR HOMES","550 GREENS PKWY",HOUSTON,TX,77067-4537,"(281) 875-1000",http://www.lennar.com/,,,
TX,MONTGOMERY,183583-21,"Single Family Homes",5/3/2021,,166530,,"18939 BUCKLEY OAK DR",HOUSTON,TX,77356,TAVOLA,,CONTRACTOR,,,,,,,,,,,"LENNAR HOMES",,,,,"LENNAR HOMES","550 GREENS PKWY",HOUSTON,TX,77067-4537,"(281) 875-1000",http://www.lennar.com/,,,
TX,MONTGOMERY,183584-21,"Single Family Homes",5/3/2021,,104650,,"18719 FAUSTINA WAY",HOUSTON,TX,77356,TAVOLA,,CONTRACTOR,,,,,,,,,,,"LENNAR HOMES",,,,,"LENNAR HOMES","550 GREENS PKWY",HOUSTON,TX,77067-4537,"(281) 875-1000",http://www.lennar.com/,,,
TX,MONTGOMERY,183611-21,"Single Family Homes",5/3/2021,,145860,,"24039 HAWTHORN LAKES DR",HOUSTON,TX,77356,TAVOLA,,CONTRACTOR,,,,,,,,,,,"LENNAR HOMES",,,,,"LENNAR HOMES","550 GREENS PKWY",HOUSTON,TX,77067-4537,"(281) 875-1000",http://www.lennar.com/,,,
TX,MONTGOMERY,183613-21,"Single Family Homes",5/3/2021,,200395,,"24038 HAWTHORN LAKES DR",HOUSTON,TX,77356,TAVOLA,,CONTRACTOR,,,,,,,,,,,"LENNAR HOMES",,,,,"LENNAR HOMES","550 GREENS PKWY",HOUSTON,TX,77067-4537,"(281) 875-1000",http://www.lennar.com/,,,
TX,MONTGOMERY,183614-21,"Single Family Homes",5/3/2021,,103740,,"22684 BOLANZO LN",HOUSTON,TX,77356,TAVOLA,,CONTRACTOR,,,,,,,,,,,"LENNAR HOMES",,,,,"LENNAR HOMES","550 GREENS PKWY",HOUSTON,TX,77067-4537,"(281) 875-1000",http://www.lennar.com/,,,
TX,MONTGOMERY,183616-21,"Single Family Homes",5/3/2021,,218140,,"23580 RED JUNIPER LN",HOUSTON,TX,77356,TAVOLA,,CONTRACTOR,,,,,,,,,,,"LENNAR HOMES",,,,,"LENNAR HOMES","550 GREENS PKWY",HOUSTON,TX,77067-4537,"(281) 875-1000",http://www.lennar.com/,,,
TX,MONTGOMERY,183618-21,"Single Family Homes",5/3/2021,,129454,,"18792 FAUSTINA WAY",HOUSTON,TX,77356,TAVOLA,,CONTRACTOR,,,,,,,,,,,"LENNAR HOMES",,,,,"LENNAR HOMES","550 GREENS PKWY",HOUSTON,TX,77067-4537,"(281) 875-1000",http://www.lennar.com/,,,
TX,MONTGOMERY,183619-21,"Single Family Homes",5/3/2021,,142870,,"18784 FAUSTINA WAY",HOUSTON,TX,77356,TAVOLA,,CONTRACTOR,,,,,,,,,,,"LENNAR HOMES",,,,,"LENNAR HOMES","550 GREENS PKWY",HOUSTON,TX,77067-4537,"(281) 875-1000",http://www.lennar.com/,,,
TX,MONTGOMERY,183620-21,"Single Family Homes",5/3/2021,,104650,,"18788 FAUSTINA WAY",HOUSTON,TX,77356,TAVOLA,,CONTRACTOR,,,,,,,,,,,"LENNAR HOMES",,,,,"LENNAR HOMES","550 GREENS PKWY",HOUSTON,TX,77067-4537,"(281) 875-1000",http://www.lennar.com/,,,
TX,MONTGOMERY,183621-21,"Single Family Homes",5/3/2021,,154505,,"314 MISTLETOE RIDGE CT",HOUSTON,TX,77356,WOODFOREST,,CONTRACTOR,,,,,,,,,,,"LENNAR HOMES",,,,,"LENNAR HOMES","550 GREENS PKWY",HOUSTON,TX,77067-4537,"(281) 875-1000",http://www.lennar.com/,,,
TX,MONTGOMERY,183652-21,"Single Family Homes",5/4/2021,,104650,,"18708 FAUSTINA WAY",HOUSTON,TX,77356,TAVOLA,,CONTRACTOR,,,,,,,,,,,"LENNAR HOMES",,,,,"LENNAR HOMES","550 GREENS PKWY",HOUSTON,TX,77067-4537,"(281) 875-1000",http://www.lennar.com/,,,
TX,MONTGOMERY,183653-21,"Single Family Homes",5/4/2021,,142870,,"18715 FAUSTINA WAY",HOUSTON,TX,77356,TAVOLA,,CONTRACTOR,,,,,,,,,,,"LENNAR HOMES",,,,,"LENNAR HOMES","550 GREENS PKWY",HOUSTON,TX,77067-4537,"(281) 875-1000",http://www.lennar.com/,,,
TX,MONTGOMERY,183655-21,"Single Family Homes",5/4/2021,,196300,,"23540 RED JUNIPER LN",HOUSTON,TX,77356,TAVOLA,,CONTRACTOR,,,,,,,,,,,"LENNAR HOMES",,,,,"LENNAR HOMES","550 GREENS PKWY",HOUSTON,TX,77067-4537,"(281) 875-1000",http://www.lennar.com/,,,
TX,MONTGOMERY,183695-21,"Single Family Homes",5/5/2021,,201955,,"17562 SUNSET SKIES ROAD",HOUSTON,TX,77356,ARTAVIA,,CONTRACTOR,,,,,,,,,,,"LENNAR HOMES",,,,,"LENNAR HOMES","550 GREENS PKWY",HOUSTON,TX,77067-4537,"(281) 875-1000",http://www.lennar.com/,,,
TX,MONTGOMERY,183696-21,"Single Family Homes",5/5/2021,,99060,,"18716 FAUSTINA WAY",HOUSTON,TX,77356,TAVOLA,,CONTRACTOR,,,,,,,,,,,"LENNAR HOMES",,,,,"LENNAR HOMES","550 GREENS PKWY",HOUSTON,TX,77067-4537,"(281) 875-1000",http://www.lennar.com/,,,
TX,MONTGOMERY,183697-21,"Single Family Homes",5/5/2021,,103740,,"18935 BUCKLEY OAK DR",HOUSTON,TX,77356,TAVOLA,,CONTRACTOR,,,,,,,,,,,"LENNAR HOMES",,,,,"LENNAR HOMES","550 GREENS PKWY",HOUSTON,TX,77067-4537,"(281) 875-1000",http://www.lennar.com/,,,
TX,MONTGOMERY,183757-21,"Single Family Homes",5/6/2021,,142870,,"11130 NORTH LAKE MIST LN",HOUSTON,TX,77356,"LAKE BREEZE",,CONTRACTOR,,,,,,,,,,,"LENNAR HOMES",,,,,"LENNAR HOMES","550 GREENS PKWY",HOUSTON,TX,77067-4537,"(281) 875-1000",http://www.lennar.com/,,,
TX,MONTGOMERY,183760-21,"Single Family Homes",5/6/2021,,99060,,"11134 NORTH MIST LN",HOUSTON,TX,77356,"LAKE BREEZE",,CONTRACTOR,,,,,,,,,,,"LENNAR HOMES",,,,,"LENNAR HOMES","550 GREENS PKWY",HOUSTON,TX,77067-4537,"(281) 875-1000",http://www.lennar.com/,,,
TX,MONTGOMERY,183761-21,"Single Family Homes",5/6/2021,,158015,,"18931 BUCKLEY OAK DR",HOUSTON,TX,77356,TAVOLA,,CONTRACTOR,,,,,,,,,,,"LENNAR HOMES",,,,,"LENNAR HOMES","550 GREENS PKWY",HOUSTON,TX,77067-4537,"(281) 875-1000",http://www.lennar.com/,,,
TX,MONTGOMERY,183821-21,"Single Family Homes",5/7/2021,,147550,,"18722 FAUSTINA WAY",HOUSTON,TX,77356,TAVOLA,,CONTRACTOR,,,,,,,,,,,"LENNAR HOMES",,,,,"LENNAR HOMES","550 GREENS PKWY",HOUSTON,TX,77067-4537,"(281) 875-1000",http://www.lennar.com/,,,
TX,MONTGOMERY,183823-21,"Single Family Homes",5/7/2021,,129545,,"18730 FAUSTINA WAY",HOUSTON,TX,77356,TAVOLA,,CONTRACTOR,,,,,,,,,,,"LENNAR HOMES",,,,,"LENNAR HOMES","550 GREENS PKWY",HOUSTON,TX,77067-4537,"(281) 875-1000",http://www.lennar.com/,,,
TX,MONTGOMERY,183824-21,"Single Family Homes",5/7/2021,,143065,,"18927 BUCKLEY OAK DR",HOUSTON,TX,77356,TAVOLA,,CONTRACTOR,,,,,,,,,,,"LENNAR HOMES",,,,,"LENNAR HOMES","550 GREENS PKWY",HOUSTON,TX,77067-4537,"(281) 875-1000",http://www.lennar.com/,,,
TX,MONTGOMERY,183807-21,"Single Family Homes",5/7/2021,,64000,,"29218 SEQUOIA TREE TR",HOUSTON,TX,77356,"FOREST VILLAGE",,CONTRACTOR,,,,,,,,,,,"LONG LAKE HOMES",,,,,"LONG LAKE HOMES","15915 KATY FWY STE 405",HOUSTON,TX,77094-1710,"(281) 646-1727",http://www.longlakeltd.com/,,"DAVID BIGLER",
TX,MONTGOMERY,183808-21,"Single Family Homes",5/7/2021,,80000,,"2260 GARGANEY LN",HOUSTON,TX,77356,"MONTGOMERY CREEK RANCH",,CONTRACTOR,,,,,,,,,,,"LONG LAKE HOMES",,,,,"LONG LAKE HOMES","15915 KATY FWY STE 405",HOUSTON,TX,77094-1710,"(281) 646-1727",http://www.longlakeltd.com/,,"DAVID BIGLER",
TX,MONTGOMERY,183572-21,"Single Family Homes",5/3/2021,,126100,,"10566 PRESERVE WAY",HOUSTON,TX,77356,"HARPER'S PRESERVE",,CONTRACTOR,,,,,,,,,,,"M/I HOMES",,,,,"M/I HOMES","10910 NORTH SAM HOUSTON PKWY W",HOUSTON,TX,77064,"(832) 912-1012",,,,
TX,MONTGOMERY,183574-21,"Single Family Homes",5/3/2021,,131250,,"10621 WHITEJACKET",HOUSTON,TX,77356,"HARPER'S PRESERVE",,CONTRACTOR,,,,,,,,,,,"M/I HOMES",,,,,"M/I HOMES","10910 NORTH SAM HOUSTON PKWY W",HOUSTON,TX,77064,"(832) 912-1012",,,,
TX,MONTGOMERY,183800-21,"Single Family Homes",5/7/2021,,700000,,"27346 SANDY HILLS LANDING",HOUSTON,TX,77356,"BENDERS LANDING ESTATES",,"KENYON MARTIN","1885 TAMARACK STREET WEST","LAKE VILLAGE",TX,77365,,Owner,,,,,OWNER,,,,,OWNER,,,,,,,,,
TX,MONTGOMERY,183668-21,"Single Family Homes",5/4/2021,,422990,,"32116 PARK PLAINS DR",HOUSTON,TX,77356,"MEADOWS AT IMPERIAL OAKS",,CONTRACTOR,,,,,,,,,,,"MHI MCGUYER HOMEBUILDERS",,,,,"MHI MCGUYER HOMEBUILDERS","7676 WOODWAY DR",HOUSTON,TX,77063-1526,"(713) 260-4107",,,,
TX,MONTGOMERY,183728-21,"Single Family Homes",5/5/2021,,336990,,"2602 PRAIRIE STAR LN",HOUSTON,TX,77356,"THE MEADOWS AT IMPERIAL OAKS",,CONTRACTOR,,,,,,,,,,,"MHI MCGUYER HOMEBUILDERS",,,,,"MHI MCGUYER HOMEBUILDERS","7676 WOODWAY DR",HOUSTON,TX,77063-1526,"(713) 260-4107",,,,
TX,MONTGOMERY,183747-21,"Single Family Homes",5/6/2021,,301990,,"2654 PRAIRIE STAR LN",HOUSTON,TX,77356,"MEADOWS AT IMPERIAL OAKS",,CONTRACTOR,,,,,,,,,,,"MHI MCGUYER HOMEBUILDERS",,,,,"MHI MCGUYER HOMEBUILDERS","7676 WOODWAY DR",HOUSTON,TX,77063-1526,"(713) 260-4107",,,,
TX,MONTGOMERY,183749-21,"Single Family Homes",5/6/2021,,267990,,"2719 MEADOW VIEW LN",HOUSTON,TX,77356,"MEADOWS AT IMPERIAL OAKS",,CONTRACTOR,,,,,,,,,,,"MHI MCGUYER HOMEBUILDERS",,,,,"MHI MCGUYER HOMEBUILDERS","7676 WOODWAY DR",HOUSTON,TX,77063-1526,"(713) 260-4107",,,,
TX,MONTGOMERY,183733-21,"Single Family Homes",5/5/2021,,60000,,"301 KINGSBURY CT",HOUSTON,TX,77356,"CROCKETT TRACE ESTATES",,"CINDY PARR","417 W MINK ST",WILLIS,TX,77378,,Owner,,,,,OWNER,,,,,OWNER,,,,,,,,,
TX,MONTGOMERY,183675-21,"Single Family Homes",5/4/2021,,331200,,"14843 CHERRY BRICK DR",HOUSTON,TX,77356,ARTAVIA,,CONTRACTOR,,,,,,,,,,,"PERRY HOMES",,,,,"PERRY HOMES","9000 GULF FWY",HOUSTON,TX,77017-7018,"(713) 417-1396",,,,
TX,MONTGOMERY,183676-21,"Single Family Homes",5/4/2021,,272700,,"17116 SANDSTONE ST",HOUSTON,TX,77356,ARTAVIA,,CONTRACTOR,,,,,,,,,,,"PERRY HOMES",,,,,"PERRY HOMES","9000 GULF FWY",HOUSTON,TX,77017-7018,"(713) 417-1396",,,,
TX,MONTGOMERY,183677-21,"Single Family Homes",5/4/2021,,235463,,"14835 CHERRY BRICK DR",HOUSTON,TX,77356,ARTAVIA,,CONTRACTOR,,,,,,,,,,,"PERRY HOMES",,,,,"PERRY HOMES","9000 GULF FWY",HOUSTON,TX,77017-7018,"(713) 417-1396",,,,
TX,MONTGOMERY,183680-21,"Single Family Homes",5/4/2021,,331200,,"17120 LADY GUAVA TR",HOUSTON,TX,77356,ARTAVIA,,CONTRACTOR,,,,,,,,,,,"PERRY HOMES",,,,,"PERRY HOMES","9000 GULF FWY",HOUSTON,TX,77017-7018,"(713) 417-1396",,,,
TX,MONTGOMERY,183681-21,"Single Family Homes",5/4/2021,,328050,,"14811 CHERRY BRICK DR",HOUSTON,TX,77356,ARTAVIA,,CONTRACTOR,,,,,,,,,,,"PERRY HOMES",,,,,"PERRY HOMES","9000 GULF FWY",HOUSTON,TX,77017-7018,"(713) 417-1396",,,,
TX,MONTGOMERY,183683-21,"Single Family Homes",5/4/2021,,327825,,"17116 LADY GUAVA TR",HOUSTON,TX,77356,ARTAVIA,,CONTRACTOR,,,,,,,,,,,"PERRY HOMES",,,,,"PERRY HOMES","9000 GULF FWY",HOUSTON,TX,77017-7018,"(713) 417-1396",,,,
TX,MONTGOMERY,183684-21,"Single Family Homes",5/4/2021,,335813,,"14823 CHERRY BRICK DR",HOUSTON,TX,77356,ARTAVIA,,CONTRACTOR,,,,,,,,,,,"PERRY HOMES",,,,,"PERRY HOMES","9000 GULF FWY",HOUSTON,TX,77017-7018,"(713) 417-1396",,,,
TX,MONTGOMERY,183686-21,"Single Family Homes",5/4/2021,,350000,,"10106 BAYOU OAKS DR",HOUSTON,TX,77356,"HARPERS PRESERVE",,CONTRACTOR,,,,,,,,,,,"PERRY HOMES",,,,,"PERRY HOMES","9000 GULF FWY",HOUSTON,TX,77017-7018,"(713) 417-1396",,,,
TX,MONTGOMERY,183635-21,"Single Family Homes",5/4/2021,,239450,,"18995 BUCKLEY OAK DR",HOUSTON,TX,77356,TAVOLA,,CONTRACTOR,,,,,,,,,,,"PULTE HOMES",,,,,"PULTE HOMES","16670 PARK ROW",HOUSTON,TX,77084-6866,"(281) 749-8000",,,,
TX,MONTGOMERY,183641-21,"Single Family Homes",5/4/2021,,237790,,"19011 BUCKLEY OAK DR",HOUSTON,TX,77356,TAVOLA,,CONTRACTOR,,,,,,,,,,,"PULTE HOMES",,,,,"PULTE HOMES","16670 PARK ROW",HOUSTON,TX,77084-6866,"(281) 749-8000",,,,
TX,MONTGOMERY,183645-21,"Single Family Homes",5/4/2021,,235950,,"19015 BUCKLEY OAK DR",HOUSTON,TX,77356,TAVOLA,,CONTRACTOR,,,,,,,,,,,"PULTE HOMES",,,,,"PULTE HOMES","16670 PARK ROW",HOUSTON,TX,77084-6866,"(281) 749-8000",,,,
TX,MONTGOMERY,183648-21,"Single Family Homes",5/4/2021,,234390,,"19024 BUCKLEY OAK DR",HOUSTON,TX,77356,TAVOLA,,CONTRACTOR,,,,,,,,,,,"PULTE HOMES",,,,,"PULTE HOMES","16670 PARK ROW",HOUSTON,TX,77084-6866,"(281) 749-8000",,,,
TX,MONTGOMERY,183649-21,"Single Family Homes",5/4/2021,,240750,,"19020 BUCKLEY OAK DR",HOUSTON,TX,77356,TAVOLA,,CONTRACTOR,,,,,,,,,,,"PULTE HOMES",,,,,"PULTE HOMES","16670 PARK ROW",HOUSTON,TX,77084-6866,"(281) 749-8000",,,,
TX,MONTGOMERY,183835-21,"Single Family Homes",5/7/2021,,60000,,"38 NORTH WYCKHAM CIRCLE",HOUSTON,TX,77356,"STERLING RIDGE",,"GASTON RAGGIO","38 NORTH WYCKHAM CIRCLE","THE WOODLANDS",TX,77356,,Owner,,,,,OWNER,,,,,OWNER,,,,,,,,,
TX,MONTGOMERY,183662-21,"Single Family Homes",5/4/2021,,115895,,"21010 WENZE LN",HOUSTON,TX,77356,"HARRINGTON TRAILS",,CONTRACTOR,,,,,,,,,,,"RAUSCH COLEMAN HOMES",,,,,"RAUSCH COLEMAN HOMES","7906 N SAM HOUSTON PKWY W STE 300",HOUSTON,TX,77064,"(713) 434-6028",,,,
TX,MONTGOMERY,183663-21,"Single Family Homes",5/4/2021,,98930,,"21014 WENZE LN",HOUSTON,TX,77356,"HARRINGTON TR",,CONTRACTOR,,,,,,,,,,,"RAUSCH COLEMAN HOMES",,,,,"RAUSCH COLEMAN HOMES","7906 N SAM HOUSTON PKWY W STE 300",HOUSTON,TX,77064,"(713) 434-6028",,,,
TX,MONTGOMERY,183669-21,"Single Family Homes",5/4/2021,,131755,,"21047 WENZE LN",HOUSTON,TX,77356,"HARRINGTON TR",,CONTRACTOR,,,,,,,,,,,"RAUSCH COLEMAN HOMES",,,,,"RAUSCH COLEMAN HOMES","7906 N SAM HOUSTON PKWY W STE 300",HOUSTON,TX,77064,"(713) 434-6028",,,,
TX,MONTGOMERY,183673-21,"Single Family Homes",5/4/2021,,150540,,"20914 CANARY WOOD LN",HOUSTON,TX,77356,"HARRINGTON TRAILS",,CONTRACTOR,,,,,,,,,,,"RAUSCH COLEMAN HOMES",,,,,"RAUSCH COLEMAN HOMES","7906 N SAM HOUSTON PKWY W STE 300",HOUSTON,TX,77064,"(713) 434-6028",,,,
TX,MONTGOMERY,183731-21,"Single Family Homes",5/5/2021,,150540,,"20926 CANARY WOOD LN",HOUSTON,TX,77356,"HARRINGTON TRAILS",,CONTRACTOR,,,,,,,,,,,"RAUSCH COLEMAN HOMES",,,,,"RAUSCH COLEMAN HOMES","7906 N SAM HOUSTON PKWY W STE 300",HOUSTON,TX,77064,"(713) 434-6028",,,,
TX,MONTGOMERY,183773-21,"Single Family Homes",5/6/2021,,183560,,"15111 WILLOW TREE LN",HOUSTON,TX,77356,"HARRINGTON TRAILS",,CONTRACTOR,,,,,,,,,,,"RAUSCH COLEMAN HOMES",,,,,"RAUSCH COLEMAN HOMES","7906 N SAM HOUSTON PKWY W STE 300",HOUSTON,TX,77064,"(713) 434-6028",,,,
TX,MONTGOMERY,183774-21,"Single Family Homes",5/6/2021,,115895,,"15115 WILLOW TREE LN",HOUSTON,TX,77356,"HARRINGTON TRAILS",,CONTRACTOR,,,,,,,,,,,"RAUSCH COLEMAN HOMES",,,,,"RAUSCH COLEMAN HOMES","7906 N SAM HOUSTON PKWY W STE 300",HOUSTON,TX,77064,"(713) 434-6028",,,,
TX,MONTGOMERY,183776-21,"Single Family Homes",5/6/2021,,150540,,"15022 PADDOCK POINT",HOUSTON,TX,77356,"HARRINGTON TRAILS",,CONTRACTOR,,,,,,,,,,,"RAUSCH COLEMAN HOMES",,,,,"RAUSCH COLEMAN HOMES","7906 N SAM HOUSTON PKWY W STE 300",HOUSTON,TX,77064,"(713) 434-6028",,,,
TX,MONTGOMERY,183786-21,"Single Family Homes",5/6/2021,,428000,,"501 ABNEY LN",HOUSTON,TX,77356,,,"ANDREW ROSS","501 ABNEY LN",HOUSTON,TX,77356,,Owner,,,,,OWNER,,,,,OWNER,,,,,,,,,
TX,MONTGOMERY,183843-21,"Single Family Homes",5/7/2021,,505000,,"28743 POST OAK RUN",HOUSTON,TX,77356,"HIGH MEADOW RANCH",,"ANDREW ROSS","PO BOX 1167",PINEHURST,TX,77362,,Owner,,,,,OWNER,,,,,OWNER,,,,,,,,,
TX,MONTGOMERY,183670-21,"Single Family Homes",5/4/2021,,200000,,"21 NEWBERRY CT",HOUSTON,TX,77356,BENTWATER,,CONTRACTOR,,,,,,,,,,,"ROYAL TEXAN HOMES",,,,,"ROYAL TEXAN HOMES","15885 HIGHWAY 105 W",MONTGOMERY,TX,77356-5662,"(936) 271-4425",http://www.royaltexan.com/,,,
TX,MONTGOMERY,183671-21,"Single Family Homes",5/4/2021,,200000,,"25 WYNDEMERE",HOUSTON,TX,77356,BENTWATER,,CONTRACTOR,,,,,,,,,,,"ROYAL TEXAN HOMES",,,,,"ROYAL TEXAN HOMES","15885 HIGHWAY 105 W",MONTGOMERY,TX,77356-5662,"(936) 271-4425",http://www.royaltexan.com/,,,
TX,MONTGOMERY,183672-21,"Single Family Homes",5/4/2021,,200000,,"140 HAMPTON GLEN",HOUSTON,TX,77356,BENTWATER,,CONTRACTOR,,,,,,,,,,,"ROYAL TEXAN HOMES",,,,,"ROYAL TEXAN HOMES","15885 HIGHWAY 105 W",MONTGOMERY,TX,77356-5662,"(936) 271-4425",http://www.royaltexan.com/,,,
TX,MONTGOMERY,183612-21,"Single Family Homes",5/3/2021,,200000,,"15225 PARADISE POINT DR",HOUSTON,TX,77356,"PARADISE POINT",,"MILAGROS SANCHEZ","16049 GOLF CLUB DR",CORSEY,TX,77536,,Owner,,,,,OWNER,,,,,OWNER,,,,,,,,,
TX,MONTGOMERY,183725-21,"Single Family Homes",5/5/2021,,80000,,"27321 DIAMOND C",HOUSTON,TX,77356,"HOLIDAY OAKS",,"MAURICIO SANTOS","19894 SHERWOOD DR",CLEVELAND,TX,77328,,Owner,,,,,OWNER,,,,,OWNER,,,,,,,,,
TX,MONTGOMERY,183790-21,"Single Family Homes",5/6/2021,,250000,,"2763 ALTISSIMO CT",HOUSTON,TX,77356,"VIVACE AT HARMONY",,CONTRACTOR,,,,,,,,,,,"SHEA HOMES HOUSTON",,,,,"SHEA HOMES HOUSTON","8300 CYPRESS CREEK PKWY STE 400",HOUSTON,TX,77070-5643,"(832) 869-4007",http://www.sheahomes.com/,,,
TX,MONTGOMERY,183791-21,"Single Family Homes",5/6/2021,,350000,,"27153 ALLEGRETTO DR",HOUSTON,TX,77356,"VIVACE AT HARMONY",,CONTRACTOR,,,,,,,,,,,"SHEA HOMES HOUSTON",,,,,"SHEA HOMES HOUSTON","8300 CYPRESS CREEK PKWY STE 400",HOUSTON,TX,77070-5643,"(832) 869-4007",http://www.sheahomes.com/,,,
TX,MONTGOMERY,183792-21,"Single Family Homes",5/6/2021,,300000,,"27860 SERENATA SPRINGS DR",HOUSTON,TX,77356,"VIVACE AT HARMONY",,CONTRACTOR,,,,,,,,,,,"SHEA HOMES HOUSTON",,,,,"SHEA HOMES HOUSTON","8300 CYPRESS CREEK PKWY STE 400",HOUSTON,TX,77070-5643,"(832) 869-4007",http://www.sheahomes.com/,,,
TX,MONTGOMERY,183736-21,"Single Family Homes",5/5/2021,,1500000,,"6208 NORTH LAZY MEADOW WAY",HOUSTON,TX,77356,"BENDERS LANDING ESTATES",,CONTRACTOR,,,,,,,,,,,"TERMEER DESIGN GROUP",,,,,"TERMEER DESIGN GROUP","314 SAWDUST RD STE 110",SPRING,TX,77380-2345,"(281) 292-8400",,,,
TX,MONTGOMERY,183699-21,"Single Family Homes",5/5/2021,,200000,,"12626 SHEPARD HILL ROAD",HOUSTON,TX,77356,,,"JOEL TIGLAO","12626 SHEPARD HILL ROAD",WILLIS,TX,77318,,Owner,,,,,OWNER,,,,,OWNER,,,,,,,,,
TX,MONTGOMERY,183708-21,"Single Family Homes",5/5/2021,,320000,,"8527 TYNAN RIDGE DR",HOUSTON,TX,77356,NORTHGROVE,,CONTRACTOR,,,,,,,,,,,"TOLL BROTHERS",,,,,"TOLL BROTHERS","10110 W SAM HOUSTON PKWY N STE 350",HOUSTON,TX,77064-7508,"(281) 664-7255",,,,
TX,MONTGOMERY,183709-21,"Single Family Homes",5/5/2021,,350000,,"8523 TYNAN RIDGE DR",HOUSTON,TX,77356,NORTHGROVE,,CONTRACTOR,,,,,,,,,,,"TOLL BROTHERS",,,,,"TOLL BROTHERS","10110 W SAM HOUSTON PKWY N STE 350",HOUSTON,TX,77064-7508,"(281) 664-7255",,,,
TX,MONTGOMERY,183710-21,"Single Family Homes",5/5/2021,,330000,,"8527 TOMBRON GROVE ROAD",HOUSTON,TX,77356,NORTHGROVE,,CONTRACTOR,,,,,,,,,,,"TOLL BROTHERS",,,,,"TOLL BROTHERS","10110 W SAM HOUSTON PKWY N STE 350",HOUSTON,TX,77064-7508,"(281) 664-7255",,,,
TX,MONTGOMERY,183711-21,"Single Family Homes",5/5/2021,,330000,,"27130 BOLTE BRIDGE DR",HOUSTON,TX,77356,NORTHGROVE,,CONTRACTOR,,,,,,,,,,,"TOLL BROTHERS",,,,,"TOLL BROTHERS","10110 W SAM HOUSTON PKWY N STE 350",HOUSTON,TX,77064-7508,"(281) 664-7255",,,,
TX,MONTGOMERY,183712-21,"Single Family Homes",5/5/2021,,330000,,"8526 TOMBRON GROVE ROAD",HOUSTON,TX,77356,NORTHGROVE,,CONTRACTOR,,,,,,,,,,,"TOLL BROTHERS",,,,,"TOLL BROTHERS","10110 W SAM HOUSTON PKWY N STE 350",HOUSTON,TX,77064-7508,"(281) 664-7255",,,,
TX,MONTGOMERY,183714-21,"Single Family Homes",5/5/2021,,350000,,"8546 TOMBRON GROVE ROAD",HOUSTON,TX,77356,NORTHGROVE,,CONTRACTOR,,,,,,,,,,,"TOLL BROTHERS",,,,,"TOLL BROTHERS","10110 W SAM HOUSTON PKWY N STE 350",HOUSTON,TX,77064-7508,"(281) 664-7255",,,,
TX,MONTGOMERY,183717-21,"Single Family Homes",5/5/2021,,320000,,"8514 TYNAN RIDGE DR",HOUSTON,TX,77356,NORTHGROVE,,CONTRACTOR,,,,,,,,,,,"TOLL BROTHERS",,,,,"TOLL BROTHERS","10110 W SAM HOUSTON PKWY N STE 350",HOUSTON,TX,77064-7508,"(281) 664-7255",,,,
TX,MONTGOMERY,183770-21,"Single Family Homes",5/6/2021,,215750,,"28418 SUNRISE VIEW DR",HOUSTON,TX,77356,"WOODSONS RESERVE",,CONTRACTOR,,,,,,,,,,,"TOLL BROTHERS",,,,,"TOLL BROTHERS","10110 W SAM HOUSTON PKWY N STE 350",HOUSTON,TX,77064-7508,"(281) 664-7255",,,,
TX,MONTGOMERY,183771-21,"Single Family Homes",5/6/2021,,229900,,"28336 WOODSONS FOREST DR",HOUSTON,TX,77356,"WOODSONS RESERVE",,CONTRACTOR,,,,,,,,,,,"TOLL BROTHERS",,,,,"TOLL BROTHERS","10110 W SAM HOUSTON PKWY N STE 350",HOUSTON,TX,77064-7508,"(281) 664-7255",,,,
TX,MONTGOMERY,183610-21,"Single Family Homes",5/3/2021,,204880,,"1108 SIENNA FOREST LN",HOUSTON,TX,77356,WOODTRACE,,CONTRACTOR,,,,,,,,,,,"VILLAGE BUILDERS",,,,,"VILLAGE BUILDERS","550 GREENS PKWY STE 210",HOUSTON,TX,77067-4538,"(281) 873-4663",,,,
TX,MONTGOMERY,183585-21,"Single Family Homes",5/3/2021,,140160,,"9793 STEWART SPRINGS CT",HOUSTON,TX,77356,"THE RESERVE",,CONTRACTOR,,,,,,,,,,,"WAN BRIDGE LAND LLC",,,,,"WAN BRIDGE LAND LLC","5210 SPRUCE ST",BELLAIRE,TX,77401,"(713) 564-5331",https://wanbridge.com/,,,
TX,MONTGOMERY,183586-21,"Single Family Homes",5/3/2021,,146820,,"9678 STEWART SPRINGS BLVD",HOUSTON,TX,77356,"THE RESERVE ON LAKE",,CONTRACTOR,,,,,,,,,,,"WAN BRIDGE LAND LLC",,,,,"WAN BRIDGE LAND LLC","5210 SPRUCE ST",BELLAIRE,TX,77401,"(713) 564-5331",https://wanbridge.com/,,,
TX,MONTGOMERY,183587-21,"Single Family Homes",5/3/2021,,146820,,"9670 STEWART SPRINGS BLVD",HOUSTON,TX,77356,"THE RESERVE ON LAKE",,CONTRACTOR,,,,,,,,,,,"WAN BRIDGE LAND LLC",,,,,"WAN BRIDGE LAND LLC","5210 SPRUCE ST",BELLAIRE,TX,77401,"(713) 564-5331",https://wanbridge.com/,,,
TX,MONTGOMERY,183588-21,"Single Family Homes",5/3/2021,,140160,,"9622 STEWART SPRINGS BLVD",HOUSTON,TX,77356,"THE RESERVE",,CONTRACTOR,,,,,,,,,,,"WAN BRIDGE LAND LLC",,,,,"WAN BRIDGE LAND LLC","5210 SPRUCE ST",BELLAIRE,TX,77401,"(713) 564-5331",https://wanbridge.com/,,,
TX,MONTGOMERY,183589-21,"Single Family Homes",5/3/2021,,140160,,"9618 STEWART SPRINGS BLVD",HOUSTON,TX,77356,"THE RESERVE",,CONTRACTOR,,,,,,,,,,,"WAN BRIDGE LAND LLC",,,,,"WAN BRIDGE LAND LLC","5210 SPRUCE ST",BELLAIRE,TX,77401,"(713) 564-5331",https://wanbridge.com/,,,
TX,MONTGOMERY,183590-21,"Single Family Homes",5/3/2021,,146820,,"9606 STEWART SPRINGS BLVD",HOUSTON,TX,77356,"THE RESERVE",,CONTRACTOR,,,,,,,,,,,"WAN BRIDGE LAND LLC",,,,,"WAN BRIDGE LAND LLC","5210 SPRUCE ST",BELLAIRE,TX,77401,"(713) 564-5331",https://wanbridge.com/,,,
TX,MONTGOMERY,183591-21,"Single Family Homes",5/3/2021,,146820,,"18611 LAKE HOLLOW CT",HOUSTON,TX,77356,"THE RESERVE",,CONTRACTOR,,,,,,,,,,,"WAN BRIDGE LAND LLC",,,,,"WAN BRIDGE LAND LLC","5210 SPRUCE ST",BELLAIRE,TX,77401,"(713) 564-5331",https://wanbridge.com/,,,
TX,MONTGOMERY,183593-21,"Single Family Homes",5/3/2021,,146820,,"9627 STEWART SPRINGS BLVD",HOUSTON,TX,77356,"THE RESERVE",,CONTRACTOR,,,,,,,,,,,"WAN BRIDGE LAND LLC",,,,,"WAN BRIDGE LAND LLC","5210 SPRUCE ST",BELLAIRE,TX,77401,"(713) 564-5331",https://wanbridge.com/,,,
TX,MONTGOMERY,183594-21,"Single Family Homes",5/3/2021,,146820,,"18612 LAKE HOLLOW CT",HOUSTON,TX,77356,"THE RESERVE",,CONTRACTOR,,,,,,,,,,,"WAN BRIDGE LAND LLC",,,,,"WAN BRIDGE LAND LLC","5210 SPRUCE ST",BELLAIRE,TX,77401,"(713) 564-5331",https://wanbridge.com/,,,
TX,MONTGOMERY,183595-21,"Single Family Homes",5/3/2021,,140160,,"9725 SOUTH LAKEVIEW MIST CT",HOUSTON,TX,77356,"THE RESERVE",,CONTRACTOR,,,,,,,,,,,"WAN BRIDGE LAND LLC",,,,,"WAN BRIDGE LAND LLC","5210 SPRUCE ST",BELLAIRE,TX,77401,"(713) 564-5331",https://wanbridge.com/,,,
TX,MONTGOMERY,183596-21,"Single Family Homes",5/3/2021,,135660,,"9813 STEWART SPRINGS CT",HOUSTON,TX,77356,"THE RESERVE ON LAKE CONROE",,CONTRACTOR,,,,,,,,,,,"WAN BRIDGE LAND LLC",,,,,"WAN BRIDGE LAND LLC","5210 SPRUCE ST",BELLAIRE,TX,77401,"(713) 564-5331",https://wanbridge.com/,,,
TX,MONTGOMERY,183598-21,"Single Family Homes",5/3/2021,,140160,,"9778 STEWART SPRINGS CT",HOUSTON,TX,77356,"THE RESERVE ON LAKE CONROE",,CONTRACTOR,,,,,,,,,,,"WAN BRIDGE LAND LLC",,,,,"WAN BRIDGE LAND LLC","5210 SPRUCE ST",BELLAIRE,TX,77401,"(713) 564-5331",https://wanbridge.com/,,,
TX,MONTGOMERY,183828-21,"Single Family Homes",5/7/2021,,371990,,"17516 AUTUMN LEAVES DR",HOUSTON,TX,77356,ARTAVIA,,CONTRACTOR,,,,,,,,,,,"DAVID WEEKLEY HOMES",,,,,"DAVID WEEKLEY HOMES","14444 NORTHWEST",HOUSTON,TX,77040,"(713) 570-5021",http://www.davidweekleyhomes.com/,,,
TX,MONTGOMERY,183829-21,"Single Family Homes",5/7/2021,,402990,,"17512 AUTUMN LEAVES DR",HOUSTON,TX,77356,ARTAVIA,,CONTRACTOR,,,,,,,,,,,"DAVID WEEKLEY HOMES",,,,,"DAVID WEEKLEY HOMES","14444 NORTHWEST",HOUSTON,TX,77040,"(713) 570-5021",http://www.davidweekleyhomes.com/,,,
TX,MONTGOMERY,183830-21,"Single Family Homes",5/7/2021,,366990,,"17408 VIOLET VINEYARD ST",HOUSTON,TX,77356,ARTAVIA,,CONTRACTOR,,,,,,,,,,,"DAVID WEEKLEY HOMES",,,,,"DAVID WEEKLEY HOMES","14444 NORTHWEST",HOUSTON,TX,77040,"(713) 570-5021",http://www.davidweekleyhomes.com/,,,
TX,MONTGOMERY,183831-21,"Single Family Homes",5/7/2021,,370990,,"17503 AUTUMN LEAVES DR",HOUSTON,TX,77356,ARTAVIA,,CONTRACTOR,,,,,,,,,,,"DAVID WEEKLEY HOMES",,,,,"DAVID WEEKLEY HOMES","14444 NORTHWEST",HOUSTON,TX,77040,"(713) 570-5021",http://www.davidweekleyhomes.com/,,,
TX,MONTGOMERY,183833-21,"Single Family Homes",5/7/2021,,384990,,"17404 VIOLET VINEYARD ST",HOUSTON,TX,77356,ARTAVIA,,CONTRACTOR,,,,,,,,,,,"DAVID WEEKLEY HOMES",,,,,"DAVID WEEKLEY HOMES","14444 NORTHWEST",HOUSTON,TX,77040,"(713) 570-5021",http://www.davidweekleyhomes.com/,,,
TX,MONTGOMERY,183834-21,"Single Family Homes",5/7/2021,,390990,,"17520 AUTUMN LEAVES DR",HOUSTON,TX,77356,ARTAVIA,,CONTRACTOR,,,,,,,,,,,"DAVID WEEKLEY HOMES",,,,,"DAVID WEEKLEY HOMES","14444 NORTHWEST",HOUSTON,TX,77040,"(713) 570-5021",http://www.davidweekleyhomes.com/,,,
TX,MONTGOMERY,183656-21,"Single Family Homes",5/4/2021,,259000,,"25313 MOUNTAIN AIR DR",HOUSTON,TX,77356,"WOODRIDGE FOREST",,CONTRACTOR,,,,,,,,,,,"WESTIN HOMES",,,,,"WESTIN HOMES","1 SUGAR CREEK CENTER BLVD STE 600","SUGAR LAND",TX,77478-3787,"(281) 240-1551",http://www.westin-homes.com,,,
TX,MONTGOMERY,183659-21,"Single Family Homes",5/4/2021,,243000,,"8207 CHARTRES WIND DR",HOUSTON,TX,77356,NORTHGROVE,,CONTRACTOR,,,,,,,,,,,"WESTIN HOMES",,,,,"WESTIN HOMES","1 SUGAR CREEK CENTER BLVD STE 600","SUGAR LAND",TX,77478-3787,"(281) 240-1551",http://www.westin-homes.com,,,
TX,MONTGOMERY,183660-21,"Single Family Homes",5/4/2021,,243000,,"15113 MAHOGANY TRAILS",HOUSTON,TX,77356,ARTAVIA,,CONTRACTOR,,,,,,,,,,,"WESTIN HOMES",,,,,"WESTIN HOMES","1 SUGAR CREEK CENTER BLVD STE 600","SUGAR LAND",TX,77478-3787,"(281) 240-1551",http://www.westin-homes.com,,,
TX,MONTGOMERY,183763-21,"Single Family Homes",5/6/2021,,270000,,"17638 BLUSHING MEADOW ST",HOUSTON,TX,77356,ARTAVIA,,CONTRACTOR,,,,,,,,,,,"WESTIN HOMES",,,,,"WESTIN HOMES","1 SUGAR CREEK CENTER BLVD STE 600","SUGAR LAND",TX,77478-3787,"(281) 240-1551",http://www.westin-homes.com,,,
TX,MONTGOMERY,183765-21,"Single Family Homes",5/6/2021,,260000,,"8702 BURDEKIN ROAD",HOUSTON,TX,77356,NORTHGROVE,,CONTRACTOR,,,,,,,,,,,"WESTIN HOMES",,,,,"WESTIN HOMES","1 SUGAR CREEK CENTER BLVD STE 600","SUGAR LAND",TX,77478-3787,"(281) 240-1551",http://www.westin-homes.com,,,
TX,MONTGOMERY,2021-32290,"Single Family Homes",5/18/2021,,250000,11592,"190 N BAGDAD RD",AUSTIN,TX,78641,,,CONTRACTOR,,,,,,,,,,,"ATX PERMIT & CONSULTING",,,,,"ATX PERMIT & CONSULTING","4408 SPICEWOOD SPRINGS RD",AUSTIN,TX,78759-8504,"(512) 320-4151",,,"LILA NELSON",
TX,MONTGOMERY,2021-5,"Single Family Homes",5/17/2021,,260000,2103,"16633 CIMMARON DR",STAGECOACH,TX,77355,,,"JPWC GROUP","P. O. BOX 648",NAVASOTA,TX,77868,,Owner,,,,,"MBC MANAGEMENT ",,,,,"MBC MANAGEMENT ","1015 HIGHWAY 6 LOOP",NAVASOTA,TX,77868,"(936) 825-1603",,,"WAYNE BLAIR",
TX,GALVESTON,35818-21,"Single Family Homes",5/26/2021,,40960,,"1840 POMPANO",HOUSTON,TX,77356,,,"ALAN CRAMER","1840 POMPANO",HOUSTON,TX,77356,,Owner,,,,,OWNER,,,,,OWNER,,,,,,,,,
TX,GALVESTON,35805-21,"Single Family Homes",5/26/2021,,53725,,"885 GULF RD",GALVESTON,TX,77450,,,"LEBLANC INVESTMENTS","2620 WOODEN SHOE",NEDERLAND,TX,77627,,Owner,,,,,OWNER,,,,,OWNER,,,,,,,,,
TX,GALVESTON,35803-21,"Single Family Homes",5/26/2021,,67237,,"968 PELICAN",HOUSTON,TX,77650,,,CONTRACTOR,,,,,,,,,,,"C & G INTERNATIONAL",,,,,"C & G INTERNATIONAL","3159 SUMMIT","PT NECHES",TX,77651,"(409) 720-7022",,,,
TX,GALVESTON,35802-21,"Single Family Homes",5/26/2021,,50662,,"5203 AUTUMN LN",HOUSTON,TX,77356,,,"GERALD & TERESA ESQUIVEL","5203 AUTUMN LN",HOUSTON,TX,77356,,Owner,,,,,"TILSON HOMES",,,,,"TILSON HOMES","411 DURHAM DR STE 209",HOUSTON,TX,77007-7240,"(512) 217-1360",,,,
TX,GALVESTON,35801-21,"Single Family Homes",5/26/2021,,83012,,"4402 HA TIE RAS",HOUSTON,TX,77356,,,"ALEX DONALSON","110 JORDEN GAGE",LUMBERTON,TX,77657,,Owner,,,,,OWNER,,,,,OWNER,,,,,,,,,
TX,GALVESTON,35800-21,"Single Family Homes",5/26/2021,,63407,,"796 HWY 87",HOUSTON,TX,77356,,,"BBCRV PARTNERS LLC","1709 HUNTERS TRAIL",FRIENDSWOOD,TX,77546,"(281) 639-0451",Owner,,,,,OWNER,,,,,OWNER,,,,,,,,,
TX,GALVESTON,35781-21,"Single Family Homes",5/20/2021,,63930,,"2282 E LOBSTER",HOUSTON,TX,77356,,,"GALVESTON DEVELOPMENT LLC","PO BOX 1395","CRYSTAL BEACH",TX,77356,,Owner,,,,,"WALZ FAMILY BUILDERS",,,,,"WALZ FAMILY BUILDERS","PO BOX 1395","CRYSTAL BEACH",TX,77650-1395,"(409) 684-8011",http://walzfamilybuilders.com/,,,WalzFamily@walzfamilybuilders.com
TX,GALVESTON,35778-21,"Single Family Homes",5/20/2021,,81735,,"6625 AVE F",HOUSTON,TX,77450,,,"STEVEN & WHITNEY BEALL","6637 AVE F","SANTA FE ",TX,77511,,Owner,,,,,"AMERICAS HOME PLACE",,,,,"AMERICAS HOME PLACE","1200 N BYPASS 35 STE 8100",ALVIN,TX,77511,"(409) 762-9000",https://www.americashomeplace.com/,,,
TX,GALVESTON,35777-21,"Single Family Homes",5/20/2021,,100710,,"1414 BUNYARD",HOUSTON,TX,77356,,,"STEVE & SHERYL GUSS","1414 BUNYARD",ALGOA,TX,77511,,Owner,,,,,"AMERICAS HOME PLACE",,,,,"AMERICAS HOME PLACE","1200 N BYPASS 35 STE 8100",ALVIN,TX,77511,"(409) 762-9000",https://www.americashomeplace.com/,,,
TX,GALVESTON,35776-21,"Single Family Homes",5/20/2021,,74627,,"3713 BISCAYNE BEACH RD",HOUSTON,TX,77356,,,"STEVE & RACHEL HENDERSON","902 COZY HOLLOW CT",FRIENDSWOOD,TX,77546,,Owner,,,,,"MARK WILLIAMS CONSTRUCTION ",,,,,"MARK WILLIAMS CONSTRUCTION ","PO BOX 7526",BEAUMONT,TX,77726-7526,"(409) 684-3333",,"(409) 832-0773","MARK WILLIAMS",markwillhb@mac.com
TX,GALVESTON,35775-21,"Single Family Homes",5/20/2021,,50400,,"3291 HIDDEN GOLD",HOUSTON,TX,77356,,,"GILL LAND CO LLC","7039 32ND ST",GROVES,TX,77619,,Owner,,,,,OWNER,,,,,OWNER,,,,,,,,,
TX,GALVESTON,35749-21,"Single Family Homes",5/17/2021,,68400,,"243 16TH ST",HOUSTON,TX,77356,,,"HUGO & PATRICIA VELAZQUEZ","243 16TH ST","SAN LEON",TX,77539,,Owner,,,,,OWNER,,,,,OWNER,,,,,,,,,
TX,GALVESTON,35747-21,"Single Family Homes",5/13/2021,,51245,,"979 SEAGULL",HOUSTON,TX,77356,,,"JOHN GREENE","PO BOX 2043",NEDERLAND,TX,77627,,Owner,,,,,OWNER,,,,,OWNER,,,,,,,,,
TX,GALVESTON,35748-21,"Single Family Homes",5/13/2021,,47480,,"3709 OAKVIEW",HOUSTON,TX,77450,,,"MIKE BOONE","PO BOX 9182",BACLIFF,TX,77518,,Owner,,,,,OWNER,,,,,OWNER,,,,,,,,,
TX,GALVESTON,35727-21,"Single Family Homes",5/11/2021,,74495,,"899 BOWERS",HOUSTON,TX,77356,,,"NICK ROGERS","899 BOWERS",HOUSTON,TX,77356,,Owner,,,,,OWNER,,,,,OWNER,,,,,,,,,
TX,GALVESTON,35705-21,"Single Family Homes",5/7/2021,,43780,,"143 VERDIA",HOUSTON,TX,77356,,,"BRIAN & ERIKA HARRIS","143 VERDIA",HOUSTON,TX,77356,,Owner,,,,,OWNER,,,,,OWNER,,,,,,,,,
TX,GALVESTON,35704-21,"Single Family Homes",5/7/2021,,69407,,"3734 MARBLE",HOUSTON,TX,77450,,,KIRKGIVLER,"3734 MARBLE",HOUSTON,TX,77450,,Owner,,,,,OWNER,,,,,OWNER,,,,,,,,,
TX,GALVESTON,"35691 -21","Single Family Homes",5/4/2021,,64600,,"2405 HWY 87",HOUSTON,TX,77450,,,CONTRACTOR,,,,,,,,,,,"ARON NANCE",,,,,"ARON NANCE","PO BOX 1297","CRYSTAL BEACH",TX,77650,"(214) 914-5140",,,,
TX,GALVESTON,35692-21,"Single Family Homes",5/4/2021,,61070,,"928 KENT",HOUSTON,TX,77356,,,CONTRACTOR,,,,,,,,,,,"NXT PROPERTIES",,,,,"NXT PROPERTIES","2525 IH 10 EAST",ORANGE,TX,77630,"(409) 883-4000",,,,
TX,BELL,2021-6935,"Single Family Homes",5/5/2021,,309000,2718,"525 HOLSTEIN DR",BELTON,TX,76513,,,CONTRACTOR,,,,,,,,,,,"CAROTHERS EXECUTIVE HOMES",,,,,"CAROTHERS EXECUTIVE HOMES","50 S WHEAT RD",BELTON,TX,76513-8220,"(254) 773-0600",http://carothersexecutivehomes.com/,"(254) 791-0323","DAVID SOUTHERLAND",
TX,BELL,2021-6936,"Single Family Homes",5/5/2021,,266000,2711,"605 HOLSTEIN DR",BELTON,TX,76513,,,CONTRACTOR,,,,,,,,,,,"CAROTHERS EXECUTIVE HOMES",,,,,"CAROTHERS EXECUTIVE HOMES","50 S WHEAT RD",BELTON,TX,76513-8220,"(254) 773-0600",http://carothersexecutivehomes.com/,"(254) 791-0323","DAVID SOUTHERLAND",
TX,BELL,2021-6937,"Single Family Homes",5/5/2021,,,3259,"3620 ADAIR DR",BELTON,TX,76513,,,CONTRACTOR,,,,,,,,,,,"BJ CAROTHERS HOMES",,,,,"BJ CAROTHERS HOMES","5500 JIM AVENUE",KILLEEN,TX,76549,"(254) 519-2682",,,,
TX,BELL,2021-6938,"Single Family Homes",5/5/2021,,379250,3394,"3230 INGRAM CIRCLE",BELTON,TX,76513,,,CONTRACTOR,,,,,,,,,,,"CAROTHERS EXECUTIVE HOMES",,,,,"CAROTHERS EXECUTIVE HOMES","50 S WHEAT RD",BELTON,TX,76513-8220,"(254) 773-0600",http://carothersexecutivehomes.com/,"(254) 791-0323","DAVID SOUTHERLAND",
TX,BELL,2021-6939,"Single Family Homes",5/5/2021,,586000,4145,"3212 WAGGONER DR",BELTON,TX,76513,,,CONTRACTOR,,,,,,,,,,,"CAROTHERS EXECUTIVE HOMES",,,,,"CAROTHERS EXECUTIVE HOMES","50 S WHEAT RD",BELTON,TX,76513-8220,"(254) 773-0600",http://carothersexecutivehomes.com/,"(254) 791-0323","DAVID SOUTHERLAND",
TX,BELL,2021-6941,"Single Family Homes",5/5/2021,,112140,1672,"1214 ADAM LN",BELTON,TX,76513,,,CONTRACTOR,,,,,,,,,,,"KB HOME",,,,,"KB HOME","11314 RICHMOND AVE",HOUSTON,TX,77082-2616,"(281) 668-3800",,,,
TX,BELL,2021-6945,"Single Family Homes",5/6/2021,,216270,2956,"1310 DANIEL DR",BELTON,TX,76513,,,CONTRACTOR,,,,,,,,,,,"KB HOME",,,,,"KB HOME","11314 RICHMOND AVE",HOUSTON,TX,77082-2616,"(281) 668-3800",,,,
TX,BELL,2021-6956,"Single Family Homes",5/10/2021,,212000,3205,"2635 BELLE HUBBARD TR",BELTON,TX,76513,,,CONTRACTOR,,,,,,,,,,,"EAGLE HOMES",,,,,"EAGLE HOMES","1202 MILDRED LEE LN","HARKER HEIGHTS",TX,76548-1535,"(254) 393-0055",,,,
TX,BELL,2021-6957,"Single Family Homes",5/10/2021,,210000,3040,"2643 BELLE HUBBARD TR",BELTON,TX,76513,,,CONTRACTOR,,,,,,,,,,,"EAGLE HOMES",,,,,"EAGLE HOMES","1202 MILDRED LEE LN","HARKER HEIGHTS",TX,76548-1535,"(254) 393-0055",,,,
TX,BELL,2021-6958,"Single Family Homes",5/10/2021,,212000,3205,"2651 BELLE HUBBARD TR",BELTON,TX,76513,,,CONTRACTOR,,,,,,,,,,,"EAGLE HOMES",,,,,"EAGLE HOMES","1202 MILDRED LEE LN","HARKER HEIGHTS",TX,76548-1535,"(254) 393-0055",,,,
TX,BELL,2021-6959,"Single Family Homes",5/3/2021,,212000,3205,"2652 COWGIRL TR",BELTON,TX,76513,,,CONTRACTOR,,,,,,,,,,,"EAGLE HOMES",,,,,"EAGLE HOMES","1202 MILDRED LEE LN","HARKER HEIGHTS",TX,76548-1535,"(254) 393-0055",,,,
TX,BELL,2021-6960,"Single Family Homes",5/10/2021,,198000,3281,"2644 COWGIRL TR",BELTON,TX,76513,,,CONTRACTOR,,,,,,,,,,,"EAGLE HOMES",,,,,"EAGLE HOMES","1202 MILDRED LEE LN","HARKER HEIGHTS",TX,76548-1535,"(254) 393-0055",,,,
TX,BELL,2021-6967,"Single Family Homes",5/11/2021,,212000,3205,"2604 COWGIRL TR",BELTON,TX,76513,,,CONTRACTOR,,,,,,,,,,,"EAGLE HOMES",,,,,"EAGLE HOMES","1202 MILDRED LEE LN","HARKER HEIGHTS",TX,76548-1535,"(254) 393-0055",,,,
TX,BELL,2021-6978,"Single Family Homes",5/12/2021,,140000,2200,"2557 BELLE HUBBARD TR",BELTON,TX,76513,,,CONTRACTOR,,,,,,,,,,,"JUBILEE HOMES",,,,,"JUBILEE HOMES","125 E BEELINE LN","HARKER HEIGHTS",TX,76548-1261,"(254) 699-0010",,,,
TX,BELL,2021-6979,"Single Family Homes",5/12/2021,,140000,2532,"2561 BELLE HUBBARD TR",BELTON,TX,76513,,,CONTRACTOR,,,,,,,,,,,"JUBILEE HOMES",,,,,"JUBILEE HOMES","125 E BEELINE LN","HARKER HEIGHTS",TX,76548-1261,"(254) 699-0010",,,,
TX,BELL,2021-6980,"Single Family Homes",5/12/2021,,140000,2091,"2573 BELLE HUBBARD",BELTON,TX,76513,,,CONTRACTOR,,,,,,,,,,,"JUBILEE HOMES",,,,,"JUBILEE HOMES","125 E BEELINE LN","HARKER HEIGHTS",TX,76548-1261,"(254) 699-0010",,,,
TX,BELL,2021-6985,"Single Family Homes",5/14/2021,,225180,3030,"1318 DANIEL DR",BELTON,TX,76513,,,CONTRACTOR,,,,,,,,,,,"KB HOME",,,,,"KB HOME","11314 RICHMOND AVE",HOUSTON,TX,77082-2616,"(281) 668-3800",,,,
TX,BELL,2021-7018,"Single Family Homes",5/21/2021,,197715,2580,"3321 CHARBRAY DR",BELTON,TX,76513,,,CONTRACTOR,,,,,,,,,,,"PRECISION VALUE HOMES",,,,,"PRECISION VALUE HOMES","14304 E BUSINESS 190","COPPERAS COVE",TX,76522-6267,"(254) 290-7826",http://www.pvhtx.com/,"(254) 518-1130","BO HOLLOMAN",pvhtx@yahoo.com
TX,BELL,2021-7019,"Single Family Homes",5/25/2021,,217080,2961,"1314 DANIEL DR",BELTON,TX,76513,,,CONTRACTOR,,,,,,,,,,,"KB HOME",,,,,"KB HOME","11314 RICHMOND AVE",HOUSTON,TX,77082-2616,"(281) 668-3800",,,,
TX,BELL,2021-7021,"Single Family Homes",5/25/2021,,181115,2219,"2668 BELLE HUBBARD TR",BELTON,TX,76513,,,CONTRACTOR,,,,,,,,,,,"PRECISION VALUE HOMES",,,,,"PRECISION VALUE HOMES","14304 E BUSINESS 190","COPPERAS COVE",TX,76522-6267,"(254) 290-7826",http://www.pvhtx.com/,"(254) 518-1130","BO HOLLOMAN",pvhtx@yahoo.com
TX,BELL,2021-7027,"Single Family Homes",5/25/2021,,225180,3030,"1228 ADAM LN",BELTON,TX,76513,,,CONTRACTOR,,,,,,,,,,,"KB HOME",,,,,"KB HOME","11314 RICHMOND AVE",HOUSTON,TX,77082-2616,"(281) 668-3800",,,,
TX,BELL,2021-7038,"Single Family Homes",5/27/2021,,194195,2655,"1703 FOSSIL TR",BELTON,TX,76513,,,CONTRACTOR,,,,,,,,,,,"PRECISION VALUE HOMES",,,,,"PRECISION VALUE HOMES","14304 E BUSINESS 190","COPPERAS COVE",TX,76522-6267,"(254) 290-7826",http://www.pvhtx.com/,"(254) 518-1130","BO HOLLOMAN",pvhtx@yahoo.com
TX,BELL,2021-7039,"Single Family Homes",5/27/2021,,199715,2580,"1711 FOSSIL TR",BELTON,TX,76513,,,CONTRACTOR,,,,,,,,,,,"PRECISION VALUE HOMES",,,,,"PRECISION VALUE HOMES","14304 E BUSINESS 190","COPPERAS COVE",TX,76522-6267,"(254) 290-7826",http://www.pvhtx.com/,"(254) 518-1130","BO HOLLOMAN",pvhtx@yahoo.com
TX,BELL,2021-7040,"Single Family Homes",5/27/2021,,193015,2608,"1719 FOSSIL TR",BELTON,TX,76513,,,CONTRACTOR,,,,,,,,,,,"PRECISION VALUE HOMES",,,,,"PRECISION VALUE HOMES","14304 E BUSINESS 190","COPPERAS COVE",TX,76522-6267,"(254) 290-7826",http://www.pvhtx.com/,"(254) 518-1130","BO HOLLOMAN",pvhtx@yahoo.com
TX,BELL,2021-7041,"Single Family Homes",5/27/2021,,218340,3064,"1707 FOSSIL TR",BELTON,TX,76513,,,CONTRACTOR,,,,,,,,,,,"PRECISION VALUE HOMES",,,,,"PRECISION VALUE HOMES","14304 E BUSINESS 190","COPPERAS COVE",TX,76522-6267,"(254) 290-7826",http://www.pvhtx.com/,"(254) 518-1130","BO HOLLOMAN",pvhtx@yahoo.com
TX,BELL,2021-7042,"Single Family Homes",5/27/2021,,194815,2655,"3317 CHARBRAY DR",BELTON,TX,76513,,,CONTRACTOR,,,,,,,,,,,"PRECISION VALUE HOMES",,,,,"PRECISION VALUE HOMES","14304 E BUSINESS 190","COPPERAS COVE",TX,76522-6267,"(254) 290-7826",http://www.pvhtx.com/,"(254) 518-1130","BO HOLLOMAN",pvhtx@yahoo.com
TX,BELL,2021-7043,"Single Family Homes",5/28/2021,,159900,2529,"2624 CEDAR GLEN DR",BELTON,TX,76513,,,CONTRACTOR,,,,,,,,,,,"ASHFORD HOMES",,,,,"ASHFORD HOMES","3800 E STAN SCHLUETER LOOP STE 107",KILLEEN,TX,76542-4558,"(254) 699-8485",,,,
TX,MONTGOMERY,21-0396,"Single Family Homes",5/14/2021,,121095,1863,"13430 CANNON CREEK CT",WILLIS,TX,77318,"SOUTH MEADOWS",82,CONTRACTOR,,,,,,,,,,,"LEGEND HOMES",,,,,"LEGEND HOMES","10410 WINDAMERE LAKES BLVD",HOUSTON,TX,77065-4996,"(281) 671-9060",http://legendhomecorp.com/,"(281) 671-9055",,
TX,MONTGOMERY,21-0399,"Single Family Homes",5/14/2021,,169975,2615,"13442 CANNON CREEK CT",WILLIS,TX,77318,"SOUTH MEADOWS",,CONTRACTOR,,,,,,,,,,,"LEGEND HOMES",,,,,"LEGEND HOMES","10410 WINDAMERE LAKES BLVD",HOUSTON,TX,77065-4996,"(281) 671-9060",http://legendhomecorp.com/,"(281) 671-9055",,
TX,MONTGOMERY,21-0402,"Single Family Homes",5/14/2021,,172770,2658,"13422 CANNON CREEK CT",WILLIS,TX,77318,"SOUTH MEADOWS",,CONTRACTOR,,,,,,,,,,,"LEGEND HOMES",,,,,"LEGEND HOMES","10410 WINDAMERE LAKES BLVD",HOUSTON,TX,77065-4996,"(281) 671-9060",http://legendhomecorp.com/,"(281) 671-9055",,
TX,MONTGOMERY,21-0405,"Single Family Homes",5/14/2021,,121680,1872,"13426 CANNON CREEK CT",WILLIS,TX,77318,"SOUTH MEADOWS",,CONTRACTOR,,,,,,,,,,,"LEGEND HOMES",,,,,"LEGEND HOMES","10410 WINDAMERE LAKES BLVD",HOUSTON,TX,77065-4996,"(281) 671-9060",http://legendhomecorp.com/,"(281) 671-9055",,
TX,MONTGOMERY,21-0408,"Single Family Homes",5/14/2021,,149110,,"13418 CANNON CREEK CT",WILLIS,TX,77318,"SOUTH MEADOWS",,CONTRACTOR,,,,,,,,,,,"LEGEND HOMES",,,,,"LEGEND HOMES","10410 WINDAMERE LAKES BLVD",HOUSTON,TX,77065-4996,"(281) 671-9060",http://legendhomecorp.com/,"(281) 671-9055",,
TX,MONTGOMERY,21-0411,"Single Family Homes",5/14/2021,,149110,2294,"13434 CANNON CREEK CT",WILLIS,TX,77318,"SOUTH MEADOWS",,CONTRACTOR,,,,,,,,,,,"LEGEND HOMES",,,,,"LEGEND HOMES","10410 WINDAMERE LAKES BLVD",HOUSTON,TX,77065-4996,"(281) 671-9060",http://legendhomecorp.com/,"(281) 671-9055",,
TX,MONTGOMERY,21-0414,"Single Family Homes",5/14/2021,,163410,2514,"13438 CANNON CREEK CT",WILLIS,TX,77318,"SOUTH MEADOWS",,CONTRACTOR,,,,,,,,,,,"AMERICAN LEGEND HOMES",,,,,"AMERICAN LEGEND HOMES","2540 KING ARTHUR BLVD STE 200",LEWISVILLE,TX,75056-5833,"(972) 410-5701",http://www.amlegendhomes.com/,"(972) 410-5750",,
TX,MONTGOMERY,21-0417,"Single Family Homes",5/14/2021,,166790,2566,"13446 CANNON CREEK CT",WILLIS,TX,77318,"SOUTH MEADOWS",,CONTRACTOR,,,,,,,,,,,"LEGEND HOMES",,,,,"LEGEND HOMES","10410 WINDAMERE LAKES BLVD",HOUSTON,TX,77065-4996,"(281) 671-9060",http://legendhomecorp.com/,"(281) 671-9055",,
TX,MONTGOMERY,21-0486,"Single Family Homes",4/6/2021,,121680,1872,"13409 CANNON CREEK CT",WILLIS,TX,77318,"SOUTH MEADOWS",,CONTRACTOR,,,,,,,,,,,"LEGEND HOMES",,,,,"LEGEND HOMES","10410 WINDAMERE LAKES BLVD",HOUSTON,TX,77065-4996,"(281) 671-9060",http://legendhomecorp.com/,"(281) 671-9055",,
TX,MONTGOMERY,21-0494,"Single Family Homes",4/6/2021,,141765,,"13413 CANNON CREEK CT",WILLIS,TX,77318,"SOUTH MEADOWS",71,CONTRACTOR,,,,,,,,,,,"LEGEND HOMES",,,,,"LEGEND HOMES","10410 WINDAMERE LAKES BLVD",HOUSTON,TX,77065-4996,"(281) 671-9060",http://legendhomecorp.com/,"(281) 671-9055",,
TX,MONTGOMERY,184034-21,"Single Family Homes",5/13/2021,,957000,,"27402 WEST BALSAM FIR CIRCLE",HOUSTON,TX,77318,"BENDERS LANDING ESTATES",,CONTRACTOR,,,,,,,,,,,"AES SEPTIC",,,,,"AES SEPTIC","30703 N CRIPPLE CREEK DR",MAGNOLIA,TX,77354-1973,"(281) 356-5000",,,,
TX,MONTGOMERY,184050-21,"Single Family Homes",5/13/2021,,300000,,"19479 MERSEY DR",HOUSTON,TX,77318,,,CONTRACTOR,,,,,,,,,,,"AES SEPTIC",,,,,"AES SEPTIC","30703 N CRIPPLE CREEK DR",MAGNOLIA,TX,77354-1973,"(281) 356-5000",,,,
TX,MONTGOMERY,184064-21,"Single Family Homes",5/14/2021,,220000,,"4 CORDOVA CT",HOUSTON,TX,77356,BENTWATER,,"KHALID ALI","11739 RIVERVIEW DR",HOUSTON,TX,77077,,Owner,,,,,OWNER,,,,,OWNER,,,,,,,,,
TX,HARRIS,21043915,"Single Family Homes",6/2/2021,,150000,,"10919 KEATON LANDING",HOUSTON,TX,77043,,,CONTRACTOR,,,,,,,,,,,"ANNE'S PERMIT",,,,,"ANNE'S PERMIT","2617C W HOLCOMBE BLVD",HOUSTON,TX,77025,"(713) 666-2025",,,,
TX,HARRIS,21034506,"Single Family Homes",6/2/2021,,157000,,"10935 BRAMBLING WOOD",HOUSTON,TX,77043,,,CONTRACTOR,,,,,,,,,,,"ANNE'S PERMIT",,,,,"ANNE'S PERMIT","2617C W HOLCOMBE BLVD",HOUSTON,TX,77025,"(713) 666-2025",,,,
TX,HARRIS,21040446,"Single Family Homes",6/2/2021,,212000,,"10936 BRAMBLING WOOD",HOUSTON,TX,77043,,,CONTRACTOR,,,,,,,,,,,"ANNE'S PERMIT",,,,,"ANNE'S PERMIT","2617C W HOLCOMBE BLVD",HOUSTON,TX,77025,"(713) 666-2025",,,,
TX,HARRIS,21035646,"Single Family Homes",6/2/2021,,160000,,"10938 BRAMBLING WOOD ",HOUSTON,TX,77043,,,CONTRACTOR,,,,,,,,,,,"ANNE'S PERMIT",,,,,"ANNE'S PERMIT","2617C W HOLCOMBE BLVD",HOUSTON,TX,77025,"(713) 666-2025",,,,
TX,HARRIS,21035645,"Single Family Homes",6/2/2021,,160000,,"10942 BRAMBLING WOOD",HOUSTON,TX,77043,,,CONTRACTOR,,,,,,,,,,,"ANNE'S PERMIT",,,,,"ANNE'S PERMIT","2617C W HOLCOMBE BLVD",HOUSTON,TX,77025,"(713) 666-2025",,,,
TX,HARRIS,21035676,"Single Family Homes",6/4/2021,,150000,,"782 STRAWBERRY PINES",HOUSTON,TX,77009,,,CONTRACTOR,,,,,,,,,,,"ANNE'S PERMIT",,,,,"ANNE'S PERMIT","2617C W HOLCOMBE BLVD",HOUSTON,TX,77025,"(713) 666-2025",,,,
TX,HARRIS,21026385,"Single Family Homes",6/7/2021,,350000,,"1701 BAYRAM",HOUSTON,TX,77055,,,"JULIAN ARANGO","1701 BAYRAM",HOUSTON,TX,77055,,Owner,,,,,OWNER,,,,,OWNER,,,,,,,,,
TX,HARRIS,20095564,"Single Family Homes",6/7/2021,,250000,,"2220 WAVELL",HOUSTON,TX,77088,,,"OLGA  AREVALO","2220 WAVELL",HOUSTON,TX,77088,,Owner,,,,,OWNER,,,,,OWNER,,,,,,,,,
TX,HARRIS,20095565,"Single Family Homes",6/7/2021,,250000,,"2222 WAVELL",HOUSTON,TX,77088,,,"OLGA  AREVALO","2222 WAVELL","HOUSTON                                           ",TX,77088,,Owner,,,,,OWNER,,,,,OWNER,,,,,,,,,
TX,HARRIS,20091701,"Single Family Homes",6/3/2021,,191097,,"4607 NOLDA ST",HOUSTON,TX,77007,,,"FRANCISCO BANDA","4607 NOLDA ST",HOUSTON,TX,77007,,Owner,,,,,"CREATE CH SOLUTIONS",,,,,"CREATE CH SOLUTIONS","400 N SAM HOUSTON PKWY E STE 220",HOUSTON,TX,77060-3548,"(832) 928-1199",,,,
TX,HARRIS,21026068,"Single Family Homes",6/7/2021,,179000,,"7822 MAXROY",HOUSTON,TX,77088,,,"ADRIAN CHARLTON BAQUERO","7822 MAXROY",HOUSTON,TX,77088,,Owner,,,,,OWNER,,,,,OWNER,,,,,,,,,
TX,HARRIS,21014065,"Single Family Homes",6/4/2021,,158000,,"9843 KERRY GLEN",HOUSTON,TX,77078,,,"DOROTHY BELL","9843 KERRY GLEN",HOUSTON,TX,77078,,Owner,,,,,"BYRDSON SERVICES",,,,,"BYRDSON SERVICES","1245 W CARDINAL DR",BEAUMONT,TX,77705-6410,"(409) 718-2183",,,,
TX,HARRIS,21009267,"Single Family Homes",6/3/2021,,103624,,"4511 DEWBERRY",HOUSTON,TX,77021,,,"EARLINE BROWN","4511 DEWBERRY","HOUSTON                                           ",TX,77021,,Owner,,,,,JWTC,,,,,JWTC,"14215 MARY JANE LANE",TOMBALL,TX,77377,"(281) 290-9011",https://jwtc.net/,,,
TX,HARRIS,21012704,"Single Family Homes",6/3/2021,,104045,,"4813 MEADOW PARK",HOUSTON,TX,77048,,,"TYRELL BUTCHER","4813 MEADOW PARK",HOUSTON,TX,77048,,Owner,,,,,JWTC,,,,,JWTC,"14215 MARY JANE LANE",TOMBALL,TX,77377,"(281) 290-9011",https://jwtc.net/,,,
TX,HARRIS,21016296,"Single Family Homes",6/2/2021,,200000,,"4817 CREEKMONT",HOUSTON,TX,77091,,,"GABRIEL CADAVID","4817 CREEKMONT",HOUSTON,TX,77091,,Owner,,,,,"CADAVID PROPERTIES",,,,,"CADAVID PROPERTIES","1430 YALE ST",HOUSTON,TX,77009,"(281) 650-9846",https://cadavidproperties.com/,,,
TX,HARRIS,19147091,"Single Family Homes",6/7/2021,,160000,,"8126 GLADSTONE",HOUSTON,TX,77051,,,"CLEMONS KEVIN","8126 GLADSTONE",HOUSTON,TX,77051,,Owner,,,,,OWNER,,,,,OWNER,,,,,,,,,
TX,HARRIS,21008163,"Single Family Homes",6/4/2021,,213860,,"1703 LEE",HOUSTON,TX,77026,,,CONTRACTOR,,,,,,,,,,,"REVOLUTION HOMES",,,,,"REVOLUTION HOMES","13606 SCHUMANN TRL","SUGAR LAND",TX,77498-3544,"(713) 252-1822",,,"FADI ALBENA",
TX,HARRIS,21008164,"Single Family Homes",6/4/2021,,213860,,"1707 LEE",HOUSTON,TX,77026,,,CONTRACTOR,,,,,,,,,,,"REVOLUTION HOMES",,,,,"REVOLUTION HOMES","13606 SCHUMANN TRL","SUGAR LAND",TX,77498-3544,"(713) 252-1822",,,"FADI ALBENA",
TX,HARRIS,21043112,"Single Family Homes",6/2/2021,,176295,,"6520 GILLOCK MEADOW",HOUSTON,TX,77048,,,CONTRACTOR,,,,,,,,,,,"COLINA HOMES",,,,,"COLINA HOMES","1314 N DURHAM DR",HOUSTON,TX,77008-3734,"(281) 528-9090",http://colinahomes.com/,,,postmaster@colinahomes.com
TX,HARRIS,21043066,"Single Family Homes",6/7/2021,,159893,,"6533 MACROOM MEADOWS",HOUSTON,TX,77048,,,CONTRACTOR,,,,,,,,,,,"COLINA HOMES",,,,,"COLINA HOMES","1314 N DURHAM DR",HOUSTON,TX,77008-3734,"(281) 528-9090",http://colinahomes.com/,,,postmaster@colinahomes.com
TX,HARRIS,21043243,"Single Family Homes",6/2/2021,,159893,,"6548 MACROOM MEADOWS",HOUSTON,TX,77048,,,CONTRACTOR,,,,,,,,,,,"COLINA HOMES",,,,,"COLINA HOMES","1314 N DURHAM DR",HOUSTON,TX,77008-3734,"(281) 528-9090",http://colinahomes.com/,,,postmaster@colinahomes.com
TX,HARRIS,21033957,"Single Family Homes",6/7/2021,,154090,,"9010 LONESTAR RIVER",HOUSTON,TX,77080,,,CONTRACTOR,,,,,,,,,,,"COLINA HOMES",,,,,"COLINA HOMES","1314 N DURHAM DR",HOUSTON,TX,77008-3734,"(281) 528-9090",http://colinahomes.com/,,,postmaster@colinahomes.com
TX,HARRIS,20094940,"Single Family Homes",6/3/2021,,125000,,"13502 AXEL",HOUSTON,TX,77047,,,CONTRACTOR,,,,,,,,,,,"COLINA HOMES",,,,,"COLINA HOMES","1314 N DURHAM DR",HOUSTON,TX,77008-3734,"(281) 528-9090",http://colinahomes.com/,,,postmaster@colinahomes.com
TX,HARRIS,21029441,"Single Family Homes",6/4/2021,,182350,,"2922 MEANDERING ELM",HOUSTON,TX,77045,,,CONTRACTOR,,,,,,,,,,,"BRIGHTON HOMES & PARKWOOD",,,,,"BRIGHTON HOMES & PARKWOOD","13111 NORTHWEST FWY",HOUSTON,TX,77040-6318,"(713) 460-6279",,,,
TX,MONTGOMERY,BR-21-008550,"Single Family Homes",5/26/2021,,58815,1837,"2649 LINA DR",CONROE,TX,77304,"MACKENZIE CREEK",5,CONTRACTOR,,,,,,,,,,,"CAMILLO PROPERTIES",,,,,"CAMILLO PROPERTIES","6707 GESSNER RD",HOUSTON,TX,77040-4017,"(832) 500-0284",http://www.camillorentalhomes.com/,"(281) 325-0245",,
TX,HARRIS,21027682,"Single Family Homes",6/7/2021,,872127,,"7 GAGE",HOUSTON,TX,77024,,,CONTRACTOR,,,,,,,,,,,"JACOB BUCKWALTER",,,,,"JACOB BUCKWALTER","9597 JONES RD",HOUSTON,TX,77065-4815,"(832) 272-8423",,,,
TX,MONTGOMERY,BR-21-008565,"Single Family Homes",5/26/2021,,58815,1837,"3709 ALEXUS DR",CONROE,TX,77302,"MACKENZIE CREEK",3,CONTRACTOR,,,,,,,,,,,"CAMILLO PROPERTIES",,,,,"CAMILLO PROPERTIES","6707 GESSNER RD",HOUSTON,TX,77040-4017,"(832) 500-0284",http://www.camillorentalhomes.com/,"(281) 325-0245",,
TX,MONTGOMERY,BR-21-008546,"Single Family Homes",5/26/2021,,62910,1894,"2645 LINA DR",CONROE,TX,77304,"MACKENZIE CREEK",6,CONTRACTOR,,,,,,,,,,,"CAMILLO PROPERTIES",,,,,"CAMILLO PROPERTIES","6707 GESSNER RD",HOUSTON,TX,77040-4017,"(832) 500-0284",http://www.camillorentalhomes.com/,"(281) 325-0245",,
TX,HARRIS,21008042,"Single Family Homes",6/1/2021,,597916,,"4002 NEWSHIRE",HOUSTON,TX,77025,,,CONTRACTOR,,,,,,,,,,,"BUILD FBG",,,,,"BUILD FBG","7800 WASHINGTON",HOUSTON,TX,77007,"(346) 320-1721",,,,
TX,MONTGOMERY,BR-21-008553,"Single Family Homes",5/26/2021,,63315,1854,"2653 LINA DR",CONROE,TX,77304,"MACKENZIE CREEK",4,CONTRACTOR,,,,,,,,,,,"CAMILLO PROPERTIES",,,,,"CAMILLO PROPERTIES","6707 GESSNER RD",HOUSTON,TX,77040-4017,"(832) 500-0284",http://www.camillorentalhomes.com/,"(281) 325-0245",,
TX,MONTGOMERY,BR-21-009093,"Single Family Homes",5/18/2021,,70000,1713,"410 PIMMIT HILL RUN",CONROE,TX,77316,"LAKE CONROE FOREST",7,CONTRACTOR,,,,,,,,,,,"ASGI HOMES",,,,,"ASGI HOMES","2257 N LOOP 336 W STE 140-370",CONROE,TX,77304-3566,"(888) 991-0005",http://www.asgihomes.com,,,
TX,MONTGOMERY,BR-21-009095,"Single Family Homes",5/18/2021,,70000,2250,"412 PIMMIT HILL RUN",CONROE,TX,77316,"LAKE CONROE FOREST",8,CONTRACTOR,,,,,,,,,,,"ASGI HOMES",,,,,"ASGI HOMES","2257 N LOOP 336 W STE 140-370",CONROE,TX,77304-3566,"(888) 991-0005",http://www.asgihomes.com,,,
TX,MONTGOMERY,BR-21-009624,"Single Family Homes",5/28/2021,,70000,1272,"528 MOHAWK BND",CONROE,TX,77316,"LAKE CONROE FOREST",6,CONTRACTOR,,,,,,,,,,,"ASGI HOMES",,,,,"ASGI HOMES","2257 N LOOP 336 W STE 140-370",CONROE,TX,77304-3566,"(888) 991-0005",http://www.asgihomes.com,,,
TX,MONTGOMERY,BR-21-009627,"Single Family Homes",5/28/2021,,70000,1751,"530 MOHAWK BND",CONROE,TX,77316,"LAKE CONROE FOREST",5,CONTRACTOR,,,,,,,,,,,"ASGI HOMES",,,,,"ASGI HOMES","2257 N LOOP 336 W STE 140-370",CONROE,TX,77304-3566,"(888) 991-0005",http://www.asgihomes.com,,,
TX,HARRIS,21042731,"Single Family Homes",6/3/2021,,198990,,"706 CYPRESS SUMMIT",HOUSTON,TX,77336,,,CONTRACTOR,,,,,,,,,,,"CENTURY COMMUNITIES",,,,,"CENTURY COMMUNITIES","4700 W SAM HOUSTON PKWY N STE 130",HOUSTON,TX,77041-8219,"(281) 741-8946",https://www.centurycommunities.com/,,,
TX,MONTGOMERY,BR-21-008539,"Single Family Homes",5/26/2021,,71505,2075,"2637 LINA DR",CONROE,TX,77304,"MACKENZIE CREEK",8,CONTRACTOR,,,,,,,,,,,"CAMILLO PROPERTIES",,,,,"CAMILLO PROPERTIES","6707 GESSNER RD",HOUSTON,TX,77040-4017,"(832) 500-0284",http://www.camillorentalhomes.com/,"(281) 325-0245",,
TX,HARRIS,21042484,"Single Family Homes",6/3/2021,,175990,,"822 WEMBLEY WOOD",HOUSTON,TX,77336,,,CONTRACTOR,,,,,,,,,,,"CENTURY COMMUNITIES",,,,,"CENTURY COMMUNITIES","4700 W SAM HOUSTON PKWY N STE 130",HOUSTON,TX,77041-8219,"(281) 741-8946",https://www.centurycommunities.com/,,,
TX,MONTGOMERY,BR-21-008543,"Single Family Homes",5/26/2021,,75915,2127,"2641 LINA DR",CONROE,TX,77304,"MACKENZIE CREEK",7,CONTRACTOR,,,,,,,,,,,"CAMILLO PROPERTIES",,,,,"CAMILLO PROPERTIES","6707 GESSNER RD",HOUSTON,TX,77040-4017,"(832) 500-0284",http://www.camillorentalhomes.com/,"(281) 325-0245",,
TX,HARRIS,21041568,"Single Family Homes",6/3/2021,,169990,,"830 WEMBLEY WOOD",HOUSTON,TX,77336,,,CONTRACTOR,,,,,,,,,,,"CENTURY COMMUNITIES",,,,,"CENTURY COMMUNITIES","4700 W SAM HOUSTON PKWY N STE 130",HOUSTON,TX,77041-8219,"(281) 741-8946",https://www.centurycommunities.com/,,,
TX,MONTGOMERY,BR-21-008573,"Single Family Homes",5/26/2021,,75915,2127,"3717 ALEXUS DR",CONROE,TX,77302,"MACKENZIE CREEK",1,CONTRACTOR,,,,,,,,,,,"CAMILLO PROPERTIES",,,,,"CAMILLO PROPERTIES","6707 GESSNER RD",HOUSTON,TX,77040-4017,"(832) 500-0284",http://www.camillorentalhomes.com/,"(281) 325-0245",,
TX,HARRIS,21042729,"Single Family Homes",6/3/2021,,198990,,"802 CYPRESS SUMMIT",HOUSTON,TX,77336,,,CONTRACTOR,,,,,,,,,,,"CENTURY COMMUNITIES",,,,,"CENTURY COMMUNITIES","4700 W SAM HOUSTON PKWY N STE 130",HOUSTON,TX,77041-8219,"(281) 741-8946",https://www.centurycommunities.com/,,,
TX,MONTGOMERY,BR-21-008533,"Single Family Homes",5/26/2021,,84150,2358,"2633 LINA DR",CONROE,TX,77304,"MACKENZIE CREEK",9,CONTRACTOR,,,,,,,,,,,"CAMILLO PROPERTIES",,,,,"CAMILLO PROPERTIES","6707 GESSNER RD",HOUSTON,TX,77040-4017,"(832) 500-0284",http://www.camillorentalhomes.com/,"(281) 325-0245",,
TX,MONTGOMERY,BR-21-008570,"Single Family Homes",5/26/2021,,84150,2358,"3713 ALEXUS DR",CONROE,TX,77302,"MACKENZIE CREEK",2,CONTRACTOR,,,,,,,,,,,"CAMILLO PROPERTIES",,,,,"CAMILLO PROPERTIES","6707 GESSNER RD",HOUSTON,TX,77040-4017,"(832) 500-0284",http://www.camillorentalhomes.com/,"(281) 325-0245",,
TX,MONTGOMERY,BR-21-000238,"Single Family Homes",5/20/2021,,89505,1989,"3627 SANDY FEATHER LN",CONROE,TX,77301,"BARTON WOODS",73,CONTRACTOR,,,,,,,,,,,"DR HORTON",,,,,"DR HORTON","14100 SOUTHWEST",HOUSTON,TX,77478,"(281) 201-5559",,,,
TX,MONTGOMERY,BR-21-000348,"Single Family Homes",5/21/2021,,89505,1989,"3614 SANDY FEATHER LN",CONROE,TX,77301,"BARTON WOODS",2,CONTRACTOR,,,,,,,,,,,"DR HORTON",,,,,"DR HORTON","14100 SOUTHWEST",HOUSTON,TX,77478,"(281) 201-5559",,,,
TX,MONTGOMERY,BR-21-003570,"Single Family Homes",5/17/2021,,89505,1989,"3617 CRIMSON EMBERS LN",CONROE,TX,77301,"BARTON WOODS",10,CONTRACTOR,,,,,,,,,,,"DR HORTON",,,,,"DR HORTON","14100 SOUTHWEST",HOUSTON,TX,77478,"(281) 201-5559",,,,
TX,MONTGOMERY,BR-21-008530,"Single Family Homes",5/26/2021,,91755,2483,"2629 LINA DR",CONROE,TX,77304,"MACKENZIE CREEK",10,CONTRACTOR,,,,,,,,,,,"CAMILLO PROPERTIES",,,,,"CAMILLO PROPERTIES","6707 GESSNER RD",HOUSTON,TX,77040-4017,"(832) 500-0284",http://www.camillorentalhomes.com/,"(281) 325-0245",,
TX,MONTGOMERY,BR-21-009007,"Single Family Homes",5/19/2021,,93012,2079,"3221 CLIMBING GARDENS CT",CONROE,TX,77301,"LADERA CREEK",38,CONTRACTOR,,,,,,,,,,,"STYLECRAFT BUILDERS ",,,,,"STYLECRAFT BUILDERS ","4090 STATE HIGHWAY 6 S","COLLEGE STATION",TX,77845-8962,"(979) 764-9900",,"(979) 690-3069","TANNER BREWSTER",tabrewster@stylecraft-builders.com
TX,MONTGOMERY,BR-21-000363,"Single Family Homes",5/17/2021,,95130,2141,"3625 CRIMSON EMBERS LN",CONROE,TX,77301,"BARTON WOODS",8,CONTRACTOR,,,,,,,,,,,"DR HORTON",,,,,"DR HORTON","14100 SOUTHWEST",HOUSTON,TX,77478,"(281) 201-5559",,,,
TX,MONTGOMERY,BR-21-000369,"Single Family Homes",5/19/2021,,95130,2141,"3613 CRIMSON EMBERS LN",CONROE,TX,77301,"BARTON WOODS",11,CONTRACTOR,,,,,,,,,,,"DR HORTON",,,,,"DR HORTON","14100 SOUTHWEST",HOUSTON,TX,77478,"(281) 201-5559",,,,
TX,MONTGOMERY,BR-21-006750,"Single Family Homes",5/4/2021,,102166,2286,"3317 ROLLING VIEW CT",CONROE,TX,77301,"LADERA CREEK",58,CONTRACTOR,,,,,,,,,,,"STYLECRAFT BUILDERS ",,,,,"STYLECRAFT BUILDERS ","4090 STATE HIGHWAY 6 S","COLLEGE STATION",TX,77845-8962,"(979) 764-9900",,"(979) 690-3069","TANNER BREWSTER",tabrewster@stylecraft-builders.com
TX,MONTGOMERY,BR-21-007648,"Single Family Homes",5/6/2021,,102166,2286,"3208 CLIMBING GARDENS CT",CONROE,TX,77301,"LADERA CREEK",32,CONTRACTOR,,,,,,,,,,,"STYLECRAFT BUILDERS ",,,,,"STYLECRAFT BUILDERS ","4090 STATE HIGHWAY 6 S","COLLEGE STATION",TX,77845-8962,"(979) 764-9900",,"(979) 690-3069","TANNER BREWSTER",tabrewster@stylecraft-builders.com
TX,MONTGOMERY,BR-21-008097,"Single Family Homes",5/6/2021,,102166,2286,"3430 REDBRIDGE CT",CONROE,TX,77301,"LADERA CREEK",6,CONTRACTOR,,,,,,,,,,,"STYLECRAFT BUILDERS ",,,,,"STYLECRAFT BUILDERS ","4090 STATE HIGHWAY 6 S","COLLEGE STATION",TX,77845-8962,"(979) 764-9900",,"(979) 690-3069","TANNER BREWSTER",tabrewster@stylecraft-builders.com
TX,MONTGOMERY,BR-20-017316,"Single Family Homes",5/19/2021,,103050,2507,"12312 TRUMPETFISH CT",CONROE,TX,77304,"WATER CREST ON LAKE CONROE",40,CONTRACTOR,,,,,,,,,,,"DR HORTON",,,,,"DR HORTON","14100 SOUTHWEST",HOUSTON,TX,77478,"(281) 201-5559",,,,
TX,MONTGOMERY,BR-20-017340,"Single Family Homes",5/19/2021,,103050,2291,"6508 WILD CILLIMENT CT",CONROE,TX,77304,"WATER CREST ON LAKE CONROE",47,CONTRACTOR,,,,,,,,,,,"DR HORTON",,,,,"DR HORTON","14100 SOUTHWEST",HOUSTON,TX,77478,"(281) 201-5559",,,,
TX,MONTGOMERY,BR-21-000249,"Single Family Homes",5/19/2021,,103050,2291,"3623 SANDY FEATHER LN",CONROE,TX,77301,"BARTON WOODS",72,CONTRACTOR,,,,,,,,,,,"DR HORTON",,,,,"DR HORTON","14100 SOUTHWEST",HOUSTON,TX,77478,"(281) 201-5559",,,,
TX,MONTGOMERY,BR-21-000366,"Single Family Homes",5/17/2021,,103050,2291,"3621 CRIMSON EMBERS LN",CONROE,TX,77301,"BARTON WOODS",9,CONTRACTOR,,,,,,,,,,,"DR HORTON",,,,,"DR HORTON","14100 SOUTHWEST",HOUSTON,TX,77478,"(281) 201-5559",,,,
TX,MONTGOMERY,BR-20-017337,"Single Family Homes",5/19/2021,,107550,2604,"6512 WILD CILLIMENT CT",CONROE,TX,77304,"WATER CREST ON LAKE CONROE",46,CONTRACTOR,,,,,,,,,,,"DR HORTON",,,,,"DR HORTON","14100 SOUTHWEST",HOUSTON,TX,77478,"(281) 201-5559",,,,
TX,MONTGOMERY,BR-21-000351,"Single Family Homes",5/21/2021,,107550,2388,"3618 SANDY FEATHER LN",CONROE,TX,77301,"BARTON WOODS",3,CONTRACTOR,,,,,,,,,,,"DR HORTON",,,,,"DR HORTON","14100 SOUTHWEST",HOUSTON,TX,77478,"(281) 201-5559",,,,
TX,MONTGOMERY,BR-20-017309,"Single Family Homes",5/12/2021,,112515,2501,"6417 BANANA BAY CT",CONROE,TX,77304,"WATER CREST ON LAKE CONROE",52,CONTRACTOR,,,,,,,,,,,"DR HORTON",,,,,"DR HORTON","14100 SOUTHWEST",HOUSTON,TX,77478,"(281) 201-5559",,,,
TX,MONTGOMERY,BR-20-017311,"Single Family Homes",5/19/2021,,112515,2717,"12308 TRUMPETFISH DR",CONROE,TX,77304,"WATER CREST ON LAKE CONROE",41,CONTRACTOR,,,,,,,,,,,"DR HORTON",,,,,"DR HORTON","14100 SOUTHWEST",HOUSTON,TX,77478,"(281) 201-5559",,,,
TX,MONTGOMERY,BR-20-017335,"Single Family Homes",5/19/2021,,112515,2717,"6405 BANANA BAY CT ",CONROE,TX,77304,"WATER CREST ON LAKE CONROE",49,CONTRACTOR,,,,,,,,,,,"DR HORTON",,,,,"DR HORTON","14100 SOUTHWEST",HOUSTON,TX,77478,"(281) 201-5559",,,,
TX,MONTGOMERY,BR-21-002461,"Single Family Homes",5/19/2021,,112545,2717,"6517 WILD CILLIMENT CT",CONROE,TX,77304,"WATER CREST ON LAKE CONROE",44,CONTRACTOR,,,,,,,,,,,"DR HORTON",,,,,"DR HORTON","14100 SOUTHWEST",HOUSTON,TX,77478,"(281) 201-5559",,,,
TX,MONTGOMERY,BR-21-007873,"Single Family Homes",5/10/2021,,118098,2306,"2915 TULIP POPLAR TRL",CONROE,TX,77301,"BARTON CREEK RANCH",23,CONTRACTOR,,,,,,,,,,,"WOODMERE DEVELOPMENT",,,,,"WOODMERE DEVELOPMENT","15915  KATY FAIRWAY   STE 405  ",CONROE,TX,77304,"(281) 830-1579",,,,
TX,HARRIS,21042721,"Single Family Homes",6/3/2021,,186990,,"826 WEMBLEY WOOD",HOUSTON,TX,77336,,,CONTRACTOR,,,,,,,,,,,"CENTURY COMMUNITIES",,,,,"CENTURY COMMUNITIES","4700 W SAM HOUSTON PKWY N STE 130",HOUSTON,TX,77041-8219,"(281) 741-8946",https://www.centurycommunities.com/,,,
TX,MONTGOMERY,BR-20-017314,"Single Family Homes",5/19/2021,,121455,2699,"12304 TRUMPETFISH DR",CONROE,TX,77304,"WATER CREST ON LAKE CONROE",42,CONTRACTOR,,,,,,,,,,,"DR HORTON",,,,,"DR HORTON","14100 SOUTHWEST",HOUSTON,TX,77478,"(281) 201-5559",,,,
TX,MONTGOMERY,BR-20-017343,"Single Family Homes",5/19/2021,,121455,2915,"6513 WILD CILLIMENT CT",CONROE,TX,77304,"WATER CREST ON LAKE CONROE",43,CONTRACTOR,,,,,,,,,,,"DR HORTON",,,,,"DR HORTON","14100 SOUTHWEST",HOUSTON,TX,77478,"(281) 201-5559",,,,
TX,HARRIS,21042720,"Single Family Homes",6/3/2021,,189990,,"810 WEMBLEY WOOD",HOUSTON,TX,77336,,,CONTRACTOR,,,,,,,,,,,"CENTURY COMMUNITIES",,,,,"CENTURY COMMUNITIES","4700 W SAM HOUSTON PKWY N STE 130",HOUSTON,TX,77041-8219,"(281) 741-8946",https://www.centurycommunities.com/,,,
TX,MONTGOMERY,BR-21-000345,"Single Family Homes",5/21/2021,,121455,2699,"3610 SANDY FEATHER LN",CONROE,TX,77301,"BARTON WOODS",1,CONTRACTOR,,,,,,,,,,,"DR HORTON",,,,,"DR HORTON","14100 SOUTHWEST",HOUSTON,TX,77478,"(281) 201-5559",,,,
TX,MONTGOMERY,BR-21-000360,"Single Family Homes",5/11/2021,,121455,2699,"3629 CRIMSON EMBERS LN",CONROE,TX,77301,"BARTON WOODS",7,CONTRACTOR,,,,,,,,,,,"DR HORTON",,,,,"DR HORTON","14100 SOUTHWEST",HOUSTON,TX,77478,"(281) 201-5559",,,,
TX,MONTGOMERY,BR-21-000372,"Single Family Homes",5/17/2021,,121455,2699,"3609 CRIMSON EMBERS LN",CONROE,TX,77301,"BARTON WOODS",12,CONTRACTOR,,,,,,,,,,,"DR HORTON",,,,,"DR HORTON","14100 SOUTHWEST",HOUSTON,TX,77478,"(281) 201-5559",,,,
TX,HARRIS,20107603,"Single Family Homes",6/2/2021,,175000,,"4446 LEE",HOUSTON,TX,77020,,,CONTRACTOR,,,,,,,,,,,"CRAWFORD PROPERTIES & ESTATE",,,,,"CRAWFORD PROPERTIES & ESTATE","6725 FAIRMONT PKWY STE 122",PASADENA,TX,77505,"(713) 524-9524",,,,
TX,MONTGOMERY,BR-21-000606,"Single Family Homes",5/11/2021,,121455,2699,"3631 SANDY FEATHER LN",CONROE,TX,77301,"BARTON WOODS",74,CONTRACTOR,,,,,,,,,,,"DR HORTON",,,,,"DR HORTON","14100 SOUTHWEST",HOUSTON,TX,77478,"(281) 201-5559",,,,
TX,MONTGOMERY,BR-21-000619,"Single Family Homes",5/21/2021,,121455,2699,"3622 SANDY FEATHER LN",CONROE,TX,77301,"BARTON WOODS",4,CONTRACTOR,,,,,,,,,,,"DR HORTON",,,,,"DR HORTON","14100 SOUTHWEST",HOUSTON,TX,77478,"(281) 201-5559",,,,
TX,MONTGOMERY,BR-21-002492,"Single Family Homes",5/12/2021,,121455,2915,"6421 BANANA BAY CT",CONROE,TX,77304,"WATER CREST ON LAKE CONROE",53,CONTRACTOR,,,,,,,,,,,"DR HORTON",,,,,"DR HORTON","14100 SOUTHWEST",HOUSTON,TX,77478,"(281) 201-5559",,,,
TX,HARRIS,21033537,"Single Family Homes",6/2/2021,,396000,,"3236 FLORAL GARDEN",HOUSTON,TX,77365,,,"ASHIEKI DIXON","9700 RICHMOND AVE STE",HOUSTON,TX,77042,"(713) 443-7818",Applicant,,,,,OWNER,,,,,OWNER,,,,,,,,,
TX,MONTGOMERY,BR-21-000384,"Single Family Homes",5/12/2021,,122455,2699,"6409 BANANA BAY CT",CONROE,TX,77304,"WATER CREST ON LAKE CONROE",50,CONTRACTOR,,,,,,,,,,,"DR HORTON",,,,,"DR HORTON","14100 SOUTHWEST",HOUSTON,TX,77478,"(281) 201-5559",,,,
TX,MONTGOMERY,BR-20-017332,"Single Family Homes",5/19/2021,,122500,2927,"6504 WILD CILLIMENT CT",CONROE,TX,77304,"WATER CREST ON LAKE CONROE",48,CONTRACTOR,,,,,,,,,,,"DR HORTON",,,,,"DR HORTON","14100 SOUTHWEST",HOUSTON,TX,77478,"(281) 201-5559",,,,
TX,MONTGOMERY,BR-21-000354,"Single Family Homes",5/11/2021,,122500,2723,"3630 SANDY FEATHER LN",CONROE,TX,77301,"BARTON WOODS",6,CONTRACTOR,,,,,,,,,,,"DR HORTON",,,,,"DR HORTON","14100 SOUTHWEST",HOUSTON,TX,77478,"(281) 201-5559",,,,
TX,MONTGOMERY,BR-20-014489,"Single Family Homes",5/12/2021,,122535,2712,"6413 BANANA BAY CT",CONROE,TX,77304,"WATER CREST ON LAKE CONROE",51,CONTRACTOR,,,,,,,,,,,"DR HORTON",,,,,"DR HORTON","14100 SOUTHWEST",HOUSTON,TX,77478,"(281) 201-5559",,,,
TX,MONTGOMERY,BR-21-006654,"Single Family Homes",5/12/2021,,139000,1453,"621 AVENUE I PL",CONROE,TX,77301,,7,CONTRACTOR,,,,,,,,,,,"MAROMA HOMES",,,,,"MAROMA HOMES","22715 DAIRY GATE DR",SPRING,TX,77373-7289,"(713) 852-7940",http://maromahomes.com,,,maromahomes@gmail.com
TX,MONTGOMERY,BR-21-008955,"Single Family Homes",5/17/2021,,139160,2306,"439 NORTHERN PIKE DR",CONROE,TX,77318,"THE WOODLANDS HILLS",6,CONTRACTOR,,,,,,,,,,,"GRAND VIEW BUILDERS",,,,,"GRAND VIEW BUILDERS","525 N SAM HOUSTON PKWY E STE 600",HOUSTON,TX,77060-4015,"(281) 741-8946",http://www.gvbtx.com/,,,
TX,HARRIS,21024773,"Single Family Homes",6/1/2021,,120000,,"4136 KEWANEE",HOUSTON,TX,77051,,,CONTRACTOR,,,,,,,,,,,"ELDER BROOK HOMES",,,,,"ELDER BROOK HOMES","1980 POST OAK BLVD #100",HOUSTON,TX,77027,"(832) 914-0911",https://www.elderbrookhomes.com/,,,contact@elderbrookhomes.com
TX,MONTGOMERY,BR-21-009013,"Single Family Homes",5/17/2021,,140465,2329,"12384 DELTA TIMBER RD",CONROE,TX,77304,"HERITAGE RESERVE",25,CONTRACTOR,,,,,,,,,,,"ANGEE JONES",,,,,"ANGEE JONES","681 GREENS PKWY STE 200",HOUSTON,TX,77067,"(281) 780-4139",,,,
TX,MONTGOMERY,BR-21-002465,"Single Family Homes",5/19/2021,,142245,3376,"6516 WILD CILLIMENT CT",CONROE,TX,77304,"WATER CREST ON LAKE CONROE",45,CONTRACTOR,,,,,,,,,,,"DR HORTON",,,,,"DR HORTON","14100 SOUTHWEST",HOUSTON,TX,77478,"(281) 201-5559",,,,
TX,HARRIS,21024445,"Single Family Homes",6/4/2021,,700000,,"3306 CLOVERDALE",HOUSTON,TX,77025,,,CONTRACTOR,,,,,,,,,,,"EVANS HOUSE LLC",,,,,"EVANS HOUSE LLC","3223 CASTLEWOOD ST.",HOUSTON,TX,77025,"(713) 447-0297",,,"ANDREW EVANS",
TX,MONTGOMERY,BR-21-002471,"Single Family Homes",5/12/2021,,142245,3376,"6424 BANANA BAY CT",CONROE,TX,77304,"WATER CREST ON LAKE CONROE",54,CONTRACTOR,,,,,,,,,,,"DR HORTON",,,,,"DR HORTON","14100 SOUTHWEST",HOUSTON,TX,77478,"(281) 201-5559",,,,
TX,MONTGOMERY,BR-21-008764,"Single Family Homes",5/18/2021,,142420,1894,"404 DUCHESS RIVER RD",CONROE,TX,77304,"LAKE CONROE FOREST",9,CONTRACTOR,,,,,,,,,,,"VANGUARD BUILDERS",,,,,"VANGUARD BUILDERS","120 KNOLLBROOK CIR",MONTGOMERY,TX,77316-7562,"(281) 220-9087",,,,
TX,MONTGOMERY,BR-21-009283,"Single Family Homes",5/21/2021,,143000,1896,"3328 TAVO RIDGE DR",CONROE,TX,77301,"MACKENZIE CREEK",7,CONTRACTOR,,,,,,,,,,,"LEGEND HOMES",,,,,"LEGEND HOMES","10410 WINDAMERE LAKES BLVD",HOUSTON,TX,77065-4996,"(281) 671-9060",http://legendhomecorp.com/,"(281) 671-9055",,
TX,MONTGOMERY,BR-21-007476,"Single Family Homes",5/3/2021,,143381,1892,"4332 ROSEMARY LN",CONROE,TX,77304,"MADISON BEND",2,CONTRACTOR,,,,,,,,,,,"LEGEND HOMES",,,,,"LEGEND HOMES","10410 WINDAMERE LAKES BLVD",HOUSTON,TX,77065-4996,"(281) 671-9060",http://legendhomecorp.com/,"(281) 671-9055",,
TX,HARRIS,20103082,"Single Family Homes",6/4/2021,,145000,,"601 MIDDLE",HOUSTON,TX,77003,,,CONTRACTOR,,,,,,,,,,,"ORACLE CITY HOMES",,,,,"ORACLE CITY HOMES","6502 ALDER DR",HOUSTON,TX,77081-4402,"(832) 649-5600",,,,
TX,MONTGOMERY,BR-21-007469,"Single Family Homes",5/3/2021,,143488,1836,"4324 ROSEMARY LN",CONROE,TX,77304,,,CONTRACTOR,,,,,,,,,,,"LEGEND HOMES",,,,,"LEGEND HOMES","10410 WINDAMERE LAKES BLVD",HOUSTON,TX,77065-4996,"(281) 671-9060",http://legendhomecorp.com/,"(281) 671-9055",,
TX,HARRIS,20103083,"Single Family Homes",6/4/2021,,145000,,"603 MIDDLE",HOUSTON,TX,77003,,,CONTRACTOR,,,,,,,,,,,"ORACLE CITY HOMES",,,,,"ORACLE CITY HOMES","6502 ALDER DR",HOUSTON,TX,77081-4402,"(832) 649-5600",,,,
TX,MONTGOMERY,BR-21-009243,"Single Family Homes",5/21/2021,,144789,3211,"3473 WOODED LN",CONROE,TX,77301,"MACKENZIE CREEK",10,CONTRACTOR,,,,,,,,,,,"LEGEND HOMES",,,,,"LEGEND HOMES","10410 WINDAMERE LAKES BLVD",HOUSTON,TX,77065-4996,"(281) 671-9060",http://legendhomecorp.com/,"(281) 671-9055",,
TX,MONTGOMERY,BR-21-009267,"Single Family Homes",5/21/2021,,144789,1871,"3316 TAVO RIDGE DR",CONROE,TX,77301,"MACKENZIE CREEK",4,CONTRACTOR,,,,,,,,,,,"LEGEND HOMES",,,,,"LEGEND HOMES","10410 WINDAMERE LAKES BLVD",HOUSTON,TX,77065-4996,"(281) 671-9060",http://legendhomecorp.com/,"(281) 671-9055",,
TX,HARRIS,20103084,"Single Family Homes",6/4/2021,,145000,,"605 MIDDLE",HOUSTON,TX,77003,,,CONTRACTOR,,,,,,,,,,,"ORACLE CITY HOMES",,,,,"ORACLE CITY HOMES","6502 ALDER DR",HOUSTON,TX,77081-4402,"(832) 649-5600",,,,
TX,MONTGOMERY,BR-21-008474,"Single Family Homes",5/10/2021,,145860,2539,"12380 DELTA TIMBER RD",CONROE,TX,77304,"HERITAGE RESERVE",24,CONTRACTOR,,,,,,,,,,,"ANGEE JONES",,,,,"ANGEE JONES","681 GREENS PKWY STE 200",HOUSTON,TX,77067,"(281) 780-4139",,,,
TX,HARRIS,20071651,"Single Family Homes",6/4/2021,,190425,,"622 JANISCH RD",HOUSTON,TX,77018,,,CONTRACTOR,,,,,,,,,,,"ORACLE CITY HOMES",,,,,"ORACLE CITY HOMES","6502 ALDER DR",HOUSTON,TX,77081-4402,"(832) 649-5600",,,,
TX,MONTGOMERY,BR-21-009010,"Single Family Homes",5/17/2021,,148850,2554,"6063 HERITAGE CREEK LN",CONROE,TX,77304,"HERITAGE RESERVE",3,CONTRACTOR,,,,,,,,,,,"ANGEE JONES",,,,,"ANGEE JONES","681 GREENS PKWY STE 200",HOUSTON,TX,77067,"(281) 780-4139",,,,
TX,MONTGOMERY,BR-21-009033,"Single Family Homes",5/17/2021,,148850,2554,"12305 DELTA TIMBER RD",CONROE,TX,77304,"HERITAGE RESERVE",8,CONTRACTOR,,,,,,,,,,,"ANGEE JONES",,,,,"ANGEE JONES","681 GREENS PKWY STE 200",HOUSTON,TX,77067,"(281) 780-4139",,,,
TX,MONTGOMERY,BR-21-007552,"Single Family Homes",5/3/2021,,149781,2135,"4323 ROSEMARY LN",CONROE,TX,77304,"MADISON BEND",17,CONTRACTOR,,,,,,,,,,,"LEGEND HOMES",,,,,"LEGEND HOMES","10410 WINDAMERE LAKES BLVD",HOUSTON,TX,77065-4996,"(281) 671-9060",http://legendhomecorp.com/,"(281) 671-9055",,
TX,MONTGOMERY,BR-21-007463,"Single Family Homes",5/3/2021,,150139,2097,"4312 ROSEMARY LN",CONROE,TX,77304,"MADISON BEND",6,CONTRACTOR,,,,,,,,,,,"LEGEND HOMES",,,,,"LEGEND HOMES","10410 WINDAMERE LAKES BLVD",HOUSTON,TX,77065-4996,"(281) 671-9060",http://legendhomecorp.com/,"(281) 671-9055",,
TX,MONTGOMERY,BR-21-007479,"Single Family Homes",5/3/2021,,150435,2121,"4336 ROSEMARY LN",CONROE,TX,77304,"MADISON BEND",1,CONTRACTOR,,,,,,,,,,,"LEGEND HOMES",,,,,"LEGEND HOMES","10410 WINDAMERE LAKES BLVD",HOUSTON,TX,77065-4996,"(281) 671-9060",http://legendhomecorp.com/,"(281) 671-9055",,
TX,MONTGOMERY,BR-21-007539,"Single Family Homes",5/3/2021,,150933,2169,"4315 ROSEMARY LN",CONROE,TX,77304,"MADISON BEND",15,CONTRACTOR,,,,,,,,,,,"LEGEND HOMES",,,,,"LEGEND HOMES","10410 WINDAMERE LAKES BLVD",HOUSTON,TX,77065-4996,"(281) 671-9060",http://legendhomecorp.com/,"(281) 671-9055",,
TX,MONTGOMERY,BR-21-00851,"Single Family Homes",5/18/2021,,151208,3043,"2837 BEECH RIVER CT",CONROE,TX,77301,"BARTON CREEK RANCH",8,CONTRACTOR,,,,,,,,,,,"WOODMERE DEVELOPMENT",,,,,"WOODMERE DEVELOPMENT","15915  KATY FAIRWAY   STE 405  ",CONROE,TX,77304,"(281) 830-1579",,,,
TX,MONTGOMERY,BR-21-007466,"Single Family Homes",5/3/2021,,152274,2300,"4318 ROSEMARY LN",CONROE,TX,77304,"MADISON BEND",5,CONTRACTOR,,,,,,,,,,,"LEGEND HOMES",,,,,"LEGEND HOMES","10410 WINDAMERE LAKES BLVD",HOUSTON,TX,77065-4996,"(281) 671-9060",http://legendhomecorp.com/,"(281) 671-9055",,
TX,MONTGOMERY,BR-21-008078,"Single Family Homes",5/18/2021,,152400,2540,"2505 CANYON CLOUD CT",CONROE,TX,77304,"CANYON CREEK",21,CONTRACTOR,,,,,,,,,,,"KENDALL HOMES",,,,,"KENDALL HOMES","427 MASON PARK BLVD",KATY,TX,77450-6187,"(281) 398-4010",http://www.kendallhomes.net/,"(281) 398-4011",,
TX,HARRIS,20112447,"Single Family Homes",6/3/2021,,160190,,"8408 MCLEAN",HOUSTON,TX,77051,,,"JMACK ARCHITECTS","5353 WEST ALABAMA, SUITE 695",HOUSTON,TX,77056,"(713) 524-9524",Architect,,,,,OWNER,,,,,OWNER,,,,,,,,,
TX,HARRIS,21011738,"Single Family Homes",6/5/2021,,138000,,"10215 JESSALYN",HOUSTON,TX,77025,,,CONTRACTOR,,,,,,,,,,,"CLAUDIA GUZMAN",,,,,"CLAUDIA GUZMAN","408 SSGT MACARIO GARCIA DR",HOUSTON,TX,77011-3606,"(832) 755-1740",,,,
TX,MONTGOMERY,BR-21-009086,"Single Family Homes",5/19/2021,,152736,2411,"997 GOLDEN WILLOW LN",CONROE,TX,77304,"WEDGEWOOD FOREST",39,CONTRACTOR,,,,,,,,,,,"DUNHILL HOMES",,,,,"DUNHILL HOMES","2400 AUGUSTA DR",HOUSTON,TX,77057-4922,"(713) 834-5669",http://www.dunhillhomes.com,,,
TX,HARRIS,21011735,"Single Family Homes",6/5/2021,,185967,,"8606 VIERA",HOUSTON,TX,77075,,,CONTRACTOR,,,,,,,,,,,"CLAUDIA GUZMAN",,,,,"CLAUDIA GUZMAN","408 SSGT MACARIO GARCIA DR",HOUSTON,TX,77011-3606,"(832) 755-1740",,,,
TX,MONTGOMERY,BR-21-008405,"Single Family Homes",5/13/2021,,152927,2300,"3449 WOODED LN",CONROE,TX,77301,"MACKENZIE CREEK",16,CONTRACTOR,,,,,,,,,,,"LEGEND HOMES",,,,,"LEGEND HOMES","10410 WINDAMERE LAKES BLVD",HOUSTON,TX,77065-4996,"(281) 671-9060",http://legendhomecorp.com/,"(281) 671-9055",,
TX,HARRIS,21011731,"Single Family Homes",6/5/2021,,138000,,"8610 VIERA",HOUSTON,TX,77075,,,CONTRACTOR,,,,,,,,,,,"CLAUDIA GUZMAN",,,,,"CLAUDIA GUZMAN","408 SSGT MACARIO GARCIA DR",HOUSTON,TX,77011-3606,"(832) 755-1740",,,,
TX,MONTGOMERY,BR-21-009275,"Single Family Homes",5/21/2021,,152927,2301,"3324 TAVO RIDGE DR",CONROE,TX,77301,"MACKENZIE CREEK",6,CONTRACTOR,,,,,,,,,,,"LEGEND HOMES",,,,,"LEGEND HOMES","10410 WINDAMERE LAKES BLVD",HOUSTON,TX,77065-4996,"(281) 671-9060",http://legendhomecorp.com/,"(281) 671-9055",,
TX,MONTGOMERY,BR-21-009310,"Single Family Homes",5/21/2021,,152927,2300,"3469 WOODED LN",CONROE,TX,77301,"MACKENZIE CREEK",11,CONTRACTOR,,,,,,,,,,,"LEGEND HOMES",,,,,"LEGEND HOMES","10410 WINDAMERE LAKES BLVD",HOUSTON,TX,77065-4996,"(281) 671-9060",http://legendhomecorp.com/,"(281) 671-9055",,
TX,MONTGOMERY,BR-21-009388,"Single Family Homes",5/21/2021,,152927,2300,"3617 CUB DR",CONROE,TX,77301,"MACKENZIE CREEK",4,CONTRACTOR,,,,,,,,,,,"LEGEND HOMES",,,,,"LEGEND HOMES","10410 WINDAMERE LAKES BLVD",HOUSTON,TX,77065-4996,"(281) 671-9060",http://legendhomecorp.com/,"(281) 671-9055",,
TX,HARRIS,21005815,"Single Family Homes",6/1/2021,,443000,,"1010 W 41ST",HOUSTON,TX,77018,,,CONTRACTOR,,,,,,,,,,,"HERZOG HOMES",,,,,"HERZOG HOMES","1617 W 23RD ST",HOUSTON,TX,77008-1510,"(832) 314-9000",,,,
TX,MONTGOMERY,BR-21-008428,"Single Family Homes",5/13/2021,,153812,2300,"4434 EVESLAGE LN",CONROE,TX,77304,"MADISON BEND",8,CONTRACTOR,,,,,,,,,,,"LEGEND HOMES",,,,,"LEGEND HOMES","10410 WINDAMERE LAKES BLVD",HOUSTON,TX,77065-4996,"(281) 671-9060",http://legendhomecorp.com/,"(281) 671-9055",,
TX,MONTGOMERY,BR-21-008028,"Single Family Homes",5/6/2021,,155000,2832,"989 GOLDEN WILLOW LN",CONROE,TX,77304,"WEDGEWOOD FOREST",37,CONTRACTOR,,,,,,,,,,,"DUNHILL HOMES",,,,,"DUNHILL HOMES","2400 AUGUSTA DR",HOUSTON,TX,77057-4922,"(713) 834-5669",http://www.dunhillhomes.com,,,
TX,HARRIS,21006124,"Single Family Homes",6/1/2021,,421000,,"1115 WAKEFIELD",HOUSTON,TX,77018,,,CONTRACTOR,,,,,,,,,,,"HERZOG HOMES",,,,,"HERZOG HOMES","1617 W 23RD ST",HOUSTON,TX,77008-1510,"(832) 314-9000",,,,
TX,HARRIS,20066096,"Single Family Homes",6/1/2021,,266965,,"2025 COVENT GARDEN STATION",HOUSTON,TX,77045,,,CONTRACTOR,,,,,,,,,,,"INTOWN HOMES",,,,,"INTOWN HOMES","1520 OLIVER ST",HOUSTON,TX,77007,"(713) 961-3877",http://www.intown-homes.com/,,,
TX,HARRIS,20041991,"Single Family Homes",6/1/2021,,277479,,"2027 COVENT GARDEN STATION",HOUSTON,TX,77045,,,CONTRACTOR,,,,,,,,,,,"INTOWN HOMES",,,,,"INTOWN HOMES","1520 OLIVER ST",HOUSTON,TX,77007,"(713) 961-3877",http://www.intown-homes.com/,,,
TX,HARRIS,21008313,"Single Family Homes",6/1/2021,,233153,,"9815 FINCH FALLS",HOUSTON,TX,77080,,,CONTRACTOR,,,,,,,,,,,"INTOWN HOMES",,,,,"INTOWN HOMES","1520 OLIVER ST",HOUSTON,TX,77007,"(713) 961-3877",http://www.intown-homes.com/,,,
TX,HARRIS,20018486,"Single Family Homes",6/1/2021,,243498,,"9823 MOCKING BIRD HILL",HOUSTON,TX,77080,,,CONTRACTOR,,,,,,,,,,,"INTOWN HOMES",,,,,"INTOWN HOMES","1520 OLIVER ST",HOUSTON,TX,77007,"(713) 961-3877",http://www.intown-homes.com/,,,
TX,HARRIS,20017680,"Single Family Homes",6/1/2021,,306497,,"9825 MOCKING BIRD HILL",HOUSTON,TX,77080,,,CONTRACTOR,,,,,,,,,,,"INTOWN HOMES",,,,,"INTOWN HOMES","1520 OLIVER ST",HOUSTON,TX,77007,"(713) 961-3877",http://www.intown-homes.com/,,,
TX,HARRIS,20017691,"Single Family Homes",6/4/2021,,261000,,"13250 WESTMONT HEIGHTS",HOUSTON,TX,77044,,,CONTRACTOR,,,,,,,,,,,"KB HOME",,,,,"KB HOME","11314 RICHMOND AVE",HOUSTON,TX,77082-2616,"(281) 668-3800",,,,
TX,MONTGOMERY,BR-21-008036,"Single Family Homes",5/6/2021,,155000,2877,"954 GOLDEN WILLOW LN",CONROE,TX,77304,"WEDGEWOOD FOREST",17,CONTRACTOR,,,,,,,,,,,"DUNHILL HOMES",,,,,"DUNHILL HOMES","2400 AUGUSTA DR",HOUSTON,TX,77057-4922,"(713) 834-5669",http://www.dunhillhomes.com,,,
TX,MONTGOMERY,BR-21-008401,"Single Family Homes",5/10/2021,,156301,2501,"260 SCARLET MAPLE WAY",CONROE,TX,77318,"THE WOODLANDS HILLS",11,CONTRACTOR,,,,,,,,,,,"GEHAN HOMES",,,,,"GEHAN HOMES","2050 W SAM HOUSTON PKWY S",HOUSTON,TX,77042-2079,"(713) 243-3545",http://www.gehanhomes.com,,,
TX,MONTGOMERY,BR-21-007529,"Single Family Homes",5/3/2021,,161171,3199,"4304 ROSEMARY LN",CONROE,TX,77304,"MADISON BEND",8,CONTRACTOR,,,,,,,,,,,"LEGEND HOMES",,,,,"LEGEND HOMES","10410 WINDAMERE LAKES BLVD",HOUSTON,TX,77065-4996,"(281) 671-9060",http://legendhomecorp.com/,"(281) 671-9055",,
TX,MONTGOMERY,BR-21-007532,"Single Family Homes",5/3/2021,,161171,2657,"4308 ROSEMARY LN",CONROE,TX,77304,"MADISON BEND",7,CONTRACTOR,,,,,,,,,,,"LEGEND HOMES",,,,,"LEGEND HOMES","10410 WINDAMERE LAKES BLVD",HOUSTON,TX,77065-4996,"(281) 671-9060",http://legendhomecorp.com/,"(281) 671-9055",,
TX,MONTGOMERY,BR-21-007542,"Single Family Homes",5/3/2021,,161171,2657,"4319 ROSEMARY LN",CONROE,TX,77304,"MADISON BEND",16,CONTRACTOR,,,,,,,,,,,"LEGEND HOMES",,,,,"LEGEND HOMES","10410 WINDAMERE LAKES BLVD",HOUSTON,TX,77065-4996,"(281) 671-9060",http://legendhomecorp.com/,"(281) 671-9055",,
TX,HARRIS,21034509,"Single Family Homes",6/5/2021,,251825,,"406 W PIERCE",HOUSTON,TX,77019,,,CONTRACTOR,,,,,,,,,,,"MAZZTAO HOMES",,,,,"MAZZTAO HOMES","7155 OLD KATY RD STE N 260",HOUSTON,TX,77024,"(713) 861-1601",https://www.mazztaohomes.com/,,"LITTLE VERONICA",info@mazzarinocon-dev.com
TX,MONTGOMERY,BR-21-008766,"Single Family Homes",5/18/2021,,161500,2162,"406 DUCHESS RIVER RD",CONROE,TX,77304,"LAKE CONROE FOREST",10,CONTRACTOR,,,,,,,,,,,"VANGUARD BUILDERS",,,,,"VANGUARD BUILDERS","120 KNOLLBROOK CIR",MONTGOMERY,TX,77316-7562,"(281) 220-9087",,,,
TX,MONTGOMERY,BR-21-008803,"Single Family Homes",5/28/2021,,162646,2545,"338 S CADENCE HILLS LOOP",CONROE,TX,77318,"THE WOODLANDS HILLS",8,CONTRACTOR,,,,,,,,,,,"GEHAN HOMES",,,,,"GEHAN HOMES","2050 W SAM HOUSTON PKWY S",HOUSTON,TX,77042-2079,"(713) 243-3545",http://www.gehanhomes.com,,,
TX,HARRIS,21019705,"Single Family Homes",6/2/2021,,256872,,"420 W POLK",HOUSTON,TX,77019,,,CONTRACTOR,,,,,,,,,,,"MAZZTAO HOMES",,,,,"MAZZTAO HOMES","7155 OLD KATY RD STE N 260",HOUSTON,TX,77024,"(713) 861-1601",https://www.mazztaohomes.com/,,"LITTLE VERONICA",info@mazzarinocon-dev.com
TX,MONTGOMERY,BR-21-007557,"Single Family Homes",5/3/2021,,164000,2435,"4327 ROSEMARY LN",CONROE,TX,77304,"MADISON BEND",18,CONTRACTOR,,,,,,,,,,,"LEGEND HOMES",,,,,"LEGEND HOMES","10410 WINDAMERE LAKES BLVD",HOUSTON,TX,77065-4996,"(281) 671-9060",http://legendhomecorp.com/,"(281) 671-9055",,
TX,MONTGOMERY,BR-21-009238,"Single Family Homes",5/21/2021,,164000,2513,"4451 EVESLAGE LN",CONROE,TX,77304,"MADISON BEND",14,CONTRACTOR,,,,,,,,,,,"LEGEND HOMES",,,,,"LEGEND HOMES","10410 WINDAMERE LAKES BLVD",HOUSTON,TX,77065-4996,"(281) 671-9060",http://legendhomecorp.com/,"(281) 671-9055",,
TX,MONTGOMERY,BR-21-009287,"Single Family Homes",5/21/2021,,164000,2630,"3336 TAVO RIDGE DR",CONROE,TX,77301,"MACKENZIE CREEK",9,CONTRACTOR,,,,,,,,,,,"LEGEND HOMES",,,,,"LEGEND HOMES","10410 WINDAMERE LAKES BLVD",HOUSTON,TX,77065-4996,"(281) 671-9060",http://legendhomecorp.com/,"(281) 671-9055",,
TX,HARRIS,21019706,"Single Family Homes",6/2/2021,,301703,,"422 W POLK",HOUSTON,TX,77019,,,CONTRACTOR,,,,,,,,,,,"MAZZTAO HOMES",,,,,"MAZZTAO HOMES","7155 OLD KATY RD STE N 260",HOUSTON,TX,77024,"(713) 861-1601",https://www.mazztaohomes.com/,,"LITTLE VERONICA",info@mazzarinocon-dev.com
TX,MONTGOMERY,BR-21-009398,"Single Family Homes",5/21/2021,,164000,2629,"3621 CUB DR",CONROE,TX,77301,"MACKENZIE CREEK",5,CONTRACTOR,,,,,,,,,,,"LEGEND HOMES",,,,,"LEGEND HOMES","10410 WINDAMERE LAKES BLVD",HOUSTON,TX,77065-4996,"(281) 671-9060",http://legendhomecorp.com/,"(281) 671-9055",,
TX,MONTGOMERY,BR-21-007191,"Single Family Homes",5/12/2021,,164925,3869,"6002 HENRY HAMLET DR",CONROE,TX,77304,"WATER CREST ON LAKE CONROE",1,CONTRACTOR,,,,,,,,,,,"DR HORTON",,,,,"DR HORTON","14100 SOUTHWEST",HOUSTON,TX,77478,"(281) 201-5559",,,,
TX,HARRIS,21030920,"Single Family Homes",6/3/2021,,342000,,"2722 GREENBRIAR",HOUSTON,TX,77098,,,CONTRACTOR,,,,,,,,,,,"VENDOME PROPERTIES",,,,,"VENDOME PROPERTIES","2411 EMANCIPATION AVE",HOUSTON,TX,77004,"(832) 212-6801",,"(281) 605-6866",,
TX,MONTGOMERY,BR-21-008023,"Single Family Homes",5/6/2021,,165000,3135,"786 DOGBERRY CT",CONROE,TX,77304,"WEDGEWOOD FOREST",20,CONTRACTOR,,,,,,,,,,,"INTERRA CAPITAL",,,,,"INTERRA CAPITAL","4801 WOODWAY DR, STE 420-W",HOUSTON,TX,77056,"(713) 574-9900",,,,
TX,HARRIS,21024109,"Single Family Homes",6/2/2021,,175000,,"408 E 32ND",HOUSTON,TX,77018,,,CONTRACTOR,,,,,,,,,,,"MAKENZIE HOMES",,,,,"MAKENZIE HOMES","1501 RONSON RD",HOUSTON,TX,77055-3219,"(713) 443-7108",,,,
TX,MONTGOMERY,BR-21-007560,"Single Family Homes",5/3/2021,,165176,2568,"4331 ROSEMARY LN",CONROE,TX,77304,"MADISON BEND",19,CONTRACTOR,,,,,,,,,,,"LEGEND HOMES",,,,,"LEGEND HOMES","10410 WINDAMERE LAKES BLVD",HOUSTON,TX,77065-4996,"(281) 671-9060",http://legendhomecorp.com/,"(281) 671-9055",,
TX,MONTGOMERY,BR-21-009317,"Single Family Homes",5/21/2021,,165316,2658,"3605 CUB DR",CONROE,TX,77301,"MACKENZIE CREEK",1,CONTRACTOR,,,,,,,,,,,"LEGEND HOMES",,,,,"LEGEND HOMES","10410 WINDAMERE LAKES BLVD",HOUSTON,TX,77065-4996,"(281) 671-9060",http://legendhomecorp.com/,"(281) 671-9055",,
TX,MONTGOMERY,BR-21-008423,"Single Family Homes",5/13/2021,,166000,2658,"3461 WOODED LN",CONROE,TX,77301,"MACKENZIE CREEK",13,CONTRACTOR,,,,,,,,,,,"LEGEND HOMES",,,,,"LEGEND HOMES","10410 WINDAMERE LAKES BLVD",HOUSTON,TX,77065-4996,"(281) 671-9060",http://legendhomecorp.com/,"(281) 671-9055",,
TX,MONTGOMERY,BR-21-009251,"Single Family Homes",5/21/2021,,166000,2658,"3220 TAVO RIDGE CT",CONROE,TX,77301,"MACKENZIE CREEK",4,CONTRACTOR,,,,,,,,,,,"LEGEND HOMES",,,,,"LEGEND HOMES","10410 WINDAMERE LAKES BLVD",HOUSTON,TX,77065-4996,"(281) 671-9060",http://legendhomecorp.com/,"(281) 671-9055",,
TX,MONTGOMERY,BR-21-007535,"Single Family Homes",5/3/2021,,166728,2767,"4311 ROSEMARY LN",CONROE,TX,77304,"MADISON BEND",14,CONTRACTOR,,,,,,,,,,,"LEGEND HOMES",,,,,"LEGEND HOMES","10410 WINDAMERE LAKES BLVD",HOUSTON,TX,77065-4996,"(281) 671-9060",http://legendhomecorp.com/,"(281) 671-9055",,
TX,MONTGOMERY,BR-21-007472,"Single Family Homes",5/3/2021,,166894,2860,"4328 ROSEMARY LN",CONROE,TX,77304,"MADISON BEND",3,CONTRACTOR,,,,,,,,,,,"LEGEND HOMES",,,,,"LEGEND HOMES","10410 WINDAMERE LAKES BLVD",HOUSTON,TX,77065-4996,"(281) 671-9060",http://legendhomecorp.com/,"(281) 671-9055",,
TX,HARRIS,21032233,"Single Family Homes",6/2/2021,,199004,,"16011 HILLTOP OAK",HOUSTON,TX,77084,,,CONTRACTOR,,,,,,,,,,,"MERITAGE HOMES",,,,,"MERITAGE HOMES","2901 W SAM HOUSTON PKWY N",HOUSTON,TX,77043-1630,"(713) 357-1184",,,,
TX,MONTGOMERY,BR-21-008940,"Single Family Homes",5/17/2021,,169190,2748,"435 NORTHERN PIKE DR",CONROE,TX,77318,"THE WOODLANDS HILLS",7,CONTRACTOR,,,,,,,,,,,"GRAND VIEW BUILDERS",,,,,"GRAND VIEW BUILDERS","525 N SAM HOUSTON PKWY E STE 600",HOUSTON,TX,77060-4015,"(281) 741-8946",http://www.gvbtx.com/,,,
TX,MONTGOMERY,BR-21-008123,"Single Family Homes",5/4/2021,,171340,2818,"12317 DELTA TIMBER RD",CONROE,TX,77304,"HERITAGE RESERVE",11,CONTRACTOR,,,,,,,,,,,"ANGEE JONES",,,,,"ANGEE JONES","681 GREENS PKWY STE 200",HOUSTON,TX,77067,"(281) 780-4139",,,,
TX,MONTGOMERY,BR-21-007564,"Single Family Homes",5/3/2021,,172376,3086,"4335 ROSEMARY LN",CONROE,TX,77304,"MADISON BEND",20,CONTRACTOR,,,,,,,,,,,"LEGEND HOMES",,,,,"LEGEND HOMES","10410 WINDAMERE LAKES BLVD",HOUSTON,TX,77065-4996,"(281) 671-9060",http://legendhomecorp.com/,"(281) 671-9055",,
TX,HARRIS,21016802,"Single Family Homes",6/2/2021,,140250,,"1826 LA MAGNOLIA",HOUSTON,TX,77023,,,CONTRACTOR,,,,,,,,,,,"MERITAGE HOMES",,,,,"MERITAGE HOMES","2901 W SAM HOUSTON PKWY N",HOUSTON,TX,77043-1630,"(713) 357-1184",,,,
TX,MONTGOMERY,BR-21-008477,"Single Family Homes",5/10/2021,,172380,2819,"12370 DELTA TIMBER RD",CONROE,TX,77304,"HERITAGE RESERVE",23,CONTRACTOR,,,,,,,,,,,"ANGEE JONES",,,,,"ANGEE JONES","681 GREENS PKWY STE 200",HOUSTON,TX,77067,"(281) 780-4139",,,,
TX,MONTGOMERY,BR-21-008523,"Single Family Homes",5/18/2021,,172630,3477,"2918 TULIP POPLAR TRL",CONROE,TX,77301,"BARTON CREEK RANCH",16,CONTRACTOR,,,,,,,,,,,"WOODMERE DEVELOPMENT",,,,,"WOODMERE DEVELOPMENT","15915  KATY FAIRWAY   STE 405  ",CONROE,TX,77304,"(281) 830-1579",,,,
TX,HARRIS,20087260,"Single Family Homes",6/2/2021,,166000,,"1185 W TIDWELL",HOUSTON,TX,77091,,,CONTRACTOR,,,,,,,,,,,"IGNACIO PEREZ",,,,,"IGNACIO PEREZ","25511 BUDDE RD",HOUSTON,TX,77380,"(832) 491-4405",,,,
TX,HARRIS,20026828,"Single Family Homes",6/2/2021,,175369,,"8968 LAVENDER SPRINGS",HOUSTON,TX,77080,,,CONTRACTOR,,,,,,,,,,,"PROSPERITY HOMES",,,,,"PROSPERITY HOMES","13 MUIRFIELD CT",ROANOKE,TX,76262-5539,"(817) 491-9652",,,,
TX,HARRIS,21040232,"Single Family Homes",6/7/2021,,240891,,"326 E 28TH",HOUSTON,TX,77008,,,CONTRACTOR,,,,,,,,,,,"CENTURY CUSTOM HOMES",,,,,"CENTURY CUSTOM HOMES","9601 KATY FREEWAY, SUITE 475",HOUSTON,TX,77024,"(832) 649-4606",http://cchomeshouston.com/,"(832) 649-4942","CAMERON SHOAEE",
TX,HARRIS,21040230,"Single Family Homes",6/7/2021,,240891,,"324 E 28TH",HOUSTON,TX,77008,,,CONTRACTOR,,,,,,,,,,,"CENTURY CUSTOM HOMES",,,,,"CENTURY CUSTOM HOMES","9601 KATY FREEWAY, SUITE 475",HOUSTON,TX,77024,"(832) 649-4606",http://cchomeshouston.com/,"(832) 649-4942","CAMERON SHOAEE",
TX,HARRIS,21032025,"Single Family Homes",6/4/2021,,340000,,"13204 NEWCASTLE CREEK",HOUSTON,TX,77059,,,CONTRACTOR,,,,,,,,,,,"TRENDMAKER HOMES",,,,,"TRENDMAKER HOMES","16340 PARK TEN PL STE 250",HOUSTON,TX,77084-5144,"(281) 675-3200",,"(281) 675-3251","MARTIN EVANS",
TX,HARRIS,21036247,"Single Family Homes",6/4/2021,,420580,,"4009 DELTA ROSE",HOUSTON,TX,77018,,,CONTRACTOR,,,,,,,,,,,"MARIA VARGAS",,,,,"MARIA VARGAS","1311 BROADFIELD BLVD",HOUSTON,TX,77084-5186,"(281) 529-9127",,,,
TX,HARRIS,21036251,"Single Family Homes",6/3/2021,,417310,,"4017 DELTA ROSE",HOUSTON,TX,77018,,,CONTRACTOR,,,,,,,,,,,"MARIA VARGAS",,,,,"MARIA VARGAS","1311 BROADFIELD BLVD",HOUSTON,TX,77084-5186,"(281) 529-9127",,,,
TX,HARRIS,21036253,"Single Family Homes",6/3/2021,,398250,,"4025 DELTA ROSE",HOUSTON,TX,77018,,,CONTRACTOR,,,,,,,,,,,"MARIA VARGAS",,,,,"MARIA VARGAS","1311 BROADFIELD BLVD",HOUSTON,TX,77084-5186,"(281) 529-9127",,,,
TX,HARRIS,21024511,"Single Family Homes",6/2/2021,,386940,,"10324 HARMON SMITH",HOUSTON,TX,77054,,,CONTRACTOR,,,,,,,,,,,"MARIA VARGAS",,,,,"MARIA VARGAS","1311 BROADFIELD BLVD",HOUSTON,TX,77084-5186,"(281) 529-9127",,,,
TX,HARRIS,21042266,"Single Family Homes",6/1/2021,,393710,,"3410 SIGNOR",HOUSTON,TX,77054,,,CONTRACTOR,,,,,,,,,,,"MARIA VARGAS",,,,,"MARIA VARGAS","1311 BROADFIELD BLVD",HOUSTON,TX,77084-5186,"(281) 529-9127",,,,
TX,HARRIS,21030039,"Single Family Homes",6/1/2021,,339450,,"1725 SUMMERLYN TERRACE",HOUSTON,TX,77084,,,CONTRACTOR,,,,,,,,,,,"MARIA VARGAS",,,,,"MARIA VARGAS","1311 BROADFIELD BLVD",HOUSTON,TX,77084-5186,"(281) 529-9127",,,,
TX,HARRIS,21036451,"Single Family Homes",6/7/2021,,347430,,"1732 SUMMERLYN TERRACE",HOUSTON,TX,77080,,,CONTRACTOR,,,,,,,,,,,"MARIA VARGAS",,,,,"MARIA VARGAS","1311 BROADFIELD BLVD",HOUSTON,TX,77084-5186,"(281) 529-9127",,,,
TX,HARRIS,21028975,"Single Family Homes",6/7/2021,,192000,,"2505 LUCKY ST",HOUSTON,TX,77088,,,CONTRACTOR,,,,,,,,,,,"THE GREEN HOME BUILDER",,,,,"THE GREEN HOME BUILDER","24938 CLOVER RANCH",HOUSTON,TX,77494,"(713) 501-4582",https://thegreenhomebuilder.com/,,"WANG HONGLEI",
TX,HARRIS,20067228,"Single Family Homes",6/3/2021,,358056,,"16906 FORKED LAKE",HOUSTON,TX,77044,,,CONTRACTOR,,,,,,,,,,,"WESTIN HOMES",,,,,"WESTIN HOMES","1 SUGAR CREEK CENTER BLVD STE 600","SUGAR LAND",TX,77478-3787,"(281) 240-1551",http://www.westin-homes.com,,,
TX,MONTGOMERY,BR-21-008397,"Single Family Homes",5/10/2021,,172938,3089,"303 MALLOW WOODS PL",CONROE,TX,77318,,,CONTRACTOR,,,,,,,,,,,"GEHAN HOMES",,,,,"GEHAN HOMES","2050 W SAM HOUSTON PKWY S",HOUSTON,TX,77042-2079,"(713) 243-3545",http://www.gehanhomes.com,,,
TX,MONTGOMERY,BR-21-009041,"Single Family Homes",5/17/2021,,177652,2903,"177 BLUEBELL WOODS WAY",CONROE,TX,77318,,1,CONTRACTOR,,,,,,,,,,,"GEHAN HOMES",,,,,"GEHAN HOMES","2050 W SAM HOUSTON PKWY S",HOUSTON,TX,77042-2079,"(713) 243-3545",http://www.gehanhomes.com,,,
TX,MONTGOMERY,BR-21-008362,"Single Family Homes",5/10/2021,,178766,2979,"402 SOAPBERRY TREE CT",CONROE,TX,77318,"THE WOODLANDS HILLS",20,CONTRACTOR,,,,,,,,,,,"CHESMAR HOMES",,,,,"CHESMAR HOMES","450 GEARS RD STE 400",HOUSTON,TX,77067-4513,"(281) 598-1111",http://chesmar.com,"(281) 598-1115",,customerservice.houston@chesmar.com
TX,MONTGOMERY,BR-21-008692,"Single Family Homes",5/19/2021,,179550,4194,"6010 HENRY HAMLET DR",CONROE,TX,77304,"WATER CREST ON LAKE CONROE",3,CONTRACTOR,,,,,,,,,,,"DR HORTON",,,,,"DR HORTON","14100 SOUTHWEST",HOUSTON,TX,77478,"(281) 201-5559",,,,
TX,MONTGOMERY,BR-21-008415,"Single Family Homes",5/13/2021,,180000,2186,"3457 WOODED LN",CONROE,TX,77301,"MACKENZIE CREEK",14,CONTRACTOR,,,,,,,,,,,"LEGEND HOMES",,,,,"LEGEND HOMES","10410 WINDAMERE LAKES BLVD",HOUSTON,TX,77065-4996,"(281) 671-9060",http://legendhomecorp.com/,"(281) 671-9055",,
TX,MONTGOMERY,BR-21-008435,"Single Family Homes",5/13/2021,,180000,2464,"3465 WOODED LN",CONROE,TX,77301,"MACKENZIE CREEK",12,CONTRACTOR,,,,,,,,,,,"LEGEND HOMES",,,,,"LEGEND HOMES","10410 WINDAMERE LAKES BLVD",HOUSTON,TX,77065-4996,"(281) 671-9060",http://legendhomecorp.com/,"(281) 671-9055",,
TX,MONTGOMERY,BR-21-008466,"Single Family Homes",5/10/2021,,180000,2994,"726 SANTA ELENA TRL",CONROE,TX,77304,"GRAND CENTRAL PARK",23,CONTRACTOR,,,,,,,,,,,"HUNTINGTON HOMES",,,,,"HUNTINGTON HOMES","5601 DEMOCRACY DR",PLANO,TX,75024-3687,"(817) 714-8687",http://www.huntingtoncustomhomes.com/,,"AMY KINNEY",
TX,MONTGOMERY,BR-21-009290,"Single Family Homes",5/21/2021,,180000,2186,"3332 TAVO RIDGE DR",CONROE,TX,77301,"MACKENZIE CREEK",8,CONTRACTOR,,,,,,,,,,,"LEGEND HOMES",,,,,"LEGEND HOMES","10410 WINDAMERE LAKES BLVD",HOUSTON,TX,77065-4996,"(281) 671-9060",http://legendhomecorp.com/,"(281) 671-9055",,
TX,MONTGOMERY,BR-21-009325,"Single Family Homes",5/21/2021,,180000,2186,"3609 CUB DR",CONROE,TX,77301,"MACKENZIE CREEK",2,CONTRACTOR,,,,,,,,,,,"LEGEND HOMES",,,,,"LEGEND HOMES","10410 WINDAMERE LAKES BLVD",HOUSTON,TX,77065-4996,"(281) 671-9060",http://legendhomecorp.com/,"(281) 671-9055",,
TX,MONTGOMERY,BR-21-009379,"Single Family Homes",5/21/2021,,180000,2464,"3613 CUB DR",CONROE,TX,77301,"MACKENZIE CREEK",3,CONTRACTOR,,,,,,,,,,,"LEGEND HOMES",,,,,"LEGEND HOMES","10410 WINDAMERE LAKES BLVD",HOUSTON,TX,77065-4996,"(281) 671-9060",http://legendhomecorp.com/,"(281) 671-9055",,
TX,MONTGOMERY,BR-21-009593,"Single Family Homes",5/26/2021,,180000,2967,"427 BOGGY BELT LN",CONROE,TX,77304,,,CONTRACTOR,,,,,,,,,,,"HIGHLAND HOMES",,,,,"HIGHLAND HOMES","10930 W SAM HOUSTON PKWY N STE 100",HOUSTON,TX,77064-6331,"(281) 517-9800",,,,
TX,MONTGOMERY,BR-21-008968,"Single Family Homes",5/19/2021,,180630,3999,"6006 LEEWARD ISLAND DR",CONROE,TX,77304,"WATER CREST ON LAKE CONROE",4,CONTRACTOR,,,,,,,,,,,"DR HORTON",,,,,"DR HORTON","14100 SOUTHWEST",HOUSTON,TX,77478,"(281) 201-5559",,,,
TX,MONTGOMERY,BR-21-008888,"Single Family Homes",5/17/2021,,182000,2873,"430 NORTHERN PIKE DR",CONROE,TX,77318,"THE WOODLANDS HILLS",1,CONTRACTOR,,,,,,,,,,,"GRAND VIEW BUILDERS",,,,,"GRAND VIEW BUILDERS","525 N SAM HOUSTON PKWY E STE 600",HOUSTON,TX,77060-4015,"(281) 741-8946",http://www.gvbtx.com/,,,
TX,MONTGOMERY,BR-21-008814,"Single Family Homes",5/17/2021,,183856,3182,"415 TULIP TREE CT",CONROE,TX,77318,"THE WOODLANDS HILLS",37,CONTRACTOR,,,,,,,,,,,"GEHAN HOMES",,,,,"GEHAN HOMES","2050 W SAM HOUSTON PKWY S",HOUSTON,TX,77042-2079,"(713) 243-3545",http://www.gehanhomes.com,,,
TX,MONTGOMERY,BR-21-009583,"Single Family Homes",5/28/2021,,184422,3006,"419 TULIP TREE CT",CONROE,TX,77318,"THE WOODLANDS HILLS",36,CONTRACTOR,,,,,,,,,,,"GEHAN HOMES",,,,,"GEHAN HOMES","2050 W SAM HOUSTON PKWY S",HOUSTON,TX,77042-2079,"(713) 243-3545",http://www.gehanhomes.com,,,
TX,MONTGOMERY,BR-21-007707,"Single Family Homes",5/18/2021,,184800,3195,"2513 CANYON CROWN COURT LN",CONROE,TX,77304,"CANYON CREEK",6,CONTRACTOR,,,,,,,,,,,"KENDALL HOMES",,,,,"KENDALL HOMES","427 MASON PARK BLVD",KATY,TX,77450-6187,"(281) 398-4010",http://www.kendallhomes.net/,"(281) 398-4011",,
TX,MONTGOMERY,BR-21-008387,"Single Family Homes",5/10/2021,,186798,3184,"303 SOUTHERN RED CT",CONROE,TX,77318,"THE WOODLANDS HILLS",5,CONTRACTOR,,,,,,,,,,,"GEHAN HOMES",,,,,"GEHAN HOMES","2050 W SAM HOUSTON PKWY S",HOUSTON,TX,77042-2079,"(713) 243-3545",http://www.gehanhomes.com,,,
TX,MONTGOMERY,BR-21-008808,"Single Family Homes",5/17/2021,,186841,3076,"508 PEPPERRIDGE CT",CONROE,TX,77318,"THE WOODLANDS HILLS",28,CONTRACTOR,,,,,,,,,,,"GEHAN HOMES",,,,,"GEHAN HOMES","2050 W SAM HOUSTON PKWY S",HOUSTON,TX,77042-2079,"(713) 243-3545",http://www.gehanhomes.com,,,
TX,MONTGOMERY,BR-21-008409,"Single Family Homes",5/13/2021,,189000,2616,"3453 WOODED LN",CONROE,TX,77301,"MACKENZIE CREEK",15,CONTRACTOR,,,,,,,,,,,"LEGEND HOMES",,,,,"LEGEND HOMES","10410 WINDAMERE LAKES BLVD",HOUSTON,TX,77065-4996,"(281) 671-9060",http://legendhomecorp.com/,"(281) 671-9055",,
TX,MONTGOMERY,BR-21-008797,"Single Family Homes",5/17/2021,,189587,3157,"247 SCARLET MAPLE WAY",CONROE,TX,77318,"THE WOODLANDS HILLS",11,CONTRACTOR,,,,,,,,,,,"GEHAN HOMES",,,,,"GEHAN HOMES","2050 W SAM HOUSTON PKWY S",HOUSTON,TX,77042-2079,"(713) 243-3545",http://www.gehanhomes.com,,,
TX,MONTGOMERY,BR-21-009556,"Single Family Homes",5/28/2021,,190125,2794,"101 DOVE SPRINGS CT",CONROE,TX,77304,"GRAND CENTRAL PARK",10,CONTRACTOR,,,,,,,,,,,"TRI POINTE HOMES",,,,,"TRI POINTE HOMES","16340 PARK TEN PLACE, #250",HOUSTON,TX,77356,"(281) 675-3200",https://investors.tripointehomes.com/,,,
TX,MONTGOMERY,BR-21-008392,"Single Family Homes",5/10/2021,,192205,3189,"168 GRAY PINE GROVE WAY",CONROE,TX,77318,"THE WOODLANDS HILLS",30,CONTRACTOR,,,,,,,,,,,"GEHAN HOMES",,,,,"GEHAN HOMES","2050 W SAM HOUSTON PKWY S",HOUSTON,TX,77042-2079,"(713) 243-3545",http://www.gehanhomes.com,,,
TX,MONTGOMERY,BR-21-009560,"Single Family Homes",5/28/2021,,194250,2748,"147 DOVE SPRINGS CT",CONROE,TX,77304,"GRAND CENTRAL PARK",21,CONTRACTOR,,,,,,,,,,,"TRI POINTE HOMES",,,,,"TRI POINTE HOMES","16340 PARK TEN PLACE, #250",HOUSTON,TX,77356,"(281) 675-3200",https://investors.tripointehomes.com/,,,
TX,MONTGOMERY,BR-21-008480,"Single Family Homes",5/10/2021,,200395,3381,"12313 DELTA TIMBER RD",CONROE,TX,77304,"HERITAGE RESERVE",10,CONTRACTOR,,,,,,,,,,,"ANGEE JONES",,,,,"ANGEE JONES","681 GREENS PKWY STE 200",HOUSTON,TX,77067,"(281) 780-4139",,,,
TX,MONTGOMERY,BR-21-008853,"Single Family Homes",5/17/2021,,200620,3157,"355 SILVER CARP TRL",CONROE,TX,77318,"THE WOODLANDS HILLS",18,CONTRACTOR,,,,,,,,,,,"GRAND VIEW BUILDERS",,,,,"GRAND VIEW BUILDERS","525 N SAM HOUSTON PKWY E STE 600",HOUSTON,TX,77060-4015,"(281) 741-8946",http://www.gvbtx.com/,,,
TX,MONTGOMERY,BR-21-008856,"Single Family Homes",5/17/2021,,200620,3219,"504 BLUE THREADFIN CT",CONROE,TX,77318,"THE WOODLANDS HILLS",1,CONTRACTOR,,,,,,,,,,,"GRAND VIEW BUILDERS",,,,,"GRAND VIEW BUILDERS","525 N SAM HOUSTON PKWY E STE 600",HOUSTON,TX,77060-4015,"(281) 741-8946",http://www.gvbtx.com/,,,
TX,MONTGOMERY,BR-21-008254,"Single Family Homes",5/12/2021,,208990,2278,"1808 HIDDEN CEDAR CT",CONROE,TX,77301,"HIDDEN CREEK PRESERVE",66,CONTRACTOR,,,,,,,,,,,"HISTORY MAKER HOMES",,,,,"HISTORY MAKER HOMES","9001 AIRPORT FWY SUITE 400","NORTH RICHLAND HILLS",TX,76180-7769,"(817) 429-8008",http://www.historymaker.com/,"(817) 507-1102","JILL BARFIELD",
TX,MONTGOMERY,BR-21-008382,"Single Family Homes",5/10/2021,,209327,3364,"339 SILVER CARP TRL",CONROE,TX,77318,"THE WOODLANDS HILLS",22,CONTRACTOR,,,,,,,,,,,"CHESMAR HOMES",,,,,"CHESMAR HOMES","450 GEARS RD STE 400",HOUSTON,TX,77067-4513,"(281) 598-1111",http://chesmar.com,"(281) 598-1115",,customerservice.houston@chesmar.com
TX,MONTGOMERY,BR-21-008979,"Single Family Homes",5/19/2021,,210510,4907,"6006 HENRY HAMLET DR",CONROE,TX,77304,"WATER CREST ON LAKE CONROE",2,CONTRACTOR,,,,,,,,,,,"DR HORTON",,,,,"DR HORTON","14100 SOUTHWEST",HOUSTON,TX,77478,"(281) 201-5559",,,,
TX,MONTGOMERY,BR-21-008904,"Single Family Homes",5/17/2021,,211750,3354,"316 SILVER CARP TRL",CONROE,TX,77318,"THE WOODLANDS HILLS",7,CONTRACTOR,,,,,,,,,,,"GRAND VIEW BUILDERS",,,,,"GRAND VIEW BUILDERS","525 N SAM HOUSTON PKWY E STE 600",HOUSTON,TX,77060-4015,"(281) 741-8946",http://www.gvbtx.com/,,,
TX,MONTGOMERY,BR-21-008944,"Single Family Homes",5/17/2021,,211750,3354,"431 NORTHERN PIKE DR",CONROE,TX,77318,"THE WOODLANDS HILLS",8,CONTRACTOR,,,,,,,,,,,"GRAND VIEW BUILDERS",,,,,"GRAND VIEW BUILDERS","525 N SAM HOUSTON PKWY E STE 600",HOUSTON,TX,77060-4015,"(281) 741-8946",http://www.gvbtx.com/,,,
TX,MONTGOMERY,BR-21-008952,"Single Family Homes",5/17/2021,,211750,3414,"359 SILVER CARP TRL",CONROE,TX,77318,"THE WOODLANDS HILLS",17,CONTRACTOR,,,,,,,,,,,"GRAND VIEW BUILDERS",,,,,"GRAND VIEW BUILDERS","525 N SAM HOUSTON PKWY E STE 600",HOUSTON,TX,77060-4015,"(281) 741-8946",http://www.gvbtx.com/,,,
TX,MONTGOMERY,BR-21-008861,"Single Family Homes",5/17/2021,,214060,3299,"422 NORTHERN PIKE DR",CONROE,TX,77318,"THE WOODLANDS HILLS",3,CONTRACTOR,,,,,,,,,,,"GRAND VIEW BUILDERS",,,,,"GRAND VIEW BUILDERS","525 N SAM HOUSTON PKWY E STE 600",HOUSTON,TX,77060-4015,"(281) 741-8946",http://www.gvbtx.com/,,,
TX,MONTGOMERY,BR-21-008896,"Single Family Homes",5/17/2021,,214060,3359,"312 SILVER CARP TRL",CONROE,TX,77318,"THE WOODLANDS HILLS",8,CONTRACTOR,,,,,,,,,,,"GRAND VIEW BUILDERS",,,,,"GRAND VIEW BUILDERS","525 N SAM HOUSTON PKWY E STE 600",HOUSTON,TX,77060-4015,"(281) 741-8946",http://www.gvbtx.com/,,,
TX,MONTGOMERY,BR-21-008513,"Single Family Homes",5/18/2021,,214608,3762,"3336 BOXWOOD FOREST CT",CONROE,TX,77301,"BARTON CREEK RANCH",20,CONTRACTOR,,,,,,,,,,,"WOODMERE DEVELOPMENT",,,,,"WOODMERE DEVELOPMENT","15915  KATY FAIRWAY   STE 405  ",CONROE,TX,77304,"(281) 830-1579",,,,
TX,MONTGOMERY,BR-21-008740,"Single Family Homes",5/20/2021,,215000,3751,"511 PEPPERRIDGE CT",CONROE,TX,77318,"THE WOODLANDS HILLS",27,CONTRACTOR,,,,,,,,,,,"WESTIN HOMES",,,,,"WESTIN HOMES","1 SUGAR CREEK CENTER BLVD STE 600","SUGAR LAND",TX,77478-3787,"(281) 240-1551",http://www.westin-homes.com,,,
TX,MONTGOMERY,BR-21-008370,"Single Family Homes",5/10/2021,,217879,3543,"104 YELLOW PERCH WAY",CONROE,TX,77318,"THE WOODLANDS HILLS",37,CONTRACTOR,,,,,,,,,,,"CHESMAR HOMES",,,,,"CHESMAR HOMES","450 GEARS RD STE 400",HOUSTON,TX,77067-4513,"(281) 598-1111",http://chesmar.com,"(281) 598-1115",,customerservice.houston@chesmar.com
TX,MONTGOMERY,BR-21-008929,"Single Family Homes",5/17/2021,,219940,3387,"335 SILVER CARP TRL",CONROE,TX,77318,"THE WOODLANDS HILLS",23,CONTRACTOR,,,,,,,,,,,"GRAND VIEW BUILDERS",,,,,"GRAND VIEW BUILDERS","525 N SAM HOUSTON PKWY E STE 600",HOUSTON,TX,77060-4015,"(281) 741-8946",http://www.gvbtx.com/,,,
TX,MONTGOMERY,BR-21-007505,"Single Family Homes",5/11/2021,,220000,3739,"302 S CADENCE HILLS LOOP",CONROE,TX,77318,"THE WOODLANDS HILLS",16,CONTRACTOR,,,,,,,,,,,"WESTIN HOMES",,,,,"WESTIN HOMES","1 SUGAR CREEK CENTER BLVD STE 600","SUGAR LAND",TX,77478-3787,"(281) 240-1551",http://www.westin-homes.com,,,
TX,MONTGOMERY,BR-21-008755,"Single Family Homes",5/20/2021,,220000,3739,"1113 LAKE HOUSE DR",CONROE,TX,77304,"GRAND CENTRAL PARK",8,CONTRACTOR,,,,,,,,,,,"WESTIN HOMES",,,,,"WESTIN HOMES","1 SUGAR CREEK CENTER BLVD STE 600","SUGAR LAND",TX,77478-3787,"(281) 240-1551",http://www.westin-homes.com,,,
TX,MONTGOMERY,BR-21-008884,"Single Family Homes",5/17/2021,,220430,3414,"351 SILVER CARP TRL",CONROE,TX,77318,"THE WOODLANDS HILLS",19,CONTRACTOR,,,,,,,,,,,"GRAND VIEW BUILDERS",,,,,"GRAND VIEW BUILDERS","525 N SAM HOUSTON PKWY E STE 600",HOUSTON,TX,77060-4015,"(281) 741-8946",http://www.gvbtx.com/,,,
TX,MONTGOMERY,BR-21-008910,"Single Family Homes",5/17/2021,,220430,3521,"510 BLUE THREADFIN CT",CONROE,TX,77318,"THE WOODLANDS HILLS",2,CONTRACTOR,,,,,,,,,,,"GRAND VIEW BUILDERS",,,,,"GRAND VIEW BUILDERS","525 N SAM HOUSTON PKWY E STE 600",HOUSTON,TX,77060-4015,"(281) 741-8946",http://www.gvbtx.com/,,,
TX,MONTGOMERY,BR-21-008914,"Single Family Homes",5/17/2021,,220430,3477,"426 NORTHERN PIKE DR",CONROE,TX,77318,"THE WOODLANDS HILLS",2,CONTRACTOR,,,,,,,,,,,"GRAND VIEW BUILDERS",,,,,"GRAND VIEW BUILDERS","525 N SAM HOUSTON PKWY E STE 600",HOUSTON,TX,77060-4015,"(281) 741-8946",http://www.gvbtx.com/,,,
TX,MONTGOMERY,BR-21-008892,"Single Family Homes",5/17/2021,,220640,3453,"503 BLUE THREADFIN CT",CONROE,TX,77318,"THE WOODLANDS HILLS",5,CONTRACTOR,,,,,,,,,,,"GRAND VIEW BUILDERS",,,,,"GRAND VIEW BUILDERS","525 N SAM HOUSTON PKWY E STE 600",HOUSTON,TX,77060-4015,"(281) 741-8946",http://www.gvbtx.com/,,,
TX,MONTGOMERY,BR-21-009051,"Single Family Homes",5/20/2021,,222000,3613,"226 POPLAR CREST DR",CONROE,TX,77304,"GRAND CENTRAL PARK",10,CONTRACTOR,,,,,,,,,,,"WESTIN HOMES",,,,,"WESTIN HOMES","1 SUGAR CREEK CENTER BLVD STE 600","SUGAR LAND",TX,77478-3787,"(281) 240-1551",http://www.westin-homes.com,,,
TX,MONTGOMERY,BR-21-008510,"Single Family Homes",5/18/2021,,222170,4395,"1916 HAWTHORN STREAM WAY",CONROE,TX,77301,"BARTON CREEK RANCH",17,CONTRACTOR,,,,,,,,,,,"WOODMERE DEVELOPMENT",,,,,"WOODMERE DEVELOPMENT","15915  KATY FAIRWAY   STE 405  ",CONROE,TX,77304,"(281) 830-1579",,,,
TX,MONTGOMERY,BR-21-007861,"Single Family Homes",5/10/2021,,223070,4411,"1912 HAWTHORN STREAM WAY",CONROE,TX,77301,"BARTON CREEK RANCH",18,CONTRACTOR,,,,,,,,,,,"WOODMERE DEVELOPMENT",,,,,"WOODMERE DEVELOPMENT","15915  KATY FAIRWAY   STE 405  ",CONROE,TX,77304,"(281) 830-1579",,,,
TX,MONTGOMERY,BR-21-009587,"Single Family Homes",5/28/2021,,226120,3795,"271 SCARLET MAPLE WAY",CONROE,TX,77318,"THE WOODLANDS HILLS",17,CONTRACTOR,,,,,,,,,,,"GEHAN HOMES",,,,,"GEHAN HOMES","2050 W SAM HOUSTON PKWY S",HOUSTON,TX,77042-2079,"(713) 243-3545",http://www.gehanhomes.com,,,
TX,MONTGOMERY,BR-21-009575,"Single Family Homes",5/28/2021,,241350,3401,"151 DOVE SPRINGS CT",CONROE,TX,77304,"GRAND CENTRAL PARK",22,CONTRACTOR,,,,,,,,,,,"TRI POINTE HOMES",,,,,"TRI POINTE HOMES","16340 PARK TEN PLACE, #250",HOUSTON,TX,77356,"(281) 675-3200",https://investors.tripointehomes.com/,,,
TX,MONTGOMERY,BR-21-007949,"Single Family Homes",5/10/2021,,242000,3728,"290 SCARLET MAPLE WAY",CONROE,TX,77318,"THE WOODLANDS HILLS",15,CONTRACTOR,,,,,,,,,,,"WESTIN HOMES",,,,,"WESTIN HOMES","1 SUGAR CREEK CENTER BLVD STE 600","SUGAR LAND",TX,77478-3787,"(281) 240-1551",http://www.westin-homes.com,,,
TX,MONTGOMERY,183801-21,"Warehouse & Manufacturing",5/7/2021,,200000,,"23771 FM 1314, ELD D",HOUSTON,TX,77356,,,"MARCELA WEST","5300 HOLLISTER ST, STE 503",HOUSTON,TX,77356,,Owner,,,,,OWNER,,,,,OWNER,,,,,,,,,
TX,HARRIS,21006237,"Warehouse & Manufacturing",6/1/2021,Addition,1293000,,"5596 BURR OAK",HOUSTON,TX,77092,,,"CULLEN BURTON","10550 WESTPARK",HOUSTON,TX,77042,"(281) 239-4290",Applicant,,,,,OWNER,,,,,OWNER,,,,,,,,,
TX,HARRIS,20095078,"Warehouse & Manufacturing",6/3/2021,,720000,,"2815 BINGLE",HOUSTON,TX,77055,,,"JULIE DOAN","11700 SOUTHWEST",HOUSTON,TX,77031,"(832) 274-3809",Applicant,,,,,OWNER,,,,,OWNER,,,,,,,,,
