state,county,permno,ptype,pdate,pdescription,jvalue,jsqfeet,jaddr,jcity,jstate,jzip,jsubdiv,jlotno,aname,aaddr,acity,astate,azip,aphone,atype,aurl,afax,aprimarycontact,aemail,bldcode,units,bldgs,ctype,legal,contractor,caddress,ccity,cstate,czip,cphone,curl,cfax,cprimarycontact,cemail
TX,HARRIS,2101220028,"Auto Sales & Services",3/16/2021,,40000,6081,"4420 HIGHWAY 6 NORTH",HOUSTON,TX,77356,"BOISE CASCADE CORP",,"REV COLLISION","4420 HIGHWAY 6 NORTH",HOUSTON,TX,77356,,Owner,,,,,OWNER,,,,,OWNER,,,,,,,,,
TX,BRAZORIA,297,"Auto Sales & Services",3/16/2021,,81000,,"302 THIS WAY","LAKE JACKSON",TX,77566,,,"CAR WASH USA","302 THIS WAY","LAKE JACKSON",TX,77566,,Owner,,,,,OWNER,,,,,OWNER,,,,,,,,,
TX,HARRIS,18134441,"Churches & Other Religious",4/15/2021,,1500000,,"7850 W FUQUA",HOUSTON,TX,77489,,,"AKA'S DARBAR","14323 MARINA BAY",HOUSTON,TX,77498,"(832) 618-8870",Applicant,,,,,OWNER,,,,,OWNER,,,,,,,,,
TX,HARRIS,20091267,"Commercial Swimming Pool & Spas",4/19/2021,,195753,,"8850 LONG POINT",HOUSTON,TX,77055,,,CONTRACTOR,,,,,,,,,,,"JORDAN FOSTER CONSTRUCTION",,,,,"JORDAN FOSTER CONSTRUCTION","9801 WESTHEIMER RD STE 320",HOUSTON,TX,77042-3978,"(832) 615-1270",http://www.cfjordan.com/busdev.html,,,
TX,HARRIS,20067964,"Duplex, Triplex, & Fourplex",4/13/2021,,186998,,"9230 BUFFUM ST A",HOUSTON,TX,77051,,,CONTRACTOR,,,,,,,,,,,"GOLDEN HOUSE BUILDERS",,,,,"GOLDEN HOUSE BUILDERS","22931 BANQUERO",HOUSTON,TX,77373,"(832) 969-8254",,,,
TX,HARRIS,20101252,"Duplex, Triplex, & Fourplex",4/13/2021,,181000,,"16517 GREENMANOR DR",HOUSTON,TX,77396,,,CONTRACTOR,,,,,,,,,,,"MABSOUT HOLDINGS",,,,,"MABSOUT HOLDINGS","7010 LEENSLODGE",HUMBLE,TX,77346,"(713) 825-0212",,,,
TX,HARRIS,20097009,"Duplex, Triplex, & Fourplex",4/16/2021,,160000,,"4802 CRUSE RD 1",HOUSTON,TX,77016,,,CONTRACTOR,,,,,,,,,,,"MW ROGERS CONSTRUCTION",,,,,"MW ROGERS CONSTRUCTION","7536 HARMS RD",HOUSTON,TX,77041-2141,"(713) 937-7200",http://www.mwrogers.com/,"(713) 937-7205",,info@mwrogers.com
TX,HARRIS,21008932,"Duplex, Triplex, & Fourplex",4/13/2021,,165000,,"6610 DICKSON WAY A",HOUSTON,TX,77085,,,"JESUS HERNANDEZ","6610 DICKSON WAY A &",HOUSTON,TX,77085,,Owner,,,,,OWNER,,,,,OWNER,,,,,,,,,
TX,HARRIS,20101253,"Duplex, Triplex, & Fourplex",4/13/2021,,181000,,"16513 GREENMANOR DR A",HOUSTON,TX,77396,,,"MABSOUT FADI","16513 GREENMANOR DR A",HOUSTON,TX,77396,,Owner,,,,,"MABSOUT HOLDINGS",,,,,"MABSOUT HOLDINGS","7010 LEENSLODGE",HUMBLE,TX,77346,"(713) 825-0212",,,,
TX,HARRIS,20072877,"Duplex, Triplex, & Fourplex",4/19/2021,,298000,,"5417 TEXAS",HOUSTON,TX,77011,,,"RODRIGUEZ D","5417 TEXAS",HOUSTON,TX,77011,,Owner,,,,,OWNER,,,,,OWNER,,,,,,,,,
TX,BRAZORIA,,"Educational Institution",3/16/2021,,689388,,"100 OYSTER CREEK DR","LAKE JACKSON",TX,77566,,,"BRAZOSPORT ISD","100 OYSTER CREEK DR","LAKE JACKSON",TX,77566,,Owner,,,,,OWNER,,,,,OWNER,,,,,,,,,
TX,BRAZOS,21-1042,"Educational Institution",3/23/2021,Renovation,899000,,"1904 W SH 21",BRYAN,TX,77807,,,CONTRACTOR,,,,,,,,,,,"COLLIER CONSTRUCTION",,,,,"COLLIER CONSTRUCTION","1601 LOOP 290 WEST",BRENHAM,TX,77251-1889,"(979) 836-4477",http://www.collierconstruction.com,"(979) 836-4940",,mail@collierconstruction.com
TX,HARRIS,2102260037,"Hospital & Other Medical",3/16/2021,,251700,1700,"7405 FM 1960 RD",HOUSTON,TX,77356,"ATASCOCITA TOWN",,"SOLIS MAMMOGRAPHY","7405 FM 1960 RD",HOUSTON,TX,77356,,Owner,,,,,OWNER,,,,,OWNER,,,,,,,,,
TX,HARRIS,2103190146,"Hospital & Other Medical",3/16/2021,,144000,1800,"9166 FM 2920",HOUSTON,TX,77356,ELIZABETH,,"RAJ BANGA","9166 FM 2920",HOUSTON,TX,77356,,Owner,,,,,OWNER,,,,,OWNER,,,,,,,,,
TX,HARRIS,2102130002,"Hospital & Other Medical",3/16/2021,,400000,4300,"2907 FM 1960 RD W",HOUSTON,TX,77356,,,"THE GREEN PAPAYA ENTERPRISE LLC","2907 FM 1960 RD W",HOUSTON,TX,77356,,Owner,,,,,OWNER,,,,,OWNER,,,,,,,,,
TX,HARRIS,21024830,"Hospital & Other Medical",4/19/2021,Renovations,638495,,"18400 KATY FWY",HOUSTON,TX,77094,,,"JENNIFER RODRIGUEZ","11410 BRITTMOORE PARK",HOUSTON,TX,77041,"(832) 459-3449",Applicant,,,,,OWNER,,,,,OWNER,,,,,,,,,
TX,HARRIS,21009119,"Hospital & Other Medical",4/13/2021,Renovations,525000,,"500 MAXEY RD",HOUSTON,TX,77013,,,CONTRACTOR,,,,,,,,,,,WALGREENS,,,,,WALGREENS,"5230 BUFFALO",HOUSTON,TX,77005,"(281) 912-5759",,,,
TX,HARRIS,20112598,"Hospital & Other Medical",4/14/2021,Renovations,48500,,"11723 W BELLFORT",HOUSTON,TX,77477,,,"ADIL ZAHIR","14231 FM 1464 RD",HOUSTON,TX,77498,"(832) 231-7047",Applicant,,,,,OWNER,,,,,OWNER,,,,,,,,,
TX,HARRIS,2012070119,"Hospital & Other Medical",3/16/2021,,2200000,10102,"8430 CREEKSIDE FOREST DR",HOUSTON,TX,77356,"THE WOODLANDS CREEKSIDE PARK",,"KA OF CSP INC","8430 CREEKSIDE FOREST DR",HOUSTON,TX,77356,,Owner,,,,,OWNER,,,,,OWNER,,,,,,,,,
TX,BRAZOS,21-0475,"Hospital & Other Medical",3/22/2021,"Finish Out",169000,1333,"1601 N TEXAS AVE #150",BRYAN,TX,77803,,,CONTRACTOR,,,,,,,,,,,"MED TECH CONSTRUCTION",,,,,"MED TECH CONSTRUCTION","3801 KIRBY DR",HOUSTON,TX,77098-4100,"(281) 857-7927",,"(210) 437-0871",,bnash@medtechconstruction.com
TX,BRAZOS,21-0995,"Multi Family Apartments & Condos",3/22/2021,,166000,2095,"1536 BENNETT ST",BRYAN,TX,77802,CLOISTERS,16,CONTRACTOR,,,,,,,,,,,"OAKWOOD CUSTOM HOMES",,,,,"OAKWOOD CUSTOM HOMES","4060 STATE HIGHWAY 6 S ","COLLEGE STATION",TX,77845-8962,"(979) 690-1504",http://oakchb.com/,"(979) 690-2504",,sales@oakchb.com
TX,BRAZOS,21-0996,"Multi Family Apartments & Condos",3/22/2021,,166000,2095,"1538 BENNETT ST",BRYAN,TX,77802,CLOISTERS,15,CONTRACTOR,,,,,,,,,,,"OAKWOOD CUSTOM HOMES",,,,,"OAKWOOD CUSTOM HOMES","4060 STATE HIGHWAY 6 S ","COLLEGE STATION",TX,77845-8962,"(979) 690-1504",http://oakchb.com/,"(979) 690-2504",,sales@oakchb.com
TX,BRAZOS,21-0997,"Multi Family Apartments & Condos",3/22/2021,,166000,2095,"1540 BENNETT ST",BRYAN,TX,77802,CLOISTERS,14,CONTRACTOR,,,,,,,,,,,"OAKWOOD CUSTOM HOMES",,,,,"OAKWOOD CUSTOM HOMES","4060 STATE HIGHWAY 6 S ","COLLEGE STATION",TX,77845-8962,"(979) 690-1504",http://oakchb.com/,"(979) 690-2504",,sales@oakchb.com
TX,BRAZOS,21-0998,"Multi Family Apartments & Condos",3/22/2021,,166000,2095,"1542 BENNETT ST",BRYAN,TX,77802,CLOISTERS,13,CONTRACTOR,,,,,,,,,,,"OAKWOOD CUSTOM HOMES",,,,,"OAKWOOD CUSTOM HOMES","4060 STATE HIGHWAY 6 S ","COLLEGE STATION",TX,77845-8962,"(979) 690-1504",http://oakchb.com/,"(979) 690-2504",,sales@oakchb.com
TX,BRAZOS,21-0999,"Multi Family Apartments & Condos",3/22/2021,,166000,2095,"1544 BENNETT ST",BRYAN,TX,77802,CLOISTERS,12,CONTRACTOR,,,,,,,,,,,"OAKWOOD CUSTOM HOMES",,,,,"OAKWOOD CUSTOM HOMES","4060 STATE HIGHWAY 6 S ","COLLEGE STATION",TX,77845-8962,"(979) 690-1504",http://oakchb.com/,"(979) 690-2504",,sales@oakchb.com
TX,BRAZOS,21-1001,"Multi Family Apartments & Condos",3/22/2021,,166000,1858,"1546 BENNETT ST",BRYAN,TX,77802,CLOISTERS,11,CONTRACTOR,,,,,,,,,,,"OAKWOOD CUSTOM HOMES",,,,,"OAKWOOD CUSTOM HOMES","4060 STATE HIGHWAY 6 S ","COLLEGE STATION",TX,77845-8962,"(979) 690-1504",http://oakchb.com/,"(979) 690-2504",,sales@oakchb.com
TX,BRAZOS,21-1002,"Multi Family Apartments & Condos",3/22/2021,,166000,1858,"1548 BENNETT ST",BRYAN,TX,77802,CLOISTERS,10,CONTRACTOR,,,,,,,,,,,"OAKWOOD CUSTOM HOMES",,,,,"OAKWOOD CUSTOM HOMES","4060 STATE HIGHWAY 6 S ","COLLEGE STATION",TX,77845-8962,"(979) 690-1504",http://oakchb.com/,"(979) 690-2504",,sales@oakchb.com
TX,BRAZOS,21-1003,"Multi Family Apartments & Condos",3/22/2021,,166000,1858,"1550 BENNETT ST",BRYAN,TX,77802,CLOISTERS,9,CONTRACTOR,,,,,,,,,,,"OAKWOOD CUSTOM HOMES",,,,,"OAKWOOD CUSTOM HOMES","4060 STATE HIGHWAY 6 S ","COLLEGE STATION",TX,77845-8962,"(979) 690-1504",http://oakchb.com/,"(979) 690-2504",,sales@oakchb.com
TX,BRAZOS,21-1004,"Multi Family Apartments & Condos",3/22/2021,,166000,1858,"1552 BENNETT ST",BRYAN,TX,77802,CLOISTERS,8,CONTRACTOR,,,,,,,,,,,"OAKWOOD CUSTOM HOMES",,,,,"OAKWOOD CUSTOM HOMES","4060 STATE HIGHWAY 6 S ","COLLEGE STATION",TX,77845-8962,"(979) 690-1504",http://oakchb.com/,"(979) 690-2504",,sales@oakchb.com
TX,BRAZOS,21-1005,"Multi Family Apartments & Condos",3/22/2021,,166000,1971,"1554 BENNETT ST",BRYAN,TX,77802,CLOISTERS,,CONTRACTOR,,,,,,,,,,,"OAKWOOD CUSTOM HOMES",,,,,"OAKWOOD CUSTOM HOMES","4060 STATE HIGHWAY 6 S ","COLLEGE STATION",TX,77845-8962,"(979) 690-1504",http://oakchb.com/,"(979) 690-2504",,sales@oakchb.com
TX,BRAZOS,21-1006,"Multi Family Apartments & Condos",3/22/2021,,166000,1971,"1556 BENNETT ST",BRYAN,TX,77802,CLOISTERS,6,CONTRACTOR,,,,,,,,,,,"OAKWOOD CUSTOM HOMES",,,,,"OAKWOOD CUSTOM HOMES","4060 STATE HIGHWAY 6 S ","COLLEGE STATION",TX,77845-8962,"(979) 690-1504",http://oakchb.com/,"(979) 690-2504",,sales@oakchb.com
TX,BRAZOS,21-1008,"Multi Family Apartments & Condos",3/22/2021,,166000,2261,"1558 BENNETT ST",BRYAN,TX,77802,CLOISTERS,5,CONTRACTOR,,,,,,,,,,,"OAKWOOD CUSTOM HOMES",,,,,"OAKWOOD CUSTOM HOMES","4060 STATE HIGHWAY 6 S ","COLLEGE STATION",TX,77845-8962,"(979) 690-1504",http://oakchb.com/,"(979) 690-2504",,sales@oakchb.com
TX,BRAZOS,21-0862,"Multi Family Apartments & Condos",3/18/2021,,455000,6950,"425 N HARVEY MITCHELL PKWY # B8",BRYAN,TX,77803,,,CONTRACTOR,,,,,,,,,,,"PROVERB CONSTRUCTION",,,,,"PROVERB CONSTRUCTION","3179 LA VENTA WAY","COLLEGE STATION",TX,77845-1401,"(979) 690-5649",,,"CODYY HALL",
TX,GALVESTON,,"Multi Family Renovations & Additions",3/1/2021,Renovation,95267,,"3916 AVE G B",GALVESTON,TX,77550,,,CONTRACTOR,,,,,,,,,,,"JC CANTERA HOMES",,,,,"JC CANTERA HOMES","PO BOX 539",FRESNO,TX,77545-0539,"(281) 431-8755",http://www.jccantera.com,"(281) 431-6669","JESSE COVARRUBIAS",jccantera@jccantera.com
TX,GALVESTON,,"Multi Family Renovations & Additions",3/31/2021,Renovation,40000,,"7700 SEAWALL BLVD",GALVESTON,TX,77551,,,CONTRACTOR,,,,,,,,,,,"CLEAN SEAL AMERICA",,,,,"CLEAN SEAL AMERICA","17515 EL CAMINO REAL",HOUSTON,TX,77058-3031,"(713) 419-6139",,,,
TX,HARRIS,2103230178,"Offices, R&D, & Professional",3/16/2021,,135000,4883,"16341 MUESCHKE RD",HOUSTON,TX,77356,"CYPRESS CORNER BUSINESS CENTER",,"CYPRESS CORNER","16341 MUESCHKE RD",HOUSTON,TX,77356,,Owner,,,,,OWNER,,,,,OWNER,,,,,,,,,
TX,BRAZORIA,365,"Offices, R&D, & Professional",3/16/2021,,30000,,"204 PARKING WAY","LAKE JACKSON",TX,77566,,,"TOTALLY BLOWN AWAY","204 PARKING WAY","LAKE JACKSON",TX,77566,,Owner,,,,,OWNER,,,,,OWNER,,,,,,,,,
TX,BRAZORIA,,"Offices, R&D, & Professional",3/9/2021,,1500000,,"1400 N BRAZOSPORT BLVD",FREEPORT,TX,77541,,,CONTRACTOR,,,,,,,,,,,"CONSTRUCTION MASTERS OF HOUSTON",,,,,"CONSTRUCTION MASTERS OF HOUSTON","3908 3RD ST",PEARLAND,TX,77581-4747,"(281) 997-2640",http://www.cmhou.net/,"(281) 485-4702","BOB CAMPBELL",
TX,HARRIS,20081378,"Offices, R&D, & Professional",4/14/2021,,3440000,,"2475 BAY AREA BLVD",HOUSTON,TX,77058,,,CONTRACTOR,,,,,,,,,,,"MAPP CONSTRUCTION",,,,,"MAPP CONSTRUCTION","11511 KATY FWY STE 145",HOUSTON,TX,77079-1985,"(281) 582-3696",http://www.mappconstruction.com/,"(281) 582-3697","GRAHAM MERRIMAN",gmerriman@mappconstruction.com
TX,HARRIS,21016628,"Offices, R&D, & Professional",4/14/2021,Renovations,2300000,,"1333 WEST LOOP SOUTH",HOUSTON,TX,77027,,,CONTRACTOR,,,,,,,,,,,"DE HARVEY BUILDERS",,,,,"DE HARVEY BUILDERS","3630 WESTCHASE DR",HOUSTON,TX,77042-5224,"(713) 783-8710",,,,
TX,HARRIS,21029503,"Offices, R&D, & Professional",4/16/2021,Renovations,42000,,"11750 KATY FWY",HOUSTON,TX,77079,,,CONTRACTOR,,,,,,,,,,,PROWEALTHONE,,,,,PROWEALTHONE,"11757 KATY FWY SUITE 1300-B",HOUSTON,TX,77079,"(866) 448-8676",https://www.prowealthone.com/,"(866) 448-6273",,mrubin@prowealthone.com
TX,HARRIS,21025663,"Offices, R&D, & Professional",4/13/2021,Renovations,61882,,"5420 DASHWOOD DR",HOUSTON,TX,77081,,,CONTRACTOR,,,,,,,,,,,"GONZALES CONCEPTS CONSTRUCTION",,,,,"GONZALES CONCEPTS CONSTRUCTION","22014 ROCKCHESTER DR",KATY,TX,77450-5917,"(281) 642-5758",,,,
TX,HARRIS,21014075,"Offices, R&D, & Professional",4/19/2021,Renovations,49500,,"16400 PARK ROW",HOUSTON,TX,77084,,,CONTRACTOR,,,,,,,,,,,"LABORATORY DESIGN & CONSTRUCTION",,,,,"LABORATORY DESIGN & CONSTRUCTION","2500 WILCREST DR STE 300",HOUSTON,TX,77042-2754,"(832) 256-0014",,,,
TX,HARRIS,21012372,"Offices, R&D, & Professional",4/16/2021,Renovations,1200000,,"1300 POST OAK BLVD",HOUSTON,TX,77056,,,CONTRACTOR,,,,,,,,,,,"ODONNELL SNIDER CONSTRUCTION",,,,,"ODONNELL SNIDER CONSTRUCTION","1900 WEST LOOP S STE 350",HOUSTON,TX,77027-3236,"(713) 782-2238",http://odonnellsnider.com/,"(713) 782-2238",,bwhyte@odonnellsnider.com
TX,BRAZOS,21-0658,"Offices, R&D, & Professional",3/19/2021,Renovation,72398,,"8800 HSC PKWY",BRYAN,TX,77807,,,CONTRACTOR,,,,,,,,,,,"WILLIAMS SCOTSMAN",,,,,"WILLIAMS SCOTSMAN","7915 CYPRESS CREEK PKWY",HOUSTON,TX,77070-5716,"(281) 671-2520",,,,
TX,BRAZOS,21-0621,"Offices, R&D, & Professional",3/3/2021,Renovation,140000,,"3740 COPPERFIELD DR #105",BRYAN,TX,77802,,,CONTRACTOR,,,,,,,,,,,"CLAY SQUARED",,,,,"CLAY SQUARED","3523 CARTER CREEK PARKWAY",BRYAN,TX,77802,"(979) 595-6249",,,,
TX,BRAZOS,21-0302,"Offices, R&D, & Professional",3/18/2021,Renovation,150000,1200,"3203 FREEDOM BLVD #300",BRYAN,TX,77802,,,CONTRACTOR,,,,,,,,,,,"SUPERIOR RENOVATION & CONSTRUCTION",,,,,"SUPERIOR RENOVATION & CONSTRUCTION","8000 RESEARCH FOREST DRIVE, SUITE 115-241","THE WOODLANDS",TX,77382,"(281) 961-5860",https://srchomeconstruction.com/,"(832) 442-5932",,
TX,HARRIS,1910020063,"Other Commercial",3/16/2021,,1503000,20040,"36422 HEMPSTEAD RD",HOUSTON,TX,77356,"KICKAPOO INDUSTRIAL",,"3004 ALDINE BENDER PARTENRS LP","36422 HEMPSTEAD RD",HOUSTON,TX,77356,,Owner,,,,,OWNER,,,,,OWNER,,,,,,,,,
TX,GALVESTON,,"Other Commercial",3/17/2021,Renovation,800000,,"7509 AVE J",GALVESTON,TX,77551,,,CONTRACTOR,,,,,,,,,,,"JACOB WHITE CONSTRUCTION",,,,,"JACOB WHITE CONSTRUCTION","2000 W PARKWOOD 100",HOUSTON,TX,77546,"(281) 286-6666",http://www.jacobwhitecc.com/,"(281) 480-7510",,info@jacobwhitecc.com
TX,GALVESTON,,"Other Commercial",3/17/2021,,65000,,"4133 FOURTH ST",GALVESTON,TX,77554,,,CONTRACTOR,,,,,,,,,,,"CARR CONSTRUCTION SERVICES",,,,,"CARR CONSTRUCTION SERVICES","3111 BROADWAY ST",GALVESTON,TX,77550-4225,"(409) 974-4673",,,,
TX,HARRIS,20073139,"Parking Structures & Carports",4/15/2021,,12000000,,"10565 WEST SAM HOUSTON SOUTH PKY",HOUSTON,TX,77004,,,CONTRACTOR,,,,,,,,,,,"GOREE ARCHITECTS",,,,,"GOREE ARCHITECTS","4710 BELLAIRE BLVD STE 105",BELLAIRE,TX,77401-4530,"(713) 660-6102",,,,
TX,GALVESTON,,"Parks, Recreation, Entertainment, & RV Park",3/23/2021,Renovation,30000,,"2109 LOCKHEED RD",GALVESTON,TX,77554,,,CONTRACTOR,,,,,,,,,,,"IMMACULATE PAINTING & CONSTRUCTION",,,,,"IMMACULATE PAINTING & CONSTRUCTION","4202 AVE S",GALVESTON,TX,77550,"(409) 750-9973",,,,
TX,HARRIS,20089425,"Parks, Recreation, Entertainment, & RV Park",4/14/2021,Renovations,30000,,"12115 BISSONNET",HOUSTON,TX,77099,,,"ANTONIO LOPEZ","12119 BISSONNET",HOUSTON,TX,77099,"(832) 236-7368",Applicant,,,,,OWNER,,,,,OWNER,,,,,,,,,
TX,GALVESTON,2021-0467,"Residential Renovations & Additions",3/1/2021,Renovations,40000,,"1610 WHITE WING CIR",FRIENDSWOOD,TX,77546,,,"ROBERT SMITH","1610 WHITE WING CIR",FRIENDSWOOD,TX,77546,,Owner,,,,,"BORN CONSTRUCTION",,,,,"BORN CONSTRUCTION","5519 STARBOARD DR",DICKINSON,TX,77539-9273,"(409) 939-7873",http://www.bornconstruction.com,"(281) 534-6565","TIM BORN",
TX,GALVESTON,2021-0532,"Residential Renovations & Additions",3/1/2021,Renovations,41620,,"2330 HAMILTON POOL LN",FRIENDSWOOD,TX,77546,,,"TREY & LINDSAY HUTCHINS","2330 HAMILTON POOL LN",FRIENDSWOOD,TX,77546,,Owner,,,,,"TIPTON SPIRES DESIGN BUILD",,,,,"TIPTON SPIRES DESIGN BUILD","1100 E NASA PKWY STE 108",HOUSTON,TX,77058,"(281) 335-8316",,,,
TX,GALVESTON,2021-0569,"Residential Renovations & Additions",3/2/2021,Renovations,160000,,"2005 PARKVIEW DR",FRIENDSWOOD,TX,77546,,,"MIKE & DESIREE MATAYA","2005 PARKVIEW DR",FRIENDSWOOD,TX,77546,,Owner,,,,,"J SHELLY SERVICES",,,,,"J SHELLY SERVICES","6304 MICHAEL ST",JUPITER,FL,33458-6603,"(561) 744-0863",,,,
TX,GALVESTON,2021-0728,"Residential Renovations & Additions",3/15/2021,Renovations,39369,,"1004 BOLIVAR POINT LN",FRIENDSWOOD,TX,77546,,,"AARON & CASSIE MELEBECK","1004 BOLIVAR POINT LN",FRIENDSWOOD,TX,77546,,Owner,,,,,"BACKYARD RETREATS",,,,,"BACKYARD RETREATS","3902 LIVINGSTON LAKE CT",PEARLAND,TX,77581-4798,"(281) 485-8483",http://www.backyard-retreat.com,,,backyardretreat@comcast.net
TX,GALVESTON,2021-0739,"Residential Renovations & Additions",3/16/2021,Renovations,35000,,"2308 HALLS CREEK CT",FRIENDSWOOD,TX,77546,,,"RICKEY & AMY COCKERHAM","2308 HALLS CREEK CT",FRIENDSWOOD,TX,77546,,Owner,,,,,"CUSTOM PATIO STRUCTURES",,,,,"CUSTOM PATIO STRUCTURES","6315 B FM 1488 3220",MAGNOLIA,TX,77354,"(832) 570-3990",http://www.custompatiostructures.com/,,,
TX,GALVESTON,2021-0826,"Residential Renovations & Additions",3/29/2021,Renovations,33000,,"1111 COWARDS CREEK DR",FRIENDSWOOD,TX,77546,,,"BLAKE MORGAN","1111 COWARDS CREEK DR",FRIENDSWOOD,TX,77546,,Owner,,,,,"RASA CONSTRUCTION",,,,,"RASA CONSTRUCTION","2605 EVERGREEN DR",PEARLAND,TX,77581-5899,"(713) 875-1689",,,,
TX,GALVESTON,2021-0558,"Residential Renovations & Additions",3/8/2021,Renovations,45000,,"1102 TALL PINES DR",FRIENDSWOOD,TX,77546,,,"LAURIE & RONALD KILLAM","1102 TALL PINES DR",FRIENDSWOOD,TX,77546,,Owner,,,,,"BECK LANDSCAPING",,,,,"BECK LANDSCAPING","3828 BAYOU CIR",DICKINSON,TX,77539,"(409) 795-8404",,,,
TX,BRAZORIA,206,"Residential Renovations & Additions",3/16/2021,Renovations,55000,,"102 ASTER LN","LAKE JACKSON",TX,77566,,,"LYTLE SUSAN & JULIE TESSENER","102 ASTER LN","LAKE JACKSON",TX,77566,,Owner,,,,,OWNER,,,,,OWNER,,,,,,,,,
TX,BRAZORIA,207,"Residential Renovations & Additions",3/16/2021,Renovations,65000,,"206 JUNIPER","LAKE JACKSON",TX,77546,,,"ZIEHL CLINTON & KIMBERLY","206 JUNIPER","LAKE JACKSON",TX,77546,,Owner,,,,,OWNER,,,,,OWNER,,,,,,,,,
TX,BRAZORIA,216,"Residential Renovations & Additions",3/16/2021,Renovations,48200,,"119 S CEDAR","LAKE JACKSON",TX,77546,,,"THOMAS & HOLLIE BOYETT","119 S CEDAR","LAKE JACKSON",TX,77546,,Owner,,,,,OWNER,,,,,OWNER,,,,,,,,,
TX,BRAZORIA,392,"Residential Renovations & Additions",3/16/2021,Renovations,61824,,"58 BANYAN CT","LAKE JACKSON",TX,77546,,,"KIRK RYAN A & KAITLIN & JACKI","58 BANYAN CT","LAKE JACKSON",TX,77546,,Owner,,,,,OWNER,,,,,OWNER,,,,,,,,,
TX,BRAZORIA,403,"Residential Renovations & Additions",3/16/2021,Renovations,72744,,"417 SOUTHERN OAKS DR","LAKE JACKSON",TX,77566,,,"WHITE DAVID WAYNE & CYNTHIA LO","417 SOUTHERN OAKS DR","LAKE JACKSON",TX,77566,,Owner,,,,,OWNER,,,,,OWNER,,,,,,,,,
TX,GALVESTON,RES2021-00129,"Residential Renovations & Additions",3/31/2021,Renovation,81000,,"4211 PELICAN LN",GALVESTON,TX,77554,,,"RYAN & CAITLIN PICKARD","4211 PELICAN LN",GALVESTON,TX,77554,,Owner,,,,,"J A WELDON CONSTRUCTION",,,,,"J A WELDON CONSTRUCTION","6233 SEA ISLE",GALVESTON,TX,77554-9600,"(409) 737-2731",,,"JOHN WELDON",
TX,GALVESTON,RES2021-00163,"Residential Renovations & Additions",3/8/2021,Renovation,65000,,"23015 VIDA ST",GALVESTON,TX,77554,,,"KEVIN & NANCY OKEEFE","23015 VIDA ST",GALVESTON,TX,77554,,Owner,,,,,"BLUE RIVER CONCEPTS",,,,,"BLUE RIVER CONCEPTS","4300 GADDES CREEK DRIVE",POWHATAN,VA,23139,"(430) 023-1398",,,,
TX,GALVESTON,RES2021-00229,"Residential Renovations & Additions",3/2/2021,Renovation,50000,,"3315 AVE P",GALVESTON,TX,77550,,,CONTRACTOR,,,,,,,,,,,"FOSTER BROTHERS CONSTRUCTION",,,,,"FOSTER BROTHERS CONSTRUCTION","4107 AVE M 1/2",GALVESTON,TX,77550,"(940) 367-6139",https://www.fosterbrothersconstruction.com/,,,fosterbrothersconstruction@gmail.com
TX,GALVESTON,RES2021-00261,"Residential Renovations & Additions",3/12/2021,Renovation,45500,,"1914 27TH ST",GALVESTON,TX,77550,,,CONTRACTOR,,,,,,,,,,,"DISTINCTIVE RENOVATIONS",,,,,"DISTINCTIVE RENOVATIONS","2925 GULF FRWY S STE B 456","LEAGUE CITY",TX,77573,"(832) 340-3987",https://www.distinctiverenovationsgc.com/,,,distinctiverenovationsgc@gmail.com
TX,GALVESTON,RES2021-00285,"Residential Renovations & Additions",3/19/2021,Addition,40800,586,"4130 KENT DR",GALVESTON,TX,77554,,,CONTRACTOR,,,,,,,,,,,"TITAN SOLAR POWER",,,,,"TITAN SOLAR POWER","525 W BASELINE RD",MESA,AZ,85210-6013,"(855) 729-7652",https://titansolarpower.com/,,,info@titansolarpower.com
TX,GALVESTON,RES2021-00322,"Residential Renovations & Additions",3/24/2021,Addition,30000,,"4602 AVE L",GALVESTON,TX,77551,,,"RAVEN SCHULZE","4602 AVE L",GALVESTON,TX,77551,,Owner,,,,,"FREEDOM FOREVER TX",,,,,"FREEDOM FOREVER TX","15550 VICKERY DR SUITE 100",HOUSTON,TX,77032-2581,"(888) 557-6431",,,,
TX,GALVESTON,RES2021-00331,"Residential Renovations & Additions",3/19/2021,Renovation,30000,,"21807 MATAGORDA DR",GALVESTON,TX,77554,,,"KELVIN RUSSELL","21807 MATAGORDA DR",GALVESTON,TX,77554,,Owner,,,,,"MOYNAHAN BUILDERS",,,,,"MOYNAHAN BUILDERS","6533 SEA ISLE",GALVESTON,TX,77554-5145,"(281) 704-2743",,,,
TX,HARRIS,21028952,"Residential Renovations & Additions",4/16/2021,Addition,45084,,"6215 ROUGHLOCK",HOUSTON,TX,77016,,,"ANTONIO BARCENAS","6215 ROUGHLOCK",HOUSTON,TX,77016,,Owner,,,,,"JUSTIN MERKEY",,,,,"JUSTIN MERKEY","6999 LITTLE YORK",HOUSTON,TX,77040,"(832) 798-6353",,,,
TX,HARRIS,21024051,"Residential Renovations & Additions",4/13/2021,Renovations,55000,,"3333 ALLEN PKY",HOUSTON,TX,77019,,,"TOMMY BROCK","3333 ALLEN PKY",HOUSTON,TX,77019,,Owner,,,,,"FLOORS N DESIGN",,,,,"FLOORS N DESIGN","565 S MASON RD UNIT",HOUSTON,TX,77450,"(713) 533-8445",,,"DANIEL ABERGAL",
TX,HARRIS,21018797,"Residential Renovations & Additions",4/16/2021,Addition,64000,,"7019 BROOKFIR",HOUSTON,TX,77040,,,"BOBBY BUI","7019 BROOKFIR ",HOUSTON,TX,77040,,Owner,,,,,"PHILIP MAGUIRE",,,,,"PHILIP MAGUIRE","7614 BLUFF POINT",HOUSTON,TX,77086,"(832) 956-0909",,,,
TX,HARRIS,21033079,"Residential Renovations & Additions",4/14/2021,Renovations,30000,,"2702 ISABELLA",HOUSTON,TX,77004,,,"SHIRLEY CALDWELL","2702 ISABELLA",HOUSTON,TX,77004,,Owner,,,,,"KELLY CUSIMANO",,,,,"KELLY CUSIMANO","1450 MARTIN ST",HOUSTON,TX,77018-1851,"(281) 705-2389",,,,
TX,HARRIS,21016308,"Residential Renovations & Additions",4/16/2021,Renovations,138000,,"3970 INVERNESS",HOUSTON,TX,77019,,,CONTRACTOR,,,,,,,,,,,"BUILDERS WEST",,,,,"BUILDERS WEST","8905 FRIENDSHIP RD",HOUSTON,TX,77080-4111,"(713) 465-2233",http://www.builderswest.com,"(713) 465-6996","CHARLES BUNTE",builderswest@builderswest.com
TX,HARRIS,21023265,"Residential Renovations & Additions",4/13/2021,Renovations,75000,,"1810 NAUTS",HOUSTON,TX,77008,,,"PAULINE REDFEARN","1810 NAUTS",HOUSTON,TX,77008,,Owner,,,,,"NIGHTHAWK CONSTRUCTION GROUP",,,,,"NIGHTHAWK CONSTRUCTION GROUP","2204 SUMMER ST. STE 100",HOUSTON,TX,77007,"(832) 243-7632",,,,
TX,HARRIS,21003827,"Residential Renovations & Additions",4/14/2021,Renovations,70000,,"6418 CINDY",HOUSTON,TX,77008,,,"ANDREA JONES","565 S MASON RD UNIT",HOUSTON,TX,77450,"(832) 423-3777",Applicant,,,,,OWNER,,,,,OWNER,,,,,,,,,
TX,HARRIS,21020636,"Residential Renovations & Additions",4/16/2021,Addition,47000,,"222 NORTH NATIVE",HOUSTON,TX,77022,,,"ADRIANA PERE","222 NORTH NATIVE",HOUSTON,TX,77022,"(281) 788-0687",Applicant,,,,,OWNER,,,,,OWNER,,,,,,,,,
TX,HARRIS,20104666,"Residential Renovations & Additions",4/16/2021,Addition,44500,,"8844 MEMORIAL",HOUSTON,TX,77024,,,CONTRACTOR,,,,,,,,,,,"THOMPSON CUSTOM HOMES",,,,,"THOMPSON CUSTOM HOMES","1414 WOODVINE DR",HOUSTON,TX,77055,"(832) 327-0197",,,,
TX,HARRIS,21023370,"Residential Renovations & Additions",4/14/2021,Addition,98505,,"1426 LAWRENCE",HOUSTON,TX,77008,,,"CHRISTOPHER COTTON","1426 LAWRENCE",HOUSTON,TX,77008,,Owner,,,,,"MARC JONES CONSTRUCTION",,,,,"MARC JONES CONSTRUCTION","12011 DENTON DR",DALLAS,TX,75234-7211,"(832) 778-4911",,,,
TX,HARRIS,21019703,"Residential Renovations & Additions",4/16/2021,Renovations,45000,,"4706 EDMUND",HOUSTON,TX,77020,,,"BRYAN CRAFT","4706 EDMUND",HOUSTON,TX,77020,,Owner,,,,,OWNER,,,,,OWNER,,,,,,,,,
TX,HARRIS,21020153,"Residential Renovations & Additions",4/14/2021,Addition,50000,,"1215 BETHLEHEM",HOUSTON,TX,77018,,,"GAMA VERA","19506 HIGHWAY 59",HOUSTON,TX,77338,"(281) 513-8518",Applicant,,,,,OWNER,,,,,OWNER,,,,,,,,,
TX,HARRIS,21027888,"Residential Renovations & Additions",4/14/2021,Addition,32045,,"11810 SPRUCE HILL",HOUSTON,TX,77077,,,"SEBASTIEN DUBOIS","11810 SPRUCE HILL",HOUSTON,TX,77077,,Owner,,,,,OWNER,,,,,OWNER,,,,,,,,,
TX,HARRIS,21014854,"Residential Renovations & Additions",4/16/2021,Renovations,350000,,"822 WORTHSHIRE",HOUSTON,TX,77008,,,"MOHAMMED EBRAHIM","822 WORTHSHIRE",HOUSTON,TX,77008,,Owner,,,,,"LANCASTER HOMES",,,,,"LANCASTER HOMES","1807 CANDLELIGHT PLACE DR ",HOUSTON,TX,77018-2503,"(713) 862-0074",http://www.lancasterhomesusa.com/,"(713) 802-1483","COLLETT FRANZ",colettefranz@mac.com
TX,HARRIS,21032708,"Residential Renovations & Additions",4/13/2021,Renovations,109295,,"13615 NEILS BRANCH",HOUSTON,TX,77077,,,"MAGALI FANO","13615 NEILS BRANCH",HOUSTON,TX,77077,,Owner,,,,,"RENEWAL BY ANDERSEN",,,,,"RENEWAL BY ANDERSEN","9825 FM 2920 RD",TOMBALL,TX,77375-8902,"(281) 547-6177",,,,
TX,HARRIS,21019721,"Residential Renovations & Additions",4/15/2021,Addition,52804,,"3301 GRENNOCH",HOUSTON,TX,77025,,,"CLIFTON FULLER","3301 GRENNOCH",HOUSTON,TX,77025,,Owner,,,,,"MATTHEW FRANZ",,,,,"MATTHEW FRANZ","9007 TUSCANY WAY",AUSTIN,TX,78754,"(619) 405-5936",,,,
TX,HARRIS,21028776,"Residential Renovations & Additions",4/16/2021,Addition,35000,,"714 BRIARCLIFF",HOUSTON,TX,77076,,,"PEDRO GARCIA","714 BRIARCLIFF",HOUSTON,TX,77076,,Owner,,,,,"MOHAMMED BARAKAT",,,,,"MOHAMMED BARAKAT","1111 POST OAK",HOUSTON,TX,77056,"(469) 262-8161",,,,
TX,HARRIS,21011264,"Residential Renovations & Additions",4/13/2021,Addition,100000,,"1318 AVON WAY",HOUSTON,TX,77339,,,"GRIFFIN LAURA","1318 AVON WAY",HOUSTON,TX,77339,,Owner,,,,,"THE BATH PROGRAM",,,,,"THE BATH PROGRAM","3706 ACORN LN.",PORTER,TX,77365,"(832) 995-0531",,,,
TX,HARRIS,20117867,"Residential Renovations & Additions",4/19/2021,Renovations,180000,,"3237 INWOOD",HOUSTON,TX,77019,,,"MELISSA JUNEAU","3237 INWOOD",HOUSTON,TX,77019,,Owner,,,,,"STETZER BUILDERS",,,,,"STETZER BUILDERS","5 CAM CT",HOUSTON,TX,77055-4822,"(832) 527-6968",http://www.stetzerbuilders.com/,"(281) 974-4694",,info@stetzerbuilders.com
TX,HARRIS,21031454,"Residential Renovations & Additions",4/19/2021,Addition,68882,,"2527 TURNER",HOUSTON,TX,77093,,,"TRINIDAD LUCIO","2527 TURNER",HOUSTON,TX,77093,,Owner,,,,,"JUSTIN MERKEY",,,,,"JUSTIN MERKEY","6999 LITTLE YORK",HOUSTON,TX,77040,"(832) 798-6353",,,,
TX,HARRIS,20107435,"Residential Renovations & Additions",4/13/2021,Addition,66745,,"12833 WICKLEY",HOUSTON,TX,77085,,,"LEONIDAS MENDOZA","12833 WICKLEY",HOUSTON,TX,77085,"(210) 739-3155",Owner,,,,,OWNER,,,,,OWNER,,,,,,,,,
TX,HARRIS,21033038,"Residential Renovations & Additions",4/19/2021,Renovations,75000,,"6018 STONES THROW",HOUSTON,TX,77057,,,"ALLISON MEYER","6018 STONES THROW",HOUSTON,TX,77057,,Owner,,,,,OWNER,,,,,OWNER,,,,,,,,,
TX,HARRIS,21021140,"Residential Renovations & Additions",4/16/2021,Addition,49992,,"1902 ROUND SPRING",HOUSTON,TX,77339,,,"ANDREA MILLER","1902 ROUND SPRING",HOUSTON,TX,77339,,Owner,,,,,"MATTHEW FRANZ",,,,,"MATTHEW FRANZ","9007 TUSCANY WAY",AUSTIN,TX,78754,"(619) 405-5936",,,,
TX,HARRIS,21032045,"Residential Renovations & Additions",4/16/2021,Renovations,40000,,"3831 ARBOR",HOUSTON,TX,77004,,,"RODNEY OSBORNE","3831 ARBOR",HOUSTON,TX,77004,,Owner,,,,,"TURNER CONSTRUCTION",,,,,"TURNER CONSTRUCTION","4263 DACOMA ST",HOUSTON,TX,77092-8607,"(713) 840-8441",,,,
TX,HARRIS,21032241,"Residential Renovations & Additions",4/15/2021,Renovations,50000,,"418 W 23RD",HOUSTON,TX,77008,,,"JOHN PARKER","418 W 23RD",HOUSTON,TX,77008,"(281) 222-4938",Owner,,,,,OWNER,,,,,OWNER,,,,,,,,,
TX,HARRIS,21010906,"Residential Renovations & Additions",4/16/2021,Addition,325000,,"2210 LIBBEY",HOUSTON,TX,77018,,,"CATHERINE PAVONE","2210 LIBBEY",HOUSTON,TX,77018,,Owner,,,,,"HARVARD HOMES",,,,,"HARVARD HOMES","1335 SUE BARNETT DR",HOUSTON,TX,77018,"(281) 728-7456",https://www.harvardhomeshou.com/,,,Hello@harvardhomeshou.com
TX,HARRIS,21005734,"Residential Renovations & Additions",4/19/2021,Addition,38000,,"5212 BRIAR",HOUSTON,TX,77056,,,"REED BILL & ANDREA","5212 BRIAR",HOUSTON,TX,77056,,Owner,,,,,"KAI CUSTOM HOMES",,,,,"KAI CUSTOM HOMES","6330 ALDER DR. STE. 6",HOUSTON,TX,77081,"(713) 909-0059",https://www.kai-customhomes.com,,,info@kai-customhomes.com
TX,HARRIS,21029827,"Residential Renovations & Additions",4/13/2021,Renovations,151598,,"2810 BERNADETTE",HOUSTON,TX,77043,,,"BENJAMIN ALEXANDER","10801 HAMMERLY",HOUSTON,TX,77043,"(832) 703-7768",Applicant,,,,,OWNER,,,,,OWNER,,,,,,,,,
TX,HARRIS,21027453,"Residential Renovations & Additions",4/13/2021,Addition,46447,,"8315 HOLIDAY",HOUSTON,TX,77075,,,"REYES MIGUEL ANGEL","8315 HOLIDAY",HOUSTON,TX,77075,,Owner,,,,,"JUSTIN MERKEY",,,,,"JUSTIN MERKEY","6999 LITTLE YORK",HOUSTON,TX,77040,"(832) 798-6353",,,,
TX,HARRIS,21028828,"Residential Renovations & Additions",4/15/2021,Addition,31000,,"7150 DIXIE",HOUSTON,TX,77087,,,"HENRICHSON RODNEY","7150 DIXIE",HOUSTON,TX,77087,,Owner,,,,,"FREEDOM FOREVER TX",,,,,"FREEDOM FOREVER TX","15550 VICKERY DR SUITE 100",HOUSTON,TX,77032-2581,"(888) 557-6431",,,,
TX,HARRIS,21027318,"Residential Renovations & Additions",4/16/2021,Addition,36388,,"3623 TRAILWOOD",HOUSTON,TX,77023,,,"JUSTO RODRIGEZ","3623 TRAILWOOD",HOUSTON,TX,77023,,Owner,,,,,OWNER,,,,,OWNER,,,,,,,,,
TX,HARRIS,21019240,"Residential Renovations & Additions",4/16/2021,Addition,51300,,"8002 WETHERBY",HOUSTON,TX,77075,,,"ANTONIA ROMO","8002 WETHERBY",HOUSTON,TX,77075,,Owner,,,,,"CHRISTOPHER MURRAY",,,,,"CHRISTOPHER MURRAY","3096 HAMILTON BLVD",HOUSTON,TX,77006,"(619) 405-5936",,,,
TX,HARRIS,21022695,"Residential Renovations & Additions",4/13/2021,Addition,400000,,"2326 DROXFORD",HOUSTON,TX,77008,,,"ROSELAND CHARLES MICHAEL","2326 DROXFORD",HOUSTON,TX,77008,,Owner,,,,,OWNER,,,,,OWNER,,,,,,,,,
TX,HARRIS,21010679,"Residential Renovations & Additions",4/13/2021,Addition,74823,,"9028 MADERA",HOUSTON,TX,77078,,,"GUILLERMO URIBE","9028 MADERA",HOUSTON,TX,77078,,Owner,,,,,OWNER,,,,,OWNER,,,,,,,,,
TX,HARRIS,21016928,"Residential Renovations & Additions",4/13/2021,Addition,46000,,"5951 RIDGEWAY",HOUSTON,TX,77033,,,"BEATRICE WARD","5951 RIDGEWAY",HOUSTON,TX,77033,,Owner,,,,,"FREEDOM FOREVER TX",,,,,"FREEDOM FOREVER TX","15550 VICKERY DR SUITE 100",HOUSTON,TX,77032-2581,"(888) 557-6431",,,,
TX,HARRIS,21023472,"Residential Renovations & Additions",4/16/2021,Addition,31500,,"3623 LEHALL",HOUSTON,TX,77021,,,"CHRISTINE WINN","3623 LEHALL",HOUSTON,TX,77021,,Owner,,,,,"KEVIN BINGHAM",,,,,"KEVIN BINGHAM","3347 OZARK ST",HOUSTON,TX,77021,"(832) 573-1756",,,,
TX,MONTGOMERY,182043-21,"Residential Renovations & Additions",3/24/2021,Renovations,31000,,"25418 NORTH BROKEN BOUGH",HOUSTON,TX,77356,"TIMBER LAKES",,"STEVE APPLEGATE","25410 N BROKEN BOUGH",SPRING,TX,77380,,Owner,,,,,OWNER,,,,,OWNER,,,,,,,,,
TX,BRAZOS,21-0893,"Residential Renovations & Additions",3/18/2021,Renovation,41000,,"2001 CASSANDRA CT",BRYAN,TX,77807,"DOMINION OAKS",,"STANLEY & MARY EWING","2001 CASSANDRA CT",BRYAN,TX,77807,,Owner,,,,,"OAKWOOD CUSTOM HOMES",,,,,"OAKWOOD CUSTOM HOMES","4060 STATE HIGHWAY 6 S ","COLLEGE STATION",TX,77845-8962,"(979) 690-1504",http://oakchb.com/,"(979) 690-2504",,sales@oakchb.com
TX,MONTGOMERY,PO-21-001930,"Residential Swimming Pools & Spas",3/3/2021,,,,"2620 SILVER SHADOW",CONROE,TX,77303,,,"DAVID ROHR","2620 SILVER SHADOW",CONROE,TX,77303,,Owner,,,,,"CUSTOM LUXURY POOLS",,,,,"CUSTOM LUXURY POOLS","8125 FOSTORIA RD",CLEVELAND,TX,77328-6987,"(713) 955-0112",,,,
TX,MONTGOMERY,PO-21-002318,"Residential Swimming Pools & Spas",3/3/2021,,,3392,"2822 RIDGECLIFF CT",CONROE,TX,77303,,,"DOUGLAS & STACY SEARS","2822 RIDGECLIFF CT",CONROE,TX,77303,,Owner,,,,,"RICHARD'S TOTAL BACKYARD SOLUTIONS ",,,,,"RICHARD'S TOTAL BACKYARD SOLUTIONS ","1701 HIGHWAY 6 S",HOUSTON,TX,77077-2803,"(713) 777-7665",http://richardstbs.com/,,"JULIE RICHARD",info@totalbackyardsolutions.com
TX,MONTGOMERY,PO-21-004408,"Residential Swimming Pools & Spas",3/15/2021,,,,"1608 CAFE DUMONDE",CONROE,TX,77303,,,"MARK & DINAH STEVENS","1608 CAFE DUMONDE",CONROE,TX,77303,,Owner,,,,,"MARQUISE POOLS",,,,,"MARQUISE POOLS","27326 ROBINSON RD STE 221",CONROE,TX,77385-8966,"(281) 296-7946",,,,
TX,MONTGOMERY,PO-21-004565,"Residential Swimming Pools & Spas",3/17/2021,,,,"104 BROKEN BOUGH LN",CONROE,TX,77303,,,"STEVEN & MEGAN JONES","104 BROKEN BOUGH LN",CONROE,TX,77303,,Owner,,,,,"TOPAZ CUSTOM POOLS",,,,,"TOPAZ CUSTOM POOLS","2 SCOTCH PINE CT",SPRING,TX,77382-6000,"(832) 428-8450",http://www.topazpools.com/,,"CURTIS LANGHANS",info@topazpools.com
TX,MONTGOMERY,PO-21-004570,"Residential Swimming Pools & Spas",3/17/2021,,,,"2200 PLANTATION DR",CONROE,TX,77303,,,"DRENNAN DEVELOPMENT LP","2200 PLANTATION DR",CONROE,TX,77303,,Owner,,,,,OWNER,,,,,OWNER,,,,,,,,,
TX,MONTGOMERY,PO-21-004916,"Residential Swimming Pools & Spas",3/25/2021,,,,"5924 OAK LEAF CT",CONROE,TX,77303,,,"TIMOTHY & DORA NUERMINGER","5924 OAK LEAF CT",CONROE,TX,77303,,Owner,,,,,"NORMA PAREDES",,,,,"NORMA PAREDES","16230 BELLFORT",HOUSTON,TX,77498,"(281) 832-5989",,,,
TX,MONTGOMERY,PO-21-005549,"Residential Swimming Pools & Spas",3/31/2021,,,,"11470 W WOODMARK",CONROE,TX,77303,,,"MANU & SARA DYSE","11470 W WOODMARK",CONROE,TX,77303,,Owner,,,,,"NORMA PAREDES",,,,,"NORMA PAREDES","16230 BELLFORT",HOUSTON,TX,77498,"(281) 832-5989",,,,
TX,HARRIS,2102190083,"Residential Swimming Pools & Spas",3/16/2021,,99000,,"20310 FALLING HARBOR LN",HOUSTON,TX,77356,,,"BRUCE MORENO","20310 FALLING HARBOR LN",HOUSTON,TX,77356,,Owner,,,,,OWNER,,,,,OWNER,,,,,,,,,
TX,HARRIS,2103230109,"Residential Swimming Pools & Spas",3/16/2021,,42000,,"26623 GRANITE KNOLL LN",HOUSTON,TX,77356,"BLACKHORSE RANCH",,"MR & MRS ROSE","26623 GRANITE KNOLL LN",HOUSTON,TX,77356,,Owner,,,,,OWNER,,,,,OWNER,,,,,,,,,
TX,HARRIS,2103230113,"Residential Swimming Pools & Spas",3/16/2021,,75000,,"16606 WINDING IVY LN",HOUSTON,TX,77356,"HIDDEN ARBOR",,"MR.& MRS MARTINEZ","16606 WINDING IVY LN",HOUSTON,TX,77356,,Owner,,,,,OWNER,,,,,OWNER,,,,,,,,,
TX,HARRIS,2103230183,"Residential Swimming Pools & Spas",3/16/2021,,50825,,"7622 CARRIAGE CREST DR",HOUSTON,TX,77356,"LAUREL PARK",,"ROBERT AND DAWN VARRO","7622 CARRIAGE CREST DR",HOUSTON,TX,77356,,Owner,,,,,OWNER,,,,,OWNER,,,,,,,,,
TX,HARRIS,2012020070,"Residential Swimming Pools & Spas",3/16/2021,,51000,,"7023 GENESIS COVE CT",HOUSTON,TX,77356,"TWIN FALLS",,"JAMES MAYFIELD","7023 GENESIS COVE CT",HOUSTON,TX,77356,,Owner,,,,,"BLUE HAVEN POOLS",,,,,"BLUE HAVEN POOLS","2201 HIGHWAY 6 S",HOUSTON,TX,77077-4321,"(281) 497-5711",,,,
TX,HARRIS,2101120121,"Residential Swimming Pools & Spas",3/16/2021,,62150,,"16914 CANEY MOUNTAIN DR",HOUSTON,TX,77356,GROVES,,"CHRISTOPHER MILLER","16914 CANEY MOUNTAIN DR",HOUSTON,TX,77356,,Owner,,,,,"BLUE HAVEN POOLS",,,,,"BLUE HAVEN POOLS","2201 HIGHWAY 6 S",HOUSTON,TX,77077-4321,"(281) 497-5711",,,,
TX,HARRIS,2103110048,"Residential Swimming Pools & Spas",3/16/2021,,53000,,"9602 TANGLER CT",HOUSTON,TX,77356,"INVERNESS ESTATES",,"GLORIA CARR","9602 TANGLER CT",HOUSTON,TX,77356,,Owner,,,,,"BLUE HAVEN POOLS",,,,,"BLUE HAVEN POOLS","2201 HIGHWAY 6 S",HOUSTON,TX,77077-4321,"(281) 497-5711",,,,
TX,HARRIS,2103100127,"Residential Swimming Pools & Spas",3/16/2021,,57800,,"20306 RUSTY ROCK LN",HOUSTON,TX,77356,"CANYON LAKES",,"ROBIN GOIN","20306 RUSTY ROCK LN",HOUSTON,TX,77356,,Owner,,,,,"BLUE HAVEN POOLS",,,,,"BLUE HAVEN POOLS","2201 HIGHWAY 6 S",HOUSTON,TX,77077-4321,"(281) 497-5711",,,,
TX,HARRIS,2103220131,"Residential Swimming Pools & Spas",3/16/2021,,41000,,"16914 UPPER RIDGE LN",HOUSTON,TX,77356,"EAGLE SPRINGS",,"PATRICIA WHITE","16914 UPPER RIDGE LN",HOUSTON,TX,77356,,Owner,,,,,"BLUE HAVEN POOLS",,,,,"BLUE HAVEN POOLS","2201 HIGHWAY 6 S",HOUSTON,TX,77077-4321,"(281) 497-5711",,,,
TX,HARRIS,2103220008,"Residential Swimming Pools & Spas",3/16/2021,,40000,,"24417 DEEP MEADOW DR",HOUSTON,TX,77356,,,"RETT BABB","24417 DEEP MEADOW DR",HOUSTON,TX,77356,,Owner,,,,,OWNER,,,,,OWNER,,,,,,,,,
TX,HARRIS,2103160061,"Residential Swimming Pools & Spas",3/16/2021,,60275,,"123 W VALERA RIDGE PL",HOUSTON,TX,77356,,,"DANA & FELICIA SHAKIBA","123 W VALERA RIDGE PL",HOUSTON,TX,77356,,Owner,,,,,OWNER,,,,,OWNER,,,,,,,,,
TX,HARRIS,2103120027,"Residential Swimming Pools & Spas",3/16/2021,,30000,,"14715 KELLERTON CT",HOUSTON,TX,77356,,,WILLIS,"14715 KELLERTON CT",HOUSTON,TX,77356,,Owner,,,,,OWNER,,,,,OWNER,,,,,,,,,
TX,GALVESTON,2021-0255,"Residential Swimming Pools & Spas",3/1/2021,,30000,,"1210 VERDUN LN",FRIENDSWOOD,TX,77546,,,"STEVEN & JENNY SARTAIN","1210 VERDUN LN",FRIENDSWOOD,TX,77546,,Owner,,,,,"BACKYARD AMENITIES",,,,,"BACKYARD AMENITIES","11163 OLD NEEDLEPOINT RD STE 100",BAYTOWN,TX,77523-9784,"(281) 837-8234",http://www.backyardamenities.com,,,info@backyardamenities.com
TX,GALVESTON,2021-0460,"Residential Swimming Pools & Spas",3/11/2021,,65000,,"7 WILDERNESS TRL",FRIENDSWOOD,TX,77546,,,"PAUL & TRACY HOPKINS","7 WILDERNESS TRL",FRIENDSWOOD,TX,77546,,Owner,,,,,"GREATER HOUSTON OUTDOOR LIVING",,,,,"GREATER HOUSTON OUTDOOR LIVING","3606 PINE VALLEY DR # 3606",PEARLAND,TX,77581-8825,"(832) 704-9225",http://www.ghoutdoorliving.com,,,thekang001@sbcglobal.net
TX,GALVESTON,2021-0538,"Residential Swimming Pools & Spas",3/18/2021,,87123,,"1705 HUNTERS BEND",FRIENDSWOOD,TX,77546,,,"ELEAZAR & ERNESTINA GARCIA","1705 HUNTERS BEND",FRIENDSWOOD,TX,77546,,Owner,,,,,"SOUTHERN CHARM POOLS",,,,,"SOUTHERN CHARM POOLS","417 LADDINGFORD LN","LEAGUE CITY",TX,77573-1846,"(281) 595-7665",http://www.southerncharmpools.net/,,,Chris@Southerncharmpools.Net
TX,GALVESTON,2021-0551,"Residential Swimming Pools & Spas",3/25/2021,,45000,,"804 LEXINGTON DR",FRIENDSWOOD,TX,77546,,,"CHRISTINE HAWTHORNE","804 LEXINGTON DR",FRIENDSWOOD,TX,77546,,Owner,,,,,"DEATON CUSTOM POOLS",,,,,"DEATON CUSTOM POOLS","PO BOX 1908",FRIENDSWOOD,TX,77549-1908,"(713) 724-8857",https://www.deatoncustompools.com/,,,
TX,GALVESTON,2021-0552,"Residential Swimming Pools & Spas",3/15/2021,,40000,,"410 REGENCY CT",FRIENDSWOOD,TX,77546,,,"STEPHANIE BATEMAN","410 REGENCY CT",FRIENDSWOOD,TX,77546,,Owner,,,,,"DEATON CUSTOM POOLS",,,,,"DEATON CUSTOM POOLS","PO BOX 1908",FRIENDSWOOD,TX,77549-1908,"(713) 724-8857",https://www.deatoncustompools.com/,,,
TX,GALVESTON,2021-0553,"Residential Swimming Pools & Spas",3/1/2021,,108880,,"2330 HAMILTON POOL LN",FRIENDSWOOD,TX,77546,,,"TREY & LINDSAY HUTCHINS","2330 HAMILTON POOL LN",FRIENDSWOOD,TX,77546,,Owner,,,,,"TIPTON SPIRES DESIGN BUILD",,,,,"TIPTON SPIRES DESIGN BUILD","1100 E NASA PKWY STE 108",HOUSTON,TX,77058,"(281) 335-8316",,,,
TX,GALVESTON,2021-0555,"Residential Swimming Pools & Spas",3/2/2021,,109714,,"1108 RYMERS SWITCH LN",FRIENDSWOOD,TX,77546,,,"BRANDON BELCHER","1108 RYMERS SWITCH LN",FRIENDSWOOD,TX,77546,,Owner,,,,,"TIPTON SPIRES DESIGN BUILD",,,,,"TIPTON SPIRES DESIGN BUILD","1100 E NASA PKWY STE 108",HOUSTON,TX,77058,"(281) 335-8316",,,,
TX,GALVESTON,2021-0572,"Residential Swimming Pools & Spas",3/8/2021,,68000,,"2029 YELLOWSTONE TRAIL",FRIENDSWOOD,TX,77546,,,CONTRACTOR,,,,,,,,,,,"GREATER HOUSTON OUTDOOR LIVING",,,,,"GREATER HOUSTON OUTDOOR LIVING","3606 PINE VALLEY DR # 3606",PEARLAND,TX,77581-8825,"(832) 704-9225",http://www.ghoutdoorliving.com,,,thekang001@sbcglobal.net
TX,GALVESTON,2021-0579,"Residential Swimming Pools & Spas",3/8/2021,,73000,,"2528 SCENIC HILLS DR",FRIENDSWOOD,TX,77546,,,"JAMIE & MATT AINSWORTH","2528 SCENIC HILLS DR",FRIENDSWOOD,TX,77546,,Owner,,,,,"MCKINNEY CUSTOM POOLS",,,,,"MCKINNEY CUSTOM POOLS","16802 HARKEY RD",PEARLAND,TX,77584-5070,"(281) 489-9800",http://www.mckinneycustompools.net,"(281) 489-9814",,mckinneypools@yahoo.com
TX,GALVESTON,2021-0580,"Residential Swimming Pools & Spas",3/10/2021,,74500,,"1105 MERRIEWOOD DR",FRIENDSWOOD,TX,77546,,,"ELISA BUESO","1105 MERRIEWOOD DR",FRIENDSWOOD,TX,77546,,Owner,,,,,"MCKINNEY CUSTOM POOLS",,,,,"MCKINNEY CUSTOM POOLS","16802 HARKEY RD",PEARLAND,TX,77584-5070,"(281) 489-9800",http://www.mckinneycustompools.net,"(281) 489-9814",,mckinneypools@yahoo.com
TX,GALVESTON,2021-0607,"Residential Swimming Pools & Spas",3/8/2021,,113000,,"2405 NILELAKE CT",FRIENDSWOOD,TX,77546,,,"CLINT TITZMAN","2405 NILELAKE CT",FRIENDSWOOD,TX,77546,,Owner,,,,,"MCKINNEY CUSTOM POOLS",,,,,"MCKINNEY CUSTOM POOLS","16802 HARKEY RD",PEARLAND,TX,77584-5070,"(281) 489-9800",http://www.mckinneycustompools.net,"(281) 489-9814",,mckinneypools@yahoo.com
TX,GALVESTON,2021-0628,"Residential Swimming Pools & Spas",3/8/2021,,95000,,"2560 SCENIC HILLS DR",FRIENDSWOOD,TX,77546,,,"DAN PETTER","2560 SCENIC HILLS DR",FRIENDSWOOD,TX,77546,,Owner,,,,,"MCKINNEY CUSTOM POOLS",,,,,"MCKINNEY CUSTOM POOLS","16802 HARKEY RD",PEARLAND,TX,77584-5070,"(281) 489-9800",http://www.mckinneycustompools.net,"(281) 489-9814",,mckinneypools@yahoo.com
TX,GALVESTON,2021-0635,"Residential Swimming Pools & Spas",3/30/2021,,89400,,"108 CHARLESTON DR",FRIENDSWOOD,TX,77546,,,"BEAU & ALLISON EGERT","108 CHARLESTON DR",FRIENDSWOOD,TX,77546,,Owner,,,,,"CUSTOM POOLS BY SULLIVAN",,,,,"CUSTOM POOLS BY SULLIVAN","1411 EAGLE FALLS DR",FRIENDSWOOD,TX,77546-7847,"(281) 844-1285",http://custompoolsbysullivan.com/,,"SAM SULLIVAN",
TX,GALVESTON,2021-0649,"Residential Swimming Pools & Spas",3/11/2021,,51000,,"1913 JILLIAN TERRACE",FRIENDSWOOD,TX,77546,,,"ADOLFO ARAGON","1913 JILLIAN TERRACE",FRIENDSWOOD,TX,77546,,Owner,,,,,"MCKINNEY CUSTOM POOLS",,,,,"MCKINNEY CUSTOM POOLS","16802 HARKEY RD",PEARLAND,TX,77584-5070,"(281) 489-9800",http://www.mckinneycustompools.net,"(281) 489-9814",,mckinneypools@yahoo.com
TX,GALVESTON,2021-0683,"Residential Swimming Pools & Spas",3/11/2021,,90780,,"2901 SCARLET OAK DR",FRIENDSWOOD,TX,77546,,,"TERI AND KEN LOGNACRE","2901 SCARLET OAK DR",FRIENDSWOOD,TX,77546,,Owner,,,,,"PREFERRED POOLS",,,,,"PREFERRED POOLS","1130 WINFIELD LN",KEMAH,TX,77565-3182,"(281) 334-1150",http://www.preferredpoolsofhouston.com/,,,
TX,GALVESTON,2021-0686,"Residential Swimming Pools & Spas",3/11/2021,,57648,,"2564 RAVENNA CT",FRIENDSWOOD,TX,77546,,,CONTRACTOR,,,,,,,,,,,"PEARLAND POOLS",,,,,"PEARLAND POOLS","5510 MAGNOLIA",HOUSTON,TX,77584,"(281) 412-6445",http://www.pearlandpools.com/,"(281) 412-2791",,info@pearlandpools.com
TX,GALVESTON,2021-0689,"Residential Swimming Pools & Spas",3/15/2021,,45000,,"508 FALCON LAKE DR",FRIENDSWOOD,TX,77546,,,"ANGELA & JOHN HAWKINS","508 FALCON LAKE DR",FRIENDSWOOD,TX,77546,,Owner,,,,,"ST JOHN POOLS",,,,,"ST JOHN POOLS","7403 NORTHGROVE CT",PEARLAND,TX,77581-6627,"(281) 989-9902",,,,
TX,GALVESTON,2021-0690,"Residential Swimming Pools & Spas",3/15/2021,,74000,,"2508 ROYAL FIELD LN",FRIENDSWOOD,TX,77546,,,"MICHAEL MILLS","2508 ROYAL FIELD LN",FRIENDSWOOD,TX,77546,,Owner,,,,,"ST JOHN POOLS",,,,,"ST JOHN POOLS","7403 NORTHGROVE CT",PEARLAND,TX,77581-6627,"(281) 989-9902",,,,
TX,GALVESTON,2021-0754,"Residential Swimming Pools & Spas",3/15/2021,,60000,,"430 OVERLOOK DR",FRIENDSWOOD,TX,77546,,,"ROBERT MARTINEZ","430 OVERLOOK DR",FRIENDSWOOD,TX,77546,,Owner,,,,,"AVREE CUSTOM POOLS",,,,,"AVREE CUSTOM POOLS","1604 GROCE LN","LEAGUE CITY",TX,77573,"(713) 929-2597",https://avreecustompools.com/,,,
TX,GALVESTON,2021-0784,"Residential Swimming Pools & Spas",3/16/2021,,45705,,"1732 PAMPAS TRAIL DR",FRIENDSWOOD,TX,77546,,,"SAM GHALY","1732 PAMPAS TRAIL DR",FRIENDSWOOD,TX,77546,,Owner,,,,,"BLUE HAVEN POOLS",,,,,"BLUE HAVEN POOLS","13349 N CENTRAL EXPY",DALLAS,TX,75243-1103,"(972) 644-0494",,,,
TX,GALVESTON,2021-0829,"Residential Swimming Pools & Spas",3/18/2021,,120000,,"1810 EAGLE CREEK DR",FRIENDSWOOD,TX,77546,,,"CHANTELLE GRAHAM","1810 EAGLE CREEK DR",FRIENDSWOOD,TX,77546,,Owner,,,,,"WATERPOINTE POOLS",,,,,"WATERPOINTE POOLS","1612 BENTLAKE LN",PEARLAND,TX,77581-6557,"(832) 693-0011",https://www.waterpointepools.com/,,"JAY MURAS",jay@waterpointepools.com
TX,GALVESTON,2021-0872,"Residential Swimming Pools & Spas",3/23/2021,,69000,,"2817 EVERETT DR",FRIENDSWOOD,TX,77546,,,"ERIC POLLARD","2817 EVERETT DR",FRIENDSWOOD,TX,77546,,Owner,,,,,"MCKINNEY CUSTOM POOLS",,,,,"MCKINNEY CUSTOM POOLS","16802 HARKEY RD",PEARLAND,TX,77584-5070,"(281) 489-9800",http://www.mckinneycustompools.net,"(281) 489-9814",,mckinneypools@yahoo.com
TX,GALVESTON,2021-0894,"Residential Swimming Pools & Spas",3/23/2021,,86382,,"1004 BOLIVAR POINT LN",FRIENDSWOOD,TX,77546,,,"AARON & CASSIE MELEBECK","1004 BOLIVAR POINT LN",FRIENDSWOOD,TX,77546,,Owner,,,,,"PEARLAND POOLS",,,,,"PEARLAND POOLS","5510 MAGNOLIA",HOUSTON,TX,77584,"(281) 412-6445",http://www.pearlandpools.com/,"(281) 412-2791",,info@pearlandpools.com
TX,GALVESTON,2021-0952,"Residential Swimming Pools & Spas",3/29/2021,,80000,,"308 LOS FRAILES DR",FRIENDSWOOD,TX,77546,,,"HARRY & MARGARET POTTER","308 LOS FRAILES DR",FRIENDSWOOD,TX,77546,,Owner,,,,,"BACKYARD PARADISE LUXURY POOLS",,,,,"BACKYARD PARADISE LUXURY POOLS","2114 MCCALEB ROAD",MONTGOMERY,TX,77316,"(936) 588-8806",https://bpluxurypools.com/,,,sales@bpluxurypools.com
TX,HARRIS,2103220030,"Residential Swimming Pools & Spas",3/16/2021,,39000,,"20211 SWEETGUM WAY",HOUSTON,TX,77356,"TRAILS OF FAIRFIELD",,"MOISES PEREZ","20211 SWEETGUM WAY",HOUSTON,TX,77356,,Applicant,,,,,OWNER,,,,,OWNER,,,,,,,,,
TX,GALVESTON,21-015,"Residential Swimming Pools & Spas",1/20/2021,,,,"16704 CORMORANT","JAMAICA BEACH",TX,77554,,,"DAVID & DIANE SIBLEY","16704 CORMORANT","JAMAICA BEACH",TX,77554,,Owner,,,,,"RANIEY POOL",,,,,"RANIEY POOL","1101 GULF FWY","LEAGUE CITY",TX,77573,"(281) 338-1555",https://www.raineypools.com/,,,info@raineypools.com
TX,GALVESTON,21-043,"Residential Swimming Pools & Spas",3/4/2021,,,,"16614 JAMAICA INN","JAMAICA BEACH",TX,77554,,,"STEVEN SPICER","16614 JAMAICA INN","JAMAICA BEACH",TX,77554,,Owner,,,,,"RANIEY POOL",,,,,"RANIEY POOL","1101 GULF FWY","LEAGUE CITY",TX,77573,"(281) 338-1555",https://www.raineypools.com/,,,info@raineypools.com
TX,GALVESTON,21-068,"Residential Swimming Pools & Spas",3/31/2021,,,,"16509 ANCHOR WAY","JAMAICA BEACH",TX,77554,,,"ERICH & BETTY MUNDINGER","16509 ANCHOR WAY","JAMAICA BEACH",TX,77554,,Owner,,,,,"RAINEY POOL",,,,,"RAINEY POOL","1101 GULF FWY S","LEAGUE CITY",TX,77573-5115,"(281) 914-3684",http://www.raineypools.com/,"(281) 338-1557",,info@raineypools.com
TX,GALVESTON,,"Residential Swimming Pools & Spas",3/18/2021,,54000,,"3730 ANTASCOSA KEY",GALVESTON,TX,77554,,,CONTRACTOR,,,,,,,,,,,"AQUATIC POOLS & HOT TUBS",,,,,"AQUATIC POOLS & HOT TUBS","5301 GULF FWY","LA MARQUE",TX,77568-2703,"(409) 986-7600",,,,
TX,GALVESTON,,"Residential Swimming Pools & Spas",3/5/2021,,40000,,"12710 CARLOTTA CT",GALVESTON,TX,77554,,,"MARK & DAWN STUBBS","12710 CARLOTTA CT",GALVESTON,TX,77554,,Owner,,,,,"GALVESTON COUNTY POOL & SPA",,,,,"GALVESTON COUNTY POOL & SPA","13726 FM 1764 RD","SANTA FE",TX,77517-4402,"(409) 316-2020",http://www.galvestoncountypoolandspa.com/,,,
TX,GALVESTON,,"Residential Swimming Pools & Spas",3/17/2021,,125000,,"21914 GUADALUPE DR",GALVESTON,TX,77554,,,"MATTHEW & SARAH GALFIONE","21914 GUADALUPE DR",GALVESTON,TX,77554,,Owner,,,,,"STEVE HOOD COMPANY",,,,,"STEVE HOOD COMPANY","9301 SOUTHWEST FWY STE 250",HOUSTON,TX,77074-1587,"(713) 272-9255",http://www.stevehoodcompany.com/,"(713) 272-9273","STEVE HOOD",steve@stevehoodcompany.com
TX,GALVESTON,,"Residential Swimming Pools & Spas",3/30/2021,,44400,,"4602 AVE N 1/2",GALVESTON,TX,77551,,,"JAMES & PAMELA A WIGHT","4602 AVE N 1/2",GALVESTON,TX,77551,,Owner,,,,,"GULF COAST POOLS ",,,,,"GULF COAST POOLS ","3532 3RD AVE S","TEXAS CITY",TX,77590-8014,"(409) 948-2083",,,,
TX,HARRIS,21020869,"Residential Swimming Pools & Spas",4/14/2021,,111000,,"5219 QUEENSLOCH",HOUSTON,TX,77096,,,"GRACE BROWN","5219 QUEENSLOCH",HOUSTON,TX,77096,,Owner,,,,,OWNER,,,,,OWNER,,,,,,,,,
TX,HARRIS,21025901,"Residential Swimming Pools & Spas",4/13/2021,,60000,,"1222 WAKEFIELD",HOUSTON,TX,77018,,,"ISAAC BUDD","1222 WAKEFIELD",HOUSTON,TX,77018,,Owner,,,,,"CREATIVE LIFESTYLE POOLS ",,,,,"CREATIVE LIFESTYLE POOLS ","13121 LOUETTA RD",CYPRESS,TX,77429-5155,"(281) 820-0396",http://www.creativelifestylepools.com/,,,jlmonke@aol.com
TX,HARRIS,21027860,"Residential Swimming Pools & Spas",4/14/2021,,38000,,"6514 WHARTON",HOUSTON,TX,77055,,,CONTRACTOR,,,,,,,,,,,"DISTINCTIVE LIVING",,,,,"DISTINCTIVE LIVING","119 E 20TH ST",HOUSTON,TX,77008-2563,"(713) 481-3955",,,,
TX,HARRIS,21021130,"Residential Swimming Pools & Spas",4/15/2021,,61000,,"3427 LOUVRE",HOUSTON,TX,77082,,,"COOK MARY ALICE","3427 LOUVRE",HOUSTON,TX,77082,,Owner,,,,,"FRANKEL BUILDING GROUP",,,,,"FRANKEL BUILDING GROUP","7800 WASHINGTON AVE",HOUSTON,TX,77007,"(713) 623-4646",https://www.frankelbuildinggroup.com/,,,
TX,HARRIS,21010656,"Residential Swimming Pools & Spas",4/16/2021,,49900,,"527 W 33RD",HOUSTON,TX,77018,,,"FRANK CHAIDEZ","20722 CONNOR RUN",HOUSTON,TX,77433,"(832) 687-0440",Applicant,,,,,OWNER,,,,,OWNER,,,,,,,,,
TX,HARRIS,21018524,"Residential Swimming Pools & Spas",4/15/2021,,65000,,"455 WESTMINSTER",HOUSTON,TX,77024,,,"MANTOR DAVID","455 WESTMINSTER",HOUSTON,TX,77024,,Owner,,,,,OWNER,,,,,OWNER,,,,,,,,,
TX,HARRIS,21014257,"Residential Swimming Pools & Spas",4/14/2021,,45000,,"5401 JUDALON",HOUSTON,TX,77056,,,"ROBERT DUNCAN","5401 JUDALON",HOUSTON,TX,77056,,Owner,,,,,OWNER,,,,,OWNER,,,,,,,,,
TX,HARRIS,21020834,"Residential Swimming Pools & Spas",4/15/2021,,57000,,"410 GRETEL",HOUSTON,TX,77024,,,"JASON DUPRES","410 GRETEL",HOUSTON,TX,77024,,Owner,,,,,"SMITH CUSTOM POOLS",,,,,"SMITH CUSTOM POOLS","9320 WESTVIEW DR STE 1",HOUSTON,TX,77055-6414,"(281) 701-3280",,,,
TX,HARRIS,21029769,"Residential Swimming Pools & Spas",4/13/2021,,60000,,"2424 LOCKE",HOUSTON,TX,77019,,,"PATRICK FERTITTA","2424 LOCKE",HOUSTON,TX,77019,,Owner,,,,,"WATER'S EDGE",,,,,"WATER'S EDGE","1850 HOLLISTER ST",HOUSTON,TX,77080-6802,"(713) 882-0456",http://www.weoutdoorliving.com,"(713) 849-6609",,
TX,HARRIS,21029961,"Residential Swimming Pools & Spas",4/13/2021,,53000,,"1333 LAIRD",HOUSTON,TX,77008,,,"BRIAN GREUL","1333 LAIRD",HOUSTON,TX,77008,,Owner,,,,,"PLATINUM POOLS",,,,,"PLATINUM POOLS","4500 BLALOCK RD",HOUSTON,TX,77041-9121,"(281) 870-1600",,,,
TX,HARRIS,21029663,"Residential Swimming Pools & Spas",4/15/2021,,73000,,"3830 ECHO MOUNTAIN",HOUSTON,TX,77345,,,"JEREMY HUDSON","3830 ECHO MOUNTAIN",HOUSTON,TX,77345,,Owner,,,,,"FOX FAMILY POOLS",,,,,"FOX FAMILY POOLS","1420 FM 1960 BYPASS RD E STE 100",HUMBLE,TX,77338-3934,"(281) 550-7665",http://www.foxfamilypools.com/,"(281) 446-6734",,
TX,HARRIS,21029151,"Residential Swimming Pools & Spas",4/19/2021,,35000,,"7902 MEADOWBRIAR",HOUSTON,TX,77063,,,"KELLY HUNSICKER","7902 MEADOWBRIAR",HOUSTON,TX,77063,,Owner,,,,,"ISLAND LIFE CUSTOM POOLS",,,,,"ISLAND LIFE CUSTOM POOLS","20102 STONE LAKE CIR",TOMBALL,TX,77377,"(832) 492-5413",,,,
TX,HARRIS,21029508,"Residential Swimming Pools & Spas",4/14/2021,,95000,,"2418 DEL MONTE",HOUSTON,TX,77019,,,"SNJAY & LISA KALAVAR","2418 DEL MONTE",HOUSTON,TX,77019,,Owner,,,,,"SUNSHINE POOLS",,,,,"SUNSHINE POOLS","1800 AUGUSTA DR STE 140",HOUSTON,TX,77057-3268,"(713) 975-8899",http://www.sunshine-pools.com/,,,
TX,HARRIS,20112524,"Residential Swimming Pools & Spas",4/16/2021,,92000,,"911 SHELTERWOOD",HOUSTON,TX,77008,,,"THOMAS KOLANSKI","911 SHELTERWOOD",HOUSTON,TX,77008,,Owner,,,,,"PREMIER POOLS & SPAS",,,,,"PREMIER POOLS & SPAS","2810 BUSINESS CENTER DR STE 126",PEARLAND,TX,77584-9783,"(713) 436-4944",,"(713) 436-0081","BILL UNGER",bunger@ppas.com
TX,HARRIS,21016652,"Residential Swimming Pools & Spas",4/13/2021,,51500,,"1006 W TEMPLE",HOUSTON,TX,77009,,,"BRITT KORNMANN","1006 W TEMPLE",HOUSTON,TX,77009,,Owner,,,,,"MCKINNEY CUSTOM POOLS",,,,,"MCKINNEY CUSTOM POOLS","16802 HARKEY RD",PEARLAND,TX,77584-5070,"(281) 489-9800",http://www.mckinneycustompools.net,"(281) 489-9814",,mckinneypools@yahoo.com
TX,HARRIS,21024522,"Residential Swimming Pools & Spas",4/18/2021,,86400,,"15119 CORAL OAK",HOUSTON,TX,77059,,,"LUND ERIC","15119 CORAL OAK",HOUSTON,TX,77059,,Owner,,,,,"AQUASPORT POOLS",,,,,"AQUASPORT POOLS","105 W HERITAGE DR",FRIENDSWOOD,TX,77546-3916,"(281) 480-7665",,,,
TX,HARRIS,21013230,"Residential Swimming Pools & Spas",4/14/2021,,50000,,"990 CHAMBOARD",HOUSTON,TX,77018,,,"MILLAN GEORGE","990 CHAMBOARD",HOUSTON,TX,77018,,Owner,,,,,OWNER,,,,,OWNER,,,,,,,,,
TX,HARRIS,21029413,"Residential Swimming Pools & Spas",4/13/2021,,89999,,"411 ISOLDE",HOUSTON,TX,77024,,,"JESSICA MILBERT","411 ISOLDE",HOUSTON,TX,77024,,Owner,,,,,"PLATINUM POOLS",,,,,"PLATINUM POOLS","4500 BLALOCK RD",HOUSTON,TX,77041-9121,"(281) 870-1600",,,,
TX,HARRIS,21029768,"Residential Swimming Pools & Spas",4/13/2021,,68000,,"5308 WOODWAY",HOUSTON,TX,77056,,,"SOHEILA NEJAD","5308 WOODWAY",HOUSTON,TX,77056,,Owner,,,,,OWNER,,,,,OWNER,,,,,,,,,
TX,HARRIS,21030729,"Residential Swimming Pools & Spas",4/14/2021,,48500,,"1310 CANDLELIGHT",HOUSTON,TX,77018,,,"RENTON WILLIAM JAMES","1310 CANDLELIGHT",HOUSTON,TX,77018,,Owner,,,,,"ANJA'S PERMIT ASSISTANCE",,,,,"ANJA'S PERMIT ASSISTANCE","PO BOX 1471",HOUSTON,TX,77251-1471,"(281) 222-5227",,,,
TX,HARRIS,21025624,"Residential Swimming Pools & Spas",4/14/2021,,60000,,"3303 ROYAL FALLS",HOUSTON,TX,77339,,,"BRANDON ROGERS","3303 ROYAL FALLS",HOUSTON,TX,77339,,Owner,,,,,"EASTEX POOLS",,,,,"EASTEX POOLS","2907 CLEAR RIDGE",HOUSTON,TX,77339,"(713) 819-7969",http://www.eastexcompany.com/,"(281) 360-6553",,Web@EastexCompany.com
TX,HARRIS,21028911,"Residential Swimming Pools & Spas",4/19/2021,,74638,,"1610 WOODCREST",HOUSTON,TX,77018,,,"AMY RUDAY","1610 WOODCREST",HOUSTON,TX,77018,,Owner,,,,,"DOWNUNDA POOLS & OUTDOORS",,,,,"DOWNUNDA POOLS & OUTDOORS","19111 PLAYER PARK DR",HUMBLE,TX,77346-6149,"(281) 236-4344",http://www.downundapools.com/,,"BRETT HATFIELD",swim@downundapools.com
TX,HARRIS,21022705,"Residential Swimming Pools & Spas",4/15/2021,,62500,,"7509 BRIAR ROSE",HOUSTON,TX,77063,,,"CARLOS RUIZ","7509 BRIAR ROSE",HOUSTON,TX,77063,,Owner,,,,,"LUNA POOL & SPA",,,,,"LUNA POOL & SPA","103 GREYFRIAR DR",HOUSTON,TX,77037-2907,"(713) 553-9964",,,,
TX,HARRIS,21022303,"Residential Swimming Pools & Spas",4/15/2021,,78850,,"1902 CHIPPENDALE",HOUSTON,TX,77018,,,"DEBRA SANDERS","1902 CHIPPENDALE",HOUSTON,TX,77018,,Owner,,,,,"SUPREME POOLS & SPAS",,,,,"SUPREME POOLS & SPAS","22626 KUYKENDAHL RD",SPRING,TX,77389-5121,"(281) 350-4410",http://www.supremepoolsandspas.net/,"(281) 370-4474",,info@supremepoolsandspas.net
TX,HARRIS,21029341,"Residential Swimming Pools & Spas",4/13/2021,,91908,,"1911 NORTH",HOUSTON,TX,77098,,,"MARK SICKAFOOSE","1911 NORTH",HOUSTON,TX,77098,,Owner,,,,,"PLATINUM POOLS",,,,,"PLATINUM POOLS","4500 BLALOCK RD",HOUSTON,TX,77041-9121,"(281) 870-1600",,,,
TX,HARRIS,21007966,"Residential Swimming Pools & Spas",4/13/2021,,125000,,"14 SHADOW",HOUSTON,TX,77080,,,"JUSTIN SINGER","14 SHADOW",HOUSTON,TX,77080,,Owner,,,,,"MIRAGE CUSTOM POOLS ",,,,,"MIRAGE CUSTOM POOLS ","11239 LITTLE EGYPT RD",CONROE,TX,77304-1052,"(713) 261-1787",,,,
TX,HARRIS,21024261,"Residential Swimming Pools & Spas",4/15/2021,,60000,,"14542 BRAMBLEWOOD",HOUSTON,TX,77079,,,"ST. JOHN DEREK","14542 BRAMBLEWOOD",HOUSTON,TX,77079,,Owner,,,,,"C3 BUILDING SOLUTIONS",,,,,"C3 BUILDING SOLUTIONS","5535 MEMORIAL DRIVE",HOUSTON,TX,77007,"(713) 369-0925",http://www.c3buildingsolutions.com,,,
TX,HARRIS,21027355,"Residential Swimming Pools & Spas",4/13/2021,,95000,,"3252 FLORAL GARDEN",HOUSTON,TX,77365,,,"KIMBALL STAPLES","3252 FLORAL GARDEN",HOUSTON,TX,77365,,Owner,,,,,"AUSTIN CUSTOM POOLS",,,,,"AUSTIN CUSTOM POOLS","1108 KRAMER LN STE C",AUSTIN,TX,78758-4359,"(512) 250-2050",,,,
TX,HARRIS,21026638,"Residential Swimming Pools & Spas",4/19/2021,,65320,,"2115 WIDDICOMB",HOUSTON,TX,77008,,,"JESSICA SWAFFORD","2115 WIDDICOMB",HOUSTON,TX,77008,,Owner,,,,,"PLATINUM POOLS",,,,,"PLATINUM POOLS","4500 BLALOCK RD",HOUSTON,TX,77041-9121,"(281) 870-1600",,,,
TX,HARRIS,21020485,"Residential Swimming Pools & Spas",4/14/2021,,72890,,"4038 MERRICK",HOUSTON,TX,77025,,,"SYLVESTER CHARLES CHRISTINA","4038 MERRICK",HOUSTON,TX,77025,,Owner,,,,,"SIMONTON POOL CONSULTANTS",,,,,"SIMONTON POOL CONSULTANTS","6867 MUEGGE",HOUSTON,TX,77474,"(281) 831-6787",http://www.simontonpoolconsultants.com/,,,
TX,HARRIS,21021590,"Residential Swimming Pools & Spas",4/16/2021,,76184,,"1302 RICHELIEU",HOUSTON,TX,77018,,,"NITIN TALREJA","1302 RICHELIEU",HOUSTON,TX,77018,,Owner,,,,,"PEAK POOLS AND SPAS",,,,,"PEAK POOLS AND SPAS","5535 MEMORIAL DR STE F-323",HOUSTON,TX,77007-8021,"(281) 849-4335",http://www.peakpoolsandspas.com/,,,peakpools@outlook.com
TX,HARRIS,2101260108,"Residential Swimming Pools & Spas",3/16/2021,,73000,,"5916 RUSSELL LN",HOUSTON,TX,77356,,,"EARNEST BROOKS","5916 RUSSELL LN",HOUSTON,TX,77356,,Owner,,,,,OWNER,,,,,OWNER,,,,,,,,,
TX,HARRIS,2103080155,"Residential Swimming Pools & Spas",3/16/2021,,93780,,"7507 RAES CREEK DR",HOUSTON,TX,77356,"AUGUSTA CREEK",,"NIZAR MOMIN","7507 RAES CREEK DR",HOUSTON,TX,77356,,Owner,,,,,OWNER,,,,,OWNER,,,,,,,,,
TX,BRAZOS,21-0673,"Residential Swimming Pools & Spas",3/3/2021,,53000,,"4028 AUSTINS ESTATES DR",BRYAN,TX,77808,"AUSTINS ESTATES",,"MICHELE & ERVIN ESPARZA","4028 AUSTINS ESTATES DR",BRYAN,TX,77808,,Owner,,,,,"MOBLEY POOLS",,,,,"MOBLEY POOLS","2004 E VILLA MARIA RD",BRYAN,TX,77802-2540,"(979) 776-5557",http://www.mobleypools.com/,"(979) 776-5290","JASON FOSTER",Jason@mobleypools.com
TX,BRAZOS,21-0594,"Residential Swimming Pools & Spas",3/5/2021,,68500,,"723 GARDEN ACRES BLVD",BRYAN,TX,77802,"GARDEN ACRES",,"DAVID & TIMOTHY CAMPBELL","723 GARDEN ACRES BLVD",BRYAN,TX,77802,,Owner,,,,,"PREMIER POOLS & SPAS",,,,,"PREMIER POOLS & SPAS","2810 BUSINESS CENTER DR STE 126",PEARLAND,TX,77584-9783,"(713) 436-4944",,"(713) 436-0081","BILL UNGER",bunger@ppas.com
TX,BRAZOS,21-0768,"Residential Swimming Pools & Spas",3/25/2021,,72750,,"3229 ROSE HILL LN",BRYAN,TX,77808,,,"DAKATO & JILL RENFRO","3229 ROSE HILL LN",BRYAN,TX,77808,,Owner,,,,,"PREMIER POOLS & SPAS",,,,,"PREMIER POOLS & SPAS","2810 BUSINESS CENTER DR STE 126",PEARLAND,TX,77584-9783,"(713) 436-4944",,"(713) 436-0081","BILL UNGER",bunger@ppas.com
TX,GALVESTON,2021-0536,"Restaurant and Bar",3/16/2021,,175000,,"607 S FRIENDSWOOD DR 6",FRIENDSWOOD,TX,77546,,,CONTRACTOR,,,,,,,,,,,"MARK COLLINS CONSTRUCTION",,,,,"MARK COLLINS CONSTRUCTION","1605 GARDEN LAKES DRIVE",FRIENDSWOOD,TX,77546,"(281) 648-7123",,,,
TX,HARRIS,19085920,"Restaurant and Bar",4/15/2021,Renovations,350000,,"6707 WEST SAM HOUSTON SOUTH PKY",HOUSTON,TX,77072,,,CONTRACTOR,,,,,,,,,,,"BE & DE CONSTRUCTION",,,,,"BE & DE CONSTRUCTION","7525 SYNOTT RD STE 104",HOUSTON,TX,77083-5136,"(281) 495-0273",,,"WILLIAM LEONARD",
TX,HARRIS,21009809,"Restaurant and Bar",4/19/2021,Renovations,45000,,"1048 FEDERAL",HOUSTON,TX,77015,,,"ERIC KIND","313 WHITEFISH HILLS",WHITEFISH,MT,59937,"(262) 825-7097",Applicant,,,,,OWNER,,,,,OWNER,,,,,,,,,
TX,HARRIS,20119069,"Restaurant and Bar",4/13/2021,Renovations,200000,,"1907 W GRAY ST",HOUSTON,TX,77019,,,"ALLAN SIMONDS","1907 W GRAY ST",HOUSTON,TX,77019,"(202) 999-5222",Applicant,,,,,OWNER,,,,,OWNER,,,,,,,,,
TX,HARRIS,2101140108,Retail,3/16/2021,,40000,3050,"13040 FM 529 RD",HOUSTON,TX,77356,,,"BEST DAY BILLARDS","13040 FM 529 RD",HOUSTON,TX,77356,,Owner,,,,,OWNER,,,,,OWNER,,,,,,,,,
TX,HARRIS,2102010158,Retail,3/16/2021,,200000,1457,"7118 FM 1960 E RD",HOUSTON,TX,77356,,,"JERSEY MIKE","7118 FM 1960 E RD",HOUSTON,TX,77356,,Owner,,,,,OWNER,,,,,OWNER,,,,,,,,,
TX,GALVESTON,,Retail,3/12/2021,Renovation,5000000,,"1309 23RD ST",GALVESTON,TX,77550,,,CONTRACTOR,,,,,,,,,,,"PARADIGM CONSTRUCTION",,,,,"PARADIGM CONSTRUCTION","10510 JONES RD STE 200",HOUSTON,TX,77065-4212,"(713) 385-8919",,,,
TX,GALVESTON,,Retail,3/19/2021,Renovation,40000,,"2215 SEAWALL BLVD",GALVESTON,TX,77551,,,CONTRACTOR,,,,,,,,,,,"J A WELDON CONSTRUCTION",,,,,"J A WELDON CONSTRUCTION","6233 SEA ISLE",GALVESTON,TX,77554-9600,"(409) 737-2731",,,"JOHN WELDON",
TX,GALVESTON,,Retail,3/17/2021,Renovation,42640,,"2221 AVE D",GALVESTON,TX,77554,,,CONTRACTOR,,,,,,,,,,,"MCNATT CONTRACTING",,,,,"MCNATT CONTRACTING","7707 BAYSIDE AVE",GALVESTON,TX,77554-7188,"(409) 740-7760",,,,
TX,HARRIS,21011462,Retail,4/14/2021,Renovations,35000,,"1212 WESTHEIMER",HOUSTON,TX,77006,,,CONTRACTOR,,,,,,,,,,,"DON MAFRIGE REAL ESTATE",,,,,"DON MAFRIGE REAL ESTATE","6633 HILLCROFT STREET # 206",HOUSTON,TX,77081,"(713) 771-2466",,,,
TX,HARRIS,2011040115,Retail,3/16/2021,,1000000,10000,"21107 NORTH FWY",HOUSTON,TX,77356,,,"MMK&S LTD","21107 NORTH FWY",HOUSTON,TX,77356,,Owner,,,,,OWNER,,,,,OWNER,,,,,,,,,
TX,MONTGOMERY,BR-21-004193,"Single Family Homes",3/9/2021,,206990,2278,"1902 HIDDEN CEDAR DR  ",CONROE,TX,77303,,,CONTRACTOR,,,,,,,,,,,"HMH LIFESTYLES",,,,,"HMH LIFESTYLES","9001 AIRPORT FWY STE 400","NORTH RICHLAND HILLS",TX,76180-9128,"(817) 507-1100",,,"BRYAN MITCHELL",
TX,MONTGOMERY,BR-21-004196,"Single Family Homes",3/9/2021,,208990,2255,"1910 HIDDEN CEDAR DR",CONROE,TX,77303,,,CONTRACTOR,,,,,,,,,,,"HMH LIFESTYLES",,,,,"HMH LIFESTYLES","9001 AIRPORT FWY STE 400","NORTH RICHLAND HILLS",TX,76180-9128,"(817) 507-1100",,,"BRYAN MITCHELL",
TX,MONTGOMERY,BR-21-004199,"Single Family Homes",3/9/2021,,238990,3805,"2040 CEDAR TREE CT",CONROE,TX,77303,,,CONTRACTOR,,,,,,,,,,,"HMH LIFESTYLES",,,,,"HMH LIFESTYLES","9001 AIRPORT FWY STE 400","NORTH RICHLAND HILLS",TX,76180-9128,"(817) 507-1100",,,"BRYAN MITCHELL",
TX,MONTGOMERY,BR-21-004246,"Single Family Homes",3/10/2021,,200000,2960,"508 CHESTNUT REEF CT",CONROE,TX,77303,,,CONTRACTOR,,,,,,,,,,,"HIGHLAND HOMES",,,,,"HIGHLAND HOMES","10930 W SAM HOUSTON PKWY N STE 100",HOUSTON,TX,77064-6331,"(281) 517-9800",,,,
TX,MONTGOMERY,BR-21-004250,"Single Family Homes",3/17/2021,,298990,2864,"533 TIMBER VOYAGE CT  ",CONROE,TX,77303,,,CONTRACTOR,,,,,,,,,,,"MHI MCGUYER HOMEBUILDERS",,,,,"MHI MCGUYER HOMEBUILDERS","7676 WOODWAY DR",HOUSTON,TX,77063-1526,"(713) 260-4107",,,,
TX,MONTGOMERY,BR-21-004736,"Single Family Homes",3/31/2021,,180630,3999,"12214 BASSETERRE LN",CONROE,TX,77303,,,CONTRACTOR,,,,,,,,,,,"DR HORTON",,,,,"DR HORTON","14100 SOUTHWEST",HOUSTON,TX,77478,"(281) 201-5559",,,,
TX,MONTGOMERY,BR-21-004740,"Single Family Homes",3/24/2021,,179550,3990,"6030 LEEWARD ISLAND DR",CONROE,TX,77303,,,CONTRACTOR,,,,,,,,,,,"DR HORTON",,,,,"DR HORTON","14100 SOUTHWEST",HOUSTON,TX,77478,"(281) 201-5559",,,,
TX,MONTGOMERY,BR-21-004757,"Single Family Homes",3/17/2021,,580525,4094,"215 CALM SAVANNA CT",CONROE,TX,77303,,,CONTRACTOR,,,,,,,,,,,"HIGHLAND HOMES",,,,,"HIGHLAND HOMES","10930 W SAM HOUSTON PKWY N STE 100",HOUSTON,TX,77064-6331,"(281) 517-9800",,,,
TX,MONTGOMERY,BR-21-004783,"Single Family Homes",3/17/2021,,187330,3438,"3407 REDBRIDGE CT",CONROE,TX,77303,,,CONTRACTOR,,,,,,,,,,,"FRIENDSWOOD DEVELOPMENT",,,,,"FRIENDSWOOD DEVELOPMENT","203 FOX SQUIRREL CT",PINEHURST,TX,77362-4132,"(832) 813-0085",https://friendswooddevelopment.com/,,,
TX,MONTGOMERY,BR-21-004797,"Single Family Homes",3/17/2021,,200395,3381,"6056 HERITAGE CREEK LN",CONROE,TX,77303,,,CONTRACTOR,,,,,,,,,,,"LENNAR HOMES",,,,,"LENNAR HOMES","550 GREENS PKWY",HOUSTON,TX,77067-4537,"(281) 875-1000",http://www.lennar.com/,,,
TX,MONTGOMERY,BR-21-004804,"Single Family Homes",3/17/2021,,336506,2994,"419 FLOWERING LOTUS CT",CONROE,TX,77303,,,CONTRACTOR,,,,,,,,,,,"HIGHLAND HOMES",,,,,"HIGHLAND HOMES","10930 W SAM HOUSTON PKWY N STE 100",HOUSTON,TX,77064-6331,"(281) 517-9800",,,,
TX,MONTGOMERY,BR-21-004822,"Single Family Homes",3/17/2021,,157040,2875,"6060 HERITAGE CREEK LN",CONROE,TX,77303,,,CONTRACTOR,,,,,,,,,,,"LENNAR HOMES",,,,,"LENNAR HOMES","550 GREENS PKWY",HOUSTON,TX,77067-4537,"(281) 875-1000",http://www.lennar.com/,,,
TX,MONTGOMERY,BR-21-004825,"Single Family Homes",3/17/2021,,174690,2978,"3454 REDBRIDGE CT",CONROE,TX,77303,,,CONTRACTOR,,,,,,,,,,,"ANGEE JONES",,,,,"ANGEE JONES","681 GREENS PKWY STE 200",HOUSTON,TX,77067,"(281) 780-4139",,,,
TX,MONTGOMERY,BR-21-004828,"Single Family Homes",3/17/2021,,140920,2427,"3510 PINEVALE CT",CONROE,TX,77303,,,CONTRACTOR,,,,,,,,,,,"ANGEE JONES",,,,,"ANGEE JONES","681 GREENS PKWY STE 200",HOUSTON,TX,77067,"(281) 780-4139",,,,
TX,MONTGOMERY,BR-21-004831,"Single Family Homes",3/19/2021,,154505,2717,"3538 PINEVALE CT",CONROE,TX,77303,,,CONTRACTOR,,,,,,,,,,,"ANGEE JONES",,,,,"ANGEE JONES","681 GREENS PKWY STE 200",HOUSTON,TX,77067,"(281) 780-4139",,,,
TX,MONTGOMERY,BR-21-004839,"Single Family Homes",3/19/2021,,174590,2978,"3542 PINEVALE CT",CONROE,TX,77303,,,CONTRACTOR,,,,,,,,,,,"ANGEE JONES",,,,,"ANGEE JONES","681 GREENS PKWY STE 200",HOUSTON,TX,77067,"(281) 780-4139",,,,
TX,MONTGOMERY,BR-21-004842,"Single Family Homes",3/19/2021,,176605,2975,"3546 PINEVALE CT",CONROE,TX,77303,,,CONTRACTOR,,,,,,,,,,,"ANGEE JONES",,,,,"ANGEE JONES","681 GREENS PKWY STE 200",HOUSTON,TX,77067,"(281) 780-4139",,,,
TX,MONTGOMERY,BR-21-004856,"Single Family Homes",3/23/2021,,140920,2410,"3547 PINEVALE CT",CONROE,TX,77303,,,CONTRACTOR,,,,,,,,,,,"ANGEE JONES",,,,,"ANGEE JONES","681 GREENS PKWY STE 200",HOUSTON,TX,77067,"(281) 780-4139",,,,
TX,MONTGOMERY,BR-21-004872,"Single Family Homes",3/17/2021,,145860,2529,"12325 DELTA TIMBER RD",CONROE,TX,77303,,,CONTRACTOR,,,,,,,,,,,"ANGEE JONES",,,,,"ANGEE JONES","681 GREENS PKWY STE 200",HOUSTON,TX,77067,"(281) 780-4139",,,,
TX,MONTGOMERY,BR-21-004882,"Single Family Homes",3/31/2021,,171340,2803,"12328 DELTA TIMBER RD",CONROE,TX,77303,,,CONTRACTOR,,,,,,,,,,,"ANGEE JONES",,,,,"ANGEE JONES","681 GREENS PKWY STE 200",HOUSTON,TX,77067,"(281) 780-4139",,,,
TX,MONTGOMERY,BR-21-004887,"Single Family Homes",3/17/2021,,140465,2319,"12321 DELTA TIMBER RD",CONROE,TX,77303,,,CONTRACTOR,,,,,,,,,,,"ANGEE JONES",,,,,"ANGEE JONES","681 GREENS PKWY STE 200",HOUSTON,TX,77067,"(281) 780-4139",,,,
TX,MONTGOMERY,BR-21-004932,"Single Family Homes",3/18/2021,,200000,2430,"538 CHESTNUT REEF CT",CONROE,TX,77303,,,CONTRACTOR,,,,,,,,,,,"HIGHLAND HOMES",,,,,"HIGHLAND HOMES","10930 W SAM HOUSTON PKWY N STE 100",HOUSTON,TX,77064-6331,"(281) 517-9800",,,,
TX,MONTGOMERY,BR-21-004946,"Single Family Homes",3/18/2021,,333000,2454,"423 FLOWERING LOTUS CT",CONROE,TX,77303,,,CONTRACTOR,,,,,,,,,,,"HIGHLAND HOMES",,,,,"HIGHLAND HOMES","10930 W SAM HOUSTON PKWY N STE 100",HOUSTON,TX,77064-6331,"(281) 517-9800",,,,
TX,MONTGOMERY,BR-21-004958,"Single Family Homes",3/18/2021,,362000,2991,"444 FLOWERING LOTUS CT",CONROE,TX,77303,,,CONTRACTOR,,,,,,,,,,,"HIGHLAND HOMES",,,,,"HIGHLAND HOMES","10930 W SAM HOUSTON PKWY N STE 100",HOUSTON,TX,77064-6331,"(281) 517-9800",,,,
TX,MONTGOMERY,BR-21-004973,"Single Family Homes",3/19/2021,,326000,2446,"443 FLOWERING LOTUS CT",CONROE,TX,77303,,,CONTRACTOR,,,,,,,,,,,"HIGHLAND HOMES",,,,,"HIGHLAND HOMES","10930 W SAM HOUSTON PKWY N STE 100",HOUSTON,TX,77064-6331,"(281) 517-9800",,,,
TX,MONTGOMERY,BR-21-004978,"Single Family Homes",3/19/2021,,326323,2775,"440 FLOWERING LOTUS CT",CONROE,TX,77303,,,CONTRACTOR,,,,,,,,,,,"HIGHLAND HOMES",,,,,"HIGHLAND HOMES","10930 W SAM HOUSTON PKWY N STE 100",HOUSTON,TX,77064-6331,"(281) 517-9800",,,,
TX,MONTGOMERY,BR-21-004985,"Single Family Homes",3/22/2021,,578000,4149,"132 HUSHED NIGHTFALL CT",CONROE,TX,77303,,,CONTRACTOR,,,,,,,,,,,"HIGHLAND HOMES",,,,,"HIGHLAND HOMES","10930 W SAM HOUSTON PKWY N STE 100",HOUSTON,TX,77064-6331,"(281) 517-9800",,,,
TX,MONTGOMERY,BR-21-005003,"Single Family Homes",3/25/2021,,370270,2964,"411 SOAPBERRY TREE CT",CONROE,TX,77303,,,CONTRACTOR,,,,,,,,,,,"HIGHLAND HOMES",,,,,"HIGHLAND HOMES","10930 W SAM HOUSTON PKWY N STE 100",HOUSTON,TX,77064-6331,"(281) 517-9800",,,,
TX,MONTGOMERY,BR-21-005007,"Single Family Homes",3/22/2021,,180000,2445,"526 CHESTNUT REEF CT",CONROE,TX,77303,,,CONTRACTOR,,,,,,,,,,,"HIGHLAND HOMES",,,,,"HIGHLAND HOMES","10930 W SAM HOUSTON PKWY N STE 100",HOUSTON,TX,77064-6331,"(281) 517-9800",,,,
TX,MONTGOMERY,BR-21-005013,"Single Family Homes",3/22/2021,,180000,2146,"722 SANTA ELENA TRL",CONROE,TX,77303,,,CONTRACTOR,,,,,,,,,,,"JEFF MEINEKE",,,,,"JEFF MEINEKE","5601 DEMOCRACY DR STE 300",PLANO,TX,75024,"(281) 813-8908",,,,
TX,MONTGOMERY,BR-21-005050,"Single Family Homes",3/22/2021,,363698,2964,"448 FLOWERING LOTUS CT",CONROE,TX,77303,,,CONTRACTOR,,,,,,,,,,,"HIGHLAND HOMES",,,,,"HIGHLAND HOMES","10930 W SAM HOUSTON PKWY N STE 100",HOUSTON,TX,77064-6331,"(281) 517-9800",,,,
TX,MONTGOMERY,BR-21-005062,"Single Family Homes",3/23/2021,,200000,2994,"706 SANTA ELENA TRL",CONROE,TX,77303,,,CONTRACTOR,,,,,,,,,,,"HIGHLAND HOMES",,,,,"HIGHLAND HOMES","10930 W SAM HOUSTON PKWY N STE 100",HOUSTON,TX,77064-6331,"(281) 517-9800",,,,
TX,MONTGOMERY,BR-21-005069,"Single Family Homes",3/22/2021,,200000,2964,"319 HIGHLAND BAYOU DR",CONROE,TX,77303,,,CONTRACTOR,,,,,,,,,,,"HIGHLAND HOMES",,,,,"HIGHLAND HOMES","10930 W SAM HOUSTON PKWY N STE 100",HOUSTON,TX,77064-6331,"(281) 517-9800",,,,
TX,MONTGOMERY,BR-21-005082,"Single Family Homes",3/23/2021,,202990,2493,"2025 CEDAR TREE CT",CONROE,TX,77303,,,CONTRACTOR,,,,,,,,,,,"HMH LIFESTYLES",,,,,"HMH LIFESTYLES","9001 AIRPORT FWY STE 400","NORTH RICHLAND HILLS",TX,76180-9128,"(817) 507-1100",,,"BRYAN MITCHELL",
TX,MONTGOMERY,BR-21-005120,"Single Family Homes",3/26/2021,,166000,2658,"2202 ANGIE KAYE DR",CONROE,TX,77303,,,CONTRACTOR,,,,,,,,,,,"LEGEND HOMES",,,,,"LEGEND HOMES","10410 WINDAMERE LAKES BLVD",HOUSTON,TX,77065-4996,"(281) 671-9060",http://legendhomecorp.com/,"(281) 671-9055",,
TX,MONTGOMERY,BR-21-005129,"Single Family Homes",3/26/2021,,166000,2687,"2210 ANGIE KAYE DR",CONROE,TX,77303,,,CONTRACTOR,,,,,,,,,,,"LEGEND HOMES",,,,,"LEGEND HOMES","10410 WINDAMERE LAKES BLVD",HOUSTON,TX,77065-4996,"(281) 671-9060",http://legendhomecorp.com/,"(281) 671-9055",,
TX,MONTGOMERY,"BR-21-005132 ","Single Family Homes",3/26/2021,,189000,2616,"2206 ANGIE KAYE DR",CONROE,TX,77303,,,CONTRACTOR,,,,,,,,,,,"LEGEND HOMES",,,,,"LEGEND HOMES","10410 WINDAMERE LAKES BLVD",HOUSTON,TX,77065-4996,"(281) 671-9060",http://legendhomecorp.com/,"(281) 671-9055",,
TX,MONTGOMERY,BR-21-005135,"Single Family Homes",3/26/2021,,189000,2616,"2226 ANGIE KAYE DR",CONROE,TX,77303,,,CONTRACTOR,,,,,,,,,,,"LEGEND HOMES",,,,,"LEGEND HOMES","10410 WINDAMERE LAKES BLVD",HOUSTON,TX,77065-4996,"(281) 671-9060",http://legendhomecorp.com/,"(281) 671-9055",,
TX,MONTGOMERY,BR-21-005139,"Single Family Homes",3/26/2021,,180000,2039,"2218 ANGIE KAYE DR",CONROE,TX,77303,,,CONTRACTOR,,,,,,,,,,,"LEGEND HOMES",,,,,"LEGEND HOMES","10410 WINDAMERE LAKES BLVD",HOUSTON,TX,77065-4996,"(281) 671-9060",http://legendhomecorp.com/,"(281) 671-9055",,
TX,MONTGOMERY,BR-21-005142,"Single Family Homes",3/26/2021,,166000,2669,"2222 ANGIE KAYE DR",CONROE,TX,77303,,,CONTRACTOR,,,,,,,,,,,"LEGEND HOMES",,,,,"LEGEND HOMES","10410 WINDAMERE LAKES BLVD",HOUSTON,TX,77065-4996,"(281) 671-9060",http://legendhomecorp.com/,"(281) 671-9055",,
TX,MONTGOMERY,BR-21-005145,"Single Family Homes",3/26/2021,,180000,2186,"2230 ANGIE KAYE DR",CONROE,TX,77303,,,CONTRACTOR,,,,,,,,,,,"LEGEND HOMES",,,,,"LEGEND HOMES","10410 WINDAMERE LAKES BLVD",HOUSTON,TX,77065-4996,"(281) 671-9060",http://legendhomecorp.com/,"(281) 671-9055",,
TX,MONTGOMERY,BR-21-005171,"Single Family Homes",3/26/2021,,189000,2616,"3488 WOODED LN",CONROE,TX,77303,,,CONTRACTOR,,,,,,,,,,,"LEGEND HOMES",,,,,"LEGEND HOMES","10410 WINDAMERE LAKES BLVD",HOUSTON,TX,77065-4996,"(281) 671-9060",http://legendhomecorp.com/,"(281) 671-9055",,
TX,MONTGOMERY,BR-21-005176,"Single Family Homes",3/26/2021,,189000,2663,"2041 MUGGY LN",CONROE,TX,77303,,,CONTRACTOR,,,,,,,,,,,"LEGEND HOMES",,,,,"LEGEND HOMES","10410 WINDAMERE LAKES BLVD",HOUSTON,TX,77065-4996,"(281) 671-9060",http://legendhomecorp.com/,"(281) 671-9055",,
TX,MONTGOMERY,BR-21-005180,"Single Family Homes",3/25/2021,,140920,2410,"3202 LADERA CREEK CT",CONROE,TX,77303,,,CONTRACTOR,,,,,,,,,,,"LENNAR HOMES",,,,,"LENNAR HOMES","550 GREENS PKWY",HOUSTON,TX,77067-4537,"(281) 875-1000",http://www.lennar.com/,,,
TX,MONTGOMERY,BR-21-005183,"Single Family Homes",3/26/2021,,162737,3471,"1936 CYPRESS CANYON TRL  ",CONROE,TX,77303,,,CONTRACTOR,,,,,,,,,,,"DUSTIN RODGERS",,,,,"DUSTIN RODGERS","15915 KATY FAIRWAY STE 405",CONROE,TX,77304-4854,"(281) 830-1579",,,,
TX,MONTGOMERY,BR-21-005188,"Single Family Homes",3/26/2021,,205573,3978,"235 REDWOOD CANYON TRL",CONROE,TX,77303,,,CONTRACTOR,,,,,,,,,,,"DUSTIN RODGERS",,,,,"DUSTIN RODGERS","15915 KATY FAIRWAY STE 405",CONROE,TX,77304-4854,"(281) 830-1579",,,,
TX,MONTGOMERY,BR-21-005191,"Single Family Homes",3/26/2021,,108222,1969,"2845 BEECH RIVER CT",CONROE,TX,77303,,,CONTRACTOR,,,,,,,,,,,"DUSTIN RODGERS",,,,,"DUSTIN RODGERS","15915 KATY FAIRWAY STE 405",CONROE,TX,77304-4854,"(281) 830-1579",,,,
TX,MONTGOMERY,BR-21-005194,"Single Family Homes",3/26/2021,,135929,2307,"2914 TULIP POPLAR TRL",CONROE,TX,77303,,,CONTRACTOR,,,,,,,,,,,"DUSTIN RODGERS",,,,,"DUSTIN RODGERS","15915 KATY FAIRWAY STE 405",CONROE,TX,77304-4854,"(281) 830-1579",,,,
TX,MONTGOMERY,BR-21-005205,"Single Family Homes",3/30/2021,,,2841,"2237 GADWALL CT",CONROE,TX,77303,,,CONTRACTOR,,,,,,,,,,,"MERITAGE HOMES",,,,,"MERITAGE HOMES","2901 W SAM HOUSTON PKWY N",HOUSTON,TX,77043-1630,"(713) 357-1184",,,,
TX,MONTGOMERY,BR-21-005208,"Single Family Homes",3/26/2021,,300000,2687,"2137 WOODLAND PINE DR ",CONROE,TX,77303,,,CONTRACTOR,,,,,,,,,,,"MERITAGE HOMES",,,,,"MERITAGE HOMES","2901 W SAM HOUSTON PKWY N",HOUSTON,TX,77043-1630,"(713) 357-1184",,,,
TX,MONTGOMERY,BR-21-005223,"Single Family Homes",3/26/2021,,300000,3535,"2180 WOODLAND PINE DR",CONROE,TX,77303,,,CONTRACTOR,,,,,,,,,,,"MERITAGE HOMES",,,,,"MERITAGE HOMES","2901 W SAM HOUSTON PKWY N",HOUSTON,TX,77043-1630,"(713) 357-1184",,,,
TX,MONTGOMERY,BR-21-005253,"Single Family Homes",3/31/2021,,273990,2286,"307 HIGHLAND BAYOU DR ",CONROE,TX,77303,,,CONTRACTOR,,,,,,,,,,,"MHI MCGUYER HOMEBUILDERS",,,,,"MHI MCGUYER HOMEBUILDERS","7676 WOODWAY DR",HOUSTON,TX,77063-1526,"(713) 260-4107",,,,
TX,MONTGOMERY,BR-21-005259,"Single Family Homes",3/31/2021,,276990,2262,"516 CHESTNUT REEF CT",CONROE,TX,77303,,,CONTRACTOR,,,,,,,,,,,"MHI MCGUYER HOMEBUILDERS",,,,,"MHI MCGUYER HOMEBUILDERS","7676 WOODWAY DR",HOUSTON,TX,77063-1526,"(713) 260-4107",,,,
TX,MONTGOMERY,BR-21-005278,"Single Family Homes",3/31/2021,,374900,2619,"171 DOVE SPRINGS CT",CONROE,TX,77303,,,CONTRACTOR,,,,,,,,,,,"PERRY HOMES",,,,,"PERRY HOMES","9000 GULF FWY",HOUSTON,TX,77017-7018,"(713) 417-1396",,,,
TX,MONTGOMERY,BR-21-005295,"Single Family Homes",3/31/2021,,381900,2641,"217 SELADO CREEK DR",CONROE,TX,77303,,,CONTRACTOR,,,,,,,,,,,"PERRY HOMES",,,,,"PERRY HOMES","9000 GULF FWY",HOUSTON,TX,77017-7018,"(713) 417-1396",,,,
TX,MONTGOMERY,BR-21-005300,"Single Family Homes",3/31/2021,,381900,2638,"607 LOST MAPLES LN",CONROE,TX,77303,,,CONTRACTOR,,,,,,,,,,,"PERRY HOMES",,,,,"PERRY HOMES","9000 GULF FWY",HOUSTON,TX,77017-7018,"(713) 417-1396",,,,
TX,MONTGOMERY,BR-21-005311,"Single Family Homes",3/31/2021,,374900,2619,"229 SELADO CREEK DR",CONROE,TX,77303,,,CONTRACTOR,,,,,,,,,,,"PERRY HOMES",,,,,"PERRY HOMES","9000 GULF FWY",HOUSTON,TX,77017-7018,"(713) 417-1396",,,,
TX,MONTGOMERY,BR-21-005342,"Single Family Homes",3/31/2021,,412900,3325,"735 FALL ROCK BRANCH DR",CONROE,TX,77303,,,CONTRACTOR,,,,,,,,,,,"PERRY HOMES",,,,,"PERRY HOMES","9000 GULF FWY",HOUSTON,TX,77017-7018,"(713) 417-1396",,,,
TX,MONTGOMERY,BR-21-005352,"Single Family Homes",3/31/2021,,404900,3443,"800 COLETO RUN",CONROE,TX,77303,,,CONTRACTOR,,,,,,,,,,,"PERRY HOMES",,,,,"PERRY HOMES","9000 GULF FWY",HOUSTON,TX,77017-7018,"(713) 417-1396",,,,
TX,MONTGOMERY,BR-21-005365,"Single Family Homes",3/31/2021,,418900,3347,"808 COLETO RUN",CONROE,TX,77303,,,CONTRACTOR,,,,,,,,,,,"PERRY HOMES",,,,,"PERRY HOMES","9000 GULF FWY",HOUSTON,TX,77017-7018,"(713) 417-1396",,,,
TX,MONTGOMERY,BR-21-005373,"Single Family Homes",3/31/2021,,403900,3260,"816 COLETO RUN",CONROE,TX,77303,,,CONTRACTOR,,,,,,,,,,,"PERRY HOMES",,,,,"PERRY HOMES","9000 GULF FWY",HOUSTON,TX,77017-7018,"(713) 417-1396",,,,
TX,MONTGOMERY,BR-21-005384,"Single Family Homes",3/31/2021,,418900,3257,"918 SENDERO TRL",CONROE,TX,77303,,,CONTRACTOR,,,,,,,,,,,"PERRY HOMES",,,,,"PERRY HOMES","9000 GULF FWY",HOUSTON,TX,77017-7018,"(713) 417-1396",,,,
TX,MONTGOMERY,BR-21-005402,"Single Family Homes",3/24/2021,,647780,5752,"2058 BENNET LN",CONROE,TX,77303,,,CONTRACTOR,,,,,,,,,,,"PARTNERS IN BUILDING",,,,,"PARTNERS IN BUILDING","2901 W SAM HOUSTON PKWY N STE C250",HOUSTON,TX,77043-1624,"(713) 937-1121",http://www.partnersinbuilding.com,"(713) 937-1145",,
TX,MONTGOMERY,BR-21-005408,"Single Family Homes",3/25/2021,,115414,2571,"3447 REDBRIDGE CT",CONROE,TX,77303,,,CONTRACTOR,,,,,,,,,,,"STYLECRAFT BUILDERS ",,,,,"STYLECRAFT BUILDERS ","4090 STATE HIGHWAY 6 S","COLLEGE STATION",TX,77845-8962,"(979) 764-9900",,"(979) 690-3069","TANNER BREWSTER",tabrewster@stylecraft-builders.com
TX,MONTGOMERY,BR-21-005411,"Single Family Homes",3/25/2021,,93012,2080,"3320 ROLLING VIEW CT",CONROE,TX,77303,,,CONTRACTOR,,,,,,,,,,,"STYLECRAFT BUILDERS ",,,,,"STYLECRAFT BUILDERS ","4090 STATE HIGHWAY 6 S","COLLEGE STATION",TX,77845-8962,"(979) 764-9900",,"(979) 690-3069","TANNER BREWSTER",tabrewster@stylecraft-builders.com
TX,MONTGOMERY,BR-21-005419,"Single Family Homes",3/25/2021,,156585,2574,"635 LOST MAPLES BEND LN",CONROE,TX,77303,,,CONTRACTOR,,,,,,,,,,,"TRENDMAKER HOMES",,,,,"TRENDMAKER HOMES","16340 PARK TEN PL STE 250",HOUSTON,TX,77084-5144,"(281) 675-3200",,"(281) 675-3251","MARTIN EVANS",
TX,MONTGOMERY,BR-21-005424,"Single Family Homes",3/25/2021,,164580,2691,"639 LOST MAPLES BEND LN    ",CONROE,TX,77303,,,CONTRACTOR,,,,,,,,,,,"TRENDMAKER HOMES",,,,,"TRENDMAKER HOMES","16340 PARK TEN PL STE 250",HOUSTON,TX,77084-5144,"(281) 675-3200",,"(281) 675-3251","MARTIN EVANS",
TX,MONTGOMERY,BR-21-005433,"Single Family Homes",3/31/2021,,396990,3627,"130 LACE BARK DR",CONROE,TX,77303,,,CONTRACTOR,,,,,,,,,,,"DAVID WEEKLEY HOMES",,,,,"DAVID WEEKLEY HOMES","14444 NORTHWEST",HOUSTON,TX,77040,"(713) 570-5021",http://www.davidweekleyhomes.com/,,,
TX,MONTGOMERY,BR-21-005530,"Single Family Homes",3/31/2021,,120000,3048,"415 SOAPBERRY TREE CT",CONROE,TX,77303,,,CONTRACTOR,,,,,,,,,,,"HF HOLDINGS",,,,,"HF HOLDINGS","1707 ORLANDO CENTRAL PKWY  STE 440",ORLANDO,TX,32809-5759,"(877) 680-6064",,,,
TX,MONTGOMERY,BR-21-005538,"Single Family Homes",3/31/2021,,200800,3240,"227 ROSE GUM CT",CONROE,TX,77303,,,CONTRACTOR,,,,,,,,,,,"CHESMAR HOMES",,,,,"CHESMAR HOMES","450 GEARS RD STE 400",HOUSTON,TX,77067-4513,"(281) 598-1111",http://chesmar.com,"(281) 598-1115",,customerservice.houston@chesmar.com
TX,MONTGOMERY,BR-21-005541,"Single Family Homes",3/30/2021,,158473,2342,"427 SOAPBERRY TREE CT",CONROE,TX,77303,,,CONTRACTOR,,,,,,,,,,,"HF HOLDINGS",,,,,"HF HOLDINGS","1707 ORLANDO CENTRAL PKWY  STE 440",ORLANDO,TX,32809-5759,"(877) 680-6064",,,,
TX,MONTGOMERY,BR-21-005544,"Single Family Homes",3/30/2021,,193289,3114,"703 LACEBARK ELM TRL",CONROE,TX,77303,,,CONTRACTOR,,,,,,,,,,,"HF HOLDINGS",,,,,"HF HOLDINGS","1707 ORLANDO CENTRAL PKWY  STE 440",ORLANDO,TX,32809-5759,"(877) 680-6064",,,,
TX,MONTGOMERY,BR-21-005547,"Single Family Homes",3/30/2021,,193289,3114,"751 LACEBARK ELM TRL",CONROE,TX,77303,,,CONTRACTOR,,,,,,,,,,,"HF HOLDINGS",,,,,"HF HOLDINGS","1707 ORLANDO CENTRAL PKWY  STE 440",ORLANDO,TX,32809-5759,"(877) 680-6064",,,,
TX,MONTGOMERY,BR-21-005552,"Single Family Homes",3/30/2021,,174717,2679,"731 LACEBARK ELM TRL",CONROE,TX,77303,,,CONTRACTOR,,,,,,,,,,,"HF HOLDINGS",,,,,"HF HOLDINGS","1707 ORLANDO CENTRAL PKWY  STE 440",ORLANDO,TX,32809-5759,"(877) 680-6064",,,,
TX,MONTGOMERY,BR-21-005558,"Single Family Homes",3/30/2021,,157443,2319,"719 LACEBARK ELM TRL",CONROE,TX,77303,,,CONTRACTOR,,,,,,,,,,,"HF HOLDINGS",,,,,"HF HOLDINGS","1707 ORLANDO CENTRAL PKWY  STE 440",ORLANDO,TX,32809-5759,"(877) 680-6064",,,,
TX,MONTGOMERY,BR-21-005681,"Single Family Homes",3/30/2021,,150701,2636,"124 N CADENCE HILLS LOOP",CONROE,TX,77303,,,CONTRACTOR,,,,,,,,,,,"GEHAN HOMES",,,,,"GEHAN HOMES","2050 W SAM HOUSTON PKWY S",HOUSTON,TX,77042-2079,"(713) 243-3545",http://www.gehanhomes.com,,,
TX,MONTGOMERY,BR-21-005693,"Single Family Homes",3/30/2021,,205400,3798,"203 SCARLET MAPLE WAY",CONROE,TX,77303,,,CONTRACTOR,,,,,,,,,,,"HF HOLDINGS",,,,,"HF HOLDINGS","1707 ORLANDO CENTRAL PKWY  STE 440",ORLANDO,TX,32809-5759,"(877) 680-6064",,,,
TX,MONTGOMERY,BR-21-005696,"Single Family Homes",3/30/2021,,164287,2808,"297 SCARLET MAPLE WAY ",CONROE,TX,77303,,,CONTRACTOR,,,,,,,,,,,"HF HOLDINGS",,,,,"HF HOLDINGS","1707 ORLANDO CENTRAL PKWY  STE 440",ORLANDO,TX,32809-5759,"(877) 680-6064",,,,
TX,MONTGOMERY,BR-21-005699,"Single Family Homes",3/31/2021,,97796,2194,"3522 PINEVALE CT",CONROE,TX,77303,,,CONTRACTOR,,,,,,,,,,,"STYLECRAFT BUILDERS ",,,,,"STYLECRAFT BUILDERS ","4090 STATE HIGHWAY 6 S","COLLEGE STATION",TX,77845-8962,"(979) 764-9900",,"(979) 690-3069","TANNER BREWSTER",tabrewster@stylecraft-builders.com
TX,MONTGOMERY,BR-21-005865,"Single Family Homes",3/30/2021,,182309,3033,"310 HONEY MESQUITE PATH",CONROE,TX,77303,,,CONTRACTOR,,,,,,,,,,,"HF HOLDINGS",,,,,"HF HOLDINGS","1707 ORLANDO CENTRAL PKWY  STE 440",ORLANDO,TX,32809-5759,"(877) 680-6064",,,,
TX,MONTGOMERY,BR-21-005870,"Single Family Homes",3/30/2021,,184913,3573,"339 HONEY MESQUITE PATH",CONROE,TX,77303,,,CONTRACTOR,,,,,,,,,,,"GEHAN HOMES",,,,,"GEHAN HOMES","2050 W SAM HOUSTON PKWY S",HOUSTON,TX,77042-2079,"(713) 243-3545",http://www.gehanhomes.com,,,
TX,HARRIS,2103010010,"Single Family Homes",3/16/2021,,196000,3012,"4210 SHADY PALMETTO DR",HOUSTON,TX,77356,"CYPRESS CREEK LANDING",,CONTRACTOR,,,,,,,,,,,"KB HOME",,,,,"KB HOME","11314 RICHMOND AVE",HOUSTON,TX,77082-2616,"(281) 668-3800",,,,
TX,HARRIS,2102260156,"Single Family Homes",3/16/2021,,173000,2655,"15107 BAYBERRY MEADOWS LN",HOUSTON,TX,77356,"TIMBER CROSSING",,CONTRACTOR,,,,,,,,,,,"KB HOME",,,,,"KB HOME","11314 RICHMOND AVE",HOUSTON,TX,77082-2616,"(281) 668-3800",,,,
TX,HARRIS,2102250086,"Single Family Homes",3/17/2021,,137000,2109,"15103 BAYBERRY MEADOWS LN",HOUSTON,TX,77356,"TIMBER CROSSING",,CONTRACTOR,,,,,,,,,,,"KB HOME",,,,,"KB HOME","11314 RICHMOND AVE",HOUSTON,TX,77082-2616,"(281) 668-3800",,,,
TX,HARRIS,2102250083,"Single Family Homes",3/16/2021,,153000,2360,"14634 MONTEREY CYPRESS DR",HOUSTON,TX,77356,"CYPRESS CREEK LANDING",,CONTRACTOR,,,,,,,,,,,"KB HOME",,,,,"KB HOME","11314 RICHMOND AVE",HOUSTON,TX,77082-2616,"(281) 668-3800",,,,
TX,HARRIS,2102240105,"Single Family Homes",3/16/2021,,115000,1776,"15102 BAYBERRY MEADOWS LN",HOUSTON,TX,77356,"TIMBER CROSSING",,CONTRACTOR,,,,,,,,,,,"KB HOME",,,,,"KB HOME","11314 RICHMOND AVE",HOUSTON,TX,77082-2616,"(281) 668-3800",,,,
TX,HARRIS,2103020164,"Single Family Homes",3/16/2021,,180345,3279,"14214 ALPINE FIR DR",HOUSTON,TX,77356,"PECAN ESTATES",,CONTRACTOR,,,,,,,,,,,"CASTLEROCK COMMUNITIES",,,,,"CASTLEROCK COMMUNITIES","7670 WOODWAY DR STE 300",HOUSTON,TX,77063-1520,"(713) 600-7000",http://c-rock.com,"(713) 600-0000",,
TX,HARRIS,2103020177,"Single Family Homes",3/16/2021,,161480,2513,"414 ALMOND WILLOW LN",HOUSTON,TX,77356,"PECAN ESTATES",,CONTRACTOR,,,,,,,,,,,"CASTLEROCK COMMUNITIES",,,,,"CASTLEROCK COMMUNITIES","7670 WOODWAY DR STE 300",HOUSTON,TX,77063-1520,"(713) 600-7000",http://c-rock.com,"(713) 600-0000",,
TX,HARRIS,2103020193,"Single Family Homes",3/16/2021,,150315,2733,"14302 ALBERTA SPRUCE LN",HOUSTON,TX,77356,"PECAN ESTATES",,CONTRACTOR,,,,,,,,,,,"CASTLEROCK COMMUNITIES",,,,,"CASTLEROCK COMMUNITIES","7670 WOODWAY DR STE 300",HOUSTON,TX,77063-1520,"(713) 600-7000",http://c-rock.com,"(713) 600-0000",,
TX,HARRIS,2103290068,"Single Family Homes",3/16/2021,,79530,1446,"15803 BREMORE DR",HOUSTON,TX,77356,BALMORAL,,CONTRACTOR,,,,,,,,,,,"LENNAR HOMES",,,,,"LENNAR HOMES","550 GREENS PKWY",HOUSTON,TX,77067-4537,"(281) 875-1000",http://www.lennar.com/,,,
TX,HARRIS,2103290071,"Single Family Homes",3/16/2021,,233220,3588,"19038 CRESTED MOSS AVE",HOUSTON,TX,77356,"ROSEHILL RESERVE",,CONTRACTOR,,,,,,,,,,,"CASTLEROCK COMMUNITIES",,,,,"CASTLEROCK COMMUNITIES","7670 WOODWAY DR STE 300",HOUSTON,TX,77063-1520,"(713) 600-7000",http://c-rock.com,"(713) 600-0000",,
TX,HARRIS,2103230099,"Single Family Homes",3/16/2021,,256000,2859,"23846 THISTLE SPUD LN",HOUSTON,TX,77356,WINDROW,,CONTRACTOR,,,,,,,,,,,"PULTE HOMES",,,,,"PULTE HOMES","16670 PARK ROW",HOUSTON,TX,77084-6866,"(281) 749-8000",,,,
TX,HARRIS,2103290079,"Single Family Homes",3/16/2021,,122210,2222,"415 ALASKA CEDAR DR",HOUSTON,TX,77356,"PECAN ESTATES",,CONTRACTOR,,,,,,,,,,,"CASTLEROCK COMMUNITIES",,,,,"CASTLEROCK COMMUNITIES","7670 WOODWAY DR STE 300",HOUSTON,TX,77063-1520,"(713) 600-7000",http://c-rock.com,"(713) 600-0000",,
TX,HARRIS,2103290083,"Single Family Homes",3/16/2021,,875455,5329,"10915 LAGUNA MESA DR",HOUSTON,TX,77356,"TOWNE LAKE",,CONTRACTOR,,,,,,,,,,,"PARTNERS IN BUILDING",,,,,"PARTNERS IN BUILDING","1803 RANCH ROAD 620 N",LAKEWAY,TX,78734-2611,"(512) 266-6701",http://www.partnersinbuilding.com,"(713) 937-1445",,info@partnersinbuilding.com
TX,HARRIS,2103290086,"Single Family Homes",3/16/2021,,348700,3182,"23927 COTTON GRASS TRL",HOUSTON,TX,77356,ELYSON,,CONTRACTOR,,,,,,,,,,,"PULTE HOMES",,,,,"PULTE HOMES","16670 PARK ROW",HOUSTON,TX,77084-6866,"(281) 749-8000",,,,
TX,HARRIS,2103290087,"Single Family Homes",3/16/2021,,81000,2113,"18607 COOPER RAVINE WAY",HOUSTON,TX,77356,ADELAIDE,,CONTRACTOR,,,,,,,,,,,"LEGEND HOMES",,,,,"LEGEND HOMES","10410 WINDAMERE LAKES BLVD",HOUSTON,TX,77065-4996,"(281) 671-9060",http://legendhomecorp.com/,"(281) 671-9055",,
TX,HARRIS,2103290092,"Single Family Homes",3/16/2021,,372390,3100,"7335 MAYAPPLE GROVE LN",HOUSTON,TX,77356,ELYSON,,CONTRACTOR,,,,,,,,,,,"PULTE HOMES",,,,,"PULTE HOMES","16670 PARK ROW",HOUSTON,TX,77084-6866,"(281) 749-8000",,,,
TX,HARRIS,2103290098,"Single Family Homes",3/16/2021,,240000,2741,"23826 THISTLE SPUD LN",HOUSTON,TX,77356,WINDROW,,CONTRACTOR,,,,,,,,,,,"PULTE HOMES",,,,,"PULTE HOMES","16670 PARK ROW",HOUSTON,TX,77084-6866,"(281) 749-8000",,,,
TX,HARRIS,2103290013,"Single Family Homes",3/16/2021,,390000,2263,"12135 WOODNOTE LN",HOUSTON,TX,77356,GROVES,,CONTRACTOR,,,,,,,,,,,"HIGHLAND HOMES",,,,,"HIGHLAND HOMES","10930 W SAM HOUSTON PKWY N STE 100",HOUSTON,TX,77064-6331,"(281) 517-9800",,,,
TX,HARRIS,2103290154,"Single Family Homes",3/16/2021,,87000,2240,"18602 LANSDOWNE STREAM PATH",HOUSTON,TX,77356,ADELAIDE,,CONTRACTOR,,,,,,,,,,,"LEGEND HOMES",,,,,"LEGEND HOMES","10410 WINDAMERE LAKES BLVD",HOUSTON,TX,77065-4996,"(281) 671-9060",http://legendhomecorp.com/,"(281) 671-9055",,
TX,HARRIS,2103220171,"Single Family Homes",3/16/2021,,138120,1667,"16634 N MIST DR",HOUSTON,TX,77356,"NORTH VIEW",,"FREEMAN JENNIE","16634 N MIST DR",HOUSTON,TX,77356,,Owner,,,,,OWNER,,,,,OWNER,,,,,,,,,
TX,HARRIS,2103190155,"Single Family Homes",3/16/2021,,47840,2392,"31903 DAHLIA PETAL CT",HOUSTON,TX,77356,DELLROSE,,CONTRACTOR,,,,,,,,,,,"MHI MCGUYER HOMEBUILDERS",,,,,"MHI MCGUYER HOMEBUILDERS","7676 WOODWAY DR",HOUSTON,TX,77063-1526,"(713) 260-4107",,,,
TX,HARRIS,2011110020,"Single Family Homes",3/16/2021,,313755,4827,"15529 PICNIC HILL DR",HOUSTON,TX,77356,"BRIDGELAND PARKLAND VILLAGE",,CONTRACTOR,,,,,,,,,,,"TRENDMAKER HOMES",,,,,"TRENDMAKER HOMES","16340 PARK TEN PL STE 250",HOUSTON,TX,77084-5144,"(281) 675-3200",,"(281) 675-3251","MARTIN EVANS",
TX,HARRIS,2103300027,"Single Family Homes",3/16/2021,,83160,2079,"6410 POMEGRANATE BLOSSOM DR",HOUSTON,TX,77356,ELYSON,,CONTRACTOR,,,,,,,,,,,"BEAZER HOMES ",,,,,"BEAZER HOMES ","10235 W LITTLE YORK",HOUSTON,TX,77040,"(713) 849-2252",http://www.beazer.com/,,,
TX,HARRIS,2103300031,"Single Family Homes",3/16/2021,,86680,2167,"6406 POMEGRANATE BLOSSOM DR",HOUSTON,TX,77356,ELYSON,,CONTRACTOR,,,,,,,,,,,"BEAZER HOMES ",,,,,"BEAZER HOMES ","10235 W LITTLE YORK",HOUSTON,TX,77040,"(713) 849-2252",http://www.beazer.com/,,,
TX,HARRIS,2103300006,"Single Family Homes",3/16/2021,,148900,2292,"16120 LONG BOAT CT",HOUSTON,TX,77356,NEWPORT,,CONTRACTOR,,,,,,,,,,,"LENNAR HOMES",,,,,"LENNAR HOMES","550 GREENS PKWY",HOUSTON,TX,77067-4537,"(281) 875-1000",http://www.lennar.com/,,,
TX,HARRIS,2103300008,"Single Family Homes",3/16/2021,,127800,1967,"16135 DOCKSIDE ST",HOUSTON,TX,77356,,,CONTRACTOR,,,,,,,,,,,"LENNAR HOMES",,,,,"LENNAR HOMES","550 GREENS PKWY",HOUSTON,TX,77067-4537,"(281) 875-1000",http://www.lennar.com/,,,
TX,HARRIS,2103300014,"Single Family Homes",3/16/2021,,127800,1958,"12522 HIGHGROVE SPRINGS DR",HOUSTON,TX,77356,BALMORAL,,CONTRACTOR,,,,,,,,,,,"LENNAR HOMES",,,,,"LENNAR HOMES","550 GREENS PKWY",HOUSTON,TX,77067-4537,"(281) 875-1000",http://www.lennar.com/,,,
TX,HARRIS,2103300020,"Single Family Homes",3/16/2021,,223000,3446,"9319 HARTFORD VALLEY TRL",HOUSTON,TX,77356,"ASHBEL CROSSING",,CONTRACTOR,,,,,,,,,,,"LENNAR HOMES",,,,,"LENNAR HOMES","550 GREENS PKWY",HOUSTON,TX,77067-4537,"(281) 875-1000",http://www.lennar.com/,,,
TX,HARRIS,2103010013,"Single Family Homes",3/16/2021,,296205,4557,"15521 PICNIC HILL DR",HOUSTON,TX,77356,"BRIDGELAND PARKLAND VILLAGE",,CONTRACTOR,,,,,,,,,,,"TRIPOINTE HOMES",,,,,"TRIPOINTE HOMES","4835 LYNDON B JOHNSON FWY STE 700",DALLAS,TX,75244,"(214) 765-0570",https://investors.tripointehomes.com/,,,info@TriPointeHomes.com
TX,HARRIS,2103020216,"Single Family Homes",3/16/2021,,285480,4392,"16450 ROSEMARY GROVE LN",HOUSTON,TX,77356,"HIDDEN ARBOR",,CONTRACTOR,,,,,,,,,,,"TRIPOINTE HOMES",,,,,"TRIPOINTE HOMES","4835 LYNDON B JOHNSON FWY STE 700",DALLAS,TX,75244,"(214) 765-0570",https://investors.tripointehomes.com/,,,info@TriPointeHomes.com
TX,HARRIS,2103240061,"Single Family Homes",3/16/2021,,144300,2221,"1105 BREECH DR",HOUSTON,TX,77356,NEWPORT,,CONTRACTOR,,,,,,,,,,,"LENNAR HOMES",,,,,"LENNAR HOMES","550 GREENS PKWY",HOUSTON,TX,77067-4537,"(281) 875-1000",http://www.lennar.com/,,,
TX,HARRIS,2103240063,"Single Family Homes",3/16/2021,,148000,2280,"1016 BULWARK DR",HOUSTON,TX,77356,,,CONTRACTOR,,,,,,,,,,,"LENNAR HOMES",,,,,"LENNAR HOMES","550 GREENS PKWY",HOUSTON,TX,77067-4537,"(281) 875-1000",http://www.lennar.com/,,,
TX,HARRIS,2103290112,"Single Family Homes",3/16/2021,,119210,1834,"18410 SUMMIT RANCH DR",HOUSTON,TX,77356,"BECKER MEADOWS ",,CONTRACTOR,,,,,,,,,,,"LENNAR HOMES",,,,,"LENNAR HOMES","550 GREENS PKWY",HOUSTON,TX,77067-4537,"(281) 875-1000",http://www.lennar.com/,,,
TX,HARRIS,2103290113,"Single Family Homes",3/16/2021,,187330,2882,"19014 WHISTLING DUCK DR",HOUSTON,TX,77356,"BRIDGELAND PARKLAND VILLAGE",,CONTRACTOR,,,,,,,,,,,"LENNAR HOMES",,,,,"LENNAR HOMES","550 GREENS PKWY",HOUSTON,TX,77067-4537,"(281) 875-1000",http://www.lennar.com/,,,
TX,HARRIS,2103290114,"Single Family Homes",3/16/2021,,148850,2290,"31406 STOCKTON HOLLOW CIR",HOUSTON,TX,77356,DELLROSE,,CONTRACTOR,,,,,,,,,,,"LENNAR HOMES",,,,,"LENNAR HOMES","550 GREENS PKWY",HOUSTON,TX,77067-4537,"(281) 875-1000",http://www.lennar.com/,,,
TX,HARRIS,2103300037,"Single Family Homes",3/16/2021,,147550,270,"18414 SUMMIT RANCH DR",HOUSTON,TX,77356,"BECKER MEADOWS",,CONTRACTOR,,,,,,,,,,,"LENNAR HOMES",,,,,"LENNAR HOMES","550 GREENS PKWY",HOUSTON,TX,77067-4537,"(281) 875-1000",http://www.lennar.com/,,,
TX,HARRIS,2103080138,"Single Family Homes",3/16/2021,,261675,2424,"23931 CEDAR GLADE LN",HOUSTON,TX,77356,ELYSON,,CONTRACTOR,,,,,,,,,,,"PERRY HOMES",,,,,"PERRY HOMES","9000 GULF FWY",HOUSTON,TX,77017-7018,"(713) 417-1396",,,,
TX,HARRIS,2103020052,"Single Family Homes",3/16/2021,,188099,2587,"11939 RADURA RD",HOUSTON,TX,77356,GROVES,,CONTRACTOR,,,,,,,,,,,"CHESMAR HOMES",,,,,"CHESMAR HOMES","450 GEARS RD STE 400",HOUSTON,TX,77067-4513,"(281) 598-1111",http://chesmar.com,"(281) 598-1115",,customerservice.houston@chesmar.com
TX,HARRIS,2103190138,"Single Family Homes",3/16/2021,,183253,2522,"19715 BURKETT TRAILHEAD WAY",HOUSTON,TX,77356,"BRIDGELAND PARKLAND VILLAGE",,CONTRACTOR,,,,,,,,,,,"CHESMAR HOMES",,,,,"CHESMAR HOMES","450 GEARS RD STE 400",HOUSTON,TX,77067-4513,"(281) 598-1111",http://chesmar.com,"(281) 598-1115",,customerservice.houston@chesmar.com
TX,HARRIS,2103190139,"Single Family Homes",3/16/2021,,159521,1901,"21515 HENRYS BLUSH DR",HOUSTON,TX,77356,"ROSEHILL RESERVE",,CONTRACTOR,,,,,,,,,,,"CHESMAR HOMES",,,,,"CHESMAR HOMES","450 GEARS RD STE 400",HOUSTON,TX,77067-4513,"(281) 598-1111",http://chesmar.com,"(281) 598-1115",,customerservice.houston@chesmar.com
TX,HARRIS,2103160190,"Single Family Homes",3/16/2021,,260900,2390,"23935 CEDAR GLADE LN",HOUSTON,TX,77356,ELYSON,,CONTRACTOR,,,,,,,,,,,"PERRY HOMES",,,,,"PERRY HOMES","9000 GULF FWY",HOUSTON,TX,77017-7018,"(713) 417-1396",,,,
TX,HARRIS,2103120003,"Single Family Homes",3/16/2021,,260900,2424,"23910 SAGE ROW LN",HOUSTON,TX,77356,ELYSON,,CONTRACTOR,,,,,,,,,,,"PERRY HOMES",,,,,"PERRY HOMES","9000 GULF FWY",HOUSTON,TX,77017-7018,"(713) 417-1396",,,,
TX,HARRIS,2103120079,"Single Family Homes",3/16/2021,,293250,2882,"23914 SAGE ROW LN",HOUSTON,TX,77356,"ELYSON ",,CONTRACTOR,,,,,,,,,,,"PERRY HOMES",,,,,"PERRY HOMES","9000 GULF FWY",HOUSTON,TX,77017-7018,"(713) 417-1396",,,,
TX,HARRIS,2103090208,"Single Family Homes",3/16/2021,,351900,3755,"23618 ASH BUD CIR",HOUSTON,TX,77356,ELYSON,,CONTRACTOR,,,,,,,,,,,"PERRY HOMES",,,,,"PERRY HOMES","9000 GULF FWY",HOUSTON,TX,77017-7018,"(713) 417-1396",,,,
TX,HARRIS,2103290130,"Single Family Homes",3/16/2021,,266230,3928,"20011 PICURIS WAY",HOUSTON,TX,77356,"VISTAS OF KLEIN LAKE",,CONTRACTOR,,,,,,,,,,,"VILLAGE BUILDERS",,,,,"VILLAGE BUILDERS","550 GREENS PKWY STE 210",HOUSTON,TX,77067-4538,"(281) 873-4663",,,,
TX,HARRIS,2103160192,"Single Family Homes",3/16/2021,,285900,2424,"13611 GRAND BASIN CT",HOUSTON,TX,77356,"COPPER RIDGE",,CONTRACTOR,,,,,,,,,,,"PERRY HOMES",,,,,"PERRY HOMES","9000 GULF FWY",HOUSTON,TX,77017-7018,"(713) 417-1396",,,,
TX,HARRIS,2103260130,"Single Family Homes",3/16/2021,,111294,2070,"23014 JETTY MANOR LN",HOUSTON,TX,77356,"HIGHLAND GLEN",,CONTRACTOR,,,,,,,,,,,"ANGLIA HOMES",,,,,"ANGLIA HOMES","17510 RED OAK DR",HOUSTON,TX,77090,"(281) 943-5288",http://www.angliahomeslp.com/,,,
TX,HARRIS,2103260151,"Single Family Homes",3/16/2021,,136510,2482,"510 ALASKA CEDAR DR",HOUSTON,TX,77356,"PECAN ESTATES",,CONTRACTOR,,,,,,,,,,,"CASTLEROCK COMMUNITIES",,,,,"CASTLEROCK COMMUNITIES","7670 WOODWAY DR STE 300",HOUSTON,TX,77063-1520,"(713) 600-7000",http://c-rock.com,"(713) 600-0000",,
TX,HARRIS,2103240076,"Single Family Homes",3/16/2021,,94095,2091,"2426 SHEEPHORN SUMMIT TRL",HOUSTON,TX,77356,BRECKENRIDGE,,CONTRACTOR,,,,,,,,,,,"DR HORTON",,,,,"DR HORTON","14100 SOUTHWEST",HOUSTON,TX,77478,"(281) 201-5559",,,,
TX,HARRIS,2103240078,"Single Family Homes",3/16/2021,,90540,2012,"2430 SHEEPHORN SUMMIT TRL",HOUSTON,TX,77356,BRECKENRIDGE,,CONTRACTOR,,,,,,,,,,,"DR HORTON",,,,,"DR HORTON","14100 SOUTHWEST",HOUSTON,TX,77478,"(281) 201-5559",,,,
TX,HARRIS,2103240079,"Single Family Homes",3/16/2021,,111555,2479,"2438 SHEEPHORN SUMMIT TRL",HOUSTON,TX,77356,BRECKENRIDGE,,CONTRACTOR,,,,,,,,,,,"DR HORTON",,,,,"DR HORTON","14100 SOUTHWEST",HOUSTON,TX,77478,"(281) 201-5559",,,,
TX,HARRIS,2103240082,"Single Family Homes",3/16/2021,,96525,2145,"2406 ORMES FOREST LN",HOUSTON,TX,77356,BRECKENRIDGE,,CONTRACTOR,,,,,,,,,,,"DR HORTON",,,,,"DR HORTON","14100 SOUTHWEST",HOUSTON,TX,77478,"(281) 201-5559",,,,
TX,HARRIS,2103240110,"Single Family Homes",3/16/2021,,119250,2650,"22602 WINTER MAPLE TRL",HOUSTON,TX,77356,BRECKENRIDGE,,CONTRACTOR,,,,,,,,,,,"DR HORTON",,,,,"DR HORTON","14100 SOUTHWEST",HOUSTON,TX,77478,"(281) 201-5559",,,,
TX,HARRIS,2103240124,"Single Family Homes",3/16/2021,,124110,2758,"22606 WINTER MAPLE TRL",HOUSTON,TX,77356,BRECKENRIDGE,,CONTRACTOR,,,,,,,,,,,"DR HORTON",,,,,"DR HORTON","14100 SOUTHWEST",HOUSTON,TX,77478,"(281) 201-5559",,,,
TX,HARRIS,2103240130,"Single Family Homes",3/16/2021,,140040,3112,"22610 WINTER MAPLE TRL",HOUSTON,TX,77356,BRECKENRIDGE,,CONTRACTOR,,,,,,,,,,,"DR HORTON",,,,,"DR HORTON","14100 SOUTHWEST",HOUSTON,TX,77478,"(281) 201-5559",,,,
TX,HARRIS,2103240153,"Single Family Homes",3/16/2021,,90540,2012,"22618 WINTER MAPLE TRL",HOUSTON,TX,77356,BRECKENRIDGE,,CONTRACTOR,,,,,,,,,,,"DR HORTON",,,,,"DR HORTON","14100 SOUTHWEST",HOUSTON,TX,77478,"(281) 201-5559",,,,
TX,HARRIS,2103240157,"Single Family Homes",3/16/2021,,94095,2091,"22622 WINTER MAPLE TRL",HOUSTON,TX,77356,BRECKENRIDGE,,CONTRACTOR,,,,,,,,,,,"DR HORTON",,,,,"DR HORTON","14100 SOUTHWEST",HOUSTON,TX,77478,"(281) 201-5559",,,,
TX,HARRIS,2103240160,"Single Family Homes",3/16/2021,,86580,1924,"22626 WINTER MAPLE TRL",HOUSTON,TX,77356,BRECKENRIDGE,,CONTRACTOR,,,,,,,,,,,"DR HORTON",,,,,"DR HORTON","14100 SOUTHWEST",HOUSTON,TX,77478,"(281) 201-5559",,,,
TX,HARRIS,2103240162,"Single Family Homes",3/16/2021,,93510,2078,"22630 WINTER MAPLE TRL",HOUSTON,TX,77356,BRECKENRIDGE,,CONTRACTOR,,,,,,,,,,,"DR HORTON",,,,,"DR HORTON","14100 SOUTHWEST",HOUSTON,TX,77478,"(281) 201-5559",,,,
TX,HARRIS,2103240163,"Single Family Homes",3/16/2021,,94095,2091,"22634 WINTER MAPLE TRL",HOUSTON,TX,77356,BRECKENRIDGE,,CONTRACTOR,,,,,,,,,,,"DR HORTON",,,,,"DR HORTON","14100 SOUTHWEST",HOUSTON,TX,77478,"(281) 201-5559",,,,
TX,HARRIS,2103240167,"Single Family Homes",3/16/2021,,90540,2012,"22638 WINTER MAPLE TRL",HOUSTON,TX,77356,BRECKENRIDGE,,CONTRACTOR,,,,,,,,,,,"DR HORTON",,,,,"DR HORTON","14100 SOUTHWEST",HOUSTON,TX,77478,"(281) 201-5559",,,,
TX,HARRIS,2103240169,"Single Family Homes",3/16/2021,,86580,1924,"22642 WINTER MAPLE TRL",HOUSTON,TX,77356,BRECKENRIDGE,,CONTRACTOR,,,,,,,,,,,"DR HORTON",,,,,"DR HORTON","14100 SOUTHWEST",HOUSTON,TX,77478,"(281) 201-5559",,,,
TX,HARRIS,2103240171,"Single Family Homes",3/16/2021,,111555,2479,"22646 WINTER MAPLE TRL",HOUSTON,TX,77356,BRECKENRIDGE,,CONTRACTOR,,,,,,,,,,,"DR HORTON",,,,,"DR HORTON","14100 SOUTHWEST",HOUSTON,TX,77478,"(281) 201-5559",,,,
TX,HARRIS,2103240174,"Single Family Homes",3/16/2021,,119250,2650,"22650 WINTER MAPLE TRL",HOUSTON,TX,77356,BRECKENRIDGE,,CONTRACTOR,,,,,,,,,,,"DR HORTON",,,,,"DR HORTON","14100 SOUTHWEST",HOUSTON,TX,77478,"(281) 201-5559",,,,
TX,HARRIS,2103260161,"Single Family Homes",3/16/2021,,113740,2068,"426 ALASKA CEDAR DR",HOUSTON,TX,77356,"PECAN ESTATES",,CONTRACTOR,,,,,,,,,,,"CASTLEROCK COMMUNITIES",,,,,"CASTLEROCK COMMUNITIES","7670 WOODWAY DR STE 300",HOUSTON,TX,77063-1520,"(713) 600-7000",http://c-rock.com,"(713) 600-0000",,
TX,HARRIS,2103160130,"Single Family Homes",3/16/2021,,180000,4923,"16915 AVENUE A",HOUSTON,TX,77356,"OLD RIVER TERRACE",,"ROBERTINA BELTRAN","16915 AVENUE A",HOUSTON,TX,77356,,Owner,,,,,OWNER,,,,,OWNER,,,,,,,,,
TX,HARRIS,2103080032,"Single Family Homes",3/16/2021,,200000,2364,"21318 BARCAROLE DR",HOUSTON,TX,77356,"NORTHWOOD PARK",,"SEAN SANBERG","21318 BARCAROLE DR",HOUSTON,TX,77356,,Owner,,,,,OWNER,,,,,OWNER,,,,,,,,,
TX,HARRIS,2103030158,"Single Family Homes",3/16/2021,,228932,2662,"2138 DEERHURST LN",HOUSTON,TX,77356,"HEATHER GLEN",,"LADIRA C RODRIGUEZ","2138 DEERHURST LN",HOUSTON,TX,77356,,Owner,,,,,OWNER,,,,,OWNER,,,,,,,,,
TX,HARRIS,2103180046,"Single Family Homes",3/16/2021,,270000,3275,"2811 ROEDER LN",HOUSTON,TX,77356,"HERITAGE ESTATES",,"RICARDO GUERRA","2811 ROEDER LN",HOUSTON,TX,77356,,Owner,,,,,OWNER,,,,,OWNER,,,,,,,,,
TX,HARRIS,2103270004,"Single Family Homes",3/16/2021,,287054,3801,"15623 PORCUPINE LN",HOUSTON,TX,77356,"BRIDGELAND PARKLAND VILLAGE",,CONTRACTOR,,,,,,,,,,,"TAYLOR MORRISON OF TEXAS",,,,,"TAYLOR MORRISON OF TEXAS","5353 W SAM HOUSTON PKWY N STE 190",HOUSTON,TX,77041-5186,"(281) 598-3000",,,,
TX,HARRIS,2103270005,"Single Family Homes",3/16/2021,,372019,5574,"15423 GUADALUPE BASS DR",HOUSTON,TX,77356,"BRIDGELAND PARKLAND VILLAGE",,CONTRACTOR,,,,,,,,,,,"TAYLOR MORRISON OF TEXAS",,,,,"TAYLOR MORRISON OF TEXAS","5353 W SAM HOUSTON PKWY N STE 190",HOUSTON,TX,77041-5186,"(281) 598-3000",,,,
TX,HARRIS,2103270007,"Single Family Homes",3/16/2021,,401503,7205,"19410 MEXICAN BUCKEYE CT",HOUSTON,TX,77356,"BRIDGELAND PARKLAND VILLAGE",,CONTRACTOR,,,,,,,,,,,"TAYLOR MORRISON OF TEXAS",,,,,"TAYLOR MORRISON OF TEXAS","5353 W SAM HOUSTON PKWY N STE 190",HOUSTON,TX,77041-5186,"(281) 598-3000",,,,
TX,HARRIS,2103280004,"Single Family Homes",3/16/2021,,119097,2581,"15829 MCKINLEY GREEN DR",HOUSTON,TX,77356,BALMORAL,,CONTRACTOR,,,,,,,,,,,"TAYLOR MORRISON OF TEXAS",,,,,"TAYLOR MORRISON OF TEXAS","5353 W SAM HOUSTON PKWY N STE 190",HOUSTON,TX,77041-5186,"(281) 598-3000",,,,
TX,HARRIS,2103280005,"Single Family Homes",3/16/2021,,157162,3442,"11931 HARBORSIDE DRIFT WAY",HOUSTON,TX,77356,BALMORAL,,CONTRACTOR,,,,,,,,,,,"TAYLOR MORRISON OF TEXAS",,,,,"TAYLOR MORRISON OF TEXAS","5353 W SAM HOUSTON PKWY N STE 190",HOUSTON,TX,77041-5186,"(281) 598-3000",,,,
TX,HARRIS,2103280007,"Single Family Homes",3/16/2021,,132394,2874,"11907 HARBORSIDE DRIFT WAY",HOUSTON,TX,77356,BALMORAL,,CONTRACTOR,,,,,,,,,,,"TAYLOR MORRISON OF TEXAS",,,,,"TAYLOR MORRISON OF TEXAS","5353 W SAM HOUSTON PKWY N STE 190",HOUSTON,TX,77041-5186,"(281) 598-3000",,,,
TX,HARRIS,2103280008,"Single Family Homes",3/16/2021,,291057,4011,"16 HYACINTH BLOSSOM CT",HOUSTON,TX,77356,"THE WOODLANDS CREEKSIDE",,CONTRACTOR,,,,,,,,,,,"TAYLOR MORRISON OF TEXAS",,,,,"TAYLOR MORRISON OF TEXAS","5353 W SAM HOUSTON PKWY N STE 190",HOUSTON,TX,77041-5186,"(281) 598-3000",,,,
TX,HARRIS,2103180053,"Single Family Homes",3/16/2021,,99250,2467,"24022 WILLOW ROSE DR",HOUSTON,TX,77356,"INWAY OAKS ESTATES",,CONTRACTOR,,,,,,,,,,,"INFINITY CLASSIC HOMES",,,,,"INFINITY CLASSIC HOMES","17240 HUFFMEISTER RD STE 106",CYPRESS,TX,77429-4694,"(281) 213-4063",http://www.infinityclassichomes.com/,"(281) 213-4067",,
TX,HARRIS,2103180055,"Single Family Homes",3/16/2021,,143250,3190,"24030 ROSEDALE OAKS DR",HOUSTON,TX,77356,"INWAY OAKS ESTATES",,CONTRACTOR,,,,,,,,,,,"INFINITY CLASSIC HOMES",,,,,"INFINITY CLASSIC HOMES","17240 HUFFMEISTER RD STE 106",CYPRESS,TX,77429-4694,"(281) 213-4063",http://www.infinityclassichomes.com/,"(281) 213-4067",,
TX,HARRIS,2103180058,"Single Family Homes",3/16/2021,,109250,3120,"24022 ROSEDALE OAKS DR",HOUSTON,TX,77356,"INWAY OAKS ESTATES",,CONTRACTOR,,,,,,,,,,,"INFINITY CLASSIC HOMES",,,,,"INFINITY CLASSIC HOMES","17240 HUFFMEISTER RD STE 106",CYPRESS,TX,77429-4694,"(281) 213-4063",http://www.infinityclassichomes.com/,"(281) 213-4067",,
TX,HARRIS,2103170133,"Single Family Homes",3/16/2021,,191100,1911,"13502 HAREFIELD HOLLOW TRL",HOUSTON,TX,77356,"IMPERIAL FOREST",,CONTRACTOR,,,,,,,,,,,"STARLIGHT HOMES",,,,,"STARLIGHT HOMES","10110 W SAM HOUSTON PKWY N",HOUSTON,TX,77064-7508,"(832) 478-9032",,,,
TX,HARRIS,2103170125,"Single Family Homes",3/16/2021,,166100,1661,"13510 HAREFIELD HOLLOW TRL",HOUSTON,TX,77356,"IMPERIAL FOREST",,CONTRACTOR,,,,,,,,,,,"STARLIGHT HOMES",,,,,"STARLIGHT HOMES","10110 W SAM HOUSTON PKWY N",HOUSTON,TX,77064-7508,"(832) 478-9032",,,,
TX,HARRIS,2103170123,"Single Family Homes",3/16/2021,,140200,1402,"13514 HAREFIELD HOLLOW TRL",HOUSTON,TX,77356,"IMPERIAL FOREST",,CONTRACTOR,,,,,,,,,,,"STARLIGHT HOMES",,,,,"STARLIGHT HOMES","10110 W SAM HOUSTON PKWY N",HOUSTON,TX,77064-7508,"(832) 478-9032",,,,
TX,HARRIS,2103170119,"Single Family Homes",3/16/2021,,233800,2338,"13518 HAREFIELD HOLLOW TRL",HOUSTON,TX,77356,"IMPERIAL FOREST",,CONTRACTOR,,,,,,,,,,,"STARLIGHT HOMES",,,,,"STARLIGHT HOMES","10110 W SAM HOUSTON PKWY N",HOUSTON,TX,77064-7508,"(832) 478-9032",,,,
TX,HARRIS,2103170104,"Single Family Homes",3/16/2021,,153600,1536,"13522 HAREFIELD HOLLOW TRL",HOUSTON,TX,77356,"IMPERIAL FOREST",,CONTRACTOR,,,,,,,,,,,"STARLIGHT HOMES",,,,,"STARLIGHT HOMES","10110 W SAM HOUSTON PKWY N",HOUSTON,TX,77064-7508,"(832) 478-9032",,,,
TX,HARRIS,2103170094,"Single Family Homes",3/16/2021,,,1212,"13526 HAREFIELD HOLLOW TRL",HOUSTON,TX,77356,"IMPERIAL FOREST",,CONTRACTOR,,,,,,,,,,,"STARLIGHT HOMES",,,,,"STARLIGHT HOMES","10110 W SAM HOUSTON PKWY N",HOUSTON,TX,77064-7508,"(832) 478-9032",,,,
TX,HARRIS,2103170076,"Single Family Homes",3/16/2021,,189500,1911,"13530 HAREFIELD HOLLOW TRL",HOUSTON,TX,77356,"IMPERIAL FOREST",,CONTRACTOR,,,,,,,,,,,"STARLIGHT HOMES",,,,,"STARLIGHT HOMES","10110 W SAM HOUSTON PKWY N",HOUSTON,TX,77064-7508,"(832) 478-9032",,,,
TX,HARRIS,2103170030,"Single Family Homes",3/16/2021,,200000,2060,"13538 HAREFIELD HOLLOW TRL",HOUSTON,TX,77356,"IMPERIAL FOREST",,CONTRACTOR,,,,,,,,,,,"STARLIGHT HOMES",,,,,"STARLIGHT HOMES","10110 W SAM HOUSTON PKWY N",HOUSTON,TX,77064-7508,"(832) 478-9032",,,,
TX,HARRIS,2103170051,"Single Family Homes",3/16/2021,,165000,1661,"13534 HAREFIELD HOLLOW TRL",HOUSTON,TX,77356,"IMPERIAL FOREST",,CONTRACTOR,,,,,,,,,,,"STARLIGHT HOMES",,,,,"STARLIGHT HOMES","10110 W SAM HOUSTON PKWY N",HOUSTON,TX,77064-7508,"(832) 478-9032",,,,
TX,HARRIS,2103290015,"Single Family Homes",3/16/2021,,108185,1967,"23902 PRAIRIE DUST DR",HOUSTON,TX,77356,WINDROW,,CONTRACTOR,,,,,,,,,,,"CASTLEROCK COMMUNITIES",,,,,"CASTLEROCK COMMUNITIES","7670 WOODWAY DR STE 300",HOUSTON,TX,77063-1520,"(713) 600-7000",http://c-rock.com,"(713) 600-0000",,
TX,HARRIS,2103290025,"Single Family Homes",3/16/2021,,108185,1967,"23914 PRAIRIE DUST DR",HOUSTON,TX,77356,WINDROW,,CONTRACTOR,,,,,,,,,,,"CASTLEROCK COMMUNITIES",,,,,"CASTLEROCK COMMUNITIES","7670 WOODWAY DR STE 300",HOUSTON,TX,77063-1520,"(713) 600-7000",http://c-rock.com,"(713) 600-0000",,
TX,HARRIS,2103230068,"Single Family Homes",3/16/2021,,255660,2728,"5814 WAGON RUN CT",HOUSTON,TX,77356,"KATY CROSSING",,CONTRACTOR,,,,,,,,,,,"PULTE HOMES",,,,,"PULTE HOMES","16670 PARK ROW",HOUSTON,TX,77084-6866,"(281) 749-8000",,,,
TX,HARRIS,2103290046,"Single Family Homes",3/16/2021,,240000,2732,"23834 THISTLE SPUD LN",HOUSTON,TX,77356,WINDROW,,CONTRACTOR,,,,,,,,,,,"PULTE HOMES",,,,,"PULTE HOMES","16670 PARK ROW",HOUSTON,TX,77084-6866,"(281) 749-8000",,,,
TX,HARRIS,2103290053,"Single Family Homes",3/16/2021,,126555,2301,"17950 COSTRELL DR",HOUSTON,TX,77356,WINDROW,,CONTRACTOR,,,,,,,,,,,"CASTLEROCK COMMUNITIES",,,,,"CASTLEROCK COMMUNITIES","7670 WOODWAY DR STE 300",HOUSTON,TX,77063-1520,"(713) 600-7000",http://c-rock.com,"(713) 600-0000",,
TX,HARRIS,2103290056,"Single Family Homes",3/16/2021,,86940,1932,"9119 BRIXHAM DR",HOUSTON,TX,77356,"BRIDGE CREEK",,CONTRACTOR,,,,,,,,,,,"TAYLOR MORRISON OF TEXAS",,,,,"TAYLOR MORRISON OF TEXAS","5353 W SAM HOUSTON PKWY N STE 190",HOUSTON,TX,77041-5186,"(281) 598-3000",,,,
TX,HARRIS,2103220190,"Single Family Homes",3/16/2021,,220700,4304,"24926 GINGERBUSH LN",HOUSTON,TX,77356,"LAKES AT CREEKSIDE",,CONTRACTOR,,,,,,,,,,,"TOLL BROTHERS",,,,,"TOLL BROTHERS","10110 W SAM HOUSTON PKWY N STE 350",HOUSTON,TX,77064-7508,"(281) 664-7255",,,,
TX,HARRIS,2103250229,"Single Family Homes",3/16/2021,,232200,2056,"5810 WAGON RUN CT",HOUSTON,TX,77356,"KATY CROSSING",,CONTRACTOR,,,,,,,,,,,"PULTE HOMES",,,,,"PULTE HOMES","16670 PARK ROW",HOUSTON,TX,77084-6866,"(281) 749-8000",,,,
TX,HARRIS,2103180141,"Single Family Homes",3/16/2021,,62145,1771,"23666 GOODFELLOW DR",HOUSTON,TX,77356,"CYPRESSWOOD LANDING",,CONTRACTOR,,,,,,,,,,,"CAMILLO PROPERTIES",,,,,"CAMILLO PROPERTIES","6707 GESSNER RD",HOUSTON,TX,77040-4017,"(832) 500-0284",http://www.camillorentalhomes.com/,"(281) 325-0245",,
TX,HARRIS,2103180152,"Single Family Homes",3/16/2021,,57330,1654,"23678 GOODFELLOW DR",HOUSTON,TX,77356,"CYPRESSWOOD LANDING",,CONTRACTOR,,,,,,,,,,,"CAMILLO PROPERTIES",,,,,"CAMILLO PROPERTIES","6707 GESSNER RD",HOUSTON,TX,77040-4017,"(832) 500-0284",http://www.camillorentalhomes.com/,"(281) 325-0245",,
TX,HARRIS,2103180157,"Single Family Homes",3/16/2021,,75915,2093,"23670 GOODFELLOW DR",HOUSTON,TX,77356,"CYPRESSWOOD LANDING",,CONTRACTOR,,,,,,,,,,,"CAMILLO PROPERTIES",,,,,"CAMILLO PROPERTIES","6707 GESSNER RD",HOUSTON,TX,77040-4017,"(832) 500-0284",http://www.camillorentalhomes.com/,"(281) 325-0245",,
TX,HARRIS,2103190003,"Single Family Homes",3/16/2021,,109395,2431,"23667 GOODFELLOW DR",HOUSTON,TX,77356,"CYPRESSWOOD LANDING",,CONTRACTOR,,,,,,,,,,,"CAMILLO PROPERTIES",,,,,"CAMILLO PROPERTIES","6707 GESSNER RD",HOUSTON,TX,77040-4017,"(832) 500-0284",http://www.camillorentalhomes.com/,"(281) 325-0245",,
TX,HARRIS,2103190004,"Single Family Homes",3/16/2021,,109300,2186,"23671 GOODFELLOW DR",HOUSTON,TX,77356,"CYPRESSWOOD LANDING",,CONTRACTOR,,,,,,,,,,,"CAMILLO PROPERTIES",,,,,"CAMILLO PROPERTIES","6707 GESSNER RD",HOUSTON,TX,77040-4017,"(832) 500-0284",http://www.camillorentalhomes.com/,"(281) 325-0245",,
TX,HARRIS,2103190005,"Single Family Homes",3/16/2021,,62145,1771,"23675 GOODFELLOW DR",HOUSTON,TX,77356,"CYPRESSWOOD LANDING",,CONTRACTOR,,,,,,,,,,,"CAMILLO PROPERTIES",,,,,"CAMILLO PROPERTIES","6707 GESSNER RD",HOUSTON,TX,77040-4017,"(832) 500-0284",http://www.camillorentalhomes.com/,"(281) 325-0245",,
TX,HARRIS,2103190007,"Single Family Homes",3/16/2021,,104650,2093,"23679 GOODFELLOW DR",HOUSTON,TX,77356,"CYPRESSWOOD LANDING",,CONTRACTOR,,,,,,,,,,,"CAMILLO PROPERTIES",,,,,"CAMILLO PROPERTIES","6707 GESSNER RD",HOUSTON,TX,77040-4017,"(832) 500-0284",http://www.camillorentalhomes.com/,"(281) 325-0245",,
TX,HARRIS,2103190008,"Single Family Homes",3/16/2021,,114850,2297,"23682 GOODFELLOW DR",HOUSTON,TX,77356,"CYPRESSWOOD LANDING",,CONTRACTOR,,,,,,,,,,,"CAMILLO PROPERTIES",,,,,"CAMILLO PROPERTIES","6707 GESSNER RD",HOUSTON,TX,77040-4017,"(832) 500-0284",http://www.camillorentalhomes.com/,"(281) 325-0245",,
TX,HARRIS,2101190100,"Single Family Homes",3/16/2021,,115050,1770,"14527 BREEZY ORCHARD TRL",HOUSTON,TX,77356,"STUEBNER HOLLOW",,CONTRACTOR,,,,,,,,,,,"RAUSCH COLEMAN HOMES",,,,,"RAUSCH COLEMAN HOMES","7906 N SAM HOUSTON PKWY W STE 300",HOUSTON,TX,77064,"(713) 434-6028",,,,
TX,HARRIS,2101190133,"Single Family Homes",3/16/2021,,137800,2120,"14514 AKIN ACRES LN",HOUSTON,TX,77356,"STUEBNER HOLLOW",,CONTRACTOR,,,,,,,,,,,"RAUSCH COLEMAN HOMES",,,,,"RAUSCH COLEMAN HOMES","7906 N SAM HOUSTON PKWY W STE 300",HOUSTON,TX,77064,"(713) 434-6028",,,,
TX,HARRIS,2101190116,"Single Family Homes",3/16/2021,,109135,1679,"4306 WHISKEY RIVER DR",HOUSTON,TX,77356,"STUEBNER HOLLOW",,CONTRACTOR,,,,,,,,,,,"RAUSCH COLEMAN HOMES",,,,,"RAUSCH COLEMAN HOMES","7906 N SAM HOUSTON PKWY W STE 300",HOUSTON,TX,77064,"(713) 434-6028",,,,
TX,HARRIS,2102120061,"Single Family Homes",3/16/2021,,85580,4279,"17931 TEXAS WILDFLOWER DR",HOUSTON,TX,77356,"TOWNE LAKE",,CONTRACTOR,,,,,,,,,,,"MHI MCGUYER HOMEBUILDERS",,,,,"MHI MCGUYER HOMEBUILDERS","7676 WOODWAY DR",HOUSTON,TX,77063-1526,"(713) 260-4107",,,,
TX,HARRIS,2102120064,"Single Family Homes",3/16/2021,,52820,2641,"5123 KLEIN ORCHARD DR",HOUSTON,TX,77356,TRACES,,CONTRACTOR,,,,,,,,,,,"MHI MCGUYER HOMEBUILDERS",,,,,"MHI MCGUYER HOMEBUILDERS","7676 WOODWAY DR",HOUSTON,TX,77063-1526,"(713) 260-4107",,,,
TX,HARRIS,2102120068,"Single Family Homes",3/16/2021,,53220,2661,"5134 MINT ORCHARD DR",HOUSTON,TX,77356,TRACES,,CONTRACTOR,,,,,,,,,,,"MHI MCGUYER HOMEBUILDERS",,,,,"MHI MCGUYER HOMEBUILDERS","7676 WOODWAY DR",HOUSTON,TX,77063-1526,"(713) 260-4107",,,,
TX,HARRIS,2103230046,"Single Family Homes",3/16/2021,,50520,2526,"17402 WAYMAN LILY LN",HOUSTON,TX,77356,"DELLROSE ",,CONTRACTOR,,,,,,,,,,,"MHI MCGUYER HOMEBUILDERS",,,,,"MHI MCGUYER HOMEBUILDERS","7676 WOODWAY DR",HOUSTON,TX,77063-1526,"(713) 260-4107",,,,
TX,HARRIS,2103230049,"Single Family Homes",3/16/2021,,57180,2859,"17303 WILLOW LEXINGTON CT",HOUSTON,TX,77356,DELLROSE,,CONTRACTOR,,,,,,,,,,,"MHI MCGUYER HOMEBUILDERS",,,,,"MHI MCGUYER HOMEBUILDERS","7676 WOODWAY DR",HOUSTON,TX,77063-1526,"(713) 260-4107",,,,
TX,HARRIS,2103230053,"Single Family Homes",3/16/2021,,61120,3056,"17335 WILLOW LEXINGTON CT",HOUSTON,TX,77356,DELLROSE,,CONTRACTOR,,,,,,,,,,,"MHI MCGUYER HOMEBUILDERS",,,,,"MHI MCGUYER HOMEBUILDERS","7676 WOODWAY DR",HOUSTON,TX,77063-1526,"(713) 260-4107",,,,
TX,HARRIS,2103190098,"Single Family Homes",3/16/2021,,153322,2768,"21547 RESERVE HILL LN",HOUSTON,TX,77356,"ROSEHILL RESERVE",,CONTRACTOR,,,,,,,,,,,"GEHAN HOMES",,,,,"GEHAN HOMES","2050 W SAM HOUSTON PKWY S",HOUSTON,TX,77042-2079,"(713) 243-3545",http://www.gehanhomes.com,,,
TX,HARRIS,2103260010,"Single Family Homes",3/16/2021,,259905,5174,"21314 ROSE LOCH LN",HOUSTON,TX,77356,"ROSEHILL RESERVE",,CONTRACTOR,,,,,,,,,,,"GEHAN HOMES",,,,,"GEHAN HOMES","2050 W SAM HOUSTON PKWY S",HOUSTON,TX,77042-2079,"(713) 243-3545",http://www.gehanhomes.com,,,
TX,HARRIS,2102110152,"Single Family Homes",3/16/2021,,67120,3356,"14815 DUNSMORE MEADOW TRL",HOUSTON,TX,77356,"ENCLAVE AT LONGWOOD",,CONTRACTOR,,,,,,,,,,,"MHI MCGUYER HOMEBUILDERS",,,,,"MHI MCGUYER HOMEBUILDERS","7676 WOODWAY DR",HOUSTON,TX,77063-1526,"(713) 260-4107",,,,
TX,HARRIS,2102110154,"Single Family Homes",3/16/2021,,61100,3055,"14811 KINGSFORD WILLOW LN",HOUSTON,TX,77356,"ENCLAVE AT LONGWOOD",,CONTRACTOR,,,,,,,,,,,"MHI MCGUYER HOMEBUILDERS",,,,,"MHI MCGUYER HOMEBUILDERS","7676 WOODWAY DR",HOUSTON,TX,77063-1526,"(713) 260-4107",,,,
TX,HARRIS,2012290035,"Single Family Homes",3/16/2021,,857000,7500,"10211 KLEPPEL RD",HOUSTON,TX,77356,,,"MICHAEL C RIDDLE","10211 KLEPPEL RD",HOUSTON,TX,77356,,Owner,,,,,OWNER,,,,,OWNER,,,,,,,,,
TX,HARRIS,2102250161,"Single Family Homes",3/16/2021,,70580,3529,"15107 ROJO GRANDE TRL",HOUSTON,TX,77356,"BRIDGELAND PARKLAND VILLAGE",,CONTRACTOR,,,,,,,,,,,"MHI MCGUYER HOMEBUILDERS",,,,,"MHI MCGUYER HOMEBUILDERS","7676 WOODWAY DR",HOUSTON,TX,77063-1526,"(713) 260-4107",,,,
TX,HARRIS,2103240161,"Single Family Homes",3/16/2021,,199000,3062,"743 HARDWOOD GROVE CT",HOUSTON,TX,77356,"TIMBER CROSSING",,CONTRACTOR,,,,,,,,,,,"KB HOME",,,,,"KB HOME","11314 RICHMOND AVE",HOUSTON,TX,77082-2616,"(281) 668-3800",,,,
TX,HARRIS,2103240165,"Single Family Homes",3/16/2021,,173000,2655,"17322 TEXAS WILLOW DR",HOUSTON,TX,77356,"WILLOW WOOD PLACE",,CONTRACTOR,,,,,,,,,,,"KB HOME",,,,,"KB HOME","11314 RICHMOND AVE",HOUSTON,TX,77082-2616,"(281) 668-3800",,,,
TX,HARRIS,2103250110,"Single Family Homes",3/16/2021,,130000,2001,"17302 TEXAS WILLOW DR",HOUSTON,TX,77356,"WILLOW WOOD PLACE",,CONTRACTOR,,,,,,,,,,,"KB HOME",,,,,"KB HOME","11314 RICHMOND AVE",HOUSTON,TX,77082-2616,"(281) 668-3800",,,,
TX,HARRIS,2103190128,"Single Family Homes",3/16/2021,,188000,2894,"4806 EMERSON MANOR DR",HOUSTON,TX,77356,"KATY MANOR",,CONTRACTOR,,,,,,,,,,,"KB HOME",,,,,"KB HOME","11314 RICHMOND AVE",HOUSTON,TX,77082-2616,"(281) 668-3800",,,,
TX,HARRIS,2102250149,"Single Family Homes",3/16/2021,,56200,2810,"15103 ROJO GRANDE TRL",HOUSTON,TX,77356,"BRIDGELAND PARKLAND VILLAGE",,CONTRACTOR,,,,,,,,,,,"MHI MCGUYER HOMEBUILDERS",,,,,"MHI MCGUYER HOMEBUILDERS","7676 WOODWAY DR",HOUSTON,TX,77063-1526,"(713) 260-4107",,,,
TX,HARRIS,2102250169,"Single Family Homes",3/16/2021,,79900,3995,"14819 LONE YAUPON CIR",HOUSTON,TX,77356,"ENCLAVE AT LONGWOOD",,CONTRACTOR,,,,,,,,,,,"MHI MCGUYER HOMEBUILDERS",,,,,"MHI MCGUYER HOMEBUILDERS","7676 WOODWAY DR",HOUSTON,TX,77063-1526,"(713) 260-4107",,,,
TX,HARRIS,2103260036,"Single Family Homes",3/16/2021,,138015,3067,"9111 BRIXHAM DR",HOUSTON,TX,77356,"BRIDGE CREEK",,CONTRACTOR,,,,,,,,,,,"TAYLOR MORRISON OF TEXAS",,,,,"TAYLOR MORRISON OF TEXAS","5353 W SAM HOUSTON PKWY N STE 190",HOUSTON,TX,77041-5186,"(281) 598-3000",,,,
TX,HARRIS,2103200008,"Single Family Homes",3/16/2021,,346080,5897,"77 SOUTH WATERBRIDGE DR",HOUSTON,TX,77356,"THE WOODLANDS CREEKSIDE PARK",,CONTRACTOR,,,,,,,,,,,"TAYLOR MORRISON OF TEXAS",,,,,"TAYLOR MORRISON OF TEXAS","5353 W SAM HOUSTON PKWY N STE 190",HOUSTON,TX,77041-5186,"(281) 598-3000",,,,
TX,HARRIS,2103220019,"Single Family Homes",3/16/2021,,124345,1913,"4931 CHESTNUT VALLEY LN",HOUSTON,TX,77356,"PORTER RANCH",,CONTRACTOR,,,,,,,,,,,"LENNAR HOMES",,,,,"LENNAR HOMES","550 GREENS PKWY",HOUSTON,TX,77067-4537,"(281) 875-1000",http://www.lennar.com/,,,
TX,HARRIS,2103220021,"Single Family Homes",3/16/2021,,142935,2199,"4935 CHESTNUT VALLEY LN",HOUSTON,TX,77356,"PORTER RANCH",,CONTRACTOR,,,,,,,,,,,"LENNAR HOMES",,,,,"LENNAR HOMES","550 GREENS PKWY",HOUSTON,TX,77067-4537,"(281) 875-1000",http://www.lennar.com/,,,
TX,HARRIS,2103220022,"Single Family Homes",3/16/2021,,124345,1913,"4926 CHESTNUT VALLEY LN",HOUSTON,TX,77356,"PORTER RANCH",,CONTRACTOR,,,,,,,,,,,"LENNAR HOMES",,,,,"LENNAR HOMES","550 GREENS PKWY",HOUSTON,TX,77067-4537,"(281) 875-1000",http://www.lennar.com/,,,
TX,HARRIS,2103220024,"Single Family Homes",3/16/2021,,142935,2199,"4930 CHESTNUT VALLEY LN",HOUSTON,TX,77356,"PORTER RANCH",,CONTRACTOR,,,,,,,,,,,"LENNAR HOMES",,,,,"LENNAR HOMES","550 GREENS PKWY",HOUSTON,TX,77067-4537,"(281) 875-1000",http://www.lennar.com/,,,
TX,HARRIS,2103220025,"Single Family Homes",3/16/2021,,137605,2117,"4934 CHESTNUT VALLEY LN",HOUSTON,TX,77356,"PORTER RANCH",,CONTRACTOR,,,,,,,,,,,"LENNAR HOMES",,,,,"LENNAR HOMES","550 GREENS PKWY",HOUSTON,TX,77067-4537,"(281) 875-1000",http://www.lennar.com/,,,
TX,HARRIS,2103220041,"Single Family Homes",3/16/2021,,142935,2199,"24318 GOLD CHEYENNE WAY",HOUSTON,TX,77356,,,CONTRACTOR,,,,,,,,,,,"LENNAR HOMES",,,,,"LENNAR HOMES","550 GREENS PKWY",HOUSTON,TX,77067-4537,"(281) 875-1000",http://www.lennar.com/,,,
TX,HARRIS,2103220043,"Single Family Homes",3/16/2021,,179790,2766,"24322 GOLD CHEYENNE WAY",HOUSTON,TX,77356,"PORTER RANCH",,CONTRACTOR,,,,,,,,,,,"LENNAR HOMES",,,,,"LENNAR HOMES","550 GREENS PKWY",HOUSTON,TX,77067-4537,"(281) 875-1000",http://www.lennar.com/,,,
TX,HARRIS,2103260061,"Single Family Homes",3/16/2021,,136269,2975,"11927 BAZLEY KNOLL DR",HOUSTON,TX,77356,BALMORAL,,CONTRACTOR,,,,,,,,,,,"TAYLOR MORRISON OF TEXAS",,,,,"TAYLOR MORRISON OF TEXAS","5353 W SAM HOUSTON PKWY N STE 190",HOUSTON,TX,77041-5186,"(281) 598-3000",,,,
TX,HARRIS,2102240126,"Single Family Homes",3/16/2021,,819000,5184,"19332 CHATEAU RIDGE CT",HOUSTON,TX,77356,ROSEHURST,,"JOHN AND KATHY LEE","19332 CHATEAU RIDGE CT",HOUSTON,TX,77356,,Owner,,,,,OWNER,,,,,OWNER,,,,,,,,,
TX,GALVESTON,2021-0687,"Single Family Homes",3/11/2021,,161971,,"2542 AUSTIN TR",FRIENDSWOOD,TX,77546,,,CONTRACTOR,,,,,,,,,,,"DR HORTON",,,,,"DR HORTON","14100 SOUTHWEST",HOUSTON,TX,77478,"(281) 201-5559",,,,
TX,GALVESTON,2021-0835,"Single Family Homes",3/24/2021,,156733,,"123 DORADO DR",FRIENDSWOOD,TX,77546,,,CONTRACTOR,,,,,,,,,,,"DR HORTON",,,,,"DR HORTON","14100 SOUTHWEST",HOUSTON,TX,77478,"(281) 201-5559",,,,
TX,GALVESTON,2021-0836,"Single Family Homes",3/24/2021,,216059,,"98 DORADO DR",FRIENDSWOOD,TX,77546,,,CONTRACTOR,,,,,,,,,,,"DR HORTON",,,,,"DR HORTON","14100 SOUTHWEST",HOUSTON,TX,77478,"(281) 201-5559",,,,
TX,GALVESTON,2021-0856,"Single Family Homes",3/22/2021,,692990,,"2000 YELLOWSTONE TRAIL",FRIENDSWOOD,TX,77546,,,CONTRACTOR,,,,,,,,,,,"DAVID WEEKLEY HOMES",,,,,"DAVID WEEKLEY HOMES","14444 NORTHWEST",HOUSTON,TX,77040,"(713) 570-5021",http://www.davidweekleyhomes.com/,,,
TX,GALVESTON,2021-0919,"Single Family Homes",3/30/2021,,171000,,"16930 TOWNES RD",FRIENDSWOOD,TX,77546,,,CONTRACTOR,,,,,,,,,,,"BYRDSON SERVICES",,,,,"BYRDSON SERVICES","1245 W CARDINAL DR",BEAUMONT,TX,77705-6410,"(409) 718-2183",,,,
TX,GALVESTON,2021-0954,"Single Family Homes",3/30/2021,,400000,,"2004 YELLOWSTONE TRAIL",FRIENDSWOOD,TX,77546,,,CONTRACTOR,,,,,,,,,,,"STERLING BUILDERS",,,,,"STERLING BUILDERS","1506 WINDING WAY DR STE 301",FRIENDSWOOD,TX,77546-5391,"(281) 482-3034",http://sterling-builders.com/,"(281) 996-8087",,
TX,BRAZORIA,267,"Single Family Homes",3/16/2021,,387848,,"218 CREEKSIDE LANE","LAKE JACKSON",TX,77566,,,CONTRACTOR,,,,,,,,,,,"APLIN HOMES",,,,,"APLIN HOMES","PO BOX 3520","LAKE JACKSON",TX,77566-6520,"(979) 299-1010",,,"REGINALD APLIN",
TX,BRAZORIA,385,"Single Family Homes",3/16/2021,,360467,,"54 SUN DROP CT","LAKE JACKSON",TX,77566,,,CONTRACTOR,,,,,,,,,,,"APLIN HOMES",,,,,"APLIN HOMES","PO BOX 3520","LAKE JACKSON",TX,77566-6520,"(979) 299-1010",,,"REGINALD APLIN",
TX,HARRIS,2103220064,"Single Family Homes",3/16/2021,,183344,3474,"20815 MAGICAL MERLIN WAY",HOUSTON,TX,77356,"ALBURY TRAILS ESTATES",,CONTRACTOR,,,,,,,,,,,"GEHAN HOMES",,,,,"GEHAN HOMES","2050 W SAM HOUSTON PKWY S",HOUSTON,TX,77042-2079,"(713) 243-3545",http://www.gehanhomes.com,,,
TX,HARRIS,2103180135,"Single Family Homes",3/16/2021,,350000,4096,"14 KINGS HILL LN",HOUSTON,TX,77356,"KINGS LAKE ESTATES",,"NEW CENTURI PROPERTIES LLC","14 KINGS HILL LN",HOUSTON,TX,77356,,Owner,,,,,OWNER,,,,,OWNER,,,,,,,,,
TX,HARRIS,2103180171,"Single Family Homes",3/16/2021,,54320,2714,"11403 RAVEN CLAW DR",HOUSTON,TX,77356,"GROVE LANDING",,CONTRACTOR,,,,,,,,,,,"MHI MCGUYER HOMEBUILDERS",,,,,"MHI MCGUYER HOMEBUILDERS","7676 WOODWAY DR",HOUSTON,TX,77063-1526,"(713) 260-4107",,,,
TX,BRAZORIA,,"Single Family Homes",3/18/2021,,211050,,"1822 N AVE O",FREEPORT,TX,77541,,,CONTRACTOR,,,,,,,,,,,"LEMOINE DISASTER RECOVERY",,,,,"LEMOINE DISASTER RECOVERY","3610 N JOSEY LN, STE 223",CARROLLTON,TX,75007-3100,"(833) 536-6463",https://www.lemoinedisasterrecovery.com/,,,contact@lemoinedr.com
TX,GALVESTON,,"Single Family Homes",3/19/2021,,400000,,"1201 PILOT LN",GALVESTON,TX,77554,,,CONTRACTOR,,,,,,,,,,,"KAI CUSTOM HOMES",,,,,"KAI CUSTOM HOMES","6330 ALDER DR STE 6",HOUSTON,TX,77081-4413,"(713) 909-0059",https://www.kai-customhomes.com/,,,info@kai-customhomes.com
TX,GALVESTON,RES2021-00069,"Single Family Homes",3/1/2021,,725000,2845,"3511 MUSCATEE CIR",GALVESTON,TX,77554,,,CONTRACTOR,,,,,,,,,,,"LEBOEUF HOMES",,,,,"LEBOEUF HOMES","6023 AVENUE S # 315",GALVESTON,TX,77551-5419,"(409) 744-0344",http://www.leboeufhomes.com/aboutus.html,"(409) 744-0523","DOUGLAS LEBOEUF",
TX,GALVESTON,RES2021-00105,"Single Family Homes",3/12/2021,,395000,2160,"4215 S SUNSET BAY DR",GALVESTON,TX,77554,,,CONTRACTOR,,,,,,,,,,,"CRISP CONTRACTORS",,,,,"CRISP CONTRACTORS","732 N UNIVERSITY DR",NACOGDOCHES,TX,75961-4642,"(936) 564-5381",,,,
TX,GALVESTON,RES2021-00113,"Single Family Homes",3/2/2021,,200000,1653,"61 ISLAND PASSAGE",GALVESTON,TX,77554,,,CONTRACTOR,,,,,,,,,,,"SULLIVAN BROTHERS BUILDERS",,,,,"SULLIVAN BROTHERS BUILDERS","8600 HEMPSTEAD RD",HOUSTON,TX,77008-6014,"(832) 431-4204",,,,
TX,GALVESTON,RES2021-00114,"Single Family Homes",3/2/2021,,200000,1653,"57 ISLAND PASSAGE",GALVESTON,TX,77554,,,CONTRACTOR,,,,,,,,,,,"SULLIVAN BROTHERS BUILDERS",,,,,"SULLIVAN BROTHERS BUILDERS","8600 HEMPSTEAD RD",HOUSTON,TX,77008-6014,"(832) 431-4204",,,,
TX,GALVESTON,RES2021-00116,"Single Family Homes",3/2/2021,,225000,2500,"706 VISTA BELLA",GALVESTON,TX,77554,,,CONTRACTOR,,,,,,,,,,,"LUX BUILDERS",,,,,"LUX BUILDERS","1777 S BELLAIRE ST SUITE 370",DENVER,CO,80222,"(303) 710-9044",http://lux-builders.com/,,,austin.schmidt@lux-builders.com
TX,GALVESTON,RES2021-00143,"Single Family Homes",3/1/2021,,500000,2582,"22816 CAMINO ST",GALVESTON,TX,77554,,,CONTRACTOR,,,,,,,,,,,"KAI CUSTOM HOMES",,,,,"KAI CUSTOM HOMES","6330 ALDER DR STE 6",HOUSTON,TX,77081-4413,"(713) 909-0059",https://www.kai-customhomes.com/,,,info@kai-customhomes.com
TX,GALVESTON,RES2021-00144,"Single Family Homes",3/1/2021,,500000,,"21222 SCISSOR TAIL LN",GALVESTON,TX,77554,,,CONTRACTOR,,,,,,,,,,,"KAI CUSTOM HOMES",,,,,"KAI CUSTOM HOMES","6330 ALDER DR STE 6",HOUSTON,TX,77081-4413,"(713) 909-0059",https://www.kai-customhomes.com/,,,info@kai-customhomes.com
TX,GALVESTON,RES2021-00185,"Single Family Homes",3/18/2021,,400000,,"3623 FOREMAST DR",GALVESTON,TX,77554,,,CONTRACTOR,,,,,,,,,,,"A&P PRETS CONSTRUCTION",,,,,"A&P PRETS CONSTRUCTION","7825 SILVER OAK DRIVE","TEXAS CITY",TX,77591,"(409) 370-4904",https://www.appretsconstruction.com/,,,appretsconstruction@gmail.com
TX,GALVESTON,RES2021-00244,"Single Family Homes",3/8/2021,,600000,3750,"4 MARINER PASS",GALVESTON,TX,77554,,,CONTRACTOR,,,,,,,,,,,"SULLIVAN BROTHERS BUILDERS",,,,,"SULLIVAN BROTHERS BUILDERS","8600 HEMPSTEAD RD",HOUSTON,TX,77008-6014,"(832) 431-4204",,,,
TX,GALVESTON,RES2021-00276,"Single Family Homes",3/16/2021,,300000,2715,"21713 GUADALUPE DR",GALVESTON,TX,77554,,,CONTRACTOR,,,,,,,,,,,"WILLIAM JAMES BUILDERS",,,,,"WILLIAM JAMES BUILDERS","2501 BLUEBONNET CT",GALVESTON,TX,77551-1809,"(409) 224-8788",,,,
TX,HARRIS,21030384,"Single Family Homes",4/18/2021,,146000,,"951 LILLY FLOWER",HOUSTON,TX,77091,,,CONTRACTOR,,,,,,,,,,,"ANNE'S PERMIT",,,,,"ANNE'S PERMIT","2617C W HOLCOMBE BLVD",HOUSTON,TX,77025,"(713) 666-2025",,,,
TX,HARRIS,21016304,"Single Family Homes",4/16/2021,,422000,,"1522 PINE CHASE",HOUSTON,TX,77055,,,CONTRACTOR,,,,,,,,,,,"ANNE'S PERMIT",,,,,"ANNE'S PERMIT","2617C W HOLCOMBE BLVD",HOUSTON,TX,77025,"(713) 666-2025",,,,
TX,HARRIS,20111361,"Single Family Homes",4/19/2021,,170600,,"6206 SOUTHBROOK",HOUSTON,TX,77087,,,"PAMELA BELL","6206 SOUTHBROOK",HOUSTON,TX,77087,,Owner,,,,,OWNER,,,,,OWNER,,,,,,,,,
TX,HARRIS,21013016,"Single Family Homes",4/14/2021,,461295,,"1203 NICHOLSON",HOUSTON,TX,77008,,,CONTRACTOR,,,,,,,,,,,"ANSARI HOMES",,,,,"ANSARI HOMES","3354 ROGERDALE RD",HOUSTON,TX,77042-4198,"(281) 787-5398",http://ansarihomes.com/,"(713) 782-0306",,ansarihomeshouston@gmail.com
TX,HARRIS,21014869,"Single Family Homes",4/14/2021,,423663,,"6405 TELUCO",HOUSTON,TX,77055,,,CONTRACTOR,,,,,,,,,,,"AVENUE DRIVE HOMES",,,,,"AVENUE DRIVE HOMES","401 PALMER ST",HOUSTON,TX,77003-2307,"(713) 252-3223",,,"CRAIG ROHDEN",
TX,HARRIS,21015692,"Single Family Homes",4/14/2021,,187680,,"2722 ANITA",HOUSTON,TX,77004,,,CONTRACTOR,,,,,,,,,,,"BC INVESTMENT",,,,,"BC INVESTMENT","11406 MEMORIAL DR",HOUSTON,TX,77024-7527,"(281) 818-5609",,,,
TX,HARRIS,21015691,"Single Family Homes",4/14/2021,,187680,,"2726 ANITA",HOUSTON,TX,77004,,,CONTRACTOR,,,,,,,,,,,"BC INVESTMENT",,,,,"BC INVESTMENT","11406 MEMORIAL DR",HOUSTON,TX,77024-7527,"(281) 818-5609",,,,
TX,HARRIS,21015690,"Single Family Homes",4/14/2021,,187680,,"2730 ANITA",HOUSTON,TX,77004,,,CONTRACTOR,,,,,,,,,,,"BC INVESTMENT",,,,,"BC INVESTMENT","11406 MEMORIAL DR",HOUSTON,TX,77024-7527,"(281) 818-5609",,,,
TX,HARRIS,20101403,"Single Family Homes",4/13/2021,,166286,,"12810 SIRKIS",HOUSTON,TX,77048,,,CONTRACTOR,,,,,,,,,,,"COLINA HOMES",,,,,"COLINA HOMES","1314 N DURHAM DR",HOUSTON,TX,77008-3734,"(281) 528-9090",http://colinahomes.com/,,,postmaster@colinahomes.com
TX,HARRIS,20062380,"Single Family Homes",4/14/2021,,195556,,"12909 MARCIANO",HOUSTON,TX,77048,,,CONTRACTOR,,,,,,,,,,,"COLINA HOMES",,,,,"COLINA HOMES","1314 N DURHAM DR",HOUSTON,TX,77008-3734,"(281) 528-9090",http://colinahomes.com/,,,postmaster@colinahomes.com
TX,HARRIS,20062371,"Single Family Homes",4/14/2021,,166286,,"5113 FRISCH",HOUSTON,TX,77048,,,CONTRACTOR,,,,,,,,,,,"COLINA HOMES",,,,,"COLINA HOMES","1314 N DURHAM DR",HOUSTON,TX,77008-3734,"(281) 528-9090",http://colinahomes.com/,,,postmaster@colinahomes.com
TX,HARRIS,20062369,"Single Family Homes",4/13/2021,,189000,,"5107 FRISCH",HOUSTON,TX,77048,,,CONTRACTOR,,,,,,,,,,,"COLINA HOMES",,,,,"COLINA HOMES","1314 N DURHAM DR",HOUSTON,TX,77008-3734,"(281) 528-9090",http://colinahomes.com/,,,postmaster@colinahomes.com
TX,HARRIS,21028004,"Single Family Homes",4/14/2021,,229536,,"2915 PAINTED SUNRISE ",HOUSTON,TX,77045,,,CONTRACTOR,,,,,,,,,,,"BRIGHTON HOMES & PARKWOOD",,,,,"BRIGHTON HOMES & PARKWOOD","13111 NORTHWEST FWY",HOUSTON,TX,77040-6318,"(713) 460-6279",,,,
TX,HARRIS,20111799,"Single Family Homes",4/15/2021,,111000,,"7807 LAWLER",HOUSTON,TX,77051,,,CONTRACTOR,,,,,,,,,,,"CENSEO HOMES",,,,,"CENSEO HOMES","1800 AUGUSTA DR",HOUSTON,TX,77057-3149,"(281) 932-5303",,,,
TX,HARRIS,21022291,"Single Family Homes",4/19/2021,,198990,,"703 CYPRESS SUMMIT",HOUSTON,TX,77336,,,CONTRACTOR,,,,,,,,,,,"CENTURY COMMUNITIES",,,,,"CENTURY COMMUNITIES","4700 W SAM HOUSTON PKWY N STE 130",HOUSTON,TX,77041-8219,"(281) 741-8946",https://www.centurycommunities.com/,,,
TX,HARRIS,21029209,"Single Family Homes",4/13/2021,,240990,,"12502 ABBEY HOUSE",HOUSTON,TX,77047,,,CONTRACTOR,,,,,,,,,,,"DR HORTON",,,,,"DR HORTON","14100 SOUTHWEST",HOUSTON,TX,77478,"(281) 201-5559",,,,
TX,HARRIS,21005961,"Single Family Homes",4/14/2021,,353430,,"3249 ROYAL OAKS HOLLOW",HOUSTON,TX,77082,,,CONTRACTOR,,,,,,,,,,,"EMPIRE COMMUNITIES",,,,,"EMPIRE COMMUNITIES","10235 W LITTLE YORK RD",HOUSTON,TX,77040-3229,"(713) 896-8542",https://empirecommunities.com/,"(713) 896-8572",,info@empirecommunities.com
TX,HARRIS,20070291,"Single Family Homes",4/16/2021,,530955,,"4506 BANNING",HOUSTON,TX,77027,,,CONTRACTOR,,,,,,,,,,,"GENE GILES DESIGN GROUP",,,,,"GENE GILES DESIGN GROUP","3104 EDLOE ST STE 320",HOUSTON,TX,77027-6047,"(713) 680-1333",http://www.genegiles.com/,"(713) 680-1334",,
TX,HARRIS,20087654,"Single Family Homes",4/13/2021,,143987,,"7929 RITZ",HOUSTON,TX,77028,,,CONTRACTOR,,,,,,,,,,,"GOLDEN HOUSE BUILDERS",,,,,"GOLDEN HOUSE BUILDERS","22931 BANQUERO",HOUSTON,TX,77373,"(832) 969-8254",,,,
TX,HARRIS,21009101,"Single Family Homes",4/16/2021,,361674,,"619 N LIVE OAK",HOUSTON,TX,77003,,,CONTRACTOR,,,,,,,,,,,"PADUA REALTY",,,,,"PADUA REALTY","5599 SAN FELIPE ST STE 911",HOUSTON,TX,77056-2749,"(713) 840-7719",http://www.paduarealty.com,,,contact@paduarealty.com
TX,HARRIS,21005909,"Single Family Homes",4/13/2021,,152000,,"2722 STALLINGS",HOUSTON,TX,77088,,,CONTRACTOR,,,,,,,,,,,"ASHLEY GRAYBILL",,,,,"ASHLEY GRAYBILL","14643 DALLAS PKWY STE",HOUSTON,TX,75254,"(469) 225-7633",,,,
TX,HARRIS,21015484,"Single Family Homes",4/15/2021,,152000,,"999 SAINT CLAIR",HOUSTON,TX,77088,,,CONTRACTOR,,,,,,,,,,,"ASHLEY GRAYBILL",,,,,"ASHLEY GRAYBILL","14643 DALLAS PKWY STE",HOUSTON,TX,75254,"(469) 225-7633",,,,
TX,HARRIS,20106878,"Single Family Homes",4/16/2021,,261100,,"4646 LARKSPUR",HOUSTON,TX,77051,,,CONTRACTOR,,,,,,,,,,,"CASTLEROCK COMMUNITIES",,,,,"CASTLEROCK COMMUNITIES","7670 WOODWAY DR STE 300",HOUSTON,TX,77063-1520,"(713) 600-7000",http://c-rock.com,"(713) 600-0000",,
TX,HARRIS,21018680,"Single Family Homes",4/16/2021,,331209,,"1309 OVERHILL",HOUSTON,TX,77018,,,CONTRACTOR,,,,,,,,,,,"H-TEX ENTERPRISES",,,,,"H-TEX ENTERPRISES","2510 LOYANNE DR",SPRING,TX,77373-6283,"(713) 205-3630",http://www.h-tex.net/,,,
TX,HARRIS,21006643,"Single Family Homes",4/13/2021,,260489,,"2715 KINSLEY OAKS",HOUSTON,TX,77007,,,CONTRACTOR,,,,,,,,,,,"INTOWN HOMES",,,,,"INTOWN HOMES","1520 OLIVER ST",HOUSTON,TX,77007,"(713) 961-3877",http://www.intown-homes.com/,,,
TX,HARRIS,21007628,"Single Family Homes",4/19/2021,,262507,,"2719 KINSLEY OAKS",HOUSTON,TX,77007,,,CONTRACTOR,,,,,,,,,,,"INTOWN HOMES",,,,,"INTOWN HOMES","1520 OLIVER ST",HOUSTON,TX,77007,"(713) 961-3877",http://www.intown-homes.com/,,,
TX,HARRIS,21005199,"Single Family Homes",4/13/2021,,372270,,"6106 COTTAGE GROVE LAKE ",HOUSTON,TX,77007,,,CONTRACTOR,,,,,,,,,,,"INTOWN HOMES",,,,,"INTOWN HOMES","1520 OLIVER ST",HOUSTON,TX,77007,"(713) 961-3877",http://www.intown-homes.com/,,,
TX,HARRIS,21005308,"Single Family Homes",4/13/2021,,337786,,"6110 COTTAGE GROVE LAKE",HOUSTON,TX,77007,,,CONTRACTOR,,,,,,,,,,,"INTOWN HOMES",,,,,"INTOWN HOMES","1520 OLIVER ST",HOUSTON,TX,77007,"(713) 961-3877",http://www.intown-homes.com/,,,
TX,HARRIS,21009073,"Single Family Homes",4/13/2021,,374710,,"6112 COTTAGE GROVE LAKE",HOUSTON,TX,77007,,,CONTRACTOR,,,,,,,,,,,"INTOWN HOMES",,,,,"INTOWN HOMES","1520 OLIVER ST",HOUSTON,TX,77007,"(713) 961-3877",http://www.intown-homes.com/,,,
TX,HARRIS,21016279,"Single Family Homes",4/13/2021,,231387,,"1203 HICKORY ST",HOUSTON,TX,77007,,,CONTRACTOR,,,,,,,,,,,"INTOWN HOMES",,,,,"INTOWN HOMES","1520 OLIVER ST",HOUSTON,TX,77007,"(713) 961-3877",http://www.intown-homes.com/,,,
TX,HARRIS,20090681,"Single Family Homes",4/19/2021,,600000,,"730 W 42ND",HOUSTON,TX,77018,,,CONTRACTOR,,,,,,,,,,,"RANIER CUSTOM HOMES",,,,,"RANIER CUSTOM HOMES","11806 PEBBLETON DR",HOUSTON,TX,77070-2356,"(281) 460-2607",,,"KEVIN KOURY",
TX,HARRIS,21015709,"Single Family Homes",4/16/2021,,190000,,"11005 CANE OAK",HOUSTON,TX,77043,,,CONTRACTOR,,,,,,,,,,,"LEGEND HOMES",,,,,"LEGEND HOMES","10410 WINDAMERE LAKES BLVD",HOUSTON,TX,77065-4996,"(281) 671-9060",http://legendhomecorp.com/,"(281) 671-9055",,
TX,HARRIS,21027665,"Single Family Homes",4/16/2021,,187000,,"11012 CANE OAK",HOUSTON,TX,77043,,,CONTRACTOR,,,,,,,,,,,"LEGEND HOMES",,,,,"LEGEND HOMES","10410 WINDAMERE LAKES BLVD",HOUSTON,TX,77065-4996,"(281) 671-9060",http://legendhomecorp.com/,"(281) 671-9055",,
TX,HARRIS,21024729,"Single Family Homes",4/16/2021,,281000,,"9426 THORNBLUFF CREEK",HOUSTON,TX,77365,,,CONTRACTOR,,,,,,,,,,,"LENNAR HOMES",,,,,"LENNAR HOMES","550 GREENS PKWY",HOUSTON,TX,77067-4537,"(281) 875-1000",http://www.lennar.com/,,,
TX,HARRIS,21024008,"Single Family Homes",4/16/2021,,452700,,"1505 RONSON",HOUSTON,TX,77055,,,CONTRACTOR,,,,,,,,,,,"MAKENZIE HOMES",,,,,"MAKENZIE HOMES","1501 RONSON RD",HOUSTON,TX,77055-3219,"(713) 443-7108",,,,
TX,HARRIS,21006675,"Single Family Homes",4/13/2021,,187170,,"1806 LA MAGNOLIA",HOUSTON,TX,77023,,,CONTRACTOR,,,,,,,,,,,"MERITAGE HOMES",,,,,"MERITAGE HOMES","2901 W SAM HOUSTON PKWY N",HOUSTON,TX,77043-1630,"(713) 357-1184",,,,
TX,HARRIS,21006676,"Single Family Homes",4/15/2021,,209610,,"1810 LA MAGNOLIA",HOUSTON,TX,77023,,,CONTRACTOR,,,,,,,,,,,"MERITAGE HOMES",,,,,"MERITAGE HOMES","2901 W SAM HOUSTON PKWY N",HOUSTON,TX,77043-1630,"(713) 357-1184",,,,
TX,HARRIS,21009800,"Single Family Homes",4/16/2021,,187170,,"1814 LA MAGNOLIA",HOUSTON,TX,77023,,,CONTRACTOR,,,,,,,,,,,"MERITAGE HOMES",,,,,"MERITAGE HOMES","2901 W SAM HOUSTON PKWY N",HOUSTON,TX,77043-1630,"(713) 357-1184",,,,
TX,HARRIS,21021005,"Single Family Homes",4/14/2021,,171785,,"3109 LEATHER LEAF",HOUSTON,TX,77080,,,CONTRACTOR,,,,,,,,,,,"MERITAGE HOMES",,,,,"MERITAGE HOMES","2901 W SAM HOUSTON PKWY N",HOUSTON,TX,77043-1630,"(713) 357-1184",,,,
TX,HARRIS,21021003,"Single Family Homes",4/14/2021,,171785,,"3110 MAGNOLIA KNOLL",HOUSTON,TX,77080,,,CONTRACTOR,,,,,,,,,,,"MERITAGE HOMES",,,,,"MERITAGE HOMES","2901 W SAM HOUSTON PKWY N",HOUSTON,TX,77043-1630,"(713) 357-1184",,,,
TX,HARRIS,21007757,"Single Family Homes",4/14/2021,,475470,,"1039 HARVARD",HOUSTON,TX,77008,,,CONTRACTOR,,,,,,,,,,,"SMITH FAMILY HOMES",,,,,"SMITH FAMILY HOMES","3435 WESTHEIMER RD APT 802",HOUSTON,TX,77027-5359,"(713) 822-7340",,,"ALLEN SMITH",
TX,HARRIS,21010754,"Single Family Homes",4/13/2021,,205985,,"7028 AVENUE",HOUSTON,TX,77011,,,CONTRACTOR,,,,,,,,,,,"VECINO HOMES",,,,,"VECINO HOMES","4007 WALKER STREET",HOUSTON,TX,77023,"(713) 370-0308",https://www.vecinohomes.com/,,,
TX,HARRIS,21010755,"Single Family Homes",4/13/2021,,205985,,"7034 AVENUE",HOUSTON,TX,77011,,,CONTRACTOR,,,,,,,,,,,"VECINO HOMES",,,,,"VECINO HOMES","4007 WALKER STREET",HOUSTON,TX,77023,"(713) 370-0308",https://www.vecinohomes.com/,,,
TX,HARRIS,21010756,"Single Family Homes",4/13/2021,,205985,,"7036 AVENUE",HOUSTON,TX,77011,,,CONTRACTOR,,,,,,,,,,,"VECINO HOMES",,,,,"VECINO HOMES","4007 WALKER STREET",HOUSTON,TX,77023,"(713) 370-0308",https://www.vecinohomes.com/,,,
TX,HARRIS,21010757,"Single Family Homes",4/13/2021,,205985,,"7048 AVENUE",HOUSTON,TX,77011,,,CONTRACTOR,,,,,,,,,,,"VECINO HOMES",,,,,"VECINO HOMES","4007 WALKER STREET",HOUSTON,TX,77023,"(713) 370-0308",https://www.vecinohomes.com/,,,
TX,HARRIS,21010758,"Single Family Homes",4/13/2021,,205985,,"7050 AVENUE",HOUSTON,TX,77011,,,CONTRACTOR,,,,,,,,,,,"VECINO HOMES",,,,,"VECINO HOMES","4007 WALKER STREET",HOUSTON,TX,77023,"(713) 370-0308",https://www.vecinohomes.com/,,,
TX,HARRIS,20105670,"Single Family Homes",4/13/2021,,100000,,"318 ARMSTRONG",HOUSTON,TX,77029,,,CONTRACTOR,,,,,,,,,,,"SVG CONSTRUCTION",,,,,"SVG CONSTRUCTION","12508 STONEY CREEK DR",PEARLAND,TX,77584-9487,"(832) 274-1988",,,,
TX,HARRIS,21021634,"Single Family Homes",4/15/2021,,386900,,"4027 DELTA ROSE",HOUSTON,TX,77018,,,CONTRACTOR,,,,,,,,,,,"MARIA VARGAS",,,,,"MARIA VARGAS","1311 BROADFIELD BLVD",HOUSTON,TX,77084-5186,"(281) 529-9127",,,,
TX,HARRIS,21023206,"Single Family Homes",4/15/2021,,400640,,"4028 STARBRIGHT",HOUSTON,TX,77018,,,CONTRACTOR,,,,,,,,,,,"MARIA VARGAS",,,,,"MARIA VARGAS","1311 BROADFIELD BLVD",HOUSTON,TX,77084-5186,"(281) 529-9127",,,,
TX,HARRIS,21021637,"Single Family Homes",4/13/2021,,394970,,"4034 DELTA ROSE",HOUSTON,TX,77018,,,CONTRACTOR,,,,,,,,,,,"MARIA VARGAS",,,,,"MARIA VARGAS","1311 BROADFIELD BLVD",HOUSTON,TX,77084-5186,"(281) 529-9127",,,,
TX,HARRIS,21029650,"Single Family Homes",4/19/2021,,397940,,"5120 EMMA FOREST",HOUSTON,TX,77018,,,CONTRACTOR,,,,,,,,,,,"MARIA VARGAS",,,,,"MARIA VARGAS","1311 BROADFIELD BLVD",HOUSTON,TX,77084-5186,"(281) 529-9127",,,,
TX,HARRIS,21012157,"Single Family Homes",4/13/2021,,300000,,"3124 DAKOTA FALLS",HOUSTON,TX,77063,,,CONTRACTOR,,,,,,,,,,,"MARIA VARGAS",,,,,"MARIA VARGAS","1311 BROADFIELD BLVD",HOUSTON,TX,77084-5186,"(281) 529-9127",,,,
TX,HARRIS,21013043,"Single Family Homes",4/13/2021,,233300,,"10711 FORBES BROOK",HOUSTON,TX,77075,,,CONTRACTOR,,,,,,,,,,,"MARIA VARGAS",,,,,"MARIA VARGAS","1311 BROADFIELD BLVD",HOUSTON,TX,77084-5186,"(281) 529-9127",,,,
TX,HARRIS,21016111,"Single Family Homes",4/13/2021,,239620,,"10802 BATON BIRCH",HOUSTON,TX,77075,,,CONTRACTOR,,,,,,,,,,,"MARIA VARGAS",,,,,"MARIA VARGAS","1311 BROADFIELD BLVD",HOUSTON,TX,77084-5186,"(281) 529-9127",,,,
TX,HARRIS,21013659,"Single Family Homes",4/13/2021,,228550,,"10811 BATON BIRCH",HOUSTON,TX,77075,,,CONTRACTOR,,,,,,,,,,,"MARIA VARGAS",,,,,"MARIA VARGAS","1311 BROADFIELD BLVD",HOUSTON,TX,77084-5186,"(281) 529-9127",,,,
TX,HARRIS,21016106,"Single Family Homes",4/13/2021,,238320,,"6903 HOBBY BROOK",HOUSTON,TX,77075,,,CONTRACTOR,,,,,,,,,,,"MARIA VARGAS",,,,,"MARIA VARGAS","1311 BROADFIELD BLVD",HOUSTON,TX,77084-5186,"(281) 529-9127",,,,
TX,HARRIS,21013662,"Single Family Homes",4/13/2021,,215000,,"10707 FORBES BROOK",HOUSTON,TX,77075,,,CONTRACTOR,,,,,,,,,,,"MARIA VARGAS",,,,,"MARIA VARGAS","1311 BROADFIELD BLVD",HOUSTON,TX,77084-5186,"(281) 529-9127",,,,
TX,BRAZOS,21-0675,"Single Family Homes",3/1/2021,,214698,2587,"1432 KINGSGATE DR",BRYAN,TX,77807,EDGEWATER,6,CONTRACTOR,,,,,,,,,,,"STYLECRAFT BUILDERS ",,,,,"STYLECRAFT BUILDERS ","4090 STATE HIGHWAY 6 S","COLLEGE STATION",TX,77845-8962,"(979) 764-9900",,"(979) 690-3069","TANNER BREWSTER",tabrewster@stylecraft-builders.com
TX,BRAZOS,21-0600,"Single Family Homes",3/1/2021,,268000,3351,"3217 ELM CREEK CT",BRYAN,TX,77807,TRADITIONS,9,CONTRACTOR,,,,,,,,,,,"MARIOTT HOMES",,,,,"MARIOTT HOMES","209 ROCK PRAIRIE RD","COLLEGE STATION",TX,77845-8796,"(979) 696-1787",http://mariotthomes.com/,,,
TX,BRAZOS,21-0678,"Single Family Homes",3/1/2021,,133386,1510,"2039 BRISBANE WAY",BRYAN,TX,77803,"PLEASANT HILL",13,CONTRACTOR,,,,,,,,,,,"STYLECRAFT BUILDERS ",,,,,"STYLECRAFT BUILDERS ","4090 STATE HIGHWAY 6 S","COLLEGE STATION",TX,77845-8962,"(979) 764-9900",,"(979) 690-3069","TANNER BREWSTER",tabrewster@stylecraft-builders.com
TX,BRAZOS,21-0676,"Single Family Homes",3/1/2021,,114642,1262,"3707 MCKENZIE ST",BRYAN,TX,77803,"CONNORS COVE",12,CONTRACTOR,,,,,,,,,,,"STYLECRAFT BUILDERS ",,,,,"STYLECRAFT BUILDERS ","4090 STATE HIGHWAY 6 S","COLLEGE STATION",TX,77845-8962,"(979) 764-9900",,"(979) 690-3069","TANNER BREWSTER",tabrewster@stylecraft-builders.com
TX,BRAZOS,21-0677,"Single Family Homes",3/1/2021,,180048,1818,"1434 KINGSGATE DR",BRYAN,TX,77807,EDGEWATER,5,CONTRACTOR,,,,,,,,,,,"STYLECRAFT BUILDERS ",,,,,"STYLECRAFT BUILDERS ","4090 STATE HIGHWAY 6 S","COLLEGE STATION",TX,77845-8962,"(979) 764-9900",,"(979) 690-3069","TANNER BREWSTER",tabrewster@stylecraft-builders.com
TX,BRAZOS,21-0723,"Single Family Homes",3/2/2021,,153384,1833,"2021 BRISBANE WAY",BRYAN,TX,77803,"PLEASANT HILL",21,CONTRACTOR,,,,,,,,,,,"OMEGA BUILDERS GROUP",,,,,"OMEGA BUILDERS GROUP","7353 W ADAMS AVE",TEMPLE,TX,76502-5539,"(254) 773-9966",,,,
TX,BRAZOS,21-0689,"Single Family Homes",3/2/2021,,559000,3308,"3444 MAHOGANY DR",BRYAN,TX,77807,TRADITIONS,22,CONTRACTOR,,,,,,,,,,,"DR HORTON",,,,,"DR HORTON","14100 SOUTHWEST",HOUSTON,TX,77478,"(281) 201-5559",,,,
TX,BRAZOS,21-0267,"Single Family Homes",3/3/2021,,195858,1800,"3177 NORMANDY WAY",BRYAN,TX,77808,"RUDDER POINTE",21,CONTRACTOR,,,,,,,,,,,"AVONLEY HOMES",,,,,"AVONLEY HOMES","3900 STATE HIGHWAY 6 S STE 110","COLLEGE STATION",TX,77845-5831,"(979) 635-4800",https://www.avonleyhomes.com/,,,info@avonleyhomes.com
TX,BRAZOS,21-0728,"Single Family Homes",3/3/2021,,133452,1510,"1904 SHIMLA CT",BRYAN,TX,77807,EDGEWATER,18,CONTRACTOR,,,,,,,,,,,"STYLECRAFT BUILDERS ",,,,,"STYLECRAFT BUILDERS ","4090 STATE HIGHWAY 6 S","COLLEGE STATION",TX,77845-8962,"(979) 764-9900",,"(979) 690-3069","TANNER BREWSTER",tabrewster@stylecraft-builders.com
TX,BRAZOS,21-0733,"Single Family Homes",3/3/2021,,122562,1443,"2031 KATHRYN DR",BRYAN,TX,77807,EDGEWATER,9,CONTRACTOR,,,,,,,,,,,"STYLECRAFT BUILDERS ",,,,,"STYLECRAFT BUILDERS ","4090 STATE HIGHWAY 6 S","COLLEGE STATION",TX,77845-8962,"(979) 764-9900",,"(979) 690-3069","TANNER BREWSTER",tabrewster@stylecraft-builders.com
TX,BRAZOS,21-0686,"Single Family Homes",3/3/2021,,161238,1844,"3412 UTAH CT",BRYAN,TX,77808,"RUDDER POINTE",15,CONTRACTOR,,,,,,,,,,,"RANGER HOME BUILDERS",,,,,"RANGER HOME BUILDERS","547 WILLIAM D FITCH PKWY","COLLEGE STATION",TX,77845-6161,"(979) 255-7526",,,,
TX,BRAZOS,21-0700,"Single Family Homes",3/3/2021,,185196,2223,"4711 VIA VERDE WAY",BRYAN,TX,77801,"ALAMOSA SPRINGS",6,CONTRACTOR,,,,,,,,,,,"LEGEND CLASSIC HOMES",,,,,"LEGEND CLASSIC HOMES","6634 BEESTON HILL DR",KATY,TX,77449-0195,"(281) 463-9950",http://legendhomeshouston.com/,,,
TX,BRAZOS,21-0701,"Single Family Homes",3/3/2021,,156420,1849,"5754 PASEO PL",BRYAN,TX,77807,"ALAMOSA SPRINGS",28,CONTRACTOR,,,,,,,,,,,"LEGEND CLASSIC HOMES",,,,,"LEGEND CLASSIC HOMES","6634 BEESTON HILL DR",KATY,TX,77449-0195,"(281) 463-9950",http://legendhomeshouston.com/,,,
TX,BRAZOS,21-0734,"Single Family Homes",3/4/2021,,126060,1509,"3720 MCKENZIE ST",BRYAN,TX,77803,"CONNORS COVE",4,CONTRACTOR,,,,,,,,,,,"STYLECRAFT BUILDERS ",,,,,"STYLECRAFT BUILDERS ","4090 STATE HIGHWAY 6 S","COLLEGE STATION",TX,77845-8962,"(979) 764-9900",,"(979) 690-3069","TANNER BREWSTER",tabrewster@stylecraft-builders.com
TX,BRAZOS,21-0735,"Single Family Homes",3/4/2021,,134640,1613,"2055 BRISBANE WAY",BRYAN,TX,77803,"PLEASANT HILL",5,CONTRACTOR,,,,,,,,,,,"STYLECRAFT BUILDERS ",,,,,"STYLECRAFT BUILDERS ","4090 STATE HIGHWAY 6 S","COLLEGE STATION",TX,77845-8962,"(979) 764-9900",,"(979) 690-3069","TANNER BREWSTER",tabrewster@stylecraft-builders.com
TX,HARRIS,21012140,"Single Family Homes",4/19/2021,,175000,,"1708 CAPRON",HOUSTON,TX,77020,,,"DUANE PATTERSON","1708 CAPRON",HOUSTON,TX,77020,,Owner,,,,,OWNER,,,,,OWNER,,,,,,,,,
TX,HARRIS,20098946,"Single Family Homes",4/19/2021,,140000,,"8134 SUNBURY",HOUSTON,TX,77028,,,"MARIA RAMIREZ","8134 SUNBURY",HOUSTON,TX,77028,,Owner,,,,,OWNER,,,,,OWNER,,,,,,,,,
TX,HARRIS,19061651,"Single Family Homes",4/19/2021,,600000,,"4010 ESSEX",HOUSTON,TX,77027,,,"KYLE  ROTTET","4010 ESSEX",HOUSTON,TX,77027,,Owner,,,,,"ROTTET STUDIO",,,,,"ROTTET STUDIO","808 TRAVIS STREET, SUITE 100",HOUSTON,TX,77002,"(713) 221-1830",,,,
TX,HARRIS,20118802,"Single Family Homes",4/13/2021,,700000,,"2213 W MAIN",HOUSTON,TX,77098,,,"MARK & JAMIE SHUMBERA","2213 W MAIN",HOUSTON,TX,77098,,Owner,,,,,"WINFREY DESIGN BUILD",,,,,"WINFREY DESIGN BUILD","7026 OLD KATY RD",HOUSTON,TX,77024,"(713) 875-8481",http://winfreydesignbuild.com/,,,
TX,HARRIS,20114047,"Single Family Homes",4/14/2021,,124000,,"1530 PLEASANTVILLE",HOUSTON,TX,77029,,,"SUSAN TROTTER","1530 PLEASANTVILLE",HOUSTON,TX,77029,,Owner,,,,,"DSW HOMES",,,,,"DSW HOMES","502 E 20TH ST",HOUSTON,TX,77008-2665,"(832) 552-9687",http://www.dswhomes.com/,,,
TX,HARRIS,21001696,"Single Family Homes",4/14/2021,,146795,,"7934 LITTLE",HOUSTON,TX,77028,,,"KARINA ZELAYA","7934 LITTLE",HOUSTON,TX,77028,,Owner,,,,,OWNER,,,,,OWNER,,,,,,,,,
TX,HARRIS,2103220109,"Single Family Homes",3/16/2021,,75000,3243,"18807 PERALTA SPRINGS LN",HOUSTON,TX,77356,"VILLAGES OF CYPRESS LAKES",,CONTRACTOR,,,,,,,,,,,"LONG LAKE HOMES",,,,,"LONG LAKE HOMES","15915 KATY FWY STE 405",HOUSTON,TX,77094-1710,"(281) 646-1727",http://www.longlakeltd.com/,,"DAVID BIGLER",
TX,HARRIS,2103220110,"Single Family Homes",3/16/2021,,81000,3592,"18815 PERALTA SPRINGS LN",HOUSTON,TX,77356,"VILLAGES OF CYPRESS LAKES",,CONTRACTOR,,,,,,,,,,,"LONG LAKE HOMES",,,,,"LONG LAKE HOMES","15915 KATY FWY STE 405",HOUSTON,TX,77094-1710,"(281) 646-1727",http://www.longlakeltd.com/,,"DAVID BIGLER",
TX,HARRIS,2103220112,"Single Family Homes",3/16/2021,,71000,2736,"23718 SUBALPINE FIR LN",HOUSTON,TX,77356,"MORTON CREEK RANCH",,CONTRACTOR,,,,,,,,,,,"LONG LAKE HOMES",,,,,"LONG LAKE HOMES","15915 KATY FWY STE 405",HOUSTON,TX,77094-1710,"(281) 646-1727",http://www.longlakeltd.com/,,"DAVID BIGLER",
TX,HARRIS,2103230117,"Single Family Homes",3/17/2021,,72000,3005,"8311 PATAGONIAN LN",HOUSTON,TX,77356,"EDGEWOOD VILLAGE",,CONTRACTOR,,,,,,,,,,,"LONG LAKE HOMES",,,,,"LONG LAKE HOMES","15915 KATY FWY STE 405",HOUSTON,TX,77094-1710,"(281) 646-1727",http://www.longlakeltd.com/,,"DAVID BIGLER",
TX,HARRIS,2103230126,"Single Family Homes",3/16/2021,,80000,3564,"3331 ETRING LN",HOUSTON,TX,77356,"MORTON CREEK RANCH",,CONTRACTOR,,,,,,,,,,,"LONG LAKE HOMES",,,,,"LONG LAKE HOMES","15915 KATY FWY STE 405",HOUSTON,TX,77094-1710,"(281) 646-1727",http://www.longlakeltd.com/,,"DAVID BIGLER",
TX,HARRIS,2103250099,"Single Family Homes",3/16/2021,,,3715,"20402 LUSITANO GLEN LN",HOUSTON,TX,77356,AMIRA,,CONTRACTOR,,,,,,,,,,,"PERRY HOMES",,,,,"PERRY HOMES","9000 GULF FWY",HOUSTON,TX,77017-7018,"(713) 417-1396",,,,
TX,HARRIS,2103180091,"Single Family Homes",3/16/2021,,155460,2591,"17505 DEER CREEK DR",HOUSTON,TX,77356,"EVANS ESTATES",,"AGUSTIN GUIJOSA","17505 DEER CREEK DR",HOUSTON,TX,77356,,Owner,,,,,OWNER,,,,,OWNER,,,,,,,,,
TX,HARRIS,2103180123,"Single Family Homes",3/16/2021,,95370,3179,"18410 COUNCE MEADOW CT",HOUSTON,TX,77356,"TOWNE LAKE",,CONTRACTOR,,,,,,,,,,,"DAVID WEEKLEY HOMES",,,,,"DAVID WEEKLEY HOMES","14444 NORTHWEST",HOUSTON,TX,77040,"(713) 570-5021",http://www.davidweekleyhomes.com/,,,
TX,HARRIS,2103250086,"Single Family Homes",3/16/2021,,69930,2331,"19814 UPPER CANYON CT",HOUSTON,TX,77356,"BRIDGELAND PARKLAND VILLAGE",,CONTRACTOR,,,,,,,,,,,"DAVID WEEKLEY HOMES",,,,,"DAVID WEEKLEY HOMES","14444 NORTHWEST",HOUSTON,TX,77040,"(713) 570-5021",http://www.davidweekleyhomes.com/,,,
TX,HARRIS,2103190099,"Single Family Homes",3/16/2021,,111300,1713,"8718 WOOSTER TRAILS DR",HOUSTON,TX,77356,"WOOSTER CROSSING",,CONTRACTOR,,,,,,,,,,,"LENNAR HOMES",,,,,"LENNAR HOMES","550 GREENS PKWY",HOUSTON,TX,77067-4537,"(281) 875-1000",http://www.lennar.com/,,,
TX,HARRIS,2103190101,"Single Family Homes",3/16/2021,,122000,1885,"1103 BREECH DR",HOUSTON,TX,77356,,,CONTRACTOR,,,,,,,,,,,"LENNAR HOMES",,,,,"LENNAR HOMES","550 GREENS PKWY",HOUSTON,TX,77067-4537,"(281) 875-1000",http://www.lennar.com/,,,
TX,HARRIS,2103190109-RESB-001,"Single Family Homes",3/16/2021,,133000,2051,"8722 WOOSTER TRAILS DR",HOUSTON,TX,77356,"WOOSTER CROSSING",,CONTRACTOR,,,,,,,,,,,"LENNAR HOMES",,,,,"LENNAR HOMES","550 GREENS PKWY",HOUSTON,TX,77067-4537,"(281) 875-1000",http://www.lennar.com/,,,
TX,HARRIS,2103190111,"Single Family Homes",3/16/2021,,107000,1648,"8715 WOOSTER TRAILS DR",HOUSTON,TX,77356,"WOOSTER CROSSING",,CONTRACTOR,,,,,,,,,,,"LENNAR HOMES",,,,,"LENNAR HOMES","550 GREENS PKWY",HOUSTON,TX,77067-4537,"(281) 875-1000",http://www.lennar.com/,,,
TX,HARRIS,2103240065,"Single Family Homes",3/16/2021,,144300,2221,"4611 RED YUCCA DR",HOUSTON,TX,77356,"ASHBEL CROSSING ",,CONTRACTOR,,,,,,,,,,,"LENNAR HOMES",,,,,"LENNAR HOMES","550 GREENS PKWY",HOUSTON,TX,77067-4537,"(281) 875-1000",http://www.lennar.com/,,,
TX,HARRIS,2103250128,"Single Family Homes",3/16/2021,,133925,2435,"15310 DAVAN SPRINGS DR",HOUSTON,TX,77356,BALMORAL,,CONTRACTOR,,,,,,,,,,,"CASTLEROCK COMMUNITIES",,,,,"CASTLEROCK COMMUNITIES","7670 WOODWAY DR STE 300",HOUSTON,TX,77063-1520,"(713) 600-7000",http://c-rock.com,"(713) 600-0000",,
TX,HARRIS,2103180116,"Single Family Homes",3/16/2021,,78690,2623,"18327 SUNSET ELM DR",HOUSTON,TX,77356,"TOWNE LAKE",,CONTRACTOR,,,,,,,,,,,"DAVID WEEKLEY HOMES",,,,,"DAVID WEEKLEY HOMES","14444 NORTHWEST",HOUSTON,TX,77040,"(713) 570-5021",http://www.davidweekleyhomes.com/,,,
TX,HARRIS,2103110062,"Single Family Homes",3/16/2021,,698500,4298,"11018 CLOIS VISTA DR",HOUSTON,TX,77356,"TOWNE LAKE",,CONTRACTOR,,,,,,,,,,,"CALDWELL HOMES",,,,,"CALDWELL HOMES","18127 TWILIGHT SHORES LN",CYPRESS,TX,77433-7046,"(281) 378-3364",http://caldwellhomes.com/,,,info@caldwellhomes.com
TX,HARRIS,2103110066,"Single Family Homes",3/16/2021,,829500,3600,"11010 CLOIS VISTA DR",HOUSTON,TX,77356,"TOWNE LAKE",,CONTRACTOR,,,,,,,,,,,"CALDWELL HOMES",,,,,"CALDWELL HOMES","18127 TWILIGHT SHORES LN",CYPRESS,TX,77433-7046,"(281) 378-3364",http://caldwellhomes.com/,,,info@caldwellhomes.com
TX,HARRIS,2103250146,"Single Family Homes",3/16/2021,,150000,1717,"17507 CUTHBERT ST",HOUSTON,TX,77356,MERRYLANDS,,CONTRACTOR,,,,,,,,,,,"LEGEND HOMES",,,,,"LEGEND HOMES","10410 WINDAMERE LAKES BLVD",HOUSTON,TX,77065-4996,"(281) 671-9060",http://legendhomecorp.com/,"(281) 671-9055",,
TX,HARRIS,2103170111,"Single Family Homes",3/16/2021,,78480,1962,"20138 PERCHERON PARK LN",HOUSTON,TX,77356,AMIRA,,CONTRACTOR,,,,,,,,,,,"BEAZER HOMES ",,,,,"BEAZER HOMES ","10235 W LITTLE YORK",HOUSTON,TX,77040,"(713) 849-2252",http://www.beazer.com/,,,
TX,HARRIS,2103220083,"Single Family Homes",3/16/2021,,78440,1961,"6210 FALLEN ARBOR LN",HOUSTON,TX,77356,ELYSON,,CONTRACTOR,,,,,,,,,,,"BEAZER HOMES ",,,,,"BEAZER HOMES ","10235 W LITTLE YORK",HOUSTON,TX,77040,"(713) 849-2252",http://www.beazer.com/,,,
TX,HARRIS,2103250135,"Single Family Homes",3/16/2021,,112480,2812,"5311 SUNNY RAY DR",HOUSTON,TX,77356,MARISOL,,CONTRACTOR,,,,,,,,,,,"BEAZER HOMES ",,,,,"BEAZER HOMES ","10235 W LITTLE YORK",HOUSTON,TX,77040,"(713) 849-2252",http://www.beazer.com/,,,
TX,HARRIS,2103250142,"Single Family Homes",3/16/2021,,79640,1991,"5319 MARISOL COVE DR",HOUSTON,TX,77356,MARISOL,,CONTRACTOR,,,,,,,,,,,"BEAZER HOMES ",,,,,"BEAZER HOMES ","10235 W LITTLE YORK",HOUSTON,TX,77040,"(713) 849-2252",http://www.beazer.com/,,,
TX,HARRIS,2103250143,"Single Family Homes",3/16/2021,,92400,2310,"5318 SUNNY RAY DR",HOUSTON,TX,77356,MARISOL,,CONTRACTOR,,,,,,,,,,,"BEAZER HOMES ",,,,,"BEAZER HOMES ","10235 W LITTLE YORK",HOUSTON,TX,77040,"(713) 849-2252",http://www.beazer.com/,,,
TX,HARRIS,2103250144,"Single Family Homes",3/16/2021,,73240,1831,"5322 SUNNY RAY DR",HOUSTON,TX,77356,MARISOL,,CONTRACTOR,,,,,,,,,,,"BEAZER HOMES ",,,,,"BEAZER HOMES ","10235 W LITTLE YORK",HOUSTON,TX,77040,"(713) 849-2252",http://www.beazer.com/,,,
TX,HARRIS,2103250147,"Single Family Homes",3/16/2021,,99080,2477,"4418 FRONTIER TRL",HOUSTON,TX,77356,"ASHBEL CROSSING ",,CONTRACTOR,,,,,,,,,,,"BEAZER HOMES ",,,,,"BEAZER HOMES ","10235 W LITTLE YORK",HOUSTON,TX,77040,"(713) 849-2252",http://www.beazer.com/,,,
TX,MONTGOMERY,182075-21,"Single Family Homes",3/24/2021,,300000,,"11535 GRAND PINE DR",HOUSTON,TX,77356,"GRAND HARBOR",,CONTRACTOR,,,,,,,,,,,"AES SEPTIC",,,,,"AES SEPTIC","30703 N CRIPPLE CREEK DR",MAGNOLIA,TX,77354-1973,"(281) 356-5000",,,,
TX,MONTGOMERY,182156-21,"Single Family Homes",3/26/2021,,100000,,"24490 DRIVERS ROAD",HOUSTON,TX,77356,"SPLENDORA FARMS",,CONTRACTOR,,,,,,,,,,,"AES SEPTIC",,,,,"AES SEPTIC","30703 N CRIPPLE CREEK DR",MAGNOLIA,TX,77354-1973,"(281) 356-5000",,,,
TX,MONTGOMERY,182157-21,"Single Family Homes",3/26/2021,,160000,,"16958 W HAMMON",HOUSTON,TX,77356,"LAKE CONROE VILLAGE",,CONTRACTOR,,,,,,,,,,,"ALTA DEVELOPMENT GROUP",,,,,"ALTA DEVELOPMENT GROUP","3915 W DAVIS STE 130",CONROE,TX,77304,"(956) 578-2704",,,,
TX,MONTGOMERY,182161-21,"Single Family Homes",3/26/2021,,165000,,"16973 GLENHEATH",HOUSTON,TX,77356,"LAKE CONROE VILLAGE",,CONTRACTOR,,,,,,,,,,,"ALTA DEVELOPMENT GROUP",,,,,"ALTA DEVELOPMENT GROUP","3915 W DAVIS STE 130",CONROE,TX,77304,"(956) 578-2704",,,,
TX,MONTGOMERY,182164-21,"Single Family Homes",3/26/2021,,160000,,"16974 W HAMMON",HOUSTON,TX,77356,"LAKE CONROE VILLAGE",,CONTRACTOR,,,,,,,,,,,"ALTA DEVELOPMENT GROUP",,,,,"ALTA DEVELOPMENT GROUP","3915 W DAVIS STE 130",CONROE,TX,77304,"(956) 578-2704",,,,
TX,MONTGOMERY,182165-21,"Single Family Homes",3/26/2021,,334000,,"6295 ROLLING HILLS ROAD",HOUSTON,TX,77356,"DEER TRAIL ESTATES",,CONTRACTOR,,,,,,,,,,,"ALTA DEVELOPMENT GROUP",,,,,"ALTA DEVELOPMENT GROUP","3915 W DAVIS STE 130",CONROE,TX,77304,"(956) 578-2704",,,,
TX,MONTGOMERY,181993-21,"Single Family Homes",3/23/2021,,642347,,"24828 JOHNSON ROAD",HOUSTON,TX,77356,,,"ELLERY ANDREW","11306 CEDARWOOD",HUMBLE,TX,77338,,Owner,,,,,OWNER,,,,,OWNER,,,,,,,,,
TX,MONTGOMERY,181909-21,"Single Family Homes",3/22/2021,,170619,,"15306 GOLDENEYE PLACE",HOUSTON,TX,77356,"AUDUBON CREEKSIDE",,CONTRACTOR,,,,,,,,,,,"ANGLIA HOMES",,,,,"ANGLIA HOMES","17510 RED OAK DR",HOUSTON,TX,77090,"(281) 943-5288",http://www.angliahomeslp.com/,,,
TX,MONTGOMERY,181911-21,"Single Family Homes",3/22/2021,,172194,,"15407 BELLS VIREO CT",HOUSTON,TX,77356,"AUDUBON CREEKSIDE",,CONTRACTOR,,,,,,,,,,,"ANGLIA HOMES",,,,,"ANGLIA HOMES","17510 RED OAK DR",HOUSTON,TX,77090,"(281) 943-5288",http://www.angliahomeslp.com/,,,
TX,MONTGOMERY,181912-21,"Single Family Homes",3/22/2021,,148569,,"15403 BELLS VIREO CT",HOUSTON,TX,77356,"AUDUBON CREEKSIDE",,CONTRACTOR,,,,,,,,,,,"ANGLIA HOMES",,,,,"ANGLIA HOMES","17510 RED OAK DR",HOUSTON,TX,77090,"(281) 943-5288",http://www.angliahomeslp.com/,,,
TX,MONTGOMERY,181961-21,"Single Family Homes",3/23/2021,,152244,,"15310 GOLDENEYE PLACE",HOUSTON,TX,77356,"AUDUBON CREEKSIDE",,CONTRACTOR,,,,,,,,,,,"ANGLIA HOMES",,,,,"ANGLIA HOMES","17510 RED OAK DR",HOUSTON,TX,77090,"(281) 943-5288",http://www.angliahomeslp.com/,,,
TX,MONTGOMERY,181919-21,"Single Family Homes",3/22/2021,,247440,,"8227 CHARTRES WIND DR",HOUSTON,TX,77356,NORTHGROVE,,CONTRACTOR,,,,,,,,,,,"ASHTON WOODS HOMES",,,,,"ASHTON WOODS HOMES","10110 W SAM HOUSTON PKWY N",HOUSTON,TX,77064-7508,"(832) 478-9028",,,,
TX,MONTGOMERY,181920-21,"Single Family Homes",3/22/2021,,140640,,"8219 CHARTRES WIND DR",HOUSTON,TX,77356,NORTHGROVE,,CONTRACTOR,,,,,,,,,,,"ASHTON WOODS HOMES",,,,,"ASHTON WOODS HOMES","10110 W SAM HOUSTON PKWY N",HOUSTON,TX,77064-7508,"(832) 478-9028",,,,
TX,MONTGOMERY,181921-21,"Single Family Homes",3/22/2021,,257400,,"8693 BURDEKIN ROAD",HOUSTON,TX,77356,NORTHGROVE,,CONTRACTOR,,,,,,,,,,,"ASHTON WOODS HOMES",,,,,"ASHTON WOODS HOMES","10110 W SAM HOUSTON PKWY N",HOUSTON,TX,77064-7508,"(832) 478-9028",,,,
TX,MONTGOMERY,182048-21,"Single Family Homes",3/24/2021,,580000,,"11606 SEBASTIANS RUN",HOUSTON,TX,77356,"GRAND LAKE ESTATES",,"BRICROC INC","11555 LAURENS WAY",MONTGOMERY,TX,77316,,Owner,,,,,OWNER,,,,,OWNER,,,,,,,,,
TX,MONTGOMERY,182119-21,"Single Family Homes",3/25/2021,,104225,,"215 LAKE VIEW DR",HOUSTON,TX,77356,"CAPE CONROE",,CONTRACTOR,,,,,,,,,,,"CAMILLO PROPERTIES",,,,,"CAMILLO PROPERTIES","6707 GESSNER RD",HOUSTON,TX,77040-4017,"(832) 500-0284",http://www.camillorentalhomes.com/,"(281) 325-0245",,
TX,MONTGOMERY,182123-21,"Single Family Homes",3/25/2021,,111595,,"3713 NORTHSHORE DR",HOUSTON,TX,77356,"WALDEN ON LAKE CONROE",,CONTRACTOR,,,,,,,,,,,"CAMILLO PROPERTIES",,,,,"CAMILLO PROPERTIES","6707 GESSNER RD",HOUSTON,TX,77040-4017,"(832) 500-0284",http://www.camillorentalhomes.com/,"(281) 325-0245",,
TX,MONTGOMERY,182124-21,"Single Family Homes",3/25/2021,,111595,,"3709 NORTHSHORE DR",HOUSTON,TX,77356,"WALDEN ON LAKE CONROE",,CONTRACTOR,,,,,,,,,,,"CAMILLO PROPERTIES",,,,,"CAMILLO PROPERTIES","6707 GESSNER RD",HOUSTON,TX,77040-4017,"(832) 500-0284",http://www.camillorentalhomes.com/,"(281) 325-0245",,
TX,MONTGOMERY,182125-21,"Single Family Homes",3/25/2021,,104225,,"3705 NORTHSHORE DR",HOUSTON,TX,77356,"WALDEN ON LAKE",,CONTRACTOR,,,,,,,,,,,"CAMILLO PROPERTIES",,,,,"CAMILLO PROPERTIES","6707 GESSNER RD",HOUSTON,TX,77040-4017,"(832) 500-0284",http://www.camillorentalhomes.com/,"(281) 325-0245",,
TX,MONTGOMERY,182137-21,"Single Family Homes",3/25/2021,,200000,,"12328 NORTH CHESTNUT HILLS DR",HOUSTON,TX,77356,"DEER TRAIL ESTATES",,"OLIDIA CASTILLA ","1715 SUMMERGATE DR",CONROE,TX,77306,,Owner,,,,,OWNER,,,,,OWNER,,,,,,,,,
TX,MONTGOMERY,182140-21,"Single Family Homes",3/25/2021,,200000,,"12336 NORTH CHESTNUT HILLS",HOUSTON,TX,77356,"DEER TRAIL ESTATES",,"OLIDIA CASTILLA","1715 SUMMERGATE DR",CONROE,TX,77306,,Owner,,,,,OWNER,,,,,OWNER,,,,,,,,,
TX,MONTGOMERY,182028-21,"Single Family Homes",3/24/2021,,217555,,"18648 BIRCH ORCHARD CT",HOUSTON,TX,77356,"GLEN OAKS",,CONTRACTOR,,,,,,,,,,,"CASTLEROCK COMMUNITIES",,,,,"CASTLEROCK COMMUNITIES","7670 WOODWAY DR STE 300",HOUSTON,TX,77063-1520,"(713) 600-7000",http://c-rock.com,"(713) 600-0000",,
TX,MONTGOMERY,182020-21,"Single Family Homes",3/24/2021,,100294,,"14214 GREEN WING CIRCLE",HOUSTON,TX,77356,"TEAL CROSSING",,CONTRACTOR,,,,,,,,,,,"CENTURY COMMUNITIES",,,,,"CENTURY COMMUNITIES","4700 W SAM HOUSTON PKWY N STE 130",HOUSTON,TX,77041-8219,"(281) 741-8946",https://www.centurycommunities.com/,,,
TX,MONTGOMERY,182021-21,"Single Family Homes",3/24/2021,,116578,,"13026 NORTH GREEN WING CIRCLE",HOUSTON,TX,77356,"TEAL CROSSING",,CONTRACTOR,,,,,,,,,,,"CENTURY COMMUNITIES",,,,,"CENTURY COMMUNITIES","4700 W SAM HOUSTON PKWY N STE 130",HOUSTON,TX,77041-8219,"(281) 741-8946",https://www.centurycommunities.com/,,,
TX,MONTGOMERY,182023-21,"Single Family Homes",3/24/2021,,111680,,"14210 GREEN WING CIRCLE",HOUSTON,TX,77356,"TEAL CROSSING",,CONTRACTOR,,,,,,,,,,,"CENTURY COMMUNITIES",,,,,"CENTURY COMMUNITIES","4700 W SAM HOUSTON PKWY N STE 130",HOUSTON,TX,77041-8219,"(281) 741-8946",https://www.centurycommunities.com/,,,
TX,MONTGOMERY,182031-21,"Single Family Homes",3/24/2021,,106534,,"13020 NORTH GREEN WING CIRCLE",HOUSTON,TX,77356,"TEAL CROSSING",,CONTRACTOR,,,,,,,,,,,"CENTURY COMMUNITIES",,,,,"CENTURY COMMUNITIES","4700 W SAM HOUSTON PKWY N STE 130",HOUSTON,TX,77041-8219,"(281) 741-8946",https://www.centurycommunities.com/,,,
TX,MONTGOMERY,182032-21,"Single Family Homes",3/24/2021,,98750,,"14535 WEIR CREEK ROAD",HOUSTON,TX,77356,"TEAL CROSSING",,CONTRACTOR,,,,,,,,,,,"CENTURY COMMUNITIES",,,,,"CENTURY COMMUNITIES","4700 W SAM HOUSTON PKWY N STE 130",HOUSTON,TX,77041-8219,"(281) 741-8946",https://www.centurycommunities.com/,,,
TX,MONTGOMERY,182033-21,"Single Family Homes",3/24/2021,,104806,,"14527 WEIR CREEK ROAD",HOUSTON,TX,77356,"TEAL CROSSING",,CONTRACTOR,,,,,,,,,,,"CENTURY COMMUNITIES",,,,,"CENTURY COMMUNITIES","4700 W SAM HOUSTON PKWY N STE 130",HOUSTON,TX,77041-8219,"(281) 741-8946",https://www.centurycommunities.com/,,,
TX,MONTGOMERY,182079-21,"Single Family Homes",3/25/2021,,145912,,"232 NORTH CASCADE HEIGHTS DR",HOUSTON,TX,77356,WOODFOREST,,CONTRACTOR,,,,,,,,,,,"CHESMAR HOMES",,,,,"CHESMAR HOMES","450 GEARS RD STE 400",HOUSTON,TX,77067-4513,"(281) 598-1111",http://chesmar.com,"(281) 598-1115",,customerservice.houston@chesmar.com
TX,MONTGOMERY,182080-21,"Single Family Homes",3/25/2021,,181935,,"353 ANDES DR",HOUSTON,TX,77356,WOODFOREST,,CONTRACTOR,,,,,,,,,,,"CHESMAR HOMES",,,,,"CHESMAR HOMES","450 GEARS RD STE 400",HOUSTON,TX,77067-4513,"(281) 598-1111",http://chesmar.com,"(281) 598-1115",,customerservice.houston@chesmar.com
TX,MONTGOMERY,182082-21,"Single Family Homes",3/25/2021,,145546,,"260 SOUTH SPOTTED FERN DR",HOUSTON,TX,77356,WOODFOREST,,CONTRACTOR,,,,,,,,,,,"CHESMAR HOMES",,,,,"CHESMAR HOMES","450 GEARS RD STE 400",HOUSTON,TX,77067-4513,"(281) 598-1111",http://chesmar.com,"(281) 598-1115",,customerservice.houston@chesmar.com
TX,MONTGOMERY,182084-21,"Single Family Homes",3/25/2021,,143198,,"256 SOUTH SPOTTED FERN DR",HOUSTON,TX,77356,WOODFOREST,,CONTRACTOR,,,,,,,,,,,"CHESMAR HOMES",,,,,"CHESMAR HOMES","450 GEARS RD STE 400",HOUSTON,TX,77067-4513,"(281) 598-1111",http://chesmar.com,"(281) 598-1115",,customerservice.houston@chesmar.com
TX,MONTGOMERY,182086-21,"Single Family Homes",3/25/2021,,187269,,"10259 BAYOU OAKS DR",HOUSTON,TX,77356,"HARPERS PRESERVE",,CONTRACTOR,,,,,,,,,,,"CHESMAR HOMES",,,,,"CHESMAR HOMES","450 GEARS RD STE 400",HOUSTON,TX,77067-4513,"(281) 598-1111",http://chesmar.com,"(281) 598-1115",,customerservice.houston@chesmar.com
TX,MONTGOMERY,182049-21,"Single Family Homes",3/24/2021,,144979,,"18752 CRESCENT TRAILS CIRCLE",HOUSTON,TX,77356,"RESERVE ON LAKE",,"YINA CHI","5210 SPRUCE STREET",BELLAIRE,TX,77401,,Owner,,,,,OWNER,,,,,OWNER,,,,,,,,,
TX,MONTGOMERY,182050-21,"Single Family Homes",3/24/2021,,144979,,"18784 CRESCENT TRAILS CIRCLE",HOUSTON,TX,77356,"RESERVE ON LAKE CONROE",,"YINA CHI","5210 SPRUCE STREET",BELLAIRE,TX,77401,,Owner,,,,,OWNER,,,,,OWNER,,,,,,,,,
TX,MONTGOMERY,182051-21,"Single Family Homes",3/24/2021,,144979,,"18705 CRESCENT TRAILS CIRCLE",HOUSTON,TX,77356,"RESERVE AT LAKE CONROE",,"YINA CHI","5210 SPRUCE ST",BELLAIRE,TX,77401,,Owner,,,,,OWNER,,,,,OWNER,,,,,,,,,
TX,MONTGOMERY,182054-21,"Single Family Homes",3/24/2021,,144979,,"18776 CRESCENT TRAILS CIRCLE",HOUSTON,TX,77356,"RESERVE ON LAKE CONROE",,"YINA CHI ","5210 SPRUCE ST",BELLAIRE,TX,77401,,Owner,,,,,OWNER,,,,,OWNER,,,,,,,,,
TX,MONTGOMERY,182055-21,"Single Family Homes",3/24/2021,,144979,,"18744 CRESCENT TRAILS CIRCLE",HOUSTON,TX,77356,"RESERVE ON LAKE",,"YINA CHI","5210 SPRUCE ST",BELLAIRE,TX,77401,,Owner,,,,,OWNER,,,,,OWNER,,,,,,,,,
TX,MONTGOMERY,182057-21,"Single Family Homes",3/24/2021,,144979,,"18713 CRESCENT TRAILS CIRCLE",HOUSTON,TX,77356,"RESERVE ON LAKE",,"YINA CHI","5210 SPRUCE ST",BELLAIRE,TX,77401,,Owner,,,,,OWNER,,,,,OWNER,,,,,,,,,
TX,MONTGOMERY,182059-21,"Single Family Homes",3/24/2021,,144979,,"18768 CRESCENT TRAILS CIRCLE",HOUSTON,TX,77356,"RESERVE ON LAKE",,"YINA CHI","5210 SPRUCE ST",BELLAIRE,TX,77401,,Owner,,,,,OWNER,,,,,OWNER,,,,,,,,,
TX,MONTGOMERY,182066-21,"Single Family Homes",3/24/2021,,144979,,"18792 CRESCENT TRAILS CIRCLE",HOUSTON,TX,77356,"RESERVE ON LAKE CONROE",,"YINA CHI","5210 SPRUCE ST",BELLAIRE,TX,77401,,Owner,,,,,OWNER,,,,,OWNER,,,,,,,,,
TX,MONTGOMERY,182067-21,"Single Family Homes",3/24/2021,,144979,,"18815 CRESENT TRAILS CIRCLE",HOUSTON,TX,77356,"RESERVE ON LAKE CONROE",,"YINA CHI","5210 SPRUCE ST",BELLAIRE,TX,77401,,Owner,,,,,OWNER,,,,,OWNER,,,,,,,,,
TX,MONTGOMERY,182069-21,"Single Family Homes",3/24/2021,,144979,,"18760 CRESCENT TRAILS CIRCLE",HOUSTON,TX,77356,"RESERVE ON LAKE CONROE",,"YINA CHI","5210 SPRUCE ST",BELLAIRE,TX,77401,,Owner,,,,,OWNER,,,,,OWNER,,,,,,,,,
TX,MONTGOMERY,182070-21,"Single Family Homes",3/24/2021,,144615,,"18764 CRESCENT TRAILS CIRCLE",HOUSTON,TX,77356,"RESERVE ON LAKE",,"YINA CHI","5210 SPRUCE ST",BELLAIRE,TX,77401,,Owner,,,,,OWNER,,,,,OWNER,,,,,,,,,
TX,MONTGOMERY,182071-21,"Single Family Homes",3/24/2021,,144615,,"18811 CRESCENT TRAILS CIRCLE",HOUSTON,TX,77356,"RESERVE ON LAKE",,"YINA CHI","5210 SPRUCE ST",BELLAIRE,TX,77401,,Owner,,,,,OWNER,,,,,OWNER,,,,,,,,,
TX,MONTGOMERY,182081-21,"Single Family Homes",3/25/2021,,144615,,"18780 CRESCENT TRAILS CIRCLE",HOUSTON,TX,77356,"RESERVE ON LAKE CONROE",,"YINA CHI","5210 SPRUCE ST",BELLAIRE,TX,77401,,Owner,,,,,OWNER,,,,,OWNER,,,,,,,,,
TX,MONTGOMERY,182083-21,"Single Family Homes",3/25/2021,,144615,,"18748 CRESCENT TRAILS CIRCLE",HOUSTON,TX,77356,"RESERVE ON LAKE CONROE",,"YINA CHI","5210 SPRUCE ST",BELLAIRE,TX,77401,,Owner,,,,,OWNER,,,,,OWNER,,,,,,,,,
TX,MONTGOMERY,182085-21,"Single Family Homes",3/25/2021,,144615,,"18709 CRESCENT TRAILS CIRCLE",HOUSTON,TX,77356,"RESERVE ON LAKE",,"YINA CHI","5210 SPRUCE ST",BELLAIRE,TX,77401,,Owner,,,,,OWNER,,,,,OWNER,,,,,,,,,
TX,MONTGOMERY,182087-21,"Single Family Homes",3/25/2021,,144615,,"18788 CRESCENT TRAILS CIRCLE",HOUSTON,TX,77356,"RESERVE ON LAKE",,"YINA CHI","5210 SPRUCE ST",BELLAIRE,TX,77401,,Owner,,,,,OWNER,,,,,OWNER,,,,,,,,,
TX,MONTGOMERY,182088-21,"Single Family Homes",3/25/2021,,144615,,"18772 CRESCENT TRAILS CIRCLE",HOUSTON,TX,77356,"RESERVE ON LAKE",,"YINA CHI","5210 SPRUCE ST",BELLAIRE,TX,77401,,Owner,,,,,OWNER,,,,,OWNER,,,,,,,,,
TX,MONTGOMERY,182018-21,"Single Family Homes",3/24/2021,,813200,,"17681 RABON CHAPEL ROAD",HOUSTON,TX,77356,,,"STEPHEN CHRUSZCZAK","18 MOSS BLUFF COURT","THE WOODLANDS",TX,77356,,Owner,,,,,OWNER,,,,,OWNER,,,,,,,,,
TX,BRAZOS,21-0736,"Single Family Homes",3/4/2021,,140844,1600,"2061 BRISBANE WAY",BRYAN,TX,77803,"PLEASANT HILL",2,CONTRACTOR,,,,,,,,,,,"STYLECRAFT BUILDERS ",,,,,"STYLECRAFT BUILDERS ","4090 STATE HIGHWAY 6 S","COLLEGE STATION",TX,77845-8962,"(979) 764-9900",,"(979) 690-3069","TANNER BREWSTER",tabrewster@stylecraft-builders.com
TX,MONTGOMERY,182024-21,"Single Family Homes",3/24/2021,,120000,,"10037 OCELOT CT",HOUSTON,TX,77356,"MILL CREEK",,CONTRACTOR,,,,,,,,,,,"COLINA HOMES",,,,,"COLINA HOMES","1314 N DURHAM DR",HOUSTON,TX,77008-3734,"(281) 528-9090",http://colinahomes.com/,,,postmaster@colinahomes.com
TX,MONTGOMERY,182025-21,"Single Family Homes",3/24/2021,,120000,,"10012 GOLD FINCH RUN",HOUSTON,TX,77356,"MILL CREEK",,CONTRACTOR,,,,,,,,,,,"COLINA HOMES",,,,,"COLINA HOMES","1314 N DURHAM DR",HOUSTON,TX,77008-3734,"(281) 528-9090",http://colinahomes.com/,,,postmaster@colinahomes.com
TX,BRAZOS,21-0738,"Single Family Homes",3/4/2021,,116688,1349,"2059 BRISBANE WAY",BRYAN,TX,77803,"PLEASANT HILL",3,CONTRACTOR,,,,,,,,,,,"STYLECRAFT BUILDERS ",,,,,"STYLECRAFT BUILDERS ","4090 STATE HIGHWAY 6 S","COLLEGE STATION",TX,77845-8962,"(979) 764-9900",,"(979) 690-3069","TANNER BREWSTER",tabrewster@stylecraft-builders.com
TX,BRAZOS,21-0774,"Single Family Homes",3/5/2021,,165924,197,"4700 VIA VERDE WAY",BRYAN,TX,77801,"ALAMOSA SPRINGS",10,CONTRACTOR,,,,,,,,,,,"LEGEND CLASSIC HOMES",,,,,"LEGEND CLASSIC HOMES","6634 BEESTON HILL DR",KATY,TX,77449-0195,"(281) 463-9950",http://legendhomeshouston.com/,,,
TX,BRAZOS,21-0653,"Single Family Homes",3/9/2021,,378265,2670,"3209 OLD SPRING WAY",BRYAN,TX,77808,GREENBRIER,3,CONTRACTOR,,,,,,,,,,,"ROBBIE ROBINSON",,,,,"ROBBIE ROBINSON","3800 S H 6 S 104","COLLEGE STATION",TX,77845,"(832) 692-1932",,,,
TX,MONTGOMERY,182026-21,"Single Family Homes",3/24/2021,,120000,,"10004 GOLD FINCH RUN",HOUSTON,TX,77356,"MILL CREEK",,CONTRACTOR,,,,,,,,,,,"COLINA HOMES",,,,,"COLINA HOMES","1314 N DURHAM DR",HOUSTON,TX,77008-3734,"(281) 528-9090",http://colinahomes.com/,,,postmaster@colinahomes.com
TX,BRAZOS,20-4902,"Single Family Homes",3/10/2021,,105336,1386,"110 N BREWER DR",BRYAN,TX,77802,BROWN,,CONTRACTOR,,,,,,,,,,,"HANCOCK CUSTOM HOMES",,,,,"HANCOCK CUSTOM HOMES","PO BOX 11214","COLLEGE STATION",TX,77842-1214,"(979) 412-6301",http://www.homesbyhancock.com/,,,info@homesbyhancock.com
TX,MONTGOMERY,182034-21,"Single Family Homes",3/24/2021,,280000,,"9009 LEGACY CREEK CT",HOUSTON,TX,77356,"WOOD CREEK ESTATES",,"DILLON CONLEY","PO BOX 273",CONROE,TX,77305,,Owner,,,,,OWNER,,,,,OWNER,,,,,,,,,
TX,MONTGOMERY,182133-21,"Single Family Homes",3/25/2021,,183560,,"9829 HUNTER SPRINGS DR",HOUSTON,TX,77356,"LAKEWOOD TRAILS",,"DILLON CONLEY","PO BOX 273",CONROE,TX,77305,,Owner,,,,,OWNER,,,,,OWNER,,,,,,,,,
TX,MONTGOMERY,182138-21,"Single Family Homes",3/25/2021,,115895,,"9816 COLD CREEK DR",HOUSTON,TX,77356,"LAKEWOOD TRAILS",,"DILLON CONLEY","PO BOX 273",CONROE,TX,77305,,Owner,,,,,OWNER,,,,,OWNER,,,,,,,,,
TX,BRAZOS,21-0560,"Single Family Homes",3/11/2021,,320000,2572,"2706 THORNBERRY DR",BRYAN,TX,77808,"AUSTINS ESTATES",6,CONTRACTOR,,,,,,,,,,,"COURT & SONS",,,,,"COURT & SONS","5029 WALLIS RD",BRYAN,TX,77808,"(979) 820-0020",,,,
TX,MONTGOMERY,182142-21,"Single Family Homes",3/26/2021,,155350,,"9817 HUNTER SPRINGS DR",HOUSTON,TX,77356,"LAKEWOOD TRAILS",,"DILLON CONLEY","PO BOX 273",CONROE,TX,77305,,Owner,,,,,OWNER,,,,,OWNER,,,,,,,,,
TX,MONTGOMERY,182205-21,"Single Family Homes",3/26/2021,,134680,,"9841 HUNTER SPRINGS DR",HOUSTON,TX,77356,"LAKEWOOD TRAILS",,"DILLON CONLEY","PO BOX 273",CONROE,TX,77305,,Owner,,,,,OWNER,,,,,OWNER,,,,,,,,,
TX,BRAZOS,21-0836,"Single Family Homes",3/11/2021,,175000,2111,"2124 MOUNTAIN WIND LP",BRYAN,TX,77807,"AUTUMN RIDGE",9,CONTRACTOR,,,,,,,,,,,"OAKWOOD CUSTOM HOMES",,,,,"OAKWOOD CUSTOM HOMES","4060 STATE HIGHWAY 6 S ","COLLEGE STATION",TX,77845-8962,"(979) 690-1504",http://oakchb.com/,"(979) 690-2504",,sales@oakchb.com
TX,MONTGOMERY,182212-21,"Single Family Homes",3/26/2021,,132210,,"9732 COLD CREEK DR",HOUSTON,TX,77356,"LAKEWOOD TRAILS",,"DILLON CONLEY","PO BOX 273",CONROE,TX,77305,,Owner,,,,,OWNER,,,,,OWNER,,,,,,,,,
TX,MONTGOMERY,182074-21,"Single Family Homes",3/24/2021,,156823,,"12341 NORTH CHESTNUT HILLS DR",HOUSTON,TX,77356,"DEER TRAIL ESTATES",,"ZINA CORPUS","4801 WOODWAY DRIVE STE 425-W",HOUSTON,TX,77356,,Owner,,,,,OWNER,,,,,OWNER,,,,,,,,,
TX,BRAZOS,21-0844,"Single Family Homes",3/11/2021,,221562,2587,"2091 VIVA RD",BRYAN,TX,77807,EDGEWATER,11,CONTRACTOR,,,,,,,,,,,"STYLECRAFT BUILDERS ",,,,,"STYLECRAFT BUILDERS ","4090 STATE HIGHWAY 6 S","COLLEGE STATION",TX,77845-8962,"(979) 764-9900",,"(979) 690-3069","TANNER BREWSTER",tabrewster@stylecraft-builders.com
TX,BRAZOS,21-0827,"Single Family Homes",3/11/2021,,174900,1833,"2022 BRISBANE WAY",BRYAN,TX,77803,"PLEASANT HILL",27,CONTRACTOR,,,,,,,,,,,"OMEGA BUILDERS GROUP",,,,,"OMEGA BUILDERS GROUP","7353 W ADAMS AVE",TEMPLE,TX,76502-5539,"(254) 773-9966",,,,
TX,BRAZOS,21-0773,"Single Family Homes",3/12/2021,,234876,2058,"3002 BLACKFOOT CT",BRYAN,TX,77808,"AUSTINS COLONY",4,CONTRACTOR,,,,,,,,,,,"CREEKVIEW CUSTOM BUILDERS",,,,,"CREEKVIEW CUSTOM BUILDERS","1489 CHEROKEE DR","COLLEGE STATION",TX,77845-8446,"(979) 412-5007",http://www.creekviewcustombuilders.com/,,,
TX,MONTGOMERY,181927-21,"Single Family Homes",3/22/2021,,124155,,"18219 WOOD PECKER TR",HOUSTON,TX,77356,"PORTERS MILL",,CONTRACTOR,,,,,,,,,,,"DR HORTON",,,,,"DR HORTON","14100 SOUTHWEST",HOUSTON,TX,77478,"(281) 201-5559",,,,
TX,MONTGOMERY,181928-21,"Single Family Homes",3/22/2021,,103050,,"18223 WOOD PECKER TR",HOUSTON,TX,77356,"PORTERS MILL",,CONTRACTOR,,,,,,,,,,,"DR HORTON",,,,,"DR HORTON","14100 SOUTHWEST",HOUSTON,TX,77478,"(281) 201-5559",,,,
TX,BRAZOS,21-0839,"Single Family Homes",3/12/2021,,130284,1443,"1907 SHIMLA CT",BRYAN,TX,77807,EDGEWATER,12,CONTRACTOR,,,,,,,,,,,"STYLECRAFT BUILDERS ",,,,,"STYLECRAFT BUILDERS ","4090 STATE HIGHWAY 6 S","COLLEGE STATION",TX,77845-8962,"(979) 764-9900",,"(979) 690-3069","TANNER BREWSTER",tabrewster@stylecraft-builders.com
TX,MONTGOMERY,181929-21,"Single Family Homes",3/22/2021,,133695,,"18227 WOOD PECKER TR",HOUSTON,TX,77356,"PORTERS MILL",,CONTRACTOR,,,,,,,,,,,"DR HORTON",,,,,"DR HORTON","14100 SOUTHWEST",HOUSTON,TX,77478,"(281) 201-5559",,,,
TX,BRAZOS,21-0869,"Single Family Homes",3/15/2021,,180000,2195,"2127 MOUNTAIN WIND LP",BRYAN,TX,77807,"AUTUMN RIDGE",14,CONTRACTOR,,,,,,,,,,,"OAKWOOD CUSTOM HOMES",,,,,"OAKWOOD CUSTOM HOMES","4060 STATE HIGHWAY 6 S ","COLLEGE STATION",TX,77845-8962,"(979) 690-1504",http://oakchb.com/,"(979) 690-2504",,sales@oakchb.com
TX,MONTGOMERY,181932-21,"Single Family Homes",3/22/2021,,89505,,"40411 RED POPPY LN",HOUSTON,TX,77356,"MILL CREEK ESTATES",,CONTRACTOR,,,,,,,,,,,"DR HORTON",,,,,"DR HORTON","14100 SOUTHWEST",HOUSTON,TX,77478,"(281) 201-5559",,,,
TX,BRAZOS,21-0493,"Single Family Homes",3/15/2021,,138672,1297,"1918 BASIL CT",BRYAN,TX,77801,"NORTHCREST COTTAGES",10,CONTRACTOR,,,,,,,,,,,"AVONLEY HOMES",,,,,"AVONLEY HOMES","3900 STATE HIGHWAY 6 S STE 110","COLLEGE STATION",TX,77845-5831,"(979) 635-4800",https://www.avonleyhomes.com/,,,info@avonleyhomes.com
TX,BRAZOS,21-0473,"Single Family Homes",3/15/2021,,145152,1385,"1929 BASIL CT",BRYAN,TX,77801,"NORTHCREST COTTAGES",29,CONTRACTOR,,,,,,,,,,,"AVONLEY HOMES",,,,,"AVONLEY HOMES","3900 STATE HIGHWAY 6 S STE 110","COLLEGE STATION",TX,77845-5831,"(979) 635-4800",https://www.avonleyhomes.com/,,,info@avonleyhomes.com
TX,BRAZOS,21-0834,"Single Family Homes",3/15/2021,,201123,1800,"3413 UTAH CT",BRYAN,TX,77808,"RUDDER POINTE",8,CONTRACTOR,,,,,,,,,,,"AVONLEY HOMES",,,,,"AVONLEY HOMES","3900 STATE HIGHWAY 6 S STE 110","COLLEGE STATION",TX,77845-5831,"(979) 635-4800",https://www.avonleyhomes.com/,,,info@avonleyhomes.com
TX,BRAZOS,20-4739,"Single Family Homes",3/16/2021,,193050,2047,"5002 GREYROCK DR",BRYAN,TX,77808,OAKMONT,2,CONTRACTOR,,,,,,,,,,,"RNL HOME BUILDERS",,,,,"RNL HOME BUILDERS","4253 ROCKY RHODES DRIVE","COLLEGE STATION",TX,77845,"(979) 402-2531",http://www.rnlhomebuilders.com,,,RNLHomebuilders@gmail.com
TX,BRAZOS,20-4738,"Single Family Homes",3/16/2021,,200178,2298,"5004 GREYROCK DR",BRYAN,TX,77808,OAKMONT,3,CONTRACTOR,,,,,,,,,,,"RNL HOME BUILDERS",,,,,"RNL HOME BUILDERS","4253 ROCKY RHODES DRIVE","COLLEGE STATION",TX,77845,"(979) 402-2531",http://www.rnlhomebuilders.com,,,RNLHomebuilders@gmail.com
TX,MONTGOMERY,181947-21,"Single Family Homes",3/23/2021,,110700,,"40445 RED POPPY LN",HOUSTON,TX,77356,"MILL CREEK ESTATES",,CONTRACTOR,,,,,,,,,,,"DR HORTON",,,,,"DR HORTON","14100 SOUTHWEST",HOUSTON,TX,77478,"(281) 201-5559",,,,
TX,BRAZOS,21-0022,"Single Family Homes",3/16/2021,,256000,2276,"4104 PEREGRINE CT",BRYAN,TX,77802,OAKMONT,6,CONTRACTOR,,,,,,,,,,,"RIDGEWOOD CUSTOM HOMES",,,,,"RIDGEWOOD CUSTOM HOMES","106 PHEASANT RUN CT",SUNSET,TX,76270-2176,"(940) 872-9911",,,,
TX,BRAZOS,21-0608,"Single Family Homes",3/16/2021,,220000,2556,"4114 PEREGRINE CT",BRYAN,TX,77802,OAKMONT,1,CONTRACTOR,,,,,,,,,,,"PITMAN CUSTOM HOMES",,,,,"PITMAN CUSTOM HOMES","1401 SEBESTA RD","COLLEGE STATION",TX,77845-5527,"(979) 693-6699",http://www.pitmancustomhomes.com,,JIMMY,
TX,MONTGOMERY,181949-21,"Single Family Homes",3/23/2021,,107460,,"40504 WARIALDA TRACE LN",HOUSTON,TX,77356,"MILL CREEK ESTATES",,CONTRACTOR,,,,,,,,,,,"DR HORTON",,,,,"DR HORTON","14100 SOUTHWEST",HOUSTON,TX,77478,"(281) 201-5559",,,,
TX,MONTGOMERY,181951-21,"Single Family Homes",3/23/2021,,89505,,"40508 WARIALDA TRACE LN",HOUSTON,TX,77356,"MILL CREEK ESTATES",,CONTRACTOR,,,,,,,,,,,"DR HORTON",,,,,"DR HORTON","14100 SOUTHWEST",HOUSTON,TX,77478,"(281) 201-5559",,,,
TX,MONTGOMERY,181952-21,"Single Family Homes",3/23/2021,,96120,,"40449 RED POPPY LN",HOUSTON,TX,77356,"MILL CREEK ESTATES",,CONTRACTOR,,,,,,,,,,,"DR HORTON",,,,,"DR HORTON","14100 SOUTHWEST",HOUSTON,TX,77478,"(281) 201-5559",,,,
TX,MONTGOMERY,181953-21,"Single Family Homes",3/23/2021,,110700,,"40415 RED POPPY LN",HOUSTON,TX,77356,"MILL CREEK ESTATES",,CONTRACTOR,,,,,,,,,,,"DR HORTON",,,,,"DR HORTON","14100 SOUTHWEST",HOUSTON,TX,77478,"(281) 201-5559",,,,
TX,MONTGOMERY,181956-21,"Single Family Homes",3/23/2021,,96120,,"40407 RED POPPY LN",HOUSTON,TX,77356,"MILL CREEK ESTATES",,CONTRACTOR,,,,,,,,,,,"DR HORTON",,,,,"DR HORTON","14100 SOUTHWEST",HOUSTON,TX,77478,"(281) 201-5559",,,,
TX,MONTGOMERY,181957-21,"Single Family Homes",3/23/2021,,107865,,"40403 RED POPPY LN",HOUSTON,TX,77356,"MILL CREEK ESTATES",,CONTRACTOR,,,,,,,,,,,"DR HORTON",,,,,"DR HORTON","14100 SOUTHWEST",HOUSTON,TX,77478,"(281) 201-5559",,,,
TX,MONTGOMERY,181958-21,"Single Family Homes",3/23/2021,,107460,,"14604 BELLARIA MANOR LN",HOUSTON,TX,77356,"MILL CREEK ESTATES",,CONTRACTOR,,,,,,,,,,,"DR HORTON",,,,,"DR HORTON","14100 SOUTHWEST",HOUSTON,TX,77478,"(281) 201-5559",,,,
TX,BRAZOS,21-0635,"Single Family Homes",3/16/2021,,223000,2534,"411 PEREGRINE CT",BRYAN,TX,77802,OAKMONT,1,CONTRACTOR,,,,,,,,,,,"HALL HOMES",,,,,"HALL HOMES","PO BOX 12341","COLLEGE STATION",TX,77842-2341,"(979) 551-5259",http://www.hallhomestx.com/,,,rhall@hallhomestx.com
TX,MONTGOMERY,181962-21,"Single Family Homes",3/23/2021,,132885,,"40423 RED POPPY LN",HOUSTON,TX,77356,"MILL CREEK ESTATES",,CONTRACTOR,,,,,,,,,,,"DR HORTON",,,,,"DR HORTON","14100 SOUTHWEST",HOUSTON,TX,77478,"(281) 201-5559",,,,
TX,BRAZOS,21-0528,"Single Family Homes",3/16/2021,,300000,2208,"4115 PEREGRINE CT",BRYAN,TX,77802,OAKMONT,2,CONTRACTOR,,,,,,,,,,,"MAGRUDER HOMES",,,,,"MAGRUDER HOMES","PO BOX 10572","COLLEGE STATION",TX,77842-0572,"(979) 324-6682",http://magruderhomes.com/,"(979) 696-2383",,john@magruderhomes.com
TX,MONTGOMERY,181963-21,"Single Family Homes",3/23/2021,,132975,,"40419 RED POPPY LN",HOUSTON,TX,77356,"MILL CREEK ESTATES",,CONTRACTOR,,,,,,,,,,,"DR HORTON",,,,,"DR HORTON","14100 SOUTHWEST",HOUSTON,TX,77478,"(281) 201-5559",,,,
TX,MONTGOMERY,181965-21,"Single Family Homes",3/23/2021,,110700,,"14616 BELLARIA MANOR LN",HOUSTON,TX,77356,"MILL CREEK ESTATES",,CONTRACTOR,,,,,,,,,,,"DR HORTON",,,,,"DR HORTON","14100 SOUTHWEST",HOUSTON,TX,77478,"(281) 201-5559",,,,
TX,BRAZOS,21-0853,"Single Family Homes",3/16/2021,,378265,2672,"3213 OLD SPRING WAY",BRYAN,TX,77808,GREENBRIER,4,CONTRACTOR,,,,,,,,,,,"ROBBIE ROBINSON",,,,,"ROBBIE ROBINSON","3800 S H 6 S 104","COLLEGE STATION",TX,77845,"(832) 692-1932",,,,
TX,MONTGOMERY,181966-21,"Single Family Homes",3/23/2021,,132885,,"14612 BELLARIA MANOR LN",HOUSTON,TX,77356,"MILL CREEK ESTATES",,CONTRACTOR,,,,,,,,,,,"DR HORTON",,,,,"DR HORTON","14100 SOUTHWEST",HOUSTON,TX,77478,"(281) 201-5559",,,,
TX,BRAZOS,20-4870,"Single Family Homes",3/16/2021,,171071,1829,"4300 APPALACHIAN TRL",BRYAN,TX,77802,OAKMONT,10,CONTRACTOR,,,,,,,,,,,"RNL HOME BUILDERS",,,,,"RNL HOME BUILDERS","4253 ROCKY RHODES DRIVE","COLLEGE STATION",TX,77845,"(979) 402-2531",http://www.rnlhomebuilders.com,,,RNLHomebuilders@gmail.com
TX,MONTGOMERY,181967-21,"Single Family Homes",3/23/2021,,81540,,"14608 BELLARIA MANOR LN",HOUSTON,TX,77356,"MILL CREEK ESTATES",,CONTRACTOR,,,,,,,,,,,"DR HORTON",,,,,"DR HORTON","14100 SOUTHWEST",HOUSTON,TX,77478,"(281) 201-5559",,,,
TX,BRAZOS,21-0848,"Single Family Homes",3/16/2021,,140316,1593,"2070 VIVA RD",BRYAN,TX,77807,EDGEWATER,20,CONTRACTOR,,,,,,,,,,,"STYLECRAFT BUILDERS ",,,,,"STYLECRAFT BUILDERS ","4090 STATE HIGHWAY 6 S","COLLEGE STATION",TX,77845-8962,"(979) 764-9900",,"(979) 690-3069","TANNER BREWSTER",tabrewster@stylecraft-builders.com
TX,MONTGOMERY,"181974 21","Single Family Homes",3/23/2021,,107865,,"14628 BELLARIA MANOR LN",HOUSTON,TX,77356,"MILL CREEK ESTATES",,CONTRACTOR,,,,,,,,,,,"DR HORTON",,,,,"DR HORTON","14100 SOUTHWEST",HOUSTON,TX,77478,"(281) 201-5559",,,,
TX,MONTGOMERY,181975-21,"Single Family Homes",3/23/2021,,132975,,"14624 BELLARIA MANOR LN",HOUSTON,TX,77356,"MILL CREEK ESTATES",,CONTRACTOR,,,,,,,,,,,"DR HORTON",,,,,"DR HORTON","14100 SOUTHWEST",HOUSTON,TX,77478,"(281) 201-5559",,,,
TX,MONTGOMERY,181979-21,"Single Family Homes",3/23/2021,,89505,,"14620 BELLARIA MANOR LN",HOUSTON,TX,77356,"MILL CREEK ESTATES",,CONTRACTOR,,,,,,,,,,,"DR HORTON",,,,,"DR HORTON","14100 SOUTHWEST",HOUSTON,TX,77478,"(281) 201-5559",,,,
TX,MONTGOMERY,181985-21,"Single Family Homes",3/23/2021,,132885,,"14700 NIGHT VIOLET CT",HOUSTON,TX,77356,"MILL CREEK ESTATES",,CONTRACTOR,,,,,,,,,,,"DR HORTON",,,,,"DR HORTON","14100 SOUTHWEST",HOUSTON,TX,77478,"(281) 201-5559",,,,
TX,MONTGOMERY,181986-21,"Single Family Homes",3/23/2021,,132975,,"14704 NIGHT VIOLET CT",HOUSTON,TX,77356,"MILL CREEK ESTATES",,CONTRACTOR,,,,,,,,,,,"DR HORTON",,,,,"DR HORTON","14100 SOUTHWEST",HOUSTON,TX,77478,"(281) 201-5559",,,,
TX,MONTGOMERY,181987-21,"Single Family Homes",3/23/2021,,107460,,"14708 NIGHT VIOLET CT",HOUSTON,TX,77356,"MILL CREEK ESTATES",,CONTRACTOR,,,,,,,,,,,"DR HORTON",,,,,"DR HORTON","14100 SOUTHWEST",HOUSTON,TX,77478,"(281) 201-5559",,,,
TX,MONTGOMERY,182116-21,"Single Family Homes",3/25/2021,,110700,,"40512 WARIALDA TRACE LN",HOUSTON,TX,77356,"MILL CREEK ESTATES",,CONTRACTOR,,,,,,,,,,,"DR HORTON",,,,,"DR HORTON","14100 SOUTHWEST",HOUSTON,TX,77478,"(281) 201-5559",,,,
TX,MONTGOMERY,182159-21,"Single Family Homes",3/26/2021,,96525,,"15418 MASSEY FOREST DR",HOUSTON,TX,77356,"HARRINGTON TRAILS",,CONTRACTOR,,,,,,,,,,,"DR HORTON",,,,,"DR HORTON","14100 SOUTHWEST",HOUSTON,TX,77478,"(281) 201-5559",,,,
TX,MONTGOMERY,182172-21,"Single Family Homes",3/26/2021,,132975,,"15426 MASSEY FOREST DR",HOUSTON,TX,77356,"HARRINGTON TRAILS",,CONTRACTOR,,,,,,,,,,,"DR HORTON",,,,,"DR HORTON","14100 SOUTHWEST",HOUSTON,TX,77478,"(281) 201-5559",,,,
TX,MONTGOMERY,182173-21,"Single Family Homes",3/26/2021,,107865,,"15443 MASSEY FOREST DR",HOUSTON,TX,77356,"HARRINGTON TRAILS",,CONTRACTOR,,,,,,,,,,,"DR HORTON",,,,,"DR HORTON","14100 SOUTHWEST",HOUSTON,TX,77478,"(281) 201-5559",,,,
TX,MONTGOMERY,182174-21,"Single Family Homes",3/26/2021,,96120,,"1543 9 MASSEY FOREST DR",HOUSTON,TX,77356,"HARRINGTON TRAILS",,CONTRACTOR,,,,,,,,,,,"DR HORTON",,,,,"DR HORTON","14100 SOUTHWEST",HOUSTON,TX,77478,"(281) 201-5559",,,,
TX,MONTGOMERY,182178-21,"Single Family Homes",3/26/2021,,107865,,"15367 CENTRAL CRESCENT DR",HOUSTON,TX,77356,"HARRINGTON TRAILS",,CONTRACTOR,,,,,,,,,,,"DR HORTON",,,,,"DR HORTON","14100 SOUTHWEST",HOUSTON,TX,77478,"(281) 201-5559",,,,
TX,BRAZOS,21-0852,"Single Family Homes",3/16/2021,,134376,1613,"1440 KINGSGATE DR",BRYAN,TX,77807,EDGEWATER,2,CONTRACTOR,,,,,,,,,,,"STYLECRAFT BUILDERS ",,,,,"STYLECRAFT BUILDERS ","4090 STATE HIGHWAY 6 S","COLLEGE STATION",TX,77845-8962,"(979) 764-9900",,"(979) 690-3069","TANNER BREWSTER",tabrewster@stylecraft-builders.com
TX,BRAZOS,21-0021,"Single Family Homes",3/17/2021,,229000,2024,"4112 PEREGRINE CT",BRYAN,TX,77802,OAKMONT,2,CONTRACTOR,,,,,,,,,,,"RIDGEWOOD CUSTOM HOMES",,,,,"RIDGEWOOD CUSTOM HOMES","106 PHEASANT RUN CT",SUNSET,TX,76270-2176,"(940) 872-9911",,,,
TX,BRAZOS,21-0888,"Single Family Homes",3/17/2021,,140316,1593,"2017 KATHRYN DR",BRYAN,TX,77807,EDGEWATER,17,CONTRACTOR,,,,,,,,,,,"STYLECRAFT BUILDERS ",,,,,"STYLECRAFT BUILDERS ","4090 STATE HIGHWAY 6 S","COLLEGE STATION",TX,77845-8962,"(979) 764-9900",,"(979) 690-3069","TANNER BREWSTER",tabrewster@stylecraft-builders.com
TX,BRAZOS,21-0887,"Single Family Homes",3/17/2021,,130284,1443,"2006 THERESA DR",BRYAN,TX,77807,EDGEWATER,13,CONTRACTOR,,,,,,,,,,,"STYLECRAFT BUILDERS ",,,,,"STYLECRAFT BUILDERS ","4090 STATE HIGHWAY 6 S","COLLEGE STATION",TX,77845-8962,"(979) 764-9900",,"(979) 690-3069","TANNER BREWSTER",tabrewster@stylecraft-builders.com
TX,BRAZOS,21-0835,"Single Family Homes",3/17/2021,,165000,1984,"2122 MOUNTAIN WIND LP",BRYAN,TX,77807,"AUTUMN RIDGE",8,CONTRACTOR,,,,,,,,,,,"OAKWOOD CUSTOM HOMES",,,,,"OAKWOOD CUSTOM HOMES","4060 STATE HIGHWAY 6 S ","COLLEGE STATION",TX,77845-8962,"(979) 690-1504",http://oakchb.com/,"(979) 690-2504",,sales@oakchb.com
TX,BRAZOS,21-0894,"Single Family Homes",3/17/2021,,249960,1882,"5228 MONTAGUE LOOP",BRYAN,TX,77807,"PLEASANT HILL",21,CONTRACTOR,,,,,,,,,,,"DR HORTON",,,,,"DR HORTON","14100 SOUTHWEST",HOUSTON,TX,77478,"(281) 201-5559",,,,
TX,BRAZOS,21-0263,"Single Family Homes",3/18/2021,,175000,2250,"4107 PEREGRINE WAY",BRYAN,TX,77802,OAKMONT,6,CONTRACTOR,,,,,,,,,,,"MAGRUDER HOMES",,,,,"MAGRUDER HOMES","PO BOX 10572","COLLEGE STATION",TX,77842-0572,"(979) 324-6682",http://magruderhomes.com/,"(979) 696-2383",,john@magruderhomes.com
TX,BRAZOS,21-0897,"Single Family Homes",3/18/2021,,209154,2150,"4103 PEREGRINE WAY",BRYAN,TX,77802,OAKMONT,8,CONTRACTOR,,,,,,,,,,,"RNL HOME BUILDERS",,,,,"RNL HOME BUILDERS","4253 ROCKY RHODES DRIVE","COLLEGE STATION",TX,77845,"(979) 402-2531",http://www.rnlhomebuilders.com,,,RNLHomebuilders@gmail.com
TX,BRAZOS,21-0895,"Single Family Homes",3/18/2021,,210045,1536,"5216 MONTAGUE LOOP",BRYAN,TX,77807,"PLEASANT HILL",27,CONTRACTOR,,,,,,,,,,,"DR HORTON",,,,,"DR HORTON","14100 SOUTHWEST",HOUSTON,TX,77478,"(281) 201-5559",,,,
TX,BRAZOS,21-0896,"Single Family Homes",3/18/2021,,213625,1536,"1980 CARTWRIGHT ST",BRYAN,TX,77803,"PLEASANT HILL",4,CONTRACTOR,,,,,,,,,,,"DR HORTON",,,,,"DR HORTON","14100 SOUTHWEST",HOUSTON,TX,77478,"(281) 201-5559",,,,
TX,BRAZOS,21-0875,"Single Family Homes",3/18/2021,,169938,1600,"1923 CAMBRIA DR",BRYAN,TX,77807,"BOULDER CREEK",11,CONTRACTOR,,,,,,,,,,,"AVONLEY HOMES",,,,,"AVONLEY HOMES","3900 STATE HIGHWAY 6 S STE 110","COLLEGE STATION",TX,77845-5831,"(979) 635-4800",https://www.avonleyhomes.com/,,,info@avonleyhomes.com
TX,BRAZOS,20-4734,"Single Family Homes",3/19/2021,,240704,2723,"4208 PEREGRINE WAY",BRYAN,TX,77802,OAKMONT,10,CONTRACTOR,,,,,,,,,,,"RNL HOME BUILDERS",,,,,"RNL HOME BUILDERS","4253 ROCKY RHODES DRIVE","COLLEGE STATION",TX,77845,"(979) 402-2531",http://www.rnlhomebuilders.com,,,RNLHomebuilders@gmail.com
TX,BRAZOS,21-0951,"Single Family Homes",3/22/2021,,216216,2506,"3333 STONINGTON WAY",BRYAN,TX,77808,GREENBRIER,23,CONTRACTOR,,,,,,,,,,,"RIDGEWOOD CUSTOM HOMES",,,,,"RIDGEWOOD CUSTOM HOMES","106 PHEASANT RUN CT",SUNSET,TX,76270-2176,"(940) 872-9911",,,,
TX,BRAZOS,21-0579,"Single Family Homes",3/23/2021,,195000,1344,"1902 BASIL CT",BRYAN,TX,77801,"NORTHCREST COTTAGES",2,CONTRACTOR,,,,,,,,,,,"MANLEY HOMES",,,,,"MANLEY HOMES","9857 MOUNTBATTEN TRL",IOLA,TX,77861-4669,"(936) 394-5214",,,,
TX,BRAZOS,21-0580,"Single Family Homes",3/23/2021,,195000,1381,"1939 BASIL CT",BRYAN,TX,77801,"NORTHCREST COTTAGES",25,CONTRACTOR,,,,,,,,,,,"MANLEY HOMES",,,,,"MANLEY HOMES","9857 MOUNTBATTEN TRL",IOLA,TX,77861-4669,"(936) 394-5214",,,,
TX,BRAZOS,21-0581,"Single Family Homes",3/23/2021,,195000,1381,"1945 BASIL CT",BRYAN,TX,77801,"NORTHCREST COTTAGES",22,CONTRACTOR,,,,,,,,,,,"MANLEY HOMES",,,,,"MANLEY HOMES","9857 MOUNTBATTEN TRL",IOLA,TX,77861-4669,"(936) 394-5214",,,,
TX,BRAZOS,21-0950,"Single Family Homes",3/23/2021,,95000,2628,"4707 LASA CASITAS WAY",BRYAN,TX,77807,"ALAMOSA SPRINGS",4,CONTRACTOR,,,,,,,,,,,"LEGEND CLASSIC HOMES",,,,,"LEGEND CLASSIC HOMES","6634 BEESTON HILL DR",KATY,TX,77449-0195,"(281) 463-9950",http://legendhomeshouston.com/,,,
TX,BRAZOS,21-0663,"Single Family Homes",3/23/2021,,141504,1707,"4713 VIA VERDE WAY",BRYAN,TX,77801,"ALAMOSA SPRINGS",7,CONTRACTOR,,,,,,,,,,,"LEGEND CLASSIC HOMES",,,,,"LEGEND CLASSIC HOMES","6634 BEESTON HILL DR",KATY,TX,77449-0195,"(281) 463-9950",http://legendhomeshouston.com/,,,
TX,BRAZOS,21-0970,"Single Family Homes",3/24/2021,,188892,2152,"3031 WOLFPACK LOOP",BRYAN,TX,77808,"AUSTINS COLONY",19,CONTRACTOR,,,,,,,,,,,"RNL HOME BUILDERS",,,,,"RNL HOME BUILDERS","4253 ROCKY RHODES DRIVE","COLLEGE STATION",TX,77845,"(979) 402-2531",http://www.rnlhomebuilders.com,,,RNLHomebuilders@gmail.com
TX,BRAZOS,21-1022,"Single Family Homes",3/24/2021,,175890,2082,"4308 APPALACHIAN TRL",BRYAN,TX,77802,OAKMONT,6,CONTRACTOR,,,,,,,,,,,"STYLECRAFT BUILDERS ",,,,,"STYLECRAFT BUILDERS ","4090 STATE HIGHWAY 6 S","COLLEGE STATION",TX,77845-8962,"(979) 764-9900",,"(979) 690-3069","TANNER BREWSTER",tabrewster@stylecraft-builders.com
TX,BRAZOS,21-1028,"Single Family Homes",3/24/2021,,206976,2605,"5001 MAROON CREEK DR",BRYAN,TX,77802,OAKMONT,27,CONTRACTOR,,,,,,,,,,,"STYLECRAFT BUILDERS ",,,,,"STYLECRAFT BUILDERS ","4090 STATE HIGHWAY 6 S","COLLEGE STATION",TX,77845-8962,"(979) 764-9900",,"(979) 690-3069","TANNER BREWSTER",tabrewster@stylecraft-builders.com
TX,BRAZOS,21-1029,"Single Family Homes",3/24/2021,,233772,2624,"5009 MAROON CREEK DR",BRYAN,TX,77802,OAKMONT,23,CONTRACTOR,,,,,,,,,,,"STYLECRAFT BUILDERS ",,,,,"STYLECRAFT BUILDERS ","4090 STATE HIGHWAY 6 S","COLLEGE STATION",TX,77845-8962,"(979) 764-9900",,"(979) 690-3069","TANNER BREWSTER",tabrewster@stylecraft-builders.com
TX,BRAZOS,21-1024,"Single Family Homes",3/24/2021,,176154,1981,"4309 APPALACHIAN TRL",BRYAN,TX,77802,OAKMONT,3,CONTRACTOR,,,,,,,,,,,"STYLECRAFT BUILDERS ",,,,,"STYLECRAFT BUILDERS ","4090 STATE HIGHWAY 6 S","COLLEGE STATION",TX,77845-8962,"(979) 764-9900",,"(979) 690-3069","TANNER BREWSTER",tabrewster@stylecraft-builders.com
TX,BRAZOS,21-0956,"Single Family Homes",3/24/2021,,98000,2052,"5765 PASEO PL",BRYAN,TX,77807,"ALAMOSA SPRINGS",13,CONTRACTOR,,,,,,,,,,,"LEGEND CLASSIC HOMES",,,,,"LEGEND CLASSIC HOMES","6634 BEESTON HILL DR",KATY,TX,77449-0195,"(281) 463-9950",http://legendhomeshouston.com/,,,
TX,BRAZOS,21-0955,"Single Family Homes",3/24/2021,,97000,2223,"5767 PASEO PL",BRYAN,TX,77807,"ALAMOSA SPRINGS",12,CONTRACTOR,,,,,,,,,,,"LEGEND CLASSIC HOMES",,,,,"LEGEND CLASSIC HOMES","6634 BEESTON HILL DR",KATY,TX,77449-0195,"(281) 463-9950",http://legendhomeshouston.com/,,,
TX,BRAZOS,21-0965,"Single Family Homes",3/24/2021,,88000,1849,"4716 VIA VERDE WAY",BRYAN,TX,77801,"ALAMOSA SPRINGS",18,CONTRACTOR,,,,,,,,,,,"LEGEND CLASSIC HOMES",,,,,"LEGEND CLASSIC HOMES","6634 BEESTON HILL DR",KATY,TX,77449-0195,"(281) 463-9950",http://legendhomeshouston.com/,,,
TX,BRAZOS,21-0954,"Single Family Homes",3/24/2021,,94000,2125,"4715 LAS CASITAS WAY",BRYAN,TX,77807,"ALAMOSA SPRINGS",8,CONTRACTOR,,,,,,,,,,,"LEGEND CLASSIC HOMES",,,,,"LEGEND CLASSIC HOMES","6634 BEESTON HILL DR",KATY,TX,77449-0195,"(281) 463-9950",http://legendhomeshouston.com/,,,
TX,BRAZOS,21-0953,"Single Family Homes",3/24/2021,,95000,2628,"5759 PASEO PL",BRYAN,TX,77807,"ALAMOSA SPRINGS",16,CONTRACTOR,,,,,,,,,,,"LEGEND CLASSIC HOMES",,,,,"LEGEND CLASSIC HOMES","6634 BEESTON HILL DR",KATY,TX,77449-0195,"(281) 463-9950",http://legendhomeshouston.com/,,,
TX,BRAZOS,21-0917,"Single Family Homes",3/24/2021,,87420,1457,"402 MARBLE FALLS DR",BRYAN,TX,77803,"STONE FALLS",10,CONTRACTOR,,,,,,,,,,,"NEW PHASE HOMEBUILDERS",,,,,"NEW PHASE HOMEBUILDERS","1500 UNIVERSITY OAKS BLVD","COLLEGE STATION",TX,77840-3664,"(979) 229-0988",http://www.newphasetx.com,,,steve@stevepittman.info
TX,BRAZOS,21-1019,"Single Family Homes",3/24/2021,,165594,1818,"4310 APPALACHIAN TRL",BRYAN,TX,77802,OAKMONT,5,CONTRACTOR,,,,,,,,,,,"STYLECRAFT BUILDERS ",,,,,"STYLECRAFT BUILDERS ","4090 STATE HIGHWAY 6 S","COLLEGE STATION",TX,77845-8962,"(979) 764-9900",,"(979) 690-3069","TANNER BREWSTER",tabrewster@stylecraft-builders.com
TX,BRAZOS,21-1021,"Single Family Homes",3/24/2021,,159456,1837,"5013 MAROON CREEK DR",BRYAN,TX,77802,OAKMONT,21,CONTRACTOR,,,,,,,,,,,"STYLECRAFT BUILDERS ",,,,,"STYLECRAFT BUILDERS ","4090 STATE HIGHWAY 6 S","COLLEGE STATION",TX,77845-8962,"(979) 764-9900",,"(979) 690-3069","TANNER BREWSTER",tabrewster@stylecraft-builders.com
TX,BRAZOS,21-1018,"Single Family Homes",3/24/2021,,116226,1262,"1924 SHIMLA CT",BRYAN,TX,77807,EDGEWATER,28,CONTRACTOR,,,,,,,,,,,"STYLECRAFT BUILDERS ",,,,,"STYLECRAFT BUILDERS ","4090 STATE HIGHWAY 6 S","COLLEGE STATION",TX,77845-8962,"(979) 764-9900",,"(979) 690-3069","TANNER BREWSTER",tabrewster@stylecraft-builders.com
TX,BRAZOS,21-1046,"Single Family Homes",3/25/2021,,253180,2146,"3565 LEESBURG PATH",BRYAN,TX,77808,GREENBRIER,17,CONTRACTOR,,,,,,,,,,,"ROBBIE ROBINSON",,,,,"ROBBIE ROBINSON","3800 S H 6 S 104","COLLEGE STATION",TX,77845,"(832) 692-1932",,,,
TX,BRAZOS,21-0908,"Single Family Homes",3/25/2021,,200000,2123,"4219 PEREGRINE WAY",BRYAN,TX,77802,OAKMONT,11,CONTRACTOR,,,,,,,,,,,"HALL HOMES",,,,,"HALL HOMES","PO BOX 12341","COLLEGE STATION",TX,77842-2341,"(979) 551-5259",http://www.hallhomestx.com/,,,rhall@hallhomestx.com
TX,BRAZOS,21-1030,"Single Family Homes",3/25/2021,,179586,2031,"3037 WOLFPACK LOOP",BRYAN,TX,77808,"AUSTINS COLONY",1,CONTRACTOR,,,,,,,,,,,"RNL HOME BUILDERS",,,,,"RNL HOME BUILDERS","4253 ROCKY RHODES DRIVE","COLLEGE STATION",TX,77845,"(979) 402-2531",http://www.rnlhomebuilders.com,,,RNLHomebuilders@gmail.com
TX,BRAZOS,21-0604,"Single Family Homes",3/25/2021,,220000,2188,"4218 PEREGRINE WAY",BRYAN,TX,77802,OAKMONT,5,CONTRACTOR,,,,,,,,,,,"PITMAN CUSTOM HOMES",,,,,"PITMAN CUSTOM HOMES","1401 SEBESTA RD","COLLEGE STATION",TX,77845-5527,"(979) 693-6699",http://www.pitmancustomhomes.com,,JIMMY,
TX,BRAZOS,21-1054,"Single Family Homes",3/25/2021,,130284,1443,"2025 THERESA DR",BRYAN,TX,77807,EDGEWATER,12,CONTRACTOR,,,,,,,,,,,"STYLECRAFT BUILDERS ",,,,,"STYLECRAFT BUILDERS ","4090 STATE HIGHWAY 6 S","COLLEGE STATION",TX,77845-8962,"(979) 764-9900",,"(979) 690-3069","TANNER BREWSTER",tabrewster@stylecraft-builders.com
TX,BRAZOS,21-1055,"Single Family Homes",3/25/2021,,130284,1443,"2035 THERESA DR",BRYAN,TX,77807,EDGEWATER,15,CONTRACTOR,,,,,,,,,,,"STYLECRAFT BUILDERS ",,,,,"STYLECRAFT BUILDERS ","4090 STATE HIGHWAY 6 S","COLLEGE STATION",TX,77845-8962,"(979) 764-9900",,"(979) 690-3069","TANNER BREWSTER",tabrewster@stylecraft-builders.com
TX,BRAZOS,21-0971,"Single Family Homes",3/25/2021,,275000,1810,"3000 ALPHA CT",BRYAN,TX,77808,"AUSTINS COLONY",7,CONTRACTOR,,,,,,,,,,,"MAGRUDER HOMES",,,,,"MAGRUDER HOMES","PO BOX 10572","COLLEGE STATION",TX,77842-0572,"(979) 324-6682",http://magruderhomes.com/,"(979) 696-2383",,john@magruderhomes.com
TX,BRAZOS,21-1056,"Single Family Homes",3/26/2021,,300000,2208,"3208 GLENCAIRN CT",BRYAN,TX,77808,GREENBRIER,12,CONTRACTOR,,,,,,,,,,,"MAGRUDER HOMES",,,,,"MAGRUDER HOMES","PO BOX 10572","COLLEGE STATION",TX,77842-0572,"(979) 324-6682",http://magruderhomes.com/,"(979) 696-2383",,john@magruderhomes.com
TX,BRAZOS,20-4735,"Single Family Homes",3/29/2021,,170000,2125,"5010 GREYROCK DR",BRYAN,TX,77802,OAKMONT,8,CONTRACTOR,,,,,,,,,,,"MAGRUDER HOMES",,,,,"MAGRUDER HOMES","PO BOX 10572","COLLEGE STATION",TX,77842-0572,"(979) 324-6682",http://magruderhomes.com/,"(979) 696-2383",,john@magruderhomes.com
TX,BRAZOS,21-1069,"Single Family Homes",3/29/2021,,121968,1443,"3713 MCKENZIE ST",BRYAN,TX,77803,"CONNORS COVE",9,CONTRACTOR,,,,,,,,,,,"STYLECRAFT BUILDERS ",,,,,"STYLECRAFT BUILDERS ","4090 STATE HIGHWAY 6 S","COLLEGE STATION",TX,77845-8962,"(979) 764-9900",,"(979) 690-3069","TANNER BREWSTER",tabrewster@stylecraft-builders.com
TX,BRAZOS,21-0960,"Single Family Homes",3/29/2021,,98000,2223,"5763 PASEO PL",BRYAN,TX,77807,"ALAMOSA SPRINGS",14,CONTRACTOR,,,,,,,,,,,"LEGEND CLASSIC HOMES",,,,,"LEGEND CLASSIC HOMES","6634 BEESTON HILL DR",KATY,TX,77449-0195,"(281) 463-9950",http://legendhomeshouston.com/,,,
TX,BRAZOS,21-0961,"Single Family Homes",3/29/2021,,87000,1523,"5761 PASEO PL",BRYAN,TX,77807,"ALAMOSA SPRINGS",15,CONTRACTOR,,,,,,,,,,,"LEGEND CLASSIC HOMES",,,,,"LEGEND CLASSIC HOMES","6634 BEESTON HILL DR",KATY,TX,77449-0195,"(281) 463-9950",http://legendhomeshouston.com/,,,
TX,BRAZOS,21-0962,"Single Family Homes",3/29/2021,,165924,1947,"5752 PASEO PL",BRYAN,TX,77807,"ALAMOSA SPRINGS",27,CONTRACTOR,,,,,,,,,,,"LEGEND CLASSIC HOMES",,,,,"LEGEND CLASSIC HOMES","6634 BEESTON HILL DR",KATY,TX,77449-0195,"(281) 463-9950",http://legendhomeshouston.com/,,,
TX,BRAZOS,21-0963,"Single Family Homes",3/29/2021,,94000,2246,"4715 VIA VERDE WAY",BRYAN,TX,77807,"ALAMOSA SPRINGS",8,CONTRACTOR,,,,,,,,,,,"LEGEND CLASSIC HOMES",,,,,"LEGEND CLASSIC HOMES","6634 BEESTON HILL DR",KATY,TX,77449-0195,"(281) 463-9950",http://legendhomeshouston.com/,,,
TX,BRAZOS,21-1088,"Single Family Homes",3/30/2021,,196482,2233,"4110 CORVALLIS CT",BRYAN,TX,77808,OAKMONT,3,CONTRACTOR,,,,,,,,,,,"RNL HOME BUILDERS",,,,,"RNL HOME BUILDERS","4253 ROCKY RHODES DRIVE","COLLEGE STATION",TX,77845,"(979) 402-2531",http://www.rnlhomebuilders.com,,,RNLHomebuilders@gmail.com
TX,BRAZOS,21-0266,"Single Family Homes",3/30/2021,,190000,2579,"4108 HENNEPIN CT",BRYAN,TX,77807,OAKMONT,4,CONTRACTOR,,,,,,,,,,,"MAGRUDER HOMES",,,,,"MAGRUDER HOMES","PO BOX 10572","COLLEGE STATION",TX,77842-0572,"(979) 324-6682",http://magruderhomes.com/,"(979) 696-2383",,john@magruderhomes.com
TX,BRAZOS,21-1070,"Single Family Homes",3/30/2021,,319000,2206,"4210 PEREGRINE WAY",BRYAN,TX,77802,OAKMONT,9,CONTRACTOR,,,,,,,,,,,"MAGRUDER HOMES",,,,,"MAGRUDER HOMES","PO BOX 10572","COLLEGE STATION",TX,77842-0572,"(979) 324-6682",http://magruderhomes.com/,"(979) 696-2383",,john@magruderhomes.com
TX,BRAZOS,21-1078,"Single Family Homes",3/30/2021,,218850,1533,"5218 MONTAGUE LOOP",BRYAN,TX,77807,"PLEASANT HILL",26,CONTRACTOR,,,,,,,,,,,"DR HORTON",,,,,"DR HORTON","14100 SOUTHWEST",HOUSTON,TX,77478,"(281) 201-5559",,,,
TX,BRAZOS,21-1080,"Single Family Homes",3/30/2021,,217740,1562,"5222 MONTAGUE LOOP",BRYAN,TX,77807,"PLEASANT HILL",24,CONTRACTOR,,,,,,,,,,,"DR HORTON",,,,,"DR HORTON","14100 SOUTHWEST",HOUSTON,TX,77478,"(281) 201-5559",,,,
TX,BRAZOS,21-0280,"Single Family Homes",3/31/2021,,271593,2500,"4102 HENNEPIN CT",BRYAN,TX,77807,OAKMONT,1,CONTRACTOR,,,,,,,,,,,"REECE HOMES",,,,,"REECE HOMES","1818 TAYLOR",HOUSTON,TX,77545,"(713) 826-7262",http://www.reece-homes.com/,,,
TX,BRAZOS,20-4882,"Single Family Homes",3/31/2021,,281556,2750,"4223 PEREGRINE WAY",BRYAN,TX,77802,OAKMONT,9,CONTRACTOR,,,,,,,,,,,"REECE HOMES",,,,,"REECE HOMES","1818 TAYLOR",HOUSTON,TX,77545,"(713) 826-7262",http://www.reece-homes.com/,,,
TX,BRAZOS,21-1093,"Single Family Homes",3/31/2021,,209814,2300,"5014 GREYROCK DR",BRYAN,TX,77802,OAKMONT,8,CONTRACTOR,,,,,,,,,,,"RNL HOME BUILDERS",,,,,"RNL HOME BUILDERS","4253 ROCKY RHODES DRIVE","COLLEGE STATION",TX,77845,"(979) 402-2531",http://www.rnlhomebuilders.com,,,RNLHomebuilders@gmail.com
TX,BRAZOS,20-4880,"Single Family Homes",3/31/2021,,245835,2350,"4213 PEREGRINE WAY",BRYAN,TX,77802,OAKMONT,14,CONTRACTOR,,,,,,,,,,,"REECE HOMES",,,,,"REECE HOMES","1818 TAYLOR",HOUSTON,TX,77545,"(713) 826-7262",http://www.reece-homes.com/,,,
TX,HARRIS,2012100050,"Warehouse & Manufacturing",3/16/2021,,112500,1500,"19210 E HARDY RD",HOUSTON,TX,77356,,,"VAM USA","19210 E HARDY RD",HOUSTON,TX,77356,,Owner,,,,,OWNER,,,,,OWNER,,,,,,,,,
TX,HARRIS,21003720,"Warehouse & Manufacturing",4/13/2021,Renovations,141089,,"7930 BLANKENSHIP",HOUSTON,TX,77055,,,CONTRACTOR,,,,,,,,,,,"IRON HORSE BUILDERS",,,,,"IRON HORSE BUILDERS","4200 MONTROSE BLVD STE 500",HOUSTON,TX,77006-5459,"(713) 529-4504",http://ironhorsebldrs.com,,,info@ironhorsebldrs.com
TX,HARRIS,20101126,"Warehouse & Manufacturing",4/14/2021,,50000,,"7401 HUDDLER",HOUSTON,TX,77074,,,CONTRACTOR,,,,,,,,,,,"YN FACTOR DESIGN",,,,,"YN FACTOR DESIGN","7323 ASHCROFT DR",HOUSTON,TX,77084,"(832) 274-0787",,,"YADIRA NINO",
TX,HARRIS,21012659,"Warehouse & Manufacturing",4/13/2021,Renovations,167000,,"2050 WEST SAM HOUSTON NORTH",HOUSTON,TX,77043,,,"ANNIE SHIN","2400 AUGUSTA DR STE",HOUSTON,TX,77057,"(832) 977-9245",Architect,,,,,OWNER,,,,,OWNER,,,,,,,,,
TX,HARRIS,20064161,"Warehouse & Manufacturing",4/16/2021,,160000,,"12017 CARLSBAD ST",HOUSTON,TX,77085,,,"ALI SOUDJANI","12017 CARLSBAD ST",HOUSTON,TX,77085,"(713) 291-2780",Applicant,,,,,OWNER,,,,,OWNER,,,,,,,,,
TX,BRAZOS,21-0854,"Warehouse & Manufacturing",3/18/2021,,150000,2520,"425 N HARVEY MITCHELL PKWY # B1",BRYAN,TX,77803,,,CONTRACTOR,,,,,,,,,,,"PROVERB CONSTRUCTION",,,,,"PROVERB CONSTRUCTION","3179 LA VENTA WAY","COLLEGE STATION",TX,77845-1401,"(979) 690-5649",,,"CODYY HALL",
TX,BRAZOS,21-0856,"Warehouse & Manufacturing",3/18/2021,,225000,5670,"425 N HARVEY MITCHELL PKWY # B2",BRYAN,TX,77803,,,CONTRACTOR,,,,,,,,,,,"PROVERB CONSTRUCTION",,,,,"PROVERB CONSTRUCTION","3179 LA VENTA WAY","COLLEGE STATION",TX,77845-1401,"(979) 690-5649",,,"CODYY HALL",
TX,BRAZOS,21-0857,"Warehouse & Manufacturing",3/18/2021,,360000,5250,"425 N HARVEY MITCHELL PKWY # B3",BRYAN,TX,77803,,,CONTRACTOR,,,,,,,,,,,"PROVERB CONSTRUCTION",,,,,"PROVERB CONSTRUCTION","3179 LA VENTA WAY","COLLEGE STATION",TX,77845-1401,"(979) 690-5649",,,"CODYY HALL",
TX,BRAZOS,21-0858,"Warehouse & Manufacturing",3/18/2021,,280000,7000,"425 N HARVEY MITCHELL PKWY # B4",BRYAN,TX,77803,,,CONTRACTOR,,,,,,,,,,,"PROVERB CONSTRUCTION",,,,,"PROVERB CONSTRUCTION","3179 LA VENTA WAY","COLLEGE STATION",TX,77845-1401,"(979) 690-5649",,,"CODYY HALL",
TX,BRAZOS,21-0859,"Warehouse & Manufacturing",3/18/2021,,320000,4180,"425 N HARVEY MITCHELL PKWY # B5",BRYAN,TX,77803,,,CONTRACTOR,,,,,,,,,,,"PROVERB CONSTRUCTION",,,,,"PROVERB CONSTRUCTION","3179 LA VENTA WAY","COLLEGE STATION",TX,77845-1401,"(979) 690-5649",,,"CODYY HALL",
TX,BRAZOS,21-0860,"Warehouse & Manufacturing",3/18/2021,,230000,3075,"425 N HARVEY MITCHELL PKWY # B6",BRYAN,TX,77803,,,CONTRACTOR,,,,,,,,,,,"PROVERB CONSTRUCTION",,,,,"PROVERB CONSTRUCTION","3179 LA VENTA WAY","COLLEGE STATION",TX,77845-1401,"(979) 690-5649",,,"CODYY HALL",
TX,BRAZOS,21-0861,"Warehouse & Manufacturing",3/18/2021,,375000,6100,"425 N HARVEY MITCHELL PKWY # B7",BRYAN,TX,77803,,,CONTRACTOR,,,,,,,,,,,"PROVERB CONSTRUCTION",,,,,"PROVERB CONSTRUCTION","3179 LA VENTA WAY","COLLEGE STATION",TX,77845-1401,"(979) 690-5649",,,"CODYY HALL",
TX,BRAZOS,21-0863,"Warehouse & Manufacturing",3/18/2021,,465000,6475,"425 N HARVEY MITCHELL PKWY # B9",BRYAN,TX,77803,,,CONTRACTOR,,,,,,,,,,,"PROVERB CONSTRUCTION",,,,,"PROVERB CONSTRUCTION","3179 LA VENTA WAY","COLLEGE STATION",TX,77845-1401,"(979) 690-5649",,,"CODYY HALL",
TX,BRAZOS,20-2669,"Warehouse & Manufacturing",3/19/2021,,212500,12000,"3210 COLSON RD BLDG 1",BRYAN,TX,77808,,,CONTRACTOR,,,,,,,,,,,"SOUTHWEST HOMES",,,,,"SOUTHWEST HOMES","14504 NORTH FWY",SPRING,TX,77090-6808,"(866) 354-3400",http://www.southwesthomestexas.com,"(281) 821-1237","JEFF WYATT",jeff.wyatt@southwesthomestexas.com
TX,BRAZOS,20-2670,"Warehouse & Manufacturing",3/19/2021,Renovation,212500,,"3210 COLSON RD BLDG 2",BRYAN,TX,77808,,,CONTRACTOR,,,,,,,,,,,"SOUTHWEST HOMES",,,,,"SOUTHWEST HOMES","14504 NORTH FWY",SPRING,TX,77090-6808,"(866) 354-3400",http://www.southwesthomestexas.com,"(281) 821-1237","JEFF WYATT",jeff.wyatt@southwesthomestexas.com
