state,county,permno,ptype,pdate,pdescription,jvalue,jsqfeet,jaddr,jcity,jstate,jzip,jsubdiv,jlotno,aname,aaddr,acity,astate,azip,aphone,atype,aurl,afax,aprimarycontact,aemail,bldcode,units,bldgs,ctype,legal,contractor,caddress,ccity,cstate,czip,cphone,curl,cfax,cprimarycontact,cemail
TX,BRAZOS,21-2882,"Churches & Other Religious",6/29/2021,Renovation,100000,,"2500 S COLLEGE AVE",BRYAN,TX,77801,,,CONTRACTOR,,,,,,,,,,,"CREATE CONSTRUCTION",,,,,"CREATE CONSTRUCTION","210 N DWIGHT AVE",DALLAS,TX,75211,"(214) 664-8589",,,,
TX,BRAZORIA,COMM21-00066,"Churches & Other Religious",6/17/2021,,208400,16000,"5243 SAVANNAH PKWY",PEARLAND,TX,77583,,,CONTRACTOR,,,,,,,,,,,"TLC ENGINEERING",,,,,"TLC ENGINEERING","8204 WESTGLEN DR",HOUSTON,TX,77063-6308,"(713) 868-6900",http://www.tlceng.com/,"(713) 868-0001","TONY COUNCIL",info@tlceng.com
TX,BRAZORIA,COMM21-00182,"Churches & Other Religious",6/30/2021,Renovation,281400,7150,"2314 N GRAND BLVD",PEARLAND,TX,77581,,,CONTRACTOR,,,,,,,,,,,"CRAIN GROUP",,,,,"CRAIN GROUP","2635 MILLER RANCH RD",PEARLAND,TX,77584-5609,"(713) 436-8727",http://www.craingroup.com/,"(713) 436-8730","BRAD CRAIN",lisa@crainzamora.com
TX,BRAZORIA,COMM21-00183,"Churches & Other Religious",6/30/2021,Renovation,220250,6385,"2328 N GRAND BLVD",PEARLAND,TX,77581,,,CONTRACTOR,,,,,,,,,,,"CRAIN GROUP",,,,,"CRAIN GROUP","2635 MILLER RANCH RD",PEARLAND,TX,77584-5609,"(713) 436-8727",http://www.craingroup.com/,"(713) 436-8730","BRAD CRAIN",lisa@crainzamora.com
TX,HARRIS,20117252,"Commercial Swimming Pool & Spas",7/12/2021,,145000,,"1245 W 18TH",HOUSTON,TX,77008,,,CONTRACTOR,,,,,,,,,,,"WATTS POOL COMPANY",,,,,"WATTS POOL COMPANY","11150 KATY FWY",HOUSTON,TX,77043-4628,"(713) 461-7300",http://www.wattspool.com,"(713) 461-8382","KRISTEN WATTS",sales@wattspool.com
TX,BELL,21-837,"Duplex, Triplex, & Fourplex",6/21/2021,,,2054,"1443 SHADOW HILL LN",TEMPLE,TX,76502,"WESTFIELD DEVELOPMENT",,CONTRACTOR,,,,,,,,,,,"OMEGA BUILDERS GROUP",,,,,"OMEGA BUILDERS GROUP","7353 W ADAMS AVE",TEMPLE,TX,76502-5539,"(254) 773-9966",,,,
TX,HARRIS,21026954,"Duplex, Triplex, & Fourplex",7/7/2021,,170000,,"1894 DOLLY WRIGHT ST A",HOUSTON,TX,77088,,,CONTRACTOR,,,,,,,,,,,"MADELINE KAPLAN",,,,,"MADELINE KAPLAN","5107 BELLAIRE BLVD STE 200,",HOUSTON,TX,77401-4419,"(908) 370-3174",,,,
TX,HARRIS,20101133,"Duplex, Triplex, & Fourplex",7/6/2021,,180000,,"4901 PEDERSON ST",HOUSTON,TX,77033,,,"MALYKE PARTLOW","4901 PEDERSON ST",HOUSTON,TX,77033,,Owner,,,,,"HOUSTON BUILDING DEVELOPMENT",,,,,"HOUSTON BUILDING DEVELOPMENT","5330 GRIGGS ROAD",HOUSTON,TX,77021,"(713) 845-2400",http://www.hbdi.org/,"(713) 645-2830",,info@hbdinc.org
TX,BRAZOS,21-1831,"Educational Institution",6/22/2021,Renovation,600000,,"3310 OAK RIDGE DR",BRYAN,TX,77802,,,CONTRACTOR,,,,,,,,,,,"SWIFT CORPORATION",,,,,"SWIFT CORPORATION","3585 ROCKING J RD","ROUND ROCK",TX,78665-9494,"(512) 470-7575",https://www.swiftcorptx.com/,,"MARIO VASQUEZ",info@swiftcorptx.com
TX,HARRIS,21019468,"Educational Institution",7/8/2021,Renovations,175000,,"6500 ROOKIN ST BLD",HOUSTON,TX,77074,,,"MATT STARR","6500 ROOKIN ST BLD",HOUSTON,TX,77074,"(713) 669-5369",Applicant,,,,,OWNER,,,,,OWNER,,,,,,,,,
TX,BRAZOS,21-2368,"Hospital & Other Medical",6/22/2021,Renovation,93850,1035,"1600 JOSEPH DR",BRYAN,TX,77802,,,CONTRACTOR,,,,,,,,,,,"HOAR CONSTRUCTION",,,,,"HOAR CONSTRUCTION","1300 W SAM HOUSTON PKWY S STE 220",HOUSTON,TX,77042-2453,"(713) 244-2200",http://www.hoarllc.com/,,,
TX,BRAZOS,21-1560,"Hospital & Other Medical",6/2/2021,Renovation,90000,1850,"2900 E 29TH ST",BRYAN,TX,77802,,,CONTRACTOR,,,,,,,,,,,"MAREK BROTHERS CONSTRUCTION",,,,,"MAREK BROTHERS CONSTRUCTION","2115 JUDIWAY ST",HOUSTON,TX,77018-5834,"(713) 681-2626",http://www.marekbros.com,"(713) 681-6540",,info@marekbros.com
TX,MONTGOMERY,20201432,"Hospital & Other Medical",6/25/2021,Renovation,36808,,"134 VISION PARK BLVD",SHENANDOAH,TX,77384,,,CONTRACTOR,,,,,,,,,,,"ARCH-CON CORPORATION",,,,,"ARCH-CON CORPORATION","1335 W GRAY ST STE 210",HOUSTON,TX,77019-4056,"(713) 533-1900",,,,contact@arch-con.com
TX,MONTGOMERY,20210113,"Hospital & Other Medical",6/4/2021,"Finish Out",567296,,"9180 PINECROFT DR # 220",SHENANDOAH,TX,77380,,,CONTRACTOR,,,,,,,,,,,"MERIDIAN CONSTRUCTORS",,,,,"MERIDIAN CONSTRUCTORS","6105 BRITTMOORE RD STE B",HOUSTON,TX,77041-5695,"(281) 759-1200",http://www.meridianconstructors.com,"(281) 759-1230",,development@meridianconstructors.com
TX,MONTGOMERY,20210187,"Hospital & Other Medical",6/7/2021,Renovation,161680,,"9250 PINECROFT DR",SHENANDOAH,TX,77380,,,CONTRACTOR,,,,,,,,,,,"ENDURANCE BUILDERS",,,,,"ENDURANCE BUILDERS","2190 NORTH LOOP W STE 300",HOUSTON,TX,77018-8006,"(832) 623-7351",http://www.endbs.com/,,"BOB FLOWERS",
TX,HARRIS,21006445,"Hospital & Other Medical",7/7/2021,,11000000,,"12301 MAIN ST BLD",HOUSTON,TX,77035,,,"KIRKSEY ARCHITECTURE","6909 PORTWEST DR",HOUSTON,VA,77024,"(713) 850-9600",Architect,,,,,OWNER,,,,,OWNER,,,,,,,,,
TX,BRAZORIA,COMM21-00216,"Hospital & Other Medical",6/29/2021,"Finish Out",515000,3481,"8540 BROADWAY ST # 112",PEARLAND,TX,77584,,,CONTRACTOR,,,,,,,,,,,"NATIONWIDE CONSTRUCTION",,,,,"NATIONWIDE CONSTRUCTION","2151 N HOLLAND RD",MANSFIELD,TX,76063-5505,"(817) 473-0484",http://www.nationwideconstruction.us/,,,
TX,BRAZORIA,COMM21-00189,"Hospital & Other Medical",6/17/2021,Renovation,485000,1880,"1930 PEARLAND PKWY # 130",PEARLAND,TX,77581,,,CONTRACTOR,,,,,,,,,,,"COMMERCIAL INTERIORS",,,,,"COMMERCIAL INTERIORS","4300 W ROYAL LN STE 100",IRVING,TX,75063-2227,"(972) 621-6266",http://commercialinteriorsoftexas.com/,"(972) 621-6277","ROBERT AHMUTY",info@commercialinteriorsoftexas.com
TX,BRAZORIA,COMM21-00172,"Hospital & Other Medical",6/3/2021,"Finish Out",135000,1724,"11555 MAGNOLIA PKWY # 190",PEARLAND,TX,77584,,,CONTRACTOR,,,,,,,,,,,"DSO CONSTRUCTION",,,,,"DSO CONSTRUCTION","13375 FM 14",TYLER,TX,75706,"(903) 533-1231",,,,
TX,BRAZOS,21-0783,"Multi Family Apartments & Condos",6/23/2021,,768000,10800,"2910 TOWN SQUARE AVE B21",BRYAN,TX,77802,,,CONTRACTOR,,,,,,,,,,,"OMG BUILDERS",,,,,"OMG BUILDERS","2257 N LOOP 336 W STE 140-303",CONROE,TX,77304,"(832) 457-9442",,,,
TX,BRAZOS,21-0784,"Multi Family Apartments & Condos",6/23/2021,,640000,8795,"2910 TOWN SQUARE AVE B26",BRYAN,TX,77802,,,CONTRACTOR,,,,,,,,,,,"OMG BUILDERS",,,,,"OMG BUILDERS","2257 N LOOP 336 W STE 140-303",CONROE,TX,77304,"(832) 457-9442",,,,
TX,HARRIS,20080145,"Multi Family Apartments & Condos",7/6/2021,,6682500,,"3353 ELGIN ST BLD",HOUSTON,TX,77004,,,CONTRACTOR,,,,,,,,,,,"CAMDEN CONSTRUCTION",,,,,"CAMDEN CONSTRUCTION","10335 REGAL ROW",HOUSTON,TX,77040-3249,"(713) 681-1514",http://www.camdeninc.com/,,,
TX,HARRIS,21005911,"Multi Family Apartments & Condos",7/6/2021,,12000000,,"2305 SUMMER ST BLD",HOUSTON,TX,77007,,,"SILOS SAWYER","2305 SUMMER ST BLD",HOUSTON,TX,77007,,Owner,,,,,GREYSTAR,,,,,GREYSTAR,"750 BERING DR STE 300",HOUSTON,TX,77057-2132,"(713) 966-5000",http://www.greystar.com/,,,
TX,HARRIS,21051956,"Multi Family Apartments & Condos",7/11/2021,Renovations,72750,,"121 N POST OAK LN",HOUSTON,TX,77024,,,CONTRACTOR,,,,,,,,,,,"DVZ CONSTRUCTION",,,,,"DVZ CONSTRUCTION","4963 DUMFRIES DRIVE",HOUSTON,TX,77096,"(832) 794-3219",,,,
TX,HARRIS,21045735,"Multi Family Apartments & Condos",7/7/2021,Renovations,100000,,"5110 SAN FELIPE ST",HOUSTON,TX,77056,,,"GEORGE PONTIKES","5110 SAN FELIPE ST","HOUSTON                                           ",TX,77056,,Owner,,,,,"ENERGY TOWER IV",,,,,"ENERGY TOWER IV","11750 KATY FREEWAY",HOUSTON,TX,77079,"(281) 596-6470",http://www.energytower4.com/,,,
TX,BRAZOS,21-2225,"Multi Family Renovations & Additions",6/7/2021,Renovation,30000,789,"2700 EVERGREEN CIR",BRYAN,TX,77801,,,CONTRACTOR,,,,,,,,,,,"HOELSCHER SERVICES",,,,,"HOELSCHER SERVICES","3801 STATE HIGHWAY 53",TEMPLE,TX,76501-7102,"(254) 773-5032",,,"MATT HOELSCHER",
TX,HARRIS,21054448,"Multi Family Renovations & Additions",7/9/2021,Renovation,391000,,"3617 BRIDGEWATER OAKS",HOUSTON,TX,77055,,,CONTRACTOR,,,,,,,,,,,"DARLING HOMES",,,,,"DARLING HOMES","2500 LEGACY DR STE 100",FRISCO,TX,75034-5984,"(469) 252-2200",http://www.darlinghomes.com/,,,
TX,HARRIS,21025558,"Offices, R&D, & Professional",7/8/2021,,2552049,,"7500 FANNIN ST",HOUSTON,TX,77054,,,"DAVID ZEBOLD","7500 FANNIN ST",HOUSTON,TX,77054,"(615) 872-1185",Applicant,,,,,OWNER,,,,,OWNER,,,,,,,,,
TX,HARRIS,21051054,"Offices, R&D, & Professional",7/6/2021,Renovations,275000,,"3200 KIRBY DR",HOUSTON,TX,77098,,,CONTRACTOR,,,,,,,,,,,"JACOB WHITE CONSTRUCTION",,,,,"JACOB WHITE CONSTRUCTION","2000 W PARKWOOD 100",HOUSTON,TX,77546,"(281) 286-6666",http://www.jacobwhitecc.com/,"(281) 480-7510",,info@jacobwhitecc.com
TX,HARRIS,21028615,"Offices, R&D, & Professional",7/7/2021,Renovations,42000,,"11201 GREENS CROSSING BLVD",HOUSTON,TX,77067,,,CONTRACTOR,,,,,,,,,,,"MAHACA CONSTRUCTION",,,,,"MAHACA CONSTRUCTION","7728 LONG POINT RD STE 201",HOUSTON,TX,77055-3645,"(713) 956-1889",http://www.mahaca.com/,"(713) 956-1889","GARRETT BACORN",gbacorn@mahaca.com
TX,HARRIS,21049050,"Offices, R&D, & Professional",7/9/2021,Renovations,340000,,"510 BERING DR",HOUSTON,TX,77057,,,CONTRACTOR,,,,,,,,,,,"MAHACA CONSTRUCTION",,,,,"MAHACA CONSTRUCTION","7728 LONG POINT RD STE 201",HOUSTON,TX,77055-3645,"(713) 956-1889",http://www.mahaca.com/,"(713) 956-1889","GARRETT BACORN",gbacorn@mahaca.com
TX,HARRIS,21047945,"Offices, R&D, & Professional",7/7/2021,Renovations,1882893,,"1300 POST OAK BLVD FL",HOUSTON,TX,77056,,,CONTRACTOR,,,,,,,,,,,"ODONNELL SNIDER CONSTRUCTION",,,,,"ODONNELL SNIDER CONSTRUCTION","1900 WEST LOOP S STE 350",HOUSTON,TX,77027-3236,"(713) 782-2238",http://odonnellsnider.com/,"(713) 782-2238",,bwhyte@odonnellsnider.com
TX,HARRIS,21051107,"Offices, R&D, & Professional",7/6/2021,,204000,,"2900 NORTH LOOP WEST",HOUSTON,TX,77092,,,CONTRACTOR,,,,,,,,,,,"BYRD INTERIOR CONSTRUCTION",,,,,"BYRD INTERIOR CONSTRUCTION","2123 W GOVERNORS CIR # 100",HOUSTON,TX,77092-8746,"(713) 688-8850",http://www.byrdinterior.com/,,"JOHN BYRD",jbyrd@byrdinterior.com
TX,HARRIS,21043543,"Offices, R&D, & Professional",7/12/2021,Renovations,350000,,"7400 FANNIN ST",HOUSTON,TX,77054,,,CONTRACTOR,,,,,,,,,,,"BYRD INTERIOR CONSTRUCTION",,,,,"BYRD INTERIOR CONSTRUCTION","2123 W GOVERNORS CIR # 100",HOUSTON,TX,77092-8746,"(713) 688-8850",http://www.byrdinterior.com/,,"JOHN BYRD",jbyrd@byrdinterior.com
TX,HARRIS,21062457,"Offices, R&D, & Professional",7/12/2021,Renovations,62000,,"3000 WESLAYAN ST",HOUSTON,TX,77027,,,CONTRACTOR,,,,,,,,,,,"PREFERRED CONTRACTING SERVICES",,,,,"PREFERRED CONTRACTING SERVICES","1151 BRITTMOORE RD STE C",HOUSTON,TX,77043-5035,"(713) 983-6990",,,,
TX,HARRIS,21038257,"Offices, R&D, & Professional",7/7/2021,Renovations,850000,,"2575 KIRBY",HOUSTON,TX,77019,,,CONTRACTOR,,,,,,,,,,,"SCOTT & REID GENERAL",,,,,"SCOTT & REID GENERAL","5100 WESTHEIMER RD STE 200",HOUSTON,TX,77056-5597,"(469) 374-3400",http://www.scottandreid.com,"(469) 374-0060","PHIL VANDERHILL",email@scottandreid.com
TX,HARRIS,21043012,"Offices, R&D, & Professional",7/6/2021,Renovations,850000,,"5950 NORTH COURSE DR FL",HOUSTON,TX,77072,,,CONTRACTOR,,,,,,,,,,,KDW,,,,,KDW,"5858 WESTHEIMER RD STE 150",HOUSTON,TX,77057-5631,"(713) 920-9549",http://www.kdwltd.com/,"(713) 541-5072",,
TX,HARRIS,21053525,"Offices, R&D, & Professional",7/7/2021,Renovations,75000,,"2925 BRIARPARK DR FL",HOUSTON,TX,77042,,,CONTRACTOR,,,,,,,,,,,"CANNON ENTERPRISES",,,,,"CANNON ENTERPRISES","230 RILEY FUZZEL RD",SPRING,TX,77373,"(281) 353-6868",,,,
TX,HARRIS,21003384,"Offices, R&D, & Professional",7/9/2021,Renovations,1012680,,"4423 GRIGGS",HOUSTON,TX,77021,,,CONTRACTOR,,,,,,,,,,,"WEINGARTEN REALTY INVESTORS",,,,,"WEINGARTEN REALTY INVESTORS","2600 CITADEL PLAZA DR STE 125",HOUSTON,TX,77008-1351,"(713) 866-0000",,,,
TX,HARRIS,21033001,"Offices, R&D, & Professional",7/7/2021,,54160,,"401 FRANKLIN ST",HOUSTON,TX,77002,,,CONTRACTOR,,,,,,,,,,,"INTOWN HOMES",,,,,"INTOWN HOMES","1520 OLIVER ST",HOUSTON,TX,77007,"(713) 961-3877",http://www.intown-homes.com/,,,
TX,HARRIS,21060454,"Offices, R&D, & Professional",7/6/2021,Renovations,170000,,"4400 POST OAK PKY",HOUSTON,TX,77027,,,CONTRACTOR,,,,,,,,,,,"GALLANT BUILDERS",,,,,"GALLANT BUILDERS","6990 PORTWEST DR STE 170",HOUSTON,TX,77024-8088,"(713) 275-9900",https://www.gallantbuilders.com/,"(713) 275-9901",,
TX,HARRIS,21045006,"Offices, R&D, & Professional",7/7/2021,Renovations,943000,,"5051 WESTHEIMER+K2",HOUSTON,TX,77002,,,CONTRACTOR,,,,,,,,,,,"GALLANT BUILDERS",,,,,"GALLANT BUILDERS","6990 PORTWEST DR STE 170",HOUSTON,TX,77024-8088,"(713) 275-9900",https://www.gallantbuilders.com/,"(713) 275-9901",,
TX,HARRIS,21054444,"Offices, R&D, & Professional",7/12/2021,Renovations,1600000,,"2800 POST OAK BLVD FL",HOUSTON,TX,77056,,,CONTRACTOR,,,,,,,,,,,"GALLANT BUILDERS",,,,,"GALLANT BUILDERS","6990 PORTWEST DR STE 170",HOUSTON,TX,77024-8088,"(713) 275-9900",https://www.gallantbuilders.com/,"(713) 275-9901",,
TX,HARRIS,21013639,"Offices, R&D, & Professional",7/6/2021,,153600,,"9226 CULVER",HOUSTON,TX,77051,,,CONTRACTOR,,,,,,,,,,,"TANGLEWOOD PROPERTY GROUP",,,,,"TANGLEWOOD PROPERTY GROUP","5444 WESTHEIMER RD STE 1500",HOUSTON,TX,77056-5394,"(713) 784-4414",,,,
TX,HARRIS,21032144,"Offices, R&D, & Professional",7/12/2021,Renovations,400000,,"712 MAIN ST",HOUSTON,TX,77002,,,CONTRACTOR,,,,,,,,,,,"HITT CONTRACTING",,,,,"HITT CONTRACTING","9300 BAMBOO RD",HOUSTON,TX,77041,"(713) 688-9496",,,,
TX,HARRIS,21050723,"Offices, R&D, & Professional",7/9/2021,Renovations,50000,,"1000 MAIN ST",HOUSTON,TX,77002,,,CONTRACTOR,,,,,,,,,,,"TI CONSTRUCTORS",,,,,"TI CONSTRUCTORS","777 BENMAR RD",HOUSTON,TX,77060,"(713) 773-6000",,,,
TX,HARRIS,21047022,"Offices, R&D, & Professional",7/8/2021,Renovations,195000,,"1200 TRAVIS ST FL",HOUSTON,TX,77002,,,CONTRACTOR,,,,,,,,,,,"BROWN & ROOT",,,,,"BROWN & ROOT","8799 NORTH LOOP EAST FWY",HOUSTON,TX,77002,"(713) 673-0291",,,"GARRETT JURICA",
TX,BRAZORIA,COMM21-00204,"Offices, R&D, & Professional",6/11/2021,"Finish Out",85000,8875,"4155 MAIN ST # 101",PEARLAND,TX,77581,,,CONTRACTOR,,,,,,,,,,,"RODZINA DEVELOPMENT",,,,,"RODZINA DEVELOPMENT","1110 NASA PKWY STE 104",HOUSTON,TX,77058-3310,"(713) 893-8245",,,,
TX,BRAZORIA,COMM21-00210,"Offices, R&D, & Professional",6/7/2021,Renovation,85000,,"3300 SOUTHERN TRAILS DR",PEARLAND,TX,77584,,,CONTRACTOR,,,,,,,,,,,"ADVANCED CONSTRUCTION",,,,,"ADVANCED CONSTRUCTION","1308 MODISTE STREET",HOUSTON,TX,77055,"(281) 802-1902",,,,
TX,BRAZORIA,COMM21-00192,"Offices, R&D, & Professional",6/22/2021,Renovation,40500,,"11200 BROADWAY ST B300",PEARLAND,TX,77584,,,CONTRACTOR,,,,,,,,,,,"ELITE 3 CONSTRUCTION",,,,,"ELITE 3 CONSTRUCTION","PO BOX 814","DEER PARK",TX,77536,"(832) 588-2100",,,"RYAN PULLIN",
TX,BRAZORIA,COMM21-00193,"Offices, R&D, & Professional",6/22/2021,Renovation,40500,,"11200 BROADWAY ST B700",PEARLAND,TX,77584,,,CONTRACTOR,,,,,,,,,,,"ELITE 3 CONSTRUCTION",,,,,"ELITE 3 CONSTRUCTION","PO BOX 814","DEER PARK",TX,77536,"(832) 588-2100",,,"RYAN PULLIN",
TX,BRAZOS,21-2596,"Other Commercial",6/22/2021,,65000,828,"3237 ROSE HILL LN",BRYAN,TX,77808,,,CONTRACTOR,,,,,,,,,,,"H3 OUTDOOR DESIGN & CONSTRUCTION",,,,,"H3 OUTDOOR DESIGN & CONSTRUCTION","2901 AGEE CT",BRYAN,TX,77808,"(979) 574-0148",https://h3outdoordesign.com/,,,
TX,HARRIS,19115265,"Residential Garages & Carports",7/12/2021,,97660,,"8247 WIER DR",HOUSTON,TX,77017,,,"JOSE MONTOYA","8247 WIER DR",HOUSTON,TX,77017,,Owner,,,,,OWNER,,,,,OWNER,,,,,,,,,
TX,HARRIS,21020991,"Residential Garages & Carports",7/12/2021,Renovations,614927,,"6902 SOUTHWEST",HOUSTON,TX,77074,,,CONTRACTOR,,,,,,,,,,,"MED TECH CONSTRUCTION",,,,,"MED TECH CONSTRUCTION","6714 N NEW BRAUNFELS AVE STE 204","SAN ANTONIO",TX,78209-3846,"(210) 821-1717",,"(210) 437-0871",,bnash@medtechconstruction.com
TX,HARRIS,20080143,"Residential Garages & Carports",7/6/2021,,1200000,,"3353 ELGIN ST",HOUSTON,TX,77004,,,CONTRACTOR,,,,,,,,,,,"CAMDEN CONSTRUCTION",,,,,"CAMDEN CONSTRUCTION","10335 REGAL ROW",HOUSTON,TX,77040-3249,"(713) 681-1514",http://www.camdeninc.com/,,,
TX,HARRIS,19140778,"Residential Garages & Carports",7/7/2021,,86000,,"2518 GARWOOD",HOUSTON,TX,77091,,,"ZACARIAS GUERRERO","2518 GARWOOD","HOUSTON                                           ",TX,77091,,Owner,,,,,"PROJECT SERVICES GROUP",,,,,"PROJECT SERVICES GROUP","2040 CENTURY CENTER BLVD STE 10",IRVING,TX,75062-4922,"(972) 812-7370",http://www.psg-dallas.com/,,"DANIEL BOSWELL",support@psg-dallas.com
TX,BRAZOS,21-2647,"Residential Renovations & Additions",6/22/2021,Renovation,135400,,"3702 OAK RIDGE DR",BRYAN,TX,77802,,,"CHRISTOPHER & DEBORAH PETERSON","3702 OAK RIDGE DR",BRYAN,TX,77802,,Owner,,,,,"JEFF JONES CUSTOM HOMES",,,,,"JEFF JONES CUSTOM HOMES","2704C WILDFLOWER DR",BRYAN,TX,77802-3037,"(979) 774-8955",,,,
TX,BRAZOS,21-1706,"Residential Renovations & Additions",6/14/2021,Renovation,50000,1200,"4110 N TEXAS AVE",BRYAN,TX,77803,"MOSES BAINE",,"DONALD & LORRAINE SWINDOL","4110 N TEXAS AVE",BRYAN,TX,77803,,Owner,,,,,"RHODES BUILDING SYSTEMS",,,,,"RHODES BUILDING SYSTEMS","1275 AVENUE E",SOMERVILLE,TX,77879-3022,"(979) 596-1451",,,,
TX,BRAZOS,21-2294,"Residential Renovations & Additions",6/1/2021,Renovation,201070,,"3061 WILDFLOWER DR",BRYAN,TX,77802,,,CONTRACTOR,,,,,,,,,,,"CENTIMARK CORP",,,,,"CENTIMARK CORP","1313 VALWOOD PKWY",CARROLLTON,TX,75006-6883,"(000) 972-4883",,,,
TX,BRAZOS,21-2259,"Residential Renovations & Additions",6/7/2021,Renovation,42000,,"500 OLIVE ST",BRYAN,TX,77801,"WOODSON HILLS",,"C W HENRY","500 OLIVE ST",BRYAN,TX,77801,,Owner,,,,,"PALMS CONSTRUCTION",,,,,"PALMS CONSTRUCTION","20 VISA WAY",BRYAN,TX,77807,"(979) 422-2879",,,,
TX,BRAZOS,21-2519,"Residential Renovations & Additions",6/23/2021,Renovation,91800,1770,"2909 BRAEBURN ST",BRYAN,TX,77802,"BRIARCREST ESTATES",,"CLARY MORRIS","2909 BRAEBURN ST",BRYAN,TX,77802,,Owner,,,,,"ABBATE CONSTRUCTION",,,,,"ABBATE CONSTRUCTION","12292 TWIN LAKES CIR","COLLEGE STATION",TX,77845-8122,"(979) 764-2767",http://www.abbateconstructioninc.com/,"(979) 696-2514",,info@abbateconstructioninc.com
TX,BRAZOS,21-2044,"Residential Renovations & Additions",6/30/2021,Renovation,68000,1259,"2704 FLANIGAN ST",BRYAN,TX,77801,BECKWITH,,"MARCEL & BERND HENRICI","2704 FLANIGAN ST",BRYAN,TX,77801,,Owner,,,,,"ANTONIO LEE CONSTRUCTION",,,,,"ANTONIO LEE CONSTRUCTION","3708 FOREST WOOD",BRYAN,TX,77802,"(979) 318-0750",,,,
TX,BRAZORIA,828,"Residential Renovations & Additions",6/15/2021,Renovation,32768,,"117 SPRUCE ST","LAKE JACKSON",TX,77566,,,"KAMELLA GARRISON","117 SPRUCE ST","LAKE JACKSON",TX,77566,,Owner,,,,,OWNER,,,,,OWNER,,,,,,,,,
TX,BRAZORIA,853,"Residential Renovations & Additions",6/15/2021,Renovation,48000,,"104 INDIAN HAWTHORN","LAKE JACKSON",TX,77566,,,"CHARLES & CAROL JONES","104 INDIAN HAWTHORN","LAKE JACKSON",TX,77566,,Owner,,,,,OWNER,,,,,OWNER,,,,,,,,,
TX,BRAZORIA,865,"Residential Renovations & Additions",6/15/2021,Renovation,42500,,"303 NARCISSUS ST","LAKE JACKSON",TX,77566,,,"LIZA & JASON BLOCKER","303 NARCISSUS ST","LAKE JACKSON",TX,77566,,Owner,,,,,OWNER,,,,,OWNER,,,,,,,,,
TX,BRAZORIA,878,"Residential Renovations & Additions",6/15/2021,Renovation,163564,,"434 FOREST DR","LAKE JACKSON",TX,77566,,,"ARTURO & KRISTIN DURAN","434 FOREST DR","LAKE JACKSON",TX,77566,,Owner,,,,,OWNER,,,,,OWNER,,,,,,,,,
TX,BRAZORIA,771,"Residential Renovations & Additions",6/15/2021,Renovation,55537,,"103 ARROWHEAD DR","LAKE JACKSON",TX,77566,,,CONTRACTOR,,,,,,,,,,,"PELTIER BUILDERS",,,,,"PELTIER BUILDERS","2054 COUNTY ROAD 220",ANGLETON,TX,77515-8641,"(979) 849-4418",http://www.peltierbldrs.com/,"(979) 849-5179","DONNIE PELTIER",donnie@peltierbldrs.com
TX,MONTGOMERY,BR-21-012299,"Residential Renovations & Additions",6/30/2021,Renovations,30847,,"302 WILSON RD",CONROE,TX,77301,,,"PATRICIA MAGINNIS","302 WILSON RD",CONROE,TX,77301,,Owner,,,,,OWNER,,,,,OWNER,,,,,,,,,
TX,GALVESTON,35922-21,"Residential Renovations & Additions",7/23/2021,Renovations,40735,,"1826 REDFISH",HOUSTON,TX,77356,,,"ALAN CRAMER INVESTMENTS","PO BOX 2851",BEAUMONT,TX,77704,,Owner,,,,,OWNER,,,,,OWNER,,,,,,,,,
TX,GALVESTON,35925-21,"Residential Renovations & Additions",7/23/2021,Renovations,41690,,"3283 HIDDEN GOLD",HOUSTON,TX,77356,,,"RON RUSCHE","PO BOX 2457","CRYSTAL BEACH",TX,77650,,Owner,,,,,OWNER,,,,,OWNER,,,,,,,,,
TX,GALVESTON,35879-21,"Residential Renovations & Additions",6/10/2021,Renovations,45852,,"1729 RYMAL",HOUSTON,TX,77450,,,"RAUL PEREZ","1319 ROMERO DR",PEARLAND,TX,77581,,Owner,,,,,OWNER,,,,,OWNER,,,,,,,,,
TX,HARRIS,20105498,"Residential Renovations & Additions",7/9/2021,Addition,65000,,"7914 VIRGIL",HOUSTON,TX,77088,,,"CASTRO JOSE","7914 VIRGIL","HOUSTON                                           ",TX,77088,,Owner,,,,,OWNER,,,,,OWNER,,,,,,,,,
TX,HARRIS,21043206,"Residential Renovations & Additions",7/8/2021,Addition,36936,,"503 AZALEADELL",HOUSTON,TX,77018,,,"ALEJANDRO CAPETILLO","503 AZALEADELL","HOUSTON                                           ",TX,77018,,Owner,,,,,"LUCAS CRAFTSMANSHIP",,,,,"LUCAS CRAFTSMANSHIP","2522 YALE ST",HOUSTON,TX,77008-2149,"(713) 864-2510",http://www.lucascraftsmanship.com,"(713) 864-2560",,Billy@lucasci.com
TX,BELL,21-839,"Residential Renovations & Additions",6/16/2021,Renovations,458946,4126,"2602 LEGACY RANCH DR",TEMPLE,TX,76502,"LEGACY RANCH",,CONTRACTOR,,,,,,,,,,,"J HOUSTON HOMES",,,,,"J HOUSTON HOMES","202 N INTERSTATE 35 RD STE C","RED OAK",TX,75154-4296,"(972) 937-4085",,"(972) 937-4697",,info@johnhoustoncustomhomes.com
TX,HARRIS,21056100,"Residential Renovations & Additions",7/12/2021,Renovations,159560,,"1008 CHESHIRE",HOUSTON,TX,77018,,,"CHRISTOPHER BUCK","1008 CHESHIRE","HOUSTON                                           ",TX,77018,,Owner,,,,,"PREMIER REMODELING & CONSTRUCTION",,,,,"PREMIER REMODELING & CONSTRUCTION","901 HARVARD ST",HOUSTON,TX,77008-6934,"(713) 532-1100",http://www.premierremodel.com/,,,info@premierremodel.com
TX,GALVESTON,35941-21,"Residential Renovations & Additions",6/29/2021,Renovations,38505,,"6410 AVE R",HOUSTON,TX,77450,,,NANCYWEADE,"6410 AVER","SANTA FE",TX,77510,,Owner,,,,,"BRIZO CONSTRUCTION",,,,,"BRIZO CONSTRUCTION","1908 AVENUE L","SANTA FE",TX,77510-8917,"(409) 316-4762",,,,
TX,HARRIS,21049196,"Residential Renovations & Additions",7/9/2021,Addition,200000,,"1816 KIPLING",HOUSTON,TX,77098,,,"SAMITA CHRISTIANSON","1816 KIPLING","HOUSTON                                           ",TX,77098,,Owner,,,,,"DC PINES",,,,,"DC PINES","5280 CAROLINE",HOUSTON,TX,77004,"(832) 630-6671",https://dcpines.chasebonfiglio.com/,,,yourbuilder@dcpines.com
TX,HARRIS,21060092,"Residential Renovations & Additions",7/6/2021,Addition,49203,,"12337 RIDGESIDE",HOUSTON,TX,77072,,,"GLENDA AMAYA","12337 RIDGESIDE","HOUSTON                                           ",TX,77072,,Owner,,,,,"STACY LENNON",,,,,"STACY LENNON","5750 SAM HOUSTON",HOUSTON,TX,77032,"(832) 812-8818",,,,
TX,HARRIS,21053318,"Residential Renovations & Additions",7/7/2021,Addition,57000,,"5911 REDDING",HOUSTON,TX,77036,,,"OTONIEL ARCHILA","5911 REDDING",HOUSTON,TX,77036,,Owner,,,,,"STACY LENNON",,,,,"STACY LENNON","5750 SAM HOUSTON",HOUSTON,TX,77032,"(832) 812-8818",,,,
TX,HARRIS,2100531,"Residential Renovations & Additions",6/16/2021,Renovation,158749,402,"601 QUINTANA ROO PL",SEABROOK,TX,77586,,,"GENE & AMIN LAMONICA","601 QUINTANA ROO PL",SEABROOK,TX,77586,,Owner,,,,,"CASA MARE HOMES",,,,,"CASA MARE HOMES","2080 STATE HWY 87","CRYSTAL BEACH",TX,77650,"(281) 802-1359",,,,
TX,GALVESTON,35892-21,"Residential Renovations & Additions",6/17/2021,Renovations,40710,,"807 20TH ST",HOUSTON,TX,77550,,,"STEPHEN HARRIS","807 20TH ST","SAN LEON",TX,77539,,Owner,,,,,"CAMBRIDGE TEGRITY OPERATING COMPANY ",,,,,"CAMBRIDGE TEGRITY OPERATING COMPANY ","8607 COUNTY RD 48",ROSHARON,TX,77583,"(972) 478-8181",,,,
TX,HARRIS,21033219,"Residential Renovations & Additions",7/8/2021,Addition,84165,,"8559 GLENVIEW",HOUSTON,TX,77017,,,"MARIA ARGUETA","8559 GLENVIEW","HOUSTON                                           ",TX,77017,,Owner,,,,,"LEGACY ELECTRICAL SYSTEMS",,,,,"LEGACY ELECTRICAL SYSTEMS","10436 MADISON LEE DRIVE","EL PASO",TX,79927,"(915) 727-8855",,,,
TX,HARRIS,21045225,"Residential Renovations & Additions",7/9/2021,Addition,60000,,"2006 MCDANIEL",HOUSTON,TX,77093,,,"JESUS FUENTES","2006 MCDANIEL","HOUSTON                                           ",TX,77093,,Owner,,,,,OWNER,,,,,OWNER,,,,,,,,,
TX,HARRIS,21037305,"Residential Renovations & Additions",7/9/2021,Renovations,80000,,"7426 MCKINNEY",HOUSTON,TX,77011,,,"MIGUEL GARZA","7426 MCKINNEY","HOUSTON                                           ",TX,77011,,Owner,,,,,OWNER,,,,,OWNER,,,,,,,,,
TX,HARRIS,21011313,"Residential Renovations & Additions",7/7/2021,Addition,30000,,"6017 ARDMORE",HOUSTON,TX,77021,,,"SEAN L DAWSON","6017 ARDMORE","HOUSTON                                           ",TX,77021,,Owner,,,,,"INTERDESIGN CONSTRUCTION GROUP",,,,,"INTERDESIGN CONSTRUCTION GROUP","800 W SAM HOUSTON PKWY S",HOUSTON,TX,77042-1908,"(832) 649-4318",http://interdcg.com/,,,info@interdcg.com
TX,HARRIS,21038612,"Residential Renovations & Additions",7/9/2021,Addition,78890,,"3838 DURNESS",HOUSTON,TX,77025,,,"KEVIN KAPLAN","3838 DURNESS","HOUSTON                                           ",TX,77025,,Owner,,,,,"JENIFER POOL",,,,,"JENIFER POOL","8129 SIGNET ST",HOUSTON,TX,77029-3861,"(713) 672-9345",,,,
TX,BRAZORIA,RES21-01271,"Residential Renovations & Additions",6/14/2021,Addition,,1072,"1319 CRYSTAL LAKE W CIR",PEARLAND,TX,77584,,,"BRIAN ABBY","1319 CRYSTAL LAKE W CIR",PEARLAND,TX,77584,,Owner,,,,,"OLIVO REMODELING",,,,,"OLIVO REMODELING","8515 HINMAN ST",HOUSTON,TX,77061-3233,"(713) 423-4564",,,,
TX,HARRIS,21062770,"Residential Renovations & Additions",7/7/2021,Addition,38016,,"5430 OSPREY",HOUSTON,TX,77048,,,"ABRAHAM SR HAMILTON","5430 OSPREY","HOUSTON                                           ",TX,77048,,Owner,,,,,"PATRICK HICKS",,,,,"PATRICK HICKS","12560 REED RD","SUGAR LAND",TX,77478-3379,"(832) 763-6018",,,,
TX,HARRIS,21039245,"Residential Renovations & Additions",7/6/2021,Addition,65000,,"5526 BOBOLINK",HOUSTON,TX,77017,,,"LUIS RODRIGUEZ","5526 BOBOLINK",HOUSTON,TX,77017,,Owner,,,,,"JUAN RODRIGUEZ",,,,,"JUAN RODRIGUEZ","119 STAR RIDGE",HOUSTON,TX,77382,"(281) 460-5824",,,,
TX,HARRIS,21060552,"Residential Renovations & Additions",7/6/2021,Addition,32250,,"3311 LONGFIELD",HOUSTON,TX,77063,,,"GREEN TED","3311 LONGFIELD","HOUSTON                                           ",TX,77063,,Owner,,,,,"ADRIAN BUCK",,,,,"ADRIAN BUCK","4801 FREIDRICH LANE",HOUSTON,TX,78744,"(512) 220-8203",,,,
TX,HARRIS,21060288,"Residential Renovations & Additions",7/6/2021,Addition,31291,,"8132 BROCKTON",HOUSTON,TX,77017,,,"HENRIETTA RODRIGUEZ","8132 BROCKTON","HOUSTON                                           ",TX,77017,,Owner,,,,,"ADRIAN BUCK",,,,,"ADRIAN BUCK","4801 FREIDRICH LANE",HOUSTON,TX,78744,"(512) 220-8203",,,,
TX,HARRIS,21044641,"Residential Renovations & Additions",7/12/2021,Renovations,73500,,"1215 BOMAR",HOUSTON,TX,77006,,,"KARA FISHKIN","1215 BOMAR","HOUSTON                                           ",TX,77006,,Owner,,,,,"INCREDIBLE HOMES",,,,,"INCREDIBLE HOMES","5814 WINSOME LN",HOUSTON,TX,77581,"(713) 532-2526",https://incrediblehomes.net/,"(713) 952-4925","CAROLINA POMBROL",Info@Incrediblehomes.net
TX,HARRIS,21055777,"Residential Renovations & Additions",7/7/2021,Addition,39248,,"5003 BRIARBEND",HOUSTON,TX,77035,,,"AARON ROBERTS","5003 BRIARBEND","HOUSTON                                           ",TX,77035,,Owner,,,,,"TESLA ENERGY OPERATIONS",,,,,"TESLA ENERGY OPERATIONS","10430 SHADY TRAIL SUITE #108",DALLAS,TX,75220,"(518) 407-9400",,,,
TX,HARRIS,21061423,"Residential Renovations & Additions",7/8/2021,Addition,30000,,"11667 EL AMBAR",HOUSTON,TX,77048,,,"UADE MICHAEL","11667 EL AMBAR","HOUSTON                                           ",TX,77048,,Owner,,,,,"MOHAMMED BARAKAT",,,,,"MOHAMMED BARAKAT","1111 POST OAK",HOUSTON,TX,77056,"(469) 262-8161",,,,
TX,HARRIS,21045642,"Residential Renovations & Additions",7/6/2021,Addition,46243,,"7602 PARKER",HOUSTON,TX,77016,,,"DOCK JR COPELAND","7602 PARKER",HOUSTON,TX,77016,,Owner,,,,,"ERICA FORD",,,,,"ERICA FORD","525 W BASELINE",HOUSTON,TX,85210,"(480) 226-6769",,,,
TX,HARRIS,21052245,"Residential Renovations & Additions",7/12/2021,Addition,54576,,"11730 SELA",HOUSTON,TX,77072,,,"MARIA RAMIREZ","11730 SELA",HOUSTON,TX,77072,,Owner,,,,,"JUSTIN MERKEY",,,,,"JUSTIN MERKEY","6999 LITTLE YORK",HOUSTON,TX,77040,"(832) 798-6353",,,,
TX,HARRIS,21042785,"Residential Renovations & Additions",7/9/2021,Addition,36700,,"4122 LEESHIRE",HOUSTON,TX,77025,,,"RANJEET PATIL","4122 LEESHIRE","HOUSTON                                           ",TX,77025,,Owner,,,,,"BRIAN TATOM",,,,,"BRIAN TATOM","41 COUNTY ROAD",HOUSTON,TX,77535,"(832) 309-2902",,,,
TX,HARRIS,21027962,"Residential Renovations & Additions",7/8/2021,Addition,40000,,"1305 BULLOCK",HOUSTON,TX,77055,,,"WILLIAM POWELL","1305 BULLOCK",HOUSTON,TX,77055,,Owner,,,,,"REGIO'S SERVICE GROUP",,,,,"REGIO'S SERVICE GROUP","2870 GESSNER RD STE C6",HOUSTON,TX,77080-2555,"(832) 774-1239",,,,
TX,HARRIS,21048919,"Residential Renovations & Additions",7/9/2021,Addition,92343,,"3506 KINGS MOUNTAIN",HOUSTON,TX,77345,,,"ROSAURY VIAJE","3506 KINGS MOUNTAIN",HOUSTON,TX,77345,,Owner,,,,,OWNER,,,,,OWNER,,,,,,,,,
TX,HARRIS,21061505,"Residential Renovations & Additions",7/9/2021,Addition,35111,,"5709 SHERMAN ST",HOUSTON,TX,77011,,,"VILLARREAL R ODOLFO","5709 SHERMAN ST","HOUSTON                                           ",TX,77011,,Owner,,,,,OWNER,,,,,OWNER,,,,,,,,,
TX,HARRIS,21051607,"Residential Renovations & Additions",7/10/2021,Addition,76200,,"3206 ACORN WOOD",HOUSTON,TX,77059,,,"SARKER ZAKI","3206 ACORN WOOD","HOUSTON                                           ",TX,77059,"(281) 932-1213",Owner,,,,,OWNER,,,,,OWNER,,,,,,,,,
TX,BRAZORIA,RES21-01489,"Residential Renovations & Additions",6/17/2021,Renovation,,2853,"3921 N OAKWOOD DR",PEARLAND,TX,77581,,,"KEITH & CHERIE MEYER","3921 N OAKWOOD DR",PEARLAND,TX,77581,,Owner,,,,,"WINDOW WORLD OF AUSTIN",,,,,"WINDOW WORLD OF AUSTIN","9909 BURNET RD",AUSTIN,TX,78758-5239,"(512) 383-1222",,,,
TX,HARRIS,21023512,"Residential Renovations & Additions",7/12/2021,Addition,87000,,"402 E 26TH",HOUSTON,TX,77008,,,"CAROL TOUPS","402 E 26TH","HOUSTON                                           ",TX,77008,,Owner,,,,,"HARVARD HEIGHTS CONSTRUCTION",,,,,"HARVARD HEIGHTS CONSTRUCTION","940 HARVARD ST",HOUSTON,TX,77008-6935,"(713) 880-8090",http://harvardheights.com/,,,harvardheights@aol.com
TX,HARRIS,21052814,"Residential Renovations & Additions",7/7/2021,Addition,75000,,"2034 NINA LEE",HOUSTON,TX,77018,,,"TERRY SMITH","2034 NINA LEE","HOUSTON                                           ",TX,77018,,Owner,,,,,"NORTHSTAR POOLS",,,,,"NORTHSTAR POOLS","7703 PENROSE POINT DR",HOUSTON,TX,77095-1708,"(281) 858-7760",http://www.northstarpools.com,,,
TX,HARRIS,21050521,"Residential Renovations & Additions",7/9/2021,Addition,44520,,"9910 BALMFORTH",HOUSTON,TX,77096,,,"PAUL SWINTON","9910 BALMFORTH","HOUSTON                                           ",TX,77096,,Owner,,,,,"SUNSHINE RENEWABLE SOLUTIONS",,,,,"SUNSHINE RENEWABLE SOLUTIONS","4011 VALLEY GREEN CT",HOUSTON,TX,77059-5557,"(832) 280-8838",,,,
TX,HARRIS,21054945,"Residential Renovations & Additions",7/9/2021,Addition,58090,,"1711 PARK HARBOR ESTATES",HOUSTON,TX,77084,,,"BLAKE WALDRON","1711 PARK HARBOR ESTATES","HOUSTON                                           ",TX,77084,,Owner,,,,,"ADRIAN BUCK",,,,,"ADRIAN BUCK","4801 FREIDRICH LANE",HOUSTON,TX,78744,"(512) 220-8203",,,,
TX,BRAZOS,21-2270,"Residential Swimming Pools & Spas",6/7/2021,,81000,,"3205 OLD SRPING WAY",BRYAN,TX,77808,,,CONTRACTOR,,,,,,,,,,,"PREMIER POOLS & SPAS",,,,,"PREMIER POOLS & SPAS","2810 BUSINESS CENTER DR STE 126",PEARLAND,TX,77584-9783,"(713) 436-4944",,"(713) 436-0081","BILL UNGER",bunger@ppas.com
TX,BRAZOS,21-1631,"Residential Swimming Pools & Spas",6/17/2021,,40000,,"2012 POLMONT DR",BRYAN,TX,77807,,,"DANIEL & KATHERINE ROBERTS","2012 POLMONT DR",BRYAN,TX,77807,,Owner,,,,,"SUNSHINE FUN POOLS ",,,,,"SUNSHINE FUN POOLS ","4200 STATE HIGHWAY 6 S","COLLEGE STATION",TX,77845-8966,"(979) 690-3343",,,,
TX,BRAZOS,21-2132,"Residential Swimming Pools & Spas",6/8/2021,,60000,,"3353 STONINGTON WAY",BRYAN,TX,77808,,,CONTRACTOR,,,,,,,,,,,"THE POOL GUY",,,,,"THE POOL GUY","2151 HARVEY MITCHELL PKWY S STE 313","COLLEGE STATION",TX,77840-5243,"(979) 575-6200",,,,
TX,BRAZOS,21-2336,"Residential Swimming Pools & Spas",6/15/2021,,35000,,"3506 BROAD OAK CIR",BRYAN,TX,77802,"WHEELER RIDGE",,"JEREMY & NICOLE HILLAND","3506 BROAD OAK CIR",BRYAN,TX,77802,,Owner,,,,,"PARADISE OASIS POOLS",,,,,"PARADISE OASIS POOLS","404 UNIVERSITY DR E STE B","COLLEGE STATION",TX,77840-1743,"(979) 704-6102",http://www.paradiseoasispools.com/,,,
TX,BELL,2021-7122,"Residential Swimming Pools & Spas",6/17/2021,,,,"3309 VICTORIA MEADOW DR",BELTON,TX,76513,,,"MELANIE MOORE","3309 VICTORIA MEADOW DR",BELTON,TX,76513,,Owner,,,,,OWNER,,,,,OWNER,,,,,,,,,
TX,HARRIS,"21 - 0355","Residential Swimming Pools & Spas",6/29/2021,,,,"2003 SEA COVE CT","NASSAU BAY",TX,77058,,,"STEVEN L BURLESON","2003 SEA COVE CT","NASSAU BAY",TX,77058,,Owner,,,,,OWNER,,,,,OWNER,,,,,,,,,
TX,HARRIS,"21 - 0320","Residential Swimming Pools & Spas",6/30/2021,,,,"1911 SILVER BANK CT","NASSAU BAY",TX,77058,,,"MICHAEL D & HENDERSON","1911 SILVER BANK CT","NASSAU BAY",TX,77058,,Owner,,,,,"MCKINNEY CUSTOM POOLS",,,,,"MCKINNEY CUSTOM POOLS","16802 HARKEY RD",PEARLAND,TX,77584-5070,"(281) 489-9800",http://www.mckinneycustompools.net,"(281) 489-9814",,mckinneypools@yahoo.com
TX,BELL,2021-7147,"Residential Swimming Pools & Spas",6/28/2021,,,,"1859 LACY RIDGE DR",BELTON,TX,76513,,,"STEPHEN & COLLEEN STEARNS","1859 LACY RIDGE DR",BELTON,TX,76513,,Owner,,,,,"OCEAN QUEST POOLS",,,,,"OCEAN QUEST POOLS","10208 N FM 620",AUSTIN,TX,78726-2214,"(512) 450-0595",http://www.oceanquest.com/,"(512) 258-7379","DAN HARTNETT",danh@oceanquest.com
TX,BELL,2021-7100,"Residential Swimming Pools & Spas",6/14/2021,,79907,,"445 CREEKSIDE DR",BELTON,TX,76513,,,"GREGORY & DAWN CLARK","445 CREEKSIDE DR",BELTON,TX,76513,,Owner,,,,,"CENTRAL TEXAS POOL & PATIO LLC",,,,,"CENTRAL TEXAS POOL & PATIO LLC","407 OW LOWREY",SALADO,TX,76571-5566,"(254) 251-1193",http://www.centraltexaspoolandpatio.com/,,"CHRIS PERRY",chris@centraltexaspoolandpatio.com
TX,MONTGOMERY,PO-21-009991,"Residential Swimming Pools & Spas",6/4/2021,,,,"12193 PEARL BAY CT",CONROE,TX,77303,,,"ROSEMINE MATHEWS","12193 PEARL BAY CT",CONROE,TX,77303,,Owner,,,,,OWNER,,,,,OWNER,,,,,,,,,
TX,MONTGOMERY,PO-21-006523,"Residential Swimming Pools & Spas",6/25/2021,,,,"14523 DIAMONDHEAD N",CONROE,TX,77304,,,"ROY & SUZANNE HENDERSON","14523 DIAMONDHEAD N",CONROE,TX,77304,,Owner,,,,,"BELLO DOMANI OUTDOOR DESIGN",,,,,"BELLO DOMANI OUTDOOR DESIGN","26813 I-45 N","THE WOODLANDS",TX,77380,"(281) 378-5233",http://www.bellodomani.com,"(281) 376-0182","CHRIS CAMPBELL",
TX,MONTGOMERY,PO-21-012344,"Residential Swimming Pools & Spas",6/29/2021,,,,"11210 QUIET LAKE DR",CONROE,TX,77304,,,"GREGORY & SUZANNE YORK","11210 QUIET LAKE DR",CONROE,TX,77304,,Owner,,,,,"LIQUID EXTREME POOLS ",,,,,"LIQUID EXTREME POOLS ","2327 SENDERA RANCH DR",MAGNOLIA,TX,77354-6838,"(713) 384-3835",http://www.liquidextremepools.com,"(866) 657-7665","ROB PRALL",info@liquidextremepools.com
TX,MONTGOMERY,PO-21-010312,"Residential Swimming Pools & Spas",6/10/2021,,,4112,"1852 LEELA SPRINGS DR   ",CONROE,TX,77304,,,"JOHN & CYNDI WESTRUP","1852 LEELA SPRINGS DR   ",CONROE,TX,77304,,Owner,,,,,"LENNAR HOMES",,,,,"LENNAR HOMES","550 GREENS PKWY",HOUSTON,TX,77067-4537,"(281) 875-1000",http://www.lennar.com/,,,
TX,HARRIS,2100569,"Residential Swimming Pools & Spas",6/23/2021,,67314,670,"2915 SEA LEDGE DR",SEABROOK,TX,77586,,,"EMMANUEL & MEGAN DRUMMOND ","2915 SEA LEDGE DR",SEABROOK,TX,77586,,Owner,,,,,"PREFERRED POOLS",,,,,"PREFERRED POOLS","1130 WINFIELD LN",KEMAH,TX,77565-3182,"(281) 334-1150",http://www.preferredpoolsofhouston.com/,,,
TX,MONTGOMERY,PO-21-010050,"Residential Swimming Pools & Spas",6/14/2021,,,,"2123 BARTON WOODS BLVD",CONROE,TX,77304,,,"TIMOTHY & ALIDA WRIGHT","2123 BARTON WOODS BLVD",CONROE,TX,77304,,Owner,,,,,"SUPREME POOLS & SPAS",,,,,"SUPREME POOLS & SPAS","22626 KUYKENDAHL RD",SPRING,TX,77389-5121,"(281) 350-4410",http://www.supremepoolsandspas.net/,"(281) 370-4474",,info@supremepoolsandspas.net
TX,MONTGOMERY,PO-21-008421,"Residential Swimming Pools & Spas",6/30/2021,,,,"211 TWILIGHT TOAST DR",CONROE,TX,77304,,,CONTRACTOR,,,,,,,,,,,"MHI MCGUYER HOMEBUILDERS",,,,,"MHI MCGUYER HOMEBUILDERS","7676 WOODWAY DR",HOUSTON,TX,77063-1526,"(713) 260-4107",,,,
TX,MONTGOMERY,PO-21-011461,"Residential Swimming Pools & Spas",6/25/2021,,,6134,"2 QUINNS CABIN CT",CONROE,TX,77304,,,"ROBERT M BARD","2 QUINNS CABIN CT",CONROE,TX,77304,,Owner,,,,,"SUN SOURCE POOLS AND SUPPLIES",,,,,"SUN SOURCE POOLS AND SUPPLIES","15917 HIGHWAY 105 W STE A",MONTGOMERY,TX,77356-6044,"(936) 588-7500",http://www.poolsmontgomery.com/,,,beckydobbins@hotmail.com
TX,MONTGOMERY,PO-21-010342,"Residential Swimming Pools & Spas",6/4/2021,,,,"2003 BORTHWICK LN  ",CONROE,TX,77304,,,"SCOTT & KIMBERLY PERRY","2003 BORTHWICK LN  ",CONROE,TX,77304,,Owner,,,,,"TOWN & COUNTRY POOLS",,,,,"TOWN & COUNTRY POOLS","7010 FM 1488 RD",MAGNOLIA,TX,77354-4774,"(281) 601-4638",,,,
TX,HARRIS,2100484,"Residential Swimming Pools & Spas",6/9/2021,,96000,623,"4706 HAMBLEN CT",SEABROOK,TX,77586,,,"ERIC & CARRIE RAGGIO","4706 HAMBLEN CT",SEABROOK,TX,77586,,Owner,,,,,"BACKYARD AMENITIES",,,,,"BACKYARD AMENITIES","11163 OLD NEEDLEPOINT RD STE 100",BAYTOWN,TX,77523-9784,"(281) 837-8234",http://www.backyardamenities.com,,,info@backyardamenities.com
TX,HARRIS,2100432,"Residential Swimming Pools & Spas",6/21/2021,,54478,400,"810 JUNE WOOD WAY",SEABROOK,TX,77586,,,"JOSEPH & DAGMAR SCHAROLD","810 JUNE WOOD WAY",SEABROOK,TX,77586,,Owner,,,,,"BELLA OASIS POOLS",,,,,"BELLA OASIS POOLS","264 WESTWOOD DR","LEAGUE CITY",TX,77573-3488,"(832) 632-2645",http://www.bellaoasispools.com/,"(832) 632-2703",,
TX,MONTGOMERY,PO-21-010662,"Residential Swimming Pools & Spas",6/9/2021,,,,"223 TORREY BLOOM LOOP",CONROE,TX,77304,,,CONTRACTOR,,,,,,,,,,,"PERRY HOMES",,,,,"PERRY HOMES","9000 GULF FWY",HOUSTON,TX,77017-7018,"(713) 417-1396",,,,
TX,MONTGOMERY,PO-21-011017,"Residential Swimming Pools & Spas",6/11/2021,,,,"173 LAKE VIEW CIR",CONROE,TX,77304,,,"STEVE A & CARRIE L  MATHIS","173 LAKE VIEW CIR",CONROE,TX,77304,,Owner,,,,,"EPIK POOLS",,,,,"EPIK POOLS","31315 FM 2978 RD",MAGNOLIA,TX,77354-2305,"(281) 259-6171",http://www.epikpools.com/,,,epikpools@yahoo.com
TX,HARRIS,2100471,"Residential Swimming Pools & Spas",6/1/2021,,123996,811,"1485 LAKE MIJA CT",SEABROOK,TX,77586,,,CONTRACTOR,,,,,,,,,,,"SOUTHERN CHARM POOLS",,,,,"SOUTHERN CHARM POOLS","417 LADDINGFORD LN","LEAGUE CITY",TX,77573-1846,"(281) 595-7665",http://www.southerncharmpools.net/,,,Chris@Southerncharmpools.Net
TX,MONTGOMERY,PO-21-009760,"Residential Swimming Pools & Spas",6/2/2021,,,,"12235 SEAGRAPE LN    ",CONROE,TX,77303,,,CONTRACTOR,,,,,,,,,,,"DR HORTON",,,,,"DR HORTON","14100 SOUTHWEST",HOUSTON,TX,77478,"(281) 201-5559",,,,
TX,MONTGOMERY,PO-21-009752,"Residential Swimming Pools & Spas",6/2/2021,,,,"2206 TIMBERLAND COUNTRY CT",CONROE,TX,77303,,,"CHRISTOPHER BENNETT","2206 TIMBERLAND COUNTRY CT",CONROE,TX,77303,,Owner,,,,,"C3 BUILDING SOLUTIONS",,,,,"C3 BUILDING SOLUTIONS","5535 MEMORIAL DRIVE",HOUSTON,TX,77007,"(713) 369-0925",http://www.c3buildingsolutions.com,,,
TX,MONTGOMERY,PO-21-009752,"Residential Swimming Pools & Spas",6/2/2021,,,,"2206 TIMBERLAND COUNTRY CT   ",CONROE,TX,77304,,,"PATRICK & DANIELLE MURPHY","2206 TIMBERLAND COUNTRY CT",CONROE,TX,77304,,Owner,,,,,"C3 BUILDING SOLUTIONS",,,,,"C3 BUILDING SOLUTIONS","5535 MEMORIAL DRIVE",HOUSTON,TX,77007,"(713) 369-0925",http://www.c3buildingsolutions.com,,,
TX,MONTGOMERY,PO-21-011774,"Residential Swimming Pools & Spas",6/23/2021,,,,"196 APRIL WATERS DR N",CONROE,TX,77304,,,"STEVEN P & ARTURO SANDOVAL BURBRIDGE","196 APRIL WATERS DR N",CONROE,TX,77304,,Owner,,,,,"JUAN RODRIGUEZ",,,,,"JUAN RODRIGUEZ","119 STAR RIDGE",HOUSTON,TX,77382,"(281) 460-5824",,,,
TX,MONTGOMERY,PO-21-009755,"Residential Swimming Pools & Spas",6/3/2021,,,3869,"12239 SEAGRAPE LN     ",CONROE,TX,77303,,,CONTRACTOR,,,,,,,,,,,"THE POOL WHISPERER",,,,,"THE POOL WHISPERER","2540 FARM TO MARKET SUITE C",SPRING,TX,77388,"(832) 515-5774",,,,
TX,MONTGOMERY,PO-21-009792,"Residential Swimming Pools & Spas",6/3/2021,,,,"2146 BARTON WOODS BLVD",CONROE,TX,77304,,,"JOHN & MISTY SHIBLEY","2146 BARTON WOODS BLVD",CONROE,TX,77304,,Owner,,,,,"THE POOL WHISPERER",,,,,"THE POOL WHISPERER","2540 FARM TO MARKET SUITE C",SPRING,TX,77388,"(832) 515-5774",,,,
TX,MONTGOMERY,PO-21-010318,"Residential Swimming Pools & Spas",6/7/2021,,,,"2067 BROOKMONT DR",CONROE,TX,77304,,,"ADAM TODD","2067 BROOKMONT DR",CONROE,TX,77304,,Owner,,,,,"NORMA PAREDES",,,,,"NORMA PAREDES","16230 BELLFORT",HOUSTON,TX,77498,"(281) 832-5989",,,,
TX,BELL,21-53,"Residential Swimming Pools & Spas",6/21/2021,,,,"2121 W FM 93",TEMPLE,TX,76502,,,"THOMAS & DONNA BEACH","2121 W FM 93",TEMPLE,TX,76502,,Owner,,,,,POOL-OLOGY,,,,,POOL-OLOGY,"127 LACEY LOU LN",SALADO,TX,76571,"(844) 336-7665",https://www.pool-ology.com/,,,
TX,MONTGOMERY,PO-21-010008,"Residential Swimming Pools & Spas",6/3/2021,,,,"115 HUSHED NIGHTFALL CT",CONROE,TX,77304,,,CONTRACTOR,,,,,,,,,,,"TOTAL POOL CARE",,,,,"TOTAL POOL CARE","1018 SAWDUST ROAD 20",SPRING,TX,77380,"(832) 332-9988",https://www.totalpoolcare.net/,,,
TX,MONTGOMERY,PO-21-010343,"Residential Swimming Pools & Spas",6/7/2021,,,,"207 CALM SAVANNA CT",CONROE,TX,77304,,,CONTRACTOR,,,,,,,,,,,"TOTAL POOL CARE",,,,,"TOTAL POOL CARE","1018 SAWDUST ROAD 20",SPRING,TX,77380,"(832) 332-9988",https://www.totalpoolcare.net/,,,
TX,MONTGOMERY,PO-21-009781,"Residential Swimming Pools & Spas",6/4/2021,,,,"7302 MASQUERADE LN",CONROE,TX,77304,,,"JAZMON & CHELSEA SIMMONS","7302 MASQUERADE LN",CONROE,TX,77304,,Owner,,,,,"ST. CROIX CUSTOM POOLS",,,,,"ST. CROIX CUSTOM POOLS","12801 INTERSTATE 45 N",WILLIS,TX,77318,"(936) 203-7560",http://stcroixpools.com/,,,mark@stxpools.com
TX,MONTGOMERY,PO-21-010269,"Residential Swimming Pools & Spas",6/7/2021,,,4512,"13235 SONALI SPRINGS DR",CONROE,TX,77304,,,"MICHAEL & KATHY HENRY","13235 SONALI SPRINGS DR",CONROE,TX,77304,,Owner,,,,,"ST. CROIX CUSTOM POOLS",,,,,"ST. CROIX CUSTOM POOLS","12801 INTERSTATE 45 N",WILLIS,TX,77318,"(936) 203-7560",http://stcroixpools.com/,,,mark@stxpools.com
TX,MONTGOMERY,PO-21-008359,"Residential Swimming Pools & Spas",6/28/2021,,,5218,"14646 WHISTLING OAKS DR",CONROE,TX,77356,,,"JOY R & TIMOTHY B DAVIS","14646 WHISTLING OAKS DR",CONROE,TX,77356,,Owner,,,,,"TURN KEY POOLS & PATIOS",,,,,"TURN KEY POOLS & PATIOS","15201 WALDEN RD",CONROE,TX,77356,"(713) 459-7593",,,,
TX,MONTGOMERY,PO-21-011974,"Residential Swimming Pools & Spas",6/23/2021,,,4441,"2103 PALE STAR CT    ",CONROE,TX,77304,,,CONTRACTOR,,,,,,,,,,,"TOMBALL GRAND STORAGE",,,,,"TOMBALL GRAND STORAGE","11714 BOUDREAUX DR STE 208",TOMBALL,TX,77375,"(281) 357-8226",https://tomballgrandstorage.com/,,,
TX,BRAZORIA,RES21-01363,"Residential Swimming Pools & Spas",6/10/2021,,,,"3543 MORNING HILL CT",PEARLAND,TX,77584,,,"LANCE & NYX BLACK","3543 MORNING HILL CT",PEARLAND,TX,77584,,Owner,,,,,OWNER,,,,,OWNER,,,,,,,,,
TX,HARRIS,21012175,"Residential Swimming Pools & Spas",7/12/2021,,328011,,"6307 S ROYAL POINT",HOUSTON,TX,77345,,,"JULI MORMAN","6307 S ROYAL POINT","HOUSTON                                           ",TX,77345,,Owner,,,,,OWNER,,,,,OWNER,,,,,,,,,
TX,BRAZORIA,RES21-01457,"Residential Swimming Pools & Spas",6/23/2021,,,,"12318 BEND CREEK LN",PEARLAND,TX,77584,,,"CURTIS WALKER","12318 BEND CREEK LN",PEARLAND,TX,77584,,Owner,,,,,"PREMIER POOLS & SPAS",,,,,"PREMIER POOLS & SPAS","2810 BUSINESS CENTER DR STE 126",PEARLAND,TX,77584-9783,"(713) 436-4944",,"(713) 436-0081","BILL UNGER",bunger@ppas.com
TX,BRAZORIA,RES21-01330,"Residential Swimming Pools & Spas",6/2/2021,,,,"2112 RIPPLE BEND LN",PEARLAND,TX,77581,,,"JOSHU& SUSAN CARP","2112 RIPPLE BEND LN",PEARLAND,TX,77581,,Owner,,,,,"PEARLAND POOLS",,,,,"PEARLAND POOLS","5510 MAGNOLIA",HOUSTON,TX,77584,"(281) 412-6445",http://www.pearlandpools.com/,"(281) 412-2791",,info@pearlandpools.com
TX,BRAZORIA,RES21-01405,"Residential Swimming Pools & Spas",6/17/2021,,,,"2650 NORTHWOOD HOLLOW TRL",PEARLAND,TX,77089,,,"DANIEL & AMY DUNLAVEY","2650 NORTHWOOD HOLLOW TRL",PEARLAND,TX,77089,,Owner,,,,,"HORIZON POOLS & LANDSCAPE",,,,,"HORIZON POOLS & LANDSCAPE","5903 BROADWAY ST",PEARLAND,TX,77581-7807,"(281) 997-7272",http://www.horizonpoolsandlandscape.com/,,"ERICA WITT",
TX,BRAZORIA,RES21-01434,"Residential Swimming Pools & Spas",6/17/2021,,,,"12902 HIDDEN OAK WAY",PEARLAND,TX,77584,,,"JOSE &  ANGELITA ALQUIZA","12902 HIDDEN OAK WAY",PEARLAND,TX,77584,,Owner,,,,,"HORIZON POOLS & LANDSCAPE",,,,,"HORIZON POOLS & LANDSCAPE","5903 BROADWAY ST",PEARLAND,TX,77581-7807,"(281) 997-7272",http://www.horizonpoolsandlandscape.com/,,"ERICA WITT",
TX,HARRIS,21054451,"Residential Swimming Pools & Spas",7/8/2021,,39000,,"11846 WESTMERE",HOUSTON,TX,77077,,,"JENNIFER HOBBS","11846 WESTMERE",HOUSTON,TX,77077,,Owner,,,,,"COBALT CUSTOM POOLS",,,,,"COBALT CUSTOM POOLS","24707 BLANE DR",KATY,TX,77493-2714,"(832) 758-0331",http://www.cobaltcustompools.com/,,,clint@cobaltcustompools.com
TX,BRAZORIA,RES21-01332,"Residential Swimming Pools & Spas",6/2/2021,,,,"3412 SNOW BLOSSOM CT",PEARLAND,TX,77581,,,"GLEN & KAMEELAH RUSSELL","3412 SNOW BLOSSOM CT",PEARLAND,TX,77581,,Owner,,,,,"MCKINNEY CUSTOM POOLS",,,,,"MCKINNEY CUSTOM POOLS","16802 HARKEY RD",PEARLAND,TX,77584-5070,"(281) 489-9800",http://www.mckinneycustompools.net,"(281) 489-9814",,mckinneypools@yahoo.com
TX,BRAZORIA,RES21-01209,"Residential Swimming Pools & Spas",6/3/2021,,,,"2503 RUSTING CREEK DR",PEARLAND,TX,77584,,,"JUAN & NORMA SANDOVAL","2503 RUSTING CREEK DR",PEARLAND,TX,77584,,Owner,,,,,"MCKINNEY CUSTOM POOLS",,,,,"MCKINNEY CUSTOM POOLS","16802 HARKEY RD",PEARLAND,TX,77584-5070,"(281) 489-9800",http://www.mckinneycustompools.net,"(281) 489-9814",,mckinneypools@yahoo.com
TX,BRAZORIA,RES21-01331,"Residential Swimming Pools & Spas",6/21/2021,,,,"12514 IVY RUN LN",PEARLAND,TX,77584,,,"LEAL AMORIM","12514 IVY RUN LN",PEARLAND,TX,77584,,Owner,,,,,"MCKINNEY CUSTOM POOLS",,,,,"MCKINNEY CUSTOM POOLS","16802 HARKEY RD",PEARLAND,TX,77584-5070,"(281) 489-9800",http://www.mckinneycustompools.net,"(281) 489-9814",,mckinneypools@yahoo.com
TX,BRAZORIA,RES21-01402,"Residential Swimming Pools & Spas",6/22/2021,,,,"2203 VERONA DR",PEARLAND,TX,77581,,,"SONIA BHATT","2203 VERONA DR",PEARLAND,TX,77581,,Owner,,,,,"MCKINNEY CUSTOM POOLS",,,,,"MCKINNEY CUSTOM POOLS","16802 HARKEY RD",PEARLAND,TX,77584-5070,"(281) 489-9800",http://www.mckinneycustompools.net,"(281) 489-9814",,mckinneypools@yahoo.com
TX,BRAZORIA,RES21-01424,"Residential Swimming Pools & Spas",6/22/2021,,,,"2104 STONEWOOD HEIGHTS CT",PEARLAND,TX,77581,,,"JOSHUA MONTOYA","2104 STONEWOOD HEIGHTS CT",PEARLAND,TX,77581,,Owner,,,,,"MCKINNEY CUSTOM POOLS",,,,,"MCKINNEY CUSTOM POOLS","16802 HARKEY RD",PEARLAND,TX,77584-5070,"(281) 489-9800",http://www.mckinneycustompools.net,"(281) 489-9814",,mckinneypools@yahoo.com
TX,BRAZORIA,RES21-01433,"Residential Swimming Pools & Spas",6/22/2021,,,,"3572 MUSTANG RIDGE LN",PEARLAND,TX,77584,,,"MICHAEL GERBER","3572 MUSTANG RIDGE LN",PEARLAND,TX,77584,,Owner,,,,,"MCKINNEY CUSTOM POOLS",,,,,"MCKINNEY CUSTOM POOLS","16802 HARKEY RD",PEARLAND,TX,77584-5070,"(281) 489-9800",http://www.mckinneycustompools.net,"(281) 489-9814",,mckinneypools@yahoo.com
TX,BRAZORIA,RES21-01371,"Residential Swimming Pools & Spas",6/25/2021,,,,"3602 GRACIE CIR",PEARLAND,TX,77584,,,"LITO JUNIO","3602 GRACIE CIR",PEARLAND,TX,77584,,Owner,,,,,"MCKINNEY CUSTOM POOLS",,,,,"MCKINNEY CUSTOM POOLS","16802 HARKEY RD",PEARLAND,TX,77584-5070,"(281) 489-9800",http://www.mckinneycustompools.net,"(281) 489-9814",,mckinneypools@yahoo.com
TX,HARRIS,21027896,"Residential Swimming Pools & Spas",7/8/2021,,94030,,"4714 N BRAESWOOD",HOUSTON,TX,77096,,,"ANTONIO NUTALL","4714 N BRAESWOOD",HOUSTON,TX,77096,,Owner,,,,,"SUPREME POOLS & SPAS",,,,,"SUPREME POOLS & SPAS","22626 KUYKENDAHL RD",SPRING,TX,77389-5121,"(281) 350-4410",http://www.supremepoolsandspas.net/,"(281) 370-4474",,info@supremepoolsandspas.net
TX,BRAZORIA,RES21-01452,"Residential Swimming Pools & Spas",6/15/2021,,,177,"9715 BERKSHIRE TRACE",PEARLAND,TX,77584,,,"BRYAN & VICKI HEBERT","9715 BERKSHIRE TRACE",PEARLAND,TX,77584,,Owner,,,,,"SOUTHEAST POOLS",,,,,"SOUTHEAST POOLS","3510 ELLIES LN",MANVEL,TX,77578-3950,"(281) 546-7900",,,"JAIME MARTINEZ",
TX,BRAZORIA,RES21-01583,"Residential Swimming Pools & Spas",6/29/2021,,,,"2505 SEABROUGH DR",PEARLAND,TX,77584,,,"ROBERT & LILIBETH CHIN","2505 SEABROUGH DR",PEARLAND,TX,77584,,Owner,,,,,"BACKYARD AMENITIES",,,,,"BACKYARD AMENITIES","11163 OLD NEEDLEPOINT RD STE 100",BAYTOWN,TX,77523-9784,"(281) 837-8234",http://www.backyardamenities.com,,,info@backyardamenities.com
TX,BRAZORIA,RES21-01537,"Residential Swimming Pools & Spas",6/22/2021,,,,"1701 BRIGHTON BROOK LN",PEARLAND,TX,77581,,,"BENJAMIN & JAMIE KASPER","1701 BRIGHTON BROOK LN",PEARLAND,TX,77581,,Owner,,,,,"BACKYARD AMENITIES",,,,,"BACKYARD AMENITIES","11163 OLD NEEDLEPOINT RD STE 100",BAYTOWN,TX,77523-9784,"(281) 837-8234",http://www.backyardamenities.com,,,info@backyardamenities.com
TX,BRAZORIA,RES21-01287,"Residential Swimming Pools & Spas",6/1/2021,,,807,"3219 BRENTWOOD LN",PEARLAND,TX,77581,,,"LEE RODRIGUEZ","3219 BRENTWOOD LN",PEARLAND,TX,77581,,Owner,,,,,"ANTHONY & SYLVAN POOLS",,,,,"ANTHONY & SYLVAN POOLS","1424 W SAM HOUSTON PKWY N",HOUSTON,TX,77043-3193,"(713) 467-6458",http://www.anthonysylvan.com/,,,
TX,BRAZORIA,RES21-01473,"Residential Swimming Pools & Spas",6/16/2021,,,1126,"3504 DAPPLED RIDGE WAY",PEARLAND,TX,77581,,,"LAURA RAMOS","3504 DAPPLED RIDGE WAY",PEARLAND,TX,77581,,Owner,,,,,"ANTHONY & SYLVAN POOLS",,,,,"ANTHONY & SYLVAN POOLS","1424 W SAM HOUSTON PKWY N",HOUSTON,TX,77043-3193,"(713) 467-6458",http://www.anthonysylvan.com/,,,
TX,BRAZORIA,RES21-01474,"Residential Swimming Pools & Spas",6/16/2021,,,663,"3155 MORGAN MEADOW LN",PEARLAND,TX,77584,,,"RIM MOHAMED","3155 MORGAN MEADOW LN",PEARLAND,TX,77584,,Owner,,,,,"ANTHONY & SYLVAN POOLS",,,,,"ANTHONY & SYLVAN POOLS","1424 W SAM HOUSTON PKWY N",HOUSTON,TX,77043-3193,"(713) 467-6458",http://www.anthonysylvan.com/,,,
TX,HARRIS,21057896,"Residential Swimming Pools & Spas",7/9/2021,,116000,,"2536 WHITE OAK",HOUSTON,TX,77009,,,CONTRACTOR,,,,,,,,,,,"PLATINUM POOLS",,,,,"PLATINUM POOLS","4500 BLALOCK RD",HOUSTON,TX,77041-9121,"(281) 870-1600",,,,
TX,HARRIS,21051897,"Residential Swimming Pools & Spas",7/6/2021,,53000,,"9353 LETO",HOUSTON,TX,77080,,,"JOHN  REDFIELD","9353 LETO","HOUSTON                                           ",TX,77080,,Owner,,,,,"WATER'S EDGE",,,,,"WATER'S EDGE","1850 HOLLISTER ST",HOUSTON,TX,77080-6802,"(713) 882-0456",http://www.weoutdoorliving.com,"(713) 849-6609",,
TX,BRAZORIA,RES21-00180,"Residential Swimming Pools & Spas",6/14/2021,,,,"1603 GATECREEK DR",PEARLAND,TX,77581,,,"KEVIN FORNFEIST","1603 GATECREEK DR",PEARLAND,TX,77581,,Owner,,,,,"TEAM AQUA POOLS & SPAS",,,,,"TEAM AQUA POOLS & SPAS","12826 RIPPLEWOOD LN",HOUSTON,TX,77015-2056,"(713) 450-1053",,,,
TX,BRAZORIA,RES21-01167,"Residential Swimming Pools & Spas",6/15/2021,,,,"2802 MERLIN LN",PEARLAND,TX,77581,,,"KELSEY BOTHNER","2802 MERLIN LN",PEARLAND,TX,77581,,Owner,,,,,"J'S POOLS & SPAS",,,,,"J'S POOLS & SPAS","19802 ALTON SPRINGS DR",CYPRESS,TX,77433-4113,"(833) 674-4998",http://www.jspoolsandspas.com,,,
TX,BRAZORIA,RES21-01385,"Residential Swimming Pools & Spas",6/15/2021,,,,"4907 PECAN GROVE DR",PEARLAND,TX,77584,,,"MARY ELBERT","4907 PECAN GROVE DR",PEARLAND,TX,77584,,Owner,,,,,"J'S POOLS & SPAS",,,,,"J'S POOLS & SPAS","19802 ALTON SPRINGS DR",CYPRESS,TX,77433-4113,"(833) 674-4998",http://www.jspoolsandspas.com,,,
TX,BRAZORIA,RESIDENTIAL,"Residential Swimming Pools & Spas",6/7/2021,,,,"10019 HIDDEN FALLS DR",PEARLAND,TX,77584,,,"GERARD & BELINDA RAMIREZ","10019 HIDDEN FALLS DR",PEARLAND,TX,77584,,Owner,,,,,"ECKEL POOL CONCEPTS",,,,,"ECKEL POOL CONCEPTS","9119 HIGHWAY 6","MISSOURI CITY",TX,77459-4876,"(281) 772-3152",,,,
TX,BRAZORIA,RES21-01337,"Residential Swimming Pools & Spas",6/14/2021,,,,"2620 BELLWICK CANYON CT",PEARLAND,TX,77089,,,"GAIL ROBERTS","2620 BELLWICK CANYON CT",PEARLAND,TX,77089,,Owner,,,,,"ST JOHN POOLS",,,,,"ST JOHN POOLS","7403 NORTHGROVE CT",PEARLAND,TX,77581-6627,"(281) 989-9902",,,,
TX,BRAZORIA,RES21-01140,"Residential Swimming Pools & Spas",6/1/2021,,,,"11803 CRESCENT BLUFF DR",PEARLAND,TX,77584,,,"RAMASWAMI & JAYANTHI NATARAJAN","11803 CRESCENT BLUFF DR",PEARLAND,TX,77584,,Owner,,,,,"US POOL BUILDER",,,,,"US POOL BUILDER","24044 CINCO VILLAGE CENTER BLVD STE 100",KATY,TX,77494-8433,"(281) 533-0844",http://www.uspoolbuilder.com/,,,
TX,HARRIS,21051166,"Residential Swimming Pools & Spas",7/7/2021,,101146,,"6003 FAIRWAY SHORES",HOUSTON,TX,77365,,,"TRAVIS COOK","6003 FAIRWAY SHORES",HOUSTON,TX,77365,,Owner,,,,,"AUSTIN CUSTOM POOLS",,,,,"AUSTIN CUSTOM POOLS","29003 MISTY OAKS",HOUSTON,TX,77336,"(281) 808-1668",,,,
TX,BRAZORIA,RES21-01577,"Residential Swimming Pools & Spas",6/30/2021,,,,"1420 BLAKELY GROVE LN",PEARLAND,TX,77581,,,"INNIS GLOVER","1420 BLAKELY GROVE LN",PEARLAND,TX,77581,,Owner,,,,,"POOLS OF DREAMS",,,,,"POOLS OF DREAMS","P O BOX 762",PEARLAND,TX,77588,"(832) 477-2667",https://poolsofdreamsllc.com/,,,
TX,BRAZORIA,RES21-01518,"Residential Swimming Pools & Spas",6/22/2021,,,,"2805 PARKSIDE VILLAGE LN",PEARLAND,TX,77581,,,"TERRIE DOYLE","2805 PARKSIDE VILLAGE LN",PEARLAND,TX,77581,,Owner,,,,,"POOLS OF DREAMS",,,,,"POOLS OF DREAMS","P O BOX 762",PEARLAND,TX,77588,"(832) 477-2667",https://poolsofdreamsllc.com/,,,
TX,BRAZORIA,RES21-01494,"Residential Swimming Pools & Spas",6/21/2021,,,,"3228 PARKER DR",PEARLAND,TX,77584,,,"MATTHEW FAHEY","3228 PARKER DR",PEARLAND,TX,77584,,Owner,,,,,"POOLS OF DREAMS",,,,,"POOLS OF DREAMS","P O BOX 762",PEARLAND,TX,77588,"(832) 477-2667",https://poolsofdreamsllc.com/,,,
TX,HARRIS,21056344,"Residential Swimming Pools & Spas",7/12/2021,,44100,,"9749 WESTVIEW",HOUSTON,TX,77055,,,"RAMON RODRIGUEZ","16822 STONESIDE","HOUSTON                                           ",TX,77095,"(832) 872-0325",Applicant,,,,,OWNER,,,,,OWNER,,,,,,,,,
TX,HARRIS,21052809,"Residential Swimming Pools & Spas",7/7/2021,,69000,,"8630 BRAEWICK",HOUSTON,TX,77074,,,"LAYLA WOODS","8630 BRAEWICK","HOUSTON                                           ",TX,77074,,Owner,,,,,"RICHARD'S TOTAL BACKYARD SOLUTIONS ",,,,,"RICHARD'S TOTAL BACKYARD SOLUTIONS ","1701 HIGHWAY 6 S",HOUSTON,TX,77077-2803,"(713) 777-7665",http://richardstbs.com/,,"JULIE RICHARD",info@totalbackyardsolutions.com
TX,HARRIS,21037392,"Residential Swimming Pools & Spas",7/8/2021,,100480,,"5222 DUMFRIES",HOUSTON,TX,77096,,,"RICHARD ZEGARRUNDO","5222 DUMFRIES","HOUSTON                                           ",TX,77096,,Owner,,,,,"SIMONTON POOL CONSULTANTS",,,,,"SIMONTON POOL CONSULTANTS","6867 MUEGGE RD",SEALY,TX,77474-8674,"(281) 831-6787",http://www.simontonpoolconsultants.com/,,,info@simontonpoolconsultants.com
TX,HARRIS,21036296,"Restaurant and Bar",7/8/2021,Renovations,525000,,"911 W 11TH",HOUSTON,TX,77008,,,"JEFFREY BARON","1814 WASHINGTON",HOUSTON,TX,77007,"(504) 655-5455",Applicant,,,,,OWNER,,,,,OWNER,,,,,,,,,
TX,HARRIS,21024381,"Restaurant and Bar",7/9/2021,Renovations,49000,,"2600 S KIRKWOOD DR",HOUSTON,TX,77077,,,"ERIKA HSU","1330 OLD SPANISH TRAIL",HOUSTON,TX,77054,"(832) 982-3969",Applicant,,,,,OWNER,,,,,OWNER,,,,,,,,,
TX,HARRIS,21041364,"Restaurant and Bar",7/12/2021,Renovations,565000,,"822 TOWN & COUNTRY BLVD",HOUSTON,TX,77024,,,CONTRACTOR,,,,,,,,,,,"BRAZOS CONTRACTORS & DEVELOPMENT",,,,,"BRAZOS CONTRACTORS & DEVELOPMENT","515 WISCONSIN ST","SOUTH HOUSTON",TX,77587-4958,"(713) 947-9700",http://brazoscontractors.com,"(713) 944-9599",,info@brazoscontractors.com
TX,HARRIS,21028881,"Restaurant and Bar",7/8/2021,Renovations,500000,,"12161 WESTHEIMER RD",HOUSTON,TX,77077,,,CONTRACTOR,,,,,,,,,,,"HARVEY CLEARY BUILDERS",,,,,"HARVEY CLEARY BUILDERS","3630 WESTCHASE DR",HOUSTON,TX,77042-5224,"(713) 783-7919",http://www.harvey-cleary.com/,,,
TX,HARRIS,21037606,"Restaurant and Bar",7/6/2021,,45500,,"14451 CULLEN BLVD",HOUSTON,TX,77047,,,CONTRACTOR,,,,,,,,,,,"JONATHAN KAGAN PROPERTIES",,,,,"JONATHAN KAGAN PROPERTIES","3334 RICHMOND AVE",HOUSTON,TX,77098-3014,"(713) 850-1047",,,,
TX,HARRIS,21020363,"Restaurant and Bar",7/7/2021,Renovations,48000,,"9938 BELLAIRE BLVD",HOUSTON,TX,77036,,,CONTRACTOR,,,,,,,,,,,"CHEUNG SIU HONG",,,,,"CHEUNG SIU HONG","4845 WILLOWBEND BOULEVARD",HOUSTON,TX,77035,"(832) 577-6829",,,,
TX,BRAZORIA,COMM21-00176,"Restaurant and Bar",6/2/2021,"Finish Out",200000,3340,"2110 PEARLAND PKWY # 188",PEARLAND,TX,77581,,,CONTRACTOR,,,,,,,,,,,"MING CONSTRUCTION",,,,,"MING CONSTRUCTION","9501 TOWN PARK DR",HOUSTON,TX,77036-2405,"(832) 877-9288",,,,
TX,HARRIS,21031259,Retail,7/9/2021,Renovations,850000,,"5330 W 34TH",HOUSTON,TX,77092,,,"CORY DOORNBOS","7700 SAN FELIPE ST STE",HOUSTON,TX,77063,"(832) 834-7378",Applicant,,,,,OWNER,,,,,OWNER,,,,,,,,,
TX,HARRIS,20064333,Retail,7/12/2021,,47500,,"10932 WESTHEIMER RD",HOUSTON,TX,77042,,,"ERIC SARLLS","5140 FRANZ RD STE",HOUSTON,TX,77493,"(713) 516-4739",Applicant,,,,,OWNER,,,,,OWNER,,,,,,,,,
TX,HARRIS,21022944,Retail,7/7/2021,Renovations,225000,,"7950 S GESSNER",HOUSTON,TX,77036,,,"JUSTIN WILSON","8375 E VIA DE VENTURA",SCOTTSDALE,AZ,85258,"(602) 881-3868",Applicant,,,,,OWNER,,,,,OWNER,,,,,,,,,
TX,HARRIS,21017573,Retail,7/9/2021,,403256,,"2520 AIRLINE DR",HOUSTON,TX,77009,,,CONTRACTOR,,,,,,,,,,,"PARKER PROJECT MANAGEMENT",,,,,"PARKER PROJECT MANAGEMENT","4814 WAYNESBORO DR",HOUSTON,TX,77035-3416,"(713) 667-4443",,,,
TX,HARRIS,21033607,Retail,7/12/2021,,47000,,"4703 RICHMOND AVE",HOUSTON,TX,77027,,,CONTRACTOR,,,,,,,,,,,"CONTIGO ENTERPRISES",,,,,"CONTIGO ENTERPRISES","19919 EMERALD WAY",MAGNOLIA,TX,77355-1827,"(713) 705-6596",,,,
TX,BRAZORIA,COMM21-00109,Retail,6/7/2021,Renovation,350000,2729,"11131 BROADWAY ST",PEARLAND,TX,77584,,,"TEXAS INDUSTRIAL SERVICES","5735 NORTHDALE ST",HOUSTON,TX,77087,"(713) 774-6910",Applicant,,,,,OWNER,,,,,OWNER,,,,,,,,,
TX,BRAZORIA,COMM21-00208,Retail,6/17/2021,"Finish Out",89000,2000,"3525 MAIN ST # 172",PEARLAND,TX,77581,,,CONTRACTOR,,,,,,,,,,,"WESTOVER PLAZA",,,,,"WESTOVER PLAZA","6011 WEST MAIN","LEAGUE CITY",TX,77573-2878,"(713) 702-4018",,,,
TX,BRAZORIA,COMM21-00162,Retail,6/15/2021,"Finish Out",48200,1612,"15003 STATE HWY 6 # 100",PEARLAND,TX,77583,,,CONTRACTOR,,,,,,,,,,,"ARCHPOINT VENTURES",,,,,"ARCHPOINT VENTURES","15110 MINTZ LN",HOUSTON,TX,77014-1412,"(281) 323-3680",,,,
TX,BRAZORIA,COMM21-00108,Retail,6/4/2021,Renovation,145000,4128,"11200 BROADWAY ST # 1440",PEARLAND,TX,77584,,,CONTRACTOR,,,,,,,,,,,"HORIZON RETAIL CONSTRUCTION",,,,,"HORIZON RETAIL CONSTRUCTION","9999 E EXPLORATION",HOUSTON,TX,53177,"(262) 865-6101",,,,
TX,HARRIS,0000009088,"Single Family Homes",6/22/2021,,45000,,"16426 DELOZIER ST","JERSEY VILLAGE",TX,77040,,,"FRED FOTEH","16301 KOESTER ST","JERSEY VILLAGE",TX,77040,,Owner,,,,,OWNER,,,,,OWNER,,,,,,,,,
TX,BRAZORIA,755,"Single Family Homes",6/15/2021,,354096,,"56 N TRILLIUM CT","LAKE JACKSON",TX,77566,,,"DALE & JUNE SULLIVAN","56 N TRILLIUM CT","LAKE JACKSON",TX,77566,,Owner,,,,,OWNER,,,,,OWNER,,,,,,,,,
TX,HARRIS,0000009057,"Single Family Homes",6/10/2021,,65000,,"15618 SEATTLE ST","JERSEY VILLAGE",TX,77040,,,CONTRACTOR,,,,,,,,,,,"MIB REMODELING",,,,,"MIB REMODELING","11930 MUELLER CEMETARY RD",CYPRESS,TX,77429-2153,"(281) 844-2090",http://www.mibremodeling.com/,,,MikeScott@mibremodeling.com
TX,HARRIS,0000009053,"Single Family Homes",6/8/2021,,,,"16121 JERSEY DR","JERSEY VILLAGE",TX,77040,,,CONTRACTOR,,,,,,,,,,,"CONSTRUCTION PERFORMANCE",,,,,"CONSTRUCTION PERFORMANCE","10924 GRANT RD, #329",HOUSTON,TX,77070,"(832) 865-0800",https://www.cphouston.com/,,,
TX,HARRIS,0000009104,"Single Family Homes",6/25/2021,,60000,,"16310 CRAWFORD ST","JERSEY VILLAGE",TX,77040,,,CONTRACTOR,,,,,,,,,,,"FLOOR TX REMODELING",,,,,"FLOOR TX REMODELING","1315 W GRAND PKWY S # 110B",KATY,TX,77494,"(281) 395-5393",,,,
TX,BELL,2021-7089,"Single Family Homes",6/10/2021,,,1959,"907 MARGRET ANN ST",BELTON,TX,76513,,,"ROY RODRIGUEZ","907 MARGRET ANN ST",BELTON,TX,76513,,Applicant,,,,,OWNER,,,,,OWNER,,,,,,,,,
TX,BELL,2021-7087,"Single Family Homes",6/10/2021,,800000,4882,"661 CREEKSIDE DR",BELTON,TX,76513,,,CONTRACTOR,,,,,,,,,,,"STILLWATER CUSTOM HOMES",,,,,"STILLWATER CUSTOM HOMES","2015 BIRDCREEK TER STE 104",TEMPLE,TX,76502-8006,"(254) 791-2800",http://www.stillwaterhomes.com/,"(254) 791-0106","ROBBIE JOHNSON",robbiej@stillwaterhomes.com
TX,BELL,2021-7130,"Single Family Homes",6/21/2021,,202240,2655,"3325 CHARBRAY DR",BELTON,TX,76513,,,CONTRACTOR,,,,,,,,,,,"PRECISION VALUE HOMES",,,,,"PRECISION VALUE HOMES","14304 E BUSINESS 190","COPPERAS COVE",TX,76522-6267,"(254) 290-7826",http://www.pvhtx.com/,"(254) 518-1130","BO HOLLOMAN",pvhtx@yahoo.com
TX,BELL,2021-7068,"Single Family Homes",6/8/2021,,189900,3040,"2603 COWGIRL TR",BELTON,TX,76513,,,CONTRACTOR,,,,,,,,,,,"ASHFORD HOMES",,,,,"ASHFORD HOMES","3800 E STAN SCHLUETER LOOP STE 107",KILLEEN,TX,76542-4558,"(254) 699-8485",,,,
TX,BELL,2021-7074,"Single Family Homes",6/9/2021,,443000,2941,"3311 INGRAM CIRCLE",BELTON,TX,76513,,,CONTRACTOR,,,,,,,,,,,"CAROTHERS EXECUTIVE HOMES",,,,,"CAROTHERS EXECUTIVE HOMES","50 S WHEAT RD",BELTON,TX,76513-8220,"(254) 773-0600",http://carothersexecutivehomes.com/,"(254) 791-0323","DAVID SOUTHERLAND",
TX,BELL,2021-7076,"Single Family Homes",6/9/2021,,463000,3535,"3222 INGRAM CIRCLE",BELTON,TX,76513,,,CONTRACTOR,,,,,,,,,,,"CAROTHERS EXECUTIVE HOMES",,,,,"CAROTHERS EXECUTIVE HOMES","50 S WHEAT RD",BELTON,TX,76513-8220,"(254) 773-0600",http://carothersexecutivehomes.com/,"(254) 791-0323","DAVID SOUTHERLAND",
TX,BELL,2021-7080,"Single Family Homes",6/9/2021,,483000,3535,"3016 INGRAM CIRCLE",BELTON,TX,76513,,,CONTRACTOR,,,,,,,,,,,"CAROTHERS EXECUTIVE HOMES",,,,,"CAROTHERS EXECUTIVE HOMES","50 S WHEAT RD",BELTON,TX,76513-8220,"(254) 773-0600",http://carothersexecutivehomes.com/,"(254) 791-0323","DAVID SOUTHERLAND",
TX,BELL,2021-7104,"Single Family Homes",6/14/2021,,489000,3899,"3303 INGRAM CIRCLE",BELTON,TX,76513,,,CONTRACTOR,,,,,,,,,,,"CAROTHERS EXECUTIVE HOMES",,,,,"CAROTHERS EXECUTIVE HOMES","50 S WHEAT RD",BELTON,TX,76513-8220,"(254) 773-0600",http://carothersexecutivehomes.com/,"(254) 791-0323","DAVID SOUTHERLAND",
TX,BELL,2021-7106,"Single Family Homes",6/15/2021,,386000,3159,"3522 LEANING TREE COVE",BELTON,TX,76513,,,CONTRACTOR,,,,,,,,,,,"CAROTHERS EXECUTIVE HOMES",,,,,"CAROTHERS EXECUTIVE HOMES","50 S WHEAT RD",BELTON,TX,76513-8220,"(254) 773-0600",http://carothersexecutivehomes.com/,"(254) 791-0323","DAVID SOUTHERLAND",
TX,BELL,2021-7107,"Single Family Homes",6/15/2021,,387000,2948,"3526 LEANING TREE COVE",BELTON,TX,76513,,,CONTRACTOR,,,,,,,,,,,"CAROTHERS EXECUTIVE HOMES",,,,,"CAROTHERS EXECUTIVE HOMES","50 S WHEAT RD",BELTON,TX,76513-8220,"(254) 773-0600",http://carothersexecutivehomes.com/,"(254) 791-0323","DAVID SOUTHERLAND",
TX,BELL,2021-7108,"Single Family Homes",6/15/2021,,373000,2718,"3529 LEANING TREE COVE",BELTON,TX,76513,,,CONTRACTOR,,,,,,,,,,,"CAROTHERS EXECUTIVE HOMES",,,,,"CAROTHERS EXECUTIVE HOMES","50 S WHEAT RD",BELTON,TX,76513-8220,"(254) 773-0600",http://carothersexecutivehomes.com/,"(254) 791-0323","DAVID SOUTHERLAND",
TX,BELL,2021-7109,"Single Family Homes",6/15/2021,,406000,3394,"3530 LEANING TREE COVE",BELTON,TX,76513,,,CONTRACTOR,,,,,,,,,,,"CAROTHERS EXECUTIVE HOMES",,,,,"CAROTHERS EXECUTIVE HOMES","50 S WHEAT RD",BELTON,TX,76513-8220,"(254) 773-0600",http://carothersexecutivehomes.com/,"(254) 791-0323","DAVID SOUTHERLAND",
TX,BELL,2021-7110,"Single Family Homes",6/15/2021,,373000,2718,"3537 LEANING TREE COVE",BELTON,TX,76513,,,CONTRACTOR,,,,,,,,,,,"CAROTHERS EXECUTIVE HOMES",,,,,"CAROTHERS EXECUTIVE HOMES","50 S WHEAT RD",BELTON,TX,76513-8220,"(254) 773-0600",http://carothersexecutivehomes.com/,"(254) 791-0323","DAVID SOUTHERLAND",
TX,BELL,2021-7112,"Single Family Homes",6/15/2021,,381000,2975,"3518 LEANING TREE COVE",BELTON,TX,76513,,,CONTRACTOR,,,,,,,,,,,"CAROTHERS EXECUTIVE HOMES",,,,,"CAROTHERS EXECUTIVE HOMES","50 S WHEAT RD",BELTON,TX,76513-8220,"(254) 773-0600",http://carothersexecutivehomes.com/,"(254) 791-0323","DAVID SOUTHERLAND",
TX,BELL,2021-7116,"Single Family Homes",6/17/2021,,537000,4033,"3315 INGRAM CIRCLE",BELTON,TX,76513,,,CONTRACTOR,,,,,,,,,,,"CAROTHERS EXECUTIVE HOMES",,,,,"CAROTHERS EXECUTIVE HOMES","50 S WHEAT RD",BELTON,TX,76513-8220,"(254) 773-0600",http://carothersexecutivehomes.com/,"(254) 791-0323","DAVID SOUTHERLAND",
TX,BELL,2021-7117,"Single Family Homes",6/17/2021,,416000,3631,"3533 LEANING TREE COVE",BELTON,TX,76513,,,CONTRACTOR,,,,,,,,,,,"CAROTHERS EXECUTIVE HOMES",,,,,"CAROTHERS EXECUTIVE HOMES","50 S WHEAT RD",BELTON,TX,76513-8220,"(254) 773-0600",http://carothersexecutivehomes.com/,"(254) 791-0323","DAVID SOUTHERLAND",
TX,BELL,2021-7118,"Single Family Homes",6/17/2021,,318000,2913,"3534 LEANING TREE COVE",BELTON,TX,76513,,,CONTRACTOR,,,,,,,,,,,"CAROTHERS EXECUTIVE HOMES",,,,,"CAROTHERS EXECUTIVE HOMES","50 S WHEAT RD",BELTON,TX,76513-8220,"(254) 773-0600",http://carothersexecutivehomes.com/,"(254) 791-0323","DAVID SOUTHERLAND",
TX,BELL,2021-7119,"Single Family Homes",6/17/2021,,649000,389,"3208 WAGGONER DR",BELTON,TX,76513,,,CONTRACTOR,,,,,,,,,,,"CAROTHERS EXECUTIVE HOMES",,,,,"CAROTHERS EXECUTIVE HOMES","50 S WHEAT RD",BELTON,TX,76513-8220,"(254) 773-0600",http://carothersexecutivehomes.com/,"(254) 791-0323","DAVID SOUTHERLAND",
TX,BELL,2021-7120,"Single Family Homes",6/17/2021,,609000,4050,"3610 RICHARD KING CT",BELTON,TX,76513,,,CONTRACTOR,,,,,,,,,,,"CAROTHERS EXECUTIVE HOMES",,,,,"CAROTHERS EXECUTIVE HOMES","50 S WHEAT RD",BELTON,TX,76513-8220,"(254) 773-0600",http://carothersexecutivehomes.com/,"(254) 791-0323","DAVID SOUTHERLAND",
TX,BELL,2021-7091,"Single Family Homes",6/10/2021,,170550,2365,"1120 ADAM LN",BELTON,TX,76513,,,CONTRACTOR,,,,,,,,,,,"KB HOME",,,,,"KB HOME","11314 RICHMOND AVE",HOUSTON,TX,77082-2616,"(281) 668-3800",,,,
TX,BELL,2021-7094,"Single Family Homes",6/11/2021,,216270,2945,"1108 ADAM LN",BELTON,TX,76513,,,CONTRACTOR,,,,,,,,,,,"KB HOME",,,,,"KB HOME","11314 RICHMOND AVE",HOUSTON,TX,77082-2616,"(281) 668-3800",,,,
TX,BELL,2021-7095,"Single Family Homes",6/11/2021,,152425,2150,"1116 ADAM LN",BELTON,TX,76513,,,CONTRACTOR,,,,,,,,,,,"KB HOME",,,,,"KB HOME","11314 RICHMOND AVE",HOUSTON,TX,77082-2616,"(281) 668-3800",,,,
TX,BELL,2021-7113,"Single Family Homes",6/16/2021,,150900,1671,"1306 DANIEL DR",BELTON,TX,76513,,,CONTRACTOR,,,,,,,,,,,"KB HOME",,,,,"KB HOME","11314 RICHMOND AVE",HOUSTON,TX,77082-2616,"(281) 668-3800",,,,
TX,BELL,2021-7115,"Single Family Homes",6/17/2021,,247950,3310,"1218 ADAM LN",BELTON,TX,76513,,,CONTRACTOR,,,,,,,,,,,"KB HOME",,,,,"KB HOME","11314 RICHMOND AVE",HOUSTON,TX,77082-2616,"(281) 668-3800",,,,
TX,BELL,2021-7069,"Single Family Homes",6/8/2021,,225180,3030,"1303 DANIEL DR",BELTON,TX,76513,,,CONTRACTOR,,,,,,,,,,,"KB HOME",,,,,"KB HOME","11314 RICHMOND AVE",HOUSTON,TX,77082-2616,"(281) 668-3800",,,,
TX,BELL,2021-7048,"Single Family Homes",6/1/2021,,150750,2150,"1302 DANIEL DR",BELTON,TX,76513,,,CONTRACTOR,,,,,,,,,,,"KB HOME",,,,,"KB HOME","11314 RICHMOND AVE",HOUSTON,TX,77082-2616,"(281) 668-3800",,,,
TX,BELL,2021-7050,"Single Family Homes",6/1/2021,,247950,3310,"1233 ADAM LN",BELTON,TX,76513,,,CONTRACTOR,,,,,,,,,,,"KB HOME",,,,,"KB HOME","11314 RICHMOND AVE",HOUSTON,TX,77082-2616,"(281) 668-3800",,,,
TX,BELL,2021-7061,"Single Family Homes",6/3/2021,,150750,2150,"1202 ADAM LN",BELTON,TX,76513,,,CONTRACTOR,,,,,,,,,,,"KB HOME",,,,,"KB HOME","11314 RICHMOND AVE",HOUSTON,TX,77082-2616,"(281) 668-3800",,,,
TX,BELL,2021-7064,"Single Family Homes",6/8/2021,,170550,2365,"1303 ADAM LN",BELTON,TX,76513,,,CONTRACTOR,,,,,,,,,,,"KB HOME",,,,,"KB HOME","11314 RICHMOND AVE",HOUSTON,TX,77082-2616,"(281) 668-3800",,,,
TX,BELL,2021-7125,"Single Family Homes",6/18/2021,,450000,4052,"3080 PECAN MEADOW DR",BELTON,TX,76513,,,CONTRACTOR,,,,,,,,,,,"DREAM HOME BUILDERS",,,,,"DREAM HOME BUILDERS","2200 E RANCIER AVE",KILLEEN,TX,76543,"(254) 630-6944",https://www.dreamhomebuilderstx.com/,,,
TX,BELL,2021-7135,"Single Family Homes",6/23/2021,,170000,3097,"1003 LAUREL DR",BELTON,TX,76513,,,CONTRACTOR,,,,,,,,,,,"RILEY SCOTT CONSTRUCTION",,,,,"RILEY SCOTT CONSTRUCTION","1702 MORGAN'S POINT RD",BELTON,TX,76513,"(254) 239-5147",,,,
TX,BELL,2021-7136,"Single Family Homes",6/23/2021,,170000,3097,"1007 LAUREL DR",BELTON,TX,76513,,,CONTRACTOR,,,,,,,,,,,"RILEY SCOTT CONSTRUCTION",,,,,"RILEY SCOTT CONSTRUCTION","1702 MORGAN'S POINT RD",BELTON,TX,76513,"(254) 239-5147",,,,
TX,BRAZORIA,81100266000,"Single Family Homes",6/30/2021,,150000,,"419 S AVE B",FREEPORT,TX,77541,,,"JAIME MARTINEZ","419 S AVE B",FREEPORT,TX,77541,,Owner,,,,,OWNER,,,,,OWNER,,,,,,,,,
TX,MONTGOMERY,BR-21-011039,"Single Family Homes",6/14/2021,,,4422,"155 STELLAR HILLS CT  ",CONROE,TX,77304,,,"MEAGAN VALDEZ","PO BOX 1378",CYPRESS,TX,77410,"(713) 295-0649",Applicant,,,,,OWNER,,,,,OWNER,,,,,,,,,
TX,MONTGOMERY,BR-21-011429,"Single Family Homes",6/21/2021,,139230,2245,"555 DRY FORK LN    ",CONROE,TX,77304,,,CONTRACTOR,,,,,,,,,,,"LENNAR HOMES",,,,,"LENNAR HOMES","550 GREENS PKWY",HOUSTON,TX,77067-4537,"(281) 875-1000",http://www.lennar.com/,,,
TX,MONTGOMERY,BR-21-011432,"Single Family Homes",6/21/2021,,143715,2272,"559 DRY FORK LN",CONROE,TX,77303,,,CONTRACTOR,,,,,,,,,,,"LENNAR HOMES",,,,,"LENNAR HOMES","550 GREENS PKWY",HOUSTON,TX,77067-4537,"(281) 875-1000",http://www.lennar.com/,,,
TX,MONTGOMERY,BR-21-011435,"Single Family Homes",6/21/2021,,143715,2272,"558 DRY FORK LN",CONROE,TX,77303,,,CONTRACTOR,,,,,,,,,,,"LENNAR HOMES",,,,,"LENNAR HOMES","550 GREENS PKWY",HOUSTON,TX,77067-4537,"(281) 875-1000",http://www.lennar.com/,,,
TX,MONTGOMERY,BR-21-011441,"Single Family Homes",6/21/2021,,142130,2263,"562 DRY FORK LN",CONROE,TX,77304,,,CONTRACTOR,,,,,,,,,,,"LENNAR HOMES",,,,,"LENNAR HOMES","550 GREENS PKWY",HOUSTON,TX,77067-4537,"(281) 875-1000",http://www.lennar.com/,,,
TX,MONTGOMERY,BR-21-011424,"Single Family Homes",6/21/2021,,802500,6807,"2136 COACH ST",CONROE,TX,77304,,,CONTRACTOR,,,,,,,,,,,"PARTNERS IN BUILDING",,,,,"PARTNERS IN BUILDING","1803 RANCH ROAD 620 N",LAKEWAY,TX,78734-2611,"(512) 266-6701",http://www.partnersinbuilding.com,"(713) 937-1445",,info@partnersinbuilding.com
TX,MONTGOMERY,BR-21-011084,"Single Family Homes",6/23/2021,,300000,3546,"131 GROVE TERRACE CT",CONROE,TX,77303,,,CONTRACTOR,,,,,,,,,,,"MERITAGE HOMES",,,,,"MERITAGE HOMES","2901 W SAM HOUSTON PKWY N",HOUSTON,TX,77043-1630,"(713) 357-1184",,,,
TX,MONTGOMERY,BR-21-011047,"Single Family Homes",6/23/2021,,220000,3739,"330 PICNIC PARK DR   ",CONROE,TX,77304,,,CONTRACTOR,,,,,,,,,,,"WESTIN HOMES",,,,,"WESTIN HOMES","1 SUGAR CREEK CENTER BLVD STE 600","SUGAR LAND",TX,77478-3787,"(281) 240-1551",http://www.westin-homes.com,,,
TX,MONTGOMERY,BR-21-011051,"Single Family Homes",6/23/2021,,220000,3739,"1149 LAKE HOUSE DR",CONROE,TX,77304,,,CONTRACTOR,,,,,,,,,,,"WESTIN HOMES",,,,,"WESTIN HOMES","1 SUGAR CREEK CENTER BLVD STE 600","SUGAR LAND",TX,77478-3787,"(281) 240-1551",http://www.westin-homes.com,,,
TX,MONTGOMERY,BR-21-011054,"Single Family Homes",6/23/2021,,220000,3739,"626 CIBOLO CREEK DR",CONROE,TX,77304,,,CONTRACTOR,,,,,,,,,,,"WESTIN HOMES",,,,,"WESTIN HOMES","1 SUGAR CREEK CENTER BLVD STE 600","SUGAR LAND",TX,77478-3787,"(281) 240-1551",http://www.westin-homes.com,,,
TX,MONTGOMERY,BR-21-011073,"Single Family Homes",6/23/2021,,250000,4350,"503 PEPPERRIDGE CT",CONROE,TX,77304,,,CONTRACTOR,,,,,,,,,,,"WESTIN HOMES",,,,,"WESTIN HOMES","1 SUGAR CREEK CENTER BLVD STE 600","SUGAR LAND",TX,77478-3787,"(281) 240-1551",http://www.westin-homes.com,,,
TX,MONTGOMERY,BR-21-011076,"Single Family Homes",6/23/2021,,259000,4266,"1121 LAKE HOUSE DR",CONROE,TX,77304,,,CONTRACTOR,,,,,,,,,,,"WESTIN HOMES",,,,,"WESTIN HOMES","1 SUGAR CREEK CENTER BLVD STE 600","SUGAR LAND",TX,77478-3787,"(281) 240-1551",http://www.westin-homes.com,,,
TX,MONTGOMERY,BR-21-011081,"Single Family Homes",6/23/2021,,242000,3728,"171 GRAY PINE GROVE WAY",CONROE,TX,77304,,,CONTRACTOR,,,,,,,,,,,"WESTIN HOMES",,,,,"WESTIN HOMES","1 SUGAR CREEK CENTER BLVD STE 600","SUGAR LAND",TX,77478-3787,"(281) 240-1551",http://www.westin-homes.com,,,
TX,MONTGOMERY,BR-21-011212,"Single Family Homes",6/28/2021,,180000,2464,"4442 STEPHANIE PARK LN",CONROE,TX,77304,,,CONTRACTOR,,,,,,,,,,,"PRINCETON CLASSIC HOMES",,,,,"PRINCETON CLASSIC HOMES","10410 WINDERMERE LAKES BLVD.",HOUSTON,TX,77065,"(281) 671-9000",http://princetonclassichome.com,"(281) 671-9055",,
TX,MONTGOMERY,BR-21-011215,"Single Family Homes",6/28/2021,,177486,3258,"4446 STEPHANIE PARK LN",CONROE,TX,77304,,,CONTRACTOR,,,,,,,,,,,"PRINCETON CLASSIC HOMES",,,,,"PRINCETON CLASSIC HOMES","10410 WINDERMERE LAKES BLVD.",HOUSTON,TX,77065,"(281) 671-9000",http://princetonclassichome.com,"(281) 671-9055",,
TX,MONTGOMERY,BR-21-011218,"Single Family Homes",6/28/2021,,161267,2581,"4438 STEPHANIE PARK LN",CONROE,TX,77304,,,CONTRACTOR,,,,,,,,,,,"PRINCETON CLASSIC HOMES",,,,,"PRINCETON CLASSIC HOMES","10410 WINDERMERE LAKES BLVD.",HOUSTON,TX,77065,"(281) 671-9000",http://princetonclassichome.com,"(281) 671-9055",,
TX,MONTGOMERY,BR-21-011226,"Single Family Homes",6/28/2021,,161171,2612,"4423 STEPHANIE PARK LN    ",CONROE,TX,77304,,,CONTRACTOR,,,,,,,,,,,"PRINCETON CLASSIC HOMES",,,,,"PRINCETON CLASSIC HOMES","10410 WINDERMERE LAKES BLVD.",HOUSTON,TX,77065,"(281) 671-9000",http://princetonclassichome.com,"(281) 671-9055",,
TX,MONTGOMERY,BR-21-011233,"Single Family Homes",6/28/2021,,166728,2906,"4406 STEPHANIE PARK LN",CONROE,TX,77304,,,CONTRACTOR,,,,,,,,,,,"PRINCETON CLASSIC HOMES",,,,,"PRINCETON CLASSIC HOMES","10410 WINDERMERE LAKES BLVD.",HOUSTON,TX,77065,"(281) 671-9000",http://princetonclassichome.com,"(281) 671-9055",,
TX,MONTGOMERY,BR-21-011237,"Single Family Homes",6/28/2021,,180000,2386,"4418 STEPHANIE PARK LN",CONROE,TX,77304,,,CONTRACTOR,,,,,,,,,,,"PRINCETON CLASSIC HOMES",,,,,"PRINCETON CLASSIC HOMES","10410 WINDERMERE LAKES BLVD.",HOUSTON,TX,77065,"(281) 671-9000",http://princetonclassichome.com,"(281) 671-9055",,
TX,MONTGOMERY,BR-21-011251,"Single Family Homes",6/28/2021,,144789,1871,"4414 STEPHANIE PARK LN ",CONROE,TX,77304,,,CONTRACTOR,,,,,,,,,,,"PRINCETON CLASSIC HOMES",,,,,"PRINCETON CLASSIC HOMES","10410 WINDERMERE LAKES BLVD.",HOUSTON,TX,77065,"(281) 671-9000",http://princetonclassichome.com,"(281) 671-9055",,
TX,MONTGOMERY,BR-21-011255,"Single Family Homes",6/28/2021,,161171,2451,"4424 STEPHANIE PARK LN   ",CONROE,TX,77304,,,CONTRACTOR,,,,,,,,,,,"PRINCETON CLASSIC HOMES",,,,,"PRINCETON CLASSIC HOMES","10410 WINDERMERE LAKES BLVD.",HOUSTON,TX,77065,"(281) 671-9000",http://princetonclassichome.com,"(281) 671-9055",,
TX,MONTGOMERY,BR-21-011258,"Single Family Homes",6/28/2021,,151989,3211,"4430 STEPHANIE PARK LN",CONROE,TX,77304,,,CONTRACTOR,,,,,,,,,,,"PRINCETON CLASSIC HOMES",,,,,"PRINCETON CLASSIC HOMES","10410 WINDERMERE LAKES BLVD.",HOUSTON,TX,77065,"(281) 671-9000",http://princetonclassichome.com,"(281) 671-9055",,
TX,MONTGOMERY,BR-21-011261,"Single Family Homes",6/28/2021,,172376,3086,"2705 WILLIAMS GROVE CT",CONROE,TX,77304,,,CONTRACTOR,,,,,,,,,,,"PRINCETON CLASSIC HOMES",,,,,"PRINCETON CLASSIC HOMES","10410 WINDERMERE LAKES BLVD.",HOUSTON,TX,77065,"(281) 671-9000",http://princetonclassichome.com,"(281) 671-9055",,
TX,MONTGOMERY,BR-21-011269,"Single Family Homes",6/28/2021,,166000,2687,"4307 ROSEMARY LN",CONROE,TX,77303,,,CONTRACTOR,,,,,,,,,,,"PRINCETON CLASSIC HOMES",,,,,"PRINCETON CLASSIC HOMES","10410 WINDERMERE LAKES BLVD.",HOUSTON,TX,77065,"(281) 671-9000",http://princetonclassichome.com,"(281) 671-9055",,
TX,MONTGOMERY,BR-21-011296,"Single Family Homes",6/25/2021,,212334,3026,"606 PECAN HICKORY CT",CONROE,TX,77318,,,CONTRACTOR,,,,,,,,,,,"CHESMAR HOMES",,,,,"CHESMAR HOMES","450 GEARS RD STE 400",HOUSTON,TX,77067-4513,"(281) 598-1111",http://chesmar.com,"(281) 598-1115",,customerservice.houston@chesmar.com
TX,MONTGOMERY,BR-21-011013,"Single Family Homes",6/25/2021,,226397,3365,"403 NORTHERN PIKE DR  ",CONROE,TX,77318,,,CONTRACTOR,,,,,,,,,,,"CHESMAR HOMES",,,,,"CHESMAR HOMES","450 GEARS RD STE 400",HOUSTON,TX,77067-4513,"(281) 598-1111",http://chesmar.com,"(281) 598-1115",,customerservice.houston@chesmar.com
TX,MONTGOMERY,BR-21-011279,"Single Family Homes",6/24/2021,,166000,2658,"3415 WOODED LN",CONROE,TX,77304,,,CONTRACTOR,,,,,,,,,,,"LEGEND HOMES",,,,,"LEGEND HOMES","10410 WINDAMERE LAKES BLVD",HOUSTON,TX,77065-4996,"(281) 671-9060",http://legendhomecorp.com/,"(281) 671-9055",,
TX,MONTGOMERY,BR-21-011274,"Single Family Homes",6/23/2021,,189000,2616,"3641 CUB DR",CONROE,TX,77303,,,CONTRACTOR,,,,,,,,,,,"LEGEND CLASSIC HOMES",,,,,"LEGEND CLASSIC HOMES","6634 BEESTON HILL DR",KATY,TX,77449-0195,"(281) 463-9950",http://legendhomeshouston.com/,,,
TX,MONTGOMERY,BR-21-011018,"Single Family Homes",6/14/2021,,149397,2819,"428 TULIP TREE CT",CONROE,TX,77304,,,CONTRACTOR,,,,,,,,,,,"GEHAN HOMES",,,,,"GEHAN HOMES","2050 W SAM HOUSTON PKWY S",HOUSTON,TX,77042-2079,"(713) 243-3545",http://www.gehanhomes.com,,,
TX,MONTGOMERY,BR-21-011026,"Single Family Homes",6/14/2021,,158025,2891,"215 SPECKLED WOODS PL",CONROE,TX,77303,,,CONTRACTOR,,,,,,,,,,,"GEHAN HOMES",,,,,"GEHAN HOMES","2050 W SAM HOUSTON PKWY S",HOUSTON,TX,77042-2079,"(713) 243-3545",http://www.gehanhomes.com,,,
TX,MONTGOMERY,BR-21-011030,"Single Family Homes",6/14/2021,,132759,2363,"338 HONEY MESQUITE PATH",CONROE,TX,77304,,,CONTRACTOR,,,,,,,,,,,"GEHAN HOMES",,,,,"GEHAN HOMES","2050 W SAM HOUSTON PKWY S",HOUSTON,TX,77042-2079,"(713) 243-3545",http://www.gehanhomes.com,,,
TX,MONTGOMERY,BR-21-011033,"Single Family Homes",6/14/2021,,142511,2534,"311 HONEY MESQUITE PATH",CONROE,TX,77304,,,CONTRACTOR,,,,,,,,,,,"GEHAN HOMES",,,,,"GEHAN HOMES","2050 W SAM HOUSTON PKWY S",HOUSTON,TX,77042-2079,"(713) 243-3545",http://www.gehanhomes.com,,,
TX,MONTGOMERY,BR-21-011036,"Single Family Homes",6/14/2021,,146203,2545,"151 GRAY PINE GROVE WAY  ",CONROE,TX,77304,,,CONTRACTOR,,,,,,,,,,,"GEHAN HOMES",,,,,"GEHAN HOMES","2050 W SAM HOUSTON PKWY S",HOUSTON,TX,77042-2079,"(713) 243-3545",http://www.gehanhomes.com,,,
TX,MONTGOMERY,BR-21-011293,"Single Family Homes",6/16/2021,,126321,2066,"315 HONEY MESQUITE PATH",CONROE,TX,77304,,,CONTRACTOR,,,,,,,,,,,"GEHAN HOMES",,,,,"GEHAN HOMES","2050 W SAM HOUSTON PKWY S",HOUSTON,TX,77042-2079,"(713) 243-3545",http://www.gehanhomes.com,,,
TX,MONTGOMERY,BR-21-011043,"Single Family Homes",6/29/2021,,400000,4086,"215 PASTORAL MEDLEY CT",CONROE,TX,77304,,,CONTRACTOR,,,,,,,,,,,"RAVENNA HOMES",,,,,"RAVENNA HOMES","28902 POWDER RIDGE DR",KATY,TX,77494-1918,"(281) 693-7209",,,,
TX,MONTGOMERY,BR-21-011300,"Single Family Homes",6/25/2021,,301990,3041,"147 WINGED ELM CT",CONROE,TX,77304,,,CONTRACTOR,,,,,,,,,,,"DAVID WEEKLEY HOMES",,,,,"DAVID WEEKLEY HOMES","14444 NORTHWEST",HOUSTON,TX,77040,"(713) 570-5021",http://www.davidweekleyhomes.com/,,,
TX,MONTGOMERY,BR-21-011305,"Single Family Homes",6/25/2021,,277990,2312,"143 WINGED ELM CT",CONROE,TX,77304,,,CONTRACTOR,,,,,,,,,,,"DAVID WEEKLEY HOMES",,,,,"DAVID WEEKLEY HOMES","14444 NORTHWEST",HOUSTON,TX,77040,"(713) 570-5021",http://www.davidweekleyhomes.com/,,,
TX,MONTGOMERY,BR-21-011313,"Single Family Homes",6/25/2021,,297990,2689,"108 WINGED ELM CT",CONROE,TX,77304,,,CONTRACTOR,,,,,,,,,,,"DAVID WEEKLEY HOMES",,,,,"DAVID WEEKLEY HOMES","14444 NORTHWEST",HOUSTON,TX,77040,"(713) 570-5021",http://www.davidweekleyhomes.com/,,,
TX,MONTGOMERY,BR-21-011414,"Single Family Homes",6/25/2021,,295990,3078,"140 WINGED ELM CT",CONROE,TX,77304,,,CONTRACTOR,,,,,,,,,,,"DAVID WEEKLEY HOMES",,,,,"DAVID WEEKLEY HOMES","14444 NORTHWEST",HOUSTON,TX,77040,"(713) 570-5021",http://www.davidweekleyhomes.com/,,,
TX,MONTGOMERY,BR-21-011418,"Single Family Homes",6/25/2021,,265990,2305,"148 WINGED ELM CT",CONROE,TX,77304,,,CONTRACTOR,,,,,,,,,,,"DAVID WEEKLEY HOMES",,,,,"DAVID WEEKLEY HOMES","14444 NORTHWEST",HOUSTON,TX,77040,"(713) 570-5021",http://www.davidweekleyhomes.com/,,,
TX,BELL,2021-7145,"Single Family Homes",6/21/2021,,225180,2962,"1124 ADAM LN",BELTON,TX,76513,,,CONTRACTOR,,,,,,,,,,,"KB HOME",,,,,"KB HOME","11314 RICHMOND AVE",HOUSTON,TX,77082-2616,"(281) 668-3800",,,,
TX,BELL,2021-7148,"Single Family Homes",6/28/2021,,217080,2879,"1307 DANIEL DR",BELTON,TX,76513,,,CONTRACTOR,,,,,,,,,,,"KB HOME",,,,,"KB HOME","11314 RICHMOND AVE",HOUSTON,TX,77082-2616,"(281) 668-3800",,,,
TX,BELL,2021-7149,"Single Family Homes",6/29/2021,,150750,2150,"1323 DANIEL DR",BELTON,TX,76513,,,CONTRACTOR,,,,,,,,,,,"KB HOME",,,,,"KB HOME","11314 RICHMOND AVE",HOUSTON,TX,77082-2616,"(281) 668-3800",,,,
TX,BELL,2021-7150,"Single Family Homes",6/29/2021,,247950,3266,"1112 ADAM LN",BELTON,TX,76513,,,CONTRACTOR,,,,,,,,,,,"KB HOME",,,,,"KB HOME","11314 RICHMOND AVE",HOUSTON,TX,77082-2616,"(281) 668-3800",,,,
TX,MONTGOMERY,BR-21-011096,"Single Family Homes",6/14/2021,,365000,2442,"315 CALLA LILY CT",CONROE,TX,77304,,,CONTRACTOR,,,,,,,,,,,"HIGHLAND HOMES",,,,,"HIGHLAND HOMES","10930 W SAM HOUSTON PKWY N STE 100",HOUSTON,TX,77064-6331,"(281) 517-9800",,,,
TX,MONTGOMERY,BR-21-011183,"Single Family Homes",6/15/2021,,200000,3287,"668 LOST MAPLES BEND LN",CONROE,TX,77304,,,CONTRACTOR,,,,,,,,,,,"HIGHLAND HOMES",,,,,"HIGHLAND HOMES","10930 W SAM HOUSTON PKWY N STE 100",HOUSTON,TX,77064-6331,"(281) 517-9800",,,,
TX,MONTGOMERY,BR-21-011186,"Single Family Homes",6/21/2021,,400295,2993,"607 PECAN HICKORY CT",CONROE,TX,77304,,,CONTRACTOR,,,,,,,,,,,"HIGHLAND HOMES",,,,,"HIGHLAND HOMES","10930 W SAM HOUSTON PKWY N STE 100",HOUSTON,TX,77064-6331,"(281) 517-9800",,,,
TX,MONTGOMERY,BR-21-011203,"Single Family Homes",6/16/2021,,396790,2964,"610 PECAN HICKORY CT",CONROE,TX,77304,,,CONTRACTOR,,,,,,,,,,,"HIGHLAND HOMES",,,,,"HIGHLAND HOMES","10930 W SAM HOUSTON PKWY N STE 100",HOUSTON,TX,77064-6331,"(281) 517-9800",,,,
TX,MONTGOMERY,BR-21-011105,"Single Family Homes",6/21/2021,,183929,2805,"3329 BOXWOOD FOREST CT",CONROE,TX,77304,,,CONTRACTOR,,,,,,,,,,,"WOODMERE DEVELOPMENT",,,,,"WOODMERE DEVELOPMENT","15915  KATY FAIRWAY   STE 405  ",CONROE,TX,77304,"(281) 830-1579",,,,
TX,MONTGOMERY,BR-21-011114,"Single Family Homes",6/21/2021,,193696,3297,"2910 TULIP POPLAR TRL",CONROE,TX,77304,,,CONTRACTOR,,,,,,,,,,,"WOODMERE DEVELOPMENT",,,,,"WOODMERE DEVELOPMENT","15915  KATY FAIRWAY   STE 405  ",CONROE,TX,77304,"(281) 830-1579",,,,
TX,MONTGOMERY,BR-21-011155,"Single Family Homes",6/21/2021,,189209,3461,"2827 BEECH RIVER CT",CONROE,TX,77304,,,CONTRACTOR,,,,,,,,,,,"WOODMERE DEVELOPMENT",,,,,"WOODMERE DEVELOPMENT","15915  KATY FAIRWAY   STE 405  ",CONROE,TX,77304,"(281) 830-1579",,,,
TX,MONTGOMERY,BR-21-011161,"Single Family Homes",6/21/2021,,277009,4809,"236 REDWOOD CANYON TRL",CONROE,TX,77304,,,CONTRACTOR,,,,,,,,,,,"WOODMERE DEVELOPMENT",,,,,"WOODMERE DEVELOPMENT","15915  KATY FAIRWAY   STE 405  ",CONROE,TX,77304,"(281) 830-1579",,,,
TX,MONTGOMERY,BR-21-011165,"Single Family Homes",6/21/2021,,258767,4368,"214 CHERRY FOREST TRL  ",CONROE,TX,77304,,,CONTRACTOR,,,,,,,,,,,"WOODMERE DEVELOPMENT",,,,,"WOODMERE DEVELOPMENT","15915  KATY FAIRWAY   STE 405  ",CONROE,TX,77304,"(281) 830-1579",,,,
TX,MONTGOMERY,BR-21-011169,"Single Family Homes",6/21/2021,,257533,4309,"1908 HAWTHORN STREAM WAY ",CONROE,TX,77304,,,CONTRACTOR,,,,,,,,,,,"WOODMERE DEVELOPMENT",,,,,"WOODMERE DEVELOPMENT","15915  KATY FAIRWAY   STE 405  ",CONROE,TX,77304,"(281) 830-1579",,,,
TX,BELL,2021-7137,"Single Family Homes",6/23/2021,,170000,3097,"1011 LAUREL DR",BELTON,TX,76513,,,CONTRACTOR,,,,,,,,,,,"RILEY SCOTT CONSTRUCTION",,,,,"RILEY SCOTT CONSTRUCTION","1702 MORGAN'S POINT RD",BELTON,TX,76513,"(254) 239-5147",,,,
TX,BELL,2021-7138,"Single Family Homes",6/23/2021,,170000,3097,"1015 LAUREL DR",BELTON,TX,76513,,,CONTRACTOR,,,,,,,,,,,"RILEY SCOTT CONSTRUCTION",,,,,"RILEY SCOTT CONSTRUCTION","1702 MORGAN'S POINT RD",BELTON,TX,76513,"(254) 239-5147",,,,
TX,MONTGOMERY,BR-21-011283,"Single Family Homes",6/16/2021,,191475,2700,"626 LOST MAPLES BEND LN",CONROE,TX,77304,,,CONTRACTOR,,,,,,,,,,,"TRI POINTE HOMES",,,,,"TRI POINTE HOMES","16340 PARK TEN PLACE, #250",HOUSTON,TX,77356,"(281) 675-3200",https://investors.tripointehomes.com/,,,
TX,MONTGOMERY,BR-21-011286,"Single Family Homes",6/16/2021,,173100,2458,"630 LOST MAPLES BEND LN",CONROE,TX,77304,,,CONTRACTOR,,,,,,,,,,,"TRI POINTE HOMES",,,,,"TRI POINTE HOMES","16340 PARK TEN PLACE, #250",HOUSTON,TX,77356,"(281) 675-3200",https://investors.tripointehomes.com/,,,
TX,GALVESTON,35942-21,"Single Family Homes",6/29/2021,,97140,,"5403 WILSON",HOUSTON,TX,77356,,,"KIM REED","PO BOX 202",FRIENDSWOOD,TX,77549,,Owner,,,,,OWNER,,,,,OWNER,,,,,,,,,
TX,GALVESTON,35924-21,"Single Family Homes",7/23/2021,,86040,,"2168 NOISY WAVES",HOUSTON,TX,77356,,,"ALAN CRAMER INVESTMENTS","PO BOX 2851",BEAUMONT,TX,77356,,Owner,,,,,OWNER,,,,,OWNER,,,,,,,,,
TX,GALVESTON,35898-21,"Single Family Homes",6/17/2021,,83012,,"3001 VISTA DEL MAR",HOUSTON,TX,77450,,,"DALE WILLIAM","6710 WINDSOR PKWY",BEAUMONT,TX,77706,,Owner,,,,,OWNER,,,,,OWNER,,,,,,,,,
TX,GALVESTON,35896-21,"Single Family Homes",6/17/2021,,83012,,"956 COPACABANA DR",HOUSTON,TX,77550,,,"DALE WILLIAMS","6710 WINDSOR PKWY",BEAUMONT,TX,77706,,Owner,,,,,OWNER,,,,,OWNER,,,,,,,,,
TX,GALVESTON,35894-21,"Single Family Homes",6/17/2021,,82250,,"7603 AVE O",HOUSTON,TX,77450,,,"SHAWN LARK","7603 AVE 0","SANTA FE",TX,77510,,Owner,,,,,OWNER,,,,,OWNER,,,,,,,,,
TX,GALVESTON,35881-21,"Single Family Homes",6/10/2021,,54500,,"5545 20TH ST",HOUSTON,TX,77450,,,"CHARLES LEYENDECKER","1840 CAROLINE",DICKINSON,TX,77539,,Owner,,,,,OWNER,,,,,OWNER,,,,,,,,,
TX,GALVESTON,35875-21,"Single Family Homes",6/10/2021,,71962,,"1800 LAGUNA HARBOR COVE BLVD",HOUSTON,TX,77450,,,"SCOTT & SHARON CHENNAUTT","1800 LAGUNA HARBOR COVE BLVD",HOUSTON,TX,77450,,Owner,,,,,OWNER,,,,,OWNER,,,,,,,,,
TX,HARRIS,21016489,"Single Family Homes",7/12/2021,,275628,,"4818 WILMINGTON",HOUSTON,TX,77033,,,"SONJA BAKER","4818 WILMINGTON","HOUSTON                                           ",TX,77033,,Owner,,,,,OWNER,,,,,OWNER,,,,,,,,,
TX,BELL,21-840,"Single Family Homes",6/21/2021,,122774,2669,"5205 LEANING TREE DR",TEMPLE,TX,76502,"THE BEND",,CONTRACTOR,,,,,,,,,,,"STYLECRAFT BUILDERS ",,,,,"STYLECRAFT BUILDERS ","4090 STATE HIGHWAY 6 S","COLLEGE STATION",TX,77845-8962,"(979) 764-9900",,"(979) 690-3069","TANNER BREWSTER",tabrewster@stylecraft-builders.com
TX,MONTGOMERY,BR-21-012068,"Single Family Homes",6/25/2021,,161000,3126,"3207 LADERA CREEK CT",CONROE,TX,77304,,,CONTRACTOR,,,,,,,,,,,"LENNAR HOMES",,,,,"LENNAR HOMES","550 GREENS PKWY",HOUSTON,TX,77067-4537,"(281) 875-1000",http://www.lennar.com/,,,
TX,MONTGOMERY,BR-21-011445,"Single Family Homes",6/22/2021,,147550,2539,"2831 MISTYGATE CT",CONROE,TX,77304,,,CONTRACTOR,,,,,,,,,,,"LENNAR HOMES",,,,,"LENNAR HOMES","550 GREENS PKWY",HOUSTON,TX,77067-4537,"(281) 875-1000",http://www.lennar.com/,,,
TX,MONTGOMERY,BR-21-011449,"Single Family Homes",6/22/2021,,148850,2554,"2828 MISTYGATE CT",CONROE,TX,77304,,,CONTRACTOR,,,,,,,,,,,"LENNAR HOMES",,,,,"LENNAR HOMES","550 GREENS PKWY",HOUSTON,TX,77067-4537,"(281) 875-1000",http://www.lennar.com/,,,
TX,MONTGOMERY,BR-21-011452,"Single Family Homes",6/30/2021,,200395,3428,"2832 MISTYGATE CT",CONROE,TX,77304,,,CONTRACTOR,,,,,,,,,,,"LENNAR HOMES",,,,,"LENNAR HOMES","550 GREENS PKWY",HOUSTON,TX,77067-4537,"(281) 875-1000",http://www.lennar.com/,,,
TX,MONTGOMERY,BR-21-011456,"Single Family Homes",6/30/2021,,140465,2329,"2836 MISTYGATE CT",CONROE,TX,77304,,,CONTRACTOR,,,,,,,,,,,"LENNAR HOMES",,,,,"LENNAR HOMES","550 GREENS PKWY",HOUSTON,TX,77067-4537,"(281) 875-1000",http://www.lennar.com/,,,
TX,MONTGOMERY,BR-21-011462,"Single Family Homes",6/30/2021,,157040,2651,"2835 MISTYGATE CT",CONROE,TX,77304,,,CONTRACTOR,,,,,,,,,,,"LENNAR HOMES",,,,,"LENNAR HOMES","550 GREENS PKWY",HOUSTON,TX,77067-4537,"(281) 875-1000",http://www.lennar.com/,,,
TX,MONTGOMERY,BR-21-011465,"Single Family Homes",6/30/2021,,148850,2607,"2839 MISTYGATE CT  ",CONROE,TX,77304,,,CONTRACTOR,,,,,,,,,,,"LENNAR HOMES",,,,,"LENNAR HOMES","550 GREENS PKWY",HOUSTON,TX,77067-4537,"(281) 875-1000",http://www.lennar.com/,,,
TX,MONTGOMERY,BR-21-011468,"Single Family Homes",6/25/2021,,121810,2108,"2840 MISTYGATE CT",CONROE,TX,77304,,,CONTRACTOR,,,,,,,,,,,"LENNAR HOMES",,,,,"LENNAR HOMES","550 GREENS PKWY",HOUSTON,TX,77067-4537,"(281) 875-1000",http://www.lennar.com/,,,
TX,MONTGOMERY,BR-21-011473,"Single Family Homes",6/25/2021,,147550,2529,"2844 MISTYGATE CT",CONROE,TX,77304,,,CONTRACTOR,,,,,,,,,,,"LENNAR HOMES",,,,,"LENNAR HOMES","550 GREENS PKWY",HOUSTON,TX,77067-4537,"(281) 875-1000",http://www.lennar.com/,,,
TX,MONTGOMERY,BR-21-011478,"Single Family Homes",6/25/2021,,200395,3459,"2843 MISTYGATE CT",CONROE,TX,77304,,,CONTRACTOR,,,,,,,,,,,"LENNAR HOMES",,,,,"LENNAR HOMES","550 GREENS PKWY",HOUSTON,TX,77067-4537,"(281) 875-1000",http://www.lennar.com/,,,
TX,MONTGOMERY,BR-21-011525,"Single Family Homes",6/21/2021,,140465,2319,"2847 MISTYGATE CT",CONROE,TX,77304,,,CONTRACTOR,,,,,,,,,,,"LENNAR HOMES",,,,,"LENNAR HOMES","550 GREENS PKWY",HOUSTON,TX,77067-4537,"(281) 875-1000",http://www.lennar.com/,,,
TX,MONTGOMERY,BR-21-011528,"Single Family Homes",6/21/2021,,148850,2554,"2851 MISTYGATE CT",CONROE,TX,77304,,,CONTRACTOR,,,,,,,,,,,"LENNAR HOMES",,,,,"LENNAR HOMES","550 GREENS PKWY",HOUSTON,TX,77067-4537,"(281) 875-1000",http://www.lennar.com/,,,
TX,MONTGOMERY,BR-21-011531,"Single Family Homes",6/21/2021,,201175,3428,"2855 MISTYGATE CT",CONROE,TX,77303,,,CONTRACTOR,,,,,,,,,,,"LENNAR HOMES",,,,,"LENNAR HOMES","550 GREENS PKWY",HOUSTON,TX,77067-4537,"(281) 875-1000",http://www.lennar.com/,,,
TX,MONTGOMERY,BR-21-012044,"Single Family Homes",6/30/2021,,75000,1315,"1605 CEDAR CROSSING DR",CONROE,TX,77304,,,CONTRACTOR,,,,,,,,,,,"HABITAT FOR HUMANITY-HOUSTON",,,,,"HABITAT FOR HUMANITY-HOUSTON","3750 N MCCARTY ST",HOUSTON,TX,77029-1046,"(713) 671-9993",http://houstonhabitat.org/,,"ALLISON HAY",info@houstonhabitat.org
TX,MONTGOMERY,BR-21-012049,"Single Family Homes",6/30/2021,,65000,,"1609 CEDAR CROSSING DR",CONROE,TX,77304,,,CONTRACTOR,,,,,,,,,,,"HABITAT FOR HUMANITY-HOUSTON",,,,,"HABITAT FOR HUMANITY-HOUSTON","3750 N MCCARTY ST",HOUSTON,TX,77029-1046,"(713) 671-9993",http://houstonhabitat.org/,,"ALLISON HAY",info@houstonhabitat.org
TX,MONTGOMERY,BR-21-012053,"Single Family Homes",6/30/2021,,75000,1315,"1613 CEDAR CROSSING DR ",CONROE,TX,77304,,,CONTRACTOR,,,,,,,,,,,"HABITAT FOR HUMANITY-HOUSTON",,,,,"HABITAT FOR HUMANITY-HOUSTON","3750 N MCCARTY ST",HOUSTON,TX,77029-1046,"(713) 671-9993",http://houstonhabitat.org/,,"ALLISON HAY",info@houstonhabitat.org
TX,MONTGOMERY,BR-21-012056,"Single Family Homes",6/30/2021,,65000,,"1617 CEDAR CROSSING DR ",CONROE,TX,77304,,,CONTRACTOR,,,,,,,,,,,"HABITAT FOR HUMANITY-HOUSTON",,,,,"HABITAT FOR HUMANITY-HOUSTON","3750 N MCCARTY ST",HOUSTON,TX,77029-1046,"(713) 671-9993",http://houstonhabitat.org/,,"ALLISON HAY",info@houstonhabitat.org
TX,MONTGOMERY,BR-21-012061,"Single Family Homes",6/30/2021,,75000,1315,"1621 CEDAR CROSSING DR",CONROE,TX,77303,,,CONTRACTOR,,,,,,,,,,,"HABITAT FOR HUMANITY-HOUSTON",,,,,"HABITAT FOR HUMANITY-HOUSTON","3750 N MCCARTY ST",HOUSTON,TX,77029-1046,"(713) 671-9993",http://houstonhabitat.org/,,"ALLISON HAY",info@houstonhabitat.org
TX,MONTGOMERY,BR-21-012065,"Single Family Homes",6/30/2021,,65000,,"1625 CEDAR CROSSING DR",CONROE,TX,77303,,,CONTRACTOR,,,,,,,,,,,"HABITAT FOR HUMANITY-HOUSTON",,,,,"HABITAT FOR HUMANITY-HOUSTON","3750 N MCCARTY ST",HOUSTON,TX,77029-1046,"(713) 671-9993",http://houstonhabitat.org/,,"ALLISON HAY",info@houstonhabitat.org
TX,HARRIS,21036647,"Single Family Homes",7/9/2021,,451488,,"1523 POTOMAC DR",HOUSTON,TX,77057,,,"THOMAS & JINHEE BONNY","1523 POTOMAC DR","HOUSTON                                           ",TX,77057,,Owner,,,,,"VERANDA HOMES",,,,,"VERANDA HOMES","1523 POTOMAC DR",HOUSTON,TX,77057-2070,"(713) 240-0996",http://www.verandacustomhomes.com/,"(713) 266-3007",,info@verandacustomhomes.com
TX,HARRIS,21047735,"Single Family Homes",7/12/2021,,70090,,"11710 PLUMPOINT",HOUSTON,TX,77099,,,"CHESTER BEANS","11710 PLUMPOINT","HOUSTON                                           ",TX,77099,,Owner,,,,,"OROZCO CONSTRUCTION",,,,,"OROZCO CONSTRUCTION","2019 ALTA VISTA ST",HOUSTON,TX,77023-2507,"(832) 256-3686",,"(713) 923-7006","Delfino Orozco ",
TX,GALVESTON,35886-21,"Single Family Homes",6/10/2021,,76147,,"16969 COWAN",HOUSTON,TX,77450,,,"JUSTIN & CATHERINE HOLMAN","706 HEISSE",ALVIN,TX,77511,,Owner,,,,,"PRECISION HOMES CUSTOM BUILDERS",,,,,"PRECISION HOMES CUSTOM BUILDERS","1314 SPRING STUEBNER RD",SPRING,TX,77373-8201,"(281) 353-9883",,,,
TX,GALVESTON,35855-21,"Single Family Homes",7/7/2021,,70162,,"5715 ORCHARD",HOUSTON,TX,77450,,,"DAVID & KADIE BANKS","5707 ORCHARD LN","SANTA FE",TX,77517,,Owner,,,,,"PRECISION HOMES CUSTOM BUILDERS",,,,,"PRECISION HOMES CUSTOM BUILDERS","1314 SPRING STUEBNER RD",SPRING,TX,77373-8201,"(281) 353-9883",,,,
TX,GALVESTON,35945-21,"Single Family Homes",6/29/2021,,86687,,"4416 RANGER",HOUSTON,TX,77550,,,"STEVE COSBY","27311 DOVEBROOK",HUFFMAN,TX,77336,,Owner,,,,,"MANLEY BUILDERS",,,,,"MANLEY BUILDERS","PO BOX 2727","CRYSTAL BEACH",TX,77650-2727,"(409) 540-6116",http://www.manley-builders.com/,,,
TX,HARRIS,21047494,"Single Family Homes",7/7/2021,,180000,,"10915 KEATON LANDING",HOUSTON,TX,77043,,,CONTRACTOR,,,,,,,,,,,"ANNE'S PERMIT",,,,,"ANNE'S PERMIT","2617C W HOLCOMBE BLVD",HOUSTON,TX,77025,"(713) 666-2025",,,,
TX,HARRIS,21043917,"Single Family Homes",7/6/2021,,545000,,"4114 DUMBARTON",HOUSTON,TX,77025,,,CONTRACTOR,,,,,,,,,,,"ANNE'S PERMIT",,,,,"ANNE'S PERMIT","2617C W HOLCOMBE BLVD",HOUSTON,TX,77025,"(713) 666-2025",,,,
TX,BELL,21-841,"Single Family Homes",6/21/2021,,,2496,"1451 SHADOW HILL LN",TEMPLE,TX,76502,WESTFIELD,,CONTRACTOR,,,,,,,,,,,"OMEGA BUILDERS GROUP",,,,,"OMEGA BUILDERS GROUP","7353 W ADAMS AVE",TEMPLE,TX,76502-5539,"(254) 773-9966",,,,
TX,BELL,21-842,"Single Family Homes",6/21/2021,,,1960,"1459 SHADOW HILL LN",TEMPLE,TX,76502,"WESTFIELD DEVELOPMENT",,CONTRACTOR,,,,,,,,,,,"OMEGA BUILDERS GROUP",,,,,"OMEGA BUILDERS GROUP","7353 W ADAMS AVE",TEMPLE,TX,76502-5539,"(254) 773-9966",,,,
TX,BELL,21-843,"Single Family Homes",6/16/2021,,,2198,"1467 SHADOW HILL LN",TEMPLE,TX,76502,,,CONTRACTOR,,,,,,,,,,,"OMEGA BUILDERS GROUP",,,,,"OMEGA BUILDERS GROUP","7353 W ADAMS AVE",TEMPLE,TX,76502-5539,"(254) 773-9966",,,,
TX,BELL,21-844,"Single Family Homes",6/16/2021,,,3216,"1475 SHADOW HILL LN",TEMPLE,TX,76502,,,CONTRACTOR,,,,,,,,,,,"OMEGA BUILDERS GROUP",,,,,"OMEGA BUILDERS GROUP","7353 W ADAMS AVE",TEMPLE,TX,76502-5539,"(254) 773-9966",,,,
TX,BELL,21-845,"Single Family Homes",6/21/2021,,,2451,"1419 SHADOW HILL LN",TEMPLE,TX,76502,,,CONTRACTOR,,,,,,,,,,,"OMEGA BUILDERS GROUP",,,,,"OMEGA BUILDERS GROUP","7353 W ADAMS AVE",TEMPLE,TX,76502-5539,"(254) 773-9966",,,,
TX,BELL,21-846,"Single Family Homes",6/21/2021,,,1938,"1403 SHADOW HILL LN",TEMPLE,TX,76502,,,CONTRACTOR,,,,,,,,,,,"OMEGA BUILDERS GROUP",,,,,"OMEGA BUILDERS GROUP","7353 W ADAMS AVE",TEMPLE,TX,76502-5539,"(254) 773-9966",,,,
TX,BELL,21-847,"Single Family Homes",6/16/2021,,,1948,"1411 SHADOW HILL LN",TEMPLE,TX,76502,,,CONTRACTOR,,,,,,,,,,,"OMEGA BUILDERS GROUP",,,,,"OMEGA BUILDERS GROUP","7353 W ADAMS AVE",TEMPLE,TX,76502-5539,"(254) 773-9966",,,,
TX,BELL,21-848,"Single Family Homes",6/21/2021,,,2051,"1427 SHADOW HILL LN",TEMPLE,TX,76502,,,CONTRACTOR,,,,,,,,,,,"OMEGA BUILDERS GROUP",,,,,"OMEGA BUILDERS GROUP","7353 W ADAMS AVE",TEMPLE,TX,76502-5539,"(254) 773-9966",,,,
TX,BELL,21-849,"Single Family Homes",6/21/2021,,,3358,"1435 SHADOW HILL LN",TEMPLE,TX,76502,,,CONTRACTOR,,,,,,,,,,,"OMEGA BUILDERS GROUP",,,,,"OMEGA BUILDERS GROUP","7353 W ADAMS AVE",TEMPLE,TX,76502-5539,"(254) 773-9966",,,,
TX,BELL,21-839,"Single Family Homes",6/16/2021,,458946,4126,"2602 LEGACY RANCH DR",TEMPLE,TX,76502,"LEGACY RANCH",,CONTRACTOR,,,,,,,,,,,"J HOUSTON HOMES",,,,,"J HOUSTON HOMES","202 N INTERSTATE 35 RD STE C","RED OAK",TX,75154-4296,"(972) 937-4085",,"(972) 937-4697",,info@johnhoustoncustomhomes.com
TX,HARRIS,2100499,"Single Family Homes",6/16/2021,,295000,3120,"3409 N MEYER AVE",SEABROOK,TX,77586,,,CONTRACTOR,,,,,,,,,,,"MAVERICK REMODELING",,,,,"MAVERICK REMODELING","4106 NASA PKWY","EL LAGO",TX,77586-6245,"(281) 326-8800",http://maverickremodeling.org/,,,Bjstampley@maverickremodeling.org
TX,HARRIS,2100115,"Single Family Homes",6/9/2021,,210000,1890,"1917 TODVILLE RD",SEABROOK,TX,77586,,,CONTRACTOR,,,,,,,,,,,"PINNACLE CONSTRUCTION",,,,,"PINNACLE CONSTRUCTION","10900 NORTHWEST FWY STE 205",HOUSTON,TX,77092-7317,"(281) 888-6505",http://www.pinnacleconstruction.com/,,,
TX,GALVESTON,35866-21,"Single Family Homes",6/10/2021,,53570,,"8921 BAKER",HOUSTON,TX,77450,,,"DAVID KING","8921 BAKER","SANTA FE",TX,77510,,Owner,,,,,STONEWATER,,,,,STONEWATER,"914 GRIGSBY AVE","PORT NECHES",TX,77651-2339,"(409) 727-2410",,,,
TX,BELL,21-850,"Single Family Homes",6/15/2021,,,4875,"12502 LAGO DEL NORTE DR",TEMPLE,TX,76502,,,CONTRACTOR,,,,,,,,,,,"CAROTHERS EXECUTIVE HOMES",,,,,"CAROTHERS EXECUTIVE HOMES","50 S WHEAT RD",BELTON,TX,76513-8220,"(254) 773-0600",http://carothersexecutivehomes.com/,"(254) 791-0323","DAVID SOUTHERLAND",
TX,MONTGOMERY,BR-21-011888,"Single Family Homes",6/25/2021,,370285,3658,"311 ASTONIA CT",CONROE,TX,77304,,,CONTRACTOR,,,,,,,,,,,"DREES CUSTOM HOMES",,,,,"DREES CUSTOM HOMES","9720 CYPRESSWOOD DR",HOUSTON,TX,77070-3355,"(281) 653-8850",http://www.dreeshomes.com,,,
TX,MONTGOMERY,BR-21-011898,"Single Family Homes",6/25/2021,,359382,3560,"623 CIBOLO CREEK DR",CONROE,TX,77304,,,CONTRACTOR,,,,,,,,,,,"DREES CUSTOM HOMES",,,,,"DREES CUSTOM HOMES","9720 CYPRESSWOOD DR",HOUSTON,TX,77070-3355,"(281) 653-8850",http://www.dreeshomes.com,,,
TX,MONTGOMERY,BR-21-011953,"Single Family Homes",6/25/2021,,158517,2780,"152 GRAY PINE GROVE WAY",CONROE,TX,77303,,,CONTRACTOR,,,,,,,,,,,"GEHAN HOMES",,,,,"GEHAN HOMES","2050 W SAM HOUSTON PKWY S",HOUSTON,TX,77042-2079,"(713) 243-3545",http://www.gehanhomes.com,,,
TX,MONTGOMERY,BR-21-011901,"Single Family Homes",6/25/2021,,520000,4300,"115 STELLAR HILLS CT",CONROE,TX,77304,,,CONTRACTOR,,,,,,,,,,,"RAVENNA HOMES",,,,,"RAVENNA HOMES","28902 POWDER RIDGE DR",KATY,TX,77494-1918,"(281) 693-7209",,,,
TX,MONTGOMERY,BR-21-011853,"Single Family Homes",6/25/2021,,382990,3272,"214 TORREY BLOOM LOOP",CONROE,TX,77304,,,CONTRACTOR,,,,,,,,,,,"DAVID WEEKLEY HOMES",,,,,"DAVID WEEKLEY HOMES","14444 NORTHWEST",HOUSTON,TX,77040,"(713) 570-5021",http://www.davidweekleyhomes.com/,,,
TX,MONTGOMERY,BR-21-011869,"Single Family Homes",6/25/2021,,412990,3428,"202 TORREY BLOOM LOOP",CONROE,TX,77304,,,CONTRACTOR,,,,,,,,,,,"DAVID WEEKLEY HOMES",,,,,"DAVID WEEKLEY HOMES","14444 NORTHWEST",HOUSTON,TX,77040,"(713) 570-5021",http://www.davidweekleyhomes.com/,,,
TX,MONTGOMERY,BR-21-011878,"Single Family Homes",6/25/2021,,419990,3844,"335 TORREY BLOOM LOOP",CONROE,TX,77304,,,CONTRACTOR,,,,,,,,,,,"DAVID WEEKLEY HOMES",,,,,"DAVID WEEKLEY HOMES","14444 NORTHWEST",HOUSTON,TX,77040,"(713) 570-5021",http://www.davidweekleyhomes.com/,,,
TX,HARRIS,21039178,"Single Family Homes",7/9/2021,,159893,,"13455 BLAIR GLEN",HOUSTON,TX,77048,,,CONTRACTOR,,,,,,,,,,,"COLINA HOMES",,,,,"COLINA HOMES","1314 N DURHAM DR",HOUSTON,TX,77008-3734,"(281) 528-9090",http://colinahomes.com/,,,postmaster@colinahomes.com
TX,HARRIS,21002516,"Single Family Homes",7/9/2021,,188827,,"6514 MACROOM MEADOWS",HOUSTON,TX,77048,,,CONTRACTOR,,,,,,,,,,,"COLINA HOMES",,,,,"COLINA HOMES","1314 N DURHAM DR",HOUSTON,TX,77008-3734,"(281) 528-9090",http://colinahomes.com/,,,postmaster@colinahomes.com
TX,HARRIS,21055281,"Single Family Homes",7/8/2021,,140000,,"5617 LANGLEY",HOUSTON,TX,77016,,,CONTRACTOR,,,,,,,,,,,"AMERITEX HOMES",,,,,"AMERITEX HOMES","4835 LYNDON B JOHNSON FWY",DALLAS,TX,75244-6005,"(214) 765-0596",,,,
TX,GALVESTON,35890-21,"Single Family Homes",6/10/2021,,54217,,"6302 HIGHLAND 6",HOUSTON,TX,77450,,,"SABRINA VANDUSER","6302 HIGHLAND 6","SANTA FE",TX,77517,,Owner,,,,,"BRIZO CONSTRUCTION",,,,,"BRIZO CONSTRUCTION","1908 AVENUE L","SANTA FE",TX,77510-8917,"(409) 316-4762",,,,
TX,MONTGOMERY,BR-21-011709,"Single Family Homes",6/28/2021,,100000,2115,"405 MOHAWK DR",CONROE,TX,77303,,,CONTRACTOR,,,,,,,,,,,"STARTER HOMES OF TEXAS",,,,,"STARTER HOMES OF TEXAS","9803 HIGHWAY 242 STE 200 # 211",CONROE,TX,77385-4369,"(281) 367-4200",,,,
TX,MONTGOMERY,BR-21-011712,"Single Family Homes",6/28/2021,,100000,1812,"407 MOHAWK DR",CONROE,TX,77304,,,CONTRACTOR,,,,,,,,,,,"STARTER HOMES OF TEXAS",,,,,"STARTER HOMES OF TEXAS","9803 HIGHWAY 242 STE 200 # 211",CONROE,TX,77385-4369,"(281) 367-4200",,,,
TX,MONTGOMERY,BR-21-011716,"Single Family Homes",6/28/2021,,100000,2115,"204 COMMANCHE RD",CONROE,TX,77303,,,CONTRACTOR,,,,,,,,,,,"STARTER HOMES OF TEXAS",,,,,"STARTER HOMES OF TEXAS","9803 HIGHWAY 242 STE 200 # 211",CONROE,TX,77385-4369,"(281) 367-4200",,,,
TX,MONTGOMERY,BR-21-011724,"Single Family Homes",6/28/2021,,100000,1473,"1023 COLUMBIA RIVER ROAD",CONROE,TX,77304,,,CONTRACTOR,,,,,,,,,,,"STARTER HOMES OF TEXAS",,,,,"STARTER HOMES OF TEXAS","9803 HIGHWAY 242 STE 200 # 211",CONROE,TX,77385-4369,"(281) 367-4200",,,,
TX,MONTGOMERY,BR-21-011482,"Single Family Homes",6/22/2021,,100000,2115,"1019 CHICKASAW DR",CONROE,TX,77304,,,CONTRACTOR,,,,,,,,,,,"STARTER HOMES OF TEXAS",,,,,"STARTER HOMES OF TEXAS","9803 HIGHWAY 242 STE 200 # 211",CONROE,TX,77385-4369,"(281) 367-4200",,,,
TX,MONTGOMERY,BR-21-011484,"Single Family Homes",6/22/2021,,100000,2115,"907 CHICKASAW DR",CONROE,TX,77303,,,CONTRACTOR,,,,,,,,,,,"STARTER HOMES OF TEXAS",,,,,"STARTER HOMES OF TEXAS","9803 HIGHWAY 242 STE 200 # 211",CONROE,TX,77385-4369,"(281) 367-4200",,,,
TX,MONTGOMERY,BR-21-011486,"Single Family Homes",6/22/2021,,100000,2115,"905 CHICKASAW DR",CONROE,TX,77303,,,CONTRACTOR,,,,,,,,,,,"STARTER HOMES OF TEXAS",,,,,"STARTER HOMES OF TEXAS","9803 HIGHWAY 242 STE 200 # 211",CONROE,TX,77385-4369,"(281) 367-4200",,,,
TX,HARRIS,21024474,"Single Family Homes",7/6/2021,,198000,,"6707 PARKER GROVE",HOUSTON,TX,77076,,,CONTRACTOR,,,,,,,,,,,"351 E PARKER DEVELOPMENT LLC",,,,,"351 E PARKER DEVELOPMENT LLC","6343 SKYLINE DR",HOUSTON,TX,77057,"(713) 472-9776",,,,
TX,HARRIS,21054773,"Single Family Homes",7/6/2021,,163000,,"6709 PARKER GROVE",HOUSTON,TX,77076,,,CONTRACTOR,,,,,,,,,,,"351 E PARKER DEVELOPMENT LLC",,,,,"351 E PARKER DEVELOPMENT LLC","6343 SKYLINE DR",HOUSTON,TX,77057,"(713) 472-9776",,,,
TX,HARRIS,21054772,"Single Family Homes",7/6/2021,,198000,,"6711 PARKER GROVE",HOUSTON,TX,77076,,,CONTRACTOR,,,,,,,,,,,"351 E PARKER DEVELOPMENT LLC",,,,,"351 E PARKER DEVELOPMENT LLC","6343 SKYLINE DR",HOUSTON,TX,77057,"(713) 472-9776",,,,
TX,HARRIS,21054771,"Single Family Homes",7/6/2021,,163000,,"6726 PARKER OAKS",HOUSTON,TX,77076,,,CONTRACTOR,,,,,,,,,,,"351 E PARKER DEVELOPMENT LLC",,,,,"351 E PARKER DEVELOPMENT LLC","6343 SKYLINE DR",HOUSTON,TX,77057,"(713) 472-9776",,,,
TX,HARRIS,21050492,"Single Family Homes",7/7/2021,,181004,,"8427 BERRY BRUSH",HOUSTON,TX,77022,,,CONTRACTOR,,,,,,,,,,,"720 BERRY DEVELOPMENT LLC",,,,,"720 BERRY DEVELOPMENT LLC","6343 SKYLINE DR",HOUSTON,TX,77057,"(713) 472-9776",,,,
TX,GALVESTON,35918-21,"Single Family Homes",7/23/2021,,70900,,"934 MARYLYNN",HOUSTON,TX,77650,,,"CHAD WYBLE","934 MARYLYNN","HOUSTON                                           ",TX,77650,,Owner,,,,,"ARON NANCE",,,,,"ARON NANCE","PO BOX 1297","CRYSTAL BEACH",TX,77650,"(214) 914-5140",,,,
TX,MONTGOMERY,BR-21-011691,"Single Family Homes",6/29/2021,,175000,3343,"620 CHEROKEE DR",CONROE,TX,77304,,,CONTRACTOR,,,,,,,,,,,"WINDSONG COMMUNICATIONS",,,,,"WINDSONG COMMUNICATIONS","104 WOODMONT DR",MONTGOMERY,TX,77356,"(936) 447-1203",,,,
TX,GALVESTON,35938-21,"Single Family Homes",6/29/2021,,86160,,"328 SEAGRASS",HOUSTON,TX,77356,,,"ROBERT GILES","1503 CAROLINA",FRIENDSWOOD,TX,77356,,Owner,,,,,"BRAD BALLARD",,,,,"BRAD BALLARD","1709 HUNTERS TRAIL",FRIENDSWOOD,TX,77546,"(281) 639-0451",,,,
TX,GALVESTON,35807-21,"Single Family Homes",6/17/2021,,149682,,"310 SEAGRASS",HOUSTON,TX,77450,,,"JON & PAULA SACKS","10 HARMONY LINKS PL","THE WOODLANDS",TX,77382,,Owner,,,,,"SOUTH CUSTOM CONCEPTS",,,,,"SOUTH CUSTOM CONCEPTS","140 ROSEWOOD DR",KEMAH,TX,77565,"(281) 682-3251",,,,
TX,GALVESTON,35840-21,"Single Family Homes",6/17/2021,,87525,,"3733 BISCAYNE BEACH RD",HOUSTON,TX,77650,,,"STEPHEN POTTS","4814 MESQUITE MEADOW LN",KATY,TX,77494,,Owner,,,,,"CARBON CONSTRUCTION",,,,,"CARBON CONSTRUCTION","3195 DOWLEN, STE 101-192",BEAUMONT,TX,77706,"(409) 553-7613",,,,
TX,GALVESTON,35839-21,"Single Family Homes",6/7/2021,,90975,,"3625 BISCAYNE BEACH RD",HOUSTON,TX,77450,,,"BP CEVELOPMENT","5706 MOCKINGBIRD STE 115",DALLAS,TX,75206,,Owner,,,,,"BARCLAY BUILDERS",,,,,"BARCLAY BUILDERS","5706 MOCKING BIRD STE 115",DALLAS,TX,75206,"(972) 839-7793",,,,
TX,HARRIS,21007067,"Single Family Homes",7/12/2021,,650000,,"4151 BELLEFONTAINE",HOUSTON,TX,77025,,,"RAJ CHILAKAPATI","4151 BELLEFONTAINE","HOUSTON                                           ",TX,77025,,Owner,,,,,"MITCHELL RAHLFS",,,,,"MITCHELL RAHLFS","5252 WESTCHESTER",HOUSTON,TX,77005,"(281) 797-8710",,,,
TX,HARRIS,20116434,"Single Family Homes",7/6/2021,,195600,,"1410 MILBY ST",HOUSTON,TX,77003,,,"NICHOLAS HUBBARD","2510 ARBOR DR",BRYAN,TX,77802,"(832) 777-9323",Applicant,,,,,OWNER,,,,,OWNER,,,,,,,,,
TX,HARRIS,21020537,"Single Family Homes",7/7/2021,,491100,,"516 REINERMAN",HOUSTON,TX,77007,,,"DANIEL MCKINNEY","2200 POST OAK BLVD STE","HOUSTON                                           ",TX,77056,,Owner,,,,,OWNER,,,,,OWNER,,,,,,,,,
TX,HARRIS,20097068,"Single Family Homes",7/7/2021,,100000,,"9317 BERTWOOD",HOUSTON,TX,77016,,,"MR. DELANA DEON HARRIS","9317 BERTWOOD","HOUSTON                                           ",TX,77016,"(713) 817-2126",Owner,,,,,OWNER,,,,,OWNER,,,,,,,,,
TX,HARRIS,21049859,"Single Family Homes",7/6/2021,,238000,,"3518 HEATHER CHASE",HOUSTON,TX,77365,,,CONTRACTOR,,,,,,,,,,,"LENNAR HOMES",,,,,"LENNAR HOMES","550 GREENS PKWY",HOUSTON,TX,77067-4537,"(281) 875-1000",http://www.lennar.com/,,,
TX,BRAZORIA,RES21-01320,"Single Family Homes",6/8/2021,,,1774,"4625 CHESTER BAY CT",PEARLAND,TX,77583,,,CONTRACTOR,,,,,,,,,,,"LENNAR HOMES",,,,,"LENNAR HOMES","550 GREENS PKWY",HOUSTON,TX,77067-4537,"(281) 875-1000",http://www.lennar.com/,,,
TX,BRAZORIA,RES21-01321,"Single Family Homes",6/8/2021,,,2758,"4629 CHESTER BAY CT",PEARLAND,TX,77583,,,CONTRACTOR,,,,,,,,,,,"LENNAR HOMES",,,,,"LENNAR HOMES","550 GREENS PKWY",HOUSTON,TX,77067-4537,"(281) 875-1000",http://www.lennar.com/,,,
TX,BRAZORIA,RES21-01322,"Single Family Homes",6/8/2021,,,2495,"4634 CHESTER BAY CT",PEARLAND,TX,77583,,,CONTRACTOR,,,,,,,,,,,"LENNAR HOMES",,,,,"LENNAR HOMES","550 GREENS PKWY",HOUSTON,TX,77067-4537,"(281) 875-1000",http://www.lennar.com/,,,
TX,BRAZORIA,RES21-01323,"Single Family Homes",6/8/2021,,,2304,"4630 CHESTER BAY CT",PEARLAND,TX,77583,,,CONTRACTOR,,,,,,,,,,,"LENNAR HOMES",,,,,"LENNAR HOMES","550 GREENS PKWY",HOUSTON,TX,77067-4537,"(281) 875-1000",http://www.lennar.com/,,,
TX,BRAZORIA,RES21-01324,"Single Family Homes",6/8/2021,,,2646,"4626 CHESTER BAY CT",PEARLAND,TX,77583,,,CONTRACTOR,,,,,,,,,,,"LENNAR HOMES",,,,,"LENNAR HOMES","550 GREENS PKWY",HOUSTON,TX,77067-4537,"(281) 875-1000",http://www.lennar.com/,,,
TX,BRAZORIA,RES21-01336,"Single Family Homes",6/8/2021,,,2332,"4622 CHESTER BAY CT",PEARLAND,TX,77583,,,CONTRACTOR,,,,,,,,,,,"LENNAR HOMES",,,,,"LENNAR HOMES","550 GREENS PKWY",HOUSTON,TX,77067-4537,"(281) 875-1000",http://www.lennar.com/,,,
TX,BRAZORIA,RES21-01338,"Single Family Homes",6/8/2021,,,1969,"4621 CHESTER BAY CT",PEARLAND,TX,77583,,,CONTRACTOR,,,,,,,,,,,"LENNAR HOMES",,,,,"LENNAR HOMES","550 GREENS PKWY",HOUSTON,TX,77067-4537,"(281) 875-1000",http://www.lennar.com/,,,
TX,BRAZORIA,RES21-01284,"Single Family Homes",6/2/2021,,,1205,"14523 BROADBURY POND RD",PEARLAND,TX,77583,,,CONTRACTOR,,,,,,,,,,,"LENNAR HOMES",,,,,"LENNAR HOMES","550 GREENS PKWY",HOUSTON,TX,77067-4537,"(281) 875-1000",http://www.lennar.com/,,,
TX,BRAZORIA,RES21-01285,"Single Family Homes",6/2/2021,,,1267,"14519 BROADBURY POND RD",PEARLAND,TX,77583,,,CONTRACTOR,,,,,,,,,,,"LENNAR HOMES",,,,,"LENNAR HOMES","550 GREENS PKWY",HOUSTON,TX,77067-4537,"(281) 875-1000",http://www.lennar.com/,,,
TX,BRAZORIA,RES21-01345,"Single Family Homes",6/9/2021,,,2646,"4613 CHESTER BAY CT",PEARLAND,TX,77583,,,CONTRACTOR,,,,,,,,,,,"LENNAR HOMES",,,,,"LENNAR HOMES","550 GREENS PKWY",HOUSTON,TX,77067-4537,"(281) 875-1000",http://www.lennar.com/,,,
TX,BRAZORIA,RES21-01343,"Single Family Homes",6/10/2021,,,2304,"4618 CHESTER BAY CT",PEARLAND,TX,77583,,,CONTRACTOR,,,,,,,,,,,"LENNAR HOMES",,,,,"LENNAR HOMES","550 GREENS PKWY",HOUSTON,TX,77067-4537,"(281) 875-1000",http://www.lennar.com/,,,
TX,BRAZORIA,RES21-01348,"Single Family Homes",6/10/2021,,,1789,"14515 BROADBURY POND RD",PEARLAND,TX,77583,,,CONTRACTOR,,,,,,,,,,,"LENNAR HOMES",,,,,"LENNAR HOMES","550 GREENS PKWY",HOUSTON,TX,77067-4537,"(281) 875-1000",http://www.lennar.com/,,,
TX,BRAZORIA,RES21-01352,"Single Family Homes",6/10/2021,,,1621,"14514 BROADBURY POND RD",PEARLAND,TX,77583,,,CONTRACTOR,,,,,,,,,,,"LENNAR HOMES",,,,,"LENNAR HOMES","550 GREENS PKWY",HOUSTON,TX,77067-4537,"(281) 875-1000",http://www.lennar.com/,,,
TX,BRAZORIA,RES21-01353,"Single Family Homes",6/10/2021,,,1205,"14511 BROADBURY POND RD",PEARLAND,TX,77583,,,CONTRACTOR,,,,,,,,,,,"LENNAR HOMES",,,,,"LENNAR HOMES","550 GREENS PKWY",HOUSTON,TX,77067-4537,"(281) 875-1000",http://www.lennar.com/,,,
TX,BRAZORIA,RES21-01354,"Single Family Homes",6/10/2021,,,1132,"14507 BROADBURY POND RD",PEARLAND,TX,77583,,,CONTRACTOR,,,,,,,,,,,"LENNAR HOMES",,,,,"LENNAR HOMES","550 GREENS PKWY",HOUSTON,TX,77067-4537,"(281) 875-1000",http://www.lennar.com/,,,
TX,BRAZORIA,RES21-01349,"Single Family Homes",6/16/2021,,,2185,"14522 BROADBURY POND RD",PEARLAND,TX,77583,,,CONTRACTOR,,,,,,,,,,,"LENNAR HOMES",,,,,"LENNAR HOMES","550 GREENS PKWY",HOUSTON,TX,77067-4537,"(281) 875-1000",http://www.lennar.com/,,,
TX,BRAZORIA,RES21-01406,"Single Family Homes",6/16/2021,,,2758,"4614 CHESTER BAY CT",PEARLAND,TX,77583,,,CONTRACTOR,,,,,,,,,,,"LENNAR HOMES",,,,,"LENNAR HOMES","550 GREENS PKWY",HOUSTON,TX,77067-4537,"(281) 875-1000",http://www.lennar.com/,,,
TX,BRAZORIA,RES21-01409,"Single Family Homes",6/16/2021,,,2495,"4617 CHESTER BAY CT",PEARLAND,TX,77583,,,CONTRACTOR,,,,,,,,,,,"LENNAR HOMES",,,,,"LENNAR HOMES","550 GREENS PKWY",HOUSTON,TX,77067-4537,"(281) 875-1000",http://www.lennar.com/,,,
TX,BRAZORIA,RES21-01351,"Single Family Homes",6/10/2021,,,1132,"14518 BROADBURY POND RD",PEARLAND,TX,77583,,,CONTRACTOR,,,,,,,,,,,"LENNAR HOMES",,,,,"LENNAR HOMES","550 GREENS PKWY",HOUSTON,TX,77067-4537,"(281) 875-1000",http://www.lennar.com/,,,
TX,HARRIS,21042535,"Single Family Homes",7/10/2021,,625000,,"4024 CHATHAM",HOUSTON,TX,77027,,,CONTRACTOR,,,,,,,,,,,"CITIVIEW HOMES",,,,,"CITIVIEW HOMES","7544 FM 1960 RD E # 7",HUMBLE,TX,77346-3127,"(713) 997-9038",http://citiviewhomes.com,,,
TX,BRAZORIA,RES21-01347,"Single Family Homes",6/10/2021,,,3296,"13815 STURCOMBE GLEN TRL",PEARLAND,TX,77583,,,CONTRACTOR,,,,,,,,,,,"DEVON STREET HOMES",,,,,"DEVON STREET HOMES","4545 POST OAK PLACE DR STE 345",HOUSTON,TX,77027-3198,"(713) 622-1009",http://www.devonstreethomes.com,"(713) 622-1094",,
TX,BRAZORIA,RES21-01491,"Single Family Homes",6/23/2021,,,3557,"13811 STURCOMBE GLEN TRL",PEARLAND,TX,77583,,,CONTRACTOR,,,,,,,,,,,"DEVON STREET HOMES",,,,,"DEVON STREET HOMES","4545 POST OAK PLACE DR STE 345",HOUSTON,TX,77027-3198,"(713) 622-1009",http://www.devonstreethomes.com,"(713) 622-1094",,
TX,BRAZORIA,RES21-01261,"Single Family Homes",6/1/2021,,,2270,"4858 ALBANY RIDGE LN",PEARLAND,TX,77583,,,CONTRACTOR,,,,,,,,,,,"DEVON STREET HOMES",,,,,"DEVON STREET HOMES","4545 POST OAK PLACE DR STE 345",HOUSTON,TX,77027-3198,"(713) 622-1009",http://www.devonstreethomes.com,"(713) 622-1094",,
TX,BRAZORIA,RES21-00924,"Single Family Homes",6/29/2021,,,5905,"3008 GREEN TEE DR",PEARLAND,TX,77581,,,CONTRACTOR,,,,,,,,,,,"STERLING BUILDERS",,,,,"STERLING BUILDERS","1506 WINDING WAY DR STE 301",FRIENDSWOOD,TX,77546-5391,"(281) 482-3034",http://sterling-builders.com/,"(281) 996-8087",,
TX,BRAZORIA,RES21-01236,"Single Family Homes",6/9/2021,,,2913,"2670 SUMMER INDIGO TRL",PEARLAND,TX,77089,,,CONTRACTOR,,,,,,,,,,,"MERITAGE HOMES",,,,,"MERITAGE HOMES","2901 W SAM HOUSTON PKWY N",HOUSTON,TX,77043-1630,"(713) 357-1184",,,,
TX,BRAZORIA,RES21-01255,"Single Family Homes",6/2/2021,,,2933,"2706 SUMMER INDIGO TRL",PEARLAND,TX,77089,,,CONTRACTOR,,,,,,,,,,,"MERITAGE HOMES",,,,,"MERITAGE HOMES","2901 W SAM HOUSTON PKWY N",HOUSTON,TX,77043-1630,"(713) 357-1184",,,,
TX,BRAZORIA,RES21-01256,"Single Family Homes",6/2/2021,,,2917,"2813 SUMMER INDIGO TRL",PEARLAND,TX,77089,,,CONTRACTOR,,,,,,,,,,,"MERITAGE HOMES",,,,,"MERITAGE HOMES","2901 W SAM HOUSTON PKWY N",HOUSTON,TX,77043-1630,"(713) 357-1184",,,,
TX,BRAZORIA,RES21-01257,"Single Family Homes",6/1/2021,,,2951,"2000 REFLECTION BAY DR",PEARLAND,TX,77584,,,CONTRACTOR,,,,,,,,,,,"MERITAGE HOMES",,,,,"MERITAGE HOMES","2901 W SAM HOUSTON PKWY N",HOUSTON,TX,77043-1630,"(713) 357-1184",,,,
TX,HARRIS,21050005,"Single Family Homes",7/8/2021,,172594,,"1520 BEACH OAK",HOUSTON,TX,77084,,,CONTRACTOR,,,,,,,,,,,"MERITAGE HOMES",,,,,"MERITAGE HOMES","2901 W SAM HOUSTON PKWY N",HOUSTON,TX,77043-1630,"(713) 357-1184",,,,
TX,HARRIS,21035630,"Single Family Homes",7/6/2021,,172593,,"1527 BEACH OAK",HOUSTON,TX,77084,,,CONTRACTOR,,,,,,,,,,,"MERITAGE HOMES",,,,,"MERITAGE HOMES","2901 W SAM HOUSTON PKWY N",HOUSTON,TX,77043-1630,"(713) 357-1184",,,,
TX,HARRIS,21045075,"Single Family Homes",7/8/2021,,148958,,"16028 OREGON OAK",HOUSTON,TX,77084,,,CONTRACTOR,,,,,,,,,,,"MERITAGE HOMES",,,,,"MERITAGE HOMES","2901 W SAM HOUSTON PKWY N",HOUSTON,TX,77043-1630,"(713) 357-1184",,,,
TX,HARRIS,21031397,"Single Family Homes",7/6/2021,,250563,,"3115 CRAFTSMAN ",HOUSTON,TX,77080,,,CONTRACTOR,,,,,,,,,,,"MERITAGE HOMES",,,,,"MERITAGE HOMES","2901 W SAM HOUSTON PKWY N",HOUSTON,TX,77043-1630,"(713) 357-1184",,,,
TX,HARRIS,21031398,"Single Family Homes",7/9/2021,,308767,,"3121 MEADOW MAKER",HOUSTON,TX,77080,,,CONTRACTOR,,,,,,,,,,,"MERITAGE HOMES",,,,,"MERITAGE HOMES","2901 W SAM HOUSTON PKWY N",HOUSTON,TX,77043-1630,"(713) 357-1184",,,,
TX,HARRIS,21044893,"Single Family Homes",7/10/2021,,232984,,"9809 LILIFLORA ",HOUSTON,TX,77080,,,CONTRACTOR,,,,,,,,,,,"MERITAGE HOMES",,,,,"MERITAGE HOMES","2901 W SAM HOUSTON PKWY N",HOUSTON,TX,77043-1630,"(713) 357-1184",,,,
TX,HARRIS,21016804,"Single Family Homes",7/6/2021,,150535,,"9832 MAGNOLIA VILLAGE",HOUSTON,TX,77080,,,CONTRACTOR,,,,,,,,,,,"MERITAGE HOMES",,,,,"MERITAGE HOMES","2901 W SAM HOUSTON PKWY N",HOUSTON,TX,77043-1630,"(713) 357-1184",,,,
TX,HARRIS,21044621,"Single Family Homes",7/10/2021,,203966,,"9905 PRAIRIE HOUSE",HOUSTON,TX,77080,,,CONTRACTOR,,,,,,,,,,,"MERITAGE HOMES",,,,,"MERITAGE HOMES","2901 W SAM HOUSTON PKWY N",HOUSTON,TX,77043-1630,"(713) 357-1184",,,,
TX,HARRIS,21044900,"Single Family Homes",7/10/2021,,263684,,"9916 BUCKWHEAT",HOUSTON,TX,77080,,,CONTRACTOR,,,,,,,,,,,"MERITAGE HOMES",,,,,"MERITAGE HOMES","2901 W SAM HOUSTON PKWY N",HOUSTON,TX,77043-1630,"(713) 357-1184",,,,
TX,BRAZORIA,RES21-00385,"Single Family Homes",6/25/2021,,,3461,"3915 QUAIL RUN DR",PEARLAND,TX,77584,,,CONTRACTOR,,,,,,,,,,,"WHITE ROCK CUSTOM HOMES",,,,,"WHITE ROCK CUSTOM HOMES","2901 AMANDA LEE DR",PEARLAND,TX,77581-5339,"(281) 299-7101",http://www.whiterockcustomhomes.com/,,"MARTY SHROYER",mshroyer@whiterockcustomhomes.com
TX,BRAZORIA,RES21-00803,"Single Family Homes",6/9/2021,,,2070,"3614 BRADEN CIR",PEARLAND,TX,77584,,,CONTRACTOR,,,,,,,,,,,"ANGLIA HOMES",,,,,"ANGLIA HOMES","17510 RED OAK DR",HOUSTON,TX,77090,"(281) 943-5288",http://www.angliahomeslp.com/,,,
TX,BRAZORIA,RES21-00805,"Single Family Homes",6/9/2021,,,1931,"3604 EAGLET TRL",PEARLAND,TX,77584,,,CONTRACTOR,,,,,,,,,,,"ANGLIA HOMES",,,,,"ANGLIA HOMES","17510 RED OAK DR",HOUSTON,TX,77090,"(281) 943-5288",http://www.angliahomeslp.com/,,,
TX,BRAZORIA,RES21-01296,"Single Family Homes",6/17/2021,,,1603,"6113 PATTON LN",PEARLAND,TX,77584,,,CONTRACTOR,,,,,,,,,,,"ANGLIA HOMES",,,,,"ANGLIA HOMES","17510 RED OAK DR",HOUSTON,TX,77090,"(281) 943-5288",http://www.angliahomeslp.com/,,,
TX,HARRIS,20110230,"Single Family Homes",7/7/2021,,322000,,"7441 SPRINGDALE",HOUSTON,TX,77028,,,"FIDEL HERNANDEZ","7441 SPRINGDALE","HOUSTON                                           ",TX,77028,,Owner,,,,,"PROJECT SERVICES GROUP",,,,,"PROJECT SERVICES GROUP","2040 CENTURY CENTER BLVD STE 10",IRVING,TX,75062-4922,"(972) 812-7370",http://www.psg-dallas.com/,,"DANIEL BOSWELL",support@psg-dallas.com
TX,HARRIS,21038713,"Single Family Homes",7/6/2021,,186135,,"5702 WHITE MAGNOLIA",HOUSTON,TX,77091,,,CONTRACTOR,,,,,,,,,,,"ARDGILLAN CONSTRUCTION",,,,,"ARDGILLAN CONSTRUCTION","2023 KELONA DR",SPRING,TX,77386-2542,"(823) 257-2601",http://www.ardgillanconstruction.com/,,,info@ardgillanconstruction.com
TX,HARRIS,21038707,"Single Family Homes",7/6/2021,,186135,,"5703 WHITE MAGNOLIA",HOUSTON,TX,77091,,,CONTRACTOR,,,,,,,,,,,"ARDGILLAN CONSTRUCTION",,,,,"ARDGILLAN CONSTRUCTION","2023 KELONA DR",SPRING,TX,77386-2542,"(823) 257-2601",http://www.ardgillanconstruction.com/,,,info@ardgillanconstruction.com
TX,HARRIS,21038712,"Single Family Homes",7/6/2021,,180416,,"5704 WHITE MAGNOLIA",HOUSTON,TX,77091,,,CONTRACTOR,,,,,,,,,,,"ARDGILLAN CONSTRUCTION",,,,,"ARDGILLAN CONSTRUCTION","2023 KELONA DR",SPRING,TX,77386-2542,"(823) 257-2601",http://www.ardgillanconstruction.com/,,,info@ardgillanconstruction.com
TX,HARRIS,21038706,"Single Family Homes",7/6/2021,,180416,,"5705 WHITE MAGNOLIA",HOUSTON,TX,77091,,,CONTRACTOR,,,,,,,,,,,"ARDGILLAN CONSTRUCTION",,,,,"ARDGILLAN CONSTRUCTION","2023 KELONA DR",SPRING,TX,77386-2542,"(823) 257-2601",http://www.ardgillanconstruction.com/,,,info@ardgillanconstruction.com
TX,HARRIS,21038711,"Single Family Homes",7/6/2021,,186135,,"5706 WHITE MAGNOLIA",HOUSTON,TX,77091,,,CONTRACTOR,,,,,,,,,,,"ARDGILLAN CONSTRUCTION",,,,,"ARDGILLAN CONSTRUCTION","2023 KELONA DR",SPRING,TX,77386-2542,"(823) 257-2601",http://www.ardgillanconstruction.com/,,,info@ardgillanconstruction.com
TX,HARRIS,21038705,"Single Family Homes",7/6/2021,,186135,,"5707 WHITE MAGNOLIA",HOUSTON,TX,77091,,,CONTRACTOR,,,,,,,,,,,"ARDGILLAN CONSTRUCTION",,,,,"ARDGILLAN CONSTRUCTION","2023 KELONA DR",SPRING,TX,77386-2542,"(823) 257-2601",http://www.ardgillanconstruction.com/,,,info@ardgillanconstruction.com
TX,HARRIS,21038710,"Single Family Homes",7/6/2021,,180416,,"5708 WHITE MAGNOLIA",HOUSTON,TX,77091,,,CONTRACTOR,,,,,,,,,,,"ARDGILLAN CONSTRUCTION",,,,,"ARDGILLAN CONSTRUCTION","2023 KELONA DR",SPRING,TX,77386-2542,"(823) 257-2601",http://www.ardgillanconstruction.com/,,,info@ardgillanconstruction.com
TX,HARRIS,21038704,"Single Family Homes",7/6/2021,,180416,,"5709 WHITE MAGNOLIA",HOUSTON,TX,77091,,,CONTRACTOR,,,,,,,,,,,"ARDGILLAN CONSTRUCTION",,,,,"ARDGILLAN CONSTRUCTION","2023 KELONA DR",SPRING,TX,77386-2542,"(823) 257-2601",http://www.ardgillanconstruction.com/,,,info@ardgillanconstruction.com
TX,HARRIS,21038709,"Single Family Homes",7/6/2021,,186135,,"5710 WHITE MAGNOLIA",HOUSTON,TX,77091,,,CONTRACTOR,,,,,,,,,,,"ARDGILLAN CONSTRUCTION",,,,,"ARDGILLAN CONSTRUCTION","2023 KELONA DR",SPRING,TX,77386-2542,"(823) 257-2601",http://www.ardgillanconstruction.com/,,,info@ardgillanconstruction.com
TX,HARRIS,21038703,"Single Family Homes",7/6/2021,,186135,,"5711 WHITE MAGNOLIA",HOUSTON,TX,77091,,,CONTRACTOR,,,,,,,,,,,"ARDGILLAN CONSTRUCTION",,,,,"ARDGILLAN CONSTRUCTION","2023 KELONA DR",SPRING,TX,77386-2542,"(823) 257-2601",http://www.ardgillanconstruction.com/,,,info@ardgillanconstruction.com
TX,HARRIS,21038702,"Single Family Homes",7/6/2021,,180416,,"5713 WHITE MAGNOLIA",HOUSTON,TX,77091,,,CONTRACTOR,,,,,,,,,,,"ARDGILLAN CONSTRUCTION",,,,,"ARDGILLAN CONSTRUCTION","2023 KELONA DR",SPRING,TX,77386-2542,"(823) 257-2601",http://www.ardgillanconstruction.com/,,,info@ardgillanconstruction.com
TX,HARRIS,21038708,"Single Family Homes",7/6/2021,,180416,,"5712 WHITE MAGNOLIA",HOUSTON,TX,77091,,,CONTRACTOR,,,,,,,,,,,"ARDGILLAN CONSTRUCTION",,,,,"ARDGILLAN CONSTRUCTION","2023 KELONA DR",SPRING,TX,77386-2542,"(823) 257-2601",http://www.ardgillanconstruction.com/,,,info@ardgillanconstruction.com
TX,HARRIS,21025392,"Single Family Homes",7/7/2021,,261100,,"4426 ELMWOOD",HOUSTON,TX,77051,,,CONTRACTOR,,,,,,,,,,,"CASTLEROCK COMMUNITIES",,,,,"CASTLEROCK COMMUNITIES","7670 WOODWAY DR STE 300",HOUSTON,TX,77063-1520,"(713) 600-7000",http://c-rock.com,"(713) 600-0000",,
TX,BRAZORIA,RES21-01313,"Single Family Homes",6/28/2021,,,2706,"4717 SUMMER PLUMTREE TRCE",PEARLAND,TX,77583,,,CONTRACTOR,,,,,,,,,,,"CASTLEROCK COMMUNITIES",,,,,"CASTLEROCK COMMUNITIES","7670 WOODWAY DR STE 300",HOUSTON,TX,77063-1520,"(713) 600-7000",http://c-rock.com,"(713) 600-0000",,
TX,BRAZORIA,RES20-02441,"Single Family Homes",6/23/2021,,,2507,"5722 CANTU ST",PEARLAND,TX,77584,,,CONTRACTOR,,,,,,,,,,,"CASTLEROCK COMMUNITIES",,,,,"CASTLEROCK COMMUNITIES","7670 WOODWAY DR STE 300",HOUSTON,TX,77063-1520,"(713) 600-7000",http://c-rock.com,"(713) 600-0000",,
TX,HARRIS,21049128,"Single Family Homes",7/12/2021,,215000,,"9212 WOOD BEACH",HOUSTON,TX,77034,,,CONTRACTOR,,,,,,,,,,,"SULLIVAN BROTHERS BUILDERS",,,,,"SULLIVAN BROTHERS BUILDERS","8600 HEMPSTEAD RD",HOUSTON,TX,77008-6014,"(832) 431-4204",,,,
TX,BRAZORIA,RES21-01367,"Single Family Homes",6/29/2021,,,2235,"1908 HIGHLAND RIDGE DR",PEARLAND,TX,77581,,,CONTRACTOR,,,,,,,,,,,"GEHAN HOMES",,,,,"GEHAN HOMES","2050 W SAM HOUSTON PKWY S",HOUSTON,TX,77042-2079,"(713) 243-3545",http://www.gehanhomes.com,,,
TX,BRAZORIA,RES21-01368,"Single Family Homes",6/29/2021,,,1990,"3612 MEADOW PASS LN",PEARLAND,TX,77581,,,CONTRACTOR,,,,,,,,,,,"GEHAN HOMES",,,,,"GEHAN HOMES","2050 W SAM HOUSTON PKWY S",HOUSTON,TX,77042-2079,"(713) 243-3545",http://www.gehanhomes.com,,,
TX,BRAZORIA,RES21-00936,"Single Family Homes",6/18/2021,,,1537,"3623 MEADOW PASS LN",PEARLAND,TX,77581,,,CONTRACTOR,,,,,,,,,,,"GEHAN HOMES",,,,,"GEHAN HOMES","2050 W SAM HOUSTON PKWY S",HOUSTON,TX,77042-2079,"(713) 243-3545",http://www.gehanhomes.com,,,
TX,BRAZORIA,RES21-01211,"Single Family Homes",6/21/2021,,,2032,"3607 MEADOW PASS LN",PEARLAND,TX,77581,,,CONTRACTOR,,,,,,,,,,,"GEHAN HOMES",,,,,"GEHAN HOMES","2050 W SAM HOUSTON PKWY S",HOUSTON,TX,77042-2079,"(713) 243-3545",http://www.gehanhomes.com,,,
TX,HARRIS,21050094,"Single Family Homes",7/8/2021,,500000,,"28 BASH",HOUSTON,TX,77027,,,CONTRACTOR,,,,,,,,,,,"SHERPA CONSTRUCTION",,,,,"SHERPA CONSTRUCTION","7618 BETTY JANE LN",HOUSTON,TX,77055-6808,"(281) 773-8383",,,,
TX,BRAZORIA,RES20-00664,"Single Family Homes",6/22/2021,,,4459,"3531 DIXIE FARM RD",PEARLAND,TX,77581,,,CONTRACTOR,,,,,,,,,,,"QCB CONSTRUCTION",,,,,"QCB CONSTRUCTION","28243 EAGLE CV",MAGNOLIA,TX,77355-5363,"(281) 330-5725",,,,
TX,HARRIS,21008639,"Single Family Homes",7/9/2021,,441000,,"935 EUCLID",HOUSTON,TX,77009,,,CONTRACTOR,,,,,,,,,,,"ROBERT SANDERS HOMES",,,,,"ROBERT SANDERS HOMES","1122 HEIGHTS BLVD",HOUSTON,TX,77008-6916,"(713) 869-0120",http://www.robertsandershomes.com/,,,
TX,HARRIS,21002715,"Single Family Homes",7/6/2021,,353430,,"12009 ROYAL OAKS RUN",HOUSTON,TX,77082,,,CONTRACTOR,,,,,,,,,,,"EHT OF TEXAS LP",,,,,"EHT OF TEXAS LP","10235 LITTLE",HOUSTON,TX,77040,"(713) 557-3685",,,,
TX,HARRIS,21057583,"Single Family Homes",7/9/2021,,169990,,"24702 RUSSET BLUFF",HOUSTON,TX,77336,,,CONTRACTOR,,,,,,,,,,,"CENTURY COMMUNITIES",,,,,"CENTURY COMMUNITIES","4700 W SAM HOUSTON PKWY N STE 130",HOUSTON,TX,77041-8219,"(281) 741-8946",https://www.centurycommunities.com/,,,
TX,HARRIS,21049022,"Single Family Homes",7/7/2021,,175990,,"24611 MISTY MAPLE",HOUSTON,TX,77336,,,CONTRACTOR,,,,,,,,,,,"CENTURY COMMUNITIES",,,,,"CENTURY COMMUNITIES","4700 W SAM HOUSTON PKWY N STE 130",HOUSTON,TX,77041-8219,"(281) 741-8946",https://www.centurycommunities.com/,,,
TX,HARRIS,21057600,"Single Family Homes",7/8/2021,,175990,,"24727 RUSSET BLUFF",HOUSTON,TX,77336,,,CONTRACTOR,,,,,,,,,,,"CENTURY COMMUNITIES",,,,,"CENTURY COMMUNITIES","4700 W SAM HOUSTON PKWY N STE 130",HOUSTON,TX,77041-8219,"(281) 741-8946",https://www.centurycommunities.com/,,,
TX,HARRIS,21057590,"Single Family Homes",7/6/2021,,175990,,"24735 RUSSET BLUFF",HOUSTON,TX,77336,,,CONTRACTOR,,,,,,,,,,,"CENTURY COMMUNITIES",,,,,"CENTURY COMMUNITIES","4700 W SAM HOUSTON PKWY N STE 130",HOUSTON,TX,77041-8219,"(281) 741-8946",https://www.centurycommunities.com/,,,
TX,HARRIS,21057594,"Single Family Homes",7/8/2021,,169990,,"24750 RUSSET BLUFF",HOUSTON,TX,77336,,,CONTRACTOR,,,,,,,,,,,"CENTURY COMMUNITIES",,,,,"CENTURY COMMUNITIES","4700 W SAM HOUSTON PKWY N STE 130",HOUSTON,TX,77041-8219,"(281) 741-8946",https://www.centurycommunities.com/,,,
TX,HARRIS,21052211,"Single Family Homes",7/12/2021,,175990,,"954 REDINGER RIDGE",HOUSTON,TX,77336,,,CONTRACTOR,,,,,,,,,,,"CENTURY COMMUNITIES",,,,,"CENTURY COMMUNITIES","4700 W SAM HOUSTON PKWY N STE 130",HOUSTON,TX,77041-8219,"(281) 741-8946",https://www.centurycommunities.com/,,,
TX,HARRIS,21054829,"Single Family Homes",7/9/2021,,175990,,"970 REDINGER RIDGE",HOUSTON,TX,77336,,,CONTRACTOR,,,,,,,,,,,"CENTURY COMMUNITIES",,,,,"CENTURY COMMUNITIES","4700 W SAM HOUSTON PKWY N STE 130",HOUSTON,TX,77041-8219,"(281) 741-8946",https://www.centurycommunities.com/,,,
TX,HARRIS,21057599,"Single Family Homes",7/8/2021,,189990,,"24723 RUSSET BLUFF",HOUSTON,TX,77336,,,CONTRACTOR,,,,,,,,,,,"CENTURY COMMUNITIES",,,,,"CENTURY COMMUNITIES","4700 W SAM HOUSTON PKWY N STE 130",HOUSTON,TX,77041-8219,"(281) 741-8946",https://www.centurycommunities.com/,,,
TX,HARRIS,21057589,"Single Family Homes",7/6/2021,,208990,,"24731 RUSSET BLUFF",HOUSTON,TX,77336,,,CONTRACTOR,,,,,,,,,,,"CENTURY COMMUNITIES",,,,,"CENTURY COMMUNITIES","4700 W SAM HOUSTON PKWY N STE 130",HOUSTON,TX,77041-8219,"(281) 741-8946",https://www.centurycommunities.com/,,,
TX,HARRIS,21057591,"Single Family Homes",7/6/2021,,189990,,"24739 RUSSET BLUFF",HOUSTON,TX,77336,,,CONTRACTOR,,,,,,,,,,,"CENTURY COMMUNITIES",,,,,"CENTURY COMMUNITIES","4700 W SAM HOUSTON PKWY N STE 130",HOUSTON,TX,77041-8219,"(281) 741-8946",https://www.centurycommunities.com/,,,
TX,HARRIS,21057592,"Single Family Homes",7/9/2021,,186990,,"24743 RUSSET BLUFF",HOUSTON,TX,77336,,,CONTRACTOR,,,,,,,,,,,"CENTURY COMMUNITIES",,,,,"CENTURY COMMUNITIES","4700 W SAM HOUSTON PKWY N STE 130",HOUSTON,TX,77041-8219,"(281) 741-8946",https://www.centurycommunities.com/,,,
TX,HARRIS,21057593,"Single Family Homes",7/8/2021,,220990,,"24747 RUSSET BLUFF",HOUSTON,TX,77336,,,CONTRACTOR,,,,,,,,,,,"CENTURY COMMUNITIES",,,,,"CENTURY COMMUNITIES","4700 W SAM HOUSTON PKWY N STE 130",HOUSTON,TX,77041-8219,"(281) 741-8946",https://www.centurycommunities.com/,,,
TX,HARRIS,21057595,"Single Family Homes",7/8/2021,,189990,,"24751 RUSSET BLUFF",HOUSTON,TX,77336,,,CONTRACTOR,,,,,,,,,,,"CENTURY COMMUNITIES",,,,,"CENTURY COMMUNITIES","4700 W SAM HOUSTON PKWY N STE 130",HOUSTON,TX,77041-8219,"(281) 741-8946",https://www.centurycommunities.com/,,,
TX,HARRIS,21057596,"Single Family Homes",7/8/2021,,186990,,"24803 RUSSET BLUFF",HOUSTON,TX,77336,,,CONTRACTOR,,,,,,,,,,,"CENTURY COMMUNITIES",,,,,"CENTURY COMMUNITIES","4700 W SAM HOUSTON PKWY N STE 130",HOUSTON,TX,77041-8219,"(281) 741-8946",https://www.centurycommunities.com/,,,
TX,HARRIS,21054839,"Single Family Homes",7/7/2021,,189990,,"938 REDINGER RIDGE",HOUSTON,TX,77336,,,CONTRACTOR,,,,,,,,,,,"CENTURY COMMUNITIES",,,,,"CENTURY COMMUNITIES","4700 W SAM HOUSTON PKWY N STE 130",HOUSTON,TX,77041-8219,"(281) 741-8946",https://www.centurycommunities.com/,,,
TX,HARRIS,21052212,"Single Family Homes",7/7/2021,,220990,,"962 REDINGER RIDGE",HOUSTON,TX,77336,,,CONTRACTOR,,,,,,,,,,,"CENTURY COMMUNITIES",,,,,"CENTURY COMMUNITIES","4700 W SAM HOUSTON PKWY N STE 130",HOUSTON,TX,77041-8219,"(281) 741-8946",https://www.centurycommunities.com/,,,
TX,HARRIS,21051018,"Single Family Homes",7/8/2021,,98370,,"8606 OAK GROVE CHURCH",HOUSTON,TX,77028,,,CONTRACTOR,,,,,,,,,,,"CAMILLO PROPERTIES",,,,,"CAMILLO PROPERTIES","6707 GESSNER RD",HOUSTON,TX,77040-4017,"(832) 500-0284",http://www.camillorentalhomes.com/,"(281) 325-0245",,
TX,HARRIS,21052208,"Single Family Homes",7/12/2021,,81495,,"8611 OAK GROVE CHURCH",HOUSTON,TX,77028,,,CONTRACTOR,,,,,,,,,,,"CAMILLO PROPERTIES",,,,,"CAMILLO PROPERTIES","6707 GESSNER RD",HOUSTON,TX,77040-4017,"(832) 500-0284",http://www.camillorentalhomes.com/,"(281) 325-0245",,
TX,HARRIS,21051050,"Single Family Homes",7/12/2021,,81180,,"8706 LIVINGS",HOUSTON,TX,77028,,,CONTRACTOR,,,,,,,,,,,"CAMILLO PROPERTIES",,,,,"CAMILLO PROPERTIES","6707 GESSNER RD",HOUSTON,TX,77040-4017,"(832) 500-0284",http://www.camillorentalhomes.com/,"(281) 325-0245",,
TX,HARRIS,21051048,"Single Family Homes",7/8/2021,,81495,,"8710 LIVINGS",HOUSTON,TX,77028,,,CONTRACTOR,,,,,,,,,,,"CAMILLO PROPERTIES",,,,,"CAMILLO PROPERTIES","6707 GESSNER RD",HOUSTON,TX,77040-4017,"(832) 500-0284",http://www.camillorentalhomes.com/,"(281) 325-0245",,
TX,HARRIS,21051046,"Single Family Homes",7/12/2021,,77265,,"8714 LIVINGS",HOUSTON,TX,77028,,,CONTRACTOR,,,,,,,,,,,"CAMILLO PROPERTIES",,,,,"CAMILLO PROPERTIES","6707 GESSNER RD",HOUSTON,TX,77040-4017,"(832) 500-0284",http://www.camillorentalhomes.com/,"(281) 325-0245",,
TX,HARRIS,21051045,"Single Family Homes",7/8/2021,,89730,,"8718 LIVINGS",HOUSTON,TX,77028,,,CONTRACTOR,,,,,,,,,,,"CAMILLO PROPERTIES",,,,,"CAMILLO PROPERTIES","6707 GESSNER RD",HOUSTON,TX,77040-4017,"(832) 500-0284",http://www.camillorentalhomes.com/,"(281) 325-0245",,
TX,HARRIS,21051042,"Single Family Homes",7/8/2021,,103950,,"8802 LIVINGS",HOUSTON,TX,77028,,,CONTRACTOR,,,,,,,,,,,"CAMILLO PROPERTIES",,,,,"CAMILLO PROPERTIES","6707 GESSNER RD",HOUSTON,TX,77040-4017,"(832) 500-0284",http://www.camillorentalhomes.com/,"(281) 325-0245",,
TX,HARRIS,21051039,"Single Family Homes",7/8/2021,,81495,,"8806 LIVINGS",HOUSTON,TX,77028,,,CONTRACTOR,,,,,,,,,,,"CAMILLO PROPERTIES",,,,,"CAMILLO PROPERTIES","6707 GESSNER RD",HOUSTON,TX,77040-4017,"(832) 500-0284",http://www.camillorentalhomes.com/,"(281) 325-0245",,
TX,HARRIS,21051036,"Single Family Homes",7/8/2021,,77265,,"8814 LIVINGS",HOUSTON,TX,77028,,,CONTRACTOR,,,,,,,,,,,"CAMILLO PROPERTIES",,,,,"CAMILLO PROPERTIES","6707 GESSNER RD",HOUSTON,TX,77040-4017,"(832) 500-0284",http://www.camillorentalhomes.com/,"(281) 325-0245",,
TX,HARRIS,21021701,"Single Family Homes",7/6/2021,,361000,,"3002 STANTON",HOUSTON,TX,77025,,,CONTRACTOR,,,,,,,,,,,"DAVID WEEKLEY HOMES",,,,,"DAVID WEEKLEY HOMES","14444 NORTHWEST",HOUSTON,TX,77040,"(713) 570-5021",http://www.davidweekleyhomes.com/,,,
TX,HARRIS,21047766,"Single Family Homes",7/9/2021,,150000,,"11612 MOONSTRUCK",HOUSTON,TX,77048,,,CONTRACTOR,,,,,,,,,,,"KB HOME",,,,,"KB HOME","11314 RICHMOND AVE",HOUSTON,TX,77082-2616,"(281) 668-3800",,,,
TX,HARRIS,21047768,"Single Family Homes",7/9/2021,,150000,,"11614 MOONSTRUCK",HOUSTON,TX,77048,,,CONTRACTOR,,,,,,,,,,,"KB HOME",,,,,"KB HOME","11314 RICHMOND AVE",HOUSTON,TX,77082-2616,"(281) 668-3800",,,,
TX,HARRIS,21050501,"Single Family Homes",7/9/2021,,176000,,"6012 WAKANDA",HOUSTON,TX,77048,,,CONTRACTOR,,,,,,,,,,,"KB HOME",,,,,"KB HOME","11314 RICHMOND AVE",HOUSTON,TX,77082-2616,"(281) 668-3800",,,,
TX,HARRIS,21050506,"Single Family Homes",7/7/2021,,156000,,"6013 DIAMOND SKY",HOUSTON,TX,77048,,,CONTRACTOR,,,,,,,,,,,"KB HOME",,,,,"KB HOME","11314 RICHMOND AVE",HOUSTON,TX,77082-2616,"(281) 668-3800",,,,
TX,HARRIS,21054450,"Single Family Homes",7/9/2021,,168000,,"6018 WAKANDA",HOUSTON,TX,77048,,,CONTRACTOR,,,,,,,,,,,"KB HOME",,,,,"KB HOME","11314 RICHMOND AVE",HOUSTON,TX,77082-2616,"(281) 668-3800",,,,
TX,HARRIS,21054131,"Single Family Homes",7/7/2021,,232000,,"6021 DIAMOND SKY",HOUSTON,TX,77048,,,CONTRACTOR,,,,,,,,,,,"KB HOME",,,,,"KB HOME","11314 RICHMOND AVE",HOUSTON,TX,77082-2616,"(281) 668-3800",,,,
TX,HARRIS,21040676,"Single Family Homes",7/7/2021,,176000,,"6030 DIAMOND SKY",HOUSTON,TX,77048,,,CONTRACTOR,,,,,,,,,,,"KB HOME",,,,,"KB HOME","11314 RICHMOND AVE",HOUSTON,TX,77082-2616,"(281) 668-3800",,,,
TX,HARRIS,21005692,"Single Family Homes",7/9/2021,,176295,,"6531 GILLOCK MEADOW",HOUSTON,TX,77048,,,CONTRACTOR,,,,,,,,,,,"COLINA HOMES",,,,,"COLINA HOMES","1314 N DURHAM DR",HOUSTON,TX,77008-3734,"(281) 528-9090",http://colinahomes.com/,,,postmaster@colinahomes.com
TX,HARRIS,21002509,"Single Family Homes",7/9/2021,,188827,,"6543 MACROOM MEADOWS",HOUSTON,TX,77048,,,CONTRACTOR,,,,,,,,,,,"COLINA HOMES",,,,,"COLINA HOMES","1314 N DURHAM DR",HOUSTON,TX,77008-3734,"(281) 528-9090",http://colinahomes.com/,,,postmaster@colinahomes.com
TX,HARRIS,21002472,"Single Family Homes",7/9/2021,,195556,,"6545 MACROOM MEADOWS",HOUSTON,TX,77048,,,CONTRACTOR,,,,,,,,,,,"COLINA HOMES",,,,,"COLINA HOMES","1314 N DURHAM DR",HOUSTON,TX,77008-3734,"(281) 528-9090",http://colinahomes.com/,,,postmaster@colinahomes.com
TX,HARRIS,21056123,"Single Family Homes",7/9/2021,,195051,,"1907 LONESTAR BROOK",HOUSTON,TX,77080,,,CONTRACTOR,,,,,,,,,,,"COLINA HOMES",,,,,"COLINA HOMES","1314 N DURHAM DR",HOUSTON,TX,77008-3734,"(281) 528-9090",http://colinahomes.com/,,,postmaster@colinahomes.com
TX,HARRIS,21056391,"Single Family Homes",7/9/2021,,195000,,"1911 LONESTAR BROOK",HOUSTON,TX,77080,,,CONTRACTOR,,,,,,,,,,,"COLINA HOMES",,,,,"COLINA HOMES","1314 N DURHAM DR",HOUSTON,TX,77008-3734,"(281) 528-9090",http://colinahomes.com/,,,postmaster@colinahomes.com
TX,HARRIS,21056159,"Single Family Homes",7/9/2021,,154000,,"9004 LONESTAR RIVER",HOUSTON,TX,77080,,,CONTRACTOR,,,,,,,,,,,"COLINA HOMES",,,,,"COLINA HOMES","1314 N DURHAM DR",HOUSTON,TX,77008-3734,"(281) 528-9090",http://colinahomes.com/,,,postmaster@colinahomes.com
TX,HARRIS,21056164,"Single Family Homes",7/9/2021,,154000,,"9008 LONESTAR RIVER",HOUSTON,TX,77008,,,CONTRACTOR,,,,,,,,,,,"COLINA HOMES",,,,,"COLINA HOMES","1314 N DURHAM DR",HOUSTON,TX,77008-3734,"(281) 528-9090",http://colinahomes.com/,,,postmaster@colinahomes.com
TX,HARRIS,21056142,"Single Family Homes",7/9/2021,,153000,,"9011 LONESTAR CREEKBEND",HOUSTON,TX,77080,,,CONTRACTOR,,,,,,,,,,,"COLINA HOMES",,,,,"COLINA HOMES","1314 N DURHAM DR",HOUSTON,TX,77008-3734,"(281) 528-9090",http://colinahomes.com/,,,postmaster@colinahomes.com
TX,HARRIS,21056153,"Single Family Homes",7/9/2021,,154000,,"9012 LONESTAR RIVER",HOUSTON,TX,77080,,,CONTRACTOR,,,,,,,,,,,"COLINA HOMES",,,,,"COLINA HOMES","1314 N DURHAM DR",HOUSTON,TX,77008-3734,"(281) 528-9090",http://colinahomes.com/,,,postmaster@colinahomes.com
TX,HARRIS,20094949,"Single Family Homes",7/7/2021,,125000,,"13505 AXEL",HOUSTON,TX,77047,,,CONTRACTOR,,,,,,,,,,,"COLINA HOMES",,,,,"COLINA HOMES","1314 N DURHAM DR",HOUSTON,TX,77008-3734,"(281) 528-9090",http://colinahomes.com/,,,postmaster@colinahomes.com
TX,HARRIS,21049480,"Single Family Homes",7/9/2021,,262928,,"3306 CARDINAL CREST",HOUSTON,TX,77080,,,CONTRACTOR,,,,,,,,,,,"INTOWN HOMES",,,,,"INTOWN HOMES","1520 OLIVER ST",HOUSTON,TX,77007,"(713) 961-3877",http://www.intown-homes.com/,,,
TX,HARRIS,21029972,"Single Family Homes",7/9/2021,,267806,,"9817 FINCH FALLS",HOUSTON,TX,77080,,,CONTRACTOR,,,,,,,,,,,"INTOWN HOMES",,,,,"INTOWN HOMES","1520 OLIVER ST",HOUSTON,TX,77007,"(713) 961-3877",http://www.intown-homes.com/,,,
TX,HARRIS,21037312,"Single Family Homes",7/9/2021,,282273,,"3310 CARDINAL CREST",HOUSTON,TX,77080,,,CONTRACTOR,,,,,,,,,,,"INTOWN HOMES",,,,,"INTOWN HOMES","1520 OLIVER ST",HOUSTON,TX,77007,"(713) 961-3877",http://www.intown-homes.com/,,,
TX,HARRIS,21039566,"Single Family Homes",7/6/2021,,450000,,"6425 SCHILLER",HOUSTON,TX,77055,,,"JANIE GARRETT","6425 SCHILLER",HOUSTON,TX,77055,,Owner,,,,,"MILLENI, LLC",,,,,"MILLENI, LLC","3440 RILEY FUZZEL RD",HOUSTON,TX,77386,"(832) 517-1907",,,,
TX,HARRIS,21022372,"Single Family Homes",7/12/2021,,300000,,"1116 PEDEN",HOUSTON,TX,77006,,,CONTRACTOR,,,,,,,,,,,"OLIVIO GROUP",,,,,"OLIVIO GROUP","500 LOVETT BLVD",HOUSTON,TX,77006-4021,"(281) 830-3886",,,,
TX,HARRIS,21022371,"Single Family Homes",7/12/2021,,300000,,"1118 PEDEN",HOUSTON,TX,77006,,,CONTRACTOR,,,,,,,,,,,"OLIVIO GROUP",,,,,"OLIVIO GROUP","500 LOVETT BLVD",HOUSTON,TX,77006-4021,"(281) 830-3886",,,,
TX,HARRIS,21022374,"Single Family Homes",7/12/2021,,300000,,"1619 VAN BUREN",HOUSTON,TX,77006,,,CONTRACTOR,,,,,,,,,,,"OLIVIO GROUP",,,,,"OLIVIO GROUP","500 LOVETT BLVD",HOUSTON,TX,77006-4021,"(281) 830-3886",,,,
TX,HARRIS,21022373,"Single Family Homes",7/12/2021,,300000,,"1621 VAN BUREN",HOUSTON,TX,77006,,,CONTRACTOR,,,,,,,,,,,"OLIVIO GROUP",,,,,"OLIVIO GROUP","500 LOVETT BLVD",HOUSTON,TX,77006-4021,"(281) 830-3886",,,,
TX,HARRIS,21038481,"Single Family Homes",7/11/2021,,152070,,"308 SOWBREAD",HOUSTON,TX,77018,,,CONTRACTOR,,,,,,,,,,,"GRAYWOLF PROPERTY MANAGEMENT",,,,,"GRAYWOLF PROPERTY MANAGEMENT","11929 W AIRPORT BLVD",STAFFORD,TX,77477-2451,"(832) 576-8615",,,,
TX,HARRIS,21038479,"Single Family Homes",7/11/2021,,152070,,"310 SOWBREAD",HOUSTON,TX,77018,,,CONTRACTOR,,,,,,,,,,,"GRAYWOLF PROPERTY MANAGEMENT",,,,,"GRAYWOLF PROPERTY MANAGEMENT","11929 W AIRPORT BLVD",STAFFORD,TX,77477-2451,"(832) 576-8615",,,,
TX,HARRIS,21038480,"Single Family Homes",7/11/2021,,152070,,"312 SOWBREAD",HOUSTON,TX,77018,,,CONTRACTOR,,,,,,,,,,,"GRAYWOLF PROPERTY MANAGEMENT",,,,,"GRAYWOLF PROPERTY MANAGEMENT","11929 W AIRPORT BLVD",STAFFORD,TX,77477-2451,"(832) 576-8615",,,,
TX,HARRIS,21018141,"Single Family Homes",7/6/2021,,639404,,"2052 CORTLANDT",HOUSTON,TX,77008,,,"OGIER MICHAEL","2052 CORTLANDT",HOUSTON,TX,77008,,Owner,,,,,"ICON HOME",,,,,"ICON HOME","448 W 19TH ST",HOUSTON,TX,77008-3914,"(713) 300-9294",,,,
TX,HARRIS,21059899,"Single Family Homes",7/12/2021,,181257,,"14210 SINGING OAKS",HOUSTON,TX,77045,,,CONTRACTOR,,,,,,,,,,,"BRIGHTON HOMES & PARKWOOD",,,,,"BRIGHTON HOMES & PARKWOOD","13111 NORTHWEST FWY",HOUSTON,TX,77040-6318,"(713) 460-6279",,,,
TX,HARRIS,21056269,"Single Family Homes",7/8/2021,,209990,,"2913 CHASE CROSS",HOUSTON,TX,77047,,,CONTRACTOR,,,,,,,,,,,"DR HORTON",,,,,"DR HORTON","14100 SOUTHWEST",HOUSTON,TX,77478,"(281) 201-5559",,,,
TX,HARRIS,21054924,"Single Family Homes",7/8/2021,,250970,,"6943 FORBES RUN",HOUSTON,TX,77075,,,CONTRACTOR,,,,,,,,,,,"MARIA VARGAS",,,,,"MARIA VARGAS","1311 BROADFIELD BLVD",HOUSTON,TX,77084-5186,"(281) 529-9127",,,,
TX,HARRIS,21048403,"Single Family Homes",7/12/2021,,398430,,"5126 EMMA FOREST",HOUSTON,TX,77018,,,CONTRACTOR,,,,,,,,,,,"MARIA VARGAS",,,,,"MARIA VARGAS","1311 BROADFIELD BLVD",HOUSTON,TX,77084-5186,"(281) 529-9127",,,,
TX,HARRIS,21035947,"Single Family Homes",7/12/2021,,430150,,"3144 FOUNDERS ROCK",HOUSTON,TX,77063,,,CONTRACTOR,,,,,,,,,,,"MARIA VARGAS",,,,,"MARIA VARGAS","1311 BROADFIELD BLVD",HOUSTON,TX,77084-5186,"(281) 529-9127",,,,
TX,HARRIS,21054919,"Single Family Homes",7/6/2021,,229930,,"6935 FORBES RUN",HOUSTON,TX,77075,,,CONTRACTOR,,,,,,,,,,,"MARIA VARGAS",,,,,"MARIA VARGAS","1311 BROADFIELD BLVD",HOUSTON,TX,77084-5186,"(281) 529-9127",,,,
TX,HARRIS,21056367,"Single Family Homes",7/12/2021,,243580,,"6914 FORBES RUN",HOUSTON,TX,77075,,,CONTRACTOR,,,,,,,,,,,"MARIA VARGAS",,,,,"MARIA VARGAS","1311 BROADFIELD BLVD",HOUSTON,TX,77084-5186,"(281) 529-9127",,,,
TX,HARRIS,21056369,"Single Family Homes",7/12/2021,,256620,,"6918 FORBES RUN",HOUSTON,TX,77075,,,CONTRACTOR,,,,,,,,,,,"MARIA VARGAS",,,,,"MARIA VARGAS","1311 BROADFIELD BLVD",HOUSTON,TX,77084-5186,"(281) 529-9127",,,,
TX,HARRIS,21056374,"Single Family Homes",7/12/2021,,261120,,"6927 FORBES RUN",HOUSTON,TX,77075,,,CONTRACTOR,,,,,,,,,,,"MARIA VARGAS",,,,,"MARIA VARGAS","1311 BROADFIELD BLVD",HOUSTON,TX,77084-5186,"(281) 529-9127",,,,
TX,HARRIS,21056373,"Single Family Homes",7/12/2021,,246450,,"6926 FORBES RUN",HOUSTON,TX,77075,,,CONTRACTOR,,,,,,,,,,,"MARIA VARGAS",,,,,"MARIA VARGAS","1311 BROADFIELD BLVD",HOUSTON,TX,77084-5186,"(281) 529-9127",,,,
TX,HARRIS,21056170,"Single Family Homes",7/9/2021,,217250,,"6903 FORBES RUN",HOUSTON,TX,77075,,,CONTRACTOR,,,,,,,,,,,"MARIA VARGAS",,,,,"MARIA VARGAS","1311 BROADFIELD BLVD",HOUSTON,TX,77084-5186,"(281) 529-9127",,,,
TX,HARRIS,21056169,"Single Family Homes",7/9/2021,,259430,,"6835 FORBES RUN",HOUSTON,TX,77075,,,CONTRACTOR,,,,,,,,,,,"MARIA VARGAS",,,,,"MARIA VARGAS","1311 BROADFIELD BLVD",HOUSTON,TX,77084-5186,"(281) 529-9127",,,,
TX,HARRIS,21056166,"Single Family Homes",7/9/2021,,261120,,"6827 FORBES RUN",HOUSTON,TX,77075,,,CONTRACTOR,,,,,,,,,,,"MARIA VARGAS",,,,,"MARIA VARGAS","1311 BROADFIELD BLVD",HOUSTON,TX,77084-5186,"(281) 529-9127",,,,
TX,HARRIS,21055299,"Single Family Homes",7/8/2021,,231560,,"10714 FORBES BROOK",HOUSTON,TX,77075,,,CONTRACTOR,,,,,,,,,,,"MARIA VARGAS",,,,,"MARIA VARGAS","1311 BROADFIELD BLVD",HOUSTON,TX,77084-5186,"(281) 529-9127",,,,
TX,HARRIS,21004600,"Single Family Homes",7/7/2021,,150000,,"1523 E 32ND 1/2",HOUSTON,TX,77022,,,CONTRACTOR,,,,,,,,,,,CYCON,,,,,CYCON,"19507 WEID RD",SPRING,TX,77388,"(281) 968-8847",http://cyconinc.com/,,,info@cyconinc.com
TX,HARRIS,21047689,"Single Family Homes",7/9/2021,,130000,,"7421 SAUNDERS",HOUSTON,TX,77016,,,"JIMIA EDWARDS","7421 SAUNDERS",HOUSTON,TX,77016,,Owner,,,,,SLSCO,,,,,SLSCO,"6702 6702 BROADWAY ST ST",HOUSTON,TX,77554,"(409) 515-9237",,,,
TX,HARRIS,21020538,"Single Family Homes",7/7/2021,,491100,,"512 REINERMAN",HOUSTON,TX,77007,,,CONTRACTOR,,,,,,,,,,,"DMAC CAPITAL FUNDING",,,,,"DMAC CAPITAL FUNDING","2 RIVERWAY #1130",HOUSTON,TX,77056,"(713) 203-3648",https://dmaccapital.com,,,info@dmaccapital.com
TX,HARRIS,20074569,"Single Family Homes",7/8/2021,,122000,,"4919 WAYNE",HOUSTON,TX,77026,,,"ANDY RICHARDS","4919 WAYNE","HOUSTON                                           ",TX,77026,,Owner,,,,,"WILLIAMS HEATHER",,,,,"WILLIAMS HEATHER","14215 MARY",HOUSTON,TX,77006,"(832) 929-7736",,,,
TX,HARRIS,21055380,"Single Family Homes",7/8/2021,,140000,,"5705 LANGLEY",HOUSTON,TX,77016,,,CONTRACTOR,,,,,,,,,,,"ASHLEY GRAYBILL",,,,,"ASHLEY GRAYBILL","14643 DALLAS PKWY STE",HOUSTON,TX,75254,"(469) 225-7633",,,,
TX,HARRIS,21055103,"Single Family Homes",7/9/2021,,140000,,"5707 LANGLEY",HOUSTON,TX,77016,,,CONTRACTOR,,,,,,,,,,,"ASHLEY GRAYBILL",,,,,"ASHLEY GRAYBILL","14643 DALLAS PKWY STE",HOUSTON,TX,75254,"(469) 225-7633",,,,
TX,HARRIS,21054183,"Single Family Homes",7/9/2021,,75191,,"5263 JASON",HOUSTON,TX,77096,,,"TOM MACH","5263 JASON","HOUSTON                                           ",TX,77096,,Owner,,,,,"ADRIAN BUCK",,,,,"ADRIAN BUCK","4801 FREIDRICH LANE",HOUSTON,TX,78744,"(512) 220-8203",,,,
TX,HARRIS,21022548,"Single Family Homes",7/12/2021,,387159,,"706 RIDGE",HOUSTON,TX,77009,,,CONTRACTOR,,,,,,,,,,,"ENTERRA HOMES",,,,,"ENTERRA HOMES","7155 OLD KATY RD  SUITE N-210",HOUSTON,TX,77024,"(832) 460-7950",https://www.enterrahomes.com/,,,
TX,HARRIS,20113286,"Single Family Homes",7/9/2021,,191079,,"2713 DREW",HOUSTON,TX,77004,,,CONTRACTOR,,,,,,,,,,,"ONYX LAND PARTNERS",,,,,"ONYX LAND PARTNERS","6807 WYNNWOOD",HOUSTON,TX,77008,"(281) 818-5609",,,,
TX,HARRIS,20113285,"Single Family Homes",7/9/2021,,191079,,"2715 DREW",HOUSTON,TX,77004,,,CONTRACTOR,,,,,,,,,,,"ONYX LAND PARTNERS",,,,,"ONYX LAND PARTNERS","6807 WYNNWOOD",HOUSTON,TX,77008,"(281) 818-5609",,,,
TX,HARRIS,20113287,"Single Family Homes",7/9/2021,,191079,,"2717 DREW",HOUSTON,TX,77004,,,CONTRACTOR,,,,,,,,,,,"ONYX LAND PARTNERS",,,,,"ONYX LAND PARTNERS","6807 WYNNWOOD",HOUSTON,TX,77008,"(281) 818-5609",,,,
TX,HARRIS,21036551,"Single Family Homes",7/9/2021,,191646,,"3304 LIVE OAK",HOUSTON,TX,77004,,,CONTRACTOR,,,,,,,,,,,"ONYX LAND PARTNERS",,,,,"ONYX LAND PARTNERS","6807 WYNNWOOD",HOUSTON,TX,77008,"(281) 818-5609",,,,
TX,HARRIS,21036552,"Single Family Homes",7/9/2021,,191646,,"3306 LIVE OAK",HOUSTON,TX,77004,,,CONTRACTOR,,,,,,,,,,,"ONYX LAND PARTNERS",,,,,"ONYX LAND PARTNERS","6807 WYNNWOOD",HOUSTON,TX,77008,"(281) 818-5609",,,,
TX,HARRIS,20094800,"Single Family Homes",7/12/2021,,124000,,"6831 TUSKEGEE",HOUSTON,TX,77091,,,CONTRACTOR,,,,,,,,,,,"SAFA KHARSA",,,,,"SAFA KHARSA","3131 BRIARPARK DRIVE, STE 125",HOUSTON,TX,77042,"(832) 622-9955",http://safakharsa.unitedrealestatehouston.com/,,,safakharsa@hotmail.com
TX,BRAZORIA,RES21-01399,"Single Family Homes",6/2/2021,,,3511,"6806 JARRED CT",PEARLAND,TX,77584,,,CONTRACTOR,,,,,,,,,,,"ERNIE SMITH & SONS ROOFING",,,,,"ERNIE SMITH & SONS ROOFING","19422B HWY 6",MANVEL,TX,77578,"(281) 245-0700",,,,
TX,BRAZORIA,RES21-01408,"Single Family Homes",6/2/2021,,,2715,"3913 IVYWOOD DR",PEARLAND,TX,77584,,,CONTRACTOR,,,,,,,,,,,"ERNIE SMITH & SONS ROOFING",,,,,"ERNIE SMITH & SONS ROOFING","19422B HWY 6",MANVEL,TX,77578,"(281) 245-0700",,,,
TX,BRAZORIA,RES21-01410,"Single Family Homes",6/2/2021,,,4333,"12504 REGAL CREST LN",PEARLAND,TX,77584,,,CONTRACTOR,,,,,,,,,,,"ERNIE SMITH & SONS ROOFING",,,,,"ERNIE SMITH & SONS ROOFING","19422B HWY 6",MANVEL,TX,77578,"(281) 245-0700",,,,
TX,HARRIS,21047418,"Single Family Homes",7/6/2021,,202000,,"1809 COLONEL FORBINS",HOUSTON,TX,77043,,,CONTRACTOR,,,,,,,,,,,"COERVER CUSTOM HOMES CONSTRUCTION",,,,,"COERVER CUSTOM HOMES CONSTRUCTION","7115 SCHILLER ST",HOUSTON,TX,77055,"(713) 702-0952",,,,
TX,HARRIS,21030034,"Single Family Homes",7/6/2021,,625778,,"3822 CHARLESTON",HOUSTON,TX,77021,,,"HARRY SMITH","3822 CHARLESTON","HOUSTON                                           ",TX,77021,,Owner,,,,,OWNER,,,,,OWNER,,,,,,,,,
TX,HARRIS,21040749,"Single Family Homes",7/9/2021,,473960,,"1102 E 7TH",HOUSTON,TX,77009,,,"STEWART PATRICK","1102 E 7TH",HOUSTON,TX,77009,,Owner,,,,,OWNER,,,,,OWNER,,,,,,,,,
TX,HARRIS,21009788,"Single Family Homes",7/8/2021,,471000,,"4351 FRONTIER",HOUSTON,TX,77041,,,"MOMENT ARCHITECTS","95 WEST JAGGED RIDGE CIRCLE","SPRING                                      ",TX,77389,"(713) 577-9531",Architect,,,,,OWNER,,,,,OWNER,,,,,,,,,
TX,HARRIS,21028340,"Single Family Homes",7/6/2021,,75000,,"6026 MARTHA LN",HOUSTON,TX,77396,,,"DAVID VALADEZ","6026 MARTHA LN","HOUSTON                                           ",TX,77396,,Owner,,,,,OWNER,,,,,OWNER,,,,,,,,,
TX,HARRIS,21006397,"Single Family Homes",7/8/2021,,233000,,"4505 TALINA",HOUSTON,TX,77041,,,"JUAN VILLALPANDO","4505 TALINA","HOUSTON                                           ",TX,77041,,Owner,,,,,"PROJECT SERVICES GROUP",,,,,"PROJECT SERVICES GROUP","2040 CENTURY CENTER BLVD STE 10",IRVING,TX,75062-4922,"(972) 812-7370",http://www.psg-dallas.com/,,"DANIEL BOSWELL",support@psg-dallas.com
TX,HARRIS,20031614,"Single Family Homes",7/7/2021,,140000,,"5402 KELFORD",HOUSTON,TX,77028,,,"GWENDOLYN SMITH-BELL","5402 KELFORD",HOUSTON,TX,77028,,Owner,,,,,"DSW HOMES",,,,,"DSW HOMES","1021 61ST BLDG B",GALVESTON,TX,77551,"(409) 744-3400",http://www.dswhomes.com/,,,
TX,HARRIS,20116839,"Single Family Homes",7/8/2021,,107045,,"1811 TEANAWAY",HOUSTON,TX,77029,,,"CARLA WILLIAMS","1811 TEANAWAY","HOUSTON                                           ",TX,77029,,Owner,,,,,"LEMOINE DISASTER RECOVERY",,,,,"LEMOINE DISASTER RECOVERY","3610 N JOSEY LN, STE 223",CARROLLTON,TX,75007-3100,"(833) 536-6463",https://www.lemoinedisasterrecovery.com/,,,contact@lemoinedr.com
TX,BRAZOS,21-1013,"Warehouse & Manufacturing",6/21/2021,,850000,6660,"10256 SH 30 B1",BRYAN,TX,77845,,,CONTRACTOR,,,,,,,,,,,"NORMAN CONSTRUCTION",,,,,"NORMAN CONSTRUCTION","1617 HEATHERBROOK CT",SOUTHLAKE,TX,76092-4053,"(918) 645-5391",,,,
TX,BRAZOS,21-1014,"Warehouse & Manufacturing",6/21/2021,,750000,6660,"10256 SH 30 B2",BRYAN,TX,77845,,,CONTRACTOR,,,,,,,,,,,"NORMAN CONSTRUCTION",,,,,"NORMAN CONSTRUCTION","1617 HEATHERBROOK CT",SOUTHLAKE,TX,76092-4053,"(918) 645-5391",,,,
TX,HARRIS,2100550,"Warehouse & Manufacturing",6/21/2021,Renovation,48750,1512,"2700 NASA RD # 1",SEABROOK,TX,77586,,,CONTRACTOR,,,,,,,,,,,"BRAND CONSTRUCTION SERVICES",,,,,"BRAND CONSTRUCTION SERVICES","8876 GULF FWY STE 420",HOUSTON,TX,77017-6544,"(281) 724-9652",http://www.brand-llc.com/,,,
TX,HARRIS,21006635,"Warehouse & Manufacturing",7/7/2021,,575000,,"13026 ELLEN",HOUSTON,TX,77015,,,CONTRACTOR,,,,,,,,,,,"LEAD CONSTRUCTION",,,,,"LEAD CONSTRUCTION","11729 SPRING CYPRESS RD STE E16",TOMBALL,TX,77377-6381,"(281) 387-4032",http://leadconstructionllc.com/,,"Jacob Lee",jlee@leadconstructionllc.com
TX,HARRIS,21025851,"Warehouse & Manufacturing",7/7/2021,,350000,,"13026 ELLEN LN",HOUSTON,TX,77015,,,CONTRACTOR,,,,,,,,,,,"LEAD CONSTRUCTION",,,,,"LEAD CONSTRUCTION","11729 SPRING CYPRESS RD STE E16",TOMBALL,TX,77377-6381,"(281) 387-4032",http://leadconstructionllc.com/,,"Jacob Lee",jlee@leadconstructionllc.com
TX,HARRIS,21016978,"Warehouse & Manufacturing",7/7/2021,,190000,,"7265 W 43RD ST",HOUSTON,TX,77040,,,CONTRACTOR,,,,,,,,,,,"CORVUS CONSTRUCTION",,,,,"CORVUS CONSTRUCTION","4309 WAY OUT WEST DR",HOUSTON,TX,77092-1457,"(713) 699-3100",,,,
TX,HARRIS,21041747,"Warehouse & Manufacturing",7/8/2021,,3000000,,"505 ALDINE BENDER",HOUSTON,TX,77060,,,CONTRACTOR,,,,,,,,,,,"IDV DEVELOPMENT SERVICES",,,,,"IDV DEVELOPMENT SERVICES","10375 RICHMOND AVE",HOUSTON,TX,77042,"(713) 956-0098",,,,
TX,HARRIS,19056342,"Warehouse & Manufacturing",7/8/2021,Addition,325000,,"16430 ALDINE WESTFIELD",HOUSTON,TX,77032,,,CONTRACTOR,,,,,,,,,,,"ROBERT J RIMES & ASSOCIATES",,,,,"ROBERT J RIMES & ASSOCIATES","4002 BROOKWOODS DR",HOUSTON,TX,77092,"(713) 956-2600",,,,
