state,county,permno,ptype,pdate,pdescription,jvalue,jsqfeet,jaddr,jcity,jstate,jzip,jsubdiv,jlotno,aname,aaddr,acity,astate,azip,aphone,atype,aurl,afax,aprimarycontact,aemail,bldcode,units,bldgs,ctype,legal,contractor,caddress,ccity,cstate,czip,cphone,curl,cfax,cprimarycontact,cemail
TX,BRAZOS,20-4455,"Churches & Other Religious",1/14/2021,Addition,35000,325,"1812 BEASON ST",BRYAN,TX,77801,,,CONTRACTOR,,,,,,,,,,,"ADVANTAGE CONSTRUCTION",,,,,"ADVANTAGE CONSTRUCTION","126 N NUECES ST","PORT LAVACA",TX,77979-3202,"(361) 552-3122",,,,
TX,HARRIS,20107048,"Duplex, Triplex, & Fourplex",2/8/2021,,174000,,"1507 CANTER BAYOU",HOUSTON,TX,77043,,,CONTRACTOR,,,,,,,,,,,"LEGEND HOMES",,,,,"LEGEND HOMES","10410 WINDAMERE LAKES BLVD",HOUSTON,TX,77065-4996,"(281) 671-9060",http://legendhomecorp.com/,"(281) 671-9055",,
TX,HARRIS,20107029,"Duplex, Triplex, & Fourplex",2/6/2021,,49900,,"15048 KIMBERLEY",HOUSTON,TX,77079,,,"NEWBERRY ARCHITECTURE","6990 PORTWEST DR STE 190",HOUSTON,TX,77024,"(713) 862-7992",Architect,https://newberryarchitecture.com/,,"KIM PARKER",,OWNER,,,,,OWNER,,,,,,,,,
TX,HARRIS,21001561,"Duplex, Triplex, & Fourplex",2/3/2021,,36000,,"1531 ARLINGTON",HOUSTON,TX,77008,,,"KEITH MENARD","1531 ARLINGTON",HOUSTON,TX,77008,,Owner,,,,,"BICYCLE BUNGALOWS LLC",,,,,"BICYCLE BUNGALOWS LLC","1717 YALE ST",HOUSTON,TX,77008-4031,"(713) 542-4352",,,,
TX,BELL,FY-21-14-DUPX,"Duplex, Triplex, & Fourplex",1/15/2021,,180000,3356,"815 EASTLAND DR A",TEMPLE,TX,76504,"COUNTY VIEW",,CONTRACTOR,,,,,,,,,,,"KILLEEN SUMMIT BUILDERS",,,,,"KILLEEN SUMMIT BUILDERS","415 E AVENUE F",KILLEEN,TX,76541-6217,"(254) 634-6914",,,,
TX,BELL,FY-21-15,"Duplex, Triplex, & Fourplex",1/15/2021,,178000,3066,"819 EASTLAND DR A",TEMPLE,TX,77396,,,CONTRACTOR,,,,,,,,,,,"KILLEEN SUMMIT BUILDERS",,,,,"KILLEEN SUMMIT BUILDERS","415 E AVENUE F",KILLEEN,TX,76541-6217,"(254) 634-6914",,,,
TX,BELL,FY-21-31,"Duplex, Triplex, & Fourplex",1/15/2021,,180000,3356,"811 EASTLAND DR A",TEMPLE,TX,76504,,,CONTRACTOR,,,,,,,,,,,"KILLEEN SUMMIT BUILDERS",,,,,"KILLEEN SUMMIT BUILDERS","415 E AVENUE F",KILLEEN,TX,76541-6217,"(254) 634-6914",,,,
TX,BELL,FY-21-32,"Duplex, Triplex, & Fourplex",1/15/2021,,180000,3356,"3109 OCHILTREE DR A",TEMPLE,TX,76504,,,CONTRACTOR,,,,,,,,,,,"KILLEEN SUMMIT BUILDERS",,,,,"KILLEEN SUMMIT BUILDERS","415 E AVENUE F",KILLEEN,TX,76541-6217,"(254) 634-6914",,,,
TX,BELL,FY-21-33,"Duplex, Triplex, & Fourplex",1/15/2021,,180000,3356,"3113 OCHILTREE DR A",TEMPLE,TX,76504,,,CONTRACTOR,,,,,,,,,,,"KILLEEN SUMMIT BUILDERS",,,,,"KILLEEN SUMMIT BUILDERS","415 E AVENUE F",KILLEEN,TX,76541-6217,"(254) 634-6914",,,,
TX,BELL,FY-21-35,"Duplex, Triplex, & Fourplex",1/15/2021,,150000,1784,"1310 S 10TH ST A",TEMPLE,TX,76504,,,CONTRACTOR,,,,,,,,,,,"AMERITEX HOMES",,,,,"AMERITEX HOMES","4835 LYNDON B JOHNSON FWY",DALLAS,TX,75244-6005,"(214) 765-0596",,,,
TX,BELL,FY-21-37,"Duplex, Triplex, & Fourplex",1/15/2021,,150000,,"811 S 20TH ST",TEMPLE,TX,76504,CRESTVIEW,,CONTRACTOR,,,,,,,,,,,"AMERITEX HOMES",,,,,"AMERITEX HOMES","4835 LYNDON B JOHNSON FWY",DALLAS,TX,75244-6005,"(214) 765-0596",,,,
TX,MONTGOMERY,BC-20-005122,"Educational Institution",1/6/2021,,75000,1650,"336 N MAIN ST STE 101",CONROE,TX,77301,,,"CONROE 336 LP","336 N MAIN ST STE 101",CONROE,TX,77301,,Owner,,,,,TRIMCOS,,,,,TRIMCOS,"2405 SMITH ST",HOUSTON,TX,77006-2315,"(713) 526-3500",http://trimcos.com,"(713) 526-3502",,trimcos@sbcglobal.net
TX,MONTGOMERY,BC-20-013407,"Educational Institution",1/12/2021,,1669422,11721,"8328 HIGHWAY 242",CONROE,TX,77303,,,"HOUSTON METHODIST HOSPITAL SYSTEM","8328 HIGHWAY 242",CONROE,TX,77303,,Owner,,,,,"VAUGHN CONSTRUCTION",,,,,"VAUGHN CONSTRUCTION","10355 WESTPARK DR",HOUSTON,TX,77042,"(713) 243-8300",,,,
TX,HARRIS,20117661,"Educational Institution",2/3/2021,Addition,5023000,,"13735 1/2 BEAMER",HOUSTON,TX,77089,,,CONTRACTOR,,,,,,,,,,,"MILLENNIUM PROJECT SOLUTIONS",,,,,"MILLENNIUM PROJECT SOLUTIONS","14026 FM 14026",HOUSTON,TX,77532,"(281) 328-2200",https://mps-team.com/,,,
TX,HARRIS,20106897,"Hospital & Other Medical",2/4/2021,Renovations,212880,,"12630 BAKER BEND",HOUSTON,TX,77034,,,CONTRACTOR,,,,,,,,,,,"MARIA VARGAS",,,,,"MARIA VARGAS","1311 BROADFIELD BLVD",HOUSTON,TX,77084-5186,"(281) 529-9127",,,,
TX,GALVESTON,2020-4446,"Multi Family Apartments & Condos",1/7/2021,,130000,,"505 S FRIENDSWOOD DR 319",FRIENDSWOOD,TX,77546,,,CONTRACTOR,,,,,,,,,,,"TANNOS CONSTRUCTION & DEVELOPMENT",,,,,"TANNOS CONSTRUCTION & DEVELOPMENT","112 LAFAYETTE LN","LEAGUE CITY",TX,77573-1934,"(281) 724-9065",,,"LOUIS TANNOS",
TX,GALVESTON,2021-0215,"Multi Family Apartments & Condos",1/27/2021,,595000,,"1758 LAKE CREST LN",FRIENDSWOOD,TX,77546,,,CONTRACTOR,,,,,,,,,,,"TAYLOR MORRISON OF TEXAS",,,,,"TAYLOR MORRISON OF TEXAS","11200 LAKELINE BLVD STE 150A",AUSTIN,TX,78717-5964,"(512) 328-8866",,"(512) 328-7988",,
TX,MONTGOMERY,BC-20-009058,"Multi Family Apartments & Condos",1/25/2021,,3224881,36390,"171 TOWN PARK DR BLDG I C",CONROE,TX,77303,,,"TREY WAGGENER FIDELIS REALTY PARTNERS","171 TOWN PARK DR BLDG I C",CONROE,TX,77303,,Owner,,,,,OWNER,,,,,OWNER,,,,,,,,,
TX,MONTGOMERY,BC-20-009080,"Multi Family Apartments & Condos",1/25/2021,,49809,1080,"171 TOWN PARK DR BLDG CARPORT 1 ",CONROE,TX,77303,,,"TREY WAGGENER FIDELIS REALTY PARTNERS","171 TOWN PARK DR BLDG CARPORT 1 ",CONROE,TX,77303,,Owner,,,,,"KELLY GROSSMAN ARCHITECTS",,,,,"KELLY GROSSMAN ARCHITECTS","260 ADDIE ROY RD STE 210",AUSTIN,TX,78746-4109,"(512) 327-3397",http://www.kellygrossmanarchitects.com/,"(512) 327-0292","JOHN KELLY",jkelly@kellygrossmanarchitects.com
TX,MONTGOMERY,BC-20-009080,"Multi Family Apartments & Condos",1/25/2021,,49809,1080,"171 TOWN PARK DR BLDG CARPORT 2",CONROE,TX,77303,,,"TREY WAGGENER FIDELIS REALTY PARTNERS","171 TOWN PARK DR BLDG CARPORT 2",CONROE,TX,77303,,Owner,,,,,"KELLY GROSSMAN ARCHITECTS",,,,,"KELLY GROSSMAN ARCHITECTS","260 ADDIE ROY RD STE 210",AUSTIN,TX,78746-4109,"(512) 327-3397",http://www.kellygrossmanarchitects.com/,"(512) 327-0292","JOHN KELLY",jkelly@kellygrossmanarchitects.com
TX,MONTGOMERY,BC-20-009080,"Multi Family Apartments & Condos",1/25/2021,,49809,1080,"171 TOWN PARK DR BLDG CARPORT 3",CONROE,TX,77303,,,"TREY WAGGENER FIDELIS REALTY PARTNERS","171 TOWN PARK DR BLDG CARPORT 3",CONROE,TX,77303,,Owner,,,,,"KELLY GROSSMAN ARCHITECTS",,,,,"KELLY GROSSMAN ARCHITECTS","260 ADDIE ROY RD STE 210",AUSTIN,TX,78746-4109,"(512) 327-3397",http://www.kellygrossmanarchitects.com/,"(512) 327-0292","JOHN KELLY",jkelly@kellygrossmanarchitects.com
TX,MONTGOMERY,BC-20-009080,"Multi Family Apartments & Condos",1/25/2021,,49809,1080,"171 TOWN PARK DR BLDG CARPORT 4",CONROE,TX,77303,,,"TREY WAGGENER FIDELIS REALTY PARTNERS","171 TOWN PARK DR BLDG CARPORT 4",CONROE,TX,77303,,Owner,,,,,"KELLY GROSSMAN ARCHITECTS",,,,,"KELLY GROSSMAN ARCHITECTS","260 ADDIE ROY RD STE 210",AUSTIN,TX,78746-4109,"(512) 327-3397",http://www.kellygrossmanarchitects.com/,"(512) 327-0292","JOHN KELLY",jkelly@kellygrossmanarchitects.com
TX,MONTGOMERY,BC-20-009080,"Multi Family Apartments & Condos",1/25/2021,,49809,1080,"171 TOWN PARK DR BLDG CARPORT 5",CONROE,TX,77303,,,"TREY WAGGENER FIDELIS REALTY PARTNERS","171 TOWN PARK DR BLDG CARPORT 5",CONROE,TX,77303,,Owner,,,,,"KELLY GROSSMAN ARCHITECTS",,,,,"KELLY GROSSMAN ARCHITECTS","260 ADDIE ROY RD STE 210",AUSTIN,TX,78746-4109,"(512) 327-3397",http://www.kellygrossmanarchitects.com/,"(512) 327-0292","JOHN KELLY",jkelly@kellygrossmanarchitects.com
TX,MONTGOMERY,BC-20-009080,"Multi Family Apartments & Condos",1/25/2021,,49809,1080,"171 TOWN PARK DR BLDG CARPORT 6",CONROE,TX,77303,,,"TREY WAGGENER FIDELIS REALTY PARTNERS","171 TOWN PARK DR BLDG CARPORT 6",CONROE,TX,77303,,Owner,,,,,"KELLY GROSSMAN ARCHITECTS",,,,,"KELLY GROSSMAN ARCHITECTS","260 ADDIE ROY RD STE 210",AUSTIN,TX,78746-4109,"(512) 327-3397",http://www.kellygrossmanarchitects.com/,"(512) 327-0292","JOHN KELLY",jkelly@kellygrossmanarchitects.com
TX,MONTGOMERY,BC-20-009080,"Multi Family Apartments & Condos",1/25/2021,,49809,1080,"171 TOWN PARK DR BLDG CARPORT 7",CONROE,TX,77303,,,"TREY WAGGENER FIDELIS REALTY PARTNERS","171 TOWN PARK DR BLDG CARPORT 7",CONROE,TX,77303,,Owner,,,,,"KELLY GROSSMAN ARCHITECTS",,,,,"KELLY GROSSMAN ARCHITECTS","260 ADDIE ROY RD STE 210",AUSTIN,TX,78746-4109,"(512) 327-3397",http://www.kellygrossmanarchitects.com/,"(512) 327-0292","JOHN KELLY",jkelly@kellygrossmanarchitects.com
TX,MONTGOMERY,BC-20-009080,"Multi Family Apartments & Condos",1/25/2021,,49809,1080,"171 TOWN PARK DR BLDG CARPORT 8",CONROE,TX,77303,,,"TREY WAGGENER FIDELIS REALTY PARTNERS","171 TOWN PARK DR BLDG CARPORT 8",CONROE,TX,77303,,Owner,,,,,"KELLY GROSSMAN ARCHITECTS",,,,,"KELLY GROSSMAN ARCHITECTS","260 ADDIE ROY RD STE 210",AUSTIN,TX,78746-4109,"(512) 327-3397",http://www.kellygrossmanarchitects.com/,"(512) 327-0292","JOHN KELLY",jkelly@kellygrossmanarchitects.com
TX,MONTGOMERY,BC-20-009080,"Multi Family Apartments & Condos",1/25/2021,,49809,1080,"171 TOWN PARK DR BLDG CARPORT 9",CONROE,TX,77303,,,"TREY WAGGENER FIDELIS REALTY PARTNERS","171 TOWN PARK DR BLDG CARPORT 9",CONROE,TX,77303,,Owner,,,,,"KELLY GROSSMAN ARCHITECTS",,,,,"KELLY GROSSMAN ARCHITECTS","260 ADDIE ROY RD STE 210",AUSTIN,TX,78746-4109,"(512) 327-3397",http://www.kellygrossmanarchitects.com/,"(512) 327-0292","JOHN KELLY",jkelly@kellygrossmanarchitects.com
TX,MONTGOMERY,BC-20-009080,"Multi Family Apartments & Condos",1/25/2021,,49809,1080,"171 TOWN PARK DR BLDG CARPORT 10",CONROE,TX,77303,,,"TREY WAGGENER FIDELIS REALTY PARTNERS","171 TOWN PARK DR BLDG CARPORT 10",CONROE,TX,77303,,Owner,,,,,"KELLY GROSSMAN ARCHITECTS",,,,,"KELLY GROSSMAN ARCHITECTS","260 ADDIE ROY RD STE 210",AUSTIN,TX,78746-4109,"(512) 327-3397",http://www.kellygrossmanarchitects.com/,"(512) 327-0292","JOHN KELLY",jkelly@kellygrossmanarchitects.com
TX,MONTGOMERY,BC-20-009080,"Multi Family Apartments & Condos",1/25/2021,,62584,1357,"171 TOWN PARK DR BLDG GARAGE 1",CONROE,TX,77303,,,"TREY WAGGENER FIDELIS REALTY PARTNERS","171 TOWN PARK DR BLDG GARAGE 1",CONROE,TX,77303,,Owner,,,,,"KELLY GROSSMAN ARCHITECTS",,,,,"KELLY GROSSMAN ARCHITECTS","260 ADDIE ROY RD STE 210",AUSTIN,TX,78746-4109,"(512) 327-3397",http://www.kellygrossmanarchitects.com/,"(512) 327-0292","JOHN KELLY",jkelly@kellygrossmanarchitects.com
TX,MONTGOMERY,BC-20-009080,"Multi Family Apartments & Condos",1/25/2021,,62584,1357,"171 TOWN PARK DR BLDG GARAGE 3",CONROE,TX,77303,,,"TREY WAGGENER FIDELIS REALTY PARTNERS","171 TOWN PARK DR BLDG GARAGE 3",CONROE,TX,77303,,Owner,,,,,"KELLY GROSSMAN ARCHITECTS",,,,,"KELLY GROSSMAN ARCHITECTS","260 ADDIE ROY RD STE 210",AUSTIN,TX,78746-4109,"(512) 327-3397",http://www.kellygrossmanarchitects.com/,"(512) 327-0292","JOHN KELLY",jkelly@kellygrossmanarchitects.com
TX,MONTGOMERY,BC-20-009080,"Multi Family Apartments & Condos",1/25/2021,,62584,1357,"171 TOWN PARK DR BLDG GARAGE 4",CONROE,TX,77303,,,"TREY WAGGENER FIDELIS REALTY PARTNERS","171 TOWN PARK DR BLDG GARAGE 4",CONROE,TX,77303,,Owner,,,,,"KELLY GROSSMAN ARCHITECTS",,,,,"KELLY GROSSMAN ARCHITECTS","260 ADDIE ROY RD STE 210",AUSTIN,TX,78746-4109,"(512) 327-3397",http://www.kellygrossmanarchitects.com/,"(512) 327-0292","JOHN KELLY",jkelly@kellygrossmanarchitects.com
TX,MONTGOMERY,BR-20-009127,"Multi Family Apartments & Condos",1/25/2021,,44980,,"171 TOWN PARK DR BLDG VI",CONROE,TX,77303,,,"TREY WAGGENER FIDELIS REALTY PARTNERS","171 TOWN PARK DR BLDG VI",CONROE,TX,77303,,Owner,,,,,OWNER,,,,,OWNER,,,,,,,,,
TX,HARRIS,20053488,"Multi Family Apartments & Condos",2/8/2021,,213200,,"13413 SCOTT",HOUSTON,TX,77047,,,CONTRACTOR,,,,,,,,,,,"AMERICAN GOOD INVESTMENT ",,,,,"AMERICAN GOOD INVESTMENT ","13601 BRIDGEPORT RD UNIT C",HOUSTON,TX,77047,"(713) 808-9661",,,,
TX,HARRIS,20098435,"Multi Family Apartments & Condos",2/2/2021,Renovations,40000,,"1001 2/3 WEST LOOP SOUTH",HOUSTON,TX,77027,,,"GALLERIA LOOP NOTE HOLDER LLC","11509 S LOU AL",HOUSTON,TX,77024,"(615) 351-2639",Applicant,,,,,OWNER,,,,,OWNER,,,,,,,,,
TX,BRAZOS,20-4917,"Multi Family Renovations & Additions",1/7/2021,Renovation,494000,,"3902 E 29TH ST",BRYAN,TX,77802,,,CONTRACTOR,,,,,,,,,,,"COPPERHEAD CONSTRUCTION",,,,,"COPPERHEAD CONSTRUCTION","13906 SKYLARK DR",AUSTIN,TX,78732,"(512) 803-5835",,,"MARC LABATE",
TX,GALVESTON,2020-4445,"Offices, R&D, & Professional",1/7/2021,,206000,,"1501 W PARKWOOD AVE 103",FRIENDSWOOD,TX,77546,,,CONTRACTOR,,,,,,,,,,,"PRIMAL CONSTRUCTION",,,,,"PRIMAL CONSTRUCTION","109 ENDICOTT DR",CARENCRO,LA,70520,"(337) 329-2869",,,,
TX,GALVESTON,2021-0052,"Offices, R&D, & Professional",1/14/2021,,109000,,"4211 FRIENDSWOOD LINK RD 105",FRIENDSWOOD,TX,77546,,,CONTRACTOR,,,,,,,,,,,"J SHELLY SERVICES",,,,,"J SHELLY SERVICES","6304 MICHAEL ST",JUPITER,FL,33458-6603,"(561) 744-0863",,,,
TX,MONTGOMERY,BC-20-013489,"Offices, R&D, & Professional",1/4/2021,,,37500,"400 W DAVIS ST",CONROE,TX,77303,,,"WOODFOREST NATIONAL BANK","400 W DAVIS ST",CONROE,TX,77303,,Owner,,,,,"EE REED CONSTRUCTION",,,,,"EE REED CONSTRUCTION","333 COMMERCE GREEN BLVD","SUGAR LAND",TX,77478-3596,"(281) 933-4000",http://www.eereed.com,,,
TX,MONTGOMERY,BC-20-014488,"Offices, R&D, & Professional",1/22/2021,,78993,2800,"1909 LONGMIRE RD BLDG D2",CONROE,TX,77303,,,CONTRACTOR,,,,,,,,,,,"ARROWSTAR REALTY",,,,,"ARROWSTAR REALTY","11452 OUTPOST COVE DR",WILLIS,TX,77318,"(936) 672-2472",,,"Kevin Hasara",
TX,MONTGOMERY,BC-20-014855,"Offices, R&D, & Professional",1/4/2021,,146755,3724,"2510 S LOOP 336 W STE 245",CONROE,TX,77303,,,"VTK INVESTMENTS","2510 S LOOP 336 W STE 245",CONROE,TX,77303,,Owner,,,,,"VISIONARY BUILDERS",,,,,"VISIONARY BUILDERS","12706 CRATER LAKE CT",HUMBLE,TX,77346-3092,"(832) 859-1531",,,,
TX,MONTGOMERY,BC-20-015697,"Offices, R&D, & Professional",1/5/2021,,58126,1475,"6511 HIGHWAY 105 W STE C",CONROE,TX,77303,,,CONTRACTOR,,,,,,,,,,,"LINDSEY CONSTRUCTION",,,,,"LINDSEY CONSTRUCTION","23715 W HARDY RD",SPRING,TX,77373-5711,"(281) 651-0000",http://www.lindseycon.com/,"(281) 650-0228","CURTIS LINDSEY",
TX,BRAZOS,20-3279,"Offices, R&D, & Professional",1/22/2021,Renovation,1500000,6670,"501-503 W 31ST ST",BRYAN,TX,77803,,,CONTRACTOR,,,,,,,,,,,JACODY,,,,,JACODY,"10770 STATE HIGHWAY 30 STE 40","COLLEGE STATION",TX,77845-7939,"(979) 774-5613",,,"CODY MCKEAN",
TX,HARRIS,21005200,"Offices, R&D, & Professional",2/8/2021,Renovations,213200,,"13415 SCOTT",HOUSTON,TX,77047,,,CONTRACTOR,,,,,,,,,,,"AMERICAN GOOD INVESTMENT ",,,,,"AMERICAN GOOD INVESTMENT ","13601 BRIDGEPORT RD UNIT C",HOUSTON,TX,77047,"(713) 808-9661",,,,
TX,HARRIS,21004213,"Offices, R&D, & Professional",2/3/2021,Renovations,55800,,"1831 SEASPRAY",HOUSTON,TX,77008,,,CONTRACTOR,,,,,,,,,,,"BACKYARD AMENITIES",,,,,"BACKYARD AMENITIES","11163 OLD NEEDLEPOINT RD STE 100",BAYTOWN,TX,77523-9784,"(281) 837-8234",http://www.backyardamenities.com,,,info@backyardamenities.com
TX,HARRIS,20110150,"Offices, R&D, & Professional",2/8/2021,Renovations,170000,,"1336 TULANE",HOUSTON,TX,77008,,,CONTRACTOR,,,,,,,,,,,"JACOB BUCKWALTER",,,,,"JACOB BUCKWALTER","9597 JONES RD",HOUSTON,TX,77065-4815,"(832) 272-8423",,,,
TX,HARRIS,21004445,"Offices, R&D, & Professional",2/8/2021,Renovations,356238,,"1905 CHIPPENDALE",HOUSTON,TX,77018,,,CONTRACTOR,,,,,,,,,,,"JACOB BUCKWALTER",,,,,"JACOB BUCKWALTER","9597 JONES RD",HOUSTON,TX,77065-4815,"(832) 272-8423",,,,
TX,HARRIS,21006423,"Offices, R&D, & Professional",2/4/2021,Renovations,225990,,"12513 ABBEY HOUSE",HOUSTON,TX,77047,,,CONTRACTOR,,,,,,,,,,,"DR HORTON",,,,,"DR HORTON","14100 SOUTHWEST",HOUSTON,TX,77478,"(281) 201-5559",,,,
TX,HARRIS,20118349,"Offices, R&D, & Professional",2/4/2021,Renovations,245990,,"12545 WALMGATE",HOUSTON,TX,77047,,,CONTRACTOR,,,,,,,,,,,"DR HORTON",,,,,"DR HORTON","14100 SOUTHWEST",HOUSTON,TX,77478,"(281) 201-5559",,,,
TX,HARRIS,20111028,"Offices, R&D, & Professional",2/4/2021,Renovations,38500,,"1007 W COTTAGE",HOUSTON,TX,77009,,,CONTRACTOR,,,,,,,,,,,"FRANK REID CONSTRUCTION",,,,,"FRANK REID CONSTRUCTION","524 W 16TH ST",HOUSTON,TX,77008-3626,"(713) 861-3478",,,,
TX,HARRIS,21000328,"Offices, R&D, & Professional",2/2/2021,Renovations,64883,,"13610 STARLIGHT HARBOUR",HOUSTON,TX,77077,,,CONTRACTOR,,,,,,,,,,,"TEXAS CONSTRUCTION PLUS",,,,,"TEXAS CONSTRUCTION PLUS","PO BOX 5792",KATY,TX,77491-5792,"(281) 317-7587",http://www.texasconstructionplus.com,,,info@texasconstructionplus.com
TX,HARRIS,21007730,"Offices, R&D, & Professional",2/4/2021,Renovations,200000,,"1225 TEXAS",HOUSTON,TX,77002,,,CONTRACTOR,,,,,,,,,,,"AXIS BUILDERS",,,,,"AXIS BUILDERS","10924 GRANT RD",HOUSTON,TX,77070-4445,"(832) 900-9429",,,,
TX,HARRIS,21003990,"Offices, R&D, & Professional",2/3/2021,Renovations,2266556,,"1919 LA BRANCH",HOUSTON,TX,77005,,,CONTRACTOR,,,,,,,,,,,"CATON CONSULTING",,,,,"CATON CONSULTING","8300 CYPRESS CREEK PKWY STE 200",HOUSTON,TX,77070,"(832) 688-8929",,,,
TX,HARRIS,20088731,"Offices, R&D, & Professional",2/2/2021,Renovations,250000,,"1315 SAINT JOSEPH",HOUSTON,TX,77002,,,"CARL JONES","111 TRAVIS",HOUSTON,TX,77002,"(713) 595-2192",Applicant,,,,,OWNER,,,,,OWNER,,,,,,,,,
TX,HARRIS,20107987,"Offices, R&D, & Professional",2/5/2021,Renovations,250000,,"14111 ELMFIELD",HOUSTON,TX,77047,,,"JULIO LUGO","8515 CAMBRIDGE",HOUSTON,TX,77054,"(832) 487-9039",Architect,,,,,OWNER,,,,,OWNER,,,,,,,,,
TX,HARRIS,20088836,"Offices, R&D, & Professional",2/4/2021,Renovations,50000,,"2417 MARONEAL",HOUSTON,TX,77030,,,CONTRACTOR,,,,,,,,,,,"JOSE LUIS RAMIREZ",,,,,"JOSE LUIS RAMIREZ","5710 W 34TH ST",HOUSTON,TX,77092-6536,"(281) 818-1423",,,,
TX,HARRIS,21006417,"Offices, R&D, & Professional",2/3/2021,Renovations,225747,,"2403 BEVIS",HOUSTON,TX,77008,,,"D & Q DESIGN","16018 AUTUMN FALLS LN.",HOUSTON,TX,7795,"(281) 818-5609",Architect,,,"ACACIO REYNA",,OWNER,,,,,OWNER,,,,,,,,,
TX,BELL,FY-21-27,"Offices, R&D, & Professional",1/15/2021,,30870,,"121 N. 31ST STREET, STE. C",TEMPLE,TX,77356,,,CONTRACTOR,,,,,,,,,,,"SPRADLEY PROPERTY MANAGEMENT",,,,,"SPRADLEY PROPERTY MANAGEMENT","121 N 31ST ST SUITE C",TEMPLE,TX,76504,"(254) 742-7733",,,,
TX,BELL,FY-21-48,"Other Residential",1/15/2021,,46528,,"1731 DEERFIELD DR",TEMPLE,TX,76504,,,"CRAIG HEFFNER","1731 DEERFIELD DR",TEMPLE,TX,76504,,Applicant,,,,,OWNER,,,,,OWNER,,,,,,,,,
TX,HARRIS,21003830,"Parks, Recreation, Entertainment, & RV Park",2/2/2021,Renovations,182000,,"1405 BIONDO",HOUSTON,TX,77008,,,CONTRACTOR,,,,,,,,,,,"ANNE'S PERMIT",,,,,"ANNE'S PERMIT","2617C W HOLCOMBE BLVD",HOUSTON,TX,77025,"(713) 666-2025",,,,
TX,MONTGOMERY,AP-21-00071,"Residential Garages & Carports",1/7/2021,,,4917,"39 N REGENT OAK","THE WOODLANDS",TX,77386,,,"JEAN DERIDDER","39 N REGENT OAK","THE WOODLANDS",TX,77386,,Owner,,,,,OWNER,,,,,OWNER,,,,,,,,,
TX,MONTGOMERY,AP-21-00084,"Residential Garages & Carports",1/20/2021,,,3118,"24 SUNLIT FOREST DR","THE WOODLANDS",TX,77381,,,"JAMES A WEYNAND","24 SUNLIT FOREST DR","THE WOODLANDS",TX,77381,,Owner,,,,,OWNER,,,,,OWNER,,,,,,,,,
TX,MONTGOMERY,AP-21-00097,"Residential Garages & Carports",1/8/2021,,,6826,"2 PEERLESS POINT PL","THE WOODLANDS",TX,77381,,,"COREY ELLSWORTH","2 PEERLESS POINT PL","THE WOODLANDS",TX,77381,,Owner,,,,,OWNER,,,,,OWNER,,,,,,,,,
TX,MONTGOMERY,AP-21-00213,"Residential Garages & Carports",1/21/2021,,,4292,"46 BELLWEATHER CT","THE WOODLANDS",TX,77386,"PANTHER CREEK",,"ROBERT DUBRUL","46 BELLWEATHER CT","THE WOODLANDS",TX,77386,,Owner,,,,,OWNER,,,,,OWNER,,,,,,,,,
TX,GALVESTON,,"Residential Renovations & Additions",1/28/2020,Renovations,37642,,"6709 AVE O",HOUSTON,TX,77450,,,"FRANK & SHIRLEY LOPEZ","6709 AVE O",HOUSTON,TX,77450,,Owner,,,,,"BRIZO CONSTRUCTION",,,,,"BRIZO CONSTRUCTION","1908 AVENUE L","SANTA FE",TX,77510-8917,"(409) 316-4762",,,,
TX,GALVESTON,35308-21,"Residential Renovations & Additions",1/26/2021,Renovations,35425,,"3300 HIDDEN GOLD",HOUSTON,TX,77356,,,"BRENT POWERS","814 NECHES DR","PORT NECHES",TX,77651,"(409) 728-1375",Owner,,,,,OWNER,,,,,OWNER,,,,,,,,,
TX,GALVESTON,35309-21,"Residential Renovations & Additions",1/26/2021,Renovations,33232,,"4448 1/2 3RD ST",HOUSTON,TX,77356,,,CONTRACTOR,,,,,,,,,,,STONEWATER,,,,,STONEWATER,"2005 POST OFFICE STREET ",GALVESTON,TX,77550,"(409) 727-6437",,,,
TX,GALVESTON,35283-21,"Residential Renovations & Additions",1/21/2021,Renovations,38685,,"1056 STAR",HOUSTON,TX,77356,,,"THELMA CHAVEZ","PO BOX 231",DICKINSON,TX,77539,,Owner,,,,,"JW TURNER GROUP",,,,,"JW TURNER GROUP","4529 GULF FWY","LA MARQUE",TX,77568-3509,"(281) 357-9500",,,,
TX,GALVESTON,35284-21,"Residential Renovations & Additions",1/21/2021,Renovations,41497,,"2809 AVE C",HOUSTON,TX,77356,DICKINSON,,"SAMANTHA JOHNSON BEY","2809 AVE C",HOUSTON,TX,77356,,Owner,,,,,"BYRDSON SERVICES",,,,,"BYRDSON SERVICES","1245 W CARDINAL DR",BEAUMONT,TX,77705-6410,"(409) 718-2183",,,,
TX,GALVESTON,35264-21,"Residential Renovations & Additions",1/15/2021,Renovations,35425,,"3271 HIDDEN GOLD",HOUSTON,TX,77450,,,"BADEAUX INVESTMENT PROPERTIES","3165 WILLIAMSBURG","PT NECHES",TX,77651,,Owner,,,,,OWNER,,,,,OWNER,,,,,,,,,
TX,GALVESTON,35279-21,"Residential Renovations & Additions",1/15/2021,Renovations,41542,,"526 13TH ST",HOUSTON,TX,77356,,,"GARY & MISTY ELLIOTI","52613TH ST","SAN LEON",TX,77539,,Owner,,,,,"JW TURNER GROUP",,,,,"JW TURNER GROUP","4529 GULF FWY","LA MARQUE",TX,77568-3509,"(281) 357-9500",,,,
TX,GALVESTON,35222-21,"Residential Renovations & Additions",1/6/2021,Renovations,49280,,"4619 HERON",HOUSTON,TX,77356,,,"GILBERTO PENA","4719 HERON",HITCHCOCK,TX,77563,,Owner,,,,,OWNER,,,,,OWNER,,,,,,,,,
TX,GALVESTON,35221-21,"Residential Renovations & Additions",1/6/2021,Renovations,49280,,"4615 HERON",HOUSTON,TX,77356,,,"GILBERT PENA","4719 HERON",HITCHCOCK,TX,77563,,Owner,,,,,OWNER,,,,,OWNER,,,,,,,,,
TX,GALVESTON,35229-21,"Residential Renovations & Additions",1/6/2021,Renovations,46850,,"2293 E LOBSTER",HOUSTON,TX,77356,,,"GALVESTON DEVELOPMENT LLC","PO BOX 1395","CRYSTAL BEACH",TX,77650,,Owner,,,,,"WALZ FAMILY BUILDERS",,,,,"WALZ FAMILY BUILDERS","PO BOX 1395","CRYSTAL BEACH",TX,77650-1395,"(409) 684-8011",http://walzfamilybuilders.com/,,,WalzFamily@walzfamilybuilders.com
TX,GALVESTON,35231-21,"Residential Renovations & Additions",1/6/2021,Renovations,49662,,"2004 OHIO AVE",HOUSTON,TX,77356,,,"LINDA CHAIRLES","2004 OHIO AVE",HOUSTON,TX,77356,,Owner,,,,,"BYRDSON SERVICES",,,,,"BYRDSON SERVICES","1245 W CARDINAL DR",BEAUMONT,TX,77705-6410,"(409) 718-2183",,,,
TX,MONTGOMERY,AP-21-00261,"Residential Renovations & Additions",1/22/2021,Renovations,,4140,"6 PINEFIELD CREEK CT","THE WOODLANDS",TX,77386,"CREEKSIDE PARK",8,"ANTONIO LOPEZ SUAREZ","6 PINEFIELD CREEK CT","THE WOODLANDS",TX,77386,,Owner,,,,,OWNER,,,,,OWNER,,,,,,,,,
TX,GALVESTON,2021-0111,"Residential Renovations & Additions",1/15/2021,Renovations,32155,,"2205 KELLER BAY CT",FRIENDSWOOD,TX,77546,,,"BEN & JENNIFER SPEER","2205 KELLER BAY CT",FRIENDSWOOD,TX,77546,,Owner,,,,,"IVY HOMES",,,,,"IVY HOMES","10205 BROOKSHORE LN",PEARLAND,TX,77584-3268,"(281) 413-9059",,"(713) 436-9260","FRANKLIN IVY",franklin@ivyhomestx.com
TX,GALVESTON,2021-0253,"Residential Renovations & Additions",1/27/2021,Renovations,85000,,"2104 BUTLER DR",FRIENDSWOOD,TX,77546,,,"ERIC WILSON","2104 BUTLER DR",FRIENDSWOOD,TX,77546,,Owner,,,,,OWNER,,,,,OWNER,,,,,,,,,
TX,MONTGOMERY,BR-20-015587,"Residential Renovations & Additions",1/6/2021,Renovations,40000,6265,"159 LAKE VIEW CIR",CONROE,TX,77304,,,"JOE A AND RUBY A RITCHIE","159 LAKE VIEW CIR",CONROE,TX,77304,,Owner,,,,,"DANIEL VAZQUEZ",,,,,"DANIEL VAZQUEZ","608 GAGE LOOP",LAREDO,TX,78046-5154,"(956) 949-3222",,,,
TX,MONTGOMERY,BR-20-016159,"Residential Renovations & Additions",1/20/2021,Renovations,30000,6507,"2116 COACH ST",CONROE,TX,77304,,,CONTRACTOR,,,,,,,,,,,"PARTNERS IN BUILDING",,,,,"PARTNERS IN BUILDING","2901 W SAM HOUSTON PKWY N STE C250",HOUSTON,TX,77043-1624,"(713) 937-1121",http://www.partnersinbuilding.com,"(713) 937-1145",,
TX,MONTGOMERY,BR-20-016256,"Residential Renovations & Additions",1/22/2021,Renovations,50000,,"12259 LITTLE BLUE HERON LN",CONROE,TX,77304,,,"GREGORY & KATHLEEN UHLER","12259 LITTLE BLUE HERON LN",CONROE,TX,77304,,Owner,,,,,"HOMERUN CONSTRUCTION",,,,,"HOMERUN CONSTRUCTION","18029 HUFSMITH KOHRVILLE RD",TOMBALL,TX,77375,"(713) 340-7655",http://www.homerun-construction.com,,,
TX,MONTGOMERY,BR-20-016542,"Residential Renovations & Additions",1/13/2021,Renovations,,900,"7409 ENCHANTED STREAM DR",CONROE,TX,77304,,,"MICHAEL & CARRIE GAY","7409 ENCHANTED STREAM DR",CONROE,TX,77304,"(281) 923-3196",Owner,,,,,OWNER,,,,,OWNER,,,,,,,,,
TX,MONTGOMERY,BR-20-016661,"Residential Renovations & Additions",1/8/2021,Renovations,40000,,"130 AMBER JADE CT",CONROE,TX,77303,,,"GEOFFREY R LUSSIER","130 AMBER JADE CT",CONROE,TX,77303,,Owner,,,,,"PARTNERS IN RENOVATION",,,,,"PARTNERS IN RENOVATION","13710 LOWELL AVE",TOMBALL,TX,77377-7287,"(713) 702-9407",,,,
TX,BRAZOS,21-0005,"Residential Renovations & Additions",1/4/2021,Renovation,32700,,"836 N ROSEMARY DR",BRYAN,TX,77802,"BEVERLY ESTATES",,"PAUL & MING ROSCHKE","836 N ROSEMARY DR",BRYAN,TX,77802,,Owner,,,,,"HERITAGE CONSTRUCTION",,,,,"HERITAGE CONSTRUCTION","17806 W COPPER LAKES DR",HOUSTON,TX,77095-4969,"(281) 686-2603",,,"JEFF HUNT",jeff.hunt@sbcglobal.net
TX,BRAZOS,20-4865,"Residential Renovations & Additions",1/5/2021,Renovation,65000,,"300 REDBUD ST",BRYAN,TX,77801,"OAK TERRACE",,CONTRACTOR,,,,,,,,,,,"BLUESTONE PARTNERS",,,,,"BLUESTONE PARTNERS","2913 OVERLAND TRAIL #100",SHERMAN,TX,75092,"(903) 813-1415",http://www.bluestone.ws,"(903) 893-2124","JIM CROSS",jimcross@bluestone.ws
TX,MONTGOMERY,BR-21-001201,"Residential Renovations & Additions",1/21/2021,Renovations,260550,2569,"2011 ELKINGTON CIR",CONROE,TX,77303,,,"SARAH & DEREK BANEY","2011 ELKINGTON CIR",CONROE,TX,77303,,Owner,,,,,"JARROD CHUMLEY",,,,,"JARROD CHUMLEY","1050 GREENS PARKWAY STE 100",HOUSTON,TX,77067,"(281) 831-2762",,,,
TX,MCLENNAN,,"Residential Renovations & Additions",1/26/2021,Renovation,50000,2405,"1406 LINNET DR",ROBINSON,TX,76706,,,"NADINE FREEDMAN","1406 LINNET DR",ROBINSON,TX,76706,,Owner,,,,,"NEXT LEVEL ROOFING & REMODELING",,,,,"NEXT LEVEL ROOFING & REMODELING","4008 LOUETTA RD STE 540",SPRING,TX,77388-4405,"(832) 413-4533",,,,
TX,HARRIS,20107734,"Residential Renovations & Additions",2/4/2021,Addition,300000,,"2040 SHERIDAN",HOUSTON,TX,77030,,,"GIORGIA ADAMS","2040 SHERIDAN",HOUSTON,TX,77030,,Owner,,,,,"MCKINLEY HOMES",,,,,"MCKINLEY HOMES","2000 EDWARDS ST",HOUSTON,TX,77007-4442,"(713) 584-8523",http://mckinleyhomes.builders,,,contact@mckinleyhomes.builders
TX,HARRIS,20113885,"Residential Renovations & Additions",2/5/2021,Addition,251000,,"2502 EASON",HOUSTON,TX,77008,,,CONTRACTOR,,,,,,,,,,,"ANNE'S PERMIT",,,,,"ANNE'S PERMIT","2617C W HOLCOMBE BLVD",HOUSTON,TX,77025,"(713) 666-2025",,,,
TX,HARRIS,20106006,"Residential Renovations & Additions",2/3/2021,Addition,180000,,"2506 EASON",HOUSTON,TX,77008,,,CONTRACTOR,,,,,,,,,,,"ANNE'S PERMIT",,,,,"ANNE'S PERMIT","2617C W HOLCOMBE BLVD",HOUSTON,TX,77025,"(713) 666-2025",,,,
TX,HARRIS,20099804,"Residential Renovations & Additions",2/5/2021,Addition,200000,,"2117 FRANCIS",HOUSTON,TX,77004,,,CONTRACTOR,,,,,,,,,,,"ANNE'S PERMIT",,,,,"ANNE'S PERMIT","2617C W HOLCOMBE BLVD",HOUSTON,TX,77025,"(713) 666-2025",,,,
TX,HARRIS,20100102,"Residential Renovations & Additions",2/8/2021,Renovations,30925,,"3531 CHARLESTON",HOUSTON,TX,77021,,,"GREGORY &  SUSAN ASIMAKIS","3531 CHARLESTON",HOUSTON,TX,77021,,Owner,,,,,"ATLAS FOUNDATION REPAIR",,,,,"ATLAS FOUNDATION REPAIR","8945 SOLON RD",HOUSTON,TX,77064-1213,"(713) 641-4844",http://atlasfoundation.net/,"(713) 928-5221",,
TX,HARRIS,20116629,"Residential Renovations & Additions",2/2/2021,Addition,200000,,"2929 BUFFALO SPEEDWAY",HOUSTON,TX,77098,,,"BROOKNER MARK JAY","2929 BUFFALO SPEEDWAY",HOUSTON,TX,77098,,Owner,,,,,"SCHULTZ CONSTRUCTION COMPANY",,,,,"SCHULTZ CONSTRUCTION COMPANY","5410 EVERGREEN ST",HOUSTON,TX,77081-6611,"(713) 723-3212",http://schultzconstructioncompany.com/,"(713) 723-3213",,Howard@Schultzcustomhomes.com
TX,HARRIS,20093690,"Residential Renovations & Additions",2/6/2021,Renovations,40000,,"6426 SIDNEY",HOUSTON,TX,77356,,,"JOHN BROWN","6426 SIDNEY",HOUSTON,TX,77021,,Owner,,,,,"DONALD GIBBS",,,,,"DONALD GIBBS","11407 VALLEY STREAM DR",HOUSTON,TX,77043-4625,"(281) 768-1970",,,,
TX,HARRIS,21008142,"Residential Renovations & Additions",2/5/2021,Renovations,225000,,"303 MEMORIAL CITY MALL",HOUSTON,TX,77024,,,CONTRACTOR,,,,,,,,,,,"HORIZON RETAIL CONSTRUCTION",,,,,"HORIZON RETAIL CONSTRUCTION","9999 E EXPLORATION",HOUSTON,TX,53177,"(262) 865-6101",,,,
TX,HARRIS,20115720,"Residential Renovations & Additions",2/4/2021,Addition,200000,,"2112 STUART",HOUSTON,TX,77004,,,CONTRACTOR,,,,,,,,,,,"CITY CHOICE GROUP",,,,,"CITY CHOICE GROUP","1314 ROY ST",HOUSTON,TX,77007-3343,"(713) 681-5858",http://citychoicehomes.com,,,
TX,HARRIS,20116824,"Residential Renovations & Additions",2/5/2021,Addition,200000,,"2113 FRANCIS",HOUSTON,TX,77004,,,CONTRACTOR,,,,,,,,,,,"CITY CHOICE GROUP",,,,,"CITY CHOICE GROUP","1314 ROY ST",HOUSTON,TX,77007-3343,"(713) 681-5858",http://citychoicehomes.com,,,
TX,HARRIS,21001646,"Residential Renovations & Additions",2/4/2021,Addition,200000,,"2114 STUART",HOUSTON,TX,77004,,,CONTRACTOR,,,,,,,,,,,"CITY CHOICE GROUP",,,,,"CITY CHOICE GROUP","1314 ROY ST",HOUSTON,TX,77007-3343,"(713) 681-5858",http://citychoicehomes.com,,,
TX,HARRIS,20117881,"Residential Renovations & Additions",2/5/2021,Addition,200000,,"2115 FRANCIS",HOUSTON,TX,77004,,,CONTRACTOR,,,,,,,,,,,"CITY CHOICE GROUP",,,,,"CITY CHOICE GROUP","1314 ROY ST",HOUSTON,TX,77007-3343,"(713) 681-5858",http://citychoicehomes.com,,,
TX,HARRIS,20105781,"Residential Renovations & Additions",2/3/2021,Addition,200000,,"2118 STUART",HOUSTON,TX,77004,,,CONTRACTOR,,,,,,,,,,,"CITY CHOICE GROUP",,,,,"CITY CHOICE GROUP","1314 ROY ST",HOUSTON,TX,77007-3343,"(713) 681-5858",http://citychoicehomes.com,,,
TX,HARRIS,20117222,"Residential Renovations & Additions",2/5/2021,Addition,200000,,"2119 FRANCIS",HOUSTON,TX,77004,,,CONTRACTOR,,,,,,,,,,,"CITY CHOICE GROUP",,,,,"CITY CHOICE GROUP","1314 ROY ST",HOUSTON,TX,77007-3343,"(713) 681-5858",http://citychoicehomes.com,,,
TX,HARRIS,21005839,"Residential Renovations & Additions",2/4/2021,Renovations,219990,,"3002 MAUGHAN HEIGHTS",HOUSTON,TX,77047,,,CONTRACTOR,,,,,,,,,,,"DR HORTON",,,,,"DR HORTON","14100 SOUTHWEST",HOUSTON,TX,77478,"(281) 201-5559",,,,
TX,HARRIS,21010102,"Residential Renovations & Additions",2/3/2021,Renovations,219990,,"3014 MAUGHAN HEIGHTS",HOUSTON,TX,77047,,,CONTRACTOR,,,,,,,,,,,"DR HORTON",,,,,"DR HORTON","14100 SOUTHWEST",HOUSTON,TX,77478,"(281) 201-5559",,,,
TX,HARRIS,21002247,"Residential Renovations & Additions",2/8/2021,Renovations,400890,,"3040 POST OAK BLVD",HOUSTON,TX,77056,,,CONTRACTOR,,,,,,,,,,,"ENDURANCE BUILDERS",,,,,"ENDURANCE BUILDERS","2190 NORTH LOOP W STE 300",HOUSTON,TX,77018-8006,"(832) 623-7351",http://www.endbs.com/,,"BOB FLOWERS",
TX,HARRIS,20086621,"Residential Renovations & Additions",2/2/2021,Renovations,65000,,"304 GRACELAND",HOUSTON,TX,77009,,,CONTRACTOR,,,,,,,,,,,"GUADALUPE GOMEZ",,,,,"GUADALUPE GOMEZ","1006 WOODARD ST",HOUSTON,TX,77009-1416,"(713) 857-8811",,,,
TX,HARRIS,20118945,"Residential Renovations & Additions",2/2/2021,Renovations,38000,,"4530 GRIGGS RD",HOUSTON,TX,77021,,,CONTRACTOR,,,,,,,,,,,"HARTFORD HOMES",,,,,"HARTFORD HOMES","401 STUDEWOOD ST",HOUSTON,TX,77007-2794,"(713) 862-6899",,,"NICK NIKOOI",
TX,HARRIS,20063164,"Residential Renovations & Additions",2/2/2021,Renovations,40000,,"811 2/3 NORTH LOOP",HOUSTON,TX,77008,,,"BELINDA HERNANDEZ","2016 MAIN ST",HOUSTON,TX,77002,"(615) 351-2639",Applicant,,,,,OWNER,,,,,OWNER,,,,,,,,,
TX,HARRIS,20091991,"Residential Renovations & Additions",2/2/2021,Renovations,80000,,"3100 MAIN ST",HOUSTON,TX,77002,,,"EFRAIN ZEPEDA","3100 MAIN ST",HOUSTON,TX,77002,,Owner,,,,,"AMB ARCHITECTS",,,,,"AMB ARCHITECTS","5051 WESTHEIMER RD",HOUSTON,TX,77056,"(713) 350-3408",http://ambarchitects.com/,,"JIMMY HOAGLAND",
TX,HARRIS,21003847,"Residential Renovations & Additions",2/5/2021,Renovations,40000,,"4920 2/3 SAN FELIPE ST",HOUSTON,TX,77056,,,"ICON BANK OF TEXAS","16610 HIGHWAY",HOUSTON,TX,77598,"(615) 351-2639",Architect,,,,,OWNER,,,,,OWNER,,,,,,,,,
TX,HARRIS,20087455,"Residential Renovations & Additions",2/2/2021,Addition,186724,,"2504 HOLLISTER",HOUSTON,TX,77080,,,CONTRACTOR,,,,,,,,,,,"INTOWN HOMES",,,,,"INTOWN HOMES","1520 OLIVER ST",HOUSTON,TX,77007,"(713) 961-3877",http://www.intown-homes.com/,,,
TX,HARRIS,20094896,"Residential Renovations & Additions",2/2/2021,Addition,208172,,"2508 HOLLISTER",HOUSTON,TX,77080,,,CONTRACTOR,,,,,,,,,,,"INTOWN HOMES",,,,,"INTOWN HOMES","1520 OLIVER ST",HOUSTON,TX,77007,"(713) 961-3877",http://www.intown-homes.com/,,,
TX,HARRIS,20117271,"Residential Renovations & Additions",2/2/2021,Addition,248713,,"2512 HOLLISTER",HOUSTON,TX,77080,,,CONTRACTOR,,,,,,,,,,,"INTOWN HOMES",,,,,"INTOWN HOMES","1520 OLIVER ST",HOUSTON,TX,77007,"(713) 961-3877",http://www.intown-homes.com/,,,
TX,HARRIS,18099142,"Residential Renovations & Additions",2/2/2021,Addition,204724,,"2514 HOLLISTER",HOUSTON,TX,77080,,,CONTRACTOR,,,,,,,,,,,"INTOWN HOMES",,,,,"INTOWN HOMES","1520 OLIVER ST",HOUSTON,TX,77007,"(713) 961-3877",http://www.intown-homes.com/,,,
TX,HARRIS,18099143,"Residential Renovations & Additions",2/3/2021,Addition,150000,,"12903 MOSSCREST",HOUSTON,TX,77048,,,CONTRACTOR,,,,,,,,,,,"KB HOME",,,,,"KB HOME","11314 RICHMOND AVE",HOUSTON,TX,77082-2616,"(281) 668-3800",,,,
TX,HARRIS,20116322,"Residential Renovations & Additions",2/4/2021,Renovations,40000,,"711 2/3 N EMILE",HOUSTON,TX,77020,,,"CRIMMIN KENNETH","1816 HARVARD",HOUSTON,TX,77008,"(615) 351-2639",Applicant,,,,,OWNER,,,,,OWNER,,,,,,,,,
TX,HARRIS,20017183,"Residential Renovations & Additions",2/8/2021,Renovations,40000,,"10605 2/3 ALMEDA",HOUSTON,TX,77045,,,CONTRACTOR,,,,,,,,,,,"MAS TEC NETWORK SOLUTIONS",,,,,"MAS TEC NETWORK SOLUTIONS","20203 CARRIAGE POINT DR",HOUSTON,TX,77073,"(713) 467-1362",,,,
TX,HARRIS,20061858,"Residential Renovations & Additions",2/4/2021,Renovations,165070,,"3118 MEADOW MAKER",HOUSTON,TX,77080,,,CONTRACTOR,,,,,,,,,,,"MERITAGE HOMES",,,,,"MERITAGE HOMES","2901 W SAM HOUSTON PKWY N",HOUSTON,TX,77043-1630,"(713) 357-1184",,,,
TX,HARRIS,20115151,"Residential Renovations & Additions",2/8/2021,Addition,650000,,"9455 W WINGFOOT",HOUSTON,TX,77041,,,CONTRACTOR,,,,,,,,,,,"THORNTON CRISTY",,,,,"THORNTON CRISTY","2004 PARK",HOUSTON,TX,77565,"(210) 425-3381",,,,
TX,HARRIS,20108904,"Residential Renovations & Additions",2/4/2021,Addition,411000,,"9321 KIRBY",HOUSTON,TX,77054,,,CONTRACTOR,,,,,,,,,,,"O S INTERIOR SYSTEMS",,,,,"O S INTERIOR SYSTEMS","12723 ASHFORD BROOK",HOUSTON,TX,77082,"(713) 780-9050",http://www.osinterior.com/,,"DIANE WILSON",
TX,HARRIS,21004148,"Residential Renovations & Additions",2/4/2021,Addition,200000,,"2116 STUART",HOUSTON,TX,77004,,,CONTRACTOR,,,,,,,,,,,"CITY CHOICE GROUP",,,,,"CITY CHOICE GROUP","1314 ROY ST",HOUSTON,TX,77007-3343,"(713) 681-5858",http://citychoicehomes.com,,,
TX,HARRIS,20081326,"Residential Renovations & Additions",2/2/2021,Renovations,90000,,"3012 SOUTHMORE",HOUSTON,TX,77004,,,"JAMILA GLOVER","3012 SOUTHMORE",HOUSTON,TX,77004,,Owner,,,,,"DELCID LLC",,,,,"DELCID LLC","633A CRENSHAW RD",PASADENA,TX,77504-3731,"(281) 203-7537",https://delcidllc.com/,,,delcidllc@gmail.com
TX,HARRIS,20103936,"Residential Renovations & Additions",2/3/2021,Renovations,60955,,"308 GALE",HOUSTON,TX,77009,,,"JORGE HERNANDEZ","308 GALE",HOUSTON,TX,77009,,Owner,,,,,"STEWART POOLS",,,,,"STEWART POOLS","3610 QUEENSBURG LN",FRIENDSWOOD,TX,77546-2228,"(817) 386-7665",https://stewartpools.com/,,,
TX,HARRIS,20110054,"Residential Renovations & Additions",2/4/2021,Addition,100000,,"9821 SIGNET",HOUSTON,TX,77029,,,"TYRONE JONES","9821 SIGNET",HOUSTON,TX,77029,,Owner,,,,,OWNER,,,,,OWNER,,,,,,,,,
TX,HARRIS,21007940,"Residential Renovations & Additions",2/5/2021,Renovations,100000,,"30 SANDALWOOD",HOUSTON,TX,77024,,,"ALBERT LOHSE","30 SANDALWOOD",HOUSTON,TX,77024,,Owner,,,,,"LUSH OUTDOOR LIVING",,,,,"LUSH OUTDOOR LIVING","2200 SOUTHWEST FWY STE 602",HOUSTON,TX,77098-4713,"(713) 444-2339",http://lushoutdoors.com/,,"MASON BOSWELL",info@lushoutdoors.com
TX,HARRIS,21002148,"Residential Renovations & Additions",2/8/2021,Renovations,126000,,"3016 1/2 WORTHINGTON",HOUSTON,TX,77093,,,"TERRI MCCALL","3016 1/2 WORTHINGTON",HOUSTON,TX,77093,,Owner,,,,,"BRIZO CONSTRUCTION",,,,,"BRIZO CONSTRUCTION","1908 AVENUE L","SANTA FE",TX,77510-8917,"(409) 316-4762",,,,
TX,HARRIS,21009817,"Residential Renovations & Additions",2/7/2021,Renovations,179575,,"3107 ARLINGTON",HOUSTON,TX,77018,,,"ARIF MOMIN","3107 ARLINGTON",HOUSTON,TX,77018,,Owner,,,,,OWNER,,,,,OWNER,,,,,,,,,
TX,HARRIS,20063198,"Residential Renovations & Additions",2/5/2021,Renovations,35049,,"8502 BRAES MEADOW",HOUSTON,TX,77071,,,"EMILY NEWTON","8502 BRAES MEADOW",HOUSTON,TX,77071,,Owner,,,,,"RENEWAL BY ANDERSEN",,,,,"RENEWAL BY ANDERSEN","1215 W CROSBY RD # 180",CARROLLTON,TX,75006,"(972) 301-8660",,,,
TX,HARRIS,20098339,"Residential Renovations & Additions",2/3/2021,Addition,133000,,"9603 CLIFFWOOD",HOUSTON,TX,77096,,,"NGUYEN RICK","9603 CLIFFWOOD",HOUSTON,TX,77096,,Owner,,,,,"7 STAR DESIGN & CONSTRUCTION",,,,,"7 STAR DESIGN & CONSTRUCTION","9602 TREE SPARROW LANE",HOUSTON,TX,77083,"(832) 704-8258",,,,
TX,HARRIS,21005636,"Residential Renovations & Additions",2/2/2021,Renovations,40000,,"3831 ARBOR",HOUSTON,TX,77004,,,"RODNEY OSBORNE","3831 ARBOR",HOUSTON,TX,77004,"(713) 385-0217",Owner,,,,,OWNER,,,,,OWNER,,,,,,,,,
TX,HARRIS,20111674,"Residential Renovations & Additions",2/5/2021,Addition,33818,,"9627 CAROUSEL",HOUSTON,TX,77080,,,"GARY REDD","9627 CAROUSEL",HOUSTON,TX,77080,,Owner,,,,,"RENEWAL BY ANDERSEN",,,,,"RENEWAL BY ANDERSEN","1215 W CROSBY RD # 180",CARROLLTON,TX,75006,"(972) 301-8660",,,,
TX,HARRIS,21000511,"Residential Renovations & Additions",2/8/2021,Renovations,120000,,"305 TERRACE",HOUSTON,TX,77007,,,"DOUGLAS SHANDA","305 TERRACE",HOUSTON,TX,77007,,Owner,,,,,"SWEETWATER POOLS",,,,,"SWEETWATER POOLS","10408 ROCKLEY RD",HOUSTON,TX,77099-3524,"(281) 940-0445",http://www.sweetwaterpoolsinc.com,,,residential@sweetwaterpoolsinc.com
TX,HARRIS,21008782,"Residential Renovations & Additions",2/2/2021,Renovations,30000,,"5602 LAKEFIELD",HOUSTON,TX,77033,,,"WOODS JR ALFRED","5602 LAKEFIELD",HOUSTON,TX,77033,,Owner,,,,,OWNER,,,,,OWNER,,,,,,,,,
TX,MONTGOMERY,AP-21-00014,"Residential Swimming Pools & Spas",1/4/2021,,,,"14 LEGACY RIDGE DR","THE WOODLANDS",TX,77375,,4,CONTRACTOR,,,,,,,,,,,"PARTNERS IN BUILDING",,,,,"PARTNERS IN BUILDING","2901 W SAM HOUSTON PKWY N STE C250",HOUSTON,TX,77043-1624,"(713) 937-1121",http://www.partnersinbuilding.com,"(713) 937-1145",,
TX,MONTGOMERY,AP-21-00112,"Residential Swimming Pools & Spas",1/19/2021,,,,"86 BATESBROOKE CT","THE WOODLANDS",TX,77386,,,"MICHAEL CREEL","86 BATESBROOKE CT","THE WOODLANDS",TX,77386,,Owner,,,,,OWNER,,,,,OWNER,,,,,,,,,
TX,MONTGOMERY,AP-21-00114,"Residential Swimming Pools & Spas",1/19/2021,,,,"275 ROCKWELL PARK BLVD","THE WOODLANDS",TX,77386,"CREEKSIDE PARK",8,"DMITRY SKORNETSKIY","275 ROCKWELL PARK BLVD","THE WOODLANDS",TX,77386,,Owner,,,,,OWNER,,,,,OWNER,,,,,,,,,
TX,MONTGOMERY,AP-21-00144,"Residential Swimming Pools & Spas",1/12/2021,,,,"3 ENGLISH HEATHER PL","THE WOODLANDS",TX,77386,"STERLING RIDGE",64,"DAVID MARKER","3 ENGLISH HEATHER PL","THE WOODLANDS",TX,77386,,Owner,,,,,OWNER,,,,,OWNER,,,,,,,,,
TX,MONTGOMERY,AP-21-00166,"Residential Swimming Pools & Spas",1/13/2021,,,,"89 S WATERBRIDGE DR","THE WOODLANDS",TX,77375,"CREEKSIDE PARK",,"JIDE M TINUBU","89 S WATERBRIDGE DR","THE WOODLANDS",TX,77375,,Owner,,,,,OWNER,,,,,OWNER,,,,,,,,,
TX,MONTGOMERY,AP-21-00177,"Residential Swimming Pools & Spas",1/14/2021,,,,"23 SOUTHFORK PINES CT","THE WOODLANDS",TX,77386,"PANTHER CREEK",20,"MARGARIDA BREI","23 SOUTHFORK PINES CT","THE WOODLANDS",TX,77386,,Owner,,,,,OWNER,,,,,OWNER,,,,,,,,,
TX,MONTGOMERY,AP-21-00212,"Residential Swimming Pools & Spas",1/19/2021,,,,"10 CANOPY GREEN DR","THE WOODLANDS",TX,77386,"CREEKSIDE PARK",,"GIDEON DAVENPORT","10 CANOPY GREEN DR","THE WOODLANDS",TX,77386,,Owner,,,,,OWNER,,,,,OWNER,,,,,,,,,
TX,MONTGOMERY,AP-21-00305,"Residential Swimming Pools & Spas",1/21/2021,,,,"39 GALWAY PL","THE WOODLANDS",TX,77386,"STERLING RIDGE",71,"PATRICIA SENDELBACH","39 GALWAY PL","THE WOODLANDS",TX,77386,,Owner,,,,,OWNER,,,,,OWNER,,,,,,,,,
TX,MONTGOMERY,AP-21-00354,"Residential Swimming Pools & Spas",1/19/2021,,,,"162 E ELM CRESCENT","THE WOODLANDS",TX,77386,"ALDEN BRIDGE",4,"PETER S DIAS","162 E ELM CRESCENT","THE WOODLANDS",TX,77386,,Owner,,,,,OWNER,,,,,OWNER,,,,,,,,,
TX,MONTGOMERY,AP-21-00371,"Residential Swimming Pools & Spas",1/20/2021,,,,"18 GLOWING STAR PL","THE WOODLANDS",TX,77386,"STERLING RIDGE",51,"BRYAN G SCHORZMAN","18 GLOWING STAR PL","THE WOODLANDS",TX,77386,,Owner,,,,,OWNER,,,,,OWNER,,,,,,,,,
TX,MONTGOMERY,AP-21-00383,"Residential Swimming Pools & Spas",1/25/2021,,,,"47 LEGACY BRANCH DR","THE WOODLANDS",TX,77386,,,CONTRACTOR,,,,,,,,,,,"PARTNERS IN BUILDING",,,,,"PARTNERS IN BUILDING","2901 W SAM HOUSTON PKWY N STE C250",HOUSTON,TX,77043-1624,"(713) 937-1121",http://www.partnersinbuilding.com,"(713) 937-1145",,
TX,MONTGOMERY,AP-21-00439,"Residential Swimming Pools & Spas",1/27/2021,,,,"55 LEGACY BRANCH DR","THE WOODLANDS",TX,77386,"CREEKSIDE PARK",23,CONTRACTOR,,,,,,,,,,,"PARTNERS IN BUILDING",,,,,"PARTNERS IN BUILDING","2901 W SAM HOUSTON PKWY N STE C250",HOUSTON,TX,77043-1624,"(713) 937-1121",http://www.partnersinbuilding.com,"(713) 937-1145",,
TX,GALVESTON,2020-4364,"Residential Swimming Pools & Spas",1/8/2021,,51000,,"87 EL DORADO DR",FRIENDSWOOD,TX,77546,,,"ANTHONY & WENDY MCANALLY","87 EL DORADO DR",FRIENDSWOOD,TX,77546,,Owner,,,,,OWNER,,,,,OWNER,,,,,,,,,
TX,GALVESTON,2020-4447,"Residential Swimming Pools & Spas",1/5/2021,,75000,,"1723 PAMPAS TRAIL DR",FRIENDSWOOD,TX,77546,,,"SCOTT CAUDLE","1723 PAMPAS TRAIL DR",FRIENDSWOOD,TX,77546,,Owner,,,,,"MCKINNEY CUSTOM POOLS",,,,,"MCKINNEY CUSTOM POOLS","16802 HARKEY RD",PEARLAND,TX,77584-5070,"(281) 489-9800",http://www.mckinneycustompools.net,"(281) 489-9814",,mckinneypools@yahoo.com
TX,GALVESTON,2021-0039,"Residential Swimming Pools & Spas",1/11/2021,,67000,,"1139 RYMERS SWITCH LN",FRIENDSWOOD,TX,77546,,,"THOMAS & STEPHANIE JONES","1139 RYMERS SWITCH LN",FRIENDSWOOD,TX,77546,,Owner,,,,,"MCKINNEY CUSTOM POOLS",,,,,"MCKINNEY CUSTOM POOLS","16802 HARKEY RD",PEARLAND,TX,77584-5070,"(281) 489-9800",http://www.mckinneycustompools.net,"(281) 489-9814",,mckinneypools@yahoo.com
TX,GALVESTON,2021-0041,"Residential Swimming Pools & Spas",1/7/2021,,95000,,"2401 NILELAKE CT",FRIENDSWOOD,TX,77546,,,"SMITH CLAYTON","2401 NILELAKE CT",FRIENDSWOOD,TX,77546,,Owner,,,,,"MCKINNEY CUSTOM POOLS",,,,,"MCKINNEY CUSTOM POOLS","16802 HARKEY RD",PEARLAND,TX,77584-5070,"(281) 489-9800",http://www.mckinneycustompools.net,"(281) 489-9814",,mckinneypools@yahoo.com
TX,GALVESTON,2021-0082,"Residential Swimming Pools & Spas",1/12/2021,,55000,,"1021 POINT ISABEL LN",FRIENDSWOOD,TX,77546,,,"ANDREW & JULIE HYATT","1021 POINT ISABEL LN",FRIENDSWOOD,TX,77546,,Owner,,,,,"ST JOHN POOLS",,,,,"ST JOHN POOLS","7403 NORTHGROVE CT",PEARLAND,TX,77581-6627,"(281) 989-9902",,,,
TX,GALVESTON,2021-0116,"Residential Swimming Pools & Spas",1/14/2021,,64775,,"1225 FEATHER GLEN LN",FRIENDSWOOD,TX,77546,,,"CHRISTINE HUNT","1225 FEATHER GLEN LN",FRIENDSWOOD,TX,77546,,Owner,,,,,"PEARLAND POOLS",,,,,"PEARLAND POOLS","5510 MAGNOLIA",HOUSTON,TX,77584,"(281) 412-6445",http://www.pearlandpools.com/,"(281) 412-2791",,info@pearlandpools.com
TX,GALVESTON,2021-0162,"Residential Swimming Pools & Spas",1/22/2021,,35000,,"2445 MORNING RIDGE LN",FRIENDSWOOD,TX,77546,,,"NADAL ADI","2445 MORNING RIDGE LN",FRIENDSWOOD,TX,77546,,Owner,,,,,"AQUA LUXE",,,,,"AQUA LUXE","601 N GREAT SOUTHWEST PKWY",ARLINGTON,TX,76011-5424,"(972) 523-0073",,,,
TX,GALVESTON,2021-0213,"Residential Swimming Pools & Spas",1/29/2021,,83600,,"311 CHAPPEL HILL DR",FRIENDSWOOD,TX,77546,,,"ANDREW & HILLARY CARUSO","311 CHAPPEL HILL DR",FRIENDSWOOD,TX,77546,,Owner,,,,,"CUSTOM POOLS BY SULLIVAN",,,,,"CUSTOM POOLS BY SULLIVAN","1411 EAGLE FALLS DR",FRIENDSWOOD,TX,77546-7847,"(281) 844-1285",http://custompoolsbysullivan.com/,,"SAM SULLIVAN",
TX,GALVESTON,2021-0251,"Residential Swimming Pools & Spas",1/27/2021,,112000,,"212 LOS FRAILES DR",FRIENDSWOOD,TX,77546,,,"SANKAMAN & CYNTHIA PRAISOODY","212 LOS FRAILES DR",FRIENDSWOOD,TX,77546,,Owner,,,,,"PREMIER POOLS & SPAS",,,,,"PREMIER POOLS & SPAS","2810 BUSINESS CENTER DR STE 126",PEARLAND,TX,77584-9783,"(713) 436-4944",,"(713) 436-0081","BILL UNGER",bunger@ppas.com
TX,GALVESTON,2021-0256,"Residential Swimming Pools & Spas",1/28/2021,,25000,,"804 PINEY RIDGE DR",FRIENDSWOOD,TX,77546,,,"WILLIAM LANDER","804 PINEY RIDGE DR",FRIENDSWOOD,TX,77546,,Owner,,,,,"BACKYARD AMENITIES",,,,,"BACKYARD AMENITIES","11163 OLD NEEDLEPOINT RD STE 100",BAYTOWN,TX,77523-9784,"(281) 837-8234",http://www.backyardamenities.com,,,info@backyardamenities.com
TX,MONTGOMERY,BR-21-000698,"Residential Swimming Pools & Spas",1/22/2021,,259000,4565,"118 STELLAR HILLS CT",CONROE,TX,77303,,,CONTRACTOR,,,,,,,,,,,"WESTIN HOMES",,,,,"WESTIN HOMES","1 SUGAR CREEK CENTER BLVD STE 600","SUGAR LAND",TX,77478-3787,"(281) 240-1551",http://www.westin-homes.com,,,
TX,BRAZOS,20-4911,"Residential Swimming Pools & Spas",1/12/2021,,5000,,"3102 HUMMINGBIRD CIR",BRYAN,TX,77807,"WESTWOOD ESTATES",,"ASKO NOORMETS","3102 HUMMINGBIRD CIR",BRYAN,TX,77807,,Owner,,,,,OWNER,,,,,OWNER,,,,,,,,,
TX,BRAZOS,21-0082,"Residential Swimming Pools & Spas",1/15/2021,,63775,,"3225 ARUNDALA WAY",BRYAN,TX,77808,,,CONTRACTOR,,,,,,,,,,,"PREMIER POOLS & SPAS",,,,,"PREMIER POOLS & SPAS","2810 BUSINESS CENTER DR STE 126",PEARLAND,TX,77584-9783,"(713) 436-4944",,"(713) 436-0081","BILL UNGER",bunger@ppas.com
TX,BRAZOS,20-4896,"Residential Swimming Pools & Spas",1/15/2021,,84000,,"3212 LAUREL TRACE CT",BRYAN,TX,77807,TRADITIONS,,"LAURA DOSKOCIL","3212 LAUREL TRACE CT",BRYAN,TX,77807,,Owner,,,,,"PREMIER POOLS & SPAS",,,,,"PREMIER POOLS & SPAS","2810 BUSINESS CENTER DR STE 126",PEARLAND,TX,77584-9783,"(713) 436-4944",,"(713) 436-0081","BILL UNGER",bunger@ppas.com
TX,BRAZOS,21-0207,"Residential Swimming Pools & Spas",1/27/2021,,25000,,"3508 FOXCROFT PATH",BRYAN,TX,77808,,,"LESLIE & JESSYCAH CARROLL","3508 FOXCROFT PATH",BRYAN,TX,77808,,Owner,,,,,"PARADISE OASIS POOLS",,,,,"PARADISE OASIS POOLS","404 UNIVERSITY DR E STE B","COLLEGE STATION",TX,77840-1743,"(979) 704-6102",http://www.paradiseoasispools.com/,,,
TX,BRAZOS,21-0198,"Residential Swimming Pools & Spas",1/27/2021,,25000,,"5129 MAROON CREEK DR",BRYAN,TX,77802,,,"ANTOINETTE & JAMES GREENLEE","5129 MAROON CREEK DR",BRYAN,TX,77802,,Owner,,,,,"PARADISE OASIS POOLS",,,,,"PARADISE OASIS POOLS","404 UNIVERSITY DR E STE B","COLLEGE STATION",TX,77840-1743,"(979) 704-6102",http://www.paradiseoasispools.com/,,,
TX,MONTGOMERY,PO-20-016595,"Residential Swimming Pools & Spas",1/4/2021,,,,"193 LAKESIDE DR",CONROE,TX,77303,,,"CHRISTOPHER BETTINA SAMPER","193 LAKESIDE DR",CONROE,TX,77303,,Owner,,,,,"LIQUID EXTREME POOLS ",,,,,"LIQUID EXTREME POOLS ","2327 SENDERA RANCH DR",MAGNOLIA,TX,77354-6838,"(713) 384-3835",http://www.liquidextremepools.com,"(866) 657-7665","ROB PRALL",info@liquidextremepools.com
TX,MONTGOMERY,PO-20-017077,"Residential Swimming Pools & Spas",1/13/2021,,,,"319 TEABERRY CT",CONROE,TX,77303,,,"SHARE & DAVID RODDAN","319 TEABERRY CT",CONROE,TX,77303,,Owner,,,,,"BACKYARD OASIS",,,,,"BACKYARD OASIS","16340 FM 2920",HOUSTON,TX,77377,"(281) 357-8161",http://www.bkydoasis.com/,,,
TX,MONTGOMERY,PO-20-017142,"Residential Swimming Pools & Spas",1/5/2021,,,,"10338 HUNTER CREEK LN",CONROE,TX,77303,,,"THOMAS & SUZANNE CALENDA","10338 HUNTER CREEK LN",CONROE,TX,77303,,Owner,,,,,"CHRIS WHITLOCK",,,,,"CHRIS WHITLOCK","5047 W BAYSHORE DR     ",BACLIFF,TX,77518,"(281) 831-1744",,,,
TX,MONTGOMERY,PO-20-017354,"Residential Swimming Pools & Spas",1/4/2021,,,,"2715 SILVERSTONE WAY",CONROE,TX,77303,,,"STEVE & TRACI EGGERT","2715 SILVERSTONE WAY",CONROE,TX,77303,,Owner,,,,,"LONE STAR POOLS",,,,,"LONE STAR POOLS","8737 SKYLINE LN",CONROE,TX,77302-3458,"(281) 353-0909",,,,
TX,MONTGOMERY,PO-21-000178,"Residential Swimming Pools & Spas",1/8/2021,,,,"2118 BARTON WOODS BLVD",CONROE,TX,77303,,,"LAN A & DEBRA K COOK","2118 BARTON WOODS BLVD",CONROE,TX,77303,,Owner,,,,,"ST. CROIX CUSTOM POOLS",,,,,"ST. CROIX CUSTOM POOLS","23902 FM 2978 RD STE A",TOMBALL,TX,77375-5059,"(936) 203-7560",http://stcroixpools.com/,,,info@stcroixpools.com
TX,MONTGOMERY,PO-21-000414,"Residential Swimming Pools & Spas",1/8/2021,,,,"2507 N YORK CHASE",CONROE,TX,77303,,,"PEDRO PORTILLO","2507 N YORK CHASE",CONROE,TX,77303,,Owner,,,,,"LENNAR HOMES",,,,,"LENNAR HOMES","550 GREENS PKWY",HOUSTON,TX,77067-4537,"(281) 875-1000",http://www.lennar.com/,,,
TX,MONTGOMERY,PO-21-000432,"Residential Swimming Pools & Spas",1/11/2021,,,3537,"2178 GRAYSTONE HILLS DR",CONROE,TX,77303,,,CONTRACTOR,,,,,,,,,,,"LENNAR HOMES",,,,,"LENNAR HOMES","550 GREENS PKWY",HOUSTON,TX,77067-4537,"(281) 875-1000",http://www.lennar.com/,,,
TX,MONTGOMERY,PO-21-000643,"Residential Swimming Pools & Spas",1/22/2021,,,,"2113 WOOD DUCK WAY",CONROE,TX,77303,,,"BRADON C SELMAN","2113 WOOD DUCK WAY",CONROE,TX,77303,,Owner,,,,,"BACKYARD OASIS",,,,,"BACKYARD OASIS","16340 FM 2920",HOUSTON,TX,77377,"(281) 357-8161",http://www.bkydoasis.com/,,,
TX,MONTGOMERY,PO-21-000756,"Residential Swimming Pools & Spas",1/15/2021,,,4003,"245 BEE BALM CT",CONROE,TX,77303,,,"NICHOLAS J GOREE","245 BEE BALM CT",CONROE,TX,77303,,Owner,,,,,"CARNAHAN LANDSCAPING",,,,,"CARNAHAN LANDSCAPING","32831 HWY 249",PINEHURST,TX,77362,"(281) 376-6868",http://carnahanlandscaping.com,,"JEFF WATKINS",sales@carnahans.com
TX,MONTGOMERY,PO-21-000966,"Residential Swimming Pools & Spas",1/26/2021,,,,"7013 LONGMIRE CIR",CONROE,TX,77303,,,"JOSEPH & TAMMY YOUNG","7013 LONGMIRE CIR",CONROE,TX,77303,,Owner,,,,,"POOLS BY TOM",,,,,"POOLS BY TOM","8302 HIBISCUS CT",CONROE,TX,77304-1967,"(936) 202-9139",,,,
TX,MONTGOMERY,PO-21-001377,"Residential Swimming Pools & Spas",1/25/2021,,,5540,"12345 BELLA VITA DR",CONROE,TX,77303,,,"RANDY & HOLLY ROBERTSON","12345 BELLA VITA DR",CONROE,TX,77303,,Owner,,,,,OWNER,,,,,OWNER,,,,,,,,,
TX,MONTGOMERY,PO-21-001503,"Residential Swimming Pools & Spas",1/27/2021,,,,"1515 CAFE DUMONDE",CONROE,TX,77303,,,"SCOTT & DENA CAUFFMAN","1515 CAFE DUMONDE",CONROE,TX,77303,,Owner,,,,,"WAYLAND DUCKETT",,,,,"WAYLAND DUCKETT","2257 N LOOP 336 W STE 140",CONROE,TX,77304-3566,"(936) 900-9984",,,,
TX,HARRIS,2100027,"Residential Swimming Pools & Spas",1/19/2021,,56450,,"3437 BAY BREEZE DR",SEABROOK,TX,77586,,,"RAFAEL SANCHEZ","3437 BAY BREEZE DR",SEABROOK,TX,77586,,Owner,,,,,"BACKYARD AMENITIES",,,,,"BACKYARD AMENITIES","11163 OLD NEEDLEPOINT RD STE 100",BAYTOWN,TX,77523-9784,"(281) 837-8234",http://www.backyardamenities.com,,,info@backyardamenities.com
TX,HARRIS,2100028,"Residential Swimming Pools & Spas",1/19/2021,,15000,,"3317 ARBOR LN",SEABROOK,TX,77586,,,"MICHAEL & MARY DUNN","3317 ARBOR LN",SEABROOK,TX,77586,,Owner,,,,,"IDEAL POOL SERVICES",,,,,"IDEAL POOL SERVICES","15702 FOUR LEAF DRIVE",HOUSTON,TX,77015,"(281) 859-4868",http://idealpoolservices.net,,,
TX,HARRIS,2100063,"Residential Swimming Pools & Spas",1/26/2021,,72861,,"1902 HARBOUR COVE DR",SEABROOK,TX,77586,,,"ZACHARY & KARIEANN WESTER","1902 HARBOUR COVE DR",SEABROOK,TX,77586,,Owner,,,,,"MERMAID POOLS & SPAS",,,,,"MERMAID POOLS & SPAS","2333 SEDONA CT","LEAGUE CITY",TX,77573-1573,"(832) 387-0739",http://www.mermaidpools-spas.com/,,,dougsworkmail@sbcglobal.net
TX,HARRIS,21005877,"Residential Swimming Pools & Spas",2/3/2021,,249475,,"915 NADINE",HOUSTON,TX,77009,,,CONTRACTOR,,,,,,,,,,,"TROTWOOD REALTY",,,,,"TROTWOOD REALTY","P.O. BOX 20675",HOUSTON,TX,77225,"(713) 498-3737",,,"SHAWN BAKSH",
TX,HARRIS,21003316,"Residential Swimming Pools & Spas",2/3/2021,,249475,,"917 NADINE",HOUSTON,TX,77009,,,CONTRACTOR,,,,,,,,,,,"TROTWOOD REALTY",,,,,"TROTWOOD REALTY","P.O. BOX 20675",HOUSTON,TX,77225,"(713) 498-3737",,,"SHAWN BAKSH",
TX,HARRIS,20112714,"Residential Swimming Pools & Spas",2/5/2021,,200000,,"2121 FRANCIS",HOUSTON,TX,77004,,,CONTRACTOR,,,,,,,,,,,"CITY CHOICE GROUP",,,,,"CITY CHOICE GROUP","1314 ROY ST",HOUSTON,TX,77007-3343,"(713) 681-5858",http://citychoicehomes.com,,,
TX,HARRIS,21006256,"Residential Swimming Pools & Spas",2/5/2021,,157000,,"3318 HUTCHINS",HOUSTON,TX,77004,,,CONTRACTOR,,,,,,,,,,,"CITY CHOICE GROUP",,,,,"CITY CHOICE GROUP","1314 ROY ST",HOUSTON,TX,77007-3343,"(713) 681-5858",http://citychoicehomes.com,,,
TX,HARRIS,20092069,"Residential Swimming Pools & Spas",2/5/2021,,157000,,"3324 HUTCHINS",HOUSTON,TX,77004,,,CONTRACTOR,,,,,,,,,,,"CITY CHOICE GROUP",,,,,"CITY CHOICE GROUP","1314 ROY ST",HOUSTON,TX,77007-3343,"(713) 681-5858",http://citychoicehomes.com,,,
TX,HARRIS,20110349,"Residential Swimming Pools & Spas",2/5/2021,,157000,,"3326 HUTCHINS",HOUSTON,TX,77004,,,CONTRACTOR,,,,,,,,,,,"CITY CHOICE GROUP",,,,,"CITY CHOICE GROUP","1314 ROY ST",HOUSTON,TX,77007-3343,"(713) 681-5858",http://citychoicehomes.com,,,
TX,HARRIS,20107582,"Residential Swimming Pools & Spas",2/3/2021,,379000,,"923 BLACKSHIRE",HOUSTON,TX,77055,,,CONTRACTOR,,,,,,,,,,,"MHI MCGUYER HOMEBUILDERS",,,,,"MHI MCGUYER HOMEBUILDERS","7676 WOODWAY DR",HOUSTON,TX,77063-1526,"(713) 260-4107",,,,
TX,HARRIS,21007740,"Residential Swimming Pools & Spas",2/5/2021,,620000,,"22710 PROFESSIONAL DR",HOUSTON,TX,77339,,,"JOSHUA PENTON","1247 COUNTY ROAD 347 N",HOUSTON,TX,77327,"(281) 253-3614",Applicant,,,,,OWNER,,,,,OWNER,,,,,,,,,
TX,HARRIS,20118884,"Residential Swimming Pools & Spas",2/5/2021,,85000,,"9211 PECOS",HOUSTON,TX,77055,,,"STEVEN KALINOWSKI","9211 PECOS",HOUSTON,TX,77055,,Owner,,,,,"TORINO CLASSIC HOMES & OUTDOORS",,,,,"TORINO CLASSIC HOMES & OUTDOORS","PO BOX 962",KATY,TX,77492-0962,"(832) 545-4129",,,,
TX,HARRIS,21003652,"Residential Swimming Pools & Spas",2/2/2021,,350000,,"2027 WILBURFORCE",HOUSTON,TX,77091,,,CONTRACTOR,,,,,,,,,,,"DERRICK VAUGHN",,,,,"DERRICK VAUGHN","16800 W IMPERIAL VALLEY ST BLDG",HOUSTON,TX,77007,"(323) 337-5397",,,,
TX,HARRIS,21007845,"Residential Swimming Pools & Spas",2/4/2021,,47789,,"2210 GEMINI",HOUSTON,TX,77058,,,"TIFFANY DAIVS","2210 GEMINI",HOUSTON,TX,77058,,Owner,,,,,"RENEWAL BY ANDERSEN",,,,,"RENEWAL BY ANDERSEN","1215 W CROSBY RD # 180",CARROLLTON,TX,75006,"(972) 301-8660",,,,
TX,HARRIS,20075261,"Residential Swimming Pools & Spas",2/3/2021,,210000,,"2811 ELLINGTON",HOUSTON,TX,77088,,,"GARCIA-MENDOZA YURIDIA LAURA","2811 ELLINGTON",HOUSTON,TX,77088,"(713) 474-4013",Owner,,,,,OWNER,,,,,OWNER,,,,,,,,,
TX,HARRIS,21007533,"Residential Swimming Pools & Spas",2/2/2021,,71945,,"2318 CHANTILLY",HOUSTON,TX,77018,,,"EDWARD GRETHER","2318 CHANTILLY",HOUSTON,TX,77018,,Owner,,,,,OWNER,,,,,OWNER,,,,,,,,,
TX,HARRIS,21008226,"Residential Swimming Pools & Spas",2/8/2021,,113102,,"2136 ADDISON",HOUSTON,TX,77030,,,"PATRICIA HILLIARD","2136 ADDISON",HOUSTON,TX,77030,,Owner,,,,,"LONE STAR BUILDING & CONSTRUCTION",,,,,"LONE STAR BUILDING & CONSTRUCTION","2410 QUENBY ST STE 200",HOUSTON,TX,77005-1449,"(713) 522-7111",http://www.lonestarbuilding.com,"(713) 522-7139",,inquiry@lonestarbuilding.com
TX,HARRIS,20114161,"Residential Swimming Pools & Spas",2/2/2021,,204000,,"2122 CHIPPENDALE",HOUSTON,TX,77018,,,"JOHN HITZEL","2122 CHIPPENDALE",HOUSTON,TX,77018,"(281) 701-2119",Owner,,,,,OWNER,,,,,OWNER,,,,,,,,,
TX,HARRIS,21006905,"Residential Swimming Pools & Spas",2/2/2021,,225100,,"2312 CAMPBELL RD",HOUSTON,TX,77080,,,"JOSE GARCIA AND TERESA GARCIA","2312 CAMPBELL RD",HOUSTON,TX,77080,,Owner,,,,,OWNER,,,,,OWNER,,,,,,,,,
TX,HARRIS,21007741,"Residential Swimming Pools & Spas",2/2/2021,,71145,,"2307 CHANTILLY",HOUSTON,TX,77018,,,"JEFFREY MECHLAM","2307 CHANTILLY",HOUSTON,TX,77018,,Owner,,,,,OWNER,,,,,OWNER,,,,,,,,,
TX,HARRIS,20103424,"Residential Swimming Pools & Spas",2/2/2021,,75500,,"9806 THORN",HOUSTON,TX,77078,,,"KARA MILES","9806 THORN",HOUSTON,TX,77078,,Owner,,,,,OWNER,,,,,OWNER,,,,,,,,,
TX,HARRIS,21004098,"Residential Swimming Pools & Spas",2/8/2021,,40000,,"927 W 42ND",HOUSTON,TX,77018,,,"ALDO OCHOA","927 W 42ND",HOUSTON,TX,77018,,Owner,,,,,"THE POOL MAN",,,,,"THE POOL MAN","19111 CYPRESS ROSE",HOUSTON,TX,77377,"(713) 781-0760",http://www.poolmaninc.com,,,
TX,BELL,FY-21-26,"Residential Swimming Pools & Spas",1/15/2021,,70000,,"10631 BECKER DR",TEMPLE,TX,77396,,,CONTRACTOR,,,,,,,,,,,"MOONLIGHT POOL AND SPA",,,,,"MOONLIGHT POOL AND SPA","3950 TX-95",TEMPLE,TX,76502,"(254) 760-3464",,,,
TX,MONTGOMERY,BC-20-015976,"Restaurant and Bar",1/7/2021,,107470,2500,"13080 HIGHWAY 105 W STE 101-B",CONROE,TX,77301,,,"MARGARITO BALON","13080 HIGHWAY 105 W STE 101-B",CONROE,TX,77301,"(936) 524-2621",Applicant,,,,,OWNER,,,,,OWNER,,,,,,,,,
TX,BRAZOS,20-0918,"Restaurant and Bar",1/19/2021,,15000000,7585,"400 W VILLA MARIA RD",BRYAN,TX,77801,,,CONTRACTOR,,,,,,,,,,,"CROSSLAND CONSTRUCTION",,,,,"CROSSLAND CONSTRUCTION","861 N COLEMAN ST STE 100",PROSPER,TX,75078-2345,"(972) 347-5659",https://www.crossland.com,"(972) 347-5684",,
TX,BRAZOS,20-2220,"Restaurant and Bar",1/22/2021,,1075000,4827,"1542 W VILLA MARIA RD",BRYAN,TX,77807,,,CONTRACTOR,,,,,,,,,,,"REGAS CONTRACTING ",,,,,"REGAS CONTRACTING ","12811 ROYAL DR",HOUSTON,TX,77479,"(281) 240-4777",http://www.regascontracting.com/,,,
TX,HARRIS,20025378,"Restaurant and Bar",2/5/2021,Addition,33941,,"12422 MAGNOLIA",HOUSTON,TX,77099,,,CONTRACTOR,,,,,,,,,,,"SERGIO SAIS",,,,,"SERGIO SAIS","717 JACK",SEAGOVILLE,TX,75159,"(214) 517-8735",,,,
TX,HARRIS,20076808,"Restaurant and Bar",2/8/2021,,46210,,"13022 MOSSY MEADOW",HOUSTON,TX,77085,,,CONTRACTOR,,,,,,,,,,,"IMAGINE REMODEL",,,,,"IMAGINE REMODEL","8207 VISTA DEL SOL",HOUSTON,TX,77083,"(832) 533-7228",,,"DEBORA BEHLER",
TX,HARRIS,20092558,"Restaurant and Bar",2/2/2021,,77699,,"1221 MCKINNEY ST",HOUSTON,TX,77010,,,CONTRACTOR,,,,,,,,,,,"BYRD INTERIOR CONSTRUCTION",,,,,"BYRD INTERIOR CONSTRUCTION","2123 W GOVERNORS CIR # 100",HOUSTON,TX,77092-8746,"(713) 688-8850",http://www.byrdinterior.com/,,"JOHN BYRD",jbyrd@byrdinterior.com
TX,HARRIS,20086664,"Restaurant and Bar",2/2/2021,,600000,,"1000 MAIN ST",HOUSTON,TX,77002,,,CONTRACTOR,,,,,,,,,,,"DE HARVEY BUILDERS",,,,,"DE HARVEY BUILDERS","3630 WESTCHASE DR",HOUSTON,TX,77042-5224,"(713) 783-8710",,,,
TX,GALVESTON,2020-1589,Retail,1/28/2021,,457300,,"1720 S FRIENDSWOOD DR 100",FRIENDSWOOD,TX,77546,,,CONTRACTOR,,,,,,,,,,,"ENGELKE CONSTRUCTION SOLUTION LLC",,,,,"ENGELKE CONSTRUCTION SOLUTION LLC"," 2927 NATIONWIDE PKWY",BRUNSWICK,OH,44212,"(330) 273-2222",,,,
TX,MONTGOMERY,BC-20-004159,Retail,1/26/2021,,72349,1403,"1240 N LOOP 336 W STE 200",CONROE,TX,77301,,,"KEVIN MCKENNA BURHAM NATIONWIDE","1240 N LOOP 336 W STE 200",CONROE,TX,77301,,Owner,,,,,"ACTION RETAIL CONSTRUCTION SERVICES ",,,,,"ACTION RETAIL CONSTRUCTION SERVICES ","4320 ACTION DR",MESQUITE,TX,75150-6683,"(214) 989-7841",http://actionrcs.com/,"(972) 686-2758","STEPHEN VASTINE",Steve@ActionRCS.com
TX,MONTGOMERY,BC-20-017300,Retail,1/29/2021,,70934,1800,"4489 W DAVIS ST STE 230 ",CONROE,TX,77304,,,"MATTHEW GORDON WEST FORK","4489 W DAVIS ST STE 230 ",CONROE,TX,77304,,Owner,,,,,"KEVIN DESORMEAUX",,,,,"KEVIN DESORMEAUX","900 S HOLY AVE ",CLEVELAND,TX,77327,"(832) 251-3520",,,,
TX,BRAZOS,20-4056,Retail,1/11/2021,Renovation,854000,,"1609 N TEXAS AVE",BRYAN,TX,77803,,,CONTRACTOR,,,,,,,,,,,"ALL BRIGHT CONSTRUCTION",,,,,"ALL BRIGHT CONSTRUCTION","10811 LOTA DR","SAN ANTONIO",TX,78217,"(210) 490-6495",https://www.allbriteconstruction.com/,"(210) 404-2224",,info@allbriteconstruction.com
TX,HARRIS,20092475,Retail,2/2/2021,Renovations,233573,,"1211 HICKORY ST",HOUSTON,TX,77007,,,CONTRACTOR,,,,,,,,,,,"INTOWN HOMES",,,,,"INTOWN HOMES","1520 OLIVER ST",HOUSTON,TX,77007,"(713) 961-3877",http://www.intown-homes.com/,,,
TX,HARRIS,20106131,Retail,2/8/2021,Renovations,40000,,"1210 BIGELOW",HOUSTON,TX,77009,,,CONTRACTOR,,,,,,,,,,,"SIERRA VISTA REALTY",,,,,"SIERRA VISTA REALTY","6633 GULF FW",HOUSTON,TX,77087,"(832) 900-2127",,,,
TX,HARRIS,20114124,Retail,2/8/2021,,51000,,"11903 DREXEL HILL",HOUSTON,TX,77077,,,CONTRACTOR,,,,,,,,,,,"SUNSET POOLS",,,,,"SUNSET POOLS","3510 GREENBUSCH RD",KATY,TX,77494-6336,"(281) 693-4896",http://sunsetpoolsinc.com,,"ADAM TRAUGOTT",
TX,HARRIS,20089561,Retail,2/8/2021,,48500,,"5110 BUFFALO SPEEDWAY",HOUSTON,TX,77005,,,"NAILSPA MILANO","5110 BUFFALO SPEEDWAY",HOUSTON,TX,77005,"(832) 367-3670",Owner,,,"LE THUC",,OWNER,,,,,OWNER,,,,,,,,,
TX,MONTGOMERY,179957-21,"Single Family Homes",1/19/2021,,100800,,"40541 WARIALDA TRACE LN",HOUSTON,TX,77356,"MILL CREEK ESTATES",,CONTRACTOR,,,,,,,,,,,"DR HORTON",,,,,"DR HORTON","14100 SOUTHWEST",HOUSTON,TX,77478,"(281) 201-5559",,,,
TX,MONTGOMERY,"179958 21","Single Family Homes",1/19/2021,,100800,,"40517 WARIALDA TRACE LN",HOUSTON,TX,77356,"MILL CREEK ESTATES",,CONTRACTOR,,,,,,,,,,,"DR HORTON",,,,,"DR HORTON","14100 SOUTHWEST",HOUSTON,TX,77478,"(281) 201-5559",,,,
TX,MONTGOMERY,"179959 21","Single Family Homes",1/19/2021,,142245,,"15006 MOOSE CREEK LN",HOUSTON,TX,77356,"FOSTERS RIDGE",,CONTRACTOR,,,,,,,,,,,"DR HORTON",,,,,"DR HORTON","14100 SOUTHWEST",HOUSTON,TX,77478,"(281) 201-5559",,,,
TX,MONTGOMERY,179960-21,"Single Family Homes",1/19/2021,,110700,,"40402 RED POPPY LN",HOUSTON,TX,77356,"MILL CREEK ESTATES",,CONTRACTOR,,,,,,,,,,,"DR HORTON",,,,,"DR HORTON","14100 SOUTHWEST",HOUSTON,TX,77478,"(281) 201-5559",,,,
TX,MONTGOMERY,179962-21,"Single Family Homes",1/19/2021,,110700,,"40430 RED POPPY LN",HOUSTON,TX,77356,"MILL CREEK ESTATES",,CONTRACTOR,,,,,,,,,,,"DR HORTON",,,,,"DR HORTON","14100 SOUTHWEST",HOUSTON,TX,77478,"(281) 201-5559",,,,
TX,MONTGOMERY,179963-21,"Single Family Homes",1/19/2021,,132975,,"40410 RED POPPY LN",HOUSTON,TX,77356,"MILL CREEK ESTATES",,CONTRACTOR,,,,,,,,,,,"DR HORTON",,,,,"DR HORTON","14100 SOUTHWEST",HOUSTON,TX,77478,"(281) 201-5559",,,,
TX,MONTGOMERY,179964-21,"Single Family Homes",1/19/2021,,132975,,"40438 RED POPPY LN",HOUSTON,TX,77356,"MILL CREEK ESTATES",,CONTRACTOR,,,,,,,,,,,"DR HORTON",,,,,"DR HORTON","14100 SOUTHWEST",HOUSTON,TX,77478,"(281) 201-5559",,,,
TX,MONTGOMERY,179971-21,"Single Family Homes",1/19/2021,,110700,,"40458 RED POPPY LN",HOUSTON,TX,77356,"MILL CREEK ESTATES",,CONTRACTOR,,,,,,,,,,,"DR HORTON",,,,,"DR HORTON","14100 SOUTHWEST",HOUSTON,TX,77478,"(281) 201-5559",,,,
TX,MONTGOMERY,179972-21,"Single Family Homes",1/19/2021,,110700,,"40505 WARIALDA TRACE LN",HOUSTON,TX,77356,"MILL CREEK ESTATES",,CONTRACTOR,,,,,,,,,,,"DR HORTON",,,,,"DR HORTON","14100 SOUTHWEST",HOUSTON,TX,77478,"(281) 201-5559",,,,
TX,MONTGOMERY,179973-21,"Single Family Homes",1/19/2021,,110700,,"40537 WARIALDA TRACE LN",HOUSTON,TX,77356,"MILL CREEK ESTATES",,CONTRACTOR,,,,,,,,,,,"DR HORTON",,,,,"DR HORTON","14100 SOUTHWEST",HOUSTON,TX,77478,"(281) 201-5559",,,,
TX,MONTGOMERY,179974-21,"Single Family Homes",1/19/2021,,110700,,"40557 WARIALDA TRACE LN",HOUSTON,TX,77356,"MILL CREEK ESTATES",,CONTRACTOR,,,,,,,,,,,"DR HORTON",,,,,"DR HORTON","14100 SOUTHWEST",HOUSTON,TX,77478,"(281) 201-5559",,,,
TX,MONTGOMERY,179988-21,"Single Family Homes",1/20/2021,,132975,,"40561 RED POPPY LN",HOUSTON,TX,77356,"MILL CREEK ESTATES",,CONTRACTOR,,,,,,,,,,,"DR HORTON",,,,,"DR HORTON","14100 SOUTHWEST",HOUSTON,TX,77478,"(281) 201-5559",,,,
TX,MONTGOMERY,179989-21,"Single Family Homes",1/20/2021,,132975,,"40533 WARIALDA TRACE LN",HOUSTON,TX,77356,"MILL CREEK ESTATES",,CONTRACTOR,,,,,,,,,,,"DR HORTON",,,,,"DR HORTON","14100 SOUTHWEST",HOUSTON,TX,77478,"(281) 201-5559",,,,
TX,MONTGOMERY,179990-21,"Single Family Homes",1/20/2021,,132975,,"40513 WARIALDA TRACE LN",HOUSTON,TX,77356,"MILL CREEK ESTATES",,CONTRACTOR,,,,,,,,,,,"DR HORTON",,,,,"DR HORTON","14100 SOUTHWEST",HOUSTON,TX,77478,"(281) 201-5559",,,,
TX,MONTGOMERY,179991-21,"Single Family Homes",1/20/2021,,89505,,"40426 RED POPPY LN",HOUSTON,TX,77356,"MILL CREEK ESTATES",,CONTRACTOR,,,,,,,,,,,"DR HORTON",,,,,"DR HORTON","14100 SOUTHWEST",HOUSTON,TX,77478,"(281) 201-5559",,,,
TX,MONTGOMERY,179992-21,"Single Family Homes",1/20/2021,,89505,,"40454 RED POPPY LN",HOUSTON,TX,77356,"MILL CREEK ESTATES",,CONTRACTOR,,,,,,,,,,,"DR HORTON",,,,,"DR HORTON","14100 SOUTHWEST",HOUSTON,TX,77478,"(281) 201-5559",,,,
TX,MONTGOMERY,179993-21,"Single Family Homes",1/20/2021,,89505,,"40466 RED POPPY LN",HOUSTON,TX,77356,"MILL CREEK ESTATES",,CONTRACTOR,,,,,,,,,,,"DR HORTON",,,,,"DR HORTON","14100 SOUTHWEST",HOUSTON,TX,77478,"(281) 201-5559",,,,
TX,MONTGOMERY,179999-21,"Single Family Homes",1/20/2021,,92000,,"9220 INLAND LEATHER LN",HOUSTON,TX,77356,"HARPERS PRESERVE",,CONTRACTOR,,,,,,,,,,,"DR HORTON",,,,,"DR HORTON","14100 SOUTHWEST",HOUSTON,TX,77478,"(281) 201-5559",,,,
TX,MONTGOMERY,180053-21,"Single Family Homes",1/21/2021,,96525,,"40525 WARIALDA TRACE LN",HOUSTON,TX,77356,"MILL CREEK ESTATES",,CONTRACTOR,,,,,,,,,,,"DR HORTON",,,,,"DR HORTON","14100 SOUTHWEST",HOUSTON,TX,77478,"(281) 201-5559",,,,
TX,MONTGOMERY,180054-21,"Single Family Homes",1/21/2021,,96525,,"40553 WARIALDA TRACE LN",HOUSTON,TX,77356,"MILL CREEK ESTATES",,CONTRACTOR,,,,,,,,,,,"DR HORTON",,,,,"DR HORTON","14100 SOUTHWEST",HOUSTON,TX,77478,"(281) 201-5559",,,,
TX,MONTGOMERY,180056-21,"Single Family Homes",1/21/2021,,96525,,"40434 RED POPPY LN",HOUSTON,TX,77356,"MILL CREEK ESTATES",,CONTRACTOR,,,,,,,,,,,"DR HORTON",,,,,"DR HORTON","14100 SOUTHWEST",HOUSTON,TX,77478,"(281) 201-5559",,,,
TX,MONTGOMERY,180057-21,"Single Family Homes",1/21/2021,,96525,,"40406 RED POPPY LN",HOUSTON,TX,77356,"MILL CREEK ESTATES",,CONTRACTOR,,,,,,,,,,,"DR HORTON",,,,,"DR HORTON","14100 SOUTHWEST",HOUSTON,TX,77478,"(281) 201-5559",,,,
TX,MONTGOMERY,180058-21,"Single Family Homes",1/21/2021,,107460,,"40545 WARIALDA TRACE LN",HOUSTON,TX,77356,"MILL CREEK ESTATES",,CONTRACTOR,,,,,,,,,,,"DR HORTON",,,,,"DR HORTON","14100 SOUTHWEST",HOUSTON,TX,77478,"(281) 201-5559",,,,
TX,MONTGOMERY,180059-21,"Single Family Homes",1/21/2021,,107460,,"40446 RED POPPY LN",HOUSTON,TX,77356,"MILL CREEK ESTATES",,CONTRACTOR,,,,,,,,,,,"DR HORTON",,,,,"DR HORTON","14100 SOUTHWEST",HOUSTON,TX,77478,"(281) 201-5559",,,,
TX,MONTGOMERY,180060-21,"Single Family Homes",1/21/2021,,107460,,"40418 RED POPPY LN",HOUSTON,TX,77356,"MILL CREEK ESTATES",,CONTRACTOR,,,,,,,,,,,"DR HORTON",,,,,"DR HORTON","14100 SOUTHWEST",HOUSTON,TX,77478,"(281) 201-5559",,,,
TX,MONTGOMERY,180061-21,"Single Family Homes",1/21/2021,,132885,,"40470 RED POPPY LN",HOUSTON,TX,77356,"MILL CREEK ESTATES",,CONTRACTOR,,,,,,,,,,,"DR HORTON",,,,,"DR HORTON","14100 SOUTHWEST",HOUSTON,TX,77478,"(281) 201-5559",,,,
TX,MONTGOMERY,180062-21,"Single Family Homes",1/21/2021,,132885,,"40442 RED POPPY LN",HOUSTON,TX,77356,"MILL CREEK ESTATES",,CONTRACTOR,,,,,,,,,,,"DR HORTON",,,,,"DR HORTON","14100 SOUTHWEST",HOUSTON,TX,77478,"(281) 201-5559",,,,
TX,MONTGOMERY,180063-21,"Single Family Homes",1/21/2021,,132885,,"40414 RED POPPY LN",HOUSTON,TX,77356,"MILL CREEK ESTATES",,CONTRACTOR,,,,,,,,,,,"DR HORTON",,,,,"DR HORTON","14100 SOUTHWEST",HOUSTON,TX,77478,"(281) 201-5559",,,,
TX,MONTGOMERY,180018-21,"Single Family Homes",1/20/2021,,635990,,"212 EAST SHORE DR",HOUSTON,TX,77356,"LAKE WOODLANDS EAST SHORE",,CONTRACTOR,,,,,,,,,,,"DAVID WEEKLEY HOMES",,,,,"DAVID WEEKLEY HOMES","14444 NORTHWEST",HOUSTON,TX,77040,"(713) 570-5021",http://www.davidweekleyhomes.com/,,,
TX,MONTGOMERY,180020-21,"Single Family Homes",1/20/2021,,727990,,"124 EAST SHELL PORT SQUARE",HOUSTON,TX,77356,"LAKE WOODLANDS EAST SHORE",,CONTRACTOR,,,,,,,,,,,"DAVID WEEKLEY HOMES",,,,,"DAVID WEEKLEY HOMES","14444 NORTHWEST",HOUSTON,TX,77040,"(713) 570-5021",http://www.davidweekleyhomes.com/,,,
TX,MONTGOMERY,"180101 21","Single Family Homes",1/22/2021,,245250,,"10615 RED TAIL PLACE",HOUSTON,TX,77356,"HARPERS PRESERVE",,CONTRACTOR,,,,,,,,,,,"EHT OF TEXAS LP",,,,,"EHT OF TEXAS LP","10235 LITTLE",HOUSTON,TX,77040,"(713) 557-3685",,,,
TX,MONTGOMERY,180103-21,"Single Family Homes",1/22/2021,,244980,,"10628 RED TAIL PLACE",HOUSTON,TX,77356,"HARPERS PRESERVE",,CONTRACTOR,,,,,,,,,,,"EHT OF TEXAS LP",,,,,"EHT OF TEXAS LP","10235 LITTLE",HOUSTON,TX,77040,"(713) 557-3685",,,,
TX,MONTGOMERY,179994-21,"Single Family Homes",1/20/2021,,200000,,"23810 NORTH LAKE VIEW ROAD",HOUSTON,TX,77356,"TRI LAKES ESTATES",,CONTRACTOR,,,,,,,,,,,"FARMHOUSE EFFECTS",,,,,"FARMHOUSE EFFECTS","4419 SPRING BRANCH ROAD",MONTGOMERY,TX,77356,"(832) 687-3002",,,,
TX,MONTGOMERY,180069-21,"Single Family Homes",1/21/2021,,300000,,"14480 CEDAR LANE LOOP",HOUSTON,TX,77356,"CEDAR HILL",,"MATTHEW & RACHAEL FRAZIER ","PO BOX 1589",WILLIS,TX,77378,,Owner,,,,,OWNER,,,,,OWNER,,,,,,,,,
TX,MONTGOMERY,180070-21,"Single Family Homes",1/21/2021,,270000,,"322 HIDDEN BEND CT",HOUSTON,TX,77356,"MAGNOLIA RESERVE",,CONTRACTOR,,,,,,,,,,,"GRACEPOINT HOMES",,,,,"GRACEPOINT HOMES","33300 EGYPT LN STE 100",MAGNOLIA,TX,77354-2739,"(281) 681-0400",http://www.gracepointhomes.com/,"(281) 681-0402",,Info@gracepointhomes.com
TX,MONTGOMERY,180072-21,"Single Family Homes",1/21/2021,,272000,,"21226 HIDDEN BEND LOOP",HOUSTON,TX,77356,"MAGNOLIA RESERVE",,CONTRACTOR,,,,,,,,,,,"GRACEPOINT HOMES",,,,,"GRACEPOINT HOMES","33300 EGYPT LN STE 100",MAGNOLIA,TX,77354-2739,"(281) 681-0400",http://www.gracepointhomes.com/,"(281) 681-0402",,Info@gracepointhomes.com
TX,MONTGOMERY,180073-21,"Single Family Homes",1/21/2021,,275000,,"323 HIDDEN BEND CT",HOUSTON,TX,77356,"MAGNOLIA RESERVE",,CONTRACTOR,,,,,,,,,,,"GRACEPOINT HOMES",,,,,"GRACEPOINT HOMES","33300 EGYPT LN STE 100",MAGNOLIA,TX,77354-2739,"(281) 681-0400",http://www.gracepointhomes.com/,"(281) 681-0402",,Info@gracepointhomes.com
TX,MONTGOMERY,180074-21,"Single Family Homes",1/21/2021,,275000,,"214 OLD PINES ROAD",HOUSTON,TX,77356,"MAGNOLIA RESERVE",,CONTRACTOR,,,,,,,,,,,"GRACEPOINT HOMES",,,,,"GRACEPOINT HOMES","33300 EGYPT LN STE 100",MAGNOLIA,TX,77354-2739,"(281) 681-0400",http://www.gracepointhomes.com/,"(281) 681-0402",,Info@gracepointhomes.com
TX,MONTGOMERY,180075-21,"Single Family Homes",1/21/2021,,275000,,"325 TREATY OAK CT",HOUSTON,TX,77356,"MAGNOLIA RESERVE",,CONTRACTOR,,,,,,,,,,,"GRACEPOINT HOMES",,,,,"GRACEPOINT HOMES","33300 EGYPT LN STE 100",MAGNOLIA,TX,77354-2739,"(281) 681-0400",http://www.gracepointhomes.com/,"(281) 681-0402",,Info@gracepointhomes.com
TX,MONTGOMERY,180036-21,"Single Family Homes",1/20/2021,,350000,,"16567 HUNTERS TR",HOUSTON,TX,77356,,,"TIM GREGORY ","20821 DEVA ST STE 166",MONTGOMERY,TX,77356,,Owner,,,,,OWNER,,,,,OWNER,,,,,,,,,
TX,MONTGOMERY,180008-21,"Single Family Homes",1/20/2021,,1050000,,"7145 MORNINGBROOK DR",HOUSTON,TX,77356,"HIGH MEADOW ESTATES",,CONTRACTOR,,,,,,,,,,,"HEARTWOOD CUSTOM HOMES",,,,,"HEARTWOOD CUSTOM HOMES","18 STONY CREEK DR",CONROE,TX,77384-3156,"(936) 273-1122",http://heartwoodcustomhomes.com,"(936) 273-9359",,
TX,MONTGOMERY,180002-21,"Single Family Homes",1/20/2021,,1180000,,"29318 POST OAK RUN",HOUSTON,TX,77356,"HIGH MEADOW RANCH",,CONTRACTOR,,,,,,,,,,,"HEARTWOOD CUSTOM HOMES",,,,,"HEARTWOOD CUSTOM HOMES","18 STONY CREEK DR",CONROE,TX,77384-3156,"(936) 273-1122",http://heartwoodcustomhomes.com,"(936) 273-9359",,
TX,MONTGOMERY,180010-21,"Single Family Homes",1/20/2021,,1080000,,"23457 CANNONDALE LOOP",HOUSTON,TX,77356,"HIGH MEADOW ESTATES",,CONTRACTOR,,,,,,,,,,,"HEARTWOOD CUSTOM HOMES",,,,,"HEARTWOOD CUSTOM HOMES","18 STONY CREEK DR",CONROE,TX,77384-3156,"(936) 273-1122",http://heartwoodcustomhomes.com,"(936) 273-9359",,
TX,MONTGOMERY,180126-21,"Single Family Homes",1/22/2021,,188700,,"16208 FAYETTE ST",HOUSTON,TX,77356,"DEER PINES",,CONTRACTOR,,,,,,,,,,,"KENDALL HOMES",,,,,"KENDALL HOMES","427 MASON PARK BLVD",KATY,TX,77450-6187,"(281) 398-4010",http://www.kendallhomes.net/,"(281) 398-4011",,
TX,MONTGOMERY,180129-21,"Single Family Homes",1/22/2021,,192420,,"16143 HIDALGO ST",HOUSTON,TX,77356,"DEER PINES",,CONTRACTOR,,,,,,,,,,,"KENDALL HOMES",,,,,"KENDALL HOMES","427 MASON PARK BLVD",KATY,TX,77450-6187,"(281) 398-4010",http://www.kendallhomes.net/,"(281) 398-4011",,
TX,MONTGOMERY,180135-21,"Single Family Homes",1/22/2021,,237600,,"16069 DEER PINES DR",HOUSTON,TX,77356,"DEER PINES",,CONTRACTOR,,,,,,,,,,,"KENDALL HOMES",,,,,"KENDALL HOMES","427 MASON PARK BLVD",KATY,TX,77450-6187,"(281) 398-4010",http://www.kendallhomes.net/,"(281) 398-4011",,
TX,MONTGOMERY,180145-21,"Single Family Homes",1/22/2021,,193740,,"16252 FAYETTE ST",HOUSTON,TX,77356,"DEER PINES",,CONTRACTOR,,,,,,,,,,,"KENDALL HOMES",,,,,"KENDALL HOMES","427 MASON PARK BLVD",KATY,TX,77450-6187,"(281) 398-4010",http://www.kendallhomes.net/,"(281) 398-4011",,
TX,MONTGOMERY,180102-21,"Single Family Homes",1/22/2021,,500000,,"10631 CUDE CEMETARY ROAD",HOUSTON,TX,77356,,,"BRENT LANDRY","7805 NIKIS CROSSING",CONROE,TX,77304,,Owner,,,,,OWNER,,,,,OWNER,,,,,,,,,
TX,MONTGOMERY,180081-21,"Single Family Homes",1/21/2021,,150000,,"22254 PORTER MOUNTAIN TR",HOUSTON,TX,77356,"BROOKLYN TRAILS",,CONTRACTOR,,,,,,,,,,,"LEGEND HOMES",,,,,"LEGEND HOMES","10410 WINDAMERE LAKES BLVD",HOUSTON,TX,77065-4996,"(281) 671-9060",http://legendhomecorp.com/,"(281) 671-9055",,
TX,MONTGOMERY,180082-21,"Single Family Homes",1/21/2021,,164000,,"22206 PORTER MOUNTAIN TR",HOUSTON,TX,77356,"BROOKLYN TRAILS",,CONTRACTOR,,,,,,,,,,,"LEGEND HOMES",,,,,"LEGEND HOMES","10410 WINDAMERE LAKES BLVD",HOUSTON,TX,77065-4996,"(281) 671-9060",http://legendhomecorp.com/,"(281) 671-9055",,
TX,MONTGOMERY,180083-21,"Single Family Homes",1/21/2021,,150000,,"2223 0 PORTER MOUNTAIN TR",HOUSTON,TX,77356,"BROOKLYN TRAILS",,CONTRACTOR,,,,,,,,,,,"LEGEND HOMES",,,,,"LEGEND HOMES","10410 WINDAMERE LAKES BLVD",HOUSTON,TX,77065-4996,"(281) 671-9060",http://legendhomecorp.com/,"(281) 671-9055",,
TX,HARRIS,21001,"Single Family Homes",1/14/2021,,148000,,"27 CMDR RUNCO","TAYLOR LAKE VILLAGE",TX,77586,,,CONTRACTOR,,,,,,,,,,,"T&W BUILDERS",,,,,"T&W BUILDERS","401 STUDEWOOD",HOUSTON,TX,77007,"(281) 773-2001",,,,
TX,GALVESTON,35310-21,"Single Family Homes",1/26/2021,,83902,,"12902 VACEK",HOUSTON,TX,77450,,,"DARREN & ASHLEY WALKER","225 SHOSHONE RIDGE","LA MARQUE",TX,77568,,Owner,,,,,"CONTENDER CONSTRUCTION",,,,,"CONTENDER CONSTRUCTION"," 1221 FARM TO MARKET 646 ROAD NORTH",DICKINSON,TX,77539,"(409) 925-3491",,,,
TX,GALVESTON,35307-21,"Single Family Homes",1/26/2021,,124080,,"7907 CAROLYN",HOUSTON,TX,77356,,,"ZACHARY HOUSE","318 DOGWOOD AVE",DICKINSON,TX,77539,,Owner,,,,,"BUILD BY OWNER",,,,,"BUILD BY OWNER","8214 FM 517 RD W",DICKINSON,TX,77539-8756,"(281) 331-3347",http://www.buildbyowner.com/,"(281) 301-7747",,sales@buildbyowner.net
TX,GALVESTON,35282-21,"Single Family Homes",1/21/2021,,90545,,"14514 BROKEN ARROW",HOUSTON,TX,77356,,,"STEVEN & KIRSTIN SHERRELL","603 TRAIL SPRINGS CT",KINGWOOD,TX,77339,"(713) 302-4349",Owner,,,,,"AMERICAS HOME PLACE",,,,,"AMERICAS HOME PLACE","1200 N BYPASS 35 STE 8100",ALVIN,TX,77511,"(409) 762-9000",https://www.americashomeplace.com/,,,
TX,GALVESTON,35286-21,"Single Family Homes",1/21/2021,,104077,,"7219 AVE E",HOUSTON,TX,77450,,,"ERIC & PATRICIA BUTLER","940 AMERICAN MONARCH OR","LA MARQUE",TX,77568,,Owner,,,,,"CONTENDER CONSTRUCTION",,,,,"CONTENDER CONSTRUCTION"," 1221 FARM TO MARKET 646 ROAD NORTH",DICKINSON,TX,77539,"(409) 925-3491",,,,
TX,GALVESTON,35269-21,"Single Family Homes",1/15/2021,,69407,,"1987 AVE I",HOUSTON,TX,77356,,,"TED SHOOK","127 ISLAND PASSAGE",GALVESTON,TX,77554,,Owner,,,,,OWNER,,,,,OWNER,,,,,,,,,
TX,GALVESTON,35278-21,"Single Family Homes",1/15/2021,,54537,,"968 SURF",HOUSTON,TX,77356,,,"KARL HUCKABY","PO BOX 806",NEDERLAND,TX,77627,,Owner,,,,,OWNER,,,,,OWNER,,,,,,,,,
TX,BRAZORIA,5364,"Single Family Homes",1/7/2021,,519420,4538,"31410 BAYOU BEND",RICHWOOD,TX,77515,,,CONTRACTOR,,,,,,,,,,,"BALLARD BUILDERS",,,,,"BALLARD BUILDERS","1962 CR 220",ANGLETON,TX,77515,"(979) 849-2552",http://www.ballardhomebuilders.com/,,,mail@ballardhomebuilders.com
TX,GALVESTON,35280-21,"Single Family Homes",1/15/2021,,65400,,"860 SELWYN",HOUSTON,TX,77356,,,"PAUL & GINA CIOLLI","860 SELWYN",HOUSTON,TX,77356,,Owner,,,,,OWNER,,,,,OWNER,,,,,,,,,
TX,GALVESTON,35238-21,"Single Family Homes",1/8/2021,,57787,,"911 SEADRIFT",HOUSTON,TX,77356,,,"JOHN & DIANNE FLOWERS","7131 SUSHWY 59",DIBOLLI,TX,75941,,Owner,,,,,OWNER,,,,,OWNER,,,,,,,,,
TX,GALVESTON,35242-21,"Single Family Homes",1/8/2021,,73637,,"2023 FLAMINGO",HOUSTON,TX,77356,,,"MARK & MELISSA HANEY","2023 FLAMINGO",HOUSTON,TX,77356,,Owner,,,,,OWNER,,,,,OWNER,,,,,,,,,
TX,GALVESTON,35244-21,"Single Family Homes",1/8/2021,,54000,,"940 S MONKHOUSE",HOUSTON,TX,77356,,,"KENNETH & SANDY HARTMAN","940 S MONKHOUSE",HOUSTON,TX,77356,,Owner,,,,,OWNER,,,,,OWNER,,,,,,,,,
TX,GALVESTON,34016-20,"Single Family Homes",1/8/2021,,50657,,"723 12TH ST",HOUSTON,TX,77356,,,"EDITH MIRANDA","72512TH ST","SAN LEON",TX,77539,,Owner,,,,,OWNER,,,,,OWNER,,,,,,,,,
TX,GALVESTON,35218-21,"Single Family Homes",1/6/2021,,71875,,"973 PALMETIO",HOUSTON,TX,77356,,,"RAS VITULLI","973 PALMETIO",HOUSTON,TX,77356,"(214) 914-5140",Owner,,,,,OWNER,,,,,OWNER,,,,,,,,,
TX,MONTGOMERY,AP-21-00262,"Single Family Homes",1/20/2021,,,2189,"39 SAWBRIDGE CIR","THE WOODLANDS",TX,77386,"CREEKSIDE PARK",7,"ERIC JAMES PARK","39 SAWBRIDGE CIR","THE WOODLANDS",TX,77386,,Owner,,,,,OWNER,,,,,OWNER,,,,,,,,,
TX,MONTGOMERY,21-0023,"Single Family Homes",1/27/2021,,101855,,"194 S MILL ST",WILLIS,TX,77318,,,CONTRACTOR,,,,,,,,,,,"M7 LAND DEVELOPMENT",,,,,"M7 LAND DEVELOPMENT","1314 TENTH STREET",HUNTSVILLE,TX,77320,"(936) 439-6450",https://www.m7landdevelopment.com/,,,
TX,GALVESTON,2020-4342,"Single Family Homes",1/5/2021,,179683,,"2505 AUSTIN TR",FRIENDSWOOD,TX,77546,,,CONTRACTOR,,,,,,,,,,,"DR HORTON",,,,,"DR HORTON","14100 SOUTHWEST",HOUSTON,TX,77478,"(281) 201-5559",,,,
TX,GALVESTON,2020-4435,"Single Family Homes",1/7/2021,,166186,,"2568 RAVENNA CT",FRIENDSWOOD,TX,77546,,,CONTRACTOR,,,,,,,,,,,"DR HORTON",,,,,"DR HORTON","14100 SOUTHWEST",HOUSTON,TX,77478,"(281) 201-5559",,,,
TX,GALVESTON,2020-4436,"Single Family Homes",1/6/2021,,154701,,"2547 RAVENNA CT",FRIENDSWOOD,TX,77546,,,CONTRACTOR,,,,,,,,,,,"DR HORTON",,,,,"DR HORTON","14100 SOUTHWEST",HOUSTON,TX,77478,"(281) 201-5559",,,,
TX,GALVESTON,2020-4439,"Single Family Homes",1/6/2021,,216059,,"2555 RAVENNA CT",FRIENDSWOOD,TX,77546,,,CONTRACTOR,,,,,,,,,,,"DR HORTON",,,,,"DR HORTON","14100 SOUTHWEST",HOUSTON,TX,77478,"(281) 201-5559",,,,
TX,GALVESTON,2020-4443,"Single Family Homes",1/5/2021,,180837,,"2543 RAVENNA CT",FRIENDSWOOD,TX,77546,,,CONTRACTOR,,,,,,,,,,,"DR HORTON",,,,,"DR HORTON","14100 SOUTHWEST",HOUSTON,TX,77478,"(281) 201-5559",,,,
TX,GALVESTON,2021-0084,"Single Family Homes",1/12/2021,,125000,,"1574 MUSTANG TR",FRIENDSWOOD,TX,77546,,,CONTRACTOR,,,,,,,,,,,"DR HORTON",,,,,"DR HORTON","14100 SOUTHWEST",HOUSTON,TX,77478,"(281) 201-5559",,,,
TX,GALVESTON,2021-0121,"Single Family Homes",1/19/2021,,350000,,"2036 YELLOWSTONE TRAIL",FRIENDSWOOD,TX,77546,,,CONTRACTOR,,,,,,,,,,,"STERLING BUILDERS",,,,,"STERLING BUILDERS","1506 WINDING WAY DR STE 301",FRIENDSWOOD,TX,77546-5391,"(281) 482-3034",http://sterling-builders.com/,"(281) 996-8087",,
TX,GALVESTON,2021-0135,"Single Family Homes",1/21/2021,,165851,,"2500 RAVENNA CT",FRIENDSWOOD,TX,77546,,,CONTRACTOR,,,,,,,,,,,"DR HORTON",,,,,"DR HORTON","14100 SOUTHWEST",HOUSTON,TX,77478,"(281) 201-5559",,,,
TX,GALVESTON,2021-0146,"Single Family Homes",1/20/2021,,375000,,"2012 YELLOWSTONE TRAIL",FRIENDSWOOD,TX,77546,,,CONTRACTOR,,,,,,,,,,,"STERLING BUILDERS",,,,,"STERLING BUILDERS","1506 WINDING WAY DR STE 301",FRIENDSWOOD,TX,77546-5391,"(281) 482-3034",http://sterling-builders.com/,"(281) 996-8087",,
TX,GALVESTON,2021-0216,"Single Family Homes",1/27/2021,,350000,,"2005 YELLOWSTONE TR",FRIENDSWOOD,TX,77546,,,CONTRACTOR,,,,,,,,,,,"STERLING BUILDERS",,,,,"STERLING BUILDERS","1506 WINDING WAY DR STE 301",FRIENDSWOOD,TX,77546-5391,"(281) 482-3034",http://sterling-builders.com/,"(281) 996-8087",,
TX,MONTGOMERY,BR-20-013660,"Single Family Homes",1/22/2021,,170640,4003,"12249 SEAGRAPE LN",CONROE,TX,77303,,,CONTRACTOR,,,,,,,,,,,"DR HORTON",,,,,"DR HORTON","14100 SOUTHWEST",HOUSTON,TX,77478,"(281) 201-5559",,,,
TX,MONTGOMERY,BR-20-013986,"Single Family Homes",1/15/2021,,122535,2723,"12113 BLACK SAGE CT ",CONROE,TX,77303,,,CONTRACTOR,,,,,,,,,,,"DR HORTON",,,,,"DR HORTON","14100 SOUTHWEST",HOUSTON,TX,77478,"(281) 201-5559",,,,
TX,MONTGOMERY,BR-20-014427,"Single Family Homes",1/15/2021,,,2712,"12141 BLACK SAGE CT",CONROE,TX,77303,,,CONTRACTOR,,,,,,,,,,,"DR HORTON",,,,,"DR HORTON","14100 SOUTHWEST",HOUSTON,TX,77478,"(281) 201-5559",,,,
TX,MONTGOMERY,BR-20-014427,"Single Family Homes",1/15/2021,,,2712,"12142 BLACK SAGE CT",CONROE,TX,77303,,,CONTRACTOR,,,,,,,,,,,"DR HORTON",,,,,"DR HORTON","14100 SOUTHWEST",HOUSTON,TX,77478,"(281) 201-5559",,,,
TX,MONTGOMERY,BR-20-014494,"Single Family Homes",1/15/2021,,121455,2699,"12109 BLACK SAGE CT",CONROE,TX,77303,,,CONTRACTOR,,,,,,,,,,,"DR HORTON",,,,,"DR HORTON","14100 SOUTHWEST",HOUSTON,TX,77478,"(281) 201-5559",,,,
TX,MONTGOMERY,BR-20-014500,"Single Family Homes",1/15/2021,,121455,2699,"12145 BLACK SAGE CT",CONROE,TX,77303,,,CONTRACTOR,,,,,,,,,,,"DR HORTON",,,,,"DR HORTON","14100 SOUTHWEST",HOUSTON,TX,77478,"(281) 201-5559",,,,
TX,MONTGOMERY,BR-20-014502,"Single Family Homes",1/22/2021,,121455,2699,"12134 BLACK SAGE CT",CONROE,TX,77303,,,CONTRACTOR,,,,,,,,,,,"DR HORTON",,,,,"DR HORTON","14100 SOUTHWEST",HOUSTON,TX,77478,"(281) 201-5559",,,,
TX,MONTGOMERY,BR-20-014943,"Single Family Homes",1/22/2021,,,2114,"12153 BLACK SAGE CT",CONROE,TX,77303,,,CONTRACTOR,,,,,,,,,,,"DR HORTON",,,,,"DR HORTON","14100 SOUTHWEST",HOUSTON,TX,77478,"(281) 201-5559",,,,
TX,MONTGOMERY,BR-20-014949,"Single Family Homes",1/15/2021,,130050,2290,"12125 BLACK SAGE CT",CONROE,TX,77303,,,CONTRACTOR,,,,,,,,,,,"DR HORTON",,,,,"DR HORTON","14100 SOUTHWEST",HOUSTON,TX,77478,"(281) 201-5559",,,,
TX,MONTGOMERY,BR-20-014952,"Single Family Homes",1/15/2021,,103050,2291,"12150 BLACK SAGE CT",CONROE,TX,77303,,,CONTRACTOR,,,,,,,,,,,"DR HORTON",,,,,"DR HORTON","14100 SOUTHWEST",HOUSTON,TX,77478,"(281) 201-5559",,,,
TX,MONTGOMERY,BR-20-015091,"Single Family Homes",1/22/2021,,103050,2291,"12130 BLACK SAGE CT",CONROE,TX,77303,,,CONTRACTOR,,,,,,,,,,,"DR HORTON",,,,,"DR HORTON","14100 SOUTHWEST",HOUSTON,TX,77478,"(281) 201-5559",,,,
TX,MONTGOMERY,BR-20-015130,"Single Family Homes",1/15/2021,,107550,2388,"12133 BLACK SAGE CT",CONROE,TX,77303,,,CONTRACTOR,,,,,,,,,,,"DR HORTON",,,,,"DR HORTON","14100 SOUTHWEST",HOUSTON,TX,77478,"(281) 201-5559",,,,
TX,MONTGOMERY,BR-20-015138,"Single Family Homes",1/15/2021,,107550,2388,"12149 BLACK SAGE CT",CONROE,TX,77303,,,CONTRACTOR,,,,,,,,,,,"DR HORTON",,,,,"DR HORTON","14100 SOUTHWEST",HOUSTON,TX,77478,"(281) 201-5559",,,,
TX,MONTGOMERY,BR-20-015393,"Single Family Homes",1/22/2021,,107550,2388,"12138 BLACK SAGE CT",CONROE,TX,77303,,,CONTRACTOR,,,,,,,,,,,"DR HORTON",,,,,"DR HORTON","14100 SOUTHWEST",HOUSTON,TX,77478,"(281) 201-5559",,,,
TX,MONTGOMERY,BR-20-015395,"Single Family Homes",1/22/2021,,107550,2388,"12126 BLACK SAGE CT",CONROE,TX,77303,,,CONTRACTOR,,,,,,,,,,,"DR HORTON",,,,,"DR HORTON","14100 SOUTHWEST",HOUSTON,TX,77478,"(281) 201-5559",,,,
TX,MONTGOMERY,BR-20-015401,"Single Family Homes",1/15/2021,,112545,2501,"12117 BLACK SAGE CT   ",CONROE,TX,77303,,,CONTRACTOR,,,,,,,,,,,"DR HORTON",,,,,"DR HORTON","14100 SOUTHWEST",HOUSTON,TX,77478,"(281) 201-5559",,,,
TX,MONTGOMERY,BR-20-015426,"Single Family Homes",1/15/2021,,112545,2501,"12137 BLACK SAGE CT   ",CONROE,TX,77303,,,CONTRACTOR,,,,,,,,,,,"DR HORTON",,,,,"DR HORTON","14100 SOUTHWEST",HOUSTON,TX,77478,"(281) 201-5559",,,,
TX,MONTGOMERY,BR-20-015431,"Single Family Homes",1/15/2021,,112545,2501,"12146 BLACK SAGE CT   ",CONROE,TX,77303,,,CONTRACTOR,,,,,,,,,,,"DR HORTON",,,,,"DR HORTON","14100 SOUTHWEST",HOUSTON,TX,77478,"(281) 201-5559",,,,
TX,MONTGOMERY,BR-20-015445,"Single Family Homes",1/15/2021,,125640,2763,"12121 BLACK SAGE CT",CONROE,TX,77303,,,CONTRACTOR,,,,,,,,,,,"DR HORTON",,,,,"DR HORTON","14100 SOUTHWEST",HOUSTON,TX,77478,"(281) 201-5559",,,,
TX,MONTGOMERY,BR-20-015451,"Single Family Homes",1/15/2021,,132885,2954,"12129 BLACK SAGE CT ",CONROE,TX,77303,,,CONTRACTOR,,,,,,,,,,,"DR HORTON",,,,,"DR HORTON","14100 SOUTHWEST",HOUSTON,TX,77478,"(281) 201-5559",,,,
TX,MONTGOMERY,BR-20-015454,"Single Family Homes",1/28/2021,,178605,3969,"6042 LEEWARD ISLAND DR  ",CONROE,TX,77303,,,CONTRACTOR,,,,,,,,,,,"DR HORTON",,,,,"DR HORTON","14100 SOUTHWEST",HOUSTON,TX,77478,"(281) 201-5559",,,,
TX,MONTGOMERY,BR-20-015500,"Single Family Homes",1/27/2021,,200000,2964,"562 CHESTNUT REEF CT",CONROE,TX,77303,,,CONTRACTOR,,,,,,,,,,,"HIGHLAND HOMES",,,,,"HIGHLAND HOMES","10930 W SAM HOUSTON PKWY N STE 100",HOUSTON,TX,77064-6331,"(281) 517-9800",,,,
TX,MONTGOMERY,BR-20-015525,"Single Family Homes",1/4/2021,,70000,1272,"706 S RIVER RD",CONROE,TX,77303,,,CONTRACTOR,,,,,,,,,,,"ALL SERVICES GROUP",,,,,"ALL SERVICES GROUP","2257 N LOOP 336 W STE 140-370",CONROE,TX,77304-3566,"(888) 991-0005",,,,
TX,MONTGOMERY,BR-20-015640,"Single Family Homes",1/29/2021,,178147,3272,"2703 HOFFMAN CT",CONROE,TX,77304,,,CONTRACTOR,,,,,,,,,,,"LEGEND HOMES",,,,,"LEGEND HOMES","10410 WINDAMERE LAKES BLVD",HOUSTON,TX,77065-4996,"(281) 671-9060",http://legendhomecorp.com/,"(281) 671-9055",,
TX,MONTGOMERY,BR-20-015751,"Single Family Homes",1/4/2021,,70000,2934,"3309 EXPLORER WAY ",CONROE,TX,77303,,,CONTRACTOR,,,,,,,,,,,"ASGI HOMES",,,,,"ASGI HOMES","2257 N LOOP 336 W STE 140-370",CONROE,TX,77304-3566,"(888) 991-0005",http://www.asgihomes.com,,,
TX,MONTGOMERY,BR-20-015755,"Single Family Homes",1/4/2021,,70000,2934,"3311 PASSAGE LN",CONROE,TX,77303,,,"ZAK CAPITAL LLC","3311 PASSAGE LN",CONROE,TX,77303,,Owner,,,,,"ALL SERVICES GROUP",,,,,"ALL SERVICES GROUP","2257 N LOOP 336 W STE 140-370",CONROE,TX,77304-3566,"(888) 991-0005",,,,
TX,MONTGOMERY,BR-20-015850,"Single Family Homes",1/8/2021,,163000,2577,"2807 AUGUST MIST LN",CONROE,TX,77303,,,CONTRACTOR,,,,,,,,,,,"LEGEND HOMES",,,,,"LEGEND HOMES","10410 WINDAMERE LAKES BLVD",HOUSTON,TX,77065-4996,"(281) 671-9060",http://legendhomecorp.com/,"(281) 671-9055",,
TX,MONTGOMERY,BR-20-015857,"Single Family Homes",1/8/2021,,163484,2631,"2920 KARIN CREST LN",CONROE,TX,77303,,,CONTRACTOR,,,,,,,,,,,"LEGEND HOMES",,,,,"LEGEND HOMES","10410 WINDAMERE LAKES BLVD",HOUSTON,TX,77065-4996,"(281) 671-9060",http://legendhomecorp.com/,"(281) 671-9055",,
TX,MONTGOMERY,BR-20-015861,"Single Family Homes",1/8/2021,,163484,2631,"4430 EVESLAGE LN",CONROE,TX,77303,,,"MADISON BEND","4430 EVESLAGE LN",CONROE,TX,77303,,Owner,,,,,"LEGEND HOMES",,,,,"LEGEND HOMES","10410 WINDAMERE LAKES BLVD",HOUSTON,TX,77065-4996,"(281) 671-9060",http://legendhomecorp.com/,"(281) 671-9055",,
TX,MONTGOMERY,BR-20-015865,"Single Family Homes",1/8/2021,,150139,2161,"4438 EVESLAGE LN ",CONROE,TX,77303,,,CONTRACTOR,,,,,,,,,,,"LEGEND CLASSIC HOMES",,,,,"LEGEND CLASSIC HOMES","6634 BEESTON HILL DR",KATY,TX,77449-0195,"(281) 463-9950",http://legendhomeshouston.com/,,,
TX,MONTGOMERY,BR-20-015868,"Single Family Homes",1/8/2021,,150139,2075,"4446 EVESLAGE LN",CONROE,TX,77303,,,CONTRACTOR,,,,,,,,,,,"LEGEND CLASSIC HOMES",,,,,"LEGEND CLASSIC HOMES","6634 BEESTON HILL DR",KATY,TX,77449-0195,"(281) 463-9950",http://legendhomeshouston.com/,,,
TX,MONTGOMERY,BR-20-015917,"Single Family Homes",1/8/2021,,178147,3364,"4515 STEPHANIE PARK CT ",CONROE,TX,77303,,,"MADISON BEND","4515 STEPHANIE PARK CT ",CONROE,TX,77303,,Owner,,,,,"LEGEND HOMES",,,,,"LEGEND HOMES","10410 WINDAMERE LAKES BLVD",HOUSTON,TX,77065-4996,"(281) 671-9060",http://legendhomecorp.com/,"(281) 671-9055",,
TX,MONTGOMERY,BR-20-016000,"Single Family Homes",1/5/2021,,1800000,1974,"410 PIMMIT HILL RUN",CONROE,TX,77303,,,CONTRACTOR,,,,,,,,,,,"HONEA EGYPT VENTURE",,,,,"HONEA EGYPT VENTURE","5750 W DAVIS ST",CONROE,TX,77304-4862,"(936) 539-5155",,,,
TX,MONTGOMERY,BR-20-016076,"Single Family Homes",1/5/2021,,200000,2315,"412 PIMMIT HILL RUN",CONROE,TX,77303,,,CONTRACTOR,,,,,,,,,,,"HONEA EGYPT VENTURE",,,,,"HONEA EGYPT VENTURE","5750 W DAVIS ST",CONROE,TX,77304-4862,"(936) 539-5155",,,,
TX,MONTGOMERY,BR-20-016117,"Single Family Homes",1/15/2021,,200000,2994,"559 CHESTNUT REEF CT",CONROE,TX,77304,,,CONTRACTOR,,,,,,,,,,,"HIGHLAND HOMES",,,,,"HIGHLAND HOMES","10930 W SAM HOUSTON PKWY N STE 100",HOUSTON,TX,77064-6331,"(281) 517-9800",,,,
TX,MONTGOMERY,BR-20-016279,"Single Family Homes",1/11/2021,,179550,3969,"6006 CLIMBING BRENDAN CIR",CONROE,TX,77303,,,CONTRACTOR,,,,,,,,,,,"DR HORTON",,,,,"DR HORTON","14100 SOUTHWEST",HOUSTON,TX,77478,"(281) 201-5559",,,,
TX,MONTGOMERY,BR-20-016353,"Single Family Homes",1/12/2021,,300000,3529,"2213 GADWALL CT",CONROE,TX,77304,,,CONTRACTOR,,,,,,,,,,,"MERITAGE HOMES",,,,,"MERITAGE HOMES","2901 W SAM HOUSTON PKWY N",HOUSTON,TX,77043-1630,"(713) 357-1184",,,,
TX,MONTGOMERY,BR-20-016375,"Single Family Homes",1/6/2021,,300000,3648,"2007 WOODLAND PRAIRIE DR",CONROE,TX,77303,,,CONTRACTOR,,,,,,,,,,,"MERITAGE HOMES",,,,,"MERITAGE HOMES","2901 W SAM HOUSTON PKWY N",HOUSTON,TX,77043-1630,"(713) 357-1184",,,,
TX,MONTGOMERY,BR-20-016446,"Single Family Homes",1/12/2021,,71505,1894,"2748 MADISON CT",CONROE,TX,77304,,,"MADISON BEND","2748 MADISON CT",CONROE,TX,77304,,Owner,,,,,"KAREN BENSON",,,,,"KAREN BENSON","6707 N GESSNER AVE",HOUSTON,TX,77040,"(832) 500-0284",,,,
TX,MONTGOMERY,BR-20-016460,"Single Family Homes",1/7/2021,,242000,3933,"449 DEVLIN SHORES DR",CONROE,TX,77304,,,CONTRACTOR,,,,,,,,,,,"WESTIN HOMES",,,,,"WESTIN HOMES","1 SUGAR CREEK CENTER BLVD STE 600","SUGAR LAND",TX,77478-3787,"(281) 240-1551",http://www.westin-homes.com,,,
TX,MONTGOMERY,BR-20-016492,"Single Family Homes",1/7/2021,,215000,3698,"445 DEVLIN SHORES DR",CONROE,TX,77304,,,CONTRACTOR,,,,,,,,,,,"WESTIN HOMES",,,,,"WESTIN HOMES","1 SUGAR CREEK CENTER BLVD STE 600","SUGAR LAND",TX,77478-3787,"(281) 240-1551",http://www.westin-homes.com,,,
TX,MONTGOMERY,BR-20-016530,"Single Family Homes",1/11/2021,,145260,2421,"2507 CANYON CROWN LN   ",CONROE,TX,77304,,,"KHBM PARTNERS II","2507 CANYON CROWN LN   ",CONROE,TX,77304,,Owner,,,,,"KENDALL HOMES",,,,,"KENDALL HOMES","427 MASON PARK BLVD",KATY,TX,77450-6187,"(281) 398-4010",http://www.kendallhomes.net/,"(281) 398-4011",,
TX,MONTGOMERY,BR-20-016533,"Single Family Homes",1/12/2021,,58815,1837,"2735 MADISON CT",CONROE,TX,77304,,,"MADISON BEND","2735 MADISON CT",CONROE,TX,77304,,Owner,,,,,"KAREN BENSON",,,,,"KAREN BENSON","6707 N GESSNER AVE",HOUSTON,TX,77040,"(832) 500-0284",,,,
TX,MONTGOMERY,BR-20-016615,"Single Family Homes",1/8/2021,,165316,2658,"3452 WOODED LN",CONROE,TX,77304,,,"MACKENZIE CREEK LTD","3452 WOODED LN",CONROE,TX,77304,,Owner,,,,,"LEGEND HOMES",,,,,"LEGEND HOMES","10410 WINDAMERE LAKES BLVD",HOUSTON,TX,77065-4996,"(281) 671-9060",http://legendhomecorp.com/,"(281) 671-9055",,
TX,MONTGOMERY,BR-20-016641,"Single Family Homes",1/7/2021,,213000,3611,"317 PICNIC PARK DR",CONROE,TX,77304,,,CONTRACTOR,,,,,,,,,,,"WESTIN HOMES",,,,,"WESTIN HOMES","1 SUGAR CREEK CENTER BLVD STE 600","SUGAR LAND",TX,77478-3787,"(281) 240-1551",http://www.westin-homes.com,,,
TX,MONTGOMERY,BR-20-016651,"Single Family Homes",1/7/2021,,215000,3698,"309 PICNIC PARK DR",CONROE,TX,77303,,,CONTRACTOR,,,,,,,,,,,"WESTIN HOMES",,,,,"WESTIN HOMES","1 SUGAR CREEK CENTER BLVD STE 600","SUGAR LAND",TX,77478-3787,"(281) 240-1551",http://www.westin-homes.com,,,
TX,MONTGOMERY,BR-20-016679,"Single Family Homes",1/22/2021,,185240,1884,"4255 PINE STILL RD",CONROE,TX,77303,,,CONTRACTOR,,,,,,,,,,,"PULTE HOMES",,,,,"PULTE HOMES","16670 PARK ROW",HOUSTON,TX,77084-6866,"(281) 749-8000",,,,
TX,MONTGOMERY,BR-20-016696,"Single Family Homes",1/13/2021,,174265,2618,"2021 CEDAR TREE CT",CONROE,TX,77303,,,CONTRACTOR,,,,,,,,,,,"LEWIS PATTERSON",,,,,"LEWIS PATTERSON","4058 N COLLEGE AVE STE 300",FAYETTEVILLE,AR,72703,"(281) 881-5910",,,,
TX,MONTGOMERY,BR-20-016702,"Single Family Homes",1/8/2021,,177486,3272,"4309 MCGREGOR BLUFF LN",CONROE,TX,77303,,,CONTRACTOR,,,,,,,,,,,"LEGEND HOMES",,,,,"LEGEND HOMES","10410 WINDAMERE LAKES BLVD",HOUSTON,TX,77065-4996,"(281) 671-9060",http://legendhomecorp.com/,"(281) 671-9055",,
TX,MONTGOMERY,BR-20-016711,"Single Family Homes",1/8/2021,,161171,2670,"4313 MCGREGOR BLUFF LN",CONROE,TX,77303,,,"MADISON BEND","4313 MCGREGOR BLUFF LN",CONROE,TX,77303,,Owner,,,,,"LEGEND HOMES",,,,,"LEGEND HOMES","10410 WINDAMERE LAKES BLVD",HOUSTON,TX,77065-4996,"(281) 671-9060",http://legendhomecorp.com/,"(281) 671-9055",,
TX,MONTGOMERY,BR-20-016727,"Single Family Homes",1/8/2021,,150590,2199,"4317 MCGREGOR BLUFF LN",CONROE,TX,77303,,,"MADISON BEND","4317 MCGREGOR BLUFF LN",CONROE,TX,77303,,Owner,,,,,"LEGEND HOMES",,,,,"LEGEND HOMES","10410 WINDAMERE LAKES BLVD",HOUSTON,TX,77065-4996,"(281) 671-9060",http://legendhomecorp.com/,"(281) 671-9055",,
TX,MONTGOMERY,BR-20-016730,"Single Family Homes",1/8/2021,,152538,2292,"4321 MCGREGOR BLUFF LN  ",CONROE,TX,77303,,,"MADISON BEND","4321 MCGREGOR BLUFF LN  ",CONROE,TX,77303,,Owner,,,,,"LEGEND HOMES",,,,,"LEGEND HOMES","10410 WINDAMERE LAKES BLVD",HOUSTON,TX,77065-4996,"(281) 671-9060",http://legendhomecorp.com/,"(281) 671-9055",,
TX,MONTGOMERY,BR-20-016733,"Single Family Homes",1/8/2021,,172376,3118,"4463 EVESLAGE LN",CONROE,TX,77303,,,"MADISON BEND","4463 EVESLAGE LN",CONROE,TX,77303,,Owner,,,,,"LEGEND HOMES",,,,,"LEGEND HOMES","10410 WINDAMERE LAKES BLVD",HOUSTON,TX,77065-4996,"(281) 671-9060",http://legendhomecorp.com/,"(281) 671-9055",,
TX,MONTGOMERY,BR-20-016738,"Single Family Homes",1/22/2021,,171000,1370,"1025 S 1ST ST",CONROE,TX,77303,,,"MARIA MARTINEZ","1025 S 1ST ST",CONROE,TX,77303,,Owner,,,,,"EXCELLO HOMES",,,,,"EXCELLO HOMES","1245 W CARDINAL DR",BEAUMONT,TX,77705-6410,"(409) 842-1827",http://www.excellohomes.com/,"(409) 842-5428",,
TX,MONTGOMERY,BR-20-016739,"Single Family Homes",1/7/2021,,259000,4561,"359 CALMATO WOODS WAY",CONROE,TX,77303,,,CONTRACTOR,,,,,,,,,,,"WESTIN HOMES",,,,,"WESTIN HOMES","1 SUGAR CREEK CENTER BLVD STE 600","SUGAR LAND",TX,77478-3787,"(281) 240-1551",http://www.westin-homes.com,,,
TX,MONTGOMERY,BR-20-016741,"Single Family Homes",1/8/2021,,143488,1836,"4450 EVESLAGE LN",CONROE,TX,77303,,,"MADISON BEND","4450 EVESLAGE LN",CONROE,TX,77303,,Owner,,,,,"LEGEND HOMES",,,,,"LEGEND HOMES","10410 WINDAMERE LAKES BLVD",HOUSTON,TX,77065-4996,"(281) 671-9060",http://legendhomecorp.com/,"(281) 671-9055",,
TX,MONTGOMERY,BR-20-016746,"Single Family Homes",1/8/2021,,143488,1871,"4475 EVESLAGE LN",CONROE,TX,77303,,,"MADISON BEND","4475 EVESLAGE LN",CONROE,TX,77303,,Owner,,,,,"LEGEND HOMES",,,,,"LEGEND HOMES","10410 WINDAMERE LAKES BLVD",HOUSTON,TX,77065-4996,"(281) 671-9060",http://legendhomecorp.com/,"(281) 671-9055",,
TX,MONTGOMERY,BR-20-016750,"Single Family Homes",1/8/2021,,150590,2199,"4471 EVESLAGE LN",CONROE,TX,77303,,,"MADISON BEND","4471 EVESLAGE LN",CONROE,TX,77303,,Owner,,,,,"LEGEND HOMES",,,,,"LEGEND HOMES","10410 WINDAMERE LAKES BLVD",HOUSTON,TX,77065-4996,"(281) 671-9060",http://legendhomecorp.com/,"(281) 671-9055",,
TX,MONTGOMERY,BR-20-016754,"Single Family Homes",1/8/2021,,144598,2513,"4479 EVESLAGE LN",CONROE,TX,77303,,,"MADISON BEND","4479 EVESLAGE LN",CONROE,TX,77303,,Owner,,,,,"LEGEND HOMES",,,,,"LEGEND HOMES","10410 WINDAMERE LAKES BLVD",HOUSTON,TX,77065-4996,"(281) 671-9060",http://legendhomecorp.com/,"(281) 671-9055",,
TX,MONTGOMERY,BR-20-016758,"Single Family Homes",1/8/2021,,161171,2523,"4467 EVESLAGE LN",CONROE,TX,77303,,,"MADISON BEND","4467 EVESLAGE LN",CONROE,TX,77303,,Owner,,,,,"LEGEND HOMES",,,,,"LEGEND HOMES","10410 WINDAMERE LAKES BLVD",HOUSTON,TX,77065-4996,"(281) 671-9060",http://legendhomecorp.com/,"(281) 671-9055",,
TX,MONTGOMERY,BR-20-016840,"Single Family Homes",1/7/2021,,156910,2806,"2157 CEDAR WAY DR",CONROE,TX,77303,,,CONTRACTOR,,,,,,,,,,,"LEWIS PATTERSON",,,,,"LEWIS PATTERSON","4058 N COLLEGE AVE STE 300",FAYETTEVILLE,AR,72703,"(281) 881-5910",,,,
TX,MONTGOMERY,BR-20-017184,"Single Family Homes",1/4/2021,,156781,2728,"322 LAVATERA SUNSET TRL",CONROE,TX,77303,,,CONTRACTOR,,,,,,,,,,,"CHESMAR HOMES",,,,,"CHESMAR HOMES","450 GEARS RD STE 400",HOUSTON,TX,77067-4513,"(281) 598-1111",http://chesmar.com,"(281) 598-1115",,customerservice.houston@chesmar.com
TX,MONTGOMERY,BR-20-017189,"Single Family Homes",1/4/2021,,169387,3409,"206 ROSE GUM CT",CONROE,TX,77303,,,CONTRACTOR,,,,,,,,,,,"CHESMAR HOMES",,,,,"CHESMAR HOMES","450 GEARS RD STE 400",HOUSTON,TX,77067-4513,"(281) 598-1111",http://chesmar.com,"(281) 598-1115",,customerservice.houston@chesmar.com
TX,MONTGOMERY,BR-20-017196,"Single Family Homes",1/8/2021,,180000,2283,"3444 WOODED LN",CONROE,TX,77303,,,CONTRACTOR,,,,,,,,,,,"LEGEND HOMES",,,,,"LEGEND HOMES","10410 WINDAMERE LAKES BLVD",HOUSTON,TX,77065-4996,"(281) 671-9060",http://legendhomecorp.com/,"(281) 671-9055",,
TX,MONTGOMERY,BR-20-017199,"Single Family Homes",1/8/2021,,180000,1871,"3448 WOODED LN",CONROE,TX,77303,,,CONTRACTOR,,,,,,,,,,,"LEGEND HOMES",,,,,"LEGEND HOMES","10410 WINDAMERE LAKES BLVD",HOUSTON,TX,77065-4996,"(281) 671-9060",http://legendhomecorp.com/,"(281) 671-9055",,
TX,MONTGOMERY,BR-20-017321,"Single Family Homes",1/14/2021,,242000,3744,"319 S CADENCE HILLS LOOP",CONROE,TX,77303,,,CONTRACTOR,,,,,,,,,,,"WESTIN HOMES",,,,,"WESTIN HOMES","1 SUGAR CREEK CENTER BLVD STE 600","SUGAR LAND",TX,77478-3787,"(281) 240-1551",http://www.westin-homes.com,,,
TX,MONTGOMERY,BR-20-017324,"Single Family Homes",1/8/2021,,220816,4896,"3316 BOXWOOD FOREST CT",CONROE,TX,77303,,,CONTRACTOR,,,,,,,,,,,"DUSTIN RODGERS",,,,,"DUSTIN RODGERS","15915 KATY FAIRWAY STE 405",CONROE,TX,77304-4854,"(281) 830-1579",,,,
TX,MONTGOMERY,BR-20-017327,"Single Family Homes",1/11/2021,,300000,3707,"2066 GADWALL DR   ",CONROE,TX,77303,,,CONTRACTOR,,,,,,,,,,,"MERITAGE HOMES",,,,,"MERITAGE HOMES","2901 W SAM HOUSTON PKWY N",HOUSTON,TX,77043-1630,"(713) 357-1184",,,,
TX,MONTGOMERY,BR-20-017339,"Single Family Homes",1/4/2021,,244990,2459,"111 SCARLET MAPLE CT",CONROE,TX,77303,,,CONTRACTOR,,,,,,,,,,,"DAVID WEEKLEY HOMES",,,,,"DAVID WEEKLEY HOMES","14444 NORTHWEST",HOUSTON,TX,77040,"(713) 570-5021",http://www.davidweekleyhomes.com/,,,
TX,MONTGOMERY,BR-20-017350,"Single Family Homes",1/4/2021,,163995,2662,"541 CEDAR HARBOR CT",CONROE,TX,77303,,,CONTRACTOR,,,,,,,,,,,"TRENDMAKER HOMES",,,,,"TRENDMAKER HOMES","16340 PARK TEN PL STE 250",HOUSTON,TX,77084-5144,"(281) 675-3200",,"(281) 675-3251","MARTIN EVANS",
TX,MONTGOMERY,BR-20-017382,"Single Family Homes",1/4/2021,,398490,3428,"126 LACE BARK DR",CONROE,TX,77303,,,CONTRACTOR,,,,,,,,,,,"DAVID WEEKLEY HOMES",,,,,"DAVID WEEKLEY HOMES","14444 NORTHWEST",HOUSTON,TX,77040,"(713) 570-5021",http://www.davidweekleyhomes.com/,,,
TX,MONTGOMERY,BR-20-017385,"Single Family Homes",1/4/2021,,341990,3786,"371 SKYLINE RIDGE DR",CONROE,TX,77303,,,CONTRACTOR,,,,,,,,,,,"NICOLE ROMANO",,,,,"NICOLE ROMANO","1111 N POST OAK RD",HOUSTON,TX,55555,"(281) 249-7746",,,,
TX,MONTGOMERY,BR-20-017396,"Single Family Homes",1/8/2021,,144598,1871,"3504 WOODED LN",CONROE,TX,77303,,,CONTRACTOR,,,,,,,,,,,"LEGEND HOMES",,,,,"LEGEND HOMES","10410 WINDAMERE LAKES BLVD",HOUSTON,TX,77065-4996,"(281) 671-9060",http://legendhomecorp.com/,"(281) 671-9055",,
TX,MONTGOMERY,BR-20-017399,"Single Family Homes",1/8/2021,,144598,1871,"3524 WOODED LN",CONROE,TX,77303,,,CONTRACTOR,,,,,,,,,,,"LEGEND HOMES",,,,,"LEGEND HOMES","10410 WINDAMERE LAKES BLVD",HOUSTON,TX,77065-4996,"(281) 671-9060",http://legendhomecorp.com/,"(281) 671-9055",,
TX,MONTGOMERY,BR-20-017403,"Single Family Homes",1/6/2021,,571000,4528,"124 HUSHED NIGHTFALL CT",CONROE,TX,77303,,,CONTRACTOR,,,,,,,,,,,"JEFF MEINEKE",,,,,"JEFF MEINEKE","5601 DEMOCRACY DR STE 300",PLANO,TX,75024,"(281) 813-8908",,,,
TX,MONTGOMERY,BR-20-017404,"Single Family Homes",1/8/2021,,189000,2616,"3508 WOODED LN",CONROE,TX,77303,,,CONTRACTOR,,,,,,,,,,,"LEGEND HOMES",,,,,"LEGEND HOMES","10410 WINDAMERE LAKES BLVD",HOUSTON,TX,77065-4996,"(281) 671-9060",http://legendhomecorp.com/,"(281) 671-9055",,
TX,MONTGOMERY,BR-20-017419,"Single Family Homes",1/5/2021,,577000,4541,"311 IRENIC MIST CT",CONROE,TX,77303,,,CONTRACTOR,,,,,,,,,,,"JEFF MEINEKE",,,,,"JEFF MEINEKE","5601 DEMOCRACY DR STE 300",PLANO,TX,75024,"(281) 813-8908",,,,
TX,MONTGOMERY,BR-20-017426,"Single Family Homes",1/11/2021,,144840,2414,"1707 CINDY LN",CONROE,TX,77303,,,"CANYON CREEK 4 LLC","1707 CINDY LN",CONROE,TX,77303,,Owner,,,,,"KENDALL HOMES",,,,,"KENDALL HOMES","427 MASON PARK BLVD",KATY,TX,77450-6187,"(281) 398-4010",http://www.kendallhomes.net/,"(281) 398-4011",,
TX,MONTGOMERY,BR-20-017434,"Single Family Homes",1/5/2021,,165490,2695,"558 CEDAR HARBOR CT",CONROE,TX,77303,,,CONTRACTOR,,,,,,,,,,,"TRENDMAKER HOMES",,,,,"TRENDMAKER HOMES","16340 PARK TEN PL STE 250",HOUSTON,TX,77084-5144,"(281) 675-3200",,"(281) 675-3251","MARTIN EVANS",
TX,MONTGOMERY,BR-20-017437,"Single Family Homes",1/5/2021,,195990,2236,"2000 CEDAR TREE CT",CONROE,TX,77303,,,CONTRACTOR,,,,,,,,,,,"HISTORY MAKER HOMES",,,,,"HISTORY MAKER HOMES","9001 AIRPORT FWY SUITE 400","NORTH RICHLAND HILLS",TX,76180-7769,"(817) 429-8008",http://www.historymaker.com/,"(817) 507-1102","JILL BARFIELD",
TX,MONTGOMERY,BR-21-000000,"Single Family Homes",1/6/2021,,146000,2662,"2340 HAGERMAN RD",CONROE,TX,77303,,,"JEFF DEWESE","2340 HAGERMAN RD",CONROE,TX,77303,"(281) 203-6562",Owner,,,,,OWNER,,,,,OWNER,,,,,,,,,
TX,MONTGOMERY,BR-21-000005,"Single Family Homes",1/14/2021,,150000,3252,"2331 HAGERMAN RD",CONROE,TX,77303,,,CONTRACTOR,,,,,,,,,,,"KATRECE RAABE",,,,,"KATRECE RAABE","33300 EGYPT LN BLDG H",MAGNOLIA,TX,77354,"(281) 203-6562",,,,
TX,MONTGOMERY,BR-21-000009,"Single Family Homes",1/5/2021,,248010,3327,"4248 PINE STILL RD",CONROE,TX,77303,,,CONTRACTOR,,,,,,,,,,,"PULTE HOMES",,,,,"PULTE HOMES","16670 PARK ROW",HOUSTON,TX,77084-6866,"(281) 749-8000",,,,
TX,MONTGOMERY,BR-21-000014,"Single Family Homes",1/6/2021,,168000,3550,"2362 HAGERMAN RD",CONROE,TX,77303,,,"JEFF DEWESE PEOPLES","2362 HAGERMAN RD",CONROE,TX,77303,,Owner,,,,,"KATRECE RAABE",,,,,"KATRECE RAABE","33300 EGYPT LN BLDG H",MAGNOLIA,TX,77354,"(281) 203-6562",,,,
TX,MONTGOMERY,BR-21-000019,"Single Family Homes",1/8/2021,,350000,4161,"135 CORAL BELLS CT",CONROE,TX,77303,,,CONTRACTOR,,,,,,,,,,,"JAEGER HOMES ",,,,,"JAEGER HOMES ","13111 CAMERON CREST LN","SUGAR LAND",TX,77498-7417,"(281) 491-5845",,"(281) 242-2083","CHRIS JAEGER",ChrisAJaeger@JaegerHomesInc.com
TX,MONTGOMERY,BR-21-000023,"Single Family Homes",1/5/2021,,226000,2437,"4275 ROARING TIMBER RD ",CONROE,TX,77303,,,CONTRACTOR,,,,,,,,,,,"PULTE HOMES",,,,,"PULTE HOMES","16670 PARK ROW",HOUSTON,TX,77084-6866,"(281) 749-8000",,,,
TX,MONTGOMERY,BR-21-000027,"Single Family Homes",1/13/2021,,263990,2395,"563 CHESTNUT REEF CT ",CONROE,TX,77303,,,CONTRACTOR,,,,,,,,,,,"MHI MCGUYER HOMEBUILDERS",,,,,"MHI MCGUYER HOMEBUILDERS","7676 WOODWAY DR",HOUSTON,TX,77063-1526,"(713) 260-4107",,,,
TX,MONTGOMERY,BR-21-000034,"Single Family Homes",1/13/2021,,263990,2066,"519 CHESTNUT CT",CONROE,TX,77303,,,CONTRACTOR,,,,,,,,,,,"MHI MCGUYER HOMEBUILDERS",,,,,"MHI MCGUYER HOMEBUILDERS","7676 WOODWAY DR",HOUSTON,TX,77063-1526,"(713) 260-4107",,,,
TX,MONTGOMERY,BR-21-000044,"Single Family Homes",1/15/2021,,180000,2232,"528 MOHAWK BLVD",CONROE,TX,77303,,,CONTRACTOR,,,,,,,,,,,"CHAD CHESHIRE",,,,,"CHAD CHESHIRE","12841 JONES RD ",HOUSTON,TX,77070,"(936) 537-7487",,,,
TX,MONTGOMERY,BR-21-000049,"Single Family Homes",1/14/2021,,225000,4836,"118 KEECHIE CREEK CT",CONROE,TX,77303,,,CONTRACTOR,,,,,,,,,,,"WESTIN HOMES",,,,,"WESTIN HOMES","1 SUGAR CREEK CENTER BLVD STE 600","SUGAR LAND",TX,77478-3787,"(281) 240-1551",http://www.westin-homes.com,,,
TX,MONTGOMERY,BR-21-000054,"Single Family Homes",1/8/2021,,117966,2363,"2820 BEECH RIVER",CONROE,TX,77303,,,"JOHN WILLIAMS","2820 BEECH RIVER",CONROE,TX,77303,,Owner,,,,,"DUSTIN RODGERS",,,,,"DUSTIN RODGERS","15915 KATY FAIRWAY STE 405",CONROE,TX,77304-4854,"(281) 830-1579",,,,
TX,MONTGOMERY,BR-21-000060,"Single Family Homes",1/14/2021,,251000,4369,"630 CIBOLO CREEK DR",CONROE,TX,77303,,,CONTRACTOR,,,,,,,,,,,"WESTIN HOMES",,,,,"WESTIN HOMES","1 SUGAR CREEK CENTER BLVD STE 600","SUGAR LAND",TX,77478-3787,"(281) 240-1551",http://www.westin-homes.com,,,
TX,MONTGOMERY,BR-21-000070,"Single Family Homes",1/15/2021,,198000,2035,"530 MOHAWK BND",CONROE,TX,77303,,,"HONEA EGYPT VENTURE","530 MOHAWK BND",CONROE,TX,77303,,Owner,,,,,"CHAD CHESHIRE",,,,,"CHAD CHESHIRE","12841 JONES RD ",HOUSTON,TX,77070,"(936) 537-7487",,,,
TX,MONTGOMERY,BR-21-000090,"Single Family Homes",1/11/2021,,50000,1940,"805 LITTLE RIVER DR",CONROE,TX,77303,,,CONTRACTOR,,,,,,,,,,,"OMG BUILDERS",,,,,"OMG BUILDERS","2257 N LOOP 336 W STE 140-303",CONROE,TX,77304,"(832) 457-9442",,,,
TX,MONTGOMERY,BR-21-000092,"Single Family Homes",1/6/2021,,160000,4283,"2305 GOLDENGLADE DR",CONROE,TX,77303,,,"JEFF DEWESE ","2305 GOLDENGLADE DR",CONROE,TX,77303,,Owner,,,,,"KATRECE RAABE",,,,,"KATRECE RAABE","33300 EGYPT LN BLDG H",MAGNOLIA,TX,77354,"(281) 203-6562",,,,
TX,MONTGOMERY,BR-21-000270,"Single Family Homes",1/11/2021,,50000,1790,"803 LITTLE RIVER DR",CONROE,TX,77303,,,CONTRACTOR,,,,,,,,,,,"OMG BUILDERS",,,,,"OMG BUILDERS","2257 N LOOP 336 W STE 140-303",CONROE,TX,77304,"(832) 457-9442",,,,
TX,MONTGOMERY,BR-21-000285,"Single Family Homes",1/26/2021,,275000,5005,"2115 SWEET DRIFT CIR     ",CONROE,TX,77303,,,"JEFF DEWESE","2115 SWEET DRIFT CIR     ",CONROE,TX,77303,,Owner,,,,,"KATRECE RAABE",,,,,"KATRECE RAABE","33300 EGYPT LN BLDG H",MAGNOLIA,TX,77354,"(281) 203-6562",,,,
TX,MONTGOMERY,BR-21-000382,"Single Family Homes",1/12/2021,,300000,2872,"2185 WOODLAND PINE DR",CONROE,TX,77303,,,CONTRACTOR,,,,,,,,,,,"MERITAGE HOMES",,,,,"MERITAGE HOMES","2901 W SAM HOUSTON PKWY N",HOUSTON,TX,77043-1630,"(713) 357-1184",,,,
TX,MONTGOMERY,BR-21-000422,"Single Family Homes",1/20/2021,,200000,2576,"314 PITCH PINE CT",CONROE,TX,77303,,,CONTRACTOR,,,,,,,,,,,"DUNHILL DEVELOPMENT & CONSTRUCTION",,,,,"DUNHILL DEVELOPMENT & CONSTRUCTION","2400 AUGUSTA DR STE 340",HOUSTON,TX,77057-4964,"(713) 493-0177",http://www.dunhilldevelopment.com/,"(713) 457-5214","AARON POLATSEK",info@dunhilldevelopment.com
TX,MONTGOMERY,BR-21-000433,"Single Family Homes",1/19/2021,,135850,2212,"2024 CEDAR TREE CT",CONROE,TX,77303,,,CONTRACTOR,,,,,,,,,,,"LEWIS PATTERSON",,,,,"LEWIS PATTERSON","4058 N COLLEGE AVE STE 300",FAYETTEVILLE,AR,72703,"(281) 881-5910",,,,
TX,MONTGOMERY,BR-21-000440,"Single Family Homes",1/19/2021,,177190,2813,"1708 BRUSHY CEDAR CT",CONROE,TX,77303,,,CONTRACTOR,,,,,,,,,,,"LEWIS PATTERSON",,,,,"LEWIS PATTERSON","4058 N COLLEGE AVE STE 300",FAYETTEVILLE,AR,72703,"(281) 881-5910",,,,
TX,MONTGOMERY,BR-21-000450,"Single Family Homes",1/19/2021,,116155,1942,"1903 HIDDEN CEDAR DR",CONROE,TX,77303,,,CONTRACTOR,,,,,,,,,,,"LEWIS PATTERSON",,,,,"LEWIS PATTERSON","4058 N COLLEGE AVE STE 300",FAYETTEVILLE,AR,72703,"(281) 881-5910",,,,
TX,MONTGOMERY,BR-21-000466,"Single Family Homes",1/12/2021,,120700,2427,"3415 REDBRIDGE CT",CONROE,TX,77303,,,CONTRACTOR,,,,,,,,,,,"LENNAR HOMES",,,,,"LENNAR HOMES","550 GREENS PKWY",HOUSTON,TX,77067-4537,"(281) 875-1000",http://www.lennar.com/,,,
TX,MONTGOMERY,BR-21-000469,"Single Family Homes",1/12/2021,,135000,2876,"6041 HERITAGE CREEK LN",CONROE,TX,77303,,,CONTRACTOR,,,,,,,,,,,"LENNAR HOMES",,,,,"LENNAR HOMES","550 GREENS PKWY",HOUSTON,TX,77067-4537,"(281) 875-1000",http://www.lennar.com/,,,
TX,MONTGOMERY,BR-21-000473,"Single Family Homes",1/28/2021,,133000,2696,"3442 REDBRIDGE CT",CONROE,TX,77303,,,CONTRACTOR,,,,,,,,,,,"LENNAR HOMES",,,,,"LENNAR HOMES","550 GREENS PKWY",HOUSTON,TX,77067-4537,"(281) 875-1000",http://www.lennar.com/,,,
TX,MONTGOMERY,BR-21-000476,"Single Family Homes",1/28/2021,,156800,3017,"3446 REDBRIDGE CT",CONROE,TX,77303,,,CONTRACTOR,,,,,,,,,,,"LENNAR HOMES",,,,,"LENNAR HOMES","550 GREENS PKWY",HOUSTON,TX,77067-4537,"(281) 875-1000",http://www.lennar.com/,,,
TX,MONTGOMERY,BR-21-000480,"Single Family Homes",1/28/2021,,120700,2410,"3450 REDBRIDGE CT",CONROE,TX,77303,,,CONTRACTOR,,,,,,,,,,,"LENNAR HOMES",,,,,"LENNAR HOMES","550 GREENS PKWY",HOUSTON,TX,77067-4537,"(281) 875-1000",http://www.lennar.com/,,,
TX,MONTGOMERY,BR-21-000486,"Single Family Homes",1/22/2021,,133500,2717,"3514 PINEVALE CT",CONROE,TX,77303,,,CONTRACTOR,,,,,,,,,,,"LENNAR HOMES",,,,,"LENNAR HOMES","550 GREENS PKWY",HOUSTON,TX,77067-4537,"(281) 875-1000",http://www.lennar.com/,,,
TX,MONTGOMERY,BR-21-000489,"Single Family Homes",1/15/2021,,117000,2549,"6000 HERITAGE CREEK LN",CONROE,TX,77304,,,"HERITAGE RESERVE","6000 HERITAGE CREEK LN",CONROE,TX,77304,,Owner,,,,,"LENNAR HOMES",,,,,"LENNAR HOMES","550 GREENS PKWY",HOUSTON,TX,77067-4537,"(281) 875-1000",http://www.lennar.com/,,,
TX,MONTGOMERY,BR-21-000493,"Single Family Homes",1/26/2021,,156800,2975,"3518 PINEVALE CT",CONROE,TX,77304,,,CONTRACTOR,,,,,,,,,,,"LENNAR HOMES",,,,,"LENNAR HOMES","550 GREENS PKWY",HOUSTON,TX,77067-4537,"(281) 875-1000",http://www.lennar.com/,,,
TX,MONTGOMERY,BR-21-000509,"Single Family Homes",1/26/2021,,156800,3085,"3530 PINEVALE CT",CONROE,TX,77303,,,CONTRACTOR,,,,,,,,,,,"LENNAR HOMES",,,,,"LENNAR HOMES","550 GREENS PKWY",HOUSTON,TX,77067-4537,"(281) 875-1000",http://www.lennar.com/,,,
TX,MONTGOMERY,BR-21-000512,"Single Family Homes",1/26/2021,,120700,2427,"3534 PINEVALE CT",CONROE,TX,77303,,,CONTRACTOR,,,,,,,,,,,"LENNAR HOMES",,,,,"LENNAR HOMES","550 GREENS PKWY",HOUSTON,TX,77067-4537,"(281) 875-1000",http://www.lennar.com/,,,
TX,MONTGOMERY,BR-21-000516,"Single Family Homes",1/15/2021,,175000,3428,"6004 HERITAGE CREEK LN",CONROE,TX,77303,,,"HERITAGE RESERVE","6004 HERITAGE CREEK LN",CONROE,TX,77303,,Owner,,,,,"LENNAR HOMES",,,,,"LENNAR HOMES","550 GREENS PKWY",HOUSTON,TX,77067-4537,"(281) 875-1000",http://www.lennar.com/,,,
TX,MONTGOMERY,BR-21-000521,"Single Family Homes",1/15/2021,,126900,2539,"12341 DELTA TIMBER RD",CONROE,TX,77303,,,"HERITAGE RESERVE","12341 DELTA TIMBER RD",CONROE,TX,77303,,Owner,,,,,"LENNAR HOMES",,,,,"LENNAR HOMES","550 GREENS PKWY",HOUSTON,TX,77067-4537,"(281) 875-1000",http://www.lennar.com/,,,
TX,MONTGOMERY,BR-21-000524,"Single Family Homes",1/11/2021,,300000,3648,"2078 GADWALL DR",CONROE,TX,77303,,,CONTRACTOR,,,,,,,,,,,"MERITAGE HOMES",,,,,"MERITAGE HOMES","2901 W SAM HOUSTON PKWY N",HOUSTON,TX,77043-1630,"(713) 357-1184",,,,
TX,MONTGOMERY,BR-21-000528,"Single Family Homes",1/12/2021,,300000,3639,"2240 GADWALL CT",CONROE,TX,77304,,,CONTRACTOR,,,,,,,,,,,"MERITAGE HOMES",,,,,"MERITAGE HOMES","2901 W SAM HOUSTON PKWY N",HOUSTON,TX,77043-1630,"(713) 357-1184",,,,
TX,MONTGOMERY,BR-21-000536,"Single Family Homes",1/12/2021,,300000,3080,"2090 GADWALL DR",CONROE,TX,77303,,,CONTRACTOR,,,,,,,,,,,"MERITAGE HOMES",,,,,"MERITAGE HOMES","2901 W SAM HOUSTON PKWY N",HOUSTON,TX,77043-1630,"(713) 357-1184",,,,
TX,MONTGOMERY,BR-21-000540,"Single Family Homes",1/12/2021,,300000,3677,"2201 GADWALL CT",CONROE,TX,77303,,,CONTRACTOR,,,,,,,,,,,"MERITAGE HOMES",,,,,"MERITAGE HOMES","2901 W SAM HOUSTON PKWY N",HOUSTON,TX,77043-1630,"(713) 357-1184",,,,
TX,MONTGOMERY,BR-21-000587,"Single Family Homes",1/15/2021,,121455,2699,"2327 FALLEN WILLOW CT",CONROE,TX,77303,,,CONTRACTOR,,,,,,,,,,,"DR HORTON",,,,,"DR HORTON","14100 SOUTHWEST",HOUSTON,TX,77478,"(281) 201-5559",,,,
TX,MONTGOMERY,BR-21-000625,"Single Family Homes",1/13/2021,,341990,4294,"314 SKYLINE RIDGE DR",CONROE,TX,77303,,,CONTRACTOR,,,,,,,,,,,"NICOLE ROMANO",,,,,"NICOLE ROMANO","1111 N POST OAK RD",HOUSTON,TX,55555,"(281) 249-7746",,,,
TX,MONTGOMERY,BR-21-000628,"Single Family Homes",1/19/2021,,,7185,"7415 ENCHANTED STREAM DR",CONROE,TX,77303,,,CONTRACTOR,,,,,,,,,,,"NICOLE ROMANO",,,,,"NICOLE ROMANO","1111 N POST OAK RD",HOUSTON,TX,55555,"(281) 249-7746",,,,
TX,MONTGOMERY,BR-21-000633,"Single Family Homes",1/13/2021,,355990,4109,"330 SKYLINE RIDGE DR",CONROE,TX,77303,,,CONTRACTOR,,,,,,,,,,,"NICOLE ROMANO",,,,,"NICOLE ROMANO","1111 N POST OAK RD",HOUSTON,TX,55555,"(281) 249-7746",,,,
TX,MONTGOMERY,BR-21-000644,"Single Family Homes",1/13/2021,,400490,3406,"313 TORREY BLOOM LOOP",CONROE,TX,77303,,,CONTRACTOR,,,,,,,,,,,"NICOLE ROMANO",,,,,"NICOLE ROMANO","1111 N POST OAK RD",HOUSTON,TX,55555,"(281) 249-7746",,,,
TX,MONTGOMERY,BR-21-000647,"Single Family Homes",1/13/2021,,351990,3702,"363 SKYLINE RIDGE DR",CONROE,TX,77303,,,CONTRACTOR,,,,,,,,,,,"NICOLE ROMANO",,,,,"NICOLE ROMANO","1111 N POST OAK RD",HOUSTON,TX,55555,"(281) 249-7746",,,,
TX,MONTGOMERY,BR-21-000652,"Single Family Homes",1/13/2021,,308990,3060,"322 SKYLINE RIDGE DR",CONROE,TX,77303,,,CONTRACTOR,,,,,,,,,,,"NICOLE ROMANO",,,,,"NICOLE ROMANO","1111 N POST OAK RD",HOUSTON,TX,55555,"(281) 249-7746",,,,
TX,MONTGOMERY,BR-21-000657,"Single Family Homes",1/13/2021,,344990,3854,"407 SUMMIT RIDGE CT",CONROE,TX,77303,,,CONTRACTOR,,,,,,,,,,,"NICOLE ROMANO",,,,,"NICOLE ROMANO","1111 N POST OAK RD",HOUSTON,TX,55555,"(281) 249-7746",,,,
TX,MONTGOMERY,BR-21-000661,"Single Family Homes",1/27/2021,,279000,4650,"12050 WHITE OAK RANCH DR",CONROE,TX,77303,,,CONTRACTOR,,,,,,,,,,,"GRACEMARK HOMES",,,,,"GRACEMARK HOMES","12675 LONGMIRE WAY",CONROE,TX,77304,"(936) 703-5445",https://www.gracemarkhomes.com/,,,info@gracemarkhomes.com
TX,MONTGOMERY,BR-21-000665,"Single Family Homes",1/22/2021,,260990,2196,"539 CHESTNUT REEF CT",CONROE,TX,77304,,,CONTRACTOR,,,,,,,,,,,"MHI MCGUYER HOMEBUILDERS",,,,,"MHI MCGUYER HOMEBUILDERS","7676 WOODWAY DR",HOUSTON,TX,77063-1526,"(713) 260-4107",,,,
TX,MONTGOMERY,BR-21-000668,"Single Family Homes",1/15/2021,,165850,3202,"308 CEDRUS HILL TRL",CONROE,TX,77304,,,"CYRSTAL MARCHESE","480 WILDWOOD FOREST DR STE 803",SPRING,TX,77380,"(281) 453-5324",Applicant,,,,,OWNER,,,,,OWNER,,,,,,,,,
TX,MONTGOMERY,BR-21-000672,"Single Family Homes",1/22/2021,,260990,2196,"529 TIMBER VOYAGE CT",CONROE,TX,77303,,,CONTRACTOR,,,,,,,,,,,"MHI MCGUYER HOMEBUILDERS",,,,,"MHI MCGUYER HOMEBUILDERS","7676 WOODWAY DR",HOUSTON,TX,77063-1526,"(713) 260-4107",,,,
TX,MONTGOMERY,BR-21-000675,"Single Family Homes",1/22/2021,,291990,2864,"558 CHESTNUT REEF CT",CONROE,TX,77304,,,CONTRACTOR,,,,,,,,,,,"MHI MCGUYER HOMEBUILDERS",,,,,"MHI MCGUYER HOMEBUILDERS","7676 WOODWAY DR",HOUSTON,TX,77063-1526,"(713) 260-4107",,,,
TX,MONTGOMERY,BR-21-000681,"Single Family Homes",1/19/2021,,180082,3412,"135 BUTTONWOOD CT",CONROE,TX,77303,,,CONTRACTOR,,,,,,,,,,,"CHESMAR HOMES",,,,,"CHESMAR HOMES","450 GEARS RD STE 400",HOUSTON,TX,77067-4513,"(281) 598-1111",http://chesmar.com,"(281) 598-1115",,customerservice.houston@chesmar.com
TX,MONTGOMERY,BR-21-000686,"Single Family Homes",1/22/2021,,259000,4565,"347 CALMATO WOODS WAY",CONROE,TX,77303,,,CONTRACTOR,,,,,,,,,,,"WESTIN HOMES",,,,,"WESTIN HOMES","1 SUGAR CREEK CENTER BLVD STE 600","SUGAR LAND",TX,77478-3787,"(281) 240-1551",http://www.westin-homes.com,,,
TX,MONTGOMERY,BR-21-000691,"Single Family Homes",1/22/2021,,227000,3850,"407 DEVLIN SHORES DR",CONROE,TX,77304,,,CONTRACTOR,,,,,,,,,,,"WESTIN HOMES",,,,,"WESTIN HOMES","1 SUGAR CREEK CENTER BLVD STE 600","SUGAR LAND",TX,77478-3787,"(281) 240-1551",http://www.westin-homes.com,,,
TX,MONTGOMERY,BR-21-000694,"Single Family Homes",1/22/2021,,246000,3799,"313 PICNIC PARK DR",CONROE,TX,77304,,,CONTRACTOR,,,,,,,,,,,"WESTIN HOMES",,,,,"WESTIN HOMES","1 SUGAR CREEK CENTER BLVD STE 600","SUGAR LAND",TX,77478-3787,"(281) 240-1551",http://www.westin-homes.com,,,
TX,MONTGOMERY,BR-21-000703,"Single Family Homes",1/14/2021,,143323,3249,"2803 BEECH RIVER CT",CONROE,TX,77303,,,CONTRACTOR,,,,,,,,,,,"DUSTIN RODGERS",,,,,"DUSTIN RODGERS","15915 KATY FAIRWAY STE 405",CONROE,TX,77304-4854,"(281) 830-1579",,,,
TX,MONTGOMERY,BR-21-000706,"Single Family Homes",1/14/2021,,153339,2834,"227 REDWOOD CANYON TRL",CONROE,TX,77303,,,"JOHN WILLIAMS","227 REDWOOD CANYON TRL",CONROE,TX,77303,,Owner,,,,,"DUSTIN RODGERS",,,,,"DUSTIN RODGERS","15915 KATY FAIRWAY STE 405",CONROE,TX,77304-4854,"(281) 830-1579",,,,
TX,BRAZOS,20-4824,"Single Family Homes",1/4/2021,,116688,1349,"3716 MCKENZIE ST",BRYAN,TX,77803,"CONNORS COVE",6,CONTRACTOR,,,,,,,,,,,"STYLECRAFT BUILDERS ",,,,,"STYLECRAFT BUILDERS ","4090 STATE HIGHWAY 6 S","COLLEGE STATION",TX,77845-8962,"(979) 764-9900",,"(979) 690-3069","TANNER BREWSTER",tabrewster@stylecraft-builders.com
TX,BRAZOS,20-4830,"Single Family Homes",1/4/2021,,206755,1536,"1971 CARTWRIGHT ST",BRYAN,TX,77807,"PLEASANT HILL",8,CONTRACTOR,,,,,,,,,,,"DR HORTON",,,,,"DR HORTON","14100 SOUTHWEST",HOUSTON,TX,77478,"(281) 201-5559",,,,
TX,BRAZOS,20-4822,"Single Family Homes",1/4/2021,,209955,1535,"1968 CARTWRIGHT ST",BRYAN,TX,77807,"PLEASANT HILL",10,CONTRACTOR,,,,,,,,,,,"DR HORTON",,,,,"DR HORTON","14100 SOUTHWEST",HOUSTON,TX,77478,"(281) 201-5559",,,,
TX,BRAZOS,20-4827,"Single Family Homes",1/4/2021,,210805,1531,"1972 CARTWRIGHT ST",BRYAN,TX,77807,"PLEASANT HILL",8,CONTRACTOR,,,,,,,,,,,"DR HORTON",,,,,"DR HORTON","14100 SOUTHWEST",HOUSTON,TX,77478,"(281) 201-5559",,,,
TX,BRAZOS,20-4827,"Single Family Homes",1/4/2021,,226725,1744,"1974 CARTWRIGHT ST",BRYAN,TX,77807,"PLEASANT HILL",7,CONTRACTOR,,,,,,,,,,,"DR HORTON",,,,,"DR HORTON","14100 SOUTHWEST",HOUSTON,TX,77478,"(281) 201-5559",,,,
TX,MONTGOMERY,BR-21-000710,"Single Family Homes",1/14/2021,,173119,3329,"239 REDWOOD CANYON TRL  ",CONROE,TX,77303,,,CONTRACTOR,,,,,,,,,,,"DUSTIN RODGERS",,,,,"DUSTIN RODGERS","15915 KATY FAIRWAY STE 405",CONROE,TX,77304-4854,"(281) 830-1579",,,,
TX,BRAZOS,20-4828,"Single Family Homes",1/4/2021,,242545,1882,"1975 THORNDYKE LN",BRYAN,TX,77807,"PLEASANT HILL",6,CONTRACTOR,,,,,,,,,,,"DR HORTON",,,,,"DR HORTON","14100 SOUTHWEST",HOUSTON,TX,77478,"(281) 201-5559",,,,
TX,BRAZOS,20-4841,"Single Family Homes",1/4/2021,,209700,1536,"1977 THORNDYKE LN",BRYAN,TX,77807,"PLEASANT HILL",5,CONTRACTOR,,,,,,,,,,,"DR HORTON",,,,,"DR HORTON","14100 SOUTHWEST",HOUSTON,TX,77478,"(281) 201-5559",,,,
TX,MONTGOMERY,BR-21-000718,"Single Family Homes",1/14/2021,,171874,3477,"2833 BEECH RIVER CT",CONROE,TX,77303,,,"JOHN WILLIAMS","2833 BEECH RIVER CT",CONROE,TX,77303,,Owner,,,,,"DUSTIN RODGERS",,,,,"DUSTIN RODGERS","15915 KATY FAIRWAY STE 405",CONROE,TX,77304-4854,"(281) 830-1579",,,,
TX,BRAZOS,20-4840,"Single Family Homes",1/4/2021,,214085,1561,"1979 THORNDYKE LN",BRYAN,TX,77807,"PLEASANT HILL",4,CONTRACTOR,,,,,,,,,,,"DR HORTON",,,,,"DR HORTON","14100 SOUTHWEST",HOUSTON,TX,77478,"(281) 201-5559",,,,
TX,MONTGOMERY,BR-21-000731,"Single Family Homes",1/14/2021,,140156,3126,"2812 BEECH RIVER CT   ",CONROE,TX,77303,,,"JOHN WILLIAMS","2812 BEECH RIVER CT   ",CONROE,TX,77303,,Owner,,,,,"DUSTIN RODGERS",,,,,"DUSTIN RODGERS","15915 KATY FAIRWAY STE 405",CONROE,TX,77304-4854,"(281) 830-1579",,,,
TX,MONTGOMERY,BR-21-000737,"Single Family Homes",1/14/2021,,170000,3979,"2125 ROPE MAKER RD",CONROE,TX,77303,,,"JEFF DEWESE","2125 ROPE MAKER RD",CONROE,TX,77303,,Owner,,,,,"KATRECE RAABE",,,,,"KATRECE RAABE","33300 EGYPT LN BLDG H",MAGNOLIA,TX,77354,"(281) 203-6562",,,,
TX,MONTGOMERY,BR-21-000741,"Single Family Homes",1/20/2021,,236500,3895,"2228 SALT GRASS TRL",CONROE,TX,77303,,,"JEFF DEWESE","2228 SALT GRASS TRL",CONROE,TX,77303,,Owner,,,,,"KATRECE RAABE",,,,,"KATRECE RAABE","33300 EGYPT LN BLDG H",MAGNOLIA,TX,77354,"(281) 203-6562",,,,
TX,MONTGOMERY,BR-21-000750,"Single Family Homes",1/20/2021,,249000,4342,"2216 SALT GRASS TRL",CONROE,TX,77303,,,"JEFF DEWESE","2216 SALT GRASS TRL",CONROE,TX,77303,,Owner,,,,,"KATRECE RAABE",,,,,"KATRECE RAABE","33300 EGYPT LN BLDG H",MAGNOLIA,TX,77354,"(281) 203-6562",,,,
TX,MONTGOMERY,BR-21-000753,"Single Family Homes",1/14/2021,,252000,4330,"2201 SALT GRASS TRL ",CONROE,TX,77303,,,"JEFF DEWESE","2201 SALT GRASS TRL ",CONROE,TX,77303,,Owner,,,,,"KATRECE RAABE",,,,,"KATRECE RAABE","33300 EGYPT LN BLDG H",MAGNOLIA,TX,77354,"(281) 203-6562",,,,
TX,MONTGOMERY,BR-21-000758,"Single Family Homes",1/14/2021,,348550,5243,"2004 BLUESTEM DR",CONROE,TX,77303,,,"JEFF DEWESE","2004 BLUESTEM DR",CONROE,TX,77303,,Owner,,,,,"KATRECE RAABE",,,,,"KATRECE RAABE","33300 EGYPT LN BLDG H",MAGNOLIA,TX,77354,"(281) 203-6562",,,,
TX,MONTGOMERY,BR-21-000761,"Single Family Homes",1/14/2021,,350000,5243,"2060 BLUESTEM DR",CONROE,TX,77303,,,"JEFF DEWESE","2060 BLUESTEM DR",CONROE,TX,7733,,Owner,,,,,"KATRECE RAABE",,,,,"KATRECE RAABE","33300 EGYPT LN BLDG H",MAGNOLIA,TX,77354,"(281) 203-6562",,,,
TX,BRAZOS,20-4839,"Single Family Homes",1/4/2021,,203430,1339,"1981 THORNDYKE LN",BRYAN,TX,77807,"PLEASANT HILL",3,CONTRACTOR,,,,,,,,,,,"DR HORTON",,,,,"DR HORTON","14100 SOUTHWEST",HOUSTON,TX,77478,"(281) 201-5559",,,,
TX,BRAZOS,21-0004,"Single Family Homes",1/5/2021,,121968,1443,"2711 REDCAP ST",BRYAN,TX,77803,"PORTERS MEADOW",8,CONTRACTOR,,,,,,,,,,,"STYLECRAFT BUILDERS ",,,,,"STYLECRAFT BUILDERS ","4090 STATE HIGHWAY 6 S","COLLEGE STATION",TX,77845-8962,"(979) 764-9900",,"(979) 690-3069","TANNER BREWSTER",tabrewster@stylecraft-builders.com
TX,MONTGOMERY,BR-21-000782,"Single Family Homes",1/22/2021,,,2607,"303 NETTLE TREE CT",CONROE,TX,77303,,,"CASSONDRA BOWERS","303 NETTLE TREE CT",CONROE,TX,77303,,Owner,,,,,"LEXINGTON 26",,,,,"LEXINGTON 26","11102 FALCONWING DR",SPRING,TX,77381-4491,"(281) 719-8455",,,,
TX,MONTGOMERY,BR-21-000790,"Single Family Homes",1/22/2021,,120000,2554,"305 NETTLE TREE CT",CONROE,TX,77303,,,CONTRACTOR,,,,,,,,,,,"LEXINGTON 26",,,,,"LEXINGTON 26","11102 FALCONWING DR",SPRING,TX,77381-4491,"(281) 719-8455",,,,
TX,BRAZOS,20-4817,"Single Family Homes",1/5/2021,,169938,1600,"3409 UTAH CT",BRYAN,TX,77808,"RUDDER POINTE",9,CONTRACTOR,,,,,,,,,,,"AVONLEY HOMES",,,,,"AVONLEY HOMES","3900 STATE HIGHWAY 6 S STE 110","COLLEGE STATION",TX,77845-5831,"(979) 635-4800",https://www.avonleyhomes.com/,,,info@avonleyhomes.com
TX,BRAZOS,20-4862,"Single Family Homes",1/5/2021,,244662,2926,"2095 VIVA RD",BRYAN,TX,77807,EDGEWATER,12,CONTRACTOR,,,,,,,,,,,"STYLECRAFT BUILDERS ",,,,,"STYLECRAFT BUILDERS ","4090 STATE HIGHWAY 6 S","COLLEGE STATION",TX,77845-8962,"(979) 764-9900",,"(979) 690-3069","TANNER BREWSTER",tabrewster@stylecraft-builders.com
TX,MONTGOMERY,BR-21-000793,"Single Family Homes",1/22/2021,,167000,2751,"315 RED MAPLE LN",CONROE,TX,77303,,,CONTRACTOR,,,,,,,,,,,"LEXINGTON 26",,,,,"LEXINGTON 26","11102 FALCONWING DR",SPRING,TX,77381-4491,"(281) 719-8455",,,,
TX,BRAZOS,20-4838,"Single Family Homes",1/5/2021,,230000,2128,"5146 MAROON CREEK DR",BRYAN,TX,77802,OAKMONT,22,CONTRACTOR,,,,,,,,,,,"BLACKSTONE HOMES",,,,,"BLACKSTONE HOMES","2829 TIMMONS LN APT 157",HOUSTON,TX,77027-5357,"(281) 827-8716",,,"ANDREW COLLINS",
TX,BRAZOS,20-4816,"Single Family Homes",1/5/2021,,207279,2000,"3417 OMAHA CT",BRYAN,TX,77808,"RUDDER POINTE",6,CONTRACTOR,,,,,,,,,,,"AVONLEY HOMES",,,,,"AVONLEY HOMES","3900 STATE HIGHWAY 6 S STE 110","COLLEGE STATION",TX,77845-5831,"(979) 635-4800",https://www.avonleyhomes.com/,,,info@avonleyhomes.com
TX,MONTGOMERY,BR-21-000837,"Single Family Homes",1/14/2021,,285000,2413,"1749 CINDY LN",CONROE,TX,77303,,,CONTRACTOR,,,,,,,,,,,"KENDALL HOMES",,,,,"KENDALL HOMES","427 MASON PARK BLVD",KATY,TX,77450-6187,"(281) 398-4010",http://www.kendallhomes.net/,"(281) 398-4011",,
TX,BRAZOS,20-4872,"Single Family Homes",1/6/2021,,164736,1789,"2026 BRISBANE WAY",BRYAN,TX,77803,"PLEASANT HILL",29,CONTRACTOR,,,,,,,,,,,"OMEGA BUILDERS GROUP",,,,,"OMEGA BUILDERS GROUP","7353 W ADAMS AVE",TEMPLE,TX,76502-5539,"(254) 773-9966",,,,
TX,BRAZOS,20-4871,"Single Family Homes",1/6/2021,,167112,1842,"2037 BRISBANE WAY",BRYAN,TX,77803,"PLEASANT HILL",14,CONTRACTOR,,,,,,,,,,,"OMEGA BUILDERS GROUP",,,,,"OMEGA BUILDERS GROUP","7353 W ADAMS AVE",TEMPLE,TX,76502-5539,"(254) 773-9966",,,,
TX,BRAZOS,20-4446,"Single Family Homes",1/6/2021,,210000,2396,"2949 ARCHER DR",BRYAN,TX,77808,"AUSTINS COLONY",3,CONTRACTOR,,,,,,,,,,,"PITMAN CUSTOM HOMES",,,,,"PITMAN CUSTOM HOMES","1401 SEBESTA RD","COLLEGE STATION",TX,77845-5527,"(979) 693-6699",http://www.pitmancustomhomes.com,,JIMMY,
TX,BRAZOS,20-4732,"Single Family Homes",1/8/2021,,145152,1385,"1935 BASIL CT",BRYAN,TX,77801,"NORTHCREST COTTAGES",26,CONTRACTOR,,,,,,,,,,,"AVONLEY HOMES",,,,,"AVONLEY HOMES","3900 STATE HIGHWAY 6 S STE 110","COLLEGE STATION",TX,77845-5831,"(979) 635-4800",https://www.avonleyhomes.com/,,,info@avonleyhomes.com
TX,BRAZOS,20-4879,"Single Family Homes",1/8/2021,,138672,1297,"1931 BASIL CT",BRYAN,TX,77801,"NORTHCREST COTTAGES",28,CONTRACTOR,,,,,,,,,,,"AVONLEY HOMES",,,,,"AVONLEY HOMES","3900 STATE HIGHWAY 6 S STE 110","COLLEGE STATION",TX,77845-5831,"(979) 635-4800",https://www.avonleyhomes.com/,,,info@avonleyhomes.com
TX,MONTGOMERY,BR-21-000876,"Single Family Homes",1/29/2021,,147459,3089,"159 SCARLET MAPLE CT",CONROE,TX,77303,,,CONTRACTOR,,,,,,,,,,,"GEHAN HOMES",,,,,"GEHAN HOMES","2050 W SAM HOUSTON PKWY S",HOUSTON,TX,77042-2079,"(713) 243-3545",http://www.gehanhomes.com,,,
TX,MONTGOMERY,BR-21-000879,"Single Family Homes",1/29/2021,,155196,3316,"143 SCARLET MAPLE CT",CONROE,TX,77303,,,CONTRACTOR,,,,,,,,,,,"GEHAN HOMES",,,,,"GEHAN HOMES","2050 W SAM HOUSTON PKWY S",HOUSTON,TX,77042-2079,"(713) 243-3545",http://www.gehanhomes.com,,,
TX,BRAZOS,20-4897,"Single Family Homes",1/8/2021,,81720,1362,"406 MARBLE FALLS DR",BRYAN,TX,77803,"STONE FALLS",11,CONTRACTOR,,,,,,,,,,,"NEW PHASE HOMEBUILDERS",,,,,"NEW PHASE HOMEBUILDERS","1500 UNIVERSITY OAKS BLVD","COLLEGE STATION",TX,77840-3664,"(979) 229-0988",http://www.newphasetx.com,,,steve@stevepittman.info
TX,BRAZOS,20-4904,"Single Family Homes",1/8/2021,,199320,2587,"1466 KINGSGATE DR",BRYAN,TX,77807,EDGEWATER,2,CONTRACTOR,,,,,,,,,,,"STYLECRAFT BUILDERS ",,,,,"STYLECRAFT BUILDERS ","4090 STATE HIGHWAY 6 S","COLLEGE STATION",TX,77845-8962,"(979) 764-9900",,"(979) 690-3069","TANNER BREWSTER",tabrewster@stylecraft-builders.com
TX,MONTGOMERY,BR-21-000888,"Single Family Homes",1/29/2021,,149709,3051,"255 SCARLET MAPLE WAY",CONROE,TX,76063,,,CONTRACTOR,,,,,,,,,,,"GEHAN HOMES",,,,,"GEHAN HOMES","2050 W SAM HOUSTON PKWY S",HOUSTON,TX,77042-2079,"(713) 243-3545",http://www.gehanhomes.com,,,
TX,MONTGOMERY,BR-21-000893,"Single Family Homes",1/15/2021,,178000,3659,"2148 ROPE MAKER RD",CONROE,TX,77303,,,CONTRACTOR,,,,,,,,,,,"KATRECE RAABE",,,,,"KATRECE RAABE","33300 EGYPT LN BLDG H",MAGNOLIA,TX,77354,"(281) 203-6562",,,,
TX,MONTGOMERY,BR-21-000895,"Single Family Homes",1/29/2021,,104975,2292,"155 SCARLET MAPLE CT",CONROE,TX,77303,,,CONTRACTOR,,,,,,,,,,,"GEHAN HOMES",,,,,"GEHAN HOMES","2050 W SAM HOUSTON PKWY S",HOUSTON,TX,77042-2079,"(713) 243-3545",http://www.gehanhomes.com,,,
TX,MONTGOMERY,BR-21-000903,"Single Family Homes",1/15/2021,,380900,3357,"434 DEVLIN SHORES DR",CONROE,TX,77303,,,CONTRACTOR,,,,,,,,,,,"PERRY HOMES",,,,,"PERRY HOMES","9000 GULF FWY",HOUSTON,TX,77017-7018,"(713) 417-1396",,,,
TX,BRAZOS,21-0053,"Single Family Homes",1/11/2021,,137000,2052,"991 MARQUIS DR",BRYAN,TX,77803,FOLLETT,4,CONTRACTOR,,,,,,,,,,,"LEGEND CLASSIC HOMES",,,,,"LEGEND CLASSIC HOMES","6634 BEESTON HILL DR",KATY,TX,77449-0195,"(281) 463-9950",http://legendhomeshouston.com/,,,
TX,MONTGOMERY,BR-21-000913,"Single Family Homes",1/25/2021,,189000,2616,"3432 WOODED LN",CONROE,TX,77356,,,CONTRACTOR,,,,,,,,,,,"LEGEND HOMES",,,,,"LEGEND HOMES","10410 WINDAMERE LAKES BLVD",HOUSTON,TX,77065-4996,"(281) 671-9060",http://legendhomecorp.com/,"(281) 671-9055",,
TX,MONTGOMERY,BR-21-000917,"Single Family Homes",1/25/2021,,164000,2513,"4455 EVESLAGE LN  ",CONROE,TX,77303,,,CONTRACTOR,,,,,,,,,,,"LEGEND HOMES",,,,,"LEGEND HOMES","10410 WINDAMERE LAKES BLVD",HOUSTON,TX,77065-4996,"(281) 671-9060",http://legendhomecorp.com/,"(281) 671-9055",,
TX,MONTGOMERY,BR-21-000921,"Single Family Homes",1/25/2021,,150139,2097,"4459 EVESLAGE LN",CONROE,TX,77303,,,CONTRACTOR,,,,,,,,,,,"LEGEND CLASSIC HOMES",,,,,"LEGEND CLASSIC HOMES","6634 BEESTON HILL DR",KATY,TX,77449-0195,"(281) 463-9950",http://legendhomeshouston.com/,,,
TX,MONTGOMERY,BR-21-000934,"Single Family Homes",1/29/2021,,177486,3232,"4504 STEPHANIE PARK CT",CONROE,TX,77356,,,CONTRACTOR,,,,,,,,,,,"LEGEND HOMES",,,,,"LEGEND HOMES","10410 WINDAMERE LAKES BLVD",HOUSTON,TX,77065-4996,"(281) 671-9060",http://legendhomecorp.com/,"(281) 671-9055",,
TX,MONTGOMERY,BR-21-000937,"Single Family Homes",1/22/2021,,164000,2630,"4508 STEPHANIE PARK CT",CONROE,TX,77303,,,CONTRACTOR,,,,,,,,,,,"LEGEND HOMES",,,,,"LEGEND HOMES","10410 WINDAMERE LAKES BLVD",HOUSTON,TX,77065-4996,"(281) 671-9060",http://legendhomecorp.com/,"(281) 671-9055",,
TX,MONTGOMERY,BR-21-000941,"Single Family Homes",1/22/2021,,150139,2097,"4512 STEPHANIE PARK CT",CONROE,TX,77303,,,CONTRACTOR,,,,,,,,,,,"LEGEND HOMES",,,,,"LEGEND HOMES","10410 WINDAMERE LAKES BLVD",HOUSTON,TX,77065-4996,"(281) 671-9060",http://legendhomecorp.com/,"(281) 671-9055",,
TX,BRAZOS,21-0009,"Single Family Homes",1/11/2021,,92000,2052,"5749 CERRILLOS DR",BRYAN,TX,77807,"ALAMOSA SPRINGS",25,CONTRACTOR,,,,,,,,,,,"LEGEND CLASSIC HOMES",,,,,"LEGEND CLASSIC HOMES","6634 BEESTON HILL DR",KATY,TX,77449-0195,"(281) 463-9950",http://legendhomeshouston.com/,,,
TX,BRAZOS,21-0016,"Single Family Homes",1/11/2021,,194106,2153,"3010 ALPHA CT",BRYAN,TX,77808,"AUSTINS COLONY",2,CONTRACTOR,,,,,,,,,,,"RNL HOME BUILDERS",,,,,"RNL HOME BUILDERS","4253 ROCKY RHODES DRIVE","COLLEGE STATION",TX,77845,"(979) 402-2531",http://www.rnlhomebuilders.com,,,RNLHomebuilders@gmail.com
TX,MONTGOMERY,BR-21-000999,"Single Family Homes",1/15/2021,,142245,3161,"12105 BLACK SAGE CT  ",CONROE,TX,77303,,,CONTRACTOR,,,,,,,,,,,"DR HORTON",,,,,"DR HORTON","14100 SOUTHWEST",HOUSTON,TX,77478,"(281) 201-5559",,,,
TX,BRAZOS,21-0042,"Single Family Homes",1/12/2021,,171910,2082,"1442 KINGSGATE DR",BRYAN,TX,77807,EDGEWATER,1,CONTRACTOR,,,,,,,,,,,"STYLECRAFT BUILDERS ",,,,,"STYLECRAFT BUILDERS ","4090 STATE HIGHWAY 6 S","COLLEGE STATION",TX,77845-8962,"(979) 764-9900",,"(979) 690-3069","TANNER BREWSTER",tabrewster@stylecraft-builders.com
TX,BRAZOS,21-0043,"Single Family Homes",1/12/2021,,190938,2082,"2066 VIVA RD",BRYAN,TX,77807,EDGEWATER,19,CONTRACTOR,,,,,,,,,,,"STYLECRAFT BUILDERS ",,,,,"STYLECRAFT BUILDERS ","4090 STATE HIGHWAY 6 S","COLLEGE STATION",TX,77845-8962,"(979) 764-9900",,"(979) 690-3069","TANNER BREWSTER",tabrewster@stylecraft-builders.com
TX,BRAZOS,21-0044,"Single Family Homes",1/12/2021,,140316,1593,"1496 KINGSGATE DR",BRYAN,TX,77807,EDGEWATER,5,CONTRACTOR,,,,,,,,,,,"STYLECRAFT BUILDERS ",,,,,"STYLECRAFT BUILDERS ","4090 STATE HIGHWAY 6 S","COLLEGE STATION",TX,77845-8962,"(979) 764-9900",,"(979) 690-3069","TANNER BREWSTER",tabrewster@stylecraft-builders.com
TX,MONTGOMERY,BR-21-001076,"Single Family Homes",1/21/2021,,183872,3412,"109 BUTTONWOOD CT",CONROE,TX,77303,,,CONTRACTOR,,,,,,,,,,,"CHESMAR HOMES",,,,,"CHESMAR HOMES","450 GEARS RD STE 400",HOUSTON,TX,77067-4513,"(281) 598-1111",http://chesmar.com,"(281) 598-1115",,customerservice.houston@chesmar.com
TX,BRAZOS,21-0025,"Single Family Homes",1/13/2021,,177474,2039,"1929 CAMBRIA DR",BRYAN,TX,77807,"BOULDER CREEK",14,CONTRACTOR,,,,,,,,,,,"RANGER HOME BUILDERS",,,,,"RANGER HOME BUILDERS","3101 NORMANDY WAY",BRYAN,TX,77808,"(979) 255-7526",,,,
TX,MONTGOMERY,BR-21-001081,"Single Family Homes",1/21/2021,,162348,3055,"426 SOAPBERRY TREE CT",CONROE,TX,77303,,,CONTRACTOR,,,,,,,,,,,"HF HOLDINGS",,,,,"HF HOLDINGS","1707 ORLANDO CENTRAL PKWY  STE 440",ORLANDO,TX,32809-5759,"(877) 680-6064",,,,
TX,BRAZOS,20-4877,"Single Family Homes",1/13/2021,,614900,2616,"3613 RIVER BIRCH CIR",BRYAN,TX,77807,TRADITIONS,4,CONTRACTOR,,,,,,,,,,,"MURPHY SIGNATURE HOMES",,,,,"MURPHY SIGNATURE HOMES","1580 COPPERFIELD PKWY","COLLEGE STATION",TX,77845-4674,"(979) 703-1979",https://www.murphysignaturehomes.com/,,,
TX,MONTGOMERY,BR-21-001086,"Single Family Homes",1/21/2021,,176470,3364,"128 BUTTONWOOD CT",CONROE,TX,77303,,,CONTRACTOR,,,,,,,,,,,"CHESMAR HOMES",,,,,"CHESMAR HOMES","450 GEARS RD STE 400",HOUSTON,TX,77067-4513,"(281) 598-1111",http://chesmar.com,"(281) 598-1115",,customerservice.houston@chesmar.com
TX,BRAZOS,20-4665,"Single Family Homes",1/13/2021,,110000,1387,"1613 MERVINS RUN",BRYAN,TX,77803,"WJ COULTER",1,CONTRACTOR,,,,,,,,,,,"HABITAT FOR HUMANITY-HOUSTON",,,,,"HABITAT FOR HUMANITY-HOUSTON","3750 N MCCARTY ST",HOUSTON,TX,77029-1046,"(713) 671-9993",http://houstonhabitat.org/,,"ALLISON HAY",info@houstonhabitat.org
TX,MONTGOMERY,BR-21-001094,"Single Family Homes",1/21/2021,,152327,2888,"422 SOAPBERRY TREE CT",CONROE,TX,77303,,,CONTRACTOR,,,,,,,,,,,"HF HOLDINGS",,,,,"HF HOLDINGS","1707 ORLANDO CENTRAL PKWY  STE 440",ORLANDO,TX,32809-5759,"(877) 680-6064",,,,
TX,BRAZOS,20-4666,"Single Family Homes",1/13/2021,,110000,1314,"1609 MERVINS RUN",BRYAN,TX,77803,"WJ COULTER",2,CONTRACTOR,,,,,,,,,,,"HABITAT FOR HUMANITY-HOUSTON",,,,,"HABITAT FOR HUMANITY-HOUSTON","3750 N MCCARTY ST",HOUSTON,TX,77029-1046,"(713) 671-9993",http://houstonhabitat.org/,,"ALLISON HAY",info@houstonhabitat.org
TX,BRAZOS,20-4667,"Single Family Homes",1/13/2021,,105000,1116,"1605 MERVINS RUN",BRYAN,TX,77803,"WJ COULTER",3,CONTRACTOR,,,,,,,,,,,"HABITAT FOR HUMANITY-HOUSTON",,,,,"HABITAT FOR HUMANITY-HOUSTON","3750 N MCCARTY ST",HOUSTON,TX,77029-1046,"(713) 671-9993",http://houstonhabitat.org/,,"ALLISON HAY",info@houstonhabitat.org
TX,MONTGOMERY,BR-21-001099,"Single Family Homes",1/21/2021,,152327,3114,"410 SOAPBERRY TREE CT",CONROE,TX,77303,,,CONTRACTOR,,,,,,,,,,,"HF HOLDINGS",,,,,"HF HOLDINGS","1707 ORLANDO CENTRAL PKWY  STE 440",ORLANDO,TX,32809-5759,"(877) 680-6064",,,,
TX,BRAZOS,20-4923,"Single Family Homes",1/14/2021,,234876,1988,"3004 ALPHA CT",BRYAN,TX,77808,"AUSTINS COLONY",5,CONTRACTOR,,,,,,,,,,,"CREEKVIEW CUSTOM BUILDERS",,,,,"CREEKVIEW CUSTOM BUILDERS","1489 CHEROKEE DR","COLLEGE STATION",TX,77845-8446,"(979) 412-5007",http://www.creekviewcustombuilders.com/,,,
TX,MONTGOMERY,BR-21-001106,"Single Family Homes",1/21/2021,,152687,2618,"438 SOAPBERRY TREE CT",CONROE,TX,77303,,,CONTRACTOR,,,,,,,,,,,"HF HOLDINGS",,,,,"HF HOLDINGS","1707 ORLANDO CENTRAL PKWY  STE 440",ORLANDO,TX,32809-5759,"(877) 680-6064",,,,
TX,BRAZOS,21-0069,"Single Family Homes",1/15/2021,,161898,1807,"1908 MERIDIAN CT",BRYAN,TX,77807,"BOULDER CREEK",20,CONTRACTOR,,,,,,,,,,,"RANGER HOME BUILDERS",,,,,"RANGER HOME BUILDERS","547 WILLIAM D FITCH PKWY","COLLEGE STATION",TX,77845-6161,"(979) 255-7526",,,,
TX,BRAZOS,21-0072,"Single Family Homes",1/15/2021,,161898,1807,"3141 NORMANDY WAY",BRYAN,TX,77808,"RUDDER POINTE",12,CONTRACTOR,,,,,,,,,,,"RANGER HOME BUILDERS",,,,,"RANGER HOME BUILDERS","3101 NORMANDY WAY",BRYAN,TX,77808,"(979) 255-7526",,,,
TX,BRAZOS,21-0067,"Single Family Homes",1/15/2021,,150612,1724,"3433 OMAHA CT",BRYAN,TX,77808,"RUDDER POINTE",2,CONTRACTOR,,,,,,,,,,,"RANGER HOME BUILDERS",,,,,"RANGER HOME BUILDERS","3101 NORMANDY WAY",BRYAN,TX,77808,"(979) 255-7526",,,,
TX,BRAZOS,21-0024,"Single Family Homes",1/15/2021,,129030,1405,"3405 UTAH CT",BRYAN,TX,77808,"RUDDER POINTE",10,CONTRACTOR,,,,,,,,,,,"RANGER HOME BUILDERS",,,,,"RANGER HOME BUILDERS","3101 NORMANDY WAY",BRYAN,TX,77808,"(979) 255-7526",,,,
TX,MONTGOMERY,BR-21-001120,"Single Family Homes",1/21/2021,,151699,3114,"722 LACEBARK ELM TRL",CONROE,TX,77303,,,CONTRACTOR,,,,,,,,,,,"HF HOLDINGS",,,,,"HF HOLDINGS","1707 ORLANDO CENTRAL PKWY  STE 440",ORLANDO,TX,32809-5759,"(877) 680-6064",,,,
TX,MONTGOMERY,BR-21-001126,"Single Family Homes",1/27/2021,,148523,2822,"324 CEDRUS HILLS TRL",CONROE,TX,77303,,,CONTRACTOR,,,,,,,,,,,"HF HOLDINGS",,,,,"HF HOLDINGS","1707 ORLANDO CENTRAL PKWY  STE 440",ORLANDO,TX,32809-5759,"(877) 680-6064",,,,
TX,BRAZOS,21-0094,"Single Family Homes",1/19/2021,,246495,1882,"1975 CARTWRIGHT ST",BRYAN,TX,77807,"PLEASANT HILL",6,CONTRACTOR,,,,,,,,,,,"DR HORTON",,,,,"DR HORTON","14100 SOUTHWEST",HOUSTON,TX,77478,"(281) 201-5559",,,,
TX,BRAZOS,21-0096,"Single Family Homes",1/19/2021,,201550,1339,"1969 CARTWRIGHT ST",BRYAN,TX,77807,"PLEASANT HILL",9,CONTRACTOR,,,,,,,,,,,"DR HORTON",,,,,"DR HORTON","14100 SOUTHWEST",HOUSTON,TX,77478,"(281) 201-5559",,,,
TX,BRAZOS,21-0097,"Single Family Homes",1/19/2021,,211680,1532,"1973 THORNDYKE LN",BRYAN,TX,77807,"PLEASANT HILL",7,CONTRACTOR,,,,,,,,,,,"DR HORTON",,,,,"DR HORTON","14100 SOUTHWEST",HOUSTON,TX,77478,"(281) 201-5559",,,,
TX,BRAZOS,21-0099,"Single Family Homes",1/19/2021,,232665,1744,"1974 THORNDYKE LN",BRYAN,TX,77807,"PLEASANT HILL",28,CONTRACTOR,,,,,,,,,,,"DR HORTON",,,,,"DR HORTON","14100 SOUTHWEST",HOUSTON,TX,77478,"(281) 201-5559",,,,
TX,BRAZOS,21-0162,"Single Family Homes",1/19/2021,,212680,1532,"1983 THORNDYKE LN",SACHSE,TX,77807,"PLEASANT HILL",2,CONTRACTOR,,,,,,,,,,,"DR HORTON",,,,,"DR HORTON","14100 SOUTHWEST",HOUSTON,TX,77478,"(281) 201-5559",,,,
TX,BRAZOS,21-0165,"Single Family Homes",1/19/2021,,214698,2587,"2074 VIVA RD",BRYAN,TX,77807,EDGEWATER,21,CONTRACTOR,,,,,,,,,,,"STYLECRAFT BUILDERS ",,,,,"STYLECRAFT BUILDERS ","4090 STATE HIGHWAY 6 S","COLLEGE STATION",TX,77845-8962,"(979) 764-9900",,"(979) 690-3069","TANNER BREWSTER",tabrewster@stylecraft-builders.com
TX,BRAZOS,21-0080,"Single Family Homes",1/20/2021,,182000,2800,"2804 MEMORY LN",BRYAN,TX,77807,TRADITIONS,,CONTRACTOR,,,,,,,,,,,"BLUESTONE PARTNERS",,,,,"BLUESTONE PARTNERS","2913 OVERLAND TRAIL #100",SHERMAN,TX,75092,"(903) 813-1415",http://www.bluestone.ws,"(903) 893-2124","JIM CROSS",jimcross@bluestone.ws
TX,BRAZOS,21-0171,"Single Family Homes",1/20/2021,,177474,2039,"3409 OMAHA CT",BRYAN,TX,77808,"RUDDER POINTE",8,CONTRACTOR,,,,,,,,,,,"RANGER HOME BUILDERS",,,,,"RANGER HOME BUILDERS","3101 NORMANDY WAY",BRYAN,TX,77808,"(979) 255-7526",,,,
TX,BRAZOS,21-0184,"Single Family Homes",1/20/2021,,150612,1724,"3413 OMAHA CT",BRYAN,TX,77808,"RUDDER POINTE",7,CONTRACTOR,,,,,,,,,,,"RANGER HOME BUILDERS",,,,,"RANGER HOME BUILDERS","3101 NORMANDY WAY",BRYAN,TX,77808,"(979) 255-7526",,,,
TX,BRAZOS,21-0079,"Single Family Homes",1/20/2021,,116610,1794,"2809 MAROON CT",BRYAN,TX,77807,TRADITIONS,,CONTRACTOR,,,,,,,,,,,"BLUESTONE PARTNERS",,,,,"BLUESTONE PARTNERS","2913 OVERLAND TRAIL #100",SHERMAN,TX,75092,"(903) 813-1415",http://www.bluestone.ws,"(903) 893-2124","JIM CROSS",jimcross@bluestone.ws
TX,BRAZOS,21-0175,"Single Family Homes",1/21/2021,,1400000,5727,"4221 TUSCANY CT",BRYAN,TX,77802,MIRAMONT,7,CONTRACTOR,,,,,,,,,,,"ELLIS CUSTOM HOMES",,,,,"ELLIS CUSTOM HOMES","101 GROVE ST","COLLEGE STATION",TX,77840-2836,"(979) 695-8394",http://www.elliscustomhomes.com,"(979) 764-7999",,
TX,BRAZOS,21-0173,"Single Family Homes",1/21/2021,,164592,1500,"1901 CAMBRIA DR",BRYAN,TX,77807,"BOULDER CREEK",1,CONTRACTOR,,,,,,,,,,,"AVONLEY HOMES",,,,,"AVONLEY HOMES","3900 STATE HIGHWAY 6 S STE 110","COLLEGE STATION",TX,77845-5831,"(979) 635-4800",https://www.avonleyhomes.com/,,,info@avonleyhomes.com
TX,BRAZOS,21-0172,"Single Family Homes",1/21/2021,,190674,1800,"1909 CAMBRIA DR",BRYAN,TX,77807,"BOULDER CREEK",5,CONTRACTOR,,,,,,,,,,,"AVONLEY HOMES",,,,,"AVONLEY HOMES","3900 STATE HIGHWAY 6 S STE 110","COLLEGE STATION",TX,77845-5831,"(979) 635-4800",https://www.avonleyhomes.com/,,,info@avonleyhomes.com
TX,BRAZOS,20-4835,"Single Family Homes",1/22/2021,,200000,1806,"5141 MAROON CREEK DR",BRYAN,TX,77802,OAKMONT,13,CONTRACTOR,,,,,,,,,,,"BLACKSTONE HOMES",,,,,"BLACKSTONE HOMES","2829 TIMMONS LN APT 157",HOUSTON,TX,77027-5357,"(281) 827-8716",,,"ANDREW COLLINS",
TX,BRAZOS,21-0192,"Single Family Homes",1/22/2021,,272184,2855,"2920 BOXELDER DR",BRYAN,TX,77807,TRADITIONS,6,CONTRACTOR,,,,,,,,,,,"SOUTHERN CREEK HOMES",,,,,"SOUTHERN CREEK HOMES","14550 TORREY CHASE BLVD STE 465",HOUSTON,TX,77014-1019,"(281) 602-1084",http://www.southerncreekhomes.com/,,,
TX,BRAZOS,20-4597,"Single Family Homes",1/22/2021,,110000,1387,"1206 DALE ST",BRYAN,TX,77803,"CANDY HILL",15,CONTRACTOR,,,,,,,,,,,"HABITAT FOR HUMANITY-HOUSTON",,,,,"HABITAT FOR HUMANITY-HOUSTON","3750 N MCCARTY ST",HOUSTON,TX,77029-1046,"(713) 671-9993",http://houstonhabitat.org/,,"ALLISON HAY",info@houstonhabitat.org
TX,BRAZOS,20-4596,"Single Family Homes",1/22/2021,,110000,1387,"1208 DALE ST",BRYAN,TX,77803,"CANDY HILL",16,CONTRACTOR,,,,,,,,,,,"HABITAT FOR HUMANITY-HOUSTON",,,,,"HABITAT FOR HUMANITY-HOUSTON","3750 N MCCARTY ST",HOUSTON,TX,77029-1046,"(713) 671-9993",http://houstonhabitat.org/,,"ALLISON HAY",info@houstonhabitat.org
TX,BRAZOS,21-0152,"Single Family Homes",1/22/2021,,400000,3098,"5113 INVERNESS DR",BRYAN,TX,77802,MIRAMONT,15,CONTRACTOR,,,,,,,,,,,"FIERCE CUSTOM HOMES",,,,,"FIERCE CUSTOM HOMES","2103 TABOR RD",BRYAN,TX,77803,"(979) 209-9775",,,,
TX,BRAZOS,21-0027,"Single Family Homes",1/25/2021,,177474,2039,"3432 UTAH CT",BRYAN,TX,77808,"RUDDER POINTE",20,CONTRACTOR,,,,,,,,,,,"RANGER HOME BUILDERS",,,,,"RANGER HOME BUILDERS","3101 NORMANDY WAY",BRYAN,TX,77808,"(979) 255-7526",,,,
TX,BRAZOS,2-0076,"Single Family Homes",1/25/2021,,279327,2204,"3220 GLENCAIRN CT",BRYAN,TX,77808,GREENBRIER,9,CONTRACTOR,,,,,,,,,,,"ROBBIE ROBINSON",,,,,"ROBBIE ROBINSON","3800 S H 6 S 104","COLLEGE STATION",TX,77845,"(832) 692-1932",,,,
TX,BRAZOS,21-0202,"Single Family Homes",1/25/2021,,106073,1272,"1923 BASIL CT",BRYAN,TX,77801,"NORTHCREST COTTAGES",32,CONTRACTOR,,,,,,,,,,,"BLACKROCK BUILDERS",,,,,"BLACKROCK BUILDERS","553 N POST OAK LN",HOUSTON,TX,77024-4629,"(281) 914-6785",http://www.blackrockbuilderstx.com/,,,
TX,BRAZOS,21-0203,"Single Family Homes",1/25/2021,,105073,1272,"912 NORTHCREST DR",BRYAN,TX,77801,"NORTHCREST COTTAGES",1,CONTRACTOR,,,,,,,,,,,"BLACKROCK BUILDERS",,,,,"BLACKROCK BUILDERS","553 N POST OAK LN",HOUSTON,TX,77024-4629,"(281) 914-6785",http://www.blackrockbuilderstx.com/,,,
TX,BRAZOS,21-0204,"Single Family Homes",1/25/2021,,105505,1115,"1904 BASIL CT",BRYAN,TX,77801,"NORTHCREST COTTAGES",3,CONTRACTOR,,,,,,,,,,,"BLACKROCK BUILDERS",,,,,"BLACKROCK BUILDERS","553 N POST OAK LN",HOUSTON,TX,77024-4629,"(281) 914-6785",http://www.blackrockbuilderstx.com/,,,
TX,BRAZOS,21-0206,"Single Family Homes",1/25/2021,,106073,1272,"1905 BASIL CT",BRYAN,TX,77801,"NORTHCREST COTTAGES",7,CONTRACTOR,,,,,,,,,,,"BLACKROCK BUILDERS",,,,,"BLACKROCK BUILDERS","553 N POST OAK LN",HOUSTON,TX,77024-4629,"(281) 914-6785",http://www.blackrockbuilderstx.com/,,,
TX,BRAZOS,21-0212,"Single Family Homes",1/25/2021,,179916,1909,"2025 BRISBANE WAY",BRYAN,TX,77807,"PLEASANT HILL",19,CONTRACTOR,,,,,,,,,,,"OMEGA BUILDERS GROUP",,,,,"OMEGA BUILDERS GROUP","7353 W ADAMS AVE",TEMPLE,TX,76502-5539,"(254) 773-9966",,,,
TX,BRAZOS,21-0213,"Single Family Homes",1/25/2021,,165924,2102,"2018 BRISBANE WAY",BRYAN,TX,77807,"PLEASANT HILL",25,CONTRACTOR,,,,,,,,,,,"OMEGA BUILDERS GROUP",,,,,"OMEGA BUILDERS GROUP","7353 W ADAMS AVE",TEMPLE,TX,76502-5539,"(254) 773-9966",,,,
TX,BRAZOS,21-0055,"Single Family Homes",1/26/2021,,224466,2710,"3029 WOLFPACK LOOP",BRYAN,TX,77808,"AUSTINS COLONY",18,CONTRACTOR,,,,,,,,,,,"RNL HOME BUILDERS",,,,,"RNL HOME BUILDERS","4253 ROCKY RHODES DRIVE","COLLEGE STATION",TX,77845,"(979) 402-2531",http://www.rnlhomebuilders.com,,,RNLHomebuilders@gmail.com
TX,BRAZOS,21-0197,"Single Family Homes",1/26/2021,,117678,1349,"2036 THERESA DR",BRYAN,TX,77807,EDGEWATER,26,CONTRACTOR,,,,,,,,,,,"STYLECRAFT BUILDERS ",,,,,"STYLECRAFT BUILDERS ","4090 STATE HIGHWAY 6 S","COLLEGE STATION",TX,77845-8962,"(979) 764-9900",,"(979) 690-3069","TANNER BREWSTER",tabrewster@stylecraft-builders.com
TX,BRAZOS,21-0233,"Single Family Homes",1/26/2021,,109626,1262,"3718 MCKENZIE ST",BRYAN,TX,77803,"CONNORS COVE",5,CONTRACTOR,,,,,,,,,,,"STYLECRAFT BUILDERS ",,,,,"STYLECRAFT BUILDERS ","4090 STATE HIGHWAY 6 S","COLLEGE STATION",TX,77845-8962,"(979) 764-9900",,"(979) 690-3069","TANNER BREWSTER",tabrewster@stylecraft-builders.com
TX,BRAZOS,21-0274,"Single Family Homes",1/27/2021,,209850,1532,"1973 CARTWRIGHT ST",BRYAN,TX,77807,"PLEASANT HILL",7,CONTRACTOR,,,,,,,,,,,"DR HORTON",,,,,"DR HORTON","14100 SOUTHWEST",HOUSTON,TX,77478,"(281) 201-5559",,,,
TX,BRAZOS,21-0288,"Single Family Homes",1/28/2021,,279327,2202,"3212 GLENCAIRN CT",BRYAN,TX,77808,GREENBRIER,11,CONTRACTOR,,,,,,,,,,,"ROBBIE ROBINSON",,,,,"ROBBIE ROBINSON","3800 S H 6 S 104","COLLEGE STATION",TX,77845,"(832) 692-1932",,,,
TX,BRAZOS,21-0299,"Single Family Homes",1/28/2021,,109626,1262,"2015 THERESA DR",BRYAN,TX,77807,EDGEWATER,7,CONTRACTOR,,,,,,,,,,,"STYLECRAFT BUILDERS ",,,,,"STYLECRAFT BUILDERS ","4090 STATE HIGHWAY 6 S","COLLEGE STATION",TX,77845-8962,"(979) 764-9900",,"(979) 690-3069","TANNER BREWSTER",tabrewster@stylecraft-builders.com
TX,BRAZOS,21-0295,"Single Family Homes",1/28/2021,,166122,1818,"1426 KINGSGATE DR",BRYAN,TX,77807,EDGEWATER,9,CONTRACTOR,,,,,,,,,,,"STYLECRAFT BUILDERS ",,,,,"STYLECRAFT BUILDERS ","4090 STATE HIGHWAY 6 S","COLLEGE STATION",TX,77845-8962,"(979) 764-9900",,"(979) 690-3069","TANNER BREWSTER",tabrewster@stylecraft-builders.com
TX,BRAZOS,21-0298,"Single Family Homes",1/28/2021,,134640,1613,"2047 BRISBANE WAY",BRYAN,TX,77807,"PLEASANT HILL",9,CONTRACTOR,,,,,,,,,,,"STYLECRAFT BUILDERS ",,,,,"STYLECRAFT BUILDERS ","4090 STATE HIGHWAY 6 S","COLLEGE STATION",TX,77845-8962,"(979) 764-9900",,"(979) 690-3069","TANNER BREWSTER",tabrewster@stylecraft-builders.com
TX,BRAZOS,20-0250,"Single Family Homes",1/29/2021,,116226,1262,"1912 SHIMLA CT",BRYAN,TX,77807,EDGEWATER,22,CONTRACTOR,,,,,,,,,,,"STYLECRAFT BUILDERS ",,,,,"STYLECRAFT BUILDERS ","4090 STATE HIGHWAY 6 S","COLLEGE STATION",TX,77845-8962,"(979) 764-9900",,"(979) 690-3069","TANNER BREWSTER",tabrewster@stylecraft-builders.com
TX,MONTGOMERY,BR-21-001132,"Single Family Homes",1/21/2021,,320819,3177,"232 BEE BALM CT",CONROE,TX,77303,,,CONTRACTOR,,,,,,,,,,,"DREES CUSTOM HOMES",,,,,"DREES CUSTOM HOMES","9720 CYPRESSWOOD DR",HOUSTON,TX,77070-3355,"(281) 653-8850",http://www.dreeshomes.com,,,
TX,MONTGOMERY,BR-21-001137,"Single Family Homes",1/21/2021,,342120,3389,"228 BEE BALM CT",CONROE,TX,77303,,,CONTRACTOR,,,,,,,,,,,"DREES CUSTOM HOMES",,,,,"DREES CUSTOM HOMES","9720 CYPRESSWOOD DR",HOUSTON,TX,77070-3355,"(281) 653-8850",http://www.dreeshomes.com,,,
TX,MONTGOMERY,BR-21-001147,"Single Family Homes",1/22/2021,,150139,2097,"4524 STEPHANIE PARK CT",CONROE,TX,77303,,,"MADISON BEND","4524 STEPHANIE PARK CT",CONROE,TX,77303,,Owner,,,,,"LEGEND HOMES",,,,,"LEGEND HOMES","10410 WINDAMERE LAKES BLVD",HOUSTON,TX,77065-4996,"(281) 671-9060",http://legendhomecorp.com/,"(281) 671-9055",,
TX,MONTGOMERY,BR-21-001150,"Single Family Homes",1/29/2021,,165316,2658,"4516 STEPHANIE PARK CT",CONROE,TX,77303,,,"MADISON BEND","4516 STEPHANIE PARK CT",CONROE,TX,77303,,Owner,,,,,"LEGEND HOMES",,,,,"LEGEND HOMES","10410 WINDAMERE LAKES BLVD",HOUSTON,TX,77065-4996,"(281) 671-9060",http://legendhomecorp.com/,"(281) 671-9055",,
TX,MONTGOMERY,BR-21-001154,"Single Family Homes",1/29/2021,,163484,2631,"4520 STEPHANIE PARK CT",CONROE,TX,77303,,,"MADISON BEND","4520 STEPHANIE PARK CT",CONROE,TX,77303,,Owner,,,,,"LEGEND HOMES",,,,,"LEGEND HOMES","10410 WINDAMERE LAKES BLVD",HOUSTON,TX,77065-4996,"(281) 671-9060",http://legendhomecorp.com/,"(281) 671-9055",,
TX,MONTGOMERY,BR-21-001211,"Single Family Homes",1/25/2021,,163000,2581,"3571 CANNON DR ",CONROE,TX,77303,,,CONTRACTOR,,,,,,,,,,,"LEGEND HOMES",,,,,"LEGEND HOMES","10410 WINDAMERE LAKES BLVD",HOUSTON,TX,77065-4996,"(281) 671-9060",http://legendhomecorp.com/,"(281) 671-9055",,
TX,MONTGOMERY,BR-21-001254,"Single Family Homes",1/25/2021,,180000,2186,"3567 CANNON DR",CONROE,TX,77303,,,CONTRACTOR,,,,,,,,,,,"LEGEND HOMES",,,,,"LEGEND HOMES","10410 WINDAMERE LAKES BLVD",HOUSTON,TX,77065-4996,"(281) 671-9060",http://legendhomecorp.com/,"(281) 671-9055",,
TX,MONTGOMERY,BR-21-001259,"Single Family Homes",1/22/2021,,163000,2581,"3472 WOODED LN",CONROE,TX,77303,,,CONTRACTOR,,,,,,,,,,,"LEGEND HOMES",,,,,"LEGEND HOMES","10410 WINDAMERE LAKES BLVD",HOUSTON,TX,77065-4996,"(281) 671-9060",http://legendhomecorp.com/,"(281) 671-9055",,
TX,MONTGOMERY,BR-21-001271,"Single Family Homes",1/25/2021,,180000,1871,"3476 WOODED LN",CONROE,TX,77303,,,CONTRACTOR,,,,,,,,,,,"LEGEND HOMES",,,,,"LEGEND HOMES","10410 WINDAMERE LAKES BLVD",HOUSTON,TX,77065-4996,"(281) 671-9060",http://legendhomecorp.com/,"(281) 671-9055",,
TX,MONTGOMERY,BR-21-001307,"Single Family Homes",1/29/2021,,180000,2464,"3579 CANNON DR",CONROE,TX,77303,,,CONTRACTOR,,,,,,,,,,,"LEGEND HOMES",,,,,"LEGEND HOMES","10410 WINDAMERE LAKES BLVD",HOUSTON,TX,77065-4996,"(281) 671-9060",http://legendhomecorp.com/,"(281) 671-9055",,
TX,MONTGOMERY,BR-21-001314,"Single Family Homes",1/29/2021,,180000,1836,"3559 CANNON DR",CONROE,TX,77303,,,CONTRACTOR,,,,,,,,,,,"LEGEND HOMES",,,,,"LEGEND HOMES","10410 WINDAMERE LAKES BLVD",HOUSTON,TX,77065-4996,"(281) 671-9060",http://legendhomecorp.com/,"(281) 671-9055",,
TX,MONTGOMERY,BR-21-001327,"Single Family Homes",1/29/2021,,177486,3173,"4454 EVESLAGE LN",CONROE,TX,77303,,,"MADISON BEND","4454 EVESLAGE LN",CONROE,TX,77303,,Owner,,,,,"LEGEND HOMES",,,,,"LEGEND HOMES","10410 WINDAMERE LAKES BLVD",HOUSTON,TX,77065-4996,"(281) 671-9060",http://legendhomecorp.com/,"(281) 671-9055",,
TX,MONTGOMERY,BR-21-001330,"Single Family Homes",1/22/2021,,227620,2985,"4022 TIMBER SAPP DR",CONROE,TX,77303,,,CONTRACTOR,,,,,,,,,,,"PULTE HOMES",,,,,"PULTE HOMES","16670 PARK ROW",HOUSTON,TX,77084-6866,"(281) 749-8000",,,,
TX,MONTGOMERY,BR-21-001472,"Single Family Homes",1/28/2021,,400000,3946,"100 EVENING TIDE CT",CONROE,TX,77303,,,CONTRACTOR,,,,,,,,,,,"RAVENNA HOMES",,,,,"RAVENNA HOMES","28902 POWDER RIDGE DR",KATY,TX,77494-1918,"(281) 693-7209",,,,
TX,MONTGOMERY,BR-21-001481,"Single Family Homes",1/26/2021,,233230,2985,"4038 TIMBER SAPP DR",CONROE,TX,77303,,,CONTRACTOR,,,,,,,,,,,"PULTE HOMES",,,,,"PULTE HOMES","16670 PARK ROW",HOUSTON,TX,77084-6866,"(281) 749-8000",,,,
TX,MONTGOMERY,BR-21-001484,"Single Family Homes",1/26/2021,,220000,3229,"4053 TIMBER SAPP DR",CONROE,TX,77303,,,CONTRACTOR,,,,,,,,,,,"PULTE HOMES",,,,,"PULTE HOMES","16670 PARK ROW",HOUSTON,TX,77084-6866,"(281) 749-8000",,,,
TX,MONTGOMERY,BR-21-001491,"Single Family Homes",1/26/2021,,235290,3229,"4018 TIMBER SAPP DR",CONROE,TX,77303,,,CONTRACTOR,,,,,,,,,,,"PULTE HOMES",,,,,"PULTE HOMES","16670 PARK ROW",HOUSTON,TX,77084-6866,"(281) 749-8000",,,,
TX,MONTGOMERY,BR-21-001494,"Single Family Homes",1/26/2021,,264840,3290,"4271 PINE STILL RD",CONROE,TX,77303,,,CONTRACTOR,,,,,,,,,,,"PULTE HOMES",,,,,"PULTE HOMES","16670 PARK ROW",HOUSTON,TX,77084-6866,"(281) 749-8000",,,,
TX,MONTGOMERY,BR-21-001511,"Single Family Homes",1/26/2021,,251830,3290,"4026 TIMBER SAPP DR",CONROE,TX,77303,,,CONTRACTOR,,,,,,,,,,,"PULTE HOMES",,,,,"PULTE HOMES","16670 PARK ROW",HOUSTON,TX,77084-6866,"(281) 749-8000",,,,
TX,MONTGOMERY,BR-21-001522,"Single Family Homes",1/27/2021,,1000000,7306,"2059 BENNET LN",CONROE,TX,77303,,,CONTRACTOR,,,,,,,,,,,"PARTNERS IN BUILDING",,,,,"PARTNERS IN BUILDING","2901 W SAM HOUSTON PKWY N STE C250",HOUSTON,TX,77043-1624,"(713) 937-1121",http://www.partnersinbuilding.com,"(713) 937-1145",,
TX,MONTGOMERY,BR-21-001528,"Single Family Homes",1/26/2021,,199400,1901,"4041 TIMBER SAPP DR",CONROE,TX,77303,,,CONTRACTOR,,,,,,,,,,,"PULTE HOMES",,,,,"PULTE HOMES","16670 PARK ROW",HOUSTON,TX,77084-6866,"(281) 749-8000",,,,
TX,MONTGOMERY,BR-21-001531,"Single Family Homes",1/26/2021,,230880,2533,"4045 TIMBER SAPP DR",CONROE,TX,77303,,,CONTRACTOR,,,,,,,,,,,"PULTE HOMES",,,,,"PULTE HOMES","16670 PARK ROW",HOUSTON,TX,77084-6866,"(281) 749-8000",,,,
TX,MONTGOMERY,BR-21-001534,"Single Family Homes",1/26/2021,,270850,3274,"4054 TIMBER SAPP DR",CONROE,TX,77303,,,CONTRACTOR,,,,,,,,,,,"PULTE HOMES",,,,,"PULTE HOMES","16670 PARK ROW",HOUSTON,TX,77084-6866,"(281) 749-8000",,,,
TX,MONTGOMERY,BR-21-001537,"Single Family Homes",1/26/2021,,252630,3118,"4042 TIMBER SAPP DR",CONROE,TX,77303,,,CONTRACTOR,,,,,,,,,,,"PULTE HOMES",,,,,"PULTE HOMES","16670 PARK ROW",HOUSTON,TX,77084-6866,"(281) 749-8000",,,,
TX,MONTGOMERY,BR-21-001541,"Single Family Homes",1/26/2021,,212370,2680,"4259 PINE STILL RD",CONROE,TX,77303,,,CONTRACTOR,,,,,,,,,,,"PULTE HOMES",,,,,"PULTE HOMES","16670 PARK ROW",HOUSTON,TX,77084-6866,"(281) 749-8000",,,,
TX,MONTGOMERY,BR-21-001545,"Single Family Homes",1/26/2021,,233460,2436,"4009 TIMBER SAPP DR",CONROE,TX,77303,,,CONTRACTOR,,,,,,,,,,,"PULTE HOMES",,,,,"PULTE HOMES","16670 PARK ROW",HOUSTON,TX,77084-6866,"(281) 749-8000",,,,
TX,MONTGOMERY,BR-21-001549,"Single Family Homes",1/26/2021,,221940,2114,"4010 TIMBER SAPP DR",CONROE,TX,77303,,,CONTRACTOR,,,,,,,,,,,"PULTE HOMES",,,,,"PULTE HOMES","16670 PARK ROW",HOUSTON,TX,77084-6866,"(281) 749-8000",,,,
TX,MONTGOMERY,BR-21-001553,"Single Family Homes",1/29/2021,,353900,2790,"143 DOVE SPRINGS CT",CONROE,TX,77303,,,CONTRACTOR,,,,,,,,,,,"PERRY HOMES",,,,,"PERRY HOMES","9000 GULF FWY",HOUSTON,TX,77017-7018,"(713) 417-1396",,,,
TX,MONTGOMERY,BR-21-001560,"Single Family Homes",1/29/2021,,333900,2641,"159 DOVE SPRINGS CT",CONROE,TX,77303,,,CONTRACTOR,,,,,,,,,,,"PERRY HOMES",,,,,"PERRY HOMES","9000 GULF FWY",HOUSTON,TX,77017-7018,"(713) 417-1396",,,,
TX,MONTGOMERY,BR-21-001561,"Single Family Homes",1/26/2021,,228680,2301,"4014 TIMBER SAPP DR",CONROE,TX,77303,,,CONTRACTOR,,,,,,,,,,,"PULTE HOMES",,,,,"PULTE HOMES","16670 PARK ROW",HOUSTON,TX,77084-6866,"(281) 749-8000",,,,
TX,MONTGOMERY,BR-21-001568,"Single Family Homes",1/26/2021,,220140,2031,"4006 TIMBER SAPP DR",CONROE,TX,77303,,,CONTRACTOR,,,,,,,,,,,"PULTE HOMES",,,,,"PULTE HOMES","16670 PARK ROW",HOUSTON,TX,77084-6866,"(281) 749-8000",,,,
TX,MONTGOMERY,BR-21-001572,"Single Family Homes",1/29/2021,,359900,2772,"614 LOST MAPLES BEND LN",CONROE,TX,77303,,,CONTRACTOR,,,,,,,,,,,"PERRY HOMES",,,,,"PERRY HOMES","9000 GULF FWY",HOUSTON,TX,77017-7018,"(713) 417-1396",,,,
TX,MONTGOMERY,BR-21-001576,"Single Family Homes",1/26/2021,,217830,2296,"4049 TIMBER SAPP DR",CONROE,TX,77303,,,CONTRACTOR,,,,,,,,,,,"PULTE HOMES",,,,,"PULTE HOMES","16670 PARK ROW",HOUSTON,TX,77084-6866,"(281) 749-8000",,,,
TX,MONTGOMERY,BR-21-001584,"Single Family Homes",1/26/2021,,246340,2582,"4005 TIMBER SAPP DR",CONROE,TX,77303,,,CONTRACTOR,,,,,,,,,,,"PULTE HOMES",,,,,"PULTE HOMES","16670 PARK ROW",HOUSTON,TX,77084-6866,"(281) 749-8000",,,,
TX,MONTGOMERY,BR-21-001596,"Single Family Homes",1/29/2021,,333900,2641,"620 LOST MAPLES BEND LN",CONROE,TX,77303,,,CONTRACTOR,,,,,,,,,,,"PERRY HOMES",,,,,"PERRY HOMES","9000 GULF FWY",HOUSTON,TX,77017-7018,"(713) 417-1396",,,,
TX,MONTGOMERY,BR-21-001600,"Single Family Homes",1/29/2021,,331900,2696,"627 LOST MAPLES BEND LN",CONROE,TX,77303,,,CONTRACTOR,,,,,,,,,,,"PERRY HOMES",,,,,"PERRY HOMES","9000 GULF FWY",HOUSTON,TX,77017-7018,"(713) 417-1396",,,,
TX,MONTGOMERY,BR-21-001606,"Single Family Homes",1/15/2021,,332900,2619,"631 LOST MAPLES BEND LN",CONROE,TX,77303,,,CONTRACTOR,,,,,,,,,,,"PERRY HOMES",,,,,"PERRY HOMES","9000 GULF FWY",HOUSTON,TX,77017-7018,"(713) 417-1396",,,,
TX,MONTGOMERY,BR-21-001623,"Single Family Homes",1/15/2021,,102166,2286,"1513 ANCIENT OAK LN",CONROE,TX,77303,,,CONTRACTOR,,,,,,,,,,,"STYLECRAFT BUILDERS ",,,,,"STYLECRAFT BUILDERS ","4090 STATE HIGHWAY 6 S","COLLEGE STATION",TX,77845-8962,"(979) 764-9900",,"(979) 690-3069","TANNER BREWSTER",tabrewster@stylecraft-builders.com
TX,MONTGOMERY,BR-21-001686,"Single Family Homes",1/27/2021,,118818,2660,"3535 PINEVALE CT",CONROE,TX,77303,,,CONTRACTOR,,,,,,,,,,,"STYLECRAFT BUILDERS ",,,,,"STYLECRAFT BUILDERS ","4090 STATE HIGHWAY 6 S","COLLEGE STATION",TX,77845-8962,"(979) 764-9900",,"(979) 690-3069","TANNER BREWSTER",tabrewster@stylecraft-builders.com
TX,MONTGOMERY,BR-21-001703,"Single Family Homes",1/27/2021,,115414,2571,"3436 REDBRIDGE CT",CONROE,TX,77303,,,CONTRACTOR,,,,,,,,,,,"STYLECRAFT BUILDERS ",,,,,"STYLECRAFT BUILDERS ","4090 STATE HIGHWAY 6 S","COLLEGE STATION",TX,77845-8962,"(979) 764-9900",,"(979) 690-3069","TANNER BREWSTER",tabrewster@stylecraft-builders.com
TX,MONTGOMERY,BR-21-001715,"Single Family Homes",1/27/2021,,97796,2194,"3209 CLIMBING GARDENS CT",CONROE,TX,77303,,,CONTRACTOR,,,,,,,,,,,"STYLECRAFT BUILDERS ",,,,,"STYLECRAFT BUILDERS ","4090 STATE HIGHWAY 6 S","COLLEGE STATION",TX,77845-8962,"(979) 764-9900",,"(979) 690-3069","TANNER BREWSTER",tabrewster@stylecraft-builders.com
TX,MONTGOMERY,BR-21-001780,"Single Family Homes",1/14/2021,,300000,2388,"2141 WOODLAND PINE DR",CONROE,TX,77303,,,CONTRACTOR,,,,,,,,,,,"MERITAGE HOMES",,,,,"MERITAGE HOMES","2901 W SAM HOUSTON PKWY N",HOUSTON,TX,77043-1630,"(713) 357-1184",,,,
TX,MONTGOMERY,BR-21-001881,"Single Family Homes",1/28/2021,,115414,2571,"3235 CLIMBING GARDENS CT",CONROE,TX,77303,,,CONTRACTOR,,,,,,,,,,,"STYLECRAFT BUILDERS ",,,,,"STYLECRAFT BUILDERS ","4090 STATE HIGHWAY 6 S","COLLEGE STATION",TX,77845-8962,"(979) 764-9900",,"(979) 690-3069","TANNER BREWSTER",tabrewster@stylecraft-builders.com
TX,MONTGOMERY,BR-21-001885,"Single Family Homes",1/28/2021,,115782,2578,"3007 STONEBRIAR CT",CONROE,TX,77303,,,CONTRACTOR,,,,,,,,,,,"STYLECRAFT BUILDERS ",,,,,"STYLECRAFT BUILDERS ","4090 STATE HIGHWAY 6 S","COLLEGE STATION",TX,77845-8962,"(979) 764-9900",,"(979) 690-3069","TANNER BREWSTER",tabrewster@stylecraft-builders.com
TX,MONTGOMERY,BR-21-001899,"Single Family Homes",1/28/2021,,115414,2571,"3341 ROLLING VIEW CT",CONROE,TX,77303,,,CONTRACTOR,,,,,,,,,,,"STYLECRAFT BUILDERS ",,,,,"STYLECRAFT BUILDERS ","4090 STATE HIGHWAY 6 S","COLLEGE STATION",TX,77845-8962,"(979) 764-9900",,"(979) 690-3069","TANNER BREWSTER",tabrewster@stylecraft-builders.com
TX,MONTGOMERY,BR-21-001914,"Single Family Homes",1/28/2021,,300000,3848,"2200 GADWALL CT",CONROE,TX,77303,,,CONTRACTOR,,,,,,,,,,,"MERITAGE HOMES",,,,,"MERITAGE HOMES","2901 W SAM HOUSTON PKWY N",HOUSTON,TX,77043-1630,"(713) 357-1184",,,,
TX,MCLENNAN,,"Single Family Homes",1/4/2021,,196800,3068,"371 CAVITT CT",ROBINSON,TX,76706,,,CONTRACTOR,,,,,,,,,,,"SUAREZ CONSTRUCTION GROUP ",,,,,"SUAREZ CONSTRUCTION GROUP ","505 N SAM HOUSTON PKWY E STE 265",HOUSTON,TX,77060-4064,"(281) 847-1241",,,,
TX,MCLENNAN,,"Single Family Homes",1/14/2021,,164000,2380,"423 DAISY LN",ROBINSON,TX,76706,,,CONTRACTOR,,,,,,,,,,,"DWE CONSTRUCTION & DESIGN",,,,,"DWE CONSTRUCTION & DESIGN","3605 FRANKLIN AVE",WACO,TX,76710,"(254) 224-6360",,,,
TX,MCLENNAN,,"Single Family Homes",1/15/2021,,164000,2513,"330 DAISY LN",ROBINSON,TX,76706,,,CONTRACTOR,,,,,,,,,,,"DWE CONSTRUCTION & DESIGN",,,,,"DWE CONSTRUCTION & DESIGN","3605 FRANKLIN AVE",WACO,TX,76710,"(254) 224-6360",,,,
TX,MCLENNAN,,"Single Family Homes",1/15/2021,,164000,2431,"319 DAISY LN",ROBINSON,TX,76706,,,CONTRACTOR,,,,,,,,,,,"DWE CONSTRUCTION & DESIGN",,,,,"DWE CONSTRUCTION & DESIGN","3605 FRANKLIN AVE",WACO,TX,76710,"(254) 224-6360",,,,
TX,MCLENNAN,,"Single Family Homes",1/15/2021,,163996,2380,"317 DAISY LN",ROBINSON,TX,76706,,,CONTRACTOR,,,,,,,,,,,"DWE CONSTRUCTION & DESIGN",,,,,"DWE CONSTRUCTION & DESIGN","3605 FRANKLIN AVE",WACO,TX,76710,"(254) 224-6360",,,,
TX,HARRIS,2000967,"Single Family Homes",1/25/2021,,,3490,"1556 LAKE MIJA CIRCLE",SEABROOK,TX,77386,,,CONTRACTOR,,,,,,,,,,,"BAYWAY HOMES",,,,,"BAYWAY HOMES","1414 S FRIENDSWOOD DR",FRIENDSWOOD,TX,77546-4831,"(281) 648-2425",,,,
TX,HARRIS,2100004,"Single Family Homes",1/19/2021,,233000,420,"2548 PELICAN DR",SEABROOK,TX,77586,,,CONTRACTOR,,,,,,,,,,,"1516 CONSTRUCTION SERVICES",,,,,"1516 CONSTRUCTION SERVICES","100 PERKINS AVE STE B2","LEAGUE CITY",TX,77573-3224,"(832) 640-2740",http://www.1516construction.com/,,,erikmiller32@yahoo.com
TX,HARRIS,2100018,"Single Family Homes",1/25/2021,,293000,3828,"1504 LAKE MIJA CIRCLE",SEABROOK,TX,77586,,,CONTRACTOR,,,,,,,,,,,"BAYWAY HOMES",,,,,"BAYWAY HOMES","1414 S FRIENDSWOOD DR",FRIENDSWOOD,TX,77546-4831,"(281) 648-2425",,,,
TX,HARRIS,2100032,"Single Family Homes",1/22/2021,,200000,2353,"727 BAYWOOD DR",SEABROOK,TX,77586,,,CONTRACTOR,,,,,,,,,,,"HEXAGON PLUMBING",,,,,"HEXAGON PLUMBING","3500 E TC JESTER BLVD STE E",HOUSTON,TX,77018,"(713) 622-2020",,,,
TX,HARRIS,2100052,"Single Family Homes",1/19/2021,,572983,3108,"1422 TODVILLE",SEABROOK,TX,77586,,,CONTRACTOR,,,,,,,,,,,"MITCH MANSIONS",,,,,"MITCH MANSIONS","1010 DELESANDRI LN",DICKINSON,TX,77565,"(832) 520-4030",,,,
TX,MCLENNAN,,"Single Family Homes",1/26/2021,,399999,4498,"735 EMILY LN",ROBINSON,TX,76706,,,CONTRACTOR,,,,,,,,,,,"BRET MIRICK BUILDERS",,,,,"BRET MIRICK BUILDERS","529 HUNTON LN",WACO,TX,76706,"(254) 855-2000",https://www.bretmirickhomes.com/,,,bret@bretmirickhomes.com
TX,MCLENNAN,,"Single Family Homes",2/1/2021,,160000,1823,"900 E ROCKET RD",ROBINSON,TX,76655,,,CONTRACTOR,,,,,,,,,,,"DARK HORSE BUILDERS",,,,,"DARK HORSE BUILDERS","851 GREENSIDE DR APT 4128",RICHARDSON,TX,75080-1160,"(972) 953-8160",http://www.darkhorsebuilders.com/,"(972) 782-9828","PHIL WILMONT",phil@darkhorsebuilders.com
TX,HARRIS,20098279,"Single Family Homes",2/5/2021,,200000,,"6605 ROXBURGH DR",HOUSTON,TX,77041,,,ALDERSON,"6605 ROXBURGH DR",HOUSTON,TX,77041,,Owner,,,,,"KLOW CONSTRUCTION",,,,,"KLOW CONSTRUCTION","10796 KEMPWOOD DR",HOUSTON,TX,77043,"(713) 412-8663",,"(832) 930-7772",,
TX,HARRIS,20062711,"Single Family Homes",2/3/2021,,55000,,"1118 S SHEPHERD",HOUSTON,TX,77019,,,"BEAVERS ANGELA","1118 S SHEPHERD",HOUSTON,TX,77019,,Owner,,,,,"GREG PRATT ENTERPRISES",,,,,"GREG PRATT ENTERPRISES","14615 RIO PINAR CIR",HOUSTON,TX,77095-4732,"(281) 463-8306",,,,
TX,HARRIS,21003753,"Single Family Homes",2/8/2021,,187000,,"5203 CARTERS BANK",HOUSTON,TX,77018,,,CONTRACTOR,,,,,,,,,,,"ANNE'S PERMIT",,,,,"ANNE'S PERMIT","2617C W HOLCOMBE BLVD",HOUSTON,TX,77025,"(713) 666-2025",,,,
TX,HARRIS,20035595,"Single Family Homes",2/2/2021,,184000,,"10923 KEATON LANDING",HOUSTON,TX,77043,,,CONTRACTOR,,,,,,,,,,,"ANNE'S PERMIT",,,,,"ANNE'S PERMIT","2617C W HOLCOMBE BLVD",HOUSTON,TX,77025,"(713) 666-2025",,,,
TX,HARRIS,19075183,"Single Family Homes",2/8/2021,,226000,,"10939 BRAMBLING WOOD",HOUSTON,TX,77043,,,CONTRACTOR,,,,,,,,,,,"ANNE'S PERMIT",,,,,"ANNE'S PERMIT","2617C W HOLCOMBE BLVD",HOUSTON,TX,77025,"(713) 666-2025",,,,
TX,HARRIS,20111027,"Single Family Homes",2/3/2021,,130000,,"9035 MADERA",HOUSTON,TX,77078,,,"BARAJAS ALEXIS","9035 MADERA",HOUSTON,TX,77078,,Owner,,,,,OWNER,,,,,OWNER,,,,,,,,,
TX,HARRIS,20082907,"Single Family Homes",2/4/2021,,50500,,"911 REDAN",HOUSTON,TX,77009,,,"BOGUSEVIC BRIAN THOMAS","911 REDAN",HOUSTON,TX,77009,,Owner,,,,,"SUPREME POOLS & SPAS",,,,,"SUPREME POOLS & SPAS","22626 KUYKENDAHL RD",SPRING,TX,77389-5121,"(281) 350-4410",http://www.supremepoolsandspas.net/,"(281) 370-4474",,info@supremepoolsandspas.net
TX,HARRIS,21004998,"Single Family Homes",2/8/2021,,44000,,"4542 N RIPPLE RIDGE",HOUSTON,TX,77053,,,"LORENZO BUTLER","4542 N RIPPLE RIDGE",HOUSTON,TX,77053,,Owner,,,,,"FREEDOM FOREVER TX",,,,,"FREEDOM FOREVER TX","15550 VICKERY DR SUITE 100",HOUSTON,TX,77032-2581,"(888) 557-6431",,,,
TX,HARRIS,21000855,"Single Family Homes",2/8/2021,,30000,,"7801 CAPITOL",HOUSTON,TX,77012,,,"EMIGDIO CHAPA","7801 CAPITOL",HOUSTON,TX,77012,,Owner,,,,,OWNER,,,,,OWNER,,,,,,,,,
TX,HARRIS,20063199,"Single Family Homes",2/2/2021,,218000,,"8416 WAYFARER",HOUSTON,TX,77075,,,"EMETERIO CHAVEZ","8416 WAYFARER",HOUSTON,TX,77075,,Owner,,,,,"O CHAVEZ TRUCKING",,,,,"O CHAVEZ TRUCKING","2715 LEROY ST",PEARLAND,TX,77581,"(713) 677-9869",,,,
TX,HARRIS,21006250,"Single Family Homes",2/4/2021,,106750,,"3731 RIO VISTA",HOUSTON,TX,77021,,,"CHENISE KIRVEN TAYLOR","3731 RIO VISTA",HOUSTON,TX,77021,,Owner,,,,,"DERRICK VAUGHN",,,,,"DERRICK VAUGHN","16800 W IMPERIAL VALLEY ST BLDG",HOUSTON,TX,77007,"(323) 337-5397",,,,
TX,HARRIS,20062712,"Single Family Homes",2/3/2021,,396579,,"7506 LITTLE CAPRESE",HOUSTON,TX,77055,,,CONTRACTOR,,,,,,,,,,,"INTOWN HOMES",,,,,"INTOWN HOMES","1520 OLIVER ST",HOUSTON,TX,77007,"(713) 961-3877",http://www.intown-homes.com/,,,
TX,HARRIS,20063203,"Single Family Homes",2/4/2021,,458820,,"7518 CUADRO",HOUSTON,TX,77055,,,CONTRACTOR,,,,,,,,,,,"INTOWN HOMES",,,,,"INTOWN HOMES","1520 OLIVER ST",HOUSTON,TX,77007,"(713) 961-3877",http://www.intown-homes.com/,,,
TX,HARRIS,21003860,"Single Family Homes",2/8/2021,,106000,,"4600 GULF",HOUSTON,TX,77023,,,CONTRACTOR,,,,,,,,,,,"ALL PRO COMPANY",,,,,"ALL PRO COMPANY","10200 HEMPSTEAD RD STE 1J",HOUSTON,TX,77092-8429,"(713) 680-9475",http://www.allprocompany.net,"(713) 680-9485",,
TX,HARRIS,20105330,"Single Family Homes",2/4/2021,,48000,,"4400 HARRISBURG",HOUSTON,TX,77011,,,CONTRACTOR,,,,,,,,,,,"ARCH CONSTRUCTION",,,,,"ARCH CONSTRUCTION","5814 SEACOMBER PL","SAN ANTONIO",TX,78242-1147,"(210) 417-2711",,,,
TX,HARRIS,20110856,"Single Family Homes",2/5/2021,,140000,,"6612 HORNWOOD DR",HOUSTON,TX,77074,,,CONTRACTOR,,,,,,,,,,,"ARDENWOOD GROUP",,,,,"ARDENWOOD GROUP","6060 RICHMOND AVE STE 380",HOUSTON,TX,77057-6224,"(713) 952-9995",http://ardenwoodgroup.com/,,,
TX,HARRIS,20114360,"Single Family Homes",2/4/2021,,5400000,,"4020 MILLS BRANCH DR BLD",HOUSTON,TX,77365,,,"JEANY AZBILL","4020 MILLS BRANCH DR BLD",HOUSTON,TX,77365,"(713) 748-5736",Applicant,,,,,OWNER,,,,,OWNER,,,,,,,,,
TX,HARRIS,20110014,"Single Family Homes",2/3/2021,,249475,,"911 NADINE",HOUSTON,TX,77009,,,CONTRACTOR,,,,,,,,,,,"TROTWOOD REALTY",,,,,"TROTWOOD REALTY","P.O. BOX 20675",HOUSTON,TX,77225,"(713) 498-3737",,,"SHAWN BAKSH",
TX,HARRIS,20096993,"Single Family Homes",2/3/2021,,249475,,"913 NADINE",HOUSTON,TX,77009,,,CONTRACTOR,,,,,,,,,,,"TROTWOOD REALTY",,,,,"TROTWOOD REALTY","P.O. BOX 20675",HOUSTON,TX,77225,"(713) 498-3737",,,"SHAWN BAKSH",
TX,HARRIS,20106460,"Single Family Homes",2/4/2021,,45000,,"3409 PROVIDENCE",HOUSTON,TX,77020,,,CONTRACTOR,,,,,,,,,,,"FREQUENT HOME BUYERS",,,,,"FREQUENT HOME BUYERS","22136 WESTHEIMER PKWY STE 315","PARK ROW",TX,77450-8296,"(832) 779-7009",,,,
TX,HARRIS,20106462,"Single Family Homes",2/4/2021,,45000,,"3411 PROVIDENCE",HOUSTON,TX,77020,,,CONTRACTOR,,,,,,,,,,,"FREQUENT HOME BUYERS",,,,,"FREQUENT HOME BUYERS","22136 WESTHEIMER PKWY STE 315","PARK ROW",TX,77450-8296,"(832) 779-7009",,,,
TX,HARRIS,20063204,"Single Family Homes",2/5/2021,,227518,,"7615 AIIDEN RIDGE",HOUSTON,TX,77016,,,CONTRACTOR,,,,,,,,,,,"BRIGHTON HOMES & PARKWOOD",,,,,"BRIGHTON HOMES & PARKWOOD","13111 NORTHWEST FWY",HOUSTON,TX,77040-6318,"(713) 460-6279",,,,
TX,HARRIS,20062709,"Single Family Homes",2/5/2021,,233994,,"7706 JOSHUA STONE",HOUSTON,TX,77016,,,CONTRACTOR,,,,,,,,,,,"BRIGHTON HOMES & PARKWOOD",,,,,"BRIGHTON HOMES & PARKWOOD","13111 NORTHWEST FWY",HOUSTON,TX,77040-6318,"(713) 460-6279",,,,
TX,HARRIS,20063206,"Single Family Homes",2/5/2021,,186724,,"7710 JOSHUA STONE",HOUSTON,TX,77016,,,CONTRACTOR,,,,,,,,,,,"BRIGHTON HOMES & PARKWOOD",,,,,"BRIGHTON HOMES & PARKWOOD","13111 NORTHWEST FWY",HOUSTON,TX,77040-6318,"(713) 460-6279",,,,
TX,HARRIS,20063207,"Single Family Homes",2/5/2021,,190509,,"7715 AIIDEN RIDGE",HOUSTON,TX,77016,,,CONTRACTOR,,,,,,,,,,,"BRIGHTON HOMES & PARKWOOD",,,,,"BRIGHTON HOMES & PARKWOOD","13111 NORTHWEST FWY",HOUSTON,TX,77040-6318,"(713) 460-6279",,,,
TX,HARRIS,20098145,"Single Family Homes",2/5/2021,,165697,,"7719 AIIDEN RIDGE",HOUSTON,TX,77016,,,CONTRACTOR,,,,,,,,,,,"BRIGHTON HOMES & PARKWOOD",,,,,"BRIGHTON HOMES & PARKWOOD","13111 NORTHWEST FWY",HOUSTON,TX,77040-6318,"(713) 460-6279",,,,
TX,HARRIS,20064619,"Single Family Homes",2/5/2021,,157000,,"3328 HUTCHINS",HOUSTON,TX,77004,,,CONTRACTOR,,,,,,,,,,,"CITY CHOICE GROUP",,,,,"CITY CHOICE GROUP","1314 ROY ST",HOUSTON,TX,77007-3343,"(713) 681-5858",http://citychoicehomes.com,,,
TX,HARRIS,21001650,"Single Family Homes",2/2/2021,,47600,,"5706 SPRING LODGE",HOUSTON,TX,77345,,,CONTRACTOR,,,,,,,,,,,"CK&H CONSTRUCTION",,,,,"CK&H CONSTRUCTION","24527 APPIAN RDG",PORTER,TX,77365-6015,"(281) 354-4416",,,,
TX,HARRIS,20114185,"Single Family Homes",2/4/2021,,225990,,"12539 WALMGATE",HOUSTON,TX,77047,,,CONTRACTOR,,,,,,,,,,,"DR HORTON",,,,,"DR HORTON","14100 SOUTHWEST",HOUSTON,TX,77478,"(281) 201-5559",,,,
TX,HARRIS,20063205,"Single Family Homes",2/3/2021,,150000,,"7661 W LITTLE YORK RD",HOUSTON,TX,77040,,,"JAMES ELMORE","2501 11TH",HOUSTON,TX,77008,"(713) 524-2880",Applicant,,,,,OWNER,,,,,OWNER,,,,,,,,,
TX,HARRIS,19093261,"Single Family Homes",2/5/2021,,204990,,"10750 NATHANIEL VALLEY",HOUSTON,TX,77016,,,CONTRACTOR,,,,,,,,,,,"FIRST AMERICA HOMES",,,,,"FIRST AMERICA HOMES","1401 WOODLANDS PARKWAY","THE WOODLANDS",TX,77380-1179,"(713) 452-1700",https://www.firstamericahomes.com/,,,info@firstamericahomes.com
TX,HARRIS,21000105,"Single Family Homes",2/8/2021,,269990,,"4403 IBIZA",HOUSTON,TX,77045,,,CONTRACTOR,,,,,,,,,,,"FIRST AMERICA HOMES",,,,,"FIRST AMERICA HOMES","1401 WOODLANDS PARKWAY","THE WOODLANDS",TX,77380-1179,"(713) 452-1700",https://www.firstamericahomes.com/,,,info@firstamericahomes.com
TX,HARRIS,21006067,"Single Family Homes",2/3/2021,,150000,,"4534 MAGGIE ST",HOUSTON,TX,77051,,,CONTRACTOR,,,,,,,,,,,"D FRANKLIN DEVELOPMENTS",,,,,"D FRANKLIN DEVELOPMENTS","4606 FM 1960 ROAD WEST # 400",HOUSTON,TX,77069,"(832) 980-8843",,,,
TX,HARRIS,20111529,"Single Family Homes",2/8/2021,,125000,,"5610 CLINTON DR BLD",HOUSTON,TX,77020,,,"CRAIG GARCIA","5331 INKER",HOUSTON,TX,77007,"(713) 955-4447",Applicant,,,,,OWNER,,,,,OWNER,,,,,,,,,
TX,HARRIS,21002215,"Single Family Homes",2/8/2021,,172342,,"6915 BONITA",HOUSTON,TX,77016,,,CONTRACTOR,,,,,,,,,,,"LAZER DEVELOPMENT",,,,,"LAZER DEVELOPMENT","10902 SHAWNBROOK DR",HOUSTON,TX,77071-1516,"(832) 731-2154",,,"LAWRENCE E GARVIN",
TX,HARRIS,20023909,"Single Family Homes",2/5/2021,,5830000,,"10555 RICHMOND",HOUSTON,TX,77042,,,CONTRACTOR,,,,,,,,,,,"GSC ARCHITECTS",,,,,"GSC ARCHITECTS","901 S MO PAC EXPY STE 400-BLDG",AUSTIN,TX,78746-5776,"(512) 477-9417",http://www.gsc-inc.com/,,,
TX,HARRIS,20111764,"Single Family Homes",2/3/2021,,246676,,"4403 STASSEN",HOUSTON,TX,77051,,,"BRADLEY HAYGOOD","309 HOGAN ST",HOUSTON,TX,77009,"(651) 890-7828",Applicant,,,,,OWNER,,,,,OWNER,,,,,,,,,
TX,HARRIS,20111842,"Single Family Homes",2/3/2021,,170154,,"7213 SAYERS",HOUSTON,TX,77016,,,CONTRACTOR,,,,,,,,,,,"MONIK HERNANDEZ",,,,,"MONIK HERNANDEZ","2323 S VOSS RD STE 120",HOUSTON,TX,77057-3827,"(713) 501-1730",,,,
TX,HARRIS,21007216,"Single Family Homes",2/2/2021,,137000,,"600 N SHEPHERD DR",HOUSTON,TX,77007,,,"HERNANDEZ-BARRIOS CRYSTAL","1318 SILVER",HOUSTON,TX,77007,"(979) 877-5461",Applicant,,,,,OWNER,,,,,OWNER,,,,,,,,,
TX,HARRIS,21004504,"Single Family Homes",2/2/2021,,100000,,"5225 BUFFALO SPEEDWAY",HOUSTON,TX,77005,,,"ERIC HONSBERGER","11800 NACOGDOCHES",HOUSTON,TX,78216,"(210) 938-0897",Applicant,,,,,OWNER,,,,,OWNER,,,,,,,,,
TX,HARRIS,21007597,"Single Family Homes",2/2/2021,,239209,,"626 DELMAR",HOUSTON,TX,77023,,,CONTRACTOR,,,,,,,,,,,"INTOWN HOMES",,,,,"INTOWN HOMES","1520 OLIVER ST",HOUSTON,TX,77007,"(713) 961-3877",http://www.intown-homes.com/,,,
TX,HARRIS,21007599,"Single Family Homes",2/2/2021,,224321,,"628 DELMAR",HOUSTON,TX,77023,,,CONTRACTOR,,,,,,,,,,,"INTOWN HOMES",,,,,"INTOWN HOMES","1520 OLIVER ST",HOUSTON,TX,77007,"(713) 961-3877",http://www.intown-homes.com/,,,
TX,HARRIS,21007602,"Single Family Homes",2/2/2021,,216583,,"630 DELMAR",HOUSTON,TX,77023,,,CONTRACTOR,,,,,,,,,,,"INTOWN HOMES",,,,,"INTOWN HOMES","1520 OLIVER ST",HOUSTON,TX,77007,"(713) 961-3877",http://www.intown-homes.com/,,,
TX,HARRIS,21001551,"Single Family Homes",2/2/2021,,31000,,"3827 DARLINGHURST",HOUSTON,TX,77045,,,CONTRACTOR,,,,,,,,,,,"MICHAEL JACKSON",,,,,"MICHAEL JACKSON","15420 RIDGE PARK DR",HOUSTON,TX,77095,"(832) 274-5777",,,,
TX,HARRIS,20111414,"Single Family Homes",2/2/2021,,181000,,"5310 SUNBEAM",HOUSTON,TX,77033,,,CONTRACTOR,,,,,,,,,,,"JFO SOLUTIONS",,,,,"JFO SOLUTIONS","12440 OXFORD PARK",HOUSTON,TX,77082,"(786) 512-8352",,,,
TX,HARRIS,21005876,"Single Family Homes",2/4/2021,,184000,,"4302 PHLOX",HOUSTON,TX,77051,,,CONTRACTOR,,,,,,,,,,,"JL TREVINO & ASSOCIATES",,,,,"JL TREVINO & ASSOCIATES","9800 NORTHWEST FWY STE 511",HOUSTON,TX,77092-8834,"(713) 316-9106",,,"J L TREVINO",
TX,HARRIS,20063160,"Single Family Homes",2/3/2021,,110000,,"8139 SUNNYHILL",HOUSTON,TX,77088,,,CONTRACTOR,,,,,,,,,,,"JRSG & COMPANY",,,,,"JRSG & COMPANY","773 DAVIDSON STEET 773",HOUSTON,TX,77091,"(713) 542-9363",,,,
TX,HARRIS,20063162,"Single Family Homes",2/2/2021,,110000,,"8135 SUNNYHILL",HOUSTON,TX,77088,,,CONTRACTOR,,,,,,,,,,,"JRSG & COMPANY",,,,,"JRSG & COMPANY","773 DAVIDSON STEET 773",HOUSTON,TX,77091,"(713) 542-9363",,,,
TX,HARRIS,20109421,"Single Family Homes",2/2/2021,,168000,,"3814 MARKET",HOUSTON,TX,77020,,,"GARRETT JURICA","8799 NORTH LOOP E STE",HOUSTON,TX,77029,"(832) 393-8069",Applicant,,,,,OWNER,,,,,OWNER,,,,,,,,,
TX,HARRIS,20089560,"Single Family Homes",2/3/2021,,168000,,"5023 JONINA",HOUSTON,TX,77048,,,CONTRACTOR,,,,,,,,,,,"KB HOME",,,,,"KB HOME","11314 RICHMOND AVE",HOUSTON,TX,77082-2616,"(281) 668-3800",,,,
TX,HARRIS,19037416,"Single Family Homes",2/8/2021,,174000,,"11011 CANE OAK",HOUSTON,TX,77043,,,CONTRACTOR,,,,,,,,,,,"LEGEND HOMES",,,,,"LEGEND HOMES","10410 WINDAMERE LAKES BLVD",HOUSTON,TX,77065-4996,"(281) 671-9060",http://legendhomecorp.com/,"(281) 671-9055",,
TX,HARRIS,21006251,"Single Family Homes",2/2/2021,,319000,,"3434 OAKHEATH MANOR",HOUSTON,TX,77365,,,CONTRACTOR,,,,,,,,,,,"LENNAR HOMES",,,,,"LENNAR HOMES","1707 MARKET PL STE 250",IRVING,TX,75063-8050,"(469) 587-5200",http://www.lennar.com/,,,
TX,HARRIS,20097375,"Single Family Homes",2/5/2021,,288000,,"3534 HEATHER CHASE",HOUSTON,TX,77365,,,CONTRACTOR,,,,,,,,,,,"LENNAR HOMES",,,,,"LENNAR HOMES","550 GREENS PKWY",HOUSTON,TX,77067-4537,"(281) 875-1000",http://www.lennar.com/,,,
TX,HARRIS,19057230,"Single Family Homes",2/5/2021,,299000,,"1141 W BELL",HOUSTON,TX,77019,,,CONTRACTOR,,,,,,,,,,,"MAZZARINO CONSTRUCTION & DEVELOPMENT",,,,,"MAZZARINO CONSTRUCTION & DEVELOPMENT","7155 OLD KATY RD STE N260",HOUSTON,TX,77024-2257,"(713) 861-1809",,,,
TX,HARRIS,20118417,"Single Family Homes",2/4/2021,,60000,,"4315 JACK ST BLD",HOUSTON,TX,77006,,,CONTRACTOR,,,,,,,,,,,"LITTLEPAGE BOOTH",,,,,"LITTLEPAGE BOOTH","1912 W. MAIN ST",HOUSTON,TX,77098,"(713) 529-8000",http://www.littlepagebooth.com,"(713) 529-8044",,
TX,HARRIS,19074589,"Single Family Homes",2/5/2021,,250000,,"1101 ANTOINE",HOUSTON,TX,77055,,,CONTRACTOR,,,,,,,,,,,"BL CONTRACTING",,,,,"BL CONTRACTING","3123 E HEATHEROCK CIR","SUGAR LAND",TX,77479-1907,"(281) 788-4321",,,,
TX,HARRIS,20111413,"Single Family Homes",2/8/2021,,1500000,,"5353 W ALABAMA ST",HOUSTON,TX,77056,,,"LAM MAI","409 TRAVIS ST APT",HOUSTON,TX,77002,"(713) 398-7697",Applicant,,,,,OWNER,,,,,OWNER,,,,,,,,,
TX,HARRIS,20088499,"Single Family Homes",2/8/2021,,220000,,"6811 DIXIE",HOUSTON,TX,77087,,,CONTRACTOR,,,,,,,,,,,"MCCUNE ELECTRICAL SERVICES",,,,,"MCCUNE ELECTRICAL SERVICES"," 8312 W LITTLE YORK RD.",HOUSTON,TX,77040-4341,"(713) 856-9730",,,,
TX,HARRIS,20063202,"Single Family Homes",2/8/2021,,100000,,"815 HOLMES RD",HOUSTON,TX,77045,,,"CYNTHIA MCGOWEN","2000 BERING DR STE",HOUSTON,TX,77057,"(281) 507-3830",Applicant,,,,,OWNER,,,,,OWNER,,,,,,,,,
TX,HARRIS,21007215,"Single Family Homes",2/3/2021,,70000,,"539 KING",HOUSTON,TX,77022,,,CONTRACTOR,,,,,,,,,,,"AMERICANA POOL SERVICE",,,,,"AMERICANA POOL SERVICE","123 STREET ",HOUSTON,TX,77086,"(832) 689-0232",,,,
TX,HARRIS,20087423,"Single Family Homes",2/5/2021,,50000,,"8550 BROADWAY",HOUSTON,TX,77061,,,"AARON MORGAN","3795 WYSE",HOUSTON,TX,45414,"(713) 993-0333",Applicant,https://terraassoc.com/,,,,OWNER,,,,,OWNER,,,,,,,,,
TX,HARRIS,20115439,"Single Family Homes",2/3/2021,,95551,,"4323 ROSEMONT",HOUSTON,TX,77051,,,CONTRACTOR,,,,,,,,,,,"NEXT GENERATION DEVELOPMENT",,,,,"NEXT GENERATION DEVELOPMENT","1302 WAUGH DR",HOUSTON,TX,77019-3908,"(281) 221-7697",,,,
TX,HARRIS,20062710,"Single Family Homes",2/3/2021,,125000,,"1122 VERA LOU",HOUSTON,TX,77051,,,CONTRACTOR,,,,,,,,,,,"NEXT GENERATION DEVELOPMENT",,,,,"NEXT GENERATION DEVELOPMENT","1302 WAUGH DR",HOUSTON,TX,77019-3908,"(281) 221-7697",,,,
TX,HARRIS,20114518,"Single Family Homes",2/5/2021,,217930,,"6534 RADCLIFFE",HOUSTON,TX,77091,,,CONTRACTOR,,,,,,,,,,,"ORP CONSTRUCTION",,,,,"ORP CONSTRUCTION","30603 ALDINE WESTFIELD RD",SPRING,TX,77386-3371,"(281) 330-2944",,,,
TX,HARRIS,20096296,"Single Family Homes",2/4/2021,,7111153,,"7892 KNIGHT RD BLD",HOUSTON,TX,77054,,,CONTRACTOR,,,,,,,,,,,"THE BARVIN GROUP",,,,,"THE BARVIN GROUP","3100 RICHMOND AVE STE 405",HOUSTON,TX,77098-3015,"(832) 319-7960",https://www.barvingroup.com,"(832) 543-3845",,info@barvingroup.com
TX,HARRIS,20070816,"Single Family Homes",2/4/2021,,139148,,"3821 MAINER",HOUSTON,TX,77021,,,"KENNETH ROBINSON JR","2000 CRAWFORD ST STE",HOUSTON,TX,77002,"(281) 846-5384",Applicant,,,,,OWNER,,,,,OWNER,,,,,,,,,
TX,HARRIS,20096294,"Single Family Homes",2/3/2021,,32000,,"8014 MEADOWGLEN",HOUSTON,TX,77063,,,CONTRACTOR,,,,,,,,,,,"ROCHA'S POOL PLASTER",,,,,"ROCHA'S POOL PLASTER","22200 MOSSY OAK",HOUSTON,TX,77389,"(832) 309-6246",http://rochaspoolplaster.net/,,"JIMENEZ JESUS",contact@rochaspoolplaster.net
TX,HARRIS,20105810,"Single Family Homes",2/4/2021,,61160,,"718 W 18TH ST",HOUSTON,TX,77008,,,"DERIC RUTHERFORD","9307 N  FITZGERALD",HOUSTON,TX,77459,"(713) 955-4447",Applicant,,,,,OWNER,,,,,OWNER,,,,,,,,,
TX,HARRIS,20092974,"Single Family Homes",2/4/2021,,99156,,"4900 WOODWAY DR",HOUSTON,TX,77056,,,CONTRACTOR,,,,,,,,,,,"ANGIE HAYES",,,,,"ANGIE HAYES","5601 DEMOCRACY DR",PLANO,TX,75024-3687,"(832) 707-2835",,,,
TX,HARRIS,21004545,"Single Family Homes",2/4/2021,,155000,,"3722 MOUNT PLEASANT ST",HOUSTON,TX,77021,,,CONTRACTOR,,,,,,,,,,,"TRINITY HOMES",,,,,"TRINITY HOMES","450 LOUISIANA ST. STE 400 ",HOUSTON,TX,77006,"(832) 986-8776",http://www.trinityhomeshouston.com/,,,trinityhomesllc@yahoo.com
TX,HARRIS,21001366,"Single Family Homes",2/5/2021,,40000,,"46 HIBURY",HOUSTON,TX,77024,,,CONTRACTOR,,,,,,,,,,,"SNELLER CUSTOM HOMES ",,,,,"SNELLER CUSTOM HOMES ","17018 SEVEN PINES",HOUSTON,TX,77379,"(713) 473-7648",http://snellercustomhomes.com,,,
TX,HARRIS,21005931,"Single Family Homes",2/8/2021,,202218,,"7212 EL PASO",HOUSTON,TX,77020,,,"JMACK ARCHITECTS","4300 LYONS AVE STE",HOUSTON,TX,77041,"(713) 524-9524",Architect,http://www.jmackarchitects.com/,,"CATHY TORREGANO",,OWNER,,,,,OWNER,,,,,,,,,
TX,HARRIS,20118353,"Single Family Homes",2/8/2021,,374130,,"4029 DELTA ROSE",HOUSTON,TX,77018,,,CONTRACTOR,,,,,,,,,,,"MARIA VARGAS",,,,,"MARIA VARGAS","1311 BROADFIELD BLVD",HOUSTON,TX,77084-5186,"(281) 529-9127",,,,
TX,HARRIS,20106463,"Single Family Homes",2/3/2021,,361420,,"3426 AVONDALE VIEW",HOUSTON,TX,77054,,,CONTRACTOR,,,,,,,,,,,"MARIA VARGAS",,,,,"MARIA VARGAS","1311 BROADFIELD BLVD",HOUSTON,TX,77084-5186,"(281) 529-9127",,,,
TX,HARRIS,21007528,"Single Family Homes",2/3/2021,,339550,,"3428 AVONDALE VIEW",HOUSTON,TX,77054,,,CONTRACTOR,,,,,,,,,,,"MARIA VARGAS",,,,,"MARIA VARGAS","1311 BROADFIELD BLVD",HOUSTON,TX,77084-5186,"(281) 529-9127",,,,
TX,HARRIS,21007179,"Single Family Homes",2/8/2021,,350000,,"8659 CEDARDALE PARK",HOUSTON,TX,77063,,,CONTRACTOR,,,,,,,,,,,"MARIA VARGAS",,,,,"MARIA VARGAS","1311 BROADFIELD BLVD",HOUSTON,TX,77084-5186,"(281) 529-9127",,,,
TX,HARRIS,20118348,"Single Family Homes",2/2/2021,,400000,,"711 MILBY ST",HOUSTON,TX,77023,,,CONTRACTOR,,,,,,,,,,,"KALDIS DEVELOPMENT",,,,,"KALDIS DEVELOPMENT","805 RHODE PL STE 300",HOUSTON,TX,77019,"(713) 526-1802",,,"KENNETH ZARELLA",
TX,HARRIS,20110076,"Single Family Homes",2/2/2021,,51942,,"3831 DURNESS",HOUSTON,TX,77025,,,"KIMBERLYN COOPER HOOKS","3831 DURNESS",HOUSTON,TX,77025,,Owner,,,,,"JESSIE ENANDER",,,,,"JESSIE ENANDER","12727 FEATHERWOOD DR STE",HOUSTON,TX,77034,"(208) 251-5198",,,,
TX,HARRIS,21008222,"Single Family Homes",2/5/2021,,59884,,"6719 FAIRFIELD",HOUSTON,TX,77023,,,"JESSICA CRUTCHER","6719 FAIRFIELD",HOUSTON,TX,77023,,Owner,,,,,"SPLASH ZONE POOLS",,,,,"SPLASH ZONE POOLS","13335 MURPHY RD",STAFFORD,TX,77477-4327,"(713) 289-0059",http://www.splashzonetx.com/,,,
TX,HARRIS,20103024,"Single Family Homes",2/4/2021,,190000,,"5618 RIDGEWAY DR A",HOUSTON,TX,77033,,,"YARA CUEVAS","5618 RIDGEWAY DR A",HOUSTON,TX,77033,,Owner,,,,,OWNER,,,,,OWNER,,,,,,,,,
TX,HARRIS,20020272,"Single Family Homes",2/8/2021,,430000,,"11103 BELTLINE RD",HOUSTON,TX,77067,,,DAIKIN,"11103 BELTLINE RD",HOUSTON,TX,77067,,Owner,,,,,"O S INTERIOR SYSTEMS",,,,,"O S INTERIOR SYSTEMS","12723 ASHFORD BROOK",HOUSTON,TX,77082,"(713) 780-9050",http://www.osinterior.com/,,"DIANE WILSON",
TX,HARRIS,20100718,"Single Family Homes",2/5/2021,,216078,,"3702 LYDIA",HOUSTON,TX,77021,,,"NIMA DAVARI","3702 LYDIA",HOUSTON,TX,77021,,Owner,,,,,OWNER,,,,,OWNER,,,,,,,,,
TX,HARRIS,20111415,"Single Family Homes",2/4/2021,,83326,,"5309 LONGMONT",HOUSTON,TX,77056,,,"RONALD DESIMONE","5309 LONGMONT",HOUSTON,TX,77056,,Owner,,,,,"CASCADE POOLS",,,,,"CASCADE POOLS","15502 HIGHWAY 3 STE 105",WEBSTER,TX,77598-2143,"(155) 023-1057",http://cascadepools.net/,,,yvonne@cascadepools.net
TX,HARRIS,20089562,"Single Family Homes",2/5/2021,,239500,,"5117 LARKSPUR",HOUSTON,TX,77033,,,"ERICA C BARNES","5117 LARKSPUR",HOUSTON,TX,77033,,Owner,,,,,"TEAM HBC",,,,,"TEAM HBC","12955 SOUTH FWY",HOUSTON,TX,77047-1900,"(713) 637-4356",,,,
TX,HARRIS,20112571,"Single Family Homes",2/4/2021,,271908,,"4642 ALVIN",HOUSTON,TX,77051,,,"GABRIEL SANTOS GUTIERREZ","4642 ALVIN",HOUSTON,TX,77051,,Owner,,,,,OWNER,,,,,OWNER,,,,,,,,,
TX,HARRIS,20089953,"Single Family Homes",2/2/2021,,110520,,"4510 WOODSIDE",HOUSTON,TX,77023,,,"ANITA GARTEN","4510 WOODSIDE",HOUSTON,TX,77023,,Owner,,,,,"3H ENGINEERING & CONSTRUCTION INC",,,,,"3H ENGINEERING & CONSTRUCTION INC","2500 E T C JESTER BLVD STE 180",HOUSTON,TX,77008-1464,"(281) 819-3150",https://3h.engineering,,,
TX,HARRIS,20102411,"Single Family Homes",2/8/2021,,49200,,"705 CORTLANDT",HOUSTON,TX,77007,,,"JED GOLDBERG","705 CORTLANDT",HOUSTON,TX,77007,,Owner,,,,,"NUVO BUILDERS",,,,,"NUVO BUILDERS","705 E 14TH ST",HOUSTON,TX,77008-4510,"(713) 880-0006",,,,
TX,HARRIS,20078649,"Single Family Homes",2/5/2021,,170000,,"8809 DANDY",HOUSTON,TX,77016,,,"GONZALEZ POPFIRIA URIBE","8809 DANDY",HOUSTON,TX,77016,,Owner,,,,,OWNER,,,,,OWNER,,,,,,,,,
TX,HARRIS,20099868,"Single Family Homes",2/3/2021,,204595,,"4610 OATS",HOUSTON,TX,77020,,,"WILLIAM  HUFFSTETLER","4610 OATS",HOUSTON,TX,77020,,Owner,,,,,"MARIN CUSTOM HOMES",,,,,"MARIN CUSTOM HOMES","114 W CURTIS AVE",PASADENA,TX,77502-2004,"(713) 291-6740",,,,
TX,HARRIS,21001785,"Single Family Homes",2/3/2021,,750000,,"5601 S BRAESWOOD",HOUSTON,TX,77096,,,"JEWISH COMMUNITY CTR","5601 S BRAESWOOD",HOUSTON,TX,77096,,Owner,,,,,"TELLEPSEN BUILDERS",,,,,"TELLEPSEN BUILDERS","777 BENMAR DR STE 400",HOUSTON,TX,77060-3607,"(281) 447-8100",,"(281) 447-8177","HOWARD TELLEPSEN",
TX,HARRIS,20111416,"Single Family Homes",2/2/2021,,573000,,"5276 CEDAR CREEK",HOUSTON,TX,77056,,,"JASON JOHNSON","5276 CEDAR CREEK",HOUSTON,TX,77056,"(713) 213-0336",Owner,,,,,OWNER,,,,,OWNER,,,,,,,,,
TX,HARRIS,20116624,"Single Family Homes",2/3/2021,,310000,,"5549 ASPEN",HOUSTON,TX,77081,,,"SATISH KIRTIKAR","5549 ASPEN",HOUSTON,TX,77081,,Owner,,,,,"BELLAIRE BUILDERS",,,,,"BELLAIRE BUILDERS","5210 SPRUCE ST",BELLAIRE,TX,77401-3311,"(713) 979-8300",http://www.bellairebuilders.com/,,,abnerburnitt@gmail.com
TX,HARRIS,20067106,"Single Family Homes",2/2/2021,,78000,,"4322 WAYCROSS",HOUSTON,TX,77035,,,"ROBT J LOWRIE","4322 WAYCROSS",HOUSTON,TX,77035,,Owner,,,,,"COASTAL RESIDENTIAL CONSTRUCTION",,,,,"COASTAL RESIDENTIAL CONSTRUCTION","2803 BURR OAK DRIVE",FRIENDSWOOD,TX,77546,"(713) 962-2005",,,,
TX,HARRIS,20118416,"Single Family Homes",2/2/2021,,71998,,"4307 BEGGS",HOUSTON,TX,77009,,,"APSARI MARTIN","4307 BEGGS",HOUSTON,TX,77009,,Owner,,,,,"MRS BUILDERS",,,,,"MRS BUILDERS","2056 THONIG RD",HOUSTON,TX,77055-1710,"(832) 740-4465",http://www.mrsbuilders.co/,,,
TX,HARRIS,20112211,"Single Family Homes",2/8/2021,,67425,,"3933 KING",HOUSTON,TX,77026,,,"MARTINEZ LUIS","3933 KING",HOUSTON,TX,77026,,Owner,,,,,"JONES MARC",,,,,"JONES MARC","11221 M C",HOUSTON,TX,70471,"(832) 778-4926",,,,
TX,HARRIS,21006672,"Single Family Homes",2/5/2021,,52000,,"604 HYDE PARK",HOUSTON,TX,77006,,,"WILLIAM  TED MCKENNA","604 HYDE PARK",HOUSTON,TX,77006,,Owner,,,,,"SUNSHINE POOLS",,,,,"SUNSHINE POOLS","1739 N BELT LINE RD",MESQUITE,TX,75149-1720,"(972) 289-2000",http://www.sunshine-pools.com/,,"DANI VASSAR",dani.vassar@sunshine-pools.com
TX,HARRIS,21006671,"Single Family Homes",2/4/2021,,130000,,"603 LITTLE JOHN",HOUSTON,TX,77024,,,"WILLIAM MCMULLEN","603 LITTLE JOHN",HOUSTON,TX,77024,,Owner,,,,,"MONARCH POOLS ",,,,,"MONARCH POOLS ","17555 GROESCHKE RD",HOUSTON,TX,77084-4629,"(281) 398-8311",,,,
TX,HARRIS,20112822,"Single Family Homes",2/8/2021,,32735,,"6143 WILLOW GLEN",HOUSTON,TX,77033,,,"SIMPLICIO MENDOZA","6143 WILLOW GLEN",HOUSTON,TX,77033,,Owner,,,,,"GABRIELA GARCIA",,,,,"GABRIELA GARCIA","16530 VENTURA",HOUSTON,TX,91436,"(818) 784-2300",,,,
TX,HARRIS,19094666,"Single Family Homes",2/2/2021,,64119,,"10252 FIELD STONE",HOUSTON,TX,77041,,,"MOORING BLACKMON","10252 FIELD STONE",HOUSTON,TX,77041,,Owner,,,,,OWNER,,,,,OWNER,,,,,,,,,
TX,HARRIS,20089563,"Single Family Homes",2/5/2021,,177240,,"5125 GOLDEN FOREST",HOUSTON,TX,77091,,,"JAVIER MORENO","5125 GOLDEN FOREST",HOUSTON,TX,77091,,Owner,,,,,OWNER,,,,,OWNER,,,,,,,,,
TX,HARRIS,20109819,"Single Family Homes",2/5/2021,,58000,,"8703 STABLE CREST",HOUSTON,TX,77024,,,"BACEL NSEIR","8703 STABLE CREST",HOUSTON,TX,77024,,Owner,,,,,"DOUGLAS SMITH CUSTOM HOMES",,,,,"DOUGLAS SMITH CUSTOM HOMES","9310 PECOS ST",HOUSTON,TX,77055-4410,"(713) 494-9290",http://www.douglassmithcustomhomes.com/,,,scb.5300@gmail.com
TX,HARRIS,20072304,"Single Family Homes",2/2/2021,,108300,,"5726 BANKSIDE",HOUSTON,TX,77096,,,"MILES PALKE","5726 BANKSIDE",HOUSTON,TX,77096,,Owner,,,,,"INCREDIBLE HOMES",,,,,"INCREDIBLE HOMES","5814 WINSOME LN",HOUSTON,TX,77581,"(713) 532-2526",https://incrediblehomes.net/,"(713) 952-4925","CAROLINA POMBROL",Info@Incrediblehomes.net
TX,HARRIS,20111921,"Single Family Homes",2/3/2021,,58946,,"735 HEIGHTS",HOUSTON,TX,77007,,,"PIPKIN CHRIS","735 HEIGHTS",HOUSTON,TX,77007,,Owner,,,,,"CANNON CONSTRUCTION",,,,,"CANNON CONSTRUCTION","230 RILEY FUZZELL",HOUSTON,TX,77373,"(281) 353-6868",,,,
TX,HARRIS,20096295,"Single Family Homes",2/4/2021,,125000,,"7950 MILEY",HOUSTON,TX,77028,,,"DENISSE SALINAS","7950 MILEY",HOUSTON,TX,77028,,Owner,,,,,OWNER,,,,,OWNER,,,,,,,,,
TX,HARRIS,20111922,"Single Family Homes",2/5/2021,,170452,,"7349 CADDO",HOUSTON,TX,77016,,,"MARY SHAW","7349 CADDO",HOUSTON,TX,7716,,Owner,,,,,"BYRDSON SERVICES",,,,,"BYRDSON SERVICES","1245 W CARDINAL DR",BEAUMONT,TX,77705-6410,"(409) 718-2183",,,,
TX,HARRIS,20103489,"Single Family Homes",2/3/2021,,85000,,"4814 LIDO",HOUSTON,TX,77092,,,"LAUREN SHELTON","4814 LIDO",HOUSTON,TX,77092,,Owner,,,,,OWNER,,,,,OWNER,,,,,,,,,
TX,HARRIS,20112857,"Single Family Homes",2/5/2021,,33420,,"5526 ASPEN",HOUSTON,TX,77081,,,"JJ & LORI SLATER","5526 ASPEN",HOUSTON,TX,77081,"(713) 723-3212",Owner,,,,,OWNER,,,,,OWNER,,,,,,,,,
TX,HARRIS,19094920,"Single Family Homes",2/3/2021,,47500,,"1022 N COMMONS VIEW",HOUSTON,TX,77336,,,"DAVID SULLIVAN","1022 N COMMONS VIEW",HOUSTON,TX,77336,,Owner,,,,,"PREMIER POOLS & SPAS",,,,,"PREMIER POOLS & SPAS","2810 BUSINESS CENTER DR STE 126",PEARLAND,TX,77584-9783,"(713) 436-4944",,"(713) 436-0081","BILL UNGER",bunger@ppas.com
TX,HARRIS,20114359,"Single Family Homes",2/4/2021,,168724,,"405 ELM LAKE",HOUSTON,TX,77336,,,"RAMIZ TAFILAJ","405 ELM LAKE",HOUSTON,TX,77336,,Owner,,,,,OWNER,,,,,OWNER,,,,,,,,,
TX,HARRIS,20062713,"Single Family Homes",2/4/2021,,60000,,"738 W 41ST",HOUSTON,TX,77018,,,"TYRA GARRETT & MARIA","738 W 41ST",HOUSTON,TX,77018,,Owner,,,,,"ANJA'S PERMIT ASSISTANCE",,,,,"ANJA'S PERMIT ASSISTANCE","PO BOX 1471",HOUSTON,TX,77251-1471,"(281) 222-5227",,,,
TX,HARRIS,20107276,"Single Family Homes",2/8/2021,,145000,,"7127 OAK VILLAGE",HOUSTON,TX,77396,,,"JOSE VELLEJO","7127 OAK VILLAGE",HOUSTON,TX,77396,,Owner,,,,,OWNER,,,,,OWNER,,,,,,,,,
TX,HARRIS,21006670,"Single Family Homes",2/6/2021,,204520,,"6008 CANAL",HOUSTON,TX,77011,,,"JAIME VILLARREAL","6008 CANAL",HOUSTON,TX,77011,,Owner,,,,,OWNER,,,,,OWNER,,,,,,,,,
TX,HARRIS,20111649,"Single Family Homes",2/5/2021,,65800,,"4911 CANDLEMIST",HOUSTON,TX,77018,,,"JASON VIRGADAMO","4911 CANDLEMIST",HOUSTON,TX,77018,,Owner,,,,,"ARTISTIC POOLS OF HOUSTON",,,,,"ARTISTIC POOLS OF HOUSTON","18915 SUN PASS DR",TOMBALL,TX,77377-7631,"(713) 823-1580",http://www.artisticpoolsofhouston.com/,"(713) 758-0392","TOM STOWELL",artistictom@comcast.net
TX,HARRIS,21004176,"Single Family Homes",2/8/2021,,104000,,"731 E 13TH 1/2",HOUSTON,TX,77008,,,"LOGAN WELCH","731 E 13TH 1/2",HOUSTON,TX,77008,,Owner,,,,,"HARVARD HEIGHTS CONSTRUCTION",,,,,"HARVARD HEIGHTS CONSTRUCTION","940 HARVARD ST",HOUSTON,TX,77008-6935,"(713) 880-8090",http://harvardheights.com/,,,harvardheights@aol.com
TX,HARRIS,20112358,"Single Family Homes",2/8/2021,,225000,,"3819 COSBY",HOUSTON,TX,77021,,,"KAROLYN WILLIAMS","3819 COSBY",HOUSTON,TX,77021,,Owner,,,,,OWNER,,,,,OWNER,,,,,,,,,
TX,BELL,FY-21-346,"Single Family Homes",1/15/2021,,187150,1866,"4721 FAWN VALLEY DR",TEMPLE,TX,76504,,,CONTRACTOR,,,,,,,,,,,"KIELLA HOMEBUILDERS",,,,,"KIELLA HOMEBUILDERS","7462 W ADAMS AVE",TEMPLE,TX,76502-5558,"(254) 778-0092",,,,
TX,BELL,FY-21-347,"Single Family Homes",1/15/2021,,187800,1874,"4713 FAWN VALLEY DR",TEMPLE,TX,76504,,,CONTRACTOR,,,,,,,,,,,"KIELLA HOMEBUILDERS",,,,,"KIELLA HOMEBUILDERS","7462 W ADAMS AVE",TEMPLE,TX,76502-5558,"(254) 778-0092",,,,
TX,BELL,FY-21-348,"Single Family Homes",1/15/2021,,209950,2289,"613 RIPPLEWOOD DR",TEMPLE,TX,76504,,,CONTRACTOR,,,,,,,,,,,"KIELLA HOMEBUILDERS",,,,,"KIELLA HOMEBUILDERS","7462 W ADAMS AVE",TEMPLE,TX,76502-5558,"(254) 778-0092",,,,
TX,BELL,FY-21-349,"Single Family Homes",1/15/2021,,115782,2517,"5218 FALLEN TREE DR",TEMPLE,TX,76504,,,CONTRACTOR,,,,,,,,,,,"STYLECRAFT BUILDERS ",,,,,"STYLECRAFT BUILDERS ","4090 STATE HIGHWAY 6 S","COLLEGE STATION",TX,77845-8962,"(979) 764-9900",,"(979) 690-3069","TANNER BREWSTER",tabrewster@stylecraft-builders.com
TX,BELL,FY-21-350,"Single Family Homes",1/15/2021,,,3618,"6409 WAGGONER CT",TEMPLE,TX,76504,,,CONTRACTOR,,,,,,,,,,,"ARNOLD BUILDERS",,,,,"ARNOLD BUILDERS","5297 S 31ST ST STE 109",TEMPLE,TX,76502-3515,"(254) 742-1072",http://www.arnoldbuilders.com,"(254) 742-2226",,bobby@arnoldbuilders.com
TX,BELL,FY-21-351,"Single Family Homes",1/15/2021,,160000,2617,"7602 HARDIN DR",TEMPLE,TX,76504,,,CONTRACTOR,,,,,,,,,,,"JERRY WRIGHT HOMES",,,,,"JERRY WRIGHT HOMES","411 VALLEY VIEW DR",GATESVILLE,TX,76528-3029,"(254) 290-4965",,,,
TX,BELL,FY-21-352,"Single Family Homes",1/15/2021,,,2633,"7208 ROSADO DR",TEMPLE,TX,76504,,,CONTRACTOR,,,,,,,,,,,"OMEGA BUILDERS GROUP",,,,,"OMEGA BUILDERS GROUP","7353 W ADAMS AVE",TEMPLE,TX,76502-5539,"(254) 773-9966",,,,
TX,BELL,FY-21-353,"Single Family Homes",1/15/2021,,,2554,"7223 ROSADO DR",TEMPLE,TX,76504,,,CONTRACTOR,,,,,,,,,,,"OMEGA BUILDERS GROUP",,,,,"OMEGA BUILDERS GROUP","7353 W ADAMS AVE",TEMPLE,TX,76502-5539,"(254) 773-9966",,,,
TX,BELL,FY-21-354,"Single Family Homes",1/15/2021,,,2476,"716 STONEHOUSE LN",TEMPLE,TX,76504,,,CONTRACTOR,,,,,,,,,,,"OMEGA BUILDERS GROUP",,,,,"OMEGA BUILDERS GROUP","7353 W ADAMS AVE",TEMPLE,TX,76502-5539,"(254) 773-9966",,,,
TX,BELL,FY-21-355,"Single Family Homes",1/15/2021,,97520,2120,"813 FALLBROOK DR",TEMPLE,TX,76504,,,CONTRACTOR,,,,,,,,,,,"STYLECRAFT BUILDERS ",,,,,"STYLECRAFT BUILDERS ","4090 STATE HIGHWAY 6 S","COLLEGE STATION",TX,77845-8962,"(979) 764-9900",,"(979) 690-3069","TANNER BREWSTER",tabrewster@stylecraft-builders.com
TX,BELL,FY-21-356,"Single Family Homes",1/15/2021,,76406,1661,"2031 DADE LOOP",TEMPLE,TX,76504,,,CONTRACTOR,,,,,,,,,,,"STYLECRAFT BUILDERS ",,,,,"STYLECRAFT BUILDERS ","4090 STATE HIGHWAY 6 S","COLLEGE STATION",TX,77845-8962,"(979) 764-9900",,"(979) 690-3069","TANNER BREWSTER",tabrewster@stylecraft-builders.com
TX,BELL,FY-21-357,"Single Family Homes",1/15/2021,,150000,2338,"1615 BLACK KETTLE TRL",TEMPLE,TX,76504,,,CONTRACTOR,,,,,,,,,,,"JERRY WRIGHT HOMES",,,,,"JERRY WRIGHT HOMES","411 VALLEY VIEW DR",GATESVILLE,TX,76528-3029,"(254) 290-4965",,,,
TX,BELL,FY-21-358,"Single Family Homes",1/15/2021,,327300,3355,"6212 CATANIA DR",TEMPLE,TX,76504,,,CONTRACTOR,,,,,,,,,,,"EAGLE RIDGE BUILDERS",,,,,"EAGLE RIDGE BUILDERS","1208 S 31ST ST",TEMPLE,TX,76504-6704,"(254) 931-1222",http://www.eagleridgebuilders.net/,,"CHRISTOPHER HODGES",
TX,BELL,FY-21-36,"Single Family Homes",1/15/2021,,180000,3356,"910 CHILDRESS DR A",TEMPLE,TX,76504,,,CONTRACTOR,,,,,,,,,,,"KILLEEN SUMMIT BUILDERS",,,,,"KILLEEN SUMMIT BUILDERS","415 E AVENUE F",KILLEEN,TX,76541-6217,"(254) 634-6914",,,,
TX,BELL,FY-21-392,"Single Family Homes",1/15/2021,,115782,2517,"5212 LEANING TREE DR",TEMPLE,TX,76504,,,CONTRACTOR,,,,,,,,,,,"STYLECRAFT BUILDERS ",,,,,"STYLECRAFT BUILDERS ","4090 STATE HIGHWAY 6 S","COLLEGE STATION",TX,77845-8962,"(979) 764-9900",,"(979) 690-3069","TANNER BREWSTER",tabrewster@stylecraft-builders.com
TX,BELL,FY-21-393,"Single Family Homes",1/15/2021,,102350,2225,"2076 DADE LOOP",TEMPLE,TX,76504,,,CONTRACTOR,,,,,,,,,,,"STYLECRAFT BUILDERS ",,,,,"STYLECRAFT BUILDERS ","4090 STATE HIGHWAY 6 S","COLLEGE STATION",TX,77845-8962,"(979) 764-9900",,"(979) 690-3069","TANNER BREWSTER",tabrewster@stylecraft-builders.com
TX,BELL,FY-21-394,"Single Family Homes",1/15/2021,,93012,2022,"7735 MERRY OAKS COVE",TEMPLE,TX,76504,,,CONTRACTOR,,,,,,,,,,,"STYLECRAFT BUILDERS ",,,,,"STYLECRAFT BUILDERS ","4090 STATE HIGHWAY 6 S","COLLEGE STATION",TX,77845-8962,"(979) 764-9900",,"(979) 690-3069","TANNER BREWSTER",tabrewster@stylecraft-builders.com
TX,BELL,FY-21-395,"Single Family Homes",1/15/2021,,93840,2040,"3124 CLEVELANDER DR",TEMPLE,TX,76504,,,CONTRACTOR,,,,,,,,,,,"STYLECRAFT BUILDERS ",,,,,"STYLECRAFT BUILDERS ","4090 STATE HIGHWAY 6 S","COLLEGE STATION",TX,77845-8962,"(979) 764-9900",,"(979) 690-3069","TANNER BREWSTER",tabrewster@stylecraft-builders.com
TX,BELL,FY-21-396,"Single Family Homes",1/15/2021,,150000,1812,"809 S 20TH ST",TEMPLE,TX,76502,"CRESTVIEW ",,CONTRACTOR,,,,,,,,,,,"AMERITEX HOMES",,,,,"AMERITEX HOMES","4835 LYNDON B JOHNSON FWY",DALLAS,TX,75244-6005,"(214) 765-0596",,,,
TX,BELL,FY-21-397,"Single Family Homes",1/15/2021,,325900,3911,"7122 CRYSTAL VALLEY",TEMPLE,TX,76504,,,CONTRACTOR,,,,,,,,,,,"EAGLE RIDGE BUILDERS",,,,,"EAGLE RIDGE BUILDERS","1208 S 31ST ST",TEMPLE,TX,76504-6704,"(254) 931-1222",http://www.eagleridgebuilders.net/,,"CHRISTOPHER HODGES",
TX,BELL,FY-21-398,"Single Family Homes",1/15/2021,,,2483,"1407 CHALICE DR",TEMPLE,TX,76504,,,CONTRACTOR,,,,,,,,,,,"OMEGA BUILDERS GROUP",,,,,"OMEGA BUILDERS GROUP","7353 W ADAMS AVE",TEMPLE,TX,76502-5539,"(254) 773-9966",,,,
TX,BELL,FY-21-399,"Single Family Homes",1/15/2021,,,2383,"7922 MARSALA DR",TEMPLE,TX,76504,,,CONTRACTOR,,,,,,,,,,,"OMEGA BUILDERS GROUP",,,,,"OMEGA BUILDERS GROUP","7353 W ADAMS AVE",TEMPLE,TX,76502-5539,"(254) 773-9966",,,,
TX,BELL,FY-21-400,"Single Family Homes",1/15/2021,,,2620,"803 HAWKS SHADOW DR",TEMPLE,TX,76504,"THE GROVES AT LAKEWOOD",,CONTRACTOR,,,,,,,,,,,"OMEGA BUILDERS GROUP",,,,,"OMEGA BUILDERS GROUP","7353 W ADAMS AVE",TEMPLE,TX,76502-5539,"(254) 773-9966",,,,
TX,BELL,FY-21-401,"Single Family Homes",1/15/2021,,188800,1827,"4710 HIGHMONT DR",TEMPLE,TX,76504,,,CONTRACTOR,,,,,,,,,,,"KIELLA HOMEBUILDERS",,,,,"KIELLA HOMEBUILDERS","7462 W ADAMS AVE",TEMPLE,TX,76502-5558,"(254) 778-0092",,,,
TX,BELL,FY-21-402,"Single Family Homes",1/15/2021,,187150,1874,"4702 HIGHMONT DR",TEMPLE,TX,76504,,,CONTRACTOR,,,,,,,,,,,"KIELLA HOMEBUILDERS",,,,,"KIELLA HOMEBUILDERS","7462 W ADAMS AVE",TEMPLE,TX,76502-5558,"(254) 778-0092",,,,
TX,BELL,FY-21-403,"Single Family Homes",1/15/2021,,201510,2201,"705 RIPPLEWOOD DR",TEMPLE,TX,76504,"VILLAGES OF WESTFIELD",,CONTRACTOR,,,,,,,,,,,"KIELLA HOMEBUILDERS",,,,,"KIELLA HOMEBUILDERS","7462 W ADAMS AVE",TEMPLE,TX,76502-5558,"(254) 778-0092",,,,
TX,BELL,FY-21-404,"Single Family Homes",1/15/2021,,210750,2214,"716 RIPPLEWOOD DR",TEMPLE,TX,76504,"VILLAGES OF WESTFIELD",,CONTRACTOR,,,,,,,,,,,"KIELLA HOMEBUILDERS",,,,,"KIELLA HOMEBUILDERS","7462 W ADAMS AVE",TEMPLE,TX,76502-5558,"(254) 778-0092",,,,
TX,BELL,FY-21-405,"Single Family Homes",1/15/2021,,110000,2802,"3202 BONHAM AVE",TEMPLE,TX,76504,,,CONTRACTOR,,,,,,,,,,,"M & L CONTRACTOR",,,,,"M & L CONTRACTOR","4726 LOTUS ST",HOUSTON,TX,77045-3122,"(281) 914-2731",,,,
TX,BELL,FY-21-406,"Single Family Homes",1/15/2021,,,3801,"605 RAVEN DR",TEMPLE,TX,76504,"THE GROVES AT LAKEWOOD",,CONTRACTOR,,,,,,,,,,,"OMEGA BUILDERS GROUP",,,,,"OMEGA BUILDERS GROUP","7353 W ADAMS AVE",TEMPLE,TX,76502-5539,"(254) 773-9966",,,,
TX,BELL,FY-21-407,"Single Family Homes",1/15/2021,,161322,3507,"909 HOLLYHOCK DR",TEMPLE,TX,76504,,,CONTRACTOR,,,,,,,,,,,"STYLECRAFT BUILDERS ",,,,,"STYLECRAFT BUILDERS ","4090 STATE HIGHWAY 6 S","COLLEGE STATION",TX,77845-8962,"(979) 764-9900",,"(979) 690-3069","TANNER BREWSTER",tabrewster@stylecraft-builders.com
TX,BELL,FY-21-408,"Single Family Homes",1/15/2021,,97796,2126,"5130 FALLEN TREE DR",TEMPLE,TX,76504,,,CONTRACTOR,,,,,,,,,,,"STYLECRAFT BUILDERS ",,,,,"STYLECRAFT BUILDERS ","4090 STATE HIGHWAY 6 S","COLLEGE STATION",TX,77845-8962,"(979) 764-9900",,"(979) 690-3069","TANNER BREWSTER",tabrewster@stylecraft-builders.com
TX,BELL,FY-21-409,"Single Family Homes",1/15/2021,,,3252,"6515 CLAYTON CT",TEMPLE,TX,76504,,,CONTRACTOR,,,,,,,,,,,"ARNOLD BUILDERS",,,,,"ARNOLD BUILDERS","5297 S 31ST ST STE 109",TEMPLE,TX,76502-3515,"(254) 742-1072",http://www.arnoldbuilders.com,"(254) 742-2226",,bobby@arnoldbuilders.com
TX,BELL,FY-21-410,"Single Family Homes",1/15/2021,,,3252,"2605 CIBOLO CREEK DR",TEMPLE,TX,76504,,,CONTRACTOR,,,,,,,,,,,"ARNOLD BUILDERS",,,,,"ARNOLD BUILDERS","5297 S 31ST ST STE 109",TEMPLE,TX,76502-3515,"(254) 742-1072",http://www.arnoldbuilders.com,"(254) 742-2226",,bobby@arnoldbuilders.com
TX,BELL,FY-21-411,"Single Family Homes",1/15/2021,,97796,2126,"1910 BAYOU WOOD LN",TEMPLE,TX,76504,,,CONTRACTOR,,,,,,,,,,,"STYLECRAFT BUILDERS ",,,,,"STYLECRAFT BUILDERS ","4090 STATE HIGHWAY 6 S","COLLEGE STATION",TX,77845-8962,"(979) 764-9900",,"(979) 690-3069","TANNER BREWSTER",tabrewster@stylecraft-builders.com
TX,GALVESTON,35327-21,"Warehouse & Manufacturing",1/28/2021,,30840,,"2422 AVE O",HOUSTON,TX,77450,,,"GARRICK WYDERMYER","413 PO BOX","LEAGUE CITY",TX,77573,,Owner,,,,,OWNER,,,,,OWNER,,,,,,,,,
TX,HARRIS,20109041,"Warehouse & Manufacturing",2/3/2021,,200000,,"2110 STUART",HOUSTON,TX,77004,,,CONTRACTOR,,,,,,,,,,,"ANNE'S PERMIT",,,,,"ANNE'S PERMIT","2617C W HOLCOMBE BLVD",HOUSTON,TX,77025,"(713) 666-2025",,,,
TX,HARRIS,20110737,"Warehouse & Manufacturing",2/3/2021,,235990,,"12512 ABBEY HOUSE",HOUSTON,TX,77047,,,CONTRACTOR,,,,,,,,,,,"DR HORTON",,,,,"DR HORTON","14100 SOUTHWEST",HOUSTON,TX,77478,"(281) 201-5559",,,,
TX,HARRIS,19035418,"Warehouse & Manufacturing",2/8/2021,,209490,,"12618 BAKER BEND",HOUSTON,TX,77034,,,CONTRACTOR,,,,,,,,,,,"MARIA VARGAS",,,,,"MARIA VARGAS","1311 BROADFIELD BLVD",HOUSTON,TX,77084-5186,"(281) 529-9127",,,,
TX,BELL,FY-21-6,"Warehouse & Manufacturing",1/15/2021,,5000000,,"2360 LUCIUS MCCELVEY DR",TEMPLE,TX,76504,,,CONTRACTOR,,,,,,,,,,,"CLOUD CONSTRUCTION",,,,,"CLOUD CONSTRUCTION","PO BOX 667",TEMPLE,TX,76503-0667,"(254) 778-1363",http://www.cloudconstruction.com/,"(254) 778-5877",,
