state,county,permno,ptype,pdate,pdescription,jvalue,jsqfeet,jaddr,jcity,jstate,jzip,jsubdiv,jlotno,aname,aaddr,acity,astate,azip,aphone,atype,aurl,afax,aprimarycontact,aemail,bldcode,units,bldgs,ctype,legal,contractor,caddress,ccity,cstate,czip,cphone,curl,cfax,cprimarycontact,cemail
TX,HARRIS,21012919,"Auto Sales & Services",4/1/2021,Renovations,47500,,"2000 EDWARDS ST",HOUSTON,TX,77007,,,"LETTIE HARRELL","2000 EDWARDS ST",HOUSTON,TX,77007,"(281) 740-1127",Applicant,,,,,OWNER,,,,,OWNER,,,,,,,,,
TX,HARRIS,20086369,"Commercial Swimming Pool & Spas",4/5/2021,,48000,,"2121 EDWARDS",HOUSTON,TX,77007,,,CONTRACTOR,,,,,,,,,,,"GREYSTAR DEVELOPMENT & CONSTRUCTION",,,,,"GREYSTAR DEVELOPMENT & CONSTRUCTION","750 BERING DR STE 300",HOUSTON,TX,77057-2132,"(713) 966-5000",,,,
TX,HARRIS,2101150055,"Duplex, Triplex, & Fourplex",3/16/2021,,40000,1983,"1726 HAVNER LN",HOUSTON,TX,77356,"WESTFIELD MANOR",,"LAWRENCE EKEKE","1726 HAVNER LN",HOUSTON,TX,77356,,Owner,,,,,OWNER,,,,,OWNER,,,,,,,,,
TX,HARRIS,20117511,"Duplex, Triplex, & Fourplex",4/5/2021,,388000,,"3614 EATON ESTATES",HOUSTON,TX,77055,,,CONTRACTOR,,,,,,,,,,,"DARLING HOMES",,,,,"DARLING HOMES","2500 LEGACY DR STE 100",FRISCO,TX,75034-5984,"(469) 252-2200",http://www.darlinghomes.com/,,,
TX,HARRIS,19048901,"Duplex, Triplex, & Fourplex",4/5/2021,,216397,,"4610 REDBUD ST A",HOUSTON,TX,77051,,,CONTRACTOR,,,,,,,,,,,"GREENTECH CONSTRUCTION",,,,,"GREENTECH CONSTRUCTION","4630 KNOXVILLE",HOUSTON,TX,77051,"(832) 385-3809",,,"JORDON DWAYNE",
TX,HARRIS,21017537,"Duplex, Triplex, & Fourplex",3/30/2021,,377000,,"3609 SOMERSET YORK",HOUSTON,TX,77024,,,CONTRACTOR,,,,,,,,,,,"MHI MCGUYER HOMEBUILDERS",,,,,"MHI MCGUYER HOMEBUILDERS","7676 WOODWAY DR",HOUSTON,TX,77063-1526,"(713) 260-4107",,,,
TX,HARRIS,21001905,"Duplex, Triplex, & Fourplex",4/1/2021,,170000,,"7802 DANDY ST 1",HOUSTON,TX,77016,,,CONTRACTOR,,,,,,,,,,,"MW ROGERS CONSTRUCTION",,,,,"MW ROGERS CONSTRUCTION","7536 HARMS RD",HOUSTON,TX,77041-2141,"(713) 937-7200",http://www.mwrogers.com/,"(713) 937-7205",,info@mwrogers.com
TX,HARRIS,20108654,"Duplex, Triplex, & Fourplex",4/1/2021,,120000,,"12009 MEADOWGREEN",HOUSTON,TX,77076,,,"HORACIO LUNA","12009 MEADOWGREEN",HOUSTON,TX,77076,"(832) 613-2106",Owner,,,,,OWNER,,,,,OWNER,,,,,,,,,
TX,HARRIS,20098841,"Duplex, Triplex, & Fourplex",3/30/2021,,196000,,"339 OWENS ST",HOUSTON,TX,77029,,,"ISRAEL SANTIBANEZ","339 OWENS ST",HOUSTON,TX,77029,,Owner,,,,,OWNER,,,,,OWNER,,,,,,,,,
TX,BRAZORIA,COMM21-00072,"Educational Institution",3/22/2021,,49000,,"12900 SHADOW CREEK PKWY",PEARLAND,TX,77584,,,CONTRACTOR,,,,,,,,,,,"MG POOLS",,,,,"MG POOLS","1700 COMMERCE ST STE 1140",DALLAS,TX,75201-5390,"(214) 407-0671",,,,projectmanager@mgpools.com
TX,HARRIS,2101270012,"Educational Institution",3/16/2021,,750000,10000,"12815 HUFFMEISTER RD",HOUSTON,TX,77356,"HUFFMEISTER PLAZA",,"RAUL MENDOZA","12815 HUFFMEISTER RD",HOUSTON,TX,77356,,Owner,,,,,OWNER,,,,,OWNER,,,,,,,,,
TX,HARRIS,21006850,"Educational Institution",4/2/2021,,650000,,"2410 HAMILTON ST",HOUSTON,TX,77004,,,"A+ UNLIMITED POTENTIAL","2410 HAMILTON",HOUSTON,TX,77004,"(713) 204-3837",Owner,,,,,OWNER,,,,,OWNER,,,,,,,,,
TX,HARRIS,19122906,"Educational Institution",4/5/2021,,6000000,,"518 SHEPHERD",HOUSTON,TX,77007,,,CONTRACTOR,,,,,,,,,,,"ARCHITECTS - PLUS",,,,,"ARCHITECTS - PLUS","3333 EASTSIDE ST",HOUSTON,TX,77098,"(713) 533-1370",,,,
TX,BRAZORIA,COMM21-00075,"Hospital & Other Medical",3/16/2021,,42149,6500,"2906 BROADWAY ST",PEARLAND,TX,77584,,,"HCA HOUSTON HEALTHCARE","2906 BROADWAY ST",PEARLAND,TX,77584,,Owner,,,,,"URBAN CONSTRUCTION SOUTHWEST INC",,,,,"URBAN CONSTRUCTION SOUTHWEST INC","2537 S GESSNER RD STE 220",HOUSTON,TX,77063-2061,"(713) 339-5380",,,,
TX,BRAZORIA,COMM20-00128,"Hospital & Other Medical",3/8/2021,,1450000,5455,"2907 BROADWAY ST",PEARLAND,TX,77584,,,CONTRACTOR,,,,,,,,,,,"READY CONSTRUCTION SERVICE",,,,,"READY CONSTRUCTION SERVICE","8350 N CENTRAL EXPY STE 1313",DALLAS,TX,75206-1619,"(214) 561-6515",http://readyconstruction.com,,,bhollier@readyconstruction.com
TX,HARRIS,2103160143,"Hospital & Other Medical",3/16/2021,,37669,2400,"15201 EAST FREEWAY SERVICE RD",HOUSTON,TX,77356,,,"MINIVASICE PAIN SPECIALISTS","15201 EAST FREEWAY SERVICE RD",HOUSTON,TX,77356,,Owner,,,,,OWNER,,,,,OWNER,,,,,,,,,
TX,HARRIS,20110397,"Hospital & Other Medical",4/5/2021,Renovations,45000,,"7600 FANNIN ST FL",HOUSTON,TX,77054,,,CONTRACTOR,,,,,,,,,,,"ALANIZ CUSTOM BUILDERS",,,,,"ALANIZ CUSTOM BUILDERS","2608 SLEEPY HOLLOW DRIVE",PEARLAND,TX,77581,"(281) 412-9845",,,,
TX,HARRIS,20116073,"Hospital & Other Medical",4/5/2021,Renovations,625000,,"9450 HAMMERLY BLVD",HOUSTON,TX,77080,,,CONTRACTOR,,,,,,,,,,,"CACTUS COMMERCIAL",,,,,"CACTUS COMMERCIAL","12705 S KIRKWOOD RD STE 220",STAFFORD,TX,77477-3813,"(281) 201-2555",,"(800) 957-5109",,estimator@cactuscommercial.com
TX,HARRIS,20107188,"Hospital & Other Medical",4/5/2021,Renovations,120000,,"2605 REED RD",HOUSTON,TX,77051,,,CONTRACTOR,,,,,,,,,,,"ENDURANCE BUILDERS",,,,,"ENDURANCE BUILDERS","2190 NORTH LOOP W STE 300",HOUSTON,TX,77018-8006,"(832) 623-7351",http://www.endbs.com/,,"BOB FLOWERS",
TX,HARRIS,21002361,"Hospital & Other Medical",3/30/2021,,165000,,"3901 AUSTIN",HOUSTON,TX,77004,,,"MARIA SCAGLIONI","2901 WILCREST DR",HOUSTON,TX,77042,"(346) 715-8752",Applicant,,,,,OWNER,,,,,OWNER,,,,,,,,,
TX,HARRIS,20088024,"Multi Family Apartments & Condos",4/1/2021,,2885700,,"1250 BURNETT ST",HOUSTON,TX,77009,,,CONTRACTOR,,,,,,,,,,,"ALLIANCE REALTY PARTNERS",,,,,"ALLIANCE REALTY PARTNERS","1002 RAINTREE CIR STE 100",ALLEN,TX,75013-4965,"(972) 747-5100",,,,
TX,BRAZORIA,COMM21-00076,"Offices, R&D, & Professional",3/18/2021,,2082000,1600,"14905 KIRBY DR #100",PEARLAND,TX,77584,,,CONTRACTOR,,,,,,,,,,,"JT VAUGHN CONSTRUCTION",,,,,"JT VAUGHN CONSTRUCTION","1028 BROADWAY ST",GALVESTON,TX,77550-6257,"(409) 770-0747",http://www.vaughnconstruction.com/,,,
TX,BRAZORIA,COMM19-00282,"Offices, R&D, & Professional",3/31/2021,,985000,21224,"2919 MANVEL RD",PEARLAND,TX,77584,,,CONTRACTOR,,,,,,,,,,,"BRAUGHTON BUILDERS",,,,,"BRAUGHTON BUILDERS","2418 FOREST OAKS BLVD",HOUSTON,TX,77017-7145,"(713) 553-4183",http://www.braughtonbuilders.com/,,,
TX,HARRIS,2102190080,"Offices, R&D, & Professional",3/16/2021,,865000,3492,"10100 W LAKE HOUSTON PKWY",HOUSTON,TX,77356,"GENERATION PARK",,LPC,"10100 W LAKE HOUSTON PKWY",HOUSTON,TX,77356,,Owner,,,,,OWNER,,,,,OWNER,,,,,,,,,
TX,HARRIS,2003060029,"Offices, R&D, & Professional",3/16/2021,,49500,,"12040 E HARDY RD",HOUSTON,TX,77356,"HAHL SITES",,"SERRATO AUGUSTIN","12040 E HARDY RD",HOUSTON,TX,77356,,Owner,,,,,OWNER,,,,,OWNER,,,,,,,,,
TX,HARRIS,2103020244,"Offices, R&D, & Professional",3/16/2021,,30000,,"111 SHELDON RD",HOUSTON,TX,77356,"LANG D R",,"EL ARTE DEL TACO","111 SHELDON RD",HOUSTON,TX,77356,,Owner,,,,,OWNER,,,,,OWNER,,,,,,,,,
TX,HARRIS,2103030008,"Offices, R&D, & Professional",3/16/2021,,48000,1300,"12243 QUEENSTON BLVD",HOUSTON,TX,77356,"STONEGATE COMMONS",,"MNMN DEVELOPMENT LLC","12243 QUEENSTON BLVD",HOUSTON,TX,77356,,Owner,,,,,OWNER,,,,,OWNER,,,,,,,,,
TX,HARRIS,2102230017,"Offices, R&D, & Professional",3/16/2021,,125000,2600,"10242 GREENHOUSE RD",HOUSTON,TX,77356,,,"SPECIALIZED ASSESSMENT AND CONSULTING","10242 GREENHOUSE RD",HOUSTON,TX,77356,,Owner,,,,,OWNER,,,,,OWNER,,,,,,,,,
TX,HARRIS,21006971,"Offices, R&D, & Professional",3/31/2021,,42500,,"841 YALE ST",HOUSTON,TX,77007,,,CONTRACTOR,,,,,,,,,,,"ALLEGRO BUILDERS",,,,,"ALLEGRO BUILDERS","1001 STUDEWOOD ST ",HOUSTON,TX,77008-7190,"(713) 880-8899",http://allegrobuilders.com,,,
TX,HARRIS,20104508,"Offices, R&D, & Professional",3/31/2021,,150000,,"5882 SAN FELIPE ST",HOUSTON,TX,77057,,,"SERGIO ASTORGA","10701 CORPORATE DR STE",HOUSTON,TX,77477,"(832) 389-2669",Applicant,,,,,OWNER,,,,,OWNER,,,,,,,,,
TX,HARRIS,21009070,"Offices, R&D, & Professional",3/30/2021,,166500,,"5353 W ALABAMA ST",HOUSTON,TX,77056,,,CONTRACTOR,,,,,,,,,,,"BRAUN ENTERPRISES",,,,,"BRAUN ENTERPRISES","3217 MONTROSE BLVD STE 200",HOUSTON,TX,77006-3944,"(713) 541-0066",http://www.braunenterprises.com/,"(713) 541-0661","DAN BRAUN",
TX,HARRIS,21018666,"Offices, R&D, & Professional",3/30/2021,,225000,,"24 GREENWAY PLAZA",HOUSTON,TX,77046,,,CONTRACTOR,,,,,,,,,,,"BYRD INTERIOR CONSTRUCTION",,,,,"BYRD INTERIOR CONSTRUCTION","2123 W GOVERNORS CIR # 100",HOUSTON,TX,77092-8746,"(713) 688-8850",http://www.byrdinterior.com/,,"JOHN BYRD",jbyrd@byrdinterior.com
TX,HARRIS,20060876,"Offices, R&D, & Professional",3/30/2021,Renovations,5492750,,"13141 NORTHWEST",HOUSTON,TX,77040,,,CONTRACTOR,,,,,,,,,,,"CAMILLO PROPERTIES",,,,,"CAMILLO PROPERTIES","6707 GESSNER RD",HOUSTON,TX,77040-4017,"(832) 500-0284",http://www.camillorentalhomes.com/,"(281) 325-0245",,
TX,HARRIS,20110488,"Offices, R&D, & Professional",3/30/2021,Renovations,40000,,"5520 GREENS RD BLD",HOUSTON,TX,77032,,,"JIMMY DRISCOLL","3200 SOUTHWEST FWY STE",HOUSTON,TX,77027,"(855) 263-3475",Applicant,,,,,OWNER,,,,,OWNER,,,,,,,,,
TX,HARRIS,21000674,"Offices, R&D, & Professional",3/30/2021,Renovations,200000,,"6100 MAIN ST",HOUSTON,TX,77002,,,CONTRACTOR,,,,,,,,,,,"FORNEY CONSTRUCTION",,,,,"FORNEY CONSTRUCTION","8945 LONG POINT RD STE 200",HOUSTON,TX,77055-3036,"(713) 224-1900",http://www.forneycc.com/,"(713) 224-1901",,
TX,HARRIS,21015386,"Offices, R&D, & Professional",4/2/2021,Renovations,350000,,"1221 MCKINNEY ST",HOUSTON,TX,77010,,,CONTRACTOR,,,,,,,,,,,"GALLANT BUILDERS",,,,,"GALLANT BUILDERS","6990 PORTWEST DR STE 170",HOUSTON,TX,77024-8088,"(713) 275-9900",https://www.gallantbuilders.com/,"(713) 275-9901",,
TX,HARRIS,21019687,"Offices, R&D, & Professional",4/1/2021,Renovations,211140,,"4700 WEST SAM HOUSTON NORTH PKY",HOUSTON,TX,77002,,,"GRIFFIN CONCOURSE T WEST WAY","10777 WESTHEIMER RD",HOUSTON,TX,77042,"(281) 841-1055",Applicant,,,,,OWNER,,,,,OWNER,,,,,,,,,
TX,HARRIS,20111024,"Offices, R&D, & Professional",3/31/2021,,500000,,"833 TEXAS ST",HOUSTON,TX,77002,,,CONTRACTOR,,,,,,,,,,,HINES,,,,,HINES,"2800 POST OAK BLVD",HOUSTON,TX,77056-6100,"(713) 237-5645",https://www.hines.com,,,
TX,HARRIS,21014091,"Offices, R&D, & Professional",3/31/2021,Renovations,164039,,"5 GREENWAY PLAZA",HOUSTON,TX,77046,,,CONTRACTOR,,,,,,,,,,,"ODONNELL SNIDER CONSTRUCTION",,,,,"ODONNELL SNIDER CONSTRUCTION","1900 WEST LOOP S STE 350",HOUSTON,TX,77027-3236,"(713) 782-2238",http://odonnellsnider.com/,"(713) 782-2238",,bwhyte@odonnellsnider.com
TX,HARRIS,21012903,"Offices, R&D, & Professional",4/5/2021,Renovations,84604,,"11931 WICKCHESTER LN FL",HOUSTON,TX,77043,,,CONTRACTOR,,,,,,,,,,,"COMMERCIAL TENNANT",,,,,"COMMERCIAL TENNANT","6001 CENTRALCREST ST",HOUSTON,TX,77092-7009,"(713) 956-0999",,,,
TX,HARRIS,21030593,"Offices, R&D, & Professional",4/5/2021,Renovations,149387,,"333 CLAY ST FL",HOUSTON,TX,77002,,,CONTRACTOR,,,,,,,,,,,"SCOTT & REID GENERAL",,,,,"SCOTT & REID GENERAL","5100 WESTHEIMER RD STE 200",HOUSTON,TX,77056-5597,"(469) 374-3400",http://www.scottandreid.com,"(469) 374-0060","PHIL VANDERHILL",email@scottandreid.com
TX,HARRIS,20051213,"Offices, R&D, & Professional",3/30/2021,,600000,,"1612 WAUGH",HOUSTON,TX,77006,,,CONTRACTOR,,,,,,,,,,,"SCOTT & REID GENERAL",,,,,"SCOTT & REID GENERAL","5100 WESTHEIMER RD STE 200",HOUSTON,TX,77056-5597,"(469) 374-3400",http://www.scottandreid.com,"(469) 374-0060","PHIL VANDERHILL",email@scottandreid.com
TX,HARRIS,21000788,"Offices, R&D, & Professional",4/1/2021,Renovations,47782,,"2665 ROYAL FOREST DR",HOUSTON,TX,77339,,,CONTRACTOR,,,,,,,,,,,"CRYSTAL CREEK DEVELOPERS",,,,,"CRYSTAL CREEK DEVELOPERS","907 S FRIENDSWOOD DR # 220",FRIENDSWOOD,TX,77546-4855,"(281) 993-3700",,,,
TX,HARRIS,21020775,"Offices, R&D, & Professional",3/30/2021,,48500,,"5051 WESTHEIMER",HOUSTON,TX,77002,,,CONTRACTOR,,,,,,,,,,,"THREE GALLERIA OFFICE BUILDING",,,,,"THREE GALLERIA OFFICE BUILDING","5065 WESTHEIMER RD",HOUSTON,TX,77056,"(713) 396-7282",,,,
TX,HARRIS,2103020053,"Offices, R&D, & Professional",3/16/2021,,32500,1400,"18039 FM 529",HOUSTON,TX,77356,"LOWERY TRACT",,CITYCUTS,"18039 FM 529",HOUSTON,TX,77356,,Owner,,,,,OWNER,,,,,OWNER,,,,,,,,,
TX,HARRIS,2011090034,"Offices, R&D, & Professional",3/16/2021,,469050,6254,"17134 N ELDRIDGE PKWY",HOUSTON,TX,77356,,,CONTRACTOR,,,,,,,,,,,"ADCS LP",,,,,"ADCS LP","20207 FOREST DR",SPRING,TX,77388,"(281) 355-5800",,,,
TX,HARRIS,2012230155,"Other Commercial",3/16/2021,,735300,9804,"15655 BELLAIRE BLVD",HOUSTON,TX,77356,,,"WP ROSHAN INVESTEMENT INC","15655 BELLAIRE BLVD",HOUSTON,TX,77356,,Owner,,,,,OWNER,,,,,OWNER,,,,,,,,,
TX,HARRIS,2101290115,"Other Commercial",3/16/2021,,150000,207740,"11833 CUTTEN RD",HOUSTON,TX,77356,,,"WESTERN POST EXPANSION","11833 CUTTEN RD",HOUSTON,TX,77356,,Owner,,,,,OWNER,,,,,OWNER,,,,,,,,,
TX,HARRIS,2012160153,"Other Commercial",3/16/2021,,170000,2114,"4013 S SAM HOUSTON PKWY E",HOUSTON,TX,77356,,,"SSAK ENTERPRISES LLC","4013 S SAM HOUSTON PKWY E",HOUSTON,TX,77356,,Owner,,,,,OWNER,,,,,OWNER,,,,,,,,,
TX,HARRIS,2012020196,"Other Commercial",3/16/2021,,450450,6006,"9114 SYNOTT RD",HOUSTON,TX,77356,,,"QUYEN TRUONG","9114 SYNOTT RD",HOUSTON,TX,77356,,Owner,,,,,OWNER,,,,,OWNER,,,,,,,,,
TX,HARRIS,2010060145,"Other Commercial",3/16/2021,,5500000,10446,"12212 PORT RD",HOUSTON,TX,77356,BAYPORT,,"BAYSTAR POLYMERS","12212 PORT RD",HOUSTON,TX,77356,,Owner,,,,,OWNER,,,,,OWNER,,,,,,,,,
TX,HARRIS,2012020203,"Other Commercial",3/16/2021,,600000,11963,"20015 FM 2920 RD",HOUSTON,TX,77356,VICKERS-MUESCHKE,,CONTRACTOR,,,,,,,,,,,"CANNON CONSTRUCTION",,,,,"CANNON CONSTRUCTION","230 RILEY FUZZELL",HOUSTON,TX,77373,"(281) 353-6868",,,,
TX,HARRIS,2010160127,"Other Commercial",3/16/2021,,478100,4920,"19123 W LITTLE YORK RD",HOUSTON,TX,77356,,,"SERGIO LUNA SANTANA","19123 W LITTLE YORK RD",HOUSTON,TX,77356,,Owner,,,,,OWNER,,,,,OWNER,,,,,,,,,
TX,HARRIS,2012300064,"Other Commercial",3/16/2021,,70151960,7475,"7015 FM 1960 RD E",HOUSTON,TX,77356,,,CONTRACTOR,,,,,,,,,,,"AXXYS CONSTRUCTION",,,,,"AXXYS CONSTRUCTION","4101 NICOLS RD #100",EGAN,MN,55122,"(612) 800-7878",,,,
TX,HARRIS,20008595,"Parks, Recreation, Entertainment, & RV Park",3/31/2021,Renovations,1452559,,"16301 CHIMNEY ROCK",HOUSTON,TX,77053,,,CONTRACTOR,,,,,,,,,,,"FBISD DESIGN & CONSTRUCTION",,,,,"FBISD DESIGN & CONSTRUCTION","2323 TEXAS PKWY","MISSOURI CITY",TX,77489,"(281) 634-5590",https://www.fortbendisd.com/,"(281) 634-5595",,Carol.Fletcher@fortbendisd.com
TX,"FORT BEND",020210144,"Residential Renovations & Additions",3/23/2021,Renovations,39000,,"11915 MEADOW CREST DR","MEADOWS PLACE",TX,77477,,,"DEREK IRVIN","11915 MEADOW CREST DR","MEADOWS PLACE",TX,77477,,Applicant,,,,,OWNER,,,,,OWNER,,,,,,,,,
TX,"FORT BEND",020210145,"Residential Renovations & Additions",3/23/2021,Renovations,40000,1838,"11850 MEADOW CREST DR","MEADOWS PLACE",TX,77477,,,"JAMES CANTRELL","11850 MEADOW CREST DR","MEADOWS PLACE",TX,77477,,Owner,,,,,OWNER,,,,,OWNER,,,,,,,,,
TX,HARRIS,21012122,"Residential Renovations & Additions",3/31/2021,Addition,78000,,"7221 JADEWOOD",HOUSTON,TX,77088,,,"ADAN JOSE","7221 JADEWOOD",HOUSTON,TX,77088,,Owner,,,,,"FREEDOM FOREVER TX",,,,,"FREEDOM FOREVER TX","15550 VICKERY DR SUITE 100",HOUSTON,TX,77032-2581,"(888) 557-6431",,,,
TX,HARRIS,21023222,"Residential Renovations & Additions",4/1/2021,Addition,44141,,"4927 BERRY KNOLL",HOUSTON,TX,77345,,,"JEFF ALLEN","4927 BERRY KNOLL",HOUSTON,TX,77345,"(469) 818-3766",Owner,,,,,OWNER,,,,,OWNER,,,,,,,,,
TX,HARRIS,21009905,"Residential Renovations & Additions",4/1/2021,Addition,63648,,"5511 ELM TREE",HOUSTON,TX,77048,,,"ARAGON-MARTINEZ CHRISTIAN","5511 ELM TREE",HOUSTON,TX,77048,,Owner,,,,,"MATTHEW FRANZ",,,,,"MATTHEW FRANZ","9007 TUSCANY WAY",AUSTIN,TX,78754,"(619) 405-5936",,,,
TX,HARRIS,21021998,"Residential Renovations & Additions",3/31/2021,Addition,40000,,"850 SULPHUR",HOUSTON,TX,77034,,,"AGULIAR ARNOLDO","850 SULPHUR",HOUSTON,TX,77034,,Owner,,,,,"MOHAMMED BARAKAT",,,,,"MOHAMMED BARAKAT","1111 POST OAK",HOUSTON,TX,77056,"(469) 262-8161",,,,
TX,HARRIS,21013472,"Residential Renovations & Additions",4/1/2021,Addition,32482,,"6622 ROLLING MILL",HOUSTON,TX,77008,,,"ANTHONY AUBREY","6622 ROLLING MILL",HOUSTON,TX,77088,,Owner,,,,,"PATRICK HICKS",,,,,"PATRICK HICKS","12560 REED RD","SUGAR LAND",TX,77478-3379,"(832) 763-6018",,,,
TX,HARRIS,21012193,"Residential Renovations & Additions",4/1/2021,Addition,30000,,"7614 MOLINE",HOUSTON,TX,77087,,,"ROBERTO BANDA","7614 MOLINE",HOUSTON,TX,77087,,Owner,,,,,OWNER,,,,,OWNER,,,,,,,,,
TX,HARRIS,21024343,"Residential Renovations & Additions",4/5/2021,Renovations,34070,,"1849 HARVARD",HOUSTON,TX,77008,,,"STEVE BARRON","1849 HARVARD",HOUSTON,TX,77008,,Owner,,,,,"CAVETTO HOMES",,,,,"CAVETTO HOMES","4629 KINGFISHER DR",HOUSTON,TX,77035-5113,"(281) 657-5302",,,,
TX,HARRIS,21014189,"Residential Renovations & Additions",3/30/2021,Addition,75000,,"13018 HERMITAGE",HOUSTON,TX,77079,,,"FRANK BERTOLINO","13018 HERMITAGE",HOUSTON,TX,77079,,Owner,,,,,"OREON DESIGN GROUP",,,,,"OREON DESIGN GROUP","2030 NORTH LOOP WEST STE",HOUSTON,TX,77018,"(832) 834-5455",,,"PAPADOPULOS PANAGIOTA",
TX,HARRIS,21005855,"Residential Renovations & Additions",3/30/2021,Addition,31309,,"510 COMMODORE",HOUSTON,TX,77079,,,"GERALDINE BRICENO","510 COMMODORE",HOUSTON,TX,77079,,Owner,,,,,OWNER,,,,,OWNER,,,,,,,,,
TX,HARRIS,20107788,"Residential Renovations & Additions",4/5/2021,Addition,200000,,"70 SADDLEBROOK",HOUSTON,TX,77024,,,"CARTER JAMIE & LYNN","70 SADDLEBROOK",HOUSTON,TX,77024,,Owner,,,,,"PINTAIL CONSTRUCTION",,,,,"PINTAIL CONSTRUCTION","15063 STARBOARD DR",WILLIS,TX,77318-3265,"(281) 914-2029",,,,
TX,HARRIS,20117984,"Residential Renovations & Additions",3/30/2021,Addition,41000,,"1703 CANDLELIGHT PLACE",HOUSTON,TX,77018,,,"CERVENEC JERMEY & REBECCA","1703 CANDLELIGHT PLACE",HOUSTON,TX,77018,,Owner,,,,,"SUNSHINE RENEWABLE SOLUTIONS",,,,,"SUNSHINE RENEWABLE SOLUTIONS","4011 VALLEY GREEN CT",HOUSTON,TX,77059-5557,"(832) 280-8838",,,,
TX,HARRIS,21016307,"Residential Renovations & Additions",4/1/2021,Addition,50000,,"506 ENID",HOUSTON,TX,77009,,,"CHRISTIANSON KEITH","506 ENID",HOUSTON,TX,77009,,Owner,,,,,"QUICKWOOD CONSTRUCTION",,,,,"QUICKWOOD CONSTRUCTION","1305 TULANE ST 411",HOUSTON,TX,77008,"(713) 898-5356",,,,
TX,HARRIS,21008685,"Residential Renovations & Additions",3/30/2021,Addition,94708,,"1127 JEROME",HOUSTON,TX,77009,,,"J F & L M GLICK","1127 JEROME",HOUSTON,TX,77009,,Owner,,,,,"BUNGALOW REVIVAL",,,,,"BUNGALOW REVIVAL","238 WEST 19TH ST",HOUSTON,TX,77008-4064,"(713) 861-7494",http://bungalowrevival.com,"(713) 863-7493",,
TX,HARRIS,21016298,"Residential Renovations & Additions",4/3/2021,Addition,85000,,"4434 CHEENA",HOUSTON,TX,77096,,,"SUSAN MARSH","4434 CHEENA",HOUSTON,TX,77096,,Owner,,,,,"BUFFALO CREEK",,,,,"BUFFALO CREEK","5223 BELLAIRE BLVD UNIT",HOUSTON,TX,77401,"(832) 423-9239",,,,
TX,HARRIS,20118230,"Residential Renovations & Additions",4/1/2021,Addition,250000,,"8902 WYNMEADOW",HOUSTON,TX,77061,,,CONTRACTOR,,,,,,,,,,,"GREENTECH CONSTRUCTION",,,,,"GREENTECH CONSTRUCTION","4630 KNOXVILLE",HOUSTON,TX,77051,"(832) 385-3809",,,"JORDON DWAYNE",
TX,HARRIS,21003295,"Residential Renovations & Additions",3/31/2021,Addition,60515,,"1613 WYCLIFFE",HOUSTON,TX,77043,,,"CONY F. RIVERA","1613 WYCLIFFE",HOUSTON,TX,77043,,Owner,,,,,"JUSTIN MERKEY",,,,,"JUSTIN MERKEY","6999 LITTLE YORK",HOUSTON,TX,77040,"(832) 798-6353",,,,
TX,HARRIS,21029093,"Residential Renovations & Additions",4/5/2021,Renovations,198963,,"6027 RIVERVIEW",HOUSTON,TX,77057,,,"MOLLY DUNCAN","6027 RIVERVIEW",HOUSTON,TX,77057,,Owner,,,,,"HESTIA CONSTRUCTION & DESIGN",,,,,"HESTIA CONSTRUCTION & DESIGN","16000 BARKERS POINT LN STE 202",HOUSTON,TX,77079-4000,"(832) 399-2060",,,,
TX,HARRIS,21001475,"Residential Renovations & Additions",4/2/2021,Addition,55000,,"13519 MYRTLEA",HOUSTON,TX,77079,,,"ARTHUR GROWNEY","13519 MYRTLEA",HOUSTON,TX,77079,"(713) 582-4473",Owner,,,,,OWNER,,,,,OWNER,,,,,,,,,
TX,HARRIS,21006807,"Residential Renovations & Additions",4/1/2021,Addition,150000,,"4607 CHANTILLY",HOUSTON,TX,77018,,,"MICHAEL HAMLIN","4607 CHANTILLY",HOUSTON,TX,77018,,Owner,,,,,"JF FERRELL",,,,,"JF FERRELL","5403 SAXON DR",HOUSTON,TX,77092-5546,"(832) 326-2632",,,,
TX,HARRIS,21007612,"Residential Renovations & Additions",4/2/2021,Renovations,300000,,"4514 FRONTIER",HOUSTON,TX,77041,,,"HOPFE GREG","4514 FRONTIER",HOUSTON,TX,77041,,Owner,,,,,"CHAMPIONS REMODELING",,,,,"CHAMPIONS REMODELING","13121 LOUETTA RD STE 1460",CYPRESS,TX,77429-5155,"(832) 443-6524",,,,
TX,HARRIS,21020013,"Residential Renovations & Additions",3/31/2021,Addition,38000,,"4622 LARKSPUR",HOUSTON,TX,77051,,,"JEFFERSON LULA","4622 LARKSPUR",HOUSTON,TX,77051,,Owner,,,,,"FREEDOM FOREVER TX",,,,,"FREEDOM FOREVER TX","15550 VICKERY DR SUITE 100",HOUSTON,TX,77032-2581,"(888) 557-6431",,,,
TX,HARRIS,20108754,"Residential Renovations & Additions",3/31/2021,Addition,30912,,"1834 CREEK",HOUSTON,TX,77080,,,"HOWARD LIEU","1834 CREEK",HOUSTON,TX,77080,,Owner,,,,,"MORGAN MORELL",,,,,"MORGAN MORELL","5750 SAM HOUSTON",HOUSTON,TX,77032,"(832) 356-4616",,,,
TX,HARRIS,21009177,"Residential Renovations & Additions",4/5/2021,Addition,42896,,"9006 KETCHWOOD",HOUSTON,TX,77099,,,"LOPEZ  BERTA","9006 KETCHWOOD",HOUSTON,TX,77099,,Owner,,,,,"MORGAN MORELL",,,,,"MORGAN MORELL","5750 SAM HOUSTON",HOUSTON,TX,77032,"(832) 356-4616",,,,
TX,HARRIS,21005781,"Residential Renovations & Additions",3/31/2021,Addition,38781,,"8944 KEMPWOOD",HOUSTON,TX,77080,,,"JAMES MACKEY","8944 KEMPWOOD",HOUSTON,TX,77080,,Owner,,,,,"MORGAN MORELL",,,,,"MORGAN MORELL","5750 SAM HOUSTON",HOUSTON,TX,77032,"(832) 356-4616",,,,
TX,HARRIS,21026078,"Residential Renovations & Additions",4/2/2021,Renovations,90000,,"2001 SHADOW BEND",HOUSTON,TX,77043,,,"MAREK RANDOLPH","2001 SHADOW BEND",HOUSTON,TX,77043,,Owner,,,,,OWNER,,,,,OWNER,,,,,,,,,
TX,HARRIS,21018142,"Residential Renovations & Additions",4/2/2021,Renovations,34400,,"3660 WICKERSHAM",HOUSTON,TX,77027,,,"JOAN MAUEL","3660 WICKERSHAM",HOUSTON,TX,77027,,Owner,,,,,"LITTLE VERONICA",,,,,"LITTLE VERONICA","10023 WESTVIEW",HOUSTON,TX,77055,"(713) 861-1601",,,,
TX,HARRIS,21023891,"Residential Renovations & Additions",4/2/2021,Addition,240000,,"7014 ALDERNEY",HOUSTON,TX,77055,,,"EVAN MCCORD","7014 ALDERNEY",HOUSTON,TX,77055,,Owner,,,,,OWNER,,,,,OWNER,,,,,,,,,
TX,HARRIS,21023144,"Residential Renovations & Additions",4/5/2021,Renovations,60000,,"8932 PADO",HOUSTON,TX,77055,,,"CLAY  MCDANIEL","8932 PADO",HOUSTON,TX,77055,,Owner,,,,,OWNER,,,,,OWNER,,,,,,,,,
TX,HARRIS,21002170,"Residential Renovations & Additions",3/30/2021,Addition,106000,,"927 OLD LAKE",HOUSTON,TX,77057,,,"RONALD MILLARD","927 OLD LAKE",HOUSTON,TX,77057,,Owner,,,,,"HARVARD HEIGHTS CONSTRUCTION",,,,,"HARVARD HEIGHTS CONSTRUCTION","940 HARVARD ST",HOUSTON,TX,77008-6935,"(713) 880-8090",http://harvardheights.com/,,,harvardheights@aol.com
TX,HARRIS,21014535,"Residential Renovations & Additions",4/1/2021,Addition,300000,,"6127 VALLEY FORGE",HOUSTON,TX,77057,,,"SARAH MISCHER","6127 VALLEY FORGE",HOUSTON,TX,77057,,Owner,,,,,"MCCONN HOMES",,,,,"MCCONN HOMES","5207 GREEN TREE RD",HOUSTON,TX,77056-1308,"(713) 703-6371",,,,
TX,HARRIS,21022065,"Residential Renovations & Additions",3/31/2021,Addition,39611,,"4327 CURLY OAKS",HOUSTON,TX,77053,,,"MORALES MARIA CARMEN","4327 CURLY OAKS",HOUSTON,TX,77053,,Owner,,,,,"STARLYN VILLARREAL",,,,,"STARLYN VILLARREAL","5750 SAM HOUSTON",HOUSTON,TX,77032,"(832) 356-4616",,,,
TX,HARRIS,20112625,"Residential Renovations & Additions",3/31/2021,Addition,54000,,"311 WALTHALL",HOUSTON,TX,77022,,,"HELEN NELSON","311 WALTHALL",HOUSTON,TX,77022,,Owner,,,,,"FREEDOM FOREVER TX",,,,,"FREEDOM FOREVER TX","15550 VICKERY DR SUITE 100",HOUSTON,TX,77032-2581,"(888) 557-6431",,,,
TX,HARRIS,21018672,"Residential Renovations & Additions",4/2/2021,Addition,32500,,"7041 CONLEY",HOUSTON,TX,77021,,,"NEWSOM WILSON","7041 CONLEY",HOUSTON,TX,77021,,Owner,,,,,"AXIS SOLAR",,,,,"AXIS SOLAR","PO BOX 163045",AUSTIN,TX,78716,"(512) 516-3711",,,,
TX,HARRIS,21024918,"Residential Renovations & Additions",4/1/2021,Addition,125000,,"324 W 31ST",HOUSTON,TX,77018,,,"GISELE ORIOT","324 W 31ST",HOUSTON,TX,77018,,Owner,,,,,"LOCI CONSTRUCTION",,,,,"LOCI CONSTRUCTION","4003 GIBSON ST",HOUSTON,TX,77007-5727,"(713) 303-8630",,,"TIMOTHY O'LEARY",
TX,HARRIS,21016067,"Residential Renovations & Additions",4/5/2021,Addition,106680,,"5922 PORTAL",HOUSTON,TX,77096,,,"MANUEL POSADA","5922 PORTAL",HOUSTON,TX,77096,"(910) 261-1633",Owner,,,,,OWNER,,,,,OWNER,,,,,,,,,
TX,HARRIS,20103738,"Residential Renovations & Additions",4/5/2021,Addition,53289,,"1009 ROBBIE",HOUSTON,TX,77009,,,"JUAN RODRIGUEZ","1009 ROBBIE",HOUSTON,TX,77009,,Owner,,,,,"MORGAN MORELL",,,,,"MORGAN MORELL","5750 SAM HOUSTON",HOUSTON,TX,77032,"(832) 356-4616",,,,
TX,HARRIS,21000137,"Residential Renovations & Additions",3/30/2021,Addition,34857,,"1015 E 27TH",HOUSTON,TX,77009,,,"AARON ROSENBERG","1015 E 27TH",HOUSTON,TX,77009,,Owner,,,,,"ERICA FORD",,,,,"ERICA FORD","525 W BASELINE",HOUSTON,TX,85210,"(480) 226-6769",,,,
TX,HARRIS,21000455,"Residential Renovations & Additions",4/1/2021,Addition,200000,,"733 W 38TH",HOUSTON,TX,77018,,,"CHRISTOPHER E SCHMIDT","733 W 38TH",HOUSTON,TX,77018,,Owner,,,,,"SCM CONSTRUCTION SERVICES",,,,,"SCM CONSTRUCTION SERVICES","1301 E PARKERVILLE RD STE A",DESOTO,TX,75115-6420,"(972) 274-5151",,"(972) 274-5157",,sam@scmconstructionllc.com
TX,HARRIS,21023412,"Residential Renovations & Additions",4/2/2021,Addition,45000,,"4129 GLENSHIRE",HOUSTON,TX,77025,,,"PAUL SHUPE","4129 GLENSHIRE",HOUSTON,TX,77025,,Owner,,,,,"FREEDOM FOREVER TX",,,,,"FREEDOM FOREVER TX","15550 VICKERY DR SUITE 100",HOUSTON,TX,77032-2581,"(888) 557-6431",,,,
TX,HARRIS,21014802,"Residential Renovations & Additions",4/5/2021,Addition,41899,,"7030 HOBBY MILL",HOUSTON,TX,77075,,,"DONSHEIK TERRELL","7030 HOBBY MILL",HOUSTON,TX,77075,,Owner,,,,,"SUNSHINE RENEWABLE SOLUTIONS",,,,,"SUNSHINE RENEWABLE SOLUTIONS","4011 VALLEY GREEN CT",HOUSTON,TX,77059-5557,"(832) 280-8838",,,,
TX,HARRIS,21027831,"Residential Renovations & Additions",4/5/2021,Renovations,50000,,"216 W 33RD",HOUSTON,TX,77018,,,"GARRETT THERIOT","216 W 33RD",HOUSTON,TX,77018,,Owner,,,,,"DAVID CONCRETE VIETNAM HOUSTON",,,,,"DAVID CONCRETE VIETNAM HOUSTON","13507 OAK BEND FOREST DR",HOUSTON,TX,77043,"(713) 517-6900",,,,
TX,HARRIS,20115467,"Residential Renovations & Additions",4/2/2021,Addition,55119,,"859 MYRTLEA",HOUSTON,TX,77079,,,"THOMPSON JOHN & RHONDALYN","859 MYRTLEA",HOUSTON,TX,77079,,Owner,,,,,"ADRIAN BUCK",,,,,"ADRIAN BUCK","4801 FREIDRICH LANE",HOUSTON,TX,78744,"(512) 220-8203",,,,
TX,HARRIS,21017722,"Residential Renovations & Additions",4/2/2021,Renovations,43000,,"7906 MEADOWBRIAR",HOUSTON,TX,77063,,,"NATALIE WALTON","7906 MEADOWBRIAR",HOUSTON,TX,77063,,Owner,,,,,"RODRIGUEZ LINDA",,,,,"RODRIGUEZ LINDA","7854 LUMBER JACK",HOUSTON,TX,77040,"(832) 731-0944",,,,
TX,HARRIS,21006164,"Residential Renovations & Additions",3/31/2021,Addition,90600,,"11754 RIVERVIEW",HOUSTON,TX,77077,,,"WENGER ANDREW KENT","11754 RIVERVIEW",HOUSTON,TX,77077,,Owner,,,,,"STARLYN VILLARREAL",,,,,"STARLYN VILLARREAL","5750 SAM HOUSTON",HOUSTON,TX,77032,"(832) 356-4616",,,,
TX,HARRIS,21016309,"Residential Renovations & Additions",4/1/2021,Addition,75000,,"411 HIGHLAND",HOUSTON,TX,77009,,,"YESTER WILLIAM & KENDALL","411 HIGHLAND",HOUSTON,TX,77009,,Owner,,,,,"QUICKWOOD CONSTRUCTION",,,,,"QUICKWOOD CONSTRUCTION","1305 TULANE ST 411",HOUSTON,TX,77008,"(713) 898-5356",,,,
TX,HARRIS,21016860,"Residential Renovations & Additions",3/31/2021,Addition,41200,,"4309 BEGGS",HOUSTON,TX,77009,,,"SOPHIE ZHANG","4309 BEGGS",HOUSTON,TX,77009,,Owner,,,,,"MAUEL'S REMODELING",,,,,"MAUEL'S REMODELING","3406 SAPLING OAK",HOUSTON,TX,77082,"(832) 567-4227",,,"MANUEL MONTOYA",
TX,BRAZORIA,SW0212-05407,"Residential Swimming Pools & Spas",3/10/2021,,46500,,"2810 GREEN MOUNTAIN DR",PEARLAND,TX,77584,,,"JESSICA VICKERY","2810 GREEN MOUNTAIN DR",PEARLAND,TX,77584,,Owner,,,,,"PREMIER POOLS & SPAS",,,,,"PREMIER POOLS & SPAS","1333 MCDERMOTT STE 200",ALLEN,TX,75013,"(214) 620-1044",,,,
TX,HARRIS,2102150009,"Residential Swimming Pools & Spas",3/16/2021,,67364,,"18703 FULTON MANOR LN",HOUSTON,TX,77356,"WILDWOOD AT OAKCREST",,PENNINGTON,"18703 FULTON MANOR LN",HOUSTON,TX,77356,,Owner,,,,,OWNER,,,,,OWNER,,,,,,,,,
TX,HARRIS,2010270006,"Residential Swimming Pools & Spas",3/16/2021,,50973,,"15718 SPRUCE POINT DR",HOUSTON,TX,77356,"BEAR CREEK TRAILS",,"DANIEL & LISA BRINKER","15718 SPRUCE POINT DR",HOUSTON,TX,77356,,Owner,,,,,"BLUE HAVEN POOLS",,,,,"BLUE HAVEN POOLS","2201 HIGHWAY 6 S",HOUSTON,TX,77077-4321,"(281) 497-5711",,,,
TX,HARRIS,2103020072,"Residential Swimming Pools & Spas",3/16/2021,,51000,,"4702 ALBA ASH LN",HOUSTON,TX,77356,"VENTANA LAKES",,"KYLE AND SHANDA YOUNG","4702 ALBA ASH LN",HOUSTON,TX,77356,,Owner,,,,,OWNER,,,,,OWNER,,,,,,,,,
TX,HARRIS,2102080069,"Residential Swimming Pools & Spas",3/16/2021,,80000,,"6911 MONTCLAIR COLONY TRL",HOUSTON,TX,77356,ELYSON,,"PAMMY HLUCHAN","6911 MONTCLAIR COLONY TRL",HOUSTON,TX,77356,,Owner,,,,,OWNER,,,,,OWNER,,,,,,,,,
TX,HARRIS,2102250005,"Residential Swimming Pools & Spas",3/16/2021,,55000,,"6808 W WARWICK LAKE LN",HOUSTON,TX,77356,,,CONTRACTOR,,,,,,,,,,,"FRANKEL HOMES",,,,,"FRANKEL HOMES","7800 WASHINGTON",HOUSTON,TX,77007,"(713) 623-4646",,,,
TX,HARRIS,2103090029,"Residential Swimming Pools & Spas",3/16/2021,,400000,3546,"19131 GOODNIGHT PEAK TRL",HOUSTON,TX,77356,"BRIDGELAND PARKLAND VILLAGE",,CONTRACTOR,,,,,,,,,,,"RAVENNA HOMES",,,,,"RAVENNA HOMES","28902 POWDER RIDGE DR",KATY,TX,77494-1918,"(281) 693-7209",,,,
TX,HARRIS,2102240059,"Residential Swimming Pools & Spas",3/16/2021,,65000,,"6318 WHISTLING PINES DR",HOUSTON,TX,77356,"AUBURN LAKES PINES",,"LARRY HOLSCHER","6318 WHISTLING PINES DR",HOUSTON,TX,77356,,Owner,,,,,OWNER,,,,,OWNER,,,,,,,,,
TX,HARRIS,2102150039,"Residential Swimming Pools & Spas",3/16/2021,,62592,,"18826 BANYAN COVE LN",HOUSTON,TX,77356,,,PACE,"18826 BANYAN COVE LN",HOUSTON,TX,77356,,Owner,,,,,OWNER,,,,,OWNER,,,,,,,,,
TX,HARRIS,2101130028,"Residential Swimming Pools & Spas",3/16/2021,,62350,,"19718 LOGAN BRIAR DR",HOUSTON,TX,77356,"PINECREST FOREST",,"VICTOR & SANDRA HINOJOSA","19718 LOGAN BRIAR DR",HOUSTON,TX,77356,,Owner,,,,,"BLUE HAVEN POOLS",,,,,"BLUE HAVEN POOLS","2201 HIGHWAY 6 S",HOUSTON,TX,77077-4321,"(281) 497-5711",,,,
TX,HARRIS,2103230091,"Residential Swimming Pools & Spas",3/16/2021,,69378,419,"12603 PARK MEADOW DR",HOUSTON,TX,77356,"ASHLEY POINTE",,"JUAN ARREDONDO","12603 PARK MEADOW DR",HOUSTON,TX,77356,,Owner,,,,,OWNER,,,,,OWNER,,,,,,,,,
TX,HARRIS,2102150020,"Residential Swimming Pools & Spas",3/16/2021,,83395,,"38 OVERLAND HEATH DR",HOUSTON,TX,77356,"THE WOODLANDS CREEKSIDE PARK",,WISENBAKER,"38 OVERLAND HEATH DR",HOUSTON,TX,77356,,Owner,,,,,OWNER,,,,,OWNER,,,,,,,,,
TX,HARRIS,2103080050,"Residential Swimming Pools & Spas",3/16/2021,,111425,,"10914 LAGUNA MESA DR",HOUSTON,TX,77356,"TOWNE LAKE",,"ALAN & KATHRYN ASHBY","10914 LAGUNA MESA DR",HOUSTON,TX,77356,,Owner,,,,,OWNER,,,,,OWNER,,,,,,,,,
TX,HARRIS,2103050021,"Residential Swimming Pools & Spas",3/16/2021,,60000,,"4903 BELLA DANIELLE CT",HOUSTON,TX,77356,"VENTANA LAKES",,"CARLOS PLANSENCIA","4903 BELLA DANIELLE CT",HOUSTON,TX,77356,,Owner,,,,,OWNER,,,,,OWNER,,,,,,,,,
TX,HARRIS,2102240072,"Residential Swimming Pools & Spas",3/16/2021,,77360,,"15015 EVES NECKLACE CT",HOUSTON,TX,77356,"BRIDGELAND PARKLAND VILLAGE",,"CAMILO MARTINEZ","15015 EVES NECKLACE CT",HOUSTON,TX,77356,,Owner,,,,,"BACKYARD OASIS",,,,,"BACKYARD OASIS","16340 FM 2920",HOUSTON,TX,77377,"(281) 357-8161",http://www.bkydoasis.com/,,,
TX,HARRIS,2102260097,"Residential Swimming Pools & Spas",3/16/2021,,84175,,"10802 WALSTON RIDGE CT",HOUSTON,TX,77356,"GLEANNLOCH FARMS",,"CHELSEA AND STEVE MORROS","10802 WALSTON RIDGE CT",HOUSTON,TX,77356,,Owner,,,,,OWNER,,,,,OWNER,,,,,,,,,
TX,HARRIS,2102090173,"Residential Swimming Pools & Spas",3/16/2021,,61813,,"10211 TEXAS SAGE WAY",HOUSTON,TX,77356,"TOWNE LAKE",,"LUIZ BOMBONATTI","10211 TEXAS SAGE WAY",HOUSTON,TX,77356,,Owner,,,,,OWNER,,,,,OWNER,,,,,,,,,
TX,HARRIS,2102170004,"Residential Swimming Pools & Spas",3/16/2021,,85464,,"19726 FAYETTE COUNTY DR",HOUSTON,TX,77356,"BRIDGELAND PARKLAND VILLAGE",,"ANDI VYNER","19726 FAYETTE COUNTY DR",HOUSTON,TX,77356,,Owner,,,,,OWNER,,,,,OWNER,,,,,,,,,
TX,HARRIS,2103040094,"Residential Swimming Pools & Spas",3/16/2021,,65000,,"10416 KILBRIDE WAY CT",HOUSTON,TX,77356,"GLEANNLOCH FARMS",,"SHARON RUGGIERO","10416 KILBRIDE WAY CT",HOUSTON,TX,77356,,Owner,,,,,OWNER,,,,,OWNER,,,,,,,,,
TX,HARRIS,2103050048,"Residential Swimming Pools & Spas",3/16/2021,,73800,,"13423 FINCH BROOK DR",HOUSTON,TX,77356,"LAKEWOOD GLEN REPLAT",,"JANET AND STEWART ANGST","13423 FINCH BROOK DR",HOUSTON,TX,77356,,Owner,,,,,OWNER,,,,,OWNER,,,,,,,,,
TX,HARRIS,21025758,"Residential Swimming Pools & Spas",3/31/2021,,60000,,"3927 FOREST VILLAGE",HOUSTON,TX,77339,,,"BAKER LEE","3927 FOREST VILLAGE",HOUSTON,TX,77339,,Owner,,,,,"EASTEX POOLS",,,,,"EASTEX POOLS","2907 CLEAR RIDGE",HOUSTON,TX,77339,"(713) 819-7969",http://www.eastexcompany.com/,"(281) 360-6553",,Web@EastexCompany.com
TX,HARRIS,21023255,"Residential Swimming Pools & Spas",3/31/2021,,79000,,"1701 EBONY",HOUSTON,TX,77018,,,"KAREN BORDAS","1701 EBONY",HOUSTON,TX,77018,,Owner,,,,,"PLATINUM POOLS",,,,,"PLATINUM POOLS","4500 BLALOCK RD",HOUSTON,TX,77041-9121,"(281) 870-1600",,,,
TX,HARRIS,21002885,"Residential Swimming Pools & Spas",4/1/2021,,159893,,"6536 CASTLE LOCH",HOUSTON,TX,77048,,,CONTRACTOR,,,,,,,,,,,"COLINA HOMES",,,,,"COLINA HOMES","1314 N DURHAM DR",HOUSTON,TX,77008-3734,"(281) 528-9090",http://colinahomes.com/,,,postmaster@colinahomes.com
TX,HARRIS,21014286,"Residential Swimming Pools & Spas",3/31/2021,,50000,,"13314 PEBBLEBROOK",HOUSTON,TX,77079,,,"JOHN HATCH","13314 PEBBLEBROOK",HOUSTON,TX,77079,,Owner,,,,,"PENA POOLS BY DESIGN",,,,,"PENA POOLS BY DESIGN","7507 HERON LAKES DR",HOUSTON,TX,77064-1735,"(281) 804-3137",,,"DIEGO PENA",
TX,HARRIS,21017589,"Residential Swimming Pools & Spas",3/30/2021,,90000,,"2143 STANMORE",HOUSTON,TX,77356,,,"THOMAS COOKE","2143 STANMORE",HOUSTON,TX,77019,,Owner,,,,,"SUNSHINE POOLS",,,,,"SUNSHINE POOLS","1800 AUGUSTA DR STE 140",HOUSTON,TX,77057-3268,"(713) 975-8899",http://www.sunshine-pools.com/,,,
TX,HARRIS,21011343,"Residential Swimming Pools & Spas",3/31/2021,,30700,,"6027 PINESHADE",HOUSTON,TX,77008,,,"BO DEFENBAUGH","6027 PINESHADE",HOUSTON,TX,77008,,Owner,,,,,"AMOS POOL",,,,,"AMOS POOL","2425 GREENS RD.",HOUSTON,TX,77032,"(346) 317-1482",https://aamcopoolservice.com/,,,AmosPoolService@gmail.com
TX,HARRIS,21020139,"Residential Swimming Pools & Spas",3/31/2021,,37000,,"5203 POINCIANA",HOUSTON,TX,77092,,,"DAVID DIX","5203 POINCIANA",HOUSTON,TX,77092,,Owner,,,,,"TEXAS POOLS",,,,,"TEXAS POOLS","2408 TIMBERLOCH PL STE 85","THE WOODLANDS",TX,77380-1012,"(281) 367-4660",http://www.texaspools.com,"(281) 367-8053","PAUL RYAN",info@texaspools.com
TX,HARRIS,20114594,"Residential Swimming Pools & Spas",3/30/2021,,35000,,"2224 POTOMAC",HOUSTON,TX,77057,,,"MARK DUNCAN","2224 POTOMAC",HOUSTON,TX,77057,,Owner,,,,,"WATER'S EDGE",,,,,"WATER'S EDGE","1850 HOLLISTER ST",HOUSTON,TX,77080-6802,"(713) 882-0456",http://www.weoutdoorliving.com,"(713) 849-6609",,
TX,HARRIS,21027725,"Residential Swimming Pools & Spas",4/5/2021,,35000,,"1217 GARDENIA",HOUSTON,TX,77018,,,"FERRARESE MAURIZIO & WHITNEY","1217 GARDENIA",HOUSTON,TX,77018,,Owner,,,,,"ANJA'S PERMIT ASSISTANCE",,,,,"ANJA'S PERMIT ASSISTANCE","PO BOX 1471",HOUSTON,TX,77251-1471,"(281) 222-5227",,,,
TX,HARRIS,21019654,"Residential Swimming Pools & Spas",4/1/2021,,68422,,"647 CORTLANDT",HOUSTON,TX,77007,,,"JEREMY GREENE","647 CORTLANDT",HOUSTON,TX,77007,,Owner,,,,,"HOUSTON COOL POOLS",,,,,"HOUSTON COOL POOLS","21902 STATE HIGHWAY 249",HOUSTON,TX,77070-1526,"(281) 645-6631",http://www.houstoncoolpools.com/,,"MIKE LOPEZ",info@houstoncoolpools.com
TX,HARRIS,21001558,"Residential Swimming Pools & Spas",4/5/2021,,67045,,"11906 LONGLEAF",HOUSTON,TX,77024,,,"HELLMAN THOMAS","11906 LONGLEAF",HOUSTON,TX,77024,,Owner,,,,,"SUPREME POOLS",,,,,"SUPREME POOLS","22626 KUYKENDAHL RD",SPRING,TX,77389-5121,"(713) 304-1393",,,"NICKS MARLIN R",
TX,HARRIS,21020230,"Residential Swimming Pools & Spas",3/31/2021,,47000,,"3702 DUMBARTON",HOUSTON,TX,77025,,,"ROSE & ALI KHAVARI","3702 DUMBARTON",HOUSTON,TX,77025,,Owner,,,,,"WATER'S EDGE",,,,,"WATER'S EDGE","1850 HOLLISTER ST",HOUSTON,TX,77080-6802,"(713) 882-0456",http://www.weoutdoorliving.com,"(713) 849-6609",,
TX,HARRIS,21022018,"Residential Swimming Pools & Spas",3/30/2021,,53000,,"6310 LINDYANN",HOUSTON,TX,77008,,,"TIM MCKIAN","6310 LINDYANN",HOUSTON,TX,77008,,Owner,,,,,"REFLECTION POOLS ",,,,,"REFLECTION POOLS ","7914 KATY FWY # 177",HOUSTON,TX,77024-1906,"(713) 559-1100",http://www.reflectionpoolsandspas.com,,"DON PEAK",reflectionpools@yahoo.com
TX,HARRIS,21011559,"Residential Swimming Pools & Spas",4/1/2021,,117000,,"3634 DURNESS",HOUSTON,TX,77025,,,"ERIN SALISBURY","3634 DURNESS",HOUSTON,TX,77025,,Owner,,,,,"SUNSHINE POOLS",,,,,"SUNSHINE POOLS","1800 AUGUSTA DR STE 140",HOUSTON,TX,77057-3268,"(713) 975-8899",http://www.sunshine-pools.com/,,,
TX,HARRIS,21023666,"Residential Swimming Pools & Spas",4/5/2021,,65000,,"5315 CHEROKEE",HOUSTON,TX,77005,,,"LAURA SCHAEFER","5315 CHEROKEE",HOUSTON,TX,77005,,Owner,,,,,"SUNSHINE POOLS",,,,,"SUNSHINE POOLS","1800 AUGUSTA DR STE 140",HOUSTON,TX,77057-3268,"(713) 975-8899",http://www.sunshine-pools.com/,,,
TX,HARRIS,21023653,"Residential Swimming Pools & Spas",4/1/2021,,49000,,"3819 DURNESS",HOUSTON,TX,77025,,,"ELIZABETH SMITH","3819 DURNESS",HOUSTON,TX,77025,,Owner,,,,,"SUNSHINE POOLS",,,,,"SUNSHINE POOLS","1800 AUGUSTA DR STE 140",HOUSTON,TX,77057-3268,"(713) 975-8899",http://www.sunshine-pools.com/,,,
TX,HARRIS,21011732,"Residential Swimming Pools & Spas",3/31/2021,,66900,,"1414 HUGE OAKS",HOUSTON,TX,77055,,,"NIMA TAHERIAN","1414 HUGE OAKS",HOUSTON,TX,77055,,Owner,,,,,"CAMERON BUILDERS",,,,,"CAMERON BUILDERS","1446 CAMPBELL RD",HOUSTON,TX,77055-4604,"(713) 973-1050",http://www.cameronpools.com/,"(713) 973-9799",,
TX,HARRIS,21002067,"Residential Swimming Pools & Spas",4/1/2021,,54000,,"3522 BLUE BONNET",HOUSTON,TX,77025,,,"LYNELL WRIGHT","3522 BLUE BONNET",HOUSTON,TX,77025,,Owner,,,,,"DOUGLAS SMITH CUSTOM HOMES",,,,,"DOUGLAS SMITH CUSTOM HOMES","9310 PECOS ST",HOUSTON,TX,77055-4410,"(713) 494-9290",http://www.douglassmithcustomhomes.com/,,,scb.5300@gmail.com
TX,HARRIS,2102020105,"Residential Swimming Pools & Spas",3/16/2021,,39900,,"3 BLACK SPRUCE CT",HOUSTON,TX,77356,,,GERMANO,"3 BLACK SPRUCE CT",HOUSTON,TX,77356,,Owner,,,,,OWNER,,,,,OWNER,,,,,,,,,
TX,HARRIS,2103030141,"Residential Swimming Pools & Spas",3/16/2021,,39945,,"3 MOONLIGHT SPRINGS DR",HOUSTON,TX,77356,"WILLOWCREEK RANCH",,SINGER,"3 MOONLIGHT SPRINGS DR",HOUSTON,TX,77356,,Owner,,,,,OWNER,,,,,OWNER,,,,,,,,,
TX,HARRIS,2103020027,"Residential Swimming Pools & Spas",3/16/2021,,60000,,"13318 HUNTERS VIEW LN",HOUSTON,TX,77356,ENCLAVE,,"SHARON MENDENHALL","13318 HUNTERS VIEW LN",HOUSTON,TX,77356,,Owner,,,,,OWNER,,,,,OWNER,,,,,,,,,
TX,HARRIS,2103010047,"Residential Swimming Pools & Spas",3/16/2021,,37500,,"15814 SIGNAL CREEK DR",HOUSTON,TX,77356,"COPPERFIELD SOUTHDOWN VILLAGE",,"MICHAEL GORMAN","15814 SIGNAL CREEK DR",HOUSTON,TX,77356,,Owner,,,,,OWNER,,,,,OWNER,,,,,,,,,
TX,HARRIS,2103020045,"Residential Swimming Pools & Spas",3/16/2021,,39985,,"18022 BLUE RIDGE SHORES DR",HOUSTON,TX,77356,"TOWNE LAKE",,SOWELLS,"18022 BLUE RIDGE SHORES DR",HOUSTON,TX,77356,,Owner,,,,,OWNER,,,,,OWNER,,,,,,,,,
TX,HARRIS,2103010058,"Residential Swimming Pools & Spas",3/16/2021,,80000,,"23527 MANTOVA RIVER DR",HOUSTON,TX,77356,"VENTANA LAKES",,"ALVARADO DAVID CLENDENES CLENDENES JENNIFER","23527 MANTOVA RIVER DR",HOUSTON,TX,77356,,Owner,,,,,OWNER,,,,,OWNER,,,,,,,,,
TX,HARRIS,2103020002,"Residential Swimming Pools & Spas",3/16/2021,,60000,,"1507 REDSTONE MANOR DR",HOUSTON,TX,77356,"GLEANNLOCH FARMS",,"KELLY & BILL JATZALU","1507 REDSTONE MANOR DR",HOUSTON,TX,77356,,Owner,,,,,OWNER,,,,,OWNER,,,,,,,,,
TX,BRAZORIA,COMM20-00540,"Restaurant and Bar",3/2/2021,,150000,1450,"2470 PEARLAND PKWY 110",PEARLAND,TX,77584,,,"BROADWAY ENIGMA LLC","2470 PEARLAND PKWY 110",PEARLAND,TX,77584,,Owner,,,,,"MORGAN SHAW BUILDERS",,,,,"MORGAN SHAW BUILDERS","6007 PINEY KNOLL",HOUSTON,TX,77449,"(713) 359-9743",,,,
TX,HARRIS,21007962,"Restaurant and Bar",4/5/2021,Renovations,150000,,"12611 S GESSNER",HOUSTON,TX,77071,,,CONTRACTOR,,,,,,,,,,,"ARCH-CON CORPORATION",,,,,"ARCH-CON CORPORATION","1335 W GRAY ST STE 210",HOUSTON,TX,77019-4056,"(713) 533-1900",,,,contact@arch-con.com
TX,HARRIS,20115218,"Restaurant and Bar",3/31/2021,Renovations,214000,,"2620 S SHEPHERD DR",HOUSTON,TX,77098,,,CONTRACTOR,,,,,,,,,,,"BLUESTONE PARTNERS",,,,,"BLUESTONE PARTNERS","8405 JUSTIN AVE","COLLEGE STATION",TX,77845-5797,"(979) 224-3036",http://www.bluestone.ws,"(903) 893-2124","JIM CROSS",jimcross@bluestone.ws
TX,HARRIS,20117169,"Restaurant and Bar",3/31/2021,,240000,,"5018 SAN FELIPE ST",HOUSTON,TX,77056,,,"THOMAS J FRIEDLANDER ROBERT E","5018 SAN FELIPE ST",HOUSTON,TX,77056,"(713) 480-2008",Applicant,,,,,OWNER,,,,,OWNER,,,,,,,,,
TX,HARRIS,21010347,"Restaurant and Bar",4/1/2021,Renovations,30000,,"1035 BLALOCK",HOUSTON,TX,77055,,,"RONG FENG YU","1035 BLALOCK",HOUSTON,TX,77055,"(832) 380-0247",Applicant,,,,,OWNER,,,,,OWNER,,,,,,,,,
TX,HARRIS,2101050165,"Restaurant and Bar",3/16/2021,,30000,2000,"15107 FM 2100 RD",HOUSTON,TX,77356,"CROSBY TOWN SQUARE",,"JESUS A DIAZ","15107 FM 2100 RD",HOUSTON,TX,77356,,Owner,,,,,OWNER,,,,,OWNER,,,,,,,,,
TX,HARRIS,2101130165,"Restaurant and Bar",3/16/2021,,200000,1553,"17141 EAST FWY",HOUSTON,TX,77356,"MAGNOLIA PLACE",,"BURGER KING CHANNELVIEW","17141 EAST FWY",HOUSTON,TX,77356,,Owner,,,,,OWNER,,,,,OWNER,,,,,,,,,
TX,HARRIS,2102230090,Retail,3/16/2021,,40000,4800,"20445 SH 249",HOUSTON,TX,77356,"THREE CHASEWOOD",,"PINION MIDSTREAM","20445 SH 249",HOUSTON,TX,77356,,Owner,,,,,OWNER,,,,,OWNER,,,,,,,,,
TX,HARRIS,2103220045,Retail,3/16/2021,,80000,1696,"2836 LAUDER RD",HOUSTON,TX,77356,CASTLEWOOD,,"MONICA GARCIA","2836 LAUDER RD",HOUSTON,TX,77356,,Owner,,,,,OWNER,,,,,OWNER,,,,,,,,,
TX,HARRIS,2102110157,Retail,3/16/2021,,49999,79553,"15150 MARKET ST",HOUSTON,TX,77356,"INDUSTRIAL ON MARKET STREET",,"BUSKE TI","15150 MARKET ST",HOUSTON,TX,77356,,Owner,,,,,OWNER,,,,,OWNER,,,,,,,,,
TX,HARRIS,2012190003,Retail,3/16/2021,,45000,296411,"13031 SOUTH BAY AREA BLVD",HOUSTON,TX,77356,"INTERPORT DISTRIBUTION CENTER",,"DSV SOLUTIONS","13031 SOUTH BAY AREA BLVD",HOUSTON,TX,77356,,Owner,,,,,OWNER,,,,,OWNER,,,,,,,,,
TX,HARRIS,2103200001,Retail,3/16/2021,,84000,1800,"24345 GOSLING RD",HOUSTON,TX,77356,,,"TITED CONCEPTS","24345 GOSLING RD",HOUSTON,TX,77356,,Owner,,,,,OWNER,,,,,OWNER,,,,,,,,,
TX,HARRIS,2103070033,Retail,3/17/2021,,105000,3000,"3403 WEST FM 1960 RD",HOUSTON,TX,77356,"CORNERSTONE VILLAGE CENTRE",,"KEVIN TRINH","3403 WEST FM 1960 RD",HOUSTON,TX,77356,,Owner,,,,,OWNER,,,,,OWNER,,,,,,,,,
TX,HARRIS,2103050104,Retail,3/16/2021,,48000,1200,"9720 JONES RD",HOUSTON,TX,77356,"WINCHESTER COUNTRY",,"HO DINH LUC","9720 JONES RD",HOUSTON,TX,77356,,Owner,,,,,OWNER,,,,,OWNER,,,,,,,,,
TX,HARRIS,1910030117,Retail,3/16/2021,,656000,6466,"25709 FM 2100 RD",HOUSTON,TX,77356,"HUFFMAN PLACE",,"SRS HUFFMAN PROPERTY LLC","25709 FM 2100 RD",HOUSTON,TX,77356,,Owner,,,,,OWNER,,,,,OWNER,,,,,,,,,
TX,HARRIS,2102120123,Retail,3/16/2021,,40000,2006,"5700 HIGHWAY 6 NORTH",HOUSTON,TX,77356,"TIMBER CREEK PLACE",,ABUELITAS,"5700 HIGHWAY 6 NORTH",HOUSTON,TX,77356,,Owner,,,,,OWNER,,,,,OWNER,,,,,,,,,
TX,HARRIS,20115339,Retail,4/2/2021,Renovations,39270,,"8500 MAIN",HOUSTON,TX,77025,,,CONTRACTOR,,,,,,,,,,,"MLE MERCHANDISING & SIGN SLTNS",,,,,"MLE MERCHANDISING & SIGN SLTNS","880 INDUSTRIAL DR",BENSENVILLE,IL,60106-1307,"(630) 422-1623",,,,
TX,HARRIS,21004696,Retail,4/5/2021,Renovations,125000,,"2510 UNIVERSITY BLVD",HOUSTON,TX,77005,,,CONTRACTOR,,,,,,,,,,,"ALL TEXAS PERMITS",,,,,"ALL TEXAS PERMITS","12723 ASHFORD BROOK DR",HOUSTON,TX,77082-2130,"(281) 556-1883",,,,
TX,HARRIS,20117194,Retail,4/2/2021,,225000,,"4526 DACOMA ST",HOUSTON,TX,77092,,,CONTRACTOR,,,,,,,,,,,"ALL TEXAS PERMITS",,,,,"ALL TEXAS PERMITS","12723 ASHFORD BROOK DR",HOUSTON,TX,77082-2130,"(281) 556-1883",,,,
TX,HARRIS,2103020012,Retail,3/16/2021,,220000,1800,"18602 KUYKENDAHL RD",HOUSTON,TX,77356,"CORUM STATION",,"BLAZIN WINDS INC","18602 KUYKENDAHL RD",HOUSTON,TX,77356,,Owner,,,,,OWNER,,,,,OWNER,,,,,,,,,
TX,HARRIS,2006240139,Retail,3/16/2021,,45600,,"14130 HARGRAVE RD",HOUSTON,TX,77356,,,"MARK LANIER","14130 HARGRAVE RD",HOUSTON,TX,77356,,Owner,,,,,OWNER,,,,,OWNER,,,,,,,,,
TX,"FORT BEND",2021-4083,"Single Family Homes",3/12/2021,,123232,2578,"548 SILVER SPRINGS BND",KATY,TX,78640,,,CONTRACTOR,,,,,,,,,,,"MILESTONE COMMUNITY BUILDERS",,,,,"MILESTONE COMMUNITY BUILDERS","9111 JOLLYVILLE RD STE 111",AUSTIN,TX,78759-7406,"(512) 686-4986",http://www.mymilestone.com/,,,
TX,GALVESTON,76.21,"Single Family Homes",3/9/2021,,410000,2039,"622 PINE CLEAR","CLEAR LAKE SHORES",TX,77565,,,CONTRACTOR,,,,,,,,,,,"SOUTH CUSTOM CONCEPTS",,,,,"SOUTH CUSTOM CONCEPTS","320 E SHORE DR",KEMAH,TX,77565-2355,"(281) 682-3251",http://southcustomconcepts.com/,,,
TX,HARRIS,2102260143,"Single Family Homes",3/16/2021,,101660,1564,"26703 LANTANA CANYON DR",HOUSTON,TX,77356,"AVEX TRACT",,CONTRACTOR,,,,,,,,,,,"LENNAR HOMES",,,,,"LENNAR HOMES","550 GREENS PKWY",HOUSTON,TX,77067-4537,"(281) 875-1000",http://www.lennar.com/,,,
TX,HARRIS,2103010088,"Single Family Homes",3/16/2021,,142935,2199,"5815 WAGON RUN CT",HOUSTON,TX,77356,"KATY CROSSING",,CONTRACTOR,,,,,,,,,,,"LENNAR HOMES",,,,,"LENNAR HOMES","550 GREENS PKWY",HOUSTON,TX,77067-4537,"(281) 875-1000",http://www.lennar.com/,,,
TX,HARRIS,2103010095,"Single Family Homes",3/16/2021,,139620,2148,"26707 LANTANA CANYON DR",HOUSTON,TX,77356,"AVEX TRACT",,CONTRACTOR,,,,,,,,,,,"LENNAR HOMES",,,,,"LENNAR HOMES","550 GREENS PKWY",HOUSTON,TX,77067-4537,"(281) 875-1000",http://www.lennar.com/,,,
TX,HARRIS,2103230028,"Single Family Homes",3/16/2021,,280630,4102,"13707 LONGWOOD REACH DR",HOUSTON,TX,77356,WILDWOOD,,CONTRACTOR,,,,,,,,,,,"VILLAGE BUILDERS",,,,,"VILLAGE BUILDERS","550 GREENS PKWY STE 210",HOUSTON,TX,77067-4538,"(281) 873-4663",,,,
TX,HARRIS,2103290127,"Single Family Homes",3/16/2021,,234325,3605,"18011 TEXAS WILDFLOWER DR",HOUSTON,TX,77356,"TOWNE LAKE",,CONTRACTOR,,,,,,,,,,,"VILLAGE BUILDERS",,,,,"VILLAGE BUILDERS","550 GREENS PKWY STE 210",HOUSTON,TX,77067-4538,"(281) 873-4663",,,,
TX,HARRIS,2103100020,"Single Family Homes",3/16/2021,,270555,3947,"13730 LONGWOOD REACH DR",HOUSTON,TX,77356,WILDWOOD,,CONTRACTOR,,,,,,,,,,,"VILLAGE BUILDERS",,,,,"VILLAGE BUILDERS","550 GREENS PKWY STE 210",HOUSTON,TX,77067-4538,"(281) 873-4663",,,,
TX,HARRIS,2103290137,"Single Family Homes",3/16/2021,,165230,2542,"26722 LANTANA CANYON DR",HOUSTON,TX,77356,"AVEX TRACT",,CONTRACTOR,,,,,,,,,,,"LENNAR HOMES",,,,,"LENNAR HOMES","550 GREENS PKWY",HOUSTON,TX,77067-4537,"(281) 875-1000",http://www.lennar.com/,,,
TX,HARRIS,2103290140,"Single Family Homes",3/16/2021,,140465,2161,"7818 MUHLY BROOK TRL",HOUSTON,TX,77356,"AVEX TRACT",,CONTRACTOR,,,,,,,,,,,"LENNAR HOMES",,,,,"LENNAR HOMES","550 GREENS PKWY",HOUSTON,TX,77067-4537,"(281) 875-1000",http://www.lennar.com/,,,
TX,HARRIS,2103150169,"Single Family Homes",3/16/2021,,97045,1493,"26710 LANTANA CANYON DR",HOUSTON,TX,77356,"AVEX TRACT",,CONTRACTOR,,,,,,,,,,,"LENNAR HOMES",,,,,"LENNAR HOMES","550 GREENS PKWY",HOUSTON,TX,77067-4537,"(281) 875-1000",http://www.lennar.com/,,,
TX,HARRIS,2103150170,"Single Family Homes",3/16/2021,,139620,2148,"26714 LANTANA CANYON DR",HOUSTON,TX,77356,"AVEX TRACT",,CONTRACTOR,,,,,,,,,,,"LENNAR HOMES",,,,,"LENNAR HOMES","550 GREENS PKWY",HOUSTON,TX,77067-4537,"(281) 875-1000",http://www.lennar.com/,,,
TX,HARRIS,2103230029,"Single Family Homes",3/16/2021,,101660,1564,"26718 LANTANA CANYON DR",HOUSTON,TX,77356,"AVEX TRACT",,CONTRACTOR,,,,,,,,,,,"LENNAR HOMES",,,,,"LENNAR HOMES","550 GREENS PKWY",HOUSTON,TX,77067-4537,"(281) 875-1000",http://www.lennar.com/,,,
TX,HARRIS,2103100032,"Single Family Homes",3/16/2021,,121810,1874,"7814 MUHLY BROOK TRL",HOUSTON,TX,77356,"AVEX TRACT",,CONTRACTOR,,,,,,,,,,,"LENNAR HOMES",,,,,"LENNAR HOMES","550 GREENS PKWY",HOUSTON,TX,77067-4537,"(281) 875-1000",http://www.lennar.com/,,,
TX,HARRIS,2103100018,"Single Family Homes",3/16/2021,,232310,3574,"18006 WINDING WILLOW OAK WAY",HOUSTON,TX,77356,"TOWNE LAKE",,CONTRACTOR,,,,,,,,,,,"VILLAGE BUILDERS",,,,,"VILLAGE BUILDERS","550 GREENS PKWY STE 210",HOUSTON,TX,77067-4538,"(281) 873-4663",,,,
TX,HARRIS,2103010092,"Single Family Homes",3/16/2021,,297685,4349,"13831 LONGWOOD REACH DR",HOUSTON,TX,77356,WILDWOOD,,CONTRACTOR,,,,,,,,,,,"VILLAGE BUILDERS",,,,,"VILLAGE BUILDERS","550 GREENS PKWY STE 210",HOUSTON,TX,77067-4538,"(281) 873-4663",,,,
TX,HARRIS,2103100030,"Single Family Homes",3/16/2021,,128700,1980,"26715 LANTANA CANYON DR",HOUSTON,TX,77356,"AVEX TRACT",,CONTRACTOR,,,,,,,,,,,"LENNAR HOMES",,,,,"LENNAR HOMES","550 GREENS PKWY",HOUSTON,TX,77067-4537,"(281) 875-1000",http://www.lennar.com/,,,
TX,HARRIS,2102260138,"Single Family Homes",3/16/2021,,297685,4349,"13807 LONGWOOD REACH DR",HOUSTON,TX,77356,WILDWOOD,,CONTRACTOR,,,,,,,,,,,"VILLAGE BUILDERS",,,,,"VILLAGE BUILDERS","550 GREENS PKWY STE 210",HOUSTON,TX,77067-4538,"(281) 873-4663",,,,
TX,HARRIS,2103010090,"Single Family Homes",3/16/2021,,234325,3605,"11814 CREEKSIDE SHORE CIR",HOUSTON,TX,77356,"TOWNE LAKE",,CONTRACTOR,,,,,,,,,,,"VILLAGE BUILDERS",,,,,"VILLAGE BUILDERS","550 GREENS PKWY STE 210",HOUSTON,TX,77067-4538,"(281) 873-4663",,,,
TX,HARRIS,2103010099,"Single Family Homes",3/16/2021,,165230,2542,"26711 LANTANA CANYON DR",HOUSTON,TX,77356,"AVEX TRACT",,CONTRACTOR,,,,,,,,,,,"LENNAR HOMES",,,,,"LENNAR HOMES","550 GREENS PKWY",HOUSTON,TX,77067-4537,"(281) 875-1000",http://www.lennar.com/,,,
TX,HARRIS,2103010101,"Single Family Homes",3/16/2021,,157040,2416,"7810 MUHLY BROOK TRL",HOUSTON,TX,77356,"AVEX TRACT",,CONTRACTOR,,,,,,,,,,,"LENNAR HOMES",,,,,"LENNAR HOMES","550 GREENS PKWY",HOUSTON,TX,77067-4537,"(281) 875-1000",http://www.lennar.com/,,,
TX,HARRIS,2102260131,"Single Family Homes",3/16/2021,,256815,3951,"18003 WINDING WILLOW OAK WAY",HOUSTON,TX,77356,"TOWNE LAKE",,CONTRACTOR,,,,,,,,,,,"VILLAGE BUILDERS",,,,,"VILLAGE BUILDERS","550 GREENS PKWY STE 210",HOUSTON,TX,77067-4538,"(281) 873-4663",,,,
TX,HARRIS,2103160128,"Single Family Homes",3/16/2021,,60000,1067,"2227 WILLIAM TELL ST",HOUSTON,TX,77356,"WESTFIELD ESTATES",,"OSCAR GUERRERO","2227 WILLIAM TELL ST",HOUSTON,TX,77356,,Owner,,,,,OWNER,,,,,OWNER,,,,,,,,,
TX,HARRIS,2102260176,"Single Family Homes",3/16/2021,,100000,1565,"16938 WOODBURN DR",HOUSTON,TX,77356,"SHELDON WOODS",,"LOPEZ-LONGORIA SALOMON","16938 WOODBURN DR",HOUSTON,TX,77356,,Owner,,,,,OWNER,,,,,OWNER,,,,,,,,,
TX,HARRIS,2103160156,"Single Family Homes",3/16/2021,,66100,3305,"15015 LITTLE FOX CANYON TRL",HOUSTON,TX,77356,"BRIDGELAND PARKLAND VILLAGE",,CONTRACTOR,,,,,,,,,,,"MHI MCGUYER HOMEBUILDERS",,,,,"MHI MCGUYER HOMEBUILDERS","7676 WOODWAY DR",HOUSTON,TX,77063-1526,"(713) 260-4107",,,,
TX,HARRIS,2103160149,"Single Family Homes",3/16/2021,,70580,3529,"15019 LITTLE FOX CANYON TRL",HOUSTON,TX,77356,"BRIDGELAND PARKLAND VILLAGE",,CONTRACTOR,,,,,,,,,,,"MHI MCGUYER HOMEBUILDERS",,,,,"MHI MCGUYER HOMEBUILDERS","7676 WOODWAY DR",HOUSTON,TX,77063-1526,"(713) 260-4107",,,,
TX,HARRIS,2103020016,"Single Family Homes",3/16/2021,,340000,3400,"23711 FERNBRIAR ST",HOUSTON,TX,77356,ELYSON,,CONTRACTOR,,,,,,,,,,,"HIGHLAND HOMES",,,,,"HIGHLAND HOMES","10930 W SAM HOUSTON PKWY N STE 100",HOUSTON,TX,77064-6331,"(281) 517-9800",,,,
TX,HARRIS,2103020018,"Single Family Homes",3/16/2021,,340000,3400,"7507 WINECUP BLOSSOM CT",HOUSTON,TX,77356,ELYSON,,CONTRACTOR,,,,,,,,,,,"HIGHLAND HOMES",,,,,"HIGHLAND HOMES","10930 W SAM HOUSTON PKWY N STE 100",HOUSTON,TX,77064-6331,"(281) 517-9800",,,,
TX,HARRIS,2103180137,"Single Family Homes",3/16/2021,,199999,1456,"2541 KOWIS ST",HOUSTON,TX,77356,,,"VIRGILIO MEDINA","2541 KOWIS ST",HOUSTON,TX,77356,,Owner,,,,,OWNER,,,,,OWNER,,,,,,,,,
TX,HARRIS,2101050058,"Single Family Homes",3/16/2021,,217075,2285,"13010 TIMBERLAKE DR",HOUSTON,TX,77356,,,"MAURICIO NIEVES SANCHEZ","13010 TIMBERLAKE DR",HOUSTON,TX,77356,,Owner,,,,,OWNER,,,,,OWNER,,,,,,,,,
TX,HARRIS,2103020241,"Single Family Homes",3/16/2021,,328000,4312,"14533 HENRY RD",HOUSTON,TX,77356,"ALDINE GARDENS",,"MARIBEL LEIJA","14533 HENRY RD",HOUSTON,TX,77356,,Owner,,,,,OWNER,,,,,OWNER,,,,,,,,,
TX,HARRIS,2103090037,"Single Family Homes",3/16/2021,,400000,3030,"19223 GOODNIGHT PEAK TRL",HOUSTON,TX,77356,"BRIDGELAND PARKLAND VILLAGE",,CONTRACTOR,,,,,,,,,,,"RAVENNA HOMES",,,,,"RAVENNA HOMES","28902 POWDER RIDGE DR",KATY,TX,77494-1918,"(281) 693-7209",,,,
TX,HARRIS,2012080070,"Single Family Homes",3/16/2021,,54700,2735,"15022 LITTLE FOX CANYON TRL",HOUSTON,TX,77356,"BRIDGELAND PARKLAND VILLAGE",,CONTRACTOR,,,,,,,,,,,"MHI MCGUYER HOMEBUILDERS",,,,,"MHI MCGUYER HOMEBUILDERS","7676 WOODWAY DR",HOUSTON,TX,77063-1526,"(713) 260-4107",,,,
TX,HARRIS,2101250120,"Single Family Homes",3/16/2021,,71320,3566,"15026 LITTLE FOX CANYON TRL",HOUSTON,TX,77356,"BRIDGELAND PARKLAND VILLAGE",,CONTRACTOR,,,,,,,,,,,"MHI MCGUYER HOMEBUILDERS",,,,,"MHI MCGUYER HOMEBUILDERS","7676 WOODWAY DR",HOUSTON,TX,77063-1526,"(713) 260-4107",,,,
TX,HARRIS,2009300102,"Single Family Homes",3/16/2021,,300000,4680,"24240 SHADY LN",HOUSTON,TX,77356,,,"JUAN NAVA","24240 SHADY LN",HOUSTON,TX,77356,,Owner,,,,,OWNER,,,,,OWNER,,,,,,,,,
TX,HARRIS,2102220016,"Single Family Homes",3/16/2021,,259000,4155,"19211 GOODNIGHT PEAK TRL",HOUSTON,TX,77356,"BRIDGELAND PARKLAND VILLAGE",,CONTRACTOR,,,,,,,,,,,"WESTIN HOMES",,,,,"WESTIN HOMES","1 SUGAR CREEK CENTER BLVD STE 600","SUGAR LAND",TX,77478-3787,"(281) 240-1551",http://www.westin-homes.com,,,
TX,HARRIS,2102220015,"Single Family Homes",3/16/2021,,259000,4154,"19247 GOODNIGHT PEAK TRL",HOUSTON,TX,77356,"BRIDGELAND PARKLAND VILLAGE",,CONTRACTOR,,,,,,,,,,,"WESTIN HOMES",,,,,"WESTIN HOMES","1 SUGAR CREEK CENTER BLVD STE 600","SUGAR LAND",TX,77478-3787,"(281) 240-1551",http://www.westin-homes.com,,,
TX,HARRIS,2102220017,"Single Family Homes",3/16/2021,,259000,4154,"19227 GOODNIGHT PEAK TRL",HOUSTON,TX,77356,"BRIDGELAND PARKLAND VILLAGE",,CONTRACTOR,,,,,,,,,,,"WESTIN HOMES",,,,,"WESTIN HOMES","1 SUGAR CREEK CENTER BLVD STE 600","SUGAR LAND",TX,77478-3787,"(281) 240-1551",http://www.westin-homes.com,,,
TX,HARRIS,2102090114,"Single Family Homes",3/16/2021,,260000,3933,"19243 GOODNIGHT PEAK TRL",HOUSTON,TX,77356,"BRIDGELAND PARKLAND VILLAGE",,CONTRACTOR,,,,,,,,,,,"WESTIN HOMES",,,,,"WESTIN HOMES","1 SUGAR CREEK CENTER BLVD STE 600","SUGAR LAND",TX,77478-3787,"(281) 240-1551",http://www.westin-homes.com,,,
TX,HARRIS,2102020007,"Single Family Homes",3/16/2021,,260000,3933,"19215 GOODNIGHT PEAK TRL",HOUSTON,TX,77356,,,CONTRACTOR,,,,,,,,,,,"WESTIN HOMES",,,,,"WESTIN HOMES","1 SUGAR CREEK CENTER BLVD STE 600","SUGAR LAND",TX,77478-3787,"(281) 240-1551",http://www.westin-homes.com,,,
TX,HARRIS,2101050185,"Single Family Homes",3/16/2021,,200000,5587,"4001 S SAM HOUSTON PKWY E",HOUSTON,TX,77356,"NORTHWEST CULLEN",,"GATTI'S PIZZA","4001 S SAM HOUSTON PKWY E",HOUSTON,TX,77356,,Owner,,,,,OWNER,,,,,OWNER,,,,,,,,,
TX,HARRIS,2101260110,"Single Family Homes",3/16/2021,,340000,3400,"23807 SILVER LIRIOPE LN",HOUSTON,TX,77356,ELYSON,,CONTRACTOR,,,,,,,,,,,"HIGHLAND HOMES",,,,,"HIGHLAND HOMES","10930 W SAM HOUSTON PKWY N STE 100",HOUSTON,TX,77064-6331,"(281) 517-9800",,,,
TX,HARRIS,2102220065,"Single Family Homes",3/16/2021,,476775,4238,"23819 SILVER LIRIOPE LN",HOUSTON,TX,77356,ELYSON,,CONTRACTOR,,,,,,,,,,,"PERRY HOMES",,,,,"PERRY HOMES","9000 GULF FWY",HOUSTON,TX,77017-7018,"(713) 417-1396",,,,
TX,HARRIS,2102260033,"Single Family Homes",3/16/2021,,475988,4231,"7503 STRAGGLER DAISY CIR",HOUSTON,TX,77356,ELYSON,,CONTRACTOR,,,,,,,,,,,"PERRY HOMES",,,,,"PERRY HOMES","9000 GULF FWY",HOUSTON,TX,77017-7018,"(713) 417-1396",,,,
TX,HARRIS,2102190017,"Single Family Homes",3/16/2021,,380700,3384,"7510 WINECUP BLOSSOM CT",HOUSTON,TX,77356,ELYSON,,CONTRACTOR,,,,,,,,,,,"PERRY HOMES",,,,,"PERRY HOMES","9000 GULF FWY",HOUSTON,TX,77017-7018,"(713) 417-1396",,,,
TX,HARRIS,2102260114,"Single Family Homes",3/16/2021,,119210,1834,"5906 LONGHORN RUN LN",HOUSTON,TX,77356,"KATY CROSSING",,CONTRACTOR,,,,,,,,,,,"LENNAR HOMES",,,,,"LENNAR HOMES","550 GREENS PKWY",HOUSTON,TX,77067-4537,"(281) 875-1000",http://www.lennar.com/,,,
TX,HARRIS,2103010087,"Single Family Homes",3/16/2021,,103740,1596,"5903 LONGHORN RUN LN",HOUSTON,TX,77356,"KATY CROSSING",,CONTRACTOR,,,,,,,,,,,"LENNAR HOMES",,,,,"LENNAR HOMES","550 GREENS PKWY",HOUSTON,TX,77067-4537,"(281) 875-1000",http://www.lennar.com/,,,
TX,HARRIS,2103230026,"Single Family Homes",3/16/2021,,119210,1834,"5915 LONGHORN RUN LN",HOUSTON,TX,77356,"KATY CROSSING",,CONTRACTOR,,,,,,,,,,,"LENNAR HOMES",,,,,"LENNAR HOMES","550 GREENS PKWY",HOUSTON,TX,77067-4537,"(281) 875-1000",http://www.lennar.com/,,,
TX,HARRIS,2103100016,"Single Family Homes",3/16/2021,,121875,1875,"5907 LONGHORN RUN LN",HOUSTON,TX,77356,"KATY CROSSING",,CONTRACTOR,,,,,,,,,,,"LENNAR HOMES",,,,,"LENNAR HOMES","550 GREENS PKWY",HOUSTON,TX,77067-4537,"(281) 875-1000",http://www.lennar.com/,,,
TX,HARRIS,2103150168,"Single Family Homes",3/16/2021,,166530,2562,"5911 LONGHORN RUN LN",HOUSTON,TX,77356,"KATY CROSSING",,CONTRACTOR,,,,,,,,,,,"LENNAR HOMES",,,,,"LENNAR HOMES","550 GREENS PKWY",HOUSTON,TX,77067-4537,"(281) 875-1000",http://www.lennar.com/,,,
TX,HARRIS,2102250151,"Single Family Homes",3/16/2021,,204320,1912,"5838 DRY BRUSH PL",HOUSTON,TX,77356,"KATY CROSSING",,CONTRACTOR,,,,,,,,,,,"PULTE HOMES",,,,,"PULTE HOMES","16670 PARK ROW",HOUSTON,TX,77084-6866,"(281) 749-8000",,,,
TX,HARRIS,2103220050,"Single Family Homes",3/16/2021,,223230,1904,"25426 KATY GATE LN",HOUSTON,TX,77356,"KATY CROSSING",,CONTRACTOR,,,,,,,,,,,"PULTE HOMES",,,,,"PULTE HOMES","16670 PARK ROW",HOUSTON,TX,77084-6866,"(281) 749-8000",,,,
TX,HARRIS,2103230050,"Single Family Homes",3/16/2021,,234390,2312,"5930 LONGHORN RUN LN",HOUSTON,TX,77356,"KATY CROSSING",,CONTRACTOR,,,,,,,,,,,"PULTE HOMES",,,,,"PULTE HOMES","16670 PARK ROW",HOUSTON,TX,77084-6866,"(281) 749-8000",,,,
TX,HARRIS,2101130050,"Single Family Homes",3/16/2021,,314491,3453,"18323 SUNSET ELM DR",HOUSTON,TX,77356,"TOWNE LAKE",,CONTRACTOR,,,,,,,,,,,"NEWMARK HOMES",,,,,"NEWMARK HOMES","10455 BRIAR FOREST SUITE 200",HOUSTON,TX,77042,"(713) 346-0200",,"(713) 346-0226",,
TX,HARRIS,2101130048,"Single Family Homes",3/16/2021,,312252,3023,"11915 TWIN CREEKS HILL DR",HOUSTON,TX,77356,"TOWNE LAKE",,CONTRACTOR,,,,,,,,,,,"NEWMARK HOMES",,,,,"NEWMARK HOMES","10455 BRIAR FOREST SUITE 200",HOUSTON,TX,77042,"(713) 346-0200",,"(713) 346-0226",,
TX,HARRIS,2101130054,"Single Family Homes",3/16/2021,,338288,3780,"11926 DEEPWATER RIDGE WAY",HOUSTON,TX,77356,"TOWNE LAKE",,CONTRACTOR,,,,,,,,,,,"NEWMARK HOMES",,,,,"NEWMARK HOMES","10455 BRIAR FOREST SUITE 200",HOUSTON,TX,77042,"(713) 346-0200",,"(713) 346-0226",,
TX,HARRIS,2101130052,"Single Family Homes",3/16/2021,,351059,3454,"18207 SUNSET ELM DR",HOUSTON,TX,77356,"TOWNE LAKE",,CONTRACTOR,,,,,,,,,,,"NEWMARK HOMES",,,,,"NEWMARK HOMES","10455 BRIAR FOREST SUITE 200",HOUSTON,TX,77042,"(713) 346-0200",,"(713) 346-0226",,
TX,HARRIS,2101130045,"Single Family Homes",3/16/2021,,354838,3325,"18322 SUNSET ELM DR",HOUSTON,TX,77356,,,CONTRACTOR,,,,,,,,,,,"NEWMARK HOMES",,,,,"NEWMARK HOMES","10455 BRIAR FOREST SUITE 200",HOUSTON,TX,77042,"(713) 346-0200",,"(713) 346-0226",,
TX,HARRIS,2101140059,"Single Family Homes",3/16/2021,,334898,3571,"18231 SUNSET ELM DR",HOUSTON,TX,77356,"TOWNE LAKE",,CONTRACTOR,,,,,,,,,,,"NEWMARK HOMES",,,,,"NEWMARK HOMES","10455 BRIAR FOREST SUITE 200",HOUSTON,TX,77042,"(713) 346-0200",,"(713) 346-0226",,
TX,HARRIS,2101130041,"Single Family Homes",3/16/2021,,363802,3666,"11823 LOST MAPLES SPRINGS DR",HOUSTON,TX,77356,"TOWNE LAKE",,CONTRACTOR,,,,,,,,,,,"NEWMARK HOMES",,,,,"NEWMARK HOMES","10455 BRIAR FOREST SUITE 200",HOUSTON,TX,77042,"(713) 346-0200",,"(713) 346-0226",,
TX,HARRIS,2103180036,"Single Family Homes",3/16/2021,,243100,2435,"25430 KATY GATE LN",HOUSTON,TX,77356,"KATY CROSSING",,CONTRACTOR,,,,,,,,,,,"PULTE HOMES",,,,,"PULTE HOMES","16670 PARK ROW",HOUSTON,TX,77084-6866,"(281) 749-8000",,,,
TX,HARRIS,2103100055,"Single Family Homes",3/16/2021,,60340,3017,"15006 LITTLE FOX CANYON TRL",HOUSTON,TX,77356,"BRIDGELAND PARKLAND VILLAGE",,CONTRACTOR,,,,,,,,,,,"MHI MCGUYER HOMEBUILDERS",,,,,"MHI MCGUYER HOMEBUILDERS","7676 WOODWAY DR",HOUSTON,TX,77063-1526,"(713) 260-4107",,,,
TX,HARRIS,2103110143,"Single Family Homes",3/16/2021,,264000,4005,"15027 CAPITOL PEAK TRL",HOUSTON,TX,77356,"BRIDGELAND PARKLAND VILLAGE",,CONTRACTOR,,,,,,,,,,,"WESTIN HOMES",,,,,"WESTIN HOMES","1 SUGAR CREEK CENTER BLVD STE 600","SUGAR LAND",TX,77478-3787,"(281) 240-1551",http://www.westin-homes.com,,,
TX,HARRIS,2102250173,"Single Family Homes",3/16/2021,,65120,3256,"15014 FORTRESS CLIFF CT",HOUSTON,TX,77356,"BRIDGELAND PARKLAND VILLAGE",,CONTRACTOR,,,,,,,,,,,"MHI MCGUYER HOMEBUILDERS",,,,,"MHI MCGUYER HOMEBUILDERS","7676 WOODWAY DR",HOUSTON,TX,77063-1526,"(713) 260-4107",,,,
TX,HARRIS,2103150129,"Single Family Homes",3/16/2021,,239740,2504,"5918 LONGHORN RUN LN",HOUSTON,TX,77356,"KATY CROSSING",,CONTRACTOR,,,,,,,,,,,"PULTE HOMES",,,,,"PULTE HOMES","16670 PARK ROW",HOUSTON,TX,77084-6866,"(281) 749-8000",,,,
TX,HARRIS,2103090202,"Single Family Homes",3/16/2021,,219040,1904,"5903 DRY BRUSH PL",HOUSTON,TX,77356,"KATY CROSSING",,CONTRACTOR,,,,,,,,,,,"PULTE HOMES",,,,,"PULTE HOMES","16670 PARK ROW",HOUSTON,TX,77084-6866,"(281) 749-8000",,,,
TX,HARRIS,2103090180,"Single Family Homes",3/16/2021,,215050,1890,"5910 LONGHORN RUN LN",HOUSTON,TX,77356,"KATY CROSSING",,CONTRACTOR,,,,,,,,,,,"PULTE HOMES",,,,,"PULTE HOMES","16670 PARK ROW",HOUSTON,TX,77084-6866,"(281) 749-8000",,,,
TX,HARRIS,2011050094,"Single Family Homes",3/16/2021,,400000,4335,"15231 THISTLEDOWN RD",HOUSTON,TX,77356,"JEFFERSON PLACE",,"GUY TALOM","15231 THISTLEDOWN RD",HOUSTON,TX,77356,,Owner,,,,,OWNER,,,,,OWNER,,,,,,,,,
TX,HARRIS,2103030144,"Single Family Homes",3/16/2021,,195540,1589,"5914 LONGHORN RUN LN",HOUSTON,TX,77356,"KATY CROSSING",,CONTRACTOR,,,,,,,,,,,"PULTE HOMES",,,,,"PULTE HOMES","16670 PARK ROW",HOUSTON,TX,77084-6866,"(281) 749-8000",,,,
TX,HARRIS,2103030068,"Single Family Homes",3/16/2021,,210400,1890,"5850 DRY BRUSH PL",HOUSTON,TX,77356,"KATY CROSSING",,CONTRACTOR,,,,,,,,,,,"PULTE HOMES",,,,,"PULTE HOMES","16670 PARK ROW",HOUSTON,TX,77084-6866,"(281) 749-8000",,,,
TX,HARRIS,2101120158,"Single Family Homes",3/16/2021,,79960,3998,"19403 WHISPERING GROVE WEST",HOUSTON,TX,77356,ROSEHURST,,"MONICA JONES","19403 WHISPERING GROVE WEST",HOUSTON,TX,77356,,Owner,,,,,OWNER,,,,,OWNER,,,,,,,,,
TX,HARRIS,2103050146,"Single Family Homes",3/16/2021,,259990,2324,"15230 READEN CRESCENT DR",HOUSTON,TX,77356,BALMORAL,,CONTRACTOR,,,,,,,,,,,"HISTORY MAKER HOMES",,,,,"HISTORY MAKER HOMES","9001 AIRPORT FWY SUITE 400","NORTH RICHLAND HILLS",TX,76180-7769,"(817) 429-8008",http://www.historymaker.com/,"(817) 507-1102","JILL BARFIELD",
TX,HARRIS,2103060005,"Single Family Homes",3/16/2021,,237561,2980,"15634 PORCUPINE LN",HOUSTON,TX,77356,"BRIDGELAND PARKLAND VILLAGE",,CONTRACTOR,,,,,,,,,,,"TAYLOR MORRISON OF TEXAS",,,,,"TAYLOR MORRISON OF TEXAS","5353 W SAM HOUSTON PKWY N STE 190",HOUSTON,TX,77041-5186,"(281) 598-3000",,,,
TX,HARRIS,2103060006,"Single Family Homes",3/16/2021,,291864,3236,"15647 PORCUPINE LN",HOUSTON,TX,77356,"BRIDGELAND PARKLAND VILLAGE",,CONTRACTOR,,,,,,,,,,,"TAYLOR MORRISON OF TEXAS",,,,,"TAYLOR MORRISON OF TEXAS","5353 W SAM HOUSTON PKWY N STE 190",HOUSTON,TX,77041-5186,"(281) 598-3000",,,,
TX,HARRIS,2103060007,"Single Family Homes",3/16/2021,,334067,4792,"19422 MAIDENHAIR FERN DR",HOUSTON,TX,77356,"BRIDGELAND PARKLAND VILLAGE",,CONTRACTOR,,,,,,,,,,,"TAYLOR MORRISON OF TEXAS",,,,,"TAYLOR MORRISON OF TEXAS","5353 W SAM HOUSTON PKWY N STE 190",HOUSTON,TX,77041-5186,"(281) 598-3000",,,,
TX,HARRIS,2103060008,"Single Family Homes",3/16/2021,,385602,4570,"18735 SOUTH MOSS LOOP",HOUSTON,TX,77356,"BRIDGELAND PARKLAND VILLAGE",,CONTRACTOR,,,,,,,,,,,"TAYLOR MORRISON OF TEXAS",,,,,"TAYLOR MORRISON OF TEXAS","5353 W SAM HOUSTON PKWY N STE 190",HOUSTON,TX,77041-5186,"(281) 598-3000",,,,
TX,HARRIS,2103070005,"Single Family Homes",3/16/2021,,367804,4561,"2 DILIGENT WAY",HOUSTON,TX,77356,"THE WOODLANDS CREEKSIDE PARK",,CONTRACTOR,,,,,,,,,,,"TAYLOR MORRISON OF TEXAS",,,,,"TAYLOR MORRISON OF TEXAS","5353 W SAM HOUSTON PKWY N STE 190",HOUSTON,TX,77041-5186,"(281) 598-3000",,,,
TX,HARRIS,2103070006,"Single Family Homes",3/16/2021,,359047,4368,"6 DILIGENT WAY",HOUSTON,TX,77356,"THE WOODLANDS CREEKSIDE",,CONTRACTOR,,,,,,,,,,,"TAYLOR MORRISON OF TEXAS",,,,,"TAYLOR MORRISON OF TEXAS","5353 W SAM HOUSTON PKWY N STE 190",HOUSTON,TX,77041-5186,"(281) 598-3000",,,,
TX,HARRIS,2103070007,"Single Family Homes",3/16/2021,,349290,4374,"30 DAWNING FLOWER DR",HOUSTON,TX,77356,"THE WOODLANDS CREEKSIDE PARK",,CONTRACTOR,,,,,,,,,,,"TAYLOR MORRISON OF TEXAS",,,,,"TAYLOR MORRISON OF TEXAS","5353 W SAM HOUSTON PKWY N STE 190",HOUSTON,TX,77041-5186,"(281) 598-3000",,,,
TX,HARRIS,2102220024,"Single Family Homes",3/16/2021,,437285,4342,"2855 RUNNEBURG RD",HOUSTON,TX,77356,"FRANTA PLACE",,"LISA BROWN","2855 RUNNEBURG RD",HOUSTON,TX,77356,,Owner,,,,,OWNER,,,,,OWNER,,,,,,,,,
TX,HARRIS,2103020063,"Single Family Homes",3/16/2021,,290003,4919,"21418 ROSE LOCH LN",HOUSTON,TX,77356,"ROSEHILL RESERVE",,CONTRACTOR,,,,,,,,,,,"GEHAN HOMES",,,,,"GEHAN HOMES","2050 W SAM HOUSTON PKWY S",HOUSTON,TX,77042-2079,"(713) 243-3545",http://www.gehanhomes.com,,,
TX,HARRIS,2103030058,"Single Family Homes",3/16/2021,,231340,2002,"5835 PROVIDENCE SPRINGS TRL",HOUSTON,TX,77356,"KATY CROSSING",,CONTRACTOR,,,,,,,,,,,"PULTE HOMES",,,,,"PULTE HOMES","16670 PARK ROW",HOUSTON,TX,77084-6866,"(281) 749-8000",,,,
TX,HARRIS,2103030095,"Single Family Homes",3/16/2021,,97560,2439,"20106 PERCHERON PARK LN",HOUSTON,TX,77356,AMIRA,,CONTRACTOR,,,,,,,,,,,"BEAZER HOMES ",,,,,"BEAZER HOMES ","10235 W LITTLE YORK",HOUSTON,TX,77040,"(713) 849-2252",http://www.beazer.com/,,,
TX,HARRIS,2103030133,"Single Family Homes",3/16/2021,,73240,1831,"21602 DANDELION CREEK DR",HOUSTON,TX,77356,LANTANA,,CONTRACTOR,,,,,,,,,,,"BEAZER HOMES ",,,,,"BEAZER HOMES ","10235 W LITTLE YORK",HOUSTON,TX,77040,"(713) 849-2252",http://www.beazer.com/,,,
TX,HARRIS,2103030087,"Single Family Homes",3/16/2021,,221820,2060,"23839 THISTLE SPUD LN",HOUSTON,TX,77356,WINDROW,,CONTRACTOR,,,,,,,,,,,"PULTE HOMES",,,,,"PULTE HOMES","16670 PARK ROW",HOUSTON,TX,77084-6866,"(281) 749-8000",,,,
TX,HARRIS,2102130012,"Single Family Homes",3/16/2021,,100000,2300,"18902 ADLONG JOHNSON RD",HOUSTON,TX,77356,,,"DENNIS GOODMAN","18902 ADLONG JOHNSON RD",HOUSTON,TX,77356,,Owner,,,,,OWNER,,,,,OWNER,,,,,,,,,
TX,HARRIS,2103030088,"Single Family Homes",3/16/2021,,245940,2851,"23830 SEEDED MEADOW CT",HOUSTON,TX,77356,WINDROW,,CONTRACTOR,,,,,,,,,,,"PULTE HOMES",,,,,"PULTE HOMES","16670 PARK ROW",HOUSTON,TX,77084-6866,"(281) 749-8000",,,,
TX,HARRIS,2103030145,"Single Family Homes",3/16/2021,,154000,3687,"24402 TESINO RIVER CIR",HOUSTON,TX,77356,"MARCELLO LAKES",,CONTRACTOR,,,,,,,,,,,"LEGEND HOMES",,,,,"LEGEND HOMES","10410 WINDAMERE LAKES BLVD",HOUSTON,TX,77065-4996,"(281) 671-9060",http://legendhomecorp.com/,"(281) 671-9055",,
TX,HARRIS,2103020272,"Single Family Homes",3/16/2021,,185000,3690,"24331 TESINO RIVER CIR",HOUSTON,TX,77356,"MARCELLO LAKES",,CONTRACTOR,,,,,,,,,,,"LEGEND HOMES",,,,,"LEGEND HOMES","10410 WINDAMERE LAKES BLVD",HOUSTON,TX,77065-4996,"(281) 671-9060",http://legendhomecorp.com/,"(281) 671-9055",,
TX,HARRIS,2103080070,"Single Family Homes",3/16/2021,,134800,2586,"24911 BERWICK BAY CT",HOUSTON,TX,77356,"LAKES AT CREEKSIDE",,CONTRACTOR,,,,,,,,,,,"TOLL BROTHERS",,,,,"TOLL BROTHERS","10110 W SAM HOUSTON PKWY N STE 350",HOUSTON,TX,77064-7508,"(281) 664-7255",,,,
TX,HARRIS,2102050032,"Single Family Homes",3/16/2021,,154560,2599,"13830 ANDOVER PARK DR",HOUSTON,TX,77356,"ELDRIDGE PARK",,CONTRACTOR,,,,,,,,,,,"K HOVNANIAN HOMES",,,,,"K HOVNANIAN HOMES","13111 NORTHWEST FWY STE 200",HOUSTON,TX,77040-6311,"(713) 460-0264",,,,
TX,HARRIS,2103020250,"Single Family Homes",3/16/2021,,187110,3063,"4406 SANDHILL TERRACE LN",HOUSTON,TX,77356,"KATY POINTE",,CONTRACTOR,,,,,,,,,,,"K HOVNANIAN HOMES",,,,,"K HOVNANIAN HOMES","13111 NORTHWEST FWY STE 200",HOUSTON,TX,77040-6311,"(713) 460-0264",,,,
TX,HARRIS,2103040014,"Single Family Homes",3/16/2021,,116200,2046,"6327 LEMON BALM LN",HOUSTON,TX,77356,"CROSBY PARK VILLAGE",,CONTRACTOR,,,,,,,,,,,"K HOVNANIAN HOMES",,,,,"K HOVNANIAN HOMES","13111 NORTHWEST FWY STE 200",HOUSTON,TX,77040-6311,"(713) 460-0264",,,,
TX,HARRIS,2103040016,"Single Family Homes",3/16/2021,,153510,2568,"6331 LEMON BALM LN",HOUSTON,TX,77356,"CROSBY PARK VILLAGE",,CONTRACTOR,,,,,,,,,,,"K HOVNANIAN HOMES",,,,,"K HOVNANIAN HOMES","13111 NORTHWEST FWY STE 200",HOUSTON,TX,77040-6311,"(713) 460-0264",,,,
TX,HARRIS,2103040018,"Single Family Homes",3/16/2021,,125090,2173,"6310 FEVERVIEW TRL",HOUSTON,TX,77356,"CROSBY PARK VILLAGE",,CONTRACTOR,,,,,,,,,,,"K HOVNANIAN HOMES",,,,,"K HOVNANIAN HOMES","13111 NORTHWEST FWY STE 200",HOUSTON,TX,77040-6311,"(713) 460-0264",,,,
TX,HARRIS,2103040019,"Single Family Homes",3/16/2021,,113120,2032,"6306 FEVERVIEW TRL",HOUSTON,TX,77356,"CROSBY PARK VILLAGE",,CONTRACTOR,,,,,,,,,,,"K HOVNANIAN HOMES",,,,,"K HOVNANIAN HOMES","13111 NORTHWEST FWY STE 200",HOUSTON,TX,77040-6311,"(713) 460-0264",,,,
TX,HARRIS,2103040020,"Single Family Homes",3/16/2021,,139300,2398,"6302 FEVERVIEW TRL",HOUSTON,TX,77356,"CROSBY PARK VILLAGE",,CONTRACTOR,,,,,,,,,,,"K HOVNANIAN HOMES",,,,,"K HOVNANIAN HOMES","13111 NORTHWEST FWY STE 200",HOUSTON,TX,77040-6311,"(713) 460-0264",,,,
TX,HARRIS,2103040021,"Single Family Homes",3/16/2021,,128940,2228,"6315 FEVERVIEW TRL",HOUSTON,TX,77356,,,CONTRACTOR,,,,,,,,,,,"K HOVNANIAN HOMES",,,,,"K HOVNANIAN HOMES","13111 NORTHWEST FWY STE 200",HOUSTON,TX,77040-6311,"(713) 460-0264",,,,
TX,HARRIS,2103040022,"Single Family Homes",3/16/2021,,161000,2724,"6319 FEVERVIEW TRL",HOUSTON,TX,77356,"CROSBY PARK VILLAGE",,CONTRACTOR,,,,,,,,,,,"K HOVNANIAN HOMES",,,,,"K HOVNANIAN HOMES","13111 NORTHWEST FWY STE 200",HOUSTON,TX,77040-6311,"(713) 460-0264",,,,
TX,HARRIS,2103040024,"Single Family Homes",3/16/2021,,128940,2228,"307 CALAMINT DR",HOUSTON,TX,77356,"CROSBY PARK VILLAGE",,CONTRACTOR,,,,,,,,,,,"K HOVNANIAN HOMES",,,,,"K HOVNANIAN HOMES","13111 NORTHWEST FWY STE 200",HOUSTON,TX,77040-6311,"(713) 460-0264",,,,
TX,HARRIS,2103040029,"Single Family Homes",3/16/2021,,170730,2819,"311 CALAMINT DR",HOUSTON,TX,77356,"CROSBY PARK VILLAGE",,CONTRACTOR,,,,,,,,,,,"K HOVNANIAN HOMES",,,,,"K HOVNANIAN HOMES","13111 NORTHWEST FWY STE 200",HOUSTON,TX,77040-6311,"(713) 460-0264",,,,
TX,HARRIS,2103050017,"Single Family Homes",3/16/2021,,179480,2963,"15315 DAVAN SPRINGS DR",HOUSTON,TX,77356,BALMORAL,,CONTRACTOR,,,,,,,,,,,"K HOVNANIAN HOMES",,,,,"K HOVNANIAN HOMES","13111 NORTHWEST FWY STE 200",HOUSTON,TX,77040-6311,"(713) 460-0264",,,,
TX,HARRIS,2103050028,"Single Family Homes",3/16/2021,,116970,2081,"7610 GRANITE TERRACE LN",HOUSTON,TX,77356,"TERRA DEL SOL",,CONTRACTOR,,,,,,,,,,,"K HOVNANIAN HOMES",,,,,"K HOVNANIAN HOMES","13111 NORTHWEST FWY STE 200",HOUSTON,TX,77040-6311,"(713) 460-0264",,,,
TX,HARRIS,2103050095,"Single Family Homes",3/16/2021,,155840,2599,"13843 ANDOVER PARK DR",HOUSTON,TX,77356,"ELDRIDGE PARK",,CONTRACTOR,,,,,,,,,,,"K HOVNANIAN HOMES",,,,,"K HOVNANIAN HOMES","13111 NORTHWEST FWY STE 200",HOUSTON,TX,77040-6311,"(713) 460-0264",,,,
TX,HARRIS,2103050097,"Single Family Homes",3/16/2021,,155840,2599,"13822 ANDOVER PARK DR",HOUSTON,TX,77356,"ELDRIDGE PARK",,CONTRACTOR,,,,,,,,,,,"K HOVNANIAN HOMES",,,,,"K HOVNANIAN HOMES","13111 NORTHWEST FWY STE 200",HOUSTON,TX,77040-6311,"(713) 460-0264",,,,
TX,HARRIS,2103010164,"Single Family Homes",3/16/2021,,152700,2545,"31422 WHITCOMBE SUMMIT WAY",HOUSTON,TX,77356,DELLROSE,,CONTRACTOR,,,,,,,,,,,"ASHTON WOODS HOMES",,,,,"ASHTON WOODS HOMES","10110 W SAM HOUSTON PKWY N",HOUSTON,TX,77064-7508,"(832) 478-9028",,,,
TX,HARRIS,2103030165,"Single Family Homes",3/16/2021,,1041175,5364,"7507 MORGANS POND CT",HOUSTON,TX,77356,"SHADOW CREEK ESTATES",,"MUBARAK PRASLA","7507 MORGANS POND CT",HOUSTON,TX,77356,,Owner,,,,,OWNER,,,,,OWNER,,,,,,,,,
TX,HARRIS,2103040119,"Single Family Homes",3/16/2021,,214533,3735,"21303 ROSE LOCH LN",HOUSTON,TX,77356,"ROSEHILL RESERVE",,CONTRACTOR,,,,,,,,,,,"GEHAN HOMES",,,,,"GEHAN HOMES","2050 W SAM HOUSTON PKWY S",HOUSTON,TX,77042-2079,"(713) 243-3545",http://www.gehanhomes.com,,,
TX,HARRIS,2103040076,"Single Family Homes",3/16/2021,,112160,2013,"15462 CORDACH DR",HOUSTON,TX,77356,BALMORAL,,CONTRACTOR,,,,,,,,,,,"GEHAN HOMES",,,,,"GEHAN HOMES","2050 W SAM HOUSTON PKWY S",HOUSTON,TX,77042-2079,"(713) 243-3545",http://www.gehanhomes.com,,,
TX,HARRIS,2103020073,"Single Family Homes",3/16/2021,,115727,2076,"15451 CORDACH DR",HOUSTON,TX,77356,BALMORAL,,CONTRACTOR,,,,,,,,,,,"GEHAN HOMES",,,,,"GEHAN HOMES","2050 W SAM HOUSTON PKWY S",HOUSTON,TX,77042-2079,"(713) 243-3545",http://www.gehanhomes.com,,,
TX,HARRIS,2103080124,"Single Family Homes",3/16/2021,,240990,2068,"7335 PURPLE ASTER LN",HOUSTON,TX,77356,"KLEIN GROVE",,CONTRACTOR,,,,,,,,,,,"HISTORY MAKER HOMES",,,,,"HISTORY MAKER HOMES","9001 AIRPORT FWY SUITE 400","NORTH RICHLAND HILLS",TX,76180-7769,"(817) 429-8008",http://www.historymaker.com/,"(817) 507-1102","JILL BARFIELD",
TX,HARRIS,2102250181,"Single Family Homes",3/16/2021,,58540,2927,"18003 COWBOY CREEK TRL",HOUSTON,TX,77356,"TOWNE LAKE",,CONTRACTOR,,,,,,,,,,,"MHI MCGUYER HOMEBUILDERS",,,,,"MHI MCGUYER HOMEBUILDERS","7676 WOODWAY DR",HOUSTON,TX,77063-1526,"(713) 260-4107",,,,
TX,HARRIS,2103050008,"Single Family Homes",3/16/2021,,194940,2166,"15655 BARONIAL CASTLE DR",HOUSTON,TX,77356,BALMORAL,,CONTRACTOR,,,,,,,,,,,"EHT OF TEXAS LP",,,,,"EHT OF TEXAS LP","10235 LITTLE",HOUSTON,TX,77040,"(713) 557-3685",,,,
TX,HARRIS,2103050060,"Single Family Homes",3/16/2021,,219690,2441,"15631 BARONIAL CASTLE DR",HOUSTON,TX,77356,BALMORAL,,CONTRACTOR,,,,,,,,,,,"EHT OF TEXAS LP",,,,,"EHT OF TEXAS LP","10235 LITTLE",HOUSTON,TX,77040,"(713) 557-3685",,,,
TX,HARRIS,2011180027,"Single Family Homes",3/15/2021,,68485,2207,"18630 IMAGINATION WAY",HOUSTON,TX,77356,"BRIDGELAND PARKLAND VILLAGE",,CONTRACTOR,,,,,,,,,,,"DAVID WEEKLEY HOMES",,,,,"DAVID WEEKLEY HOMES","14444 NORTHWEST",HOUSTON,TX,77040,"(713) 570-5021",http://www.davidweekleyhomes.com/,,,
TX,HARRIS,2103050145,"Single Family Homes",3/16/2021,,55000,2750,"25410 PIRATES ONE DR",HOUSTON,TX,77356,"GROVE LANDING",,CONTRACTOR,,,,,,,,,,,"MHI MCGUYER HOMEBUILDERS",,,,,"MHI MCGUYER HOMEBUILDERS","7676 WOODWAY DR",HOUSTON,TX,77063-1526,"(713) 260-4107",,,,
TX,HARRIS,2102100024,"Single Family Homes",3/16/2021,,237753.26,3202,"9414 TALLOW TREE DR",HOUSTON,TX,77356,CHARTERWOOD,,"DAVID PRESTON","9414 TALLOW TREE DR",HOUSTON,TX,77356,,Owner,,,,,OWNER,,,,,OWNER,,,,,,,,,
TX,HARRIS,2103090034,"Single Family Homes",3/16/2021,,54320,2716,"25419 KIDWILER DR",HOUSTON,TX,77356,"GROVE LANDING",,CONTRACTOR,,,,,,,,,,,"MHI MCGUYER HOMEBUILDERS",,,,,"MHI MCGUYER HOMEBUILDERS","7676 WOODWAY DR",HOUSTON,TX,77063-1526,"(713) 260-4107",,,,
TX,HARRIS,2103090044,"Single Family Homes",3/16/2021,,59980,2999,"25422 FOSSA DR",HOUSTON,TX,77356,"GROVE LANDING",,CONTRACTOR,,,,,,,,,,,"MHI MCGUYER HOMEBUILDERS",,,,,"MHI MCGUYER HOMEBUILDERS","7676 WOODWAY DR",HOUSTON,TX,77063-1526,"(713) 260-4107",,,,
TX,HARRIS,2103050142,"Single Family Homes",3/16/2021,,199000,3062,"15134 DARBYDALE DR",HOUSTON,TX,77356,"TIMBER CROSSING",,CONTRACTOR,,,,,,,,,,,"KB HOME",,,,,"KB HOME","11314 RICHMOND AVE",HOUSTON,TX,77082-2616,"(281) 668-3800",,,,
TX,HARRIS,2103080097,"Single Family Homes",3/16/2021,,199000,3062,"12502 CAMELLIA GLADE LN",HOUSTON,TX,77356,"LAKEWOOD PINES",,CONTRACTOR,,,,,,,,,,,"KB HOME",,,,,"KB HOME","11314 RICHMOND AVE",HOUSTON,TX,77082-2616,"(281) 668-3800",,,,
TX,HARRIS,2103030071,"Single Family Homes",3/16/2021,,126555,2301,"17930 COSTRELL DR",HOUSTON,TX,77356,WINDROW,,CONTRACTOR,,,,,,,,,,,"CASTLEROCK COMMUNITIES",,,,,"CASTLEROCK COMMUNITIES","7670 WOODWAY DR STE 300",HOUSTON,TX,77063-1520,"(713) 600-7000",http://c-rock.com,"(713) 600-0000",,
TX,HARRIS,2103010016,"Single Family Homes",3/15/2021,,358085,5509,"15510 BLUESTEM BEND TRL",HOUSTON,TX,77356,,,CONTRACTOR,,,,,,,,,,,"TRIPOINTE HOMES",,,,,"TRIPOINTE HOMES","4835 LYNDON B JOHNSON FWY STE 700",DALLAS,TX,75244,"(214) 765-0570",https://investors.tripointehomes.com/,,,info@TriPointeHomes.com
TX,HARRIS,2011090159,"Single Family Homes",3/16/2021,,342745,5273,"15506 BLUESTEM BEND TRL",HOUSTON,TX,77356,"BRIDGELAND PARKLAND VILLAGE",,CONTRACTOR,,,,,,,,,,,"TRENDMAKER HOMES",,,,,"TRENDMAKER HOMES","16340 PARK TEN PL STE 250",HOUSTON,TX,77084-5144,"(281) 675-3200",,"(281) 675-3251","MARTIN EVANS",
TX,HARRIS,2101250035,"Single Family Homes",3/16/2021,,312780,4812,"15537 PICNIC HILL DR",HOUSTON,TX,77356,"BRIDGELAND PARKLAND VILLAGE",,CONTRACTOR,,,,,,,,,,,"TRIPOINTE HOMES",,,,,"TRIPOINTE HOMES","4835 LYNDON B JOHNSON FWY STE 700",DALLAS,TX,75244,"(214) 765-0570",https://investors.tripointehomes.com/,,,info@TriPointeHomes.com
TX,HARRIS,2102010096,"Single Family Homes",3/16/2021,,300430,4622,"25006 PAVONIA LAKE LN",HOUSTON,TX,77356,"LAKES AT CREEKSIDE",,CONTRACTOR,,,,,,,,,,,"TRIPOINTE HOMES",,,,,"TRIPOINTE HOMES","4835 LYNDON B JOHNSON FWY STE 700",DALLAS,TX,75244,"(214) 765-0570",https://investors.tripointehomes.com/,,,info@TriPointeHomes.com
TX,HARRIS,2102250065,"Single Family Homes",3/16/2021,,183040,2816,"16427 ROSEMARY GROVE LN",HOUSTON,TX,77356,"HIDDEN ARBOR",,CONTRACTOR,,,,,,,,,,,"TRIPOINTE HOMES",,,,,"TRIPOINTE HOMES","4835 LYNDON B JOHNSON FWY STE 700",DALLAS,TX,75244,"(214) 765-0570",https://investors.tripointehomes.com/,,,info@TriPointeHomes.com
TX,HARRIS,2103050138,"Single Family Homes",3/16/2021,,401000,2985,"15663 SCOLTY REACH LN",HOUSTON,TX,77356,BALMORAL,,CONTRACTOR,,,,,,,,,,,"HIGHLAND HOMES",,,,,"HIGHLAND HOMES","10930 W SAM HOUSTON PKWY N STE 100",HOUSTON,TX,77064-6331,"(281) 517-9800",,,,
TX,HARRIS,2103090105,"Single Family Homes",3/16/2021,,233660,2420,"6331 LAKEVIEW HAVEN DR",HOUSTON,TX,77356,KINGFIELD,,CONTRACTOR,,,,,,,,,,,"PULTE HOMES",,,,,"PULTE HOMES","16670 PARK ROW",HOUSTON,TX,77084-6866,"(281) 749-8000",,,,
TX,HARRIS,2103090111,"Single Family Homes",3/16/2021,,337990,3803,"24418 AVANTI DR",HOUSTON,TX,77356,"KATY LAKES",,CONTRACTOR,,,,,,,,,,,"HISTORY MAKER HOMES",,,,,"HISTORY MAKER HOMES","9001 AIRPORT FWY SUITE 400","NORTH RICHLAND HILLS",TX,76180-7769,"(817) 429-8008",http://www.historymaker.com/,"(817) 507-1102","JILL BARFIELD",
TX,HARRIS,2103040124,"Single Family Homes",3/16/2021,,295762,2189,"19022 GIARA PONY TRL",HOUSTON,TX,77356,AMIRA,,CONTRACTOR,,,,,,,,,,,"PERRY HOMES",,,,,"PERRY HOMES","9000 GULF FWY",HOUSTON,TX,77017-7018,"(713) 417-1396",,,,
TX,HARRIS,2103040116,"Single Family Homes",3/16/2021,,335812,2545,"19131 GIARA PONY TRL",HOUSTON,TX,77356,AMIRA,,CONTRACTOR,,,,,,,,,,,"PERRY HOMES",,,,,"PERRY HOMES","9000 GULF FWY",HOUSTON,TX,77017-7018,"(713) 417-1396",,,,
TX,HARRIS,2103040047,"Single Family Homes",3/16/2021,,192900,2969,"12907 SIERRA NATIONAL DR",HOUSTON,TX,77356,GROVES,,CONTRACTOR,,,,,,,,,,,"VILLAGE BUILDERS",,,,,"VILLAGE BUILDERS","550 GREENS PKWY STE 210",HOUSTON,TX,77067-4538,"(281) 873-4663",,,,
TX,HARRIS,2102120094,"Single Family Homes",3/16/2021,,157552,2247,"16306 TEXAN CRESCENT DR",HOUSTON,TX,77356,GROVES,,CONTRACTOR,,,,,,,,,,,"CHESMAR HOMES",,,,,"CHESMAR HOMES","450 GEARS RD STE 400",HOUSTON,TX,77067-4513,"(281) 598-1111",http://chesmar.com,"(281) 598-1115",,customerservice.houston@chesmar.com
TX,HARRIS,2102120095,"Single Family Homes",3/16/2021,,151009,2055,"21506 HENRYS BLUSH DR",HOUSTON,TX,77356,"ROSEHILL RESERVE",,CONTRACTOR,,,,,,,,,,,"CHESMAR HOMES",,,,,"CHESMAR HOMES","450 GEARS RD STE 400",HOUSTON,TX,77067-4513,"(281) 598-1111",http://chesmar.com,"(281) 598-1115",,customerservice.houston@chesmar.com
TX,HARRIS,2102230123,"Single Family Homes",3/16/2021,,186329,2649,"19210 CHARISMA ROSE LN",HOUSTON,TX,77356,"ROSEHILL RESERVE",,CONTRACTOR,,,,,,,,,,,"CHESMAR HOMES",,,,,"CHESMAR HOMES","450 GEARS RD STE 400",HOUSTON,TX,77067-4513,"(281) 598-1111",http://chesmar.com,"(281) 598-1115",,customerservice.houston@chesmar.com
TX,HARRIS,2102250068,"Single Family Homes",3/16/2021,,178688,2598,"15002 CONCHO RIVER WAY",HOUSTON,TX,77356,"BRIDGELAND PARKLAND VILLAGE",,CONTRACTOR,,,,,,,,,,,"CHESMAR HOMES",,,,,"CHESMAR HOMES","450 GEARS RD STE 400",HOUSTON,TX,77067-4513,"(281) 598-1111",http://chesmar.com,"(281) 598-1115",,customerservice.houston@chesmar.com
TX,HARRIS,2103090122,"Single Family Homes",3/16/2021,,123000,1905,"16136 LONG BOAT CT",HOUSTON,TX,77356,,,CONTRACTOR,,,,,,,,,,,"LENNAR HOMES",,,,,"LENNAR HOMES","550 GREENS PKWY",HOUSTON,TX,77067-4537,"(281) 875-1000",http://www.lennar.com/,,,
TX,HARRIS,2103090124,"Single Family Homes",3/16/2021,,153000,2357,"16134 LONG BOAT CT",HOUSTON,TX,77356,,,CONTRACTOR,,,,,,,,,,,"LENNAR HOMES",,,,,"LENNAR HOMES","550 GREENS PKWY",HOUSTON,TX,77067-4537,"(281) 875-1000",http://www.lennar.com/,,,
TX,HARRIS,2103090126,"Single Family Homes",3/16/2021,,184000,2838,"16152 DOCKSIDE ST",HOUSTON,TX,77356,,,CONTRACTOR,,,,,,,,,,,"LENNAR HOMES",,,,,"LENNAR HOMES","550 GREENS PKWY",HOUSTON,TX,77067-4537,"(281) 875-1000",http://www.lennar.com/,,,
TX,HARRIS,2103090128,"Single Family Homes",3/16/2021,,148000,2277,"4819 EVERGREEN CREEK DR",HOUSTON,TX,77356,"ASHBEL CROSSING",,CONTRACTOR,,,,,,,,,,,"LENNAR HOMES",,,,,"LENNAR HOMES","550 GREENS PKWY",HOUSTON,TX,77067-4537,"(281) 875-1000",http://www.lennar.com/,,,
TX,HARRIS,2103090131,"Single Family Homes",3/16/2021,,153000,2357,"4515 RED YUCCA DR",HOUSTON,TX,77356,"ASHBEL CROSSING ",,CONTRACTOR,,,,,,,,,,,"LENNAR HOMES",,,,,"LENNAR HOMES","550 GREENS PKWY",HOUSTON,TX,77067-4537,"(281) 875-1000",http://www.lennar.com/,,,
TX,HARRIS,2103020080,"Single Family Homes",3/16/2021,,107460,2388,"20914 MEDFORD LANDING LN",HOUSTON,TX,77356,"JASMINE HEIGHTS",,CONTRACTOR,,,,,,,,,,,"DR HORTON",,,,,"DR HORTON","14100 SOUTHWEST",HOUSTON,TX,77478,"(281) 201-5559",,,,
TX,HARRIS,2103020090,"Single Family Homes",3/16/2021,,132885,2953,"5210 GREENWOOD SUMMIT TRL",HOUSTON,TX,77356,,,CONTRACTOR,,,,,,,,,,,"DR HORTON",,,,,"DR HORTON","14100 SOUTHWEST",HOUSTON,TX,77478,"(281) 201-5559",,,,
TX,HARRIS,2103020112,"Single Family Homes",3/16/2021,,141660,3148,"21023 BELMONT VILLAGE WAY",HOUSTON,TX,77356,"JASMINE HEIGHTS",,CONTRACTOR,,,,,,,,,,,"DR HORTON",,,,,"DR HORTON","14100 SOUTHWEST",HOUSTON,TX,77478,"(281) 201-5559",,,,
TX,HARRIS,2103020182,"Single Family Homes",4/13/2021,,132975,2955,"21003 BELMONT VILLAGE WAY",HOUSTON,TX,77356,"JASMINE HEIGHTS",,CONTRACTOR,,,,,,,,,,,"DR HORTON",,,,,"DR HORTON","14100 SOUTHWEST",HOUSTON,TX,77478,"(281) 201-5559",,,,
TX,HARRIS,2103020191,"Single Family Homes",3/16/2021,,132885,2953,"20907 BELMONT VILLAGE WAY",HOUSTON,TX,77356,"JASMINE HEIGHTS",,CONTRACTOR,,,,,,,,,,,"DR HORTON",,,,,"DR HORTON","14100 SOUTHWEST",HOUSTON,TX,77478,"(281) 201-5559",,,,
TX,HARRIS,2103020194,"Single Family Homes",3/16/2021,,105615,,"20903 BELMONT VILLAGE WAY",HOUSTON,TX,77356,"JASMINE HEIGHTS",,CONTRACTOR,,,,,,,,,,,"DR HORTON",,,,,"DR HORTON","14100 SOUTHWEST",HOUSTON,TX,77478,"(281) 201-5559",,,,
TX,HARRIS,2103020196,"Single Family Homes",3/16/2021,,107460,2388,"5231 TREMONT ESTATES TRL",HOUSTON,TX,77356,"JASMINE HEIGHTS",,CONTRACTOR,,,,,,,,,,,"DR HORTON",,,,,"DR HORTON","14100 SOUTHWEST",HOUSTON,TX,77478,"(281) 201-5559",,,,
TX,HARRIS,2103020198,"Single Family Homes",3/16/2021,,141660,3148,"5227 TREMONT ESTATES TRL",HOUSTON,TX,77356,"JASMINE HEIGHTS",,CONTRACTOR,,,,,,,,,,,"DR HORTON",,,,,"DR HORTON","14100 SOUTHWEST",HOUSTON,TX,77478,"(281) 201-5559",,,,
TX,HARRIS,2103020205,"Single Family Homes",3/16/2021,,110700,2460,"5203 TREMONT ESTATES TRL",HOUSTON,TX,77356,"JASMINE HEIGHTS",,CONTRACTOR,,,,,,,,,,,"DR HORTON",,,,,"DR HORTON","14100 SOUTHWEST",HOUSTON,TX,77478,"(281) 201-5559",,,,
TX,HARRIS,2103020206,"Single Family Homes",3/16/2021,,132975,2955,"20810 MEDFORD LANDING LN",HOUSTON,TX,77356,"JASMINE HEIGHTS",,CONTRACTOR,,,,,,,,,,,"DR HORTON",,,,,"DR HORTON","14100 SOUTHWEST",HOUSTON,TX,77478,"(281) 201-5559",,,,
TX,HARRIS,2103020226,"Single Family Homes",3/16/2021,,105615,2347,"20835 MEDFORD LANDING LN",HOUSTON,TX,77356,"JASMINE HEIGHTS",,CONTRACTOR,,,,,,,,,,,"DR HORTON",,,,,"DR HORTON","14100 SOUTHWEST",HOUSTON,TX,77478,"(281) 201-5559",,,,
TX,HARRIS,2103090148,"Single Family Homes",3/16/2021,,147375,2599,"31527 CASA LINDA DR",HOUSTON,TX,77356,"STONE CREEK RANCH",,CONTRACTOR,,,,,,,,,,,"DR HORTON",,,,,"DR HORTON","14100 SOUTHWEST",HOUSTON,TX,77478,"(281) 201-5559",,,,
TX,HARRIS,2103090159,"Single Family Homes",3/16/2021,,218020,1890,"6327 LAKEVIEW HAVEN DR",HOUSTON,TX,77356,KINGFIELD,,CONTRACTOR,,,,,,,,,,,"PULTE HOMES",,,,,"PULTE HOMES","16670 PARK ROW",HOUSTON,TX,77084-6866,"(281) 749-8000",,,,
TX,HARRIS,2103090162,"Single Family Homes",3/16/2021,,234160,2420,"6323 LAKEVIEW HAVEN DR",HOUSTON,TX,77356,KINGFIELD,,CONTRACTOR,,,,,,,,,,,"PULTE HOMES",,,,,"PULTE HOMES","16670 PARK ROW",HOUSTON,TX,77084-6866,"(281) 749-8000",,,,
TX,HARRIS,2103020079,"Single Family Homes",3/16/2021,,114792,2145,"20702 NALA BEAR DR",HOUSTON,TX,77356,"BAUER LANDING",,CONTRACTOR,,,,,,,,,,,"LGI HOMES",,,,,"LGI HOMES","1450 LAKE ROBBINS SUITE 430",CONROE,TX,77380,"(210) 563-4648",,"(281) 210-2601",,
TX,HARRIS,2103020150,"Single Family Homes",3/16/2021,,130642,2722,"20706 NALA BEAR DR",HOUSTON,TX,77356,"BAUER LANDING",,CONTRACTOR,,,,,,,,,,,"LGI HOMES",,,,,"LGI HOMES","1450 LAKE ROBBINS SUITE 430",CONROE,TX,77380,"(210) 563-4648",,"(281) 210-2601",,
TX,HARRIS,2103020151,"Single Family Homes",3/16/2021,,130696,2447,"22110 HANNA HILLS DR",HOUSTON,TX,77356,"BAUER LANDING",,CONTRACTOR,,,,,,,,,,,"LGI HOMES",,,,,"LGI HOMES","1450 LAKE ROBBINS SUITE 430",CONROE,TX,77380,"(210) 563-4648",,"(281) 210-2601",,
TX,HARRIS,2103020153,"Single Family Homes",3/16/2021,,186865,3541,"22106 HANNA HILLS DR",HOUSTON,TX,77356,"BAUER LANDING",,CONTRACTOR,,,,,,,,,,,"LGI HOMES",,,,,"LGI HOMES","1450 LAKE ROBBINS SUITE 430",CONROE,TX,77380,"(210) 563-4648",,"(281) 210-2601",,
TX,HARRIS,2103020154,"Single Family Homes",3/16/2021,,145991,2816,"22102 HANNA HILLS DR",HOUSTON,TX,77356,"BAUER LANDING",,CONTRACTOR,,,,,,,,,,,"LGI HOMES",,,,,"LGI HOMES","1450 LAKE ROBBINS SUITE 430",CONROE,TX,77380,"(210) 563-4648",,"(281) 210-2601",,
TX,HARRIS,2103020156,"Single Family Homes",3/16/2021,,130639,2447,"22018 HANNA HILLS DR",HOUSTON,TX,77356,"BAUER LANDING",,CONTRACTOR,,,,,,,,,,,"LGI HOMES",,,,,"LGI HOMES","1450 LAKE ROBBINS SUITE 430",CONROE,TX,77380,"(210) 563-4648",,"(281) 210-2601",,
TX,HARRIS,2103020157,"Single Family Homes",3/16/2021,,186865,3541,"22014 HANNA HILLS DR",HOUSTON,TX,77356,"BAUER LANDING",,CONTRACTOR,,,,,,,,,,,"LGI HOMES",,,,,"LGI HOMES","1450 LAKE ROBBINS SUITE 430",CONROE,TX,77380,"(210) 563-4648",,"(281) 210-2601",,
TX,HARRIS,2102240121,"Single Family Homes",3/16/2021,,238598,4402,"21403 ROSE LOCH LN",HOUSTON,TX,77356,"ROSEHILL RESERVE",,CONTRACTOR,,,,,,,,,,,"GEHAN HOMES",,,,,"GEHAN HOMES","2050 W SAM HOUSTON PKWY S",HOUSTON,TX,77042-2079,"(713) 243-3545",http://www.gehanhomes.com,,,
TX,HARRIS,2102230141,"Single Family Homes",3/16/2021,,140646,2690,"12839 GALLOWHILL DR",HOUSTON,TX,77356,BALMORAL,,CONTRACTOR,,,,,,,,,,,"GEHAN HOMES",,,,,"GEHAN HOMES","2050 W SAM HOUSTON PKWY S",HOUSTON,TX,77042-2079,"(713) 243-3545",http://www.gehanhomes.com,,,
TX,HARRIS,2103040106,"Single Family Homes",3/16/2021,,290146,4041,"15654 PORCUPINE LN",HOUSTON,TX,77356,"BRIDGELAND PARKLAND VILLAGE",,CONTRACTOR,,,,,,,,,,,"TAYLOR MORRISON OF TEXAS",,,,,"TAYLOR MORRISON OF TEXAS","5353 W SAM HOUSTON PKWY N STE 190",HOUSTON,TX,77041-5186,"(281) 598-3000",,,,
TX,HARRIS,2103040109,"Single Family Homes",3/16/2021,,279056,3893,"15902 TALALA TRL",HOUSTON,TX,77356,"BRIDGELAND PARKLAND VILLAGE",,CONTRACTOR,,,,,,,,,,,"TAYLOR MORRISON OF TEXAS",,,,,"TAYLOR MORRISON OF TEXAS","5353 W SAM HOUSTON PKWY N STE 190",HOUSTON,TX,77041-5186,"(281) 598-3000",,,,
TX,HARRIS,2103020051,"Single Family Homes",3/16/2021,,340000,2400,"19806 UPPER CANYON CT",HOUSTON,TX,77356,"BRIDGELAND PARKLAND VILLAGE",,CONTRACTOR,,,,,,,,,,,"HIGHLAND HOMES",,,,,"HIGHLAND HOMES","10930 W SAM HOUSTON PKWY N STE 100",HOUSTON,TX,77064-6331,"(281) 517-9800",,,,
TX,HARRIS,2103020056,"Single Family Homes",3/16/2021,,340000,3400,"23647 BOTTLEBRUSH TERRACE TRL",HOUSTON,TX,77356,ELYSON,,CONTRACTOR,,,,,,,,,,,"HIGHLAND HOMES",,,,,"HIGHLAND HOMES","10930 W SAM HOUSTON PKWY N STE 100",HOUSTON,TX,77064-6331,"(281) 517-9800",,,,
TX,HARRIS,2103020067,"Single Family Homes",3/16/2021,,340000,3400,"23607 BOTTLEBRUSH TERRACE TRL",HOUSTON,TX,77356,ELYSON,,CONTRACTOR,,,,,,,,,,,"HIGHLAND HOMES",,,,,"HIGHLAND HOMES","10930 W SAM HOUSTON PKWY N STE 100",HOUSTON,TX,77064-6331,"(281) 517-9800",,,,
TX,HARRIS,2103040138,"Single Family Homes",3/16/2021,,217900,2037,"11615 BRAEMAR VILLAGE DR",HOUSTON,TX,77356,"BRAEMAR VILLAGE",,CONTRACTOR,,,,,,,,,,,"PULTE HOMES",,,,,"PULTE HOMES","16670 PARK ROW",HOUSTON,TX,77084-6866,"(281) 749-8000",,,,
TX,HARRIS,2103040140,"Single Family Homes",3/16/2021,,238980,2426,"11631 BRAEMAR VILLAGE DR",HOUSTON,TX,77356,"BRAEMAR VILLAGE",,CONTRACTOR,,,,,,,,,,,"PULTE HOMES",,,,,"PULTE HOMES","16670 PARK ROW",HOUSTON,TX,77084-6866,"(281) 749-8000",,,,
TX,HARRIS,2103040141,"Single Family Homes",3/16/2021,,224920,2065,"11627 BRAEMAR VILLAGE DR",HOUSTON,TX,77356,,,CONTRACTOR,,,,,,,,,,,"PULTE HOMES",,,,,"PULTE HOMES","16670 PARK ROW",HOUSTON,TX,77084-6866,"(281) 749-8000",,,,
TX,HARRIS,2103010100,"Single Family Homes",3/16/2021,,591009,5317,"15539 WILDERNESS RUN DR",HOUSTON,TX,77356,"BRIDGELAND PARKLAND VILLAGE",,CONTRACTOR,,,,,,,,,,,"NEWMARK HOMES",,,,,"NEWMARK HOMES","10455 BRIAR FOREST SUITE 200",HOUSTON,TX,77042,"(713) 346-0200",,"(713) 346-0226",,
TX,HARRIS,2103010109,"Single Family Homes",3/16/2021,,979912,5649,"19303 ROUND PRAIRIE LN",HOUSTON,TX,77356,"BRIDGELAND PARKLAND VILLAGE",,CONTRACTOR,,,,,,,,,,,"NEWMARK HOMES",,,,,"NEWMARK HOMES","10455 BRIAR FOREST SUITE 200",HOUSTON,TX,77042,"(713) 346-0200",,"(713) 346-0226",,
TX,HARRIS,21022148,"Single Family Homes",4/1/2021,,255000,,"2502 WALKER DAWN",HOUSTON,TX,77008,,,CONTRACTOR,,,,,,,,,,,"ANNE'S PERMIT",,,,,"ANNE'S PERMIT","2617C W HOLCOMBE BLVD",HOUSTON,TX,77025,"(713) 666-2025",,,,
TX,HARRIS,21023916,"Single Family Homes",3/30/2021,,210000,,"1711 LINDSEY RIDGE",HOUSTON,TX,77005,,,CONTRACTOR,,,,,,,,,,,"ANNE'S PERMIT",,,,,"ANNE'S PERMIT","2617C W HOLCOMBE BLVD",HOUSTON,TX,77025,"(713) 666-2025",,,,
TX,HARRIS,21023915,"Single Family Homes",3/30/2021,,210000,,"1716 LEILANI",HOUSTON,TX,77055,,,CONTRACTOR,,,,,,,,,,,"ANNE'S PERMIT",,,,,"ANNE'S PERMIT","2617C W HOLCOMBE BLVD",HOUSTON,TX,77025,"(713) 666-2025",,,,
TX,HARRIS,21018820,"Single Family Homes",4/2/2021,,156000,,"957 LILLY FLOWER",HOUSTON,TX,77091,,,CONTRACTOR,,,,,,,,,,,"ANNE'S PERMIT",,,,,"ANNE'S PERMIT","2617C W HOLCOMBE BLVD",HOUSTON,TX,77025,"(713) 666-2025",,,,
TX,HARRIS,21018819,"Single Family Homes",3/30/2021,,161000,,"959 LILLY FLOWER",HOUSTON,TX,77091,,,CONTRACTOR,,,,,,,,,,,"ANNE'S PERMIT",,,,,"ANNE'S PERMIT","2617C W HOLCOMBE BLVD",HOUSTON,TX,77025,"(713) 666-2025",,,,
TX,HARRIS,21021088,"Single Family Homes",3/30/2021,,157000,,"961 LILLY FLOWER",HOUSTON,TX,77091,,,CONTRACTOR,,,,,,,,,,,"ANNE'S PERMIT",,,,,"ANNE'S PERMIT","2617C W HOLCOMBE BLVD",HOUSTON,TX,77025,"(713) 666-2025",,,,
TX,HARRIS,21019743,"Single Family Homes",4/5/2021,,385000,,"2224 NORTH",HOUSTON,TX,77098,,,CONTRACTOR,,,,,,,,,,,"ANNE'S PERMIT",,,,,"ANNE'S PERMIT","2617C W HOLCOMBE BLVD",HOUSTON,TX,77025,"(713) 666-2025",,,,
TX,HARRIS,19093326,"Single Family Homes",4/5/2021,,375000,,"1729 ALTHEA",HOUSTON,TX,77018,,,CONTRACTOR,,,,,,,,,,,"ANNE'S PERMIT",,,,,"ANNE'S PERMIT","2617C W HOLCOMBE BLVD",HOUSTON,TX,77025,"(713) 666-2025",,,,
TX,HARRIS,20114119,"Single Family Homes",4/2/2021,,245000,,"608 GROVE",HOUSTON,TX,77020,,,CONTRACTOR,,,,,,,,,,,"ANNE'S PERMIT",,,,,"ANNE'S PERMIT","2617C W HOLCOMBE BLVD",HOUSTON,TX,77025,"(713) 666-2025",,,,
TX,HARRIS,20089798,"Single Family Homes",3/31/2021,,205975,,"8601 PEACHTREE",HOUSTON,TX,77016,,,"ALEJANDRO ANTONIO","8601 PEACHTREE",HOUSTON,TX,77016,,Owner,,,,,OWNER,,,,,OWNER,,,,,,,,,
TX,HARRIS,20102332,"Single Family Homes",4/1/2021,,105000,,"19609 DUNBAR",HOUSTON,TX,77338,,,"ROSIE ARMSTRONG","19609 DUNBAR",HOUSTON,TX,77338,,Owner,,,,,"JW TURNER GROUP",,,,,"JW TURNER GROUP","14215 MARY JANE LN",TOMBALL,TX,77377-6356,"(281) 290-9011",,,,
TX,HARRIS,19145001,"Single Family Homes",3/31/2021,,700000,,"3419 OZARK",HOUSTON,TX,77021,,,"YULANDA CAMPBELL","3419 OZARK",HOUSTON,TX,77021,,Owner,,,,,OWNER,,,,,OWNER,,,,,,,,,
TX,HARRIS,21001493,"Single Family Homes",3/30/2021,,112000,,"4834 BRINKLEY",HOUSTON,TX,77033,,,"NICOLE CARTWRIGHT","4834 BRINKLEY",HOUSTON,TX,77033,,Owner,,,,,STONEWATER,,,,,STONEWATER,"914 GRIGSBY AVE","PORT NECHES",TX,77651-2339,"(409) 727-2410",,,,
TX,HARRIS,21016046,"Single Family Homes",4/5/2021,,405000,,"1344 ALTHEA",HOUSTON,TX,77018,,,"CLAYDON JEFF & MEGAN","1344 ALTHEA",HOUSTON,TX,77018,,Owner,,,,,"HARVARD HOMES",,,,,"HARVARD HOMES","1335 SUE BARNETT DR",HOUSTON,TX,77018,"(281) 728-7456",https://www.harvardhomeshou.com/,,,Hello@harvardhomeshou.com
TX,HARRIS,20105955,"Single Family Homes",3/31/2021,,175000,,"725 E WELLINGTON",HOUSTON,TX,77076,,,"PAMELA AKINYEMI","725 E WELLINGTON",HOUSTON,TX,77076,,Owner,,,,,OWNER,,,,,OWNER,,,,,,,,,
TX,HARRIS,20098563,"Single Family Homes",3/31/2021,,193545,,"3018 DELANO",HOUSTON,TX,77004,,,CONTRACTOR,,,,,,,,,,,"ARABELLE PROPERTIES",,,,,"ARABELLE PROPERTIES","9610 LONG POINT RD",HOUSTON,TX,77055-4265,"(346) 714-0607",,,,
TX,HARRIS,21021076,"Single Family Homes",3/31/2021,,234800,,"5706 BALBO ST",HOUSTON,TX,77091,,,CONTRACTOR,,,,,,,,,,,"ANGLIA HOMES",,,,,"ANGLIA HOMES","17510 RED OAK DR",HOUSTON,TX,77090,"(281) 943-5288",http://www.angliahomeslp.com/,,,
TX,HARRIS,21005657,"Single Family Homes",4/1/2021,,159893,,"13412 MERRYVILLE HARROGATE",HOUSTON,TX,77048,,,CONTRACTOR,,,,,,,,,,,"COLINA HOMES",,,,,"COLINA HOMES","1314 N DURHAM DR",HOUSTON,TX,77008-3734,"(281) 528-9090",http://colinahomes.com/,,,postmaster@colinahomes.com
TX,HARRIS,21005651,"Single Family Homes",4/1/2021,,159893,,"13420 MERRYVILLE HARROGATE",HOUSTON,TX,77048,,,CONTRACTOR,,,,,,,,,,,"COLINA HOMES",,,,,"COLINA HOMES","1314 N DURHAM DR",HOUSTON,TX,77008-3734,"(281) 528-9090",http://colinahomes.com/,,,postmaster@colinahomes.com
TX,HARRIS,21009028,"Single Family Homes",4/1/2021,,159893,,"13428 MERRYVILLE HARROGATE",HOUSTON,TX,77048,,,CONTRACTOR,,,,,,,,,,,"COLINA HOMES",,,,,"COLINA HOMES","1314 N DURHAM DR",HOUSTON,TX,77008-3734,"(281) 528-9090",http://colinahomes.com/,,,postmaster@colinahomes.com
TX,HARRIS,21002563,"Single Family Homes",4/5/2021,,159893,,"6508 CASTLE LOCH",HOUSTON,TX,77048,,,CONTRACTOR,,,,,,,,,,,"COLINA HOMES",,,,,"COLINA HOMES","1314 N DURHAM DR",HOUSTON,TX,77008-3734,"(281) 528-9090",http://colinahomes.com/,,,postmaster@colinahomes.com
TX,HARRIS,21002815,"Single Family Homes",4/1/2021,,159893,,"6511 MACROOM MEADOWS",HOUSTON,TX,77048,,,CONTRACTOR,,,,,,,,,,,"COLINA HOMES",,,,,"COLINA HOMES","1314 N DURHAM DR",HOUSTON,TX,77008-3734,"(281) 528-9090",http://colinahomes.com/,,,postmaster@colinahomes.com
TX,HARRIS,21002849,"Single Family Homes",4/1/2021,,159893,,"6518 CASTLE LOCH",HOUSTON,TX,77048,,,CONTRACTOR,,,,,,,,,,,"COLINA HOMES",,,,,"COLINA HOMES","1314 N DURHAM DR",HOUSTON,TX,77008-3734,"(281) 528-9090",http://colinahomes.com/,,,postmaster@colinahomes.com
TX,HARRIS,21002505,"Single Family Homes",4/1/2021,,159893,,"6525 MACROOM MEADOWS",HOUSTON,TX,77048,,,CONTRACTOR,,,,,,,,,,,"COLINA HOMES",,,,,"COLINA HOMES","1314 N DURHAM DR",HOUSTON,TX,77008-3734,"(281) 528-9090",http://colinahomes.com/,,,postmaster@colinahomes.com
TX,HARRIS,21002557,"Single Family Homes",4/1/2021,,159893,,"6527 CASTLE LOCH",HOUSTON,TX,77048,,,CONTRACTOR,,,,,,,,,,,"COLINA HOMES",,,,,"COLINA HOMES","1314 N DURHAM DR",HOUSTON,TX,77008-3734,"(281) 528-9090",http://colinahomes.com/,,,postmaster@colinahomes.com
TX,HARRIS,21002528,"Single Family Homes",4/5/2021,,159893,,"6544 CASTLE LOCH",HOUSTON,TX,77048,,,CONTRACTOR,,,,,,,,,,,"COLINA HOMES",,,,,"COLINA HOMES","1314 N DURHAM DR",HOUSTON,TX,77008-3734,"(281) 528-9090",http://colinahomes.com/,,,postmaster@colinahomes.com
TX,HARRIS,21005669,"Single Family Homes",4/1/2021,,159893,,"13406 MERRYVILLE HARROGATE",HOUSTON,TX,77048,,,CONTRACTOR,,,,,,,,,,,"COLINA HOMES",,,,,"COLINA HOMES","1314 N DURHAM DR",HOUSTON,TX,77008-3734,"(281) 528-9090",http://colinahomes.com/,,,postmaster@colinahomes.com
TX,HARRIS,21002524,"Single Family Homes",4/1/2021,,159893,,"6533 CASTLE LOCH",HOUSTON,TX,77048,,,CONTRACTOR,,,,,,,,,,,"COLINA HOMES",,,,,"COLINA HOMES","1314 N DURHAM DR",HOUSTON,TX,77008-3734,"(281) 528-9090",http://colinahomes.com/,,,postmaster@colinahomes.com
TX,HARRIS,21005660,"Single Family Homes",4/1/2021,,176295,,"13410 MERRYVILLE HARROGATE",HOUSTON,TX,77048,,,CONTRACTOR,,,,,,,,,,,"COLINA HOMES",,,,,"COLINA HOMES","1314 N DURHAM DR",HOUSTON,TX,77008-3734,"(281) 528-9090",http://colinahomes.com/,,,postmaster@colinahomes.com
TX,HARRIS,21009055,"Single Family Homes",4/1/2021,,176295,,"13430 MERRYVILLE HARROGATE",HOUSTON,TX,77048,,,CONTRACTOR,,,,,,,,,,,"COLINA HOMES",,,,,"COLINA HOMES","1314 N DURHAM DR",HOUSTON,TX,77008-3734,"(281) 528-9090",http://colinahomes.com/,,,postmaster@colinahomes.com
TX,HARRIS,21003603,"Single Family Homes",4/5/2021,,176295,,"6510 GILLOCK MEADOW",HOUSTON,TX,77048,,,CONTRACTOR,,,,,,,,,,,"COLINA HOMES",,,,,"COLINA HOMES","1314 N DURHAM DR",HOUSTON,TX,77008-3734,"(281) 528-9090",http://colinahomes.com/,,,postmaster@colinahomes.com
TX,HARRIS,21002606,"Single Family Homes",4/1/2021,,176295,,"6511 CASTLE LOCH",HOUSTON,TX,77048,,,CONTRACTOR,,,,,,,,,,,"COLINA HOMES",,,,,"COLINA HOMES","1314 N DURHAM DR",HOUSTON,TX,77008-3734,"(281) 528-9090",http://colinahomes.com/,,,postmaster@colinahomes.com
TX,HARRIS,21002796,"Single Family Homes",4/1/2021,,176295,,"6515 MACROOM MEADOWS",HOUSTON,TX,77048,,,CONTRACTOR,,,,,,,,,,,"COLINA HOMES",,,,,"COLINA HOMES","1314 N DURHAM DR",HOUSTON,TX,77008-3734,"(281) 528-9090",http://colinahomes.com/,,,postmaster@colinahomes.com
TX,HARRIS,21002538,"Single Family Homes",4/1/2021,,176295,,"6537 CASTLE LOCH",HOUSTON,TX,77048,,,CONTRACTOR,,,,,,,,,,,"COLINA HOMES",,,,,"COLINA HOMES","1314 N DURHAM DR",HOUSTON,TX,77008-3734,"(281) 528-9090",http://colinahomes.com/,,,postmaster@colinahomes.com
TX,HARRIS,21002872,"Single Family Homes",4/1/2021,,176295,,"6540 CASTLE LOCH",HOUSTON,TX,77048,,,CONTRACTOR,,,,,,,,,,,"COLINA HOMES",,,,,"COLINA HOMES","1314 N DURHAM DR",HOUSTON,TX,77008-3734,"(281) 528-9090",http://colinahomes.com/,,,postmaster@colinahomes.com
TX,HARRIS,21005671,"Single Family Homes",4/1/2021,,176295,,"13404 MERRYVILLE HARROGATE",HOUSTON,TX,77048,,,CONTRACTOR,,,,,,,,,,,"COLINA HOMES",,,,,"COLINA HOMES","1314 N DURHAM DR",HOUSTON,TX,77008-3734,"(281) 528-9090",http://colinahomes.com/,,,postmaster@colinahomes.com
TX,HARRIS,21002590,"Single Family Homes",4/1/2021,,176295,,"6517 CASTLE LOCH",HOUSTON,TX,77048,,,CONTRACTOR,,,,,,,,,,,"COLINA HOMES",,,,,"COLINA HOMES","1314 N DURHAM DR",HOUSTON,TX,77008-3734,"(281) 528-9090",http://colinahomes.com/,,,postmaster@colinahomes.com
TX,HARRIS,21002845,"Single Family Homes",4/1/2021,,176295,,"6522 CASTLE LOCH",HOUSTON,TX,77048,,,CONTRACTOR,,,,,,,,,,,"COLINA HOMES",,,,,"COLINA HOMES","1314 N DURHAM DR",HOUSTON,TX,77008-3734,"(281) 528-9090",http://colinahomes.com/,,,postmaster@colinahomes.com
TX,HARRIS,21002532,"Single Family Homes",4/1/2021,,176295,,"6532 CASTLE LOCH",HOUSTON,TX,77048,,,CONTRACTOR,,,,,,,,,,,"COLINA HOMES",,,,,"COLINA HOMES","1314 N DURHAM DR",HOUSTON,TX,77008-3734,"(281) 528-9090",http://colinahomes.com/,,,postmaster@colinahomes.com
TX,HARRIS,21002575,"Single Family Homes",4/1/2021,,176295,,"6531 CASTLE LOCH",HOUSTON,TX,77048,,,CONTRACTOR,,,,,,,,,,,"COLINA HOMES",,,,,"COLINA HOMES","1314 N DURHAM DR",HOUSTON,TX,77008-3734,"(281) 528-9090",http://colinahomes.com/,,,postmaster@colinahomes.com
TX,HARRIS,21005655,"Single Family Homes",4/1/2021,,188827,,"13418 MERRYVILLE HARROGATE",HOUSTON,TX,77048,,,CONTRACTOR,,,,,,,,,,,"COLINA HOMES",,,,,"COLINA HOMES","1314 N DURHAM DR",HOUSTON,TX,77008-3734,"(281) 528-9090",http://colinahomes.com/,,,postmaster@colinahomes.com
TX,HARRIS,21002841,"Single Family Homes",4/1/2021,,188827,,"6510 CASTLE LOCH",HOUSTON,TX,77048,,,CONTRACTOR,,,,,,,,,,,"COLINA HOMES",,,,,"COLINA HOMES","1314 N DURHAM DR",HOUSTON,TX,77008-3734,"(281) 528-9090",http://colinahomes.com/,,,postmaster@colinahomes.com
TX,HARRIS,21002837,"Single Family Homes",4/5/2021,,188827,,"6513 MACROOM MEADOWS",HOUSTON,TX,77048,,,CONTRACTOR,,,,,,,,,,,"COLINA HOMES",,,,,"COLINA HOMES","1314 N DURHAM DR",HOUSTON,TX,77008-3734,"(281) 528-9090",http://colinahomes.com/,,,postmaster@colinahomes.com
TX,HARRIS,21002614,"Single Family Homes",4/1/2021,,188827,,"6521 CASTLE LOCH",HOUSTON,TX,77048,,,CONTRACTOR,,,,,,,,,,,"COLINA HOMES",,,,,"COLINA HOMES","1314 N DURHAM DR",HOUSTON,TX,77008-3734,"(281) 528-9090",http://colinahomes.com/,,,postmaster@colinahomes.com
TX,HARRIS,21002893,"Single Family Homes",4/5/2021,,188827,,"6526 CASTLE LOCH",HOUSTON,TX,77048,,,CONTRACTOR,,,,,,,,,,,"COLINA HOMES",,,,,"COLINA HOMES","1314 N DURHAM DR",HOUSTON,TX,77008-3734,"(281) 528-9090",http://colinahomes.com/,,,postmaster@colinahomes.com
TX,HARRIS,21002576,"Single Family Homes",4/5/2021,,188827,,"6538 CASTLE LOCH",HOUSTON,TX,77048,,,CONTRACTOR,,,,,,,,,,,"COLINA HOMES",,,,,"COLINA HOMES","1314 N DURHAM DR",HOUSTON,TX,77008-3734,"(281) 528-9090",http://colinahomes.com/,,,postmaster@colinahomes.com
TX,HARRIS,21002519,"Single Family Homes",4/1/2021,,112000,,"6546 CASTLE LOCH",HOUSTON,TX,77048,,,CONTRACTOR,,,,,,,,,,,"COLINA HOMES",,,,,"COLINA HOMES","1314 N DURHAM DR",HOUSTON,TX,77008-3734,"(281) 528-9090",http://colinahomes.com/,,,postmaster@colinahomes.com
TX,HARRIS,21005666,"Single Family Homes",4/1/2021,,188827,,"13408 MERRYVILLE HARROGATE",HOUSTON,TX,77048,,,CONTRACTOR,,,,,,,,,,,"COLINA HOMES",,,,,"COLINA HOMES","1314 N DURHAM DR",HOUSTON,TX,77008-3734,"(281) 528-9090",http://colinahomes.com/,,,postmaster@colinahomes.com
TX,HARRIS,21002514,"Single Family Homes",4/5/2021,,188827,,"6521 MACROOM MEADOWS",HOUSTON,TX,77048,,,CONTRACTOR,,,,,,,,,,,"COLINA HOMES",,,,,"COLINA HOMES","1314 N DURHAM DR",HOUSTON,TX,77008-3734,"(281) 528-9090",http://colinahomes.com/,,,postmaster@colinahomes.com
TX,HARRIS,21005677,"Single Family Homes",4/1/2021,,195556,,"13424 MERRYVILLE HARROGATE",HOUSTON,TX,77048,,,CONTRACTOR,,,,,,,,,,,"COLINA HOMES",,,,,"COLINA HOMES","1314 N DURHAM DR",HOUSTON,TX,77008-3734,"(281) 528-9090",http://colinahomes.com/,,,postmaster@colinahomes.com
TX,HARRIS,21002555,"Single Family Homes",4/1/2021,,195556,,"6509 MACROOM MEADOWS",HOUSTON,TX,77048,,,CONTRACTOR,,,,,,,,,,,"COLINA HOMES",,,,,"COLINA HOMES","1314 N DURHAM DR",HOUSTON,TX,77008-3734,"(281) 528-9090",http://colinahomes.com/,,,postmaster@colinahomes.com
TX,HARRIS,21002825,"Single Family Homes",4/1/2021,,195556,,"6512 CASTLE LOCH",HOUSTON,TX,77048,,,CONTRACTOR,,,,,,,,,,,"COLINA HOMES",,,,,"COLINA HOMES","1314 N DURHAM DR",HOUSTON,TX,77008-3734,"(281) 528-9090",http://colinahomes.com/,,,postmaster@colinahomes.com
TX,HARRIS,21002801,"Single Family Homes",4/1/2021,,195556,,"6517 MACROOM MEADOWS",HOUSTON,TX,77048,,,CONTRACTOR,,,,,,,,,,,"COLINA HOMES",,,,,"COLINA HOMES","1314 N DURHAM DR",HOUSTON,TX,77008-3734,"(281) 528-9090",http://colinahomes.com/,,,postmaster@colinahomes.com
TX,HARRIS,21002568,"Single Family Homes",4/1/2021,,195556,,"6520 CASTLE LOCH",HOUSTON,TX,77048,,,CONTRACTOR,,,,,,,,,,,"COLINA HOMES",,,,,"COLINA HOMES","1314 N DURHAM DR",HOUSTON,TX,77008-3734,"(281) 528-9090",http://colinahomes.com/,,,postmaster@colinahomes.com
TX,HARRIS,21002456,"Single Family Homes",4/5/2021,,195556,,"6527 MACROOM MEADOWS",HOUSTON,TX,77048,,,CONTRACTOR,,,,,,,,,,,"COLINA HOMES",,,,,"COLINA HOMES","1314 N DURHAM DR",HOUSTON,TX,77008-3734,"(281) 528-9090",http://colinahomes.com/,,,postmaster@colinahomes.com
TX,HARRIS,21016235,"Single Family Homes",4/5/2021,,195555,,"6503 GILLOCK MEADOW",HOUSTON,TX,77048,,,CONTRACTOR,,,,,,,,,,,"COLINA HOMES",,,,,"COLINA HOMES","1314 N DURHAM DR",HOUSTON,TX,77008-3734,"(281) 528-9090",http://colinahomes.com/,,,postmaster@colinahomes.com
TX,HARRIS,21003775,"Single Family Homes",4/1/2021,,195556,,"6518 GILLOCK MEADOW",HOUSTON,TX,77048,,,CONTRACTOR,,,,,,,,,,,"COLINA HOMES",,,,,"COLINA HOMES","1314 N DURHAM DR",HOUSTON,TX,77008-3734,"(281) 528-9090",http://colinahomes.com/,,,postmaster@colinahomes.com
TX,HARRIS,21002588,"Single Family Homes",4/1/2021,,195556,,"6519 CASTLE LOCH",HOUSTON,TX,77048,,,CONTRACTOR,,,,,,,,,,,"COLINA HOMES",,,,,"COLINA HOMES","1314 N DURHAM DR",HOUSTON,TX,77008-3734,"(281) 528-9090",http://colinahomes.com/,,,postmaster@colinahomes.com
TX,HARRIS,21002862,"Single Family Homes",4/1/2021,,195556,,"6528 CASTLE LOCH",HOUSTON,TX,77048,,,CONTRACTOR,,,,,,,,,,,"COLINA HOMES",,,,,"COLINA HOMES","1314 N DURHAM DR",HOUSTON,TX,77008-3734,"(281) 528-9090",http://colinahomes.com/,,,postmaster@colinahomes.com
TX,HARRIS,21002859,"Single Family Homes",4/1/2021,,195556,,"6542 CASTLE LOCH",HOUSTON,TX,77048,,,CONTRACTOR,,,,,,,,,,,"COLINA HOMES",,,,,"COLINA HOMES","1314 N DURHAM DR",HOUSTON,TX,77008-3734,"(281) 528-9090",http://colinahomes.com/,,,postmaster@colinahomes.com
TX,HARRIS,21005649,"Single Family Homes",4/1/2021,,201528,,"13414 MERRYVILLE HARROGATE",HOUSTON,TX,77048,,,CONTRACTOR,,,,,,,,,,,"COLINA HOMES",,,,,"COLINA HOMES","1314 N DURHAM DR",HOUSTON,TX,77008-3734,"(281) 528-9090",http://colinahomes.com/,,,postmaster@colinahomes.com
TX,HARRIS,21005674,"Single Family Homes",4/5/2021,,201528,,"13422 MERRYVILLE HARROGATE",HOUSTON,TX,77048,,,CONTRACTOR,,,,,,,,,,,"COLINA HOMES",,,,,"COLINA HOMES","1314 N DURHAM DR",HOUSTON,TX,77008-3734,"(281) 528-9090",http://colinahomes.com/,,,postmaster@colinahomes.com
TX,HARRIS,21004425,"Single Family Homes",4/5/2021,,201528,,"6512 GILLOCK MEADOW",HOUSTON,TX,77048,,,CONTRACTOR,,,,,,,,,,,"COLINA HOMES",,,,,"COLINA HOMES","1314 N DURHAM DR",HOUSTON,TX,77008-3734,"(281) 528-9090",http://colinahomes.com/,,,postmaster@colinahomes.com
TX,HARRIS,21002621,"Single Family Homes",4/1/2021,,201528,,"6513 CASTLE LOCH",HOUSTON,TX,77048,,,CONTRACTOR,,,,,,,,,,,"COLINA HOMES",,,,,"COLINA HOMES","1314 N DURHAM DR",HOUSTON,TX,77008-3734,"(281) 528-9090",http://colinahomes.com/,,,postmaster@colinahomes.com
TX,HARRIS,21002856,"Single Family Homes",4/5/2021,,201528,,"6514 CASTLE LOCH",HOUSTON,TX,77048,,,CONTRACTOR,,,,,,,,,,,"COLINA HOMES",,,,,"COLINA HOMES","1314 N DURHAM DR",HOUSTON,TX,77008-3734,"(281) 528-9090",http://colinahomes.com/,,,postmaster@colinahomes.com
TX,HARRIS,21002465,"Single Family Homes",4/1/2021,,201528,,"6539 MACROOM MEADOWS",HOUSTON,TX,77048,,,CONTRACTOR,,,,,,,,,,,"COLINA HOMES",,,,,"COLINA HOMES","1314 N DURHAM DR",HOUSTON,TX,77008-3734,"(281) 528-9090",http://colinahomes.com/,,,postmaster@colinahomes.com
TX,HARRIS,21002531,"Single Family Homes",4/1/2021,,201528,,"6541 CASTLE LOCH",HOUSTON,TX,77048,,,CONTRACTOR,,,,,,,,,,,"COLINA HOMES",,,,,"COLINA HOMES","1314 N DURHAM DR",HOUSTON,TX,77008-3734,"(281) 528-9090",http://colinahomes.com/,,,postmaster@colinahomes.com
TX,HARRIS,21002594,"Single Family Homes",4/1/2021,,201528,,"6525 CASTLE LOCH",HOUSTON,TX,77048,,,CONTRACTOR,,,,,,,,,,,"COLINA HOMES",,,,,"COLINA HOMES","1314 N DURHAM DR",HOUSTON,TX,77008-3734,"(281) 528-9090",http://colinahomes.com/,,,postmaster@colinahomes.com
TX,HARRIS,21002897,"Single Family Homes",4/1/2021,,201528,,"6548 CASTLE LOCH",HOUSTON,TX,77048,,,CONTRACTOR,,,,,,,,,,,"COLINA HOMES",,,,,"COLINA HOMES","1314 N DURHAM DR",HOUSTON,TX,77008-3734,"(281) 528-9090",http://colinahomes.com/,,,postmaster@colinahomes.com
TX,HARRIS,21023488,"Single Family Homes",4/5/2021,,188827,,"13426 MERRYVILLE HARROGATE",HOUSTON,TX,77048,,,CONTRACTOR,,,,,,,,,,,"COLINA HOMES",,,,,"COLINA HOMES","1314 N DURHAM DR",HOUSTON,TX,77008-3734,"(281) 528-9090",http://colinahomes.com/,,,postmaster@colinahomes.com
TX,HARRIS,21005646,"Single Family Homes",4/1/2021,,152744,,"13402 MERRYVILLE HARROGATE",HOUSTON,TX,77048,,,CONTRACTOR,,,,,,,,,,,"COLINA HOMES",,,,,"COLINA HOMES","1314 N DURHAM DR",HOUSTON,TX,77008-3734,"(281) 528-9090",http://colinahomes.com/,,,postmaster@colinahomes.com
TX,HARRIS,21018644,"Single Family Homes",4/5/2021,,172762,,"2919 PAINTED SUNRISE",HOUSTON,TX,77045,,,CONTRACTOR,,,,,,,,,,,"BRIGHTON HOMES & PARKWOOD",,,,,"BRIGHTON HOMES & PARKWOOD","13111 NORTHWEST FWY",HOUSTON,TX,77040-6318,"(713) 460-6279",,,,
TX,HARRIS,21021112,"Single Family Homes",4/5/2021,,167884,,"2810 STAR SKY",HOUSTON,TX,77045,,,CONTRACTOR,,,,,,,,,,,"BRIGHTON HOMES & PARKWOOD",,,,,"BRIGHTON HOMES & PARKWOOD","13111 NORTHWEST FWY",HOUSTON,TX,77040-6318,"(713) 460-6279",,,,
TX,HARRIS,21022284,"Single Family Homes",3/31/2021,,190509,,"7647 AIIDEN  RIDGE",HOUSTON,TX,77016,,,CONTRACTOR,,,,,,,,,,,"BRIGHTON HOMES & PARKWOOD",,,,,"BRIGHTON HOMES & PARKWOOD","13111 NORTHWEST FWY",HOUSTON,TX,77040-6318,"(713) 460-6279",,,,
TX,HARRIS,21014005,"Single Family Homes",4/5/2021,,246947,,"10743 ZACHARY COVE",HOUSTON,TX,77016,,,CONTRACTOR,,,,,,,,,,,"BRIGHTON HOMES & PARKWOOD",,,,,"BRIGHTON HOMES & PARKWOOD","13111 NORTHWEST FWY",HOUSTON,TX,77040-6318,"(713) 460-6279",,,,
TX,HARRIS,21007167,"Single Family Homes",4/1/2021,,513540,,"3818 DURNESS",HOUSTON,TX,77025,,,CONTRACTOR,,,,,,,,,,,"JACOB BUCKWALTER",,,,,"JACOB BUCKWALTER","9597 JONES RD",HOUSTON,TX,77065-4815,"(832) 272-8423",,,,
TX,HARRIS,20043158,"Single Family Homes",3/31/2021,,842560,,"219 GLENWOOD",HOUSTON,TX,77007,,,CONTRACTOR,,,,,,,,,,,"JACOB BUCKWALTER",,,,,"JACOB BUCKWALTER","9597 JONES RD",HOUSTON,TX,77065-4815,"(832) 272-8423",,,,
TX,HARRIS,21022676,"Single Family Homes",4/1/2021,,175990,,"827 COBALT CREST",HOUSTON,TX,77336,,,CONTRACTOR,,,,,,,,,,,"CENTURY COMMUNITIES",,,,,"CENTURY COMMUNITIES","4700 W SAM HOUSTON PKWY N STE 130",HOUSTON,TX,77041-8219,"(281) 741-8946",https://www.centurycommunities.com/,,,
TX,HARRIS,21022283,"Single Family Homes",3/31/2021,,198990,,"24707 OAKHEATH ARBOR",HOUSTON,TX,77336,,,CONTRACTOR,,,,,,,,,,,"CENTURY COMMUNITIES",,,,,"CENTURY COMMUNITIES","4700 W SAM HOUSTON PKWY N STE 130",HOUSTON,TX,77041-8219,"(281) 741-8946",https://www.centurycommunities.com/,,,
TX,HARRIS,21022675,"Single Family Homes",4/1/2021,,228990,,"807 CYPRESS SUMMIT",HOUSTON,TX,77336,,,CONTRACTOR,,,,,,,,,,,"CENTURY COMMUNITIES",,,,,"CENTURY COMMUNITIES","4700 W SAM HOUSTON PKWY N STE 130",HOUSTON,TX,77041-8219,"(281) 741-8946",https://www.centurycommunities.com/,,,
TX,HARRIS,21022678,"Single Family Homes",4/1/2021,,186990,,"823 COBALT CREST",HOUSTON,TX,77336,,,CONTRACTOR,,,,,,,,,,,"CENTURY COMMUNITIES",,,,,"CENTURY COMMUNITIES","4700 W SAM HOUSTON PKWY N STE 130",HOUSTON,TX,77041-8219,"(281) 741-8946",https://www.centurycommunities.com/,,,
TX,HARRIS,21022684,"Single Family Homes",4/1/2021,,189990,,"835 COBALT CREST",HOUSTON,TX,77336,,,CONTRACTOR,,,,,,,,,,,"CENTURY COMMUNITIES",,,,,"CENTURY COMMUNITIES","4700 W SAM HOUSTON PKWY N STE 130",HOUSTON,TX,77041-8219,"(281) 741-8946",https://www.centurycommunities.com/,,,
TX,HARRIS,21022685,"Single Family Homes",4/1/2021,,208990,,"903 COBALT CREST",HOUSTON,TX,77336,,,CONTRACTOR,,,,,,,,,,,"CENTURY COMMUNITIES",,,,,"CENTURY COMMUNITIES","4700 W SAM HOUSTON PKWY N STE 130",HOUSTON,TX,77041-8219,"(281) 741-8946",https://www.centurycommunities.com/,,,
TX,HARRIS,21022686,"Single Family Homes",4/1/2021,,220990,,"907 COBALT CREST",HOUSTON,TX,77336,,,CONTRACTOR,,,,,,,,,,,"CENTURY COMMUNITIES",,,,,"CENTURY COMMUNITIES","4700 W SAM HOUSTON PKWY N STE 130",HOUSTON,TX,77041-8219,"(281) 741-8946",https://www.centurycommunities.com/,,,
TX,HARRIS,21022287,"Single Family Homes",3/31/2021,,194990,,"24811 OAKHEATH ARBOR",HOUSTON,TX,77336,,,CONTRACTOR,,,,,,,,,,,"CENTURY COMMUNITIES",,,,,"CENTURY COMMUNITIES","4700 W SAM HOUSTON PKWY N STE 130",HOUSTON,TX,77041-8219,"(281) 741-8946",https://www.centurycommunities.com/,,,
TX,HARRIS,21017212,"Single Family Homes",4/5/2021,,132000,,"6331 PADDINGTON BEND",HOUSTON,TX,77008,,,CONTRACTOR,,,,,,,,,,,"CITY CHOICE GROUP",,,,,"CITY CHOICE GROUP","1314 ROY ST",HOUSTON,TX,77007-3343,"(713) 681-5858",http://citychoicehomes.com,,,
TX,HARRIS,21017213,"Single Family Homes",4/5/2021,,132000,,"6333 PADDINGTON BEND",HOUSTON,TX,77008,,,CONTRACTOR,,,,,,,,,,,"CITY CHOICE GROUP",,,,,"CITY CHOICE GROUP","1314 ROY ST",HOUSTON,TX,77007-3343,"(713) 681-5858",http://citychoicehomes.com,,,
TX,HARRIS,20114176,"Single Family Homes",4/5/2021,,131000,,"6351 PADDINGTON BEND",HOUSTON,TX,77008,,,CONTRACTOR,,,,,,,,,,,"CITY CHOICE GROUP",,,,,"CITY CHOICE GROUP","1314 ROY ST",HOUSTON,TX,77007-3343,"(713) 681-5858",http://citychoicehomes.com,,,
TX,HARRIS,20114174,"Single Family Homes",4/5/2021,,132000,,"6387 PADDINGTON BEND",HOUSTON,TX,77008,,,CONTRACTOR,,,,,,,,,,,"CITY CHOICE GROUP",,,,,"CITY CHOICE GROUP","1314 ROY ST",HOUSTON,TX,77007-3343,"(713) 681-5858",http://citychoicehomes.com,,,
TX,HARRIS,20114175,"Single Family Homes",4/5/2021,,132000,,"6389 PADDINGTON BEND",HOUSTON,TX,77008,,,CONTRACTOR,,,,,,,,,,,"CITY CHOICE GROUP",,,,,"CITY CHOICE GROUP","1314 ROY ST",HOUSTON,TX,77007-3343,"(713) 681-5858",http://citychoicehomes.com,,,
TX,HARRIS,20106176,"Single Family Homes",4/5/2021,,132000,,"6391 PADDINGTON BEND",HOUSTON,TX,77008,,,CONTRACTOR,,,,,,,,,,,"CITY CHOICE GROUP",,,,,"CITY CHOICE GROUP","1314 ROY ST",HOUSTON,TX,77007-3343,"(713) 681-5858",http://citychoicehomes.com,,,
TX,HARRIS,20114177,"Single Family Homes",4/5/2021,,186000,,"6353 PADDINGTON BEND",HOUSTON,TX,77008,,,CONTRACTOR,,,,,,,,,,,"CITY CHOICE GROUP",,,,,"CITY CHOICE GROUP","1314 ROY ST",HOUSTON,TX,77007-3343,"(713) 681-5858",http://citychoicehomes.com,,,
TX,HARRIS,20114133,"Single Family Homes",4/5/2021,,133000,,"6345 PADDINGTON BEND",HOUSTON,TX,77008,,,CONTRACTOR,,,,,,,,,,,"CITY CHOICE GROUP",,,,,"CITY CHOICE GROUP","1314 ROY ST",HOUSTON,TX,77007-3343,"(713) 681-5858",http://citychoicehomes.com,,,
TX,HARRIS,20078286,"Single Family Homes",3/30/2021,,195453,,"1809 OAKDALE",HOUSTON,TX,77004,,,CONTRACTOR,,,,,,,,,,,"COLONY BUILDERS",,,,,"COLONY BUILDERS","5802 WEST SAM HOUSTON NORTH PKY",HOUSTON,TX,77041,"(713) 272-6224",http://www.colonybuildersinc.com,,,
TX,HARRIS,21022665,"Single Family Homes",4/1/2021,,205990,,"719 CYPRESS SUMMIT",HOUSTON,TX,77336,,,CONTRACTOR,,,,,,,,,,,"CENTURY COMMUNITIES",,,,,"CENTURY COMMUNITIES","4700 W SAM HOUSTON PKWY N STE 130",HOUSTON,TX,77041-8219,"(281) 741-8946",https://www.centurycommunities.com/,,,
TX,HARRIS,21022688,"Single Family Homes",4/1/2021,,213990,,"711 CYPRESS SUMMIT",HOUSTON,TX,77336,,,CONTRACTOR,,,,,,,,,,,"CENTURY COMMUNITIES",,,,,"CENTURY COMMUNITIES","4700 W SAM HOUSTON PKWY N STE 130",HOUSTON,TX,77041-8219,"(281) 741-8946",https://www.centurycommunities.com/,,,
TX,HARRIS,21022674,"Single Family Homes",4/1/2021,,213990,,"803 CYPRESS SUMMIT",HOUSTON,TX,77336,,,CONTRACTOR,,,,,,,,,,,"CENTURY COMMUNITIES",,,,,"CENTURY COMMUNITIES","4700 W SAM HOUSTON PKWY N STE 130",HOUSTON,TX,77041-8219,"(281) 741-8946",https://www.centurycommunities.com/,,,
TX,HARRIS,21015377,"Single Family Homes",4/2/2021,,242990,,"3007 FENCHURCH ELM",HOUSTON,TX,77047,,,CONTRACTOR,,,,,,,,,,,"DR HORTON",,,,,"DR HORTON","14100 SOUTHWEST",HOUSTON,TX,77478,"(281) 201-5559",,,,
TX,HARRIS,21013808,"Single Family Homes",3/31/2021,,225990,,"3017 MAUGHAN HEIGHTS",HOUSTON,TX,77047,,,CONTRACTOR,,,,,,,,,,,"DR HORTON",,,,,"DR HORTON","14100 SOUTHWEST",HOUSTON,TX,77478,"(281) 201-5559",,,,
TX,HARRIS,21001530,"Single Family Homes",3/31/2021,,235990,,"3003 FENCHURCH ELM",HOUSTON,TX,77047,,,CONTRACTOR,,,,,,,,,,,"DR HORTON",,,,,"DR HORTON","14100 SOUTHWEST",HOUSTON,TX,77478,"(281) 201-5559",,,,
TX,HARRIS,21013800,"Single Family Homes",3/30/2021,,219990,,"12522 ABBEY HOUSE",HOUSTON,TX,77047,,,CONTRACTOR,,,,,,,,,,,"DR HORTON",,,,,"DR HORTON","14100 SOUTHWEST",HOUSTON,TX,77478,"(281) 201-5559",,,,
TX,HARRIS,21021485,"Single Family Homes",3/31/2021,,308000,,"3610 EATON ESTATES",HOUSTON,TX,77055,,,CONTRACTOR,,,,,,,,,,,"DARLING HOMES",,,,,"DARLING HOMES","2500 LEGACY DR STE 100",FRISCO,TX,75034-5984,"(469) 252-2200",http://www.darlinghomes.com/,,,
TX,HARRIS,20102676,"Single Family Homes",4/5/2021,,148350,,"4444 VICTORY DR",HOUSTON,TX,77088,,,CONTRACTOR,,,,,,,,,,,"ECHOSTATE SOLUTIONS",,,,,"ECHOSTATE SOLUTIONS","25807 WESTHEIMER PKWY",KATY,TX,77494,"(281) 665-3563",,,,
TX,HARRIS,20075411,"Single Family Homes",4/5/2021,,158440,,"7969 RAND",HOUSTON,TX,77028,,,"ENDERLE SOLUTIONS","101 HOLLOW TREE",HOUSTON,TX,77090,"(832) 851-8775",Applicant,,,,,OWNER,,,,,OWNER,,,,,,,,,
TX,HARRIS,21004337,"Single Family Homes",4/5/2021,,150000,,"4317 KOEHLER ST",HOUSTON,TX,77007,,,CONTRACTOR,,,,,,,,,,,"HOUSTON QUALITY BUILDERS",,,,,"HOUSTON QUALITY BUILDERS","2500 E T C JESTER BLVD",HOUSTON,TX,77008,"(281) 235-0616",,,"HUSEYIN FINCI",
TX,HARRIS,21019728,"Single Family Homes",3/31/2021,,249990,,"7606 NEVAEH CREST",HOUSTON,TX,77016,,,CONTRACTOR,,,,,,,,,,,"FIRST AMERICA HOMES",,,,,"FIRST AMERICA HOMES","1401 WOODLANDS PARKWAY","THE WOODLANDS",TX,77380-1179,"(713) 452-1700",https://www.firstamericahomes.com/,,,info@firstamericahomes.com
TX,HARRIS,21005049,"Single Family Homes",3/31/2021,,395604,,"1003 WAKEFIELD",HOUSTON,TX,77018,,,CONTRACTOR,,,,,,,,,,,"FISHER LANE BUILERS",,,,,"FISHER LANE BUILERS","3301 WHITE OAK DR",HOUSTON,TX,77007-2643,"(183) 254-3143",http://www.fisherlane.net/,,,fisherlanebuilders@yahoo.com
TX,HARRIS,20096917,"Single Family Homes",4/5/2021,,140000,,"4504 LA BRANCH",HOUSTON,TX,77004,,,CONTRACTOR,,,,,,,,,,,"ORACLE CITY HOMES",,,,,"ORACLE CITY HOMES","6502 ALDER DR",HOUSTON,TX,77081-4402,"(832) 649-5600",,,,
TX,HARRIS,20096905,"Single Family Homes",4/2/2021,,140000,,"4506 LA BRANCH",HOUSTON,TX,77004,,,CONTRACTOR,,,,,,,,,,,"ORACLE CITY HOMES",,,,,"ORACLE CITY HOMES","6502 ALDER DR",HOUSTON,TX,77081-4402,"(832) 649-5600",,,,
TX,HARRIS,20096901,"Single Family Homes",4/2/2021,,140000,,"4508 LA BRANCH",HOUSTON,TX,77004,,,CONTRACTOR,,,,,,,,,,,"ORACLE CITY HOMES",,,,,"ORACLE CITY HOMES","6502 ALDER DR",HOUSTON,TX,77081-4402,"(832) 649-5600",,,,
TX,HARRIS,21012745,"Single Family Homes",4/2/2021,,152000,,"3810 LYNNFIELD",HOUSTON,TX,77016,,,CONTRACTOR,,,,,,,,,,,"ASHLEY GRAYBILL",,,,,"ASHLEY GRAYBILL","14643 DALLAS PKWY STE",HOUSTON,TX,75254,"(469) 225-7633",,,,
TX,HARRIS,21016686,"Single Family Homes",4/5/2021,,152000,,"3013 BARBERRY",HOUSTON,TX,77051,,,CONTRACTOR,,,,,,,,,,,"ASHLEY GRAYBILL",,,,,"ASHLEY GRAYBILL","14643 DALLAS PKWY STE",HOUSTON,TX,75254,"(469) 225-7633",,,,
TX,HARRIS,21014465,"Single Family Homes",3/31/2021,,120000,,"6621 GREENHURST",HOUSTON,TX,77091,,,CONTRACTOR,,,,,,,,,,,"ASHLEY GRAYBILL",,,,,"ASHLEY GRAYBILL","14643 DALLAS PKWY STE",HOUSTON,TX,75254,"(469) 225-7633",,,,
TX,HARRIS,20010118,"Single Family Homes",3/31/2021,,214733,,"8602 EMNORA",HOUSTON,TX,77080,,,CONTRACTOR,,,,,,,,,,,"INTOWN HOMES",,,,,"INTOWN HOMES","1520 OLIVER ST",HOUSTON,TX,77007,"(713) 961-3877",http://www.intown-homes.com/,,,
TX,HARRIS,20106467,"Single Family Homes",3/31/2021,,143691,,"8111 JAMES FRANKLIN",HOUSTON,TX,77088,,,CONTRACTOR,,,,,,,,,,,"J G HOLLINS INVESTMENT",,,,,"J G HOLLINS INVESTMENT","4414 OLD YALE ST",HOUSTON,TX,77018-4506,"(713) 725-5548",,,,
TX,HARRIS,21010370,"Single Family Homes",4/2/2021,,184000,,"4430 ELMWOOD",HOUSTON,TX,77356,,,CONTRACTOR,,,,,,,,,,,"XCM CONSTRUCTION",,,,,"XCM CONSTRUCTION","2315 CIPPER WINDS WAY",HOUSTON,TX,77084,"(832) 340-6909",,,,
TX,HARRIS,20101491,"Single Family Homes",3/31/2021,,204425,,"4203 RUTLAND ST",HOUSTON,TX,77018,,,CONTRACTOR,,,,,,,,,,,"JST HOMES",,,,,"JST HOMES","1045 WAKEFIELD",HOUSTON,TX,77018,"(832) 878-1375",,,,
TX,HARRIS,20113458,"Single Family Homes",3/31/2021,,198000,,"12916 ZIVAH",HOUSTON,TX,77048,,,CONTRACTOR,,,,,,,,,,,"KB HOME",,,,,"KB HOME","11314 RICHMOND AVE",HOUSTON,TX,77082-2616,"(281) 668-3800",,,,
TX,HARRIS,21017539,"Single Family Homes",3/31/2021,,156000,,"2105 RED CEDAR RIDGE",HOUSTON,TX,77080,,,CONTRACTOR,,,,,,,,,,,"KB HOME",,,,,"KB HOME","11314 RICHMOND AVE",HOUSTON,TX,77082-2616,"(281) 668-3800",,,,
TX,HARRIS,21011562,"Single Family Homes",3/31/2021,,379000,,"2330 WYNDAM HEIGHTS",HOUSTON,TX,77077,,,CONTRACTOR,,,,,,,,,,,"KICKERILLO COMPANIES",,,,,"KICKERILLO COMPANIES","1306 SOUTH FRY BOULEVARD",HOUSTON,TX,77450-4372,"(713) 951-0666",http://kickerillo.com/,"(281) 492-2018",,
TX,HARRIS,20112768,"Single Family Homes",3/31/2021,,125000,,"733 E 40TH",HOUSTON,TX,77022,,,CONTRACTOR,,,,,,,,,,,"LAWRENCE BUILDERS",,,,,"LAWRENCE BUILDERS","3505 W SAM HOUSTON PKWY S",HOUSTON,TX,77042-2082,"(225) 806-7070",,,,
TX,HARRIS,21027379,"Single Family Homes",4/1/2021,,191000,,"11002 CANE OAK",HOUSTON,TX,77043,,,CONTRACTOR,,,,,,,,,,,"LEGEND HOMES",,,,,"LEGEND HOMES","10410 WINDAMERE LAKES BLVD",HOUSTON,TX,77065-4996,"(281) 671-9060",http://legendhomecorp.com/,"(281) 671-9055",,
TX,HARRIS,21027633,"Single Family Homes",4/5/2021,,190000,,"11015 CANE OAK",HOUSTON,TX,77043,,,CONTRACTOR,,,,,,,,,,,"LEGEND HOMES",,,,,"LEGEND HOMES","10410 WINDAMERE LAKES BLVD",HOUSTON,TX,77065-4996,"(281) 671-9060",http://legendhomecorp.com/,"(281) 671-9055",,
TX,HARRIS,21027035,"Single Family Homes",4/5/2021,,212000,,"11016 CANE OAK",HOUSTON,TX,77043,,,CONTRACTOR,,,,,,,,,,,"LEGEND HOMES",,,,,"LEGEND HOMES","10410 WINDAMERE LAKES BLVD",HOUSTON,TX,77065-4996,"(281) 671-9060",http://legendhomecorp.com/,"(281) 671-9055",,
TX,HARRIS,20084047,"Single Family Homes",4/2/2021,,155000,,"6013 CYPRESS",HOUSTON,TX,77074,,,CONTRACTOR,,,,,,,,,,,"LEGION CUSTOM HOMES",,,,,"LEGION CUSTOM HOMES","2500 SUMMER ST",HOUSTON,TX,77007,"(713) 444-0410",http://www.legionbuilder.com/,,,
TX,HARRIS,000076425,"Single Family Homes",3/17/2021,,125000,1943,"619 INDIANA ST","SOUTH HOUSTON",TX,77587,,,CONTRACTOR,,,,,,,,,,,"DSW HOMES",,,,,"DSW HOMES","502 E 20TH ST",HOUSTON,TX,77008-2665,"(832) 552-9687",http://www.dswhomes.com/,,,
TX,HARRIS,20084046,"Single Family Homes",4/2/2021,,155000,,"6015 CYPRESS",HOUSTON,TX,77074,,,CONTRACTOR,,,,,,,,,,,"LEGION CUSTOM HOMES",,,,,"LEGION CUSTOM HOMES","2500 SUMMER ST",HOUSTON,TX,77007,"(713) 444-0410",http://www.legionbuilder.com/,,,
TX,HARRIS,20084045,"Single Family Homes",4/2/2021,,155000,,"6017 CYPRESS",HOUSTON,TX,77074,,,CONTRACTOR,,,,,,,,,,,"LEGION CUSTOM HOMES",,,,,"LEGION CUSTOM HOMES","2500 SUMMER ST",HOUSTON,TX,77007,"(713) 444-0410",http://www.legionbuilder.com/,,,
TX,HARRIS,20084044,"Single Family Homes",4/2/2021,,155000,,"6019 CYPRESS",HOUSTON,TX,77074,,,CONTRACTOR,,,,,,,,,,,"LEGION CUSTOM HOMES",,,,,"LEGION CUSTOM HOMES","2500 SUMMER ST",HOUSTON,TX,77007,"(713) 444-0410",http://www.legionbuilder.com/,,,
TX,HARRIS,20084043,"Single Family Homes",4/2/2021,,155000,,"6021 CYPRESS",HOUSTON,TX,77074,,,CONTRACTOR,,,,,,,,,,,"LEGION CUSTOM HOMES",,,,,"LEGION CUSTOM HOMES","2500 SUMMER ST",HOUSTON,TX,77007,"(713) 444-0410",http://www.legionbuilder.com/,,,
TX,HARRIS,20084042,"Single Family Homes",4/2/2021,,155000,,"6023 CYPRESS",HOUSTON,TX,77074,,,CONTRACTOR,,,,,,,,,,,"LEGION CUSTOM HOMES",,,,,"LEGION CUSTOM HOMES","2500 SUMMER ST",HOUSTON,TX,77007,"(713) 444-0410",http://www.legionbuilder.com/,,,
TX,HARRIS,20084041,"Single Family Homes",4/2/2021,,155000,,"6027 CYPRESS",HOUSTON,TX,77074,,,CONTRACTOR,,,,,,,,,,,"LEGION CUSTOM HOMES",,,,,"LEGION CUSTOM HOMES","2500 SUMMER ST",HOUSTON,TX,77007,"(713) 444-0410",http://www.legionbuilder.com/,,,
TX,HARRIS,20084040,"Single Family Homes",4/2/2021,,155000,,"6029 CYPRESS",HOUSTON,TX,77074,,,CONTRACTOR,,,,,,,,,,,"LEGION CUSTOM HOMES",,,,,"LEGION CUSTOM HOMES","2500 SUMMER ST",HOUSTON,TX,77007,"(713) 444-0410",http://www.legionbuilder.com/,,,
TX,HARRIS,20084039,"Single Family Homes",4/2/2021,,155000,,"6031 CYPRESS",HOUSTON,TX,77074,,,CONTRACTOR,,,,,,,,,,,"LEGION CUSTOM HOMES",,,,,"LEGION CUSTOM HOMES","2500 SUMMER ST",HOUSTON,TX,77007,"(713) 444-0410",http://www.legionbuilder.com/,,,
TX,HARRIS,20084038,"Single Family Homes",4/2/2021,,155000,,"6033 CYPRESS",HOUSTON,TX,77074,,,CONTRACTOR,,,,,,,,,,,"LEGION CUSTOM HOMES",,,,,"LEGION CUSTOM HOMES","2500 SUMMER ST",HOUSTON,TX,77007,"(713) 444-0410",http://www.legionbuilder.com/,,,
TX,HARRIS,20084037,"Single Family Homes",4/2/2021,,155000,,"6035 CYPRESS",HOUSTON,TX,77074,,,CONTRACTOR,,,,,,,,,,,"LEGION CUSTOM HOMES",,,,,"LEGION CUSTOM HOMES","2500 SUMMER ST",HOUSTON,TX,77007,"(713) 444-0410",http://www.legionbuilder.com/,,,
TX,HARRIS,20084036,"Single Family Homes",4/2/2021,,155000,,"6037 CYPRESS",HOUSTON,TX,77074,,,CONTRACTOR,,,,,,,,,,,"LEGION CUSTOM HOMES",,,,,"LEGION CUSTOM HOMES","2500 SUMMER ST",HOUSTON,TX,77007,"(713) 444-0410",http://www.legionbuilder.com/,,,
TX,HARRIS,21021568,"Single Family Homes",4/5/2021,,258000,,"11026 MIKULA",HOUSTON,TX,77043,,,CONTRACTOR,,,,,,,,,,,"LENNAR HOMES",,,,,"LENNAR HOMES","550 GREENS PKWY",HOUSTON,TX,77067-4537,"(281) 875-1000",http://www.lennar.com/,,,
TX,HARRIS,21021474,"Single Family Homes",4/5/2021,,258000,,"1421 MAPLE STREAM",HOUSTON,TX,77043,,,CONTRACTOR,,,,,,,,,,,"LENNAR HOMES",,,,,"LENNAR HOMES","550 GREENS PKWY",HOUSTON,TX,77067-4537,"(281) 875-1000",http://www.lennar.com/,,,
TX,HARRIS,21020144,"Single Family Homes",3/31/2021,,337000,,"5822 SPLITTING WILLOW",HOUSTON,TX,77365,,,CONTRACTOR,,,,,,,,,,,"LENNAR HOMES",,,,,"LENNAR HOMES","550 GREENS PKWY",HOUSTON,TX,77067-4537,"(281) 875-1000",http://www.lennar.com/,,,
TX,HARRIS,21024608,"Single Family Homes",4/5/2021,,278000,,"9423 THORNBLUFF CREEK",HOUSTON,TX,77365,,,CONTRACTOR,,,,,,,,,,,"LENNAR HOMES",,,,,"LENNAR HOMES","550 GREENS PKWY",HOUSTON,TX,77067-4537,"(281) 875-1000",http://www.lennar.com/,,,
TX,HARRIS,21020134,"Single Family Homes",4/5/2021,,281000,,"9407 THORNBLUFF CREEK",HOUSTON,TX,77365,,,CONTRACTOR,,,,,,,,,,,"LENNAR HOMES",,,,,"LENNAR HOMES","550 GREENS PKWY",HOUSTON,TX,77067-4537,"(281) 875-1000",http://www.lennar.com/,,,
TX,HARRIS,21013442,"Single Family Homes",3/30/2021,,293000,,"9403 THORNBLUFF CREEK",HOUSTON,TX,77365,,,CONTRACTOR,,,,,,,,,,,"LENNAR HOMES",,,,,"LENNAR HOMES","550 GREENS PKWY",HOUSTON,TX,77067-4537,"(281) 875-1000",http://www.lennar.com/,,,
TX,HARRIS,21019574,"Single Family Homes",4/1/2021,,312000,,"9303 FAIRFIELD OAKS",HOUSTON,TX,77365,,,CONTRACTOR,,,,,,,,,,,"LENNAR HOMES",,,,,"LENNAR HOMES","550 GREENS PKWY",HOUSTON,TX,77067-4537,"(281) 875-1000",http://www.lennar.com/,,,
TX,HARRIS,21019473,"Single Family Homes",3/31/2021,,318000,,"5806 SPLITTING WILLOW",HOUSTON,TX,77365,,,CONTRACTOR,,,,,,,,,,,"LENNAR HOMES",,,,,"LENNAR HOMES","550 GREENS PKWY",HOUSTON,TX,77067-4537,"(281) 875-1000",http://www.lennar.com/,,,
TX,HARRIS,21008618,"Single Family Homes",3/30/2021,,263854,,"1524 BAGGETT",HOUSTON,TX,77055,,,CONTRACTOR,,,,,,,,,,,"LITTLE VERONICA",,,,,"LITTLE VERONICA","10023 WESTVIEW",HOUSTON,TX,77055,"(713) 861-1601",,,,
TX,HARRIS,21008619,"Single Family Homes",3/30/2021,,263854,,"1526 BAGGETT",HOUSTON,TX,77055,,,CONTRACTOR,,,,,,,,,,,"LITTLE VERONICA",,,,,"LITTLE VERONICA","10023 WESTVIEW",HOUSTON,TX,77055,"(713) 861-1601",,,,
TX,HARRIS,21008620,"Single Family Homes",3/30/2021,,257714,,"1528 BAGGETT",HOUSTON,TX,77055,,,CONTRACTOR,,,,,,,,,,,"LITTLE VERONICA",,,,,"LITTLE VERONICA","10023 WESTVIEW",HOUSTON,TX,77055,"(713) 861-1601",,,,
TX,HARRIS,21014385,"Single Family Homes",4/1/2021,,150535,,"9822 MAGNOLIA VILLAGE",HOUSTON,TX,77080,,,CONTRACTOR,,,,,,,,,,,"MERITAGE HOMES",,,,,"MERITAGE HOMES","2901 W SAM HOUSTON PKWY N",HOUSTON,TX,77043-1630,"(713) 357-1184",,,,
TX,HARRIS,21000670,"Single Family Homes",3/30/2021,,392200,,"1733 DU BARRY",HOUSTON,TX,77018,,,CONTRACTOR,,,,,,,,,,,"NEW OAK HOMES",,,,,"NEW OAK HOMES","16410 CYPRESS ROSEHILL RD",CYPRESS,TX,77429-1428,"(832) 717-9000",,,,
TX,HARRIS,21005150,"Single Family Homes",3/30/2021,,191808,,"2809 NAGLE",HOUSTON,TX,77004,,,CONTRACTOR,,,,,,,,,,,"ONYX LAND PARTNERS",,,,,"ONYX LAND PARTNERS","6807 WYNNWOOD",HOUSTON,TX,77008,"(281) 818-5609",,,,
TX,HARRIS,21005151,"Single Family Homes",3/30/2021,,191808,,"2807 NAGLE",HOUSTON,TX,77004,,,CONTRACTOR,,,,,,,,,,,"ONYX LAND PARTNERS",,,,,"ONYX LAND PARTNERS","6807 WYNNWOOD",HOUSTON,TX,77008,"(281) 818-5609",,,,
TX,HARRIS,20112405,"Single Family Homes",4/5/2021,,132000,,"6347 PADDINGTON BEND",HOUSTON,TX,77008,,,CONTRACTOR,,,,,,,,,,,"CITY CHOICE GROUP",,,,,"CITY CHOICE GROUP","1314 ROY ST",HOUSTON,TX,77007-3343,"(713) 681-5858",http://citychoicehomes.com,,,
TX,HARRIS,20112406,"Single Family Homes",4/5/2021,,132000,,"6349 PADDINGTON BEND",HOUSTON,TX,77008,,,CONTRACTOR,,,,,,,,,,,"CITY CHOICE GROUP",,,,,"CITY CHOICE GROUP","1314 ROY ST",HOUSTON,TX,77007-3343,"(713) 681-5858",http://citychoicehomes.com,,,
TX,HARRIS,20112403,"Single Family Homes",4/5/2021,,132000,,"6359 PADDINGTON BEND",HOUSTON,TX,77008,,,CONTRACTOR,,,,,,,,,,,"CITY CHOICE GROUP",,,,,"CITY CHOICE GROUP","1314 ROY ST",HOUSTON,TX,77007-3343,"(713) 681-5858",http://citychoicehomes.com,,,
TX,HARRIS,20112404,"Single Family Homes",4/5/2021,,132000,,"6361 PADDINGTON BEND",HOUSTON,TX,77008,,,CONTRACTOR,,,,,,,,,,,"CITY CHOICE GROUP",,,,,"CITY CHOICE GROUP","1314 ROY ST",HOUSTON,TX,77007-3343,"(713) 681-5858",http://citychoicehomes.com,,,
TX,HARRIS,20114155,"Single Family Homes",4/5/2021,,131000,,"6365 PADDINGTON BEND",HOUSTON,TX,77008,,,CONTRACTOR,,,,,,,,,,,"CITY CHOICE GROUP",,,,,"CITY CHOICE GROUP","1314 ROY ST",HOUSTON,TX,77007-3343,"(713) 681-5858",http://citychoicehomes.com,,,
TX,HARRIS,20114151,"Single Family Homes",4/5/2021,,132000,,"6375 PADDINGTON BEND",HOUSTON,TX,77008,,,CONTRACTOR,,,,,,,,,,,"CITY CHOICE GROUP",,,,,"CITY CHOICE GROUP","1314 ROY ST",HOUSTON,TX,77007-3343,"(713) 681-5858",http://citychoicehomes.com,,,
TX,HARRIS,20114152,"Single Family Homes",4/5/2021,,132000,,"6377 PADDINGTON BEND",HOUSTON,TX,77008,,,CONTRACTOR,,,,,,,,,,,"CITY CHOICE GROUP",,,,,"CITY CHOICE GROUP","1314 ROY ST",HOUSTON,TX,77007-3343,"(713) 681-5858",http://citychoicehomes.com,,,
TX,HARRIS,20114156,"Single Family Homes",4/5/2021,,163000,,"6367 PADDINGTON BEND",HOUSTON,TX,77008,,,CONTRACTOR,,,,,,,,,,,"CITY CHOICE GROUP",,,,,"CITY CHOICE GROUP","1314 ROY ST",HOUSTON,TX,77007-3343,"(713) 681-5858",http://citychoicehomes.com,,,
TX,HARRIS,20098565,"Single Family Homes",3/31/2021,,193545,,"2721 ROSALIE",HOUSTON,TX,77004,,,CONTRACTOR,,,,,,,,,,,"METRO LIVING STUDIO",,,,,"METRO LIVING STUDIO","9610 LONG POINT RD STE 220",HOUSTON,TX,77055,"(832) 742-9572",,,,
TX,HARRIS,20098564,"Single Family Homes",3/31/2021,,193545,,"2725 ROSALIE",HOUSTON,TX,77004,,,CONTRACTOR,,,,,,,,,,,"METRO LIVING STUDIO",,,,,"METRO LIVING STUDIO","9610 LONG POINT RD STE 220",HOUSTON,TX,77055,"(832) 742-9572",,,,
TX,HARRIS,20092165,"Single Family Homes",4/1/2021,,155000,,"8025 COLONIAL",HOUSTON,TX,777051,,,"QUEENSDRIVE INC","19207 JORDANS LANDING",HOUSTON,TX,77407,"(346) 404-2032",Applicant,,,,,OWNER,,,,,OWNER,,,,,,,,,
TX,HARRIS,21004414,"Single Family Homes",4/2/2021,,479040,,"1334 OMAR",HOUSTON,TX,77008,,,CONTRACTOR,,,,,,,,,,,"RIDGEWATER HOMES",,,,,"RIDGEWATER HOMES","401 STUDEWOOD ST",HOUSTON,TX,77007-2794,"(281) 898-1033",http://www.ridgewaterhomesinc.com/,,,
TX,HARRIS,20050747,"Single Family Homes",4/5/2021,,295000,,"4517 LILLIAN ST",HOUSTON,TX,77007,,,CONTRACTOR,,,,,,,,,,,"SANDCASTLE HOMES",,,,,"SANDCASTLE HOMES","1405 DURHAM DR",HOUSTON,TX,77007-3462,"(713) 864-9190",http://www.sandcastlehouston.com/,"(713) 864-9134","MIKE DISHBERGER",dishberger@sandcastlehouston.com
TX,HARRIS,21004589,"Single Family Homes",3/30/2021,,133263,,"3907 SHELBY",HOUSTON,TX,77051,,,CONTRACTOR,,,,,,,,,,,"ARA GROUP",,,,,"ARA GROUP","4022 BYTRAIL CT",HOUSTON,TX,77346,"(858) 666-5969",,,"ORTIZ SYLVIA",
TX,HARRIS,21003064,"Single Family Homes",3/30/2021,,211000,,"1954 PURSWELL",HOUSTON,TX,77055,,,"ANN TRAN","10703 VALLEY FORGE",HOUSTON,TX,77042,"(713) 701-9154",Applicant,,,,,OWNER,,,,,OWNER,,,,,,,,,
TX,HARRIS,20027975,"Single Family Homes",4/5/2021,,264442,,"2433 COMMERCE",HOUSTON,TX,77003,,,CONTRACTOR,,,,,,,,,,,"INTOWN HOMES",,,,,"INTOWN HOMES","1520 OLIVER ST",HOUSTON,TX,77007,"(713) 961-3877",http://www.intown-homes.com/,,,
TX,HARRIS,20035163,"Single Family Homes",4/5/2021,,242994,,"9 N SAINT CHARLES ST",HOUSTON,TX,77003,,,CONTRACTOR,,,,,,,,,,,"INTOWN HOMES",,,,,"INTOWN HOMES","1520 OLIVER ST",HOUSTON,TX,77007,"(713) 961-3877",http://www.intown-homes.com/,,,
TX,HARRIS,19147628,"Single Family Homes",4/2/2021,,234000,,"1216 W 21ST",HOUSTON,TX,77008,,,CONTRACTOR,,,,,,,,,,,"GREYWOLF PROPERTY MANAGEMENT",,,,,"GREYWOLF PROPERTY MANAGEMENT","11929 W AIRPORT BLVD",STAFFORD,TX,77477,"(832) 576-8615",,,,
TX,HARRIS,19147629,"Single Family Homes",4/2/2021,,234000,,"1218 W 21ST",HOUSTON,TX,77008,,,CONTRACTOR,,,,,,,,,,,"GREYWOLF PROPERTY MANAGEMENT",,,,,"GREYWOLF PROPERTY MANAGEMENT","11929 W AIRPORT BLVD",STAFFORD,TX,77477,"(832) 576-8615",,,,
TX,HARRIS,21021633,"Single Family Homes",4/5/2021,,372430,,"4014 DELTA ROSE",HOUSTON,TX,77018,,,CONTRACTOR,,,,,,,,,,,"MARIA VARGAS",,,,,"MARIA VARGAS","1311 BROADFIELD BLVD",HOUSTON,TX,77084-5186,"(281) 529-9127",,,,
TX,HARRIS,21016128,"Single Family Homes",3/30/2021,,398420,,"3411 OVIDS ORCHARD",HOUSTON,TX,77054,,,CONTRACTOR,,,,,,,,,,,"MARIA VARGAS",,,,,"MARIA VARGAS","1311 BROADFIELD BLVD",HOUSTON,TX,77084-5186,"(281) 529-9127",,,,
TX,HARRIS,21013661,"Single Family Homes",3/31/2021,,215000,,"10703 FORBES BROOK",HOUSTON,TX,77075,,,CONTRACTOR,,,,,,,,,,,"MARIA VARGAS",,,,,"MARIA VARGAS","1311 BROADFIELD BLVD",HOUSTON,TX,77084-5186,"(281) 529-9127",,,,
TX,HARRIS,21016113,"Single Family Homes",4/5/2021,,203000,,"10810 BATON BIRCH",HOUSTON,TX,77075,,,CONTRACTOR,,,,,,,,,,,"MARIA VARGAS",,,,,"MARIA VARGAS","1311 BROADFIELD BLVD",HOUSTON,TX,77084-5186,"(281) 529-9127",,,,
TX,HARRIS,21016115,"Single Family Homes",4/5/2021,,193690,,"10814 BATON BIRCH",HOUSTON,TX,77075,,,CONTRACTOR,,,,,,,,,,,"MARIA VARGAS",,,,,"MARIA VARGAS","1311 BROADFIELD BLVD",HOUSTON,TX,77084-5186,"(281) 529-9127",,,,
TX,HARRIS,21013042,"Single Family Homes",3/30/2021,,220170,,"7022 FORBES RUN",HOUSTON,TX,77075,,,CONTRACTOR,,,,,,,,,,,"MARIA VARGAS",,,,,"MARIA VARGAS","1311 BROADFIELD BLVD",HOUSTON,TX,77084-5186,"(281) 529-9127",,,,
TX,HARRIS,21016112,"Single Family Homes",4/5/2021,,222170,,"10806 BATON BIRCH",HOUSTON,TX,77075,,,CONTRACTOR,,,,,,,,,,,"MARIA VARGAS",,,,,"MARIA VARGAS","1311 BROADFIELD BLVD",HOUSTON,TX,77084-5186,"(281) 529-9127",,,,
TX,HARRIS,21013044,"Single Family Homes",4/1/2021,,234060,,"10819 BATON BIRCH",HOUSTON,TX,77075,,,CONTRACTOR,,,,,,,,,,,"MARIA VARGAS",,,,,"MARIA VARGAS","1311 BROADFIELD BLVD",HOUSTON,TX,77084-5186,"(281) 529-9127",,,,
TX,HARRIS,21012148,"Single Family Homes",4/5/2021,,206860,,"10823 BATON BIRCH",HOUSTON,TX,77075,,,CONTRACTOR,,,,,,,,,,,"MARIA VARGAS",,,,,"MARIA VARGAS","1311 BROADFIELD BLVD",HOUSTON,TX,77084-5186,"(281) 529-9127",,,,
TX,HARRIS,21012149,"Single Family Homes",4/5/2021,,241050,,"10827 BATON BIRCH",HOUSTON,TX,77075,,,CONTRACTOR,,,,,,,,,,,"MARIA VARGAS",,,,,"MARIA VARGAS","1311 BROADFIELD BLVD",HOUSTON,TX,77084-5186,"(281) 529-9127",,,,
TX,HARRIS,21016107,"Single Family Homes",4/5/2021,,208400,,"6907 HOBBY BROOK",HOUSTON,TX,77075,,,CONTRACTOR,,,,,,,,,,,"MARIA VARGAS",,,,,"MARIA VARGAS","1311 BROADFIELD BLVD",HOUSTON,TX,77084-5186,"(281) 529-9127",,,,
TX,HARRIS,21013655,"Single Family Homes",4/5/2021,,217450,,"6915 HOBBY BROOK",HOUSTON,TX,77075,,,CONTRACTOR,,,,,,,,,,,"MARIA VARGAS",,,,,"MARIA VARGAS","1311 BROADFIELD BLVD",HOUSTON,TX,77084-5186,"(281) 529-9127",,,,
TX,HARRIS,21012167,"Single Family Homes",4/5/2021,,267200,,"7042 FORBES RUN",HOUSTON,TX,77075,,,CONTRACTOR,,,,,,,,,,,"MARIA VARGAS",,,,,"MARIA VARGAS","1311 BROADFIELD BLVD",HOUSTON,TX,77084-5186,"(281) 529-9127",,,,
TX,HARRIS,21023208,"Single Family Homes",3/31/2021,,333840,,"1723 SUMMERLYN TERRACE",HOUSTON,TX,77080,,,CONTRACTOR,,,,,,,,,,,"MARIA VARGAS",,,,,"MARIA VARGAS","1311 BROADFIELD BLVD",HOUSTON,TX,77084-5186,"(281) 529-9127",,,,
TX,HARRIS,20114157,"Single Family Homes",4/5/2021,,131000,,"6393 PADDINGTON BEND",HOUSTON,TX,77008,,,CONTRACTOR,,,,,,,,,,,"ANNE YANKOVICH",,,,,"ANNE YANKOVICH","2260 HOLCOMBE BLVD",HOUSTON,TX,77030-4224,"(713) 927-3219",,,,
TX,HARRIS,20114158,"Single Family Homes",4/5/2021,,163000,,"6395 PADDINGTON BEND",HOUSTON,TX,77008,,,CONTRACTOR,,,,,,,,,,,"ANNE YANKOVICH",,,,,"ANNE YANKOVICH","2260 HOLCOMBE BLVD",HOUSTON,TX,77030-4224,"(713) 927-3219",,,,
TX,HARRIS,20114154,"Single Family Homes",4/5/2021,,131000,,"6371 PADDINGTON BEND",HOUSTON,TX,77008,,,CONTRACTOR,,,,,,,,,,,"ANNE YANKOVICH",,,,,"ANNE YANKOVICH","2260 HOLCOMBE BLVD",HOUSTON,TX,77030-4224,"(713) 927-3219",,,,
TX,HARRIS,20114153,"Single Family Homes",4/5/2021,,163000,,"6369 PADDINGTON BEND",HOUSTON,TX,77008,,,CONTRACTOR,,,,,,,,,,,"ANNE YANKOVICH",,,,,"ANNE YANKOVICH","2260 HOLCOMBE BLVD",HOUSTON,TX,77030-4224,"(713) 927-3219",,,,
TX,HARRIS,21018297,"Single Family Homes",4/2/2021,,193941,,"1258 HOPPER",HOUSTON,TX,77037,,,"DELEON CYNTHIA  ANN","1258 HOPPER",HOUSTON,TX,77037,,Owner,,,,,"STEPHANIE DAVIDSON",,,,,"STEPHANIE DAVIDSON","ONE RIVERWAY STE 1700",HOUSTON,TX,77062,"(409) 370-9362",,,,
TX,HARRIS,19147630,"Single Family Homes",4/2/2021,,234000,,"1220 W 21ST",HOUSTON,TX,77008,,,"EMRE MUSTAFA","1220 W 21ST",HOUSTON,TX,77008,,Owner,,,,,"GREYWOLF PROPERTY MANAGEMENT",,,,,"GREYWOLF PROPERTY MANAGEMENT","11929 W AIRPORT BLVD",STAFFORD,TX,77477,"(832) 576-8615",,,,
TX,HARRIS,21010184,"Single Family Homes",3/30/2021,,187900,,"6625 AVENUE",HOUSTON,TX,77011,,,"FEDERICO FLORES","6625 AVENUE",HOUSTON,TX,77011,,Owner,,,,,"SARAH KADASH",,,,,"SARAH KADASH","9597 JONES RD",HOUSTON,TX,77065,"(281) 802-9615",,,,
TX,HARRIS,20118816,"Single Family Homes",4/1/2021,,241500,,"7409 DENISON",HOUSTON,TX,77020,,,"MARTIN HERNANDEZ","7409 DENISON",HOUSTON,TX,77020,,Owner,,,,,OWNER,,,,,OWNER,,,,,,,,,
TX,HARRIS,20111194,"Single Family Homes",3/31/2021,,170000,,"8018 SUNNYHILL",HOUSTON,TX,77088,,,"ENRIQUE NAVA","8018 SUNNYHILL",HOUSTON,TX,77088,,Owner,,,,,"MRUGESH R PARIKH",,,,,"MRUGESH R PARIKH","2802 TRAILRIDGE",HOUSTON,TX,77459,"(832) 512-6079",,,,
TX,HARRIS,20111193,"Single Family Homes",3/31/2021,,170000,,"8022 SUNNYHILL",HOUSTON,TX,77088,,,"ENRIQUE NAVA","8022 SUNNYHILL",HOUSTON,TX,77088,,Owner,,,,,"MRUGESH R PARIKH",,,,,"MRUGESH R PARIKH","2802 TRAILRIDGE",HOUSTON,TX,77459,"(832) 512-6079",,,,
TX,HARRIS,20111192,"Single Family Homes",3/31/2021,,170000,,"8024 SUNNYHILL",HOUSTON,TX,77088,,,"ENRIQUE NAVA","8024 SUNNYHILL",HOUSTON,TX,77088,,Owner,,,,,"MRUGESH R PARIKH",,,,,"MRUGESH R PARIKH","2802 TRAILRIDGE",HOUSTON,TX,77459,"(832) 512-6079",,,,
TX,HARRIS,20111191,"Single Family Homes",3/31/2021,,170000,,"8026 SUNNYHILL",HOUSTON,TX,77088,,,"ENRIQUE NAVA","8026 SUNNYHILL",HOUSTON,TX,77088,,Owner,,,,,"MRUGESH R PARIKH",,,,,"MRUGESH R PARIKH","2802 TRAILRIDGE",HOUSTON,TX,77459,"(832) 512-6079",,,,
TX,HARRIS,20111190,"Single Family Homes",3/31/2021,,170000,,"8028 SUNNYHILL",HOUSTON,TX,77088,,,"ENRIQUE NAVA","8028 SUNNYHILL",HOUSTON,TX,77088,,Owner,,,,,"MRUGESH R PARIKH",,,,,"MRUGESH R PARIKH","2802 TRAILRIDGE",HOUSTON,TX,77459,"(832) 512-6079",,,,
TX,HARRIS,20111189,"Single Family Homes",3/31/2021,,170000,,"8030 SUNNYHILL",HOUSTON,TX,77088,,,"ENRIQUE NAVA","8030 SUNNYHILL",HOUSTON,TX,77088,,Owner,,,,,"MRUGESH R PARIKH",,,,,"MRUGESH R PARIKH","2802 TRAILRIDGE",HOUSTON,TX,77459,"(832) 512-6079",,,,
TX,HARRIS,21003899,"Single Family Homes",4/1/2021,,875000,,"3906 CHILDRESS",HOUSTON,TX,77005,,,"LY NGUYEN","3906 CHILDRESS",HOUSTON,TX,77005,,Owner,,,,,"BENJAMIN PERRY",,,,,"BENJAMIN PERRY","701 SHEPHERD DR STE",HOUSTON,TX,77007,"(210) 392-5868",,,,BP@collaborativedesignworks.com
TX,HARRIS,20116953,"Single Family Homes",3/30/2021,,193942,,"6306 SANDRA",HOUSTON,TX,77028,,,"NORRIS CAMELLA","6306 SANDRA",HOUSTON,TX,77028,,Owner,,,,,"STEPHANIE DAVIDSON",,,,,"STEPHANIE DAVIDSON","ONE RIVERWAY STE 1700",HOUSTON,TX,77062,"(409) 370-9362",,,,
TX,HARRIS,21002107,"Single Family Homes",4/5/2021,,123600,,"2345 LIDSTONE",HOUSTON,TX,77023,,,"PEDRO ORTUNO","2345 LIDSTONE",HOUSTON,TX,77023,"(409) 515-7950",Owner,,,,,OWNER,,,,,OWNER,,,,,,,,,
TX,HARRIS,20075804,"Single Family Homes",4/2/2021,,178668,,"6441 DE PRIEST",HOUSTON,TX,77091,,,"JENNIFER ROMAN","6441 DE PRIEST",HOUSTON,TX,77091,,Owner,,,,,OWNER,,,,,OWNER,,,,,,,,,
TX,HARRIS,18094169,"Single Family Homes",3/30/2021,,150000,,"112 SYLVESTER",HOUSTON,TX,77009,,,"SANTOS GERARDO","112 SYLVESTER",HOUSTON,TX,77009,,Owner,,,,,OWNER,,,,,OWNER,,,,,,,,,
TX,HARRIS,21010064,"Single Family Homes",3/31/2021,,151734,,"3230 BERRY",HOUSTON,TX,77004,,,"HARRY SMITH","3230 BERRY",HOUSTON,TX,77004,"(713) 202-6420",Owner,,,,,OWNER,,,,,OWNER,,,,,,,,,
TX,HARRIS,21017702,"Single Family Homes",4/2/2021,,193942,,"8835 RICHLAND",HOUSTON,TX,77078,,,"DARRELL THOMPSON","8835 RICHLAND",HOUSTON,TX,77078,,Owner,,,,,"STEPHANIE DAVIDSON",,,,,"STEPHANIE DAVIDSON","ONE RIVERWAY STE 1700",HOUSTON,TX,77062,"(409) 370-9362",,,,
TX,HARRIS,20114065,"Single Family Homes",3/30/2021,,120000,,"3126 BERAN",HOUSTON,TX,77045,,,"PRINCELLA VALENTINE","3126 BERAN",HOUSTON,TX,77045,,Owner,,,,,"DSW HOMES",,,,,"DSW HOMES","502 E 20TH ST",HOUSTON,TX,77008-2665,"(832) 552-9687",http://www.dswhomes.com/,,,
TX,HARRIS,21006520,"Single Family Homes",3/31/2021,,236800,,"4017 WOODSHIRE",HOUSTON,TX,77025,,,"PHILLIP WILTSHIRE","4017 WOODSHIRE",HOUSTON,TX,77025,,Owner,,,,,OWNER,,,,,OWNER,,,,,,,,,
TX,HARRIS,2103030132,"Single Family Homes",3/16/2021,,587500,5137,"15506 WILDERNESS RUN RD",HOUSTON,TX,77356,"BRIDGELAND PARKLAND VILLAGE",,CONTRACTOR,,,,,,,,,,,"NEWMARK HOMES",,,,,"NEWMARK HOMES","10455 BRIAR FOREST SUITE 200",HOUSTON,TX,77042,"(713) 346-0200",,"(713) 346-0226",,
TX,HARRIS,2103030140,"Single Family Homes",3/16/2021,,568291,4867,"15503 WILDERNESS RUN DR",HOUSTON,TX,77356,"BRIDGELAND PARKLAND VILLAGE",,CONTRACTOR,,,,,,,,,,,"NEWMARK HOMES",,,,,"NEWMARK HOMES","10455 BRIAR FOREST SUITE 200",HOUSTON,TX,77042,"(713) 346-0200",,"(713) 346-0226",,
TX,HARRIS,2103050024,"Single Family Homes",3/16/2021,,162525,2955,"402 BARREN OAK LN",HOUSTON,TX,77356,"PECAN ESTATES",,CONTRACTOR,,,,,,,,,,,"CASTLEROCK COMMUNITIES",,,,,"CASTLEROCK COMMUNITIES","7670 WOODWAY DR STE 300",HOUSTON,TX,77063-1520,"(713) 600-7000",http://c-rock.com,"(713) 600-0000",,
TX,HARRIS,2103030100,"Single Family Homes",3/16/2021,,153000,2360,"14722 WILLOW DRIFT LN",HOUSTON,TX,77356,"CYPRESS CREEK LANDING",,CONTRACTOR,,,,,,,,,,,"KB HOME",,,,,"KB HOME","11314 RICHMOND AVE",HOUSTON,TX,77082-2616,"(281) 668-3800",,,,
TX,HARRIS,2103030103,"Single Family Homes",3/16/2021,,137000,2109,"618 ASH MILL DR",HOUSTON,TX,77356,"TIMBER CROSSING",,CONTRACTOR,,,,,,,,,,,"KB HOME",,,,,"KB HOME","11314 RICHMOND AVE",HOUSTON,TX,77082-2616,"(281) 668-3800",,,,
TX,HARRIS,2103030106,"Single Family Homes",3/16/2021,,128000,1962,"17331 ROCK WILLOW LN",HOUSTON,TX,77356,"WILLOW WOOD PLACE",,CONTRACTOR,,,,,,,,,,,"KB HOME",,,,,"KB HOME","11314 RICHMOND AVE",HOUSTON,TX,77082-2616,"(281) 668-3800",,,,
TX,HARRIS,2103030109,"Single Family Homes",3/16/2021,,151000,2325,"17330 ROCK WILLOW LN",HOUSTON,TX,77356,"WILLOW WOOD PLACE",,CONTRACTOR,,,,,,,,,,,"KB HOME",,,,,"KB HOME","11314 RICHMOND AVE",HOUSTON,TX,77082-2616,"(281) 668-3800",,,,
TX,HARRIS,2103030112,"Single Family Homes",3/16/2021,,173000,2655,"17346 ROCK WILLOW LN",HOUSTON,TX,77356,"WILLOW WOOD PLACE",,CONTRACTOR,,,,,,,,,,,"KB HOME",,,,,"KB HOME","11314 RICHMOND AVE",HOUSTON,TX,77082-2616,"(281) 668-3800",,,,
TX,HARRIS,2103030114,"Single Family Homes",3/16/2021,,128000,1962,"17318 ROCK WILLOW LN",HOUSTON,TX,77356,"WILLOW WOOD PLACE",,CONTRACTOR,,,,,,,,,,,"KB HOME",,,,,"KB HOME","11314 RICHMOND AVE",HOUSTON,TX,77082-2616,"(281) 668-3800",,,,
TX,HARRIS,2103030117,"Single Family Homes",3/16/2021,,113000,1737,"17334 ROCK WILLOW LN",HOUSTON,TX,77356,"WILLOW WOOD PLACE",,CONTRACTOR,,,,,,,,,,,"KB HOME",,,,,"KB HOME","11314 RICHMOND AVE",HOUSTON,TX,77082-2616,"(281) 668-3800",,,,
TX,HARRIS,2103050031,"Single Family Homes",3/16/2021,,223890,2263,"11623 BRAEMAR VILLAGE DR",HOUSTON,TX,77356,"BRAEMAR VILLAGE",,CONTRACTOR,,,,,,,,,,,"PULTE HOMES",,,,,"PULTE HOMES","16670 PARK ROW",HOUSTON,TX,77084-6866,"(281) 749-8000",,,,
TX,HARRIS,2102250015,"Single Family Homes",3/16/2021,,194719,1231,"119 FM 1942 RD",HOUSTON,TX,77356,"DREAMLAND PLACE",,"WANDA HAWKINS","119 FM 1942 RD",HOUSTON,TX,77356,,Owner,,,,,OWNER,,,,,OWNER,,,,,,,,,
TX,HARRIS,2103050034,"Single Family Homes",3/16/2021,,230780,2420,"11619 BRAEMAR VILLAGE DR",HOUSTON,TX,77356,"BRAEMAR VILLAGE",,CONTRACTOR,,,,,,,,,,,"PULTE HOMES",,,,,"PULTE HOMES","16670 PARK ROW",HOUSTON,TX,77084-6866,"(281) 749-8000",,,,
TX,HARRIS,2103050037,"Single Family Homes",3/16/2021,,272560,2986,"5842 PROVIDENCE SPRINGS TRL",HOUSTON,TX,77356,,,CONTRACTOR,,,,,,,,,,,"PULTE HOMES",,,,,"PULTE HOMES","16670 PARK ROW",HOUSTON,TX,77084-6866,"(281) 749-8000",,,,
TX,HARRIS,2103050088,"Single Family Homes",3/16/2021,,127765,2323,"419 ALMOND WILLOW LN",HOUSTON,TX,77356,,,CONTRACTOR,,,,,,,,,,,"CASTLEROCK COMMUNITIES",,,,,"CASTLEROCK COMMUNITIES","7670 WOODWAY DR STE 300",HOUSTON,TX,77063-1520,"(713) 600-7000",http://c-rock.com,"(713) 600-0000",,
TX,HARRIS,2103050106,"Single Family Homes",3/16/2021,,147350,2837,"24918 FLINT LAKE DR",HOUSTON,TX,77356,"LAKES AT CREEKSIDE ",,CONTRACTOR,,,,,,,,,,,"TOLL BROTHERS",,,,,"TOLL BROTHERS","10110 W SAM HOUSTON PKWY N STE 350",HOUSTON,TX,77064-7508,"(281) 664-7255",,,,
TX,HARRIS,2103050110,"Single Family Homes",3/16/2021,,120615,2193,"507 ALMOND WILLOW LN",HOUSTON,TX,77356,"PECAN ESTATES",,CONTRACTOR,,,,,,,,,,,"CASTLEROCK COMMUNITIES",,,,,"CASTLEROCK COMMUNITIES","7670 WOODWAY DR STE 300",HOUSTON,TX,77063-1520,"(713) 600-7000",http://c-rock.com,"(713) 600-0000",,
TX,HARRIS,2011100082,"Single Family Homes",3/16/2021,,300309,,"11810 TARA PLANTATION DR",HOUSTON,TX,77356,"TWELVE OAKS",,"OIB CAPTIAL LLC","11810 TARA PLANTATION DR",HOUSTON,TX,77356,,Owner,,,,,OWNER,,,,,OWNER,,,,,,,,,
TX,HARRIS,2103050137,"Single Family Homes",3/16/2021,,145100,2792,"24907 LILY HALL CT",HOUSTON,TX,77356,"LAKES AT CREEKSIDE ",,CONTRACTOR,,,,,,,,,,,"TOLL BROTHERS",,,,,"TOLL BROTHERS","10110 W SAM HOUSTON PKWY N STE 350",HOUSTON,TX,77064-7508,"(281) 664-7255",,,,
TX,HARRIS,2101150013,"Single Family Homes",3/16/2021,,250000,2262,"21232 ROSEHILL CHURCH RD",HOUSTON,TX,77356,"ROSEHILL RANCHES",,"ASHLEY PHILLIPS & SCOTTY HUGHLETT","21232 ROSEHILL CHURCH RD",HOUSTON,TX,77356,,Owner,,,,,OWNER,,,,,OWNER,,,,,,,,,
TX,HARRIS,2102260029,"Single Family Homes",3/16/2021,,251000,3916,"12431 TULLICH RUN DR",HOUSTON,TX,77356,BALMORAL,,CONTRACTOR,,,,,,,,,,,"WESTIN HOMES",,,,,"WESTIN HOMES","1 SUGAR CREEK CENTER BLVD STE 600","SUGAR LAND",TX,77478-3787,"(281) 240-1551",http://www.westin-homes.com,,,
TX,HARRIS,2103010103,"Single Family Homes",3/16/2021,,178785,3973,"6402 CASH OAKS DR",HOUSTON,TX,77356,"WIMBLEDON CHAMPIONS ESTATES",,CONTRACTOR,,,,,,,,,,,"DR HORTON",,,,,"DR HORTON","14100 SOUTHWEST",HOUSTON,TX,77478,"(281) 201-5559",,,,
TX,HARRIS,2103010129,"Single Family Homes",3/16/2021,,199350,4430,"6403 CASH OAKS DR",HOUSTON,TX,77356,"WIMBLEDON CHAMPIONS ESTATES",,CONTRACTOR,,,,,,,,,,,"DR HORTON",,,,,"DR HORTON","14100 SOUTHWEST",HOUSTON,TX,77478,"(281) 201-5559",,,,
TX,HARRIS,2102030156,"Single Family Homes",3/16/2021,,82560,2752,"16010 DEDICATION DR",HOUSTON,TX,77356,"BRIDGELAND PARKLAND VILLAGE",,CONTRACTOR,,,,,,,,,,,"DAVID WEEKLEY HOMES",,,,,"DAVID WEEKLEY HOMES","14444 NORTHWEST",HOUSTON,TX,77040,"(713) 570-5021",http://www.davidweekleyhomes.com/,,,
TX,HARRIS,2103020084,"Single Family Homes",3/16/2021,,122845,2497,"2703 DUSTIN PLACE CT",HOUSTON,TX,77356,"ATASCOCITA TRACE",,CONTRACTOR,,,,,,,,,,,"ANGLIA HOMES",,,,,"ANGLIA HOMES","17510 RED OAK DR",HOUSTON,TX,77090,"(281) 943-5288",http://www.angliahomeslp.com/,,,
TX,HARRIS,2103020092,"Single Family Homes",3/16/2021,,111820,2009,"2606 DUSTIN PLACE CT",HOUSTON,TX,77356,"ATASCOCITA TRACE",,CONTRACTOR,,,,,,,,,,,"ANGLIA HOMES",,,,,"ANGLIA HOMES","17510 RED OAK DR",HOUSTON,TX,77090,"(281) 943-5288",http://www.angliahomeslp.com/,,,
TX,HARRIS,2103020095,"Single Family Homes",3/16/2021,,119170,2333,"2718 DUSTIN PLACE CT",HOUSTON,TX,77356,"ATASCOCITA TRACE",,CONTRACTOR,,,,,,,,,,,"ANGLIA HOMES",,,,,"ANGLIA HOMES","17510 RED OAK DR",HOUSTON,TX,77090,"(281) 943-5288",http://www.angliahomeslp.com/,,,
TX,HARRIS,2011180017,"Single Family Homes",3/16/2021,,70345,2269,"18515 PARKLAND SQUARE PL",HOUSTON,TX,77356,"BRIDGELAND PARKLAND VILLAGE",,CONTRACTOR,,,,,,,,,,,"DAVID WEEKLEY HOMES",,,,,"DAVID WEEKLEY HOMES","14444 NORTHWEST",HOUSTON,TX,77040,"(713) 570-5021",http://www.davidweekleyhomes.com/,,,
TX,HARRIS,2101190109,"Single Family Homes",3/16/2021,,127710,4257,"15254 SANDSTONE OUTCROP DR",HOUSTON,TX,77356,"BRIDGELAND PARKLAND VILLAGE",,CONTRACTOR,,,,,,,,,,,"DAVID WEEKLEY HOMES",,,,,"DAVID WEEKLEY HOMES","14444 NORTHWEST",HOUSTON,TX,77040,"(713) 570-5021",http://www.davidweekleyhomes.com/,,,
TX,HARRIS,2103030065,"Single Family Homes",3/16/2021,,128000,1962,"17406 GULF WILLOW CT",HOUSTON,TX,77356,"WILLOW WOOD PLACE",,CONTRACTOR,,,,,,,,,,,"KB HOME",,,,,"KB HOME","11314 RICHMOND AVE",HOUSTON,TX,77082-2616,"(281) 668-3800",,,,
TX,HARRIS,2103030059,"Single Family Homes",3/16/2021,,199000,3062,"17410 GULF WILLOW CT",HOUSTON,TX,77356,"WILLOW WOOD PLACE",,CONTRACTOR,,,,,,,,,,,"KB HOME",,,,,"KB HOME","11314 RICHMOND AVE",HOUSTON,TX,77082-2616,"(281) 668-3800",,,,
TX,HARRIS,2103030056,"Single Family Homes",3/16/2021,,113000,1737,"17414 GULF WILLOW CT",HOUSTON,TX,77356,"WILLOW WOOD PLACE",,CONTRACTOR,,,,,,,,,,,"KB HOME",,,,,"KB HOME","11314 RICHMOND AVE",HOUSTON,TX,77082-2616,"(281) 668-3800",,,,
TX,HARRIS,2103030052,"Single Family Homes",3/16/2021,,113000,1737,"17347 ROCK WILLOW LN",HOUSTON,TX,77356,"WILLOW WOOD PLACE",,CONTRACTOR,,,,,,,,,,,"KB HOME",,,,,"KB HOME","11314 RICHMOND AVE",HOUSTON,TX,77082-2616,"(281) 668-3800",,,,
TX,HARRIS,2103030051,"Single Family Homes",3/16/2021,,151000,2325,"17407 GULF WILLOW CT",HOUSTON,TX,77356,"WILLOW WOOD PLACE",,CONTRACTOR,,,,,,,,,,,"KB HOME",,,,,"KB HOME","11314 RICHMOND AVE",HOUSTON,TX,77082-2616,"(281) 668-3800",,,,
TX,HARRIS,2103030050,"Single Family Homes",3/17/2021,,128000,1962,"17342 ROCK WILLOW LN",HOUSTON,TX,77356,"WILLOW WOOD PLACE",,CONTRACTOR,,,,,,,,,,,"KB HOME",,,,,"KB HOME","11314 RICHMOND AVE",HOUSTON,TX,77082-2616,"(281) 668-3800",,,,
TX,HARRIS,2103030045,"Single Family Homes",3/16/2021,,173000,2655,"17334 TEXAS WILLOW DR",HOUSTON,TX,77356,"WILLOW WOOD PLACE",,CONTRACTOR,,,,,,,,,,,"KB HOME",,,,,"KB HOME","11314 RICHMOND AVE",HOUSTON,TX,77082-2616,"(281) 668-3800",,,,
TX,HARRIS,2103030043,"Single Family Homes",3/16/2021,,113000,1737,"17350 TEXAS WILLOW DR",HOUSTON,TX,77356,"WILLOW WOOD PLACE",,CONTRACTOR,,,,,,,,,,,"KB HOME",,,,,"KB HOME","11314 RICHMOND AVE",HOUSTON,TX,77082-2616,"(281) 668-3800",,,,
TX,HARRIS,2103030041,"Single Family Homes",3/16/2021,,128000,1962,"17326 TEXAS WILLOW DR",HOUSTON,TX,77356,"WILLOW WOOD PLACE",,CONTRACTOR,,,,,,,,,,,"KB HOME",,,,,"KB HOME","11314 RICHMOND AVE",HOUSTON,TX,77082-2616,"(281) 668-3800",,,,
TX,HARRIS,2103030038,"Single Family Homes",3/16/2021,,128000,1962,"17339 ROCK WILLOW LN",HOUSTON,TX,77356,"WILLOW WOOD PLACE",,CONTRACTOR,,,,,,,,,,,"KB HOME",,,,,"KB HOME","11314 RICHMOND AVE",HOUSTON,TX,77082-2616,"(281) 668-3800",,,,
TX,HARRIS,2103030031,"Single Family Homes",3/16/2021,,128000,1962,"17330 TEXAS WILLOW DR",HOUSTON,TX,77356,"WILLOW WOOD PLACE",,CONTRACTOR,,,,,,,,,,,"KB HOME",,,,,"KB HOME","11314 RICHMOND AVE",HOUSTON,TX,77082-2616,"(281) 668-3800",,,,
TX,HARRIS,2103030028,"Single Family Homes",3/16/2021,,128000,1962,"17350 ROCK WILLOW LN",HOUSTON,TX,77356,"WILLOW WOOD PLACE",,CONTRACTOR,,,,,,,,,,,"KB HOME",,,,,"KB HOME","11314 RICHMOND AVE",HOUSTON,TX,77082-2616,"(281) 668-3800",,,,
TX,HARRIS,2103030020,"Single Family Homes",3/16/2021,,165000,2540,"17355 ROCK WILLOW LN",HOUSTON,TX,77356,"WILLOW WOOD PLACE",,CONTRACTOR,,,,,,,,,,,"KB HOME",,,,,"KB HOME","11314 RICHMOND AVE",HOUSTON,TX,77082-2616,"(281) 668-3800",,,,
TX,HARRIS,2103030018,"Single Family Homes",3/16/2021,,173000,2655,"17322 ROCK WILLOW LN",HOUSTON,TX,77356,"WILLOW WOOD PLACE",,CONTRACTOR,,,,,,,,,,,"KB HOME",,,,,"KB HOME","11314 RICHMOND AVE",HOUSTON,TX,77082-2616,"(281) 668-3800",,,,
TX,HARRIS,2102030198,"Single Family Homes",3/16/2021,,91920,3064,"19303 SPILLWAY OVERLOOK CT",HOUSTON,TX,77356,"BRIDGELAND PARKLAND VILLAGE",,CONTRACTOR,,,,,,,,,,,"DAVID WEEKLEY HOMES",,,,,"DAVID WEEKLEY HOMES","14444 NORTHWEST",HOUSTON,TX,77040,"(713) 570-5021",http://www.davidweekleyhomes.com/,,,
TX,HARRIS,2101140137,"Single Family Homes",3/16/2021,,84630,2821,"19618 UPPER CANYON CT",HOUSTON,TX,77356,"BRIDGELAND PARKLAND VILLAGE",,CONTRACTOR,,,,,,,,,,,"DAVID WEEKLEY HOMES",,,,,"DAVID WEEKLEY HOMES","14444 NORTHWEST",HOUSTON,TX,77040,"(713) 570-5021",http://www.davidweekleyhomes.com/,,,
TX,HARRIS,2009280101,"Single Family Homes",3/16/2021,,98560,2816,"19738 LAKE THEO CT",HOUSTON,TX,77356,"BRIDGELAND PARKLAND VILLAGE",,CONTRACTOR,,,,,,,,,,,"DAVID WEEKLEY HOMES",,,,,"DAVID WEEKLEY HOMES","14444 NORTHWEST",HOUSTON,TX,77040,"(713) 570-5021",http://www.davidweekleyhomes.com/,,,
TX,HARRIS,2103040084,"Single Family Homes",3/16/2021,,267902,2288,"9114 ESKESEN DR",HOUSTON,TX,77356,"BRIDGE CREEK",,CONTRACTOR,,,,,,,,,,,"TAYLOR MORRISON OF TEXAS",,,,,"TAYLOR MORRISON OF TEXAS","5353 W SAM HOUSTON PKWY N STE 190",HOUSTON,TX,77041-5186,"(281) 598-3000",,,,
TX,HARRIS,2102260106,"Single Family Homes",3/16/2021,,166530,2562,"24011 SHUMARD GROVE LN",HOUSTON,TX,77356,"BECKER MEADOWS",,CONTRACTOR,,,,,,,,,,,"LENNAR HOMES",,,,,"LENNAR HOMES","550 GREENS PKWY",HOUSTON,TX,77067-4537,"(281) 875-1000",http://www.lennar.com/,,,
TX,HARRIS,2103010085,"Single Family Homes",3/16/2021,,189995,2923,"19011 WHISTLING DUCK DR",HOUSTON,TX,77356,"BRIDGELAND PARKLAND VILLAGE",,CONTRACTOR,,,,,,,,,,,"LENNAR HOMES",,,,,"LENNAR HOMES","550 GREENS PKWY",HOUSTON,TX,77067-4537,"(281) 875-1000",http://www.lennar.com/,,,
TX,HARRIS,2103010086,"Single Family Homes",3/16/2021,,171340,2636,"31410 STOCKTON HOLLOW CIR",HOUSTON,TX,77356,DELLROSE,,CONTRACTOR,,,,,,,,,,,"LENNAR HOMES",,,,,"LENNAR HOMES","550 GREENS PKWY",HOUSTON,TX,77067-4537,"(281) 875-1000",http://www.lennar.com/,,,
TX,HARRIS,2012070088,"Single Family Homes",3/16/2021,,100310,2866,"19703 LAKE THEO CT",HOUSTON,TX,77356,"BRIDGELAND PARKLAND VILLAGE",,CONTRACTOR,,,,,,,,,,,"DAVID WEEKLEY HOMES",,,,,"DAVID WEEKLEY HOMES","14444 NORTHWEST",HOUSTON,TX,77040,"(713) 570-5021",http://www.davidweekleyhomes.com/,,,
TX,HARRIS,2103020057,"Single Family Homes",3/16/2021,,114792,2145,"20711 NALA BEAR DR",HOUSTON,TX,77356,"BAUER LANDING",,CONTRACTOR,,,,,,,,,,,"LGI HOMES",,,,,"LGI HOMES","1450 LAKE ROBBINS SUITE 430",CONROE,TX,77380,"(210) 563-4648",,"(281) 210-2601",,
TX,HARRIS,2103020060,"Single Family Homes",3/16/2021,,143115,3106,"20715 NALA BEAR DR",HOUSTON,TX,77356,"BAUER LANDING",,CONTRACTOR,,,,,,,,,,,"LGI HOMES",,,,,"LGI HOMES","1450 LAKE ROBBINS SUITE 430",CONROE,TX,77380,"(210) 563-4648",,"(281) 210-2601",,
TX,HARRIS,2103020068,"Single Family Homes",3/16/2021,,100508,1826,"20719 NALA BEAR DR",HOUSTON,TX,77356,"BAUER LANDING",,CONTRACTOR,,,,,,,,,,,"LGI HOMES",,,,,"LGI HOMES","1450 LAKE ROBBINS SUITE 430",CONROE,TX,77380,"(210) 563-4648",,"(281) 210-2601",,
TX,HARRIS,2103020070,"Single Family Homes",3/16/2021,,130642,2722,"20723 NALA BEAR DR",HOUSTON,TX,77356,"BAUER LANDING",,CONTRACTOR,,,,,,,,,,,"LGI HOMES",,,,,"LGI HOMES","1450 LAKE ROBBINS SUITE 430",CONROE,TX,77380,"(210) 563-4648",,"(281) 210-2601",,
TX,HARRIS,2103020071,"Single Family Homes",3/16/2021,,113738,2262,"20727 NALA BEAR DR",HOUSTON,TX,77356,"BAUER LANDING",,CONTRACTOR,,,,,,,,,,,"LGI HOMES",,,,,"LGI HOMES","1450 LAKE ROBBINS SUITE 430",CONROE,TX,77380,"(210) 563-4648",,"(281) 210-2601",,
TX,HARRIS,2103020074,"Single Family Homes",3/16/2021,,143115,3106,"20731 NALA BEAR DR",HOUSTON,TX,77356,"BAUER LANDING",,CONTRACTOR,,,,,,,,,,,"LGI HOMES",,,,,"LGI HOMES","1450 LAKE ROBBINS SUITE 430",CONROE,TX,77380,"(210) 563-4648",,"(281) 210-2601",,
TX,HARRIS,2103020077,"Single Family Homes",3/16/2021,,114792,2145,"20735 NALA BEAR DR",HOUSTON,TX,77356,"BAUER LANDING",,CONTRACTOR,,,,,,,,,,,"LGI HOMES",,,,,"LGI HOMES","1450 LAKE ROBBINS SUITE 430",CONROE,TX,77380,"(210) 563-4648",,"(281) 210-2601",,
TX,HARRIS,2103020078,"Single Family Homes",3/16/2021,,113738,2262,"20739 NALA BEAR DR",HOUSTON,TX,77356,"BAUER LANDING",,CONTRACTOR,,,,,,,,,,,"LGI HOMES",,,,,"LGI HOMES","1450 LAKE ROBBINS SUITE 430",CONROE,TX,77380,"(210) 563-4648",,"(281) 210-2601",,
TX,HARRIS,2102260073,"Single Family Homes",3/16/2021,,80000,3238,"3334 ETRING LN",HOUSTON,TX,77356,"MORTON CREEK RANCH",,CONTRACTOR,,,,,,,,,,,"LONG LAKE HOMES",,,,,"LONG LAKE HOMES","15915 KATY FWY STE 405",HOUSTON,TX,77094-1710,"(281) 646-1727",http://www.longlakeltd.com/,,"DAVID BIGLER",
TX,HARRIS,2102260077,"Single Family Homes",3/16/2021,,102000,4071,"19003 BENE VISTA DR",HOUSTON,TX,77356,"GRAND OAKS",,CONTRACTOR,,,,,,,,,,,"LONG LAKE HOMES",,,,,"LONG LAKE HOMES","15915 KATY FWY STE 405",HOUSTON,TX,77094-1710,"(281) 646-1727",http://www.longlakeltd.com/,,"DAVID BIGLER",
TX,HARRIS,2102260079,"Single Family Homes",3/16/2021,,100000,4000,"19011 BENE VISTA DR",HOUSTON,TX,77356,"GRAND OAKS",,CONTRACTOR,,,,,,,,,,,"LONG LAKE HOMES",,,,,"LONG LAKE HOMES","15915 KATY FWY STE 405",HOUSTON,TX,77094-1710,"(281) 646-1727",http://www.longlakeltd.com/,,"DAVID BIGLER",
TX,HARRIS,2102260081,"Single Family Homes",3/16/2021,,75000,3243,"14647 LARK SKY WAY",HOUSTON,TX,77356,"TELGE RANCH",,CONTRACTOR,,,,,,,,,,,"LONG LAKE HOMES",,,,,"LONG LAKE HOMES","15915 KATY FWY STE 405",HOUSTON,TX,77094-1710,"(281) 646-1727",http://www.longlakeltd.com/,,"DAVID BIGLER",
TX,HARRIS,2102260090,"Single Family Homes",3/16/2021,,101000,4423,"20518 ENRIQUE DR",HOUSTON,TX,77356,"WESTFIELD RANCH",,CONTRACTOR,,,,,,,,,,,"LONG LAKE HOMES",,,,,"LONG LAKE HOMES","15915 KATY FWY STE 405",HOUSTON,TX,77094-1710,"(281) 646-1727",http://www.longlakeltd.com/,,"DAVID BIGLER",
TX,HARRIS,2102260100,"Single Family Homes",3/16/2021,,65000,2796,"1039 STEEL BLUE DR",HOUSTON,TX,77356,"REMINGTON CREEK RANCH",,CONTRACTOR,,,,,,,,,,,"LONG LAKE HOMES",,,,,"LONG LAKE HOMES","15915 KATY FWY STE 405",HOUSTON,TX,77094-1710,"(281) 646-1727",http://www.longlakeltd.com/,,"DAVID BIGLER",
TX,HARRIS,2103020026,"Single Family Homes",3/16/2021,,65000,2446,"18611 APPLETREE RIDGE RD",HOUSTON,TX,77356,"GRAND OAKS",,CONTRACTOR,,,,,,,,,,,"LONG LAKE HOMES",,,,,"LONG LAKE HOMES","15915 KATY FWY STE 405",HOUSTON,TX,77094-1710,"(281) 646-1727",http://www.longlakeltd.com/,,"DAVID BIGLER",
TX,HARRIS,2103020033,"Single Family Homes",3/16/2021,,80000,3186,"15211 MONAL TRIE DR",HOUSTON,TX,77356,BALMORAL,,CONTRACTOR,,,,,,,,,,,"LONG LAKE HOMES",,,,,"LONG LAKE HOMES","15915 KATY FWY STE 405",HOUSTON,TX,77094-1710,"(281) 646-1727",http://www.longlakeltd.com/,,"DAVID BIGLER",
TX,HARRIS,2103020036,"Single Family Homes",3/16/2021,,80000,3238,"12610 BARCLAY TERRACE DR",HOUSTON,TX,77356,BALMORAL,,CONTRACTOR,,,,,,,,,,,"LONG LAKE HOMES",,,,,"LONG LAKE HOMES","15915 KATY FWY STE 405",HOUSTON,TX,77094-1710,"(281) 646-1727",http://www.longlakeltd.com/,,"DAVID BIGLER",
TX,HARRIS,2103030007,"Single Family Homes",3/16/2021,,72000,2872,"24518 EUCALYPTUS WAY",HOUSTON,TX,77356,"BRADBURY FOREST",,CONTRACTOR,,,,,,,,,,,"LONG LAKE HOMES",,,,,"LONG LAKE HOMES","15915 KATY FWY STE 405",HOUSTON,TX,77094-1710,"(281) 646-1727",http://www.longlakeltd.com/,,"DAVID BIGLER",
TX,HARRIS,2103030092,"Single Family Homes",3/16/2021,,237760,2851,"23835 THISTLE SPUD LN",HOUSTON,TX,77356,WINDROW,,CONTRACTOR,,,,,,,,,,,"PULTE HOMES",,,,,"PULTE HOMES","16670 PARK ROW",HOUSTON,TX,77084-6866,"(281) 749-8000",,,,
TX,HARRIS,2102250143,"Single Family Homes",3/16/2021,,171930,3126,"17710 JOLLY BOAT DR",HOUSTON,TX,77356,NEWPORT,,CONTRACTOR,,,,,,,,,,,"CASTLEROCK COMMUNITIES",,,,,"CASTLEROCK COMMUNITIES","7670 WOODWAY DR STE 300",HOUSTON,TX,77063-1520,"(713) 600-7000",http://c-rock.com,"(713) 600-0000",,
TX,HARRIS,2103020031,"Single Family Homes",3/16/2021,,113000,1737,"17342 TEXAS WILLOW DR",HOUSTON,TX,77356,"WILLOW WOOD PLACE",,CONTRACTOR,,,,,,,,,,,"KB HOME",,,,,"KB HOME","11314 RICHMOND AVE",HOUSTON,TX,77082-2616,"(281) 668-3800",,,,
TX,HARRIS,2103020035,"Single Family Homes",3/16/2021,,151000,2325,"17343 ROCK WILLOW LN",HOUSTON,TX,77356,"WILLOW WOOD PLACE",,CONTRACTOR,,,,,,,,,,,"KB HOME",,,,,"KB HOME","11314 RICHMOND AVE",HOUSTON,TX,77082-2616,"(281) 668-3800",,,,
TX,HARRIS,2103020037,"Single Family Homes",3/16/2021,,173000,2655,"12114 BLOOMING WILLOW DR",HOUSTON,TX,77356,"WILLOW WOOD PLACE",,CONTRACTOR,,,,,,,,,,,"KB HOME",,,,,"KB HOME","11314 RICHMOND AVE",HOUSTON,TX,77082-2616,"(281) 668-3800",,,,
TX,HARRIS,2103020038,"Single Family Homes",3/16/2021,,199000,3062,"17338 ROCK WILLOW LN",HOUSTON,TX,77356,"WILLOW WOOD PLACE",,CONTRACTOR,,,,,,,,,,,"KB HOME",,,,,"KB HOME","11314 RICHMOND AVE",HOUSTON,TX,77082-2616,"(281) 668-3800",,,,
TX,HARRIS,2103020040,"Single Family Homes",3/16/2021,,199000,3062,"17422 GULF WILLOW CT",HOUSTON,TX,77356,"WILLOW WOOD PLACE",,CONTRACTOR,,,,,,,,,,,"KB HOME",,,,,"KB HOME","11314 RICHMOND AVE",HOUSTON,TX,77082-2616,"(281) 668-3800",,,,
TX,HARRIS,2103020042,"Single Family Homes",3/16/2021,,173000,2655,"17338 TEXAS WILLOW DR",HOUSTON,TX,77356,"WILLOW WOOD PLACE",,CONTRACTOR,,,,,,,,,,,"KB HOME",,,,,"KB HOME","11314 RICHMOND AVE",HOUSTON,TX,77082-2616,"(281) 668-3800",,,,
TX,HARRIS,2103020069,"Single Family Homes",3/16/2021,,128000,1962,"17351 ROCK WILLOW LN",HOUSTON,TX,77356,"WILLOW WOOD PLACE",,CONTRACTOR,,,,,,,,,,,"KB HOME",,,,,"KB HOME","11314 RICHMOND AVE",HOUSTON,TX,77082-2616,"(281) 668-3800",,,,
TX,HARRIS,2103020076,"Single Family Homes",3/16/2021,,199000,3062,"17354 ROCK WILLOW LN",HOUSTON,TX,77356,"WILLOW WOOD PLACE",,CONTRACTOR,,,,,,,,,,,"KB HOME",,,,,"KB HOME","11314 RICHMOND AVE",HOUSTON,TX,77082-2616,"(281) 668-3800",,,,
TX,HARRIS,2103020115,"Single Family Homes",3/16/2021,,199000,3062,"17346 TEXAS WILLOW DR",HOUSTON,TX,77356,"WILLOW WOOD PLACE",,CONTRACTOR,,,,,,,,,,,"KB HOME",,,,,"KB HOME","11314 RICHMOND AVE",HOUSTON,TX,77082-2616,"(281) 668-3800",,,,
TX,HARRIS,2103020118,"Single Family Homes",3/16/2021,,199000,3062,"17326 ROCK WILLOW LN",HOUSTON,TX,77356,"WILLOW WOOD PLACE",,CONTRACTOR,,,,,,,,,,,"KB HOME",,,,,"KB HOME","11314 RICHMOND AVE",HOUSTON,TX,77082-2616,"(281) 668-3800",,,,
TX,HARRIS,2103020119,"Single Family Homes",3/16/2021,,173000,2655,"17354 TEXAS WILLOW DR",HOUSTON,TX,77356,"WILLOW WOOD PLACE",,CONTRACTOR,,,,,,,,,,,"KB HOME",,,,,"KB HOME","11314 RICHMOND AVE",HOUSTON,TX,77082-2616,"(281) 668-3800",,,,
TX,HARRIS,2101290154,"Single Family Homes",3/16/2021,,127920,2132,"12806 FIRBRAE DR",HOUSTON,TX,77356,BALMORAL,,CONTRACTOR,,,,,,,,,,,"ASHTON WOODS HOMES",,,,,"ASHTON WOODS HOMES","10110 W SAM HOUSTON PKWY N",HOUSTON,TX,77064-7508,"(832) 478-9028",,,,
TX,HARRIS,2103030135,"Single Family Homes",3/16/2021,,231830,2317,"23826 SEEDED MEADOW CT",HOUSTON,TX,77356,WINDROW,,CONTRACTOR,,,,,,,,,,,"PULTE HOMES",,,,,"PULTE HOMES","16670 PARK ROW",HOUSTON,TX,77084-6866,"(281) 749-8000",,,,
TX,HARRIS,2102190081,"Single Family Homes",3/16/2021,,148620,2477,"31403 STOCKTON HOLLOW CIR",HOUSTON,TX,77356,DELLROSE,,CONTRACTOR,,,,,,,,,,,"ASHTON WOODS HOMES",,,,,"ASHTON WOODS HOMES","10110 W SAM HOUSTON PKWY N",HOUSTON,TX,77064-7508,"(832) 478-9028",,,,
TX,HARRIS,2102230113,"Single Family Homes",3/16/2021,,137580,2293,"15630 BELTIE DR",HOUSTON,TX,77356,BALMORAL,,CONTRACTOR,,,,,,,,,,,"ASHTON WOODS HOMES",,,,,"ASHTON WOODS HOMES","10110 W SAM HOUSTON PKWY N",HOUSTON,TX,77064-7508,"(832) 478-9028",,,,
TX,HARRIS,2103020101,"Single Family Homes",3/16/2021,,125470,2505,"1323 GREEN HIGHLAND DR",HOUSTON,TX,77356,"HIGHLAND GLEN",,CONTRACTOR,,,,,,,,,,,"ANGLIA HOMES",,,,,"ANGLIA HOMES","17510 RED OAK DR",HOUSTON,TX,77090,"(281) 943-5288",http://www.angliahomeslp.com/,,,
TX,HARRIS,2103020106,"Single Family Homes",3/16/2021,,140170,3508,"1315 GREEN HIGHLAND DR",HOUSTON,TX,77356,"HIGHLAND GLEN",,CONTRACTOR,,,,,,,,,,,"ANGLIA HOMES",,,,,"ANGLIA HOMES","17510 RED OAK DR",HOUSTON,TX,77090,"(281) 943-5288",http://www.angliahomeslp.com/,,,
TX,HARRIS,2103020111,"Single Family Homes",3/16/2021,,129145,2571,"1311 GREEN HIGHLAND DR",HOUSTON,TX,77356,"HIGHLAND GLEN",,CONTRACTOR,,,,,,,,,,,"ANGLIA HOMES",,,,,"ANGLIA HOMES","17510 RED OAK DR",HOUSTON,TX,77090,"(281) 943-5288",http://www.angliahomeslp.com/,,,
TX,HARRIS,2103020113,"Single Family Homes",3/16/2021,,112870,2087,"1303 GREEN HIGHLAND DR",HOUSTON,TX,77356,"HIGHLAND GLEN",,CONTRACTOR,,,,,,,,,,,"ANGLIA HOMES",,,,,"ANGLIA HOMES","17510 RED OAK DR",HOUSTON,TX,77090,"(281) 943-5288",http://www.angliahomeslp.com/,,,
TX,HARRIS,2103030098,"Single Family Homes",3/16/2021,,92200,2305,"20323 NOBLE ARABIAN DR",HOUSTON,TX,77356,AMIRA,,CONTRACTOR,,,,,,,,,,,"BEAZER HOMES ",,,,,"BEAZER HOMES ","10235 W LITTLE YORK",HOUSTON,TX,77040,"(713) 849-2252",http://www.beazer.com/,,,
TX,HARRIS,2103030102,"Single Family Homes",3/16/2021,,126280,3157,"19031 PASO FINO PRAIRIE LN",HOUSTON,TX,77356,AMIRA,,CONTRACTOR,,,,,,,,,,,"BEAZER HOMES ",,,,,"BEAZER HOMES ","10235 W LITTLE YORK",HOUSTON,TX,77040,"(713) 849-2252",http://www.beazer.com/,,,
TX,HARRIS,2103030118,"Single Family Homes",3/16/2021,,65000,1625,"6338 VERBENA BLOSSOM TRL",HOUSTON,TX,77356,LANTANA,,CONTRACTOR,,,,,,,,,,,"BEAZER HOMES ",,,,,"BEAZER HOMES ","10235 W LITTLE YORK",HOUSTON,TX,77040,"(713) 849-2252",http://www.beazer.com/,,,
TX,HARRIS,2103030121,"Single Family Homes",3/16/2021,,79640,1991,"21643 CALICO BUSH TRL",HOUSTON,TX,77356,LANTANA,,CONTRACTOR,,,,,,,,,,,"BEAZER HOMES ",,,,,"BEAZER HOMES ","10235 W LITTLE YORK",HOUSTON,TX,77040,"(713) 849-2252",http://www.beazer.com/,,,
TX,HARRIS,2103030131,"Single Family Homes",3/16/2021,,99200,2480,"6318 VERBENA BLOSSOM TRL",HOUSTON,TX,77356,LANTANA,,CONTRACTOR,,,,,,,,,,,"BEAZER HOMES ",,,,,"BEAZER HOMES ","10235 W LITTLE YORK",HOUSTON,TX,77040,"(713) 849-2252",http://www.beazer.com/,,,
TX,HARRIS,2103030136,"Single Family Homes",3/16/2021,,112480,2812,"19206 BRINDLED BAY CT",HOUSTON,TX,77356,AMIRA,,CONTRACTOR,,,,,,,,,,,"BEAZER HOMES ",,,,,"BEAZER HOMES ","10235 W LITTLE YORK",HOUSTON,TX,77040,"(713) 849-2252",http://www.beazer.com/,,,
TX,HARRIS,2103030139,"Single Family Homes",3/16/2021,,79640,1991,"6426 VERBENA BLOSSOM TRL",HOUSTON,TX,77356,LANTANA,,CONTRACTOR,,,,,,,,,,,"BEAZER HOMES ",,,,,"BEAZER HOMES ","10235 W LITTLE YORK",HOUSTON,TX,77040,"(713) 849-2252",http://www.beazer.com/,,,
TX,HARRIS,2103030146,"Single Family Homes",3/16/2021,,232960,2056,"25502 RANCHO ESPIRITO LN",HOUSTON,TX,77356,"KATY CROSSING",,CONTRACTOR,,,,,,,,,,,"PULTE HOMES",,,,,"PULTE HOMES","16670 PARK ROW",HOUSTON,TX,77084-6866,"(281) 749-8000",,,,
TX,HARRIS,2103030154,"Single Family Homes",3/16/2021,,331200,2944,"14910 FISHER RESERVOIR DR",HOUSTON,TX,77356,"BRIDGELAND PARKLAND VILLAGE",,CONTRACTOR,,,,,,,,,,,"PERRY HOMES",,,,,"PERRY HOMES","9000 GULF FWY",HOUSTON,TX,77017-7018,"(713) 417-1396",,,,
TX,HARRIS,2102030162,"Single Family Homes",3/16/2021,,402525,4018,"12214 HICKORY ARROYO DR",HOUSTON,TX,77356,GROVES,,CONTRACTOR,,,,,,,,,,,"PERRY HOMES",,,,,"PERRY HOMES","9000 GULF FWY",HOUSTON,TX,77017-7018,"(713) 417-1396",,,,
TX,HARRIS,2102030159,"Single Family Homes",3/16/2021,,268875,2390,"16339 SILVER EMPEROR ST",HOUSTON,TX,77356,GROVES,,CONTRACTOR,,,,,,,,,,,"PERRY HOMES",,,,,"PERRY HOMES","9000 GULF FWY",HOUSTON,TX,77017-7018,"(713) 417-1396",,,,
TX,HARRIS,2102180074,"Single Family Homes",3/16/2021,,308363,2741,"16819 RAMSAY CASCADES DR",HOUSTON,TX,77356,GROVES,,CONTRACTOR,,,,,,,,,,,"PERRY HOMES",,,,,"PERRY HOMES","9000 GULF FWY",HOUSTON,TX,77017-7018,"(713) 417-1396",,,,
TX,HARRIS,2102180009,"Single Family Homes",3/16/2021,,784200,3921,"12014 WALDEN PINES RD",HOUSTON,TX,77356,GROVES,,CONTRACTOR,,,,,,,,,,,"PERRY HOMES",,,,,"PERRY HOMES","9000 GULF FWY",HOUSTON,TX,77017-7018,"(713) 417-1396",,,,
TX,HARRIS,2103030155,"Single Family Homes",3/16/2021,,295990,3009,"24403 AVANTI DR",HOUSTON,TX,77356,"KATY LAKES",,CONTRACTOR,,,,,,,,,,,"HISTORY MAKER HOMES",,,,,"HISTORY MAKER HOMES","9001 AIRPORT FWY SUITE 400","NORTH RICHLAND HILLS",TX,76180-7769,"(817) 429-8008",http://www.historymaker.com/,"(817) 507-1102","JILL BARFIELD",
TX,HARRIS,2102180076,"Single Family Homes",3/16/2021,,380700,3384,"12011 WALDEN PINES RD",HOUSTON,TX,77356,GROVES,,CONTRACTOR,,,,,,,,,,,"PERRY HOMES",,,,,"PERRY HOMES","9000 GULF FWY",HOUSTON,TX,77017-7018,"(713) 417-1396",,,,
TX,HARRIS,2103030156,"Single Family Homes",3/16/2021,,231080,2281,"11638 BRAEMAR VILLAGE DR",HOUSTON,TX,77356,"BRAEMAR VILLAGE",,CONTRACTOR,,,,,,,,,,,"PULTE HOMES",,,,,"PULTE HOMES","16670 PARK ROW",HOUSTON,TX,77084-6866,"(281) 749-8000",,,,
TX,HARRIS,2102220062,"Single Family Homes",3/16/2021,,380700,3384,"11946 WALDEN PINES RD",HOUSTON,TX,77356,GROVES,,CONTRACTOR,,,,,,,,,,,"PERRY HOMES",,,,,"PERRY HOMES","9000 GULF FWY",HOUSTON,TX,77017-7018,"(713) 417-1396",,,,
TX,HARRIS,2102240065,"Single Family Homes",3/16/2021,,273600,2432,"16347 SILVER EMPEROR ST",HOUSTON,TX,77356,GROVES,,CONTRACTOR,,,,,,,,,,,"PERRY HOMES",,,,,"PERRY HOMES","9000 GULF FWY",HOUSTON,TX,77017-7018,"(713) 417-1396",,,,
TX,HARRIS,2103030157,"Single Family Homes",3/16/2021,,230780,2420,"11634 BRAEMAR VILLAGE DR",HOUSTON,TX,77356,"BRAEMAR VILLAGE",,CONTRACTOR,,,,,,,,,,,"PULTE HOMES",,,,,"PULTE HOMES","16670 PARK ROW",HOUSTON,TX,77084-6866,"(281) 749-8000",,,,
TX,HARRIS,2103020083,"Single Family Homes",3/16/2021,,100800,2240,"20926 MEDFORD LANDING LN",HOUSTON,TX,77356,"JASMINE HEIGHTS",,CONTRACTOR,,,,,,,,,,,"DR HORTON",,,,,"DR HORTON","14100 SOUTHWEST",HOUSTON,TX,77478,"(281) 201-5559",,,,
TX,HARRIS,2103020085,"Single Family Homes",3/16/2021,,96525,2145,"21002 MEDFORD LANDING LN",HOUSTON,TX,77449,"JASMINE HEIGHTS",,CONTRACTOR,,,,,,,,,,,"DR HORTON",,,,,"DR HORTON","14100 SOUTHWEST",HOUSTON,TX,77478,"(281) 201-5559",,,,
TX,HARRIS,2103020087,"Single Family Homes",3/16/2021,,94410,2098,"21006 MEDFORD LANDING LN",HOUSTON,TX,77356,"JASMINE HEIGHTS",,CONTRACTOR,,,,,,,,,,,"DR HORTON",,,,,"DR HORTON","14100 SOUTHWEST",HOUSTON,TX,77478,"(281) 201-5559",,,,
TX,HARRIS,2103020089,"Single Family Homes",3/16/2021,,89505,1989,"21010 MEDFORD LANDING LN",HOUSTON,TX,77356,"JASMINE HEIGHTS",,CONTRACTOR,,,,,,,,,,,"DR HORTON",,,,,"DR HORTON","14100 SOUTHWEST",HOUSTON,TX,77478,"(281) 201-5559",,,,
TX,HARRIS,2103020093,"Single Family Homes",3/16/2021,,89505,1989,"5214 GREENWOOD SUMMIT TRL",HOUSTON,TX,77356,"JASMINE HEIGHTS",,CONTRACTOR,,,,,,,,,,,"DR HORTON",,,,,"DR HORTON","14100 SOUTHWEST",HOUSTON,TX,77478,"(281) 201-5559",,,,
TX,HARRIS,2103020096,"Single Family Homes",3/16/2021,,96525,2145,"5218 GREENWOOD SUMMIT TRL",HOUSTON,TX,77356,"JASMINE HEIGHTS",,CONTRACTOR,,,,,,,,,,,"DR HORTON",,,,,"DR HORTON","14100 SOUTHWEST",HOUSTON,TX,77478,"(281) 201-5559",,,,
TX,HARRIS,2103020098,"Single Family Homes",3/16/2021,,105615,2347,"5222 GREENWOOD SUMMIT TRL",HOUSTON,TX,77356,"JASMINE HEIGHTS",,CONTRACTOR,,,,,,,,,,,"DR HORTON",,,,,"DR HORTON","14100 SOUTHWEST",HOUSTON,TX,77478,"(281) 201-5559",,,,
TX,HARRIS,2103020100,"Single Family Homes",3/16/2021,,132885,2953,"5226 GREENWOOD SUMMIT TRL",HOUSTON,TX,77356,"JASMINE HEIGHTS",,CONTRACTOR,,,,,,,,,,,"DR HORTON",,,,,"DR HORTON","14100 SOUTHWEST",HOUSTON,TX,77478,"(281) 201-5559",,,,
TX,HARRIS,2103020102,"Single Family Homes",3/16/2021,,141660,3148,"5230 GREENWOOD SUMMIT TRL",HOUSTON,TX,77356,"JASMINE HEIGHTS",,CONTRACTOR,,,,,,,,,,,"DR HORTON",,,,,"DR HORTON","14100 SOUTHWEST",HOUSTON,TX,77478,"(281) 201-5559",,,,
TX,HARRIS,2103020103,"Single Family Homes",3/16/2021,,94410,2098,"5234 GREENWOOD SUMMIT TRL",HOUSTON,TX,77356,"JASMINE HEIGHTS",,CONTRACTOR,,,,,,,,,,,"DR HORTON",,,,,"DR HORTON","14100 SOUTHWEST",HOUSTON,TX,77478,"(281) 201-5559",,,,
TX,HARRIS,2103020107,"Single Family Homes",3/16/2021,,100800,2240,"5238 GREENWOOD SUMMIT TRL",HOUSTON,TX,77356,"JASMINE HEIGHTS",,CONTRACTOR,,,,,,,,,,,"DR HORTON",,,,,"DR HORTON","14100 SOUTHWEST",HOUSTON,TX,77478,"(281) 201-5559",,,,
TX,HARRIS,2103020171,"Single Family Homes",3/16/2021,,110700,2460,"21019 BELMONT VILLAGE WAY",HOUSTON,TX,77356,"JASMINE HEIGHTS",,CONTRACTOR,,,,,,,,,,,"DR HORTON",,,,,"DR HORTON","14100 SOUTHWEST",HOUSTON,TX,77478,"(281) 201-5559",,,,
TX,HARRIS,2103020173,"Single Family Homes",3/16/2021,,105615,2347,"21015 BELMONT VILLAGE WAY",HOUSTON,TX,77356,"JASMINE HEIGHTS",,CONTRACTOR,,,,,,,,,,,"DR HORTON",,,,,"DR HORTON","14100 SOUTHWEST",HOUSTON,TX,77478,"(281) 201-5559",,,,
TX,HARRIS,2103020176,"Single Family Homes",3/16/2021,,96525,2145,"21011 BELMONT VILLAGE WAY",HOUSTON,TX,77356,"JASMINE HEIGHTS",,CONTRACTOR,,,,,,,,,,,"DR HORTON",,,,,"DR HORTON","14100 SOUTHWEST",HOUSTON,TX,77478,"(281) 201-5559",,,,
TX,HARRIS,2103020179,"Single Family Homes",3/16/2021,,89505,1989,"21007 BELMONT VILLAGE WAY",HOUSTON,TX,77356,"JASMINE HEIGHTS",,CONTRACTOR,,,,,,,,,,,"DR HORTON",,,,,"DR HORTON","14100 SOUTHWEST",HOUSTON,TX,77478,"(281) 201-5559",,,,
TX,HARRIS,2103020183,"Single Family Homes",3/16/2021,,107460,2388,"20919 BELMONT VILLAGE WAY",HOUSTON,TX,77356,"JASMINE HEIGHTS",,CONTRACTOR,,,,,,,,,,,"DR HORTON",,,,,"DR HORTON","14100 SOUTHWEST",HOUSTON,TX,77478,"(281) 201-5559",,,,
TX,HARRIS,2103020186,"Single Family Homes",3/16/2021,,100800,2240,"20915 BELMONT VILLAGE WAY",HOUSTON,TX,77356,"JASMINE HEIGHTS",,CONTRACTOR,,,,,,,,,,,"DR HORTON",,,,,"DR HORTON","14100 SOUTHWEST",HOUSTON,TX,77478,"(281) 201-5559",,,,
TX,HARRIS,2103020189,"Single Family Homes",3/16/2021,,94410,2098,"20911 BELMONT VILLAGE WAY",HOUSTON,TX,77356,"JASMINE HEIGHTS",,CONTRACTOR,,,,,,,,,,,"DR HORTON",,,,,"DR HORTON","14100 SOUTHWEST",HOUSTON,TX,77478,"(281) 201-5559",,,,
TX,HARRIS,2103020199,"Single Family Homes",3/16/2021,,89505,1989,"5223 TREMONT ESTATES TRL",HOUSTON,TX,77356,"JASMINE HEIGHTS",,CONTRACTOR,,,,,,,,,,,"DR HORTON",,,,,"DR HORTON","14100 SOUTHWEST",HOUSTON,TX,77478,"(281) 201-5559",,,,
TX,HARRIS,2103020200,"Single Family Homes",3/16/2021,,132975,2955,"5219 TREMONT ESTATES TRL",HOUSTON,TX,77356,"JASMINE HEIGHTS",,CONTRACTOR,,,,,,,,,,,"DR HORTON",,,,,"DR HORTON","14100 SOUTHWEST",HOUSTON,TX,77478,"(281) 201-5559",,,,
TX,HARRIS,2103020202,"Single Family Homes",3/16/2021,,110700,2460,"5215 TREMONT ESTATES TRL",HOUSTON,TX,77356,"JASMINE HEIGHTS",,CONTRACTOR,,,,,,,,,,,"DR HORTON",,,,,"DR HORTON","14100 SOUTHWEST",HOUSTON,TX,77478,"(281) 201-5559",,,,
TX,HARRIS,2103020203,"Single Family Homes",3/16/2021,,96525,2145,"5211 TREMONT ESTATES TRL",HOUSTON,TX,77356,"JASMINE HEIGHTS",,CONTRACTOR,,,,,,,,,,,"DR HORTON",,,,,"DR HORTON","14100 SOUTHWEST",HOUSTON,TX,77478,"(281) 201-5559",,,,
TX,HARRIS,2103020204,"Single Family Homes",3/16/2021,,94410,2098,"5207 TREMONT ESTATES TRL",HOUSTON,TX,77356,"JASMINE HEIGHTS",,CONTRACTOR,,,,,,,,,,,"DR HORTON",,,,,"DR HORTON","14100 SOUTHWEST",HOUSTON,TX,77478,"(281) 201-5559",,,,
TX,BRAZORIA,COMM21-00069,"Warehouse & Manufacturing",3/22/2021,,75000,,"3500 BUSINESS CENTER DR",PEARLAND,TX,77584,,,CONTRACTOR,,,,,,,,,,,KIMLEY-HORN,,,,,KIMLEY-HORN,"601 NW LOOP 410 STE 350","SAN ANTONIO",TX,78216-5595,"(210) 541-9166",http://www.kimley-horn.com,,,
TX,HARRIS,2005120166,"Warehouse & Manufacturing",3/16/2021,,50000000,657600,"11333 N GESSNER RD",HOUSTON,TX,77356,,,"RBC BUILDING 1 LLC","11333 N GESSNER RD",HOUSTON,TX,77356,,Owner,,,,,OWNER,,,,,OWNER,,,,,,,,,
TX,HARRIS,2011040075,"Warehouse & Manufacturing",3/16/2021,,283500,3780,"17122 TELGE RD",HOUSTON,TX,77356,,,"DAVID & LORI DOLLAR","17122 TELGE RD",HOUSTON,TX,77356,,Owner,,,,,OWNER,,,,,OWNER,,,,,,,,,
TX,HARRIS,2103020001,"Warehouse & Manufacturing",3/16/2021,,95000,6000,"17113 SOUTH DR",HOUSTON,TX,77356,"HOUSTON HOT WELLS",,"FERRO TIC INC","17113 SOUTH DR",HOUSTON,TX,77356,,Owner,,,,,OWNER,,,,,OWNER,,,,,,,,,
TX,HARRIS,2103170187,"Warehouse & Manufacturing",3/16/2021,,720000,9600,"127 BAYOU DR",HOUSTON,TX,77356,"OLD RIVER TERRACE",,"KSOLV GROUP","127 BAYOU DR",HOUSTON,TX,77356,,Owner,,,,,OWNER,,,,,OWNER,,,,,,,,,
TX,HARRIS,21004247,"Warehouse & Manufacturing",4/1/2021,Renovations,43492,,"7865 NORTHCOURT RD",HOUSTON,TX,77040,,,"RON STEWART","101 SOUTHWESTERN BLVD STE",HOUSTON,TX,77478,"(713) 695-5777",Applicant,,,,,OWNER,,,,,OWNER,,,,,,,,,
TX,HARRIS,2007080120,"Warehouse & Manufacturing",3/16/2021,,175000,13650,"103 RILEY RD",HOUSTON,TX,77356,"STERLING INDUSTRIAL PARK",,"DEPEUTER PAKCAGING SOLUTIONS","103 RILEY RD",HOUSTON,TX,77356,,Owner,,,,,OWNER,,,,,OWNER,,,,,,,,,
TX,HARRIS,2012010268,"Warehouse & Manufacturing",3/16/2021,,2922900,38972,"15602 CENTRAL GREEN BLVD",HOUSTON,TX,77356,,,CONTRACTOR,,,,,,,,,,,"URBAN CONSTRUCTION SOUTHWEST INC",,,,,"URBAN CONSTRUCTION SOUTHWEST INC","2537 S GESSNER RD STE 220",HOUSTON,TX,77063-2061,"(713) 339-5380",,,,
