state,county,permno,ptype,pdate,pdescription,jvalue,jsqfeet,jaddr,jcity,jstate,jzip,jsubdiv,jlotno,aname,aaddr,acity,astate,azip,aphone,atype,aurl,afax,aprimarycontact,aemail,bldcode,units,bldgs,ctype,legal,contractor,caddress,ccity,cstate,czip,cphone,curl,cfax,cprimarycontact,cemail
TX,MONTGOMERY,200361,"Auto Sales & Services",3/26/2021,,4470823,,"28075 ROBINSON RD","OAK RIDGE NORTH",TX,77385,,,CONTRACTOR,,,,,,,,,,,"TERRA FIRMA DEVELOPMENT",,,,,"TERRA FIRMA DEVELOPMENT","7 SWITCHBUD PL",SPRING,TX,77380-3700,"(832) 813-0055",http://dev.terrafirmadevelopment.com/,"(281) 466-8004",,
TX,BELL,FY-21-6-BAC,"Auto Sales & Services",3/16/2021,,1000000,,"405 S 2ND ST",TEMPLE,TX,76504,,,CONTRACTOR,,,,,,,,,,,"MP ELECTRIC",,,,,"MP ELECTRIC","1890 GALAXY RD",WACO,TX,76712,"(254) 848-4612",,,,
TX,MONTGOMERY,210164,"Churches & Other Religious",3/19/2021,Renovation,35000,2400,"27325 BLUEBERRY HILL DR","OAK RIDGE NORTH",TX,77385,,,"CENTRAL CHURCH OF CHIRST","27325 BLUEBERRY HILL DR","OAK RIDGE NORTH",TX,77385,,Applicant,,,,,OWNER,,,,,OWNER,,,,,,,,,
TX,BELL,FY-21-74,"Duplex, Triplex, & Fourplex",3/16/2021,,240000,3409,"2307 DUNTOV DR A",TEMPLE,TX,76502,,,CONTRACTOR,,,,,,,,,,,"TIPPIT HOMES",,,,,"TIPPIT HOMES","2830 FM 182",GATESVILLE,TX,76528-3411,"(254) 535-3432",,,,
TX,BELL,FY-21-75,"Duplex, Triplex, & Fourplex",3/16/2021,,240000,3409,"2303 DUNTOV DR A",TEMPLE,TX,76502,"PECAN CREEK",,CONTRACTOR,,,,,,,,,,,"TIPPIT HOMES",,,,,"TIPPIT HOMES","2830 FM 182",GATESVILLE,TX,76528-3411,"(254) 535-3432",,,,
TX,BELL,FY-21-76,"Duplex, Triplex, & Fourplex",3/16/2021,,240000,3409,"1002 ZORA DR A",TEMPLE,TX,76502,"PECAN CREEK",,CONTRACTOR,,,,,,,,,,,"TIPPIT HOMES",,,,,"TIPPIT HOMES","2830 FM 182",GATESVILLE,TX,76528-3411,"(254) 535-3432",,,,
TX,BELL,FY-21-77,"Duplex, Triplex, & Fourplex",3/16/2021,,240000,3409,"1006 ZORA DR A",TEMPLE,TX,76502,"PECAN CREEK",,CONTRACTOR,,,,,,,,,,,"TIPPIT HOMES",,,,,"TIPPIT HOMES","2830 FM 182",GATESVILLE,TX,76528-3411,"(254) 535-3432",,,,
TX,BELL,FY-21-78-DUPX,"Duplex, Triplex, & Fourplex",3/16/2021,,240000,3409,"1010 ZORA DR A",TEMPLE,TX,76502,,,CONTRACTOR,,,,,,,,,,,"TIPPIT HOMES",,,,,"TIPPIT HOMES","2830 FM 182",GATESVILLE,TX,76528-3411,"(254) 535-3432",,,,
TX,BELL,FY-21-79,"Duplex, Triplex, & Fourplex",3/16/2021,,240000,3409,"1014 ZORA DR A",TEMPLE,TX,76502,,,CONTRACTOR,,,,,,,,,,,"TIPPIT HOMES",,,,,"TIPPIT HOMES","2830 FM 182",GATESVILLE,TX,76528-3411,"(254) 535-3432",,,,
TX,BELL,FY-21-80,"Duplex, Triplex, & Fourplex",3/16/2021,,240000,3409,"1018 ZORA DR A",TEMPLE,TX,76502,,,CONTRACTOR,,,,,,,,,,,"TIPPIT HOMES",,,,,"TIPPIT HOMES","2830 FM 182",GATESVILLE,TX,76528-3411,"(254) 535-3432",,,,
TX,BELL,FY-21-81-DUPX,"Duplex, Triplex, & Fourplex",3/16/2021,,240000,3409,"1022 ZORA DR A",TEMPLE,TX,76502,,,CONTRACTOR,,,,,,,,,,,"TIPPIT HOMES",,,,,"TIPPIT HOMES","2830 FM 182",GATESVILLE,TX,76528-3411,"(254) 535-3432",,,,
TX,BELL,FY-21-82,"Duplex, Triplex, & Fourplex",3/16/2021,,,1784,"619 N 8TH ST A",TEMPLE,TX,76502,HAWKES,,CONTRACTOR,,,,,,,,,,,"AMERITEX HOMES",,,,,"AMERITEX HOMES","4835 LYNDON B JOHNSON FWY",DALLAS,TX,75244-6005,"(214) 765-0596",,,,
TX,MONTGOMERY,182120-21,"Duplex, Triplex, & Fourplex",3/25/2021,,650000,,"22 & 26 LAKESIDE COVE",HOUSTON,TX,77356,"VILLAGE GROGANS MILL",,CONTRACTOR,,,,,,,,,,,"GRACEPOINT HOMES",,,,,"GRACEPOINT HOMES","33300 EGYPT LN STE 100",MAGNOLIA,TX,77354-2739,"(281) 681-0400",http://www.gracepointhomes.com/,"(281) 681-0402",,Info@gracepointhomes.com
TX,HARRIS,21030083,"Educational Institution",3/19/2021,,150000,1536,"4200 CRENSHAW # PB79",PASADENA,TX,77504,,,CONTRACTOR,,,,,,,,,,,"BROWN & ROOT",,,,,"BROWN & ROOT","2600 CITIPLACE CT","BATON ROUGE",LA,70808-2711,"(225) 778-7655",http://www.brownandroot.com,,,
TX,HARRIS,2103160151,"Hospital & Other Medical",3/16/2021,,74000,3400,"1331 W GRAND PKWY",HOUSTON,TX,77356,,,"TEXAS ENDOVASCULAR","1331 W GRAND PKWY",HOUSTON,TX,77356,,Owner,,,,,OWNER,,,,,OWNER,,,,,,,,,
TX,HARRIS,2101190161,"Hospital & Other Medical",3/16/2021,,40000,2950,"21925 FRANZ RD",HOUSTON,TX,77356,,,"ROXANA APARICIO","21925 FRANZ RD",HOUSTON,TX,77356,,Owner,,,,,OWNER,,,,,OWNER,,,,,,,,,
TX,BELL,FY-21-14-BDNC,"Hospital & Other Medical",3/16/2021,,1000000,4500,"610 HILLIARD RD",TEMPLE,TX,76504,,,CONTRACTOR,,,,,,,,,,,"EBCO GENERAL CONTRACTOR",,,,,"EBCO GENERAL CONTRACTOR","305 W GILLIS AVE",CAMERON,TX,76520-3930,"(254) 697-8516",http://ebcogc.com/,"(254) 697-8656",,businessdevelopment@ebcogc.com
TX,BRAZOS,RMDL2021-000021,"Hospital & Other Medical",3/3/2021,Renovation,74000,3050,"1602 ROCK PRAIRIE RD # 460","COLLEGE STATION",TX,77845,,,CONTRACTOR,,,,,,,,,,,"KEYS & WALSH CONSTRUCTION",,,,,"KEYS & WALSH CONSTRUCTION","12633 STATE HIGHWAY 30","COLLEGE STATION",TX,77845-7736,"(979) 774-3600",http://www.keysandwalsh.com/,"(979) 774-3611",,
TX,BELL,FY-21-13-BDNC,"Multi Family Apartments & Condos",3/16/2021,,2000000,,"2280 LUCIUS MCCELVEY DR",TEMPLE,TX,76504,,,CONTRACTOR,,,,,,,,,,,"CLOUD CONSTRUCTION",,,,,"CLOUD CONSTRUCTION","PO BOX 667",TEMPLE,TX,76503-0667,"(254) 778-1363",http://www.cloudconstruction.com/,"(254) 778-5877",,
TX,BRAZOS,RES2021-000084,"Multi Family Apartments & Condos",3/15/2021,,136045,2526,"547 HAYES LN","COLLEGE STATION",TX,77845,"PERSHING POINTE VILLAS",,CONTRACTOR,,,,,,,,,,,"DWS DEVELOPMENT",,,,,"DWS DEVELOPMENT","1289 N HARVEY MITCHELL PKWY",BRYAN,TX,77803-2062,"(979) 779-7209",http://www.ridgewaytownhomes.com,"(979) 775-5258","DAVID SCARMARDO",
TX,BRAZOS,RES2021-000086,"Multi Family Apartments & Condos",3/15/2021,,108360,2465,"549 HAYES LN","COLLEGE STATION",TX,77845,"PERSHING POINTE VILLAS",,CONTRACTOR,,,,,,,,,,,"DWS DEVELOPMENT",,,,,"DWS DEVELOPMENT","1289 N HARVEY MITCHELL PKWY",BRYAN,TX,77803-2062,"(979) 779-7209",http://www.ridgewaytownhomes.com,"(979) 775-5258","DAVID SCARMARDO",
TX,BRAZOS,RES2021-000087,"Multi Family Apartments & Condos",3/15/2021,,136045,2526,"551 HAYES LN","COLLEGE STATION",TX,77845,"PERSHING POINTE VILLAS",,CONTRACTOR,,,,,,,,,,,"DWS DEVELOPMENT",,,,,"DWS DEVELOPMENT","1289 N HARVEY MITCHELL PKWY",BRYAN,TX,77803-2062,"(979) 779-7209",http://www.ridgewaytownhomes.com,"(979) 775-5258","DAVID SCARMARDO",
TX,BRAZOS,RES2021-000088,"Multi Family Apartments & Condos",3/15/2021,,108360,2465,"553 HAYES LN","COLLEGE STATION",TX,77845,"PERSHING POINTE VILLAS",,CONTRACTOR,,,,,,,,,,,"DWS DEVELOPMENT",,,,,"DWS DEVELOPMENT","1289 N HARVEY MITCHELL PKWY",BRYAN,TX,77803-2062,"(979) 779-7209",http://www.ridgewaytownhomes.com,"(979) 775-5258","DAVID SCARMARDO",
TX,BRAZOS,RES2021-000089,"Multi Family Apartments & Condos",3/15/2021,,136045,2526,"555 HAYES LN","COLLEGE STATION",TX,77845,"PERSHING POINTE VILLAS",,CONTRACTOR,,,,,,,,,,,"DWS DEVELOPMENT",,,,,"DWS DEVELOPMENT","1289 N HARVEY MITCHELL PKWY",BRYAN,TX,77803-2062,"(979) 779-7209",http://www.ridgewaytownhomes.com,"(979) 775-5258","DAVID SCARMARDO",
TX,BRAZOS,RES2021-000119,"Multi Family Apartments & Condos",3/25/2021,,126604,2042,"3920 YUKON LN","COLLEGE STATION",TX,77845,"BARRON CROSSING",,CONTRACTOR,,,,,,,,,,,"STYLECRAFT BUILDERS ",,,,,"STYLECRAFT BUILDERS ","4090 STATE HIGHWAY 6 S","COLLEGE STATION",TX,77845-8962,"(979) 764-9900",,"(979) 690-3069","TANNER BREWSTER",tabrewster@stylecraft-builders.com
TX,BRAZOS,RES2021-000120,"Multi Family Apartments & Condos",3/25/2021,,115692,1866,"3922 YUKON LN","COLLEGE STATION",TX,77845,"BARRON CROSSING",,CONTRACTOR,,,,,,,,,,,"STYLECRAFT BUILDERS ",,,,,"STYLECRAFT BUILDERS ","4090 STATE HIGHWAY 6 S","COLLEGE STATION",TX,77845-8962,"(979) 764-9900",,"(979) 690-3069","TANNER BREWSTER",tabrewster@stylecraft-builders.com
TX,BRAZOS,RES2021-000121,"Multi Family Apartments & Condos",3/25/2021,,115692,1866,"3924 YUKON LN","COLLEGE STATION",TX,77845,"BARRON CROSSING",,CONTRACTOR,,,,,,,,,,,"STYLECRAFT BUILDERS ",,,,,"STYLECRAFT BUILDERS ","4090 STATE HIGHWAY 6 S","COLLEGE STATION",TX,77845-8962,"(979) 764-9900",,"(979) 690-3069","TANNER BREWSTER",tabrewster@stylecraft-builders.com
TX,BRAZOS,RES2021-000122,"Multi Family Apartments & Condos",3/25/2021,,127906,2063,"3926 YUKON LN","COLLEGE STATION",TX,77845,"BARRON CROSSING",,CONTRACTOR,,,,,,,,,,,"STYLECRAFT BUILDERS ",,,,,"STYLECRAFT BUILDERS ","4090 STATE HIGHWAY 6 S","COLLEGE STATION",TX,77845-8962,"(979) 764-9900",,"(979) 690-3069","TANNER BREWSTER",tabrewster@stylecraft-builders.com
TX,BRAZOS,RES2021-000123,"Multi Family Apartments & Condos",3/25/2021,,127906,,"3928 YUKON LN","COLLEGE STATION",TX,77845,"BARRON CROSSING",,CONTRACTOR,,,,,,,,,,,"STYLECRAFT BUILDERS ",,,,,"STYLECRAFT BUILDERS ","4090 STATE HIGHWAY 6 S","COLLEGE STATION",TX,77845-8962,"(979) 764-9900",,"(979) 690-3069","TANNER BREWSTER",tabrewster@stylecraft-builders.com
TX,BRAZOS,RES2021-000124,"Multi Family Apartments & Condos",3/25/2021,,100068,1614,"3930 YUKON LN","COLLEGE STATION",TX,77845,"BARRON CROSSING",,CONTRACTOR,,,,,,,,,,,"STYLECRAFT BUILDERS ",,,,,"STYLECRAFT BUILDERS ","4090 STATE HIGHWAY 6 S","COLLEGE STATION",TX,77845-8962,"(979) 764-9900",,"(979) 690-3069","TANNER BREWSTER",tabrewster@stylecraft-builders.com
TX,BRAZOS,RES2021-000125,"Multi Family Apartments & Condos",3/25/2021,,100068,1614,"3932 YUKON LN","COLLEGE STATION",TX,77845,"BARRON CROSSING",,CONTRACTOR,,,,,,,,,,,"STYLECRAFT BUILDERS ",,,,,"STYLECRAFT BUILDERS ","4090 STATE HIGHWAY 6 S","COLLEGE STATION",TX,77845-8962,"(979) 764-9900",,"(979) 690-3069","TANNER BREWSTER",tabrewster@stylecraft-builders.com
TX,BRAZOS,RES2021-000126,"Multi Family Apartments & Condos",3/25/2021,,126604,2042,"3934 YUKON LN","COLLEGE STATION",TX,77845,"BARRON CROSSING",,CONTRACTOR,,,,,,,,,,,"STYLECRAFT BUILDERS ",,,,,"STYLECRAFT BUILDERS ","4090 STATE HIGHWAY 6 S","COLLEGE STATION",TX,77845-8962,"(979) 764-9900",,"(979) 690-3069","TANNER BREWSTER",tabrewster@stylecraft-builders.com
TX,BELL,FY-21-2-ACCS,"Multi Family Renovations & Additions",3/16/2021,Renovation,75000,,"2360 LUCIUS MCCELVEY DR",TEMPLE,TX,76502,,,CONTRACTOR,,,,,,,,,,,"CLOUD CONSTRUCTION",,,,,"CLOUD CONSTRUCTION","PO BOX 667",TEMPLE,TX,76503-0667,"(254) 778-1363",http://www.cloudconstruction.com/,"(254) 778-5877",,
TX,HARRIS,2103220085,"Offices, R&D, & Professional",3/16/2021,,600000,2500,"7210 N GRAND PARKWAY RD",HOUSTON,TX,77356,,,"FIRST COMMUNITY CREDIT UNION","7210 N GRAND PARKWAY RD",HOUSTON,TX,77356,,Owner,,,,,OWNER,,,,,OWNER,,,,,,,,,
TX,HARRIS,2103030074,"Offices, R&D, & Professional",3/16/2021,,160000,17587,"22370 MERCHANTS WAY",HOUSTON,TX,77356,,,CARRIER,"22370 MERCHANTS WAY",HOUSTON,TX,77356,,Owner,,,,,OWNER,,,,,OWNER,,,,,,,,,
TX,HARRIS,2102090023,"Offices, R&D, & Professional",3/16/2021,,40000,5000,"13370 TELGE RD",HOUSTON,TX,77356,,,CONTRACTOR,,,,,,,,,,,"HRES GROUP",,,,,"HRES GROUP","1771 UPLAND DRIVE, SUITE 101",HOUSTON,TX,77043-3513,"(713) 984-0199",https://www.hresgroup.com/,,,hres@hresgroup.com
TX,HARRIS,2101200040,"Offices, R&D, & Professional",3/15/2021,,254000,1269,"100 STRANG RD",HOUSTON,TX,77356,,,"PRAXAIR INC","100 STRANG RD",HOUSTON,TX,77356,,Owner,,,,,OWNER,,,,,OWNER,,,,,,,,,
TX,BELL,FY-21-36,"Offices, R&D, & Professional",3/16/2021,,150000,,"4750 WENDLAND RD",TEMPLE,TX,76502,,,CONTRACTOR,,,,,,,,,,,"RSP ARCHITECTS",,,,,"RSP ARCHITECTS","1220 MARSHALL ST NE",MINNEAPOLIS,MN,55413-1036,"(612) 677-7176",http://www.rsparch.com/,"(612) 677-7499","JAMES FITZHUGH",
TX,BRAZOS,CTFO2021-000003,"Offices, R&D, & Professional",3/22/2021,"Finish Out",192400,4500,"4438 STATE HIGHWAY 6 S # 501","COLLEGE STATION",TX,77840,,,CONTRACTOR,,,,,,,,,,,"MILES CONSTRUCTION CORPORATION",,,,,"MILES CONSTRUCTION CORPORATION","3091 UNIVERSITY DR E STE 120",BRYAN,TX,77802-3494,"(979) 777-4675",http://www.milesconstructioncorp.com/,"(979) 690-8100","BO MILES",info@milesconstructioncorp.com
TX,BRAZOS,CTFO2021-000006,"Offices, R&D, & Professional",3/24/2021,"Finish Out",96750,1185,"4438 STATE HIGHWAY 6 S # 502","COLLEGE STATION",TX,77840,,,CONTRACTOR,,,,,,,,,,,"MILES CONSTRUCTION CORPORATION",,,,,"MILES CONSTRUCTION CORPORATION","3091 UNIVERSITY DR E STE 120",BRYAN,TX,77802-3494,"(979) 777-4675",http://www.milesconstructioncorp.com/,"(979) 690-8100","BO MILES",info@milesconstructioncorp.com
TX,HARRIS,2102040025,"Other Commercial",3/16/2021,,716040,5304,"2019 N MASON RD",HOUSTON,TX,77356,,,"EA MASON LAND PARTNERS","2019 N MASON RD",HOUSTON,TX,77356,,Owner,,,,,OWNER,,,,,OWNER,,,,,,,,,
TX,HARRIS,2002200150,"Other Commercial",3/16/2021,,1031250,13750,"21215 FM 529 RD",HOUSTON,TX,77356,,,"ROBERT SALISBURY","21215 FM 529 RD",HOUSTON,TX,77356,,Owner,,,,,OWNER,,,,,OWNER,,,,,,,,,
TX,HARRIS,2101280116,"Other Commercial",3/16/2021,,49000,65892,"19902 HUFSMITH KOHRVILLE RD",HOUSTON,TX,77356,,,"UNBREAKABLE PROPERTIES LLC","19902 HUFSMITH KOHRVILLE RD",HOUSTON,TX,77356,,Owner,,,,,OWNER,,,,,OWNER,,,,,,,,,
TX,HARRIS,2103030086,"Other Commercial",3/16/2021,,43000,1500,"23119 COLONIAL PKWY",HOUSTON,TX,77356,,,"HAPPY LEMON","23119 COLONIAL PKWY",HOUSTON,TX,77356,,Owner,,,,,OWNER,,,,,OWNER,,,,,,,,,
TX,HARRIS,2103050119,"Other Commercial",3/16/2021,,200000,1400,"12343 BARKER CYPRESS RD",HOUSTON,TX,77356,BARKER,,"BRUCE WILLIAMS","12343 BARKER CYPRESS RD",HOUSTON,TX,77356,,Owner,,,,,OWNER,,,,,OWNER,,,,,,,,,
TX,HARRIS,2007170079,"Other Commercial",3/16/2021,,534000,5935,"7334 FRY RD",HOUSTON,TX,77356,TEALBROOK,,"JORGE CONCEPCION","7334 FRY RD",HOUSTON,TX,77356,,Owner,,,,,OWNER,,,,,OWNER,,,,,,,,,
TX,HARRIS,2101130160,"Other Commercial",3/16/2021,,98325,1311,"18705 CLAY ROAD",HOUSTON,TX,77356,"ALEX RESERVE",,"VAN HO & HEIN VO","18705 CLAY ROAD",HOUSTON,TX,77356,,Owner,,,,,OWNER,,,,,OWNER,,,,,,,,,
TX,MONTGOMERY,20170514,"Other Commercial",3/29/2021,,600000,,"17600 FM 1488",MAGNOLIA,TX,77354,,,CONTRACTOR,,,,,,,,,,,"D & T DEVELOPMENT",,,,,"D & T DEVELOPMENT","15035 GRANT RD",CYPRESS,TX,77429-1351,"(281) 516-9591",,,,
TX,BELL,FY-21-10,"Other Commercial",3/16/2021,,2500000,,"610 W D AVE",TEMPLE,TX,76502,,,"BETH VALDIVIA","610 W D AVE",TEMPLE,TX,76502,,Owner,,,,,OWNER,,,,,OWNER,,,,,,,,,
TX,MONTGOMERY,182154-21,"Other Commercial",3/26/2021,,1500000,,"859 PINE MARKET AVE",HOUSTON,TX,77356,,,"JOSE GOMEZ","20445 HWY 249, STE 200",HOUSTON,TX,77070,,Owner,,,,,OWNER,,,,,OWNER,,,,,,,,,
TX,MONTGOMERY,182155-21,"Other Commercial",3/26/2021,,1500000,,"901 PINE MARKET AVE",HOUSTON,TX,77356,,,"JOSE GOMEZ","20445 HWY 249, STE 200",HOUSTON,TX,77070,,Owner,,,,,OWNER,,,,,OWNER,,,,,,,,,
TX,MONTGOMERY,182047-21,"Other Commercial",3/24/2021,,500000,,"33219 SWEETGUM LN",HOUSTON,TX,77356,,,"BRIAN KAVANAUGH","7634 POST BRIDGE RD",SPRING,TX,77389,,Owner,,,,,OWNER,,,,,OWNER,,,,,,,,,
TX,BELL,FY-21-12,"Other Residential",3/16/2021,,35000,,"7908 LEE HALL LOOP",TEMPLE,TX,76502,,,"LOPEZ OF JENNIFER","8640 PRAIRIE VIEW RD",TEMPLE,TX,76502,,Owner,,,,,OWNER,,,,,OWNER,,,,,,,,,
TX,BRAZOS,RACC2021-000007,"Other Residential",3/9/2021,"Acc Struct",36524,120,"1004 ROSE CIR","COLLEGE STATION",TX,77845,"SWEET BRIAR",,"TERRY & LUISA CREASY","1004 ROSE CIR","COLLEGE STATION",TX,77845,,Owner,,,,,"STEARNS DESIGN BUILD",,,,,"STEARNS DESIGN BUILD","2151 HARVEY MITCHELL PKWY S STE 219","COLLEGE STATION",TX,77840-5241,"(979) 696-0524",http://stearnsdesignbuild.com/,,,info@StearnsDesignBuild.com
TX,MONTGOMERY,210118,"Parks, Recreation, Entertainment, & RV Park",3/2/2021,,150000,25000,"27329 SPECTRUM WAY","OAK RIDGE NORTH",TX,77385,,,CONTRACTOR,,,,,,,,,,,"BRAYTON CONSTRUCTION",,,,,"BRAYTON CONSTRUCTION","1836 SPIRIT OF TEXAS WAY STE 100",CONROE,TX,77301-2081,"(936) 788-1835",,,,
TX,HARRIS,2103080045,"Residential Renovations & Additions",3/16/2021,Renovations,40000,1200,"23015 BERRY PINE DR",HOUSTON,TX,77356,"TIMBER LANE",,"EDUARDO CUEVAS","23015 BERRY PINE DR",HOUSTON,TX,77356,,Owner,,,,,OWNER,,,,,OWNER,,,,,,,,,
TX,HARRIS,2103220107,"Residential Renovations & Additions",3/16/2021,Renovation,44670,1768,"11110 GRAPE HYACINTH LN",HOUSTON,TX,77356,"SHELDON RIDGE",,CONTRACTOR,,,,,,,,,,,"LONG LAKE HOMES",,,,,"LONG LAKE HOMES","15915 KATY FWY STE 405",HOUSTON,TX,77094-1710,"(281) 646-1727",http://www.longlakeltd.com/,,"DAVID BIGLER",
TX,HARRIS,21045,"Residential Renovations & Additions",3/1/2021,Renovation,104500,,"4318 MEADOWBANK DR","TAYLOR LAKE VILLAGE",TX,77586,,,"DAVID LEBLANC","4318 MEADOWBANK DR","TAYLOR LAKE VILLAGE",TX,77586,,Owner,,,,,OWNER,,,,,OWNER,,,,,,,,,
TX,HARRIS,21057,"Residential Renovations & Additions",3/9/2021,Renovation,48000,,"1023 TANGLE BRIAR DR","TAYLOR LAKE VILLAGE",TX,77586,,,"NANCY BALMERT","1023 TANGLE BRIAR DR","TAYLOR LAKE VILLAGE",TX,77586,,Owner,,,,,OWNER,,,,,OWNER,,,,,,,,,
TX,HARRIS,21070,"Residential Renovations & Additions",3/25/2021,Renovation,53500,,"1114 CRAGMORE DR","TAYLOR LAKE VILLAGE",TX,77586,,,"ELIZABETH BRUMBAUGH","1114 CRAGMORE DR","TAYLOR LAKE VILLAGE",TX,77586,,Owner,,,,,OWNER,,,,,OWNER,,,,,,,,,
TX,HARRIS,21030025,"Residential Renovations & Additions",3/11/2021,Renovation,42000,450,"4118 PLACID STREAM CT",PASADENA,TX,77059,,,"ROBERT & JUNE KELLER","4118 PLACID STREAM CT",PASADENA,TX,77059,,Owner,,,,,"J SHELLY SERVICES",,,,,"J SHELLY SERVICES","6304 MICHAEL ST",JUPITER,FL,33458-6603,"(561) 744-0863",,,,
TX,HARRIS,21020302,"Residential Renovations & Additions",3/10/2021,Renovation,96742,320,"4015 TEAL FERN CT",PASADENA,TX,77059,,,"LEANDRO VALDEZ","4015 TEAL FERN CT",PASADENA,TX,77059,,Owner,,,,,"ALLIED OUTDOOR SOLUTIONS",,,,,"ALLIED OUTDOOR SOLUTIONS","1557 W SAM HOUSTON PKWY N STE 140",HOUSTON,TX,77043-3153,"(713) 465-0400",,,,
TX,HARRIS,21030127,"Residential Renovations & Additions",3/25/2021,Renovation,30000,283,"6519 RAY",PASADENA,TX,77505,,,"JOHN  & CHRISTINE KERR","6519 RAY",PASADENA,TX,77505,,Owner,,,,,"RICK O'S ENTERPRISES",,,,,"RICK O'S ENTERPRISES","957 NASA PKWY STE 108",HOUSTON,TX,77058-3039,"(713) 859-8922",,,,
TX,MONTGOMERY,182005-21,"Residential Renovations & Additions",3/23/2021,Renovations,50000,,"15230 MILTON WHATLEY",HOUSTON,TX,77356,"HIDDEN FOREST ESTATES",,CONTRACTOR,,,,,,,,,,,"OMG BUILDERS",,,,,"OMG BUILDERS","2257 N LOOP 336 W STE 140-303",CONROE,TX,77304,"(832) 457-9442",,,,
TX,MONTGOMERY,182121-21,"Residential Renovations & Additions",3/25/2021,Renovations,30000,,"20227 DEBBIES CT",HOUSTON,TX,77356,"WILDWOOD OAKS",,"PANTOJA JR ENRIQUE","25927 PINE DR","NEW CANEY",TX,77357,,Owner,,,,,OWNER,,,,,OWNER,,,,,,,,,
TX,BRAZOS,RMDL2021-000025,"Residential Renovations & Additions",3/9/2021,Renovation,200000,,"1202 NOEL CT","COLLEGE STATION",TX,77845,WOODCREEK,,"STEPHEN & ALLYSON WRIGHT","1202 NOEL CT","COLLEGE STATION",TX,77845,,Owner,,,,,"PAUL BEDARD HOMES",,,,,"PAUL BEDARD HOMES","1199 HAYWOOD DRIVE","COLLEGE STATION",TX,77845,"(979) 255-4410",https://www.paulbedardhomes.com/,,,paul@paulbedardhomes.com
TX,BRAZOS,RMDL2021-000034,"Residential Renovations & Additions",3/23/2021,Renovation,40462,54,"501 FAIRVIEW AVE","COLLEGE STATION",TX,77845,"COLLEGE PARK",,"GEORGE & MARY DRESSER","501 FAIRVIEW AVE","COLLEGE STATION",TX,77845,,Owner,,,,,"STEARNS DESIGN BUILD",,,,,"STEARNS DESIGN BUILD","2151 HARVEY MITCHELL PKWY S STE 219","COLLEGE STATION",TX,77840-5241,"(979) 696-0524",http://stearnsdesignbuild.com/,,,info@StearnsDesignBuild.com
TX,BRAZOS,RADD2021-000004,"Residential Renovations & Additions",3/26/2021,Addition,36000,450,"15716 BUFFALO CREEK LOOP","COLLEGE STATION",TX,77845,"CREEK MEADOWS",,"JOHN & MARIE ONEILL","15716 BUFFALO CREEK LOOP","COLLEGE STATION",TX,77845,,Owner,,,,,"CAPITAL CONSTRUCTION SERVICES",,,,,"CAPITAL CONSTRUCTION SERVICES","11638 MANOR PARK DR",HOUSTON,TX,77077-5006,"(281) 497-1258",http://www.capitalbuild.com/,,,
TX,HARRIS,2103110144,"Residential Swimming Pools & Spas",3/16/2021,,526000,,"20322 APPALOOSA HILL DR",HOUSTON,TX,77356,AMIRA,,"SERGIO IVAN MARTINEZ","20322 APPALOOSA HILL DR",HOUSTON,TX,77356,,Owner,,,,,OWNER,,,,,OWNER,,,,,,,,,
TX,HARRIS,2103160111,"Residential Swimming Pools & Spas",3/16/2021,,54954,,"11914 GREEN WILLOW FALLS DR",HOUSTON,TX,77356,"WILLOW FALLS",,"DARREN AND JONI ROBERTSON","11914 GREEN WILLOW FALLS DR",HOUSTON,TX,77356,,Owner,,,,,OWNER,,,,,OWNER,,,,,,,,,
TX,HARRIS,2103180064,"Residential Swimming Pools & Spas",3/16/2021,,60647,,"22739 LITTLE BLUE STEM DR",HOUSTON,TX,77356,"WILDWOOD GLEN",,"MELISSA AND MICHAEL RAUSCH","22739 LITTLE BLUE STEM DR",HOUSTON,TX,77356,,Owner,,,,,OWNER,,,,,OWNER,,,,,,,,,
TX,HARRIS,2102030146,"Residential Swimming Pools & Spas",3/16/2021,,79150,,"19906 RED CHILI ST",HOUSTON,TX,77356,"VISTAS OF KLEIN LAKE",,CONTRACTOR,,,,,,,,,,,"BLUE HAVEN POOLS",,,,,"BLUE HAVEN POOLS","2201 HIGHWAY 6 S",HOUSTON,TX,77077-4321,"(281) 497-5711",,,,
TX,HARRIS,2010210049,"Residential Swimming Pools & Spas",3/16/2021,,42370,,"3619 SAGECOMBE LN",HOUSTON,TX,77356,"CYPRESSWOOD GLEN",,"PEDRO & GISELA PEREZ","3619 SAGECOMBE LN",HOUSTON,TX,77356,,Owner,,,,,"BLUE HAVEN POOLS",,,,,"BLUE HAVEN POOLS","2201 HIGHWAY 6 S",HOUSTON,TX,77077-4321,"(281) 497-5711",,,,
TX,HARRIS,2010280090,"Residential Swimming Pools & Spas",3/16/2021,,70995,,"11835 LILAC VALLEY LN",HOUSTON,TX,77356,"ALDER TRAILS",,"JOSE & SABRINA BERRONES","11835 LILAC VALLEY LN",HOUSTON,TX,77356,,Owner,,,,,"BLUE HAVEN POOLS",,,,,"BLUE HAVEN POOLS","2201 HIGHWAY 6 S",HOUSTON,TX,77077-4321,"(281) 497-5711",,,,
TX,HARRIS,2010290034,"Residential Swimming Pools & Spas",3/16/2021,,42000,,"8711 WHEATON FOREST LN",HOUSTON,TX,77356,"COPPER LAKES",,"CHANCHAL HAYR","8711 WHEATON FOREST LN",HOUSTON,TX,77356,,Owner,,,,,"BLUE HAVEN POOLS",,,,,"BLUE HAVEN POOLS","2201 HIGHWAY 6 S",HOUSTON,TX,77077-4321,"(281) 497-5711",,,,
TX,HARRIS,2103170166,"Residential Swimming Pools & Spas",3/16/2021,,50000,,"14 SOLEBROOK PATH",HOUSTON,TX,77356,"THE WOODLANDS CREEKSIDE",,"ALVIN & JANET LONG","14 SOLEBROOK PATH",HOUSTON,TX,77356,,Owner,,,,,OWNER,,,,,OWNER,,,,,,,,,
TX,HARRIS,2103180138,"Residential Swimming Pools & Spas",3/16/2021,,99160,,"15503 FLAG POND CT",HOUSTON,TX,77356,"BRIDGELAND PARKLAND VILLAGE",,"ANTHONY COULTATE","15503 FLAG POND CT",HOUSTON,TX,77356,,Owner,,,,,"BACKYARD OASIS",,,,,"BACKYARD OASIS","16340 FM 2920",HOUSTON,TX,77377,"(281) 357-8161",http://www.bkydoasis.com/,,,
TX,HARRIS,2103170138,"Residential Swimming Pools & Spas",3/16/2021,,111759,,"18 HEDGEDALE WAY",HOUSTON,TX,77356,"THE WOODLANDS VILLAGE",,"DUSTIN WATERS","18 HEDGEDALE WAY",HOUSTON,TX,77356,,Owner,,,,,"BACKYARD OASIS",,,,,"BACKYARD OASIS","16340 FM 2920",HOUSTON,TX,77377,"(281) 357-8161",http://www.bkydoasis.com/,,,
TX,HARRIS,2103170044,"Residential Swimming Pools & Spas",3/16/2021,,112000,,"20314 TANGALA DR",HOUSTON,TX,77356,"FALLS AT DRY CREEK",,CONTRACTOR,,,,,,,,,,,"BACKYARD OASIS",,,,,"BACKYARD OASIS","16340 FM 2920",HOUSTON,TX,77377,"(281) 357-8161",http://www.bkydoasis.com/,,,
TX,HARRIS,2103180176,"Residential Swimming Pools & Spas",3/17/2021,,75847,,"18930 TRINITY STAR DR",HOUSTON,TX,77356,"BRIDGELAND HIDDEN CREEK",,"CATHY AND PETE HARGRAVES","18930 TRINITY STAR DR",HOUSTON,TX,77356,,Owner,,,,,OWNER,,,,,OWNER,,,,,,,,,
TX,HARRIS,2103140009,"Residential Swimming Pools & Spas",3/16/2021,,40000,,"13403 ROCKY CREEK ESTATES DR",HOUSTON,TX,77356,"ROCKY CREEK ESTATES",,"ARIC ALDRICH","13403 ROCKY CREEK ESTATES DR",HOUSTON,TX,77356,,Owner,,,,,OWNER,,,,,OWNER,,,,,,,,,
TX,HARRIS,2103160058,"Residential Swimming Pools & Spas",3/16/2021,,81606,,"14014 COPPERWILLOW CT",HOUSTON,TX,77356,SUMMERWOOD,,"CARLO ZAPATA","14014 COPPERWILLOW CT",HOUSTON,TX,77356,,Owner,,,,,OWNER,,,,,OWNER,,,,,,,,,
TX,HARRIS,2101190064,"Residential Swimming Pools & Spas",3/16/2021,,120000,1002,"228 MAGNOLIA ST",HOUSTON,TX,77356,,,"CARLOS LINARES","228 MAGNOLIA ST",HOUSTON,TX,77356,,Owner,,,,,OWNER,,,,,OWNER,,,,,,,,,
TX,HARRIS,2103120029,"Residential Swimming Pools & Spas",3/16/2021,,30000,,"6118 FOX WIND CT",HOUSTON,TX,77356,,,CUEVAS,"6118 FOX WIND CT",HOUSTON,TX,77356,,Owner,,,,,OWNER,,,,,OWNER,,,,,,,,,
TX,HARRIS,2103120104,"Residential Swimming Pools & Spas",3/16/2021,,47000,,"20435 CORBIN CREEK DR",HOUSTON,TX,77356,,,"MOISES PEREZ","20435 CORBIN CREEK DR",HOUSTON,TX,77356,,Owner,,,,,OWNER,,,,,OWNER,,,,,,,,,
TX,HARRIS,2103080130,"Residential Swimming Pools & Spas",3/16/2021,,69700,,"14519 CAROLINA HOLLOW LN",HOUSTON,TX,77356,SUMMERWOOD,,"LUIS AND LAURA GUZMAN","14519 CAROLINA HOLLOW LN",HOUSTON,TX,77356,,Owner,,,,,OWNER,,,,,OWNER,,,,,,,,,
TX,HARRIS,2103180180,"Residential Swimming Pools & Spas",3/16/2021,,40000,,"9006 ENSEMBLE CT",HOUSTON,TX,77356,"WOODWIND LAKES",,"JACOB BELZESKI","9006 ENSEMBLE CT",HOUSTON,TX,77356,,Owner,,,,,OWNER,,,,,OWNER,,,,,,,,,
TX,HARRIS,2101270071,"Residential Swimming Pools & Spas",3/16/2021,,74035,,"70 BEACONS LIGHT PL",HOUSTON,TX,77356,,,"SABA KENNY","70 BEACONS LIGHT PL",HOUSTON,TX,77356,,Owner,,,,,OWNER,,,,,OWNER,,,,,,,,,
TX,MONTGOMERY,21-0163,"Residential Swimming Pools & Spas",3/16/2021,,,,"12517  FALLS CT",WILLIS,TX,77378,,,"GARRET & KIMBERLY HAWKINS","12517  FALLS CT",WILLIS,TX,77378,,Owner,,,,,"TOTAL POOL CARE",,,,,"TOTAL POOL CARE","1018 SAWDUST ROAD 20",SPRING,TX,77380,"(832) 332-9988",https://www.totalpoolcare.net/,,,
TX,MONTGOMERY,210169,"Residential Swimming Pools & Spas",3/22/2021,,,,"27218 BLUEBERRY HILL DR","OAK RIDGE NORTH",TX,77385,,,"BRENDA TYLLICK","27218 BLUEBERRY HILL DR","OAK RIDGE NORTH",TX,77385,,Owner,,,,,"RICHARD'S TOTAL BACKYARD SOLUTIONS ",,,,,"RICHARD'S TOTAL BACKYARD SOLUTIONS ","1701 HIGHWAY 6 S",HOUSTON,TX,77077-2803,"(713) 777-7665",http://richardstbs.com/,,"JULIE RICHARD",info@totalbackyardsolutions.com
TX,HARRIS,21048,"Residential Swimming Pools & Spas",3/2/2021,,50000,,"4203 LONG GROVE DR","TAYLOR LAKE VILLAGE",TX,77586,,,"LAURA BEECHY","4203 LONG GROVE DR","TAYLOR LAKE VILLAGE",TX,77586,,Owner,,,,,OWNER,,,,,OWNER,,,,,,,,,
TX,HARRIS,21051,"Residential Swimming Pools & Spas",3/3/2021,,35000,,"1215 LAKE COUNTRY DR","TAYLOR LAKE VILLAGE",TX,77586,,,"MATTHEW GOLDMAN","1215 LAKE COUNTRY DR","TAYLOR LAKE VILLAGE",TX,77586,,Owner,,,,,"BACKYARD AMENITIES",,,,,"BACKYARD AMENITIES","11163 OLD NEEDLEPOINT RD STE 100",BAYTOWN,TX,77523-9784,"(281) 837-8234",http://www.backyardamenities.com,,,info@backyardamenities.com
TX,HARRIS,20120202,"Residential Swimming Pools & Spas",3/24/2021,,64341,964,"2214 S FISHER CT",PASADENA,TX,77502,,,"CONNIE & RODNEY DAVIS","2214 S FISHER CT",PASADENA,TX,77502,,Owner,,,,,"LAGUNA POOLS & DESIGNS",,,,,"LAGUNA POOLS & DESIGNS","1010 GREENBUSCH RD",KATY,TX,77494-5602,"(281) 392-8833",http://www.lagunapools.com,"(281) 392-0261",,info@lagunapools.com
TX,HARRIS,20120534,"Residential Swimming Pools & Spas",3/8/2021,,52000,1393,"2525 LILAC ST",PASADENA,TX,77503,,,"KARINA MARTINEZ","2525 LILAC ST",PASADENA,TX,77503,,Owner,,,,,"LIVING WATER CUSTOM POOLS",,,,,"LIVING WATER CUSTOM POOLS","1030 OAKBROOK DR",WYLIE,TX,75098-5427,"(469) 703-4800",http://www.livingwatercustompools.com/,,,info@livingwatercustompools.com
TX,HARRIS,21010065,"Residential Swimming Pools & Spas",3/1/2021,,56000,,"7315 TIMBERLINE DR",PASADENA,TX,77505,,,"CLARENCE ADKINS","7315 TIMBERLINE DR",PASADENA,TX,77505,,Owner,,,,,"PREMIER POOLS & SPAS",,,,,"PREMIER POOLS & SPAS","2810 BUSINESS CENTER DR STE 126",PEARLAND,TX,77584-9783,"(713) 436-4944",,"(713) 436-0081","BILL UNGER",bunger@ppas.com
TX,HARRIS,21010271,"Residential Swimming Pools & Spas",3/4/2021,,30000,,"5522 WYNDHAM SUMMIT WAY",PASADENA,TX,77505,,,"DAVID & KELLY HAYNIE","5522 WYNDHAM SUMMIT WAY",PASADENA,TX,77505,,Owner,,,,,"BACKYARD AMENITIES",,,,,"BACKYARD AMENITIES","11163 OLD NEEDLEPOINT RD STE 100",BAYTOWN,TX,77523-9784,"(281) 837-8234",http://www.backyardamenities.com,,,info@backyardamenities.com
TX,HARRIS,21020191,"Residential Swimming Pools & Spas",3/30/2021,,35000,524,"2011 WICHITA ST",PASADENA,TX,77502,,,"JESSE GARZA","2011 WICHITA ST",PASADENA,TX,77502,,Owner,,,,,"PENA POOLS BY DESIGN",,,,,"PENA POOLS BY DESIGN","7507 HERON LAKES DR",HOUSTON,TX,77064-1735,"(281) 804-3137",,,"DIEGO PENA",
TX,HARRIS,21020204,"Residential Swimming Pools & Spas",3/3/2021,,40995,832,"7826 SENTOSA CREEK LN",PASADENA,TX,77505,,,"TONY & JESSICA RAGSDALE","7826 SENTOSA CREEK LN",PASADENA,TX,77505,,Owner,,,,,"ANTHONY & SYLVAN POOLS",,,,,"ANTHONY & SYLVAN POOLS","1424 W SAM HOUSTON PKWY N",HOUSTON,TX,77043-3193,"(713) 467-6458",http://www.anthonysylvan.com/,,,
TX,HARRIS,21020208,"Residential Swimming Pools & Spas",3/2/2021,,30000,1057,"5127 EULA  AVE",PASADENA,TX,77505,,,"ALBINO GOBEA","5127 EULA  AVE",PASADENA,TX,77505,,Owner,,,,,"BACKYARD AMENITIES",,,,,"BACKYARD AMENITIES","11163 OLD NEEDLEPOINT RD STE 100",BAYTOWN,TX,77523-9784,"(281) 837-8234",http://www.backyardamenities.com,,,info@backyardamenities.com
TX,HARRIS,21030045,"Residential Swimming Pools & Spas",3/11/2021,,30000,454,"5519 HARTFORD GROVE DR",PASADENA,TX,77505,,,"CRYSTAL MIRE","5519 HARTFORD GROVE DR",PASADENA,TX,77505,,Owner,,,,,"BACKYARD AMENITIES",,,,,"BACKYARD AMENITIES","11163 OLD NEEDLEPOINT RD STE 100",BAYTOWN,TX,77523-9784,"(281) 837-8234",http://www.backyardamenities.com,,,info@backyardamenities.com
TX,BRAZOS,POOL2021-000019,"Residential Swimming Pools & Spas",3/2/2021,,40000,,"3664 HASKELL HOLLOW LOOP","COLLEGE STATION",TX,77845,"MISSION RANCH",,"MICHAEL MIA","3664 HASKELL HOLLOW LOOP","COLLEGE STATION",TX,77845,,Owner,,,,,"GARCIA CONSTRUCTION",,,,,"GARCIA CONSTRUCTION","201 COUNTY ROAD 469",MILES,TX,76861-6610,"(325) 300-8730",,,"Miguel Garcia",
TX,BRAZOS,POOL2021-000005,"Residential Swimming Pools & Spas",3/4/2021,,147261,,"1411 ROYAL ADELADE DR","COLLEGE STATION",TX,77845,"PEBBLE CREEK",,"BRADLEY & ALLISON TROCHTA","1411 ROYAL ADELADE DR","COLLEGE STATION",TX,77845,,Owner,,,,,"HITTS LANDSCAPE ",,,,,"HITTS LANDSCAPE ","1350 PEACH CREEK CUT OFF","COLLEGE STATION",TX,77845-8714,"(979) 690-6244",http://www.hittslandscaping.com/,"(979) 690-6911","SHAWN HITT",landscape@txcyber.com
TX,BRAZOS,POOL2021-000022,"Residential Swimming Pools & Spas",3/5/2021,,35000,,"1916 BAREBOOT TRL","COLLEGE STATION",TX,77845,"THE CROSSING AT LICK CREEK",,"JONATHAN & SHARON FELTS","1916 BAREBOOT TRL","COLLEGE STATION",TX,77845,,Owner,,,,,"PARADISE OASIS POOLS",,,,,"PARADISE OASIS POOLS","404 UNIVERSITY DR E STE B","COLLEGE STATION",TX,77840-1743,"(979) 704-6102",http://www.paradiseoasispools.com/,,,
TX,BRAZOS,POOL2020-000087,"Residential Swimming Pools & Spas",3/8/2021,,50000,,"1433 ROYAL ADELADE LOOP","COLLEGE STATION",TX,77845,"PEBBLE CREEK",,"JAMES & PATRICIA SHEBLE","1433 ROYAL ADELADE LOOP","COLLEGE STATION",TX,77845,,Owner,,,,,"THE POOL GUY",,,,,"THE POOL GUY","2151 HARVEY MITCHELL PKWY S STE 313","COLLEGE STATION",TX,77840-5243,"(979) 575-6200",,,,
TX,BRAZOS,POOL2020-000088,"Residential Swimming Pools & Spas",3/8/2021,,50000,,"4729 JOHNSON CREEK LOOP","COLLEGE STATION",TX,77845,"WILLIAMS CREEK",,"HEATHER LENCH","4729 JOHNSON CREEK LOOP","COLLEGE STATION",TX,77845,,Owner,,,,,"THE POOL GUY",,,,,"THE POOL GUY","2151 HARVEY MITCHELL PKWY S STE 313","COLLEGE STATION",TX,77840-5243,"(979) 575-6200",,,,
TX,BRAZOS,POOL2021-000011,"Residential Swimming Pools & Spas",3/8/2021,,55000,,"4704 PEARL RIVER CT","COLLEGE STATION",TX,77845,"GREENS PRAIRIE RESERVE",,CONTRACTOR,,,,,,,,,,,"SUNSHINE FUN POOLS ",,,,,"SUNSHINE FUN POOLS ","4200 STATE HIGHWAY 6 S","COLLEGE STATION",TX,77845-8966,"(979) 690-3343",,,,
TX,BRAZOS,POOL2021-000016,"Residential Swimming Pools & Spas",3/8/2021,,45000,,"5014 YELLOW TANAGER CT","COLLEGE STATION",TX,77845,"BIRD POND",,CONTRACTOR,,,,,,,,,,,"SUNSHINE FUN POOLS ",,,,,"SUNSHINE FUN POOLS ","4200 STATE HIGHWAY 6 S","COLLEGE STATION",TX,77845-8966,"(979) 690-3343",,,,
TX,BRAZOS,POOL2021-000020,"Residential Swimming Pools & Spas",3/8/2021,,62000,,"807 SOUTHERN HILLS CT","COLLEGE STATION",TX,77845,"PEBBLE CREEK",,"ANDREW & CHERYL ROBISON","807 SOUTHERN HILLS CT","COLLEGE STATION",TX,77845,,Owner,,,,,"THE POOL GUY",,,,,"THE POOL GUY","2151 HARVEY MITCHELL PKWY S STE 313","COLLEGE STATION",TX,77840-5243,"(979) 575-6200",,,,
TX,BRAZOS,POOL2021-000021,"Residential Swimming Pools & Spas",3/8/2021,,82000,,"4401 EDINBURGH PL","COLLEGE STATION",TX,77845,CASTLEGATE,,"STEVEN & ASHLEY JOLLY","4401 EDINBURGH PL","COLLEGE STATION",TX,77845,,Owner,,,,,"THE POOL GUY",,,,,"THE POOL GUY","2151 HARVEY MITCHELL PKWY S STE 313","COLLEGE STATION",TX,77840-5243,"(979) 575-6200",,,,
TX,BRAZOS,POOL2021-000023,"Residential Swimming Pools & Spas",3/8/2021,,58200,,"4110 BRIDGEWOOD CT","COLLEGE STATION",TX,77845,BRIDGEWOOD,,"MANUEL & CAROL FIGUEROA","4110 BRIDGEWOOD CT","COLLEGE STATION",TX,77845,,Owner,,,,,"PREMIER POOLS & SPAS",,,,,"PREMIER POOLS & SPAS","2810 BUSINESS CENTER DR STE 126",PEARLAND,TX,77584-9783,"(713) 436-4944",,"(713) 436-0081","BILL UNGER",bunger@ppas.com
TX,BRAZOS,POOL2021-000025,"Residential Swimming Pools & Spas",3/22/2021,,55000,,"2706 SCATTERBY CV","COLLEGE STATION",TX,77845,CASTLEGATE,,"ALAN & ANN RICKS","2706 SCATTERBY CV","COLLEGE STATION",TX,77845,,Owner,,,,,"HEATH TOWNSEND HOMES",,,,,"HEATH TOWNSEND HOMES","2306 KENDAL GREEN CIR","COLLEGE STATION",TX,77845-4840,"(979) 574-0374",http://heathtownsendhomes.com/,,,heath@heathtownsendhomes.com
TX,BRAZOS,POOL2021-000026,"Residential Swimming Pools & Spas",3/22/2021,,65000,,"2708 SCATTERBY CV","COLLEGE STATION",TX,77845,CASTLEGATE,,"ALAN & ANN RICKS","2708 SCATTERBY CV","COLLEGE STATION",TX,77845,,Owner,,,,,"HEATH TOWNSEND HOMES",,,,,"HEATH TOWNSEND HOMES","2306 KENDAL GREEN CIR","COLLEGE STATION",TX,77845-4840,"(979) 574-0374",http://heathtownsendhomes.com/,,,heath@heathtownsendhomes.com
TX,BRAZOS,POOL2021-000029,"Residential Swimming Pools & Spas",3/26/2021,,70000,,"2912 CAMILLE DR","COLLEGE STATION",TX,77845,"SOUTHWOOD FOREST",,"ANDREW & CASEY MIDDLETON","2912 CAMILLE DR","COLLEGE STATION",TX,77845,,Owner,,,,,"THE POOL GUY",,,,,"THE POOL GUY","2151 HARVEY MITCHELL PKWY S STE 313","COLLEGE STATION",TX,77840-5243,"(979) 575-6200",,,,
TX,BRAZOS,POOL2021-000027,"Residential Swimming Pools & Spas",3/29/2021,,50000,,"2708 SANDY CIR","COLLEGE STATION",TX,77845,"SOUTHWOOD VALLEY",,"MICHAEL BONAFEDE","2708 SANDY CIR","COLLEGE STATION",TX,77845,,Owner,,,,,"AQUAMARINE POOLS",,,,,"AQUAMARINE POOLS","25730 INTERSTATE 45",HOUSTON,TX,77386,"(281) 734-2543",,,,
TX,BRAZOS,POOL2021-000030,"Residential Swimming Pools & Spas",3/29/2021,,35000,,"4901 CRYSTAL RIDGE CT","COLLEGE STATION",TX,77845,"GREENS PRAIRIE RESERVE",,"RICHARD & CHERIE PERKINS","4901 CRYSTAL RIDGE CT","COLLEGE STATION",TX,77845,,Owner,,,,,"PARADISE OASIS POOLS",,,,,"PARADISE OASIS POOLS","404 UNIVERSITY DR E STE B","COLLEGE STATION",TX,77840-1743,"(979) 704-6102",http://www.paradiseoasispools.com/,,,
TX,BRAZOS,POOL2021-000031,"Residential Swimming Pools & Spas",3/30/2021,,48000,,"5304 QUAKER RIDGE CT","COLLEGE STATION",TX,77845,"PEBBLE CREEK",,"DOUGLAS & MELISSA PITTMAN","5304 QUAKER RIDGE CT","COLLEGE STATION",TX,77845,,Owner,,,,,"THE POOL GUY",,,,,"THE POOL GUY","2151 HARVEY MITCHELL PKWY S STE 313","COLLEGE STATION",TX,77840-5243,"(979) 575-6200",,,,
TX,MONTGOMERY,21-0125,"Restaurant and Bar",3/16/2021,,516859,,"13390 E 1097 FM",WILLIS,TX,77378,,,CONTRACTOR,,,,,,,,,,,"BOBCAT CONCRETE SERVICES",,,,,"BOBCAT CONCRETE SERVICES","14635 MARINE RD",HUMBLE,TX,77396,"(281) 441-2226"," ",,"GINA LUSK",
TX,BELL,FY-21-35-BCRR,"Restaurant and Bar",3/16/2021,,45000,,"1508 W ADAMS AVE",TEMPLE,TX,76504,,,CONTRACTOR,,,,,,,,,,,"HOOVER & ASSOCIATES",,,,,"HOOVER & ASSOCIATES","1407 W 46TH ST",AUSTIN,TX,78756-3005,"(512) 467-2626",,,,
TX,BRAZOS,RMDL2021-000018,"Restaurant and Bar",3/4/2021,Renovation,300000,2030,"1505 TEXAS AVE S # B","COLLEGE STATION",TX,77840,,,CONTRACTOR,,,,,,,,,,,"4 SEASONS CONSTRUCTION",,,,,"4 SEASONS CONSTRUCTION","711 WELLINGTON PT",HOUSTON,TX,77094-1132,"(832) 275-6695",,,,
TX,BRAZOS,CTFO2021-000002,"Restaurant and Bar",3/15/2021,"Finish Out",200000,2034,"1151 WILLIAM D FITCH PKWY 400","COLLEGE STATION",TX,77840,,,CONTRACTOR,,,,,,,,,,,"CREATE CONSTRUCTION",,,,,"CREATE CONSTRUCTION","210 N DWIGHT AVE",DALLAS,TX,75211,"(214) 664-8589",,,,
TX,BRAZOS,CNEW2021-000006,"Restaurant and Bar",3/22/2021,,400000,862,"4009 STATE HIGHWAY 6 S","COLLEGE STATION",TX,77845,,,CONTRACTOR,,,,,,,,,,,"WYATT MANAGEMENT",,,,,"WYATT MANAGEMENT","3336 SPRING STUEBNER RD",SPRING,TX,77389-4782,"(281) 907-7661",,,,
TX,BRAZOS,RMDL2020-000058,"Restaurant and Bar",3/24/2021,Renovation,120000,3455,"2501 TEXAS AVE S E-100","COLLEGE STATION",TX,77840,,,CONTRACTOR,,,,,,,,,,,"CA CONTRACTOR",,,,,"CA CONTRACTOR","9767 PAGEWOOD LN",HOUSTON,TX,77042,"(832) 387-1410",http://cacontractortx.com/,,,info@cacontractortx.com
TX,BRAZOS,RMDL2021-000035,"Restaurant and Bar",3/24/2021,Renovation,45000,3300,"4400 STATE HIGHWAY 6 S 100","COLLEGE STATION",TX,77840,,,CONTRACTOR,,,,,,,,,,,"J CREW REMODELING",,,,,"J CREW REMODELING","11519 PINOLE LN CT",HOUSTON,TX,77066,"(281) 880-7884",,,,
TX,HARRIS,2010290197,Retail,3/16/2021,,1300000,4754,"227 N MAIN ST",HOUSTON,TX,77356,,,"7 ELEVEN-TACO LAREDO","227 N MAIN ST",HOUSTON,TX,77356,,Owner,,,,,OWNER,,,,,OWNER,,,,,,,,,
TX,HARRIS,210406,Retail,3/19/2021,Renovation,80000,15582,"20131 HWY 59 N STE 1224",HUMBLE,TX,77338,,,CONTRACTOR,,,,,,,,,,,"CULP CONSTRUCTION COMPANY",,,,,"CULP CONSTRUCTION COMPANY","1 TECHNOLOGY DR STE D411",IRVINE,CA,92618-5328,"(949) 727-3552",http://culpco.com/,"(949) 727-3661",,info@culpco.com
TX,HARRIS,21020476,Retail,3/18/2021,,4700000,25077,"5025 PRESTON",PASADENA,TX,77505,,,CONTRACTOR,,,,,,,,,,,"EE REED CONSTRUCTION",,,,,"EE REED CONSTRUCTION","333 COMMERCE",HOUSTON,TX,77478,"(832) 300-4900",http://www.eereed.com,,,
TX,MONTGOMERY,182013-21,Retail,3/24/2021,,300000,,"21970 FM 1314",HOUSTON,TX,77356,"CUMBERLAND CENTER",,CONTRACTOR,,,,,,,,,,,"TWO SONS ENVIRONMENTAL SERVICES",,,,,"TWO SONS ENVIRONMENTAL SERVICES","23565 FM 1314 RD",PORTER,TX,77365-3724,"(281) 354-9284",http://www.two-sons.net,"(281) 354-2107",,twosonsenvironmental@yahoo.com
TX,MONTGOMERY,182015-21,Retail,3/24/2021,,275000,,"21972 FM 1314",HOUSTON,TX,77356,"CUMBERLAND CENTER",,CONTRACTOR,,,,,,,,,,,"TWO SONS ENVIRONMENTAL SERVICES",,,,,"TWO SONS ENVIRONMENTAL SERVICES","23565 FM 1314 RD",PORTER,TX,77365-3724,"(281) 354-9284",http://www.two-sons.net,"(281) 354-2107",,twosonsenvironmental@yahoo.com
TX,MONTGOMERY,182016-21,Retail,3/24/2021,,200000,,"21974 FM 1314",HOUSTON,TX,77356,"CUMBERLAND CENTER",,CONTRACTOR,,,,,,,,,,,"TWO SONS ENVIRONMENTAL SERVICES",,,,,"TWO SONS ENVIRONMENTAL SERVICES","23565 FM 1314 RD",PORTER,TX,77365-3724,"(281) 354-9284",http://www.two-sons.net,"(281) 354-2107",,twosonsenvironmental@yahoo.com
TX,BRAZOS,CSHL2020-000009,Retail,3/26/2021,,350000,4277,"1437 WELLBORN RD","COLLEGE STATION",TX,77840,,,CONTRACTOR,,,,,,,,,,,JACODY,,,,,JACODY,"10770 STATE HIGHWAY 30 STE 40","COLLEGE STATION",TX,77845-7939,"(979) 774-5613",,,"CODY MCKEAN",
TX,HARRIS,2103250150,"Single Family Homes",3/16/2021,,87760,2194,"5315 SUNNY RAY DR",HOUSTON,TX,77356,MARISOL,,CONTRACTOR,,,,,,,,,,,"BEAZER HOMES ",,,,,"BEAZER HOMES ","10235 W LITTLE YORK",HOUSTON,TX,77040,"(713) 849-2252",http://www.beazer.com/,,,
TX,HARRIS,2103250152,"Single Family Homes",3/16/2021,,82440,2061,"4507 RED YUCCA DR",HOUSTON,TX,77356,"ASHBEL CROSSING ",,CONTRACTOR,,,,,,,,,,,"BEAZER HOMES ",,,,,"BEAZER HOMES ","10235 W LITTLE YORK",HOUSTON,TX,77040,"(713) 849-2252",http://www.beazer.com/,,,
TX,HARRIS,2103250153,"Single Family Homes",3/16/2021,,110920,2773,"15414 HILL COUNTRY OAKS LN",HOUSTON,TX,77356,"BRIDGELAND PARKLAND VILLAGE",,CONTRACTOR,,,,,,,,,,,"BEAZER HOMES ",,,,,"BEAZER HOMES ","10235 W LITTLE YORK",HOUSTON,TX,77040,"(713) 849-2252",http://www.beazer.com/,,,
TX,HARRIS,2103250160,"Single Family Homes",3/16/2021,,126280,3157,"19018 YELLOWSTONE LANDING CT",HOUSTON,TX,77356,"BRIDGELAND PARKLAND VILLAGE",,CONTRACTOR,,,,,,,,,,,"BEAZER HOMES ",,,,,"BEAZER HOMES ","10235 W LITTLE YORK",HOUSTON,TX,77040,"(713) 849-2252",http://www.beazer.com/,,,
TX,HARRIS,2103250162,"Single Family Homes",3/16/2021,,73240,1831,"6431 PURPLE WREATH WAY",HOUSTON,TX,77356,LANTANA,,CONTRACTOR,,,,,,,,,,,"BEAZER HOMES ",,,,,"BEAZER HOMES ","10235 W LITTLE YORK",HOUSTON,TX,77040,"(713) 849-2252",http://www.beazer.com/,,,
TX,HARRIS,2103250167,"Single Family Homes",3/16/2021,,111480,2787,"6427 PURPLE WREATH WAY",HOUSTON,TX,77356,LANTANA,,CONTRACTOR,,,,,,,,,,,"BEAZER HOMES ",,,,,"BEAZER HOMES ","10235 W LITTLE YORK",HOUSTON,TX,77040,"(713) 849-2252",http://www.beazer.com/,,,
TX,HARRIS,2103250174,"Single Family Homes",3/16/2021,,127765,2323,"14207 ALPINE FIR DR",HOUSTON,TX,77356,"PECAN ESTATES",,CONTRACTOR,,,,,,,,,,,"CASTLEROCK COMMUNITIES",,,,,"CASTLEROCK COMMUNITIES","7670 WOODWAY DR STE 300",HOUSTON,TX,77063-1520,"(713) 600-7000",http://c-rock.com,"(713) 600-0000",,
TX,HARRIS,2103240086,"Single Family Homes",3/16/2021,,606654,5086,"19526 HICKORY HEIGHTS DR",HOUSTON,TX,77356,"TOWNE LAKE",,CONTRACTOR,,,,,,,,,,,"NEWMARK HOMES",,,,,"NEWMARK HOMES","10455 BRIAR FOREST SUITE 200",HOUSTON,TX,77042,"(713) 346-0200",,"(713) 346-0226",,
TX,HARRIS,2103240087,"Single Family Homes",3/16/2021,,544352,4821,"15523 WILDERNESS RUN DR",HOUSTON,TX,77356,"BRIDGELAND PARKLAND VILLAGE",,CONTRACTOR,,,,,,,,,,,"NEWMARK HOMES",,,,,"NEWMARK HOMES","10455 BRIAR FOREST SUITE 200",HOUSTON,TX,77042,"(713) 346-0200",,"(713) 346-0226",,
TX,HARRIS,2103240088,"Single Family Homes",3/16/2021,,661380,5059,"11202 OAKCREST MANOR LN",HOUSTON,TX,77356,"TOWNE LAKE",,CONTRACTOR,,,,,,,,,,,"NEWMARK HOMES",,,,,"NEWMARK HOMES","10455 BRIAR FOREST SUITE 200",HOUSTON,TX,77042,"(713) 346-0200",,"(713) 346-0226",,
TX,HARRIS,2103240090,"Single Family Homes",3/16/2021,,344896,3533,"13747 BRAHMAN VALLEY CT",HOUSTON,TX,77356,"COPPER RIDGE",,CONTRACTOR,,,,,,,,,,,"NEWMARK HOMES",,,,,"NEWMARK HOMES","10455 BRIAR FOREST SUITE 200",HOUSTON,TX,77042,"(713) 346-0200",,"(713) 346-0226",,
TX,HARRIS,2103240092,"Single Family Homes",3/16/2021,,341552,3485,"18303 SUNSET ELM DR",HOUSTON,TX,77356,"TOWNE LAKE",,CONTRACTOR,,,,,,,,,,,"NEWMARK HOMES",,,,,"NEWMARK HOMES","10455 BRIAR FOREST SUITE 200",HOUSTON,TX,77042,"(713) 346-0200",,"(713) 346-0226",,
TX,HARRIS,2103240093,"Single Family Homes",3/16/2021,,379054,3400,"11827 LOST MAPLES SPRINGS DR",HOUSTON,TX,77356,"TOWNE LAKE",,CONTRACTOR,,,,,,,,,,,"NEWMARK HOMES",,,,,"NEWMARK HOMES","10455 BRIAR FOREST SUITE 200",HOUSTON,TX,77042,"(713) 346-0200",,"(713) 346-0226",,
TX,HARRIS,2103250032,"Single Family Homes",3/16/2021,,354132,3472,"18327 PEDERNALES SPRINGS DR",HOUSTON,TX,77356,"TOWNE LAKE",,CONTRACTOR,,,,,,,,,,,"NEWMARK HOMES",,,,,"NEWMARK HOMES","10455 BRIAR FOREST SUITE 200",HOUSTON,TX,77042,"(713) 346-0200",,"(713) 346-0226",,
TX,HARRIS,2103250042,"Single Family Homes",3/16/2021,,330252,3023,"11807 TWIN CREEKS HILL DR",HOUSTON,TX,77356,"TOWNE LAKE",,CONTRACTOR,,,,,,,,,,,"NEWMARK HOMES",,,,,"NEWMARK HOMES","10455 BRIAR FOREST SUITE 200",HOUSTON,TX,77042,"(713) 346-0200",,"(713) 346-0226",,
TX,HARRIS,2103250048,"Single Family Homes",3/16/2021,,342727,3525,"18215 SUNSET ELM DR",HOUSTON,TX,77356,"TOWNE LAKE",,CONTRACTOR,,,,,,,,,,,"NEWMARK HOMES",,,,,"NEWMARK HOMES","10455 BRIAR FOREST SUITE 200",HOUSTON,TX,77042,"(713) 346-0200",,"(713) 346-0226",,
TX,HARRIS,2103250058,"Single Family Homes",3/16/2021,,335976,2614,"15010 BOAT HOUSE CT",HOUSTON,TX,77356,"BRIDGELAND PARKLAND VILLAGE",,CONTRACTOR,,,,,,,,,,,"NEWMARK HOMES",,,,,"NEWMARK HOMES","10455 BRIAR FOREST SUITE 200",HOUSTON,TX,77042,"(713) 346-0200",,"(713) 346-0226",,
TX,HARRIS,2103250063,"Single Family Homes",3/16/2021,,330150,3085,"15022 JOE LAIR DR",HOUSTON,TX,77356,"BRIDGELAND PARKLAND VILLAGE",,CONTRACTOR,,,,,,,,,,,"NEWMARK HOMES",,,,,"NEWMARK HOMES","10455 BRIAR FOREST SUITE 200",HOUSTON,TX,77042,"(713) 346-0200",,"(713) 346-0226",,
TX,HARRIS,2103250078,"Single Family Homes",3/16/2021,,311494,2539,"19410 FANNIN COUNTY LN",HOUSTON,TX,77356,"BRIDGELAND PARKLAND VILLAGE",,CONTRACTOR,,,,,,,,,,,"NEWMARK HOMES",,,,,"NEWMARK HOMES","10455 BRIAR FOREST SUITE 200",HOUSTON,TX,77042,"(713) 346-0200",,"(713) 346-0226",,
TX,HARRIS,2103250083,"Single Family Homes",3/16/2021,,333810,2784,"19406 FANNIN COUNTY LN",HOUSTON,TX,77356,"BRIDGELAND PARKLAND VILLAGE",,CONTRACTOR,,,,,,,,,,,"NEWMARK HOMES",,,,,"NEWMARK HOMES","10455 BRIAR FOREST SUITE 200",HOUSTON,TX,77042,"(713) 346-0200",,"(713) 346-0226",,
TX,HARRIS,2103250183,"Single Family Homes",3/16/2021,,96910,1762,"14206 ALPINE FIR DR",HOUSTON,TX,77356,"PECAN ESTATES",,CONTRACTOR,,,,,,,,,,,"CASTLEROCK COMMUNITIES",,,,,"CASTLEROCK COMMUNITIES","7670 WOODWAY DR STE 300",HOUSTON,TX,77063-1520,"(713) 600-7000",http://c-rock.com,"(713) 600-0000",,
TX,HARRIS,2103250208,"Single Family Homes",3/16/2021,,167255,3041,"423 ALMOND WILLOW LN",HOUSTON,TX,77356,"PECAN ESTATES",,CONTRACTOR,,,,,,,,,,,"CASTLEROCK COMMUNITIES",,,,,"CASTLEROCK COMMUNITIES","7670 WOODWAY DR STE 300",HOUSTON,TX,77063-1520,"(713) 600-7000",http://c-rock.com,"(713) 600-0000",,
TX,HARRIS,2103200011,"Single Family Homes",3/16/2021,,136980,3044,"9211 LAIR COVE DR",HOUSTON,TX,77356,"BRIDGE CREEK",,CONTRACTOR,,,,,,,,,,,"TAYLOR MORRISON OF TEXAS",,,,,"TAYLOR MORRISON OF TEXAS","5353 W SAM HOUSTON PKWY N STE 190",HOUSTON,TX,77041-5186,"(281) 598-3000",,,,
TX,HARRIS,2103190148,"Single Family Homes",3/16/2021,,337990,4098,"6522 TIBURON LAKES DR",HOUSTON,TX,77356,"KATY LAKES",,CONTRACTOR,,,,,,,,,,,"HISTORY MAKER HOMES",,,,,"HISTORY MAKER HOMES","9001 AIRPORT FWY SUITE 400","NORTH RICHLAND HILLS",TX,76180-7769,"(817) 429-8008",http://www.historymaker.com/,"(817) 507-1102","JILL BARFIELD",
TX,HARRIS,2103180161,"Single Family Homes",3/16/2021,,83730,2791,"11923 TWIN CREEKS HILL DR",HOUSTON,TX,77356,"TOWNE LAKE",,CONTRACTOR,,,,,,,,,,,"DAVID WEEKLEY HOMES",,,,,"DAVID WEEKLEY HOMES","14444 NORTHWEST",HOUSTON,TX,77040,"(713) 570-5021",http://www.davidweekleyhomes.com/,,,
TX,HARRIS,2102240133,"Single Family Homes",3/16/2021,,380000,5000,"3629 CAMINO DEL RANCHO RD",HOUSTON,TX,77356,,,"GARCIA ANTHONY","3629 CAMINO DEL RANCHO RD",HOUSTON,TX,77356,,Owner,,,,,OWNER,,,,,OWNER,,,,,,,,,
TX,HARRIS,2103240184,"Single Family Homes",3/16/2021,,118800,2266,"9322 GALLOWAY WOODS TRL",HOUSTON,TX,77356,"LAKES AT CREEKSIDE",,CONTRACTOR,,,,,,,,,,,"TOLL BROTHERS",,,,,"TOLL BROTHERS","10110 W SAM HOUSTON PKWY N STE 350",HOUSTON,TX,77064-7508,"(281) 664-7255",,,,
TX,HARRIS,2103170079,"Single Family Homes",3/16/2021,,118648,2356,"16807 LISBON LN",HOUSTON,TX,77356,NEWPORT,,CONTRACTOR,,,,,,,,,,,"GEHAN HOMES",,,,,"GEHAN HOMES","2050 W SAM HOUSTON PKWY S",HOUSTON,TX,77042-2079,"(713) 243-3545",http://www.gehanhomes.com,,,
TX,HARRIS,2103170120,"Single Family Homes",3/16/2021,,107239,1989,"1215 VILAMOURA CT",HOUSTON,TX,77356,NEWPORT,,CONTRACTOR,,,,,,,,,,,"GEHAN HOMES",,,,,"GEHAN HOMES","2050 W SAM HOUSTON PKWY S",HOUSTON,TX,77042-2079,"(713) 243-3545",http://www.gehanhomes.com,,,
TX,HARRIS,2103170126,"Single Family Homes",3/16/2021,,96372,1872,"16934 LAGOS LN",HOUSTON,TX,77356,,,CONTRACTOR,,,,,,,,,,,"GEHAN HOMES",,,,,"GEHAN HOMES","2050 W SAM HOUSTON PKWY S",HOUSTON,TX,77042-2079,"(713) 243-3545",http://www.gehanhomes.com,,,
TX,HARRIS,2103170135,"Single Family Homes",3/16/2021,,101424,2046,"1207 VILAMOURA CT",HOUSTON,TX,77356,,,CONTRACTOR,,,,,,,,,,,"GEHAN HOMES",,,,,"GEHAN HOMES","2050 W SAM HOUSTON PKWY S",HOUSTON,TX,77042-2079,"(713) 243-3545",http://www.gehanhomes.com,,,
TX,HARRIS,2103050132,"Single Family Homes",3/16/2021,,316324,2242,"4507 ALGERNON DR",HOUSTON,TX,77356,"BIRNAM WOOD",,"TONYA CYRUS","4507 ALGERNON DR",HOUSTON,TX,77356,,Owner,,,,,OWNER,,,,,OWNER,,,,,,,,,
TX,HARRIS,2103180078,"Single Family Homes",3/16/2021,,185000,3690,"3914 BENEVENTO CT",HOUSTON,TX,77356,"MARCELLO LAKES",,CONTRACTOR,,,,,,,,,,,"LEGEND HOMES",,,,,"LEGEND HOMES","10410 WINDAMERE LAKES BLVD",HOUSTON,TX,77065-4996,"(281) 671-9060",http://legendhomecorp.com/,"(281) 671-9055",,
TX,HARRIS,2103180088,"Single Family Homes",3/16/2021,,120000,2433,"24403 TESINO RIVER CIR",HOUSTON,TX,77356,"MARCELLO LAKES",,CONTRACTOR,,,,,,,,,,,"LEGEND HOMES",,,,,"LEGEND HOMES","10410 WINDAMERE LAKES BLVD",HOUSTON,TX,77065-4996,"(281) 671-9060",http://legendhomecorp.com/,"(281) 671-9055",,
TX,HARRIS,2103180103,"Single Family Homes",3/16/2021,,151000,3138,"3502 LAKE BELLA MEGAN DR",HOUSTON,TX,77356,"MARCELLO LAKES",,CONTRACTOR,,,,,,,,,,,"LEGEND HOMES",,,,,"LEGEND HOMES","10410 WINDAMERE LAKES BLVD",HOUSTON,TX,77065-4996,"(281) 671-9060",http://legendhomecorp.com/,"(281) 671-9055",,
TX,HARRIS,2103250028,"Single Family Homes",3/16/2021,,147000,2139,"3723 W ALESSANO LN",HOUSTON,TX,77356,"CAMILLO LAKES",,CONTRACTOR,,,,,,,,,,,"LEGEND HOMES",,,,,"LEGEND HOMES","10410 WINDAMERE LAKES BLVD",HOUSTON,TX,77065-4996,"(281) 671-9060",http://legendhomecorp.com/,"(281) 671-9055",,
TX,HARRIS,2103250029,"Single Family Homes",3/16/2021,,156000,2492,"3731 W ALESSANO LN",HOUSTON,TX,77356,"CAMILLO LAKES",,CONTRACTOR,,,,,,,,,,,"LEGEND HOMES",,,,,"LEGEND HOMES","10410 WINDAMERE LAKES BLVD",HOUSTON,TX,77065-4996,"(281) 671-9060",http://legendhomecorp.com/,"(281) 671-9055",,
TX,HARRIS,2103250030,"Single Family Homes",3/16/2021,,95000,2113,"3735 W ALESSANO LN",HOUSTON,TX,77356,"CAMILLO LAKES",,CONTRACTOR,,,,,,,,,,,"LEGEND HOMES",,,,,"LEGEND HOMES","10410 WINDAMERE LAKES BLVD",HOUSTON,TX,77065-4996,"(281) 671-9060",http://legendhomecorp.com/,"(281) 671-9055",,
TX,HARRIS,2103190050,"Single Family Homes",3/16/2021,,105000,3016,"502 GLACIER BEAR CT",HOUSTON,TX,77356,"KODIAK CROSSING",,CONTRACTOR,,,,,,,,,,,"DEVON STREET HOMES",,,,,"DEVON STREET HOMES","4545 POST OAK PLACE DR STE 345",HOUSTON,TX,77027-3198,"(713) 622-1009",http://www.devonstreethomes.com,"(713) 622-1094",,
TX,HARRIS,2103210008,"Single Family Homes",3/16/2021,,140000,2800,"19030 YELLOWSTONE LANDING CT",HOUSTON,TX,77356,"BRIDGELAND PARKLAND VILLAGE",,CONTRACTOR,,,,,,,,,,,"M/I HOMES",,,,,"M/I HOMES","10910 NORTH SAM HOUSTON PKWY W",HOUSTON,TX,77064,"(832) 912-1012",,,,
TX,HARRIS,2103210007,"Single Family Homes",3/16/2021,,140000,2800,"15039 OLD HORSESHOE LAKE DR",HOUSTON,TX,77356,"BRIDGELAND PARKLAND VILLAGE",,CONTRACTOR,,,,,,,,,,,"M/I HOMES",,,,,"M/I HOMES","10910 NORTH SAM HOUSTON PKWY W",HOUSTON,TX,77064,"(832) 912-1012",,,,
TX,HARRIS,2103250057,"Single Family Homes",3/16/2021,,238010,2436,"11666 BRAEMAR VILLAGE DR",HOUSTON,TX,77356,"BRAEMAR VILLAGE",,CONTRACTOR,,,,,,,,,,,"PULTE HOMES",,,,,"PULTE HOMES","16670 PARK ROW",HOUSTON,TX,77084-6866,"(281) 749-8000",,,,
TX,HARRIS,2103250061,"Single Family Homes",3/16/2021,,220110,2037,"11674 BRAEMAR VILLAGE DR",HOUSTON,TX,77356,"BRAEMAR VILLAGE",,CONTRACTOR,,,,,,,,,,,"PULTE HOMES",,,,,"PULTE HOMES","16670 PARK ROW",HOUSTON,TX,77084-6866,"(281) 749-8000",,,,
TX,HARRIS,2103250073,"Single Family Homes",3/17/2021,,226560,2065,"11662 BRAEMAR VILLAGE DR",HOUSTON,TX,77356,"BRAEMAR VILLAGE",,CONTRACTOR,,,,,,,,,,,"PULTE HOMES",,,,,"PULTE HOMES","16670 PARK ROW",HOUSTON,TX,77084-6866,"(281) 749-8000",,,,
TX,HARRIS,2103250072,"Single Family Homes",3/16/2021,,122210,2222,"15207 WESTBURN LOCH DR",HOUSTON,TX,77356,BALMORAL,,CONTRACTOR,,,,,,,,,,,"CASTLEROCK COMMUNITIES",,,,,"CASTLEROCK COMMUNITIES","7670 WOODWAY DR STE 300",HOUSTON,TX,77063-1520,"(713) 600-7000",http://c-rock.com,"(713) 600-0000",,
TX,HARRIS,2103250077,"Single Family Homes",3/16/2021,,228160,2263,"11670 BRAEMAR VILLAGE DR",HOUSTON,TX,77356,"BRAEMAR VILLAGE",,CONTRACTOR,,,,,,,,,,,"PULTE HOMES",,,,,"PULTE HOMES","16670 PARK ROW",HOUSTON,TX,77084-6866,"(281) 749-8000",,,,
TX,HARRIS,2103020029,"Single Family Homes",3/16/2021,,80000,3238,"4202 SWAYING TREE LN",HOUSTON,TX,77356,"WESTFIELD RANCH",,CONTRACTOR,,,,,,,,,,,"LONG LAKE HOMES",,,,,"LONG LAKE HOMES","15915 KATY FWY STE 405",HOUSTON,TX,77094-1710,"(281) 646-1727",http://www.longlakeltd.com/,,"DAVID BIGLER",
TX,HARRIS,2103020020,"Single Family Homes",3/16/2021,,103000,4571,"21003 BIG CYPRESS CREEK TRL",HOUSTON,TX,77356,"CYPRESSWOOD POINT",,CONTRACTOR,,,,,,,,,,,"LONG LAKE HOMES",,,,,"LONG LAKE HOMES","15915 KATY FWY STE 405",HOUSTON,TX,77094-1710,"(281) 646-1727",http://www.longlakeltd.com/,,"DAVID BIGLER",
TX,HARRIS,2103090020,"Single Family Homes",3/16/2021,,96000,4187,"4514 BUENTELLO DR",HOUSTON,TX,77356,"WESTFIELD RANCH",,CONTRACTOR,,,,,,,,,,,"LONG LAKE HOMES",,,,,"LONG LAKE HOMES","15915 KATY FWY STE 405",HOUSTON,TX,77094-1710,"(281) 646-1727",http://www.longlakeltd.com/,,"DAVID BIGLER",
TX,HARRIS,2103110015,"Single Family Homes",3/16/2021,,103000,4449,"24506 MILTONWOOD ST",HOUSTON,TX,77356,"BRADBURY FOREST",,CONTRACTOR,,,,,,,,,,,"LONG LAKE HOMES",,,,,"LONG LAKE HOMES","15915 KATY FWY STE 405",HOUSTON,TX,77094-1710,"(281) 646-1727",http://www.longlakeltd.com/,,"DAVID BIGLER",
TX,HARRIS,2103110019,"Single Family Homes",3/16/2021,,81000,3592,"18943 GREATER OAKS CT",HOUSTON,TX,77356,"GRAND OAKS",,CONTRACTOR,,,,,,,,,,,"LONG LAKE HOMES",,,,,"LONG LAKE HOMES","15915 KATY FWY STE 405",HOUSTON,TX,77094-1710,"(281) 646-1727",http://www.longlakeltd.com/,,"DAVID BIGLER",
TX,HARRIS,2103110020,"Single Family Homes",3/16/2021,,100000,4000,"4119 GREAT BEAR PL",HOUSTON,TX,77356,"GRAND OAKS",,CONTRACTOR,,,,,,,,,,,"LONG LAKE HOMES",,,,,"LONG LAKE HOMES","15915 KATY FWY STE 405",HOUSTON,TX,77094-1710,"(281) 646-1727",http://www.longlakeltd.com/,,"DAVID BIGLER",
TX,HARRIS,2103150030,"Single Family Homes",3/16/2021,,77000,3614,"20519 ENRIQUE DR",HOUSTON,TX,77356,"WESTFIELD RANCH",,CONTRACTOR,,,,,,,,,,,"LONG LAKE HOMES",,,,,"LONG LAKE HOMES","15915 KATY FWY STE 405",HOUSTON,TX,77094-1710,"(281) 646-1727",http://www.longlakeltd.com/,,"DAVID BIGLER",
TX,HARRIS,2103150032,"Single Family Homes",3/16/2021,,96000,4187,"4430 BUENTELLO DR",HOUSTON,TX,77356,"WESTFIELD RANCH",,CONTRACTOR,,,,,,,,,,,"LONG LAKE HOMES",,,,,"LONG LAKE HOMES","15915 KATY FWY STE 405",HOUSTON,TX,77094-1710,"(281) 646-1727",http://www.longlakeltd.com/,,"DAVID BIGLER",
TX,HARRIS,2103150036,"Single Family Homes",3/16/2021,,80000,3186,"1027 WILLOWICK BAY DR",HOUSTON,TX,77356,"EAGLE LANDING",,CONTRACTOR,,,,,,,,,,,"LONG LAKE HOMES",,,,,"LONG LAKE HOMES","15915 KATY FWY STE 405",HOUSTON,TX,77094-1710,"(281) 646-1727",http://www.longlakeltd.com/,,"DAVID BIGLER",
TX,HARRIS,2103150038,"Single Family Homes",3/16/2021,,66000,1940,"918 WILLOW TIMBER DR",HOUSTON,TX,77356,"EAGLE LANDING",,CONTRACTOR,,,,,,,,,,,"LONG LAKE HOMES",,,,,"LONG LAKE HOMES","15915 KATY FWY STE 405",HOUSTON,TX,77094-1710,"(281) 646-1727",http://www.longlakeltd.com/,,"DAVID BIGLER",
TX,HARRIS,2103150042,"Single Family Homes",3/16/2021,,66000,2006,"930 WILLOW TIMBER DR",HOUSTON,TX,77356,"EAGLE LANDING",,CONTRACTOR,,,,,,,,,,,"LONG LAKE HOMES",,,,,"LONG LAKE HOMES","15915 KATY FWY STE 405",HOUSTON,TX,77094-1710,"(281) 646-1727",http://www.longlakeltd.com/,,"DAVID BIGLER",
TX,HARRIS,2103150043,"Single Family Homes",3/16/2021,,80000,3186,"1007 WILLOWICK BAY DR",HOUSTON,TX,77356,"EAGLE LANDING",,CONTRACTOR,,,,,,,,,,,"LONG LAKE HOMES",,,,,"LONG LAKE HOMES","15915 KATY FWY STE 405",HOUSTON,TX,77094-1710,"(281) 646-1727",http://www.longlakeltd.com/,,"DAVID BIGLER",
TX,HARRIS,2103150049,"Single Family Homes",3/16/2021,,70000,2748,"20926 BLOOMING CYPRESS TRL",HOUSTON,TX,77356,"CYPRESSWOOD POINT",,CONTRACTOR,,,,,,,,,,,"LONG LAKE HOMES",,,,,"LONG LAKE HOMES","15915 KATY FWY STE 405",HOUSTON,TX,77094-1710,"(281) 646-1727",http://www.longlakeltd.com/,,"DAVID BIGLER",
TX,HARRIS,2103150058,"Single Family Homes",3/16/2021,,79000,3197,"1006 STEEL BLUE DR",HOUSTON,TX,77356,"REMINGTON CREEK RANCH",,CONTRACTOR,,,,,,,,,,,"LONG LAKE HOMES",,,,,"LONG LAKE HOMES","15915 KATY FWY STE 405",HOUSTON,TX,77094-1710,"(281) 646-1727",http://www.longlakeltd.com/,,"DAVID BIGLER",
TX,HARRIS,2103150059,"Single Family Homes",3/16/2021,,72000,3005,"8319 PATAGONIAN LN",HOUSTON,TX,77356,"EDGEWOOD VILLAGE",,CONTRACTOR,,,,,,,,,,,"LONG LAKE HOMES",,,,,"LONG LAKE HOMES","15915 KATY FWY STE 405",HOUSTON,TX,77094-1710,"(281) 646-1727",http://www.longlakeltd.com/,,"DAVID BIGLER",
TX,HARRIS,2103190159,"Single Family Homes",3/16/2021,,64000,2337,"6723 CYPRESS WOODS MIST TRL",HOUSTON,TX,77356,"CYPRESSWOOD POINT",,CONTRACTOR,,,,,,,,,,,"LONG LAKE HOMES",,,,,"LONG LAKE HOMES","15915 KATY FWY STE 405",HOUSTON,TX,77094-1710,"(281) 646-1727",http://www.longlakeltd.com/,,"DAVID BIGLER",
TX,HARRIS,2103190160,"Single Family Homes",3/16/2021,,80000,3238,"20918 BLOOMING CYPRESS TRL",HOUSTON,TX,77356,"CYPRESSWOOD POINT",,CONTRACTOR,,,,,,,,,,,"LONG LAKE HOMES",,,,,"LONG LAKE HOMES","15915 KATY FWY STE 405",HOUSTON,TX,77094-1710,"(281) 646-1727",http://www.longlakeltd.com/,,"DAVID BIGLER",
TX,HARRIS,2103220104,"Single Family Homes",3/16/2021,,80000,3564,"3302 ETRING LN",HOUSTON,TX,77356,"MORTON CREEK RANCH",,CONTRACTOR,,,,,,,,,,,"LONG LAKE HOMES",,,,,"LONG LAKE HOMES","15915 KATY FWY STE 405",HOUSTON,TX,77094-1710,"(281) 646-1727",http://www.longlakeltd.com/,,"DAVID BIGLER",
TX,HARRIS,2103220105,"Single Family Homes",3/16/2021,,80000,3186,"14714 FAIRY TERN LN",HOUSTON,TX,7356,"EDGEWOOD VILLAGE",,CONTRACTOR,,,,,,,,,,,"LONG LAKE HOMES",,,,,"LONG LAKE HOMES","15915 KATY FWY STE 405",HOUSTON,TX,77094-1710,"(281) 646-1727",http://www.longlakeltd.com/,,"DAVID BIGLER",
TX,HARRIS,2103220106,"Single Family Homes",3/16/2021,,80000,3186,"14815 FAIRY TERN LN",HOUSTON,TX,77356,"EDGEWOOD VILLAGE",,CONTRACTOR,,,,,,,,,,,"LONG LAKE HOMES",,,,,"LONG LAKE HOMES","15915 KATY FWY STE 405",HOUSTON,TX,77094-1710,"(281) 646-1727",http://www.longlakeltd.com/,,"DAVID BIGLER",
TX,HARRIS,2103220108,"Single Family Homes",3/16/2021,,66000,1940,"1011 WILLOWICK BAY DR",HOUSTON,TX,77356,"EAGLE LANDING",,CONTRACTOR,,,,,,,,,,,"LONG LAKE HOMES",,,,,"LONG LAKE HOMES","15915 KATY FWY STE 405",HOUSTON,TX,77094-1710,"(281) 646-1727",http://www.longlakeltd.com/,,"DAVID BIGLER",
TX,HARRIS,2103160091,"Single Family Homes",3/16/2021,,450000,4631,"19519 RIVERHILL ROW CT",HOUSTON,TX,77356,"TOWNE LAKE",,CONTRACTOR,,,,,,,,,,,"RAVENNA HOMES",,,,,"RAVENNA HOMES","28902 POWDER RIDGE DR",KATY,TX,77494-1918,"(281) 693-7209",,,,
TX,HARRIS,2103160092,"Single Family Homes",3/16/2021,,450000,4195,"11603 BLUEWOOD OAKS CT",HOUSTON,TX,77356,"TOWNE LAKE",,CONTRACTOR,,,,,,,,,,,"RAVENNA HOMES",,,,,"RAVENNA HOMES","28902 POWDER RIDGE DR",KATY,TX,77494-1918,"(281) 693-7209",,,,
TX,HARRIS,2103160159,"Single Family Homes",3/16/2021,,450000,4195,"18311 RIPPLING TIDE TRL",HOUSTON,TX,77356,"TOWNE LAKE",,CONTRACTOR,,,,,,,,,,,"RAVENNA HOMES",,,,,"RAVENNA HOMES","28902 POWDER RIDGE DR",KATY,TX,77494-1918,"(281) 693-7209",,,,
TX,HARRIS,2103160161,"Single Family Homes",3/16/2021,,450000,4703,"11219 HILLSIDE KNOLL LN",HOUSTON,TX,77356,"TOWNE LAKE",,CONTRACTOR,,,,,,,,,,,"RAVENNA HOMES",,,,,"RAVENNA HOMES","28902 POWDER RIDGE DR",KATY,TX,77494-1918,"(281) 693-7209",,,,
TX,HARRIS,2103160163,"Single Family Homes",3/16/2021,,450000,4094,"11602 MAGNOLIA CREST COVE CT",HOUSTON,TX,77356,"TOWNE LAKE",,CONTRACTOR,,,,,,,,,,,"RAVENNA HOMES",,,,,"RAVENNA HOMES","28902 POWDER RIDGE DR",KATY,TX,77494-1918,"(281) 693-7209",,,,
TX,HARRIS,2103230138,"Single Family Homes",3/16/2021,,106000,5264,"10407 E RIO GRANDE RIVER DR",HOUSTON,TX,77356,"TOWNE LAKE",,CONTRACTOR,,,,,,,,,,,"JAMESTOWN ESTATE HOMES",,,,,"JAMESTOWN ESTATE HOMES","2313 W SAM HOUSTON PKWY N STE 141",HOUSTON,TX,77043-2039,"(832) 358-5800",http://jamestownestatehomes.com,,,
TX,HARRIS,2102030149,"Single Family Homes",3/16/2021,,90330,3011,"16014 DEDICATION DR",HOUSTON,TX,77356,"BRIDGELAND PARKLAND VILLAGE",,CONTRACTOR,,,,,,,,,,,"DAVID WEEKLEY HOMES",,,,,"DAVID WEEKLEY HOMES","14444 NORTHWEST",HOUSTON,TX,77040,"(713) 570-5021",http://www.davidweekleyhomes.com/,,,
TX,HARRIS,2103110076,"Single Family Homes",3/16/2021,,74035,2392,"18618 IMAGINATION WAY",HOUSTON,TX,77356,"BRIDGELAND PARKLAND VILLAGE",,CONTRACTOR,,,,,,,,,,,"DAVID WEEKLEY HOMES",,,,,"DAVID WEEKLEY HOMES","14444 NORTHWEST",HOUSTON,TX,77040,"(713) 570-5021",http://www.davidweekleyhomes.com/,,,
TX,HARRIS,2103180168,"Single Family Homes",3/16/2021,,204808,3703,"21326 ROSE LOCH LN",HOUSTON,TX,77356,"ROSEHILL RESERVE",,CONTRACTOR,,,,,,,,,,,"GEHAN HOMES",,,,,"GEHAN HOMES","2050 W SAM HOUSTON PKWY S",HOUSTON,TX,77042-2079,"(713) 243-3545",http://www.gehanhomes.com,,,
TX,HARRIS,2102250144,"Single Family Homes",3/16/2021,,65280,2176,"19738 UPPER CANYON CT",HOUSTON,TX,77356,"BRIDGELAND PARKLAND VILLAGE",,CONTRACTOR,,,,,,,,,,,"DAVID WEEKLEY HOMES",,,,,"DAVID WEEKLEY HOMES","14444 NORTHWEST",HOUSTON,TX,77040,"(713) 570-5021",http://www.davidweekleyhomes.com/,,,
TX,HARRIS,2103170160,"Single Family Homes",3/16/2021,,80340,2678,"18311 SUNSET ELM DR",HOUSTON,TX,77356,"TOWNE LAKE",,CONTRACTOR,,,,,,,,,,,"DAVID WEEKLEY HOMES",,,,,"DAVID WEEKLEY HOMES","14444 NORTHWEST",HOUSTON,TX,77040,"(713) 570-5021",http://www.davidweekleyhomes.com/,,,
TX,HARRIS,2103150181,"Single Family Homes",3/16/2021,,376000,3200,"818 COMMONS LAKEVIEW DR",HOUSTON,TX,77356,"COMMONS OF LAKE",,"JEFFREY & BREEANNA SCHMIDT","818 COMMONS LAKEVIEW DR",HOUSTON,TX,77356,,Owner,,,,,OWNER,,,,,OWNER,,,,,,,,,
TX,HARRIS,2103180063,"Single Family Homes",3/16/2021,,1100000,9954,"133 KINGS LAKE ESTATES BLVD",HOUSTON,TX,77356,,,CONTRACTOR,,,,,,,,,,,"FRONTIER CUSTOM BUILDERS",,,,,"FRONTIER CUSTOM BUILDERS","1801 SHERWOOD FOREST ST",HOUSTON,TX,77043-3001,"(280) 501-4000",http://www.frontiercustombuilders.com/,"(281) 599-8559","WAYNE POOPP",
TX,HARRIS,2103180035,"Single Family Homes",3/16/2021,,178805,3251,"403 ALMOND WILLOW LN",HOUSTON,TX,77356,"PECAN ESTATES",,CONTRACTOR,,,,,,,,,,,"CASTLEROCK COMMUNITIES",,,,,"CASTLEROCK COMMUNITIES","7670 WOODWAY DR STE 300",HOUSTON,TX,77063-1520,"(713) 600-7000",http://c-rock.com,"(713) 600-0000",,
TX,HARRIS,2103010067,"Single Family Homes",3/16/2021,,148446,1901,"6107 BRIARSTONE CREST DR",HOUSTON,TX,77356,ELYSON,,CONTRACTOR,,,,,,,,,,,"CHESMAR HOMES",,,,,"CHESMAR HOMES","450 GEARS RD STE 400",HOUSTON,TX,77067-4513,"(281) 598-1111",http://chesmar.com,"(281) 598-1115",,customerservice.houston@chesmar.com
TX,HARRIS,2103010069,"Single Family Homes",3/16/2021,,148446,2432,"7019 ANACUA BERRY CIR",HOUSTON,TX,77356,ELYSON,,CONTRACTOR,,,,,,,,,,,"CHESMAR HOMES",,,,,"CHESMAR HOMES","450 GEARS RD STE 400",HOUSTON,TX,77067-4513,"(281) 598-1111",http://chesmar.com,"(281) 598-1115",,customerservice.houston@chesmar.com
TX,HARRIS,2103010072,"Single Family Homes",3/16/2021,,160453,1702,"7035 ANACUA BERRY",HOUSTON,TX,77356,ELYSON,,CONTRACTOR,,,,,,,,,,,"CHESMAR HOMES",,,,,"CHESMAR HOMES","450 GEARS RD STE 400",HOUSTON,TX,77067-4513,"(281) 598-1111",http://chesmar.com,"(281) 598-1115",,customerservice.houston@chesmar.com
TX,HARRIS,2103080014,"Single Family Homes",3/16/2021,,148446,2055,"6014 BRIARSTONE CREST DR",HOUSTON,TX,77356,ELYSON,,CONTRACTOR,,,,,,,,,,,"CHESMAR HOMES",,,,,"CHESMAR HOMES","450 GEARS RD STE 400",HOUSTON,TX,77067-4513,"(281) 598-1111",http://chesmar.com,"(281) 598-1115",,customerservice.houston@chesmar.com
TX,HARRIS,2103080018,"Single Family Homes",3/16/2021,,148446,2649,"23407 YELLOW LARKSPUR LN",HOUSTON,TX,77356,ELYSON,,CONTRACTOR,,,,,,,,,,,"CHESMAR HOMES",,,,,"CHESMAR HOMES","450 GEARS RD STE 400",HOUSTON,TX,77067-4513,"(281) 598-1111",http://chesmar.com,"(281) 598-1115",,customerservice.houston@chesmar.com
TX,HARRIS,2103080019,"Single Family Homes",3/16/2021,,148446,2733,"6018 OAKDALE TERRACE CT",HOUSTON,TX,77356,ELYSON,,CONTRACTOR,,,,,,,,,,,"CHESMAR HOMES",,,,,"CHESMAR HOMES","450 GEARS RD STE 400",HOUSTON,TX,77067-4513,"(281) 598-1111",http://chesmar.com,"(281) 598-1115",,customerservice.houston@chesmar.com
TX,HARRIS,2103080020,"Single Family Homes",3/16/2021,,148446,2247,"7026 ANACUA BERRY CIR",HOUSTON,TX,77356,ELYSON,,CONTRACTOR,,,,,,,,,,,"CHESMAR HOMES",,,,,"CHESMAR HOMES","450 GEARS RD STE 400",HOUSTON,TX,77067-4513,"(281) 598-1111",http://chesmar.com,"(281) 598-1115",,customerservice.houston@chesmar.com
TX,HARRIS,2103220140,"Single Family Homes",3/16/2021,,145056,2432,"7031 ANACUA BERRY CIRCLE",HOUSTON,TX,77356,ELYSON,,CONTRACTOR,,,,,,,,,,,"CHESMAR HOMES",,,,,"CHESMAR HOMES","450 GEARS RD STE 400",HOUSTON,TX,77067-4513,"(281) 598-1111",http://chesmar.com,"(281) 598-1115",,customerservice.houston@chesmar.com
TX,HARRIS,2103220144,"Single Family Homes",3/16/2021,,145189,2746,"23343 YELLOW LARKSPUR LN",HOUSTON,TX,77356,ELYSON,,CONTRACTOR,,,,,,,,,,,"CHESMAR HOMES",,,,,"CHESMAR HOMES","450 GEARS RD STE 400",HOUSTON,TX,77067-4513,"(281) 598-1111",http://chesmar.com,"(281) 598-1115",,customerservice.houston@chesmar.com
TX,HARRIS,2103220149,"Single Family Homes",3/16/2021,,145189,2733,"23123 IVORY SEDGE TRL",HOUSTON,TX,77356,ELYSON,,CONTRACTOR,,,,,,,,,,,"CHESMAR HOMES",,,,,"CHESMAR HOMES","450 GEARS RD STE 400",HOUSTON,TX,77067-4513,"(281) 598-1111",http://chesmar.com,"(281) 598-1115",,customerservice.houston@chesmar.com
TX,HARRIS,2103040103,"Single Family Homes",3/16/2021,,170000,1841,"519 BROOKWATER DR",HOUSTON,TX,77356,,,"CHUCK ROBERTS","519 BROOKWATER DR",HOUSTON,TX,77356,,Owner,,,,,OWNER,,,,,OWNER,,,,,,,,,
TX,HARRIS,2103110057,"Single Family Homes",3/16/2021,,88675,2880,"18506 PARKLAND CROSSING",HOUSTON,TX,77356,"BRIDGELAND PARKLAND VILLAGE",,CONTRACTOR,,,,,,,,,,,"DAVID WEEKLEY HOMES",,,,,"DAVID WEEKLEY HOMES","14444 NORTHWEST",HOUSTON,TX,77040,"(713) 570-5021",http://www.davidweekleyhomes.com/,,,
TX,HARRIS,2103150146,"Single Family Homes",3/16/2021,,82380,2746,"18310 PEDERNALES SPRINGS DR",HOUSTON,TX,77356,"TOWNE LAKE",,CONTRACTOR,,,,,,,,,,,"DAVID WEEKLEY HOMES",,,,,"DAVID WEEKLEY HOMES","14444 NORTHWEST",HOUSTON,TX,77040,"(713) 570-5021",http://www.davidweekleyhomes.com/,,,
TX,HARRIS,2103230108,"Single Family Homes",3/16/2021,,173000,2655,"17238 ROCK WILLOW LN",HOUSTON,TX,77356,"WILLOW WOOD PLACE",,CONTRACTOR,,,,,,,,,,,"KB HOME",,,,,"KB HOME","11314 RICHMOND AVE",HOUSTON,TX,77082-2616,"(281) 668-3800",,,,
TX,HARRIS,2103080072,"Single Family Homes",3/16/2021,,150000,2830,"603 TOPSAIL WAY",HOUSTON,TX,77356,NEWPORT,,"PEDRO GONZALEZ","603 TOPSAIL WAY",HOUSTON,TX,77356,,Owner,,,,,OWNER,,,,,OWNER,,,,,,,,,
TX,HARRIS,2103170082,"Single Family Homes",3/16/2021,,199350,4430,"6410 CASH OAKS DR",HOUSTON,TX,77356,"WIMBLEDON CHAMPIONS ESTATES",,CONTRACTOR,,,,,,,,,,,"DR HORTON",,,,,"DR HORTON","14100 SOUTHWEST",HOUSTON,TX,77478,"(281) 201-5559",,,,
TX,HARRIS,2103220123,"Single Family Homes",3/16/2021,,140630,2402,"15306 DAVAN SPRINGS DR",HOUSTON,TX,77356,BALMORAL,,CONTRACTOR,,,,,,,,,,,"K HOVNANIAN HOMES",,,,,"K HOVNANIAN HOMES","13111 NORTHWEST FWY STE 200",HOUSTON,TX,77040-6311,"(713) 460-0264",,,,
TX,HARRIS,2103240043,"Single Family Homes",3/16/2021,,118250,2081,"13818 ANDOVER PARK DR",HOUSTON,TX,77356,"ELDRIDGE PARK",,CONTRACTOR,,,,,,,,,,,"K HOVNANIAN HOMES",,,,,"K HOVNANIAN HOMES","13111 NORTHWEST FWY STE 200",HOUSTON,TX,77040-6311,"(713) 460-0264",,,,
TX,HARRIS,2103190043,"Single Family Homes",3/16/2021,,138130,2343,"13814 ANDOVER PARK DR",HOUSTON,TX,77356,"ELDRIDGE PARK",,CONTRACTOR,,,,,,,,,,,"K HOVNANIAN HOMES",,,,,"K HOVNANIAN HOMES","13111 NORTHWEST FWY STE 200",HOUSTON,TX,77040-6311,"(713) 460-0264",,,,
TX,HARRIS,2103190042,"Single Family Homes",3/16/2021,,138130,2343,"13827 ANDOVER PARK DR",HOUSTON,TX,77356,"ELDRIDGE PARK",,CONTRACTOR,,,,,,,,,,,"K HOVNANIAN HOMES",,,,,"K HOVNANIAN HOMES","13111 NORTHWEST FWY STE 200",HOUSTON,TX,77040-6311,"(713) 460-0264",,,,
TX,HARRIS,2103190038,"Single Family Homes",3/16/2021,,143730,3418,"13830 EVANSDALE LN",HOUSTON,TX,77356,"ELDRIDGE PARK",,CONTRACTOR,,,,,,,,,,,"K HOVNANIAN HOMES",,,,,"K HOVNANIAN HOMES","13111 NORTHWEST FWY STE 200",HOUSTON,TX,77040-6311,"(713) 460-0264",,,,
TX,HARRIS,2103190041,"Single Family Homes",3/16/2021,,155840,2599,"13715 ANDOVER PARK DR",HOUSTON,TX,77356,"ELDRIDGE PARK",,CONTRACTOR,,,,,,,,,,,"K HOVNANIAN HOMES",,,,,"K HOVNANIAN HOMES","13111 NORTHWEST FWY STE 200",HOUSTON,TX,77040-6311,"(713) 460-0264",,,,
TX,HARRIS,2103160008,"Single Family Homes",3/16/2021,,129670,2497,"2611 OLD DRAW DR",HOUSTON,TX,77356,"ATASCOCITA TRACE",,CONTRACTOR,,,,,,,,,,,"ANGLIA HOMES",,,,,"ANGLIA HOMES","17510 RED OAK DR",HOUSTON,TX,77090,"(281) 943-5288",http://www.angliahomeslp.com/,,,
TX,HARRIS,2103170037,"Single Family Homes",3/16/2021,,134395,1985,"15427 CRATHIE BEND DR",HOUSTON,TX,77356,BALMORAL,,CONTRACTOR,,,,,,,,,,,"ANGLIA HOMES",,,,,"ANGLIA HOMES","17510 RED OAK DR",HOUSTON,TX,77090,"(281) 943-5288",http://www.angliahomeslp.com/,,,
TX,HARRIS,2103170058,"Single Family Homes",3/16/2021,,129670,2497,"2614 DUSTIN PLACE CT",HOUSTON,TX,77356,"ATASCOCITA TRACE",,CONTRACTOR,,,,,,,,,,,"ANGLIA HOMES",,,,,"ANGLIA HOMES","17510 RED OAK DR",HOUSTON,TX,77090,"(281) 943-5288",http://www.angliahomeslp.com/,,,
TX,HARRIS,2103170061,"Single Family Homes",3/16/2021,,129670,2497,"2723 OLD DRAW DR",HOUSTON,TX,77356,"ATASCOCITA TRACE",,CONTRACTOR,,,,,,,,,,,"ANGLIA HOMES",,,,,"ANGLIA HOMES","17510 RED OAK DR",HOUSTON,TX,77090,"(281) 943-5288",http://www.angliahomeslp.com/,,,
TX,HARRIS,2012230035,"Single Family Homes",3/16/2021,,112259,1412,"1935 CENTER ST",HOUSTON,TX,77356,"LAKEVIEW HEIGHTS",,"REBA FOUNTAIN","1935 CENTER ST",HOUSTON,TX,77356,,Owner,,,,,OWNER,,,,,OWNER,,,,,,,,,
TX,HARRIS,2103220156,"Single Family Homes",3/16/2021,,130000,1827,"15010 EAGLE FEATHER CT",HOUSTON,TX,77356,,,CONTRACTOR,,,,,,,,,,,"SKYMARK HOMES",,,,,"SKYMARK HOMES","1616 S. VOSS ROAD, SUITE 618",HOUSTON,TX,77057,"(713) 978-5900",https://www.skymarkdevelopment.com/,,,
TX,HARRIS,2103220157,"Single Family Homes",3/16/2021,,130000,1827,"15014 EAGLE FEATHER CT",HOUSTON,TX,77356,"EAGLE LANDING",,CONTRACTOR,,,,,,,,,,,"SKYMARK HOMES",,,,,"SKYMARK HOMES","1616 S. VOSS ROAD, SUITE 618",HOUSTON,TX,77057,"(713) 978-5900",https://www.skymarkdevelopment.com/,,,
TX,HARRIS,2103220159,"Single Family Homes",3/16/2021,,130000,1827,"15018 EAGLE FEATHER CT",HOUSTON,TX,77356,"EAGLE LANDING",,CONTRACTOR,,,,,,,,,,,"SKYMARK HOMES",,,,,"SKYMARK HOMES","1616 S. VOSS ROAD, SUITE 618",HOUSTON,TX,77057,"(713) 978-5900",https://www.skymarkdevelopment.com/,,,
TX,HARRIS,2103220163,"Single Family Homes",3/16/2021,,130000,1827,"15026 EAGLE FEATHER CT",HOUSTON,TX,77356,"EAGLE LANDING",,CONTRACTOR,,,,,,,,,,,"SKYMARK HOMES",,,,,"SKYMARK HOMES","1616 S. VOSS ROAD, SUITE 618",HOUSTON,TX,77057,"(713) 978-5900",https://www.skymarkdevelopment.com/,,,
TX,HARRIS,2103220164,"Single Family Homes",3/16/2021,,130000,1827,"15030 EAGLE FEATHER CT",HOUSTON,TX,77356,"EAGLE LANDING",,CONTRACTOR,,,,,,,,,,,"SKYMARK HOMES",,,,,"SKYMARK HOMES","1616 S. VOSS ROAD, SUITE 618",HOUSTON,TX,77057,"(713) 978-5900",https://www.skymarkdevelopment.com/,,,
TX,HARRIS,2103120118,"Single Family Homes",3/16/2021,,844481,5377,"10 QUIET MEAD PL",HOUSTON,TX,77356,"THE WOODLANDS CREEKSIDE",,CONTRACTOR,,,,,,,,,,,"PARTNERS IN BUILDING",,,,,"PARTNERS IN BUILDING","1803 RANCH ROAD 620 N",LAKEWAY,TX,78734-2611,"(512) 266-6701",http://www.partnersinbuilding.com,"(713) 937-1445",,info@partnersinbuilding.com
TX,HARRIS,2103120011,"Single Family Homes",3/16/2021,,809955,5669,"19403 CARPENTERS BAYOU CT",HOUSTON,TX,77356,"BRIDGELAND PARKLAND VILLAGE",,CONTRACTOR,,,,,,,,,,,"PARTNERS IN BUILDING",,,,,"PARTNERS IN BUILDING","1803 RANCH ROAD 620 N",LAKEWAY,TX,78734-2611,"(512) 266-6701",http://www.partnersinbuilding.com,"(713) 937-1445",,info@partnersinbuilding.com
TX,HARRIS,2103170179,"Single Family Homes",3/16/2021,,90000,2000,"4203 PALE FOX LN",HOUSTON,TX,77356,"KATY POINTE",,CONTRACTOR,,,,,,,,,,,"MERITAGE HOMES",,,,,"MERITAGE HOMES","2901 W SAM HOUSTON PKWY N",HOUSTON,TX,77043-1630,"(713) 357-1184",,,,
TX,HARRIS,2103180004,"Single Family Homes",3/16/2021,,153600,1536,"13503 HAREFIELD HOLLOW TRL",HOUSTON,TX,77356,"IMPERIAL FOREST",,CONTRACTOR,,,,,,,,,,,"STARLIGHT HOMES",,,,,"STARLIGHT HOMES","10110 W SAM HOUSTON PKWY N",HOUSTON,TX,77064-7508,"(832) 478-9032",,,,
TX,HARRIS,2103180003,"Single Family Homes",3/16/2021,,140200,1402,"13415 HAREFIELD HOLLOW TRL",HOUSTON,TX,77356,"IMPERIAL FOREST",,CONTRACTOR,,,,,,,,,,,"STARLIGHT HOMES",,,,,"STARLIGHT HOMES","10110 W SAM HOUSTON PKWY N",HOUSTON,TX,77064-7508,"(832) 478-9032",,,,
TX,HARRIS,2103180002,"Single Family Homes",3/17/2021,,166100,1661,"13411 HAREFIELD HOLLOW TRL",HOUSTON,TX,77356,"IMPERIAL FOREST",,CONTRACTOR,,,,,,,,,,,"STARLIGHT HOMES",,,,,"STARLIGHT HOMES","10110 W SAM HOUSTON PKWY N",HOUSTON,TX,77064-7508,"(832) 478-9032",,,,
TX,HARRIS,2103170170,"Single Family Homes",3/16/2021,,121200,1212,"13406 HAREFIELD HOLLOW TRL",HOUSTON,TX,77356,"IMPERIAL FOREST",,CONTRACTOR,,,,,,,,,,,"STARLIGHT HOMES",,,,,"STARLIGHT HOMES","10110 W SAM HOUSTON PKWY N",HOUSTON,TX,77064-7508,"(832) 478-9032",,,,
TX,HARRIS,2103170168,"Single Family Homes",3/16/2021,,268800,2688,"13410 HAREFIELD HOLLOW TRL",HOUSTON,TX,77356,"IMPERIAL FOREST",,CONTRACTOR,,,,,,,,,,,"STARLIGHT HOMES",,,,,"STARLIGHT HOMES","10110 W SAM HOUSTON PKWY N",HOUSTON,TX,77064-7508,"(832) 478-9032",,,,
TX,HARRIS,2103170165,"Single Family Homes",3/16/2021,,233800,2338,"13414 HAREFIELD HOLLOW TRL",HOUSTON,TX,77356,"IMPERIAL FOREST",,CONTRACTOR,,,,,,,,,,,"STARLIGHT HOMES",,,,,"STARLIGHT HOMES","10110 W SAM HOUSTON PKWY N",HOUSTON,TX,77064-7508,"(832) 478-9032",,,,
TX,HARRIS,2103170130,"Single Family Homes",3/16/2021,,206000,2060,"13506 HAREFIELD HOLLOW TRL",HOUSTON,TX,77356,"IMPERIAL FOREST",,CONTRACTOR,,,,,,,,,,,"STARLIGHT HOMES",,,,,"STARLIGHT HOMES","10110 W SAM HOUSTON PKWY N",HOUSTON,TX,77064-7508,"(832) 478-9032",,,,
TX,HARRIS,2102040027,"Single Family Homes",3/16/2021,,356330,5482,"15507 BLUESTEM BEND TRL",HOUSTON,TX,77356,"BRIDGELAND PARKLAND VILLAGE",,CONTRACTOR,,,,,,,,,,,"TRIPOINTE HOMES",,,,,"TRIPOINTE HOMES","4835 LYNDON B JOHNSON FWY STE 700",DALLAS,TX,75244,"(214) 765-0570",https://investors.tripointehomes.com/,,,info@TriPointeHomes.com
TX,HARRIS,2103230016,"Single Family Homes",3/16/2021,,121875,1875,"18418 SUMMIT RANCH DR",HOUSTON,TX,77356,"BECKER MEADOWS ",,CONTRACTOR,,,,,,,,,,,"LENNAR HOMES",,,,,"LENNAR HOMES","550 GREENS PKWY",HOUSTON,TX,77067-4537,"(281) 875-1000",http://www.lennar.com/,,,
TX,HARRIS,2103230024,"Single Family Homes",3/16/2021,,151255,2327,"31723 AZALEA CREST LN",HOUSTON,TX,77356,"DELLROSE ",,CONTRACTOR,,,,,,,,,,,"LENNAR HOMES",,,,,"LENNAR HOMES","550 GREENS PKWY",HOUSTON,TX,77067-4537,"(281) 875-1000",http://www.lennar.com/,,,
TX,HARRIS,2103170171,"Single Family Homes",3/16/2021,,191100,1911,"13407 HAREFIELD HOLLOW TRL",HOUSTON,TX,77356,"IMPERIAL FOREST",,CONTRACTOR,,,,,,,,,,,"STARLIGHT HOMES",,,,,"STARLIGHT HOMES","10110 W SAM HOUSTON PKWY N",HOUSTON,TX,77064-7508,"(832) 478-9032",,,,
TX,HARRIS,2103090112,"Single Family Homes",3/16/2021,,281125,4325,"16423 ROSEMARY GROVE LN",HOUSTON,TX,77356,"HIDDEN ARBOR",,CONTRACTOR,,,,,,,,,,,"TRIPOINTE HOMES",,,,,"TRIPOINTE HOMES","4835 LYNDON B JOHNSON FWY STE 700",DALLAS,TX,75244,"(214) 765-0570",https://investors.tripointehomes.com/,,,info@TriPointeHomes.com
TX,HARRIS,2103230074,"Single Family Homes",3/16/2021,,240160,2420,"16019 KINGFIELD HAVEN DR",HOUSTON,TX,77356,KINGFIELD,,CONTRACTOR,,,,,,,,,,,"PULTE HOMES",,,,,"PULTE HOMES","16670 PARK ROW",HOUSTON,TX,77084-6866,"(281) 749-8000",,,,
TX,HARRIS,2103230079,"Single Family Homes",3/16/2021,,246420,2436,"16011 KINGFIELD HAVEN DR",HOUSTON,TX,77356,KINGFIELD,,CONTRACTOR,,,,,,,,,,,"PULTE HOMES",,,,,"PULTE HOMES","16670 PARK ROW",HOUSTON,TX,77084-6866,"(281) 749-8000",,,,
TX,HARRIS,2103230092,"Single Family Homes",3/16/2021,,246420,2436,"16027 KINGFIELD HAVEN DR",HOUSTON,TX,77356,KINGFIELD,,CONTRACTOR,,,,,,,,,,,"PULTE HOMES",,,,,"PULTE HOMES","16670 PARK ROW",HOUSTON,TX,77084-6866,"(281) 749-8000",,,,
TX,HARRIS,2103230094,"Single Family Homes",3/16/2021,,283990,3310,"7202 POPPYSEED TRL",HOUSTON,TX,77356,"KLEIN GROVE",,CONTRACTOR,,,,,,,,,,,"HISTORY MAKER HOMES",,,,,"HISTORY MAKER HOMES","9001 AIRPORT FWY SUITE 400","NORTH RICHLAND HILLS",TX,76180-7769,"(817) 429-8008",http://www.historymaker.com/,"(817) 507-1102","JILL BARFIELD",
TX,HARRIS,2103230096,"Single Family Homes",3/16/2021,,228800,1907,"16015 KINGFIELD HAVEN DR",HOUSTON,TX,77356,KINGFIELD,,CONTRACTOR,,,,,,,,,,,"PULTE HOMES",,,,,"PULTE HOMES","16670 PARK ROW",HOUSTON,TX,77084-6866,"(281) 749-8000",,,,
TX,HARRIS,2103230098,"Single Family Homes",3/16/2021,,224020,1890,"16023 KINGFIELD HAVEN DR",HOUSTON,TX,77356,KINGFIELD,,CONTRACTOR,,,,,,,,,,,"PULTE HOMES",,,,,"PULTE HOMES","16670 PARK ROW",HOUSTON,TX,77084-6866,"(281) 749-8000",,,,
TX,HARRIS,2103230101,"Single Family Homes",3/16/2021,,206840,1885,"23822 THISTLE SPUD LN",HOUSTON,TX,77356,WINDROW,,CONTRACTOR,,,,,,,,,,,"PULTE HOMES",,,,,"PULTE HOMES","16670 PARK ROW",HOUSTON,TX,77084-6866,"(281) 749-8000",,,,
TX,HARRIS,2103160086,"Single Family Homes",3/16/2021,,165000,2546,"25607 CAMILLA MAE CT",HOUSTON,TX,77356,"KATY MANOR",,CONTRACTOR,,,,,,,,,,,"KB HOME",,,,,"KB HOME","11314 RICHMOND AVE",HOUSTON,TX,77082-2616,"(281) 668-3800",,,,
TX,HARRIS,2103160089,"Single Family Homes",3/16/2021,,165000,2546,"25618 CAMILLA MAE CT",HOUSTON,TX,77356,"KATY MANOR",,CONTRACTOR,,,,,,,,,,,"KB HOME",,,,,"KB HOME","11314 RICHMOND AVE",HOUSTON,TX,77082-2616,"(281) 668-3800",,,,
TX,HARRIS,2103050164,"Single Family Homes",3/16/2021,,100000,3140,"5602 EDGEBROOK FOREST DR",HOUSTON,TX,77356,INWOOD,,"NANCY FLORES","5602 EDGEBROOK FOREST DR",HOUSTON,TX,77356,,Owner,,,,,OWNER,,,,,OWNER,,,,,,,,,
TX,HARRIS,2103140009,"Single Family Homes",3/16/2021,,500000,5562,"13403 ROCKY CREEK ESTATES DR",HOUSTON,TX,77356,"ROCKY CREEK ESTATES",,"ARIC ALDRICH","13403 ROCKY CREEK ESTATES DR",HOUSTON,TX,77356,,Owner,,,,,OWNER,,,,,OWNER,,,,,,,,,
TX,HARRIS,2103180104,"Single Family Homes",3/16/2021,,180000,1955,"24423 TESINO RIVER CIR",HOUSTON,TX,77356,"MARCELLO LAKES",,CONTRACTOR,,,,,,,,,,,"LEGEND HOMES",,,,,"LEGEND HOMES","10410 WINDAMERE LAKES BLVD",HOUSTON,TX,77065-4996,"(281) 671-9060",http://legendhomecorp.com/,"(281) 671-9055",,
TX,HARRIS,2103230121,"Single Family Homes",3/16/2021,,154000,3768,"24003 LAKE MOLVENO DR",HOUSTON,TX,77356,"MARCELLO LAKES",,CONTRACTOR,,,,,,,,,,,"LEGEND HOMES",,,,,"LEGEND HOMES","10410 WINDAMERE LAKES BLVD",HOUSTON,TX,77065-4996,"(281) 671-9060",http://legendhomecorp.com/,"(281) 671-9055",,
TX,HARRIS,2103230122,"Single Family Homes",3/16/2021,,156000,3768,"3511 LAKE BELLA MEGAN DR",HOUSTON,TX,77356,"MARCELLO LAKES",,CONTRACTOR,,,,,,,,,,,"LEGEND HOMES",,,,,"LEGEND HOMES","10410 WINDAMERE LAKES BLVD",HOUSTON,TX,77065-4996,"(281) 671-9060",http://legendhomecorp.com/,"(281) 671-9055",,
TX,HARRIS,2102240066,"Single Family Homes",3/16/2021,,173669,2366,"16906 LEDGES CT",HOUSTON,TX,77356,GROVES,,CONTRACTOR,,,,,,,,,,,"CHESMAR HOMES",,,,,"CHESMAR HOMES","450 GEARS RD STE 400",HOUSTON,TX,77067-4513,"(281) 598-1111",http://chesmar.com,"(281) 598-1115",,customerservice.houston@chesmar.com
TX,HARRIS,2102240071,"Single Family Homes",3/16/2021,,170468,2140,"16815 RUELLIA FIELD RD",HOUSTON,TX,77356,GROVES,,CONTRACTOR,,,,,,,,,,,"CHESMAR HOMES",,,,,"CHESMAR HOMES","450 GEARS RD STE 400",HOUSTON,TX,77067-4513,"(281) 598-1111",http://chesmar.com,"(281) 598-1115",,customerservice.houston@chesmar.com
TX,HARRIS,2103150124,"Single Family Homes",3/16/2021,,143389,1776,"15023 CONCHO RIVER WAY",HOUSTON,TX,77356,"BRIDGELAND PARKLAND VILLAGE ",,CONTRACTOR,,,,,,,,,,,"CHESMAR HOMES",,,,,"CHESMAR HOMES","450 GEARS RD STE 400",HOUSTON,TX,77067-4513,"(281) 598-1111",http://chesmar.com,"(281) 598-1115",,customerservice.houston@chesmar.com
TX,HARRIS,2103150125,"Single Family Homes",3/16/2021,,147879,1855,"19622 TALLEY VALLEY DR",HOUSTON,TX,77356,"BRIDGELAND PARKLAND VILLAGE ",,CONTRACTOR,,,,,,,,,,,"CHESMAR HOMES",,,,,"CHESMAR HOMES","450 GEARS RD STE 400",HOUSTON,TX,77067-4513,"(281) 598-1111",http://chesmar.com,"(281) 598-1115",,customerservice.houston@chesmar.com
TX,HARRIS,2103150128,"Single Family Homes",3/16/2021,,145324,1855,"19618 TALLEY VALLEY DR",HOUSTON,TX,77356,"BRIDGELAND PARKLAND VILLAGE",,CONTRACTOR,,,,,,,,,,,"CHESMAR HOMES",,,,,"CHESMAR HOMES","450 GEARS RD STE 400",HOUSTON,TX,77067-4513,"(281) 598-1111",http://chesmar.com,"(281) 598-1115",,customerservice.houston@chesmar.com
TX,HARRIS,2103150130,"Single Family Homes",3/16/2021,,186943,2662,"21511 HENRYS BLUSH DR",HOUSTON,TX,77356,"ROSEHILL RESERVE",,CONTRACTOR,,,,,,,,,,,"CHESMAR HOMES",,,,,"CHESMAR HOMES","450 GEARS RD STE 400",HOUSTON,TX,77067-4513,"(281) 598-1111",http://chesmar.com,"(281) 598-1115",,customerservice.houston@chesmar.com
TX,HARRIS,2102030139,"Single Family Homes",3/16/2021,,90330,3011,"18502 INSPIRATION DR",HOUSTON,TX,77356,"BRIDGELAND PARKLAND VILLAGE",,CONTRACTOR,,,,,,,,,,,"DAVID WEEKLEY HOMES",,,,,"DAVID WEEKLEY HOMES","14444 NORTHWEST",HOUSTON,TX,77040,"(713) 570-5021",http://www.davidweekleyhomes.com/,,,
TX,HARRIS,2103150154,"Single Family Homes",3/16/2021,,198185,3049,"31718 AZALEA CREST LN",HOUSTON,TX,77356,DELLROSE,,CONTRACTOR,,,,,,,,,,,"LENNAR HOMES",,,,,"LENNAR HOMES","550 GREENS PKWY",HOUSTON,TX,77067-4537,"(281) 875-1000",http://www.lennar.com/,,,
TX,HARRIS,2103150166,"Single Family Homes",3/16/2021,,240955,3707,"31719 AZALEA CREST LN",HOUSTON,TX,77356,DELLROSE,,CONTRACTOR,,,,,,,,,,,"LENNAR HOMES",,,,,"LENNAR HOMES","550 GREENS PKWY",HOUSTON,TX,77067-4537,"(281) 875-1000",http://www.lennar.com/,,,
TX,HARRIS,2103120074,"Single Family Homes",3/16/2021,,224000,3445,"4810 EMERSON MANOR DR",HOUSTON,TX,77356,"KATY MANOR",,CONTRACTOR,,,,,,,,,,,"KB HOME",,,,,"KB HOME","11314 RICHMOND AVE",HOUSTON,TX,77082-2616,"(281) 668-3800",,,,
TX,HARRIS,2103220080,"Single Family Homes",3/16/2021,,335813,2985,"15826 WESTON RIDGE DR",HOUSTON,TX,77356,BALMORAL,,CONTRACTOR,,,,,,,,,,,"PERRY HOMES",,,,,"PERRY HOMES","9000 GULF FWY",HOUSTON,TX,77017-7018,"(713) 417-1396",,,,
TX,HARRIS,2103220078,"Single Family Homes",3/16/2021,,328050,2916,"15822 WESTON RIDGE DR",HOUSTON,TX,77356,BALMORAL,,CONTRACTOR,,,,,,,,,,,"PERRY HOMES",,,,,"PERRY HOMES","9000 GULF FWY",HOUSTON,TX,77017-7018,"(713) 417-1396",,,,
TX,HARRIS,2103160082,"Single Family Homes",3/16/2021,,331200,2944,"11911 MUIR GROVES TRL",HOUSTON,TX,77356,GROVES,,CONTRACTOR,,,,,,,,,,,"PERRY HOMES",,,,,"PERRY HOMES","9000 GULF FWY",HOUSTON,TX,77017-7018,"(713) 417-1396",,,,
TX,HARRIS,2103150092,"Single Family Homes",3/16/2021,,78480,1962,"20018 ROAN ARDENNES LN",HOUSTON,TX,77356,AMIRA,,CONTRACTOR,,,,,,,,,,,"BEAZER HOMES ",,,,,"BEAZER HOMES ","10235 W LITTLE YORK",HOUSTON,TX,77040,"(713) 849-2252",http://www.beazer.com/,,,
TX,HARRIS,2103150106,"Single Family Homes",3/16/2021,,106160,2654,"19010 GIARA PONY TRL",HOUSTON,TX,77356,AMIRA,,CONTRACTOR,,,,,,,,,,,"BEAZER HOMES ",,,,,"BEAZER HOMES ","10235 W LITTLE YORK",HOUSTON,TX,77040,"(713) 849-2252",http://www.beazer.com/,,,
TX,HARRIS,2103150115,"Single Family Homes",3/16/2021,,121640,3041,"19126 BRAZOS BEND PARK DR",HOUSTON,TX,77356,"BRIDGELAND PARKLAND VILLAGE",,CONTRACTOR,,,,,,,,,,,"BEAZER HOMES ",,,,,"BEAZER HOMES ","10235 W LITTLE YORK",HOUSTON,TX,77040,"(713) 849-2252",http://www.beazer.com/,,,
TX,HARRIS,2103150122,"Single Family Homes",3/17/2021,,106160,2654,"19103 CREEKFIELD LAKE CT",HOUSTON,TX,77356,"BRIDGELAND PARKLAND VILLAGE",,CONTRACTOR,,,,,,,,,,,"BEAZER HOMES ",,,,,"BEAZER HOMES ","10235 W LITTLE YORK",HOUSTON,TX,77040,"(713) 849-2252",http://www.beazer.com/,,,
TX,HARRIS,2103220037,"Single Family Homes",3/16/2021,,106160,2654,"9227 HARTFORD VALLEY TRL",HOUSTON,TX,77356,"ASHBEL CROSSING",,CONTRACTOR,,,,,,,,,,,"BEAZER HOMES ",,,,,"BEAZER HOMES ","10235 W LITTLE YORK",HOUSTON,TX,77040,"(713) 849-2252",http://www.beazer.com/,,,
TX,HARRIS,2103220044,"Single Family Homes",3/16/2021,,106160,2654,"4610 LAKE MILL CT",HOUSTON,TX,77356,"ASHBEL CROSSING",,CONTRACTOR,,,,,,,,,,,"BEAZER HOMES ",,,,,"BEAZER HOMES ","10235 W LITTLE YORK",HOUSTON,TX,77040,"(713) 849-2252",http://www.beazer.com/,,,
TX,HARRIS,2103220056,"Single Family Homes",3/16/2021,,110920,2773,"9214 HARTFORD VALLEY TRL",HOUSTON,TX,77356,"ASHBEL CROSSING",,CONTRACTOR,,,,,,,,,,,"BEAZER HOMES ",,,,,"BEAZER HOMES ","10235 W LITTLE YORK",HOUSTON,TX,77040,"(713) 849-2252",http://www.beazer.com/,,,
TX,HARRIS,2103220062,"Single Family Homes",3/16/2021,,97720,2443,"23731 RUBY BRAMBLE TRL",HOUSTON,TX,77356,ELYSON,,CONTRACTOR,,,,,,,,,,,"BEAZER HOMES ",,,,,"BEAZER HOMES ","10235 W LITTLE YORK",HOUSTON,TX,77040,"(713) 849-2252",http://www.beazer.com/,,,
TX,HARRIS,2103220067,"Single Family Homes",3/16/2021,,98320,2458,"23735 RUBY BRAMBLE TRL",HOUSTON,TX,77356,ELYSON,,CONTRACTOR,,,,,,,,,,,"BEAZER HOMES ",,,,,"BEAZER HOMES ","10235 W LITTLE YORK",HOUSTON,TX,77040,"(713) 849-2252",http://www.beazer.com/,,,
TX,HARRIS,2103220072,"Single Family Homes",3/16/2021,,83160,2079,"23747 RUBY BRAMBLE TRL",HOUSTON,TX,77356,ELYSON,,CONTRACTOR,,,,,,,,,,,"BEAZER HOMES ",,,,,"BEAZER HOMES ","10235 W LITTLE YORK",HOUSTON,TX,77040,"(713) 849-2252",http://www.beazer.com/,,,
TX,HARRIS,2103220077,"Single Family Homes",3/16/2021,,86680,2167,"23751 RUBY BRAMBLE TRL",HOUSTON,TX,77356,ELYSON,,CONTRACTOR,,,,,,,,,,,"BEAZER HOMES ",,,,,"BEAZER HOMES ","10235 W LITTLE YORK",HOUSTON,TX,77040,"(713) 849-2252",http://www.beazer.com/,,,
TX,HARRIS,2103220084,"Single Family Homes",3/16/2021,,78480,1962,"6214 FALLEN ARBOR LN",HOUSTON,TX,77356,ELYSON,,CONTRACTOR,,,,,,,,,,,"BEAZER HOMES ",,,,,"BEAZER HOMES ","10235 W LITTLE YORK",HOUSTON,TX,77040,"(713) 849-2252",http://www.beazer.com/,,,
TX,HARRIS,2103220088,"Single Family Homes",3/16/2021,,73240,1831,"5315 MARISOL COVE DR",HOUSTON,TX,77356,MARISOL,,CONTRACTOR,,,,,,,,,,,"BEAZER HOMES ",,,,,"BEAZER HOMES ","10235 W LITTLE YORK",HOUSTON,TX,77040,"(713) 849-2252",http://www.beazer.com/,,,
TX,HARRIS,2103220089,"Single Family Homes",3/16/2021,,97560,2439,"5307 SUNNY RAY DR",HOUSTON,TX,77356,MARISOL,,CONTRACTOR,,,,,,,,,,,"BEAZER HOMES ",,,,,"BEAZER HOMES ","10235 W LITTLE YORK",HOUSTON,TX,77040,"(713) 849-2252",http://www.beazer.com/,,,
TX,HARRIS,2103220059,"Single Family Homes",3/16/2021,,340000,3400,"23643 BOTTLEBRUSH TERRACE TRL",HOUSTON,TX,77356,ELYSON,,CONTRACTOR,,,,,,,,,,,"HIGHLAND HOMES",,,,,"HIGHLAND HOMES","10930 W SAM HOUSTON PKWY N STE 100",HOUSTON,TX,77064-6331,"(281) 517-9800",,,,
TX,HARRIS,2103160023,"Single Family Homes",3/16/2021,,187110,3063,"15314 ORDIE RUN DR",HOUSTON,TX,77356,BALMORAL,,CONTRACTOR,,,,,,,,,,,"K HOVNANIAN HOMES",,,,,"K HOVNANIAN HOMES","13111 NORTHWEST FWY STE 200",HOUSTON,TX,77040-6311,"(713) 460-0264",,,,
TX,HARRIS,2103160026,"Single Family Homes",3/16/2021,,102000,1574,"8734 WOOSTER TRAILS DR",HOUSTON,TX,77356,"WOOSTER CROSSING",,CONTRACTOR,,,,,,,,,,,"LENNAR HOMES",,,,,"LENNAR HOMES","550 GREENS PKWY",HOUSTON,TX,77067-4537,"(281) 875-1000",http://www.lennar.com/,,,
TX,HARRIS,2103160027,"Single Family Homes",3/16/2021,,133000,2051,"8730 WOOSTER TRAILS DR",HOUSTON,TX,77356,"WOOSTER CROSSING",,CONTRACTOR,,,,,,,,,,,"LENNAR HOMES",,,,,"LENNAR HOMES","550 GREENS PKWY",HOUSTON,TX,77067-4537,"(281) 875-1000",http://www.lennar.com/,,,
TX,HARRIS,2103160029,"Single Family Homes",3/16/2021,,107000,1648,"8726 WOOSTER TRAILS DR",HOUSTON,TX,77356,"WOOSTER CROSSING",,CONTRACTOR,,,,,,,,,,,"LENNAR HOMES",,,,,"LENNAR HOMES","550 GREENS PKWY",HOUSTON,TX,77067-4537,"(281) 875-1000",http://www.lennar.com/,,,
TX,HARRIS,2103160030,"Single Family Homes",3/16/2021,,102000,1574,"8719 WOOSTER TRAILS DR",HOUSTON,TX,77356,"WOOSTER CROSSING",,CONTRACTOR,,,,,,,,,,,"LENNAR HOMES",,,,,"LENNAR HOMES","550 GREENS PKWY",HOUSTON,TX,77067-4537,"(281) 875-1000",http://www.lennar.com/,,,
TX,HARRIS,2103100047,"Single Family Homes",3/16/2021,,70840,3542,"19306 SAGEBRUSH CAMP CT",HOUSTON,TX,77356,"BRIDGELAND PARKLAND VILLAGE",,CONTRACTOR,,,,,,,,,,,"MHI MCGUYER HOMEBUILDERS",,,,,"MHI MCGUYER HOMEBUILDERS","7676 WOODWAY DR",HOUSTON,TX,77063-1526,"(713) 260-4107",,,,
TX,HARRIS,2103150138,"Single Family Homes",3/16/2021,,56760,2838,"11823 CREEKSIDE SHORE CIR",HOUSTON,TX,77356,"TOWNE LAKE",,CONTRACTOR,,,,,,,,,,,"MHI MCGUYER HOMEBUILDERS",,,,,"MHI MCGUYER HOMEBUILDERS","7676 WOODWAY DR",HOUSTON,TX,77063-1526,"(713) 260-4107",,,,
TX,HARRIS,2103080141,"Single Family Homes",3/16/2021,,58540,2927,"14802 LONE YAUPON CIR",HOUSTON,TX,77356,ENCLAVE,,CONTRACTOR,,,,,,,,,,,"MHI MCGUYER HOMEBUILDERS",,,,,"MHI MCGUYER HOMEBUILDERS","7676 WOODWAY DR",HOUSTON,TX,77063-1526,"(713) 260-4107",,,,
TX,HARRIS,2103080135,"Single Family Homes",3/16/2021,,88940,4447,"13703 BULBINE MEADOW TRL",HOUSTON,TX,77356,ENCLAVE,,CONTRACTOR,,,,,,,,,,,"MHI MCGUYER HOMEBUILDERS",,,,,"MHI MCGUYER HOMEBUILDERS","7676 WOODWAY DR",HOUSTON,TX,77063-1526,"(713) 260-4107",,,,
TX,HARRIS,2103160043,"Single Family Homes",3/16/2021,,107160,5358,"19406 SHEPHERDS VALLEY LN",HOUSTON,TX,77356,"TOWNE LAKE",,CONTRACTOR,,,,,,,,,,,"MHI MCGUYER HOMEBUILDERS",,,,,"MHI MCGUYER HOMEBUILDERS","7676 WOODWAY DR",HOUSTON,TX,77063-1526,"(713) 260-4107",,,,
TX,HARRIS,2103150152,"Single Family Homes",3/16/2021,,56200,2810,"31715 HARMONY HEIGHTS LN",HOUSTON,TX,77356,"DELLROSE ",,CONTRACTOR,,,,,,,,,,,"MHI MCGUYER HOMEBUILDERS",,,,,"MHI MCGUYER HOMEBUILDERS","7676 WOODWAY DR",HOUSTON,TX,77063-1526,"(713) 260-4107",,,,
TX,HARRIS,2103190153,"Single Family Homes",3/16/2021,,66500,3325,"31907 DAHLIA PETAL CT",HOUSTON,TX,77356,"DELLROSE ",,CONTRACTOR,,,,,,,,,,,"MHI MCGUYER HOMEBUILDERS",,,,,"MHI MCGUYER HOMEBUILDERS","7676 WOODWAY DR",HOUSTON,TX,77063-1526,"(713) 260-4107",,,,
TX,HARRIS,2103150148,"Single Family Homes",3/16/2021,,56960,2848,"31826 HARMONY HEIGHTS LN",HOUSTON,TX,77356,DELLROSE,,CONTRACTOR,,,,,,,,,,,"MHI MCGUYER HOMEBUILDERS",,,,,"MHI MCGUYER HOMEBUILDERS","7676 WOODWAY DR",HOUSTON,TX,77063-1526,"(713) 260-4107",,,,
TX,HARRIS,2103220155,"Single Family Homes",3/16/2021,,130000,1827,"15022 EAGLE FEATHER CT",HOUSTON,TX,77356,EAGLE,,CONTRACTOR,,,,,,,,,,,"SKYMARK HOMES",,,,,"SKYMARK HOMES","1616 S. VOSS ROAD, SUITE 618",HOUSTON,TX,77057,"(713) 978-5900",https://www.skymarkdevelopment.com/,,,
TX,HARRIS,2103180125,"Single Family Homes",3/16/2021,,266990,1650,"11402 RAVEN CLAW DR",HOUSTON,TX,77356,"GROVE LANDING",,CONTRACTOR,,,,,,,,,,,"DAVID WEEKLEY HOMES",,,,,"DAVID WEEKLEY HOMES","14444 NORTHWEST",HOUSTON,TX,77040,"(713) 570-5021",http://www.davidweekleyhomes.com/,,,
TX,HARRIS,2103180131,"Single Family Homes",3/16/2021,,308363,2741,"15818 WESTON RIDGE DR",HOUSTON,TX,77356,BALMORAL,,CONTRACTOR,,,,,,,,,,,"PERRY HOMES",,,,,"PERRY HOMES","9000 GULF FWY",HOUSTON,TX,77017-7018,"(713) 417-1396",,,,
TX,HARRIS,2103090066,"Single Family Homes",3/16/2021,,142234,2859,"12826 ILDERTON DR",HOUSTON,TX,77356,BALMORAL,,CONTRACTOR,,,,,,,,,,,"GEHAN HOMES",,,,,"GEHAN HOMES","2050 W SAM HOUSTON PKWY S",HOUSTON,TX,77042-2079,"(713) 243-3545",http://www.gehanhomes.com,,,
TX,HARRIS,2103170048,"Single Family Homes",3/16/2021,,155000,1969,"17551 DESMOND ST",HOUSTON,TX,77356,MERRYLANDS,,CONTRACTOR,,,,,,,,,,,"LEGEND HOMES",,,,,"LEGEND HOMES","10410 WINDAMERE LAKES BLVD",HOUSTON,TX,77065-4996,"(281) 671-9060",http://legendhomecorp.com/,"(281) 671-9055",,
TX,HARRIS,2103180183,"Single Family Homes",3/16/2021,,306990,3592,"6306 CANTIGNY LAKE DR",HOUSTON,TX,77356,"KATY LAKES",,CONTRACTOR,,,,,,,,,,,"HISTORY MAKER HOMES",,,,,"HISTORY MAKER HOMES","9001 AIRPORT FWY SUITE 400","NORTH RICHLAND HILLS",TX,76180-7769,"(817) 429-8008",http://www.historymaker.com/,"(817) 507-1102","JILL BARFIELD",
TX,HARRIS,2103100062,"Single Family Homes",3/16/2021,,340000,3400,"23607 BOTTLEBRUSH TERRACE TRL",HOUSTON,TX,77356,ELYSON,,CONTRACTOR,,,,,,,,,,,"HIGHLAND HOMES",,,,,"HIGHLAND HOMES","10930 W SAM HOUSTON PKWY N STE 100",HOUSTON,TX,77064-6331,"(281) 517-9800",,,,
TX,HARRIS,2103130004,"Single Family Homes",3/16/2021,,340000,1675,"11966 CALIFORNIA SISTER DR",HOUSTON,TX,77356,GROVES,,CONTRACTOR,,,,,,,,,,,"HIGHLAND HOMES",,,,,"HIGHLAND HOMES","10930 W SAM HOUSTON PKWY N STE 100",HOUSTON,TX,77064-6331,"(281) 517-9800",,,,
TX,HARRIS,2103190006,"Single Family Homes",3/16/2021,,306990,3730,"6334 BELLEAU LAKE DR",HOUSTON,TX,77356,"KATY LAKES",,CONTRACTOR,,,,,,,,,,,"HISTORY MAKER HOMES",,,,,"HISTORY MAKER HOMES","9001 AIRPORT FWY SUITE 400","NORTH RICHLAND HILLS",TX,76180-7769,"(817) 429-8008",http://www.historymaker.com/,"(817) 507-1102","JILL BARFIELD",
TX,HARRIS,2103190021,"Single Family Homes",3/16/2021,,242520,2426,"11651 BRAEMAR VILLAGE DR",HOUSTON,TX,77356,"BRAEMAR VILLAGE",,CONTRACTOR,,,,,,,,,,,"PULTE HOMES",,,,,"PULTE HOMES","16670 PARK ROW",HOUSTON,TX,77084-6866,"(281) 749-8000",,,,
TX,HARRIS,2103180018,"Single Family Homes",3/16/2021,,105000,1611,"15119 BAYBERRY MEADOWS LN",HOUSTON,TX,77356,"TIMBER CROSSING",,CONTRACTOR,,,,,,,,,,,"KB HOME",,,,,"KB HOME","11314 RICHMOND AVE",HOUSTON,TX,77082-2616,"(281) 668-3800",,,,
TX,HARRIS,2103100141,"Single Family Homes",3/16/2021,,224000,3447,"4311 LEYLAND BROOK LN",HOUSTON,TX,77356,"CYPRESS CREEK LANDING",,CONTRACTOR,,,,,,,,,,,"KB HOME",,,,,"KB HOME","11314 RICHMOND AVE",HOUSTON,TX,77082-2616,"(281) 668-3800",,,,
TX,HARRIS,2103100144,"Single Family Homes",3/16/2021,,130000,2001,"12550 NEWCASTLE PARK LN",HOUSTON,TX,77356,"LAKEWOOD PINES",,CONTRACTOR,,,,,,,,,,,"KB HOME",,,,,"KB HOME","11314 RICHMOND AVE",HOUSTON,TX,77082-2616,"(281) 668-3800",,,,
TX,HARRIS,2103110104,"Single Family Homes",3/16/2021,,165000,2546,"25607 REIGN WAYMAN CT",HOUSTON,TX,77356,"KATY MANOR",,CONTRACTOR,,,,,,,,,,,"KB HOME",,,,,"KB HOME","11314 RICHMOND AVE",HOUSTON,TX,77082-2616,"(281) 668-3800",,,,
TX,HARRIS,2103170112,"Single Family Homes",3/16/2021,,115000,1776,"751 HARDWOOD GROVE CT",HOUSTON,TX,77356,"TIMBER CROSSING",,CONTRACTOR,,,,,,,,,,,"KB HOME",,,,,"KB HOME","11314 RICHMOND AVE",HOUSTON,TX,77082-2616,"(281) 668-3800",,,,
TX,HARRIS,2103170115,"Single Family Homes",3/16/2021,,199000,3062,"17314 ROCK WILLOW LN",HOUSTON,TX,77356,"WILLOW WOOD PLACE",,CONTRACTOR,,,,,,,,,,,"KB HOME",,,,,"KB HOME","11314 RICHMOND AVE",HOUSTON,TX,77082-2616,"(281) 668-3800",,,,
TX,HARRIS,2103180113,"Single Family Homes",3/16/2021,,173000,2655,"17307 ROCK WILLOW LN",HOUSTON,TX,77356,"WILLOW WOOD PLACE",,CONTRACTOR,,,,,,,,,,,"KB HOME",,,,,"KB HOME","11314 RICHMOND AVE",HOUSTON,TX,77082-2616,"(281) 668-3800",,,,
TX,HARRIS,2103180114,"Single Family Homes",3/16/2021,,130000,2001,"17246 ROCK WILLOW LN",HOUSTON,TX,77356,"WILLOW WOOD PLACE",,CONTRACTOR,,,,,,,,,,,"KB HOME",,,,,"KB HOME","11314 RICHMOND AVE",HOUSTON,TX,77082-2616,"(281) 668-3800",,,,
TX,HARRIS,2103190027,"Single Family Homes",3/16/2021,,243240,2765,"11635 BRAEMAR VILLAGE DR",HOUSTON,TX,77356,"BRAEMAR VILLAGE",,CONTRACTOR,,,,,,,,,,,"PULTE HOMES",,,,,"PULTE HOMES","16670 PARK ROW",HOUSTON,TX,77084-6866,"(281) 749-8000",,,,
TX,HARRIS,2103190028,"Single Family Homes",3/16/2021,,227150,2055,"11647 BRAEMAR VILLAGE DR",HOUSTON,TX,77356,"BRAEMAR VILLAGE",,CONTRACTOR,,,,,,,,,,,"PULTE HOMES",,,,,"PULTE HOMES","16670 PARK ROW",HOUSTON,TX,77084-6866,"(281) 749-8000",,,,
TX,HARRIS,2103190029,"Single Family Homes",3/16/2021,,247080,2789,"11643 BRAEMAR VILLAGE DR",HOUSTON,TX,77356,"BRAEMAR VILLAGE",,CONTRACTOR,,,,,,,,,,,"PULTE HOMES",,,,,"PULTE HOMES","16670 PARK ROW",HOUSTON,TX,77084-6866,"(281) 749-8000",,,,
TX,HARRIS,2103190035,"Single Family Homes",3/16/2021,,233160,2420,"11639 BRAEMAR VILLAGE DR",HOUSTON,TX,77356,"BRAEMAR VILLAGE",,CONTRACTOR,,,,,,,,,,,"PULTE HOMES",,,,,"PULTE HOMES","16670 PARK ROW",HOUSTON,TX,77084-6866,"(281) 749-8000",,,,
TX,HARRIS,2103150116,"Single Family Homes",3/16/2021,,172000,2716,"17447 CUTHBERT ST",HOUSTON,TX,77356,MERRYLANDS,,CONTRACTOR,,,,,,,,,,,"LEGEND HOMES",,,,,"LEGEND HOMES","10410 WINDAMERE LAKES BLVD",HOUSTON,TX,77065-4996,"(281) 671-9060",http://legendhomecorp.com/,"(281) 671-9055",,
TX,HARRIS,2103150103,"Single Family Homes",3/16/2021,,95370,3179,"18335 PEDERNALES SPRINGS DR",HOUSTON,TX,77356,"TOWNE LAKE",,CONTRACTOR,,,,,,,,,,,"DAVID WEEKLEY HOMES",,,,,"DAVID WEEKLEY HOMES","14444 NORTHWEST",HOUSTON,TX,77040,"(713) 570-5021",http://www.davidweekleyhomes.com/,,,
TX,HARRIS,2103150109,"Single Family Homes",3/16/2021,,95820,3194,"18442 COUNCE MEADOW CT",HOUSTON,TX,77356,"TOWNE LAKE",,CONTRACTOR,,,,,,,,,,,"DAVID WEEKLEY HOMES",,,,,"DAVID WEEKLEY HOMES","14444 NORTHWEST",HOUSTON,TX,77040,"(713) 570-5021",http://www.davidweekleyhomes.com/,,,
TX,HARRIS,2103150118,"Single Family Homes",3/16/2021,,90990,3033,"18330 SUNSET ELM DR",HOUSTON,TX,77356,"TOWNE LAKE",,CONTRACTOR,,,,,,,,,,,"DAVID WEEKLEY HOMES",,,,,"DAVID WEEKLEY HOMES","14444 NORTHWEST",HOUSTON,TX,77040,"(713) 570-5021",http://www.davidweekleyhomes.com/,,,
TX,MONTGOMERY,20210131,"Single Family Homes",3/8/2021,,143400,,"713 AUTUMN LAKE LN",MAGNOLIA,TX,77354,,,CONTRACTOR,,,,,,,,,,,"M/I HOMES",,,,,"M/I HOMES","10910 NORTH SAM HOUSTON PKWY W",HOUSTON,TX,77064,"(832) 912-1012",,,,
TX,MONTGOMERY,20210132,"Single Family Homes",3/8/2021,,123400,,"359 JEWETT MEADOW DR",MAGNOLIA,TX,77354,,,CONTRACTOR,,,,,,,,,,,"M/I HOMES",,,,,"M/I HOMES","10910 NORTH SAM HOUSTON PKWY W",HOUSTON,TX,77064,"(832) 912-1012",,,,
TX,MONTGOMERY,20210133,"Single Family Homes",3/8/2021,,164970,,"340 JEWETT MEADOW DR",MAGNOLIA,TX,77354,,,CONTRACTOR,,,,,,,,,,,"LENNAR HOMES",,,,,"LENNAR HOMES","550 GREENS PKWY",HOUSTON,TX,77067-4537,"(281) 875-1000",http://www.lennar.com/,,,
TX,MONTGOMERY,20210150,"Single Family Homes",3/12/2021,,171340,,"358 JEWETT MEADOW DR",MAGNOLIA,TX,77354,,,CONTRACTOR,,,,,,,,,,,"LENNAR HOMES",,,,,"LENNAR HOMES","550 GREENS PKWY",HOUSTON,TX,77067-4537,"(281) 875-1000",http://www.lennar.com/,,,
TX,MONTGOMERY,20210151,"Single Family Homes",3/12/2021,,148850,,"355 JEWETT MEADOWS DR",MAGNOLIA,TX,77354,,,CONTRACTOR,,,,,,,,,,,"LENNAR HOMES",,,,,"LENNAR HOMES","550 GREENS PKWY",HOUSTON,TX,77067-4537,"(281) 875-1000",http://www.lennar.com/,,,
TX,MONTGOMERY,20210152,"Single Family Homes",3/12/2021,,157040,,"346 JEWETT MEADOW DR",MAGNOLIA,TX,77354,,,CONTRACTOR,,,,,,,,,,,"LENNAR HOMES",,,,,"LENNAR HOMES","550 GREENS PKWY",HOUSTON,TX,77067-4537,"(281) 875-1000",http://www.lennar.com/,,,
TX,MONTGOMERY,20210158,"Single Family Homes",3/16/2021,,127000,,"204 TEMPLE MEMORIAL DR",MAGNOLIA,TX,77354,,,CONTRACTOR,,,,,,,,,,,"M/I HOMES",,,,,"M/I HOMES","10910 NORTH SAM HOUSTON PKWY W",HOUSTON,TX,77064,"(832) 912-1012",,,,
TX,MONTGOMERY,20210165,"Single Family Homes",3/17/2021,,200395,,"351 JEWETT MEADOW DR",MAGNOLIA,TX,77354,,,CONTRACTOR,,,,,,,,,,,"LENNAR HOMES",,,,,"LENNAR HOMES","550 GREENS PKWY",HOUSTON,TX,77067-4537,"(281) 875-1000",http://www.lennar.com/,,,
TX,HARRIS,21010677,"Single Family Homes",3/1/2021,,187180,,"5803 WESTRICK LN",PASADENA,TX,77505,,,CONTRACTOR,,,,,,,,,,,"K HOVNANIAN HOMES",,,,,"K HOVNANIAN HOMES","13111 NORTHWEST FWY STE 200",HOUSTON,TX,77040-6311,"(713) 460-0264",,,,
TX,HARRIS,21010679,"Single Family Homes",3/1/2021,,190120,3674,"7811 BELLWICK CT",PASADENA,TX,77505,,,CONTRACTOR,,,,,,,,,,,"K HOVNANIAN HOMES",,,,,"K HOVNANIAN HOMES","13111 NORTHWEST FWY STE 200",HOUSTON,TX,77040-6311,"(713) 460-0264",,,,
TX,HARRIS,21010680,"Single Family Homes",3/1/2021,,155750,2971,"5718 WESTRICK LN",PASADENA,TX,77505,,,CONTRACTOR,,,,,,,,,,,"K HOVNANIAN HOMES",,,,,"K HOVNANIAN HOMES","13111 NORTHWEST FWY STE 200",HOUSTON,TX,77040-6311,"(713) 460-0264",,,,
TX,HARRIS,21010683,"Single Family Homes",3/1/2021,,173810,3051,"5727 WESTRICK LN",PASADENA,TX,77505,,,CONTRACTOR,,,,,,,,,,,"K HOVNANIAN HOMES",,,,,"K HOVNANIAN HOMES","13111 NORTHWEST FWY STE 200",HOUSTON,TX,77040-6311,"(713) 460-0264",,,,
TX,HARRIS,21010684,"Single Family Homes",3/1/2021,,190120,3674,"5714 ASHLAND LN",PASADENA,TX,77505,,,CONTRACTOR,,,,,,,,,,,"K HOVNANIAN HOMES",,,,,"K HOVNANIAN HOMES","13111 NORTHWEST FWY STE 200",HOUSTON,TX,77040-6311,"(713) 460-0264",,,,
TX,HARRIS,21010685,"Single Family Homes",3/4/2021,,143080,2591,"5726 WESTRICK LN",PASADENA,TX,77505,,,CONTRACTOR,,,,,,,,,,,"K HOVNANIAN HOMES",,,,,"K HOVNANIAN HOMES","13111 NORTHWEST FWY STE 200",HOUSTON,TX,77040-6311,"(713) 460-0264",,,,
TX,HARRIS,21020077,"Single Family Homes",3/4/2021,,155750,2971,"7818 BELLWICK CT",PASADENA,TX,77505,,,CONTRACTOR,,,,,,,,,,,"K HOVNANIAN HOMES",,,,,"K HOVNANIAN HOMES","13111 NORTHWEST FWY STE 200",HOUSTON,TX,77040-6311,"(713) 460-0264",,,,
TX,HARRIS,21020125,"Single Family Homes",3/5/2021,,94990,1357,"914 LIVE OAK ST",PASADENA,TX,77506,,,CONTRACTOR,,,,,,,,,,,"DUCKY RECOVERY LLC",,,,,"DUCKY RECOVERY LLC","12815 GULF",HOUSTON,TX,77034,"(208) 251-5198",,,,
TX,HARRIS,21020384,"Single Family Homes",3/4/2021,,179620,3411,"5535 FAIRFIELD LN",PASADENA,TX,77505,,,CONTRACTOR,,,,,,,,,,,"K HOVNANIAN HOMES",,,,,"K HOVNANIAN HOMES","13111 NORTHWEST FWY STE 200",HOUSTON,TX,77040-6311,"(713) 460-0264",,,,
TX,HARRIS,21020417,"Single Family Homes",3/4/2021,,120000,1395,"4913 CREPE MYRTLE LN",PASADENA,TX,77505,,,CONTRACTOR,,,,,,,,,,,STONEWATER,,,,,STONEWATER,"2005 POST OFFICE STREET ",GALVESTON,TX,77550,"(409) 727-6437",,,,
TX,HARRIS,21020423,"Single Family Homes",3/10/2021,,160000,1633,"1410 LLANO ST",PASADENA,TX,77504,,,CONTRACTOR,,,,,,,,,,,"INFINITE CUSTOM HOMES",,,,,"INFINITE CUSTOM HOMES","14403 TWISTED CANYON DR",CYPRESS,TX,77429-4240,"(713) 557-9524",,,,
TX,HARRIS,21020536,"Single Family Homes",3/12/2021,,150000,2960,"301 KALMER ST",PASADENA,TX,77502,,,CONTRACTOR,,,,,,,,,,,"CASTILLO HOUSE RENOVATIONS GROUP",,,,,"CASTILLO HOUSE RENOVATIONS GROUP","2843 WESTSIDE DR STE 14C",PASADENA,TX,77502,"(713) 623-1431",https://castillohouserenovationgroup.com/,,,castillhouserenogrp@gmail.com
TX,HARRIS,21030350,"Single Family Homes",3/18/2021,,179620,3350,"5518 HIGHLAND DR",PASADENA,TX,77505,,,CONTRACTOR,,,,,,,,,,,"K HOVNANIAN HOMES",,,,,"K HOVNANIAN HOMES","13111 NORTHWEST FWY STE 200",HOUSTON,TX,77040-6311,"(713) 460-0264",,,,
TX,HARRIS,21030451,"Single Family Homes",3/29/2021,,205170,3709,"5514 HIGHLAND DR",PASADENA,TX,77505,,,CONTRACTOR,,,,,,,,,,,"K HOVNANIAN HOMES",,,,,"K HOVNANIAN HOMES","13111 NORTHWEST FWY STE 200",HOUSTON,TX,77040-6311,"(713) 460-0264",,,,
TX,HARRIS,21030561,"Single Family Homes",3/29/2021,,277690,4671,"5555 FAIRFIELD LN",PASADENA,TX,77505,,,CONTRACTOR,,,,,,,,,,,"K HOVNANIAN HOMES",,,,,"K HOVNANIAN HOMES","13111 NORTHWEST FWY STE 200",HOUSTON,TX,77040-6311,"(713) 460-0264",,,,
TX,HARRIS,21030562,"Single Family Homes",3/29/2021,,217630,3895,"5506 HIGHLAND DR",PASADENA,TX,77505,,,CONTRACTOR,,,,,,,,,,,"K HOVNANIAN HOMES",,,,,"K HOVNANIAN HOMES","13111 NORTHWEST FWY STE 200",HOUSTON,TX,77040-6311,"(713) 460-0264",,,,
TX,HARRIS,21030563,"Single Family Homes",3/29/2021,,143080,2796,"7819 BELLWICK CT",PASADENA,TX,77505,,,CONTRACTOR,,,,,,,,,,,"K HOVNANIAN HOMES",,,,,"K HOVNANIAN HOMES","13111 NORTHWEST FWY STE 200",HOUSTON,TX,77040-6311,"(713) 460-0264",,,,
TX,HARRIS,21030564,"Single Family Homes",3/29/2021,,205170,3718,"5522 HIGHLAND DR",PASADENA,TX,77505,,,CONTRACTOR,,,,,,,,,,,"K HOVNANIAN HOMES",,,,,"K HOVNANIAN HOMES","13111 NORTHWEST FWY STE 200",HOUSTON,TX,77040-6311,"(713) 460-0264",,,,
TX,BELL,2021-6624,"Single Family Homes",3/1/2021,,186900,3115,"2604 SETTLERS OAK DR",BELTON,TX,76513,,,CONTRACTOR,,,,,,,,,,,"ASHFORD HOMES",,,,,"ASHFORD HOMES","3800 E STAN SCHLUETER LOOP STE 107",KILLEEN,TX,76542-4558,"(254) 699-8485",,,,
TX,BELL,2021-6625,"Single Family Homes",3/1/2021,,149900,2452,"2608 SETTLERS OAK DR",BELTON,TX,76513,,,CONTRACTOR,,,,,,,,,,,"ASHFORD HOMES",,,,,"ASHFORD HOMES","3800 E STAN SCHLUETER LOOP STE 107",KILLEEN,TX,76542-4558,"(254) 699-8485",,,,
TX,BELL,2021-6626,"Single Family Homes",3/1/2021,,149900,3040,"2612 SETTLERS OAK DR",BELTON,TX,76513,,,CONTRACTOR,,,,,,,,,,,"ASHFORD HOMES",,,,,"ASHFORD HOMES","3800 E STAN SCHLUETER LOOP STE 107",KILLEEN,TX,76542-4558,"(254) 699-8485",,,,
TX,BELL,2021-6627,"Single Family Homes",3/1/2021,,169900,2794,"2616 SETTLERS OAK DR",BELTON,TX,76513,,,CONTRACTOR,,,,,,,,,,,"ASHFORD HOMES",,,,,"ASHFORD HOMES","3800 E STAN SCHLUETER LOOP STE 107",KILLEEN,TX,76542-4558,"(254) 699-8485",,,,
TX,BELL,2021-6628,"Single Family Homes",3/1/2021,,156900,2570,"2620 SETTLERS OAK DR",BELTON,TX,76513,,,CONTRACTOR,,,,,,,,,,,"ASHFORD HOMES",,,,,"ASHFORD HOMES","3800 E STAN SCHLUETER LOOP STE 107",KILLEEN,TX,76542-4558,"(254) 699-8485",,,,
TX,BELL,2021-6629,"Single Family Homes",3/2/2021,,154900,2529,"2624 SETTLERS OAK DR",BELTON,TX,76513,,,CONTRACTOR,,,,,,,,,,,"ASHFORD HOMES",,,,,"ASHFORD HOMES","3800 E STAN SCHLUETER LOOP STE 107",KILLEEN,TX,76542-4558,"(254) 699-8485",,,,
TX,BELL,2021-6631,"Single Family Homes",3/2/2021,,186900,3115,"2628 SETTLERS OAK DR",BELTON,TX,76513,,,CONTRACTOR,,,,,,,,,,,"ASHFORD HOMES",,,,,"ASHFORD HOMES","3800 E STAN SCHLUETER LOOP STE 107",KILLEEN,TX,76542-4558,"(254) 699-8485",,,,
TX,BELL,2021-6632,"Single Family Homes",3/2/2021,,179900,2908,"2632 SETTLERS OAK DR",BELTON,TX,76513,,,CONTRACTOR,,,,,,,,,,,"ASHFORD HOMES",,,,,"ASHFORD HOMES","3800 E STAN SCHLUETER LOOP STE 107",KILLEEN,TX,76542-4558,"(254) 699-8485",,,,
TX,BELL,2021-6633,"Single Family Homes",3/2/2021,,149900,2452,"2636 SETTLERS OAK DR",BELTON,TX,76513,,,CONTRACTOR,,,,,,,,,,,"ASHFORD HOMES",,,,,"ASHFORD HOMES","3800 E STAN SCHLUETER LOOP STE 107",KILLEEN,TX,76542-4558,"(254) 699-8485",,,,
TX,BELL,2021-6634,"Single Family Homes",3/2/2021,,196900,2794,"2640 SETTLERS OAK DR",BELTON,TX,76513,,,CONTRACTOR,,,,,,,,,,,"ASHFORD HOMES",,,,,"ASHFORD HOMES","3800 E STAN SCHLUETER LOOP STE 107",KILLEEN,TX,76542-4558,"(254) 699-8485",,,,
TX,BELL,2021-6635,"Single Family Homes",3/3/2021,,184900,3040,"2644 SETTLERS OAK D",BELTON,TX,76513,,,CONTRACTOR,,,,,,,,,,,"ASHFORD HOMES",,,,,"ASHFORD HOMES","3800 E STAN SCHLUETER LOOP STE 107",KILLEEN,TX,76542-4558,"(254) 699-8485",,,,
TX,BELL,2021-6636,"Single Family Homes",3/3/2021,,154900,2529,"2648 SETTLERS OAK DR",BELTON,TX,76513,,,CONTRACTOR,,,,,,,,,,,"ASHFORD HOMES",,,,,"ASHFORD HOMES","3800 E STAN SCHLUETER LOOP STE 107",KILLEEN,TX,76542-4558,"(254) 699-8485",,,,
TX,BELL,2021-6637,"Single Family Homes",3/3/2021,,159900,2633,"2652 SETTLERS OAK DR",BELTON,TX,76513,,,CONTRACTOR,,,,,,,,,,,"ASHFORD HOMES",,,,,"ASHFORD HOMES","3800 E STAN SCHLUETER LOOP STE 107",KILLEEN,TX,76542-4558,"(254) 699-8485",,,,
TX,BELL,2021-6638,"Single Family Homes",3/3/2021,,154900,2529,"2656 SETTLERS OAK DR",BELTON,TX,76513,,,CONTRACTOR,,,,,,,,,,,"ASHFORD HOMES",,,,,"ASHFORD HOMES","3800 E STAN SCHLUETER LOOP STE 107",KILLEEN,TX,76542-4558,"(254) 699-8485",,,,
TX,BELL,2021-6639,"Single Family Homes",3/3/2021,,169900,2794,"2660 SETTLERS OAK DR",BELTON,TX,76513,,,CONTRACTOR,,,,,,,,,,,"ASHFORD HOMES",,,,,"ASHFORD HOMES","3800 E STAN SCHLUETER LOOP STE 107",KILLEEN,TX,76542-4558,"(254) 699-8485",,,,
TX,BELL,2021-6650,"Single Family Homes",3/3/2021,,285000,2995,"3313 DIGBY DR",BELTON,TX,76513,,,CONTRACTOR,,,,,,,,,,,"CAROTHERS EXECUTIVE HOMES",,,,,"CAROTHERS EXECUTIVE HOMES","50 S WHEAT RD",BELTON,TX,76513-8220,"(254) 773-0600",http://carothersexecutivehomes.com/,"(254) 791-0323","DAVID SOUTHERLAND",
TX,BELL,2021-6654,"Single Family Homes",3/11/2021,,161600,1896,"1206 ADAM LN",BELTON,TX,76513,,,CONTRACTOR,,,,,,,,,,,"KB HOME",,,,,"KB HOME","11314 RICHMOND AVE",HOUSTON,TX,77082-2616,"(281) 668-3800",,,,
TX,BELL,2021-6655,"Single Family Homes",3/11/2021,,246775,2903,"1210 ADAM LN",BELTON,TX,76513,,,CONTRACTOR,,,,,,,,,,,"KB HOME",,,,,"KB HOME","11314 RICHMOND AVE",HOUSTON,TX,77082-2616,"(281) 668-3800",,,,
TX,BELL,2021-6656,"Single Family Homes",3/11/2021,,196180,2308,"1225 ADAM LN",BELTON,TX,76513,,,CONTRACTOR,,,,,,,,,,,"KB HOME",,,,,"KB HOME","11314 RICHMOND AVE",HOUSTON,TX,77082-2616,"(281) 668-3800",,,,
TX,BELL,2021-6665,"Single Family Homes",3/1/2021,,223000,3064,"1611 FOSSIL TRL",BELTON,TX,76513,,,CONTRACTOR,,,,,,,,,,,"PRECISION VALUE HOMES",,,,,"PRECISION VALUE HOMES","14304 E BUSINESS 190","COPPERAS COVE",TX,76522-6267,"(254) 290-7826",http://www.pvhtx.com/,"(254) 518-1130","BO HOLLOMAN",pvhtx@yahoo.com
TX,BELL,2021-6667,"Single Family Homes",3/8/2021,,204800,2580,"920 DAMASCUS DR",BELTON,TX,76513,,,CONTRACTOR,,,,,,,,,,,"PRECISION VALUE HOMES",,,,,"PRECISION VALUE HOMES","14304 E BUSINESS 190","COPPERAS COVE",TX,76522-6267,"(254) 290-7826",http://www.pvhtx.com/,"(254) 518-1130","BO HOLLOMAN",pvhtx@yahoo.com
TX,BELL,FY-21-616-SFR,"Single Family Homes",3/16/2021,,180175,2191,"1007 EATON DR",TEMPLE,TX,76504,,,CONTRACTOR,,,,,,,,,,,"DR HORTON",,,,,"DR HORTON","14100 SOUTHWEST",HOUSTON,TX,77478,"(281) 201-5559",,,,
TX,BELL,FY-21-617-SFR,"Single Family Homes",3/16/2021,,194900,2232,"2606 CASTRIOTA CT",TEMPLE,TX,76065,,,CONTRACTOR,,,,,,,,,,,"DR HORTON",,,,,"DR HORTON","14100 SOUTHWEST",HOUSTON,TX,77478,"(281) 201-5559",,,,
TX,BELL,FY-21-618,"Single Family Homes",3/16/2021,,167175,2098,"1015 EATON DR",TEMPLE,TX,76502,,,CONTRACTOR,,,,,,,,,,,"DR HORTON",,,,,"DR HORTON","14100 SOUTHWEST",HOUSTON,TX,77478,"(281) 201-5559",,,,
TX,BELL,FY-21-619-SFR,"Single Family Homes",3/16/2021,,187175,2339,"1011 EATON DR",TEMPLE,TX,76502,,,CONTRACTOR,,,,,,,,,,,"DR HORTON",,,,,"DR HORTON","14100 SOUTHWEST",HOUSTON,TX,77478,"(281) 201-5559",,,,
TX,BELL,FY-21-621,"Single Family Homes",3/16/2021,,219900,3220,"7503 WIND CHIME WAY",TEMPLE,TX,76502,,,CONTRACTOR,,,,,,,,,,,"ASHFORD HOMES",,,,,"ASHFORD HOMES","3800 E STAN SCHLUETER LOOP STE 107",KILLEEN,TX,76542-4558,"(254) 699-8485",,,,
TX,BELL,FY-21-622-SFR,"Single Family Homes",3/16/2021,,209900,3115,"7502 CLYDE DR",TEMPLE,TX,76502,,,CONTRACTOR,,,,,,,,,,,"ASHFORD HOMES",,,,,"ASHFORD HOMES","3800 E STAN SCHLUETER LOOP STE 107",KILLEEN,TX,76542-4558,"(254) 699-8485",,,,
TX,BELL,FY-21-623,"Single Family Homes",3/16/2021,,209900,3115,"7507 WIND CHIME WAY",TEMPLE,TX,76502,,,CONTRACTOR,,,,,,,,,,,"ASHFORD HOMES",,,,,"ASHFORD HOMES","3800 E STAN SCHLUETER LOOP STE 107",KILLEEN,TX,76542-4558,"(254) 699-8485",,,,
TX,BELL,FY-21-624,"Single Family Homes",3/16/2021,,199900,3040,"7506 CLYDE DR",TEMPLE,TX,76502,,,CONTRACTOR,,,,,,,,,,,"ASHFORD HOMES",,,,,"ASHFORD HOMES","3800 E STAN SCHLUETER LOOP STE 107",KILLEEN,TX,76542-4558,"(254) 699-8485",,,,
TX,BELL,FY-21-625,"Single Family Homes",3/16/2021,,199900,3040,"7538 CLYDE DR",TEMPLE,TX,76502,,,CONTRACTOR,,,,,,,,,,,"ASHFORD HOMES",,,,,"ASHFORD HOMES","3800 E STAN SCHLUETER LOOP STE 107",KILLEEN,TX,76542-4558,"(254) 699-8485",,,,
TX,BELL,FY-21-626,"Single Family Homes",3/16/2021,,199900,3040,"7534 CLYDE DR",TEMPLE,TX,76502,,,CONTRACTOR,,,,,,,,,,,"ASHFORD HOMES",,,,,"ASHFORD HOMES","3800 E STAN SCHLUETER LOOP STE 107",KILLEEN,TX,76542-4558,"(254) 699-8485",,,,
TX,BELL,FY-21-627,"Single Family Homes",3/16/2021,,285000,2831,"7205 GREENFIELD DR",TEMPLE,TX,76502,,,CONTRACTOR,,,,,,,,,,,"JAROLIK HOMES",,,,,"JAROLIK HOMES","15041 OLD TROY RD",TROY,TX,76579-3717,"(254) 933-5737",,,"KEVIN JAROLIK",
TX,BELL,FY-21-628,"Single Family Homes",3/16/2021,,182950,2232,"2723 REITHOFER CT",TEMPLE,TX,76502,,,CONTRACTOR,,,,,,,,,,,"DR HORTON",,,,,"DR HORTON","14100 SOUTHWEST",HOUSTON,TX,77478,"(281) 201-5559",,,,
TX,BELL,FY-21-629,"Single Family Homes",3/16/2021,,178175,2191,"2719 REITHOFER CT",TEMPLE,TX,76502,,,CONTRACTOR,,,,,,,,,,,"DR HORTON",,,,,"DR HORTON","14100 SOUTHWEST",HOUSTON,TX,77478,"(281) 201-5559",,,,
TX,BELL,FY-21-630,"Single Family Homes",3/16/2021,,110000,1930,"1012 MONTE VERDE DR",TEMPLE,TX,76502,,,CONTRACTOR,,,,,,,,,,,"NEW JERUSALEM HOMES",,,,,"NEW JERUSALEM HOMES","1613 W LITTLE YORK RD",HOUSTON,TX,77091,"(214) 558-4202",http://www.newjerusalemhomeimprovement.com/,,reyesmel7@hotmail.com,
TX,BELL,FY-21-631,"Single Family Homes",3/16/2021,,176175,2098,"2715 REITHOFER CT",TEMPLE,TX,76502,,,CONTRACTOR,,,,,,,,,,,"DR HORTON",,,,,"DR HORTON","14100 SOUTHWEST",HOUSTON,TX,77478,"(281) 201-5559",,,,
TX,BELL,FY-21-632,"Single Family Homes",3/16/2021,,183675,2232,"2711 REITHOFER CT",TEMPLE,TX,76502,,,CONTRACTOR,,,,,,,,,,,"DR HORTON",,,,,"DR HORTON","14100 SOUTHWEST",HOUSTON,TX,77478,"(281) 201-5559",,,,
TX,BELL,FY-21-633,"Single Family Homes",3/16/2021,,177725,1945,"2703 REITHOFER CT",TEMPLE,TX,76502,,,CONTRACTOR,,,,,,,,,,,"DR HORTON",,,,,"DR HORTON","14100 SOUTHWEST",HOUSTON,TX,77478,"(281) 201-5559",,,,
TX,BELL,FY-21-634,"Single Family Homes",3/16/2021,,196325,2341,"2614 CASTRIOTA CT",TEMPLE,TX,76504,,,CONTRACTOR,,,,,,,,,,,"DR HORTON",,,,,"DR HORTON","14100 SOUTHWEST",HOUSTON,TX,77478,"(281) 201-5559",,,,
TX,BELL,FY-21-635,"Single Family Homes",3/16/2021,,173175,2232,"2714 CASTRIOTA CT",TEMPLE,TX,76502,,,CONTRACTOR,,,,,,,,,,,"DR HORTON",,,,,"DR HORTON","14100 SOUTHWEST",HOUSTON,TX,77478,"(281) 201-5559",,,,
TX,BELL,FY-21-636,"Single Family Homes",3/16/2021,,122774,2669,"716 HOLLYHOCK DR",TEMPLE,TX,76502,,,CONTRACTOR,,,,,,,,,,,"STYLECRAFT BUILDERS ",,,,,"STYLECRAFT BUILDERS ","4090 STATE HIGHWAY 6 S","COLLEGE STATION",TX,77845-8962,"(979) 764-9900",,"(979) 690-3069","TANNER BREWSTER",tabrewster@stylecraft-builders.com
TX,BELL,FY-21-637,"Single Family Homes",3/16/2021,,320000,3974,"8640 PRAIRIE VIEW RD",TEMPLE,TX,76502,,,"LOPEZ OF JENNIFER","8640 PRAIRIE VIEW RD",TEMPLE,TX,76502,,Applicant,,,,,OWNER,,,,,OWNER,,,,,,,,,
TX,BELL,FY-21-638,"Single Family Homes",3/16/2021,,,3252,"6405 WAGGONER CT",TEMPLE,TX,76502,"LEGACY RANCH",,CONTRACTOR,,,,,,,,,,,"ARNOLD BUILDERS",,,,,"ARNOLD BUILDERS","5297 S 31ST ST STE 109",TEMPLE,TX,76502-3515,"(254) 742-1072",http://www.arnoldbuilders.com,"(254) 742-2226",,bobby@arnoldbuilders.com
TX,BELL,FY-21-639,"Single Family Homes",3/16/2021,,,2778,"7915 MARSALA DR",TEMPLE,TX,76502,"HILLS OF WESTWOOD",,CONTRACTOR,,,,,,,,,,,"OMEGA BUILDERS GROUP",,,,,"OMEGA BUILDERS GROUP","7353 W ADAMS AVE",TEMPLE,TX,76502-5539,"(254) 773-9966",,,,
TX,BELL,FY-21-640,"Single Family Homes",3/16/2021,,,2778,"10214 EAGLEFIRE DR",TEMPLE,TX,76502,,,CONTRACTOR,,,,,,,,,,,"OMEGA BUILDERS GROUP",,,,,"OMEGA BUILDERS GROUP","7353 W ADAMS AVE",TEMPLE,TX,76502-5539,"(254) 773-9966",,,,
TX,BELL,FY-21-641,"Single Family Homes",3/16/2021,,,2625,"609 SKYLAR HEIGHTS DR",TEMPLE,TX,76502,,,CONTRACTOR,,,,,,,,,,,"OMEGA BUILDERS GROUP",,,,,"OMEGA BUILDERS GROUP","7353 W ADAMS AVE",TEMPLE,TX,76502-5539,"(254) 773-9966",,,,
TX,BELL,FY-21-644,"Single Family Homes",3/16/2021,,191375,2339,"2723 CASTRIOTA CT",TEMPLE,TX,76504,,,CONTRACTOR,,,,,,,,,,,"DR HORTON",,,,,"DR HORTON","14100 SOUTHWEST",HOUSTON,TX,77478,"(281) 201-5559",,,,
TX,BELL,FY-21-645,"Single Family Homes",3/16/2021,,143428,3118,"1906 BAYOU WOOD LN",TEMPLE,TX,76502,,,CONTRACTOR,,,,,,,,,,,"STYLECRAFT BUILDERS ",,,,,"STYLECRAFT BUILDERS ","4090 STATE HIGHWAY 6 S","COLLEGE STATION",TX,77845-8962,"(979) 764-9900",,"(979) 690-3069","TANNER BREWSTER",tabrewster@stylecraft-builders.com
TX,BELL,FY-21-646,"Single Family Homes",3/16/2021,,,3808,"2704 PRAIRIE CHAPEL CT",TEMPLE,TX,76502,,,CONTRACTOR,,,,,,,,,,,"ARNOLD BUILDERS",,,,,"ARNOLD BUILDERS","5297 S 31ST ST STE 109",TEMPLE,TX,76502-3515,"(254) 742-1072",http://www.arnoldbuilders.com,"(254) 742-2226",,bobby@arnoldbuilders.com
TX,BELL,FY-21-647,"Single Family Homes",3/16/2021,,178175,2191,"2715 CASTRIOTA CT",TEMPLE,TX,76502,,,CONTRACTOR,,,,,,,,,,,"DR HORTON",,,,,"DR HORTON","14100 SOUTHWEST",HOUSTON,TX,77478,"(281) 201-5559",,,,
TX,BELL,FY-21-648,"Single Family Homes",3/16/2021,,185175,2339,"2710 CASTRIOTA CT",TEMPLE,TX,76502,,,CONTRACTOR,,,,,,,,,,,"DR HORTON",,,,,"DR HORTON","14100 SOUTHWEST",HOUSTON,TX,77478,"(281) 201-5559",,,,
TX,BELL,FY-21-649,"Single Family Homes",3/16/2021,,178175,2191,"2634 CASTRIOTA CT",TEMPLE,TX,76502,,,CONTRACTOR,,,,,,,,,,,"DR HORTON",,,,,"DR HORTON","14100 SOUTHWEST",HOUSTON,TX,77478,"(281) 201-5559",,,,
TX,BELL,FY-21-650,"Single Family Homes",3/16/2021,,172175,2191,"2706 CASTRIOTA CT",TEMPLE,TX,76502,,,CONTRACTOR,,,,,,,,,,,"DR HORTON",,,,,"DR HORTON","14100 SOUTHWEST",HOUSTON,TX,77478,"(281) 201-5559",,,,
TX,BELL,FY-21-651,"Single Family Homes",3/16/2021,,97796,2126,"8314 STONEHOLLOW DR",TEMPLE,TX,76502,"LAKE POINTE TERRACE",,CONTRACTOR,,,,,,,,,,,"STYLECRAFT BUILDERS ",,,,,"STYLECRAFT BUILDERS ","4090 STATE HIGHWAY 6 S","COLLEGE STATION",TX,77845-8962,"(979) 764-9900",,"(979) 690-3069","TANNER BREWSTER",tabrewster@stylecraft-builders.com
TX,BELL,FY-21-652,"Single Family Homes",3/16/2021,,154376,3356,"1807 BAYOU WOOD LN",TEMPLE,TX,76502,,,CONTRACTOR,,,,,,,,,,,"STYLECRAFT BUILDERS ",,,,,"STYLECRAFT BUILDERS ","4090 STATE HIGHWAY 6 S","COLLEGE STATION",TX,77845-8962,"(979) 764-9900",,"(979) 690-3069","TANNER BREWSTER",tabrewster@stylecraft-builders.com
TX,BELL,FY-21-653,"Single Family Homes",3/16/2021,,145038,3153,"1828 LONGMIRE LOOP",TEMPLE,TX,76502,,,CONTRACTOR,,,,,,,,,,,"STYLECRAFT BUILDERS ",,,,,"STYLECRAFT BUILDERS ","4090 STATE HIGHWAY 6 S","COLLEGE STATION",TX,77845-8962,"(979) 764-9900",,"(979) 690-3069","TANNER BREWSTER",tabrewster@stylecraft-builders.com
TX,BELL,FY-21-654,"Single Family Homes",3/16/2021,,157175,1773,"2718 REITHOFER CT",TEMPLE,TX,76502,,,CONTRACTOR,,,,,,,,,,,"DR HORTON",,,,,"DR HORTON","14100 SOUTHWEST",HOUSTON,TX,77478,"(281) 201-5559",,,,
TX,BELL,FY-21-655,"Single Family Homes",3/16/2021,,172175,2191,"2635 CASTRIOTA CT",TEMPLE,TX,76502,,,CONTRACTOR,,,,,,,,,,,"DR HORTON",,,,,"DR HORTON","14100 SOUTHWEST",HOUSTON,TX,77478,"(281) 201-5559",,,,
TX,BELL,FY-21-656,"Single Family Homes",3/16/2021,,165175,2098,"2707 CASTRIOTA CT",TEMPLE,TX,76502,"PECAN CREEK",,CONTRACTOR,,,,,,,,,,,"DR HORTON",,,,,"DR HORTON","14100 SOUTHWEST",HOUSTON,TX,77478,"(281) 201-5559",,,,
TX,BELL,FY-21-657,"Single Family Homes",3/16/2021,,156175,1773,"2711 CASTRIOTA CT",TEMPLE,TX,76502,"PECAN CREEK",,CONTRACTOR,,,,,,,,,,,"DR HORTON",,,,,"DR HORTON","14100 SOUTHWEST",HOUSTON,TX,77478,"(281) 201-5559",,,,
TX,BELL,FY-21-658,"Single Family Homes",3/16/2021,,165175,2098,"2719 CASTRIOTA CT",TEMPLE,TX,76502,,,CONTRACTOR,,,,,,,,,,,"DR HORTON",,,,,"DR HORTON","14100 SOUTHWEST",HOUSTON,TX,77478,"(281) 201-5559",,,,
TX,BELL,FY-21-659,"Single Family Homes",3/16/2021,,272450,2813,"7311 HAMMERMILL LN",TEMPLE,TX,76502,"HILLS OF WESTWOOD",,CONTRACTOR,,,,,,,,,,,"KIELLA HOMEBUILDERS",,,,,"KIELLA HOMEBUILDERS","7462 W ADAMS AVE",TEMPLE,TX,76502-5558,"(254) 778-0092",,,,
TX,BELL,FY-21-660,"Single Family Homes",3/16/2021,,194150,1874,"1332 LAKEWAY CROSSING DR",TEMPLE,TX,76502,,,CONTRACTOR,,,,,,,,,,,"KIELLA HOMEBUILDERS",,,,,"KIELLA HOMEBUILDERS","7462 W ADAMS AVE",TEMPLE,TX,76502-5558,"(254) 778-0092",,,,
TX,BELL,FY-21-661,"Single Family Homes",3/16/2021,,209900,2059,"1340 LAKEWAY CROSSING DR",TEMPLE,TX,76502,,,CONTRACTOR,,,,,,,,,,,"KIELLA HOMEBUILDERS",,,,,"KIELLA HOMEBUILDERS","7462 W ADAMS AVE",TEMPLE,TX,76502-5558,"(254) 778-0092",,,,
TX,BELL,FY-21-662,"Single Family Homes",3/16/2021,,155894,3389,"1852 LONGMIRE LOOP",TEMPLE,TX,76502,,,CONTRACTOR,,,,,,,,,,,"STYLECRAFT BUILDERS ",,,,,"STYLECRAFT BUILDERS ","4090 STATE HIGHWAY 6 S","COLLEGE STATION",TX,77845-8962,"(979) 764-9900",,"(979) 690-3069","TANNER BREWSTER",tabrewster@stylecraft-builders.com
TX,BELL,FY-21-663,"Single Family Homes",3/16/2021,,272450,2838,"7307 HAMMERMILL LN",TEMPLE,TX,76502,,,CONTRACTOR,,,,,,,,,,,"KIELLA HOMEBUILDERS",,,,,"KIELLA HOMEBUILDERS","7462 W ADAMS AVE",TEMPLE,TX,76502-5558,"(254) 778-0092",,,,
TX,BELL,FY-21-664,"Single Family Homes",3/16/2021,,241500,2407,"7308 ROSADO DR",TEMPLE,TX,76502,,,CONTRACTOR,,,,,,,,,,,"KIELLA HOMEBUILDERS",,,,,"KIELLA HOMEBUILDERS","7462 W ADAMS AVE",TEMPLE,TX,76502-5558,"(254) 778-0092",,,,
TX,BELL,FY-21-665,"Single Family Homes",3/16/2021,,149132,3242,"814 HOLLYHOCK DR",TEMPLE,TX,76502,,,CONTRACTOR,,,,,,,,,,,"STYLECRAFT BUILDERS ",,,,,"STYLECRAFT BUILDERS ","4090 STATE HIGHWAY 6 S","COLLEGE STATION",TX,77845-8962,"(979) 764-9900",,"(979) 690-3069","TANNER BREWSTER",tabrewster@stylecraft-builders.com
TX,MONTGOMERY,182179-21,"Single Family Homes",3/26/2021,,89505,,"15407 MASSEY FOREST DR",HOUSTON,TX,77356,"HARRINGTON TRAILS",,CONTRACTOR,,,,,,,,,,,"DR HORTON",,,,,"DR HORTON","14100 SOUTHWEST",HOUSTON,TX,77478,"(281) 201-5559",,,,
TX,MONTGOMERY,182180-21,"Single Family Homes",3/26/2021,,96525,,"15411 MASSEY FOREST DR",HOUSTON,TX,77356,"HARRINGTON TRAILS",,CONTRACTOR,,,,,,,,,,,"DR HORTON",,,,,"DR HORTON","14100 SOUTHWEST",HOUSTON,TX,77478,"(281) 201-5559",,,,
TX,MONTGOMERY,182181-21,"Single Family Homes",3/26/2021,,96120,,"15415 MASSEY FOREST DR",HOUSTON,TX,77356,"HARRINGTON TRAILS",,CONTRACTOR,,,,,,,,,,,"DR HORTON",,,,,"DR HORTON","14100 SOUTHWEST",HOUSTON,TX,77478,"(281) 201-5559",,,,
TX,MONTGOMERY,182182-21,"Single Family Homes",3/26/2021,,100800,,"15419 MASSEY FOREST DR",HOUSTON,TX,77356,"HARRINGTON TRAILS",,CONTRACTOR,,,,,,,,,,,"DR HORTON",,,,,"DR HORTON","14100 SOUTHWEST",HOUSTON,TX,77478,"(281) 201-5559",,,,
TX,MONTGOMERY,182186-21,"Single Family Homes",3/26/2021,,89505,,"15423 MASSEY FOREST DR",HOUSTON,TX,77356,"HARRINGTON TRAILS",,CONTRACTOR,,,,,,,,,,,"DR HORTON",,,,,"DR HORTON","14100 SOUTHWEST",HOUSTON,TX,77478,"(281) 201-5559",,,,
TX,MONTGOMERY,182187-21,"Single Family Homes",3/26/2021,,96525,,"15427 MASSEY FOREST DR",HOUSTON,TX,77356,"HARRINGTON TRAILS",,CONTRACTOR,,,,,,,,,,,"DR HORTON",,,,,"DR HORTON","14100 SOUTHWEST",HOUSTON,TX,77478,"(281) 201-5559",,,,
TX,MONTGOMERY,182188-21,"Single Family Homes",3/26/2021,,107865,,"15431 MASSEY FOREST DR",HOUSTON,TX,77356,"HARRINGTON TRAILS",,CONTRACTOR,,,,,,,,,,,"DR HORTON",,,,,"DR HORTON","14100 SOUTHWEST",HOUSTON,TX,77478,"(281) 201-5559",,,,
TX,MONTGOMERY,182189-21,"Single Family Homes",3/26/2021,,107460,,"15435 MASSEY FOREST DR",HOUSTON,TX,77356,"HARRINGTON TRAILS",,CONTRACTOR,,,,,,,,,,,"DR HORTON",,,,,"DR HORTON","14100 SOUTHWEST",HOUSTON,TX,77478,"(281) 201-5559",,,,
TX,MONTGOMERY,182196-21,"Single Family Homes",3/26/2021,,107865,,"14703 NIGHT VIOLET CT",HOUSTON,TX,77356,"MILL CREEK ESTATES",,CONTRACTOR,,,,,,,,,,,"DR HORTON",,,,,"DR HORTON","14100 SOUTHWEST",HOUSTON,TX,77478,"(281) 201-5559",,,,
TX,MONTGOMERY,"182197 21","Single Family Homes",3/26/2021,,110700,,"14707 NIGHT VIOLET CT",HOUSTON,TX,77356,"MILL CREEK ESTATES",,CONTRACTOR,,,,,,,,,,,"DR HORTON",,,,,"DR HORTON","14100 SOUTHWEST",HOUSTON,TX,77478,"(281) 201-5559",,,,
TX,MONTGOMERY,182201-21,"Single Family Homes",3/26/2021,,161190,,"14163 LAKE LODGE DR",HOUSTON,TX,77356,"FOSTERS RIDGE",,CONTRACTOR,,,,,,,,,,,"DR HORTON",,,,,"DR HORTON","14100 SOUTHWEST",HOUSTON,TX,77478,"(281) 201-5559",,,,
TX,MONTGOMERY,182203-21,"Single Family Homes",3/26/2021,,122535,,"14179 LAKE LODGE DR",HOUSTON,TX,77356,"FOSTERS RIDGE",,CONTRACTOR,,,,,,,,,,,"DR HORTON",,,,,"DR HORTON","14100 SOUTHWEST",HOUSTON,TX,77478,"(281) 201-5559",,,,
TX,MONTGOMERY,181994-21,"Single Family Homes",3/23/2021,,735990,,"23 AMERSON BAY WAY",HOUSTON,TX,77356,"LAKE WOODLANDS EAST SHORE",,CONTRACTOR,,,,,,,,,,,"DAVID WEEKLEY HOMES",,,,,"DAVID WEEKLEY HOMES","14444 NORTHWEST",HOUSTON,TX,77040,"(713) 570-5021",http://www.davidweekleyhomes.com/,,,
TX,MONTGOMERY,181995-21,"Single Family Homes",3/23/2021,,625990,,"19 AMERSON BAY WAY",HOUSTON,TX,77356,"LAKE WOODLANDS EAST SHORE",,CONTRACTOR,,,,,,,,,,,"DAVID WEEKLEY HOMES",,,,,"DAVID WEEKLEY HOMES","14444 NORTHWEST",HOUSTON,TX,77040,"(713) 570-5021",http://www.davidweekleyhomes.com/,,,
TX,MONTGOMERY,181996-21,"Single Family Homes",3/23/2021,,635990,,"222 HALE POINT DR",HOUSTON,TX,77356,"LAKE WOODLANDS EAST SHORE",,CONTRACTOR,,,,,,,,,,,"DAVID WEEKLEY HOMES",,,,,"DAVID WEEKLEY HOMES","14444 NORTHWEST",HOUSTON,TX,77040,"(713) 570-5021",http://www.davidweekleyhomes.com/,,,
TX,MONTGOMERY,181948-21,"Single Family Homes",3/23/2021,,250000,,"36825 FM 1774",HOUSTON,TX,77356,,,"AUTUMN DOWNING","12222 SCOTTSDALE DR","THE MEADOWS",TX,77476,,Owner,,,,,OWNER,,,,,OWNER,,,,,,,,,
TX,MONTGOMERY,182030-21,"Single Family Homes",3/24/2021,,244980,,"9924 PRESERVE WAY",HOUSTON,TX,77356,"HARPERS PRESERVE",,CONTRACTOR,,,,,,,,,,,"EHT OF TEXAS LP",,,,,"EHT OF TEXAS LP","10235 LITTLE",HOUSTON,TX,77040,"(713) 557-3685",,,,
TX,MONTGOMERY,182003-21,"Single Family Homes",3/23/2021,,360000,,"13171 RANCHETTE ROAD",HOUSTON,TX,77356,"BIG OAK RACHETTES",,"TRENT ELLIOT","PO BOX 972",MONTGOMERY,TX,77356,,Owner,,,,,OWNER,,,,,OWNER,,,,,,,,,
TX,MONTGOMERY,181914-21,"Single Family Homes",3/22/2021,,198990,,"14645 EAST PINE HEART DR",HOUSTON,TX,77356,"GRANGER PINES",,CONTRACTOR,,,,,,,,,,,"FIRST AMERICA HOMES",,,,,"FIRST AMERICA HOMES","1401 WOODLANDS PARKWAY","THE WOODLANDS",TX,77380-1179,"(713) 452-1700",https://www.firstamericahomes.com/,,,info@firstamericahomes.com
TX,MONTGOMERY,181915-21,"Single Family Homes",3/22/2021,,195990,,"14625 EAST PINE HEART DR",HOUSTON,TX,77356,"GRANGER PINES",,CONTRACTOR,,,,,,,,,,,"FIRST AMERICA HOMES",,,,,"FIRST AMERICA HOMES","1401 WOODLANDS PARKWAY","THE WOODLANDS",TX,77380-1179,"(713) 452-1700",https://www.firstamericahomes.com/,,,info@firstamericahomes.com
TX,MONTGOMERY,182114-21,"Single Family Homes",3/25/2021,,287990,,"6133 WHITE OAK LEAF LOOP",HOUSTON,TX,77356,"DEER TRAIL ESTATES",,CONTRACTOR,,,,,,,,,,,"FIRST AMERICA HOMES",,,,,"FIRST AMERICA HOMES","1401 WOODLANDS PARKWAY","THE WOODLANDS",TX,77380-1179,"(713) 452-1700",https://www.firstamericahomes.com/,,,info@firstamericahomes.com
TX,MONTGOMERY,182141-21,"Single Family Homes",3/25/2021,,200000,,"30326 HIGHLAND BLVD",HOUSTON,TX,77356,"WILDWOOD ACRES",,"CARLOS GALINDEZ","921D GLEN SHADOW DR",HOUSTON,TX,77088,,Owner,,,,,OWNER,,,,,OWNER,,,,,,,,,
TX,MONTGOMERY,182195-21,"Single Family Homes",3/26/2021,,95000,,"13183 MCCRORY ROAD",HOUSTON,TX,77356,,,"MIKE GAMBLE","PO BOX 233",DODGE,TX,77334,,Owner,,,,,OWNER,,,,,OWNER,,,,,,,,,
TX,MONTGOMERY,182039-21,"Single Family Homes",3/24/2021,,140000,,"17367 WESTERN HILL DR",HOUSTON,TX,77356,"WESTERN HILL ESTATES",,"JUAN CARLOS GAZCA","17367 WESTERN HILL DR",CONROE,TX,77306,,Owner,,,,,OWNER,,,,,OWNER,,,,,,,,,
TX,MONTGOMERY,182104-21,"Single Family Homes",3/25/2021,,280000,,"219 OLD PINES LN",HOUSTON,TX,77356,"MAGNOLIA RESERVE",,CONTRACTOR,,,,,,,,,,,"GRACEPOINT HOMES",,,,,"GRACEPOINT HOMES","33300 EGYPT LN STE 100",MAGNOLIA,TX,77354-2739,"(281) 681-0400",http://www.gracepointhomes.com/,"(281) 681-0402",,Info@gracepointhomes.com
TX,MONTGOMERY,182112-21,"Single Family Homes",3/25/2021,,282000,,"121 TREE TOP PLACE",HOUSTON,TX,77356,"MAGNOLIA RESERVE",,CONTRACTOR,,,,,,,,,,,"GRACEPOINT HOMES",,,,,"GRACEPOINT HOMES","33300 EGYPT LN STE 100",MAGNOLIA,TX,77354-2739,"(281) 681-0400",http://www.gracepointhomes.com/,"(281) 681-0402",,Info@gracepointhomes.com
TX,MONTGOMERY,182113-21,"Single Family Homes",3/25/2021,,270000,,"21207 HIDDEN BEND LOOP",HOUSTON,TX,77356,"MAGNOLIA RESERVE",,CONTRACTOR,,,,,,,,,,,"GRACEPOINT HOMES",,,,,"GRACEPOINT HOMES","33300 EGYPT LN STE 100",MAGNOLIA,TX,77354-2739,"(281) 681-0400",http://www.gracepointhomes.com/,"(281) 681-0402",,Info@gracepointhomes.com
TX,MONTGOMERY,182117-21,"Single Family Homes",3/25/2021,,270000,,"327 HIDDEN BEND CT",HOUSTON,TX,77356,"MAGNOLIA RESERVE",,CONTRACTOR,,,,,,,,,,,"GRACEPOINT HOMES",,,,,"GRACEPOINT HOMES","33300 EGYPT LN STE 100",MAGNOLIA,TX,77354-2739,"(281) 681-0400",http://www.gracepointhomes.com/,"(281) 681-0402",,Info@gracepointhomes.com
TX,MONTGOMERY,181936-21,"Single Family Homes",3/22/2021,,200000,,"23972 CUSHING ROAD",HOUSTON,TX,77356,BROOKWOOD,,"HECTOR GRIMALDO","17411 WILD WILLOW LN",HOUSTON,TX,77084,,Owner,,,,,OWNER,,,,,OWNER,,,,,,,,,
TX,MONTGOMERY,181998-21,"Single Family Homes",3/23/2021,,441305,,"15127 BOTANICAL GARDEN DR",HOUSTON,TX,77356,ARTAVIA,,CONTRACTOR,,,,,,,,,,,"HIGHLAND HOMES",,,,,"HIGHLAND HOMES","10930 W SAM HOUSTON PKWY N STE 100",HOUSTON,TX,77064-6331,"(281) 517-9800",,,,
TX,MONTGOMERY,181999-21,"Single Family Homes",3/23/2021,,369445,,"17180 CRIMSON CREST DR",HOUSTON,TX,77356,ARTAVIA,,CONTRACTOR,,,,,,,,,,,"HIGHLAND HOMES",,,,,"HIGHLAND HOMES","10930 W SAM HOUSTON PKWY N STE 100",HOUSTON,TX,77064-6331,"(281) 517-9800",,,,
TX,MONTGOMERY,181910-21,"Single Family Homes",3/22/2021,,344985,,"17363 CAMILLA TR",HOUSTON,TX,77356,ARTAVIA,,CONTRACTOR,,,,,,,,,,,"J PATRICK HOMES",,,,,"J PATRICK HOMES","9700 RICHMOND AVE STE 162",HOUSTON,TX,77042-4698,"(713) 789-8004",,,,
TX,MONTGOMERY,182004-21,"Single Family Homes",3/23/2021,,151000,,"20819 SHEFFIELD PARK DR",HOUSTON,TX,77356,"BROOKWOOD FOREST",,CONTRACTOR,,,,,,,,,,,"KB HOME",,,,,"KB HOME","11314 RICHMOND AVE",HOUSTON,TX,77082-2616,"(281) 668-3800",,,,
TX,MONTGOMERY,182006-21,"Single Family Homes",3/23/2021,,194000,,"20816 SHEFFIELD PARK DR",HOUSTON,TX,77356,"BROOKWOOD FOREST",,CONTRACTOR,,,,,,,,,,,"KB HOME",,,,,"KB HOME","11314 RICHMOND AVE",HOUSTON,TX,77082-2616,"(281) 668-3800",,,,
TX,MONTGOMERY,182115-21,"Single Family Homes",3/25/2021,,188000,,"25640 RAMSEY HEIGHTS WAY",HOUSTON,TX,77356,"BROOKWOOD FOREST",,CONTRACTOR,,,,,,,,,,,"KB HOME",,,,,"KB HOME","11314 RICHMOND AVE",HOUSTON,TX,77082-2616,"(281) 668-3800",,,,
TX,MONTGOMERY,182118-21,"Single Family Homes",3/25/2021,,198000,,"20820 SHEFFIELD PARK DR",HOUSTON,TX,77356,"BROOKWOOD FOREST",,CONTRACTOR,,,,,,,,,,,"KB HOME",,,,,"KB HOME","11314 RICHMOND AVE",HOUSTON,TX,77082-2616,"(281) 668-3800",,,,
TX,MONTGOMERY,182129-21,"Single Family Homes",3/25/2021,,142000,,"8792 UTE CREEK LN",HOUSTON,TX,77356,"CIMARRON CREEK",,CONTRACTOR,,,,,,,,,,,"KB HOME",,,,,"KB HOME","11314 RICHMOND AVE",HOUSTON,TX,77082-2616,"(281) 668-3800",,,,
TX,MONTGOMERY,181926-21,"Single Family Homes",3/22/2021,,192360,,"16138 HIDALGO ST",HOUSTON,TX,77356,"DEER PINES",,CONTRACTOR,,,,,,,,,,,"KENDALL HOMES",,,,,"KENDALL HOMES","427 MASON PARK BLVD",KATY,TX,77450-6187,"(281) 398-4010",http://www.kendallhomes.net/,"(281) 398-4011",,
TX,MONTGOMERY,182090-21,"Single Family Homes",3/25/2021,,167880,,"11420 NATALIA LN",HOUSTON,TX,77356,"CLEAR VIEW ESTATES",,CONTRACTOR,,,,,,,,,,,"KENDALL HOMES",,,,,"KENDALL HOMES","427 MASON PARK BLVD",KATY,TX,77450-6187,"(281) 398-4010",http://www.kendallhomes.net/,"(281) 398-4011",,
TX,MONTGOMERY,181923-21,"Single Family Homes",3/22/2021,,147000,,"5909 RIMINI LANDING LN",HOUSTON,TX,77356,"COUNTRY COLONY",,CONTRACTOR,,,,,,,,,,,"LENNAR HOMES",,,,,"LENNAR HOMES","550 GREENS PKWY",HOUSTON,TX,77067-4537,"(281) 875-1000",http://www.lennar.com/,,,
TX,MONTGOMERY,181924-21,"Single Family Homes",3/22/2021,,111300,,"5913 RIMINI LANDING LN",HOUSTON,TX,77356,"COUNTRY COLONY",,CONTRACTOR,,,,,,,,,,,"LENNAR HOMES",,,,,"LENNAR HOMES","550 GREENS PKWY",HOUSTON,TX,77067-4537,"(281) 875-1000",http://www.lennar.com/,,,
TX,MONTGOMERY,181976-21,"Single Family Homes",3/23/2021,,110500,,"18840 ORVIETO CT",HOUSTON,TX,77356,TAVOLA,,CONTRACTOR,,,,,,,,,,,"LENNAR HOMES",,,,,"LENNAR HOMES","550 GREENS PKWY",HOUSTON,TX,77067-4537,"(281) 875-1000",http://www.lennar.com/,,,
TX,MONTGOMERY,181977-21,"Single Family Homes",3/23/2021,,175500,,"17522 SUNSET SKIES ROAD",HOUSTON,TX,77356,ARTAVIA,,CONTRACTOR,,,,,,,,,,,"LENNAR HOMES",,,,,"LENNAR HOMES","550 GREENS PKWY",HOUSTON,TX,77067-4537,"(281) 875-1000",http://www.lennar.com/,,,
TX,MONTGOMERY,181978-21,"Single Family Homes",3/23/2021,,147900,,"4201 WINTHROP VALLEY WAY",HOUSTON,TX,77356,"COUNTRY COLONY",,CONTRACTOR,,,,,,,,,,,"LENNAR HOMES",,,,,"LENNAR HOMES","550 GREENS PKWY",HOUSTON,TX,77067-4537,"(281) 875-1000",http://www.lennar.com/,,,
TX,MONTGOMERY,182017-21,"Single Family Homes",3/24/2021,,148850,,"19067 PINEWOOD GROVE TR",HOUSTON,TX,77356,TAVOLA,,CONTRACTOR,,,,,,,,,,,"LENNAR HOMES",,,,,"LENNAR HOMES","550 GREENS PKWY",HOUSTON,TX,77067-4537,"(281) 875-1000",http://www.lennar.com/,,,
TX,MONTGOMERY,182060-21,"Single Family Homes",3/24/2021,,104650,,"18820 ORVIETO CT",HOUSTON,TX,77356,TAVOLA,,CONTRACTOR,,,,,,,,,,,"LENNAR HOMES",,,,,"LENNAR HOMES","550 GREENS PKWY",HOUSTON,TX,77067-4537,"(281) 875-1000",http://www.lennar.com/,,,
TX,MONTGOMERY,182061-21,"Single Family Homes",3/24/2021,,142870,,"18816 ORVIETO CT",HOUSTON,TX,77356,TAVOLA,,CONTRACTOR,,,,,,,,,,,"LENNAR HOMES",,,,,"LENNAR HOMES","550 GREENS PKWY",HOUSTON,TX,77067-4537,"(281) 875-1000",http://www.lennar.com/,,,
TX,MONTGOMERY,182062-21,"Single Family Homes",3/24/2021,,99060,,"18812 ORVIETO CT",HOUSTON,TX,77356,TAVOLA,,CONTRACTOR,,,,,,,,,,,"LENNAR HOMES",,,,,"LENNAR HOMES","550 GREENS PKWY",HOUSTON,TX,77067-4537,"(281) 875-1000",http://www.lennar.com/,,,
TX,MONTGOMERY,182063-21,"Single Family Homes",3/24/2021,,158015,,"22639 BOLANZO LN",HOUSTON,TX,77355,TAVOLA,,CONTRACTOR,,,,,,,,,,,"LENNAR HOMES",,,,,"LENNAR HOMES","550 GREENS PKWY",HOUSTON,TX,77067-4537,"(281) 875-1000",http://www.lennar.com/,,,
TX,MONTGOMERY,182064-21,"Single Family Homes",3/24/2021,,121810,,"24070 HAWTHORN LAKES DR",HOUSTON,TX,77356,TAVOLA,,CONTRACTOR,,,,,,,,,,,"LENNAR HOMES",,,,,"LENNAR HOMES","550 GREENS PKWY",HOUSTON,TX,77067-4537,"(281) 875-1000",http://www.lennar.com/,,,
TX,MONTGOMERY,182065-21,"Single Family Homes",3/24/2021,,145860,,"24074 HAWTHORN LAKES DR",HOUSTON,TX,77356,TAVOLA,,CONTRACTOR,,,,,,,,,,,"LENNAR HOMES",,,,,"LENNAR HOMES","550 GREENS PKWY",HOUSTON,TX,77067-4537,"(281) 875-1000",http://www.lennar.com/,,,
TX,MONTGOMERY,182072-21,"Single Family Homes",3/24/2021,,99000,,"11086 NORTH LAKE MIST LN",HOUSTON,TX,77356,"LAKE BREEZE",,CONTRACTOR,,,,,,,,,,,"LENNAR HOMES",,,,,"LENNAR HOMES","550 GREENS PKWY",HOUSTON,TX,77067-4537,"(281) 875-1000",http://www.lennar.com/,,,
TX,MONTGOMERY,182073-21,"Single Family Homes",3/24/2021,,176000,,"11080 NORTH LAKE MIST LN",HOUSTON,TX,77356,"LAKE BREEZE",,CONTRACTOR,,,,,,,,,,,"LENNAR HOMES",,,,,"LENNAR HOMES","550 GREENS PKWY",HOUSTON,TX,77067-4537,"(281) 875-1000",http://www.lennar.com/,,,
TX,MONTGOMERY,182091-21,"Single Family Homes",3/25/2021,,200395,,"19075 PINEWOOD GROVE TR",HOUSTON,TX,77356,TAVOLA,,CONTRACTOR,,,,,,,,,,,"LENNAR HOMES",,,,,"LENNAR HOMES","550 GREENS PKWY",HOUSTON,TX,77067-4537,"(281) 875-1000",http://www.lennar.com/,,,
TX,MONTGOMERY,182092-21,"Single Family Homes",3/25/2021,,171340,,"19071 PINEWOOD GROVE TRAIL",HOUSTON,TX,77356,TAVOLA,,CONTRACTOR,,,,,,,,,,,"LENNAR HOMES",,,,,"LENNAR HOMES","550 GREENS PKWY",HOUSTON,TX,77067-4537,"(281) 875-1000",http://www.lennar.com/,,,
TX,MONTGOMERY,182093-21,"Single Family Homes",3/25/2021,,99060,,"18836 ORVIETO CT",HOUSTON,TX,77356,TAVOLA,,CONTRACTOR,,,,,,,,,,,"LENNAR HOMES",,,,,"LENNAR HOMES","550 GREENS PKWY",HOUSTON,TX,77067-4537,"(281) 875-1000",http://www.lennar.com/,,,
TX,MONTGOMERY,182094-21,"Single Family Homes",3/25/2021,,174000,,"505 LOFT COURT",HOUSTON,TX,77356,WOODFOREST,,CONTRACTOR,,,,,,,,,,,"LENNAR HOMES",,,,,"LENNAR HOMES","550 GREENS PKWY",HOUSTON,TX,77067-4537,"(281) 875-1000",http://www.lennar.com/,,,
TX,MONTGOMERY,182095-21,"Single Family Homes",3/25/2021,,157040,,"24078 HAWTHORN LAKES DR",HOUSTON,TX,77356,TAVOLA,,CONTRACTOR,,,,,,,,,,,"LENNAR HOMES",,,,,"LENNAR HOMES","550 GREENS PKWY",HOUSTON,TX,77067-4537,"(281) 875-1000",http://www.lennar.com/,,,
TX,MONTGOMERY,182096-21,"Single Family Homes",3/25/2021,,140465,,"24075 HAWTHORN LAKES DR",HOUSTON,TX,77356,TAVOLA,,CONTRACTOR,,,,,,,,,,,"LENNAR HOMES",,,,,"LENNAR HOMES","550 GREENS PKWY",HOUSTON,TX,77067-4537,"(281) 875-1000",http://www.lennar.com/,,,
TX,MONTGOMERY,182160-21,"Single Family Homes",3/26/2021,,104000,,"11076 NORTH LAKE MIST LN",HOUSTON,TX,77356,"LAKE BREEZE",,CONTRACTOR,,,,,,,,,,,"LENNAR HOMES",,,,,"LENNAR HOMES","550 GREENS PKWY",HOUSTON,TX,77067-4537,"(281) 875-1000",http://www.lennar.com/,,,
TX,MONTGOMERY,182162-21,"Single Family Homes",3/26/2021,,102000,,"4205 WINTHROP VALLEY WAY",HOUSTON,TX,77356,"COUNTRY COLONY",,CONTRACTOR,,,,,,,,,,,"LENNAR HOMES",,,,,"LENNAR HOMES","550 GREENS PKWY",HOUSTON,TX,77067-4537,"(281) 875-1000",http://www.lennar.com/,,,
TX,MONTGOMERY,182163-21,"Single Family Homes",3/26/2021,,107000,,"4209 WINTHROP VALLEY WAY",HOUSTON,TX,77356,"COUNTRY COLONY",,CONTRACTOR,,,,,,,,,,,"LENNAR HOMES",,,,,"LENNAR HOMES","550 GREENS PKWY",HOUSTON,TX,77067-4537,"(281) 875-1000",http://www.lennar.com/,,,
TX,MONTGOMERY,181908-21,"Single Family Homes",3/22/2021,,134650,,"10607 WHITEJACKET",HOUSTON,TX,77356,"HARPERS PRESERVE",,CONTRACTOR,,,,,,,,,,,"M/I HOMES",,,,,"M/I HOMES","10910 NORTH SAM HOUSTON PKWY W",HOUSTON,TX,77064,"(832) 912-1012",,,,
TX,MONTGOMERY,182019-21,"Single Family Homes",3/24/2021,,239500,,"10611 LAKE PALMETTO DR",HOUSTON,TX,77356,"HARPERS PRESERVE",,CONTRACTOR,,,,,,,,,,,"M/I HOMES",,,,,"M/I HOMES","10910 NORTH SAM HOUSTON PKWY W",HOUSTON,TX,77064,"(832) 912-1012",,,,
TX,MONTGOMERY,181997-21,"Single Family Homes",3/23/2021,,332990,,"17519 AUTUMN LEAVES DR",HOUSTON,TX,77356,ARTAVIA,,CONTRACTOR,,,,,,,,,,,"MHI MCGUYER HOMEBUILDERS",,,,,"MHI MCGUYER HOMEBUILDERS","7676 WOODWAY DR",HOUSTON,TX,77063-1526,"(713) 260-4107",,,,
TX,MONTGOMERY,182052-21,"Single Family Homes",3/24/2021,,456990,,"17403 APPLE CRISP DR",HOUSTON,TX,77356,ARTAVIA,,CONTRACTOR,,,,,,,,,,,"MHI MCGUYER HOMEBUILDERS",,,,,"MHI MCGUYER HOMEBUILDERS","7676 WOODWAY DR",HOUSTON,TX,77063-1526,"(713) 260-4107",,,,
TX,MONTGOMERY,182053-21,"Single Family Homes",3/24/2021,,422990,,"17403 VIOLET VINEYARD ST",HOUSTON,TX,77356,ARTAVIA,,CONTRACTOR,,,,,,,,,,,"MHI MCGUYER HOMEBUILDERS",,,,,"MHI MCGUYER HOMEBUILDERS","7676 WOODWAY DR",HOUSTON,TX,77063-1526,"(713) 260-4107",,,,
TX,MONTGOMERY,182056-21,"Single Family Homes",3/24/2021,,470990,,"15407 SUN ROSE ST",HOUSTON,TX,77356,ARTAVIA,,CONTRACTOR,,,,,,,,,,,"MHI MCGUYER HOMEBUILDERS",,,,,"MHI MCGUYER HOMEBUILDERS","7676 WOODWAY DR",HOUSTON,TX,77063-1526,"(713) 260-4107",,,,
TX,MONTGOMERY,182058-21,"Single Family Homes",3/24/2021,,415990,,"17515 AUTUMN LEAVES DIVE",HOUSTON,TX,77356,ARTAVIA,,CONTRACTOR,,,,,,,,,,,"MHI MCGUYER HOMEBUILDERS",,,,,"MHI MCGUYER HOMEBUILDERS","7676 WOODWAY DR",HOUSTON,TX,77063-1526,"(713) 260-4107",,,,
TX,MONTGOMERY,182036-21,"Single Family Homes",3/24/2021,,370000,,"10880 DAUPHINE ST",HOUSTON,TX,77356,"FRENCH QUARTER",,CONTRACTOR,,,,,,,,,,,"SMITH CUSTOM BUILDERS",,,,,"SMITH CUSTOM BUILDERS","9320 WESTVIEW DR STE 1",HOUSTON,TX,77055-6414,"(281) 701-3280",,,,
TX,MONTGOMERY,182037-21,"Single Family Homes",3/24/2021,,400000,,"12658 ARIES LOOP",HOUSTON,TX,77356,"ESTATES OF POINT AQUARIUS",,CONTRACTOR,,,,,,,,,,,"SMITH CUSTOM BUILDERS",,,,,"SMITH CUSTOM BUILDERS","9320 WESTVIEW DR STE 1",HOUSTON,TX,77055-6414,"(281) 701-3280",,,,
TX,MONTGOMERY,182038-21,"Single Family Homes",3/16/2021,,360000,,"12571 SAINT LOUIS CT",HOUSTON,TX,77356,,,CONTRACTOR,,,,,,,,,,,"SMITH CUSTOM BUILDERS",,,,,"SMITH CUSTOM BUILDERS","9320 WESTVIEW DR STE 1",HOUSTON,TX,77055-6414,"(281) 701-3280",,,,
TX,MONTGOMERY,182166-21,"Single Family Homes",3/26/2021,,80000,,"20236 RAVENWING DR",HOUSTON,TX,77356,RAVENWOOD,,"JUANA OROZCO","20902 ROXETTE CT",HUMBLE,TX,77338,,Owner,,,,,OWNER,,,,,OWNER,,,,,,,,,
TX,MONTGOMERY,182191-21,"Single Family Homes",3/26/2021,,629763,,"12551 ST. PETER CT",HOUSTON,TX,77356,"THE FRENCH QUARTER",,CONTRACTOR,,,,,,,,,,,"PARTNERS IN BUILDING",,,,,"PARTNERS IN BUILDING","1803 RANCH ROAD 620 N",LAKEWAY,TX,78734-2611,"(512) 266-6701",http://www.partnersinbuilding.com,"(713) 937-1445",,info@partnersinbuilding.com
TX,MONTGOMERY,181934-21,"Single Family Homes",3/22/2021,,429313,,"23619 MAPLEWOOD RIDGE DR",HOUSTON,TX,77356,TAVOLA,,CONTRACTOR,,,,,,,,,,,"PERRY HOMES",,,,,"PERRY HOMES","9000 GULF FWY",HOUSTON,TX,77017-7018,"(713) 417-1396",,,,
TX,MONTGOMERY,181935-21,"Single Family Homes",3/22/2021,,423225,,"23551 RED JUNIPER LN",HOUSTON,TX,77356,TAVOLA,,CONTRACTOR,,,,,,,,,,,"PERRY HOMES",,,,,"PERRY HOMES","9000 GULF FWY",HOUSTON,TX,77017-7018,"(713) 417-1396",,,,
TX,MONTGOMERY,181937-21,"Single Family Homes",3/22/2021,,423225,,"23639 MAPLEWOOD RIDGE DR",HOUSTON,TX,77356,TAVOLA,,CONTRACTOR,,,,,,,,,,,"PERRY HOMES",,,,,"PERRY HOMES","9000 GULF FWY",HOUSTON,TX,77017-7018,"(713) 417-1396",,,,
TX,MONTGOMERY,181942-21,"Single Family Homes",3/23/2021,,314325,,"23633 SILVER PALM TRAIL",HOUSTON,TX,77356,TAVOLA,,CONTRACTOR,,,,,,,,,,,"PERRY HOMES",,,,,"PERRY HOMES","9000 GULF FWY",HOUSTON,TX,77017-7018,"(713) 417-1396",,,,
TX,MONTGOMERY,181943-21,"Single Family Homes",3/23/2021,,283388,,"17110 CRIMSON CREST DR",HOUSTON,TX,77356,ARTAVIA,,CONTRACTOR,,,,,,,,,,,"PERRY HOMES",,,,,"PERRY HOMES","9000 GULF FWY",HOUSTON,TX,77017-7018,"(713) 417-1396",,,,
TX,MONTGOMERY,181944-21,"Single Family Homes",3/23/2021,,268875,,"17173 FOXTROT WAY",HOUSTON,TX,77356,ARTAVIA,,CONTRACTOR,,,,,,,,,,,"PERRY HOMES",,,,,"PERRY HOMES","9000 GULF FWY",HOUSTON,TX,77017-7018,"(713) 417-1396",,,,
TX,MONTGOMERY,181945-21,"Single Family Homes",3/23/2021,,328050,,"7834 CHARTER HILL DR",HOUSTON,TX,77356,NORTHGROVE,,CONTRACTOR,,,,,,,,,,,"PERRY HOMES",,,,,"PERRY HOMES","9000 GULF FWY",HOUSTON,TX,77017-7018,"(713) 417-1396",,,,
TX,MONTGOMERY,181946-21,"Single Family Homes",3/23/2021,,328050,,"7911 LOOKOUT HILL DR",HOUSTON,TX,77356,NORTHGROVE,,CONTRACTOR,,,,,,,,,,,"PERRY HOMES",,,,,"PERRY HOMES","9000 GULF FWY",HOUSTON,TX,77017-7018,"(713) 417-1396",,,,
TX,MONTGOMERY,182134-21,"Single Family Homes",3/25/2021,,355400,,"127 WILD WICK WAY",HOUSTON,TX,77356,"DEL WEBB",,CONTRACTOR,,,,,,,,,,,"PULTE HOMES",,,,,"PULTE HOMES","16670 PARK ROW",HOUSTON,TX,77084-6866,"(281) 749-8000",,,,
TX,MONTGOMERY,182136-21,"Single Family Homes",3/25/2021,,100000,,"16956 WEST IVANHOE",HOUSTON,TX,77356,"LAKE CONROE VILLAGE",,"JUAN RAMIREZ","11621 E PEPPERTREE LOOP",MONTGOMERY,TX,77356,,Owner,,,,,OWNER,,,,,OWNER,,,,,,,,,
TX,MONTGOMERY,182139-21,"Single Family Homes",3/25/2021,,100000,,"16960 WEST IVANHOE",HOUSTON,TX,77356,"LAKE CONROE VILLAGE",,"JUAN RAMIREZ","11621 E PEPPERTREE LOOP",MONTGOMERY,TX,77356,,Owner,,,,,OWNER,,,,,OWNER,,,,,,,,,
TX,MONTGOMERY,182040-21,"Single Family Homes",3/24/2021,,124605,,"142 VALIANT RIDGE TR",HOUSTON,TX,77356,"BLACK OAK",,CONTRACTOR,,,,,,,,,,,"RAUSCH COLEMAN HOMES",,,,,"RAUSCH COLEMAN HOMES","7906 N SAM HOUSTON PKWY W STE 300",HOUSTON,TX,77064,"(713) 434-6028",,,,
TX,MONTGOMERY,182041-21,"Single Family Homes",3/24/2021,,134680,,"310 GALLANT FRONT",HOUSTON,TX,77356,"BLACK OAK",,CONTRACTOR,,,,,,,,,,,"RAUSCH COLEMAN HOMES",,,,,"RAUSCH COLEMAN HOMES","7906 N SAM HOUSTON PKWY W STE 300",HOUSTON,TX,77064,"(713) 434-6028",,,,
TX,MONTGOMERY,182042-21,"Single Family Homes",3/24/2021,,115895,,"18803 PALMETTO HILLS",HOUSTON,TX,77356,TAVOLA,,CONTRACTOR,,,,,,,,,,,"RAUSCH COLEMAN HOMES",,,,,"RAUSCH COLEMAN HOMES","7906 N SAM HOUSTON PKWY W STE 300",HOUSTON,TX,77064,"(713) 434-6028",,,,
TX,MONTGOMERY,182044-21,"Single Family Homes",3/24/2021,,183560,,"15006 PADDOCK POINT",HOUSTON,TX,77356,"HARRINGTON TRAILS",,CONTRACTOR,,,,,,,,,,,"RAUSCH COLEMAN HOMES",,,,,"RAUSCH COLEMAN HOMES","7906 N SAM HOUSTON PKWY W STE 300",HOUSTON,TX,77064,"(713) 434-6028",,,,
TX,MONTGOMERY,182109-21,"Single Family Homes",3/25/2021,,183495,,"306 GALLANT FRONT TR",HOUSTON,TX,77356,"BLACK OAK",,CONTRACTOR,,,,,,,,,,,"RAUSCH COLEMAN HOMES",,,,,"RAUSCH COLEMAN HOMES","7906 N SAM HOUSTON PKWY W STE 300",HOUSTON,TX,77064,"(713) 434-6028",,,,
TX,MONTGOMERY,181959-21,"Single Family Homes",3/23/2021,,150000,,"26541 EASY ST",HOUSTON,TX,77356,"WOODLAND LAKES",,"SANDRA RAY","19271 TRAILWOOD DR",MAGNOLIA,TX,77355,,Owner,,,,,OWNER,,,,,OWNER,,,,,,,,,
TX,MONTGOMERY,181950-21,"Single Family Homes",3/23/2021,,250000,,"255 CAMWOOD ST",HOUSTON,TX,77356,"CLEAR CREEK FOREST",,"ANDREW ROSS","PO BOX 1167",PINEHURST,TX,77362,,Owner,,,,,OWNER,,,,,OWNER,,,,,,,,,
TX,MONTGOMERY,182098-21,"Single Family Homes",3/25/2021,,269950,,"9945 TAMMY LN",HOUSTON,TX,77356,"ENCLAVE AT DOBBIN",,CONTRACTOR,,,,,,,,,,,"SARATOGA HOMES",,,,,"SARATOGA HOMES","7535 CYPRESS PIN OAK DR",CYPRESS,TX,77433-6739,"(832) 220-5566",https://saratogahomestexas.com,,,
TX,MONTGOMERY,182101-21,"Single Family Homes",3/25/2021,,301950,,"9941 TAMMY LN",HOUSTON,TX,77356,"ENCLAVE AT DOBBIN",,CONTRACTOR,,,,,,,,,,,"SARATOGA HOMES",,,,,"SARATOGA HOMES","7535 CYPRESS PIN OAK DR",CYPRESS,TX,77433-6739,"(832) 220-5566",https://saratogahomestexas.com,,,
TX,MONTGOMERY,182102-21,"Single Family Homes",3/25/2021,,269950,,"9937 TAMMY LN",HOUSTON,TX,77356,"ENCLAVE AT DOBBIN",,CONTRACTOR,,,,,,,,,,,"SARATOGA HOMES",,,,,"SARATOGA HOMES","7535 CYPRESS PIN OAK DR",CYPRESS,TX,77433-6739,"(832) 220-5566",https://saratogahomestexas.com,,,
TX,MONTGOMERY,182103-21,"Single Family Homes",3/25/2021,,301950,,"9930 TAMMY LN",HOUSTON,TX,77356,"ENCLAVE AT DOBBIN",,CONTRACTOR,,,,,,,,,,,"SARATOGA HOMES",,,,,"SARATOGA HOMES","7535 CYPRESS PIN OAK DR",CYPRESS,TX,77433-6739,"(832) 220-5566",https://saratogahomestexas.com,,,
TX,MONTGOMERY,182105-21,"Single Family Homes",3/25/2021,,355950,,"9801 GLEN BROOK LN",HOUSTON,TX,77356,"ENCLAVE AT DOBBIN",,CONTRACTOR,,,,,,,,,,,"SARATOGA HOMES",,,,,"SARATOGA HOMES","7535 CYPRESS PIN OAK DR",CYPRESS,TX,77433-6739,"(832) 220-5566",https://saratogahomestexas.com,,,
TX,MONTGOMERY,182106-21,"Single Family Homes",3/25/2021,,269950,,"9918 TAMMY LN",HOUSTON,TX,77356,"ENCLAVE AT DOBBIN",,CONTRACTOR,,,,,,,,,,,"SARATOGA HOMES",,,,,"SARATOGA HOMES","7535 CYPRESS PIN OAK DR",CYPRESS,TX,77433-6739,"(832) 220-5566",https://saratogahomestexas.com,,,
TX,MONTGOMERY,182107-21,"Single Family Homes",3/25/2021,,323950,,"9922 TAMMY LN",HOUSTON,TX,77356,"ENCLAVE AT DOBBIN",,CONTRACTOR,,,,,,,,,,,"SARATOGA HOMES",,,,,"SARATOGA HOMES","7535 CYPRESS PIN OAK DR",CYPRESS,TX,77433-6739,"(832) 220-5566",https://saratogahomestexas.com,,,
TX,MONTGOMERY,182110-21,"Single Family Homes",3/25/2021,,340950,,"9914 TAMMY LN",HOUSTON,TX,77356,"ENCLAVE AT DOBBIN",,CONTRACTOR,,,,,,,,,,,"SARATOGA HOMES",,,,,"SARATOGA HOMES","7535 CYPRESS PIN OAK DR",CYPRESS,TX,77433-6739,"(832) 220-5566",https://saratogahomestexas.com,,,
TX,MONTGOMERY,182111-21,"Single Family Homes",3/25/2021,,319950,,"9926 TAMMY LN",HOUSTON,TX,77356,"ENCLAVE AT DOBBIN",,CONTRACTOR,,,,,,,,,,,"SARATOGA HOMES",,,,,"SARATOGA HOMES","7535 CYPRESS PIN OAK DR",CYPRESS,TX,77433-6739,"(832) 220-5566",https://saratogahomestexas.com,,,
TX,MONTGOMERY,182027-21,"Single Family Homes",3/24/2021,,200000,,"2916 LIBRETTO REACH DR",HOUSTON,TX,77356,"VIVACE AT HARMONY",,CONTRACTOR,,,,,,,,,,,"SHEA HOMES HOUSTON",,,,,"SHEA HOMES HOUSTON","8300 CYPRESS CREEK PKWY STE 400",HOUSTON,TX,77070-5643,"(832) 869-4007",http://www.sheahomes.com/,,,
TX,MONTGOMERY,182127-21,"Single Family Homes",3/25/2021,,550000,,"5318 PINE WOOD HILLS CT",HOUSTON,TX,77356,"BENDERS LANDING ESTATES",,"CARL SOMMER","807 HIDDEN VALLEY DR",HOUSTON,TX,77086,,Owner,,,,,OWNER,,,,,OWNER,,,,,,,,,
TX,MONTGOMERY,181990-21,"Single Family Homes",3/23/2021,,100000,,"12522 ANDWOOD ST",HOUSTON,TX,77356,"WALNUT COVE",,CONTRACTOR,,,,,,,,,,,"STARTER HOMES OF TEXAS",,,,,"STARTER HOMES OF TEXAS","9803 HIGHWAY 242 STE 200 # 211",CONROE,TX,77385-4369,"(281) 367-4200",,,,
TX,MONTGOMERY,182175-21,"Single Family Homes",3/26/2021,,100000,,"14725 MIMOSA LN",HOUSTON,TX,77356,"MAGNOLIA BEND",,CONTRACTOR,,,,,,,,,,,"STARTER HOMES OF TEXAS",,,,,"STARTER HOMES OF TEXAS","9803 HIGHWAY 242 STE 200 # 211",CONROE,TX,77385-4369,"(281) 367-4200",,,,
TX,MONTGOMERY,181939-21,"Single Family Homes",3/22/2021,,150000,,"21920 BAILEY GROVE ROAD",HOUSTON,TX,77356,,,"PAM STEIGER","21920 BAILEY GROVE ROAD",MONTGOMERY,TX,77356,,Owner,,,,,OWNER,,,,,OWNER,,,,,,,,,
TX,MONTGOMERY,181933-21,"Single Family Homes",3/22/2021,,95912,,"11963 SUNSHINE PARK DR",HOUSTON,TX,77356,"SUMMERWOOD TRAILS",,CONTRACTOR,,,,,,,,,,,"STYLECRAFT BUILDERS ",,,,,"STYLECRAFT BUILDERS ","4090 STATE HIGHWAY 6 S","COLLEGE STATION",TX,77845-8962,"(979) 764-9900",,"(979) 690-3069","TANNER BREWSTER",tabrewster@stylecraft-builders.com
TX,MONTGOMERY,182192-21,"Single Family Homes",3/26/2021,,800000,,"4310 WORTHINGTON DR",HOUSTON,TX,77356,"WOODSON'S RESERVE",,CONTRACTOR,,,,,,,,,,,"TOLL BROTHERS",,,,,"TOLL BROTHERS","10110 W SAM HOUSTON PKWY N STE 350",HOUSTON,TX,77064-7508,"(281) 664-7255",,,,
TX,MONTGOMERY,182193-21,"Single Family Homes",3/26/2021,,700000,,"5346 CHERRY SPRINGS DR",HOUSTON,TX,77356,"WOODSON'S RESERVE",,CONTRACTOR,,,,,,,,,,,"TOLL BROTHERS",,,,,"TOLL BROTHERS","10110 W SAM HOUSTON PKWY N STE 350",HOUSTON,TX,77064-7508,"(281) 664-7255",,,,
TX,MONTGOMERY,182194-21,"Single Family Homes",3/26/2021,,800000,,"28011 ROYAL SWAN LN",HOUSTON,TX,77356,"WOODSON'S RESERVE",,CONTRACTOR,,,,,,,,,,,"TOLL BROTHERS",,,,,"TOLL BROTHERS","10110 W SAM HOUSTON PKWY N STE 350",HOUSTON,TX,77064-7508,"(281) 664-7255",,,,
TX,MONTGOMERY,182198-21,"Single Family Homes",3/26/2021,,800000,,"4306 WORTHINGTON DR",HOUSTON,TX,77356,"WOODSON'S RESERVE",,CONTRACTOR,,,,,,,,,,,"TOLL BROTHERS",,,,,"TOLL BROTHERS","10110 W SAM HOUSTON PKWY N STE 350",HOUSTON,TX,77064-7508,"(281) 664-7255",,,,
TX,MONTGOMERY,182199-21,"Single Family Homes",3/26/2021,,800000,,"3918 KELLEY POND DR",HOUSTON,TX,77356,"WOODSON'S RESERVE",,CONTRACTOR,,,,,,,,,,,"TOLL BROTHERS",,,,,"TOLL BROTHERS","10110 W SAM HOUSTON PKWY N STE 350",HOUSTON,TX,77064-7508,"(281) 664-7255",,,,
TX,MONTGOMERY,182200-21,"Single Family Homes",3/26/2021,,850000,,"28106 ROCKHILL",HOUSTON,TX,77356,"WOODSON'S RESERVE",,CONTRACTOR,,,,,,,,,,,"TOLL BROTHERS",,,,,"TOLL BROTHERS","10110 W SAM HOUSTON PKWY N STE 350",HOUSTON,TX,77064-7508,"(281) 664-7255",,,,
TX,MONTGOMERY,182201-21,"Single Family Homes",3/26/2021,,800000,,"28034 ROYAL SWAN LN",HOUSTON,TX,77356,"WOODSON'S RESERVE",,CONTRACTOR,,,,,,,,,,,"TOLL BROTHERS",,,,,"TOLL BROTHERS","10110 W SAM HOUSTON PKWY N STE 350",HOUSTON,TX,77064-7508,"(281) 664-7255",,,,
TX,MONTGOMERY,182210-21,"Single Family Homes",3/26/2021,,800000,,"4207 VOYAGE COVE DR",HOUSTON,TX,77356,"WOODSON'S RESERVE",,CONTRACTOR,,,,,,,,,,,"TOLL BROTHERS",,,,,"TOLL BROTHERS","10110 W SAM HOUSTON PKWY N STE 350",HOUSTON,TX,77064-7508,"(281) 664-7255",,,,
TX,MONTGOMERY,181940-21,"Single Family Homes",3/22/2021,,700000,,"321 PROMENADE SOUTH",HOUSTON,TX,77356,BENTWATER,,CONTRACTOR,,,,,,,,,,,"TROY SCOTT HOMES",,,,,"TROY SCOTT HOMES","234 MONTERREY RD W",MONTGOMERY,TX,77356-8186,"(936) 648-3084",http://troyscotthomes.net/,"(936) 597-9263",,troyscotthomes@aol.com
TX,MONTGOMERY,181941-21,"Single Family Homes",3/22/2021,,700000,,"198 BENTWATER BAY DR",HOUSTON,TX,77356,BENTWATER,,CONTRACTOR,,,,,,,,,,,"TROY SCOTT HOMES",,,,,"TROY SCOTT HOMES","234 MONTERREY RD W",MONTGOMERY,TX,77356-8186,"(936) 648-3084",http://troyscotthomes.net/,"(936) 597-9263",,troyscotthomes@aol.com
TX,MONTGOMERY,181984-21,"Single Family Homes",3/23/2021,,200000,,"16768 HUNTERS TR",HOUSTON,TX,77356,"PEVEHOUSE ABRAHAM",,CONTRACTOR,,,,,,,,,,,"TWO SONS ENVIRONMENTAL SERVICES",,,,,"TWO SONS ENVIRONMENTAL SERVICES","23565 FM 1314 RD",PORTER,TX,77365-3724,"(281) 354-9284",http://www.two-sons.net,"(281) 354-2107",,twosonsenvironmental@yahoo.com
TX,MONTGOMERY,182097-21,"Single Family Homes",3/25/2021,,216000,,"907 FALCON HOLLOW LN",HOUSTON,TX,77356,WOODTRACE,,CONTRACTOR,,,,,,,,,,,"VILLAGE BUILDERS",,,,,"VILLAGE BUILDERS","550 GREENS PKWY STE 210",HOUSTON,TX,77067-4538,"(281) 873-4663",,,,
TX,MONTGOMERY,182099-21,"Single Family Homes",3/25/2021,,207000,,"1165 SIENNA FOREST LN",HOUSTON,TX,77356,WOODTRACE,,CONTRACTOR,,,,,,,,,,,"VILLAGE BUILDERS",,,,,"VILLAGE BUILDERS","550 GREENS PKWY STE 210",HOUSTON,TX,77067-4538,"(281) 873-4663",,,,
TX,MONTGOMERY,182100-21,"Single Family Homes",3/25/2021,,192000,,"1139 SIENNA FOREST LN",HOUSTON,TX,77356,WOODTRACE,,CONTRACTOR,,,,,,,,,,,"VILLAGE BUILDERS",,,,,"VILLAGE BUILDERS","550 GREENS PKWY STE 210",HOUSTON,TX,77067-4538,"(281) 873-4663",,,,
TX,MONTGOMERY,182022-21,"Single Family Homes",3/24/2021,,75000,,"1126 HACKBERRY LN",HOUSTON,TX,77356,"CONROE SUBURBAN ESTATES",,"RICARDO VINALAY","912 HACKBERRY LN",CONROE,TX,77306,,Owner,,,,,OWNER,,,,,OWNER,,,,,,,,,
TX,MONTGOMERY,181981-21,"Single Family Homes",3/23/2021,,144615,,"18756 CRESCENT TRAILS CIRCLE",HOUSTON,TX,77356,"RESERVE ON LAKE CONROE",,CONTRACTOR,,,,,,,,,,,"WAN BRIDGE LAND LLC",,,,,"WAN BRIDGE LAND LLC","5210 SPRUCE ST",BELLAIRE,TX,77401,"(713) 564-5331",https://wanbridge.com/,,,
TX,MONTGOMERY,181982-21,"Single Family Homes",3/23/2021,,144615,,"18740 CRESCENT TRAILS CIRCLE",HOUSTON,TX,77356,"RESERVE ON LAKE CONROE",,CONTRACTOR,,,,,,,,,,,"WAN BRIDGE LAND LLC",,,,,"WAN BRIDGE LAND LLC","5210 SPRUCE ST",BELLAIRE,TX,77401,"(713) 564-5331",https://wanbridge.com/,,,
TX,MONTGOMERY,181983-21,"Single Family Homes",3/23/2021,,144615,,"18701 CRESCENT TRAILS CIRCLE",HOUSTON,TX,77356,"RESERVE ON LAKE CONROE",,CONTRACTOR,,,,,,,,,,,"WAN BRIDGE LAND LLC",,,,,"WAN BRIDGE LAND LLC","5210 SPRUCE ST",BELLAIRE,TX,77401,"(713) 564-5331",https://wanbridge.com/,,,
TX,MONTGOMERY,182207-21,"Single Family Homes",3/26/2021,,370990,,"15403 SUN ROSE ST",HOUSTON,TX,77356,ARTAVIA,,CONTRACTOR,,,,,,,,,,,"DAVID WEEKLEY HOMES",,,,,"DAVID WEEKLEY HOMES","14444 NORTHWEST",HOUSTON,TX,77040,"(713) 570-5021",http://www.davidweekleyhomes.com/,,,
TX,MONTGOMERY,182213-21,"Single Family Homes",3/26/2021,,373990,,"15419 SUN ROSE ST",HOUSTON,TX,77356,ARTAVIA,,CONTRACTOR,,,,,,,,,,,"DAVID WEEKLEY HOMES",,,,,"DAVID WEEKLEY HOMES","14444 NORTHWEST",HOUSTON,TX,77040,"(713) 570-5021",http://www.davidweekleyhomes.com/,,,
TX,MONTGOMERY,182008-21,"Single Family Homes",3/24/2021,,333790,,"6003 PARKSIDE VILLAS CT",HOUSTON,TX,77356,"VILLAS AT WHITE OAK RANCH",,CONTRACTOR,,,,,,,,,,,"WOODFALLS DEVELOPMENT GROUP LLC",,,,,"WOODFALLS DEVELOPMENT GROUP LLC","12675 LONGMIRE WAY",CONROE,TX,77304-1077,"(936) 703-5445",https://www.woodfallstx.com,"(936) 703-5272",,
TX,MONTGOMERY,"182257- 21","Single Family Homes",3/29/2021,,230000,,"3623 SPYGLASS HILL DR",HOUSTON,TX,77356,"WALDEN ON LAKE CONROE",,CONTRACTOR,,,,,,,,,,,"AMG CUSTOM HOMES",,,,,"AMG CUSTOM HOMES","2347 KEEGAN HOLLOW LN",SPRING,TX,77386-3325,"(936) 697-3883",,,,
TX,MONTGOMERY,"182230- 21","Single Family Homes",3/29/2021,,161694,,"40622 GUIKKEMONT LN",HOUSTON,TX,77356,"AUDUBON CREEKSIDE",,CONTRACTOR,,,,,,,,,,,"ANGLIA HOMES",,,,,"ANGLIA HOMES","17510 RED OAK DR",HOUSTON,TX,77090,"(281) 943-5288",http://www.angliahomeslp.com/,,,
TX,MONTGOMERY,"182250 - 21","Single Family Homes",3/29/2021,,151965,,"20951 NEW PROPER DR",HOUSTON,TX,77356,"HARRINGTON TRAILS",,CONTRACTOR,,,,,,,,,,,"CASTLEROCK COMMUNITIES",,,,,"CASTLEROCK COMMUNITIES","7670 WOODWAY DR STE 300",HOUSTON,TX,77063-1520,"(713) 600-7000",http://c-rock.com,"(713) 600-0000",,
TX,MONTGOMERY,182251-21,"Single Family Homes",3/29/2021,,110220,,"20943 NEW PROPER DR",HOUSTON,TX,77356,"HARRINGTON TRAILS",,CONTRACTOR,,,,,,,,,,,"CASTLEROCK COMMUNITIES",,,,,"CASTLEROCK COMMUNITIES","7670 WOODWAY DR STE 300",HOUSTON,TX,77063-1520,"(713) 600-7000",http://c-rock.com,"(713) 600-0000",,
TX,MONTGOMERY,182253-21,"Single Family Homes",3/29/2021,,120615,,"20935 NEW PROPER DR",HOUSTON,TX,77356,"HARRINGTON TRAILS",,CONTRACTOR,,,,,,,,,,,"CASTLEROCK COMMUNITIES",,,,,"CASTLEROCK COMMUNITIES","7670 WOODWAY DR STE 300",HOUSTON,TX,77063-1520,"(713) 600-7000",http://c-rock.com,"(713) 600-0000",,
TX,MONTGOMERY,"182254- 21","Single Family Homes",3/29/2021,,120615,,"20946 NEW PROPER DR",HOUSTON,TX,77356,"HARRINGTON TRAILS",,CONTRACTOR,,,,,,,,,,,"CASTLEROCK COMMUNITIES",,,,,"CASTLEROCK COMMUNITIES","7670 WOODWAY DR STE 300",HOUSTON,TX,77063-1520,"(713) 600-7000",http://c-rock.com,"(713) 600-0000",,
TX,MONTGOMERY,"182255- 21","Single Family Homes",3/29/2021,,162745,,"20950 NEW PROPER DR",HOUSTON,TX,77356,"HARRINGTON TRAILS",,CONTRACTOR,,,,,,,,,,,"CASTLEROCK COMMUNITIES",,,,,"CASTLEROCK COMMUNITIES","7670 WOODWAY DR STE 300",HOUSTON,TX,77063-1520,"(713) 600-7000",http://c-rock.com,"(713) 600-0000",,
TX,MONTGOMERY,"182276 - 21","Single Family Homes",3/30/2021,,104886,,"15521 BRIAR FOREST DR",HOUSTON,TX,77356,"CROCKETT RESERVE",,CONTRACTOR,,,,,,,,,,,"CENTURY COMMUNITIES",,,,,"CENTURY COMMUNITIES","4700 W SAM HOUSTON PKWY N STE 130",HOUSTON,TX,77041-8219,"(281) 741-8946",https://www.centurycommunities.com/,,,
TX,MONTGOMERY,182277-21,"Single Family Homes",3/30/2021,,129816,,"15525 BRAIR FOREST DR",HOUSTON,TX,77356,"CROCKETT RESERVE",,CONTRACTOR,,,,,,,,,,,"CENTURY COMMUNITIES",,,,,"CENTURY COMMUNITIES","4700 W SAM HOUSTON PKWY N STE 130",HOUSTON,TX,77041-8219,"(281) 741-8946",https://www.centurycommunities.com/,,,
TX,MONTGOMERY,"182278 - 21","Single Family Homes",3/30/2021,,121625,,"15533 BRAIR FOREST DR",HOUSTON,TX,77356,"CROCKETT RESERVE",,CONTRACTOR,,,,,,,,,,,"CENTURY COMMUNITIES",,,,,"CENTURY COMMUNITIES","4700 W SAM HOUSTON PKWY N STE 130",HOUSTON,TX,77041-8219,"(281) 741-8946",https://www.centurycommunities.com/,,,
TX,MONTGOMERY,"182279- 21","Single Family Homes",3/30/2021,,100294,,"15529 BRAIR FOREST DR",HOUSTON,TX,77356,"CROCKETT RESERVE",,CONTRACTOR,,,,,,,,,,,"CENTURY COMMUNITIES",,,,,"CENTURY COMMUNITIES","4700 W SAM HOUSTON PKWY N STE 130",HOUSTON,TX,77041-8219,"(281) 741-8946",https://www.centurycommunities.com/,,,
TX,MONTGOMERY,"182280- 21","Single Family Homes",3/30/2021,,98750,,"15509 BRI AR FOREST DR",HOUSTON,TX,77356,"CRCOKETT RESERVE",,CONTRACTOR,,,,,,,,,,,"CENTURY COMMUNITIES",,,,,"CENTURY COMMUNITIES","4700 W SAM HOUSTON PKWY N STE 130",HOUSTON,TX,77041-8219,"(281) 741-8946",https://www.centurycommunities.com/,,,
TX,MONTGOMERY,"182281- 21","Single Family Homes",3/30/2021,,111680,,"15513 BRIAR FOREST DR",HOUSTON,TX,77356,"CROCKETT TRACE",,CONTRACTOR,,,,,,,,,,,"CENTURY COMMUNITIES",,,,,"CENTURY COMMUNITIES","4700 W SAM HOUSTON PKWY N STE 130",HOUSTON,TX,77041-8219,"(281) 741-8946",https://www.centurycommunities.com/,,,
TX,MONTGOMERY,182282-21,"Single Family Homes",3/30/2021,,116565,,"15517 BRIAR FOREST DR",HOUSTON,TX,77356,"CROCKETT RESERVE",,CONTRACTOR,,,,,,,,,,,"CENTURY COMMUNITIES",,,,,"CENTURY COMMUNITIES","4700 W SAM HOUSTON PKWY N STE 130",HOUSTON,TX,77041-8219,"(281) 741-8946",https://www.centurycommunities.com/,,,
TX,MONTGOMERY,182239-21,"Single Family Homes",3/29/2021,,192247,,"17534 WHITE BANEBERRY DR",HOUSTON,TX,77356,"HARPERS PRESERVE",,CONTRACTOR,,,,,,,,,,,"CHESMAR HOMES",,,,,"CHESMAR HOMES","450 GEARS RD STE 400",HOUSTON,TX,77067-4513,"(281) 598-1111",http://chesmar.com,"(281) 598-1115",,customerservice.houston@chesmar.com
TX,MONTGOMERY,182241-21,"Single Family Homes",3/29/2021,,192247,,"10195 BAYOU OAKS DR",HOUSTON,TX,77356,"HARPERS PRESERVE",,CONTRACTOR,,,,,,,,,,,"CHESMAR HOMES",,,,,"CHESMAR HOMES","450 GEARS RD STE 400",HOUSTON,TX,77067-4513,"(281) 598-1111",http://chesmar.com,"(281) 598-1115",,customerservice.houston@chesmar.com
TX,MONTGOMERY,182242-21,"Single Family Homes",3/29/2021,,192247,,"10255 BAYOU OAK DR",HOUSTON,TX,77356,"HARPERS PRESERVE",,CONTRACTOR,,,,,,,,,,,"CHESMAR HOMES",,,,,"CHESMAR HOMES","450 GEARS RD STE 400",HOUSTON,TX,77067-4513,"(281) 598-1111",http://chesmar.com,"(281) 598-1115",,customerservice.houston@chesmar.com
TX,MONTGOMERY,182244-21,"Single Family Homes",3/29/2021,,169993,,"4530 SILVER MOON DR",HOUSTON,TX,77356,"WOODSON'S RESERVE",,CONTRACTOR,,,,,,,,,,,"CHESMAR HOMES",,,,,"CHESMAR HOMES","450 GEARS RD STE 400",HOUSTON,TX,77067-4513,"(281) 598-1111",http://chesmar.com,"(281) 598-1115",,customerservice.houston@chesmar.com
TX,MONTGOMERY,182246-21,"Single Family Homes",3/29/2021,,340400,,"4590 SILVER MOON DR",HOUSTON,TX,77356,"WOODSON'S RESERVE",,CONTRACTOR,,,,,,,,,,,"CHESMAR HOMES",,,,,"CHESMAR HOMES","450 GEARS RD STE 400",HOUSTON,TX,77067-4513,"(281) 598-1111",http://chesmar.com,"(281) 598-1115",,customerservice.houston@chesmar.com
TX,MONTGOMERY,182247-21,"Single Family Homes",3/29/2021,,155900,,"263 SOUTH SPOTTED FERN DR",HOUSTON,TX,77356,WOODFOREST,,CONTRACTOR,,,,,,,,,,,"CHESMAR HOMES",,,,,"CHESMAR HOMES","450 GEARS RD STE 400",HOUSTON,TX,77067-4513,"(281) 598-1111",http://chesmar.com,"(281) 598-1115",,customerservice.houston@chesmar.com
TX,MONTGOMERY,182248-21,"Single Family Homes",3/29/2021,,147203,,"312 ANDRES DR",HOUSTON,TX,77356,WOODFOREST,,CONTRACTOR,,,,,,,,,,,"CHESMAR HOMES",,,,,"CHESMAR HOMES","450 GEARS RD STE 400",HOUSTON,TX,77067-4513,"(281) 598-1111",http://chesmar.com,"(281) 598-1115",,customerservice.houston@chesmar.com
TX,MONTGOMERY,182283-21,"Single Family Homes",3/30/2021,,175423,,"10562 WILD CHIVES",HOUSTON,TX,77356,"HARPERS PRESERVE",,CONTRACTOR,,,,,,,,,,,"CHESMAR HOMES",,,,,"CHESMAR HOMES","450 GEARS RD STE 400",HOUSTON,TX,77067-4513,"(281) 598-1111",http://chesmar.com,"(281) 598-1115",,customerservice.houston@chesmar.com
TX,MONTGOMERY,182274-21,"Single Family Homes",3/29/2021,,148395,,"9845 HUNTER SPRINGS DR",HOUSTON,TX,77356,"LAKEWOOD TRAILS",,"DILLON CONLEY","PO BOX 273",CONROE,TX,77305,,Owner,,,,,OWNER,,,,,OWNER,,,,,,,,,
TX,MONTGOMERY,182422-21,"Single Family Homes",4/1/2021,,225000,,"18827 SERENE WATER DR",HOUSTON,TX,77356,"GRAND HARBOR",,"DILLON CONLEY","PO BOX 273",CONROE,TX,77305,,Owner,,,,,OWNER,,,,,OWNER,,,,,,,,,
TX,MONTGOMERY,182392-21,"Single Family Homes",4/1/2021,,80000,,"2051 CALIFORNIA AVENUE",HOUSTON,TX,77356,,,"DANTE CONTRERAS","2051 CALIFORNIA AVENUE",CLEVELAND,TX,77376,,Owner,,,,,OWNER,,,,,OWNER,,,,,,,,,
TX,MONTGOMERY,182249-21,"Single Family Homes",3/29/2021,,123030,,"14003 AUTUMN CREEK CT",HOUSTON,TX,77356,"FOSTERS RIDGE",,CONTRACTOR,,,,,,,,,,,"DR HORTON",,,,,"DR HORTON","14100 SOUTHWEST",HOUSTON,TX,77478,"(281) 201-5559",,,,
TX,BRAZOS,RES2021-000028,"Single Family Homes",3/1/2021,,299000,4737,"4422 ODELL LN","COLLEGE STATION",TX,77845,CASTLEGATE,,CONTRACTOR,,,,,,,,,,,"BLACKSTONE HANDCRAFTED HOMES",,,,,"BLACKSTONE HANDCRAFTED HOMES","2900 CAIN RD","COLLEGE STATION",TX,77845-6224,"(979) 696-4663",http://blackstonehandcrafted.com/,"(979) 696-4664","MATTHEW JOHNSON",
TX,BRAZOS,RES2021-000069,"Single Family Homes",3/1/2021,,131812,2126,"6309 DAYTONA DR","COLLEGE STATION",TX,77845,"SOUTHERN POINTE",,CONTRACTOR,,,,,,,,,,,"STYLECRAFT BUILDERS ",,,,,"STYLECRAFT BUILDERS ","4090 STATE HIGHWAY 6 S","COLLEGE STATION",TX,77845-8962,"(979) 764-9900",,"(979) 690-3069","TANNER BREWSTER",tabrewster@stylecraft-builders.com
TX,BRAZOS,RES2021-000058,"Single Family Homes",3/2/2021,,148504,2057,"802 WELSH AVE","COLLEGE STATION",TX,77845,"BREEZY HEIGHTS",,CONTRACTOR,,,,,,,,,,,"HANCOCK CUSTOM HOMES",,,,,"HANCOCK CUSTOM HOMES","PO BOX 11214","COLLEGE STATION",TX,77842-1214,"(979) 412-6301",http://www.homesbyhancock.com/,,,info@homesbyhancock.com
TX,BRAZOS,RES2021-000023,"Single Family Homes",3/3/2021,,297756,3676,"1920 COTTONWOOD TERRACE CT","COLLEGE STATION",TX,77845,"MISSION RANCH",,CONTRACTOR,,,,,,,,,,,"REECE HOMES",,,,,"REECE HOMES","1818 TAYLOR",HOUSTON,TX,77545,"(713) 826-7262",http://www.reece-homes.com/,,,
TX,BRAZOS,RES2021-000032,"Single Family Homes",3/4/2021,,151970,2599,"1002 WALTON DR","COLLEGE STATION",TX,77845,"COLLEGE HILLS ESTATES",,CONTRACTOR,,,,,,,,,,,"BLUESTONE PARTNERS",,,,,"BLUESTONE PARTNERS","8405 JUSTIN AVE","COLLEGE STATION",TX,77845-5797,"(979) 224-3036",http://www.bluestone.ws,"(903) 893-2124","JIM CROSS",jimcross@bluestone.ws
TX,BRAZOS,RES2021-000051,"Single Family Homes",3/3/2021,,105534,2147,"1005 BRIDGEWATER DR","COLLEGE STATION",TX,77845,SHENANDOAH,,CONTRACTOR,,,,,,,,,,,"ED FROEHLING BUILDERS ",,,,,"ED FROEHLING BUILDERS ","3887 HIGH LONESOME","COLLEGE STATION",TX,77845-9443,"(979) 694-0565",http://edfroehlingbuilder.com,,,
TX,BRAZOS,RES2021-000057,"Single Family Homes",3/3/2021,,298566,3686,"4707 PEARL RIVER CT","COLLEGE STATION",TX,77845,"GREENS PRAIRIE RESERVE",,CONTRACTOR,,,,,,,,,,,"REECE HOMES",,,,,"REECE HOMES","1818 TAYLOR",HOUSTON,TX,77545,"(713) 826-7262",http://www.reece-homes.com/,,,
TX,BRAZOS,RES2021-000081,"Single Family Homes",3/3/2021,,155558,2509,"6310 ROCKFORD DR","COLLEGE STATION",TX,77845,"SOUTHERN POINTE",,CONTRACTOR,,,,,,,,,,,"STYLECRAFT BUILDERS ",,,,,"STYLECRAFT BUILDERS ","4090 STATE HIGHWAY 6 S","COLLEGE STATION",TX,77845-8962,"(979) 764-9900",,"(979) 690-3069","TANNER BREWSTER",tabrewster@stylecraft-builders.com
TX,BRAZOS,RES2021-000085,"Single Family Homes",3/9/2021,,176000,2948,"301 LUTHER ST","COLLEGE STATION",TX,77845,"WEST PARK",,CONTRACTOR,,,,,,,,,,,"BLUESTONE PARTNERS",,,,,"BLUESTONE PARTNERS","8405 JUSTIN AVE","COLLEGE STATION",TX,77845-5797,"(979) 224-3036",http://www.bluestone.ws,"(903) 893-2124","JIM CROSS",jimcross@bluestone.ws
TX,BRAZOS,RES2021-000071,"Single Family Homes",3/11/2021,,210000,2801,"259 ESTATES CIR","COLLEGE STATION",TX,77845,"POOHS PARK",,CONTRACTOR,,,,,,,,,,,"MASTERTOUCH BUILDERS",,,,,"MASTERTOUCH BUILDERS","13150 COIT RD STE 205",DALLAS,TX,75240,"(469) 371-7070",,,,
TX,BRAZOS,RES2021-000072,"Single Family Homes",3/11/2021,,210000,2802,"261 ESTATES CIR","COLLEGE STATION",TX,77845,"POOHS PARK",,CONTRACTOR,,,,,,,,,,,"HOLLEMAN POOH",,,,,"HOLLEMAN POOH","PO BOX 802523",DALLAS,TX,75380,"(214) 538-9322",,,"JOHN HUFFMAN",
TX,BRAZOS,RES2021-000073,"Single Family Homes",3/11/2021,,210000,2801,"256 ESTATES CIR","COLLEGE STATION",TX,77845,"POOHS PARK",,CONTRACTOR,,,,,,,,,,,"HOLLEMAN POOH",,,,,"HOLLEMAN POOH","PO BOX 802523",DALLAS,TX,75380,"(214) 538-9322",,,"JOHN HUFFMAN",
TX,BRAZOS,RES2021-000074,"Single Family Homes",3/11/2021,,210000,2802,"258 ESTATES CIR","COLLEGE STATION",TX,77845,"POOHS PARK",,CONTRACTOR,,,,,,,,,,,"HOLLEMAN POOH",,,,,"HOLLEMAN POOH","PO BOX 802523",DALLAS,TX,75380,"(214) 538-9322",,,"JOHN HUFFMAN",
TX,BRAZOS,RES2021-000075,"Single Family Homes",3/11/2021,,210000,2812,"260 ESTATES CIR","COLLEGE STATION",TX,77845,"POOHS PARK",,CONTRACTOR,,,,,,,,,,,"HOLLEMAN POOH",,,,,"HOLLEMAN POOH","PO BOX 802523",DALLAS,TX,75380,"(214) 538-9322",,,"JOHN HUFFMAN",
TX,BRAZOS,RES2021-000077,"Single Family Homes",3/12/2021,,147160,2620,"418 EDWARD ST","COLLEGE STATION",TX,77845,HRDLICKA,,CONTRACTOR,,,,,,,,,,,"BLUESTONE PARTNERS",,,,,"BLUESTONE PARTNERS","8405 JUSTIN AVE","COLLEGE STATION",TX,77845-5797,"(979) 224-3036",http://www.bluestone.ws,"(903) 893-2124","JIM CROSS",jimcross@bluestone.ws
TX,BRAZOS,RES2021-000078,"Single Family Homes",3/12/2021,,144820,2493,"420 EDWARD ST","COLLEGE STATION",TX,77845,HRDLICKA,,CONTRACTOR,,,,,,,,,,,"BLUESTONE PARTNERS",,,,,"BLUESTONE PARTNERS","8405 JUSTIN AVE","COLLEGE STATION",TX,77845-5797,"(979) 224-3036",http://www.bluestone.ws,"(903) 893-2124","JIM CROSS",jimcross@bluestone.ws
TX,BRAZOS,RES2021-000094,"Single Family Homes",3/12/2021,,144820,2408,"607 PEYTON ST","COLLEGE STATION",TX,77845,"PRAIRIE VIEW HEIGHTS",,CONTRACTOR,,,,,,,,,,,"BLUESTONE PARTNERS",,,,,"BLUESTONE PARTNERS","8405 JUSTIN AVE","COLLEGE STATION",TX,77845-5797,"(979) 224-3036",http://www.bluestone.ws,"(903) 893-2124","JIM CROSS",jimcross@bluestone.ws
TX,BRAZOS,RES2021-000091,"Single Family Homes",3/15/2021,,335000,3783,"1725 BLANCO BEND DR","COLLEGE STATION",TX,77845,"MISSION RANCH",,CONTRACTOR,,,,,,,,,,,"MAGRUDER HOMES",,,,,"MAGRUDER HOMES","PO BOX 10572","COLLEGE STATION",TX,77842-0572,"(979) 324-6682",http://magruderhomes.com/,"(979) 696-2383",,john@magruderhomes.com
TX,BRAZOS,RES2021-000095,"Single Family Homes",3/15/2021,,190836,3007,"400 HIGHLANDS ST","COLLEGE STATION",TX,77845,"WEST PARK",,CONTRACTOR,,,,,,,,,,,"HANCOCK CUSTOM HOMES",,,,,"HANCOCK CUSTOM HOMES","PO BOX 11214","COLLEGE STATION",TX,77842-1214,"(979) 412-6301",http://www.homesbyhancock.com/,,,info@homesbyhancock.com
TX,BRAZOS,RES2021-000096,"Single Family Homes",3/15/2021,,189316,2585,"402 HIGHLANDS ST","COLLEGE STATION",TX,77845,"WEST PARK",,CONTRACTOR,,,,,,,,,,,"HANCOCK CUSTOM HOMES",,,,,"HANCOCK CUSTOM HOMES","PO BOX 11214","COLLEGE STATION",TX,77842-1214,"(979) 412-6301",http://www.homesbyhancock.com/,,,info@homesbyhancock.com
TX,BRAZOS,RES2021-000097,"Single Family Homes",3/15/2021,,190836,2918,"404 HIGHLANDS ST","COLLEGE STATION",TX,77845,"WEST PARK",,CONTRACTOR,,,,,,,,,,,"HANCOCK CUSTOM HOMES",,,,,"HANCOCK CUSTOM HOMES","PO BOX 11214","COLLEGE STATION",TX,77842-1214,"(979) 412-6301",http://www.homesbyhancock.com/,,,info@homesbyhancock.com
TX,BRAZOS,RES2021-000099,"Single Family Homes",3/15/2021,,177992,3029,"6337 SPARTAN DR","COLLEGE STATION",TX,77845,"SOUTHERN POINTE",,CONTRACTOR,,,,,,,,,,,"OMEGA BUILDERS GROUP",,,,,"OMEGA BUILDERS GROUP","7353 W ADAMS AVE",TEMPLE,TX,76502-5539,"(254) 773-9966",,,,
TX,BRAZOS,RES2021-000104,"Single Family Homes",3/15/2021,,179284,2430,"104 STERLING ST # A","COLLEGE STATION",TX,77845,RICHARDS,,CONTRACTOR,,,,,,,,,,,"HANCOCK CUSTOM HOMES",,,,,"HANCOCK CUSTOM HOMES","PO BOX 11214","COLLEGE STATION",TX,77842-1214,"(979) 412-6301",http://www.homesbyhancock.com/,,,info@homesbyhancock.com
TX,BRAZOS,RES2021-000105,"Single Family Homes",3/15/2021,,179284,2430,"104 STERLING ST # B","COLLEGE STATION",TX,77845,RICHARDS,,CONTRACTOR,,,,,,,,,,,"HANCOCK CUSTOM HOMES",,,,,"HANCOCK CUSTOM HOMES","PO BOX 11214","COLLEGE STATION",TX,77842-1214,"(979) 412-6301",http://www.homesbyhancock.com/,,,info@homesbyhancock.com
TX,BRAZOS,RES2021-000066,"Single Family Homes",3/17/2021,,238000,3665,"4705 PEARL RIVER CT","COLLEGE STATION",TX,77845,"GREENS PRAIRIE RESERVE",,CONTRACTOR,,,,,,,,,,,"HALL HOMES",,,,,"HALL HOMES","PO BOX 12341","COLLEGE STATION",TX,77842-2341,"(979) 551-5259",http://www.hallhomestx.com/,,,rhall@hallhomestx.com
TX,BRAZOS,RES2021-000003,"Single Family Homes",3/19/2021,,664796,5568,"1314 QUARRY OAKS DR","COLLEGE STATION",TX,77845,"PEBBLE CREEK",,CONTRACTOR,,,,,,,,,,,"HAMILTON DEVELOPMENT GROUP",,,,,"HAMILTON DEVELOPMENT GROUP","1733 BRIARCREST DR STE 210",BRYAN,TX,77802-2755,"(979) 446-0813",,,,
TX,BRAZOS,RES2021-000067,"Single Family Homes",3/19/2021,,652800,5856,"2108 ROLLING HILL TRL","COLLEGE STATION",TX,77845,"EMERALD RIDGE ESTATES",,CONTRACTOR,,,,,,,,,,,"HOOPER CUSTOM HOMES",,,,,"HOOPER CUSTOM HOMES","7832 MAPACHE CT",BRYAN,TX,77808-1422,"(512) 525-3930",https://www.hoopercustomhomes.com/,,"NATHAN HOOPER",nate@hoopercustomhomes.com
TX,BRAZOS,RES2021-000082,"Single Family Homes",3/19/2021,,210078,3183,"4005 HERU CT","COLLEGE STATION",TX,77845,"BREWSTER POINTE",,CONTRACTOR,,,,,,,,,,,"BCS RANGER HOME BUILDERS",,,,,"BCS RANGER HOME BUILDERS","3101 NORMANDY WAY",BRYAN,TX,77808,"(979) 255-7526",,,,
TX,BRAZOS,RES2021-000092,"Single Family Homes",3/18/2021,,209902,3457,"1330 CRYSTAL LN","COLLEGE STATION",TX,77845,"WATERFORD HEIGHTS",,CONTRACTOR,,,,,,,,,,,"FLAGSHIP CUSTOM HOMES",,,,,"FLAGSHIP CUSTOM HOMES","14391 S DOWLING RD","COLLEGE STATION",TX,77845-3473,"(203) 667-4581",http://wordpress.flagshiptx.com/,,,info@flagshiptx.com
TX,BRAZOS,RES2021-000098,"Single Family Homes",3/19/2021,,183464,2636,"416 THOMPSON ST#  A","COLLEGE STATION",TX,77845,HRDLICKA,,CONTRACTOR,,,,,,,,,,,"HANCOCK CUSTOM HOMES",,,,,"HANCOCK CUSTOM HOMES","PO BOX 11214","COLLEGE STATION",TX,77842-1214,"(979) 412-6301",http://www.homesbyhancock.com/,,,info@homesbyhancock.com
TX,BRAZOS,RES2021-000106,"Single Family Homes",3/18/2021,,235144,3733,"6319 DAYTONA DR","COLLEGE STATION",TX,77845,"SOUTHERN POINTE",,CONTRACTOR,,,,,,,,,,,"OMEGA BUILDERS GROUP",,,,,"OMEGA BUILDERS GROUP","7353 W ADAMS AVE",TEMPLE,TX,76502-5539,"(254) 773-9966",,,,
TX,BRAZOS,RES2021-000108,"Single Family Homes",3/18/2021,,162006,2613,"6310 DAYTONA DR","COLLEGE STATION",TX,77845,"SOUTHERN POINTE",,CONTRACTOR,,,,,,,,,,,"STYLECRAFT BUILDERS ",,,,,"STYLECRAFT BUILDERS ","4090 STATE HIGHWAY 6 S","COLLEGE STATION",TX,77845-8962,"(979) 764-9900",,"(979) 690-3069","TANNER BREWSTER",tabrewster@stylecraft-builders.com
TX,BRAZOS,RES2021-000109,"Single Family Homes",3/19/2021,,177992,3293,"6321 DAYTONA DR","COLLEGE STATION",TX,77845,"SOUTHERN POINTE",,CONTRACTOR,,,,,,,,,,,"OMEGA BUILDERS GROUP",,,,,"OMEGA BUILDERS GROUP","7353 W ADAMS AVE",TEMPLE,TX,76502-5539,"(254) 773-9966",,,,
TX,BRAZOS,RES2021-000111,"Single Family Homes",3/18/2021,,211815,2615,"3907 BROWNWAY CT","COLLEGE STATION",TX,77845,"BREWSTER POINTE",,CONTRACTOR,,,,,,,,,,,"REECE HOMES",,,,,"REECE HOMES","1818 TAYLOR",HOUSTON,TX,77545,"(713) 826-7262",http://www.reece-homes.com/,,,
TX,BRAZOS,RES2021-000101,"Single Family Homes",3/23/2021,,275000,3726,"4830 PEARL RIVER CT","COLLEGE STATION",TX,77845,"GREENS PRAIRIE RESERVE",,CONTRACTOR,,,,,,,,,,,"PITMAN CUSTOM HOMES",,,,,"PITMAN CUSTOM HOMES","1401 SEBESTA RD","COLLEGE STATION",TX,77845-5527,"(979) 693-6699",http://www.pitmancustomhomes.com,,JIMMY,
TX,BRAZOS,RES2021-000107,"Single Family Homes",3/23/2021,,137702,2221,"6305 DAYTONA DR","COLLEGE STATION",TX,77845,"SOUTHERN POINTE",,CONTRACTOR,,,,,,,,,,,"STYLECRAFT BUILDERS ",,,,,"STYLECRAFT BUILDERS ","4090 STATE HIGHWAY 6 S","COLLEGE STATION",TX,77845-8962,"(979) 764-9900",,"(979) 690-3069","TANNER BREWSTER",tabrewster@stylecraft-builders.com
TX,BRAZOS,RES2020-000507,"Single Family Homes",3/25/2021,,153520,2392,"6943 HALTER LOOP","COLLEGE STATION",TX,77845,"HORSE HAVEN ESTATES",,CONTRACTOR,,,,,,,,,,,"HANCOCK CUSTOM HOMES",,,,,"HANCOCK CUSTOM HOMES","PO BOX 11214","COLLEGE STATION",TX,77842-1214,"(979) 412-6301",http://www.homesbyhancock.com/,,,info@homesbyhancock.com
TX,BRAZOS,RES2021-000076,"Single Family Homes",3/24/2021,,144820,2493,"416 EDWARD ST","COLLEGE STATION",TX,77845,HRDLICKA,,CONTRACTOR,,,,,,,,,,,"BLUESTONE PARTNERS",,,,,"BLUESTONE PARTNERS","8405 JUSTIN AVE","COLLEGE STATION",TX,77845-5797,"(979) 224-3036",http://www.bluestone.ws,"(903) 893-2124","JIM CROSS",jimcross@bluestone.ws
TX,BRAZOS,RES2021-000114,"Single Family Homes",3/25/2021,,156940,2389,"6955 HALTER LOOP","COLLEGE STATION",TX,77845,"HORSE HAVEN ESTATES",,CONTRACTOR,,,,,,,,,,,"HANCOCK CUSTOM HOMES",,,,,"HANCOCK CUSTOM HOMES","PO BOX 11214","COLLEGE STATION",TX,77842-1214,"(979) 412-6301",http://www.homesbyhancock.com/,,,info@homesbyhancock.com
TX,BRAZOS,RES2021-000102,"Single Family Homes",3/26/2021,,238119,3666,"4211 DOWNTON ABBEY AVE","COLLEGE STATION",TX,77845,CASTLEGATE,,CONTRACTOR,,,,,,,,,,,"MICHAEL SCHAFER CUSTOM HOMES",,,,,"MICHAEL SCHAFER CUSTOM HOMES","12456 LONGMIRE LAKEVIEW",CONROE,TX,77304,"(936) 494-0163",https://michaelschafercustomhomes.com/,,,
TX,BRAZOS,RES2021-000137,"Single Family Homes",3/26/2021,,131812,2126,"6311 ROCKFORD DR","COLLEGE STATION",TX,77845,"SOUTHERN POINTE",,CONTRACTOR,,,,,,,,,,,"STYLECRAFT BUILDERS ",,,,,"STYLECRAFT BUILDERS ","4090 STATE HIGHWAY 6 S","COLLEGE STATION",TX,77845-8962,"(979) 764-9900",,"(979) 690-3069","TANNER BREWSTER",tabrewster@stylecraft-builders.com
TX,BRAZOS,RES2021-000118,"Single Family Homes",3/29/2021,,425000,4185,"4700 PEARL RIVER CT","COLLEGE STATION",TX,77845,"GREENS PRAIRIE RESERVE",,CONTRACTOR,,,,,,,,,,,"HEATH TOWNSEND HOMES",,,,,"HEATH TOWNSEND HOMES","2306 KENDAL GREEN CIR","COLLEGE STATION",TX,77845-4840,"(979) 574-0374",http://heathtownsendhomes.com/,,,heath@heathtownsendhomes.com
TX,BRAZOS,RES2021-000139,"Single Family Homes",3/29/2021,,136876,2440,"6331 SPARTAN DR","COLLEGE STATION",TX,77845,"SOUTHERN POINTE",,CONTRACTOR,,,,,,,,,,,"OMEGA BUILDERS GROUP",,,,,"OMEGA BUILDERS GROUP","7353 W ADAMS AVE",TEMPLE,TX,76502-5539,"(254) 773-9966",,,,
TX,BRAZOS,RES2021-000140,"Single Family Homes",3/29/2021,,223972,3654,"6333 SPARTAN DR","COLLEGE STATION",TX,77845,"SOUTHERN POINTE",,CONTRACTOR,,,,,,,,,,,"OMEGA BUILDERS GROUP",,,,,"OMEGA BUILDERS GROUP","7353 W ADAMS AVE",TEMPLE,TX,76502-5539,"(254) 773-9966",,,,
TX,BRAZOS,RES2021-000142,"Single Family Homes",3/29/2021,,168350,2776,"405 MARYEM ST","COLLEGE STATION",TX,77845,"WEST PARK",,CONTRACTOR,,,,,,,,,,,"BLUESTONE PARTNERS",,,,,"BLUESTONE PARTNERS","8405 JUSTIN AVE","COLLEGE STATION",TX,77845-5797,"(979) 224-3036",http://www.bluestone.ws,"(903) 893-2124","JIM CROSS",jimcross@bluestone.ws
TX,BRAZOS,RES2021-000115,"Single Family Homes",3/30/2021,,172500,2225,"6324 SOUTHERN CROSS DR","COLLEGE STATION",TX,77845,"SOUTHERN POINTE",,CONTRACTOR,,,,,,,,,,,"KALEO HOMES",,,,,"KALEO HOMES","4109 WOODCREST DR",BRYAN,TX,77802-3649,"(979) 575-2182",,,,
TX,BRAZOS,RES2020-000506,"Single Family Homes",3/31/2021,,156560,2382,"6947 HALTER LOOP","COLLEGE STATION",TX,77845,"HORSE HAVEN ESTATES",,CONTRACTOR,,,,,,,,,,,"HANCOCK CUSTOM HOMES",,,,,"HANCOCK CUSTOM HOMES","PO BOX 11214","COLLEGE STATION",TX,77842-1214,"(979) 412-6301",http://www.homesbyhancock.com/,,,info@homesbyhancock.com
TX,BRAZOS,RES2021-000112,"Single Family Homes",3/31/2021,,166516,2473,"6951 HALTER LOOP","COLLEGE STATION",TX,77845,"HORSE HAVEN ESTATES",,CONTRACTOR,,,,,,,,,,,"HANCOCK CUSTOM HOMES",,,,,"HANCOCK CUSTOM HOMES","PO BOX 11214","COLLEGE STATION",TX,77842-1214,"(979) 412-6301",http://www.homesbyhancock.com/,,,info@homesbyhancock.com
TX,BRAZOS,RES2021-000116,"Single Family Homes",3/30/2021,,181900,2038,"6320 ROCKFORD DR","COLLEGE STATION",TX,77845,"SOUTHERN POINTE",,CONTRACTOR,,,,,,,,,,,"KALEO HOMES",,,,,"KALEO HOMES","4109 WOODCREST DR",BRYAN,TX,77802-3649,"(979) 575-2182",,,,
TX,BRAZOS,RES2021-000117,"Single Family Homes",3/30/2021,,207053,2925,"6323 ROCKFORD DR","COLLEGE STATION",TX,77845,"SOUTHERN POINTE",,CONTRACTOR,,,,,,,,,,,"KALEO HOMES",,,,,"KALEO HOMES","4109 WOODCREST DR",BRYAN,TX,77802-3649,"(979) 575-2182",,,,
TX,BRAZOS,RES2021-000135,"Single Family Homes",3/31/2021,,290385,3585,"4210 BALLY MORE DR","COLLEGE STATION",TX,77845,"WATERFORD HEIGHTS",,CONTRACTOR,,,,,,,,,,,"REECE HOMES",,,,,"REECE HOMES","1818 TAYLOR",HOUSTON,TX,77545,"(713) 826-7262",http://www.reece-homes.com/,,,
TX,BRAZOS,RES2021-000145,"Single Family Homes",3/31/2021,,299457,3697,"8800 QUEENS CT","COLLEGE STATION",TX,77845,"EMERALD RIDGE ESTATES",,CONTRACTOR,,,,,,,,,,,"REECE HOMES",,,,,"REECE HOMES","1818 TAYLOR",HOUSTON,TX,77545,"(713) 826-7262",http://www.reece-homes.com/,,,
TX,BRAZOS,RES2021-000110,"Single Family Homes",4/1/2021,,300000,3598,"4201 BALLY MORE DR","COLLEGE STATION",TX,77845,"WATERFORD HEIGHTS",,CONTRACTOR,,,,,,,,,,,"RIDGEWOOD CUSTOM HOMES",,,,,"RIDGEWOOD CUSTOM HOMES","106 PHEASANT RUN CT",SUNSET,TX,76270-2176,"(940) 872-9911",,,,
TX,BRAZOS,RES2021-000127,"Single Family Homes",4/1/2021,,285000,3149," 1344 CRYSTAL LN","COLLEGE STATION",TX,77845,"WATERFORD HEIGHTS",,CONTRACTOR,,,,,,,,,,,"RIDGEWOOD CUSTOM HOMES",,,,,"RIDGEWOOD CUSTOM HOMES","106 PHEASANT RUN CT",SUNSET,TX,76270-2176,"(940) 872-9911",,,,
TX,BRAZOS,RES2021-000131,"Single Family Homes",4/1/2021,,159456,2416,"4104 WATERSTONE CT","COLLEGE STATION",TX,77845,BRIDGEWOOD,,CONTRACTOR,,,,,,,,,,,"STYLECRAFT BUILDERS ",,,,,"STYLECRAFT BUILDERS ","4090 STATE HIGHWAY 6 S","COLLEGE STATION",TX,77845-8962,"(979) 764-9900",,"(979) 690-3069","TANNER BREWSTER",tabrewster@stylecraft-builders.com
TX,BRAZOS,RES2021-000133,"Single Family Homes",4/1/2021,,179366,2093,"4103 GREGG CT","COLLEGE STATION",TX,77845,BRIDGEWOOD,,CONTRACTOR,,,,,,,,,,,"STYLECRAFT BUILDERS ",,,,,"STYLECRAFT BUILDERS ","4090 STATE HIGHWAY 6 S","COLLEGE STATION",TX,77845-8962,"(979) 764-9900",,"(979) 690-3069","TANNER BREWSTER",tabrewster@stylecraft-builders.com
TX,BRAZOS,RES2021-000146,"Single Family Homes",4/1/2021,,187036,3075,"103 ANDERSON ST","COLLEGE STATION",TX,77845,"REDMOND TERRACE",,CONTRACTOR,,,,,,,,,,,"HANCOCK CUSTOM HOMES",,,,,"HANCOCK CUSTOM HOMES","PO BOX 11214","COLLEGE STATION",TX,77842-1214,"(979) 412-6301",http://www.homesbyhancock.com/,,,info@homesbyhancock.com
TX,BRAZOS,RES2021-000147,"Single Family Homes",4/1/2021,,187036,3075,"105 ANDERSON ST","COLLEGE STATION",TX,77845,"REDMOND TERRACE",,CONTRACTOR,,,,,,,,,,,"HANCOCK CUSTOM HOMES",,,,,"HANCOCK CUSTOM HOMES","PO BOX 11214","COLLEGE STATION",TX,77842-1214,"(979) 412-6301",http://www.homesbyhancock.com/,,,info@homesbyhancock.com
TX,BRAZOS,RES2021-000150,"Single Family Homes",4/1/2021,,162006,,"6307 DAYTONA DR","COLLEGE STATION",TX,77845,"SOUTHERN POINTE",,CONTRACTOR,,,,,,,,,,,"STYLECRAFT BUILDERS ",,,,,"STYLECRAFT BUILDERS ","4090 STATE HIGHWAY 6 S","COLLEGE STATION",TX,77845-8962,"(979) 764-9900",,"(979) 690-3069","TANNER BREWSTER",tabrewster@stylecraft-builders.com
TX,HARRIS,2008170163,"Warehouse & Manufacturing",3/16/2021,,2900000,12177,"12212 PORT RD",HOUSTON,TX,77356,,,"ELLIET MAPLES","12212 PORT RD",HOUSTON,TX,77356,,Owner,,,,,OWNER,,,,,OWNER,,,,,,,,,
TX,HARRIS,21030030,"Warehouse & Manufacturing",3/31/2021,,2500000,95690,"1037 RED BLUFF RD",PASADENA,TX,77506,,,CONTRACTOR,,,,,,,,,,,"AVERA CONSTRUCTION",,,,,"AVERA CONSTRUCTION","5847 SAN FELIPE ST",HOUSTON,TX,77057-3000,"(210) 260-7476",,,ODOM,
TX,BRAZOS,CNEW2021-000004,"Warehouse & Manufacturing",3/22/2021,,1000000,26750,"4320 DECATUR DR BLDG 3","COLLEGE STATION",TX,77840,,,CONTRACTOR,,,,,,,,,,,"CAFFEY & SONS",,,,,"CAFFEY & SONS","609 E 32ND ST",BRYAN,TX,77803-4614,"(979) 589-2109",,,"KEVIN CAFFEY",
