state,county,permno,ptype,pdate,pdescription,jvalue,jsqfeet,jaddr,jcity,jstate,jzip,jsubdiv,jlotno,aname,aaddr,acity,astate,azip,aphone,atype,aurl,afax,aprimarycontact,aemail,bldcode,units,bldgs,ctype,legal,contractor,caddress,ccity,cstate,czip,cphone,curl,cfax,cprimarycontact,cemail
TX,WILLIAMSON,2020-68569,"Hospital & Other Medical",11/10/2020,Renovation,47600,1230,"3201 S AUSTIN AVE # 105",GEORGETOWN,TX,78626,,,CONTRACTOR,,,,,,,,,,,"GROUP ONE DEVELOPMENT",,,,,"GROUP ONE DEVELOPMENT","24624 INTERSTATE 45",SPRING,TX,77386-4084,"(832) 620-9595",http://www.grouponedevelopment.com,,,info@grouponedevelopment.com
TX,WILLIAMSON,2020-68626,"Hospital & Other Medical",11/10/2020,Renovation,136000,2400,"107 WAGON WHEEL TRL",GEORGETOWN,TX,78628,,,CONTRACTOR,,,,,,,,,,,"KYSER ENTERPRISES",,,,,"KYSER ENTERPRISES","210 OLD PEAK RD",GEORGETOWN,TX,78626-8198,"(512) 240-9073",,,,
TX,WILLIAMSON,2020-60683,"Hotel, Motel & Assisted Living",11/30/2020,,60000000,266211,"60 DEL WEBB BLVD",GEORGETOWN,TX,78633,,,CONTRACTOR,,,,,,,,,,,"WHITING TURNER CONSTRUCTION",,,,,"WHITING TURNER CONSTRUCTION","11400 BURNET RD",AUSTIN,TX,78758-3406,"(512) 491-8060",,,,
TX,WILLIAMSON,2017-39806,"Multi Family Apartments & Condos",11/19/2020,,230000,2244,"2200 LIMESTONE LAKE DR",GEORGETOWN,TX,78633,"GATLIN CREEK CONDO",,CONTRACTOR,,,,,,,,,,,"CENTURY COMMUNITIES",,,,,"CENTURY COMMUNITIES","6500 RIVER PLACE BLVD STE 200",AUSTIN,TX,78730-1156,"(512) 271-3825",https://www.centurycommunities.com/,,,
TX,WILLIAMSON,2020-67954,"Multi Family Apartments & Condos",11/6/2020,,233163,3037,"101 CHALK LAKE CV",GEORGETOWN,TX,78633,"GATLIN CREEK CONDO",,CONTRACTOR,,,,,,,,,,,"CENTURY COMMUNITIES",,,,,"CENTURY COMMUNITIES","6500 RIVER PLACE BLVD STE 200",AUSTIN,TX,78730-1156,"(512) 271-3825",https://www.centurycommunities.com/,,,
TX,WILLIAMSON,2020-68374,"Multi Family Apartments & Condos",11/12/2020,,238900,2412,"120 FLAT CREEK CT",GEORGETOWN,TX,78633,"GATLIN CREEK CONDO",,CONTRACTOR,,,,,,,,,,,"CENTURY COMMUNITIES",,,,,"CENTURY COMMUNITIES","6500 RIVER PLACE BLVD STE 200",AUSTIN,TX,78730-1156,"(512) 271-3825",https://www.centurycommunities.com/,,,
TX,WILLIAMSON,2020-68380,"Multi Family Apartments & Condos",11/12/2020,,268900,1915,"800 OLIVE CREEK DR",GEORGETOWN,TX,78633,"GATLIN CREEK CONDO",,CONTRACTOR,,,,,,,,,,,"CENTURY COMMUNITIES",,,,,"CENTURY COMMUNITIES","6500 RIVER PLACE BLVD STE 200",AUSTIN,TX,78730-1156,"(512) 271-3825",https://www.centurycommunities.com/,,,
TX,WILLIAMSON,2020-68390,"Multi Family Apartments & Condos",11/12/2020,,289000,2276,"901 OLIVE CREEK DR",GEORGETOWN,TX,78633,"GATLIN CREEK CONDO",,CONTRACTOR,,,,,,,,,,,"CENTURY COMMUNITIES",,,,,"CENTURY COMMUNITIES","6500 RIVER PLACE BLVD STE 200",AUSTIN,TX,78730-1156,"(512) 271-3825",https://www.centurycommunities.com/,,,
TX,WILLIAMSON,2020-68394,"Multi Family Apartments & Condos",11/12/2020,,298900,2008,"105 CHALK LAKE CV",GEORGETOWN,TX,78633,"GATLIN CREEK CONDO",,CONTRACTOR,,,,,,,,,,,"CENTURY COMMUNITIES",,,,,"CENTURY COMMUNITIES","6500 RIVER PLACE BLVD STE 200",AUSTIN,TX,78730-1156,"(512) 271-3825",https://www.centurycommunities.com/,,,
TX,WILLIAMSON,2020-68414,"Multi Family Apartments & Condos",11/12/2020,,279800,2858,"2117 LIMESTONE LAKE DR",GEORGETOWN,TX,78633,"GATLIN CREEK CONDO",,CONTRACTOR,,,,,,,,,,,"CENTURY COMMUNITIES",,,,,"CENTURY COMMUNITIES","6500 RIVER PLACE BLVD STE 200",AUSTIN,TX,78730-1156,"(512) 271-3825",https://www.centurycommunities.com/,,,
TX,WILLIAMSON,2020-68672,"Multi Family Apartments & Condos",11/17/2020,,275900,3150,"2209 LIMESTONE LAKE DR",GEORGETOWN,TX,78633,"GATLIN CREEK CONDO",,CONTRACTOR,,,,,,,,,,,"CENTURY COMMUNITIES",,,,,"CENTURY COMMUNITIES","6500 RIVER PLACE BLVD STE 200",AUSTIN,TX,78730-1156,"(512) 271-3825",https://www.centurycommunities.com/,,,
TX,WILLIAMSON,2020-68698,"Multi Family Apartments & Condos",11/13/2020,,180000,1717,"117 MEXICAN OLIVE DR",GEORGETOWN,TX,78628,"GARDENS AT VERDE VISTA CONDO",,CONTRACTOR,,,,,,,,,,,"SDI RESIDENTIAL",,,,,"SDI RESIDENTIAL","147 JOSHUA DR",GEORGETOWN,TX,78633-1857,"(512) 868-8500",,,,
TX,WILLIAMSON,2020-68706,"Multi Family Apartments & Condos",11/13/2020,,243000,2425,"608 BOTTLEBRUSH DR",GEORGETOWN,TX,78628,"GARDENS AT VERDE VISTA CONDO",,CONTRACTOR,,,,,,,,,,,"SDI RESIDENTIAL",,,,,"SDI RESIDENTIAL","147 JOSHUA DR",GEORGETOWN,TX,78633-1857,"(512) 868-8500",,,,
TX,WILLIAMSON,2020-68870,"Multi Family Apartments & Condos",11/24/2020,,170000,1963,"217 CLUBHOUSE DR",GEORGETOWN,TX,78628,"GARDENS AT VERDE VISTA CONDO",,CONTRACTOR,,,,,,,,,,,"SDI RESIDENTIAL",,,,,"SDI RESIDENTIAL","147 JOSHUA DR",GEORGETOWN,TX,78633-1857,"(512) 868-8500",,,,
TX,WILLIAMSON,2020-68955,"Multi Family Apartments & Condos",11/24/2020,,289800,1626,"108 DRIFTWOOD HILLS WAY",GEORGETOWN,TX,78633,"GATLIN CREEK CONDO",,CONTRACTOR,,,,,,,,,,,"CENTURY COMMUNITIES",,,,,"CENTURY COMMUNITIES","6500 RIVER PLACE BLVD STE 200",AUSTIN,TX,78730-1156,"(512) 271-3825",https://www.centurycommunities.com/,,,
TX,WILLIAMSON,2020-68958,"Multi Family Apartments & Condos",11/19/2020,,289800,3120,"2212 LIMESTONE LAKE DR",GEORGETOWN,TX,78633,"GATLIN CREEK CONDO",,CONTRACTOR,,,,,,,,,,,"CENTURY COMMUNITIES",,,,,"CENTURY COMMUNITIES","6500 RIVER PLACE BLVD STE 200",AUSTIN,TX,78730-1156,"(512) 271-3825",https://www.centurycommunities.com/,,,
TX,WILLIAMSON,2020-68960,"Multi Family Apartments & Condos",11/19/2020,,289700,3120,"2204 LIMESTONE LAKE DR",GEORGETOWN,TX,78633,"GATLIN CREEK CONDO",,CONTRACTOR,,,,,,,,,,,"CENTURY COMMUNITIES",,,,,"CENTURY COMMUNITIES","6500 RIVER PLACE BLVD STE 200",AUSTIN,TX,78730-1156,"(512) 271-3825",https://www.centurycommunities.com/,,,
TX,WILLIAMSON,2020-68963,"Multi Family Apartments & Condos",11/29/2020,,289800,3150,"809 OLIVE CREEK DR",GEORGETOWN,TX,78633,"GATLIN CREEK CONDO",,CONTRACTOR,,,,,,,,,,,"CENTURY COMMUNITIES",,,,,"CENTURY COMMUNITIES","6500 RIVER PLACE BLVD STE 200",AUSTIN,TX,78730-1156,"(512) 271-3825",https://www.centurycommunities.com/,,,
TX,WILLIAMSON,2020-68970,"Multi Family Apartments & Condos",11/19/2020,,292700,2858,"112 DRIFTWOOD HILLS WAY",GEORGETOWN,TX,78633,"GATLIN CREEK CONDO",,CONTRACTOR,,,,,,,,,,,"CENTURY COMMUNITIES",,,,,"CENTURY COMMUNITIES","6500 RIVER PLACE BLVD STE 200",AUSTIN,TX,78730-1156,"(512) 271-3825",https://www.centurycommunities.com/,,,
TX,WILLIAMSON,2020-68972,"Multi Family Apartments & Condos",11/19/2020,,289900,2858,"104 CHALK LAKE CV",GEORGETOWN,TX,78633,"GATLIN CREEK CONDO",,CONTRACTOR,,,,,,,,,,,"CENTURY COMMUNITIES",,,,,"CENTURY COMMUNITIES","6500 RIVER PLACE BLVD STE 200",AUSTIN,TX,78730-1156,"(512) 271-3825",https://www.centurycommunities.com/,,,
TX,WILLIAMSON,2020-68973,"Multi Family Apartments & Condos",11/19/2020,,289700,2851,"2216 LIMESTONE LAKE DR",GEORGETOWN,TX,78633,"GATLIN CREEK CONDO",,CONTRACTOR,,,,,,,,,,,"CENTURY COMMUNITIES",,,,,"CENTURY COMMUNITIES","6500 RIVER PLACE BLVD STE 200",AUSTIN,TX,78730-1156,"(512) 271-3825",https://www.centurycommunities.com/,,,
TX,WILLIAMSON,2020-68977,"Multi Family Apartments & Condos",11/19/2020,,279000,2817,"2208 LIMESTONE LAKE DR",GEORGETOWN,TX,78633,"GATLIN CREEK CONDO",,CONTRACTOR,,,,,,,,,,,"CENTURY COMMUNITIES",,,,,"CENTURY COMMUNITIES","6500 RIVER PLACE BLVD STE 200",AUSTIN,TX,78730-1156,"(512) 271-3825",https://www.centurycommunities.com/,,,
TX,WILLIAMSON,2020-68979,"Multi Family Apartments & Condos",11/19/2020,,289700,2851,"813 OLIVE CREEK DR",GEORGETOWN,TX,78633,"GATLIN CREEK CONDO",,CONTRACTOR,,,,,,,,,,,"CENTURY COMMUNITIES",,,,,"CENTURY COMMUNITIES","6500 RIVER PLACE BLVD STE 200",AUSTIN,TX,78730-1156,"(512) 271-3825",https://www.centurycommunities.com/,,,
TX,TRAVIS,"2020-186713 BP","Multi Family Apartments & Condos",12/10/2020,,27125725,66254,"3200 MONTOPOLIS DR BLDG 1",AUSTIN,TX,78744,"BOYD CODY",67,CONTRACTOR,,,,,,,,,,,"SKYBECK CONSTRUCTION",,,,,"SKYBECK CONSTRUCTION","3811 BEE CAVE RD STE 205","WEST LAKE HILLS",TX,78746-6459,"(512) 225-9343",http://skybeck.com/,,"BILL SKEEN",bskeen@Skybeck.com
TX,TRAVIS,"2020-186715 BP","Multi Family Apartments & Condos",12/10/2020,,27125725,35370,"3200 MONTOPOLIS DR BLDG 2",AUSTIN,TX,78744,"BOYD CODY",67,CONTRACTOR,,,,,,,,,,,"SKYBECK CONSTRUCTION",,,,,"SKYBECK CONSTRUCTION","3811 BEE CAVE RD STE 205","WEST LAKE HILLS",TX,78746-6459,"(512) 225-9343",http://skybeck.com/,,"BILL SKEEN",bskeen@Skybeck.com
TX,TRAVIS,"2020-186716 BP","Multi Family Apartments & Condos",12/10/2020,,27125725,72032,"3200 MONTOPOLIS DR BLDG 3",AUSTIN,TX,78744,"BOYD CODY",67,CONTRACTOR,,,,,,,,,,,"SKYBECK CONSTRUCTION",,,,,"SKYBECK CONSTRUCTION","3811 BEE CAVE RD STE 205","WEST LAKE HILLS",TX,78746-6459,"(512) 225-9343",http://skybeck.com/,,"BILL SKEEN",bskeen@Skybeck.com
TX,TRAVIS,"2020-186717 BP","Multi Family Apartments & Condos",12/10/2020,,27125725,52867,"3200 MONTOPOLIS DR BLDG 4",AUSTIN,TX,78744,"BOYD CODY",67,CONTRACTOR,,,,,,,,,,,"SKYBECK CONSTRUCTION",,,,,"SKYBECK CONSTRUCTION","3811 BEE CAVE RD STE 205","WEST LAKE HILLS",TX,78746-6459,"(512) 225-9343",http://skybeck.com/,,"BILL SKEEN",bskeen@Skybeck.com
TX,TRAVIS,"2020-186718 BP","Multi Family Apartments & Condos",12/10/2020,,27125725,52867,"3200 MONTOPOLIS DR BLDG 5",AUSTIN,TX,78744,"BOYD CODY",67,CONTRACTOR,,,,,,,,,,,"SKYBECK CONSTRUCTION",,,,,"SKYBECK CONSTRUCTION","3811 BEE CAVE RD STE 205","WEST LAKE HILLS",TX,78746-6459,"(512) 225-9343",http://skybeck.com/,,"BILL SKEEN",bskeen@Skybeck.com
TX,TRAVIS,"2019-179059 BP","Multi Family Apartments & Condos",12/14/2020,,55000000,39007,"6400 E RIVERSIDE DR BLDG 1",AUSTIN,TX,78741,"PEARCE DELMO",1,CONTRACTOR,,,,,,,,,,,"RIVER CITY CAPITAL PARTNERS",,,,,"RIVER CITY CAPITAL PARTNERS","300 BOWIE ST STE 106A",AUSTIN,TX,78703,"(512) 387-5885",https://www.rivercityus.com/,,,info@rivercityus.com
TX,TRAVIS,"2020-184102 BP","Multi Family Apartments & Condos",12/9/2020,,100000,2490,"1711 TUN TAVERN TRL",AUSTIN,TX,78754,MUNOS,,CONTRACTOR,,,,,,,,,,,"PROMINENCE HOMES",,,,,"PROMINENCE HOMES","1120 CAPITAL OF TEXAS HWY",AUSTIN,TX,78746,"(512) 565-9395",http://prominencehomes.co/,,,
TX,TRAVIS,"2020-185369 BP","Multi Family Apartments & Condos",12/9/2020,,162860,1916,"5406 MULBERRY GROVE LN",AUSTIN,TX,78723,TANNEHILL,,CONTRACTOR,,,,,,,,,,,"RSI COMMUNITIES",,,,,"RSI COMMUNITIES","810 HESTERS CROSSING RD STE 235","ROUND ROCK",TX,78681-7846,"(512) 953-4100",,,,
TX,TRAVIS,"2020-187336 BP","Multi Family Apartments & Condos",12/13/2020,,170765,2009,"4703 LAVENDER FIELD PATH",AUSTIN,TX,78702,TANNEHILL,,CONTRACTOR,,,,,,,,,,,"RSI COMMUNITIES",,,,,"RSI COMMUNITIES","810 HESTERS CROSSING RD STE 235","ROUND ROCK",TX,78681-7846,"(512) 953-4100",,,,
TX,TRAVIS,"2020-188178 BP","Multi Family Apartments & Condos",12/14/2020,,188340,2190,"12602 STANFORD DR",AUSTIN,TX,78652,VARCINAS,,CONTRACTOR,,,,,,,,,,,"M/I HOMES",,,,,"M/I HOMES","6801 N CAPITAL OF TEXAS HWY BLDG 2 STE 100",AUSTIN,TX,78731-1780,"(512) 770-8500",,,,
TX,TRAVIS,"2020-185392 BP","Multi Family Apartments & Condos",12/9/2020,,193000,1616,"8003 MELLENCAMP DR",AUSTIN,TX,78744,"EASTON PARK",3,CONTRACTOR,,,,,,,,,,,"BROOKFIELD RESIDENTIAL TEXAS HOMES",,,,,"BROOKFIELD RESIDENTIAL TEXAS HOMES","11501 ALTERRA PKWY STE 100",AUSTIN,TX,78758,"(512) 539-3678",,,,
TX,TRAVIS,"2020-185383 BP","Multi Family Apartments & Condos",12/9/2020,,201000,1854,"8001 MELLENCAMP DR",AUSTIN,TX,78744,"EASTON PARK",3,CONTRACTOR,,,,,,,,,,,"BROOKFIELD RESIDENTIAL TEXAS HOMES",,,,,"BROOKFIELD RESIDENTIAL TEXAS HOMES","11501 ALTERRA PKWY STE 100",AUSTIN,TX,78758,"(512) 539-3678",,,,
TX,TRAVIS,"2020-188145 BP","Multi Family Apartments & Condos",12/14/2020,,205282,2387,"12811 STANFORD DR",AUSTIN,TX,78652,VARCINAS,,CONTRACTOR,,,,,,,,,,,"M/I HOMES",,,,,"M/I HOMES","6801 N CAPITAL OF TEXAS HWY BLDG 2 STE 100",AUSTIN,TX,78731-1780,"(512) 770-8500",,,,
TX,TRAVIS,"2020-188153 BP","Multi Family Apartments & Condos",12/14/2020,,209238,2433,"12801 STANFORD DR",AUSTIN,TX,78652,VARCINAS,,CONTRACTOR,,,,,,,,,,,"M/I HOMES",,,,,"M/I HOMES","6801 N CAPITAL OF TEXAS HWY BLDG 2 STE 100",AUSTIN,TX,78731-1780,"(512) 770-8500",,,,
TX,TRAVIS,"2020-188140 BP","Multi Family Apartments & Condos",12/14/2020,,213366,2481,"12805 STANFORD DR",AUSTIN,TX,78652,VARCINAS,,CONTRACTOR,,,,,,,,,,,"M/I HOMES",,,,,"M/I HOMES","6801 N CAPITAL OF TEXAS HWY BLDG 2 STE 100",AUSTIN,TX,78731-1780,"(512) 770-8500",,,,
TX,TRAVIS,"2020-184361 BP","Multi Family Apartments & Condos",12/10/2020,,226000,1998,"8005 MELLENCAMP DR",AUSTIN,TX,78744,"EASTON PARK",3,CONTRACTOR,,,,,,,,,,,"BROOKFIELD RESIDENTIAL TEXAS HOMES",,,,,"BROOKFIELD RESIDENTIAL TEXAS HOMES","11501 ALTERRA PKWY STE 100",AUSTIN,TX,78758,"(512) 539-3678",,,,
TX,TRAVIS,"2020-188124 BP","Multi Family Apartments & Condos",12/14/2020,,250174,2909,"12905 STANFORD DR",AUSTIN,TX,78748,VARCINAS,,CONTRACTOR,,,,,,,,,,,"M/I HOMES",,,,,"M/I HOMES","6801 N CAPITAL OF TEXAS HWY BLDG 2 STE 100",AUSTIN,TX,78731-1780,"(512) 770-8500",,,,
TX,TRAVIS,"2020-188160 BP","Multi Family Apartments & Condos",12/14/2020,,255850,2975,"12807 STANFORD DR",AUSTIN,TX,78748,VARCINAS,,CONTRACTOR,,,,,,,,,,,"M/I HOMES",,,,,"M/I HOMES","6801 N CAPITAL OF TEXAS HWY BLDG 2 STE 100",AUSTIN,TX,78731-1780,"(512) 770-8500",,,,
TX,WILLIAMSON,2020-69267,"Multi Family Renovations & Additions",11/24/2020,"Finish Out",88270,1261,"4869 WILLIAMS DR DR # 105",GEORGETOWN,TX,78633,,,CONTRACTOR,,,,,,,,,,,"COCKRUM COMMERCIAL",,,,,"COCKRUM COMMERCIAL","200 SEDRO TRAIL",GEORGETOWN,TX,78633,"(512) 868-1011",https://cockrumcommercial.com/,,,
TX,TRAVIS,"2020-186719 BP","Multi Family Renovations & Additions",12/10/2020,Addition,27125725,5812,"3200 MONTOPOLIS DR",AUSTIN,TX,78744,"BOYD CODY",67,CONTRACTOR,,,,,,,,,,,"SKYBECK CONSTRUCTION",,,,,"SKYBECK CONSTRUCTION","3811 BEE CAVE RD STE 205","WEST LAKE HILLS",TX,78746-6459,"(512) 225-9343",http://skybeck.com/,,"BILL SKEEN",bskeen@Skybeck.com
TX,TRAVIS,"2020-053068 BP","Multi Family Renovations & Additions",12/11/2020,Addition,80000,1198,"1183 OAK GROVE AVE",AUSTIN,TX,78702,"HOMEWOOD HEIGHTS",35,CONTRACTOR,,,,,,,,,,,"RENOVATE ATX",,,,,"RENOVATE ATX","5609 TRAVIS GREEN LN ",AUSTIN,TX,78735,"(512) 653-4486",,,,
TX,TRAVIS,"2020-186079 BP","Multi Family Renovations & Additions",12/10/2020,Addition,200000,6456,"9019 NORTH LAKE CREEK PKWY",AUSTIN,TX,78613,,,CONTRACTOR,,,,,,,,,,,"JOURNEYMAN CONSTRUCTION",,,,,"JOURNEYMAN CONSTRUCTION","7701 N LAMAR BLVD STE 100",AUSTIN,TX,78752-1012,"(512) 247-7000",,,,
TX,WILLIAMSON,2020-58075,"Offices, R&D, & Professional",11/3/2020,,,12640,"6301 N IH 35",GEORGETOWN,TX,78633,,,CONTRACTOR,,,,,,,,,,,"ELSASSER ARCHITECTURAL",,,,,"ELSASSER ARCHITECTURAL","4112 WILLIAMS DRIVE 104",GEORGETOWN,TX,78628,"(512) 930-5353",,,,
TX,TRAVIS,"2020-187830 BP","Offices, R&D, & Professional",12/12/2020,Renovation,30000,15698,"9500 ARBORETUM BLVD UNIT 300",AUSTIN,TX,78759,"THE ARBORETUM AT GREAT HILLS",4,CONTRACTOR,,,,,,,,,,,"SABRE COMMERCIAL",,,,,"SABRE COMMERCIAL","1519 E CESAR CHAVEZ ST",AUSTIN,TX,78702-4338,"(512) 767-7400",,,,
TX,WILLIAMSON,2020-68158,"Other Commercial",11/5/2020,"Finish Out",650000,9093,"109 W 2ND ST",GEORGETOWN,TX,78626,,,CONTRACTOR,,,,,,,,,,,"VERITAS CONSTRUCTION",,,,,"VERITAS CONSTRUCTION","1540 COUNTY ROAD 262",GEORGETOWN,TX,78633-1930,"(512) 869-7997",,,,
TX,WILLIAMSON,2020-68649,"Parking Structures & Carports",11/24/2020,Renovation,850000,4330,"2100 SCENIC DR",GEORGETOWN,TX,78626,,,CONTRACTOR,,,,,,,,,,,"AUSTIN PERMIT SERVICE",,,,,"AUSTIN PERMIT SERVICE","1304 E 7TH ST",AUSTIN,TX,78702-3310,"(512) 474-4555",http://www.austinpermit.com/,"(512) 474-4557","PHIL HAUGHT",phil@austinpermit.com
TX,TRAVIS,"2020-099661 BP","Residential Garages & Carports",12/14/2020,Addition,75000,1178,"419 W JOHANNA ST",AUSTIN,TX,78704,"GILLIS SIMON",13,"SCOTT & TIMOTHY CREAMER","419 W JOHANNA ST",AUSTIN,TX,78704,,Owner,,,,,"FOURSQUARE BUILDERS",,,,,"FOURSQUARE BUILDERS","1802 W 6TH ST STE B",AUSTIN,TX,78703-5372,"(512) 751-2758",http://foursquarebuilders.com/,,,
TX,WILLIAMSON,2020-68240,"Residential Renovations & Additions",11/17/2020,Renovation,175000,1200,"3206 LONESOME TRL",GEORGETOWN,TX,78628,"REATA TRAILS",,CONTRACTOR,,,,,,,,,,,"THE STEAM TEAM",,,,,"THE STEAM TEAM","1904 W KOENIG LN",AUSTIN,TX,78756-1211,"512 451-8326",,,,
TX,WILLIAMSON,2020-68562,"Residential Renovations & Additions",11/19/2020,Addition,100000,2539,"1006 S CHURCH ST",GEORGETOWN,TX,78626,,,"THOMAS PARKS","1006 S CHURCH ST",GEORGETOWN,TX,78626,,Owner,,,,,"2WB SERVICES",,,,,"2WB SERVICES","105 WOODLAND RD",GEORGETOWN,TX,78628,"(512) 797-9875",,,,
TX,WILLIAMSON,2020-68915,"Residential Renovations & Additions",11/24/2020,Addition,40000,1066,"1226 S MAIN ST",GEORGETOWN,TX,78626,,,"BRENT & KELLY TIDWELL","1226 S MAIN ST",GEORGETOWN,TX,78626,,Owner,,,,,"DHC HOMES",,,,,"DHC HOMES","PO BOX 693",JARRELL,TX,76537,"(254) 760-7074",,,"DONALD HAIRE",
TX,TRAVIS,"2020-185652 BP","Residential Renovations & Additions",12/9/2020,Renovation,42000,1167,"4537 PACK SADDLE PASS",AUSTIN,TX,78745,"WESTERN TRAILS",27,"DORIS BARBER","4537 PACK SADDLE PASS",AUSTIN,TX,78745,,Owner,,,,,"HAPPY KARMA HOMES",,,,,"HAPPY KARMA HOMES","3903 S. CONGRESS AVENUE #41735",AUSTIN,TX,78704,"(512) 549-6467",https://happykarmahomes.com/,,,hello@happykarmahomes.com
TX,TRAVIS,"2020-184288 BP","Residential Renovations & Additions",12/10/2020,Renovation,45000,780,"212 FRANKLIN BLVD",AUSTIN,TX,78751,NORTHFIELD,159,CONTRACTOR,,,,,,,,,,,"FREEBIRD PROPERTIES",,,,,"FREEBIRD PROPERTIES","156 TRAIL OF THE FLOWERS ",GEORGETOWN,TX,78633,"(512) 586-8382",,,,
TX,TRAVIS,"2020-184115 BP","Residential Renovations & Additions",12/11/2020,Addition,83000,654,"11901 KNIGHTS BRG",AUSTIN,TX,78759,"BARRINGTON OAKS",18,"REILLY & JOSHUA PURL","11901 KNIGHTS BRG",AUSTIN,TX,78759,,Owner,,,,,"BASEY CONSTRUCTION",,,,,"BASEY CONSTRUCTION","2405 S BAGDAD RD",LEANDER,TX,78641-2307,"(512) 848-8588",,,,
TX,TRAVIS,"2020-187414 BP","Residential Renovations & Additions",12/11/2020,Renovation,141728,2874,"1520 VILLANOVA DR",AUSTIN,TX,78757,"WOOTEN PARK",95,CONTRACTOR,,,,,,,,,,,"MATTHEW MORENO",,,,,"MATTHEW MORENO","1004 BODARK LN",AUSTIN,TX,78745-5547,"(512) 749-4147",,,,
TX,TRAVIS,"2020-185200 BP","Residential Renovations & Additions",12/11/2020,Addition,200000,2609,"5324 WESTERN HILLS DR",AUSTIN,TX,78731,"HIGHLAND PARK",9,"ELIZABETH KEANEY","5324 WESTERN HILLS DR",AUSTIN,TX,78731,,Owner,,,,,"RYAN & ASSOCIATES",,,,,"RYAN & ASSOCIATES","2414 EXPOSITION BLVD STE B",AUSTIN,TX,78703-2200,"(512) 421-0800",,,,
TX,TRAVIS,"2019-039677 BP","Residential Renovations & Additions",12/10/2020,Addition,300000,352,"4700 CRESTWAY DR",AUSTIN,TX,78731,"HIGHLAND PARK",1,"WAYNE & RITA HRESKO","4700 CRESTWAY DR",AUSTIN,TX,78731,,Owner,,,,,"JADE CONSTRUCTION",,,,,"JADE CONSTRUCTION","3404 MERRIE LYNN AVE",AUSTIN,TX,78722-1611,"(512) 554-4380",,,,
TX,TRAVIS,"2020-187260 BP","Residential Renovations & Additions",12/11/2020,Addition,500000,1473,"6802 BAYRIDGE TER",AUSTIN,TX,78759,WINDRIDGE,21,"ANDREW & JULIE HARRIS","6802 BAYRIDGE TER",AUSTIN,TX,78759,,Owner,,,,,"PROPER RESIDENTIAL",,,,,"PROPER RESIDENTIAL","109 ALGARITA ST","SAN MARCOS",TX,78666-2503,"(512) 656-9662",,,,
TX,TRAVIS,"2020-143364 BP","Residential Renovations & Additions",12/10/2020,Addition,80000,1539,"1229 DELANO ST",AUSTIN,TX,78721,"LINCOLN GARDENS",11,CONTRACTOR,,,,,,,,,,,"VARELA PROPERTIES",,,,,"VARELA PROPERTIES","401 CONGRESS AVE SUITE 1540",AUSTIN,TX,78701,"(512) 687-6292",,,,
TX,TRAVIS,"2020-180733 BP","Residential Renovations & Additions",12/10/2020,Addition,185000,1623,"4417 HANK AVE",AUSTIN,TX,78745,"BANISTER ACRES",5,"MATTHEW HEJL","4417 HANK AVE",AUSTIN,TX,78745,"(512) 922-9694",Owner,,,,,OWNER,,,,,OWNER,,,,,,,,,
TX,TRAVIS,"2020-187545 BP","Residential Renovations & Additions",12/11/2020,Renovation,30350,,"2111 KENWOOD AVE",AUSTIN,TX,78704,"TRAVIS HEIGHTS",4,"GENE DAY","2111 KENWOOD AVE",AUSTIN,TX,78704,,Owner,,,,,"WINDOW WORLD",,,,,"WINDOW WORLD","4150 FREIDRICH LN STE A-1",AUSTIN,TX,78744-1065,"(512) 383-1222",,,,
TX,TRAVIS,"2020-187787 BP","Residential Renovations & Additions",12/14/2020,Renovation,31000,,"6512 LADERA NORTE",AUSTIN,TX,78731,"CAT MOUNTAIN",40,"JOE & TIFFANY GARCIA","6512 LADERA NORTE",AUSTIN,TX,78731,,Owner,,,,,"ACCOLADE EXTERIORS",,,,,"ACCOLADE EXTERIORS","6401 BURNET RD",AUSTIN,TX,78757,"(512) 288-8354",,,,
TX,TRAVIS,"2020-162510 BP","Residential Renovations & Additions",12/12/2020,Renovation,32940,,"8105 SEMINARY RIDGE DR",AUSTIN,TX,78745,SHILOH,21,"LANE WILHITE","8105 SEMINARY RIDGE DR",AUSTIN,TX,78745,,Owner,,,,,"PREMIUM SIDING & PAINTING",,,,,"PREMIUM SIDING & PAINTING","16232-B WELLS RD",MANOR,TX,78653,"(512) 997-9613",,,,
TX,TRAVIS,"2020-186503 BP","Residential Renovations & Additions",12/9/2020,Renovation,35398,,"2612 CENTURY PARK BLVD",AUSTIN,TX,78727,"WOODS OF CENTURY PARK",6,"YEN QUACH","2612 CENTURY PARK BLVD",AUSTIN,TX,78727,,Owner,,,,,"OLSHAN FOUNDATION REPAIR",,,,,"OLSHAN FOUNDATION REPAIR","1720 SE LOOP 410","SAN ANTONIO",TX,78220-4922,"(210) 495-5758",,,,
TX,TRAVIS,"2020-187201 BP","Residential Renovations & Additions",12/10/2020,Renovation,36000,,"3008 CROSSCREEK DR",AUSTIN,TX,78757,"ALLANDALE ESTATES",2,"DEANNA KUYKENDALL","3008 CROSSCREEK DR",AUSTIN,TX,78757,,Owner,,,,,"STATEWIDE REMODELING OF AUSTIN",,,,,"STATEWIDE REMODELING OF AUSTIN","2209-A RUTLAND DR STE 100A",AUSTIN,TX,78758,"(512) 453-5858",,,,
TX,TRAVIS,"2020-185960 BP","Residential Renovations & Additions",12/10/2020,Renovation,47604,,"1804 FORESTGLADE DR",AUSTIN,TX,78745,"PARK FOREST",33,"KIRK & SARAH BYERS","1804 FORESTGLADE DR",AUSTIN,TX,78745,,Owner,,,,,"RENEWAL BY ANDERSEN",,,,,"RENEWAL BY ANDERSEN","2100 KRAMER LN STE 600",AUSTIN,TX,78758-4045,"(512) 834-8383",,,,
TX,TRAVIS,"2020-185974 BP","Residential Renovations & Additions",12/10/2020,Renovation,47604,,"2300 BARTON CREEK BLVD",AUSTIN,TX,78735,,,"PARKE & PATRICIA DAVIS","2300 BARTON CREEK BLVD",AUSTIN,TX,78735,,Owner,,,,,"RENEWAL BY ANDERSEN",,,,,"RENEWAL BY ANDERSEN","2100 KRAMER LN STE 600",AUSTIN,TX,78758-4045,"(512) 834-8383",,,,
TX,TRAVIS,"2020-181101 BP","Residential Renovations & Additions",12/9/2020,Renovation,48000,,"1125 GARLAND AVE",AUSTIN,TX,78721,BROOKSDALE,2,"DANIEL LOE","1125 GARLAND AVE",AUSTIN,TX,78721,,Owner,,,,,"TEXAS HOME REDEVELOPMENT",,,,,"TEXAS HOME REDEVELOPMENT","409 DUCK LAKE DR",LAKEWAY,TX,78734-4506,"(512) 577-8467",,,,
TX,TRAVIS,"2020-187228 BP","Residential Renovations & Additions",12/10/2020,Renovation,77560,,"5901 TRABADORA CV",AUSTIN,TX,78759,"AUSTIN HILLS",10,"DONALD & LISA MCPHEE","5901 TRABADORA CV",AUSTIN,TX,78759,,Owner,,,,,"RENEWAL BY ANDERSEN",,,,,"RENEWAL BY ANDERSEN","2100 KRAMER LN STE 600",AUSTIN,TX,78758-4045,"(512) 834-8383",,,,
TX,TRAVIS,"2020-188041 BP","Residential Renovations & Additions",12/14/2020,Renovation,77560,,"1710 BAUERLE AVE",AUSTIN,TX,78704,"WEST END",20,"JOSE ALCORTA","1710 BAUERLE AVE",AUSTIN,TX,78704,,Owner,,,,,"RENEWAL BY ANDERSEN",,,,,"RENEWAL BY ANDERSEN","2100 KRAMER LN STE 600",AUSTIN,TX,78758-4045,"(512) 834-8383",,,,
TX,TRAVIS,"2020-188043 BP","Residential Renovations & Additions",12/14/2020,Renovation,77560,,"6811 BREEZY PASS",AUSTIN,TX,78749,"OAK HILL HEIGHTS",16,"EDWARD & JOAN COX","6811 BREEZY PASS",AUSTIN,TX,78749,,Owner,,,,,"RENEWAL BY ANDERSEN",,,,,"RENEWAL BY ANDERSEN","2100 KRAMER LN STE 600",AUSTIN,TX,78758-4045,"(512) 834-8383",,,,
TX,TRAVIS,"2020-188046 BP","Residential Renovations & Additions",12/14/2020,Renovation,77560,,"8807 SCOTSMAN DR",AUSTIN,TX,78750,"SPICEWOOD SPRINGS",57,"FRED & CAROLYN ICARD","8807 SCOTSMAN DR",AUSTIN,TX,78750,,Owner,,,,,"RENEWAL BY ANDERSEN",,,,,"RENEWAL BY ANDERSEN","2100 KRAMER LN STE 600",AUSTIN,TX,78758-4045,"(512) 834-8383",,,,
TX,TRAVIS,"2020-188050 BP","Residential Renovations & Additions",12/14/2020,Renovation,77560,,"4308 ESKEW DR",AUSTIN,TX,78749,"MAPLE RUN",23,"BOBBY & CARMEN HUMPHREY","4308 ESKEW DR",AUSTIN,TX,78749,,Owner,,,,,"RENEWAL BY ANDERSEN",,,,,"RENEWAL BY ANDERSEN","2100 KRAMER LN STE 600",AUSTIN,TX,78758-4045,"(512) 834-8383",,,,
TX,TRAVIS,"2020-188054 BP","Residential Renovations & Additions",12/14/2020,Renovation,77560,,"11558 SPICEWOOD PKWY",AUSTIN,TX,78750,"GARDENS OF BALCONES COMMUNITY",,CONTRACTOR,,,,,,,,,,,"RENEWAL BY ANDERSEN",,,,,"RENEWAL BY ANDERSEN","2100 KRAMER LN STE 600",AUSTIN,TX,78758-4045,"(512) 834-8383",,,,
TX,TRAVIS,"2020-188056 BP","Residential Renovations & Additions",12/14/2020,Renovation,77560,,"4815 RIVER PLACE BLVD",AUSTIN,TX,78730,"THE VILLAS AT RIVER PLACE",6,"STEPHEN & CLARA DAMMANN","4815 RIVER PLACE BLVD",AUSTIN,TX,78730,,Owner,,,,,"RENEWAL BY ANDERSEN",,,,,"RENEWAL BY ANDERSEN","2100 KRAMER LN STE 600",AUSTIN,TX,78758-4045,"(512) 834-8383",,,,
TX,TRAVIS,"2020-188065 BP","Residential Renovations & Additions",12/14/2020,Renovation,77560,,"10036 WOODLAND VILLAGE DR",AUSTIN,TX,78750,"WOODLAND VILLAGE OF ANDERSON MILL",6,CONTRACTOR,,,,,,,,,,,"RENEWAL BY ANDERSEN",,,,,"RENEWAL BY ANDERSEN","2100 KRAMER LN STE 600",AUSTIN,TX,78758-4045,"(512) 834-8383",,,,
TX,TRAVIS,"2020-188060 BP","Residential Renovations & Additions",12/14/2020,Renovation,77560,,"9108 COLBERG DR",AUSTIN,TX,78749,"CIRCLE RANCH",50,"XIAOYU & CHENG WU","9108 COLBERG DR",AUSTIN,TX,78749,,Owner,,,,,"RENEWAL BY ANDERSEN",,,,,"RENEWAL BY ANDERSEN","2100 KRAMER LN STE 600",AUSTIN,TX,78758-4045,"(512) 834-8383",,,,
TX,WILLIAMSON,2020-67547,"Residential Swimming Pools & Spas",11/6/2020,,45000,,"218 HANGING STAR LN",GEORGETOWN,TX,78633,"SUN CITY NEIGHBORHOOD",,"JEAN & OLEN STEELE","218 HANGING STAR LN",GEORGETOWN,TX,78633,,Owner,,,,,"BLUE LAGOON POOLS AND PATIOS",,,,,"BLUE LAGOON POOLS AND PATIOS","91 RAINEY STREET APARTMENT 724",AUSTIN,TX,78701,"(512) 528-5437",,,,
TX,WILLIAMSON,2020-68204,"Residential Swimming Pools & Spas",11/5/2020,,60000,,"1201 WHIPPLETREE TRL",GEORGETOWN,TX,78626,SADDLECREEK,,CONTRACTOR,,,,,,,,,,,"AUSTINTATIOUS POOLS",,,,,"AUSTINTATIOUS POOLS","12014 N LAMAR BLVD",AUSTIN,TX,78753-1801,"(512) 443-1100",,,,
TX,WILLIAMSON,2020-68331,"Residential Swimming Pools & Spas",11/10/2020,,32000,,"949 DUBINA AVE",GEORGETOWN,TX,78626,KASPER,,"AUSTIN JARMUSCH","949 DUBINA AVE",GEORGETOWN,TX,78626,,Owner,,,,,"AQUAMARINE POOLS",,,,,"AQUAMARINE POOLS","8360 N INTERSTATE 35",GEORGETOWN,TX,78626-1766,"(800) 432-8994",,,,john@aquapools.com
TX,WILLIAMSON,2020-68502,"Residential Swimming Pools & Spas",11/6/2020,,61000,,"101 CHESTNUT CT",GEORGETOWN,TX,78633,"GEORGETOWN VILLAGE",,"TREVOR & CHRISTIE HOHLSTEIN","101 CHESTNUT CT",GEORGETOWN,TX,78633,,Owner,,,,,"CODY POOLS",,,,,"CODY POOLS","2300 W PARMER LN",AUSTIN,TX,78727-4332,"(512) 835-4966",http://www.codypools.com,,"COLE NAUMAN",
TX,WILLIAMSON,2020-68715,"Residential Swimming Pools & Spas",11/17/2020,,39000,,"1407 ROWAN DR",GEORGETOWN,TX,78628,"GEORGETOWN VILLAGE",,"JEREMY & AMY TRAYNOR","1407 ROWAN DR",GEORGETOWN,TX,78628,,Owner,,,,,"CODY POOLS",,,,,"CODY POOLS","2300 W PARMER LN",AUSTIN,TX,78727-4332,"(512) 835-4966",http://www.codypools.com,,"COLE NAUMAN",
TX,WILLIAMSON,2020-68744,"Residential Swimming Pools & Spas",11/11/2020,,249000,,"1401 NE INNER LOOP",GEORGETOWN,TX,78626,STILLWATER,,CONTRACTOR,,,,,,,,,,,"DWAYNES LANDSCAPE SERVICE",,,,,"DWAYNES LANDSCAPE SERVICE","14789 ENDEAVOR WAY",ROANOKE,TX,76262-6307,"(817) 296-4669",,,,
TX,WILLIAMSON,2020-68907,"Residential Swimming Pools & Spas",11/19/2020,,90000,,"123 GREEN GROVE",GEORGETOWN,TX,78633,"SHELL RANCH",,"ELIZABETH & ANNA TYLER","123 GREEN GROVE",GEORGETOWN,TX,78633,,Owner,,,,,"CODY POOLS",,,,,"CODY POOLS","2300 W PARMER LN",AUSTIN,TX,78727-4332,"(512) 835-4966",http://www.codypools.com,,"COLE NAUMAN",
TX,WILLIAMSON,2020-68916,"Residential Swimming Pools & Spas",11/17/2020,,65000,,"120 COYOTE TRL",GEORGETOWN,TX,78633,"SUN CITY NEIGHBORHOOD",,CONTRACTOR,,,,,,,,,,,"CODY POOLS",,,,,"CODY POOLS","2300 W PARMER LN",AUSTIN,TX,78727-4332,"(512) 835-4966",http://www.codypools.com,,"COLE NAUMAN",
TX,TRAVIS,"2020-185926 BP","Residential Swimming Pools & Spas",12/9/2020,,,405,"1811 ASHBY AVE",AUSTIN,TX,78704,"SOUTH LUND",3,CONTRACTOR,,,,,,,,,,,"CODY POOLS",,,,,"CODY POOLS","2300 W PARMER LN",AUSTIN,TX,78727-4332,"(512) 835-4966",http://www.codypools.com,,"COLE NAUMAN",
TX,TRAVIS,"2020-165207 BP","Residential Swimming Pools & Spas",12/10/2020,,,50,"11905 SHADY SPRINGS RD",AUSTIN,TX,78758,"VILLAGE AT WALNUT CREEK",12,"RAFAEL & BRENDA BECKMANN","11905 SHADY SPRINGS RD",AUSTIN,TX,78758,,Owner,,,,,OWNER,,,,,OWNER,,,,,,,,,
TX,TRAVIS,"2020-186098 BP","Residential Swimming Pools & Spas",12/11/2020,,,1363,"5909 STANDING ROCK DR",AUSTIN,TX,78730,"LONG CANYON",66,"RUSSELL BAKER","5909 STANDING ROCK DR",AUSTIN,TX,78730,,Owner,,,,,"APA CONSTRUCTION",,,,,"APA CONSTRUCTION","119 BOBBY LOU DR","SAN ANTONIO",TX,78218-2002,"(210) 657-2744",,"(210) 590-4080",,
TX,TRAVIS,"2020-185490 BP","Residential Swimming Pools & Spas",12/11/2020,,,244,"4707 OAKMONT BLVD",AUSTIN,TX,78731,SHOALWOODS,2,CONTRACTOR,,,,,,,,,,,"NEWCASTLE HOMES",,,,,"NEWCASTLE HOMES","5108 AVENUE G",AUSTIN,TX,78751-2022,"(512) 454-4600",http://www.newcastlehomes.com/,,,
TX,TRAVIS,"2020-178007 BP","Residential Swimming Pools & Spas",12/9/2020,,,462,"15404 INTERLACHEN DR",AUSTIN,TX,78717,"AVERY RANCH GARDEN HOMES",,CONTRACTOR,,,,,,,,,,,"LEISURE POOLS & SPAS",,,,,"LEISURE POOLS & SPAS","3567 S INTERSTATE 35","NEW BRAUNFELS",TX,78132-5268,"(800) 997-7665",http://www.leisurepoolsusa.com,,,
TX,TRAVIS,"2020-177684 BP","Residential Swimming Pools & Spas",12/10/2020,,,573,"11121 SAVIN HILL LN",AUSTIN,TX,78739,"CIRCLE RANCH",39,"STEVE LAAS","11121 SAVIN HILL LN",AUSTIN,TX,78739,,Owner,,,,,"ATX BUILDERS, INC",,,,,"ATX BUILDERS, INC","8307 MINNESOTA LN",AUSTIN,TX,78745-6360,"(512) 589-8386",,,,
TX,TRAVIS,"2020-182831 BP","Residential Swimming Pools & Spas",12/11/2020,,,597,"2900 MILL REEF CV",AUSTIN,TX,78746,"DAVENPORT RANCH",17,"ROBIN BANISTER","2900 MILL REEF CV",AUSTIN,TX,78746,,Owner,,,,,"MILLENNIUM POOLS",,,,,"MILLENNIUM POOLS","2009 RANCH ROAD 620 N STE 710",LAKEWAY,TX,78734-2678,"(512) 266-9699",,,,
TX,TRAVIS,"2020-185154 BP","Residential Swimming Pools & Spas",12/14/2020,,,375,"11203 SPICEWOOD CLUB DR",AUSTIN,TX,78750,"SPICEWOOD AT BALCONES VILLAGE",4,"DOUGLAS & TIFFANY CUNNINGHAM","11203 SPICEWOOD CLUB DR",AUSTIN,TX,78750,,Owner,,,,,"CASTILLO CUSTOM SPACES",,,,,"CASTILLO CUSTOM SPACES","7701 COLTON BLUFF SPRING RD",AUSTIN,TX,78744,"(737) 704-1173",,,"MAURICIO CASTILLO",
TX,TRAVIS,"2020-188296 BP","Residential Swimming Pools & Spas",12/14/2020,,,441,"2950 LAGERWAY CV",AUSTIN,TX,78748,"CHERRY CREEK",38,"IAN & ELIZABETH STIRLING","2950 LAGERWAY CV",AUSTIN,TX,78748,,Owner,,,,,"CODY POOLS",,,,,"CODY POOLS","2300 W PARMER LN",AUSTIN,TX,78727-4332,"(512) 835-4966",http://www.codypools.com,,"COLE NAUMAN",
TX,TRAVIS,"2020-146724 BP","Residential Swimming Pools & Spas",12/13/2020,,40000,429,"812 WATERFALL WAY",AUSTIN,TX,78753,"THE SPRINGS OF WALNUT CREEK",49,"NATHANIEL SANDERS","812 WATERFALL WAY",AUSTIN,TX,78753,,Owner,,,,,"TEXAS POOLS & PATIOS",,,,,"TEXAS POOLS & PATIOS","601 S BELL BLVD","CEDAR PARK",TX,78613-3854,"(512) 402-1175",http://www.texaspoolsandpatios.com/,,,
TX,TRAVIS,"2020-187048 BP","Residential Swimming Pools & Spas",12/14/2020,,52488,435,"6649 WHITEMARSH VALLEY WALK",AUSTIN,TX,78746,"THE HILLS OF LOST CREEK",15,"BRYAN & BROOKE MARSHALL","6649 WHITEMARSH VALLEY WALK",AUSTIN,TX,78746,,Owner,,,,,"CODY POOLS",,,,,"CODY POOLS","2300 W PARMER LN",AUSTIN,TX,78727-4332,"(512) 835-4966",http://www.codypools.com,,"COLE NAUMAN",
TX,TRAVIS,"2020-184681 BP","Residential Swimming Pools & Spas",12/11/2020,,60000,321,"903 JOSEPHINE ST",AUSTIN,TX,78704,"OKIE HEIGHTS",14,"JILL & MATTHEW ROREM","903 JOSEPHINE ST",AUSTIN,TX,78704,,Owner,,,,,"AUSTIN OUTDOOR DESIGN",,,,,"AUSTIN OUTDOOR DESIGN","1107 S 8TH ST",AUSTIN,TX,78704-2373,"(512) 368-2001",http://www.austinlivesoutdoors.com/,,"John Fitzpatrick",info@austinoutdoordesign.com
TX,TRAVIS,"2020-186953 BP","Residential Swimming Pools & Spas",12/14/2020,,63000,407,"1901 NORTHRIDGE DR",AUSTIN,TX,78723,DELWOOD,5,"MARGARET DARBY","1901 NORTHRIDGE DR",AUSTIN,TX,78723,,Owner,,,,,"HAMPLE POOLS AND SERVICE",,,,,"HAMPLE POOLS AND SERVICE","15503 BRENDA ST",AUSTIN,TX,78728-3902,"(512) 836-0244",,,,
TX,TRAVIS,"2020-177628 BP","Residential Swimming Pools & Spas",12/10/2020,,65000,489,"5413 WOODVIEW AVE",AUSTIN,TX,78756,SHOALMONT,11,"MARY & MICHAEL MIDDLETON","5413 WOODVIEW AVE",AUSTIN,TX,78756,,Owner,,,,,"DENALI POOLS",,,,,"DENALI POOLS","1904 BRUSHY BEND DR","ROUND ROCK",TX,78681-1451,"(512) 955-6564",,,,
TX,TRAVIS,"2020-185066 BP","Residential Swimming Pools & Spas",12/10/2020,,67000,512,"4212 TALLOWOOD DR",AUSTIN,TX,78731,"NORTHWEST HILLS MESA OAKS",15,"JACOB & TRACY LIBERMAN","4212 TALLOWOOD DR",AUSTIN,TX,78731,,Owner,,,,,"ANTHONY & SYLVAN POOLS",,,,,"ANTHONY & SYLVAN POOLS","13343 N HIGHWAY 183 STE 295",AUSTIN,TX,78750-7161,"(512) 258-1232",http://www.anthonysylvan.com/,,,
TX,TRAVIS,"2020-181552 BP","Residential Swimming Pools & Spas",12/9/2020,,67500,449,"10414 BRAMBLE BERRY DR",AUSTIN,TX,78748,MALONE,50,"JOHN PATTERSON","10414 BRAMBLE BERRY DR",AUSTIN,TX,78748,,Owner,,,,,"PREMIER POOLS & SPAS",,,,,"PREMIER POOLS & SPAS","7703 N LAMAR BLVD STE 606",AUSTIN,TX,78752-1027,"(512) 470-3949",,,,
TX,TRAVIS,"2020-187215 BP","Residential Swimming Pools & Spas",12/14/2020,,69000,480,"8729 FENTON DR",AUSTIN,TX,78736,"COVERED BRIDGE",15,"VITALE & ALBA MAZO","8729 FENTON DR",AUSTIN,TX,78736,,Owner,,,,,"ANTHONY & SYLVAN POOLS",,,,,"ANTHONY & SYLVAN POOLS","13343 N HIGHWAY 183 STE 295",AUSTIN,TX,78750-7161,"(512) 258-1232",http://www.anthonysylvan.com/,,,
TX,TRAVIS,"2020-185295 BP","Residential Swimming Pools & Spas",12/9/2020,,79850,587,"2507 GREAT OAKS PKWY",AUSTIN,TX,78756,"GREAT OAKS",4,"KAREN KRAJICEK","2507 GREAT OAKS PKWY",AUSTIN,TX,78756,,Owner,,,,,"WATERVIEW POOLS",,,,,"WATERVIEW POOLS","13313 KINDER PASS",AUSTIN,TX,78727-3415,"(512) 289-7665",http://waterviewpools.com,,,
TX,TRAVIS,"2020-184424 BP","Residential Swimming Pools & Spas",12/9/2020,,84000,543,"5808 TINITA CT",AUSTIN,TX,78739,"CIRCLE RANCH",175,"MARCUS WELLEN","5808 TINITA CT",AUSTIN,TX,78739,,Owner,,,,,"ANTHONY & SYLVAN POOLS",,,,,"ANTHONY & SYLVAN POOLS","13343 N HIGHWAY 183 STE 295",AUSTIN,TX,78750-7161,"(512) 258-1232",http://www.anthonysylvan.com/,,,
TX,TRAVIS,"2020-184144 BP","Residential Swimming Pools & Spas",12/9/2020,,88000,703,"3301 AZALEA BLOSSOM DR",AUSTIN,TX,78748,"BRODIE SPRINGS",17,"ADRIA VILLARREAL","3301 AZALEA BLOSSOM DR",AUSTIN,TX,78748,,Owner,,,,,"ANTHONY & SYLVAN POOLS",,,,,"ANTHONY & SYLVAN POOLS","13343 N HIGHWAY 183 STE 295",AUSTIN,TX,78750-7161,"(512) 258-1232",http://www.anthonysylvan.com/,,,
TX,TRAVIS,"2020-187436 BP","Residential Swimming Pools & Spas",12/11/2020,,88500,560,"6625 WILTON CIR",AUSTIN,TX,78745,"CHERRY CREEK",22,"ELINOR KOSTA","6625 WILTON CIR",AUSTIN,TX,78745,,Owner,,,,,"ANTHONY & SYLVAN POOLS",,,,,"ANTHONY & SYLVAN POOLS","13343 N HIGHWAY 183 STE 295",AUSTIN,TX,78750-7161,"(512) 258-1232",http://www.anthonysylvan.com/,,,
TX,TRAVIS,"2020-188288 BP","Residential Swimming Pools & Spas",12/14/2020,,100000,579,"4005 BALCONES DR",AUSTIN,TX,78731,SILSBEE,,CONTRACTOR,,,,,,,,,,,"CASCADE CUSTOM POOLS",,,,,"CASCADE CUSTOM POOLS","215 RANCH ROAD 620 S",LAKEWAY,TX,78734-3922,"(512) 264-2453",http://www.cascadecustompools.com,,,
TX,TRAVIS,"2020-182180 BP","Residential Swimming Pools & Spas",12/11/2020,,125000,1170,"10714 WINCHELSEA DR",AUSTIN,TX,78750,"SPICEWOOD AT BULLCREEK",68,"MASOUD MOJTAHED","10714 WINCHELSEA DR",AUSTIN,TX,78750,,Owner,,,,,"LIBERTY SWIMMING POOLS & SPA",,,,,"LIBERTY SWIMMING POOLS & SPA","10837 AMBLEWOOD WAY ",AUSTIN,TX,78753,"(512) 293-4929",,,,
TX,WILLIAMSON,2020-68692,Retail,11/10/2020,Renovation,30000,461,"5721 WILLIAMS DR",GEORGETOWN,TX,78633,,,CONTRACTOR,,,,,,,,,,,"EHRLICH DESIGN BUILDERS",,,,,"EHRLICH DESIGN BUILDERS","607 RAINBOW CREEK CT",ARLINGTON,TX,76012-6207,"(800) 403-9340",http://www.ehrlichdesignbuilders.com/,"(800) 455-9380","STEVE EHRLICH",
TX,TRAVIS,"2020-184773 BP",Retail,12/10/2020,,10000000,29885,"6001 S IH 35 SVRD",AUSTIN,TX,78744,DELVALLE,,CONTRACTOR,,,,,,,,,,,"RIDGEMONT CONSTRUCTION",,,,,"RIDGEMONT CONSTRUCTION","1520 W WALNUT HILL LN",IRVING,TX,75038-3701,"(972) 251-0142",,,,
TX,WILLIAMSON,2020-68223,"Single Family Homes",11/13/2020,,249990,2203,"604 BENTON LN",GEORGETOWN,TX,78633,,,CONTRACTOR,,,,,,,,,,,"PULTE HOMES",,,,,"PULTE HOMES","9401 AMBERGLEN BLVD STE I-150",AUSTIN,TX,78729-1154,"(512) 561-4344",,,,
TX,WILLIAMSON,2020-68224,"Single Family Homes",11/18/2020,,290720,2703,"103 DEDINA DR",GEORGETOWN,TX,78628,SADDLECREEK,,CONTRACTOR,,,,,,,,,,,"CHESMAR HOMES",,,,,"CHESMAR HOMES","2900 N QUINLAN PARK RD",AUSTIN,TX,78732-6083,"(512) 233-9016",http://chesmar.com,,,
TX,WILLIAMSON,2020-68228,"Single Family Homes",11/11/2020,,287775,2522,"801 BRIDLE CREEK DR",GEORGETOWN,TX,78626,SADDLECREEK,,CONTRACTOR,,,,,,,,,,,"CHESMAR HOMES",,,,,"CHESMAR HOMES","2900 N QUINLAN PARK RD",AUSTIN,TX,78732-6083,"(512) 233-9016",http://chesmar.com,,,
TX,WILLIAMSON,2020-68230,"Single Family Homes",11/11/2020,,322125,2517,"1008 PADDOCK LN",GEORGETOWN,TX,78626,SADDLECREEK,,CONTRACTOR,,,,,,,,,,,"CHESMAR HOMES",,,,,"CHESMAR HOMES","2900 N QUINLAN PARK RD",AUSTIN,TX,78732-6083,"(512) 233-9016",http://chesmar.com,,,
TX,WILLIAMSON,2020-68232,"Single Family Homes",11/11/2020,,,2263,"956 PADDOCK LN",GEORGETOWN,TX,78626,,,CONTRACTOR,,,,,,,,,,,"CHESMAR HOMES",,,,,"CHESMAR HOMES","2900 N QUINLAN PARK RD",AUSTIN,TX,78732-6083,"(512) 233-9016",http://chesmar.com,,,
TX,WILLIAMSON,2020-68236,"Single Family Homes",11/18/2020,,332000,2517,"117 MOUNTAIN LION RD",GEORGETOWN,TX,78628,,,CONTRACTOR,,,,,,,,,,,"DREES CUSTOM HOMES",,,,,"DREES CUSTOM HOMES","7300 RANCH ROAD 2222 BLDG 2 STE 250",AUSTIN,TX,78730-3204,"(512) 241-7100",http://www.dreeshomes.com,,,
TX,WILLIAMSON,2020-68237,"Single Family Homes",11/16/2020,,420865,2927,"804 KARST CV",GEORGETOWN,TX,78628,"WATER OAK",,CONTRACTOR,,,,,,,,,,,"CHESMAR HOMES",,,,,"CHESMAR HOMES","2900 N QUINLAN PARK RD",AUSTIN,TX,78732-6083,"(512) 233-9016",http://chesmar.com,,,
TX,WILLIAMSON,2020-68249,"Single Family Homes",11/9/2020,,162825,1966,"801 LEGENDS LN",GEORGETOWN,TX,78628,"WOLF RANCH",,CONTRACTOR,,,,,,,,,,,"LENNAR HOMES",,,,,"LENNAR HOMES","13620 FM 620 RD 150",AUSTIN,TX,78717,"(512) 506-4000",http://www.lennar.com/,,,
TX,WILLIAMSON,2020-68252,"Single Family Homes",11/9/2020,,128245,1447,"805 LEGENDS LN",GEORGETOWN,TX,78628,"WOLF RANCH",,CONTRACTOR,,,,,,,,,,,"LENNAR HOMES",,,,,"LENNAR HOMES","13620 FM 620 RD 150",AUSTIN,TX,78717,"(512) 506-4000",http://www.lennar.com/,,,
TX,WILLIAMSON,2020-68254,"Single Family Homes",11/6/2020,,295440,2462,"4201 PROMONTORY POINT TRL",GEORGETOWN,TX,78626,,,CONTRACTOR,,,,,,,,,,,"MERITAGE HOMES",,,,,"MERITAGE HOMES","8920 BUSINESS PARK DR STE 250",AUSTIN,TX,78759-7622,"(512) 610-4800",,,,
TX,WILLIAMSON,2020-68255,"Single Family Homes",11/17/2020,,150670,1771,"725 LEGENDS LN",GEORGETOWN,TX,78628,,,CONTRACTOR,,,,,,,,,,,"LENNAR HOMES",,,,,"LENNAR HOMES","13620 FM 620 RD 150",AUSTIN,TX,78717,"(512) 506-4000",http://www.lennar.com/,,,
TX,WILLIAMSON,2020-68257,"Single Family Homes",11/30/2020,,394990,3760,"307 IRON RAIL LN",GEORGETOWN,TX,78633,,,CONTRACTOR,,,,,,,,,,,"PULTE HOMES",,,,,"PULTE HOMES","9401 AMBERGLEN BLVD STE I-150",AUSTIN,TX,78729-1154,"(512) 561-4344",,,,
TX,WILLIAMSON,2020-68258,"Single Family Homes",11/30/2020,,229990,1881,"618 BENTON LN",GEORGETOWN,TX,78633,,,CONTRACTOR,,,,,,,,,,,"PULTE HOMES",,,,,"PULTE HOMES","9401 AMBERGLEN BLVD STE I-150",AUSTIN,TX,78729-1154,"(512) 561-4344",,,,
TX,WILLIAMSON,2020-68260,"Single Family Homes",11/9/2020,,200460,2532,"721 LEGENDS LN",GEORGETOWN,TX,78628,,,CONTRACTOR,,,,,,,,,,,"LENNAR HOMES",,,,,"LENNAR HOMES","13620 FM 620 RD 150",AUSTIN,TX,78717,"(512) 506-4000",http://www.lennar.com/,,,
TX,WILLIAMSON,2020-68261,"Single Family Homes",11/9/2020,,163345,2022,"106 COYOTE MOUNTAIN CV",GEORGETOWN,TX,78633,"WOLF RANCH",,CONTRACTOR,,,,,,,,,,,"LENNAR HOMES",,,,,"LENNAR HOMES","13620 FM 620 RD 150",AUSTIN,TX,78717,"(512) 506-4000",http://www.lennar.com/,,,
TX,WILLIAMSON,2020-68262,"Single Family Homes",11/9/2020,,444878,5173,"125 BARTON RUN DR",GEORGETOWN,TX,78628,"SHADOW CANYON",,CONTRACTOR,,,,,,,,,,,"GEHAN HOMES",,,,,"GEHAN HOMES","3815 S CAPITAL OF TEXAS HWY STE 275",AUSTIN,TX,78704-6652,"(512) 330-9366",http://www.gehanhomes.com,,"JANET PHILLIPS",
TX,WILLIAMSON,2020-68263,"Single Family Homes",11/9/2020,,364038,4233,"202 BARTON RUN DR",GEORGETOWN,TX,78628,"SHADOW CANYON",,CONTRACTOR,,,,,,,,,,,"GEHAN HOMES",,,,,"GEHAN HOMES","3815 S CAPITAL OF TEXAS HWY STE 275",AUSTIN,TX,78704-6652,"(512) 330-9366",http://www.gehanhomes.com,,"JANET PHILLIPS",
TX,WILLIAMSON,2020-68266,"Single Family Homes",11/9/2020,,140985,1645,"110 COYOTE MOUNTAIN CV",GEORGETOWN,TX,78633,"WOLF RANCH",,CONTRACTOR,,,,,,,,,,,"LENNAR HOMES",,,,,"LENNAR HOMES","13620 FM 620 RD 150",AUSTIN,TX,78717,"(512) 506-4000",http://www.lennar.com/,,,
TX,WILLIAMSON,2020-68272,"Single Family Homes",11/16/2020,,347247,2961,"137 HIGH PLAINS DR",GEORGETOWN,TX,78628,,,CONTRACTOR,,,,,,,,,,,"CHESMAR HOMES",,,,,"CHESMAR HOMES","2900 N QUINLAN PARK RD",AUSTIN,TX,78732-6083,"(512) 233-9016",http://chesmar.com,,,
TX,WILLIAMSON,2020-68277,"Single Family Homes",11/30/2020,,330990,2914,"212 SPANISH STAR ST",GEORGETOWN,TX,78633,"SUN CITY NEIGHBORHOOD",,CONTRACTOR,,,,,,,,,,,"PULTE HOMES",,,,,"PULTE HOMES","9401 AMBERGLEN BLVD STE I-150",AUSTIN,TX,78729-1154,"(512) 561-4344",,,,
TX,WILLIAMSON,2020-68279,"Single Family Homes",11/17/2020,,153252,1782,"221 BENMYRTLE TRL",GEORGETOWN,TX,78626,"MOURNING DOVE",,CONTRACTOR,,,,,,,,,,,"KB HOME",,,,,"KB HOME","10800 PECAN PARK BLVD STE 200",AUSTIN,TX,78750-1249,"(512) 651-8100",,,,
TX,WILLIAMSON,2020-68285,"Single Family Homes",11/17/2020,,153252,1782,"509 THUNDER VALLEY TRL",GEORGETOWN,TX,78626,"MOURNING DOVE",,CONTRACTOR,,,,,,,,,,,"KB HOME",,,,,"KB HOME","10800 PECAN PARK BLVD STE 200",AUSTIN,TX,78750-1249,"(512) 651-8100",,,,
TX,WILLIAMSON,2020-68296,"Single Family Homes",11/12/2020,,153252,1782,"425 THUNDER VALLEY TRL",GEORGETOWN,TX,78626,"MOURNING DOVE",,CONTRACTOR,,,,,,,,,,,"KB HOME",,,,,"KB HOME","10800 PECAN PARK BLVD STE 200",AUSTIN,TX,78750-1249,"(512) 651-8100",,,,
TX,WILLIAMSON,2020-68297,"Single Family Homes",11/17/2020,,228932,2662,"421 THUNDER VALLEY TRL",GEORGETOWN,TX,78626,,,CONTRACTOR,,,,,,,,,,,"KB HOME",,,,,"KB HOME","10800 PECAN PARK BLVD STE 200",AUSTIN,TX,78750-1249,"(512) 651-8100",,,,
TX,WILLIAMSON,2020-68298,"Single Family Homes",11/12/2020,,153252,1782,"413 THUNDER VALLEY TRL",GEORGETOWN,TX,78626,"MOURNING DOVE",,CONTRACTOR,,,,,,,,,,,"KB HOME",,,,,"KB HOME","10800 PECAN PARK BLVD STE 200",AUSTIN,TX,78750-1249,"(512) 651-8100",,,,
TX,WILLIAMSON,2020-68301,"Single Family Homes",11/17/2020,,228932,2662,"526 THUNDER VALLEY TRL",GEORGETOWN,TX,78626,"MOURNING DOVE",,CONTRACTOR,,,,,,,,,,,"KB HOME",,,,,"KB HOME","10800 PECAN PARK BLVD STE 200",AUSTIN,TX,78750-1249,"(512) 651-8100",,,,
TX,WILLIAMSON,2020-68303,"Single Family Homes",11/17/2020,,253528,2948,"446 THUNDER VALLEY TRL",GEORGETOWN,TX,78626,"MOURNING DOVE",,CONTRACTOR,,,,,,,,,,,"KB HOME",,,,,"KB HOME","10800 PECAN PARK BLVD STE 200",AUSTIN,TX,78750-1249,"(512) 651-8100",,,,
TX,WILLIAMSON,2020-68334,"Single Family Homes",11/10/2020,,139295,1446,"700 LEGENDS LN",GEORGETOWN,TX,78626,,,CONTRACTOR,,,,,,,,,,,"LENNAR HOMES",,,,,"LENNAR HOMES","13620 FM 620 RD 150",AUSTIN,TX,78717,"(512) 506-4000",http://www.lennar.com/,,,
TX,WILLIAMSON,2020-68378,"Single Family Homes",11/22/2020,,394990,3625,"703 HAVENHILLS LN",GEORGETOWN,TX,78633,"SUN CITY",,CONTRACTOR,,,,,,,,,,,"PULTE HOMES",,,,,"PULTE HOMES","9401 AMBERGLEN BLVD STE I-150",AUSTIN,TX,78729-1154,"(512) 561-4344",,,,
TX,WILLIAMSON,2020-68392,"Single Family Homes",11/20/2020,,383750,3003,"616 PECAN BOTTOM TRL",GEORGETOWN,TX,78628,"WOLF RANCH",,CONTRACTOR,,,,,,,,,,,"HIGHLAND HOMES",,,,,"HIGHLAND HOMES","4201 W PARMER LN STE B180",AUSTIN,TX,78727-4110,"(512) 834-8429",,,,
TX,WILLIAMSON,2020-68395,"Single Family Homes",11/20/2020,,373115,2536,"644 PECAN BOTTOM TRL",GEORGETOWN,TX,78628,"WOLF RANCH",,CONTRACTOR,,,,,,,,,,,"HIGHLAND HOMES",,,,,"HIGHLAND HOMES","4201 W PARMER LN STE B180",AUSTIN,TX,78727-4110,"(512) 834-8429",,,,
TX,WILLIAMSON,2020-68399,"Single Family Homes",11/30/2020,,416990,4125,"203 IRON RAIL LN",GEORGETOWN,TX,78633,"SUN CITY",,CONTRACTOR,,,,,,,,,,,"PULTE HOMES",,,,,"PULTE HOMES","9401 AMBERGLEN BLVD STE I-150",AUSTIN,TX,78729-1154,"(512) 561-4344",,,,
TX,WILLIAMSON,2020-68497,"Single Family Homes",11/12/2020,,295440,2462,"101 BIRKSHIRE DR",GEORGETOWN,TX,78626,"VISTA POINTE",,CONTRACTOR,,,,,,,,,,,"MERITAGE HOMES",,,,,"MERITAGE HOMES","8920 BUSINESS PARK DR STE 250",AUSTIN,TX,78759-7622,"(512) 610-4800",,,,
TX,WILLIAMSON,2020-68543,"Single Family Homes",11/18/2020,,197866,2301,"413 PEACE PIPE WAY",GEORGETOWN,TX,78628,,,CONTRACTOR,,,,,,,,,,,"DR HORTON",,,,,"DR HORTON","10700 PECAN PARK BLVD STE 400",AUSTIN,TX,78750-1227,"(512) 345-4663",,,,
TX,WILLIAMSON,2020-68546,"Single Family Homes",11/18/2020,,218268,2538,"1236 BEAR TRACK LOOP",GEORGETOWN,TX,78628,,,CONTRACTOR,,,,,,,,,,,"DR HORTON",,,,,"DR HORTON","10700 PECAN PARK BLVD STE 400",AUSTIN,TX,78750-1227,"(512) 345-4663",,,,
TX,WILLIAMSON,2020-68547,"Single Family Homes",11/17/2020,,213194,2479,"1221 BEAR TRACK LOOP",GEORGETOWN,TX,78628,,,CONTRACTOR,,,,,,,,,,,"DR HORTON",,,,,"DR HORTON","10700 PECAN PARK BLVD STE 400",AUSTIN,TX,78750-1227,"(512) 345-4663",,,,
TX,WILLIAMSON,2020-68549,"Single Family Homes",11/17/2020,,269094,3129,"1017 BEAR TRACK LOOP",GEORGETOWN,TX,78268,,,CONTRACTOR,,,,,,,,,,,"DR HORTON",,,,,"DR HORTON","10700 PECAN PARK BLVD STE 400",AUSTIN,TX,78750-1227,"(512) 345-4663",,,,
TX,WILLIAMSON,2020-68552,"Single Family Homes",11/18/2020,,197886,2301,"1005 BEAR TRACK LOOP",GEORGETOWN,TX,78628,,,CONTRACTOR,,,,,,,,,,,"DR HORTON",,,,,"DR HORTON","10700 PECAN PARK BLVD STE 400",AUSTIN,TX,78750-1227,"(512) 345-4663",,,,
TX,WILLIAMSON,2020-68554,"Single Family Homes",11/17/2020,,184470,2145,"304 PEACE PIPE WAY",GEORGETOWN,TX,78628,,,CONTRACTOR,,,,,,,,,,,"DR HORTON",,,,,"DR HORTON","10700 PECAN PARK BLVD STE 400",AUSTIN,TX,78750-1227,"(512) 345-4663",,,,
TX,WILLIAMSON,2020-68556,"Single Family Homes",11/17/2020,,197886,2301,"316 PEACE PIPE WAY",GEORGETOWN,TX,78628,,,CONTRACTOR,,,,,,,,,,,"DR HORTON",,,,,"DR HORTON","10700 PECAN PARK BLVD STE 400",AUSTIN,TX,78750-1227,"(512) 345-4663",,,,
TX,WILLIAMSON,2020-68557,"Single Family Homes",11/17/2020,,269094,3129,"324 PEACE PIPE WAY",GEORGETOWN,TX,78628,,,CONTRACTOR,,,,,,,,,,,"DR HORTON",,,,,"DR HORTON","10700 PECAN PARK BLVD STE 400",AUSTIN,TX,78750-1227,"(512) 345-4663",,,,
TX,WILLIAMSON,2020-68558,"Single Family Homes",11/16/2020,,197886,2301,"321 PEACE PIPE WAY",GEORGETOWN,TX,78628,"SHADOW CANYON",,CONTRACTOR,,,,,,,,,,,"DR HORTON",,,,,"DR HORTON","10700 PECAN PARK BLVD STE 400",AUSTIN,TX,78750-1227,"(512) 345-4663",,,,
TX,WILLIAMSON,2020-68560,"Single Family Homes",11/17/2020,,2131974,2479,"325 PEACE PIPE WAY",GEORGETOWN,TX,78628,,,CONTRACTOR,,,,,,,,,,,"DR HORTON",,,,,"DR HORTON","10700 PECAN PARK BLVD STE 400",AUSTIN,TX,78750-1227,"(512) 345-4663",,,,
TX,WILLIAMSON,2020-68576,"Single Family Homes",11/23/2020,,245990,2241,"118 YORKTOWN ST",GEORGETOWN,TX,78633,,,CONTRACTOR,,,,,,,,,,,"PULTE HOMES",,,,,"PULTE HOMES","9401 AMBERGLEN BLVD STE I-150",AUSTIN,TX,78729-1154,"(512) 561-4344",,,,
TX,WILLIAMSON,2020-68610,"Single Family Homes",11/22/2020,,392990,3142,"100 IRON RAIL LN",GEORGETOWN,TX,78633,"SUN CITY",,CONTRACTOR,,,,,,,,,,,"PULTE HOMES",,,,,"PULTE HOMES","9401 AMBERGLEN BLVD STE I-150",AUSTIN,TX,78729-1154,"(512) 561-4344",,,,
TX,WILLIAMSON,2020-68611,"Single Family Homes",11/13/2020,,,2161,"720 KITTY HAWK RD",GEORGETOWN,TX,78633,,,CONTRACTOR,,,,,,,,,,,"PULTE HOMES",,,,,"PULTE HOMES","9401 AMBERGLEN BLVD STE I-150",AUSTIN,TX,78729-1154,"(512) 561-4344",,,,
TX,WILLIAMSON,2020-68612,"Single Family Homes",11/30/2020,,307990,2670,"133 SPANISH STAR ST",GEORGETOWN,TX,78633,"SUN CITY NEIGHBORHOOD",,CONTRACTOR,,,,,,,,,,,"PULTE HOMES",,,,,"PULTE HOMES","9401 AMBERGLEN BLVD STE I-150",AUSTIN,TX,78729-1154,"(512) 561-4344",,,,
TX,WILLIAMSON,2020-68614,"Single Family Homes",11/30/2020,,247990,2246,"704 BENTON LN",GEORGETOWN,TX,78633,"SUN CITY",,CONTRACTOR,,,,,,,,,,,"PULTE HOMES",,,,,"PULTE HOMES","9401 AMBERGLEN BLVD STE I-150",AUSTIN,TX,78729-1154,"(512) 561-4344",,,,
TX,WILLIAMSON,2020-68615,"Single Family Homes",11/22/2020,,251990,2165,"613 BENTON LN",GEORGETOWN,TX,78633,,,CONTRACTOR,,,,,,,,,,,"PULTE HOMES",,,,,"PULTE HOMES","9401 AMBERGLEN BLVD STE I-150",AUSTIN,TX,78729-1154,"(512) 561-4344",,,,
TX,WILLIAMSON,2020-68617,"Single Family Homes",11/17/2020,,197886,2301,"225 PEACE PIPE WAY",GEORGETOWN,TX,78628,"SHADOW CANYON",,CONTRACTOR,,,,,,,,,,,"DR HORTON",,,,,"DR HORTON","10700 PECAN PARK BLVD STE 400",AUSTIN,TX,78750-1227,"(512) 345-4663",,,,
TX,WILLIAMSON,2020-68618,"Single Family Homes",11/30/2020,,247990,2246,"209 YORKTOWN ST",GEORGETOWN,TX,78633,,,CONTRACTOR,,,,,,,,,,,"PULTE HOMES",,,,,"PULTE HOMES","9401 AMBERGLEN BLVD STE I-150",AUSTIN,TX,78729-1154,"(512) 561-4344",,,,
TX,WILLIAMSON,2020-68619,"Single Family Homes",11/17/2020,,213194,2479,"301 PEACE PIPE WAY",GEORGETOWN,TX,78628,"SHADOW CANYON",,CONTRACTOR,,,,,,,,,,,"DR HORTON",,,,,"DR HORTON","10700 PECAN PARK BLVD STE 400",AUSTIN,TX,78750-1227,"(512) 345-4663",,,,
TX,WILLIAMSON,2020-68620,"Single Family Homes",11/12/2020,,228932,2662,"501 THUNDER VALLEY TRL",GEORGETOWN,TX,78626,"MOURNING DOVE",,CONTRACTOR,,,,,,,,,,,"KB HOME",,,,,"KB HOME","10800 PECAN PARK BLVD STE 200",AUSTIN,TX,78750-1249,"(512) 651-8100",,,,
TX,WILLIAMSON,2020-68627,"Single Family Homes",11/13/2020,,236990,1971,"2208 CLIFFBRAKE WAY",GEORGETOWN,TX,78626,"CARLSON PLACE",,CONTRACTOR,,,,,,,,,,,"PULTE HOMES",,,,,"PULTE HOMES","9401 AMBERGLEN BLVD STE I-150",AUSTIN,TX,78729-1154,"(512) 561-4344",,,,
TX,WILLIAMSON,2020-68650,"Single Family Homes",11/16/2020,,205368,2388,"6301 KILDARE DR",GEORGETOWN,TX,78626,"GATLIN CROSSING",,CONTRACTOR,,,,,,,,,,,"DR HORTON",,,,,"DR HORTON","10700 PECAN PARK BLVD STE 400",AUSTIN,TX,78750-1227,"(512) 345-4663",,,,
TX,WILLIAMSON,2020-68682,"Single Family Homes",11/16/2020,,347520,2522,"145 HIGH PLAINS DR",GEORGETOWN,TX,78628,"WATER OAK",,CONTRACTOR,,,,,,,,,,,"CHESMAR HOMES",,,,,"CHESMAR HOMES","2900 N QUINLAN PARK RD",AUSTIN,TX,78732-6083,"(512) 233-9016",http://chesmar.com,,,
TX,WILLIAMSON,2020-68697,"Single Family Homes",11/17/2020,,213194,2479,"1013 BEAR TRACK LOOP",GEORGETOWN,TX,78628,"SHADOW CANYON",,CONTRACTOR,,,,,,,,,,,"DR HORTON",,,,,"DR HORTON","10700 PECAN PARK BLVD STE 400",AUSTIN,TX,78750-1227,"(512) 345-4663",,,,
TX,WILLIAMSON,2020-68701,"Single Family Homes",11/16/2020,,457655,3520,"1219 LEANING OAK LN",GEORGETOWN,TX,78628,"WATER OAK",,CONTRACTOR,,,,,,,,,,,"CHESMAR HOMES",,,,,"CHESMAR HOMES","2900 N QUINLAN PARK RD",AUSTIN,TX,78732-6083,"(512) 233-9016",http://chesmar.com,,,
TX,WILLIAMSON,2020-68702,"Single Family Homes",11/16/2020,,344985,2517,"140 HIGH PLAINS DR",GEORGETOWN,TX,78628,"WATER OAK",,CONTRACTOR,,,,,,,,,,,"CHESMAR HOMES",,,,,"CHESMAR HOMES","2900 N QUINLAN PARK RD",AUSTIN,TX,78732-6083,"(512) 233-9016",http://chesmar.com,,,
TX,WILLIAMSON,2020-68711,"Single Family Homes",11/22/2020,,282990,2466,"510 GEORGIA LACE TRL",GEORGETOWN,TX,78626,"HIDDEN OAK",,CONTRACTOR,,,,,,,,,,,"PULTE HOMES",,,,,"PULTE HOMES","9401 AMBERGLEN BLVD STE I-150",AUSTIN,TX,78729-1154,"(512) 561-4344",,,,
TX,WILLIAMSON,2020-68714,"Single Family Homes",11/30/2020,,321990,2864,"131 SPANISH STAR ST",GEORGETOWN,TX,78633,"SUN CITY NEIGHBORHOOD",,CONTRACTOR,,,,,,,,,,,"PULTE HOMES",,,,,"PULTE HOMES","9401 AMBERGLEN BLVD STE I-150",AUSTIN,TX,78729-1154,"(512) 561-4344",,,,
TX,WILLIAMSON,2020-68724,"Single Family Homes",11/20/2020,,161280,2304,"1216 WHIPPLETREE TRL",GEORGETOWN,TX,78626,SADDLECREEK,,CONTRACTOR,,,,,,,,,,,"CASTLEROCK COMMUNITIES",,,,,"CASTLEROCK COMMUNITIES","7670 WOODWAY DR STE 300",HOUSTON,TX,77063-1520,"(713) 600-7000",http://c-rock.com,"(713) 600-0000",,
TX,WILLIAMSON,2020-68726,"Single Family Homes",11/20/2020,,150990,2157,"1120 WHIPPLETREE TRL",GEORGETOWN,TX,78626,SADDLECREEK,,CONTRACTOR,,,,,,,,,,,"CASTLEROCK COMMUNITIES",,,,,"CASTLEROCK COMMUNITIES","7670 WOODWAY DR STE 300",HOUSTON,TX,77063-1520,"(713) 600-7000",http://c-rock.com,"(713) 600-0000",,
TX,WILLIAMSON,2020-68764,"Single Family Homes",11/13/2020,,268500,2470,"1509 WHIPPLETREE TRL",GEORGETOWN,TX,78626,SADDLECREEK,,CONTRACTOR,,,,,,,,,,,"CENTURY COMMUNITIES",,,,,"CENTURY COMMUNITIES","6500 RIVER PLACE BLVD STE 200",AUSTIN,TX,78730-1156,"(512) 271-3825",https://www.centurycommunities.com/,,,
TX,WILLIAMSON,2020-68767,"Single Family Homes",11/24/2020,,228600,2332,"105 PERUVIAN LN",GEORGETOWN,TX,78626,SADDLECREEK,,CONTRACTOR,,,,,,,,,,,"CENTURY COMMUNITIES",,,,,"CENTURY COMMUNITIES","6500 RIVER PLACE BLVD STE 200",AUSTIN,TX,78730-1156,"(512) 271-3825",https://www.centurycommunities.com/,,,
TX,WILLIAMSON,2020-68780,"Single Family Homes",11/22/2020,,308990,3151,"113 GEORGIA LACE TRL",GEORGETOWN,TX,78626,"HIDDEN OAK",,CONTRACTOR,,,,,,,,,,,"PULTE HOMES",,,,,"PULTE HOMES","9401 AMBERGLEN BLVD STE I-150",AUSTIN,TX,78729-1154,"(512) 561-4344",,,,
TX,WILLIAMSON,2020-68790,"Single Family Homes",11/17/2020,,451200,3760,"113 PENBROOKE CV",GEORGETOWN,TX,78626,"VISTA POINTE",,CONTRACTOR,,,,,,,,,,,"MERITAGE HOMES",,,,,"MERITAGE HOMES","8920 BUSINESS PARK DR STE 250",AUSTIN,TX,78759-7622,"(512) 610-4800",,,,
TX,WILLIAMSON,2020-68791,"Single Family Homes",11/18/2020,,346560,2888,"1116 HIGHWATER DR",GEORGETOWN,TX,78628,,,CONTRACTOR,,,,,,,,,,,"MERITAGE HOMES",,,,,"MERITAGE HOMES","8920 BUSINESS PARK DR STE 250",AUSTIN,TX,78759-7622,"(512) 610-4800",,,,
TX,WILLIAMSON,2020-68792,"Single Family Homes",11/18/2020,,463920,3866,"1204 HIGHWATER DR",GEORGETOWN,TX,78628,"WATER OAK",,CONTRACTOR,,,,,,,,,,,"MERITAGE HOMES",,,,,"MERITAGE HOMES","8920 BUSINESS PARK DR STE 250",AUSTIN,TX,78759-7622,"(512) 610-4800",,,,
TX,WILLIAMSON,2020-68795,"Single Family Homes",11/18/2020,,313080,2609,"2109 PRAIRIE OAKS DR",GEORGETOWN,TX,78628,"WATER OAK",,CONTRACTOR,,,,,,,,,,,"MERITAGE HOMES",,,,,"MERITAGE HOMES","8920 BUSINESS PARK DR STE 250",AUSTIN,TX,78759-7622,"(512) 610-4800",,,,
TX,WILLIAMSON,2020-68799,"Single Family Homes",11/17/2020,,267900,2044,"120 PERUVIAN LN",GEORGETOWN,TX,78626,SADDLECREEK,,CONTRACTOR,,,,,,,,,,,"CENTURY COMMUNITIES",,,,,"CENTURY COMMUNITIES","6500 RIVER PLACE BLVD STE 200",AUSTIN,TX,78730-1156,"(512) 271-3825",https://www.centurycommunities.com/,,,
TX,WILLIAMSON,2020-68801,"Single Family Homes",11/18/2020,,389040,3242,"1208 HIGHWATER DR",GEORGETOWN,TX,78628,"WATER OAK",,CONTRACTOR,,,,,,,,,,,"MERITAGE HOMES",,,,,"MERITAGE HOMES","8920 BUSINESS PARK DR STE 250",AUSTIN,TX,78759-7622,"(512) 610-4800",,,,
TX,WILLIAMSON,2020-68802,"Single Family Homes",11/18/2020,,454080,3784,"1220 LEANING OAK LN",GEORGETOWN,TX,78628,"WATER OAK",,CONTRACTOR,,,,,,,,,,,"MERITAGE HOMES",,,,,"MERITAGE HOMES","8920 BUSINESS PARK DR STE 250",AUSTIN,TX,78759-7622,"(512) 610-4800",,,,
TX,WILLIAMSON,2020-68803,"Single Family Homes",11/18/2020,,345160,2961,"109 HIGH PLAINS DR",GEORGETOWN,TX,78628,"WATER OAK",,CONTRACTOR,,,,,,,,,,,"CHESMAR HOMES",,,,,"CHESMAR HOMES","2900 N QUINLAN PARK RD",AUSTIN,TX,78732-6083,"(512) 233-9016",http://chesmar.com,,,
TX,WILLIAMSON,2020-68804,"Single Family Homes",11/18/2020,,316450,2517,"1020 PADDOCK LN",GEORGETOWN,TX,78628,SADDLECREEK,,CONTRACTOR,,,,,,,,,,,"CHESMAR HOMES",,,,,"CHESMAR HOMES","2900 N QUINLAN PARK RD",AUSTIN,TX,78732-6083,"(512) 233-9016",http://chesmar.com,,,
TX,WILLIAMSON,2020-68806,"Single Family Homes",11/18/2020,,287845,2551,"700 BRIDLE CREEK DR",GEORGETOWN,TX,78626,,,CONTRACTOR,,,,,,,,,,,"CHESMAR HOMES",,,,,"CHESMAR HOMES","2900 N QUINLAN PARK RD",AUSTIN,TX,78732-6083,"(512) 233-9016",http://chesmar.com,,,
TX,WILLIAMSON,2020-68807,"Single Family Homes",11/18/2020,,248480,1887,"601 PADDOCK LN",GEORGETOWN,TX,78628,SADDLECREEK,,CONTRACTOR,,,,,,,,,,,"CHESMAR HOMES",,,,,"CHESMAR HOMES","2900 N QUINLAN PARK RD",AUSTIN,TX,78732-6083,"(512) 233-9016",http://chesmar.com,,,
TX,WILLIAMSON,2020-68808,"Single Family Homes",11/22/2020,,419990,4045,"104 SPLIT DIAMOND CV",GEORGETOWN,TX,78633,"SUN CITY NEIGHBORHOOD",,CONTRACTOR,,,,,,,,,,,"PULTE HOMES",,,,,"PULTE HOMES","9401 AMBERGLEN BLVD STE I-150",AUSTIN,TX,78729-1154,"(512) 561-4344",,,,
TX,WILLIAMSON,2020-68812,"Single Family Homes",11/24/2020,,275900,2044,"1521 WHIPPLETREE TRL",GEORGETOWN,TX,78626,SADDLECREEK,,CONTRACTOR,,,,,,,,,,,"CENTURY COMMUNITIES",,,,,"CENTURY COMMUNITIES","6500 RIVER PLACE BLVD STE 200",AUSTIN,TX,78730-1156,"(512) 271-3825",https://www.centurycommunities.com/,,,
TX,WILLIAMSON,2020-68815,"Single Family Homes",11/19/2020,,284000,2552,"116 PERUVIAN LN",GEORGETOWN,TX,78626,SADDLECREEK,,CONTRACTOR,,,,,,,,,,,"CENTURY COMMUNITIES",,,,,"CENTURY COMMUNITIES","6500 RIVER PLACE BLVD STE 200",AUSTIN,TX,78730-1156,"(512) 271-3825",https://www.centurycommunities.com/,,,
TX,WILLIAMSON,2020-68816,"Single Family Homes",11/24/2020,,285000,3150,"124 PERUVIAN LN",GEORGETOWN,TX,78626,SADDLECREEK,,CONTRACTOR,,,,,,,,,,,"CENTURY COMMUNITIES",,,,,"CENTURY COMMUNITIES","6500 RIVER PLACE BLVD STE 200",AUSTIN,TX,78730-1156,"(512) 271-3825",https://www.centurycommunities.com/,,,
TX,WILLIAMSON,2020-68818,"Single Family Homes",11/19/2020,,268000,2679,"1513 WHIPPLETREE TRL",GEORGETOWN,TX,78626,SADDLECREEK,,CONTRACTOR,,,,,,,,,,,"CENTURY COMMUNITIES",,,,,"CENTURY COMMUNITIES","6500 RIVER PLACE BLVD STE 200",AUSTIN,TX,78730-1156,"(512) 271-3825",https://www.centurycommunities.com/,,,
TX,WILLIAMSON,2020-68819,"Single Family Homes",11/22/2020,,268700,2338,"1517 WHIPPLETREE TRL",GEORGETOWN,TX,78626,SADDLECREEK,,CONTRACTOR,,,,,,,,,,,"CENTURY COMMUNITIES",,,,,"CENTURY COMMUNITIES","6500 RIVER PLACE BLVD STE 200",AUSTIN,TX,78730-1156,"(512) 271-3825",https://www.centurycommunities.com/,,,
TX,WILLIAMSON,2020-68820,"Single Family Homes",11/22/2020,,220000,2412,"100 PERUVIAN LN",GEORGETOWN,TX,78626,SADDLECREEK,,CONTRACTOR,,,,,,,,,,,"CENTURY COMMUNITIES",,,,,"CENTURY COMMUNITIES","6500 RIVER PLACE BLVD STE 200",AUSTIN,TX,78730-1156,"(512) 271-3825",https://www.centurycommunities.com/,,,
TX,WILLIAMSON,2020-68821,"Single Family Homes",11/24/2020,,231900,2644,"104 PERUVIAN LN",GEORGETOWN,TX,78626,SADDLECREEK,,CONTRACTOR,,,,,,,,,,,"CENTURY COMMUNITIES",,,,,"CENTURY COMMUNITIES","6500 RIVER PLACE BLVD STE 200",AUSTIN,TX,78730-1156,"(512) 271-3825",https://www.centurycommunities.com/,,,
TX,WILLIAMSON,2020-68822,"Single Family Homes",11/22/2020,,289000,2478,"108 PERUVIAN LN",GEORGETOWN,TX,78626,SADDLECREEK,,CONTRACTOR,,,,,,,,,,,"CENTURY COMMUNITIES",,,,,"CENTURY COMMUNITIES","6500 RIVER PLACE BLVD STE 200",AUSTIN,TX,78730-1156,"(512) 271-3825",https://www.centurycommunities.com/,,,
TX,WILLIAMSON,2020-68823,"Single Family Homes",11/22/2020,,416990,4045,"200 IRON RAIL LN",GEORGETOWN,TX,78633,,,CONTRACTOR,,,,,,,,,,,"PULTE HOMES",,,,,"PULTE HOMES","9401 AMBERGLEN BLVD STE I-150",AUSTIN,TX,78729-1154,"(512) 561-4344",,,,
TX,WILLIAMSON,2020-68824,"Single Family Homes",11/22/2020,,389990,3306,"705 HAVENHILLS LN",GEORGETOWN,TX,78633,"SUN CITY",,CONTRACTOR,,,,,,,,,,,"PULTE HOMES",,,,,"PULTE HOMES","9401 AMBERGLEN BLVD STE I-150",AUSTIN,TX,78729-1154,"(512) 561-4344",,,,
TX,WILLIAMSON,2020-68826,"Single Family Homes",11/22/2020,,416990,4939,"704 HAVENHILLS LN",GEORGETOWN,TX,78633,,,CONTRACTOR,,,,,,,,,,,"PULTE HOMES",,,,,"PULTE HOMES","9401 AMBERGLEN BLVD STE I-150",AUSTIN,TX,78729-1154,"(512) 561-4344",,,,
TX,WILLIAMSON,2020-68829,"Single Family Homes",11/22/2020,,389990,3248,"314 IRON RAIL LN",GEORGETOWN,TX,78633,,,CONTRACTOR,,,,,,,,,,,"PULTE HOMES",,,,,"PULTE HOMES","9401 AMBERGLEN BLVD STE I-150",AUSTIN,TX,78729-1154,"(512) 561-4344",,,,
TX,WILLIAMSON,2020-68832,"Single Family Homes",11/30/2020,,369375,3604,"116 WAKE LN",GEORGETOWN,TX,78633,,,CONTRACTOR,,,,,,,,,,,"EHT OF TEXAS LP",,,,,"EHT OF TEXAS LP","3520 EXECUTIVE CENTER DR STE 100",AUSTIN,TX,78731-1636,"(757) 287-6394",,,,
TX,WILLIAMSON,2020-68837,"Single Family Homes",11/30/2020,,180342,2097,"115 BREMEN ST",GEORGETOWN,TX,78626,KASPER,,CONTRACTOR,,,,,,,,,,,"DR HORTON",,,,,"DR HORTON","10700 PECAN PARK BLVD STE 400",AUSTIN,TX,78750-1227,"(512) 345-4663",,,,
TX,WILLIAMSON,2020-68858,"Single Family Homes",11/22/2020,,117910,1312,"704 LEGENDS LN",GEORGETOWN,TX,78628,"WOLF RANCH",,CONTRACTOR,,,,,,,,,,,"LENNAR HOMES",,,,,"LENNAR HOMES","13620 FM 620 RD 150",AUSTIN,TX,78717,"(512) 506-4000",http://www.lennar.com/,,,
TX,WILLIAMSON,2020-68876,"Single Family Homes",11/29/2020,,416990,4759,"702 HAVENHILLS LN",GEORGETOWN,TX,78633,"SUN CITY",,CONTRACTOR,,,,,,,,,,,"PULTE HOMES",,,,,"PULTE HOMES","9401 AMBERGLEN BLVD STE I-150",AUSTIN,TX,78729-1154,"(512) 561-4344",,,,
TX,WILLIAMSON,2020-68890,"Single Family Homes",11/24/2020,,341000,3334,"1404 RIVER VISTA RD",GEORGETOWN,TX,78628,"WOLF RANCH",,CONTRACTOR,,,,,,,,,,,"DREES CUSTOM HOMES",,,,,"DREES CUSTOM HOMES","7300 RANCH ROAD 2222 BLDG 2 STE 250",AUSTIN,TX,78730-3204,"(512) 241-7100",http://www.dreeshomes.com,,,
TX,WILLIAMSON,2020-69016,"Single Family Homes",11/30/2020,,180342,2097,"436 SHINER LN",GEORGETOWN,TX,78626,KASPER,,CONTRACTOR,,,,,,,,,,,"DR HORTON",,,,,"DR HORTON","10700 PECAN PARK BLVD STE 400",AUSTIN,TX,78750-1227,"(512) 345-4663",,,,
TX,WILLIAMSON,2020-69017,"Single Family Homes",11/30/2020,,241316,2806,"921 DUBINA AVE",GEORGETOWN,TX,78626,KASPER,,CONTRACTOR,,,,,,,,,,,"DR HORTON",,,,,"DR HORTON","10700 PECAN PARK BLVD STE 400",AUSTIN,TX,78750-1227,"(512) 345-4663",,,,
TX,WILLIAMSON,2020-69018,"Single Family Homes",11/30/2020,,230394,2679,"925 DUBINA AVE",GEORGETOWN,TX,78626,KASPER,,CONTRACTOR,,,,,,,,,,,"DR HORTON",,,,,"DR HORTON","10700 PECAN PARK BLVD STE 400",AUSTIN,TX,78750-1227,"(512) 345-4663",,,,
TX,WILLIAMSON,2020-69020,"Single Family Homes",11/30/2020,,288530,3355,"929 DUBINA AVE",GEORGETOWN,TX,78626,KASPER,,CONTRACTOR,,,,,,,,,,,"DR HORTON",,,,,"DR HORTON","10700 PECAN PARK BLVD STE 400",AUSTIN,TX,78750-1227,"(512) 345-4663",,,,
TX,WILLIAMSON,2020-69021,"Single Family Homes",11/30/2020,,278038,3233,"933 DUBINA AVE",GEORGETOWN,TX,78626,KASPER,,CONTRACTOR,,,,,,,,,,,"DR HORTON",,,,,"DR HORTON","10700 PECAN PARK BLVD STE 400",AUSTIN,TX,78750-1227,"(512) 345-4663",,,,
TX,WILLIAMSON,2020-69022,"Single Family Homes",11/30/2020,,237704,2764,"721 DUBINA AVE",GEORGETOWN,TX,78626,KASPER,,CONTRACTOR,,,,,,,,,,,"DR HORTON",,,,,"DR HORTON","10700 PECAN PARK BLVD STE 400",AUSTIN,TX,78750-1227,"(512) 345-4663",,,,
TX,WILLIAMSON,2020-69023,"Single Family Homes",11/30/2020,,241316,2806,"101 KRAMER ST",GEORGETOWN,TX,78626,KASPER,,CONTRACTOR,,,,,,,,,,,"DR HORTON",,,,,"DR HORTON","10700 PECAN PARK BLVD STE 400",AUSTIN,TX,78750-1227,"(512) 345-4663",,,,
TX,TRAVIS,"2020-143363 BP","Single Family Homes",12/10/2020,,120000,2598,"1229 DELANO ST",AUSTIN,TX,78721,"LINCOLN GARDENS",11,CONTRACTOR,,,,,,,,,,,"VARELA PROPERTIES",,,,,"VARELA PROPERTIES","401 CONGRESS AVE SUITE 1540",AUSTIN,TX,78701,"(512) 687-6292",,,,
TX,TRAVIS,"2020-053067 BP","Single Family Homes",12/11/2020,,120000,2004,"1183 OAK GROVE AVE",AUSTIN,TX,78702,"HOMEWOOD HEIGHTS",35,CONTRACTOR,,,,,,,,,,,"RENOVATE ATX",,,,,"RENOVATE ATX","5609 TRAVIS GREEN LN ",AUSTIN,TX,78735,"(512) 653-4486",,,,
TX,TRAVIS,"2020-185412 BP","Single Family Homes",12/11/2020,,135225,1803,"7312 SPOTTED LEAF WAY",AUSTIN,TX,78617,,,CONTRACTOR,,,,,,,,,,,"LENNAR HOMES",,,,,"LENNAR HOMES","13620 FM 620 RD 150",AUSTIN,TX,78717,"(512) 506-4000",http://www.lennar.com/,,,
TX,TRAVIS,"2020-188393 BP","Single Family Homes",12/14/2020,,137550,2374,"10417 PREMIER PARK ST",AUSTIN,TX,78747,"ZACHARY SCOTT",7,CONTRACTOR,,,,,,,,,,,"LENNAR HOMES",,,,,"LENNAR HOMES","13620 FM 620 RD 150",AUSTIN,TX,78717,"(512) 506-4000",http://www.lennar.com/,,,
TX,TRAVIS,"2020-188261 BP","Single Family Homes",12/14/2020,,146250,2353,"5908 EDEN DR",AUSTIN,TX,78747,"BRADSHAW CROSSING",45,CONTRACTOR,,,,,,,,,,,"LENNAR HOMES",,,,,"LENNAR HOMES","13620 FM 620 RD 150",AUSTIN,TX,78717,"(512) 506-4000",http://www.lennar.com/,,,
TX,TRAVIS,"2020-187519 BP","Single Family Homes",12/14/2020,,152400,2032,"10804 MERIS LN",AUSTIN,TX,78754,RICE,,CONTRACTOR,,,,,,,,,,,"DR HORTON",,,,,"DR HORTON","10700 PECAN PARK BLVD STE 400",AUSTIN,TX,78750-1227,"(512) 345-4663",,,,
TX,TRAVIS,"2020-186069 BP","Single Family Homes",12/9/2020,,153900,2052,"15521 AMBER DUST CV",AUSTIN,TX,78617,,,CONTRACTOR,,,,,,,,,,,"LENNAR HOMES",,,,,"LENNAR HOMES","13620 FM 620 RD 150",AUSTIN,TX,78717,"(512) 506-4000",http://www.lennar.com/,,,
TX,TRAVIS,"2020-185880 BP","Single Family Homes",12/14/2020,,153945,2799,"11213 CHARGER WAY",AUSTIN,TX,78653,"HERITAGE POINT AT WILDHORSE RANCH",22,CONTRACTOR,,,,,,,,,,,"BROHN HOMES",,,,,"BROHN HOMES","6720 VAUGHT RANCH RD STE 200",AUSTIN,TX,78730-2354,"(512) 320-8833",http://brohnhomes.com/,,,
TX,TRAVIS,"2020-186759 BP","Single Family Homes",12/10/2020,,166045,3019,"11116 CHARGER WAY",AUSTIN,TX,78653,"HERITAGE POINT AT WILDHORSE RANCH",33,CONTRACTOR,,,,,,,,,,,"BROHN HOMES",,,,,"BROHN HOMES","6720 VAUGHT RANCH RD STE 200",AUSTIN,TX,78730-2354,"(512) 320-8833",http://brohnhomes.com/,,,
TX,TRAVIS,"2020-175247 BP","Single Family Homes",12/10/2020,,167985,2584,"9616 ELOQUENCE DR",AUSTIN,TX,78653,,,CONTRACTOR,,,,,,,,,,,"GFO HOME",,,,,"GFO HOME","6012 AVIATION DR # 200",PFLUGERVILLE,TX,78660-8960,"(512) 492-8640",https://www.gfohome.com,,,
TX,TRAVIS,"2020-185593 BP","Single Family Homes",12/14/2020,,176475,2353,"2924 MARYANNE LN",AUSTIN,TX,78730,,,CONTRACTOR,,,,,,,,,,,"DR HORTON",,,,,"DR HORTON","10700 PECAN PARK BLVD STE 400",AUSTIN,TX,78750-1227,"(512) 345-4663",,,,
TX,TRAVIS,"2020-188378 BP","Single Family Homes",12/14/2020,,177225,2907,"10413 PREMIER PARK ST",AUSTIN,TX,78747,"ZACHARY SCOTT",8,CONTRACTOR,,,,,,,,,,,"LENNAR HOMES",,,,,"LENNAR HOMES","13620 FM 620 RD 150",AUSTIN,TX,78717,"(512) 506-4000",http://www.lennar.com/,,,
TX,TRAVIS,"2020-188269 BP","Single Family Homes",12/14/2020,,179100,2388,"10708 FULTON AVE",AUSTIN,TX,78754,,,CONTRACTOR,,,,,,,,,,,"DR HORTON",,,,,"DR HORTON","10700 PECAN PARK BLVD STE 400",AUSTIN,TX,78750-1227,"(512) 345-4663",,,,
TX,TRAVIS,"2020-185617 BP","Single Family Homes",12/14/2020,,179250,2390,"2132 ETTALEE CT",AUSTIN,TX,78754,RICE,,CONTRACTOR,,,,,,,,,,,"DR HORTON",,,,,"DR HORTON","10700 PECAN PARK BLVD STE 400",AUSTIN,TX,78750-1227,"(512) 345-4663",,,,
TX,TRAVIS,"2020-188385 BP","Single Family Homes",12/14/2020,,189525,2668,"1113 WINNIE DR",AUSTIN,TX,78748,SLAUGHTER,,CONTRACTOR,,,,,,,,,,,"LENNAR HOMES",,,,,"LENNAR HOMES","13620 FM 620 RD 150",AUSTIN,TX,78717,"(512) 506-4000",http://www.lennar.com/,,,
TX,TRAVIS,"2020-145808 BP","Single Family Homes",12/10/2020,,200000,4745,"6917 CAT CREEK RUN",AUSTIN,TX,78731,"CAT MOUNTAIN",37,CONTRACTOR,,,,,,,,,,,"QUICK RESIDENTIAL SOLUTIONS",,,,,"QUICK RESIDENTIAL SOLUTIONS","PO BOX 5358","ROUND ROCK",TX,78683-5358,"(512) 809-7638",,,,
TX,TRAVIS,"2020-185607 BP","Single Family Homes",12/14/2020,,202950,2706,"3008 MARYANNE LN",AUSTIN,TX,78660,,,CONTRACTOR,,,,,,,,,,,"DR HORTON",,,,,"DR HORTON","10700 PECAN PARK BLVD STE 400",AUSTIN,TX,78750-1227,"(512) 345-4663",,,,
TX,TRAVIS,"2020-185850 BP","Single Family Homes",12/14/2020,,202950,2706,"2901 MARYANNE LN",AUSTIN,TX,78660,,,CONTRACTOR,,,,,,,,,,,"DR HORTON",,,,,"DR HORTON","10700 PECAN PARK BLVD STE 400",AUSTIN,TX,78750-1227,"(512) 345-4663",,,,
TX,TRAVIS,"2020-185320 BP","Single Family Homes",12/10/2020,,203325,2711,"10813 TILDON AVE",AUSTIN,TX,78754,RICE,,CONTRACTOR,,,,,,,,,,,"DR HORTON",,,,,"DR HORTON","10700 PECAN PARK BLVD STE 400",AUSTIN,TX,78750-1227,"(512) 345-4663",,,,
TX,TRAVIS,"2020-186693 BP","Single Family Homes",12/10/2020,,208615,3793,"11304 SADDLEBRED TRL",AUSTIN,TX,78653,"HERITAGE POINT AT WILDHORSE RANCH",10,CONTRACTOR,,,,,,,,,,,"BROHN HOMES",,,,,"BROHN HOMES","6720 VAUGHT RANCH RD STE 200",AUSTIN,TX,78730-2354,"(512) 320-8833",http://brohnhomes.com/,,,
TX,TRAVIS,"2020-185741 BP","Single Family Homes",12/11/2020,,221000,3238,"6137 SENDERO HILLS PKWY",AUSTIN,TX,78724,"MEADOWS AT TRINITY CROSSING",10,CONTRACTOR,,,,,,,,,,,"URBAN INTOWN HOMES",,,,,"URBAN INTOWN HOMES","1520 OLIVER CIR",HOUSTON,TX,77007,"(512) 653-0877",,,,
TX,TRAVIS,"2020-183000 BP","Single Family Homes",12/9/2020,,229804,3498,"9104 CHRYSLER BND",AUSTIN,TX,78747,"MIRABEL PARK",9,CONTRACTOR,,,,,,,,,,,"DREAM FINDERS HOMES",,,,,"DREAM FINDERS HOMES","13281 POND SPRINGS RD STE 110",AUSTIN,TX,78729,"(512) 535-4866",http://www.dreamfindershomes.com/,,,
TX,TRAVIS,"2020-183752 BP","Single Family Homes",12/9/2020,,229804,3497,"9008 LOOKSEE LN",AUSTIN,TX,78747,DELVALLE,,CONTRACTOR,,,,,,,,,,,"DREAM FINDERS HOMES",,,,,"DREAM FINDERS HOMES","13281 POND SPRINGS RD STE 110",AUSTIN,TX,78729,"(512) 535-4866",http://www.dreamfindershomes.com/,,,
TX,TRAVIS,"2020-185414 BP","Single Family Homes",12/11/2020,,229804,3489,"8912 CENTURION PATH",AUSTIN,TX,78747,DELVALLE,,CONTRACTOR,,,,,,,,,,,"DREAM FINDERS HOMES",,,,,"DREAM FINDERS HOMES","13281 POND SPRINGS RD STE 110",AUSTIN,TX,78729,"(512) 535-4866",http://www.dreamfindershomes.com/,,,
TX,TRAVIS,"2020-186076 BP","Single Family Homes",12/11/2020,,229804,3497,"8904 SPIRE VW",AUSTIN,TX,78747,,,CONTRACTOR,,,,,,,,,,,"DREAM FINDERS HOMES",,,,,"DREAM FINDERS HOMES","13281 POND SPRINGS RD STE 110",AUSTIN,TX,78729,"(512) 535-4866",http://www.dreamfindershomes.com/,,,
TX,TRAVIS,"2020-182567 BP","Single Family Homes",12/9/2020,,230723,3393,"8900 CENTURION PATH",AUSTIN,TX,78747,,,CONTRACTOR,,,,,,,,,,,"DREAM FINDERS HOMES",,,,,"DREAM FINDERS HOMES","13281 POND SPRINGS RD STE 110",AUSTIN,TX,78729,"(512) 535-4866",http://www.dreamfindershomes.com/,,,
TX,TRAVIS,"2020-182594 BP","Single Family Homes",12/9/2020,,235042,3554,"8420 SKYTEX ST",AUSTIN,TX,78744,"MIRABEL PARK",14,CONTRACTOR,,,,,,,,,,,"DREAM FINDERS HOMES",,,,,"DREAM FINDERS HOMES","13281 POND SPRINGS RD STE 110",AUSTIN,TX,78729,"(512) 535-4866",http://www.dreamfindershomes.com/,,,
TX,TRAVIS,"2020-183744 BP","Single Family Homes",12/9/2020,,235042,3555,"8304 ORIZZONTE ST",AUSTIN,TX,78747,DELVALLE,,CONTRACTOR,,,,,,,,,,,"DREAM FINDERS HOMES",,,,,"DREAM FINDERS HOMES","13281 POND SPRINGS RD STE 110",AUSTIN,TX,78729,"(512) 535-4866",http://www.dreamfindershomes.com/,,,
TX,TRAVIS,"2020-182773 BP","Single Family Homes",12/9/2020,,259125,3760,"8900 SPIRE VW",AUSTIN,TX,78747,,,CONTRACTOR,,,,,,,,,,,"DREAM FINDERS HOMES",,,,,"DREAM FINDERS HOMES","13281 POND SPRINGS RD STE 110",AUSTIN,TX,78729,"(512) 535-4866",http://www.dreamfindershomes.com/,,,
TX,TRAVIS,"2020-180732 BP","Single Family Homes",12/10/2020,,265000,2660,"4417 HANK AVE",AUSTIN,TX,78745,"BANISTER ACRES",5,"MATTHEW HEJL","4417 HANK AVE",AUSTIN,TX,78745,"(512) 922-9694",Owner,,,,,OWNER,,,,,OWNER,,,,,,,,,
TX,TRAVIS,"2020-186888 BP","Single Family Homes",12/10/2020,,281325,4804,"7128 VICENZA DR",AUSTIN,TX,78739,,,CONTRACTOR,,,,,,,,,,,"LENNAR HOMES",,,,,"LENNAR HOMES","13620 FM 620 RD 150",AUSTIN,TX,78717,"(512) 506-4000",http://www.lennar.com/,,,
TX,TRAVIS,"2020-188121 BP","Single Family Homes",12/14/2020,,316920,2780,"9709 ELOQUENCE DR",AUSTIN,TX,78653,,,CONTRACTOR,,,,,,,,,,,"BUFFINGTON TEXAS CLASSIC HOMES",,,,,"BUFFINGTON TEXAS CLASSIC HOMES","8601 RANCH ROAD 2222 PARK CENTRE BLDG STE 150",AUSTIN,TX,78730,"(512) 579-4800",,,,
TX,TRAVIS,"2020-185890 BP","Single Family Homes",12/9/2020,,336756,2954,"9624 EVENING CANOPY DR",AUSTIN,TX,78653,,,CONTRACTOR,,,,,,,,,,,"BUFFINGTON TEXAS CLASSIC HOMES",,,,,"BUFFINGTON TEXAS CLASSIC HOMES","8601 RANCH ROAD 2222 PARK CENTRE BLDG STE 150",AUSTIN,TX,78730,"(512) 579-4800",,,,
TX,TRAVIS,"2020-184409 BP","Single Family Homes",12/9/2020,,375000,3195,"8324 LOOKSEE LN",AUSTIN,TX,78747,DELVALLE,,CONTRACTOR,,,,,,,,,,,"DAVID WEEKLEY HOMES",,,,,"DAVID WEEKLEY HOMES","9000 WATERFORD CENTRE BLVD",AUSTIN,TX,78758-7662,"(800) 390-6774",http://www.davidweekleyhomes.com/,,,
TX,TRAVIS,"2020-179858 BP","Single Family Homes",12/13/2020,,500000,7573,"2622 MARIA ANNA RD",AUSTIN,TX,78703,"SELLSTROM SPEAR",,CONTRACTOR,,,,,,,,,,,"CLINT SMALL HOMES",,,,,"CLINT SMALL HOMES","5501A BALCONES DR STE 101",AUSTIN,TX,78731-4907,"(512) 801-4405",http://www.clintsmallhomes.com/,,,info@clintsmallhomes.com
TX,WILLIAMSON,2020-65716,"Warehouse & Manufacturing",11/2/2020,"Finish Out",250000,1980,"301 S HANGAR DR",GEORGETOWN,TX,78628,,,CONTRACTOR,,,,,,,,,,,"ELSASSER ARCHITECTURAL",,,,,"ELSASSER ARCHITECTURAL","4112 WILLIAMS DRIVE 104",GEORGETOWN,TX,78628,"(512) 930-5353",,,,
TX,WILLIAMSON,2020-66377,"Warehouse & Manufacturing",11/30/2020,"Finish Out",3000000,70000,"101 VELOCITY DR",GEORGETOWN,TX,78628,,,CONTRACTOR,,,,,,,,,,,"MW BUILDERS",,,,,"MW BUILDERS","1701 N GENERAL BRUCE DR",TEMPLE,TX,76504-2474,"(713) 834-5669",,,,
TX,WILLIAMSON,2020-66112,"Warehouse & Manufacturing",11/2/2020,,11809184,158351,"201 VELOCITY DR",GEORGETOWN,TX,78628,,,CONTRACTOR,,,,,,,,,,,"MW BUILDERS",,,,,"MW BUILDERS","1701 N GENERAL BRUCE DR",TEMPLE,TX,76504-2474,"(713) 834-5669",,,,
