state,county,permno,ptype,pdate,pdescription,jvalue,jsqfeet,jaddr,jcity,jstate,jzip,jsubdiv,jlotno,aname,aaddr,acity,astate,azip,aphone,atype,aurl,afax,aprimarycontact,aemail,bldcode,units,bldgs,ctype,legal,contractor,caddress,ccity,cstate,czip,cphone,curl,cfax,cprimarycontact,cemail
TX,WILLIAMSON,2019-54906,"Auto Sales & Services",10/12/2020,,400000,4179,"4913 MORELAND DR 3",GEORGETOWN,TX,78626,,,CONTRACTOR,,,,,,,,,,,"VERITAS CONSTRUCTION",,,,,"VERITAS CONSTRUCTION","1540 COUNTY ROAD 262",GEORGETOWN,TX,78633-1930,"(512) 869-7997",,,,
TX,TRAVIS,"2020-167460 BP","Duplex, Triplex, & Fourplex",11/5/2020,,94046,1594,"9015 CATTLE BARON PATH BLDG 19",AUSTIN,TX,78747,,,CONTRACTOR,,,,,,,,,,,"HOMES BY AVI",,,,,"HOMES BY AVI","11130 JOLLYVILLE RD STE 304",AUSTIN,TX,78759-4819,"(512) 382-0971",http://www.homesbyavi.com/,,,
TX,TRAVIS,"2019-044068 BP","Duplex, Triplex, & Fourplex",11/6/2020,,30530,4009,"3809 VALLEY VIEW RD",AUSTIN,TX,78704,"VALLEY VIEW",1,CONTRACTOR,,,,,,,,,,,"LEGACY DCS",,,,,"LEGACY DCS","205 WILD BASIN ROAD SOUTH, BLDG",AUSTIN,TX,78746,"(512) 726-0500",https://legacydcs.com/,"(512) 726-0527",,info@legacydcs.com
TX,TRAVIS,"2019-230305 BP","Duplex, Triplex, & Fourplex",11/5/2020,,135225,3606,"15216 SPRUCE FROST CV UNIT A",AUSTIN,TX,78617,,,CONTRACTOR,,,,,,,,,,,"LENNAR HOMES",,,,,"LENNAR HOMES","13620 FM 620 RD 150",AUSTIN,TX,78717,"(512) 506-4000",http://www.lennar.com/,,,
TX,TRAVIS,"2020-162045 BP","Duplex, Triplex, & Fourplex",11/9/2020,,250000,4520,"2711 CREST AVE",AUSTIN,TX,78702,"HOMEWOOD HEIGHTS",20,CONTRACTOR,,,,,,,,,,,"AVERY BUILDING COMPANY",,,,,"AVERY BUILDING COMPANY","213 STOWAWAY CV APT B",LAKEWAY,TX,78734-4077,"(406) 261-9419",,,"ALAN AVERY",
TX,WILLIAMSON,2020-57825,"Hospital & Other Medical",10/21/2020,,49000,30295,"1021 W UNIVERSITY AVE 200",GEORGETOWN,TX,78626,,,CONTRACTOR,,,,,,,,,,,"TENANT BUILD",,,,,"TENANT BUILD","7604 BAKER BLVD","RICHLAND HILLS",TX,76118-5904,"(817) 717-2867",,,,
TX,WILLIAMSON,2020-64745,"Hospital & Other Medical",10/5/2020,,1200000,5746,"3204 NORTHWEST BLVD",GEORGETOWN,TX,78626,,,CONTRACTOR,,,,,,,,,,,"ICHOR CONSTRUCTION",,,,,"ICHOR CONSTRUCTION","1106 S MAYS ST STE 220","ROUND ROCK",TX,78664-6746,"(512) 809-5072",http://ichorconstruction.com/,,,
TX,TRAVIS,"2020-162257 BP","Hotel, Motel & Assisted Living",11/4/2020,,9000400,147910,"76 N IH 35 SVRD",AUSTIN,TX,78701,"DRISKILL RAINEY",7,CONTRACTOR,,,,,,,,,,,"PALAK INVESTMENTS",,,,,"PALAK INVESTMENTS","11233 IH 37","CORPUS CHRISTI",TX,78410,"(361) 241-9300",,,,
TX,WILLIAMSON,2019-55292,"Hotel, Motel & Assisted Living",10/30/2020,,8065034,55251,"930 W UNIVERSITY AVE",GEORGETOWN,TX,78626,,,CONTRACTOR,,,,,,,,,,,"TAG INTERNATIONAL",,,,,"TAG INTERNATIONAL","3160 BEE CAVES RD",AUSTIN,TX,78746-5802,"(512) 328-1010",,,,
TX,TRAVIS,"2019-037670 BP","Multi Family Apartments & Condos",11/6/2020,,96900,1396,"3809 VALLEY VIEW RD BLDG 20",AUSTIN,TX,78747,"VALLEY VIEW",1,CONTRACTOR,,,,,,,,,,,"LEGACY DCS",,,,,"LEGACY DCS","205 WILD BASIN ROAD SOUTH, BLDG",AUSTIN,TX,78746,"(512) 726-0500",https://legacydcs.com/,"(512) 726-0527",,info@legacydcs.com
TX,TRAVIS,"2020-169608 BP","Multi Family Apartments & Condos",11/9/2020,,206890,2434,"4701 FOUNTAIN GRASS LN",AUSTIN,TX,78723,TANNEHILL,,CONTRACTOR,,,,,,,,,,,"RSI COMMUNITIES",,,,,"RSI COMMUNITIES","810 HESTERS CROSSING RD STE 235","ROUND ROCK",TX,78681-7846,"(512) 953-4100",,,,
TX,TRAVIS,"2020-165315 BP","Multi Family Apartments & Condos",11/9/2020,,226000,2091,"7915 MELLENCAMP DR",AUSTIN,TX,78744,"EASTON PARK",3,CONTRACTOR,,,,,,,,,,,"BROOKFIELD RESIDENTIAL TEXAS HOMES",,,,,"BROOKFIELD RESIDENTIAL TEXAS HOMES","11501 ALTERRA PKWY STE 100",AUSTIN,TX,78758,"(512) 539-3678",,,,
TX,TRAVIS,"2020-167851 BP","Multi Family Apartments & Condos",11/9/2020,,275000,2070,"5812 SUTHERLIN RD",AUSTIN,TX,78723,SUTHERLIN,1,CONTRACTOR,,,,,,,,,,,"CANTERA HOMEBUILDERS",,,,,"CANTERA HOMEBUILDERS","11120 LOS COMANCHEROS RD",AUSTIN,TX,78717-4546,"(512) 784-8269",http://www.canterahomes.net,,,rickcones@ymail.com
TX,TRAVIS,"2020-167486 BP","Multi Family Apartments & Condos",11/4/2020,,282750,2326,"5206 DIMESKY LN",AUSTIN,TX,78723,TANNEHILL,,CONTRACTOR,,,,,,,,,,,"RSI COMMUNITIES",,,,,"RSI COMMUNITIES","810 HESTERS CROSSING RD STE 235","ROUND ROCK",TX,78681-7846,"(512) 953-4100",,,,
TX,TRAVIS,"2020-166196 BP","Multi Family Apartments & Condos",11/4/2020,,285000,3528,"7922 YELLOW THISTLE TRL",AUSTIN,TX,78735,"EADS ACRES",1,CONTRACTOR,,,,,,,,,,,"HOPPER COMMUNITIES",,,,,"HOPPER COMMUNITIES","1611 W 5TH ST STE 100",AUSTIN,TX,78703-4889,"(512) 627-1733",https://www.hoppercommunities.com,,,jswanson@hoppercommunities.com
TX,TRAVIS,"2020-168866 BP","Multi Family Apartments & Condos",11/6/2020,,70000000,236716,"5210 N LAMAR BLVD",AUSTIN,TX,78751,"MUELLERS LAMAR",2,CONTRACTOR,,,,,,,,,,,"WHITE CONSTRUCTION",,,,,"WHITE CONSTRUCTION","2705 BEE CAVES RD STE 250",AUSTIN,TX,78746-5805,"(512) 302-1177",https://www.whiteconst.com/,"(512) 302-3009","NEEL WHITE",
TX,WILLIAMSON,2020-66831,"Multi Family Apartments & Condos",10/8/2020,,180720,2008,"124 FLAT CREEK CT",GEORGETOWN,TX,78633,,,CONTRACTOR,,,,,,,,,,,"CENTURY COMMUNITIES",,,,,"CENTURY COMMUNITIES","6500 RIVER PLACE BLVD STE 200",AUSTIN,TX,78730-1156,"(512) 271-3825",https://www.centurycommunities.com/,,,
TX,WILLIAMSON,2020-66869,"Multi Family Apartments & Condos",10/9/2020,,215280,2392,"821 OLIVE CREEK DR",GEORGETOWN,TX,78633,,,CONTRACTOR,,,,,,,,,,,"CENTURY COMMUNITIES",,,,,"CENTURY COMMUNITIES","6500 RIVER PLACE BLVD STE 200",AUSTIN,TX,78730-1156,"(512) 271-3825",https://www.centurycommunities.com/,,,
TX,WILLIAMSON,2020-66876,"Multi Family Apartments & Condos",10/16/2020,,219420,2438,"817 OLIVE CREEK DR",GEORGETOWN,TX,78633,,,CONTRACTOR,,,,,,,,,,,"CENTURY COMMUNITIES",,,,,"CENTURY COMMUNITIES","6500 RIVER PLACE BLVD STE 200",AUSTIN,TX,78730-1156,"(512) 271-3825",https://www.centurycommunities.com/,,,
TX,WILLIAMSON,2020-66894,"Multi Family Apartments & Condos",10/9/2020,,217080,2412,"121 FLAT CREEK CT",GEORGETOWN,TX,78633,,,CONTRACTOR,,,,,,,,,,,"CENTURY COMMUNITIES",,,,,"CENTURY COMMUNITIES","6500 RIVER PLACE BLVD STE 200",AUSTIN,TX,78730-1156,"(512) 271-3825",https://www.centurycommunities.com/,,,
TX,WILLIAMSON,2020-66897,"Multi Family Apartments & Condos",10/16/2020,,215280,2392,"812 OLIVE CREEK DR",GEORGETOWN,TX,78633,,,CONTRACTOR,,,,,,,,,,,"CENTURY COMMUNITIES",,,,,"CENTURY COMMUNITIES","6500 RIVER PLACE BLVD STE 200",AUSTIN,TX,78730-1156,"(512) 271-3825",https://www.centurycommunities.com/,,,
TX,WILLIAMSON,2020-66973,"Multi Family Apartments & Condos",10/12/2020,,256590,2851,"2113 LIMESTONE LAKE DR",GEORGETOWN,TX,78633,,,CONTRACTOR,,,,,,,,,,,"CENTURY COMMUNITIES",,,,,"CENTURY COMMUNITIES","6500 RIVER PLACE BLVD STE 200",AUSTIN,TX,78730-1156,"(512) 271-3825",https://www.centurycommunities.com/,,,
TX,WILLIAMSON,2020-66975,"Multi Family Apartments & Condos",10/12/2020,,219780,2442,"109 FLAT CREEK CT",GEORGETOWN,TX,78633,,,CONTRACTOR,,,,,,,,,,,"CENTURY COMMUNITIES",,,,,"CENTURY COMMUNITIES","6500 RIVER PLACE BLVD STE 200",AUSTIN,TX,78730-1156,"(512) 271-3825",https://www.centurycommunities.com/,,,
TX,WILLIAMSON,2020-66976,"Multi Family Apartments & Condos",10/12/2020,,257220,2858,"708 HAYS HILL DR",GEORGETOWN,TX,78633,,,CONTRACTOR,,,,,,,,,,,"CENTURY COMMUNITIES",,,,,"CENTURY COMMUNITIES","6500 RIVER PLACE BLVD STE 200",AUSTIN,TX,78730-1156,"(512) 271-3825",https://www.centurycommunities.com/,,,
TX,WILLIAMSON,2020-66996,"Multi Family Apartments & Condos",10/16/2020,,256590,2851,"124 DRIFTWOOD HILLS WAY",GEORGETOWN,TX,78633,,,CONTRACTOR,,,,,,,,,,,"CENTURY COMMUNITIES",,,,,"CENTURY COMMUNITIES","6500 RIVER PLACE BLVD STE 200",AUSTIN,TX,78730-1156,"(512) 271-3825",https://www.centurycommunities.com/,,,
TX,WILLIAMSON,2020-67056,"Multi Family Apartments & Condos",10/16/2020,,257220,2858,"120 DRIFTWOOD HILLS WAY",GEORGETOWN,TX,78633,,,CONTRACTOR,,,,,,,,,,,"CENTURY COMMUNITIES",,,,,"CENTURY COMMUNITIES","6500 RIVER PLACE BLVD STE 200",AUSTIN,TX,78730-1156,"(512) 271-3825",https://www.centurycommunities.com/,,,
TX,WILLIAMSON,2020-67081,"Multi Family Apartments & Condos",10/22/2020,,150000,1600,"309 CLUBHOUSE DR",GEORGETOWN,TX,78633,,,CONTRACTOR,,,,,,,,,,,"SDI RESIDENTIAL",,,,,"SDI RESIDENTIAL","147 JOSHUA DR",GEORGETOWN,TX,78633-1857,"(512) 868-8500",,,,
TX,WILLIAMSON,2020-67091,"Multi Family Apartments & Condos",10/14/2020,,165000,1765,"301 CLUBHOUSE DR",GEORGETOWN,TX,78633,,,CONTRACTOR,,,,,,,,,,,"SDI RESIDENTIAL",,,,,"SDI RESIDENTIAL","147 JOSHUA DR",GEORGETOWN,TX,78633-1857,"(512) 868-8500",,,,
TX,WILLIAMSON,2020-67092,"Multi Family Apartments & Condos",10/14/2020,,170000,1963,"221 CLUBHOUSE DR",GEORGETOWN,TX,78633,,,CONTRACTOR,,,,,,,,,,,"SDI RESIDENTIAL",,,,,"SDI RESIDENTIAL","147 JOSHUA DR",GEORGETOWN,TX,78633-1857,"(512) 868-8500",,,,
TX,WILLIAMSON,2020-67093,"Multi Family Apartments & Condos",10/15/2020,,250000,2582,"413 SKYFLOWER DR",GEORGETOWN,TX,78633,,,CONTRACTOR,,,,,,,,,,,"SDI RESIDENTIAL",,,,,"SDI RESIDENTIAL","147 JOSHUA DR",GEORGETOWN,TX,78633-1857,"(512) 868-8500",,,,
TX,WILLIAMSON,2020-67587,"Multi Family Apartments & Condos",10/29/2020,,280800,3120,"2211 LIMESTONE LAKE DR",GEORGETOWN,TX,78633,,,CONTRACTOR,,,,,,,,,,,"CENTURY COMMUNITIES",,,,,"CENTURY COMMUNITIES","6500 RIVER PLACE BLVD STE 200",AUSTIN,TX,78730-1156,"(512) 271-3825",https://www.centurycommunities.com/,,,
TX,WILLIAMSON,2020-67649,"Multi Family Apartments & Condos",10/27/2020,,180630,2007,"105 FLAT CREEK CT",GEORGETOWN,TX,78633,,,CONTRACTOR,,,,,,,,,,,"CENTURY COMMUNITIES",,,,,"CENTURY COMMUNITIES","6500 RIVER PLACE BLVD STE 200",AUSTIN,TX,78730-1156,"(512) 271-3825",https://www.centurycommunities.com/,,,
TX,WILLIAMSON,2020-68468,"Multi Family Apartments & Condos",10/28/2020,,440000,3398,"603 WHITE STEPPE WAY",GEORGETOWN,TX,78633,,,CONTRACTOR,,,,,,,,,,,"PACESETTER HOMES ",,,,,"PACESETTER HOMES ","7940 SHOAL CREEK BLVD STE 200",AUSTIN,TX,78757-7587,"(512) 323-5252",,,,
TX,TRAVIS,"2020-157684 BP","Offices, R&D, & Professional",11/4/2020,Renovation,49000,4100,"2130 WOODWARD ST",AUSTIN,TX,78744,"CROW INDUSTRIAL PARK",,CONTRACTOR,,,,,,,,,,,"FLINTROCK COMMERCIAL",,,,,"FLINTROCK COMMERCIAL","10800 PECAN PARK BLVD",AUSTIN,TX,78750-1224,"(512) 845-5590",http://www.flintrockcommercial.com/,,,
TX,TRAVIS,"2020-168063 BP","Offices, R&D, & Professional",11/9/2020,,85000,44,"4410 1/2 DUVAL RD",AUSTIN,TX,78751,"COVENANT UNITED METHODIST CHURCH",,CONTRACTOR,,,,,,,,,,,"ENERTECH RESOURCES",,,,,"ENERTECH RESOURCES","1820 WATSON LN E","NEW BRAUNFELS",TX,78130-7272,"(830) 387-4505",,,,
TX,TRAVIS,"2012-118907 BP","Offices, R&D, & Professional",11/6/2020,,230000,7492,"8403 SHOAL CREEK BLVD",AUSTIN,TX,78757,"ALLANDALE ESTATES",10,CONTRACTOR,,,,,,,,,,,"PRESTIGE BUILDERS",,,,,"PRESTIGE BUILDERS","PO BOX 340939",AUSTIN,TX,78734-0016,"(512) 261-3911",,,"ANDY HEMPEL",andy@homesbyprestige.com
TX,TRAVIS,"2019-189565 BP","Offices, R&D, & Professional",11/6/2020,,6830400,160000,"8136 INDUSTRY WAY",AUSTIN,TX,78744,"SUNDBERG ESTATES",4,CONTRACTOR,,,,,,,,,,,"JORDAN FOSTER CONSTRUCTION",,,,,"JORDAN FOSTER CONSTRUCTION","29250 OLD FREDERICKSBURG RD STE 108","FAIR OAKS RANCH",TX,78015-5012,"(210) 859-4273",http://www.cfjordan.com/busdev.html,"(210) 375-1261",,
TX,WILLIAMSON,2020-66617,"Offices, R&D, & Professional",10/16/2020,,285000,4159,"4101 W SH 29",GEORGETOWN,TX,78626,,,CONTRACTOR,,,,,,,,,,,"WAHLERS CONSTRUCTION",,,,,"WAHLERS CONSTRUCTION","5293 FM 306","NEW BRAUNFELS",TX,78132-3502,"(210) 389-8590",,,,
TX,WILLIAMSON,2020-66797,"Offices, R&D, & Professional",10/16/2020,,40000,9463,"901 N AUSTIN AVE",GEORGETOWN,TX,78626,,,CONTRACTOR,,,,,,,,,,,"MODE DESIGN COMPANY",,,,,"MODE DESIGN COMPANY","1102 S AUSTIN AVE STE 103",GEORGETOWN,TX,78626-6756,"(512) 733-1150",,,,
TX,WILLIAMSON,2020-66693,"Offices, R&D, & Professional",10/6/2020,,477336,3571,"4841 WILLIAMS DR 105",GEORGETOWN,TX,78626,,,CONTRACTOR,,,,,,,,,,,"TI DEV COMMERCIAL",,,,,"TI DEV COMMERCIAL","201 SEDRO TRL",GEORGETOWN,TX,78633-2021,"(512) 771-5555",https://tidevelopers.com,,,tom@tidevelopers.com
TX,WILLIAMSON,2019-50132,"Offices, R&D, & Professional",10/5/2020,,700000,8294,"700 HIGH TECH DR",GEORGETOWN,TX,78626,,,CONTRACTOR,,,,,,,,,,,"TCHEN ARCHITECTS",,,,,"TCHEN ARCHITECTS","11908 ANDERSON MILL RD",AUSTIN,TX,78726-1100,"(512) 351-0801",,,,
TX,WILLIAMSON,2019-53956,"Offices, R&D, & Professional",10/12/2020,,1200000,3000,"4913 MORELAND DR 1",GEORGETOWN,TX,78626,,,CONTRACTOR,,,,,,,,,,,"MODE DESIGN COMPANY",,,,,"MODE DESIGN COMPANY","1102 S AUSTIN AVE STE 103",GEORGETOWN,TX,78626-6756,"(512) 733-1150",,,,
TX,WILLIAMSON,2019-54908,"Offices, R&D, & Professional",10/12/2020,,400000,4179,"4913 MORELAND DR 2",GEORGETOWN,TX,78626,,,CONTRACTOR,,,,,,,,,,,"VERITAS CONSTRUCTION",,,,,"VERITAS CONSTRUCTION","1540 COUNTY ROAD 262",GEORGETOWN,TX,78633-1930,"(512) 869-7997",,,,
TX,TRAVIS,"2020-168867 BP","Parking Structures & Carports",11/6/2020,,70000000,159785,"5210 N LAMAR BLVD",AUSTIN,TX,78751,"MUELLERS LAMAR",2,CONTRACTOR,,,,,,,,,,,"WHITE CONSTRUCTION",,,,,"WHITE CONSTRUCTION","2705 BEE CAVES RD STE 250",AUSTIN,TX,78746-5805,"(512) 302-1177",https://www.whiteconst.com/,"(512) 302-3009","NEEL WHITE",
TX,WILLIAMSON,2020-29725,"Residential Renovations & Additions",10/26/2020,Renovation,55000,4012,"108 BREAKAWAY RD","CEDAR PARK",TX,78613,,,"JOHN & MICHELLE LUX","108 BREAKAWAY RD","CEDAR PARK",TX,78613,,Owner,,,,,"BRYCO SERVICES",,,,,"BRYCO SERVICES","PO BOX 2125","CEDAR PARK",TX,78630-2125,"(512) 931-1075",https://www.bryco-services.com/,,,
TX,TRAVIS,"2020-032859 BP","Residential Renovations & Additions",11/5/2020,Renovation,35000,200,"11309 PRADERA DR",AUSTIN,TX,78759,"OAK FOREST",4,"GUILLERMO CARRILLO","11309 PRADERA DR",AUSTIN,TX,78759,,Owner,,,,,"CARRILLO DEVELOPMENT",,,,,"CARRILLO DEVELOPMENT","11710 BROAD OAKS DR",AUSTIN,TX,78759-3758,"(512) 585-3654",,,,
TX,TRAVIS,"2020-165685 BP","Residential Renovations & Additions",11/9/2020,Addition,45000,128,"2208 TARLTON CV",AUSTIN,TX,78746,"EANES PLACE",3,"BO & QIAN GUAN","2208 TARLTON CV",AUSTIN,TX,78746,,Owner,,,,,"STATEWIDE REMODELING OF AUSTIN",,,,,"STATEWIDE REMODELING OF AUSTIN","2209-A RUTLAND DR STE 100A",AUSTIN,TX,78758,"(512) 453-5858",,,,
TX,TRAVIS,"2019-068343 BP","Residential Renovations & Additions",11/5/2020,Addition,50000,930,"2603 WOOLDRIDGE DR",AUSTIN,TX,78703,"PEMBERTON HEIGHTS",2,"SABRINA & JAY BROWN","2603 WOOLDRIDGE DR",AUSTIN,TX,78703,,Owner,,,,,"DAVID WILKES BUILDERS",,,,,"DAVID WILKES BUILDERS","5450 BEE CAVE RD STE 4B","WEST LAKE HILLS",TX,78746-5251,"(512) 453-4982",http://davidwilkesbuilders.com/,,"DAVID WILKES",info@davidwilkesbuilders.com
TX,TRAVIS,"2020-117424 BP","Residential Renovations & Additions",11/9/2020,Renovation,150000,3594,"3224 TARRYHOLLOW DR",AUSTIN,TX,78703,"PARK PLACE",16,"MARINAN WILLIAMS","3224 TARRYHOLLOW DR",AUSTIN,TX,78703,,Owner,,,,,"AUSTIN CUSTOM BUILDERS",,,,,"AUSTIN CUSTOM BUILDERS","2003 INDIAN TRL ",AUSTIN,TX,78703,"(609) 602-0268",,,,
TX,TRAVIS,"2020-162561 BP","Residential Renovations & Additions",11/4/2020,Addition,425000,2660,"7001 RUFUS DR",AUSTIN,TX,78752,"HUNTLAND HEIGHTS",13,"RANDALL BOGARD","7001 RUFUS DR",AUSTIN,TX,78752,,Owner,,,,,"OAKMAN BUILDING COMPANY",,,,,"OAKMAN BUILDING COMPANY","PO BOX 26094",AUSTIN,TX,78755-0094,"(512) 565-7770",http://buildoakman.weebly.com/,,"Ryan Hay",oakmanbuildingco@gmail.com
TX,TRAVIS,"2020-061354 BP","Residential Renovations & Additions",11/4/2020,Renovation,1300001,4141,"1306 ELTON LN",AUSTIN,TX,78703,WESTFIELD,1,"ELIZABETH LAMBERT","1306 ELTON LN",AUSTIN,TX,78703,,Owner,,,,,"KOCH CONSTRUCTION",,,,,"KOCH CONSTRUCTION","1412 HARVEY ST",AUSTIN,TX,78702-1650,"(512) 743-6767",,,"JON KOCH",
TX,TRAVIS,"2020-167442 BP","Residential Renovations & Additions",11/9/2020,Addition,125000,374,"4604 SINCLAIR AVE",AUSTIN,TX,78756,ROSEDALE,3,"MARK ROZMAN","4604 SINCLAIR AVE",AUSTIN,TX,78756,,Owner,,,,,"WILMINGTON-GORDON & FRANKLIN ALAN",,,,,"WILMINGTON-GORDON & FRANKLIN ALAN","1209 W 49TH ST",AUSTIN,TX,78756-3102,"(512) 454-7070",,,,
TX,TRAVIS,"2020-168357 BP","Residential Renovations & Additions",11/4/2020,Renovation,30000,,"9804 LONSDALE DR",AUSTIN,TX,78729,,,CONTRACTOR,,,,,,,,,,,"STATEWIDE REMODELING OF AUSTIN",,,,,"STATEWIDE REMODELING OF AUSTIN","2209-A RUTLAND DR STE 100A",AUSTIN,TX,78758,"(512) 453-5858",,,,
TX,TRAVIS,"2020-168397 BP","Residential Renovations & Additions",11/4/2020,Renovation,30000,,"5412 COVENTRY LN",AUSTIN,TX,78723,"ROYAL OAK ESTATES",35,"ANDREW LE","5412 COVENTRY LN",AUSTIN,TX,78723,,Owner,,,,,"FIT BUILD CONSTRUCTION",,,,,"FIT BUILD CONSTRUCTION","163 MOKULUA LN",BASTROP,TX,78602-6030,"(512) 748-5952",,,,
TX,TRAVIS,"2020-168478 BP","Residential Renovations & Additions",11/5/2020,Renovation,30144,,"12812 SERAFY CT",AUSTIN,TX,78753,"HARRIS RIDGE",32,"MOLLIE STANLEY","12812 SERAFY CT",AUSTIN,TX,78753,,Owner,,,,,"RENEWAL BY ANDERSEN",,,,,"RENEWAL BY ANDERSEN","2100 KRAMER LN STE 600",AUSTIN,TX,78758-4045,"(512) 834-8383",,,,
TX,TRAVIS,"2020-168441 BP","Residential Renovations & Additions",11/5/2020,Renovation,31826,,"1803 ROCKMOOR AVE",AUSTIN,TX,78703,"CHERRY ROCK",6,"KELLI FRANKLIN","1803 ROCKMOOR AVE",AUSTIN,TX,78703,,Owner,,,,,"RENEWAL BY ANDERSEN",,,,,"RENEWAL BY ANDERSEN","2100 KRAMER LN STE 600",AUSTIN,TX,78758-4045,"(512) 834-8383",,,,
TX,TRAVIS,"2020-168568 BP","Residential Renovations & Additions",11/5/2020,Renovation,35138,,"3001 HILLVIEW RD",AUSTIN,TX,78703,"BROWN HERMAN",13,"BRIAN & JENNIFER GASTON","3001 HILLVIEW RD",AUSTIN,TX,78703,,Owner,,,,,"RENEWAL BY ANDERSEN",,,,,"RENEWAL BY ANDERSEN","2100 KRAMER LN STE 600",AUSTIN,TX,78758-4045,"(512) 834-8383",,,,
TX,TRAVIS,"2020-168706 BP","Residential Renovations & Additions",11/9/2020,Renovation,40000,,"8206 AVOCET DR",AUSTIN,TX,78745,"CHERRY CREEK",22,"KYLE BOYD","8206 AVOCET DR",AUSTIN,TX,78745,,Owner,,,,,"DUSTIN JOHNSON EXTERIORS",,,,,"DUSTIN JOHNSON EXTERIORS","8700 BRODIE LN",AUSTIN,TX,78745-7900,"(512) 645-8455",,,,
TX,TRAVIS,"2020-168495 BP","Residential Renovations & Additions",11/5/2020,Renovation,42478,,"5903 CANE PACE",AUSTIN,TX,78746,"DAVENPORT RANCH",2,CONTRACTOR,,,,,,,,,,,"RENEWAL BY ANDERSEN",,,,,"RENEWAL BY ANDERSEN","2100 KRAMER LN STE 600",AUSTIN,TX,78758-4045,"(512) 834-8383",,,,
TX,TRAVIS,"2020-165137 BP","Residential Renovations & Additions",11/5/2020,Renovation,70000,,"2303 METCALFE RD",AUSTIN,TX,78741,"SANTA MONICA PARK",20,CONTRACTOR,,,,,,,,,,,"SELL YOUR HOUSE",,,,,"SELL YOUR HOUSE","1808 CINNAMON PATH",AUSTIN,TX,78704-4875,"(512) 226-3791",,,"JUSTIN DON JUAN",
TX,TRAVIS,"2020-065302 BP","Residential Renovations & Additions",11/6/2020,Renovation,76000,,"11506 PENCEWOOD DR",AUSTIN,TX,78750,"SPICEWOOD AT BALCONES VILLAGE",1,"STEPHEN & JENNIFER BRAUD","11506 PENCEWOOD DR",AUSTIN,TX,78750,,Owner,,,,,"MARASAGLIA CONSULTING SERVICES",,,,,"MARASAGLIA CONSULTING SERVICES","311 COMANCHE CIR ",HUTTO,TX,78634,"(817) 714-9137",,,,
TX,TRAVIS,"2020-166531 BP","Residential Renovations & Additions",11/5/2020,Renovation,167000,,"3904 BAILEY LN",AUSTIN,TX,78756,"PLEASANT GROVE",1,CONTRACTOR,,,,,,,,,,,"TRI-COUNTY CONSTRUCTION",,,,,"TRI-COUNTY CONSTRUCTION","PO BOX 247",MANCHACA,TX,78652-0247,"(512) 282-6224",http://www.tri-countyconst.com/,"(512) 280-0085",,tricoconst@austin.rr.com
TX,WILLIAMSON,2020-66764,"Residential Renovations & Additions",10/2/2020,Renovation,30000,1919,"107 WHIPPOORWILL WAY",GEORGETOWN,TX,78633,,,CONTRACTOR,,,,,,,,,,,"STATEWIDE REMODELING",,,,,"STATEWIDE REMODELING","2209 RUTLAND DR STE 100",AUSTIN,TX,78758-5263,"(512) 817-1141",,,,
TX,WILLIAMSON,2020-67241,"Residential Renovations & Additions",10/21/2020,Renovation,40000,,"910 BROOK MEADOW CV",GEORGETOWN,TX,78633,,,"ANDREW RICHEY","910 BROOK MEADOW CV",GEORGETOWN,TX,78633,,Applicant,,,,,OWNER,,,,,OWNER,,,,,,,,,
TX,WILLIAMSON,2020-67550,"Residential Renovations & Additions",10/26/2020,Renovation,183000,1680,"1610 S CHURCH ST",GEORGETOWN,TX,78633,,,CONTRACTOR,,,,,,,,,,,"GREEN EARTH BUILDERS",,,,,"GREEN EARTH BUILDERS","333 WILBARGER PT",GEORGETOWN,TX,78626-7395,"(512) 677-1336",,,,
TX,WILLIAMSON,2020-29333,"Residential Swimming Pools & Spas",10/19/2020,,125000,,"2500 CAPARZO DR","CEDAR PARK",TX,78613,,,CONTRACTOR,,,,,,,,,,,"DENALI POOLS",,,,,"DENALI POOLS","1904 BRUSHY BEND DR","ROUND ROCK",TX,78681-1451,"(512) 955-6564",,,,
TX,WILLIAMSON,2020-29388,"Residential Swimming Pools & Spas",10/7/2020,,49000,,"4202 THOROUGHBRED TRL","CEDAR PARK",TX,78613,,,"CHRISTOPHER & JASON HARTLEY","4202 THOROUGHBRED TRL","CEDAR PARK",TX,78613,,Owner,,,,,"CODY POOLS",,,,,"CODY POOLS","2300 W PARMER LN",AUSTIN,TX,78727-4332,"(512) 835-4966",http://www.codypools.com,,"COLE NAUMAN",
TX,WILLIAMSON,2020-29394,"Residential Swimming Pools & Spas",10/14/2020,,70000,,"4011 ANDERSON BLUFF DR","CEDAR PARK",TX,78613,,,"CATHY VASILEV","4011 ANDERSON BLUFF DR","CEDAR PARK",TX,78613,,Owner,,,,,"PREMIER POOLS & SPAS",,,,,"PREMIER POOLS & SPAS","1333 MCDERMOTT STE 200",ALLEN,TX,75013,"(214) 620-1044",,,,
TX,WILLIAMSON,2020-29453,"Residential Swimming Pools & Spas",10/14/2020,,65000,,"409 S FRONTIER LN","CEDAR PARK",TX,78613,,,"BENJAMIN & KALIIMOMI LANDMAN","409 S FRONTIER LN","CEDAR PARK",TX,78613,,Owner,,,,,"LOY CUSTOM POOLS",,,,,"LOY CUSTOM POOLS","13201 LEGENDARY DR APT 15205",AUSTIN,TX,78727-4046,"(512) 904-0006",https://www.loycustompooldesigns.com,,"DENNIS LOY",info@loycustompools.com
TX,WILLIAMSON,2020-29498,"Residential Swimming Pools & Spas",10/1/2020,,52000,,"3702 TURKEY PATH BND","CEDAR PARK",TX,78613,,,"GREGORY & MARIA BRAIN","3702 TURKEY PATH BND","CEDAR PARK",TX,78613,,Owner,,,,,"ADVANCED AQUATICS",,,,,"ADVANCED AQUATICS","13909 ROCK CLIFF DR",LEANDER,TX,78641-8230,"(512) 259-3278",,,,
TX,WILLIAMSON,2020-29500,"Residential Swimming Pools & Spas",10/1/2020,,83439,,"304 FLAGSTONE CT","CEDAR PARK",TX,78613,"RANCH AT BRUSHY",,"DIOGO ARAUJO","304 FLAGSTONE CT","CEDAR PARK",TX,78613,,Owner,,,,,"DENALI POOLS",,,,,"DENALI POOLS","1904 BRUSHY BEND DR","ROUND ROCK",TX,78681-1451,"(512) 955-6564",,,,
TX,WILLIAMSON,2020-29505,"Residential Swimming Pools & Spas",10/1/2020,,93796,1042,"4111 BRADY RIDGE DR","CEDAR PARK",TX,78613,,,"BRIAN & MARGARET GAUTREAU","4111 BRADY RIDGE DR","CEDAR PARK",TX,78613,,Owner,,,,,"DENALI POOLS",,,,,"DENALI POOLS","1904 BRUSHY BEND DR","ROUND ROCK",TX,78681-1451,"(512) 955-6564",,,,
TX,WILLIAMSON,2020-29516,"Residential Swimming Pools & Spas",10/12/2020,,104500,,"2721 GHOLSON DR","CEDAR PARK",TX,78613,,,CONTRACTOR,,,,,,,,,,,"OMNIA OUTDOORS",,,,,"OMNIA OUTDOORS","4809 WILLIAMS DR BLDG 2",GEORGETOWN,TX,78633,"(512) 240-4645",http://omniaoutdoors.com/,,,
TX,WILLIAMSON,2020-29543,"Residential Swimming Pools & Spas",10/6/2020,,9062,,"2306 AMY LYNN LN","CEDAR PARK",TX,78613,,,"RACHEL & GABRIEL  ZAMBRANO","2306 AMY LYNN LN","CEDAR PARK",TX,78613,,Owner,,,,,"A-TEX FAMILY FUN CENTER",,,,,"A-TEX FAMILY FUN CENTER","8700 BURNET RD",AUSTIN,TX,78757-7008,"(512) 451-8353",http://www.atexfun.com/locations.php,,,
TX,WILLIAMSON,2020-29556,"Residential Swimming Pools & Spas",10/12/2020,,82000,,"2500 TIVOLI DR","CEDAR PARK",TX,78613,,,CONTRACTOR,,,,,,,,,,,"CRITES CUSTOM POOLS",,,,,"CRITES CUSTOM POOLS","208 HIGHWAY 79",HUTTO,TX,78634-4513,"(512) 759-2630",http://www.critescustompools.com,,,
TX,WILLIAMSON,2020-29562,"Residential Swimming Pools & Spas",10/12/2020,,47000,,"4002 KNOB CREEK LN","CEDAR PARK",TX,78613,,,"CARNELL & AMANDA WASHINGTON","4002 KNOB CREEK LN","CEDAR PARK",TX,78613,,Owner,,,,,"CODY POOLS",,,,,"CODY POOLS","2300 W PARMER LN",AUSTIN,TX,78727-4332,"(512) 835-4966",http://www.codypools.com,,"COLE NAUMAN",
TX,WILLIAMSON,2020-29581,"Residential Swimming Pools & Spas",10/16/2020,,73850,,"510 SPRING ARBOR LN","CEDAR PARK",TX,78613,,,"MATTHEW & JENNIFER REDICK","510 SPRING ARBOR LN","CEDAR PARK",TX,78613,,Owner,,,,,"ALL CLEAR POOLS",,,,,"ALL CLEAR POOLS","13704 THERMAL DR",AUSTIN,TX,78728-7732,"(512) 251-7382",,,,
TX,WILLIAMSON,2020-29583,"Residential Swimming Pools & Spas",10/20/2020,,89000,,"1505 PARKE BLUFF BND","CEDAR PARK",TX,78613,,,"JAMES & ELLEN HARRISON","1505 PARKE BLUFF BND","CEDAR PARK",TX,78613,,Owner,,,,,"ANTHONY & SYLVAN POOLS",,,,,"ANTHONY & SYLVAN POOLS","13343 N HIGHWAY 183 STE 295",AUSTIN,TX,78750-7161,"(512) 258-1232",http://www.anthonysylvan.com/,,,
TX,WILLIAMSON,2020-29664,"Residential Swimming Pools & Spas",10/16/2020,,45000,,"501 CLOVER FLAT RD","CEDAR PARK",TX,78613,,,"KIMBERLY & MICHELLE TARMANN","501 CLOVER FLAT RD","CEDAR PARK",TX,78613,,Owner,,,,,"PREMIER POOLS OF TEXAS",,,,,"PREMIER POOLS OF TEXAS","26111 INTERSTATE 45 # 401","THE WOODLANDS",TX,77380-1902,"(281) 541-2235",http://www.premierdesignbuilder.com/,,,premierdesignco@aol.com
TX,WILLIAMSON,2020-29669,"Residential Swimming Pools & Spas",10/20/2020,,120000,,"2702 FEATHERGRASS CT","CEDAR PARK",TX,78613,,,CONTRACTOR,,,,,,,,,,,"CALIFORNIA POOLS",,,,,"CALIFORNIA POOLS","12871 N HIGHWAY 183 STE 204",AUSTIN,TX,78750-3202,"(512) 537-6566",,,,
TX,WILLIAMSON,2020-29680,"Residential Swimming Pools & Spas",10/19/2020,,51000,,"1602 TEAL TRL","CEDAR PARK",TX,78613,,,"JILL SHOUP","1602 TEAL TRL","CEDAR PARK",TX,78613,,Owner,,,,,"CODY POOLS",,,,,"CODY POOLS","2300 W PARMER LN",AUSTIN,TX,78727-4332,"(512) 835-4966",http://www.codypools.com,,"COLE NAUMAN",
TX,WILLIAMSON,2020-29687,"Residential Swimming Pools & Spas",10/23/2020,,57000,,"4513 ZACHARYS RUN","CEDAR PARK",TX,78613,,,"CASIE & BRYAN CHAMBERS","4513 ZACHARYS RUN","CEDAR PARK",TX,78613,,Owner,,,,,"CODY POOLS",,,,,"CODY POOLS","2300 W PARMER LN",AUSTIN,TX,78727-4332,"(512) 835-4966",http://www.codypools.com,,"COLE NAUMAN",
TX,WILLIAMSON,2020-29692,"Residential Swimming Pools & Spas",10/30/2020,,100000,,"900 WALSH HILL TRL","CEDAR PARK",TX,78613,,,"LANCE & JEAN LEIN","900 WALSH HILL TRL","CEDAR PARK",TX,78613,,Owner,,,,,"CALIFORNIA POOLS",,,,,"CALIFORNIA POOLS","12871 N HIGHWAY 183 STE 204",AUSTIN,TX,78750-3202,"(512) 537-6566",,,,
TX,WILLIAMSON,2020-29713,"Residential Swimming Pools & Spas",10/28/2020,,60000,,"3304 CRYSTAL HILL DR","CEDAR PARK",TX,78613,,,"JOHN & ELIZABETH LESHIKAR","3304 CRYSTAL HILL DR","CEDAR PARK",TX,78613,,Owner,,,,,"TEXAS POOLS & PATIOS",,,,,"TEXAS POOLS & PATIOS","601 S BELL BLVD","CEDAR PARK",TX,78613-3854,"(512) 402-1175",http://www.texaspoolsandpatios.com/,,,
TX,WILLIAMSON,2020-29714,"Residential Swimming Pools & Spas",10/28/2020,,60000,,"504 SCARLET MAPLE DR","CEDAR PARK",TX,78613,,,"MARY & MARK OBERHOFF","504 SCARLET MAPLE DR","CEDAR PARK",TX,78613,,Owner,,,,,"TEXAS POOLS & PATIOS",,,,,"TEXAS POOLS & PATIOS","601 S BELL BLVD","CEDAR PARK",TX,78613-3854,"(512) 402-1175",http://www.texaspoolsandpatios.com/,,,
TX,WILLIAMSON,2020-29721,"Residential Swimming Pools & Spas",10/30/2020,,105000,,"3400 STERLING HEIGHTS CT","CEDAR PARK",TX,78613,,,CONTRACTOR,,,,,,,,,,,"EDGEWATER POOLS",,,,,"EDGEWATER POOLS","2800 E WHITESTONE BLVD STE 120","CEDAR PARK",TX,78613-7275,"(512) 569-9364",,,"SCOTT ASTON",
TX,TRAVIS,"2020-168136 BP","Residential Swimming Pools & Spas",11/5/2020,,,639,"14001 TYBURN TRL",AUSTIN,TX,78717,,,CONTRACTOR,,,,,,,,,,,"AUSTIN POOL GIRLS",,,,,"AUSTIN POOL GIRLS","13401 GALLERIA CIRCLE # 224",AUSTIN,TX,78738,"(512) 300-3694",,,,
TX,TRAVIS,"2020-000912 BP","Residential Swimming Pools & Spas",11/9/2020,,,285,"1117 BLUEBONNET LN",AUSTIN,TX,78704,"LUND PARK",4,CONTRACTOR,,,,,,,,,,,"JOSEPH DESIGN BUILD",,,,,"JOSEPH DESIGN BUILD","1100 S LAMAR BLVD STE 1145",AUSTIN,TX,78704-0371,"(512) 200-2168",,,,
TX,TRAVIS,"2020-168192 BP","Residential Swimming Pools & Spas",11/9/2020,,,450,"15409 BANDON DR",AUSTIN,TX,78717,"AVERY RANCH",,CONTRACTOR,,,,,,,,,,,"CODY POOLS",,,,,"CODY POOLS","2300 W PARMER LN",AUSTIN,TX,78727-4332,"(512) 835-4966",http://www.codypools.com,,"COLE NAUMAN",
TX,TRAVIS,"2020-163900 BP","Residential Swimming Pools & Spas",11/9/2020,,,288,"1206 GREEN FOREST DR",AUSTIN,TX,78745,"GREENWOOD FOREST",12,"DANIEL CABRERA","1206 GREEN FOREST DR",AUSTIN,TX,78745,,Owner,,,,,"MOORE-TATE PROJECTS AND DESIGN",,,,,"MOORE-TATE PROJECTS AND DESIGN","307-B MONROE",AUSTIN,TX,78704,"(512) 517-9333",,,,
TX,TRAVIS,"2020-158651 BP","Residential Swimming Pools & Spas",11/9/2020,,,330,"4100 RIDGELEA DR",AUSTIN,TX,78731,RIDGELEA,58,CONTRACTOR,,,,,,,,,,,"CCG DEVELOPMENT",,,,,"CCG DEVELOPMENT","3600 N CAPITAL OF TEXAS HWY BLDG B STE 1",AUSTIN,TX,78746-3314,"(512) 687-3494",http://www.ccgatx.com/,"(888) 840-1457",,
TX,TRAVIS,"2020-069667 BP","Residential Swimming Pools & Spas",11/9/2020,,,80,"2905 OAKLANE DR",AUSTIN,TX,78704,"BARTON HILLS",10,"MINH & STACEY TRAN","2905 OAKLANE DR",AUSTIN,TX,78704,,Owner,,,,,"JOSEPH DESIGN BUILD",,,,,"JOSEPH DESIGN BUILD","1100 S LAMAR BLVD STE 1145",AUSTIN,TX,78704-0371,"(512) 200-2168",,,,
TX,TRAVIS,"2020-164790 BP","Residential Swimming Pools & Spas",11/9/2020,,,595,"6917 MITRA DR",AUSTIN,TX,78739,MERIDIAN,26,"NATHELIE ASHBY","6917 MITRA DR",AUSTIN,TX,78739,,Owner,,,,,"RIVER HILLS CONSTRUCTION",,,,,"RIVER HILLS CONSTRUCTION","9926 VIKKI TER",AUSTIN,TX,78736-7840,"(512) 791-4402",,,,
TX,TRAVIS,"2020-167458 BP","Residential Swimming Pools & Spas",11/9/2020,,,576,"2520 IONIAN CV",AUSTIN,TX,78730,"THE WOODS OF GREENSHORES",19,"PHILIP & ALLISON WILHELM","2520 IONIAN CV",AUSTIN,TX,78730,,Owner,,,,,"RELIANT POOLS",,,,,"RELIANT POOLS","12343 HYMEADOW DR STE 3A",AUSTIN,TX,78750-1858,"(512) 407-2623",http://www.reliantpools.com/,,,
TX,TRAVIS,"2020-167444 BP","Residential Swimming Pools & Spas",11/5/2020,,30000,535,"7435 PUSCH RIDGE LOOP",AUSTIN,TX,78749,SUNSET,27,"NATHAN BRINK","7435 PUSCH RIDGE LOOP",AUSTIN,TX,78749,,Owner,,,,,"FRIEDMAN GENERAL CONTRACTING",,,,,"FRIEDMAN GENERAL CONTRACTING","7004 GREENOCK ST ",AUSTIN,TX,78749,"(512) 230-4974",,,,
TX,TRAVIS,"2020-167521 BP","Residential Swimming Pools & Spas",11/4/2020,,40000,662,"3130 MONTWOOD TRL",AUSTIN,TX,78748,"SOUTHLAND OAKS",19,"EDWARD & CHARLIE MURPHY","3130 MONTWOOD TRL",AUSTIN,TX,78748,,Owner,,,,,"CRYSTAL CLEAR POOLS & SPAS",,,,,"CRYSTAL CLEAR POOLS & SPAS","700 W APPLEGATE DR STE 100",AUSTIN,TX,78753-3610,"(512) 339-9304",http://www.poolrelief.com/,,,
TX,TRAVIS,"2020-167785 BP","Residential Swimming Pools & Spas",11/9/2020,,40000,541,"2421 JARRATT AVE",AUSTIN,TX,78703,"PEMBERTON HEIGHTS",12,"WILLIAM & ELIZABETH FARMER","2421 JARRATT AVE",AUSTIN,TX,78703,,Owner,,,,,"LIQUID ASSETS CUSTOM POOLS",,,,,"LIQUID ASSETS CUSTOM POOLS","1021 RANCH ROAD 620 S",LAKEWAY,TX,78734-5611,"(512) 444-5444",,,,
TX,TRAVIS,"2020-155001 BP","Residential Swimming Pools & Spas",11/5/2020,,50000,419,"3302 MOUNT BONNELL DR",AUSTIN,TX,78731,"BALCONES PARK",19,"MARY PARTAIN","3302 MOUNT BONNELL DR",AUSTIN,TX,78731,,Owner,,,,,"DA VINCI POOLS",,,,,"DA VINCI POOLS","1460 E WHITESTONE BLVD STE 150","CEDAR PARK",TX,78613-2240,"(512) 259-9321",http://www.davincipools.com/,,,
TX,TRAVIS,"2020-156191 BP","Residential Swimming Pools & Spas",11/6/2020,,60000,512,"1507 FALCON LEDGE DR",AUSTIN,TX,78746,"LOST CREEK",16,"CHRISTOPHER & MEGAN GASKINS","1507 FALCON LEDGE DR",AUSTIN,TX,78746,,Owner,,,,,"CLEAR REFLECTIONS POOLS & SPAS",,,,,"CLEAR REFLECTIONS POOLS & SPAS","11606 QUARTER HORSE TRL",AUSTIN,TX,78750-1393,"(512) 906-9556",,,,
TX,TRAVIS,"2020-167039 BP","Residential Swimming Pools & Spas",11/9/2020,,60000,769,"2500 WOODMONT AVE",AUSTIN,TX,78703,"WOODMONT FOREST",3,"JEFFREY & ALLISON EDWARDS","2500 WOODMONT AVE",AUSTIN,TX,78703,,Owner,,,,,"LIQUID ASSETS CUSTOM POOLS",,,,,"LIQUID ASSETS CUSTOM POOLS","1021 RANCH ROAD 620 S",LAKEWAY,TX,78734-5611,"(512) 444-5444",,,,
TX,TRAVIS,"2020-161505 BP","Residential Swimming Pools & Spas",11/9/2020,,65000,144,"4310 MARATHON BLVD",AUSTIN,TX,78756,"ALTA VISTA",11,"JUSTIN & AMANDA BROSIG","4310 MARATHON BLVD",AUSTIN,TX,78756,,Owner,,,,,"TEXAS TINY POOLS",,,,,"TEXAS TINY POOLS","10509 OLD MANCHACA RD",AUSTIN,TX,78748-2117,"(512) 845-3151",,,,
TX,TRAVIS,"2020-168494 BP","Residential Swimming Pools & Spas",11/5/2020,,66000,420,"8404 BARGAMIN DR",AUSTIN,TX,78736,"WINDMILL RUN",4,"WESLEY HOPKINS","8404 BARGAMIN DR",AUSTIN,TX,78736,,Owner,,,,,"ANTHONY & SYLVAN POOLS",,,,,"ANTHONY & SYLVAN POOLS","13343 N HIGHWAY 183 STE 295",AUSTIN,TX,78750-7161,"(512) 258-1232",http://www.anthonysylvan.com/,,,
TX,TRAVIS,"2020-166520 BP","Residential Swimming Pools & Spas",11/5/2020,,68000,428,"4322 GANYMEDE DR",AUSTIN,TX,78727,MILWOOD,12,"BENJAMIN MANIERE","4322 GANYMEDE DR",AUSTIN,TX,78727,,Owner,,,,,"CHAPARREL CONSTRUCTION",,,,,"CHAPARREL CONSTRUCTION","12129 RANCH ROAD 620 N STE 605",AUSTIN,TX,78750-1090,"(512) 650-0501",http://www.chaparrelconstruction.com/,,,
TX,TRAVIS,"2020-133290 BP","Residential Swimming Pools & Spas",11/4/2020,,75750,291,"1206 GARNER AVE",AUSTIN,TX,78704,"BARTON HEIGHTS",1,CONTRACTOR,,,,,,,,,,,"STAG POOLS",,,,,"STAG POOLS","9509 SAN LUCAS",AUSTIN,TX,78737-1232,"(512) 696-0669",http://stagpools.com/,,,John@stagpools.com
TX,TRAVIS,"2020-165992 BP","Residential Swimming Pools & Spas",11/9/2020,,110000,448,"4019 LOVE BIRD LN",AUSTIN,TX,78730,"RIVER PLACE",16,"KATHERINE HENRY","4019 LOVE BIRD LN",AUSTIN,TX,78730,,Owner,,,,,"EDGEWATER POOLS",,,,,"EDGEWATER POOLS","2800 E WHITESTONE BLVD STE 120","CEDAR PARK",TX,78613-7275,"(512) 569-9364",,,"SCOTT ASTON",
TX,WILLIAMSON,2020-60128,"Residential Swimming Pools & Spas",10/15/2020,,92000,,"616 MUSTER BND",GEORGETOWN,TX,78633,,,"JENNIFER & VETERAN PACHECO","616 MUSTER BND",GEORGETOWN,TX,78633,,Owner,,,,,"LAGUNA AZUL POOLS",,,,,"LAGUNA AZUL POOLS","5199 US-183 ",LOCKHART,TX,78644,"(512) 810-5269",https://www.lagunaazulpools.com/,,,dannielle@lagunaazulpools.com
TX,WILLIAMSON,2020-67400,"Residential Swimming Pools & Spas",10/27/2020,,65000,,"29105 BRIARCREST DR",GEORGETOWN,TX,78633,,,"MARC & CRYSTAL KRUSE","29105 BRIARCREST DR",GEORGETOWN,TX,78633,,Owner,,,,,"TEXAS POOLS & PATIOS",,,,,"TEXAS POOLS & PATIOS","16264 SAN PEDRO AVE","SAN ANTONIO",TX,78232-3070,"(210) 524-0177",http://www.texaspoolsandpatios.com/,"(210) 493-2146",,
TX,WILLIAMSON,2020-67418,"Residential Swimming Pools & Spas",10/23/2020,,47000,,"201 LAVERNE TER",GEORGETOWN,TX,78633,,,"BRADLEY & MARIAN COCKRUM","201 LAVERNE TER",GEORGETOWN,TX,78633,,Owner,,,,,"PERMITS PLUS",,,,,"PERMITS PLUS","1107 E 52ND ST",ODESSA,TX,79762-4352,"(432) 550-4303",http://www.permitsplus-houston.com/,,,
TX,WILLIAMSON,2020-67473,"Residential Swimming Pools & Spas",10/22/2020,,65000,,"418 DAVIS MOUNTAIN CIR",GEORGETOWN,TX,78633,,,"DONALD & LEANN SCHUMANN","418 DAVIS MOUNTAIN CIR",GEORGETOWN,TX,78633,,Owner,,,,,"PERMITS PLUS",,,,,"PERMITS PLUS","1107 E 52ND ST",ODESSA,TX,79762-4352,"(432) 550-4303",http://www.permitsplus-houston.com/,,,
TX,WILLIAMSON,2020-67474,"Residential Swimming Pools & Spas",10/23/2020,,83000,,"268 ARROWHEAD MOUND RD",GEORGETOWN,TX,78633,,,CONTRACTOR,,,,,,,,,,,"DENALI POOLS",,,,,"DENALI POOLS","1904 BRUSHY BEND DR","ROUND ROCK",TX,78681-1451,"(512) 955-6564",,,,
TX,WILLIAMSON,2020-67651,"Residential Swimming Pools & Spas",10/23/2020,,79665,,"616 BELLAIRE DR",GEORGETOWN,TX,78633,,,"TERRY & GWEN SWETS","616 BELLAIRE DR",GEORGETOWN,TX,78633,,Owner,,,,,"DENALI POOLS",,,,,"DENALI POOLS","1904 BRUSHY BEND DR","ROUND ROCK",TX,78681-1451,"(512) 955-6564",,,,
TX,TRAVIS,"2020-165967 BP",Retail,11/6/2020,Renovation,1200000,11618,"2402 GUADALUPE ST UNIT B",AUSTIN,TX,78705,,1,CONTRACTOR,,,,,,,,,,,"TBC COMMERCIAL CONSTRUCTION",,,,,"TBC COMMERCIAL CONSTRUCTION","PO BOX 214",PORTLAND,TX,78374-0214,"(512) 845-5147",http://tbc-commercial.com,"(361) 643-1300","BOBBY MCCOY JR",bobbyjr@txbest.net
TX,TRAVIS,"2020-108497 BP",Retail,11/9/2020,Renovation,5000000,27197,"5416 PARKCREST DR",AUSTIN,TX,78731,CHAMBERS,,CONTRACTOR,,,,,,,,,,,"QC TEXAS CONTRACTING",,,,,"QC TEXAS CONTRACTING","1301 CENTRAL EXPY S STE 220",ALLEN,TX,75013-9802,"(214) 564-5229",,,,
TX,TRAVIS,"2020-163725 BP",Retail,11/5/2020,Renovation,7900000,73790,"12407 N MOPAC EXPY SVRD",AUSTIN,TX,78758,"PARMER SQUARE",2,CONTRACTOR,,,,,,,,,,,"SPAWGLASS CONTRACTORS",,,,,"SPAWGLASS CONTRACTORS","1111 SMITH RD",AUSTIN,TX,78721-3532,"(512) 801-0888",,,,
TX,TRAVIS,"2020-163925 BP",Retail,11/9/2020,,59587318,348452,"2652 LAKE AUSTIN BLVD",AUSTIN,TX,78703,SAFEWAY,,CONTRACTOR,,,,,,,,,,,"JOERIS GENERAL CONTRACTORS",,,,,"JOERIS GENERAL CONTRACTORS","9211 WATERFORD CENTRE BLVD STE 150",AUSTIN,TX,78758-7679,"(512) 920-0338",,,,
TX,WILLIAMSON,2020-67059,Retail,10/15/2020,,50000,2000,"711 S MAIN ST",GEORGETOWN,TX,78626,,,CONTRACTOR,,,,,,,,,,,"K&W ENGINEERING SOLUTIONS",,,,,"K&W ENGINEERING SOLUTIONS","650 PVT RD 912",GEORGETOWN,TX,78628,"(512) 639-3131",https://www.kwengineering.net/,,,info@kwengineeringsolutions.com
TX,WILLIAMSON,2019-54511,Retail,10/13/2020,,2000000,19209,"926 W UNIVERSITY AVE",GEORGETOWN,TX,78626,,,CONTRACTOR,,,,,,,,,,,"BLACK CANYON CONSTRUCTION",,,,,"BLACK CANYON CONSTRUCTION","139 OAK ACRES",HOUSTON,TX,78006,"(210) 748-4001",http://www.blackcanyonconstruction.com/,,,
TX,WILLIAMSON,2020-65296,Retail,10/7/2020,,200000,655,"1204 WILLIAMS DR",GEORGETOWN,TX,78626,,,CONTRACTOR,,,,,,,,,,,"WANG ARCHITECTS",,,,,"WANG ARCHITECTS","1623 RIVERY DR",GEORGETOWN,TX,78628-3677,"(512) 677-9610",http://www.wangarchitects.com/,,"GARY WANG",
TX,WILLIAMSON,2020-28754,"Single Family Homes",10/9/2020,,151335,3363,"3204 SCENIC VALLEY DR","CEDAR PARK",TX,78641,,,CONTRACTOR,,,,,,,,,,,"MILESTONE COMMUNITY BUILDERS",,,,,"MILESTONE COMMUNITY BUILDERS","9111 JOLLYVILLE RD STE 111",AUSTIN,TX,78759-7406,"(512) 686-4986",http://www.mymilestone.com/,,,
TX,WILLIAMSON,2020-28755,"Single Family Homes",10/9/2020,,151335,3363,"3505 PEAK VIEW DR","CEDAR PARK",TX,78641,,,CONTRACTOR,,,,,,,,,,,"MILESTONE COMMUNITY BUILDERS",,,,,"MILESTONE COMMUNITY BUILDERS","9111 JOLLYVILLE RD STE 111",AUSTIN,TX,78759-7406,"(512) 686-4986",http://www.mymilestone.com/,,,
TX,WILLIAMSON,2020-29026,"Single Family Homes",10/9/2020,,207675,3805,"4410 LOGAN RIDGE DR","CEDAR PARK",TX,78613,,,CONTRACTOR,,,,,,,,,,,"LENNAR HOMES",,,,,"LENNAR HOMES","13620 FM 620 RD 150",AUSTIN,TX,78717,"(512) 506-4000",http://www.lennar.com/,,,
TX,WILLIAMSON,2020-29080,"Single Family Homes",10/28/2020,,351375,,"4405 LOGAN RIDGE DR","CEDAR PARK",TX,78613,,,CONTRACTOR,,,,,,,,,,,"LENNAR HOMES",,,,,"LENNAR HOMES","13620 FM 620 RD 150",AUSTIN,TX,78717,"(512) 506-4000",http://www.lennar.com/,,,
TX,WILLIAMSON,2020-29081,"Single Family Homes",10/28/2020,,398475,5313,"4407 LOGAN RIDGE DR","CEDAR PARK",TX,78613,,,CONTRACTOR,,,,,,,,,,,"LENNAR HOMES",,,,,"LENNAR HOMES","13620 FM 620 RD 150",AUSTIN,TX,78717,"(512) 506-4000",http://www.lennar.com/,,,
TX,WILLIAMSON,2020-29082,"Single Family Homes",10/28/2020,,388275,5177,"4409 LOGAN RIDGE DR","CEDAR PARK",TX,78613,,,CONTRACTOR,,,,,,,,,,,"LENNAR HOMES",,,,,"LENNAR HOMES","13620 FM 620 RD 150",AUSTIN,TX,78717,"(512) 506-4000",http://www.lennar.com/,,,
TX,WILLIAMSON,2020-29132,"Single Family Homes",10/21/2020,,157455,,"3508 CANOPY LN","CEDAR PARK",TX,78641,,,CONTRACTOR,,,,,,,,,,,"MILESTONE COMMUNITY BUILDERS",,,,,"MILESTONE COMMUNITY BUILDERS","9111 JOLLYVILLE RD STE 111",AUSTIN,TX,78759-7406,"(512) 686-4986",http://www.mymilestone.com/,,,
TX,WILLIAMSON,2020-29133,"Single Family Homes",10/9/2020,,158040,3512,"3209 SCENIC VALLEY DR","CEDAR PARK",TX,78641,"MISTY VALLEY",,CONTRACTOR,,,,,,,,,,,"MILESTONE COMMUNITY BUILDERS",,,,,"MILESTONE COMMUNITY BUILDERS","9111 JOLLYVILLE RD STE 111",AUSTIN,TX,78759-7406,"(512) 686-4986",http://www.mymilestone.com/,,,
TX,WILLIAMSON,2020-29150,"Single Family Homes",10/28/2020,,423825,5651,"4411 EDGEWATER DR","CEDAR PARK",TX,78613,,,CONTRACTOR,,,,,,,,,,,"LENNAR HOMES",,,,,"LENNAR HOMES","13620 FM 620 RD 150",AUSTIN,TX,78717,"(512) 506-4000",http://www.lennar.com/,,,
TX,WILLIAMSON,2020-29151,"Single Family Homes",10/28/2020,,274275,3657,"4412 EDGEWATER DR","CEDAR PARK",TX,78613,,,CONTRACTOR,,,,,,,,,,,"LENNAR HOMES",,,,,"LENNAR HOMES","13620 FM 620 RD 150",AUSTIN,TX,78717,"(512) 506-4000",http://www.lennar.com/,,,
TX,WILLIAMSON,2020-29152,"Single Family Homes",10/29/2020,,354300,4724,"4413 EDGEWATER DR","CEDAR PARK",TX,78613,,,CONTRACTOR,,,,,,,,,,,"LENNAR HOMES",,,,,"LENNAR HOMES","13620 FM 620 RD 150",AUSTIN,TX,78717,"(512) 506-4000",http://www.lennar.com/,,,
TX,WILLIAMSON,2020-29153,"Single Family Homes",10/28/2020,,443325,5105,"4101 LOGAN RIDGE DR","CEDAR PARK",TX,78613,,,CONTRACTOR,,,,,,,,,,,"LENNAR HOMES",,,,,"LENNAR HOMES","13620 FM 620 RD 150",AUSTIN,TX,78717,"(512) 506-4000",http://www.lennar.com/,,,
TX,WILLIAMSON,2020-29154,"Single Family Homes",10/28/2020,,361425,4819,"4401 LOGAN RIDGE DR","CEDAR PARK",TX,78613,,,CONTRACTOR,,,,,,,,,,,"LENNAR HOMES",,,,,"LENNAR HOMES","13620 FM 620 RD 150",AUSTIN,TX,78717,"(512) 506-4000",http://www.lennar.com/,,,
TX,WILLIAMSON,2020-29155,"Single Family Homes",10/28/2020,,495075,5476,"4411 LOGAN RIDGE DR","CEDAR PARK",TX,78613,,,CONTRACTOR,,,,,,,,,,,"LENNAR HOMES",,,,,"LENNAR HOMES","13620 FM 620 RD 150",AUSTIN,TX,78717,"(512) 506-4000",http://www.lennar.com/,,,
TX,WILLIAMSON,2020-29156,"Single Family Homes",10/29/2020,,279450,3726,"4415 LOGAN RIDGE DR","CEDAR PARK",TX,78613,,,CONTRACTOR,,,,,,,,,,,"LENNAR HOMES",,,,,"LENNAR HOMES","13620 FM 620 RD 150",AUSTIN,TX,78717,"(512) 506-4000",http://www.lennar.com/,,,
TX,WILLIAMSON,2020-29157,"Single Family Homes",10/29/2020,,415800,5544,"200 WALSH HILL TRL","CEDAR PARK",TX,78613,,,CONTRACTOR,,,,,,,,,,,"LENNAR HOMES",,,,,"LENNAR HOMES","13620 FM 620 RD 150",AUSTIN,TX,78717,"(512) 506-4000",http://www.lennar.com/,,,
TX,WILLIAMSON,2020-29159,"Single Family Homes",10/29/2020,,446925,5126,"206 WALSH HILL TRL","CEDAR PARK",TX,78613,,,CONTRACTOR,,,,,,,,,,,"LENNAR HOMES",,,,,"LENNAR HOMES","13620 FM 620 RD 150",AUSTIN,TX,78717,"(512) 506-4000",http://www.lennar.com/,,,
TX,WILLIAMSON,2020-29161,"Single Family Homes",10/29/2020,,386925,5159,"212 WALSH HILL TRL","CEDAR PARK",TX,78613,,,CONTRACTOR,,,,,,,,,,,"LENNAR HOMES",,,,,"LENNAR HOMES","13620 FM 620 RD 150",AUSTIN,TX,78717,"(512) 506-4000",http://www.lennar.com/,,,
TX,WILLIAMSON,2020-29231,"Single Family Homes",10/9/2020,,153720,3416,"3502 CANOPY LN","CEDAR PARK",TX,78641,,,CONTRACTOR,,,,,,,,,,,"MILESTONE COMMUNITY BUILDERS",,,,,"MILESTONE COMMUNITY BUILDERS","9111 JOLLYVILLE RD STE 111",AUSTIN,TX,78759-7406,"(512) 686-4986",http://www.mymilestone.com/,,,
TX,WILLIAMSON,2020-29237,"Single Family Homes",10/9/2020,,175050,3890,"3503 CANOPY LN","CEDAR PARK",TX,78641,,,CONTRACTOR,,,,,,,,,,,"MILESTONE COMMUNITY BUILDERS",,,,,"MILESTONE COMMUNITY BUILDERS","9111 JOLLYVILLE RD STE 111",AUSTIN,TX,78759-7406,"(512) 686-4986",http://www.mymilestone.com/,,,
TX,WILLIAMSON,2020-29327,"Single Family Homes",10/13/2020,,744990,,"716 KODIAK TRL","CEDAR PARK",TX,78613,,,CONTRACTOR,,,,,,,,,,,"MILESTONE COMMERCIAL & DESIGN",,,,,"MILESTONE COMMERCIAL & DESIGN","2415 SUMMER CT",ARLINGTON,TX,76001-7073,"(817) 453-2964",,,"JOE VALENZUELA",
TX,WILLIAMSON,2020-29447,"Single Family Homes",10/28/2020,,275325,3671,"4403 LOGAN RIDGE DR","CEDAR PARK",TX,78613,,,CONTRACTOR,,,,,,,,,,,"LENNAR HOMES",,,,,"LENNAR HOMES","13620 FM 620 RD 150",AUSTIN,TX,78717,"(512) 506-4000",http://www.lennar.com/,,,
TX,WILLIAMSON,2020-29480,"Single Family Homes",10/29/2020,,359550,4794,"4409 EDGEWATER DR","CEDAR PARK",TX,78613,,,CONTRACTOR,,,,,,,,,,,"LENNAR HOMES",,,,,"LENNAR HOMES","13620 FM 620 RD 150",AUSTIN,TX,78717,"(512) 506-4000",http://www.lennar.com/,,,
TX,WILLIAMSON,2020-29609,"Single Family Homes",10/20/2020,,165555,2547,"600 C-BAR RANCH TRL","CEDAR PARK",TX,78613,,,CONTRACTOR,,,,,,,,,,,"BROHN HOMES",,,,,"BROHN HOMES","6720 VAUGHT RANCH RD STE 200",AUSTIN,TX,78730-2354,"(512) 320-8833",http://brohnhomes.com/,,,
TX,WILLIAMSON,2020-29689,"Single Family Homes",10/19/2020,,203535,4523,"3820 BRUSHY CREEK RD","CEDAR PARK",TX,78613,,,CONTRACTOR,,,,,,,,,,,"MILESTONE COMMUNITY BUILDERS",,,,,"MILESTONE COMMUNITY BUILDERS","9111 JOLLYVILLE RD STE 111",AUSTIN,TX,78759-7406,"(512) 686-4986",http://www.mymilestone.com/,,,
TX,WILLIAMSON,2020-29191,"Single Family Homes",10/9/2020,,90000,1000,"3900 ARROW WOOD RD","CEDAR PARK",TX,78613,,,CONTRACTOR,,,,,,,,,,,"EDGEWATER POOLS",,,,,"EDGEWATER POOLS","2800 E WHITESTONE BLVD STE 120","CEDAR PARK",TX,78613-7275,"(512) 569-9364",,,"SCOTT ASTON",
TX,WILLIAMSON,2020-29585,"Single Family Homes",10/12/2020,,62582,,"1107 RAVENS CV","CEDAR PARK",TX,78613,,,CONTRACTOR,,,,,,,,,,,"DENALI POOLS",,,,,"DENALI POOLS","1904 BRUSHY BEND DR","ROUND ROCK",TX,78681-1451,"(512) 955-6564",,,,
TX,WILLIAMSON,2020-29653,"Single Family Homes",10/20/2020,,225000,2243,"606 GIRASSOL CV","CEDAR PARK",TX,78613,,,CONTRACTOR,,,,,,,,,,,"WATERVIEW POOLS",,,,,"WATERVIEW POOLS","13313 KINDER PASS",AUSTIN,TX,78727-3415,"(512) 289-7665",http://waterviewpools.com,,,
TX,WILLIAMSON,2020-29663,"Single Family Homes",10/23/2020,,53418,,"4201 LAZY RIVER BND","CEDAR PARK",TX,78613,,,CONTRACTOR,,,,,,,,,,,"DENALI POOLS",,,,,"DENALI POOLS","1904 BRUSHY BEND DR","ROUND ROCK",TX,78681-1451,"(512) 955-6564",,,,
TX,TRAVIS,"2020-169977 BP","Single Family Homes",11/6/2020,,146740,2668,"10813 CHARGER WAY",AUSTIN,TX,78724,"HERITAGE POINT AT WILDHORSE RANCH",1,CONTRACTOR,,,,,,,,,,,"BROHN HOMES",,,,,"BROHN HOMES","6720 VAUGHT RANCH RD STE 200",AUSTIN,TX,78730-2354,"(512) 320-8833",http://brohnhomes.com/,,,
TX,TRAVIS,"2020-166481 BP","Single Family Homes",11/9/2020,,153525,2047,"7514 DAVES LANDING DR",AUSTIN,TX,78724,,,CONTRACTOR,,,,,,,,,,,"DR HORTON",,,,,"DR HORTON","10700 PECAN PARK BLVD STE 400",AUSTIN,TX,78750-1227,"(512) 345-4663",,,,
TX,TRAVIS,"2020-170358 BP","Single Family Homes",11/9/2020,,158325,2111,"15312 SWEET MIMOSA DR",AUSTIN,TX,78617,,,CONTRACTOR,,,,,,,,,,,"LENNAR HOMES",,,,,"LENNAR HOMES","13620 FM 620 RD 150",AUSTIN,TX,78717,"(512) 506-4000",http://www.lennar.com/,,,
TX,TRAVIS,"2020-170787 BP","Single Family Homes",11/9/2020,,174225,2323,"7305 SPOTTED LEAF WAY",AUSTIN,TX,78617,,,CONTRACTOR,,,,,,,,,,,"LENNAR HOMES",,,,,"LENNAR HOMES","13620 FM 620 RD 150",AUSTIN,TX,78717,"(512) 506-4000",http://www.lennar.com/,,,
TX,TRAVIS,"2020-163808 BP","Single Family Homes",11/9/2020,,180000,3222,"1403 S REDONDO DR",AUSTIN,TX,78721,"OAK LAWN",33,CONTRACTOR,,,,,,,,,,,"MJC GROUP",,,,,"MJC GROUP","14709 HIGHSMITH ST",AUSTIN,TX,78725-1848,"(512) 791-2501",,,"MARK TAYLOR",
TX,TRAVIS,"2020-169606 BP","Single Family Homes",11/6/2020,,188475,3042,"12203 CORONILLA BND",AUSTIN,TX,78748,"ESTANCIA HILL COUNTRY",6,CONTRACTOR,,,,,,,,,,,"LENNAR HOMES",,,,,"LENNAR HOMES","13620 FM 620 RD 150",AUSTIN,TX,78717,"(512) 506-4000",http://www.lennar.com/,,,
TX,TRAVIS,"2020-167509 BP","Single Family Homes",11/9/2020,,192185,2821,"5356 AGATHA CIR",AUSTIN,TX,78724,"MEADOWS AT TRINITY CROSSING",16,CONTRACTOR,,,,,,,,,,,"URBAN INTOWN HOMES",,,,,"URBAN INTOWN HOMES","1520 OLIVER CIR ",HOUSTON,TX,77007,"(512) 653-0877",,,,
TX,TRAVIS,"2020-168424 BP","Single Family Homes",11/4/2020,,195825,2611,"15316 SWEET MIMOSA DR",AUSTIN,TX,78617,,,CONTRACTOR,,,,,,,,,,,"LENNAR HOMES",,,,,"LENNAR HOMES","13620 FM 620 RD 150",AUSTIN,TX,78717,"(512) 506-4000",http://www.lennar.com/,,,
TX,TRAVIS,"2020-170788 BP","Single Family Homes",11/9/2020,,199500,2660,"7309 SPOTTED LEAF WAY",AUSTIN,TX,78617,,,CONTRACTOR,,,,,,,,,,,"LENNAR HOMES",,,,,"LENNAR HOMES","13620 FM 620 RD 150",AUSTIN,TX,78717,"(512) 506-4000",http://www.lennar.com/,,,
TX,TRAVIS,"2020-170740 BP","Single Family Homes",11/9/2020,,200100,2744,"1202 WINNIE DR",AUSTIN,TX,78748,SLAUGHTER,,CONTRACTOR,,,,,,,,,,,"LENNAR HOMES",,,,,"LENNAR HOMES","13620 FM 620 RD 150",AUSTIN,TX,78717,"(512) 506-4000",http://www.lennar.com/,,,
TX,TRAVIS,"2020-170746 BP","Single Family Homes",11/9/2020,,238500,3180,"1103 WINIFRED DR",AUSTIN,TX,78748,SLAUGHTER,,CONTRACTOR,,,,,,,,,,,"LENNAR HOMES",,,,,"LENNAR HOMES","13620 FM 620 RD 150",AUSTIN,TX,78717,"(512) 506-4000",http://www.lennar.com/,,,
TX,TRAVIS,"2020-166975 BP","Single Family Homes",11/9/2020,,250000,3206,"6316 EL MIRANDO ST",AUSTIN,TX,78741,DELVALLE,,CONTRACTOR,,,,,,,,,,,"PARADISA HOMES",,,,,"PARADISA HOMES","7427 N LAMAR BLVD STE 101",AUSTIN,TX,78752-2358,"(512) 910-4505",http://www.paradisahomes.com/,,,
TX,TRAVIS,"2020-168372 BP","Single Family Homes",11/4/2020,,254990,2722,"10832 JAMESON DR",AUSTIN,TX,78749,DELVALLE,,CONTRACTOR,,,,,,,,,,,"MILESTONE COMMUNITY BUILDERS",,,,,"MILESTONE COMMUNITY BUILDERS","9111 JOLLYVILLE RD STE 111",AUSTIN,TX,78759-7406,"(512) 686-4986",http://www.mymilestone.com/,,,
TX,TRAVIS,"2020-169932 BP","Single Family Homes",11/6/2020,,254990,2860,"6101 PINE LEAF TRL",AUSTIN,TX,78728,DELVALLE,,CONTRACTOR,,,,,,,,,,,"MILESTONE COMMUNITY BUILDERS",,,,,"MILESTONE COMMUNITY BUILDERS","9111 JOLLYVILLE RD STE 111",AUSTIN,TX,78759-7406,"(512) 686-4986",http://www.mymilestone.com/,,,
TX,TRAVIS,"2020-169768 BP","Single Family Homes",11/6/2020,,254990,2678,"10702 SENTINEL DR",AUSTIN,TX,78747,DELVALLE,,CONTRACTOR,,,,,,,,,,,"MILESTONE COMMUNITY BUILDERS",,,,,"MILESTONE COMMUNITY BUILDERS","9111 JOLLYVILLE RD STE 111",AUSTIN,TX,78759-7406,"(512) 686-4986",http://www.mymilestone.com/,,,
TX,TRAVIS,"2020-169750 BP","Single Family Homes",11/6/2020,,254990,2397,"6320 MARY LEWIS DR",AUSTIN,TX,78747,DELVALLE,,CONTRACTOR,,,,,,,,,,,"MILESTONE COMMUNITY BUILDERS",,,,,"MILESTONE COMMUNITY BUILDERS","9111 JOLLYVILLE RD STE 111",AUSTIN,TX,78759-7406,"(512) 686-4986",http://www.mymilestone.com/,,,
TX,TRAVIS,"2020-169705 BP","Single Family Homes",11/6/2020,,254990,2589,"6329 PINE LEAF TRL",AUSTIN,TX,78729,DELVALLE,,CONTRACTOR,,,,,,,,,,,"MILESTONE COMMUNITY BUILDERS",,,,,"MILESTONE COMMUNITY BUILDERS","9111 JOLLYVILLE RD STE 111",AUSTIN,TX,78759-7406,"(512) 686-4986",http://www.mymilestone.com/,,,
TX,TRAVIS,"2020-169118 BP","Single Family Homes",11/5/2020,,255675,3409,"8604 APOGEE BLVD",AUSTIN,TX,78744,DELVALLE,,CONTRACTOR,,,,,,,,,,,"PACESETTER HOMES ",,,,,"PACESETTER HOMES ","7940 SHOAL CREEK BLVD STE 200",AUSTIN,TX,78757-7587,"(512) 323-5252",,,,
TX,TRAVIS,"2020-169698 BP","Single Family Homes",11/6/2020,,255675,3818,"8700 APOGEE BLVD",AUSTIN,TX,78744,DELVALLE,,CONTRACTOR,,,,,,,,,,,"PACESETTER HOMES ",,,,,"PACESETTER HOMES ","7940 SHOAL CREEK BLVD STE 200",AUSTIN,TX,78757-7587,"(512) 323-5252",,,,
TX,TRAVIS,"2020-169138 BP","Single Family Homes",11/5/2020,,262425,3499,"8205 PETRONAS PASS",AUSTIN,TX,78744,DELVALLE,,CONTRACTOR,,,,,,,,,,,"PACESETTER HOMES ",,,,,"PACESETTER HOMES ","7940 SHOAL CREEK BLVD STE 200",AUSTIN,TX,78757-7587,"(512) 323-5252",,,,
TX,TRAVIS,"2020-169130 BP","Single Family Homes",11/5/2020,,271725,3623,"8712 APOGEE BLVD",AUSTIN,TX,78744,DELVALLE,,CONTRACTOR,,,,,,,,,,,"PACESETTER HOMES ",,,,,"PACESETTER HOMES ","7940 SHOAL CREEK BLVD STE 200",AUSTIN,TX,78757-7587,"(512) 323-5252",,,,
TX,TRAVIS,"2020-169018 BP","Single Family Homes",11/5/2020,,277575,3701,"8504 APOGEE BLVD",AUSTIN,TX,78744,DELVALLE,,CONTRACTOR,,,,,,,,,,,"PACESETTER HOMES ",,,,,"PACESETTER HOMES ","7940 SHOAL CREEK BLVD STE 200",AUSTIN,TX,78757-7587,"(512) 323-5252",,,,
TX,TRAVIS,"2020-169020 BP","Single Family Homes",11/5/2020,,300000,4000,"8000 HILLOCK TER",AUSTIN,TX,78744,DELVALLE,,CONTRACTOR,,,,,,,,,,,"PACESETTER HOMES ",,,,,"PACESETTER HOMES ","7940 SHOAL CREEK BLVD STE 200",AUSTIN,TX,78757-7587,"(512) 323-5252",,,,
TX,TRAVIS,"2020-169111 BP","Single Family Homes",11/5/2020,,300600,4008,"8412 APOGEE BLVD",AUSTIN,TX,78744,DELVALLE,,CONTRACTOR,,,,,,,,,,,"PACESETTER HOMES ",,,,,"PACESETTER HOMES ","7940 SHOAL CREEK BLVD STE 200",AUSTIN,TX,78757-7587,"(512) 323-5252",,,,
TX,TRAVIS,"2020-169084 BP","Single Family Homes",11/5/2020,,317550,4234,"8004 HILLOCK TER",AUSTIN,TX,78744,DELVALLE,,CONTRACTOR,,,,,,,,,,,"PACESETTER HOMES ",,,,,"PACESETTER HOMES ","7940 SHOAL CREEK BLVD STE 200",AUSTIN,TX,78757-7587,"(512) 323-5252",,,,
TX,TRAVIS,"2020-169146 BP","Single Family Homes",11/5/2020,,317550,4234,"7908 HILLOCK TER",AUSTIN,TX,78744,DELVALLE,,CONTRACTOR,,,,,,,,,,,"PACESETTER HOMES ",,,,,"PACESETTER HOMES ","7940 SHOAL CREEK BLVD STE 200",AUSTIN,TX,78757-7587,"(512) 323-5252",,,,
TX,WILLIAMSON,2019-55805,"Single Family Homes",10/30/2020,,215994,3456,"213 DIAMONDBACK DR",GEORGETOWN,TX,78626,,,CONTRACTOR,,,,,,,,,,,"MHI MCGUYER HOMEBUILDERS",,,,,"MHI MCGUYER HOMEBUILDERS","8200 N MO PAC EXPY STE 300",AUSTIN,TX,78759-8844,"(512) 502-2050",,"(512) 388-1836","FRANK MCGUYER",
TX,WILLIAMSON,2020-58264,"Single Family Homes",10/12/2020,,338160,2818,"113 WINDOM WAY",GEORGETOWN,TX,78626,,,CONTRACTOR,,,,,,,,,,,"MERITAGE HOMES",,,,,"MERITAGE HOMES","8920 BUSINESS PARK DR STE 250",AUSTIN,TX,78759-7622,"(512) 610-4800",,,,
TX,WILLIAMSON,2020-59391,"Single Family Homes",10/16/2020,,245994,3771,"424 GRANITE ROCK LN",GEORGETOWN,TX,78626,,,CONTRACTOR,,,,,,,,,,,"MHI MCGUYER HOMEBUILDERS",,,,,"MHI MCGUYER HOMEBUILDERS","8200 N MO PAC EXPY STE 300",AUSTIN,TX,78759-8844,"(512) 502-2050",,"(512) 388-1836","FRANK MCGUYER",
TX,WILLIAMSON,2020-61201,"Single Family Homes",10/30/2020,,269394,3338,"1804 LAKESIDE RANCH RD",GEORGETOWN,TX,78633,,,CONTRACTOR,,,,,,,,,,,"MHI MCGUYER HOMEBUILDERS",,,,,"MHI MCGUYER HOMEBUILDERS","8200 N MO PAC EXPY STE 300",AUSTIN,TX,78759-8844,"(512) 502-2050",,"(512) 388-1836","FRANK MCGUYER",
TX,WILLIAMSON,2020-63083,"Single Family Homes",10/13/2020,,402000,3707,"109 HOLLYTREE CT",GEORGETOWN,TX,78633,,,CONTRACTOR,,,,,,,,,,,"DREES CUSTOM HOMES",,,,,"DREES CUSTOM HOMES","7300 RANCH ROAD 2222 BLDG 2 STE 250",AUSTIN,TX,78730-3204,"(512) 241-7100",http://www.dreeshomes.com,,,
TX,WILLIAMSON,2020-64026,"Single Family Homes",10/16/2020,,219594,2793,"317 ARROWHEAD MOUND RD",GEORGETOWN,TX,78633,,,CONTRACTOR,,,,,,,,,,,"MHI MCGUYER HOMEBUILDERS",,,,,"MHI MCGUYER HOMEBUILDERS","8200 N MO PAC EXPY STE 300",AUSTIN,TX,78759-8844,"(512) 502-2050",,"(512) 388-1836","FRANK MCGUYER",
TX,WILLIAMSON,2020-64217,"Single Family Homes",10/30/2020,,327594,4453,"1113 MOONLIGHT TERRACE DR",GEORGETOWN,TX,78633,,,CONTRACTOR,,,,,,,,,,,"MHI MCGUYER HOMEBUILDERS",,,,,"MHI MCGUYER HOMEBUILDERS","8200 N MO PAC EXPY STE 300",AUSTIN,TX,78759-8844,"(512) 502-2050",,"(512) 388-1836","FRANK MCGUYER",
TX,WILLIAMSON,2020-64439,"Single Family Homes",10/16/2020,,283194,3840,"700 CEDAR LAKE BLVD",GEORGETOWN,TX,78633,,,CONTRACTOR,,,,,,,,,,,"MHI MCGUYER HOMEBUILDERS",,,,,"MHI MCGUYER HOMEBUILDERS","8200 N MO PAC EXPY STE 300",AUSTIN,TX,78759-8844,"(512) 502-2050",,"(512) 388-1836","FRANK MCGUYER",
TX,WILLIAMSON,2020-64818,"Single Family Homes",10/5/2020,,282207,1820,"108 MONTERREY OAK TRL",GEORGETOWN,TX,78633,,,CONTRACTOR,,,,,,,,,,,"DAVID WEEKLEY HOMES",,,,,"DAVID WEEKLEY HOMES","9000 WATERFORD CENTRE BLVD",AUSTIN,TX,78758-7662,"(800) 390-6774",http://www.davidweekleyhomes.com/,,,
TX,WILLIAMSON,2020-65160,"Single Family Homes",10/5/2020,,266768,1848,"104 MONTERREY OAK TRL",GEORGETOWN,TX,78633,,,CONTRACTOR,,,,,,,,,,,"DAVID WEEKLEY HOMES",,,,,"DAVID WEEKLEY HOMES","9000 WATERFORD CENTRE BLVD",AUSTIN,TX,78758-7662,"(800) 390-6774",http://www.davidweekleyhomes.com/,,,
TX,WILLIAMSON,2020-65397,"Single Family Homes",10/9/2020,,266078,1801,"116 MONTERREY OAK TRL",GEORGETOWN,TX,78633,,,CONTRACTOR,,,,,,,,,,,"DAVID WEEKLEY HOMES",,,,,"DAVID WEEKLEY HOMES","9000 WATERFORD CENTRE BLVD",AUSTIN,TX,78758-7662,"(800) 390-6774",http://www.davidweekleyhomes.com/,,,
TX,WILLIAMSON,2020-65402,"Single Family Homes",10/9/2020,,250493,1811,"121 MONTERREY OAK TRL",GEORGETOWN,TX,78633,,,CONTRACTOR,,,,,,,,,,,"DAVID WEEKLEY HOMES",,,,,"DAVID WEEKLEY HOMES","9000 WATERFORD CENTRE BLVD",AUSTIN,TX,78758-7662,"(800) 390-6774",http://www.davidweekleyhomes.com/,,,
TX,WILLIAMSON,2020-65407,"Single Family Homes",10/9/2020,,243293,1597,"113 MONTERREY OAK TRL",GEORGETOWN,TX,78633,,,CONTRACTOR,,,,,,,,,,,"DAVID WEEKLEY HOMES",,,,,"DAVID WEEKLEY HOMES","9000 WATERFORD CENTRE BLVD",AUSTIN,TX,78758-7662,"(800) 390-6774",http://www.davidweekleyhomes.com/,,,
TX,WILLIAMSON,2020-65626,"Single Family Homes",10/23/2020,,280794,3840,"612 CEDAR LAKE BLVD",GEORGETOWN,TX,78633,,,CONTRACTOR,,,,,,,,,,,"MHI MCGUYER HOMEBUILDERS",,,,,"MHI MCGUYER HOMEBUILDERS","8200 N MO PAC EXPY STE 300",AUSTIN,TX,78759-8844,"(512) 502-2050",,"(512) 388-1836","FRANK MCGUYER",
TX,WILLIAMSON,2020-65683,"Single Family Homes",10/21/2020,,422570,2894,"129 HIGH PLAINS DR",GEORGETOWN,TX,78633,,,CONTRACTOR,,,,,,,,,,,"CHESMAR HOMES",,,,,"CHESMAR HOMES","2900 N QUINLAN PARK RD",AUSTIN,TX,78732-6083,"(512) 233-9016",http://chesmar.com,,,
TX,WILLIAMSON,2020-65736,"Single Family Homes",10/19/2020,,490212,1801,"105 MONTERREY OAK TRL",GEORGETOWN,TX,78633,,,CONTRACTOR,,,,,,,,,,,"DAVID WEEKLEY HOMES",,,,,"DAVID WEEKLEY HOMES","9000 WATERFORD CENTRE BLVD",AUSTIN,TX,78758-7662,"(800) 390-6774",http://www.davidweekleyhomes.com/,,,
TX,WILLIAMSON,2020-65975,"Single Family Homes",10/5/2020,,151470,1782,"240 BENMYRTLE TRL",GEORGETOWN,TX,78626,,,CONTRACTOR,,,,,,,,,,,"KB HOME",,,,,"KB HOME","10800 PECAN PARK BLVD STE 200",AUSTIN,TX,78750-1249,"(512) 651-8100",,,,
TX,WILLIAMSON,2020-66035,"Single Family Homes",10/13/2020,,210730,3242,"1220 WHIPPLETREE TRL",GEORGETOWN,TX,78633,,,CONTRACTOR,,,,,,,,,,,"CASTLEROCK COMMUNITIES",,,,,"CASTLEROCK COMMUNITIES","7670 WOODWAY DR STE 300",HOUSTON,TX,77063-1520,"(713) 600-7000",http://c-rock.com,"(713) 600-0000",,
TX,WILLIAMSON,2020-66036,"Single Family Homes",10/13/2020,,241194,3777,"1000 ROUND MOUNTAIN PASS",GEORGETOWN,TX,78633,,,CONTRACTOR,,,,,,,,,,,"MHI MCGUYER HOMEBUILDERS",,,,,"MHI MCGUYER HOMEBUILDERS","8200 N MO PAC EXPY STE 300",AUSTIN,TX,78759-8844,"(512) 502-2050",,"(512) 388-1836","FRANK MCGUYER",
TX,WILLIAMSON,2020-66087,"Single Family Homes",10/30/2020,,182394,2308,"208 ARROWHEAD MOUND RD",GEORGETOWN,TX,78633,,,CONTRACTOR,,,,,,,,,,,"MHI MCGUYER HOMEBUILDERS",,,,,"MHI MCGUYER HOMEBUILDERS","8200 N MO PAC EXPY STE 300",AUSTIN,TX,78759-8844,"(512) 502-2050",,"(512) 388-1836","FRANK MCGUYER",
TX,WILLIAMSON,2020-66199,"Single Family Homes",10/2/2020,,357360,2978,"1301 HIGHWATER DR",GEORGETOWN,TX,78633,,,CONTRACTOR,,,,,,,,,,,"MERITAGE HOMES",,,,,"MERITAGE HOMES","8920 BUSINESS PARK DR STE 250",AUSTIN,TX,78759-7622,"(512) 610-4800",,,,
TX,WILLIAMSON,2020-66251,"Single Family Homes",10/8/2020,,308632,2374,"112 MOUNTAIN LION RD",GEORGETOWN,TX,78633,,"112 MOUNTAIN LION RD",CONTRACTOR,,,,,,,,,,,"DAVID WEEKLEY HOMES",,,,,"DAVID WEEKLEY HOMES","9000 WATERFORD CENTRE BLVD",AUSTIN,TX,78758-7662,"(800) 390-6774",http://www.davidweekleyhomes.com/,,,
TX,WILLIAMSON,2020-66289,"Single Family Homes",10/14/2020,,438984,3752,"4225 PROMONTORY POINT TRL",GEORGETOWN,TX,78633,,,CONTRACTOR,,,,,,,,,,,"ASHTON WOODS HOMES",,,,,"ASHTON WOODS HOMES","4201 W PARMER LN STE A150",AUSTIN,TX,78727-4118,"(512) 610-7000",,,,
TX,WILLIAMSON,2020-66390,"Single Family Homes",10/16/2020,,250000,3263,"109 BLACKBERRY CV",GEORGETOWN,TX,78633,,,CONTRACTOR,,,,,,,,,,,"PERRY HOMES",,,,,"PERRY HOMES","6112 LLANO ST",AUSTIN,TX,78702,"(512) 810-8050",,,,
TX,WILLIAMSON,2020-66444,"Single Family Homes",10/1/2020,,354990,3907,"110 SPLIT DIAMOND CV",GEORGETOWN,TX,78633,,,CONTRACTOR,,,,,,,,,,,"PULTE HOMES",,,,,"PULTE HOMES","9401 AMBERGLEN BLVD STE I-150",AUSTIN,TX,78729-1154,"(512) 561-4344",,,,
TX,WILLIAMSON,2020-66684,"Single Family Homes",10/14/2020,,250000,2698,"200 MADDOX DR",GEORGETOWN,TX,78633,,,CONTRACTOR,,,,,,,,,,,"PERRY HOMES",,,,,"PERRY HOMES","6112 LLANO ST",AUSTIN,TX,78702,"(512) 810-8050",,,,
TX,WILLIAMSON,2020-66756,"Single Family Homes",10/16/2020,,269394,3543,"708 CEDAR LAKE BLVD",GEORGETOWN,TX,78633,,,CONTRACTOR,,,,,,,,,,,"MHI MCGUYER HOMEBUILDERS",,,,,"MHI MCGUYER HOMEBUILDERS","8200 N MO PAC EXPY STE 300",AUSTIN,TX,78759-8844,"(512) 502-2050",,"(512) 388-1836","FRANK MCGUYER",
TX,WILLIAMSON,2020-66757,"Single Family Homes",10/2/2020,,259370,2273,"1029 PADDOCK LN",GEORGETOWN,TX,78633,,,CONTRACTOR,,,,,,,,,,,"CHESMAR HOMES",,,,,"CHESMAR HOMES","2900 N QUINLAN PARK RD",AUSTIN,TX,78732-6083,"(512) 233-9016",http://chesmar.com,,,
TX,WILLIAMSON,2020-66760,"Single Family Homes",10/16/2020,,310050,2133,"104 ARROWHEAD MOUND RD",GEORGETOWN,TX,78633,,,CONTRACTOR,,,,,,,,,,,"HIGHLAND HOMES",,,,,"HIGHLAND HOMES","4201 W PARMER LN STE B180",AUSTIN,TX,78727-4110,"(512) 834-8429",,,,
TX,WILLIAMSON,2020-66769,"Single Family Homes",10/1/2020,,238990,2245,"202 YORKTOWN ST",GEORGETOWN,TX,78633,,,CONTRACTOR,,,,,,,,,,,"PULTE HOMES",,,,,"PULTE HOMES","9401 AMBERGLEN BLVD STE I-150",AUSTIN,TX,78729-1154,"(512) 561-4344",,,,
TX,WILLIAMSON,2020-66771,"Single Family Homes",10/14/2020,,198360,2204,"1532 WHIPPLETREE TRL",GEORGETOWN,TX,78633,,,CONTRACTOR,,,,,,,,,,,"CENTURY COMMUNITIES",,,,,"CENTURY COMMUNITIES","6500 RIVER PLACE BLVD STE 200",AUSTIN,TX,78730-1156,"(512) 271-3825",https://www.centurycommunities.com/,,,
TX,WILLIAMSON,2020-66773,"Single Family Homes",10/1/2020,,260990,2430,"2132 CLIFFBRAKE WAY",GEORGETOWN,TX,78633,,,CONTRACTOR,,,,,,,,,,,"PULTE HOMES",,,,,"PULTE HOMES","9401 AMBERGLEN BLVD STE I-150",AUSTIN,TX,78729-1154,"(512) 561-4344",,,,
TX,WILLIAMSON,2020-66774,"Single Family Homes",10/5/2020,,238990,2289,"117 YORKTOWN ST",GEORGETOWN,TX,78633,,,CONTRACTOR,,,,,,,,,,,"PULTE HOMES",,,,,"PULTE HOMES","9401 AMBERGLEN BLVD STE I-150",AUSTIN,TX,78729-1154,"(512) 561-4344",,,,
TX,WILLIAMSON,2020-66784,"Single Family Homes",10/7/2020,,382990,3267,"106 SPLIT DIAMOND CV",GEORGETOWN,TX,78633,,,CONTRACTOR,,,,,,,,,,,"PULTE HOMES",,,,,"PULTE HOMES","9401 AMBERGLEN BLVD STE I-150",AUSTIN,TX,78729-1154,"(512) 561-4344",,,,
TX,WILLIAMSON,2020-66793,"Single Family Homes",10/8/2020,,260322,3027,"333 PEACE PIPE WAY",GEORGETOWN,TX,78633,,,CONTRACTOR,,,,,,,,,,,"DR HORTON",,,,,"DR HORTON","10700 PECAN PARK BLVD STE 400",AUSTIN,TX,78750-1227,"(512) 345-4663",,,,
TX,WILLIAMSON,2020-66800,"Single Family Homes",10/7/2020,,241110,2679,"1528 WHIPPLETREE TRL",GEORGETOWN,TX,78633,,,CONTRACTOR,,,,,,,,,,,"CENTURY COMMUNITIES",,,,,"CENTURY COMMUNITIES","6500 RIVER PLACE BLVD STE 200",AUSTIN,TX,78730-1156,"(512) 271-3825",https://www.centurycommunities.com/,,,
TX,WILLIAMSON,2020-66805,"Single Family Homes",10/7/2020,,165240,1836,"512 REARING MARE PASS",GEORGETOWN,TX,78633,,,CONTRACTOR,,,,,,,,,,,"CENTURY COMMUNITIES",,,,,"CENTURY COMMUNITIES","6500 RIVER PLACE BLVD STE 200",AUSTIN,TX,78730-1156,"(512) 271-3825",https://www.centurycommunities.com/,,,
TX,WILLIAMSON,2020-66810,"Single Family Homes",10/9/2020,,261354,3039,"1104 DESAIX DR",AUSTIN,TX,78633,,,CONTRACTOR,,,,,,,,,,,"KB HOME",,,,,"KB HOME","10800 PECAN PARK BLVD STE 200",AUSTIN,TX,78750-1249,"(512) 651-8100",,,,
TX,WILLIAMSON,2020-66813,"Single Family Homes",10/9/2020,,198918,2313,"1028 DESAIX DR",GEORGETOWN,TX,78633,,,CONTRACTOR,,,,,,,,,,,"KB HOME",,,,,"KB HOME","10800 PECAN PARK BLVD STE 200",AUSTIN,TX,78750-1249,"(512) 651-8100",,,,
TX,WILLIAMSON,2020-66817,"Single Family Homes",10/9/2020,,201240,2340,"220 BENMYRTLE TRL",GEORGETOWN,TX,78633,,,CONTRACTOR,,,,,,,,,,,"KB HOME",,,,,"KB HOME","10800 PECAN PARK BLVD STE 200",AUSTIN,TX,78750-1249,"(512) 651-8100",,,,
TX,WILLIAMSON,2020-66823,"Single Family Homes",10/9/2020,,180686,,"505 THUNDER VALLEY TRL",GEORGETOWN,TX,78633,,,CONTRACTOR,,,,,,,,,,,"KB HOME",,,,,"KB HOME","10800 PECAN PARK BLVD STE 200",AUSTIN,TX,78750-1249,"(512) 651-8100",,,,
TX,WILLIAMSON,2020-66827,"Single Family Homes",10/6/2020,,387990,3436,"234 FAIRWAY RIDGE RD",GEORGETOWN,TX,78633,,,CONTRACTOR,,,,,,,,,,,"PULTE HOMES",,,,,"PULTE HOMES","9401 AMBERGLEN BLVD STE I-150",AUSTIN,TX,78729-1154,"(512) 561-4344",,,,
TX,WILLIAMSON,2020-66829,"Single Family Homes",10/16/2020,,409990,4836,"100 SPLIT DIAMOND CV",GEORGETOWN,TX,78633,,,CONTRACTOR,,,,,,,,,,,"PULTE HOMES",,,,,"PULTE HOMES","9401 AMBERGLEN BLVD STE I-150",AUSTIN,TX,78729-1154,"(512) 561-4344",,,,
TX,WILLIAMSON,2020-66830,"Single Family Homes",10/9/2020,,228416,2656,"252 BENMYRTLE TRL",GEORGETOWN,TX,78633,"MOURNING DOVE",,CONTRACTOR,,,,,,,,,,,"KB HOME",,,,,"KB HOME","10800 PECAN PARK BLVD STE 200",AUSTIN,TX,78750-1249,"(512) 651-8100",,,,
TX,WILLIAMSON,2020-66833,"Single Family Homes",10/9/2020,,254732,2962,"377 CONCHILLOS DR",GEORGETOWN,TX,78633,,,CONTRACTOR,,,,,,,,,,,"KB HOME",,,,,"KB HOME","10800 PECAN PARK BLVD STE 200",AUSTIN,TX,78750-1249,"(512) 651-8100",,,,
TX,WILLIAMSON,2020-66838,"Single Family Homes",10/15/2020,,189544,2204,"316 LOS COBOS LN",GEORGETOWN,TX,78633,,,CONTRACTOR,,,,,,,,,,,"KB HOME",,,,,"KB HOME","10800 PECAN PARK BLVD STE 200",AUSTIN,TX,78750-1249,"(512) 651-8100",,,,
TX,WILLIAMSON,2020-66854,"Single Family Homes",10/12/2020,,269524,3134,"405 PEACE PIPE WAY",GEORGETOWN,TX,78633,,,CONTRACTOR,,,,,,,,,,,"DR HORTON",,,,,"DR HORTON","10700 PECAN PARK BLVD STE 400",AUSTIN,TX,78750-1227,"(512) 345-4663",,,,
TX,WILLIAMSON,2020-66855,"Single Family Homes",10/9/2020,,124475,1474,"516 GABRIELS BLUFF DR",GEORGETOWN,TX,78633,,,CONTRACTOR,,,,,,,,,,,"LENNAR HOMES",,,,,"LENNAR HOMES","13620 FM 620 RD 150",AUSTIN,TX,78717,"(512) 506-4000",http://www.lennar.com/,,,
TX,WILLIAMSON,2020-66856,"Single Family Homes",10/12/2020,,186792,2172,"1228 BEAR TRACK LOOP",GEORGETOWN,TX,78633,,,CONTRACTOR,,,,,,,,,,,"DR HORTON",,,,,"DR HORTON","10700 PECAN PARK BLVD STE 400",AUSTIN,TX,78750-1227,"(512) 345-4663",,,,
TX,WILLIAMSON,2020-66858,"Single Family Homes",10/21/2020,,197886,2301,"1232 BEAR TRACK LOOP",GEORGETOWN,TX,78633,,,CONTRACTOR,,,,,,,,,,,"DR HORTON",,,,,"DR HORTON","10700 PECAN PARK BLVD STE 400",AUSTIN,TX,78750-1227,"(512) 345-4663",,,,
TX,WILLIAMSON,2020-66859,"Single Family Homes",10/12/2020,,269524,3134,"1240 BEAR TRACK LOOP",GEORGETOWN,TX,78633,,,CONTRACTOR,,,,,,,,,,,"DR HORTON",,,,,"DR HORTON","10700 PECAN PARK BLVD STE 400",AUSTIN,TX,78750-1227,"(512) 345-4663",,,,
TX,WILLIAMSON,2020-66861,"Single Family Homes",10/12/2020,,256022,2977,"1200 BEAR TRACK LOOP",GEORGETOWN,TX,78633,,,CONTRACTOR,,,,,,,,,,,"DR HORTON",,,,,"DR HORTON","10700 PECAN PARK BLVD STE 400",AUSTIN,TX,78750-1227,"(512) 345-4663",,,,
TX,WILLIAMSON,2020-66864,"Single Family Homes",10/12/2020,,253614,2949,"313 PEACE PIPE WAY",GEORGETOWN,TX,78633,,,CONTRACTOR,,,,,,,,,,,"DR HORTON",,,,,"DR HORTON","10700 PECAN PARK BLVD STE 400",AUSTIN,TX,78750-1227,"(512) 345-4663",,,,
TX,WILLIAMSON,2020-66873,"Single Family Homes",10/7/2020,,139950,1866,"909 BIG ROCKY BND",GEORGETOWN,TX,78633,,,CONTRACTOR,,,,,,,,,,,"LENNAR HOMES",,,,,"LENNAR HOMES","13620 FM 620 RD 150",AUSTIN,TX,78717,"(512) 506-4000",http://www.lennar.com/,,,
TX,WILLIAMSON,2020-66874,"Single Family Homes",10/7/2020,,317990,2762,"201 SPANISH STAR ST",GEORGETOWN,TX,78633,,,CONTRACTOR,,,,,,,,,,,"PULTE HOMES",,,,,"PULTE HOMES","9401 AMBERGLEN BLVD STE I-150",AUSTIN,TX,78729-1154,"(512) 561-4344",,,,
TX,WILLIAMSON,2020-66884,"Single Family Homes",10/12/2020,,245990,2115,"206 YORKTOWN ST",GEORGETOWN,TX,78633,,,CONTRACTOR,,,,,,,,,,,"PULTE HOMES",,,,,"PULTE HOMES","9401 AMBERGLEN BLVD STE I-150",AUSTIN,TX,78729-1154,"(512) 561-4344",,,,
TX,WILLIAMSON,2020-66890,"Single Family Homes",10/12/2020,,241990,2244,"115 YORKTOWN ST",GEORGETOWN,TX,78633,,,CONTRACTOR,,,,,,,,,,,"PULTE HOMES",,,,,"PULTE HOMES","9401 AMBERGLEN BLVD STE I-150",AUSTIN,TX,78729-1154,"(512) 561-4344",,,,
TX,WILLIAMSON,2020-66953,"Single Family Homes",10/23/2020,,201240,2340,"208 BENMYRTLE TRL",GEORGETOWN,TX,78633,,,CONTRACTOR,,,,,,,,,,,"KB HOME",,,,,"KB HOME","10800 PECAN PARK BLVD STE 200",AUSTIN,TX,78750-1249,"(512) 651-8100",,,,
TX,WILLIAMSON,2020-66954,"Single Family Homes",10/12/2020,,391990,3760,"108 SPLIT DIAMOND CV",GEORGETOWN,TX,78633,,,CONTRACTOR,,,,,,,,,,,"PULTE HOMES",,,,,"PULTE HOMES","9401 AMBERGLEN BLVD STE I-150",AUSTIN,TX,78729-1154,"(512) 561-4344",,,,
TX,WILLIAMSON,2020-66964,"Single Family Homes",10/12/2020,,218268,2538,"1208 BEAR TRACK LOOP",GEORGETOWN,TX,78633,,,CONTRACTOR,,,,,,,,,,,"DR HORTON",,,,,"DR HORTON","10700 PECAN PARK BLVD STE 400",AUSTIN,TX,78750-1227,"(512) 345-4663",,,,
TX,WILLIAMSON,2020-66966,"Single Family Homes",10/12/2020,,186792,2172,"1128 BEAR TRACK LOOP",GEORGETOWN,TX,78633,,,CONTRACTOR,,,,,,,,,,,"DR HORTON",,,,,"DR HORTON","10700 PECAN PARK BLVD STE 400",AUSTIN,TX,78750-1227,"(512) 345-4663",,,,
TX,WILLIAMSON,2020-66967,"Single Family Homes",10/13/2020,,124475,1474,"604 GABRIELS BLUFF DR",GEORGETOWN,TX,78633,,,CONTRACTOR,,,,,,,,,,,"LENNAR HOMES",,,,,"LENNAR HOMES","13620 FM 620 RD 150",AUSTIN,TX,78717,"(512) 506-4000",http://www.lennar.com/,,,
TX,WILLIAMSON,2020-66994,"Single Family Homes",10/23/2020,,257400,2574,"4209 PROMONTORY POINT TRL",GEORGETOWN,TX,78633,,,CONTRACTOR,,,,,,,,,,,"ASHTON WOODS HOMES",,,,,"ASHTON WOODS HOMES","4201 W PARMER LN STE A150",AUSTIN,TX,78727-4118,"(512) 610-7000",,,,
TX,WILLIAMSON,2020-67000,"Single Family Homes",10/14/2020,,96915,1047,"136 AKELA WAY",GEORGETOWN,TX,78633,,,CONTRACTOR,,,,,,,,,,,"LENNAR HOMES",,,,,"LENNAR HOMES","13620 FM 620 RD 150",AUSTIN,TX,78717,"(512) 506-4000",http://www.lennar.com/,,,
TX,WILLIAMSON,2020-67008,"Single Family Homes",10/19/2020,,319060,3735,"126 BARTON RUN DR",GEORGETOWN,TX,78633,,,CONTRACTOR,,,,,,,,,,,"GEHAN HOMES",,,,,"GEHAN HOMES","3815 S CAPITAL OF TEXAS HWY STE 275",AUSTIN,TX,78704-6652,"(512) 330-9366",http://www.gehanhomes.com,,"JANET PHILLIPS",
TX,WILLIAMSON,2020-67010,"Single Family Homes",10/16/2020,,153252,2350,"437 THUNDER VALLEY TRL",GEORGETOWN,TX,78633,,,CONTRACTOR,,,,,,,,,,,"KB HOME",,,,,"KB HOME","10800 PECAN PARK BLVD STE 200",AUSTIN,TX,78750-1249,"(512) 651-8100",,,,
TX,WILLIAMSON,2020-67011,"Single Family Homes",10/16/2020,,153252,1782,"449 THUNDER VALLEY TRL",GEORGETOWN,TX,78633,,,CONTRACTOR,,,,,,,,,,,"KB HOME",,,,,"KB HOME","10800 PECAN PARK BLVD STE 200",AUSTIN,TX,78750-1249,"(512) 651-8100",,,,
TX,WILLIAMSON,2020-67013,"Single Family Homes",10/16/2020,,200810,2335,"513 THUNDER VALLEY TRL",GEORGETOWN,TX,78633,,,CONTRACTOR,,,,,,,,,,,"KB HOME",,,,,"KB HOME","10800 PECAN PARK BLVD STE 200",AUSTIN,TX,78750-1249,"(512) 651-8100",,,,
TX,WILLIAMSON,2020-67015,"Single Family Homes",10/23/2020,,249744,2904,"510 THUNDER VALLEY TRL",GEORGETOWN,TX,78633,,,CONTRACTOR,,,,,,,,,,,"KB HOME",,,,,"KB HOME","10800 PECAN PARK BLVD STE 200",AUSTIN,TX,78750-1249,"(512) 651-8100",,,,
TX,WILLIAMSON,2020-67028,"Single Family Homes",10/16/2020,,201240,2340,"529 THUNDER VALLEY TRL",GEORGETOWN,TX,78633,,,CONTRACTOR,,,,,,,,,,,"KB HOME",,,,,"KB HOME","10800 PECAN PARK BLVD STE 200",AUSTIN,TX,78750-1249,"(512) 651-8100",,,,
TX,WILLIAMSON,2020-67030,"Single Family Homes",10/14/2020,,277380,3082,"565 REARING MARE PASS",GEORGETOWN,TX,78633,,,CONTRACTOR,,,,,,,,,,,"CENTURY COMMUNITIES",,,,,"CENTURY COMMUNITIES","6500 RIVER PLACE BLVD STE 200",AUSTIN,TX,78730-1156,"(512) 271-3825",https://www.centurycommunities.com/,,,
TX,WILLIAMSON,2020-67032,"Single Family Homes",10/22/2020,,440406,5121,"206 BARTON RUN DR",GEORGETOWN,TX,78633,,,CONTRACTOR,,,,,,,,,,,"GEHAN HOMES",,,,,"GEHAN HOMES","3815 S CAPITAL OF TEXAS HWY STE 275",AUSTIN,TX,78704-6652,"(512) 330-9366",http://www.gehanhomes.com,,"JANET PHILLIPS",
TX,WILLIAMSON,2020-67034,"Single Family Homes",10/21/2020,,189544,2204,"256 BENMYRTLE TRL",GEORGETOWN,TX,78633,,,CONTRACTOR,,,,,,,,,,,"KB HOME",,,,,"KB HOME","10800 PECAN PARK BLVD STE 200",AUSTIN,TX,78750-1249,"(512) 651-8100",,,,
TX,WILLIAMSON,2020-67045,"Single Family Homes",10/14/2020,,124475,1474,"233 GABRIELS BLUFF DR",GEORGETOWN,TX,78633,,,CONTRACTOR,,,,,,,,,,,"LENNAR HOMES",,,,,"LENNAR HOMES","13620 FM 620 RD 150",AUSTIN,TX,78717,"(512) 506-4000",http://www.lennar.com/,,,
TX,WILLIAMSON,2020-67050,"Single Family Homes",10/14/2020,,137020,1667,"229 GABRIELS BLUFF DR",GEORGETOWN,TX,78633,,,CONTRACTOR,,,,,,,,,,,"LENNAR HOMES",,,,,"LENNAR HOMES","13620 FM 620 RD 150",AUSTIN,TX,78717,"(512) 506-4000",http://www.lennar.com/,,,
TX,WILLIAMSON,2020-67051,"Single Family Homes",10/14/2020,,96915,1047,"204 GABRIELS BLUFF DR",GEORGETOWN,TX,78633,,,CONTRACTOR,,,,,,,,,,,"LENNAR HOMES",,,,,"LENNAR HOMES","13620 FM 620 RD 150",AUSTIN,TX,78717,"(512) 506-4000",http://www.lennar.com/,,,
TX,WILLIAMSON,2020-67052,"Single Family Homes",10/14/2020,,124475,1474,"232 GABRIELS BLUFF DR",GEORGETOWN,TX,78633,,,CONTRACTOR,,,,,,,,,,,"LENNAR HOMES",,,,,"LENNAR HOMES","13620 FM 620 RD 150",AUSTIN,TX,78717,"(512) 506-4000",http://www.lennar.com/,,,
TX,WILLIAMSON,2020-67058,"Single Family Homes",10/16/2020,,367048,4268,"114 BARTON RUN DR",GEORGETOWN,TX,78633,,,CONTRACTOR,,,,,,,,,,,"GEHAN HOMES",,,,,"GEHAN HOMES","3815 S CAPITAL OF TEXAS HWY STE 275",AUSTIN,TX,78704-6652,"(512) 330-9366",http://www.gehanhomes.com,,"JANET PHILLIPS",
TX,WILLIAMSON,2020-67060,"Single Family Homes",10/22/2020,,427592,4972,"106 BARTON RUN DR",GEORGETOWN,TX,78633,,,CONTRACTOR,,,,,,,,,,,"GEHAN HOMES",,,,,"GEHAN HOMES","3815 S CAPITAL OF TEXAS HWY STE 275",AUSTIN,TX,78704-6652,"(512) 330-9366",http://www.gehanhomes.com,,"JANET PHILLIPS",
TX,WILLIAMSON,2020-67062,"Single Family Homes",10/16/2020,,373670,4345,"110 BARTON RUN DR",GEORGETOWN,TX,78633,,,CONTRACTOR,,,,,,,,,,,"GEHAN HOMES",,,,,"GEHAN HOMES","3815 S CAPITAL OF TEXAS HWY STE 275",AUSTIN,TX,78704-6652,"(512) 330-9366",http://www.gehanhomes.com,,"JANET PHILLIPS",
TX,WILLIAMSON,2020-67074,"Single Family Homes",10/22/2020,,271920,2472,"501 WINDOM WAY",GEORGETOWN,TX,78633,,,CONTRACTOR,,,,,,,,,,,"ASHTON WOODS HOMES",,,,,"ASHTON WOODS HOMES","4201 W PARMER LN STE A150",AUSTIN,TX,78727-4118,"(512) 610-7000",,,,
TX,WILLIAMSON,2020-67079,"Single Family Homes",10/22/2020,,355520,3232,"4217 PROMONTORY POINT TRL",GEORGETOWN,TX,78633,,,CONTRACTOR,,,,,,,,,,,"ASHTON WOODS HOMES",,,,,"ASHTON WOODS HOMES","4201 W PARMER LN STE A150",AUSTIN,TX,78727-4118,"(512) 610-7000",,,,
TX,WILLIAMSON,2020-67080,"Single Family Homes",10/20/2020,,279830,2522,"1025 PADDOCK LN",GEORGETOWN,TX,78633,,,CONTRACTOR,,,,,,,,,,,"CHESMAR HOMES",,,,,"CHESMAR HOMES","2900 N QUINLAN PARK RD",AUSTIN,TX,78732-6083,"(512) 233-9016",http://chesmar.com,,,
TX,WILLIAMSON,2020-67083,"Single Family Homes",10/30/2020,,217210,3103,"1108 WHIPPLETREE TRL",GEORGETOWN,TX,78633,,,CONTRACTOR,,,,,,,,,,,"CASTLEROCK COMMUNITIES",,,,,"CASTLEROCK COMMUNITIES","7670 WOODWAY DR STE 300",HOUSTON,TX,77063-1520,"(713) 600-7000",http://c-rock.com,"(713) 600-0000",,
TX,WILLIAMSON,2020-67094,"Single Family Homes",10/19/2020,,345000,3048,"109 IVA JUNE LN",GEORGETOWN,TX,78633,,,CONTRACTOR,,,,,,,,,,,"DREES CUSTOM HOMES",,,,,"DREES CUSTOM HOMES","7300 RANCH ROAD 2222 BLDG 2 STE 250",AUSTIN,TX,78730-3204,"(512) 241-7100",http://www.dreeshomes.com,,,
TX,WILLIAMSON,2020-67096,"Single Family Homes",10/22/2020,,450000,3095,"105 ROYAL OAK DR",GEORGETOWN,TX,78633,,,CONTRACTOR,,,,,,,,,,,"SITTERLE HOMES",,,,,"SITTERLE HOMES","113 NAPLES LN",AUSTIN,TX,78737-4686,"(210) 494-9192",http://www.sitterlehomes.com,,,
TX,WILLIAMSON,2020-67106,"Single Family Homes",10/19/2020,,243000,2025,"4024 PROMONTORY POINT TRL",GEORGETOWN,TX,78633,,,CONTRACTOR,,,,,,,,,,,"MERITAGE HOMES",,,,,"MERITAGE HOMES","8920 BUSINESS PARK DR STE 250",AUSTIN,TX,78759-7622,"(512) 610-4800",,,,
TX,WILLIAMSON,2020-67108,"Single Family Homes",10/19/2020,,436080,3634,"4005 PROMONTORY POINT TRL",GEORGETOWN,TX,78633,,,CONTRACTOR,,,,,,,,,,,"MERITAGE HOMES",,,,,"MERITAGE HOMES","8920 BUSINESS PARK DR STE 250",AUSTIN,TX,78759-7622,"(512) 610-4800",,,,
TX,WILLIAMSON,2020-67109,"Single Family Homes",10/19/2020,,316680,2639,"4108 PROMONTORY POINT TRL",GEORGETOWN,TX,78633,,,CONTRACTOR,,,,,,,,,,,"MERITAGE HOMES",,,,,"MERITAGE HOMES","8920 BUSINESS PARK DR STE 250",AUSTIN,TX,78759-7622,"(512) 610-4800",,,,
TX,WILLIAMSON,2020-67132,"Single Family Homes",10/19/2020,,457680,3814,"208 STONEWOOD LN",GEORGETOWN,TX,78633,"VISTA POINTE",,CONTRACTOR,,,,,,,,,,,"MERITAGE HOMES",,,,,"MERITAGE HOMES","8920 BUSINESS PARK DR STE 250",AUSTIN,TX,78759-7622,"(512) 610-4800",,,,
TX,WILLIAMSON,2020-67136,"Single Family Homes",10/19/2020,,451200,3760,"113 STONEWOOD LN",GEORGETOWN,TX,78633,,,CONTRACTOR,,,,,,,,,,,"MERITAGE HOMES",,,,,"MERITAGE HOMES","8920 BUSINESS PARK DR STE 250",AUSTIN,TX,78759-7622,"(512) 610-4800",,,,
TX,WILLIAMSON,2020-67139,"Single Family Homes",10/19/2020,,396480,3304,"109 LONGMIRE CV",GEORGETOWN,TX,78633,,,CONTRACTOR,,,,,,,,,,,"MERITAGE HOMES",,,,,"MERITAGE HOMES","8920 BUSINESS PARK DR STE 250",AUSTIN,TX,78759-7622,"(512) 610-4800",,,,
TX,WILLIAMSON,2020-67168,"Single Family Homes",10/28/2020,,366565,2536,"629 PECAN BOTTOM TRL",GEORGETOWN,TX,78633,,,CONTRACTOR,,,,,,,,,,,"HIGHLAND HOMES",,,,,"HIGHLAND HOMES","4201 W PARMER LN STE B180",AUSTIN,TX,78727-4110,"(512) 834-8429",,,,
TX,WILLIAMSON,2020-67181,"Single Family Homes",10/16/2020,,245990,2077,"208 YORKTOWN ST",GEORGETOWN,TX,78633,,,CONTRACTOR,,,,,,,,,,,"PULTE HOMES",,,,,"PULTE HOMES","9401 AMBERGLEN BLVD STE I-150",AUSTIN,TX,78729-1154,"(512) 561-4344",,,,
TX,WILLIAMSON,2020-67183,"Single Family Homes",10/19/2020,,245990,2115,"201 YORKTOWN ST",GEORGETOWN,TX,78633,,,CONTRACTOR,,,,,,,,,,,"PULTE HOMES",,,,,"PULTE HOMES","9401 AMBERGLEN BLVD STE I-150",AUSTIN,TX,78729-1154,"(512) 561-4344",,,,
TX,WILLIAMSON,2020-67192,"Single Family Homes",10/30/2020,,313990,3342,"609 GEORGIA LACE TRL",GEORGETOWN,TX,78633,,,CONTRACTOR,,,,,,,,,,,"PULTE HOMES",,,,,"PULTE HOMES","9401 AMBERGLEN BLVD STE I-150",AUSTIN,TX,78729-1154,"(512) 561-4344",,,,
TX,WILLIAMSON,2020-67194,"Single Family Homes",10/21/2020,,313990,3271,"617 GEORGIA LACE TRL",GEORGETOWN,TX,78633,,,CONTRACTOR,,,,,,,,,,,"PULTE HOMES",,,,,"PULTE HOMES","9401 AMBERGLEN BLVD STE I-150",AUSTIN,TX,78729-1154,"(512) 561-4344",,,,
TX,WILLIAMSON,2020-67219,"Single Family Homes",10/21/2020,,260322,3027,"409 PEACE PIPE WAY",GEORGETOWN,TX,78633,,,CONTRACTOR,,,,,,,,,,,"DR HORTON",,,,,"DR HORTON","10700 PECAN PARK BLVD STE 400",AUSTIN,TX,78750-1227,"(512) 345-4663",,,,
TX,WILLIAMSON,2020-67222,"Single Family Homes",10/21/2020,,218268,2538,"345 PEACE PIPE WAY",GEORGETOWN,TX,78633,,,CONTRACTOR,,,,,,,,,,,"DR HORTON",,,,,"DR HORTON","10700 PECAN PARK BLVD STE 400",AUSTIN,TX,78750-1227,"(512) 345-4663",,,,
TX,WILLIAMSON,2020-67223,"Single Family Homes",10/21/2020,,297960,2483,"4100 PROMONTORY POINT TRL",GEORGETOWN,TX,78633,,,CONTRACTOR,,,,,,,,,,,"MERITAGE HOMES",,,,,"MERITAGE HOMES","8920 BUSINESS PARK DR STE 250",AUSTIN,TX,78759-7622,"(512) 610-4800",,,,
TX,WILLIAMSON,2020-67224,"Single Family Homes",10/22/2020,,217752,2532,"421 PEACE PIPE WAY",GEORGETOWN,TX,78633,,,CONTRACTOR,,,,,,,,,,,"DR HORTON",,,,,"DR HORTON","10700 PECAN PARK BLVD STE 400",AUSTIN,TX,78750-1227,"(512) 345-4663",,,,
TX,WILLIAMSON,2020-67227,"Single Family Homes",10/22/2020,,217752,2532,"317 PEACE PIPE WAY",GEORGETOWN,TX,78633,,,CONTRACTOR,,,,,,,,,,,"DR HORTON",,,,,"DR HORTON","10700 PECAN PARK BLVD STE 400",AUSTIN,TX,78750-1227,"(512) 345-4663",,,,
TX,WILLIAMSON,2020-67228,"Single Family Homes",10/22/2020,,269524,3134,"329 PEACE PIPE WAY",GEORGETOWN,TX,78633,,,CONTRACTOR,,,,,,,,,,,"DR HORTON",,,,,"DR HORTON","10700 PECAN PARK BLVD STE 400",AUSTIN,TX,78750-1227,"(512) 345-4663",,,,
TX,WILLIAMSON,2020-67229,"Single Family Homes",10/22/2020,,269524,3134,"309 PEACE PIPE WAY",GEORGETOWN,TX,78626,,,CONTRACTOR,,,,,,,,,,,"DR HORTON",,,,,"DR HORTON","10700 PECAN PARK BLVD STE 400",AUSTIN,TX,78750-1227,"(512) 345-4663",,,,
TX,WILLIAMSON,2020-67234,"Single Family Homes",10/28/2020,,221994,3566,"1113 STETSON HAT TRL",GEORGETOWN,TX,78633,,,CONTRACTOR,,,,,,,,,,,"MHI MCGUYER HOMEBUILDERS",,,,,"MHI MCGUYER HOMEBUILDERS","8200 N MO PAC EXPY STE 300",AUSTIN,TX,78759-8844,"(512) 502-2050",,"(512) 388-1836","FRANK MCGUYER",
TX,WILLIAMSON,2020-67240,"Single Family Homes",10/19/2020,,241990,2097,"210 YORKTOWN ST",GEORGETOWN,TX,78633,,,CONTRACTOR,,,,,,,,,,,"PULTE HOMES",,,,,"PULTE HOMES","9401 AMBERGLEN BLVD STE I-150",AUSTIN,TX,78729-1154,"(512) 561-4344",,,,
TX,WILLIAMSON,2020-67242,"Single Family Homes",10/19/2020,,368990,4061,"102 SPLIT DIAMOND CV",GEORGETOWN,TX,78633,,,CONTRACTOR,,,,,,,,,,,"PULTE HOMES",,,,,"PULTE HOMES","9401 AMBERGLEN BLVD STE I-150",AUSTIN,TX,78729-1154,"(512) 561-4344",,,,
TX,WILLIAMSON,2020-67244,"Single Family Homes",10/19/2020,,238990,2246,"710 KITTY HAWK RD",GEORGETOWN,TX,78633,,,CONTRACTOR,,,,,,,,,,,"PULTE HOMES",,,,,"PULTE HOMES","9401 AMBERGLEN BLVD STE I-150",AUSTIN,TX,78729-1154,"(512) 561-4344",,,,
TX,WILLIAMSON,2020-67257,"Single Family Homes",10/23/2020,,273990,2287,"613 GEORGIA LACE TRL",GEORGETOWN,TX,78633,,,CONTRACTOR,,,,,,,,,,,"PULTE HOMES",,,,,"PULTE HOMES","9401 AMBERGLEN BLVD STE I-150",AUSTIN,TX,78729-1154,"(512) 561-4344",,,,
TX,WILLIAMSON,2020-67270,"Single Family Homes",10/29/2020,,374955,2640,"113 ARROWHEAD MOUND RD",GEORGETOWN,TX,78633,,,CONTRACTOR,,,,,,,,,,,"HIGHLAND HOMES",,,,,"HIGHLAND HOMES","4201 W PARMER LN STE B180",AUSTIN,TX,78727-4110,"(512) 834-8429",,,,
TX,WILLIAMSON,2020-67272,"Single Family Homes",10/23/2020,,181116,2106,"409 THUNDER VALLEY TRL",GEORGETOWN,TX,78633,,,CONTRACTOR,,,,,,,,,,,"KB HOME",,,,,"KB HOME","10800 PECAN PARK BLVD STE 200",AUSTIN,TX,78750-1249,"(512) 651-8100",,,,
TX,WILLIAMSON,2020-67275,"Single Family Homes",10/30/2020,,239596,2786,"813 DESAIX DR",GEORGETOWN,TX,78633,,,CONTRACTOR,,,,,,,,,,,"KB HOME",,,,,"KB HOME","10800 PECAN PARK BLVD STE 200",AUSTIN,TX,78750-1249,"(512) 651-8100",,,,
TX,WILLIAMSON,2020-67277,"Single Family Homes",10/23/2020,,180686,2101,"429 THUNDER VALLEY TRL",GEORGETOWN,TX,78633,,,CONTRACTOR,,,,,,,,,,,"KB HOME",,,,,"KB HOME","10800 PECAN PARK BLVD STE 200",AUSTIN,TX,78750-1249,"(512) 651-8100",,,,
TX,WILLIAMSON,2020-67279,"Single Family Homes",10/23/2020,,191178,2223,"433 THUNDER VALLEY TRL",GEORGETOWN,TX,78633,,,CONTRACTOR,,,,,,,,,,,"KB HOME",,,,,"KB HOME","10800 PECAN PARK BLVD STE 200",AUSTIN,TX,78750-1249,"(512) 651-8100",,,,
TX,WILLIAMSON,2020-67290,"Single Family Homes",10/26/2020,,422990,3288,"109 MOUNTAIN LION RD",GEORGETOWN,TX,78633,,,CONTRACTOR,,,,,,,,,,,"DAVID WEEKLEY HOMES",,,,,"DAVID WEEKLEY HOMES","9000 WATERFORD CENTRE BLVD",AUSTIN,TX,78758-7662,"(800) 390-6774",http://www.davidweekleyhomes.com/,,,
TX,WILLIAMSON,2020-67300,"Single Family Homes",10/23/2020,,124475,1474,"505 BLANCO VISTA",GEORGETOWN,TX,78633,,,CONTRACTOR,,,,,,,,,,,"LENNAR HOMES",,,,,"LENNAR HOMES","13620 FM 620 RD 150",AUSTIN,TX,78717,"(512) 506-4000",http://www.lennar.com/,,,
TX,WILLIAMSON,2020-67372,"Single Family Homes",10/19/2020,,317990,2864,"219 SPANISH STAR ST",GEORGETOWN,TX,78633,,,CONTRACTOR,,,,,,,,,,,"PULTE HOMES",,,,,"PULTE HOMES","9401 AMBERGLEN BLVD STE I-150",AUSTIN,TX,78729-1154,"(512) 561-4344",,,,
TX,WILLIAMSON,2020-67373,"Single Family Homes",10/22/2020,,218268,2538,"305 PEACE PIPE WAY",GEORGETOWN,TX,78633,,,CONTRACTOR,,,,,,,,,,,"DR HORTON",,,,,"DR HORTON","10700 PECAN PARK BLVD STE 400",AUSTIN,TX,78750-1227,"(512) 345-4663",,,,
TX,WILLIAMSON,2020-67397,"Single Family Homes",10/23/2020,,358706,4171,"105 RAPID SPRINGS CV",GEORGETOWN,TX,78633,,,CONTRACTOR,,,,,,,,,,,"GEHAN HOMES",,,,,"GEHAN HOMES","3815 S CAPITAL OF TEXAS HWY STE 275",AUSTIN,TX,78704-6652,"(512) 330-9366",http://www.gehanhomes.com,,"JANET PHILLIPS",
TX,WILLIAMSON,2020-67410,"Single Family Homes",10/19/2020,,225990,1965,"212 YORKTOWN ST",GEORGETOWN,TX,78633,,,CONTRACTOR,,,,,,,,,,,"PULTE HOMES",,,,,"PULTE HOMES","9401 AMBERGLEN BLVD STE I-150",AUSTIN,TX,78729-1154,"(512) 561-4344",,,,
TX,WILLIAMSON,2020-67411,"Single Family Homes",10/27/2020,,303990,2536,"603 DOUBLE LOOP ST",GEORGETOWN,TX,78633,,,CONTRACTOR,,,,,,,,,,,"PULTE HOMES",,,,,"PULTE HOMES","9401 AMBERGLEN BLVD STE I-150",AUSTIN,TX,78729-1154,"(512) 561-4344",,,,
TX,WILLIAMSON,2020-67413,"Single Family Homes",10/19/2020,,317990,2728,"1102 HANGING STAR LN",GEORGETOWN,TX,78633,,,CONTRACTOR,,,,,,,,,,,"PULTE HOMES",,,,,"PULTE HOMES","9401 AMBERGLEN BLVD STE I-150",AUSTIN,TX,78729-1154,"(512) 561-4344",,,,
TX,WILLIAMSON,2020-67446,"Single Family Homes",10/19/2020,,342990,3304,"116 SPLIT DIAMOND CV",GEORGETOWN,TX,78633,,,CONTRACTOR,,,,,,,,,,,"PULTE HOMES",,,,,"PULTE HOMES","9401 AMBERGLEN BLVD STE I-150",AUSTIN,TX,78729-1154,"(512) 561-4344",,,,
TX,WILLIAMSON,2020-67457,"Single Family Homes",10/23/2020,,172344,2004,"216 BAUM DR",GEORGETOWN,TX,78633,,,CONTRACTOR,,,,,,,,,,,"DR HORTON",,,,,"DR HORTON","10700 PECAN PARK BLVD STE 400",AUSTIN,TX,78750-1227,"(512) 345-4663",,,,
TX,WILLIAMSON,2020-67458,"Single Family Homes",10/23/2020,,179654,2089,"105 BREMEN ST",GEORGETOWN,TX,78633,,,CONTRACTOR,,,,,,,,,,,"DR HORTON",,,,,"DR HORTON","10700 PECAN PARK BLVD STE 400",AUSTIN,TX,78750-1227,"(512) 345-4663",,,,
TX,WILLIAMSON,2020-67465,"Single Family Homes",10/23/2020,,273230,2522,"1009 PADDOCK LN",GEORGETOWN,TX,78633,"SADDLE CREEK",,CONTRACTOR,,,,,,,,,,,"CHESMAR HOMES",,,,,"CHESMAR HOMES","2900 N QUINLAN PARK RD",AUSTIN,TX,78732-6083,"(512) 233-9016",http://chesmar.com,,,
TX,WILLIAMSON,2020-67467,"Single Family Homes",10/26/2020,,288230,2522,"964 PADDOCK LN",GEORGETOWN,TX,78633,"SADDLE CREEK",,CONTRACTOR,,,,,,,,,,,"CHESMAR HOMES",,,,,"CHESMAR HOMES","2900 N QUINLAN PARK RD",AUSTIN,TX,78732-6083,"(512) 233-9016",http://chesmar.com,,,
TX,WILLIAMSON,2020-67468,"Single Family Homes",10/23/2020,,260320,2263,"605 BRIDLE CREEK DR",GEORGETOWN,TX,78633,,,CONTRACTOR,,,,,,,,,,,"CHESMAR HOMES",,,,,"CHESMAR HOMES","2900 N QUINLAN PARK RD",AUSTIN,TX,78732-6083,"(512) 233-9016",http://chesmar.com,,,
TX,WILLIAMSON,2020-67470,"Single Family Homes",10/26/2020,,275570,2273,"705 BRIDLE CREEK DR",GEORGETOWN,TX,78633,,,CONTRACTOR,,,,,,,,,,,"CHESMAR HOMES",,,,,"CHESMAR HOMES","2900 N QUINLAN PARK RD",AUSTIN,TX,78732-6083,"(512) 233-9016",http://chesmar.com,,,
TX,WILLIAMSON,2020-67477,"Single Family Homes",10/23/2020,,392315,2993,"809 KARST CV",GEORGETOWN,TX,78633,,,CONTRACTOR,,,,,,,,,,,"CHESMAR HOMES",,,,,"CHESMAR HOMES","2900 N QUINLAN PARK RD",AUSTIN,TX,78732-6083,"(512) 233-9016",http://chesmar.com,,,
TX,WILLIAMSON,2020-67491,"Single Family Homes",10/22/2020,,227556,2646,"417 PEACE PIPE WAY",GEORGETOWN,TX,78633,,,CONTRACTOR,,,,,,,,,,,"DR HORTON",,,,,"DR HORTON","10700 PECAN PARK BLVD STE 400",AUSTIN,TX,78750-1227,"(512) 345-4663",,,,
TX,WILLIAMSON,2020-67492,"Single Family Homes",10/22/2020,,260322,3027,"1220 BEAR TRACK LOOP",GEORGETOWN,TX,78633,,,CONTRACTOR,,,,,,,,,,,"DR HORTON",,,,,"DR HORTON","10700 PECAN PARK BLVD STE 400",AUSTIN,TX,78750-1227,"(512) 345-4663",,,,
TX,WILLIAMSON,2020-67501,"Single Family Homes",10/22/2020,,218268,2538,"312 PEACE PIPE WAY",GEORGETOWN,TX,78633,,,CONTRACTOR,,,,,,,,,,,"DR HORTON",,,,,"DR HORTON","10700 PECAN PARK BLVD STE 400",AUSTIN,TX,78750-1227,"(512) 345-4663",,,,
TX,WILLIAMSON,2020-67503,"Single Family Homes",10/22/2020,,186448,2168,"320 PEACE PIPE WAY",GEORGETOWN,TX,78633,,,CONTRACTOR,,,,,,,,,,,"DR HORTON",,,,,"DR HORTON","10700 PECAN PARK BLVD STE 400",AUSTIN,TX,78750-1227,"(512) 345-4663",,,,
TX,WILLIAMSON,2020-67508,"Single Family Homes",10/27/2020,,276060,3210,"217 PEACE PIPE WAY",GEORGETOWN,TX,78633,,,CONTRACTOR,,,,,,,,,,,"DR HORTON",,,,,"DR HORTON","10700 PECAN PARK BLVD STE 400",AUSTIN,TX,78750-1227,"(512) 345-4663",,,,
TX,WILLIAMSON,2020-67509,"Single Family Homes",10/27/2020,,217752,2352,"221 PEACE PIPE WAY",GEORGETOWN,TX,78633,,,CONTRACTOR,,,,,,,,,,,"DR HORTON",,,,,"DR HORTON","10700 PECAN PARK BLVD STE 400",AUSTIN,TX,78750-1227,"(512) 345-4663",,,,
TX,WILLIAMSON,2020-67518,"Single Family Homes",10/22/2020,,218268,2538,"1120 BEAR TRACK LOOP",GEORGETOWN,TX,78633,,,CONTRACTOR,,,,,,,,,,,"DR HORTON",,,,,"DR HORTON","10700 PECAN PARK BLVD STE 400",AUSTIN,TX,78750-1227,"(512) 345-4663",,,,
TX,WILLIAMSON,2020-67519,"Single Family Homes",10/27/2020,,185502,2157,"1100 BEAR TRACK LOOP",GEORGETOWN,TX,78633,,,CONTRACTOR,,,,,,,,,,,"DR HORTON",,,,,"DR HORTON","10700 PECAN PARK BLVD STE 400",AUSTIN,TX,78750-1227,"(512) 345-4663",,,,
TX,WILLIAMSON,2020-67520,"Single Family Homes",10/27/2020,,186792,2172,"1009 BEAR TRACK LOOP",GEORGETOWN,TX,78633,,,CONTRACTOR,,,,,,,,,,,"DR HORTON",,,,,"DR HORTON","10700 PECAN PARK BLVD STE 400",AUSTIN,TX,78750-1227,"(512) 345-4663",,,,
TX,WILLIAMSON,2020-67559,"Single Family Homes",10/19/2020,,241990,2812,"601 BENTON LN",GEORGETOWN,TX,78633,,,CONTRACTOR,,,,,,,,,,,"PULTE HOMES",,,,,"PULTE HOMES","9401 AMBERGLEN BLVD STE I-150",AUSTIN,TX,78729-1154,"(512) 561-4344",,,,
TX,WILLIAMSON,2020-67560,"Single Family Homes",10/19/2020,,225990,2009,"603 BENTON LN",GEORGETOWN,TX,78633,,,CONTRACTOR,,,,,,,,,,,"PULTE HOMES",,,,,"PULTE HOMES","9401 AMBERGLEN BLVD STE I-150",AUSTIN,TX,78729-1154,"(512) 561-4344",,,,
TX,WILLIAMSON,2020-67574,"Single Family Homes",10/19/2020,,241990,2241,"203 YORKTOWN ST",GEORGETOWN,TX,78633,,,CONTRACTOR,,,,,,,,,,,"PULTE HOMES",,,,,"PULTE HOMES","9401 AMBERGLEN BLVD STE I-150",AUSTIN,TX,78729-1154,"(512) 561-4344",,,,
TX,WILLIAMSON,2020-67580,"Single Family Homes",10/27/2020,,297150,2152,"800 BRIDLE CREEK DR",GEORGETOWN,TX,78633,,,CONTRACTOR,,,,,,,,,,,"CHESMAR HOMES",,,,,"CHESMAR HOMES","2900 N QUINLAN PARK RD",AUSTIN,TX,78732-6083,"(512) 233-9016",http://chesmar.com,,,
TX,WILLIAMSON,2020-67588,"Single Family Homes",10/27/2020,,295440,2462,"141 BIRKSHIRE DR",GEORGETOWN,TX,78633,,,CONTRACTOR,,,,,,,,,,,"MERITAGE HOMES",,,,,"MERITAGE HOMES","8920 BUSINESS PARK DR STE 250",AUSTIN,TX,78759-7622,"(512) 610-4800",,,,
TX,WILLIAMSON,2020-67590,"Single Family Homes",10/30/2020,,201240,2340,"357 TORDESILLAS DR",GEORGETOWN,TX,78633,,,CONTRACTOR,,,,,,,,,,,"KB HOME",,,,,"KB HOME","10800 PECAN PARK BLVD STE 200",AUSTIN,TX,78750-1249,"(512) 651-8100",,,,
TX,WILLIAMSON,2020-67591,"Single Family Homes",10/30/2020,,228480,2688,"365 TORDESILLAS DR",GEORGETOWN,TX,78633,,,CONTRACTOR,,,,,,,,,,,"KB HOME",,,,,"KB HOME","10800 PECAN PARK BLVD STE 200",AUSTIN,TX,78750-1249,"(512) 651-8100",,,,
TX,WILLIAMSON,2020-67592,"Single Family Homes",10/30/2020,,153252,1782,"212 BENMYRTLE TRL",GEORGETOWN,TX,78633,,,CONTRACTOR,,,,,,,,,,,"KB HOME",,,,,"KB HOME","10800 PECAN PARK BLVD STE 200",AUSTIN,TX,78750-1249,"(512) 651-8100",,,,
TX,WILLIAMSON,2020-67594,"Single Family Homes",10/23/2020,,153252,1782,"217 BENMYRTLE TRL",GEORGETOWN,TX,78633,,,CONTRACTOR,,,,,,,,,,,"KB HOME",,,,,"KB HOME","10800 PECAN PARK BLVD STE 200",AUSTIN,TX,78750-1249,"(512) 651-8100",,,,
TX,WILLIAMSON,2020-67650,"Single Family Homes",10/19/2020,,249990,2165,"607 BENTON LN",GEORGETOWN,TX,78633,,,CONTRACTOR,,,,,,,,,,,"PULTE HOMES",,,,,"PULTE HOMES","9401 AMBERGLEN BLVD STE I-150",AUSTIN,TX,78729-1154,"(512) 561-4344",,,,
TX,WILLIAMSON,2020-67654,"Single Family Homes",10/28/2020,,236990,5375,"605 BENTON LN",GEORGETOWN,TX,78633,,,CONTRACTOR,,,,,,,,,,,"PULTE HOMES",,,,,"PULTE HOMES","9401 AMBERGLEN BLVD STE I-150",AUSTIN,TX,78729-1154,"(512) 561-4344",,,,
TX,WILLIAMSON,2020-67668,"Single Family Homes",10/29/2020,,334200,2785,"1224 LEANING OAK LN",GEORGETOWN,TX,78633,,,CONTRACTOR,,,,,,,,,,,"MERITAGE HOMES",,,,,"MERITAGE HOMES","8920 BUSINESS PARK DR STE 250",AUSTIN,TX,78759-7622,"(512) 610-4800",,,,
TX,WILLIAMSON,2020-67672,"Single Family Homes",10/29/2020,,402000,3336,"112 IVA JUNE LN",GEORGETOWN,TX,78633,,,CONTRACTOR,,,,,,,,,,,"DREES CUSTOM HOMES",,,,,"DREES CUSTOM HOMES","7300 RANCH ROAD 2222 BLDG 2 STE 250",AUSTIN,TX,78730-3204,"(512) 241-7100",http://www.dreeshomes.com,,,
TX,WILLIAMSON,2020-67685,"Single Family Homes",10/29/2020,,420840,3807,"1228 LEANING OAK LN",GEORGETOWN,TX,78633,,,CONTRACTOR,,,,,,,,,,,"MERITAGE HOMES",,,,,"MERITAGE HOMES","8920 BUSINESS PARK DR STE 250",AUSTIN,TX,78759-7622,"(512) 610-4800",,,,
TX,WILLIAMSON,2020-67687,"Single Family Homes",10/30/2020,,333960,2783,"2212 PRAIRIE OAKS DR",GEORGETOWN,TX,78633,,,CONTRACTOR,,,,,,,,,,,"MERITAGE HOMES",,,,,"MERITAGE HOMES","8920 BUSINESS PARK DR STE 250",AUSTIN,TX,78759-7622,"(512) 610-4800",,,,
TX,WILLIAMSON,2020-67717,"Single Family Homes",10/30/2020,,249140,2123,"600 BRIDLE CREEK DR",GEORGETOWN,TX,78633,,,CONTRACTOR,,,,,,,,,,,"CHESMAR HOMES",,,,,"CHESMAR HOMES","2900 N QUINLAN PARK RD",AUSTIN,TX,78732-6083,"(512) 233-9016",http://chesmar.com,,,
TX,WILLIAMSON,2020-67718,"Single Family Homes",10/30/2020,,262340,2273,"1017 PADDOCK LN",GEORGETOWN,TX,78633,,,CONTRACTOR,,,,,,,,,,,"CHESMAR HOMES",,,,,"CHESMAR HOMES","2900 N QUINLAN PARK RD",AUSTIN,TX,78732-6083,"(512) 233-9016",http://chesmar.com,,,
TX,WILLIAMSON,2020-67721,"Single Family Homes",10/19/2020,,319990,3485,"210 SPANISH STAR ST",GEORGETOWN,TX,78633,,,CONTRACTOR,,,,,,,,,,,"PULTE HOMES",,,,,"PULTE HOMES","9401 AMBERGLEN BLVD STE I-150",AUSTIN,TX,78729-1154,"(512) 561-4344",,,,
TX,WILLIAMSON,2020-67723,"Single Family Homes",10/19/2020,,245990,2241,"616 BENTON LN",GEORGETOWN,TX,78633,,,CONTRACTOR,,,,,,,,,,,"PULTE HOMES",,,,,"PULTE HOMES","9401 AMBERGLEN BLVD STE I-150",AUSTIN,TX,78729-1154,"(512) 561-4344",,,,
TX,WILLIAMSON,2020-67726,"Single Family Homes",10/19/2020,,305990,2660,"1104 HANGING STAR LN",GEORGETOWN,TX,78633,,,CONTRACTOR,,,,,,,,,,,"PULTE HOMES",,,,,"PULTE HOMES","9401 AMBERGLEN BLVD STE I-150",AUSTIN,TX,78729-1154,"(512) 561-4344",,,,
TX,WILLIAMSON,2020-67735,"Single Family Homes",10/19/2020,,229990,2059,"703 BENTON LN",GEORGETOWN,TX,78633,,,CONTRACTOR,,,,,,,,,,,"PULTE HOMES",,,,,"PULTE HOMES","9401 AMBERGLEN BLVD STE I-150",AUSTIN,TX,78729-1154,"(512) 561-4344",,,,
TX,WILLIAMSON,2020-67738,"Single Family Homes",10/19/2020,,249990,2170,"204 YORKTOWN ST",GEORGETOWN,TX,78633,,,CONTRACTOR,,,,,,,,,,,"PULTE HOMES",,,,,"PULTE HOMES","9401 AMBERGLEN BLVD STE I-150",AUSTIN,TX,78729-1154,"(512) 561-4344",,,,
TX,WILLIAMSON,2020-67829,"Single Family Homes",10/19/2020,,157725,2103,"913 BIG ROCKY BND",GEORGETOWN,TX,78633,,,CONTRACTOR,,,,,,,,,,,"LENNAR HOMES",,,,,"LENNAR HOMES","13620 FM 620 RD 150",AUSTIN,TX,78717,"(512) 506-4000",http://www.lennar.com/,,,
TX,WILLIAMSON,2020-67861,"Single Family Homes",10/19/2020,,245990,2284,"701 BENTON LN",GEORGETOWN,TX,78633,,,CONTRACTOR,,,,,,,,,,,"PULTE HOMES",,,,,"PULTE HOMES","9401 AMBERGLEN BLVD STE I-150",AUSTIN,TX,78729-1154,"(512) 561-4344",,,,
TX,WILLIAMSON,2020-67878,"Single Family Homes",10/19/2020,,249990,2071,"205 YORKTOWN ST",GEORGETOWN,TX,78633,,,CONTRACTOR,,,,,,,,,,,"PULTE HOMES",,,,,"PULTE HOMES","9401 AMBERGLEN BLVD STE I-150",AUSTIN,TX,78729-1154,"(512) 561-4344",,,,
TX,WILLIAMSON,2020-67880,"Single Family Homes",10/19/2020,,330990,3018,"215 SPANISH STAR ST",GEORGETOWN,TX,78633,,,CONTRACTOR,,,,,,,,,,,"PULTE HOMES",,,,,"PULTE HOMES","9401 AMBERGLEN BLVD STE I-150",AUSTIN,TX,78729-1154,"(512) 561-4344",,,,
TX,WILLIAMSON,2020-67901,"Single Family Homes",10/19/2020,,330990,3023,"604 DOUBLE LOOP ST",GEORGETOWN,TX,78633,,,CONTRACTOR,,,,,,,,,,,"PULTE HOMES",,,,,"PULTE HOMES","9401 AMBERGLEN BLVD STE I-150",AUSTIN,TX,78729-1154,"(512) 561-4344",,,,
TX,WILLIAMSON,2020-68469,"Single Family Homes",10/28/2020,,222495,2119,"116 ARABIAN COLT DR",GEORGETOWN,TX,78633,,,CONTRACTOR,,,,,,,,,,,"PACESETTER HOMES ",,,,,"PACESETTER HOMES ","7940 SHOAL CREEK BLVD STE 200",AUSTIN,TX,78757-7587,"(512) 323-5252",,,,
TX,WILLIAMSON,2020-68470,"Single Family Homes",10/28/2020,,201705,1921,"209 ARABIAN COLT DR",GEORGETOWN,TX,78633,,,CONTRACTOR,,,,,,,,,,,"PACESETTER HOMES ",,,,,"PACESETTER HOMES ","7940 SHOAL CREEK BLVD STE 200",AUSTIN,TX,78757-7587,"(512) 323-5252",,,,
TX,WILLIAMSON,2020-68471,"Single Family Homes",10/28/2020,,251475,2395,"217 ARABIAN COLT DR",GEORGETOWN,TX,78633,,,CONTRACTOR,,,,,,,,,,,"PACESETTER HOMES ",,,,,"PACESETTER HOMES ","7940 SHOAL CREEK BLVD STE 200",AUSTIN,TX,78757-7587,"(512) 323-5252",,,,
TX,WILLIAMSON,2020-68475,"Single Family Homes",10/28/2020,,201705,1921,"8309 DAISY CUTTER XING",GEORGETOWN,TX,78633,,,CONTRACTOR,,,,,,,,,,,"PACESETTER HOMES ",,,,,"PACESETTER HOMES ","7940 SHOAL CREEK BLVD STE 200",AUSTIN,TX,78757-7587,"(512) 323-5252",,,,
TX,WILLIAMSON,2020-66965,"Single Family Homes",10/12/2020,,283500,3150,"2221 LIMESTONE LAKE DR",GEORGETOWN,TX,78633,,,CONTRACTOR,,,,,,,,,,,"CENTURY COMMUNITIES",,,,,"CENTURY COMMUNITIES","6500 RIVER PLACE BLVD STE 200",AUSTIN,TX,78730-1156,"(512) 271-3825",https://www.centurycommunities.com/,,,
TX,WILLIAMSON,2020-67057,"Single Family Homes",10/14/2020,,284670,3163,"116 DRIFTWOOD HILLS WAY",GEORGETOWN,TX,78633,,,CONTRACTOR,,,,,,,,,,,"CENTURY COMMUNITIES",,,,,"CENTURY COMMUNITIES","6500 RIVER PLACE BLVD STE 200",AUSTIN,TX,78730-1156,"(512) 271-3825",https://www.centurycommunities.com/,,,
TX,WILLIAMSON,2020-68467,"Single Family Homes",10/28/2020,,445000,3808,"503 WHITE STEPPE WAY",GEORGETOWN,TX,78633,,,CONTRACTOR,,,,,,,,,,,"PACESETTER HOMES ",,,,,"PACESETTER HOMES ","7940 SHOAL CREEK BLVD STE 200",AUSTIN,TX,78757-7587,"(512) 323-5252",,,,
TX,TRAVIS,"2020-169025 BP","Warehouse & Manufacturing",11/9/2020,Addition,2287000,2475,"12100 SAMSUNG BLVD",AUSTIN,TX,78754,"JOURDAN CROSSING",1,CONTRACTOR,,,,,,,,,,,"SAMSUNG AUSTIN SEMICONDUCTOR",,,,,"SAMSUNG AUSTIN SEMICONDUCTOR","12100 SAMSUNG BLVD ",AUSTIN,TX,78754,"(512) 672-1000",https://www.samsung.com/,,,
TX,TRAVIS,"2013-043688 BP","Warehouse & Manufacturing",11/5/2020,Renovation,21040000,200691,"12455 RESEARCH BLVD UNIT XL",AUSTIN,TX,78759,"RESEARCH PARK",1,CONTRACTOR,,,,,,,,,,,"NOVO CONSTRUCTION",,,,,"NOVO CONSTRUCTION","13809 N HIGHWAY 183 STE 1050",AUSTIN,TX,78750-1180,"(650) 380-8574",,,,
TX,TRAVIS,"2020-057057 BP","Warehouse & Manufacturing",11/6/2020,,6519147,152709,"8001 INDUSTRY WAY",AUSTIN,TX,78744,"SUNDBERG ESTATES",1,CONTRACTOR,,,,,,,,,,,"JORDAN FOSTER CONSTRUCTION",,,,,"JORDAN FOSTER CONSTRUCTION","29250 OLD FREDERICKSBURG RD STE 108","FAIR OAKS RANCH",TX,78015-5012,"(210) 859-4273",http://www.cfjordan.com/busdev.html,"(210) 375-1261",,
