state,county,permno,ptype,pdate,pdescription,jvalue,jsqfeet,jaddr,jcity,jstate,jzip,jsubdiv,jlotno,aname,aaddr,acity,astate,azip,aphone,atype,aurl,afax,aprimarycontact,aemail,bldcode,units,bldgs,ctype,legal,contractor,caddress,ccity,cstate,czip,cphone,curl,cfax,cprimarycontact,cemail
TX,HAYS,"2020-32212 ","Auto Sales & Services",8/19/2020,,400000,9700,"3209 N IH 35","SAN MARCOS",TX,78666,,,CONTRACTOR,,,,,,,,,,,"HOPSON BUILDERS",,,,,"HOPSON BUILDERS","3202 N STATE HIGHWAY 123","SAN MARCOS",TX,78666-9777,"(512) 353-1207",,,,
TX,TRAVIS,"2020-144951 BP","Auto Sales & Services",9/28/2020,,519000,4977,"501 W WELLS BRANCH PKWY",AUSTIN,TX,78660,,,CONTRACTOR,,,,,,,,,,,"WURZEL BUILDERS",,,,,"WURZEL BUILDERS","630 RALPH ABLANEDO DR BLDG 1",AUSTIN,TX,78748,"(512) 282-7787",,,,
TX,TRAVIS,"2020-143927 BP","Commercial Swimming Pool & Spas",9/23/2020,,48000,379,"4004 BANISTER LN",AUSTIN,TX,78704,DECKER,,CONTRACTOR,,,,,,,,,,,"FUN-N-SUN POOLS",,,,,"FUN-N-SUN POOLS","6004 TECHNI CENTER DR STE 104 BLDG 3",AUSTIN,TX,78721-2308,"(512) 674-3000",http://funnsunpools.com/,"(512) 674-3003",,info@funnsunpools.com
TX,TRAVIS,"2019-067787 BP","Guest Houses",9/28/2020,,400000,1399,"3210 BEVERLY RD",AUSTIN,TX,78703,BRYKERWOODS,14,"JAMES MATTESON ELLIS","3210 BEVERLY RD",AUSTIN,TX,78703,,Owner,,,,,"KOCH CONSTRUCTION",,,,,"KOCH CONSTRUCTION","1412 HARVEY ST",AUSTIN,TX,78702-1650,"(512) 743-6767",,,"JON KOCH",
TX,TRAVIS,"2018-096947 BP","Hotel, Motel & Assisted Living",9/28/2020,Renovation,170205,8105,"11301 DOMAIN DR UNIT 100",AUSTIN,TX,78758,"THE DOMAIN SHOPPING CENTER",3,CONTRACTOR,,,,,,,,,,,"STEVE HOEGGER & ASSOCIATES",,,,,"STEVE HOEGGER & ASSOCIATES","2006 15TH ST",GARLAND,TX,75041-1506,"(972) 840-3679",http://www.shoegger.com/,,"Janet Park",
TX,TRAVIS,"2019-033450 BP","Hotel, Motel & Assisted Living",9/23/2020,"Finish Out",90000,995,"110 ACADEMY DR BLDG D",AUSTIN,TX,78704,,,CONTRACTOR,,,,,,,,,,,"MYCON GENERAL CONTRACTORS",,,,,"MYCON GENERAL CONTRACTORS","17311 DALLAS PKWY STE 300",DALLAS,TX,75248-1148,"(972) 529-2444",http://mycon.com/,,,
TX,WILLIAMSON,2020-59504,"Multi Family Apartments & Condos",8/3/2020,,464300,3641,"1001 HIGHWATER DR",GEORGETOWN,TX,78626,,,CONTRACTOR,,,,,,,,,,,"AMENITY SOLUTIONS",,,,,"AMENITY SOLUTIONS","12343 HYMEADOW DR STE 3E",AUSTIN,TX,78750-1858,"(512) 337-1556",,,,
TX,TRAVIS,"2020-123492 BP","Multi Family Renovations & Additions",9/28/2020,Addition,300000,1500,"4427 BANISTER LN",AUSTIN,TX,78745,"BANISTER ACRES",8,CONTRACTOR,,,,,,,,,,,"DAN BYLER",,,,,"DAN BYLER","6903 SHOAL CREEK BLVD ",AUSTIN,TX,78757,"(512) 401-7626",,,,
TX,HAYS,"2020-32442 ","Offices, R&D, & Professional",8/31/2020,Renovation,,8030,"1200 N BISHOP ST STE 200","SAN MARCOS",TX,78666,,,CONTRACTOR,,,,,,,,,,,"STEVE MAJOR CONSTRUCTION",,,,,"STEVE MAJOR CONSTRUCTION","2009 CASTLE GATE CIR","SAN MARCOS",TX,78666-2219,"(512) 353-7458",,,,
TX,HAYS,"2020-32729 ","Offices, R&D, & Professional",8/25/2020,Renovation,600000,9930,"2005 TECHNOLOGY WAY","SAN MARCOS",TX,78666,,,CONTRACTOR,,,,,,,,,,,"JMEG ELECTRICAL CONTRACTORS",,,,,"JMEG ELECTRICAL CONTRACTORS","8403 CROSS PARK DR STE 2D",AUSTIN,TX,78754-4574,"(512) 873-0022",http://www.jmeglp.com/,"(512) 873-0029",,
TX,WILLIAMSON,2020-64622,"Offices, R&D, & Professional",8/24/2020,,135000,2399,"4853 WILLIAMS DR 111",GEORGETOWN,TX,78623,,,CONTRACTOR,,,,,,,,,,,"TI DEV COMMERCIAL",,,,,"TI DEV COMMERCIAL","201 SEDRO TRL",GEORGETOWN,TX,78633-2021,"(512) 771-5555",https://tidevelopers.com,,,tom@tidevelopers.com
TX,TRAVIS,"2020-128016 BP","Offices, R&D, & Professional",9/23/2020,Renovation,216000,5700,"5806 N LAMAR BLVD",AUSTIN,TX,78752,SPEAR,,CONTRACTOR,,,,,,,,,,,"MGC CONTRACTORS",,,,,"MGC CONTRACTORS","223 LUCINDA DR","NEW BRAUNFELS",TX,78130-2965,"(210) 694-0565",http://www.mgccontractors.com,,,kirby@mgccontractors.com
TX,WILLIAMSON,2020-64627,"Other Commercial",8/24/2020,,350000,3587,"4853 WILLIAMS DR 105",GEORGETOWN,TX,78626,,,CONTRACTOR,,,,,,,,,,,"TI DEV COMMERCIAL",,,,,"TI DEV COMMERCIAL","201 SEDRO TRL",GEORGETOWN,TX,78633-2021,"(512) 771-5555",https://tidevelopers.com,,,tom@tidevelopers.com
TX,TRAVIS,"2019-067788 BP","Residential Garages & Carports",9/28/2020,"Acc Struct",270000,1331,"3210 BEVERLY RD",AUSTIN,TX,78703,BRYKERWOODS,14,"JAMES MATTESON ELLIS","3210 BEVERLY RD",AUSTIN,TX,78703,,Owner,,,,,"KOCH CONSTRUCTION",,,,,"KOCH CONSTRUCTION","1412 HARVEY ST",AUSTIN,TX,78702-1650,"(512) 743-6767",,,"JON KOCH",
TX,TRAVIS,"2019-067786 BP","Residential Renovations & Additions",9/28/2020,Addition,50000,189,"3208 BEVERLY RD",AUSTIN,TX,78703,BRYKERWOODS,14,"JAMES MATTESON ELLIS","3208 BEVERLY RD",AUSTIN,TX,78703,,Owner,,,,,"KOCH CONSTRUCTION",,,,,"KOCH CONSTRUCTION","1412 HARVEY ST",AUSTIN,TX,78702-1650,"(512) 743-6767",,,"JON KOCH",
TX,TRAVIS,"2020-142636 BP","Residential Renovations & Additions",9/28/2020,Addition,65000,951,"5503 MANOR RD",AUSTIN,TX,78723,"MANOR HILL",14,CONTRACTOR,,,,,,,,,,,"KAMD INVESTMENTS",,,,,"KAMD INVESTMENTS","2251 SHARK LOOP","ROUND ROCK",TX,78664-6115,"(512) 592-2301",,,,
TX,TRAVIS,"2020-122358 BP","Residential Renovations & Additions",9/25/2020,Addition,80000,3089,"2103 SHARON LN",AUSTIN,TX,78703,WESTFIELD,4,"RONNIE & SUSAN  ADAMS","2103 SHARON LN",AUSTIN,TX,78703,,Owner,,,,,"NEON AGAVE HOMES",,,,,"NEON AGAVE HOMES","4203 AFTON LN",AUSTIN,TX,78744-2007,"(512) 461-0382",,,,
TX,TRAVIS,"2020-144255 BP","Residential Renovations & Additions",9/28/2020,Addition,80000,644,"6706 KROLLTON DR",AUSTIN,TX,78745,"CHERRY CREEK",31,"PAMELA ANN  MCCOWN","6706 KROLLTON DR",AUSTIN,TX,78745,,Owner,,,,,"CONTRACT REMODELING SERVICES",,,,,"CONTRACT REMODELING SERVICES","3656 FLORA VISTA LOOP","ROUND ROCK",TX,78681,"(512) 278-8975",https://www.contractremodeling.com/,,,
TX,TRAVIS,"2020-036563 BP","Residential Renovations & Additions",9/28/2020,Addition,100000,1648,"1701 BARN SWALLOW DR",AUSTIN,TX,78746,WOODHAVEN,61,"WHITNEY TEMPLE","1701 BARN SWALLOW DR",AUSTIN,TX,78746,,Owner,,,,,"IAN GARETH JONES",,,,,"IAN GARETH JONES","350 CANYON RIM DR",AUSTIN,TX,78746,"(512) 767-3176",,,,
TX,TRAVIS,"2020-139532 BP","Residential Renovations & Additions",9/28/2020,Addition,380000,1965,"3803 AVENUE H",AUSTIN,TX,78751,"SHADOW LAWN",55,"KEN & SANDRA KEARNS RYALL","3803 AVENUE H",AUSTIN,TX,78751,,Owner,,,,,"ROBERT DSPAIN DESIGN BUILD",,,,,"ROBERT DSPAIN DESIGN BUILD","3112 WINDSOR RD STE 231",AUSTIN,TX,78703,"(512) 721-6602",,,,
TX,TRAVIS,"2020-146498 BP","Residential Renovations & Additions",9/28/2020,Renovation,620000,1828,"3406 FOOTHILL TER",AUSTIN,TX,78731,"COLORADO FOOTHILLS",5,"NICHOLAS & JENNIFER TRAMONTANA","3406 FOOTHILL TER",AUSTIN,TX,78731,,Owner,,,,,"MICHAEL DEANE HOMES",,,,,"MICHAEL DEANE HOMES","2414 EXPOSITION BLVD STE D100",AUSTIN,TX,78703-2265,"(512) 478-2400",,,,
TX,TRAVIS,"2020-146661 BP","Residential Renovations & Additions",9/25/2020,Renovation,30000,,"2014 CASTLE VIEW DR",AUSTIN,TX,78728,"WELLS BRANCH",24,"CYNTHIA TORRES","2014 CASTLE VIEW DR",AUSTIN,TX,78728,,Owner,,,,,"STATEWIDE REMODELING OF AUSTIN",,,,,"STATEWIDE REMODELING OF AUSTIN","2209-A RUTLAND DR STE 100A",AUSTIN,TX,78758,"(512) 453-5858",,,,
TX,TRAVIS,"2020-024627 BP","Residential Renovations & Additions",9/28/2020,Renovation,30000,,"5351 AUSTRAL LOOP",AUSTIN,TX,78739,"CIRCLE RANCH",47,"PRITHVI SHETTY","5351 AUSTRAL LOOP",AUSTIN,TX,78739,,Owner,,,,,"ENERGY ONE WINDOWS",,,,,"ENERGY ONE WINDOWS","11500 METRIC BLVD STE 250",AUSTIN,TX,78758-4077,"(512) 342-8700",http://www.energyonewindows.com/,,,
TX,TRAVIS,"2020-145330 BP","Residential Renovations & Additions",9/23/2020,Renovation,30774,,"4607 SARA DR",AUSTIN,TX,78721,"PECAN VALLEY",3,"NICOLE HOTCHKISS","4607 SARA DR",AUSTIN,TX,78721,,Owner,,,,,"CENTEX HOUSE LEVELING",,,,,"CENTEX HOUSE LEVELING","1120 E 52ND ST",AUSTIN,TX,78723-3007,"(512) 444-5438",http://www.welevelit.com/,,,
TX,TRAVIS,"2020-135362 BP","Residential Renovations & Additions",9/23/2020,Renovation,32396,,"4314 YELLOW ROSE TRL",AUSTIN,TX,78749,WESTCREEK,49,"LINDA ROSE","4314 YELLOW ROSE TRL",AUSTIN,TX,78749,,Owner,,,,,"POWER HOME REMODELING GROUP",,,,,"POWER HOME REMODELING GROUP","7701 METROPOLIS DR STE 300",AUSTIN,TX,78744-3128,"(610) 874-5000",,,,
TX,TRAVIS,"2020-143272 BP","Residential Renovations & Additions",9/25/2020,Renovation,32900,,"7003 MILLRACE DR",AUSTIN,TX,78724,"LAS CIMAS",2,"RODELLA PICKENS","7003 MILLRACE DR",AUSTIN,TX,78724,,Owner,,,,,"VALDEZ REMODELING & WEATHERIZATION",,,,,"VALDEZ REMODELING & WEATHERIZATION","3700 MUNSON ST # B",AUSTIN,TX,78721-2417,"(512) 926-5700",,,,
TX,TRAVIS,"2020-145116 BP","Residential Renovations & Additions",9/23/2020,Renovation,34720,,"12007 SKY WEST DR",AUSTIN,TX,78758,"VILLAGE AT WALNUT CREEK",74,"HOLLY& TIM & CHERYL HAMBACHER","12007 SKY WEST DR",AUSTIN,TX,78758,,Owner,,,,,"21ST CENTURY PAINTING & ROOFING",,,,,"21ST CENTURY PAINTING & ROOFING","9811A BECK CIR",AUSTIN,TX,78758-5405,"(512) 219-0342",,,,
TX,TRAVIS,"2020-126244 BP","Residential Renovations & Additions",9/23/2020,Renovation,45500,,"4517 KALAMA DR",AUSTIN,TX,78749,"MAPLE RUN",23,CONTRACTOR,,,,,,,,,,,"POWER HOME REMODELING GROUP",,,,,"POWER HOME REMODELING GROUP","7701 METROPOLIS DR STE 300",AUSTIN,TX,78744-3128,"(610) 874-5000",,,,
TX,TRAVIS,"2020-002875 BP","Residential Renovations & Additions",9/24/2020,Renovation,46202,,"10231 MATOCA WAY",AUSTIN,TX,78726,"CANYON CREEK",20,"JAMES & SHAW-FAN BLUNT","10231 MATOCA WAY",AUSTIN,TX,78726,,Owner,,,,,"RENEWAL BY ANDERSEN",,,,,"RENEWAL BY ANDERSEN","2100 KRAMER LN STE 600",AUSTIN,TX,78758-4045,"(512) 834-8383",,,,
TX,TRAVIS,"2020-024741 BP","Residential Renovations & Additions",9/24/2020,Renovation,47604,,"5609 PAINTED VALLEY DR",AUSTIN,TX,78759,"GREAT HILLS",59,"DANIEL & JENIVE ISAACS","5609 PAINTED VALLEY DR",AUSTIN,TX,78759,,Owner,,,,,"RENEWAL BY ANDERSEN",,,,,"RENEWAL BY ANDERSEN","2100 KRAMER LN STE 600",AUSTIN,TX,78758-4045,"(512) 834-8383",,,,
TX,TRAVIS,"2020-145172 BP","Residential Renovations & Additions",9/24/2020,Renovation,52006,,"7104 COACHWHIP HOLW",AUSTIN,TX,78750,LAKEWOOD,98,"ROBERT STEVEN & FARRELL ","7104 COACHWHIP HOLW",AUSTIN,TX,78750,,Owner,,,,,"RENEWAL BY ANDERSEN",,,,,"RENEWAL BY ANDERSEN","2100 KRAMER LN STE 600",AUSTIN,TX,78758-4045,"(512) 834-8383",,,,
TX,TRAVIS,"2020-141326 BP","Residential Renovations & Additions",9/23/2020,Renovation,57210,,"12531 ENCHANTED FOREST DR",AUSTIN,TX,78727,"ENCHANTED FOREST",23,"KEVIN & GINA CHRANE","12531 ENCHANTED FOREST DR",AUSTIN,TX,78727,,Owner,,,,,"POWER HOME REMODELING GROUP",,,,,"POWER HOME REMODELING GROUP","7701 METROPOLIS DR STE 300",AUSTIN,TX,78744-3128,"(610) 874-5000",,,,
TX,TRAVIS,"2020-146303 BP","Residential Renovations & Additions",9/28/2020,Renovation,60000,,"518 ATLANTA ST",AUSTIN,TX,78703,"JOHNSON CHARLES",13,"KRISTIN RUDGE","518 ATLANTA ST",AUSTIN,TX,78703,"(512) 473-2822",Owner,,,,,OWNER,,,,,OWNER,,,,,,,,,
TX,TRAVIS,"2020-145863 BP","Residential Renovations & Additions",9/28/2020,Renovation,67970,,"6300 SPRUCEWOOD CV",AUSTIN,TX,78731,PARKHILL,9,"CONOR & OBRIEN","6300 SPRUCEWOOD CV",AUSTIN,TX,78731,,Owner,,,,,"RENEWAL BY ANDERSEN",,,,,"RENEWAL BY ANDERSEN","2100 KRAMER LN STE 600",AUSTIN,TX,78758-4045,"(512) 834-8383",,,,
TX,TRAVIS,"2020-145221 BP","Residential Renovations & Additions",9/24/2020,Renovation,69410,,"5904 REPUBLIC OF TEXAS BLVD",AUSTIN,TX,78735,"VILLAGE PARK AT TRAVIS COUNTRY",13,"OLEARY MARK & RACHEL","5904 REPUBLIC OF TEXAS BLVD",AUSTIN,TX,78735,,Owner,,,,,"RENEWAL BY ANDERSEN",,,,,"RENEWAL BY ANDERSEN","2100 KRAMER LN STE 600",AUSTIN,TX,78758-4045,"(512) 834-8383",,,,
TX,TRAVIS,"2020-125172 BP","Residential Renovations & Additions",9/28/2020,Renovation,72080,,"10511 LOCKERBIE DR",AUSTIN,TX,78750,"SPICEWOOD AT BULL CREEK",10,"RALPH & REBECCA GRIMALDI ","10511 LOCKERBIE DR",AUSTIN,TX,78750,,Owner,,,,,"ACCOLADE EXTERIORS",,,,,"ACCOLADE EXTERIORS","6401 BURNET RD",AUSTIN,TX,78757,"(512) 288-8354",,,,
TX,TRAVIS,"2020-133556 BP","Residential Renovations & Additions",9/25/2020,Renovation,100000,,"3312 HEMLOCK AVE",AUSTIN,TX,78722,CHERRYWOOD,13,"THERESA DAVIS","3312 HEMLOCK AVE",AUSTIN,TX,78722,,Owner,,,,,"VALDEZ REMODELING & WEATHERIZATION",,,,,"VALDEZ REMODELING & WEATHERIZATION","3700 MUNSON ST # B",AUSTIN,TX,78721-2417,"(512) 926-5700",,,,
TX,TRAVIS,"2020-145205 BP","Residential Renovations & Additions",9/24/2020,Renovation,122124,,"9211 SAUTELLE LN",AUSTIN,TX,78749,"VILLAGE AT WESTERN OAKS",2,"SORIYA ESTES","9211 SAUTELLE LN",AUSTIN,TX,78749,,Owner,,,,,"RENEWAL BY ANDERSEN",,,,,"RENEWAL BY ANDERSEN","2100 KRAMER LN STE 600",AUSTIN,TX,78758-4045,"(512) 834-8383",,,,
TX,TRAVIS,"2020-143504 BP","Residential Renovations & Additions",9/25/2020,Renovation,150420,,"5137 CHINA GARDEN DR",AUSTIN,TX,78730,"RIVER PLACE",43,"JEFFERY RICHARD & KUDRICK","5137 CHINA GARDEN DR",AUSTIN,TX,78730,,Owner,,,,,"RENEWAL BY ANDERSEN",,,,,"RENEWAL BY ANDERSEN","2100 KRAMER LN STE 600",AUSTIN,TX,78758-4045,"(512) 834-8383",,,,
TX,WILLIAMSON,2020-65619,"Residential Renovations & Additions",8/28/2020,Renovation,265000,3400,"533 WHITE STEPPE WAY",GEORGETOWN,TX,78626,,,CONTRACTOR,,,,,,,,,,,"PACESETTER HOMES ",,,,,"PACESETTER HOMES ","7940 SHOAL CREEK BLVD STE 200",AUSTIN,TX,78757-7587,"(512) 323-5252",,,,
TX,WILLIAMSON,2020-65623,"Residential Renovations & Additions",8/28/2020,Renovation,280000,3783,"539 WHITE STEPPE WAY",GEORGETOWN,TX,78626,,,CONTRACTOR,,,,,,,,,,,"PACESETTER HOMES ",,,,,"PACESETTER HOMES ","7940 SHOAL CREEK BLVD STE 200",AUSTIN,TX,78757-7587,"(512) 323-5252",,,,
TX,WILLIAMSON,2020-65629,"Residential Renovations & Additions",8/28/2020,Renovation,265000,3400,"514 WHITE STEPPE WAY",GEORGETOWN,TX,78626,,,CONTRACTOR,,,,,,,,,,,"PACESETTER HOMES ",,,,,"PACESETTER HOMES ","7940 SHOAL CREEK BLVD STE 200",AUSTIN,TX,78757-7587,"(512) 323-5252",,,,
TX,WILLIAMSON,2020-58048,"Residential Renovations & Additions",8/20/2020,Renovation,30000,1806,"1204 E 13TH ST",GEORGETOWN,TX,78626,,,"JAYAVEL SOMASUNDARAM","1204 E 13TH ST",GEORGETOWN,TX,78626,,Owner,,,,,"HAMMERSMITH CONSTRUCTION",,,,,"HAMMERSMITH CONSTRUCTION","1308 BLACKENEY LN ",AUSTIN,TX,78753,"(512) 879-7200",https://www.hammersmithconstructiontx.com/,,,scottsledgeatx@gmail.com
TX,WILLIAMSON,2020-61370,"Residential Renovations & Additions",8/7/2020,Renovation,120000,,"408 SINUSO DR",GEORGETOWN,TX,78626,,,"REBEKAH  STEPHEN FRIDAY","408 SINUSO DR",GEORGETOWN,TX,78626,,Owner,,,,,"GOULD CONSTRUCTION",,,,,"GOULD CONSTRUCTION","6874 HIGHWAY 82","GLENWOOD SPRINGS",TX,81602,"(970) 945-7291",https://www.gouldconstruction.com/,"(970) 945-8371",,
TX,WILLIAMSON,2020-26650,"Residential Swimming Pools & Spas",8/24/2020,,,1421,"2248 LONG BOW DR",LEANDER,TX,78641,"FAIRWAYS AT CRYSTAL FALLS",,CONTRACTOR,,,,,,,,,,,"TRIROCK PERMITS",,,,,"TRIROCK PERMITS","12234 N INTERSTATE 35 STE 100 BLDG B",AUSTIN,TX,78753-0002,"(512) 658-1287",,,,trirockpermits@gmail.com
TX,WILLIAMSON,2020-27476,"Residential Swimming Pools & Spas",8/5/2020,,,800,"1809 FICUZZA WAY",LEANDER,TX,78641,TRAVISSO,,CONTRACTOR,,,,,,,,,,,"EDGEWATER POOLS",,,,,"EDGEWATER POOLS","2800 E WHITESTONE BLVD STE 120","CEDAR PARK",TX,78613-7275,"(512) 569-9364",,,"SCOTT ASTON",
TX,WILLIAMSON,2020-27477,"Residential Swimming Pools & Spas",8/28/2020,,,800,"1321 SIENA SUNSET RD",LEANDER,TX,78641,TRAVISSO,,CONTRACTOR,,,,,,,,,,,"EDGEWATER POOLS",,,,,"EDGEWATER POOLS","2800 E WHITESTONE BLVD STE 120","CEDAR PARK",TX,78613-7275,"(512) 569-9364",,,"SCOTT ASTON",
TX,WILLIAMSON,2020-27539,"Residential Swimming Pools & Spas",8/28/2020,,,2500,"1101 CALISTOGA DR",LEANDER,TX,78641,RIDGEWOOD,,"ANGELA & JARED ZUNIGA ","1101 CALISTOGA DR",LEANDER,TX,78641,,Owner,,,,,"DIJASO LANDSCAPE & POOL DESIGN",,,,,"DIJASO LANDSCAPE & POOL DESIGN","6013 ALMELO DR","ROUND ROCK",TX,78681-5539,"(512) 903-2153",http://www.dijaso.com/,,"JEFF COCKRELL",info@dijaso.com
TX,WILLIAMSON,2020-27664,"Residential Swimming Pools & Spas",8/5/2020,,,850,"1817 FICUZZA WAY",LEANDER,TX,78641,TRAVISSO,,CONTRACTOR,,,,,,,,,,,"EDGEWATER POOLS",,,,,"EDGEWATER POOLS","2800 E WHITESTONE BLVD STE 120","CEDAR PARK",TX,78613-7275,"(512) 569-9364",,,"SCOTT ASTON",
TX,WILLIAMSON,2020-27735,"Residential Swimming Pools & Spas",8/4/2020,,,483,"716 JUDGE FISK DR",LEANDER,TX,78641,BRYSON,,"AMANDA & MICHAEL FEHLIS","716 JUDGE FISK DR",LEANDER,TX,78641,,Owner,,,,,"TRIROCK PERMITS",,,,,"TRIROCK PERMITS","12234 N INTERSTATE 35 STE 100 BLDG B",AUSTIN,TX,78753-0002,"(512) 658-1287",,,,trirockpermits@gmail.com
TX,WILLIAMSON,2020-27736,"Residential Swimming Pools & Spas",8/5/2020,,,850,"4333 OPERA PATH",LEANDER,TX,78641,TRAVISSO,,CONTRACTOR,,,,,,,,,,,"EDGEWATER POOLS",,,,,"EDGEWATER POOLS","2800 E WHITESTONE BLVD STE 120","CEDAR PARK",TX,78613-7275,"(512) 569-9364",,,"SCOTT ASTON",
TX,WILLIAMSON,2020-27744,"Residential Swimming Pools & Spas",8/5/2020,,,634,"1929 MURANO LN",LEANDER,TX,78641,TRAVISSO,,CONTRACTOR,,,,,,,,,,,"CALIFORNIA POOLS",,,,,"CALIFORNIA POOLS","12871 N HIGHWAY 183 STE 204",AUSTIN,TX,78750-3202,"(512) 537-6566",,,,
TX,WILLIAMSON,2020-27745,"Residential Swimming Pools & Spas",8/5/2020,,,625,"2916 FALLCREST BND",LEANDER,TX,78641,"THE BLUFFS AT CRYSTAL FALLS",,CONTRACTOR,,,,,,,,,,,"TEXAS POOLS & PATIOS",,,,,"TEXAS POOLS & PATIOS","601 S BELL BLVD","CEDAR PARK",TX,78613-3854,"(512) 402-1175",http://www.texaspoolsandpatios.com/,,,
TX,WILLIAMSON,2020-27747,"Residential Swimming Pools & Spas",8/6/2020,,,378,"712 JUDGE FISK DR",LEANDER,TX,78641,BRYSON,,"RICHARD & SARA SHELTON","712 JUDGE FISK DR",LEANDER,TX,78641,,Owner,,,,,"TRIROCK PERMITS",,,,,"TRIROCK PERMITS","12234 N INTERSTATE 35 STE 100 BLDG B",AUSTIN,TX,78753-0002,"(512) 658-1287",,,,trirockpermits@gmail.com
TX,WILLIAMSON,2020-27748,"Residential Swimming Pools & Spas",8/19/2020,,,450,"2937 MOSSY SPRINGS DR",LEANDER,TX,78641,"THE BLUFFS AT CRYSTAL FALLS",,CONTRACTOR,,,,,,,,,,,"A2O POOLS",,,,,"A2O POOLS","1109 MYRTLE ST",AUSTIN,TX,78702-1931,"(512) 915-1414",,,,
TX,WILLIAMSON,2020-27758,"Residential Swimming Pools & Spas",8/5/2020,,,1480,"1608 HIGH LONESOME",LEANDER,TX,78641,"GRAND MESA AT CRYSTAL FALLS",,CONTRACTOR,,,,,,,,,,,"DENALI POOLS",,,,,"DENALI POOLS","1904 BRUSHY BEND DR","ROUND ROCK",TX,78681-1451,"(512) 955-6564",,,,
TX,WILLIAMSON,2020-27759,"Residential Swimming Pools & Spas",8/14/2020,,,700,"1209 ALPINE MOUNTAIN DR",LEANDER,TX,78641,"LAKELINE RANCH",,"STACY SCHMITT","1209 ALPINE MOUNTAIN DR",LEANDER,TX,78641,,Owner,,,,,"TEXAS POOLS & PATIOS",,,,,"TEXAS POOLS & PATIOS","601 S BELL BLVD","CEDAR PARK",TX,78613-3854,"(512) 402-1175",http://www.texaspoolsandpatios.com/,,,
TX,WILLIAMSON,2020-27786,"Residential Swimming Pools & Spas",8/11/2020,,,501,"2300 CHAMPIONS CORNER DR",LEANDER,TX,78641,"CRYSTAL FALLS",,CONTRACTOR,,,,,,,,,,,"SOUTHPAW POOLS INC",,,,,"SOUTHPAW POOLS INC","9900 SPECTRUM DR",AUSTIN,TX,78717-4555,"(512) 508-9683",http://www.southpawpools.com/,,"TODD KINGHORN",
TX,WILLIAMSON,2020-27859,"Residential Swimming Pools & Spas",8/21/2020,,,1972,"2201 HIGH LONESOME",LEANDER,TX,78641,"GRAND MESA AT CRYSTAL FALLS",,CONTRACTOR,,,,,,,,,,,POOLSCAPES,,,,,POOLSCAPES,"307 E AUSTIN AVE","ROUND ROCK",TX,78664-5211,"(512) 341-7665",,,,
TX,WILLIAMSON,2020-27860,"Residential Swimming Pools & Spas",8/10/2020,,,873,"904 AMERICAN TRL",LEANDER,TX,78641,"TRAILS AT LEANDER CONDO",,CONTRACTOR,,,,,,,,,,,"TRIROCK PERMITS",,,,,"TRIROCK PERMITS","12234 N INTERSTATE 35 STE 100 BLDG B",AUSTIN,TX,78753-0002,"(512) 658-1287",,,,trirockpermits@gmail.com
TX,WILLIAMSON,2020-27890,"Residential Swimming Pools & Spas",8/26/2020,,,1598,"2328 HIGH LONESOME",LEANDER,TX,78641,"GRAND MESA AT CRYSTAL FALLS",,CONTRACTOR,,,,,,,,,,,"ATHENA POOLS",,,,,"ATHENA POOLS","2209 PERSIMMON RIDGE CT",AUSTIN,TX,78732-2085,"(512) 914-0554",http://athenapools.com,"(512) 410-0363",,athenapools@austin.rr.com
TX,WILLIAMSON,2020-27909,"Residential Swimming Pools & Spas",8/21/2020,,,801,"2404 CADDO CANOE DR",LEANDER,TX,78641,"VALLEY VISTA",,"JAMES & ELAINE SACKETT","2404 CADDO CANOE DR",LEANDER,TX,78641,,Owner,,,,,"INNOVATIVE POOLS & SPAS",,,,,"INNOVATIVE POOLS & SPAS","13205 STILLFOREST ST",AUSTIN,TX,78729-2836,"(512) 689-5958",http://innovativepoolsandspas.com/,"(512) 331-4730","DANIEL EDISON",Innovativepools@SBCglobal.net
TX,WILLIAMSON,2020-27946,"Residential Swimming Pools & Spas",8/17/2020,,,1195,"1101 LACEFLOWER LN",LEANDER,TX,78641,"OAK CREEK",,"JEFFREY SHANE & DONNA CAROL SHERRILL","1101 LACEFLOWER LN",LEANDER,TX,78641,,Owner,,,,,"PERMITS PLUS",,,,,"PERMITS PLUS","1107 E 52ND ST",ODESSA,TX,79762-4352,"(432) 550-4303",http://www.permitsplus-houston.com/,,,
TX,WILLIAMSON,2020-27959,"Residential Swimming Pools & Spas",8/17/2020,,,1849,"801 BRAVE FACE ST",LEANDER,TX,78641,"GRAND MESA AT CRYSTAL FALLS",,CONTRACTOR,,,,,,,,,,,"DENALI POOLS",,,,,"DENALI POOLS","1904 BRUSHY BEND DR","ROUND ROCK",TX,78681-1451,"(512) 955-6564",,,,
TX,WILLIAMSON,2020-27960,"Residential Swimming Pools & Spas",8/19/2020,,,1219,"1121 KERSEY DR",LEANDER,TX,78641,"SAVANNA RANCH",,CONTRACTOR,,,,,,,,,,,"PERMITS PLUS",,,,,"PERMITS PLUS","1107 E 52ND ST",ODESSA,TX,79762-4352,"(432) 550-4303",http://www.permitsplus-houston.com/,,,
TX,WILLIAMSON,2020-27979,"Residential Swimming Pools & Spas",8/28/2020,,,425,"4304 TANGLEWOOD ESTATES DR",LEANDER,TX,78641,BORHO,,"COREY & JENNIFER FISCH","4304 TANGLEWOOD ESTATES DR",LEANDER,TX,78641,,Owner,,,,,"CODY POOLS",,,,,"CODY POOLS","2300 W PARMER LN",AUSTIN,TX,78727-4332,"(512) 835-4966",http://www.codypools.com,,"COLE NAUMAN",
TX,WILLIAMSON,2020-28004,"Residential Swimming Pools & Spas",8/17/2020,,,457,"2029 JOSIAH CV",LEANDER,TX,78641,"PALMERA RIDGE",,"TYLER ADAM & ASHLEY RENEA PACHA","2029 JOSIAH CV",LEANDER,TX,78641,,Owner,,,,,"PERMITS PLUS",,,,,"PERMITS PLUS","1107 E 52ND ST",ODESSA,TX,79762-4352,"(432) 550-4303",http://www.permitsplus-houston.com/,,,
TX,WILLIAMSON,2020-28046,"Residential Swimming Pools & Spas",8/17/2020,,,1060,"2021 PORTOBELLO RD",LEANDER,TX,78641,TRAVISSO,,CONTRACTOR,,,,,,,,,,,"CASCADE CUSTOM POOLS",,,,,"CASCADE CUSTOM POOLS","215 RANCH ROAD 620 S",LAKEWAY,TX,78734-3922,"(512) 264-2453",http://www.cascadecustompools.com,,,
TX,WILLIAMSON,2020-28112,"Residential Swimming Pools & Spas",8/20/2020,,,1030,"2813 TRUE GRIT CV",LEANDER,TX,78641,MERIDIAN,,CONTRACTOR,,,,,,,,,,,"CODY POOLS",,,,,"CODY POOLS","2300 W PARMER LN",AUSTIN,TX,78727-4332,"(512) 835-4966",http://www.codypools.com,,"COLE NAUMAN",
TX,WILLIAMSON,2020-28138,"Residential Swimming Pools & Spas",8/28/2020,,,500,"1929 PORTOBELLO RD",LEANDER,TX,78641,"CREEKSIDE AT TRAVISSO",,CONTRACTOR,,,,,,,,,,,"MOONLIGHT POOL AND SPA",,,,,"MOONLIGHT POOL AND SPA","3950 TX-95",TEMPLE,TX,76502,"(254) 760-3464",,,,
TX,WILLIAMSON,2020-28140,"Residential Swimming Pools & Spas",8/21/2020,,,725,"2705 HIGHLAND TRL",LEANDER,TX,78641,"THE HIGHLANDS AT CRYSTAL FALLS",,"MARK & JENNIFER TUTTLE","2705 HIGHLAND TRL",LEANDER,TX,78641,,Owner,,,,,"TEXAS POOLS & PATIOS",,,,,"TEXAS POOLS & PATIOS","601 S BELL BLVD","CEDAR PARK",TX,78613-3854,"(512) 402-1175",http://www.texaspoolsandpatios.com/,,,
TX,WILLIAMSON,2020-28196,"Residential Swimming Pools & Spas",8/25/2020,,,1521,"2039 SPYGLASS HL",LEANDER,TX,78641,"GRAND MESA AT CRYSTAL FALLS",,CONTRACTOR,,,,,,,,,,,"PERMITS PLUS",,,,,"PERMITS PLUS","1107 E 52ND ST",ODESSA,TX,79762-4352,"(432) 550-4303",http://www.permitsplus-houston.com/,,,
TX,WILLIAMSON,2020-28210,"Residential Swimming Pools & Spas",8/21/2020,,,928,"2997 DESERT SHADE BND",LEANDER,TX,78641,"THE BLUFFS AT CRYSTAL FALLS",,CONTRACTOR,,,,,,,,,,,"PERMITS PLUS",,,,,"PERMITS PLUS","1107 E 52ND ST",ODESSA,TX,79762-4352,"(432) 550-4303",http://www.permitsplus-houston.com/,,,
TX,WILLIAMSON,2020-28263,"Residential Swimming Pools & Spas",8/31/2020,,,455,"2805 VISTA HEIGHTS DR",LEANDER,TX,78641,"REAGANS OVERLOOK",,"ANTHONY FAIN & ELIZABETH ANN BERNARDO","2805 VISTA HEIGHTS DR",LEANDER,TX,78641,,Owner,,,,,"OPEN WATER POOLS",,,,,"OPEN WATER POOLS","13359 N HIGHWAY 183 STE B-406 STE 248",AUSTIN,TX,78750-7153,"(512) 801-9712",http://www.openwaterpools.com,,,
TX,WILLIAMSON,2020-28266,"Residential Swimming Pools & Spas",8/31/2020,,,1127,"824 MEDITERRANEAN DR",LEANDER,TX,78641,MARBELLA,,"JULIA & KEVIN GRAHAM","824 MEDITERRANEAN DR",LEANDER,TX,78641,,Owner,,,,,"DENALI POOLS",,,,,"DENALI POOLS","1904 BRUSHY BEND DR","ROUND ROCK",TX,78681-1451,"(512) 955-6564",,,,
TX,TRAVIS,"2020-142648 BP","Residential Swimming Pools & Spas",9/23/2020,,,184,"1801 ROCKMOOR AVE",AUSTIN,TX,78703,"CHERRY ROCK",5,"PUGH REMADNA LYNN","1801 ROCKMOOR AVE",AUSTIN,TX,78703,,Owner,,,,,"MILLENNIUM POOLS",,,,,"MILLENNIUM POOLS","2009 RANCH ROAD 620 N STE 710",LAKEWAY,TX,78734-2678,"(512) 266-9699",,,,
TX,TRAVIS,"2020-115276 BP","Residential Swimming Pools & Spas",9/24/2020,,,137,"2602 S 3RD ST",AUSTIN,TX,78704,"OAK RIDGE HEIGHTS",6,CONTRACTOR,,,,,,,,,,,"AUSTIN NEWCASTLE HOMES",,,,,"AUSTIN NEWCASTLE HOMES","5108 AVENUE G",AUSTIN,TX,78751-2022,"(512) 454-4600",,,,
TX,TRAVIS,"2020-146673 BP","Residential Swimming Pools & Spas",9/25/2020,,,451,"2109 SCHULLE AVE",AUSTIN,TX,78703,"SHERWOOD FOREST",1,"COLEMAN JENNINGS","2109 SCHULLE AVE",AUSTIN,TX,78703,,Owner,,,,,"NALLE CUSTOM HOMES",,,,,"NALLE CUSTOM HOMES","105 APPLEWOOD DR","CEDAR CREEK",TX,78612-3441,"(512) 947-8972",http://www.nallecustomhomes.com/,,,
TX,TRAVIS,"2020-146422 BP","Residential Swimming Pools & Spas",9/28/2020,,,450,"8212 SPIRE VW",AUSTIN,TX,78744,DELVALLE,,CONTRACTOR,,,,,,,,,,,"AQUAMARINE POOLS",,,,,"AQUAMARINE POOLS","8360 N INTERSTATE 35",GEORGETOWN,TX,78626-1766,"(800) 432-8994",,,,john@aquapools.com
TX,TRAVIS,"2020-147950 BP","Residential Swimming Pools & Spas",9/28/2020,,,96,"3406 TAYLORS DR",AUSTIN,TX,78703,"BROWN HERMAN",14,CONTRACTOR,,,,,,,,,,,"NALLE CUSTOM HOMES",,,,,"NALLE CUSTOM HOMES","105 APPLEWOOD DR","CEDAR CREEK",TX,78612-3441,"(512) 947-8972",http://www.nallecustomhomes.com/,,,
TX,TRAVIS,"2020-144988 BP","Residential Swimming Pools & Spas",9/28/2020,,,491,"1304 NEWNING AVE",AUSTIN,TX,78704,"FAIRVIEW PARK",,CONTRACTOR,,,,,,,,,,,"MAXA ENTERPRISES",,,,,"MAXA ENTERPRISES","7826 HWY 71 ","AUSTIN ",TX,78735,"(512) 288-1600",,,,
TX,TRAVIS,"2020-146401 BP","Residential Swimming Pools & Spas",9/25/2020,,,670,"2803 REGENTS PARK",AUSTIN,TX,78746,TREEMONT,2,"FRANCISCO & CINDY HERNANDEZ","2803 REGENTS PARK",AUSTIN,TX,78746,,Owner,,,,,"CODY POOLS",,,,,"CODY POOLS","2300 W PARMER LN",AUSTIN,TX,78727-4332,"(512) 835-4966",http://www.codypools.com,,"COLE NAUMAN",
TX,TRAVIS,"2020-147018 BP","Residential Swimming Pools & Spas",9/28/2020,,,322,"12000 WICKLINE WAY",AUSTIN,TX,78717,,,CONTRACTOR,,,,,,,,,,,"AQUAMARINE POOLS",,,,,"AQUAMARINE POOLS","8360 N INTERSTATE 35",GEORGETOWN,TX,78626-1766,"(800) 432-8994",,,,john@aquapools.com
TX,TRAVIS,"2020-145804 BP","Residential Swimming Pools & Spas",9/28/2020,,,416,"12401 CARDINAL FLOWER DR",AUSTIN,TX,78739,"GREYROCK RIDGE",16,"RUSTY JAMES & BOWLING","12401 CARDINAL FLOWER DR",AUSTIN,TX,78739,,Owner,,,,,"TAILORED POOLS",,,,,"TAILORED POOLS","11900 JOLLYVILLE RD",AUSTIN,TX,78726,"(512) 982-6077",https://www.tailoredpools.com/,,,
TX,TRAVIS,"2020-146471 BP","Residential Swimming Pools & Spas",9/25/2020,,1000,450,"11812 QUINTANA CV",AUSTIN,TX,78739,ESQUEL,79,"MAYRA & MATTHEW LINDERMAN","11812 QUINTANA CV",AUSTIN,TX,78739,,Owner,,,,,"RELIANT POOLS",,,,,"RELIANT POOLS","12343 HYMEADOW DR STE 3A",AUSTIN,TX,78750-1858,"(512) 407-2623",http://www.reliantpools.com/,,,
TX,TRAVIS,"2020-143951 BP","Residential Swimming Pools & Spas",9/25/2020,,35000,406,"4205 ALEXANDRIA DR",AUSTIN,TX,78749,"ALEXANDRIA MAPLE RUN",2,"JAMINE MOORE","4205 ALEXANDRIA DR",AUSTIN,TX,78749,,Owner,,,,,"DREAM POOLS OF TEXAS",,,,,"DREAM POOLS OF TEXAS","8434B SPRING CYPRESS RD",SPRING,TX,77379-3129,"(281) 789-0778",,,,
TX,TRAVIS,"2020-146583 BP","Residential Swimming Pools & Spas",9/28/2020,,45000,530,"10501 CANNON MARK WAY",AUSTIN,TX,78717,,,CONTRACTOR,,,,,,,,,,,"DENALI POOLS",,,,,"DENALI POOLS","1904 BRUSHY BEND DR","ROUND ROCK",TX,78681-1451,"(512) 955-6564",,,,
TX,TRAVIS,"2019-073506 BP","Residential Swimming Pools & Spas",9/25/2020,,47000,406,"2402 GATESHEAD CIR",AUSTIN,TX,78745,"CHERRY CREEK",7,"RICK HOLMBERG","2402 GATESHEAD CIR",AUSTIN,TX,78745,,Owner,,,,,"BLUE BOTTOM POOL & SPA SUPPLY",,,,,"BLUE BOTTOM POOL & SPA SUPPLY","11416 N FM 620 STE J",AUSTIN,TX,78726-1170,"(512) 436-9572",http://www.bluebottompoolsupply.com/,,,info@bluebottompoolsupply.com
TX,TRAVIS,"2020-144868 BP","Residential Swimming Pools & Spas",9/25/2020,,50000,383,"4208 BAMFORD DR",AUSTIN,TX,78731,"NORTHWEST HILLS MESA OAKS",10,"JOE & KATHRYN BAKER","4208 BAMFORD DR",AUSTIN,TX,78731,,Owner,,,,,"WATERVIEW POOLS",,,,,"WATERVIEW POOLS","13313 KINDER PASS",AUSTIN,TX,78727-3415,"(512) 289-7665",http://waterviewpools.com,,,
TX,TRAVIS,"2020-144892 BP","Residential Swimming Pools & Spas",9/24/2020,,53000,499,"2302 TOWNES LN",AUSTIN,TX,78703,"TARRY TOWN",159,"CHRIS & JENNIFER HOLLAND","2302 TOWNES LN",AUSTIN,TX,78703,,Owner,,,,,"CODY POOLS",,,,,"CODY POOLS","2300 W PARMER LN",AUSTIN,TX,78727-4332,"(512) 835-4966",http://www.codypools.com,,"COLE NAUMAN",
TX,TRAVIS,"2020-144873 BP","Residential Swimming Pools & Spas",9/25/2020,,67500,449,"8204 VIA VERDE DR",AUSTIN,TX,78739,"ALTA MIRA AT CIRCLE C RANCH",71,"LUIS ALFREDO GONZALEZ","8204 VIA VERDE DR",AUSTIN,TX,78739,,Owner,,,,,"PREMIER POOLS & SPAS",,,,,"PREMIER POOLS & SPAS","7703 N LAMAR BLVD STE 606",AUSTIN,TX,78752-1027,"(512) 470-3949",,,,
TX,TRAVIS,"2020-146870 BP","Residential Swimming Pools & Spas",9/28/2020,,96000,380,"12024 WYCLIFF LN",AUSTIN,TX,78727,MILWOOD,2,"DASKAS PATRICK & JULIE LEKSTUTIS","12024 WYCLIFF LN",AUSTIN,TX,78727,,Owner,,,,,"AUSTIN WATER DESIGNS",,,,,"AUSTIN WATER DESIGNS","147800 HAMILTON POOL ROAD",AUSTIN,TX,78738,"(512) 837-1666",,,,
TX,TRAVIS,"2020-140474 BP","Residential Swimming Pools & Spas",9/25/2020,,500000,192,"1101 MANLOVE ST",AUSTIN,TX,78741,,,"ADRIA & ESCALANTE","1101 MANLOVE ST",AUSTIN,TX,78741,,Owner,,,,,"TEXAS TINY POOLS",,,,,"TEXAS TINY POOLS","10509 OLD MANCHACA RD",AUSTIN,TX,78748-2117,"(512) 845-3151",,,,
TX,HAYS,2020-32904,"Residential Swimming Pools & Spas",8/19/2020,,30000,,"508 ACADEMY OAKS DR","SAN MARCOS",TX,78666,,,CONTRACTOR,,,,,,,,,,,"AQUAMARINE POOLS",,,,,"AQUAMARINE POOLS","8360 N INTERSTATE 35",GEORGETOWN,TX,78626-1766,"(800) 432-8994",,,,john@aquapools.com
TX,HAYS,2020-32963,"Residential Swimming Pools & Spas",8/13/2020,,109000,,"125 FROGFRUIT WAY","SAN MARCOS",TX,78666,,,CONTRACTOR,,,,,,,,,,,"ANTHONY & SYLVAN POOLS",,,,,"ANTHONY & SYLVAN POOLS","13343 N HIGHWAY 183 STE 295",AUSTIN,TX,78750-7161,"(512) 258-1232",http://www.anthonysylvan.com/,,,
TX,HAYS,2020-32791,"Restaurant and Bar",8/26/2020,Renovation,275000,3519,"4060 S IH 35","SAN MARCOS",TX,78666,,,CONTRACTOR,,,,,,,,,,,"STRUTHOFF COMPANY",,,,,"STRUTHOFF COMPANY","13428 WEST AVE","SAN ANTONIO",TX,78216-2005,"(210) 495-2557",,,,
TX,TRAVIS,"2020-146443 BP",Retail,9/27/2020,,675000,4961,"1600 E RIVERSIDE DR",AUSTIN,TX,78741,SHAMROCK,2,CONTRACTOR,,,,,,,,,,,"HAVENS CONSTRUCTION",,,,,"HAVENS CONSTRUCTION","3823 BEE CAVES RD # B","WEST LAKE HILLS",TX,78746-6401,"(512) 912-0059",http://www.havensconstruction.org/,,,
TX,WILLIAMSON,2019-23253,"Single Family Homes",8/3/2020,,,4322,"2424 LA MIRADA ST",LEANDER,TX,78641,"PALMERA RIDGE",,CONTRACTOR,,,,,,,,,,,"MHI MCGUYER HOMEBUILDERS",,,,,"MHI MCGUYER HOMEBUILDERS","8200 N MO PAC EXPY STE 300",AUSTIN,TX,78759-8844,"(512) 502-2050",,"(512) 388-1836","FRANK MCGUYER",
TX,WILLIAMSON,2019-24128,"Single Family Homes",8/27/2020,,,4320,"2201 AIRPORT DR",LEANDER,TX,78641,"PALMERA RIDGE",,CONTRACTOR,,,,,,,,,,,"CHESMAR HOMES",,,,,"CHESMAR HOMES","2900 N QUINLAN PARK RD",AUSTIN,TX,78732-6083,"(512) 233-9016",http://chesmar.com,,,
TX,WILLIAMSON,2020-25658,"Single Family Homes",8/5/2020,,,3765,"1121 EULESS LN",LEANDER,TX,78641,"MASON RANCH",,CONTRACTOR,,,,,,,,,,,"KB HOME",,,,,"KB HOME","10800 PECAN PARK BLVD STE 200",AUSTIN,TX,78750-1249,"(512) 651-8100",,,,
TX,WILLIAMSON,2020-25813,"Single Family Homes",8/6/2020,,,3865,"200 BARALO ST",LEANDER,TX,78641,"CARNEROS RANCH",,CONTRACTOR,,,,,,,,,,,"MHI MCGUYER HOMEBUILDERS",,,,,"MHI MCGUYER HOMEBUILDERS","8200 N MO PAC EXPY STE 300",AUSTIN,TX,78759-8844,"(512) 502-2050",,"(512) 388-1836","FRANK MCGUYER",
TX,WILLIAMSON,2020-26025,"Single Family Homes",8/24/2020,,,6318,"1808 MURANO LN",LEANDER,TX,78641,TRAVISSO,,CONTRACTOR,,,,,,,,,,,"TOLL BROTHERS",,,,,"TOLL BROTHERS","310 ARIA DR",AUSTIN,TX,78738-1740,"(512) 491-0378",,,,
TX,WILLIAMSON,2020-26026,"Single Family Homes",8/24/2020,,,4701,"4549 VIA ROMA PASS",LEANDER,TX,78641,TRAVISSO,,CONTRACTOR,,,,,,,,,,,"TOLL BROTHERS",,,,,"TOLL BROTHERS","310 ARIA DR",AUSTIN,TX,78738-1740,"(512) 491-0378",,,,
TX,WILLIAMSON,2020-26030,"Single Family Homes",8/25/2020,,,6977,"2213 BEL PAESE BND",LEANDER,TX,78641,TRAVISSO,,CONTRACTOR,,,,,,,,,,,"TAYLOR MORRISON OF TEXAS",,,,,"TAYLOR MORRISON OF TEXAS","11200 LAKELINE BLVD STE 150A",AUSTIN,TX,78717-5964,"(512) 328-8866",,"(512) 328-7988",,
TX,WILLIAMSON,2020-26125,"Single Family Homes",8/14/2020,,,3629,"1900 BOGATA LN",LEANDER,TX,78641,"MASON RANCH",,CONTRACTOR,,,,,,,,,,,"KB HOME",,,,,"KB HOME","10800 PECAN PARK BLVD STE 200",AUSTIN,TX,78750-1249,"(512) 651-8100",,,,
TX,WILLIAMSON,2020-26313,"Single Family Homes",8/7/2020,,,3465,"801 BEAUTYBERRY LN",LEANDER,TX,78641,BRYSON,,CONTRACTOR,,,,,,,,,,,"PERRY HOMES",,,,,"PERRY HOMES","6112 LLANO ST",AUSTIN,TX,78702,"(512) 810-8050",,,,
TX,WILLIAMSON,2020-26388,"Single Family Homes",8/17/2020,,,3163,"1933 STIRLING ST",LEANDER,TX,78641,BRYSON,,CONTRACTOR,,,,,,,,,,,"PERRY HOMES",,,,,"PERRY HOMES","6112 LLANO ST",AUSTIN,TX,78702,"(512) 810-8050",,,,
TX,WILLIAMSON,2020-26389,"Single Family Homes",8/7/2020,,,3527,"1937 STIRLING ST",LEANDER,TX,78641,BRYSON,,CONTRACTOR,,,,,,,,,,,"PERRY HOMES",,,,,"PERRY HOMES","6112 LLANO ST",AUSTIN,TX,78702,"(512) 810-8050",,,,
TX,WILLIAMSON,2020-26398,"Single Family Homes",8/17/2020,,,3317,"2029 STIRLING ST",LEANDER,TX,78641,BRYSON,,CONTRACTOR,,,,,,,,,,,"PERRY HOMES",,,,,"PERRY HOMES","6112 LLANO ST",AUSTIN,TX,78702,"(512) 810-8050",,,,
TX,WILLIAMSON,2020-26415,"Single Family Homes",8/17/2020,,,3582,"1109 ARBOR ACRES LOOP",LEANDER,TX,78641,"MASON RANCH",,CONTRACTOR,,,,,,,,,,,"KB HOME",,,,,"KB HOME","10800 PECAN PARK BLVD STE 200",AUSTIN,TX,78750-1249,"(512) 651-8100",,,,
TX,WILLIAMSON,2020-26473,"Single Family Homes",8/5/2020,,,3196,"2044 BEL PAESE BND",LEANDER,TX,78641,TRAVISSO,,CONTRACTOR,,,,,,,,,,,"TAYLOR MORRISON OF TEXAS",,,,,"TAYLOR MORRISON OF TEXAS","11200 LAKELINE BLVD STE 150A",AUSTIN,TX,78717-5964,"(512) 328-8866",,"(512) 328-7988",,
TX,WILLIAMSON,2020-26682,"Single Family Homes",8/4/2020,,,3063,"1932 STIRLING ST",LEANDER,TX,78641,BRYSON,,CONTRACTOR,,,,,,,,,,,"CHESMAR HOMES",,,,,"CHESMAR HOMES","2900 N QUINLAN PARK RD",AUSTIN,TX,78732-6083,"(512) 233-9016",http://chesmar.com,,,
TX,WILLIAMSON,2020-26698,"Single Family Homes",8/27/2020,,,3143,"2008 STIRLING ST",LEANDER,TX,78641,BRYSON,,CONTRACTOR,,,,,,,,,,,"CHESMAR HOMES",,,,,"CHESMAR HOMES","2900 N QUINLAN PARK RD",AUSTIN,TX,78732-6083,"(512) 233-9016",http://chesmar.com,,,
TX,WILLIAMSON,2020-26750,"Single Family Homes",8/17/2020,,,3751,"912 ALMERIA BND",LEANDER,TX,78641,MARBELLA,,CONTRACTOR,,,,,,,,,,,"VINTAGE ESTATE HOMES",,,,,"VINTAGE ESTATE HOMES","780 S APOLLO BLVD STE 100",MELBOURNE,FL,32901-1402,"(512) 955-6825",http://www.vintageestatehomes.com/,,"PATRICK LONGO",
TX,WILLIAMSON,2020-26865,"Single Family Homes",8/5/2020,,,3713,"2200 SANTA ISABELLA DR",LEANDER,TX,78641,"PALMERA RIDGE",,CONTRACTOR,,,,,,,,,,,"MHI MCGUYER HOMEBUILDERS",,,,,"MHI MCGUYER HOMEBUILDERS","8200 N MO PAC EXPY STE 300",AUSTIN,TX,78759-8844,"(512) 502-2050",,"(512) 388-1836","FRANK MCGUYER",
TX,WILLIAMSON,2020-26869,"Single Family Homes",8/5/2020,,,3080,"2032 STIRLING ST",LEANDER,TX,78641,BRYSON,,CONTRACTOR,,,,,,,,,,,"PERRY HOMES",,,,,"PERRY HOMES","6112 LLANO ST",AUSTIN,TX,78702,"(512) 810-8050",,,,
TX,WILLIAMSON,2020-26923,"Single Family Homes",8/18/2020,,,5487,"2212 SAN POLO PL",LEANDER,TX,78641,TRAVISSO,,CONTRACTOR,,,,,,,,,,,"TAYLOR MORRISON OF TEXAS",,,,,"TAYLOR MORRISON OF TEXAS","11200 LAKELINE BLVD STE 150A",AUSTIN,TX,78717-5964,"(512) 328-8866",,"(512) 328-7988",,
TX,WILLIAMSON,2020-26969,"Single Family Homes",8/6/2020,,,2786,"2441 ROARING RIVER TRL",LEANDER,TX,78641,"LOST WOODS",,CONTRACTOR,,,,,,,,,,,"M/I HOMES",,,,,"M/I HOMES","6801 N CAPITAL OF TEXAS HWY BLDG 2 STE 100",AUSTIN,TX,78731-1780,"(512) 770-8500",,,,
TX,WILLIAMSON,2020-26970,"Single Family Homes",8/6/2020,,,3442,"2520 ROARING RIVER TRL",LEANDER,TX,78641,"LOST WOODS",,CONTRACTOR,,,,,,,,,,,"M/I HOMES",,,,,"M/I HOMES","6801 N CAPITAL OF TEXAS HWY BLDG 2 STE 100",AUSTIN,TX,78731-1780,"(512) 770-8500",,,,
TX,WILLIAMSON,2020-26972,"Single Family Homes",8/12/2020,,,3422,"2509 ROARING RIVER TRL",LEANDER,TX,78641,"LOST WOODS",,CONTRACTOR,,,,,,,,,,,"M/I HOMES",,,,,"M/I HOMES","6801 N CAPITAL OF TEXAS HWY BLDG 2 STE 100",AUSTIN,TX,78731-1780,"(512) 770-8500",,,,
TX,WILLIAMSON,2020-26973,"Single Family Homes",8/4/2020,,,3836,"1033 CREEKS EDGE VW",LEANDER,TX,78641,DEERBROOKE,,CONTRACTOR,,,,,,,,,,,"SITTERLE HOMES",,,,,"SITTERLE HOMES","113 NAPLES LN",AUSTIN,TX,78737-4686,"(210) 494-9192",http://www.sitterlehomes.com,,,
TX,WILLIAMSON,2020-27058,"Single Family Homes",8/27/2020,,,3777,"1912 TABARCA DR",LEANDER,TX,78641,MARBELLA,,CONTRACTOR,,,,,,,,,,,"PACESETTER HOMES ",,,,,"PACESETTER HOMES ","7940 SHOAL CREEK BLVD STE 200",AUSTIN,TX,78757-7587,"(512) 323-5252",,,,
TX,WILLIAMSON,2020-27074,"Single Family Homes",8/5/2020,,,3350,"1405 CASTALO LN",LEANDER,TX,78641,TRAVISSO,,CONTRACTOR,,,,,,,,,,,"TAYLOR MORRISON OF TEXAS",,,,,"TAYLOR MORRISON OF TEXAS","11200 LAKELINE BLVD STE 150A",AUSTIN,TX,78717-5964,"(512) 328-8866",,"(512) 328-7988",,
TX,WILLIAMSON,2020-27076,"Single Family Homes",8/4/2020,,,2468,"1848 CANTONATA DR",LEANDER,TX,78641,LEANDER,,CONTRACTOR,,,,,,,,,,,"ASHTON WOODS HOMES",,,,,"ASHTON WOODS HOMES","4201 W PARMER LN STE A150",AUSTIN,TX,78727-4118,"(512) 610-7000",,,,
TX,WILLIAMSON,2020-27081,"Single Family Homes",8/21/2020,,,2629,"2613 BANTRY RD",LEANDER,TX,78641,LEANDER,,CONTRACTOR,,,,,,,,,,,"ASHTON WOODS HOMES",,,,,"ASHTON WOODS HOMES","4201 W PARMER LN STE A150",AUSTIN,TX,78727-4118,"(512) 610-7000",,,,
TX,WILLIAMSON,2020-27096,"Single Family Homes",8/4/2020,,,4075,"2405 ROARING RIVER TRL",LEANDER,TX,78641,"LOST WOODS",,CONTRACTOR,,,,,,,,,,,"M/I HOMES",,,,,"M/I HOMES","6801 N CAPITAL OF TEXAS HWY BLDG 2 STE 100",AUSTIN,TX,78731-1780,"(512) 770-8500",,,,
TX,WILLIAMSON,2020-27100,"Single Family Homes",8/5/2020,,,3318,"2421 ROARING RIVER TRL",LEANDER,TX,78641,"LOST WOODS",,CONTRACTOR,,,,,,,,,,,"M/I HOMES",,,,,"M/I HOMES","6801 N CAPITAL OF TEXAS HWY BLDG 2 STE 100",AUSTIN,TX,78731-1780,"(512) 770-8500",,,,
TX,WILLIAMSON,2020-27112,"Single Family Homes",8/25/2020,,,2478,"2349 PECAN ISLAND DR",LEANDER,TX,78641,"CRYSTAL SPRINGS",,CONTRACTOR,,,,,,,,,,,"CENTURY COMMUNITIES",,,,,"CENTURY COMMUNITIES","6500 RIVER PLACE BLVD STE 200",AUSTIN,TX,78730-1156,"(512) 271-3825",https://www.centurycommunities.com/,,,
TX,WILLIAMSON,2020-27134,"Single Family Homes",8/14/2020,,,2480,"2705 BANTRY RD",LEANDER,TX,78641,LEANDER,,CONTRACTOR,,,,,,,,,,,"ASHTON WOODS HOMES",,,,,"ASHTON WOODS HOMES","4201 W PARMER LN STE A150",AUSTIN,TX,78727-4118,"(512) 610-7000",,,,
TX,WILLIAMSON,2020-27145,"Single Family Homes",8/6/2020,,,2878,"821 MALLOW RD",LEANDER,TX,78641,BRYSON,,CONTRACTOR,,,,,,,,,,,"LENNAR HOMES",,,,,"LENNAR HOMES","13620 FM 620 RD 150",AUSTIN,TX,78717,"(512) 506-4000",http://www.lennar.com/,,,
TX,WILLIAMSON,2020-27171,"Single Family Homes",8/3/2020,,,5771,"1433 DA VINCI TRL",LEANDER,TX,78641,TRAVISSO,,CONTRACTOR,,,,,,,,,,,"TOLL BROTHERS",,,,,"TOLL BROTHERS","310 ARIA DR",AUSTIN,TX,78738-1740,"(512) 491-0378",,,,
TX,WILLIAMSON,2020-27172,"Single Family Homes",8/18/2020,,,4938,"2325 BEL PAESE BND",LEANDER,TX,78641,TRAVISSO,,CONTRACTOR,,,,,,,,,,,"TOLL BROTHERS",,,,,"TOLL BROTHERS","310 ARIA DR",AUSTIN,TX,78738-1740,"(512) 491-0378",,,,
TX,WILLIAMSON,2020-27214,"Single Family Homes",8/4/2020,,,3378,"2317 ROARING RIVER TRL",LEANDER,TX,78641,"LOST WOODS",,CONTRACTOR,,,,,,,,,,,"M/I HOMES",,,,,"M/I HOMES","6801 N CAPITAL OF TEXAS HWY BLDG 2 STE 100",AUSTIN,TX,78731-1780,"(512) 770-8500",,,,
TX,WILLIAMSON,2020-27244,"Single Family Homes",8/21/2020,,,1973,"2628 ACOMA LN",LEANDER,TX,78641,LEANDER,,CONTRACTOR,,,,,,,,,,,"ASHTON WOODS HOMES",,,,,"ASHTON WOODS HOMES","4201 W PARMER LN STE A150",AUSTIN,TX,78727-4118,"(512) 610-7000",,,,
TX,WILLIAMSON,2020-27246,"Single Family Homes",8/3/2020,,,5091,"1913 SORVINO WALK",LEANDER,TX,78641,TRAVISSO,,CONTRACTOR,,,,,,,,,,,"TOLL BROTHERS",,,,,"TOLL BROTHERS","310 ARIA DR",AUSTIN,TX,78738-1740,"(512) 491-0378",,,,
TX,WILLIAMSON,2020-27250,"Single Family Homes",8/5/2020,,,3980,"2713 PINE BRANCH RD",LEANDER,TX,78641,DEERBROOKE,,CONTRACTOR,,,,,,,,,,,"GEHAN HOMES",,,,,"GEHAN HOMES","3815 S CAPITAL OF TEXAS HWY STE 275",AUSTIN,TX,78704-6652,"(512) 330-9366",http://www.gehanhomes.com,,"JANET PHILLIPS",
TX,WILLIAMSON,2020-27251,"Single Family Homes",8/6/2020,,,5650,"2709 PINE BRANCH RD",LEANDER,TX,78641,DEERBROOKE,,CONTRACTOR,,,,,,,,,,,"GEHAN HOMES",,,,,"GEHAN HOMES","3815 S CAPITAL OF TEXAS HWY STE 275",AUSTIN,TX,78704-6652,"(512) 330-9366",http://www.gehanhomes.com,,"JANET PHILLIPS",
TX,WILLIAMSON,2020-27253,"Single Family Homes",8/5/2020,,,4517,"1104 KERRWOOD WAY",LEANDER,TX,78641,DEERBROOKE,,CONTRACTOR,,,,,,,,,,,"GEHAN HOMES",,,,,"GEHAN HOMES","3815 S CAPITAL OF TEXAS HWY STE 275",AUSTIN,TX,78704-6652,"(512) 330-9366",http://www.gehanhomes.com,,"JANET PHILLIPS",
TX,WILLIAMSON,2020-27255,"Single Family Homes",8/5/2020,,,3796,"1100 KERRWOOD WAY",LEANDER,TX,78641,DEERBROOKE,,CONTRACTOR,,,,,,,,,,,"GEHAN HOMES",,,,,"GEHAN HOMES","3815 S CAPITAL OF TEXAS HWY STE 275",AUSTIN,TX,78704-6652,"(512) 330-9366",http://www.gehanhomes.com,,"JANET PHILLIPS",
TX,WILLIAMSON,2020-27256,"Single Family Homes",8/13/2020,,,3549,"2528 ROARING RIVER TRL",LEANDER,TX,78641,"LOST WOODS",,CONTRACTOR,,,,,,,,,,,"M/I HOMES",,,,,"M/I HOMES","6801 N CAPITAL OF TEXAS HWY BLDG 2 STE 100",AUSTIN,TX,78731-1780,"(512) 770-8500",,,,
TX,WILLIAMSON,2020-27258,"Single Family Homes",8/5/2020,,,4767,"1028 KERRWOOD WAY",LEANDER,TX,78641,DEERBROOKE,,CONTRACTOR,,,,,,,,,,,"GEHAN HOMES",,,,,"GEHAN HOMES","3815 S CAPITAL OF TEXAS HWY STE 275",AUSTIN,TX,78704-6652,"(512) 330-9366",http://www.gehanhomes.com,,"JANET PHILLIPS",
TX,WILLIAMSON,2020-27259,"Single Family Homes",8/5/2020,,,5191,"2208 BEL PAESE BND",LEANDER,TX,78641,TRAVISSO,,CONTRACTOR,,,,,,,,,,,"TAYLOR MORRISON OF TEXAS",,,,,"TAYLOR MORRISON OF TEXAS","11200 LAKELINE BLVD STE 150A",AUSTIN,TX,78717-5964,"(512) 328-8866",,"(512) 328-7988",,
TX,WILLIAMSON,2020-27262,"Single Family Homes",8/5/2020,,,4484,"1032 KERRWOOD WAY",LEANDER,TX,78641,DEERBROOKE,,CONTRACTOR,,,,,,,,,,,"GEHAN HOMES",,,,,"GEHAN HOMES","3815 S CAPITAL OF TEXAS HWY STE 275",AUSTIN,TX,78704-6652,"(512) 330-9366",http://www.gehanhomes.com,,"JANET PHILLIPS",
TX,WILLIAMSON,2020-27271,"Single Family Homes",8/10/2020,,,3831,"924 HORNSBY HOLW",LEANDER,TX,78641,BRYSON,,CONTRACTOR,,,,,,,,,,,"PERRY HOMES",,,,,"PERRY HOMES","6112 LLANO ST",AUSTIN,TX,78702,"(512) 810-8050",,,,
TX,WILLIAMSON,2020-27284,"Single Family Homes",8/24/2020,,,2821,"2220 SANTA ISABELLA DR",LEANDER,TX,78641,"PALMERA RIDGE",,CONTRACTOR,,,,,,,,,,,"TRENDMAKER HOMES",,,,,"TRENDMAKER HOMES","16340 PARK TEN PL STE 250",HOUSTON,TX,77084-5144,"(281) 675-3200",,"(281) 675-3251","MARTIN EVANS",
TX,WILLIAMSON,2020-27285,"Single Family Homes",8/18/2020,,,2620,"4517 SINGLETREE CV",GEORGETOWN,TX,78628,"LIVELY TRACT",,CONTRACTOR,,,,,,,,,,,"DR HORTON",,,,,"DR HORTON","10700 PECAN PARK BLVD STE 400",AUSTIN,TX,78750-1227,"(512) 345-4663",,,,
TX,WILLIAMSON,2020-27286,"Single Family Homes",8/18/2020,,,2147,"4513 SINGLETREE CV",GEORGETOWN,TX,78628,"LIVELY TRACT",,CONTRACTOR,,,,,,,,,,,"DR HORTON",,,,,"DR HORTON","10700 PECAN PARK BLVD STE 400",AUSTIN,TX,78750-1227,"(512) 345-4663",,,,
TX,WILLIAMSON,2020-27287,"Single Family Homes",8/13/2020,,,2149,"320 AKUMAL ST",LEANDER,TX,78641,"ENCLAVE AT MAYA VISTA",,CONTRACTOR,,,,,,,,,,,"WILLIAM LYON HOMES",,,,,"WILLIAM LYON HOMES","810 HESTERS CROSSING RD STE 235","ROUND ROCK",TX,78681-7846,"(512) 953-4100",https://lyonhomes.com,,,Bryan.Havel@lyonhomes.com
TX,WILLIAMSON,2020-27298,"Single Family Homes",8/3/2020,,,7599,"2340 BEL PAESE BND",LEANDER,TX,78641,TRAVISSO,,CONTRACTOR,,,,,,,,,,,"TOLL BROTHERS",,,,,"TOLL BROTHERS","310 ARIA DR",AUSTIN,TX,78738-1740,"(512) 491-0378",,,,
TX,WILLIAMSON,2020-27299,"Single Family Homes",8/3/2020,,,5588,"1605 DA VINCI TRL",LEANDER,TX,78641,TRAVISSO,,CONTRACTOR,,,,,,,,,,,"TOLL BROTHERS",,,,,"TOLL BROTHERS","310 ARIA DR",AUSTIN,TX,78738-1740,"(512) 491-0378",,,,
TX,WILLIAMSON,2020-27300,"Single Family Homes",8/24/2020,,,4635,"1921 SORVINO WALK",LEANDER,TX,78641,TRAVISSO,,CONTRACTOR,,,,,,,,,,,"TOLL BROTHERS",,,,,"TOLL BROTHERS","310 ARIA DR",AUSTIN,TX,78738-1740,"(512) 491-0378",,,,
TX,WILLIAMSON,2020-27301,"Single Family Homes",8/17/2020,,,2878,"1321 BLACKHAW LN",LEANDER,TX,78641,BRYSON,,CONTRACTOR,,,,,,,,,,,"LENNAR HOMES",,,,,"LENNAR HOMES","13620 FM 620 RD 150",AUSTIN,TX,78717,"(512) 506-4000",http://www.lennar.com/,,,
TX,WILLIAMSON,2020-27327,"Single Family Homes",8/17/2020,,,2862,"1125 SAINT MICHELLE CT",LEANDER,TX,78641,"PALMERA BLUFF",,CONTRACTOR,,,,,,,,,,,"HIGHLAND HOMES",,,,,"HIGHLAND HOMES","4201 W PARMER LN STE B180",AUSTIN,TX,78727-4110,"(512) 834-8429",,,,
TX,WILLIAMSON,2020-27329,"Single Family Homes",8/7/2020,,,4168,"1217 ISAIAS DR",LEANDER,TX,78641,"PALMERA BLUFF",,CONTRACTOR,,,,,,,,,,,"HIGHLAND HOMES",,,,,"HIGHLAND HOMES","4201 W PARMER LN STE B180",AUSTIN,TX,78727-4110,"(512) 834-8429",,,,
TX,WILLIAMSON,2020-27330,"Single Family Homes",8/3/2020,,,3336,"1904 BOGATA LN",LEANDER,TX,78641,"MASON RANCH",,CONTRACTOR,,,,,,,,,,,"KB HOME",,,,,"KB HOME","10800 PECAN PARK BLVD STE 200",AUSTIN,TX,78750-1249,"(512) 651-8100",,,,
TX,WILLIAMSON,2020-27331,"Single Family Homes",8/14/2020,,,4909,"2916 WILD INDIGO WAY",LEANDER,TX,78641,"THE BLUFFS AT CRYSTAL FALLS",,CONTRACTOR,,,,,,,,,,,"TAYLOR MORRISON OF TEXAS",,,,,"TAYLOR MORRISON OF TEXAS","11200 LAKELINE BLVD STE 150A",AUSTIN,TX,78717-5964,"(512) 328-8866",,"(512) 328-7988",,
TX,WILLIAMSON,2020-27332,"Single Family Homes",8/6/2020,,,3147,"3133 PALE RIDER PASS",LEANDER,TX,78641,"THE BLUFFS AT CRYSTAL FALLS",,CONTRACTOR,,,,,,,,,,,"TAYLOR MORRISON OF TEXAS",,,,,"TAYLOR MORRISON OF TEXAS","11200 LAKELINE BLVD STE 150A",AUSTIN,TX,78717-5964,"(512) 328-8866",,"(512) 328-7988",,
TX,WILLIAMSON,2020-27333,"Single Family Homes",8/13/2020,,,2918,"920 OVERSTREET LN",LEANDER,TX,78641,BRYSON,,CONTRACTOR,,,,,,,,,,,"CHESMAR HOMES",,,,,"CHESMAR HOMES","2900 N QUINLAN PARK RD",AUSTIN,TX,78732-6083,"(512) 233-9016",http://chesmar.com,,,
TX,WILLIAMSON,2020-27340,"Single Family Homes",8/6/2020,,,3198,"825 BEAUTYBERRY LN",LEANDER,TX,78641,BRYSON,,CONTRACTOR,,,,,,,,,,,"CHESMAR HOMES",,,,,"CHESMAR HOMES","2900 N QUINLAN PARK RD",AUSTIN,TX,78732-6083,"(512) 233-9016",http://chesmar.com,,,
TX,WILLIAMSON,2020-27343,"Single Family Homes",8/26/2020,,,3378,"2041 STIRLING ST",LEANDER,TX,78641,BRYSON,,CONTRACTOR,,,,,,,,,,,"PERRY HOMES",,,,,"PERRY HOMES","6112 LLANO ST",AUSTIN,TX,78702,"(512) 810-8050",,,,
TX,WILLIAMSON,2020-27349,"Single Family Homes",8/4/2020,,,2728,"2532 ROARING RIVER TRL",LEANDER,TX,78641,"LOST WOODS",,CONTRACTOR,,,,,,,,,,,"M/I HOMES",,,,,"M/I HOMES","6801 N CAPITAL OF TEXAS HWY BLDG 2 STE 100",AUSTIN,TX,78731-1780,"(512) 770-8500",,,,
TX,WILLIAMSON,2020-27358,"Single Family Homes",8/6/2020,,,5879,"2729 WAR WAGON WAY",LEANDER,TX,78641,"THE BLUFFS AT CRYSTAL FALLS",,CONTRACTOR,,,,,,,,,,,"TAYLOR MORRISON OF TEXAS",,,,,"TAYLOR MORRISON OF TEXAS","11200 LAKELINE BLVD STE 150A",AUSTIN,TX,78717-5964,"(512) 328-8866",,"(512) 328-7988",,
TX,WILLIAMSON,2020-27362,"Single Family Homes",8/4/2020,,,3238,"2700 ACOMA LN",LEANDER,TX,78641,LEANDER,,CONTRACTOR,,,,,,,,,,,"ASHTON WOODS HOMES",,,,,"ASHTON WOODS HOMES","4201 W PARMER LN STE A150",AUSTIN,TX,78727-4118,"(512) 610-7000",,,,
TX,WILLIAMSON,2020-27446,"Single Family Homes",8/11/2020,,,7104,"1928 MURANO LN",LEANDER,TX,78641,TRAVISSO,,CONTRACTOR,,,,,,,,,,,"TOLL BROTHERS",,,,,"TOLL BROTHERS","310 ARIA DR",AUSTIN,TX,78738-1740,"(512) 491-0378",,,,
TX,WILLIAMSON,2020-27447,"Single Family Homes",8/14/2020,,,4098,"1337 BRESCIA WALK",LEANDER,TX,78641,TRAVISSO,,CONTRACTOR,,,,,,,,,,,"TAYLOR MORRISON OF TEXAS",,,,,"TAYLOR MORRISON OF TEXAS","11200 LAKELINE BLVD STE 150A",AUSTIN,TX,78717-5964,"(512) 328-8866",,"(512) 328-7988",,
TX,WILLIAMSON,2020-27448,"Single Family Homes",8/5/2020,,,2566,"1312 BRESCIA WALK",LEANDER,TX,78641,TRAVISSO,,CONTRACTOR,,,,,,,,,,,"TAYLOR MORRISON OF TEXAS",,,,,"TAYLOR MORRISON OF TEXAS","11200 LAKELINE BLVD STE 150A",AUSTIN,TX,78717-5964,"(512) 328-8866",,"(512) 328-7988",,
TX,WILLIAMSON,2020-27449,"Single Family Homes",8/4/2020,,,3181,"813 BEAUTYBERRY LN",LEANDER,TX,78641,BRYSON,,CONTRACTOR,,,,,,,,,,,"CHESMAR HOMES",,,,,"CHESMAR HOMES","2900 N QUINLAN PARK RD",AUSTIN,TX,78732-6083,"(512) 233-9016",http://chesmar.com,,,
TX,WILLIAMSON,2020-27450,"Single Family Homes",8/4/2020,,,3330,"805 BEAUTYBERRY LN",LEANDER,TX,78641,BRYSON,,CONTRACTOR,,,,,,,,,,,"PERRY HOMES",,,,,"PERRY HOMES","6112 LLANO ST",AUSTIN,TX,78702,"(512) 810-8050",,,,
TX,WILLIAMSON,2020-27451,"Single Family Homes",8/5/2020,,,4145,"1101 BLUEWOOD CV",LEANDER,TX,78641,BRYSON,,CONTRACTOR,,,,,,,,,,,"PERRY HOMES",,,,,"PERRY HOMES","6112 LLANO ST",AUSTIN,TX,78702,"(512) 810-8050",,,,
TX,WILLIAMSON,2020-27454,"Single Family Homes",8/25/2020,,,4237,"848 PASEO DE CASTANA WAY",LEANDER,TX,78641,"PALMERA RIDGE",,CONTRACTOR,,,,,,,,,,,"MHI MCGUYER HOMEBUILDERS",,,,,"MHI MCGUYER HOMEBUILDERS","8200 N MO PAC EXPY STE 300",AUSTIN,TX,78759-8844,"(512) 502-2050",,"(512) 388-1836","FRANK MCGUYER",
TX,WILLIAMSON,2020-27463,"Single Family Homes",8/26/2020,,,3441,"2001 CARTWAY CT",LEANDER,TX,78641,LEANDER,,CONTRACTOR,,,,,,,,,,,"ASHTON WOODS HOMES",,,,,"ASHTON WOODS HOMES","4201 W PARMER LN STE A150",AUSTIN,TX,78727-4118,"(512) 610-7000",,,,
TX,WILLIAMSON,2020-27468,"Single Family Homes",8/11/2020,,,2256,"1320 BLACKHAW LN",LEANDER,TX,78641,BRYSON,,CONTRACTOR,,,,,,,,,,,"LENNAR HOMES",,,,,"LENNAR HOMES","13620 FM 620 RD 150",AUSTIN,TX,78717,"(512) 506-4000",http://www.lennar.com/,,,
TX,WILLIAMSON,2020-27480,"Single Family Homes",8/7/2020,,,4082,"708 CRAVEN HILL LN",LEANDER,TX,78641,BRYSON,,CONTRACTOR,,,,,,,,,,,"BROOKFIELD RESIDENTIAL TEXAS",,,,,"BROOKFIELD RESIDENTIAL TEXAS","11501 ALTERRA PKWY STE 100",AUSTIN,TX,78758,"(512) 391-1330",,,,
TX,WILLIAMSON,2020-27482,"Single Family Homes",8/17/2020,,,3985,"1109 BLUEWOOD CV",LEANDER,TX,78641,BRYSON,,CONTRACTOR,,,,,,,,,,,"PERRY HOMES",,,,,"PERRY HOMES","6112 LLANO ST",AUSTIN,TX,78702,"(512) 810-8050",,,,
TX,WILLIAMSON,2020-27483,"Single Family Homes",8/3/2020,,,4484,"2032 ELK CREEK DR",LEANDER,TX,78641,"HAWKES LANDING",,CONTRACTOR,,,,,,,,,,,"GEHAN HOMES",,,,,"GEHAN HOMES","3815 S CAPITAL OF TEXAS HWY STE 275",AUSTIN,TX,78704-6652,"(512) 330-9366",http://www.gehanhomes.com,,"JANET PHILLIPS",
TX,WILLIAMSON,2020-27484,"Single Family Homes",8/14/2020,,,7050,"2109 NORMANDY VW",LEANDER,TX,78641,TRAVISSO,,CONTRACTOR,,,,,,,,,,,"DREES CUSTOM HOMES",,,,,"DREES CUSTOM HOMES","7300 RANCH ROAD 2222 BLDG 2 STE 250",AUSTIN,TX,78730-3204,"(512) 241-7100",http://www.dreeshomes.com,,,
TX,WILLIAMSON,2020-27485,"Single Family Homes",8/11/2020,,,3526,"832 MALLOW RD",LEANDER,TX,78641,BRYSON,,CONTRACTOR,,,,,,,,,,,"LENNAR HOMES",,,,,"LENNAR HOMES","13620 FM 620 RD 150",AUSTIN,TX,78717,"(512) 506-4000",http://www.lennar.com/,,,
TX,WILLIAMSON,2020-27488,"Single Family Homes",8/14/2020,,,5220,"2820 WILD INDIGO WAY",LEANDER,TX,78641,"THE BLUFFS AT CRYSTAL FALLS",,CONTRACTOR,,,,,,,,,,,"TAYLOR MORRISON OF TEXAS",,,,,"TAYLOR MORRISON OF TEXAS","11200 LAKELINE BLVD STE 150A",AUSTIN,TX,78717-5964,"(512) 328-8866",,"(512) 328-7988",,
TX,WILLIAMSON,2020-27489,"Single Family Homes",8/11/2020,,,3526,"1308 BLACKHAW LN",LEANDER,TX,78641,BRYSON,,CONTRACTOR,,,,,,,,,,,"LENNAR HOMES",,,,,"LENNAR HOMES","13620 FM 620 RD 150",AUSTIN,TX,78717,"(512) 506-4000",http://www.lennar.com/,,,
TX,WILLIAMSON,2020-27495,"Single Family Homes",8/11/2020,,,7321,"4705 MONTORIO WAY",LEANDER,TX,78641,TRAVISSO,,CONTRACTOR,,,,,,,,,,,"TOLL BROTHERS",,,,,"TOLL BROTHERS","310 ARIA DR",AUSTIN,TX,78738-1740,"(512) 491-0378",,,,
TX,WILLIAMSON,2020-27498,"Single Family Homes",8/14/2020,,,4888,"2816 WILD INDIGO WAY",LEANDER,TX,78641,"THE BLUFFS AT CRYSTAL FALLS",,CONTRACTOR,,,,,,,,,,,"TAYLOR MORRISON OF TEXAS",,,,,"TAYLOR MORRISON OF TEXAS","11200 LAKELINE BLVD STE 150A",AUSTIN,TX,78717-5964,"(512) 328-8866",,"(512) 328-7988",,
TX,WILLIAMSON,2020-27499,"Single Family Homes",8/17/2020,,,2872,"2112 HIGH VICTORY RD",LEANDER,TX,78641,"PALMERA BLUFF",,CONTRACTOR,,,,,,,,,,,"HIGHLAND HOMES",,,,,"HIGHLAND HOMES","4201 W PARMER LN STE B180",AUSTIN,TX,78727-4110,"(512) 834-8429",,,,
TX,WILLIAMSON,2020-27502,"Single Family Homes",8/11/2020,,,7407,"2021 MURANO LN",LEANDER,TX,78641,TRAVISSO,,CONTRACTOR,,,,,,,,,,,"TOLL BROTHERS",,,,,"TOLL BROTHERS","310 ARIA DR",AUSTIN,TX,78738-1740,"(512) 491-0378",,,,
TX,WILLIAMSON,2020-27504,"Single Family Homes",8/20/2020,,,3298,"1301 DECATUR CT",LEANDER,TX,78641,"MASON RANCH",,CONTRACTOR,,,,,,,,,,,"KB HOME",,,,,"KB HOME","10800 PECAN PARK BLVD STE 200",AUSTIN,TX,78750-1249,"(512) 651-8100",,,,
TX,WILLIAMSON,2020-27512,"Single Family Homes",8/14/2020,,,3665,"1300 DECATUR CT",LEANDER,TX,78641,"MASON RANCH",,CONTRACTOR,,,,,,,,,,,"KB HOME",,,,,"KB HOME","10800 PECAN PARK BLVD STE 200",AUSTIN,TX,78750-1249,"(512) 651-8100",,,,
TX,WILLIAMSON,2020-27516,"Single Family Homes",8/6/2020,,,2622,"1809 STINNETT DR",LEANDER,TX,78641,"MASON RANCH",,CONTRACTOR,,,,,,,,,,,"KB HOME",,,,,"KB HOME","10800 PECAN PARK BLVD STE 200",AUSTIN,TX,78750-1249,"(512) 651-8100",,,,
TX,WILLIAMSON,2020-27522,"Single Family Homes",8/11/2020,,,3989,"1516 BEARD PASS",LEANDER,TX,78641,HOMESTEAD,,CONTRACTOR,,,,,,,,,,,"GEHAN HOMES",,,,,"GEHAN HOMES","3815 S CAPITAL OF TEXAS HWY STE 275",AUSTIN,TX,78704-6652,"(512) 330-9366",http://www.gehanhomes.com,,"JANET PHILLIPS",
TX,WILLIAMSON,2020-27527,"Single Family Homes",8/10/2020,,,3256,"524 LANDING LN",LEANDER,TX,78641,"HAWKES LANDING",,CONTRACTOR,,,,,,,,,,,"GEHAN HOMES",,,,,"GEHAN HOMES","3815 S CAPITAL OF TEXAS HWY STE 275",AUSTIN,TX,78704-6652,"(512) 330-9366",http://www.gehanhomes.com,,"JANET PHILLIPS",
TX,WILLIAMSON,2020-27528,"Single Family Homes",8/25/2020,,,3076,"1224 AL FRESCO CV",LEANDER,TX,78641,TRAVISSO,,CONTRACTOR,,,,,,,,,,,"TAYLOR MORRISON OF TEXAS",,,,,"TAYLOR MORRISON OF TEXAS","11200 LAKELINE BLVD STE 150A",AUSTIN,TX,78717-5964,"(512) 328-8866",,"(512) 328-7988",,
TX,WILLIAMSON,2020-27533,"Single Family Homes",8/18/2020,,,4052,"2613 PINE BRANCH RD",LEANDER,TX,78641,DEERBROOKE,,CONTRACTOR,,,,,,,,,,,"GEHAN HOMES",,,,,"GEHAN HOMES","3815 S CAPITAL OF TEXAS HWY STE 275",AUSTIN,TX,78704-6652,"(512) 330-9366",http://www.gehanhomes.com,,"JANET PHILLIPS",
TX,WILLIAMSON,2020-27535,"Single Family Homes",8/18/2020,,,6267,"1920 PORT BARI CT",LEANDER,TX,78641,TRAVISSO,,CONTRACTOR,,,,,,,,,,,"TOLL BROTHERS",,,,,"TOLL BROTHERS","310 ARIA DR",AUSTIN,TX,78738-1740,"(512) 491-0378",,,,
TX,WILLIAMSON,2020-27543,"Single Family Homes",8/25/2020,,,5213,"2816 GATLIN CV",LEANDER,TX,78641,"THE BLUFFS AT CRYSTAL FALLS",,CONTRACTOR,,,,,,,,,,,"TAYLOR MORRISON OF TEXAS",,,,,"TAYLOR MORRISON OF TEXAS","11200 LAKELINE BLVD STE 150A",AUSTIN,TX,78717-5964,"(512) 328-8866",,"(512) 328-7988",,
TX,WILLIAMSON,2020-27545,"Single Family Homes",8/21/2020,,,3552,"1809 BALERIC DR",LEANDER,TX,78641,MARBELLA,,CONTRACTOR,,,,,,,,,,,"PACESETTER HOMES ",,,,,"PACESETTER HOMES ","7940 SHOAL CREEK BLVD STE 200",AUSTIN,TX,78757-7587,"(512) 323-5252",,,,
TX,WILLIAMSON,2020-27547,"Single Family Homes",8/28/2020,,,2679,"2640 GRIZZLY WAY",LEANDER,TX,78641,DEERBROOKE,,CONTRACTOR,,,,,,,,,,,"PERRY HOMES",,,,,"PERRY HOMES","6112 LLANO ST",AUSTIN,TX,78702,"(512) 810-8050",,,,
TX,WILLIAMSON,2020-27548,"Single Family Homes",8/31/2020,,,2957,"2716 GRIZZLY WAY",LEANDER,TX,78641,DEERBROOKE,,CONTRACTOR,,,,,,,,,,,"PERRY HOMES",,,,,"PERRY HOMES","6112 LLANO ST",AUSTIN,TX,78702,"(512) 810-8050",,,,
TX,WILLIAMSON,2020-27550,"Single Family Homes",8/18/2020,,,4930,"2605 PINE BRANCH RD",LEANDER,TX,78641,DEERBROOKE,,CONTRACTOR,,,,,,,,,,,"GEHAN HOMES",,,,,"GEHAN HOMES","3815 S CAPITAL OF TEXAS HWY STE 275",AUSTIN,TX,78704-6652,"(512) 330-9366",http://www.gehanhomes.com,,"JANET PHILLIPS",
TX,WILLIAMSON,2020-27554,"Single Family Homes",8/28/2020,,,3385,"917 BIRCHBROOKE DR",LEANDER,TX,78641,DEERBROOKE,,CONTRACTOR,,,,,,,,,,,"PERRY HOMES",,,,,"PERRY HOMES","6112 LLANO ST",AUSTIN,TX,78702,"(512) 810-8050",,,,
TX,WILLIAMSON,2020-27556,"Single Family Homes",8/12/2020,,,1706,"2836 HOPI PATH",LEANDER,TX,78641,"VALLEY VISTA",,CONTRACTOR,,,,,,,,,,,"PACESETTER HOMES ",,,,,"PACESETTER HOMES ","7940 SHOAL CREEK BLVD STE 200",AUSTIN,TX,78757-7587,"(512) 323-5252",,,,
TX,WILLIAMSON,2020-27557,"Single Family Homes",8/25/2020,,,5722,"4609 VIA ROMA PASS",LEANDER,TX,78641,TRAVISSO,,CONTRACTOR,,,,,,,,,,,"TAYLOR MORRISON OF TEXAS",,,,,"TAYLOR MORRISON OF TEXAS","11200 LAKELINE BLVD STE 150A",AUSTIN,TX,78717-5964,"(512) 328-8866",,"(512) 328-7988",,
TX,WILLIAMSON,2020-27560,"Single Family Homes",8/13/2020,,,3984,"901 OVERSTREET LN",LEANDER,TX,78641,BRYSON,,CONTRACTOR,,,,,,,,,,,"CHESMAR HOMES",,,,,"CHESMAR HOMES","2900 N QUINLAN PARK RD",AUSTIN,TX,78732-6083,"(512) 233-9016",http://chesmar.com,,,
TX,WILLIAMSON,2020-27561,"Single Family Homes",8/21/2020,,,3910,"2217 BELEN DR",LEANDER,TX,78641,"PALMERA RIDGE",,CONTRACTOR,,,,,,,,,,,"CHESMAR HOMES",,,,,"CHESMAR HOMES","2900 N QUINLAN PARK RD",AUSTIN,TX,78732-6083,"(512) 233-9016",http://chesmar.com,,,
TX,WILLIAMSON,2020-27562,"Single Family Homes",8/21/2020,,,3784,"2220 AIRPORT DR",LEANDER,TX,78641,"PALMERA RIDGE",,CONTRACTOR,,,,,,,,,,,"CHESMAR HOMES",,,,,"CHESMAR HOMES","2900 N QUINLAN PARK RD",AUSTIN,TX,78732-6083,"(512) 233-9016",http://chesmar.com,,,
TX,WILLIAMSON,2020-27564,"Single Family Homes",8/25/2020,,,5124,"2224 BEL PAESE BND",LEANDER,TX,78641,TRAVISSO,,CONTRACTOR,,,,,,,,,,,"TAYLOR MORRISON OF TEXAS",,,,,"TAYLOR MORRISON OF TEXAS","11200 LAKELINE BLVD STE 150A",AUSTIN,TX,78717-5964,"(512) 328-8866",,"(512) 328-7988",,
TX,WILLIAMSON,2020-27565,"Single Family Homes",8/18/2020,,,3099,"1408 CASTALO LN",LEANDER,TX,78641,TRAVISSO,,CONTRACTOR,,,,,,,,,,,"TOLL BROTHERS",,,,,"TOLL BROTHERS","310 ARIA DR",AUSTIN,TX,78738-1740,"(512) 491-0378",,,,
TX,WILLIAMSON,2020-27574,"Single Family Homes",8/31/2020,,,3041,"1904 CANTONATA DR",LEANDER,TX,78641,LEANDER,,CONTRACTOR,,,,,,,,,,,"ASHTON WOODS HOMES",,,,,"ASHTON WOODS HOMES","4201 W PARMER LN STE A150",AUSTIN,TX,78727-4118,"(512) 610-7000",,,,
TX,WILLIAMSON,2020-27577,"Single Family Homes",8/31/2020,,,2465,"2421 ACOMA LN",LEANDER,TX,78641,LEANDER,,CONTRACTOR,,,,,,,,,,,"ASHTON WOODS HOMES",,,,,"ASHTON WOODS HOMES","4201 W PARMER LN STE A150",AUSTIN,TX,78727-4118,"(512) 610-7000",,,,
TX,WILLIAMSON,2020-27579,"Single Family Homes",8/31/2020,,,2639,"2009 CAMAY ST",LEANDER,TX,78641,"CARNEROS RANCH",,CONTRACTOR,,,,,,,,,,,"MHI MCGUYER HOMEBUILDERS",,,,,"MHI MCGUYER HOMEBUILDERS","8200 N MO PAC EXPY STE 300",AUSTIN,TX,78759-8844,"(512) 502-2050",,"(512) 388-1836","FRANK MCGUYER",
TX,WILLIAMSON,2020-27580,"Single Family Homes",8/17/2020,,,3684,"2033 RUNNING BRUSHY BND",LEANDER,TX,78641,BRYSON,,CONTRACTOR,,,,,,,,,,,"PERRY HOMES",,,,,"PERRY HOMES","6112 LLANO ST",AUSTIN,TX,78702,"(512) 810-8050",,,,
TX,WILLIAMSON,2020-27582,"Single Family Homes",8/17/2020,,,3465,"913 OVERSTREET LN",LEANDER,TX,78641,BRYSON,,CONTRACTOR,,,,,,,,,,,"PERRY HOMES",,,,,"PERRY HOMES","6112 LLANO ST",AUSTIN,TX,78702,"(512) 810-8050",,,,
TX,WILLIAMSON,2020-27602,"Single Family Homes",8/12/2020,,,4134,"2425 ROARING RIVER TRL",LEANDER,TX,78641,"LOST WOODS",,CONTRACTOR,,,,,,,,,,,"M/I HOMES",,,,,"M/I HOMES","6801 N CAPITAL OF TEXAS HWY BLDG 2 STE 100",AUSTIN,TX,78731-1780,"(512) 770-8500",,,,
TX,WILLIAMSON,2020-27604,"Single Family Homes",8/18/2020,,,3826,"2521 ROARING RIVER TRL",LEANDER,TX,78641,"LOST WOODS",,CONTRACTOR,,,,,,,,,,,"M/I HOMES",,,,,"M/I HOMES","6801 N CAPITAL OF TEXAS HWY BLDG 2 STE 100",AUSTIN,TX,78731-1780,"(512) 770-8500",,,,
TX,WILLIAMSON,2020-27605,"Single Family Homes",8/11/2020,,,4513,"2237 MCCLENDON TRL",LEANDER,TX,78641,HOMESTEAD,,CONTRACTOR,,,,,,,,,,,"GEHAN HOMES",,,,,"GEHAN HOMES","3815 S CAPITAL OF TEXAS HWY STE 275",AUSTIN,TX,78704-6652,"(512) 330-9366",http://www.gehanhomes.com,,"JANET PHILLIPS",
TX,WILLIAMSON,2020-27613,"Single Family Homes",8/12/2020,,,3444,"2412 STEEL TIMBER TRL",LEANDER,TX,78641,"LOST WOODS PRESERVE",,CONTRACTOR,,,,,,,,,,,"M/I HOMES",,,,,"M/I HOMES","6801 N CAPITAL OF TEXAS HWY BLDG 2 STE 100",AUSTIN,TX,78731-1780,"(512) 770-8500",,,,
TX,WILLIAMSON,2020-27629,"Single Family Homes",8/13/2020,,,4298,"2321 ROARING RIVER TRL",LEANDER,TX,78641,"LOST WOODS",,CONTRACTOR,,,,,,,,,,,"M/I HOMES",,,,,"M/I HOMES","6801 N CAPITAL OF TEXAS HWY BLDG 2 STE 100",AUSTIN,TX,78731-1780,"(512) 770-8500",,,,
TX,WILLIAMSON,2020-27630,"Single Family Homes",8/11/2020,,,4454,"609 STERLING RIDGE DR",LEANDER,TX,78641,"HAWKES LANDING",,CONTRACTOR,,,,,,,,,,,"GEHAN HOMES",,,,,"GEHAN HOMES","3815 S CAPITAL OF TEXAS HWY STE 275",AUSTIN,TX,78704-6652,"(512) 330-9366",http://www.gehanhomes.com,,"JANET PHILLIPS",
TX,WILLIAMSON,2020-27631,"Single Family Homes",8/13/2020,,,2868,"2333 ROARING RIVER TRL",LEANDER,TX,78641,"LOST WOODS PRESERVE",,CONTRACTOR,,,,,,,,,,,"M/I HOMES",,,,,"M/I HOMES","6801 N CAPITAL OF TEXAS HWY BLDG 2 STE 100",AUSTIN,TX,78731-1780,"(512) 770-8500",,,,
TX,WILLIAMSON,2020-27632,"Single Family Homes",8/12/2020,,,2998,"837 PASEO DE CASTANA WAY",LEANDER,TX,78641,"PALMERA RIDGE",,CONTRACTOR,,,,,,,,,,,"TRENDMAKER HOMES",,,,,"TRENDMAKER HOMES","16340 PARK TEN PL STE 250",HOUSTON,TX,77084-5144,"(281) 675-3200",,"(281) 675-3251","MARTIN EVANS",
TX,WILLIAMSON,2020-27633,"Single Family Homes",8/13/2020,,,3037,"832 PASEO DE CASTANA WAY",LEANDER,TX,78641,"PALMERA RIDGE",,CONTRACTOR,,,,,,,,,,,"TRENDMAKER HOMES",,,,,"TRENDMAKER HOMES","16340 PARK TEN PL STE 250",HOUSTON,TX,77084-5144,"(281) 675-3200",,"(281) 675-3251","MARTIN EVANS",
TX,WILLIAMSON,2020-27634,"Single Family Homes",8/17/2020,,,3794,"2505 ROARING RIVER TRL",LEANDER,TX,78641,"LOST WOODS PRESERVE",,CONTRACTOR,,,,,,,,,,,"M/I HOMES",,,,,"M/I HOMES","6801 N CAPITAL OF TEXAS HWY BLDG 2 STE 100",AUSTIN,TX,78731-1780,"(512) 770-8500",,,,
TX,WILLIAMSON,2020-27635,"Single Family Homes",8/13/2020,,,2873,"1605 HARRONGTON WAY",LEANDER,TX,78641,HOMESTEAD,,CONTRACTOR,,,,,,,,,,,"GEHAN HOMES",,,,,"GEHAN HOMES","3815 S CAPITAL OF TEXAS HWY STE 275",AUSTIN,TX,78704-6652,"(512) 330-9366",http://www.gehanhomes.com,,"JANET PHILLIPS",
TX,WILLIAMSON,2020-27636,"Single Family Homes",8/12/2020,,,3022,"2501 ROARING RIVER TRL",LEANDER,TX,78641,"LOST WOODS PRESERVE",,CONTRACTOR,,,,,,,,,,,"M/I HOMES",,,,,"M/I HOMES","6801 N CAPITAL OF TEXAS HWY BLDG 2 STE 100",AUSTIN,TX,78731-1780,"(512) 770-8500",,,,
TX,WILLIAMSON,2020-27638,"Single Family Homes",8/18/2020,,,2289,"421 LANDING LN",LEANDER,TX,78641,"HAWKES LANDING",,CONTRACTOR,,,,,,,,,,,"GEHAN HOMES",,,,,"GEHAN HOMES","3815 S CAPITAL OF TEXAS HWY STE 275",AUSTIN,TX,78704-6652,"(512) 330-9366",http://www.gehanhomes.com,,"JANET PHILLIPS",
TX,WILLIAMSON,2020-27642,"Single Family Homes",8/13/2020,,,4767,"821 PALAMOS DR",LEANDER,TX,78641,MARBELLA,,CONTRACTOR,,,,,,,,,,,"GFO HOME",,,,,"GFO HOME","6012 AVIATION DR # 200",PFLUGERVILLE,TX,78660-8960,"(512) 492-8640",https://www.gfohome.com,,,
TX,WILLIAMSON,2020-27647,"Single Family Homes",8/14/2020,,,3863,"817 PALAMOS DR",LEANDER,TX,78641,MARBELLA,,CONTRACTOR,,,,,,,,,,,"GFO HOME",,,,,"GFO HOME","6012 AVIATION DR # 200",PFLUGERVILLE,TX,78660-8960,"(512) 492-8640",https://www.gfohome.com,,,
TX,WILLIAMSON,2020-27648,"Single Family Homes",8/13/2020,,,3474,"608 STERLING RIDGE DR",LEANDER,TX,78641,"HAWKES LANDING",,CONTRACTOR,,,,,,,,,,,"GEHAN HOMES",,,,,"GEHAN HOMES","3815 S CAPITAL OF TEXAS HWY STE 275",AUSTIN,TX,78704-6652,"(512) 330-9366",http://www.gehanhomes.com,,"JANET PHILLIPS",
TX,WILLIAMSON,2020-27650,"Single Family Homes",8/14/2020,,,3094,"2436 ROARING RIVER TRL",LEANDER,TX,78641,"LOST WOODS PRESERVE",,CONTRACTOR,,,,,,,,,,,"M/I HOMES",,,,,"M/I HOMES","6801 N CAPITAL OF TEXAS HWY BLDG 2 STE 100",AUSTIN,TX,78731-1780,"(512) 770-8500",,,,
TX,WILLIAMSON,2020-27652,"Single Family Homes",8/25/2020,,,4392,"2629 ROARING RIVER TRL",LEANDER,TX,78641,"LOST WOODS PRESERVE",,CONTRACTOR,,,,,,,,,,,"M/I HOMES",,,,,"M/I HOMES","6801 N CAPITAL OF TEXAS HWY BLDG 2 STE 100",AUSTIN,TX,78731-1780,"(512) 770-8500",,,,
TX,WILLIAMSON,2020-27665,"Single Family Homes",8/18/2020,,,4767,"1117 BIRCHBROOKE DR",LEANDER,TX,78641,DEERBROOKE,,CONTRACTOR,,,,,,,,,,,"GEHAN HOMES",,,,,"GEHAN HOMES","3815 S CAPITAL OF TEXAS HWY STE 275",AUSTIN,TX,78704-6652,"(512) 330-9366",http://www.gehanhomes.com,,"JANET PHILLIPS",
TX,WILLIAMSON,2020-27667,"Single Family Homes",8/27/2020,,,4882,"2025 MURANO LN",LEANDER,TX,78641,TRAVISSO,,CONTRACTOR,,,,,,,,,,,"TAYLOR MORRISON OF TEXAS",,,,,"TAYLOR MORRISON OF TEXAS","11200 LAKELINE BLVD STE 150A",AUSTIN,TX,78717-5964,"(512) 328-8866",,"(512) 328-7988",,
TX,WILLIAMSON,2020-27668,"Single Family Homes",8/27/2020,,,4412,"1601 DA VINCI TRL",LEANDER,TX,78641,TRAVISSO,,CONTRACTOR,,,,,,,,,,,"TAYLOR MORRISON OF TEXAS",,,,,"TAYLOR MORRISON OF TEXAS","11200 LAKELINE BLVD STE 150A",AUSTIN,TX,78717-5964,"(512) 328-8866",,"(512) 328-7988",,
TX,WILLIAMSON,2020-27670,"Single Family Homes",8/27/2020,,,5294,"4545 VIA ROMA PASS",LEANDER,TX,78641,TRAVISSO,,CONTRACTOR,,,,,,,,,,,"TAYLOR MORRISON OF TEXAS",,,,,"TAYLOR MORRISON OF TEXAS","11200 LAKELINE BLVD STE 150A",AUSTIN,TX,78717-5964,"(512) 328-8866",,"(512) 328-7988",,
TX,WILLIAMSON,2020-27672,"Single Family Homes",8/27/2020,,,4203,"4605 VIESTE VW",LEANDER,TX,78641,TRAVISSO,,CONTRACTOR,,,,,,,,,,,"TAYLOR MORRISON OF TEXAS",,,,,"TAYLOR MORRISON OF TEXAS","11200 LAKELINE BLVD STE 150A",AUSTIN,TX,78717-5964,"(512) 328-8866",,"(512) 328-7988",,
TX,WILLIAMSON,2020-27674,"Single Family Homes",8/21/2020,,,3151,"2037 STIRLING ST",LEANDER,TX,78641,BRYSON,,CONTRACTOR,,,,,,,,,,,"PERRY HOMES",,,,,"PERRY HOMES","6112 LLANO ST",AUSTIN,TX,78702,"(512) 810-8050",,,,
TX,WILLIAMSON,2020-27675,"Single Family Homes",8/27/2020,,,5032,"1928 SORVINO WALK",LEANDER,TX,78641,TRAVISSO,,CONTRACTOR,,,,,,,,,,,"TAYLOR MORRISON OF TEXAS",,,,,"TAYLOR MORRISON OF TEXAS","11200 LAKELINE BLVD STE 150A",AUSTIN,TX,78717-5964,"(512) 328-8866",,"(512) 328-7988",,
TX,WILLIAMSON,2020-27691,"Single Family Homes",8/21/2020,,,3433,"2308 ROARING RIVER TRL",LEANDER,TX,78641,"LOST WOODS PRESERVE",,CONTRACTOR,,,,,,,,,,,"M/I HOMES",,,,,"M/I HOMES","6801 N CAPITAL OF TEXAS HWY BLDG 2 STE 100",AUSTIN,TX,78731-1780,"(512) 770-8500",,,,
TX,WILLIAMSON,2020-27692,"Single Family Homes",8/21/2020,,,4022,"2325 ROARING RIVER TRL",LEANDER,TX,78641,"LOST WOODS PRESERVE",,CONTRACTOR,,,,,,,,,,,"M/I HOMES",,,,,"M/I HOMES","6801 N CAPITAL OF TEXAS HWY BLDG 2 STE 100",AUSTIN,TX,78731-1780,"(512) 770-8500",,,,
TX,WILLIAMSON,2020-27708,"Single Family Homes",8/19/2020,,,2192,"1705 ARENDALE DR",LEANDER,TX,78641,"CRYSTAL SPRINGS",,CONTRACTOR,,,,,,,,,,,"CENTURY COMMUNITIES",,,,,"CENTURY COMMUNITIES","6500 RIVER PLACE BLVD STE 200",AUSTIN,TX,78730-1156,"(512) 271-3825",https://www.centurycommunities.com/,,,
TX,WILLIAMSON,2020-27709,"Single Family Homes",8/19/2020,,,2139,"2005 ARENDALE DR",LEANDER,TX,78641,"CRYSTAL SPRINGS",,CONTRACTOR,,,,,,,,,,,"CENTURY COMMUNITIES",,,,,"CENTURY COMMUNITIES","6500 RIVER PLACE BLVD STE 200",AUSTIN,TX,78730-1156,"(512) 271-3825",https://www.centurycommunities.com/,,,
TX,WILLIAMSON,2020-27721,"Single Family Homes",8/21/2020,,,2196,"1757 WOOLSEY WAY",LEANDER,TX,78641,BRYSON,,CONTRACTOR,,,,,,,,,,,"LENNAR HOMES",,,,,"LENNAR HOMES","13620 FM 620 RD 150",AUSTIN,TX,78717,"(512) 506-4000",http://www.lennar.com/,,,
TX,WILLIAMSON,2020-27728,"Single Family Homes",8/21/2020,,,5895,"2320 HIGH LONESOME",LEANDER,TX,78641,"GRAND MESA",,CONTRACTOR,,,,,,,,,,,"GIDDENS HOMES",,,,,"GIDDENS HOMES","3001 CRYSTAL FALLS PKWY",LEANDER,TX,78641-2861,"(800) 644-9083",https://www.giddenshomes.com/,,,
TX,WILLIAMSON,2020-27729,"Single Family Homes",8/19/2020,,,1842,"1800 WOOLSEY WAY",LEANDER,TX,78641,BRYSON,,CONTRACTOR,,,,,,,,,,,"LENNAR HOMES",,,,,"LENNAR HOMES","13620 FM 620 RD 150",AUSTIN,TX,78717,"(512) 506-4000",http://www.lennar.com/,,,
TX,WILLIAMSON,2020-27731,"Single Family Homes",8/27/2020,,,2487,"1432 CASTALO LN",LEANDER,TX,78641,TRAVISSO,,CONTRACTOR,,,,,,,,,,,"TAYLOR MORRISON OF TEXAS",,,,,"TAYLOR MORRISON OF TEXAS","11200 LAKELINE BLVD STE 150A",AUSTIN,TX,78717-5964,"(512) 328-8866",,"(512) 328-7988",,
TX,WILLIAMSON,2020-27732,"Single Family Homes",8/19/2020,,,2511,"1813 WOOLSEY WAY",LEANDER,TX,78641,BRYSON,,CONTRACTOR,,,,,,,,,,,"LENNAR HOMES",,,,,"LENNAR HOMES","13620 FM 620 RD 150",AUSTIN,TX,78717,"(512) 506-4000",http://www.lennar.com/,,,
TX,WILLIAMSON,2020-27746,"Single Family Homes",8/18/2020,,,3093,"716 CLEAR SPRING LN",LEANDER,TX,78641,"HAWKES LANDING",,CONTRACTOR,,,,,,,,,,,"GEHAN HOMES",,,,,"GEHAN HOMES","3815 S CAPITAL OF TEXAS HWY STE 275",AUSTIN,TX,78704-6652,"(512) 330-9366",http://www.gehanhomes.com,,"JANET PHILLIPS",
TX,WILLIAMSON,2020-27755,"Single Family Homes",8/21/2020,,,3569,"1013 OVERSTREET LN",LEANDER,TX,78641,BRYSON,,CONTRACTOR,,,,,,,,,,,"CHESMAR HOMES",,,,,"CHESMAR HOMES","2900 N QUINLAN PARK RD",AUSTIN,TX,78732-6083,"(512) 233-9016",http://chesmar.com,,,
TX,WILLIAMSON,2020-27780,"Single Family Homes",8/25/2020,,,2965,"2001 MAZARRO DR",LEANDER,TX,78641,"FAIRWAYS AT CRYSTAL FALLS",,CONTRACTOR,,,,,,,,,,,"BROOKFIELD RESIDENTIAL TEXAS",,,,,"BROOKFIELD RESIDENTIAL TEXAS","11501 ALTERRA PKWY STE 100",AUSTIN,TX,78758,"(512) 391-1330",,,,
TX,WILLIAMSON,2020-27783,"Single Family Homes",8/27/2020,,,3282,"1125 HEMLEN CV",LEANDER,TX,78641,"MASON RANCH",,CONTRACTOR,,,,,,,,,,,"KB HOME",,,,,"KB HOME","10800 PECAN PARK BLVD STE 200",AUSTIN,TX,78750-1249,"(512) 651-8100",,,,
TX,WILLIAMSON,2020-27785,"Single Family Homes",8/25/2020,,,3792,"2516 CHOCTAW PL",LEANDER,TX,78641,"VALLEY VISTA",,CONTRACTOR,,,,,,,,,,,"GFO HOME",,,,,"GFO HOME","6012 AVIATION DR # 200",PFLUGERVILLE,TX,78660-8960,"(512) 492-8640",https://www.gfohome.com,,,
TX,WILLIAMSON,2020-27789,"Single Family Homes",8/25/2020,,,2833,"2512 CHOCTAW PL",LEANDER,TX,78641,"VALLEY VISTA",,CONTRACTOR,,,,,,,,,,,"GFO HOME",,,,,"GFO HOME","6012 AVIATION DR # 200",PFLUGERVILLE,TX,78660-8960,"(512) 492-8640",https://www.gfohome.com,,,
TX,WILLIAMSON,2020-27790,"Single Family Homes",8/26/2020,,,3185,"2505 CHOCTAW PL",LEANDER,TX,78641,"VALLEY VISTA",,CONTRACTOR,,,,,,,,,,,"GFO HOME",,,,,"GFO HOME","6012 AVIATION DR # 200",PFLUGERVILLE,TX,78660-8960,"(512) 492-8640",https://www.gfohome.com,,,
TX,WILLIAMSON,2020-27791,"Single Family Homes",8/25/2020,,,3935,"2421 CHOCTAW PL",LEANDER,TX,78641,"VALLEY VISTA",,CONTRACTOR,,,,,,,,,,,"GFO HOME",,,,,"GFO HOME","6012 AVIATION DR # 200",PFLUGERVILLE,TX,78660-8960,"(512) 492-8640",https://www.gfohome.com,,,
TX,WILLIAMSON,2020-27792,"Single Family Homes",8/25/2020,,,3782,"1828 SHOSHONE CT",LEANDER,TX,78641,"VALLEY VISTA",,CONTRACTOR,,,,,,,,,,,"GFO HOME",,,,,"GFO HOME","6012 AVIATION DR # 200",PFLUGERVILLE,TX,78660-8960,"(512) 492-8640",https://www.gfohome.com,,,
TX,WILLIAMSON,2020-27826,"Single Family Homes",8/19/2020,,,3863,"813 NICOSIA CT",LEANDER,TX,78641,MARBELLA,,CONTRACTOR,,,,,,,,,,,"GFO HOME",,,,,"GFO HOME","6012 AVIATION DR # 200",PFLUGERVILLE,TX,78660-8960,"(512) 492-8640",https://www.gfohome.com,,,
TX,WILLIAMSON,2020-27837,"Single Family Homes",8/25/2020,,,4869,"1108 KERRWOOD WAY",LEANDER,TX,78641,DEERBROOKE,,CONTRACTOR,,,,,,,,,,,"GEHAN HOMES",,,,,"GEHAN HOMES","3815 S CAPITAL OF TEXAS HWY STE 275",AUSTIN,TX,78704-6652,"(512) 330-9366",http://www.gehanhomes.com,,"JANET PHILLIPS",
TX,WILLIAMSON,2020-27853,"Single Family Homes",8/27/2020,,,2643,"1816 STINNETT DR",LEANDER,TX,78641,"MASON RANCH",,CONTRACTOR,,,,,,,,,,,"KB HOME",,,,,"KB HOME","10800 PECAN PARK BLVD STE 200",AUSTIN,TX,78750-1249,"(512) 651-8100",,,,
TX,WILLIAMSON,2020-27854,"Single Family Homes",8/27/2020,,,2559,"1113 ARBOR ACRES LOOP",LEANDER,TX,78641,"MASON RANCH",,CONTRACTOR,,,,,,,,,,,"KB HOME",,,,,"KB HOME","10800 PECAN PARK BLVD STE 200",AUSTIN,TX,78750-1249,"(512) 651-8100",,,,
TX,WILLIAMSON,2020-27855,"Single Family Homes",8/27/2020,,,3193,"1321 ARBOR ACRES LOOP",LEANDER,TX,78641,"MASON RANCH",,CONTRACTOR,,,,,,,,,,,"KB HOME",,,,,"KB HOME","10800 PECAN PARK BLVD STE 200",AUSTIN,TX,78750-1249,"(512) 651-8100",,,,
TX,WILLIAMSON,2020-27857,"Single Family Homes",8/27/2020,,,3193,"2021 RUNNING BRUSHY BND",LEANDER,TX,78641,BRYSON,,CONTRACTOR,,,,,,,,,,,"CHESMAR HOMES",,,,,"CHESMAR HOMES","2900 N QUINLAN PARK RD",AUSTIN,TX,78732-6083,"(512) 233-9016",http://chesmar.com,,,
TX,WILLIAMSON,2020-27875,"Single Family Homes",8/25/2020,,,4310,"1013 BLUEWOOD CV",LEANDER,TX,78641,BRYSON,,CONTRACTOR,,,,,,,,,,,"PERRY HOMES",,,,,"PERRY HOMES","6112 LLANO ST",AUSTIN,TX,78702,"(512) 810-8050",,,,
TX,WILLIAMSON,2020-27891,"Single Family Homes",8/31/2020,,,2511,"1753 WOOLSEY WAY",LEANDER,TX,78641,BRYSON,,CONTRACTOR,,,,,,,,,,,"LENNAR HOMES",,,,,"LENNAR HOMES","13620 FM 620 RD 150",AUSTIN,TX,78717,"(512) 506-4000",http://www.lennar.com/,,,
TX,WILLIAMSON,2020-27892,"Single Family Homes",8/31/2020,,,1814,"1740 WOOLSEY WAY",LEANDER,TX,78641,BRYSON,,CONTRACTOR,,,,,,,,,,,"LENNAR HOMES",,,,,"LENNAR HOMES","13620 FM 620 RD 150",AUSTIN,TX,78717,"(512) 506-4000",http://www.lennar.com/,,,
TX,WILLIAMSON,2020-27893,"Single Family Homes",8/31/2020,,,2318,"1748 WOOLSEY WAY",LEANDER,TX,78641,BRYSON,,CONTRACTOR,,,,,,,,,,,"LENNAR HOMES",,,,,"LENNAR HOMES","13620 FM 620 RD 150",AUSTIN,TX,78717,"(512) 506-4000",http://www.lennar.com/,,,
TX,WILLIAMSON,2020-27894,"Single Family Homes",8/31/2020,,,2519,"1752 WOOLSEY WAY",LEANDER,TX,78641,BRYSON,,CONTRACTOR,,,,,,,,,,,"LENNAR HOMES",,,,,"LENNAR HOMES","13620 FM 620 RD 150",AUSTIN,TX,78717,"(512) 506-4000",http://www.lennar.com/,,,
TX,WILLIAMSON,2020-27895,"Single Family Homes",8/31/2020,,,2519,"1804 WOOLSEY WAY",LEANDER,TX,78641,BRYSON,,CONTRACTOR,,,,,,,,,,,"LENNAR HOMES",,,,,"LENNAR HOMES","13620 FM 620 RD 150",AUSTIN,TX,78717,"(512) 506-4000",http://www.lennar.com/,,,
TX,WILLIAMSON,2020-27896,"Single Family Homes",8/31/2020,,,2519,"1756 WOOLSEY WAY",LEANDER,TX,78641,BRYSON,,CONTRACTOR,,,,,,,,,,,"LENNAR HOMES",,,,,"LENNAR HOMES","13620 FM 620 RD 150",AUSTIN,TX,78717,"(512) 506-4000",http://www.lennar.com/,,,
TX,WILLIAMSON,2020-27898,"Single Family Homes",8/25/2020,,,1973,"1745 WOOLSEY WAY",LEANDER,TX,78641,BRYSON,,CONTRACTOR,,,,,,,,,,,"LENNAR HOMES",,,,,"LENNAR HOMES","13620 FM 620 RD 150",AUSTIN,TX,78717,"(512) 506-4000",http://www.lennar.com/,,,
TX,WILLIAMSON,2020-27899,"Single Family Homes",8/31/2020,,,2362,"1801 WOOLSEY WAY",LEANDER,TX,78641,BRYSON,,CONTRACTOR,,,,,,,,,,,"LENNAR HOMES",,,,,"LENNAR HOMES","13620 FM 620 RD 150",AUSTIN,TX,78717,"(512) 506-4000",http://www.lennar.com/,,,
TX,WILLIAMSON,2020-27901,"Single Family Homes",8/31/2020,,,2362,"1744 WOOLSEY WAY",LEANDER,TX,78641,BRYSON,,CONTRACTOR,,,,,,,,,,,"LENNAR HOMES",,,,,"LENNAR HOMES","13620 FM 620 RD 150",AUSTIN,TX,78717,"(512) 506-4000",http://www.lennar.com/,,,
TX,WILLIAMSON,2020-27903,"Single Family Homes",8/31/2020,,,2878,"1224 BLACKHAW LN",LEANDER,TX,78641,BRYSON,,CONTRACTOR,,,,,,,,,,,"LENNAR HOMES",,,,,"LENNAR HOMES","13620 FM 620 RD 150",AUSTIN,TX,78717,"(512) 506-4000",http://www.lennar.com/,,,
TX,WILLIAMSON,2020-27904,"Single Family Homes",8/31/2020,,,2878,"1232 BLACKHAW LN",LEANDER,TX,78641,BRYSON,,CONTRACTOR,,,,,,,,,,,"LENNAR HOMES",,,,,"LENNAR HOMES","13620 FM 620 RD 150",AUSTIN,TX,78717,"(512) 506-4000",http://www.lennar.com/,,,
TX,WILLIAMSON,2020-27907,"Single Family Homes",8/27/2020,,,3532,"829 HEARTLEAF DR",LEANDER,TX,78641,BRYSON,,CONTRACTOR,,,,,,,,,,,"CHESMAR HOMES",,,,,"CHESMAR HOMES","2900 N QUINLAN PARK RD",AUSTIN,TX,78732-6083,"(512) 233-9016",http://chesmar.com,,,
TX,WILLIAMSON,2020-27917,"Single Family Homes",8/27/2020,,,2717,"1929 STIRLING ST",LEANDER,TX,78641,BRYSON,,CONTRACTOR,,,,,,,,,,,"CHESMAR HOMES",,,,,"CHESMAR HOMES","2900 N QUINLAN PARK RD",AUSTIN,TX,78732-6083,"(512) 233-9016",http://chesmar.com,,,
TX,WILLIAMSON,2020-27937,"Single Family Homes",8/28/2020,,,2139,"1709 ARENDALE DR",LEANDER,TX,78641,"CRYSTAL SPRINGS",,CONTRACTOR,,,,,,,,,,,"CENTURY COMMUNITIES",,,,,"CENTURY COMMUNITIES","6500 RIVER PLACE BLVD STE 200",AUSTIN,TX,78730-1156,"(512) 271-3825",https://www.centurycommunities.com/,,,
TX,WILLIAMSON,2020-27978,"Single Family Homes",8/31/2020,,,2686,"425 LANDING LN",LEANDER,TX,78641,"HAWKES LANDING",,CONTRACTOR,,,,,,,,,,,"GEHAN HOMES",,,,,"GEHAN HOMES","3815 S CAPITAL OF TEXAS HWY STE 275",AUSTIN,TX,78704-6652,"(512) 330-9366",http://www.gehanhomes.com,,"JANET PHILLIPS",
TX,HAYS,2020-31123,"Single Family Homes",8/4/2020,,819000,5893,"2510 SUMMIT RIDGE","SAN MARCOS",TX,78666,,,CONTRACTOR,,,,,,,,,,,"WEST RIDGE CONSTRUCTION",,,,,"WEST RIDGE CONSTRUCTION","1056 E BORGFELD DR STE 1","SAN ANTONIO",TX,78260-1629,"(830) 438-4520",http://westridgeconstruction.com/,"(830) 438-4524",,
TX,HAYS,2020-32250,"Single Family Homes",8/25/2020,,187875,2505,"105 MILESTONE CV","SAN MARCOS",TX,78666,,,CONTRACTOR,,,,,,,,,,,"LENNAR HOMES",,,,,"LENNAR HOMES","13620 FM 620 RD 150",AUSTIN,TX,78717,"(512) 506-4000",http://www.lennar.com/,,,
TX,HAYS,2020-32274,"Single Family Homes",8/10/2020,,249450,3326,"404 ANCIENT OAK WAY","SAN MARCOS",TX,78666,,,CONTRACTOR,,,,,,,,,,,"NEWLEAF HOMES",,,,,"NEWLEAF HOMES","6735 W INTERSTATE 10 STE 103","SAN ANTONIO",TX,78201-2057,"(210) 559-1888",http://www.newleafhomes.com,"(210) 641-0011",,
TX,HAYS,2020-32276,"Single Family Homes",8/7/2020,,,3273,"315 ANCIENT OAK WAY","SAN MARCOS",TX,78666,,,CONTRACTOR,,,,,,,,,,,"NEWLEAF HOMES",,,,,"NEWLEAF HOMES","6735 W INTERSTATE 10 STE 103","SAN ANTONIO",TX,78201-2057,"(210) 559-1888",http://www.newleafhomes.com,"(210) 641-0011",,
TX,HAYS,2020-32392,"Single Family Homes",8/4/2020,,202444,2354,"204 MOONRISE DR","SAN MARCOS",TX,78666,,,CONTRACTOR,,,,,,,,,,,"DR HORTON",,,,,"DR HORTON","10700 PECAN PARK BLVD STE 400",AUSTIN,TX,78750-1227,"(512) 345-4663",,,,
TX,HAYS,2020-32460,"Single Family Homes",8/14/2020,,150000,2977,"623 BLUE OAK BLVD","SAN MARCOS",TX,78666,,,CONTRACTOR,,,,,,,,,,,"PERRY HOMES",,,,,"PERRY HOMES","6112 LLANO ST",AUSTIN,TX,78702,"(512) 810-8050",,,,
TX,HAYS,2020-32462,"Single Family Homes",8/14/2020,,150000,2566,"725 BLUE OAK BLVD","SAN MARCOS",TX,78666,,,CONTRACTOR,,,,,,,,,,,"PERRY HOMES",,,,,"PERRY HOMES","6112 LLANO ST",AUSTIN,TX,78702,"(512) 810-8050",,,,
TX,HAYS,2020-32586,"Single Family Homes",8/17/2020,,202702,2357,"128 HAZEL GROVE","SAN MARCOS",TX,78666,,,CONTRACTOR,,,,,,,,,,,"DR HORTON",,,,,"DR HORTON","10700 PECAN PARK BLVD STE 400",AUSTIN,TX,78750-1227,"(512) 345-4663",,,,
TX,HAYS,2020-32643,"Single Family Homes",8/4/2020,,279870,2455,"125 GOLDFINCH DR","SAN MARCOS",TX,78666,,,CONTRACTOR,,,,,,,,,,,"BUFFINGTON TEXAS CLASSIC HOMES",,,,,"BUFFINGTON TEXAS CLASSIC HOMES","8601 RANCH ROAD 2222 PARK CENTRE BLDG STE 150",AUSTIN,TX,78730,"(512) 579-4800",,,,
TX,HAYS,2020-32685,"Single Family Homes",8/19/2020,,103565,1883,"159 LYNDON DR","SAN MARCOS",TX,78666,,,CONTRACTOR,,,,,,,,,,,"BROHN HOMES",,,,,"BROHN HOMES","6720 VAUGHT RANCH RD STE 200",AUSTIN,TX,78730-2354,"(512) 320-8833",http://brohnhomes.com/,,,
TX,HAYS,2020-32738,"Single Family Homes",8/4/2020,,205540,2390,"121 PRONGHORN CIR","SAN MARCOS",TX,78666,,,CONTRACTOR,,,,,,,,,,,"DR HORTON",,,,,"DR HORTON","10700 PECAN PARK BLVD STE 400",AUSTIN,TX,78750-1227,"(512) 345-4663",,,,
TX,HAYS,2020-32739,"Single Family Homes",8/4/2020,,269008,3128,"113 PRONGHORN CIR","SAN MARCOS",TX,78666,,,CONTRACTOR,,,,,,,,,,,"DR HORTON",,,,,"DR HORTON","10700 PECAN PARK BLVD STE 400",AUSTIN,TX,78750-1227,"(512) 345-4663",,,,
TX,HAYS,2020-32741,"Single Family Homes",8/4/2020,,233834,2719,"152 PRONGHORN CIR","SAN MARCOS",TX,78666,,,CONTRACTOR,,,,,,,,,,,"DR HORTON",,,,,"DR HORTON","10700 PECAN PARK BLVD STE 400",AUSTIN,TX,78750-1227,"(512) 345-4663",,,,
TX,HAYS,2020-32742,"Single Family Homes",8/17/2020,,268664,3124,"148 PRONGHORN CIR","SAN MARCOS",TX,78666,,,CONTRACTOR,,,,,,,,,,,"DR HORTON",,,,,"DR HORTON","10700 PECAN PARK BLVD STE 400",AUSTIN,TX,78750-1227,"(512) 345-4663",,,,
TX,HAYS,2020-32744,"Single Family Homes",8/4/2020,,197026,2291,"144 PRONGHORN CIR","SAN MARCOS",TX,78666,,,CONTRACTOR,,,,,,,,,,,"DR HORTON",,,,,"DR HORTON","10700 PECAN PARK BLVD STE 400",AUSTIN,TX,78750-1227,"(512) 345-4663",,,,
TX,HAYS,2020-32745,"Single Family Homes",8/17/2020,,186276,2166,"140 PRONGHORN CIR","SAN MARCOS",TX,78666,,,CONTRACTOR,,,,,,,,,,,"DR HORTON",,,,,"DR HORTON","10700 PECAN PARK BLVD STE 400",AUSTIN,TX,78750-1227,"(512) 345-4663",,,,
TX,HAYS,2020-32746,"Single Family Homes",8/4/2020,,201154,2339,"136 PRONGHORN CIR","SAN MARCOS",TX,78666,,,CONTRACTOR,,,,,,,,,,,"DR HORTON",,,,,"DR HORTON","10700 PECAN PARK BLVD STE 400",AUSTIN,TX,78750-1227,"(512) 345-4663",,,,
TX,HAYS,2020-32750,"Single Family Homes",8/28/2020,,462240,3834,"542 COPPER SAGE DR","SAN MARCOS",TX,78666,,,CONTRACTOR,,,,,,,,,,,"HIGHLAND HOMES",,,,,"HIGHLAND HOMES","4201 W PARMER LN STE B180",AUSTIN,TX,78727-4110,"(512) 834-8429",,,,
TX,HAYS,2020-32761,"Single Family Homes",8/4/2020,,197026,2292,"108 PRONGHORN CIR","SAN MARCOS",TX,78666,,,CONTRACTOR,,,,,,,,,,,"DR HORTON",,,,,"DR HORTON","10700 PECAN PARK BLVD STE 400",AUSTIN,TX,78750-1227,"(512) 345-4663",,,,
TX,HAYS,2020-32765,"Single Family Homes",8/12/2020,,152230,2234,"124 LACEY OAK LP","SAN MARCOS",TX,78666,,,CONTRACTOR,,,,,,,,,,,"DREAM FINDERS HOMES",,,,,"DREAM FINDERS HOMES","13281 POND SPRINGS RD STE 110",AUSTIN,TX,78729,"(512) 535-4866",http://www.dreamfindershomes.com/,,,
TX,HAYS,2020-32769,"Single Family Homes",8/4/2020,,251120,2920,"124 PRONGHORN CIR","SAN MARCOS",TX,78666,,,CONTRACTOR,,,,,,,,,,,"DR HORTON",,,,,"DR HORTON","10700 PECAN PARK BLVD STE 400",AUSTIN,TX,78750-1227,"(512) 345-4663",,,,
TX,HAYS,2020-32771,"Single Family Homes",8/4/2020,,210442,2447,"105 PRONGHORN CIR","SAN MARCOS",TX,78666,,,CONTRACTOR,,,,,,,,,,,"DR HORTON",,,,,"DR HORTON","10700 PECAN PARK BLVD STE 400",AUSTIN,TX,78750-1227,"(512) 345-4663",,,,
TX,HAYS,2020-32773,"Single Family Homes",8/4/2020,,256108,2978,"129 PRONGHORN CIR","SAN MARCOS",TX,78666,,,CONTRACTOR,,,,,,,,,,,"DR HORTON",,,,,"DR HORTON","10700 PECAN PARK BLVD STE 400",AUSTIN,TX,78750-1227,"(512) 345-4663",,,,
TX,HAYS,2020-32776,"Single Family Homes",8/4/2020,,210442,2447,"117 PRONGHORN CIR","SAN MARCOS",TX,78666,,,CONTRACTOR,,,,,,,,,,,"DR HORTON",,,,,"DR HORTON","10700 PECAN PARK BLVD STE 400",AUSTIN,TX,78750-1227,"(512) 345-4663",,,,
TX,HAYS,2020-32779,"Single Family Homes",8/4/2020,,178364,2074,"120 SPOTTED BASS LN","SAN MARCOS",TX,78666,,,CONTRACTOR,,,,,,,,,,,"DR HORTON",,,,,"DR HORTON","10700 PECAN PARK BLVD STE 400",AUSTIN,TX,78750-1227,"(512) 345-4663",,,,
TX,HAYS,2020-32780,"Single Family Homes",8/4/2020,,256108,2978,"653 GOLDEN GROVE PKWY","SAN MARCOS",TX,78666,,,CONTRACTOR,,,,,,,,,,,"DR HORTON",,,,,"DR HORTON","10700 PECAN PARK BLVD STE 400",AUSTIN,TX,78750-1227,"(512) 345-4663",,,,
TX,HAYS,2020-32785,"Single Family Homes",8/4/2020,,210442,2447,"160 PRONGHORN CIR","SAN MARCOS",TX,78666,,,CONTRACTOR,,,,,,,,,,,"DR HORTON",,,,,"DR HORTON","10700 PECAN PARK BLVD STE 400",AUSTIN,TX,78750-1227,"(512) 345-4663",,,,
TX,HAYS,2020-32787,"Single Family Homes",8/4/2020,,251120,2920,"633 GOLDEN GROVE PKWY","SAN MARCOS",TX,78666,,,CONTRACTOR,,,,,,,,,,,"DR HORTON",,,,,"DR HORTON","10700 PECAN PARK BLVD STE 400",AUSTIN,TX,78750-1227,"(512) 345-4663",,,,
TX,HAYS,2020-32788,"Single Family Homes",8/4/2020,,186276,2166,"637 GOLDEN GROVE PKWY","SAN MARCOS",TX,78666,,,CONTRACTOR,,,,,,,,,,,"DR HORTON",,,,,"DR HORTON","10700 PECAN PARK BLVD STE 400",AUSTIN,TX,78750-1227,"(512) 345-4663",,,,
TX,HAYS,2020-32789,"Single Family Homes",8/4/2020,,197026,2291,"641 GOLDEN GROVE PKWY","SAN MARCOS",TX,78666,,,CONTRACTOR,,,,,,,,,,,"DR HORTON",,,,,"DR HORTON","10700 PECAN PARK BLVD STE 400",AUSTIN,TX,78750-1227,"(512) 345-4663",,,,
TX,HAYS,2020-32801,"Single Family Homes",8/17/2020,,201154,2339,"645 GOLDEN GROVE PKWY","SAN MARCOS",TX,78666,,,CONTRACTOR,,,,,,,,,,,"DR HORTON",,,,,"DR HORTON","10700 PECAN PARK BLVD STE 400",AUSTIN,TX,78750-1227,"(512) 345-4663",,,,
TX,HAYS,2020-32802,"Single Family Homes",8/4/2020,,233146,2711,"614 GOLDEN GROVE PKWY","SAN MARCOS",TX,78666,,,CONTRACTOR,,,,,,,,,,,"DR HORTON",,,,,"DR HORTON","10700 PECAN PARK BLVD STE 400",AUSTIN,TX,78750-1227,"(512) 345-4663",,,,
TX,HAYS,2020-32803,"Single Family Homes",8/4/2020,,256108,2978,"618 GOLDEN GROVE PKWY","SAN MARCOS",TX,78666,,,CONTRACTOR,,,,,,,,,,,"DR HORTON",,,,,"DR HORTON","10700 PECAN PARK BLVD STE 400",AUSTIN,TX,78750-1227,"(512) 345-4663",,,,
TX,HAYS,2020-32804,"Single Family Homes",8/4/2020,,268664,3124,"622 GOLDEN GROVE PKWY","SAN MARCOS",TX,78666,,,CONTRACTOR,,,,,,,,,,,"DR HORTON",,,,,"DR HORTON","10700 PECAN PARK BLVD STE 400",AUSTIN,TX,78750-1227,"(512) 345-4663",,,,
TX,HAYS,2020-32805,"Single Family Homes",8/4/2020,,205540,2390,"626 GOLDEN GROVE PKWY","SAN MARCOS",TX,78666,,,CONTRACTOR,,,,,,,,,,,"DR HORTON",,,,,"DR HORTON","10700 PECAN PARK BLVD STE 400",AUSTIN,TX,78750-1227,"(512) 345-4663",,,,
TX,HAYS,2020-32807,"Single Family Homes",8/17/2020,,251120,2920,"630 GOLDEN GROVE PKWY","SAN MARCOS",TX,78666,,,CONTRACTOR,,,,,,,,,,,"DR HORTON",,,,,"DR HORTON","10700 PECAN PARK BLVD STE 400",AUSTIN,TX,78750-1227,"(512) 345-4663",,,,
TX,HAYS,2020-32809,"Single Family Homes",8/17/2020,,155832,1812,"621 GOLDEN GROVE PKWY","SAN MARCOS",TX,78666,,,CONTRACTOR,,,,,,,,,,,"DR HORTON",,,,,"DR HORTON","10700 PECAN PARK BLVD STE 400",AUSTIN,TX,78750-1227,"(512) 345-4663",,,,
TX,HAYS,2020-32810,"Single Family Homes",8/4/2020,,102190,1858,"216 SAGE MEADOWS DR","SAN MARCOS",TX,78666,,,CONTRACTOR,,,,,,,,,,,"BROHN HOMES",,,,,"BROHN HOMES","6720 VAUGHT RANCH RD STE 200",AUSTIN,TX,78730-2354,"(512) 320-8833",http://brohnhomes.com/,,,
TX,HAYS,2020-32823,"Single Family Homes",8/17/2020,,234092,2722,"650 GOLDEN GROVE PKWY","SAN MARCOS",TX,78666,,,CONTRACTOR,,,,,,,,,,,"DR HORTON",,,,,"DR HORTON","10700 PECAN PARK BLVD STE 400",AUSTIN,TX,78750-1227,"(512) 345-4663",,,,
TX,HAYS,2020-32826,"Single Family Homes",8/19/2020,,110550,2010,"155 LYNDON DR","SAN MARCOS",TX,78666,,,CONTRACTOR,,,,,,,,,,,"BROHN HOMES",,,,,"BROHN HOMES","6720 VAUGHT RANCH RD STE 200",AUSTIN,TX,78730-2354,"(512) 320-8833",http://brohnhomes.com/,,,
TX,HAYS,2020-32827,"Single Family Homes",8/19/2020,,102190,1858,"143 LYNDON DR","SAN MARCOS",TX,78666,,,CONTRACTOR,,,,,,,,,,,"BROHN HOMES",,,,,"BROHN HOMES","6720 VAUGHT RANCH RD STE 200",AUSTIN,TX,78730-2354,"(512) 320-8833",http://brohnhomes.com/,,,
TX,HAYS,2020-32828,"Single Family Homes",8/25/2020,,115940,2108,"131 LYNDON DR","SAN MARCOS",TX,78666,,,CONTRACTOR,,,,,,,,,,,"BROHN HOMES",,,,,"BROHN HOMES","6720 VAUGHT RANCH RD STE 200",AUSTIN,TX,78730-2354,"(512) 320-8833",http://brohnhomes.com/,,,
TX,HAYS,2020-32829,"Single Family Homes",8/19/2020,,115115,2093,"144 LYNDON DR","SAN MARCOS",TX,78666,,,CONTRACTOR,,,,,,,,,,,"BROHN HOMES",,,,,"BROHN HOMES","6720 VAUGHT RANCH RD STE 200",AUSTIN,TX,78730-2354,"(512) 320-8833",http://brohnhomes.com/,,,
TX,HAYS,2020-32832,"Single Family Homes",8/4/2020,,173377,3147,"124 ALBA AVE","SAN MARCOS",TX,78666,,,CONTRACTOR,,,,,,,,,,,"EHT OF TEXAS LP",,,,,"EHT OF TEXAS LP","3520 EXECUTIVE CENTER DR STE 100",AUSTIN,TX,78731-1636,"(757) 287-6394",,,,
TX,HAYS,2020-32833,"Single Family Homes",8/4/2020,,140638,2363,"112 ALBA AVE","SAN MARCOS",TX,78666,,,CONTRACTOR,,,,,,,,,,,"EHT OF TEXAS LP",,,,,"EHT OF TEXAS LP","3520 EXECUTIVE CENTER DR STE 100",AUSTIN,TX,78731-1636,"(757) 287-6394",,,,
TX,HAYS,2020-32834,"Single Family Homes",8/19/2020,,209349,2369,"137 BEAUTYBERRY RD","SAN MARCOS",TX,78666,,,CONTRACTOR,,,,,,,,,,,"MHI MCGUYER HOMEBUILDERS",,,,,"MHI MCGUYER HOMEBUILDERS","8200 N MO PAC EXPY STE 300",AUSTIN,TX,78759-8844,"(512) 502-2050",,"(512) 388-1836","FRANK MCGUYER",
TX,HAYS,2020-32864,"Single Family Homes",8/26/2020,,190505,1216,"2904 BRAND IRON DR","SAN MARCOS",TX,78666,,,CONTRACTOR,,,,,,,,,,,"PACESETTER HOMES ",,,,,"PACESETTER HOMES ","7940 SHOAL CREEK BLVD STE 200",AUSTIN,TX,78757-7587,"(512) 323-5252",,,,
TX,HAYS,2020-32867,"Single Family Homes",8/19/2020,,188900,1216,"2932 BRAND IRON DR","SAN MARCOS",TX,78666,,,CONTRACTOR,,,,,,,,,,,"PACESETTER HOMES ",,,,,"PACESETTER HOMES ","7940 SHOAL CREEK BLVD STE 200",AUSTIN,TX,78757-7587,"(512) 323-5252",,,,
TX,HAYS,2020-32868,"Single Family Homes",8/11/2020,,150000,2829,"756 BLUE OAK BLVD","SAN MARCOS",TX,78666,,,CONTRACTOR,,,,,,,,,,,"PERRY HOMES",,,,,"PERRY HOMES","6112 LLANO ST",AUSTIN,TX,78702,"(512) 810-8050",,,,
TX,HAYS,2020-32869,"Single Family Homes",8/11/2020,,150000,2404,"760 BLUE OAK BLVD","SAN MARCOS",TX,78666,,,CONTRACTOR,,,,,,,,,,,"PERRY HOMES",,,,,"PERRY HOMES","6112 LLANO ST",AUSTIN,TX,78702,"(512) 810-8050",,,,
TX,HAYS,2020-32876,"Single Family Homes",8/17/2020,,237188,2758,"625 GOLDEN GROVE PKWY","SAN MARCOS",TX,78666,,,CONTRACTOR,,,,,,,,,,,"DR HORTON",,,,,"DR HORTON","10700 PECAN PARK BLVD STE 400",AUSTIN,TX,78750-1227,"(512) 345-4663",,,,
TX,HAYS,2020-32877,"Single Family Homes",8/17/2020,,168216,1956,"610 GOLDEN GROVE PKWY","SAN MARCOS",TX,78666,,,CONTRACTOR,,,,,,,,,,,"DR HORTON",,,,,"DR HORTON","10700 PECAN PARK BLVD STE 400",AUSTIN,TX,78750-1227,"(512) 345-4663",,,,
TX,HAYS,2020-32878,"Single Family Homes",8/17/2020,,269008,3128,"629 GOLDEN GROVE PKWY","SAN MARCOS",TX,78666,,,CONTRACTOR,,,,,,,,,,,"DR HORTON",,,,,"DR HORTON","10700 PECAN PARK BLVD STE 400",AUSTIN,TX,78750-1227,"(512) 345-4663",,,,
TX,HAYS,2020-32879,"Single Family Homes",8/17/2020,,268664,3124,"551 GOLDEN GROVE PKWY","SAN MARCOS",TX,78666,,,CONTRACTOR,,,,,,,,,,,"DR HORTON",,,,,"DR HORTON","10700 PECAN PARK BLVD STE 400",AUSTIN,TX,78750-1227,"(512) 345-4663",,,,
TX,HAYS,2020-32881,"Single Family Homes",8/17/2020,,197112,2292,"605 GOLDEN GROVE PKWY","SAN MARCOS",TX,78666,,,CONTRACTOR,,,,,,,,,,,"DR HORTON",,,,,"DR HORTON","10700 PECAN PARK BLVD STE 400",AUSTIN,TX,78750-1227,"(512) 345-4663",,,,
TX,HAYS,2020-32882,"Single Family Homes",8/17/2020,,180256,2096,"609 GOLDEN GROVE PKWY","SAN MARCOS",TX,78666,,,CONTRACTOR,,,,,,,,,,,"DR HORTON",,,,,"DR HORTON","10700 PECAN PARK BLVD STE 400",AUSTIN,TX,78750-1227,"(512) 345-4663",,,,
TX,HAYS,2020-32911,"Single Family Homes",8/17/2020,,205368,2388,"606 GOLDEN GROVE PKWY","SAN MARCOS",TX,78666,,,CONTRACTOR,,,,,,,,,,,"DR HORTON",,,,,"DR HORTON","10700 PECAN PARK BLVD STE 400",AUSTIN,TX,78750-1227,"(512) 345-4663",,,,
TX,HAYS,2020-32929,"Single Family Homes",8/12/2020,,,3369,"4442 ROYAL OAK BLVD","SAN MARCOS",TX,78666,,,CONTRACTOR,,,,,,,,,,,"NEWLEAF HOMES",,,,,"NEWLEAF HOMES","6735 W INTERSTATE 10 STE 103","SAN ANTONIO",TX,78201-2057,"(210) 559-1888",http://www.newleafhomes.com,"(210) 641-0011",,
TX,HAYS,2020-32930,"Single Family Homes",8/12/2020,,,3769,"408 ANCIENT OAK WAY","SAN MARCOS",TX,78666,,,CONTRACTOR,,,,,,,,,,,"NEWLEAF HOMES",,,,,"NEWLEAF HOMES","6735 W INTERSTATE 10 STE 103","SAN ANTONIO",TX,78201-2057,"(210) 559-1888",http://www.newleafhomes.com,"(210) 641-0011",,
TX,HAYS,2020-32932,"Single Family Homes",8/25/2020,,494620,4735,"205 RAINBOW VALLEY TRL","SAN MARCOS",TX,78666,,,CONTRACTOR,,,,,,,,,,,"HIGHLAND HOMES",,,,,"HIGHLAND HOMES","4201 W PARMER LN STE B180",AUSTIN,TX,78727-4110,"(512) 834-8429",,,,
TX,HAYS,2020-32933,"Single Family Homes",8/11/2020,,429245,3796,"505 COPPER SAGE DR","SAN MARCOS",TX,78666,,,CONTRACTOR,,,,,,,,,,,"HIGHLAND HOMES",,,,,"HIGHLAND HOMES","4201 W PARMER LN STE B180",AUSTIN,TX,78727-4110,"(512) 834-8429",,,,
TX,HAYS,2020-32934,"Single Family Homes",8/28/2020,,153376,2649,"334 BLUE OAK BLVD","SAN MARCOS",TX,78666,,,CONTRACTOR,,,,,,,,,,,"EHT OF TEXAS LP",,,,,"EHT OF TEXAS LP","3520 EXECUTIVE CENTER DR STE 100",AUSTIN,TX,78731-1636,"(757) 287-6394",,,,
TX,HAYS,2020-32949,"Single Family Homes",8/19/2020,,370728,3252,"549 BLUE OAK BLVD","SAN MARCOS",TX,78666,,,CONTRACTOR,,,,,,,,,,,"BUFFINGTON TEXAS CLASSIC HOMES",,,,,"BUFFINGTON TEXAS CLASSIC HOMES","8601 RANCH ROAD 2222 PARK CENTRE BLDG STE 150",AUSTIN,TX,78730,"(512) 579-4800",,,,
TX,HAYS,2020-32950,"Single Family Homes",8/19/2020,,432630,3795,"517 BLUE OAK BLVD","SAN MARCOS",TX,78666,,,CONTRACTOR,,,,,,,,,,,"BUFFINGTON TEXAS CLASSIC HOMES",,,,,"BUFFINGTON TEXAS CLASSIC HOMES","8601 RANCH ROAD 2222 PARK CENTRE BLDG STE 150",AUSTIN,TX,78730,"(512) 579-4800",,,,
TX,HAYS,2020-32951,"Single Family Homes",8/19/2020,,330258,2655,"108 GRAY WOLF DR","SAN MARCOS",TX,78666,,,CONTRACTOR,,,,,,,,,,,"BUFFINGTON TEXAS CLASSIC HOMES",,,,,"BUFFINGTON TEXAS CLASSIC HOMES","8601 RANCH ROAD 2222 PARK CENTRE BLDG STE 150",AUSTIN,TX,78730,"(512) 579-4800",,,,
TX,HAYS,2020-32965,"Single Family Homes",8/19/2020,,268926,2365,"116 GRAY WOLF DR","SAN MARCOS",TX,78666,,,CONTRACTOR,,,,,,,,,,,"BUFFINGTON TEXAS CLASSIC HOMES",,,,,"BUFFINGTON TEXAS CLASSIC HOMES","8601 RANCH ROAD 2222 PARK CENTRE BLDG STE 150",AUSTIN,TX,78730,"(512) 579-4800",,,,
TX,HAYS,2020-32966,"Single Family Homes",8/28/2020,,269868,3138,"657 GOLDEN GROVE PKWY","SAN MARCOS",TX,78666,,,CONTRACTOR,,,,,,,,,,,"DR HORTON",,,,,"DR HORTON","10700 PECAN PARK BLVD STE 400",AUSTIN,TX,78750-1227,"(512) 345-4663",,,,
TX,HAYS,2020-32967,"Single Family Homes",8/17/2020,,210442,2447,"617 GOLDEN GROVE PKWY","SAN MARCOS",TX,78666,,,CONTRACTOR,,,,,,,,,,,"DR HORTON",,,,,"DR HORTON","10700 PECAN PARK BLVD STE 400",AUSTIN,TX,78750-1227,"(512) 345-4663",,,,
TX,HAYS,2020-32968,"Single Family Homes",8/17/2020,,210442,2447,"543 GOLDEN GROVE PKWY","SAN MARCOS",TX,78666,,,CONTRACTOR,,,,,,,,,,,"DR HORTON",,,,,"DR HORTON","10700 PECAN PARK BLVD STE 400",AUSTIN,TX,78750-1227,"(512) 345-4663",,,,
TX,HAYS,2020-32969,"Single Family Homes",8/17/2020,,251120,2920,"547 GOLDEN GROVE PKWY","SAN MARCOS",TX,78666,,,CONTRACTOR,,,,,,,,,,,"DR HORTON",,,,,"DR HORTON","10700 PECAN PARK BLVD STE 400",AUSTIN,TX,78750-1227,"(512) 345-4663",,,,
TX,HAYS,2020-32970,"Single Family Homes",8/17/2020,,234092,2722,"527 GOLDEN GROVE PKWY","SAN MARCOS",TX,78666,,,CONTRACTOR,,,,,,,,,,,"DR HORTON",,,,,"DR HORTON","10700 PECAN PARK BLVD STE 400",AUSTIN,TX,78750-1227,"(512) 345-4663",,,,
TX,HAYS,2020-32971,"Single Family Homes",8/17/2020,,237618,2763,"531 GOLDEN GROVE PKWY","SAN MARCOS",TX,78666,,,CONTRACTOR,,,,,,,,,,,"DR HORTON",,,,,"DR HORTON","10700 PECAN PARK BLVD STE 400",AUSTIN,TX,78750-1227,"(512) 345-4663",,,,
TX,HAYS,2020-32972,"Single Family Homes",8/17/2020,,210442,2447,"649 GOLDEN GROVE PKWY","SAN MARCOS",TX,78666,,,CONTRACTOR,,,,,,,,,,,"DR HORTON",,,,,"DR HORTON","10700 PECAN PARK BLVD STE 400",AUSTIN,TX,78750-1227,"(512) 345-4663",,,,
TX,HAYS,2020-32975,"Single Family Homes",8/21/2020,,272005,2794,"2851 BRAND IRON DR","SAN MARCOS",TX,78666,,,CONTRACTOR,,,,,,,,,,,"PACESETTER HOMES ",,,,,"PACESETTER HOMES ","7940 SHOAL CREEK BLVD STE 200",AUSTIN,TX,78757-7587,"(512) 323-5252",,,,
TX,HAYS,2020-32980,"Single Family Homes",8/26/2020,,211505,1216,"2912 BRAND IRON DR","SAN MARCOS",TX,78666,,,CONTRACTOR,,,,,,,,,,,"PACESETTER HOMES ",,,,,"PACESETTER HOMES ","7940 SHOAL CREEK BLVD STE 200",AUSTIN,TX,78757-7587,"(512) 323-5252",,,,
TX,HAYS,2020-32983,"Single Family Homes",8/19/2020,,207460,1521,"152 WITCHHAZEL WAY","SAN MARCOS",TX,78666,,,CONTRACTOR,,,,,,,,,,,"PACESETTER HOMES ",,,,,"PACESETTER HOMES ","7940 SHOAL CREEK BLVD STE 200",AUSTIN,TX,78757-7587,"(512) 323-5252",,,,
TX,HAYS,2020-32986,"Single Family Homes",8/26/2020,,229195,1915,"2936 BRAND IRON DR","SAN MARCOS",TX,78666,,,CONTRACTOR,,,,,,,,,,,"PACESETTER HOMES ",,,,,"PACESETTER HOMES ","7940 SHOAL CREEK BLVD STE 200",AUSTIN,TX,78757-7587,"(512) 323-5252",,,,
TX,WILLIAMSON,2018-46907,"Single Family Homes",8/11/2020,,425000,2282,"113 AXIS LOOP",GEORGETOWN,TX,78626,,,CONTRACTOR,,,,,,,,,,,"DREES CUSTOM HOMES",,,,,"DREES CUSTOM HOMES","7300 RANCH ROAD 2222 BLDG 2 STE 250",AUSTIN,TX,78730-3204,"(512) 241-7100",http://www.dreeshomes.com,,,
TX,WILLIAMSON,2019-51984,"Single Family Homes",8/27/2020,,350000,2352,"105 RED GRANITE RD",GEORGETOWN,TX,78628,,,CONTRACTOR,,,,,,,,,,,"PERRY HOMES",,,,,"PERRY HOMES","6112 LLANO ST",AUSTIN,TX,78702,"(512) 810-8050",,,,
TX,WILLIAMSON,2019-52302,"Single Family Homes",8/5/2020,,120075,1601,"129 CONCHO BROOK BND",GEORGETOWN,TX,78626,,,CONTRACTOR,,,,,,,,,,,"LENNAR HOMES",,,,,"LENNAR HOMES","13620 FM 620 RD 150",AUSTIN,TX,78717,"(512) 506-4000",http://www.lennar.com/,,,
TX,WILLIAMSON,2020-56625,"Single Family Homes",8/31/2020,,331000,3273,"503 W 5TH ST",GEORGETOWN,TX,78626,,,CONTRACTOR,,,,,,,,,,,"COREGON BUILDING COMPANY",,,,,"COREGON BUILDING COMPANY","700 S AUSTIN AVE STE 202",GEORGETOWN,TX,78626-5771,"(512) 688-5180",https://coregonbuildingcompany.com/,,,
TX,WILLIAMSON,2020-56716,"Single Family Homes",8/5/2020,,375000,2545,"104 ROCK DOCK RD",GEORGETOWN,TX,78628,"LAKES AT LAKE",,CONTRACTOR,,,,,,,,,,,"PERRY HOMES",,,,,"PERRY HOMES","6112 LLANO ST",AUSTIN,TX,78702,"(512) 810-8050",,,,
TX,WILLIAMSON,2020-57761,"Single Family Homes",8/13/2020,,375000,2228,"1633 LAKESIDE RANCH RD",GEORGETOWN,TX,78626,,,CONTRACTOR,,,,,,,,,,,"PERRY HOMES",,,,,"PERRY HOMES","6112 LLANO ST",AUSTIN,TX,78702,"(512) 810-8050",,,,
TX,WILLIAMSON,2020-58242,"Single Family Homes",8/16/2020,,333960,2783,"209 WINDOM WAY",GEORGETOWN,TX,78626,,,CONTRACTOR,,,,,,,,,,,"MERITAGE HOMES",,,,,"MERITAGE HOMES","8920 BUSINESS PARK DR STE 250",AUSTIN,TX,78759-7622,"(512) 610-4800",,,,
TX,WILLIAMSON,2020-58264,"Single Family Homes",8/24/2020,,338160,2818,"113 WINDOM WAY",GEORGETOWN,TX,78626,,,CONTRACTOR,,,,,,,,,,,"MERITAGE HOMES",,,,,"MERITAGE HOMES","8920 BUSINESS PARK DR STE 250",AUSTIN,TX,78759-7622,"(512) 610-4800",,,,
TX,WILLIAMSON,2020-58871,"Single Family Homes",8/14/2020,,177160,2060,"325 LOS COBOS LN",GEORGETOWN,TX,78626,,,CONTRACTOR,,,,,,,,,,,"KB HOME",,,,,"KB HOME","10800 PECAN PARK BLVD STE 200",AUSTIN,TX,78750-1249,"(512) 651-8100",,,,
TX,WILLIAMSON,2020-59304,"Single Family Homes",8/20/2020,,250000,2698,"1108 ROUND MOUNTAIN PASS",GEORGETOWN,TX,78626,,,CONTRACTOR,,,,,,,,,,,"PERRY HOMES",,,,,"PERRY HOMES","6112 LLANO ST",AUSTIN,TX,78702,"(512) 810-8050",,,,
TX,WILLIAMSON,2020-59338,"Single Family Homes",8/5/2020,,454680,3789,"122 LONGMIRE CV",GEORGETOWN,TX,78626,,,CONTRACTOR,,,,,,,,,,,"MERITAGE HOMES",,,,,"MERITAGE HOMES","8920 BUSINESS PARK DR STE 250",AUSTIN,TX,78759-7622,"(512) 610-4800",,,,
TX,WILLIAMSON,2020-59628,"Single Family Homes",8/19/2020,,295000,1885,"1204 DESAIX DR",GEORGETOWN,TX,78626,,,CONTRACTOR,,,,,,,,,,,"VILLAGE CUSTOM HOMES",,,,,"VILLAGE CUSTOM HOMES","4925 GREENVILLE AVE",DALLAS,TX,75206-4026,"(214) 265-9888",,,,
TX,WILLIAMSON,2020-60489,"Single Family Homes",8/24/2020,,760500,5540,"801 W 19TH ST",GEORGETOWN,TX,78626,,,CONTRACTOR,,,,,,,,,,,"COCKRUM CUSTOM HOMES",,,,,"COCKRUM CUSTOM HOMES","200 SEDRO TRAIL",GEORGETOWN,TX,78633,"(512) 930-1130",,,,
TX,WILLIAMSON,2020-61083,"Single Family Homes",8/5/2020,,200990,2590,"1228 CLIFFBRAKE WAY",GEORGETOWN,TX,78626,,,CONTRACTOR,,,,,,,,,,,"PULTE HOMES",,,,,"PULTE HOMES","9401 AMBERGLEN BLVD STE I-150",AUSTIN,TX,78729-1154,"(512) 561-4344",,,,
TX,WILLIAMSON,2020-61112,"Single Family Homes",8/7/2020,,208034,2419,"432 SHINER LN",GEORGETOWN,TX,78626,,,CONTRACTOR,,,,,,,,,,,"DR HORTON",,,,,"DR HORTON","10700 PECAN PARK BLVD STE 400",AUSTIN,TX,78750,"(512) 533-1445",,,,
TX,WILLIAMSON,2020-61175,"Single Family Homes",8/3/2020,,210730,3242,"1100 WHIPPLETREE TRL",GEORGETOWN,TX,78626,,,CONTRACTOR,,,,,,,,,,,"CASTLEROCK COMMUNITIES",,,,,"CASTLEROCK COMMUNITIES","7670 WOODWAY DR STE 300",HOUSTON,TX,77063-1520,"(713) 600-7000",http://c-rock.com,"(713) 600-0000",,
TX,WILLIAMSON,2020-61570,"Single Family Homes",8/5/2020,,412000,4510,"329 CUMBERLAND CV",GEORGETOWN,TX,78626,,,CONTRACTOR,,,,,,,,,,,"DREES CUSTOM HOMES",,,,,"DREES CUSTOM HOMES","7300 RANCH ROAD 2222 BLDG 2 STE 250",AUSTIN,TX,78730-3204,"(512) 241-7100",http://www.dreeshomes.com,,,
TX,WILLIAMSON,2020-62209,"Single Family Homes",8/11/2020,,193414,2249,"209 INDIAN SHOAL DR",GEORGETOWN,TX,78626,,,CONTRACTOR,,,,,,,,,,,"DR HORTON",,,,,"DR HORTON","10700 PECAN PARK BLVD STE 400",AUSTIN,TX,78750-1227,"(512) 345-4663",,,,
TX,WILLIAMSON,2020-62239,"Single Family Homes",8/18/2020,,375000,2476,"1717 LAKESIDE RANCH RD",GEORGETOWN,TX,78626,,,CONTRACTOR,,,,,,,,,,,"PERRY HOMES",,,,,"PERRY HOMES","6112 LLANO ST",AUSTIN,TX,78702,"(512) 810-8050",,,,
TX,WILLIAMSON,2020-62244,"Single Family Homes",8/10/2020,,168818,1963,"444 SHINER LN",GEORGETOWN,TX,78626,,,CONTRACTOR,,,,,,,,,,,"DR HORTON",,,,,"DR HORTON","10700 PECAN PARK BLVD STE 400",AUSTIN,TX,78750-1227,"(512) 345-4663",,,,
TX,WILLIAMSON,2020-62245,"Single Family Homes",8/10/2020,,166066,1931,"440 SHINER LN",GEORGETOWN,TX,78626,,,CONTRACTOR,,,,,,,,,,,"DR HORTON",,,,,"DR HORTON","10700 PECAN PARK BLVD STE 400",AUSTIN,TX,78750-1227,"(512) 345-4663",,,,
TX,WILLIAMSON,2020-62253,"Single Family Homes",8/10/2020,,180342,2097,"404 SHINER LN",GEORGETOWN,TX,78626,,,CONTRACTOR,,,,,,,,,,,"DR HORTON",,,,,"DR HORTON","10700 PECAN PARK BLVD STE 400",AUSTIN,TX,78750-1227,"(512) 345-4663",,,,
TX,WILLIAMSON,2020-62329,"Single Family Homes",8/12/2020,,365613,3366,"116 EAGLE PASS TRL",GEORGETOWN,TX,78626,,,CONTRACTOR,,,,,,,,,,,"DAVID WEEKLEY HOMES",,,,,"DAVID WEEKLEY HOMES","9000 WATERFORD CENTRE BLVD",AUSTIN,TX,78758-7662,"(800) 390-6774",http://www.davidweekleyhomes.com/,,,
TX,WILLIAMSON,2020-62710,"Single Family Homes",8/3/2020,,227556,2646,"229 INDIAN SHOAL DR",GEORGETOWN,TX,78626,,,CONTRACTOR,,,,,,,,,,,"DR HORTON",,,,,"DR HORTON","10700 PECAN PARK BLVD STE 400",AUSTIN,TX,78750-1227,"(512) 345-4663",,,,
TX,WILLIAMSON,2020-62711,"Single Family Homes",8/3/2020,,217752,2532,"225 INDIAN SHOAL DR",GEORGETOWN,TX,78626,,,CONTRACTOR,,,,,,,,,,,"DR HORTON",,,,,"DR HORTON","10700 PECAN PARK BLVD STE 400",AUSTIN,TX,78750-1227,"(512) 345-4663",,,,
TX,WILLIAMSON,2020-63077,"Single Family Homes",8/5/2020,,240000,4134,"604 BELLAIRE DR",GEORGETOWN,TX,78628,,,CONTRACTOR,,,,,,,,,,,"BACCUS JACKSON CUSTOM BUILDERS",,,,,"BACCUS JACKSON CUSTOM BUILDERS","PO BOX 609",GEORGETOWN,TX,78627,"(512) 677-7576",,,,
TX,WILLIAMSON,2020-63083,"Single Family Homes",8/10/2020,,402000,3707,"109 HOLLYTREE CT",GEORGETOWN,TX,78628,,,CONTRACTOR,,,,,,,,,,,"DREES CUSTOM HOMES",,,,,"DREES CUSTOM HOMES","7300 RANCH ROAD 2222 BLDG 2 STE 250",AUSTIN,TX,78730-3204,"(512) 241-7100",http://www.dreeshomes.com,,,
TX,WILLIAMSON,2020-63342,"Single Family Homes",8/7/2020,,356866,2533,"624 PECAN BOTTOM TRL",GEORGETOWN,TX,78628,,,CONTRACTOR,,,,,,,,,,,"HIGHLAND HOMES",,,,,"HIGHLAND HOMES","4201 W PARMER LN STE B180",AUSTIN,TX,78727-4110,"(512) 834-8429",,,,
TX,WILLIAMSON,2020-63359,"Single Family Homes",8/21/2020,,407000,3187,"1209 MOONLIGHT TERRACE DR",GEORGETOWN,TX,78626,,,CONTRACTOR,,,,,,,,,,,"DREES CUSTOM HOMES",,,,,"DREES CUSTOM HOMES","7300 RANCH ROAD 2222 BLDG 2 STE 250",AUSTIN,TX,78730-3204,"(512) 241-7100",http://www.dreeshomes.com,,,
TX,WILLIAMSON,2020-63461,"Single Family Homes",8/3/2020,,244670,2845,"501 SHINER LN",GEORGETOWN,TX,78628,,,CONTRACTOR,,,,,,,,,,,"DR HORTON",,,,,"DR HORTON","6751 NORTH FWY","FT WORTH",TX,76131-2802,"(817) 230-0800",,,,
TX,WILLIAMSON,2020-63463,"Single Family Homes",8/3/2020,,268148,3118,"104 BREMEN ST",GEORGETOWN,TX,78628,,,CONTRACTOR,,,,,,,,,,,"DR HORTON",,,,,"DR HORTON","10700 PECAN PARK BLVD STE 400",AUSTIN,TX,78750,"(512) 533-1445",,,,
TX,WILLIAMSON,2020-63465,"Single Family Homes",8/10/2020,,244670,2845,"108 BREMEN ST",GEORGETOWN,TX,78628,,,CONTRACTOR,,,,,,,,,,,"DR HORTON",,,,,"DR HORTON","10700 PECAN PARK BLVD STE 400",AUSTIN,TX,78750-1227,"(512) 345-4663",,,,
TX,WILLIAMSON,2020-63610,"Single Family Homes",8/17/2020,,185502,2157,"232 INDIAN SHOAL DR",GEORGETOWN,TX,78626,"SHADOW CANYON",,CONTRACTOR,,,,,,,,,,,"DR HORTON",,,,,"DR HORTON","10700 PECAN PARK BLVD STE 400",AUSTIN,TX,78750,"(512) 533-1445",,,,
TX,WILLIAMSON,2020-63618,"Single Family Homes",8/7/2020,,273594,3795,"916 CEDAR LAKE BLVD",GEORGETOWN,TX,78628,,,CONTRACTOR,,,,,,,,,,,"MHI MCGUYER HOMEBUILDERS",,,,,"MHI MCGUYER HOMEBUILDERS","8200 N MO PAC EXPY STE 300",AUSTIN,TX,78759-8844,"(512) 502-2050",,"(512) 388-1836","FRANK MCGUYER",
TX,WILLIAMSON,2020-63643,"Single Family Homes",8/14/2020,,227556,2646,"241 INDIAN SHOAL DR",GEORGETOWN,TX,78628,,,CONTRACTOR,,,,,,,,,,,"DR HORTON",,,,,"DR HORTON","10700 PECAN PARK BLVD STE 400",AUSTIN,TX,78750-1227,"(512) 345-4663",,,,
TX,WILLIAMSON,2020-63651,"Single Family Homes",8/13/2020,,332158,2605,"269 ARROWHEAD MOUND RD",GEORGETOWN,TX,78628,,,CONTRACTOR,,,,,,,,,,,"HIGHLAND HOMES",,,,,"HIGHLAND HOMES","4201 W PARMER LN STE B180",AUSTIN,TX,78727-4110,"(512) 834-8429",,,,
TX,WILLIAMSON,2020-63654,"Single Family Homes",8/4/2020,,337630,3181,"116 WHITE STEPPE WAY",GEORGETOWN,TX,78628,,,CONTRACTOR,,,,,,,,,,,"CHESMAR HOMES",,,,,"CHESMAR HOMES","2900 N QUINLAN PARK RD",AUSTIN,TX,78732-6083,"(512) 233-9016",http://chesmar.com,,,
TX,WILLIAMSON,2020-63805,"Single Family Homes",8/3/2020,,190990,2814,"722 KITTY HAWK RD",GEORGETOWN,TX,78628,,,CONTRACTOR,,,,,,,,,,,"PULTE HOMES",,,,,"PULTE HOMES","9401 AMBERGLEN BLVD STE I-150",AUSTIN,TX,78729-1154,"(512) 561-4344",,,,
TX,WILLIAMSON,2020-63806,"Single Family Homes",8/25/2020,,200394,2899,"248 ARROWHEAD MOUND RD",GEORGETOWN,TX,78628,,,CONTRACTOR,,,,,,,,,,,"MHI MCGUYER HOMEBUILDERS",,,,,"MHI MCGUYER HOMEBUILDERS","8200 N MO PAC EXPY STE 300",AUSTIN,TX,78759-8844,"(512) 502-2050",,"(512) 388-1836","FRANK MCGUYER",
TX,WILLIAMSON,2020-63808,"Single Family Homes",8/17/2020,,276576,3216,"529 PEACE PIPE WAY",GEORGETOWN,TX,78628,,,CONTRACTOR,,,,,,,,,,,"DR HORTON",,,,,"DR HORTON","10700 PECAN PARK BLVD STE 400",AUSTIN,TX,78750-1227,"(512) 345-4663",,,,
TX,WILLIAMSON,2020-63811,"Single Family Homes",8/5/2020,,250000,2223,"1117 WOLF HOLLOW DR",GEORGETOWN,TX,78628,,,CONTRACTOR,,,,,,,,,,,"PERRY HOMES",,,,,"PERRY HOMES","6112 LLANO ST",AUSTIN,TX,78702,"(512) 810-8050",,,,
TX,WILLIAMSON,2020-63814,"Single Family Homes",8/13/2020,,201990,2590,"112 HARES FOOT CV",GEORGETOWN,TX,78628,,,CONTRACTOR,,,,,,,,,,,"PULTE HOMES",,,,,"PULTE HOMES","9401 AMBERGLEN BLVD STE I-150",AUSTIN,TX,78729-1154,"(512) 561-4344",,,,
TX,WILLIAMSON,2020-63993,"Single Family Homes",8/12/2020,,480000,5986,"104 HOLLYTREE CT",GEORGETOWN,TX,78628,,,CONTRACTOR,,,,,,,,,,,"DREES CUSTOM HOMES",,,,,"DREES CUSTOM HOMES","7300 RANCH ROAD 2222 BLDG 2 STE 250",AUSTIN,TX,78730-3204,"(512) 241-7100",http://www.dreeshomes.com,,,
TX,WILLIAMSON,2020-64212,"Single Family Homes",8/10/2020,,150990,2157,"1244 WHIPPLETREE TRL",GEORGETOWN,TX,78628,,,CONTRACTOR,,,,,,,,,,,"CASTLEROCK COMMUNITIES",,,,,"CASTLEROCK COMMUNITIES","7670 WOODWAY DR STE 300",HOUSTON,TX,77063-1520,"(713) 600-7000",http://c-rock.com,"(713) 600-0000",,
TX,WILLIAMSON,2020-64215,"Single Family Homes",8/10/2020,,150990,2157,"1236 WHIPPLETREE TRL",GEORGETOWN,TX,78628,,,CONTRACTOR,,,,,,,,,,,"CASTLEROCK COMMUNITIES",,,,,"CASTLEROCK COMMUNITIES","7670 WOODWAY DR STE 300",HOUSTON,TX,77063-1520,"(713) 600-7000",http://c-rock.com,"(713) 600-0000",,
TX,WILLIAMSON,2020-64276,"Single Family Homes",8/6/2020,,202990,2491,"101 HARES FOOT CV",GEORGETOWN,TX,78626,,,CONTRACTOR,,,,,,,,,,,"PULTE HOMES",,,,,"PULTE HOMES","9401 AMBERGLEN BLVD STE I-150",AUSTIN,TX,78729-1154,"(512) 561-4344",,,,
TX,WILLIAMSON,2020-64278,"Single Family Homes",8/25/2020,,337920,2816,"104 STONEWOOD LN",GEORGETOWN,TX,78626,,,CONTRACTOR,,,,,,,,,,,"MERITAGE HOMES",,,,,"MERITAGE HOMES","8920 BUSINESS PARK DR STE 250",AUSTIN,TX,78759-7622,"(512) 610-4800",,,,
TX,WILLIAMSON,2020-64317,"Single Family Homes",8/16/2020,,334200,2785,"4012 PROMONTORY POINT TRL",GEORGETOWN,TX,78626,,,CONTRACTOR,,,,,,,,,,,"MERITAGE HOMES",,,,,"MERITAGE HOMES","8920 BUSINESS PARK DR STE 250",AUSTIN,TX,78759-7622,"(512) 610-4800",,,,
TX,WILLIAMSON,2020-64318,"Single Family Homes",8/14/2020,,227556,2646,"605 PEACE PIPE WAY",GEORGETOWN,TX,78628,,,CONTRACTOR,,,,,,,,,,,"DR HORTON",,,,,"DR HORTON","10700 PECAN PARK BLVD STE 400",AUSTIN,TX,78750-1227,"(512) 345-4663",,,,
TX,WILLIAMSON,2020-64321,"Single Family Homes",8/5/2020,,124475,1915,"420 GABRIELS BLUFF DR",GEORGETOWN,TX,78628,,,CONTRACTOR,,,,,,,,,,,"LENNAR HOMES",,,,,"LENNAR HOMES","13620 FM 620 RD 150",AUSTIN,TX,78717,"(512) 506-4000",http://www.lennar.com/,,,
TX,WILLIAMSON,2020-64327,"Single Family Homes",8/6/2020,,79170,1217,"424 GABRIELS BLUFF DR",GEORGETOWN,TX,78626,,,CONTRACTOR,,,,,,,,,,,"LENNAR HOMES",,,,,"LENNAR HOMES","13620 FM 620 RD 150",AUSTIN,TX,78717,"(512) 506-4000",http://www.lennar.com/,,,
TX,WILLIAMSON,2020-64338,"Single Family Homes",8/10/2020,,338160,2818,"120 STONEWOOD LN",GEORGETOWN,TX,78628,,,CONTRACTOR,,,,,,,,,,,"MERITAGE HOMES",,,,,"MERITAGE HOMES","8920 BUSINESS PARK DR STE 250",AUSTIN,TX,78759-7622,"(512) 610-4800",,,,
TX,WILLIAMSON,2020-64356,"Single Family Homes",8/10/2020,,194990,2203,"102 YORKTOWN ST",GEORGETOWN,TX,78628,,,CONTRACTOR,,,,,,,,,,,"PULTE HOMES",,,,,"PULTE HOMES","9401 AMBERGLEN BLVD STE I-150",AUSTIN,TX,78729-1154,"(512) 561-4344",,,,
TX,WILLIAMSON,2020-64357,"Single Family Homes",8/20/2020,,194990,2203,"105 YORKTOWN ST",GEORGETOWN,TX,78628,,,CONTRACTOR,,,,,,,,,,,"PULTE HOMES",,,,,"PULTE HOMES","9401 AMBERGLEN BLVD STE I-150",AUSTIN,TX,78729-1154,"(512) 561-4344",,,,
TX,WILLIAMSON,2020-64358,"Single Family Homes",8/10/2020,,190990,2279,"106 YORKTOWN ST",GEORGETOWN,TX,78626,,,CONTRACTOR,,,,,,,,,,,"PULTE HOMES",,,,,"PULTE HOMES","9401 AMBERGLEN BLVD STE I-150",AUSTIN,TX,78729-1154,"(512) 561-4344",,,,
TX,WILLIAMSON,2020-64361,"Single Family Homes",8/6/2020,,162945,1917,"1008 KIMBLEWICK DR",GEORGETOWN,TX,78628,,,CONTRACTOR,,,,,,,,,,,"CENTURY COMMUNITIES",,,,,"CENTURY COMMUNITIES","6500 RIVER PLACE BLVD STE 200",AUSTIN,TX,78730-1156,"(512) 271-3825",https://www.centurycommunities.com/,,,
TX,WILLIAMSON,2020-64362,"Single Family Homes",8/6/2020,,162945,1917,"524 REARING MARE PASS",GEORGETOWN,TX,78628,,,CONTRACTOR,,,,,,,,,,,"CENTURY COMMUNITIES",,,,,"CENTURY COMMUNITIES","6500 RIVER PLACE BLVD STE 200",AUSTIN,TX,78730-1156,"(512) 271-3825",https://www.centurycommunities.com/,,,
TX,WILLIAMSON,2020-64420,"Single Family Homes",8/12/2020,,419000,2910,"124 EAGLE PASS TRL",GEORGETOWN,TX,78628,,,CONTRACTOR,,,,,,,,,,,"DREES CUSTOM HOMES",,,,,"DREES CUSTOM HOMES","7300 RANCH ROAD 2222 BLDG 2 STE 250",AUSTIN,TX,78730-3204,"(512) 241-7100",http://www.dreeshomes.com,,,
TX,WILLIAMSON,2020-64425,"Single Family Homes",8/7/2020,,156060,1836,"549 REARING MARE PASS",GEORGETOWN,TX,78628,,,CONTRACTOR,,,,,,,,,,,"CENTURY COMMUNITIES",,,,,"CENTURY COMMUNITIES","6500 RIVER PLACE BLVD STE 200",AUSTIN,TX,78730-1156,"(512) 271-3825",https://www.centurycommunities.com/,,,
TX,WILLIAMSON,2020-64435,"Single Family Homes",8/10/2020,,178990,1864,"1224 CLIFFBRAKE WAY",GEORGETOWN,TX,78628,,,CONTRACTOR,,,,,,,,,,,"PULTE HOMES",,,,,"PULTE HOMES","9401 AMBERGLEN BLVD STE I-150",AUSTIN,TX,78729-1154,"(512) 561-4344",,,,
TX,WILLIAMSON,2020-64441,"Single Family Homes",8/14/2020,,227556,2646,"625 PEACE PIPE WAY",GEORGETOWN,TX,78628,,,CONTRACTOR,,,,,,,,,,,"DR HORTON",,,,,"DR HORTON","10700 PECAN PARK BLVD STE 400",AUSTIN,TX,78750-1227,"(512) 345-4663",,,,
TX,WILLIAMSON,2020-64442,"Single Family Homes",8/6/2020,,224900,2714,"8213 DAISY CUTTER XING",GEORGETOWN,TX,78628,,,CONTRACTOR,,,,,,,,,,,"PACESETTER HOMES ",,,,,"PACESETTER HOMES ","7940 SHOAL CREEK BLVD STE 200",AUSTIN,TX,78757-7587,"(512) 323-5252",,,,
TX,WILLIAMSON,2020-64444,"Single Family Homes",8/10/2020,,339990,4800,"300 FAIRWAY RIDGE RD",GEORGETOWN,TX,78628,,,CONTRACTOR,,,,,,,,,,,"PULTE HOMES",,,,,"PULTE HOMES","9401 AMBERGLEN BLVD STE I-150",AUSTIN,TX,78729-1154,"(512) 561-4344",,,,
TX,WILLIAMSON,2020-64448,"Single Family Homes",8/10/2020,,201990,2589,"116 HARES FOOT CV",GEORGETOWN,TX,78628,,,CONTRACTOR,,,,,,,,,,,"PULTE HOMES",,,,,"PULTE HOMES","9401 AMBERGLEN BLVD STE I-150",AUSTIN,TX,78729-1154,"(512) 561-4344",,,,
TX,WILLIAMSON,2020-64449,"Single Family Homes",8/26/2020,,531000,5975,"229 IVA JUNE LN",GEORGETOWN,TX,78628,,,CONTRACTOR,,,,,,,,,,,"DREES CUSTOM HOMES",,,,,"DREES CUSTOM HOMES","7300 RANCH ROAD 2222 BLDG 2 STE 250",AUSTIN,TX,78730-3204,"(512) 241-7100",http://www.dreeshomes.com,,,
TX,WILLIAMSON,2020-64489,"Single Family Homes",8/26/2020,,217990,3065,"125 HARES FOOT CV",GEORGETOWN,TX,78628,,,CONTRACTOR,,,,,,,,,,,"PULTE HOMES",,,,,"PULTE HOMES","9401 AMBERGLEN BLVD STE I-150",AUSTIN,TX,78729-1154,"(512) 561-4344",,,,
TX,WILLIAMSON,2020-64512,"Single Family Homes",8/14/2020,,388557,3321,"524 WINDOM WAY",GEORGETOWN,TX,78628,,,CONTRACTOR,,,,,,,,,,,"ASHTON WOODS HOMES",,,,,"ASHTON WOODS HOMES","4201 W PARMER LN STE A150",AUSTIN,TX,78727-4118,"(512) 610-7000",,,,
TX,WILLIAMSON,2020-64531,"Single Family Homes",8/26/2020,,412000,4470,"324 CUMBERLAND CV",GEORGETOWN,TX,78628,,,CONTRACTOR,,,,,,,,,,,"DREES CUSTOM HOMES",,,,,"DREES CUSTOM HOMES","7300 RANCH ROAD 2222 BLDG 2 STE 250",AUSTIN,TX,78730-3204,"(512) 241-7100",http://www.dreeshomes.com,,,
TX,WILLIAMSON,2020-64532,"Single Family Homes",8/14/2020,,245874,2859,"352 TORDESILLAS DR",GEORGETOWN,TX,78628,,,CONTRACTOR,,,,,,,,,,,"KB HOME",,,,,"KB HOME","10800 PECAN PARK BLVD STE 200",AUSTIN,TX,78750-1249,"(512) 651-8100",,,,
TX,WILLIAMSON,2020-64533,"Single Family Homes",8/14/2020,,201068,2338,"353 ROCROI DR",GEORGETOWN,TX,78628,,,CONTRACTOR,,,,,,,,,,,"KB HOME",,,,,"KB HOME","10800 PECAN PARK BLVD STE 200",AUSTIN,TX,78750-1249,"(512) 651-8100",,,,
TX,WILLIAMSON,2020-64541,"Single Family Homes",8/13/2020,,275990,2976,"215 NOTCHED BOW LN",GEORGETOWN,TX,78628,,,CONTRACTOR,,,,,,,,,,,"PULTE HOMES",,,,,"PULTE HOMES","9401 AMBERGLEN BLVD STE I-150",AUSTIN,TX,78729-1154,"(512) 561-4344",,,,
TX,WILLIAMSON,2020-64609,"Single Family Homes",8/16/2020,,246960,2058,"128 STONEWOOD LN",GEORGETOWN,TX,78628,,,CONTRACTOR,,,,,,,,,,,"MERITAGE HOMES",,,,,"MERITAGE HOMES","8920 BUSINESS PARK DR STE 250",AUSTIN,TX,78759-7622,"(512) 610-4800",,,,
TX,WILLIAMSON,2020-64610,"Single Family Homes",8/16/2020,,333960,2783,"109 STONEWOOD LN",GEORGETOWN,TX,78628,,,CONTRACTOR,,,,,,,,,,,"MERITAGE HOMES",,,,,"MERITAGE HOMES","8920 BUSINESS PARK DR STE 250",AUSTIN,TX,78759-7622,"(512) 610-4800",,,,
TX,WILLIAMSON,2020-64613,"Single Family Homes",8/14/2020,,354393,3029,"533 WINDOM WAY",GEORGETOWN,TX,78628,,,CONTRACTOR,,,,,,,,,,,"ASHTON AUSTIN RESIDENTIAL",,,,,"ASHTON AUSTIN RESIDENTIAL","10721 RESEARCH BLVD STE B-210",AUSTIN,TX,78759-5694,"(512) 610-7000",,,,
TX,WILLIAMSON,2020-64615,"Single Family Homes",8/14/2020,,354393,3029,"508 WINDOM WAY",GEORGETOWN,TX,78628,,,CONTRACTOR,,,,,,,,,,,"ASHTON WOODS HOMES",,,,,"ASHTON WOODS HOMES","4201 W PARMER LN STE A150",AUSTIN,TX,78727-4118,"(512) 610-7000",,,,
TX,WILLIAMSON,2020-64617,"Single Family Homes",8/14/2020,,385800,3858,"529 WINDOM WAY",GEORGETOWN,TX,78628,,,CONTRACTOR,,,,,,,,,,,"ASHTON WOODS HOMES",,,,,"ASHTON WOODS HOMES","4201 W PARMER LN STE A150",AUSTIN,TX,78727-4118,"(512) 610-7000",,,,
TX,WILLIAMSON,2020-64621,"Single Family Homes",8/16/2020,,243000,2025,"4116 PROMONTORY POINT TRL",GEORGETOWN,TX,78628,,,CONTRACTOR,,,,,,,,,,,"MERITAGE HOMES",,,,,"MERITAGE HOMES","8920 BUSINESS PARK DR STE 250",AUSTIN,TX,78759-7622,"(512) 610-4800",,,,
TX,WILLIAMSON,2020-64623,"Single Family Homes",8/14/2020,,289224,2472,"600 WINDOM WAY",GEORGETOWN,TX,78628,,,CONTRACTOR,,,,,,,,,,,"ASHTON WOODS HOMES",,,,,"ASHTON WOODS HOMES","4201 W PARMER LN STE A150",AUSTIN,TX,78727-4118,"(512) 610-7000",,,,
TX,WILLIAMSON,2020-64624,"Single Family Homes",8/26/2020,,362000,3433,"233 AXIS LOOP",GEORGETOWN,TX,78628,,,CONTRACTOR,,,,,,,,,,,"DREES CUSTOM HOMES",,,,,"DREES CUSTOM HOMES","7300 RANCH ROAD 2222 BLDG 2 STE 250",AUSTIN,TX,78730-3204,"(512) 241-7100",http://www.dreeshomes.com,,,
TX,WILLIAMSON,2020-64634,"Single Family Homes",8/14/2020,,201990,2593,"2212 CLIFFBRAKE WAY",GEORGETOWN,TX,78628,,,CONTRACTOR,,,,,,,,,,,"PULTE HOMES",,,,,"PULTE HOMES","9401 AMBERGLEN BLVD STE I-150",AUSTIN,TX,78729-1154,"(512) 561-4344",,,,
TX,WILLIAMSON,2020-64638,"Single Family Homes",8/20/2020,,318630,3705,"117 BARTON RUN DR",GEORGETOWN,TX,78628,,,CONTRACTOR,,,,,,,,,,,"GEHAN HOMES",,,,,"GEHAN HOMES","3815 S CAPITAL OF TEXAS HWY STE 275",AUSTIN,TX,78704-6652,"(512) 330-9366",http://www.gehanhomes.com,,"JANET PHILLIPS",
TX,TRAVIS,"2020-144655 BP","Single Family Homes",9/23/2020,,150000,3397,"11103 ALISO LN",AUSTIN,TX,78641,,,CONTRACTOR,,,,,,,,,,,"SENDERO DEVELOPMENT",,,,,"SENDERO DEVELOPMENT","6907 N CAPITAL OF TEXAS HWY",AUSTIN,TX,78731-1755,"(512) 637-3162",http://senderohomes.com/,"(512) 343-8743","SCOTT WALTHER",scott@senderohomes.com
TX,TRAVIS,"2020-145161 BP","Single Family Homes",9/23/2020,,160000,2580,"8204 AUSBLICK AVE",AUSTIN,TX,78744,DELVALLE,,CONTRACTOR,,,,,,,,,,,"BROOKFIELD RESIDENTIAL PROPERTIES",,,,,"BROOKFIELD RESIDENTIAL PROPERTIES","11501 ALTERRA PKWY STE 100",AUSTIN,TX,78758-3201,"(512) 391-1330",,,,
TX,TRAVIS,"2020-145673 BP","Single Family Homes",9/25/2020,,166345,2866,"6301 SENDERO HILLS PKWY",AUSTIN,TX,78724,"MEADOWS AT TRINITY CROSSING",23,CONTRACTOR,,,,,,,,,,,"INTOWN HOMES",,,,,"INTOWN HOMES","1520 OLIVER ST",HOUSTON,TX,77007,"(713) 961-3877",http://www.intown-homes.com/,,,
TX,TRAVIS,"2020-141914 BP","Single Family Homes",9/28/2020,,168045,1977,"11608 CAITHNESS WAY",AUSTIN,TX,78653,"BELLINGHAM MEADOWS",14,CONTRACTOR,,,,,,,,,,,"RSI COMMUNITIES",,,,,"RSI COMMUNITIES","810 HESTERS CROSSING RD STE 235","ROUND ROCK",TX,78681-7846,"(512) 953-4100",,,,
TX,TRAVIS,"2020-138922 BP","Single Family Homes",9/28/2020,,175440,2064,"11602 CONNAUGHT CV",AUSTIN,TX,78653,"BELLINGHAM MEADOWS",31,CONTRACTOR,,,,,,,,,,,"RSI COMMUNITIES",,,,,"RSI COMMUNITIES","810 HESTERS CROSSING RD STE 235","ROUND ROCK",TX,78681-7846,"(512) 953-4100",,,,
TX,TRAVIS,"2020-145202 BP","Single Family Homes",9/25/2020,,185000,2009,"3128 FATHER JOE ZNOTAS ST",AUSTIN,TX,78702,"GUADALUPE SALDANA",1,CONTRACTOR,,,,,,,,,,,"SALDANA HOMES",,,,,"SALDANA HOMES","606 ALLEN ST",AUSTIN,TX,78702-4920,"(512) 389-2449",,,,
TX,TRAVIS,"2020-137153 BP","Single Family Homes",9/28/2020,,199070,2342,"11603 CAITHNESS WAY",AUSTIN,TX,78653,"BELLINGHAM MEADOWS",10,CONTRACTOR,,,,,,,,,,,"RSI COMMUNITIES",,,,,"RSI COMMUNITIES","810 HESTERS CROSSING RD STE 235","ROUND ROCK",TX,78681-7846,"(512) 953-4100",,,,
TX,TRAVIS,"2020-143520 BP","Single Family Homes",9/28/2020,,199070,2342,"7504 ELK GROVE PATH",AUSTIN,TX,78653,"BELLINGHAM MEADOWS",21,CONTRACTOR,,,,,,,,,,,"RSI COMMUNITIES",,,,,"RSI COMMUNITIES","810 HESTERS CROSSING RD STE 235","ROUND ROCK",TX,78681-7846,"(512) 953-4100",,,,
TX,TRAVIS,"2020-142327 BP","Single Family Homes",9/28/2020,,211650,2490,"11604 CONNAUGHT CV",AUSTIN,TX,78653,"BELLINGHAM MEADOWS",30,CONTRACTOR,,,,,,,,,,,"RSI COMMUNITIES",,,,,"RSI COMMUNITIES","810 HESTERS CROSSING RD STE 235","ROUND ROCK",TX,78681-7846,"(512) 953-4100",,,,
TX,TRAVIS,"2020-146995 BP","Single Family Homes",9/28/2020,,230724,3393,"8205 GILWICE LN",AUSTIN,TX,78744,DELVALLE,,CONTRACTOR,,,,,,,,,,,"DREAM FINDERS HOMES",,,,,"DREAM FINDERS HOMES","13281 POND SPRINGS RD STE 110",AUSTIN,TX,78729,"(512) 535-4866",http://www.dreamfindershomes.com/,,,
TX,TRAVIS,"2020-143903 BP","Single Family Homes",9/28/2020,,231030,2718,"11602 CAITHNESS WAY",AUSTIN,TX,78653,"BELLINGHAM MEADOWS",17,CONTRACTOR,,,,,,,,,,,"RSI COMMUNITIES",,,,,"RSI COMMUNITIES","810 HESTERS CROSSING RD STE 235","ROUND ROCK",TX,78681-7846,"(512) 953-4100",,,,
TX,TRAVIS,"2020-136973 BP","Single Family Homes",9/25/2020,,236895,2787,"11600 CONNAUGHT CV",AUSTIN,TX,78653,"BELLINGHAM MEADOWS",32,CONTRACTOR,,,,,,,,,,,"RSI COMMUNITIES",,,,,"RSI COMMUNITIES","810 HESTERS CROSSING RD STE 235","ROUND ROCK",TX,78681-7846,"(512) 953-4100",,,,
TX,TRAVIS,"2020-137021 BP","Single Family Homes",9/25/2020,,236895,2787,"11607 CONNAUGHT CV",AUSTIN,TX,78653,"BELLINGHAM MEADOWS",21,CONTRACTOR,,,,,,,,,,,"RSI COMMUNITIES",,,,,"RSI COMMUNITIES","810 HESTERS CROSSING RD STE 235","ROUND ROCK",TX,78681-7846,"(512) 953-4100",,,,
TX,TRAVIS,"2020-145528 BP","Single Family Homes",9/23/2020,,238375,1907,"10204 FOREST GROVE DR",AUSTIN,TX,78747,"VISTAS OF AUSTIN",29,CONTRACTOR,,,,,,,,,,,"PACESETTER HOMES ",,,,,"PACESETTER HOMES ","7940 SHOAL CREEK BLVD STE 200",AUSTIN,TX,78757-7587,"(512) 323-5252",,,,
TX,TRAVIS,"2020-146266 BP","Single Family Homes",9/24/2020,,238375,1907,"6316 GUNFLINT DR",AUSTIN,TX,78747,"VISTAS OF AUSTIN",21,CONTRACTOR,,,,,,,,,,,"PACESETTER HOMES ",,,,,"PACESETTER HOMES ","7940 SHOAL CREEK BLVD STE 200",AUSTIN,TX,78757-7587,"(512) 323-5252",,,,
TX,TRAVIS,"2020-143687 BP","Single Family Homes",9/28/2020,,239870,2822,"11715 CAITHNESS WAY",AUSTIN,TX,78653,"BELLINGHAM MEADOWS",64,CONTRACTOR,,,,,,,,,,,"RSI COMMUNITIES",,,,,"RSI COMMUNITIES","810 HESTERS CROSSING RD STE 235","ROUND ROCK",TX,78681-7846,"(512) 953-4100",,,,
TX,TRAVIS,"2020-137173 BP","Single Family Homes",9/28/2020,,239870,2822,"7609 ALBANY DR",AUSTIN,TX,78754,"BELLINGHAM MEADOWS",15,CONTRACTOR,,,,,,,,,,,"RSI COMMUNITIES",,,,,"RSI COMMUNITIES","810 HESTERS CROSSING RD STE 235","ROUND ROCK",TX,78681-7846,"(512) 953-4100",,,,
TX,TRAVIS,"2020-145532 BP","Single Family Homes",9/23/2020,,243750,1950,"6313 GUNFLINT DR",AUSTIN,TX,78747,"VISTAS OF AUSTIN",4,CONTRACTOR,,,,,,,,,,,"PACESETTER HOMES ",,,,,"PACESETTER HOMES ","7940 SHOAL CREEK BLVD STE 200",AUSTIN,TX,78757-7587,"(512) 323-5252",,,,
TX,TRAVIS,"2020-146985 BP","Single Family Homes",9/28/2020,,243848,3586,"8117 GILWICE LN",AUSTIN,TX,78744,DELVALLE,,CONTRACTOR,,,,,,,,,,,"DREAM FINDERS HOMES",,,,,"DREAM FINDERS HOMES","13281 POND SPRINGS RD STE 110",AUSTIN,TX,78729,"(512) 535-4866",http://www.dreamfindershomes.com/,,,
TX,TRAVIS,"2020-145329 BP","Single Family Homes",9/23/2020,,244300,2901,"1609 KATHY LYNN CT",AUSTIN,TX,78758,BROOKE,,CONTRACTOR,,,,,,,,,,,"WES PEOPLES HOMES",,,,,"WES PEOPLES HOMES","11130 JOLLYVILLE RD STE 100",AUSTIN,TX,78759-4819,"(512) 338-5300",http://wespeopleshomes.com/,,,
TX,TRAVIS,"2020-137092 BP","Single Family Homes",9/25/2020,,247520,2912,"11606 CONNAUGHT CV",AUSTIN,TX,78653,"BELLINGHAM MEADOWS",29,CONTRACTOR,,,,,,,,,,,"RSI COMMUNITIES",,,,,"RSI COMMUNITIES","810 HESTERS CROSSING RD STE 235","ROUND ROCK",TX,78681-7846,"(512) 953-4100",,,,
TX,TRAVIS,"2020-145781 BP","Single Family Homes",9/23/2020,,254990,2348,"10716 HARWOOD OVERLOOK PASS",AUSTIN,TX,78747,DELVALLE,,CONTRACTOR,,,,,,,,,,,"MILESTONE COMMUNITY BUILDERS",,,,,"MILESTONE COMMUNITY BUILDERS","9111 JOLLYVILLE RD STE 111",AUSTIN,TX,78759-7406,"(512) 686-4986",http://www.mymilestone.com/,,,
TX,TRAVIS,"2020-146260 BP","Single Family Homes",9/24/2020,,254990,2749,"10725 BLACKET DR",AUSTIN,TX,78613,DELVALLE,,CONTRACTOR,,,,,,,,,,,"MILESTONE COMMUNITY BUILDERS",,,,,"MILESTONE COMMUNITY BUILDERS","9111 JOLLYVILLE RD STE 111",AUSTIN,TX,78759-7406,"(512) 686-4986",http://www.mymilestone.com/,,,
TX,TRAVIS,"2020-146259 BP","Single Family Homes",9/24/2020,,254990,2711,"10717 BLACKET DR",AUSTIN,TX,78613,DELVALLE,,CONTRACTOR,,,,,,,,,,,"MILESTONE COMMUNITY BUILDERS",,,,,"MILESTONE COMMUNITY BUILDERS","9111 JOLLYVILLE RD STE 111",AUSTIN,TX,78759-7406,"(512) 686-4986",http://www.mymilestone.com/,,,
TX,TRAVIS,"2020-145720 BP","Single Family Homes",9/23/2020,,255375,2047,"10213 FOREST GROVE DR",AUSTIN,TX,78747,"VISTAS OF AUSTIN",27,CONTRACTOR,,,,,,,,,,,"PACESETTER HOMES ",,,,,"PACESETTER HOMES ","7940 SHOAL CREEK BLVD STE 200",AUSTIN,TX,78757-7587,"(512) 323-5252",,,,
TX,TRAVIS,"2020-146958 BP","Single Family Homes",9/25/2020,,255875,2047,"6420 GUNFLINT DR",AUSTIN,TX,78747,"VISTAS OF AUSTIN",14,CONTRACTOR,,,,,,,,,,,"PACESETTER HOMES ",,,,,"PACESETTER HOMES ","7940 SHOAL CREEK BLVD STE 200",AUSTIN,TX,78757-7587,"(512) 323-5252",,,,
TX,TRAVIS,"2020-148631 BP","Single Family Homes",9/28/2020,,271800,4767,"7301 VICENZA DR",AUSTIN,TX,78739,,,CONTRACTOR,,,,,,,,,,,"LENNAR HOMES",,,,,"LENNAR HOMES","13620 FM 620 RD 150",AUSTIN,TX,78717,"(512) 506-4000",http://www.lennar.com/,,,
TX,TRAVIS,"2020-145763 BP","Single Family Homes",9/23/2020,,284625,2277,"6320 ANDES PEAK TRL",AUSTIN,TX,78747,"VISTAS OF AUSTIN",20,CONTRACTOR,,,,,,,,,,,"PACESETTER HOMES ",,,,,"PACESETTER HOMES ","7940 SHOAL CREEK BLVD STE 200",AUSTIN,TX,78757-7587,"(512) 323-5252",,,,
TX,TRAVIS,"2020-146963 BP","Single Family Homes",9/25/2020,,284625,2277,"6412 ANDES PEAK TRL",AUSTIN,TX,78747,"VISTAS OF AUSTIN",16,CONTRACTOR,,,,,,,,,,,"PACESETTER HOMES ",,,,,"PACESETTER HOMES ","7940 SHOAL CREEK BLVD STE 200",AUSTIN,TX,78757-7587,"(512) 323-5252",,,,
TX,TRAVIS,"2020-146965 BP","Single Family Homes",9/25/2020,,290000,3296,"709 FALKLAND TRCE",AUSTIN,TX,78660,CUNNINGHAM,,CONTRACTOR,,,,,,,,,,,"BLACKBURN HOMES",,,,,"BLACKBURN HOMES","3750 E PALM VALLEY BLVD","ROUND ROCK",TX,78665-3312,"(512) 341-9212",https://www.blackburncommunities.com,,,
TX,TRAVIS,"2020-147898 BP","Single Family Homes",9/28/2020,,318500,2548,"10507 SENTINEL DR",AUSTIN,TX,78747,"VISTAS OF AUSTIN",11,CONTRACTOR,,,,,,,,,,,"PACESETTER HOMES ",,,,,"PACESETTER HOMES ","7940 SHOAL CREEK BLVD STE 200",AUSTIN,TX,78757-7587,"(512) 323-5252",,,,
TX,TRAVIS,"2020-145682 BP","Single Family Homes",9/23/2020,,325875,2607,"10124 FOREST GROVE DR",AUSTIN,TX,78747,"VISTAS OF AUSTIN",25,CONTRACTOR,,,,,,,,,,,"PACESETTER HOMES ",,,,,"PACESETTER HOMES ","7940 SHOAL CREEK BLVD STE 200",AUSTIN,TX,78757-7587,"(512) 323-5252",,,,
TX,TRAVIS,"2020-146262 BP","Single Family Homes",9/24/2020,,325875,2607,"10312 FOREST GROVE DR",AUSTIN,TX,78747,"VISTAS OF AUSTIN",56,CONTRACTOR,,,,,,,,,,,"PACESETTER HOMES ",,,,,"PACESETTER HOMES ","7940 SHOAL CREEK BLVD STE 200",AUSTIN,TX,78757-7587,"(512) 323-5252",,,,
TX,TRAVIS,"2020-145327 BP","Single Family Homes",9/23/2020,,349250,2794,"10501 SENTINEL DR",AUSTIN,TX,78747,"VISTAS OF AUSTIN",8,CONTRACTOR,,,,,,,,,,,"PACESETTER HOMES ",,,,,"PACESETTER HOMES ","7940 SHOAL CREEK BLVD STE 200",AUSTIN,TX,78757-7587,"(512) 323-5252",,,,
TX,TRAVIS,"2020-145749 BP","Single Family Homes",9/23/2020,,349250,2794,"10409 SENTINEL DR",AUSTIN,TX,78747,"VISTAS OF AUSTIN",5,CONTRACTOR,,,,,,,,,,,"PACESETTER HOMES ",,,,,"PACESETTER HOMES ","7940 SHOAL CREEK BLVD STE 200",AUSTIN,TX,78757-7587,"(512) 323-5252",,,,
TX,TRAVIS,"2020-147897 BP","Single Family Homes",9/28/2020,,357125,2857,"6228 MARY LEWIS DR",AUSTIN,TX,78747,"VISTAS OF AUSTIN",20,CONTRACTOR,,,,,,,,,,,"PACESETTER HOMES ",,,,,"PACESETTER HOMES ","7940 SHOAL CREEK BLVD STE 200",AUSTIN,TX,78757-7587,"(512) 323-5252",,,,
TX,TRAVIS,"2020-146955 BP","Single Family Homes",9/25/2020,,358250,2871,"6309 ANDES PEAK TRL",AUSTIN,TX,78747,"VISTAS OF AUSTIN",3,CONTRACTOR,,,,,,,,,,,"PACESETTER HOMES ",,,,,"PACESETTER HOMES ","7940 SHOAL CREEK BLVD STE 200",AUSTIN,TX,78757-7587,"(512) 323-5252",,,,
TX,TRAVIS,"2020-123491 BP","Single Family Homes",9/28/2020,,500000,2505,"4427 BANISTER LN",AUSTIN,TX,78745,"BANISTER ACRES",8,CONTRACTOR,,,,,,,,,,,"DAN BYLER",,,,,"DAN BYLER","6903 SHOAL CREEK BLVD ",AUSTIN,TX,78757,"(512) 401-7626",,,,
TX,TRAVIS,"2020-147949 BP","Single Family Homes",9/28/2020,,1000000,6776,"3406 TAYLORS DR",AUSTIN,TX,78703,"BROWN HERMAN",14,CONTRACTOR,,,,,,,,,,,"NALLE CUSTOM HOMES",,,,,"NALLE CUSTOM HOMES","105 APPLEWOOD DR","CEDAR CREEK",TX,78612-3441,"(512) 947-8972",http://www.nallecustomhomes.com/,,,
TX,WILLIAMSON,2020-64639,"Single Family Homes",8/17/2020,,185990,2148,"108 YORKTOWN ST",GEORGETOWN,TX,78626,,,CONTRACTOR,,,,,,,,,,,"PULTE HOMES",,,,,"PULTE HOMES","9401 AMBERGLEN BLVD STE I-150",AUSTIN,TX,78729-1154,"(512) 561-4344",,,,
TX,WILLIAMSON,2020-64640,"Single Family Homes",8/28/2020,,1365600,7976,"220 MARAVILLA BLUFF LN",GEORGETOWN,TX,78626,,,CONTRACTOR,,,,,,,,,,,"ASHBY SIGNATURE HOMES",,,,,"ASHBY SIGNATURE HOMES","5411 WILLIAMS DR STE 300",GEORGETOWN,TX,78633-5236,"(512) 943-9237",https://www.ashbysignature.com,,,contact@ashbysignature.com
TX,WILLIAMSON,2020-64643,"Single Family Homes",8/24/2020,,250000,3138,"1105 WOLF HOLLOW DR",GEORGETOWN,TX,78626,,,CONTRACTOR,,,,,,,,,,,"PERRY HOMES",,,,,"PERRY HOMES","6112 LLANO ST",AUSTIN,TX,78702,"(512) 810-8050",,,,
TX,WILLIAMSON,2020-64671,"Single Family Homes",8/14/2020,,177160,2060,"361 TORDESILLAS DR",GEORGETOWN,TX,78626,,,CONTRACTOR,,,,,,,,,,,"KB HOME",,,,,"KB HOME","10800 PECAN PARK BLVD STE 200",AUSTIN,TX,78750-1249,"(512) 651-8100",,,,
TX,WILLIAMSON,2020-64697,"Single Family Homes",8/16/2020,,436080,3634,"105 STONEWOOD LN",GEORGETOWN,TX,78626,,,CONTRACTOR,,,,,,,,,,,"MERITAGE HOMES",,,,,"MERITAGE HOMES","8920 BUSINESS PARK DR STE 250",AUSTIN,TX,78759-7622,"(512) 610-4800",,,,
TX,WILLIAMSON,2020-64698,"Single Family Homes",8/14/2020,,289224,2472,"525 WINDOM WAY",GEORGETOWN,TX,78626,,,CONTRACTOR,,,,,,,,,,,"ASHTON WOODS HOMES",,,,,"ASHTON WOODS HOMES","4201 W PARMER LN STE A150",AUSTIN,TX,78727-4118,"(512) 610-7000",,,,
TX,WILLIAMSON,2020-64704,"Single Family Homes",8/13/2020,,425290,3138,"2205 PRAIRIE OAKS DR",GEORGETOWN,TX,78626,,,CONTRACTOR,,,,,,,,,,,"CHESMAR HOMES",,,,,"CHESMAR HOMES","2900 N QUINLAN PARK RD",AUSTIN,TX,78732-6083,"(512) 233-9016",http://chesmar.com,,,
TX,WILLIAMSON,2020-64732,"Single Family Homes",8/11/2020,,385440,3212,"1112 HIGHWATER DR",GEORGETOWN,TX,78626,,,CONTRACTOR,,,,,,,,,,,"MERITAGE HOMES",,,,,"MERITAGE HOMES","8920 BUSINESS PARK DR STE 250",AUSTIN,TX,78759-7622,"(512) 610-4800",,,,
TX,WILLIAMSON,2020-64744,"Single Family Homes",8/11/2020,,452040,3767,"201 STONEWOOD LN",GEORGETOWN,TX,78626,,,CONTRACTOR,,,,,,,,,,,"MERITAGE HOMES",,,,,"MERITAGE HOMES","8920 BUSINESS PARK DR STE 250",AUSTIN,TX,78759-7622,"(512) 610-4800",,,,
TX,WILLIAMSON,2020-64747,"Single Family Homes",8/25/2020,,383643,3279,"521 WINDOM WAY",GEORGETOWN,TX,78626,,,CONTRACTOR,,,,,,,,,,,"ASHTON WOODS HOMES",,,,,"ASHTON WOODS HOMES","4201 W PARMER LN STE A150",AUSTIN,TX,78727-4118,"(512) 610-7000",,,,
TX,WILLIAMSON,2020-64817,"Single Family Homes",8/14/2020,,217990,3163,"2204 CLIFFBRAKE WAY",GEORGETOWN,TX,78626,,,CONTRACTOR,,,,,,,,,,,"PULTE HOMES",,,,,"PULTE HOMES","9401 AMBERGLEN BLVD STE I-150",AUSTIN,TX,78729-1154,"(512) 561-4344",,,,
TX,WILLIAMSON,2020-64826,"Single Family Homes",8/14/2020,,275990,2968,"605 DOUBLE LOOP ST",GEORGETOWN,TX,78626,,,CONTRACTOR,,,,,,,,,,,"PULTE HOMES",,,,,"PULTE HOMES","9401 AMBERGLEN BLVD STE I-150",AUSTIN,TX,78729-1154,"(512) 561-4344",,,,
TX,WILLIAMSON,2020-64841,"Single Family Homes",8/26/2020,,333351,2279,"105 EAGLE PASS TRL",GEORGETOWN,TX,78626,,,CONTRACTOR,,,,,,,,,,,"DAVID WEEKLEY HOMES",,,,,"DAVID WEEKLEY HOMES","9000 WATERFORD CENTRE BLVD",AUSTIN,TX,78758-7662,"(800) 390-6774",http://www.davidweekleyhomes.com/,,,
TX,WILLIAMSON,2020-64903,"Single Family Homes",8/17/2020,,190990,2858,"609 KITTY HAWK RD",GEORGETOWN,TX,78626,,,CONTRACTOR,,,,,,,,,,,"PULTE HOMES",,,,,"PULTE HOMES","9401 AMBERGLEN BLVD STE I-150",AUSTIN,TX,78729-1154,"(512) 561-4344",,,,
TX,WILLIAMSON,2020-64918,"Single Family Homes",8/17/2020,,337990,3396,"111 SPLIT DIAMOND CV",GEORGETOWN,TX,78626,,,CONTRACTOR,,,,,,,,,,,"PULTE HOMES",,,,,"PULTE HOMES","9401 AMBERGLEN BLVD STE I-150",AUSTIN,TX,78729-1154,"(512) 561-4344",,,,
TX,WILLIAMSON,2020-64919,"Single Family Homes",8/24/2020,,228900,3270,"1225 WHIPPLETREE TRL",GEORGETOWN,TX,78626,,,CONTRACTOR,,,,,,,,,,,"CASTLEROCK COMMUNITIES",,,,,"CASTLEROCK COMMUNITIES","7670 WOODWAY DR STE 300",HOUSTON,TX,77063-1520,"(713) 600-7000",http://c-rock.com,"(713) 600-0000",,
TX,WILLIAMSON,2020-64921,"Single Family Homes",8/24/2020,,179340,2562,"1124 WHIPPLETREE TRL",GEORGETOWN,TX,78626,,,CONTRACTOR,,,,,,,,,,,"CASTLEROCK COMMUNITIES",,,,,"CASTLEROCK COMMUNITIES","7670 WOODWAY DR STE 300",HOUSTON,TX,77063-1520,"(713) 600-7000",http://c-rock.com,"(713) 600-0000",,
TX,WILLIAMSON,2020-64925,"Single Family Homes",8/19/2020,,185990,1971,"105 HARES FOOT CV",GEORGETOWN,TX,78626,,,CONTRACTOR,,,,,,,,,,,"PULTE HOMES",,,,,"PULTE HOMES","9401 AMBERGLEN BLVD STE I-150",AUSTIN,TX,78729-1154,"(512) 561-4344",,,,
TX,WILLIAMSON,2020-64934,"Single Family Homes",8/18/2020,,168818,1963,"116 BREMEN ST",GEORGETOWN,TX,78626,,,CONTRACTOR,,,,,,,,,,,"DR HORTON",,,,,"DR HORTON","10700 PECAN PARK BLVD STE 400",AUSTIN,TX,78750-1227,"(512) 345-4663",,,,
TX,WILLIAMSON,2020-64936,"Single Family Homes",8/18/2020,,208034,2419,"500 SHINER LN",GEORGETOWN,TX,78626,,,CONTRACTOR,,,,,,,,,,,"DR HORTON",,,,,"DR HORTON","10700 PECAN PARK BLVD STE 400",AUSTIN,TX,78750-1227,"(512) 345-4663",,,,
TX,WILLIAMSON,2020-64949,"Single Family Homes",8/18/2020,,230136,2676,"1609 FAIRHAVEN GTWY",GEORGETOWN,TX,78626,,,CONTRACTOR,,,,,,,,,,,"DR HORTON",,,,,"DR HORTON","10700 PECAN PARK BLVD STE 400",AUSTIN,TX,78750-1227,"(512) 345-4663",,,,
TX,WILLIAMSON,2020-64954,"Single Family Homes",8/18/2020,,241316,2806,"1620 FAIRHAVEN GTWY",GEORGETOWN,TX,78626,,,CONTRACTOR,,,,,,,,,,,"DR HORTON",,,,,"DR HORTON","10700 PECAN PARK BLVD STE 400",AUSTIN,TX,78750-1227,"(512) 345-4663",,,,
TX,WILLIAMSON,2020-64956,"Single Family Homes",8/19/2020,,268990,3487,"601 DOUBLE LOOP ST",GEORGETOWN,TX,78626,,,CONTRACTOR,,,,,,,,,,,"PULTE HOMES",,,,,"PULTE HOMES","9401 AMBERGLEN BLVD STE I-150",AUSTIN,TX,78729-1154,"(512) 561-4344",,,,
TX,WILLIAMSON,2020-64959,"Single Family Homes",8/19/2020,,190990,2858,"103 YORKTOWN ST",GEORGETOWN,TX,78626,,,CONTRACTOR,,,,,,,,,,,"PULTE HOMES",,,,,"PULTE HOMES","9401 AMBERGLEN BLVD STE I-150",AUSTIN,TX,78729-1154,"(512) 561-4344",,,,
TX,WILLIAMSON,2020-64962,"Single Family Homes",8/18/2020,,366421,2279,"125 MOUNTAIN LION RD",GEORGETOWN,TX,78626,,,CONTRACTOR,,,,,,,,,,,"DAVID WEEKLEY HOMES",,,,,"DAVID WEEKLEY HOMES","9000 WATERFORD CENTRE BLVD",AUSTIN,TX,78758-7662,"(800) 390-6774",http://www.davidweekleyhomes.com/,,,
TX,WILLIAMSON,2020-64976,"Single Family Homes",8/24/2020,,274482,,"513 WINDOM WAY",GEORGETOWN,TX,78626,,,CONTRACTOR,,,,,,,,,,,"ASHTON AUSTIN RESIDENTIAL",,,,,"ASHTON AUSTIN RESIDENTIAL","10721 RESEARCH BLVD STE B-210",AUSTIN,TX,78759-5694,"(512) 610-7000",,,,
TX,WILLIAMSON,2020-64977,"Single Family Homes",8/18/2020,,237704,2764,"1613 FAIRHAVEN GTWY",GEORGETOWN,TX,78626,,,CONTRACTOR,,,,,,,,,,,"DR HORTON",,,,,"DR HORTON","10700 PECAN PARK BLVD STE 400",AUSTIN,TX,78750-1227,"(512) 345-4663",,,,
TX,WILLIAMSON,2020-64979,"Single Family Homes",8/18/2020,,241316,2806,"601 SHINER LN",GEORGETOWN,TX,78626,,,CONTRACTOR,,,,,,,,,,,"DR HORTON",,,,,"DR HORTON","10700 PECAN PARK BLVD STE 400",AUSTIN,TX,78750-1227,"(512) 345-4663",,,,
TX,WILLIAMSON,2020-64981,"Single Family Homes",8/18/2020,,230136,2676,"1604 FAIRHAVEN GTWY",GEORGETOWN,TX,78626,,,CONTRACTOR,,,,,,,,,,,"DR HORTON",,,,,"DR HORTON","10700 PECAN PARK BLVD STE 400",AUSTIN,TX,78750,"(512) 533-1445",,,,
TX,WILLIAMSON,2020-64982,"Single Family Homes",8/18/2020,,460790,2814,"2201 PRAIRIE OAKS DR",GEORGETOWN,TX,78626,,,CONTRACTOR,,,,,,,,,,,"CHESMAR HOMES",,,,,"CHESMAR HOMES","2900 N QUINLAN PARK RD",AUSTIN,TX,78732-6083,"(512) 233-9016",http://chesmar.com,,,
TX,WILLIAMSON,2020-64986,"Single Family Homes",8/18/2020,,241316,2806,"1608 FAIRHAVEN GTWY",GEORGETOWN,TX,78626,,,CONTRACTOR,,,,,,,,,,,"DR HORTON",,,,,"DR HORTON","10700 PECAN PARK BLVD STE 400",AUSTIN,TX,78750-1227,"(512) 345-4663",,,,
TX,WILLIAMSON,2020-64987,"Single Family Homes",8/18/2020,,268836,3126,"189 STRUSS DR",GEORGETOWN,TX,78626,,,CONTRACTOR,,,,,,,,,,,"DR HORTON",,,,,"DR HORTON","10700 PECAN PARK BLVD STE 400",AUSTIN,TX,78750-1227,"(512) 345-4663",,,,
TX,WILLIAMSON,2020-65025,"Single Family Homes",8/31/2020,,356975,2496,"212 ARROWHEAD MOUND RD",GEORGETOWN,TX,78626,,,CONTRACTOR,,,,,,,,,,,"HIGHLAND HOMES",,,,,"HIGHLAND HOMES","4201 W PARMER LN STE B180",AUSTIN,TX,78727-4110,"(512) 834-8429",,,,
TX,WILLIAMSON,2020-65035,"Single Family Homes",8/26/2020,,317535,2956,"1013 PADDOCK LN",GEORGETOWN,TX,78626,"SADDLE CREEK",,CONTRACTOR,,,,,,,,,,,"CHESMAR HOMES",,,,,"CHESMAR HOMES","2900 N QUINLAN PARK RD",AUSTIN,TX,78732-6083,"(512) 233-9016",http://chesmar.com,,,
TX,WILLIAMSON,2020-65037,"Single Family Homes",8/26/2020,,324310,2470,"809 BRIDLE CREEK DR",GEORGETOWN,TX,78626,,,CONTRACTOR,,,,,,,,,,,"CHESMAR HOMES",,,,,"CHESMAR HOMES","2900 N QUINLAN PARK RD",AUSTIN,TX,78732-6083,"(512) 233-9016",http://chesmar.com,,,
TX,WILLIAMSON,2020-65072,"Single Family Homes",8/28/2020,,437697,3741,"517 WINDOM WAY",GEORGETOWN,TX,78626,,,CONTRACTOR,,,,,,,,,,,"ASHTON WOODS HOMES",,,,,"ASHTON WOODS HOMES","4201 W PARMER LN STE A150",AUSTIN,TX,78727-4118,"(512) 610-7000",,,,
TX,WILLIAMSON,2020-65099,"Single Family Homes",8/26/2020,,260280,2892,"113 PERUVIAN LN",GEORGETOWN,TX,78626,,,CONTRACTOR,,,,,,,,,,,"CENTURY COMMUNITIES",,,,,"CENTURY COMMUNITIES","6500 RIVER PLACE BLVD STE 200",AUSTIN,TX,78730-1156,"(512) 271-3825",https://www.centurycommunities.com/,,,
TX,WILLIAMSON,2020-65101,"Single Family Homes",8/31/2020,,269990,2730,"800 HANGING STAR LN",GEORGETOWN,TX,78626,,,CONTRACTOR,,,,,,,,,,,"PULTE HOMES",,,,,"PULTE HOMES","9401 AMBERGLEN BLVD STE I-150",AUSTIN,TX,78729-1154,"(512) 561-4344",,,,
TX,WILLIAMSON,2020-65102,"Single Family Homes",8/31/2020,,203990,2589,"2136 CLIFFBRAKE WAY",GEORGETOWN,TX,78626,,,CONTRACTOR,,,,,,,,,,,"PULTE HOMES",,,,,"PULTE HOMES","9401 AMBERGLEN BLVD STE I-150",AUSTIN,TX,78729-1154,"(512) 561-4344",,,,
TX,WILLIAMSON,2020-65140,"Single Family Homes",8/25/2020,,279586,3251,"1605 FAIRHAVEN GTWY",GEORGETOWN,TX,78626,,,CONTRACTOR,,,,,,,,,,,"DR HORTON",,,,,"DR HORTON","10700 PECAN PARK BLVD STE 400",AUSTIN,TX,78750-1227,"(512) 345-4663",,,,
TX,WILLIAMSON,2020-65171,"Single Family Homes",8/25/2020,,124475,1474,"504 GABRIELS BLUFF DR",GEORGETOWN,TX,78626,,,CONTRACTOR,,,,,,,,,,,"LENNAR HOMES",,,,,"LENNAR HOMES","13620 FM 620 RD 150",AUSTIN,TX,78717,"(512) 506-4000",http://www.lennar.com/,,,
TX,WILLIAMSON,2020-65172,"Single Family Homes",8/31/2020,,137020,1667,"428 GABRIELS BLUFF DR",GEORGETOWN,TX,78626,,,CONTRACTOR,,,,,,,,,,,"LENNAR HOMES",,,,,"LENNAR HOMES","13620 FM 620 RD 150",AUSTIN,TX,78717,"(512) 506-4000",http://www.lennar.com/,,,
TX,WILLIAMSON,2020-65173,"Single Family Homes",8/27/2020,,150800,2221,"300 ARABIAN COLT DR",GEORGETOWN,TX,78626,,,CONTRACTOR,,,,,,,,,,,"PACESETTER HOMES ",,,,,"PACESETTER HOMES ","7940 SHOAL CREEK BLVD STE 200",AUSTIN,TX,78757-7587,"(512) 323-5252",,,,
TX,WILLIAMSON,2020-65200,"Single Family Homes",8/27/2020,,135000,1764,"228 ARABIAN COLT DR",GEORGETOWN,TX,78626,,,CONTRACTOR,,,,,,,,,,,"PACESETTER HOMES ",,,,,"PACESETTER HOMES ","7940 SHOAL CREEK BLVD STE 200",AUSTIN,TX,78757-7587,"(512) 323-5252",,,,
TX,WILLIAMSON,2020-65206,"Single Family Homes",8/27/2020,,470160,3918,"1109 HIGHWATER DR",GEORGETOWN,TX,78626,,,CONTRACTOR,,,,,,,,,,,"MERITAGE HOMES",,,,,"MERITAGE HOMES","8920 BUSINESS PARK DR STE 250",AUSTIN,TX,78759-7622,"(512) 610-4800",,,,
TX,WILLIAMSON,2020-65207,"Single Family Homes",8/26/2020,,362280,3019,"1113 HIGHWATER DR",GEORGETOWN,TX,78626,,,CONTRACTOR,,,,,,,,,,,"MERITAGE HOMES",,,,,"MERITAGE HOMES","8920 BUSINESS PARK DR STE 250",AUSTIN,TX,78759-7622,"(512) 610-4800",,,,
TX,WILLIAMSON,2020-65212,"Single Family Homes",8/26/2020,,250955,2079,"601 BRIDLE CREEK DR",GEORGETOWN,TX,78626,,,CONTRACTOR,,,,,,,,,,,"CHESMAR HOMES",,,,,"CHESMAR HOMES","2900 N QUINLAN PARK RD",AUSTIN,TX,78732-6083,"(512) 233-9016",http://chesmar.com,,,
TX,WILLIAMSON,2020-65214,"Single Family Homes",8/25/2020,,374358,4353,"105 BARTON RUN DR",GEORGETOWN,TX,78626,,,CONTRACTOR,,,,,,,,,,,"GEHAN HOMES",,,,,"GEHAN HOMES","3815 S CAPITAL OF TEXAS HWY STE 275",AUSTIN,TX,78704-6652,"(512) 330-9366",http://www.gehanhomes.com,,"JANET PHILLIPS",
TX,WILLIAMSON,2020-65349,"Single Family Homes",8/26/2020,,333743,2374,"104 IVA JUNE LN",GEORGETOWN,TX,78626,,,CONTRACTOR,,,,,,,,,,,"DAVID WEEKLEY HOMES",,,,,"DAVID WEEKLEY HOMES","9000 WATERFORD CENTRE BLVD",AUSTIN,TX,78758-7662,"(800) 390-6774",http://www.davidweekleyhomes.com/,,,
TX,WILLIAMSON,2020-65354,"Single Family Homes",8/25/2020,,417090,2773,"2301 PRAIRIE OAKS DR",GEORGETOWN,TX,78626,,,CONTRACTOR,,,,,,,,,,,"CHESMAR HOMES",,,,,"CHESMAR HOMES","2900 N QUINLAN PARK RD",AUSTIN,TX,78732-6083,"(512) 233-9016",http://chesmar.com,,,
TX,WILLIAMSON,2020-65355,"Single Family Homes",8/26/2020,,108290,1217,"508 GABRIELS BLUFF DR",GEORGETOWN,TX,78626,,,CONTRACTOR,,,,,,,,,,,"LENNAR HOMES",,,,,"LENNAR HOMES","13620 FM 620 RD 150",AUSTIN,TX,78717,"(512) 506-4000",http://www.lennar.com/,,,
TX,WILLIAMSON,2020-65356,"Single Family Homes",8/26/2020,,137020,1667,"512 GABRIELS BLUFF DR",GEORGETOWN,TX,78626,,,CONTRACTOR,,,,,,,,,,,"LENNAR HOMES",,,,,"LENNAR HOMES","13620 FM 620 RD 150",AUSTIN,TX,78717,"(512) 506-4000",http://www.lennar.com/,,,
TX,WILLIAMSON,2020-65357,"Single Family Homes",8/24/2020,,255990,2547,"806 HANGING STAR LN",GEORGETOWN,TX,78626,,,CONTRACTOR,,,,,,,,,,,"PULTE HOMES",,,,,"PULTE HOMES","9401 AMBERGLEN BLVD STE I-150",AUSTIN,TX,78729-1154,"(512) 561-4344",,,,
TX,WILLIAMSON,2020-65358,"Single Family Homes",8/24/2020,,175990,2009,"111 YORKTOWN ST",GEORGETOWN,TX,78626,,,CONTRACTOR,,,,,,,,,,,"PULTE HOMES",,,,,"PULTE HOMES","9401 AMBERGLEN BLVD STE I-150",AUSTIN,TX,78729-1154,"(512) 561-4344",,,,
TX,WILLIAMSON,2020-65359,"Single Family Homes",8/24/2020,,157990,2099,"802 HANGING STAR LN",GEORGETOWN,TX,78626,,,CONTRACTOR,,,,,,,,,,,"PULTE HOMES",,,,,"PULTE HOMES","9401 AMBERGLEN BLVD STE I-150",AUSTIN,TX,78729-1154,"(512) 561-4344",,,,
TX,WILLIAMSON,2020-65360,"Single Family Homes",8/24/2020,,175990,2013,"714 KITTY HAWK RD",GEORGETOWN,TX,78626,,,CONTRACTOR,,,,,,,,,,,"PULTE HOMES",,,,,"PULTE HOMES","9401 AMBERGLEN BLVD STE I-150",AUSTIN,TX,78729-1154,"(512) 561-4344",,,,
TX,WILLIAMSON,2020-65362,"Single Family Homes",8/24/2020,,195990,2212,"804 HANGING STAR LN",GEORGETOWN,TX,78626,,,CONTRACTOR,,,,,,,,,,,"PULTE HOMES",,,,,"PULTE HOMES","9401 AMBERGLEN BLVD STE I-150",AUSTIN,TX,78729-1154,"(512) 561-4344",,,,
TX,WILLIAMSON,2020-65393,"Single Family Homes",8/31/2020,,205990,2335,"114 YORKTOWN ST",GEORGETOWN,TX,78626,,,CONTRACTOR,,,,,,,,,,,"PULTE HOMES",,,,,"PULTE HOMES","9401 AMBERGLEN BLVD STE I-150",AUSTIN,TX,78729-1154,"(512) 561-4344",,,,
TX,WILLIAMSON,2020-65395,"Single Family Homes",8/31/2020,,205990,2251,"112 YORKTOWN ST",GEORGETOWN,TX,78626,,,CONTRACTOR,,,,,,,,,,,"PULTE HOMES",,,,,"PULTE HOMES","9401 AMBERGLEN BLVD STE I-150",AUSTIN,TX,78729-1154,"(512) 561-4344",,,,
TX,WILLIAMSON,2020-65410,"Single Family Homes",8/31/2020,,274990,2923,"218 SPANISH STAR ST",GEORGETOWN,TX,78626,,,CONTRACTOR,,,,,,,,,,,"PULTE HOMES",,,,,"PULTE HOMES","9401 AMBERGLEN BLVD STE I-150",AUSTIN,TX,78729-1154,"(512) 561-4344",,,,
TX,WILLIAMSON,2020-65411,"Single Family Homes",8/31/2020,,191990,2256,"718 KITTY HAWK RD",GEORGETOWN,TX,78626,,,CONTRACTOR,,,,,,,,,,,"PULTE HOMES",,,,,"PULTE HOMES","9401 AMBERGLEN BLVD STE I-150",AUSTIN,TX,78729-1154,"(512) 561-4344",,,,
TX,WILLIAMSON,2020-65412,"Single Family Homes",8/31/2020,,280990,2914,"1008 HANGING STAR LN",GEORGETOWN,TX,78626,,,CONTRACTOR,,,,,,,,,,,"PULTE HOMES",,,,,"PULTE HOMES","9401 AMBERGLEN BLVD STE I-150",AUSTIN,TX,78729-1154,"(512) 561-4344",,,,
TX,WILLIAMSON,2020-65413,"Single Family Homes",8/31/2020,,219990,2610,"109 HARES FOOT CV",GEORGETOWN,TX,78626,,,CONTRACTOR,,,,,,,,,,,"PULTE HOMES",,,,,"PULTE HOMES","9401 AMBERGLEN BLVD STE I-150",AUSTIN,TX,78729-1154,"(512) 561-4344",,,,
TX,WILLIAMSON,2020-65432,"Single Family Homes",8/31/2020,,276990,3173,"805 HANGING STAR LN",GEORGETOWN,TX,78626,,,CONTRACTOR,,,,,,,,,,,"PULTE HOMES",,,,,"PULTE HOMES","9401 AMBERGLEN BLVD STE I-150",AUSTIN,TX,78729-1154,"(512) 561-4344",,,,
TX,WILLIAMSON,2020-65434,"Single Family Homes",8/31/2020,,214990,3019,"2120 CLIFFBRAKE WAY",GEORGETOWN,TX,78626,,,CONTRACTOR,,,,,,,,,,,"PULTE HOMES",,,,,"PULTE HOMES","9401 AMBERGLEN BLVD STE I-150",AUSTIN,TX,78729-1154,"(512) 561-4344",,,,
TX,WILLIAMSON,2020-65444,"Single Family Homes",8/28/2020,,388320,3236,"4216 PROMONTORY POINT TRL",GEORGETOWN,TX,78626,,,CONTRACTOR,,,,,,,,,,,"MERITAGE HOMES",,,,,"MERITAGE HOMES","8920 BUSINESS PARK DR STE 250",AUSTIN,TX,78759-7622,"(512) 610-4800",,,,
TX,WILLIAMSON,2020-65446,"Single Family Homes",8/28/2020,,334200,2785,"112 BIRKSHIRE DR",GEORGETOWN,TX,78626,,,CONTRACTOR,,,,,,,,,,,"MERITAGE HOMES",,,,,"MERITAGE HOMES","8920 BUSINESS PARK DR STE 250",AUSTIN,TX,78759-7622,"(512) 610-4800",,,,
TX,WILLIAMSON,2020-65449,"Single Family Homes",8/28/2020,,430440,3587,"4000 PROMONTORY POINT TRL",GEORGETOWN,TX,78626,,,CONTRACTOR,,,,,,,,,,,"MERITAGE HOMES",,,,,"MERITAGE HOMES","8920 BUSINESS PARK DR STE 250",AUSTIN,TX,78759-7622,"(512) 610-4800",,,,
TX,WILLIAMSON,2020-65450,"Single Family Homes",8/31/2020,,195990,2030,"712 KITTY HAWK RD",GEORGETOWN,TX,78626,,,CONTRACTOR,,,,,,,,,,,"PULTE HOMES",,,,,"PULTE HOMES","9401 AMBERGLEN BLVD STE I-150",AUSTIN,TX,78729-1154,"(512) 561-4344",,,,
TX,WILLIAMSON,2020-65452,"Single Family Homes",8/31/2020,,195990,2204,"104 YORKTOWN ST",GEORGETOWN,TX,78626,,,CONTRACTOR,,,,,,,,,,,"PULTE HOMES",,,,,"PULTE HOMES","9401 AMBERGLEN BLVD STE I-150",AUSTIN,TX,78729-1154,"(512) 561-4344",,,,
TX,WILLIAMSON,2020-65457,"Single Family Homes",8/28/2020,,287640,3196,"125 PERUVIAN LN",GEORGETOWN,TX,78626,,,CONTRACTOR,,,,,,,,,,,"CENTURY COMMUNITIES",,,,,"CENTURY COMMUNITIES","6500 RIVER PLACE BLVD STE 200",AUSTIN,TX,78730-1156,"(512) 271-3825",https://www.centurycommunities.com/,,,
TX,WILLIAMSON,2020-65478,"Single Family Homes",8/31/2020,,274990,2976,"216 SPANISH STAR ST",GEORGETOWN,TX,78626,,,CONTRACTOR,,,,,,,,,,,"PULTE HOMES",,,,,"PULTE HOMES","9401 AMBERGLEN BLVD STE I-150",AUSTIN,TX,78729-1154,"(512) 561-4344",,,,
TX,WILLIAMSON,2020-65483,"Single Family Homes",8/28/2020,,286470,3183,"1529 WHIPPLETREE TRL",GEORGETOWN,TX,78626,,,CONTRACTOR,,,,,,,,,,,"CENTURY COMMUNITIES",,,,,"CENTURY COMMUNITIES","6500 RIVER PLACE BLVD STE 200",AUSTIN,TX,78730-1156,"(512) 271-3825",https://www.centurycommunities.com/,,,
TX,WILLIAMSON,2020-65491,"Single Family Homes",8/28/2020,,186660,2074,"1000 KIMBLEWICK DR",GEORGETOWN,TX,78626,,,CONTRACTOR,,,,,,,,,,,"CENTURY COMMUNITIES",,,,,"CENTURY COMMUNITIES","6500 RIVER PLACE BLVD STE 200",AUSTIN,TX,78730-1156,"(512) 271-3825",https://www.centurycommunities.com/,,,
TX,WILLIAMSON,2020-65492,"Single Family Homes",8/28/2020,,286250,2522,"1037 PADDOCK LN",GEORGETOWN,TX,78626,,,CONTRACTOR,,,,,,,,,,,"CHESMAR HOMES",,,,,"CHESMAR HOMES","2900 N QUINLAN PARK RD",AUSTIN,TX,78732-6083,"(512) 233-9016",http://chesmar.com,,,
TX,WILLIAMSON,2020-65493,"Single Family Homes",8/27/2020,,215000,2866,"308 ARABIAN COLT DR",GEORGETOWN,TX,78626,,,CONTRACTOR,,,,,,,,,,,"PACESETTER HOMES ",,,,,"PACESETTER HOMES ","7940 SHOAL CREEK BLVD STE 200",AUSTIN,TX,78757-7587,"(512) 323-5252",,,,
TX,WILLIAMSON,2020-65495,"Single Family Homes",8/27/2020,,158000,1911,"253 ARABIAN COLT DR",GEORGETOWN,TX,78626,,,CONTRACTOR,,,,,,,,,,,"PACESETTER HOMES ",,,,,"PACESETTER HOMES ","7940 SHOAL CREEK BLVD STE 200",AUSTIN,TX,78757-7587,"(512) 323-5252",,,,
TX,WILLIAMSON,2020-65498,"Single Family Homes",8/31/2020,,287175,2522,"609 BRIDLE CREEK DR",GEORGETOWN,TX,78626,,,CONTRACTOR,,,,,,,,,,,"CHESMAR HOMES",,,,,"CHESMAR HOMES","2900 N QUINLAN PARK RD",AUSTIN,TX,78732-6083,"(512) 233-9016",http://chesmar.com,,,
TX,WILLIAMSON,2020-65504,"Single Family Homes",8/31/2020,,219990,2610,"120 HARES FOOT CV",GEORGETOWN,TX,78626,,,CONTRACTOR,,,,,,,,,,,"PULTE HOMES",,,,,"PULTE HOMES","9401 AMBERGLEN BLVD STE I-150",AUSTIN,TX,78729-1154,"(512) 561-4344",,,,
TX,WILLIAMSON,2020-65508,"Single Family Homes",8/31/2020,,219990,3065,"129 HARES FOOT CV",GEORGETOWN,TX,78626,,,CONTRACTOR,,,,,,,,,,,"PULTE HOMES",,,,,"PULTE HOMES","9401 AMBERGLEN BLVD STE I-150",AUSTIN,TX,78729-1154,"(512) 561-4344",,,,
TX,WILLIAMSON,2020-65510,"Single Family Homes",8/31/2020,,431400,3595,"1317 HIGHWATER DR",GEORGETOWN,TX,78626,,,CONTRACTOR,,,,,,,,,,,"MERITAGE HOMES",,,,,"MERITAGE HOMES","8920 BUSINESS PARK DR STE 250",AUSTIN,TX,78759-7622,"(512) 610-4800",,,,
TX,WILLIAMSON,2020-65527,"Single Family Homes",8/31/2020,,470160,3918,"1313 HIGHWATER DR",GEORGETOWN,TX,78626,,,CONTRACTOR,,,,,,,,,,,"MERITAGE HOMES",,,,,"MERITAGE HOMES","8920 BUSINESS PARK DR STE 250",AUSTIN,TX,78759-7622,"(512) 610-4800",,,,
TX,WILLIAMSON,2020-65601,"Single Family Homes",8/28/2020,,262970,2079,"1005 PADDOCK LN",GEORGETOWN,TX,78626,,,CONTRACTOR,,,,,,,,,,,"CHESMAR HOMES",,,,,"CHESMAR HOMES","2900 N QUINLAN PARK RD",AUSTIN,TX,78732-6083,"(512) 233-9016",http://chesmar.com,,,
TX,WILLIAMSON,2020-65603,"Single Family Homes",8/28/2020,,243365,1887,"804 BRIDLE CREEK DR",GEORGETOWN,TX,78626,,,CONTRACTOR,,,,,,,,,,,"CHESMAR HOMES",,,,,"CHESMAR HOMES","2900 N QUINLAN PARK RD",AUSTIN,TX,78732-6083,"(512) 233-9016",http://chesmar.com,,,
TX,WILLIAMSON,2020-65605,"Single Family Homes",8/28/2020,,251190,2123,"808 BRIDLE CREEK DR",GEORGETOWN,TX,78626,,,CONTRACTOR,,,,,,,,,,,"CHESMAR HOMES",,,,,"CHESMAR HOMES","2900 N QUINLAN PARK RD",AUSTIN,TX,78732-6083,"(512) 233-9016",http://chesmar.com,,,
TX,WILLIAMSON,2020-65607,"Single Family Homes",8/28/2020,,235190,1887,"816 BRIDLE CREEK DR",GEORGETOWN,TX,78626,,,CONTRACTOR,,,,,,,,,,,"CHESMAR HOMES",,,,,"CHESMAR HOMES","2900 N QUINLAN PARK RD",AUSTIN,TX,78732-6083,"(512) 233-9016",http://chesmar.com,,,
TX,WILLIAMSON,2020-65609,"Single Family Homes",8/28/2020,,284585,2703,"708 BRIDLE CREEK DR",GEORGETOWN,TX,78626,,,CONTRACTOR,,,,,,,,,,,"CHESMAR HOMES",,,,,"CHESMAR HOMES","2900 N QUINLAN PARK RD",AUSTIN,TX,78732-6083,"(512) 233-9016",http://chesmar.com,,,
TX,WILLIAMSON,2020-65610,"Single Family Homes",8/28/2020,,271090,2405,"712 BRIDLE CREEK DR",GEORGETOWN,TX,78626,,,CONTRACTOR,,,,,,,,,,,"CHESMAR HOMES",,,,,"CHESMAR HOMES","2900 N QUINLAN PARK RD",AUSTIN,TX,78732-6083,"(512) 233-9016",http://chesmar.com,,,
TX,WILLIAMSON,2020-65683,"Single Family Homes",8/28/2020,,422570,2894,"129 HIGH PLAINS DR",GEORGETOWN,TX,78626,,,CONTRACTOR,,,,,,,,,,,"CHESMAR HOMES",,,,,"CHESMAR HOMES","2900 N QUINLAN PARK RD",AUSTIN,TX,78732-6083,"(512) 233-9016",http://chesmar.com,,,
TX,WILLIAMSON,2020-65684,"Single Family Homes",8/31/2020,,350290,2844,"808 KARST CV",GEORGETOWN,TX,78626,,,CONTRACTOR,,,,,,,,,,,"CHESMAR HOMES",,,,,"CHESMAR HOMES","2900 N QUINLAN PARK RD",AUSTIN,TX,78732-6083,"(512) 233-9016",http://chesmar.com,,,
TX,WILLIAMSON,2020-65751,"Single Family Homes",8/27/2020,,265000,3400,"500 WHITE STEPPE WAY",GEORGETOWN,TX,78626,,,CONTRACTOR,,,,,,,,,,,"PACESETTER HOMES ",,,,,"PACESETTER HOMES ","7940 SHOAL CREEK BLVD STE 200",AUSTIN,TX,78757-7587,"(512) 323-5252",,,,
TX,WILLIAMSON,2020-65752,"Single Family Homes",8/27/2020,,280000,3770,"527 WHITE STEPPE WAY",GEORGETOWN,TX,78626,,,CONTRACTOR,,,,,,,,,,,"PACESETTER HOMES ",,,,,"PACESETTER HOMES ","7940 SHOAL CREEK BLVD STE 200",AUSTIN,TX,78757-7587,"(512) 323-5252",,,,
TX,TRAVIS,6086,"Single Family Homes",8/5/2020,,262000,4269,"19520 SERENITY LN","LAGO VISTA",TX,78645,,,CONTRACTOR,,,,,,,,,,,"DREES CUSTOM HOMES",,,,,"DREES CUSTOM HOMES","7300 RANCH ROAD 2222 BLDG 2 STE 250",AUSTIN,TX,78730-3204,"(512) 241-7100",http://www.dreeshomes.com,,,
TX,TRAVIS,6361,"Single Family Homes",8/11/2020,,469731,3987,"7703 DESERT NEEDLE DR","LAGO VISTA",TX,78645,,,CONTRACTOR,,,,,,,,,,,"HIGHLAND HOMES",,,,,"HIGHLAND HOMES","4201 W PARMER LN STE B180",AUSTIN,TX,78727-4110,"(512) 834-8429",,,,
TX,TRAVIS,6470,"Single Family Homes",8/13/2020,,126280,2358,"8913 BAR K RANCH ROAD","LAGO VISTA",TX,78645,,,CONTRACTOR,,,,,,,,,,,"BROHN HOMES",,,,,"BROHN HOMES","6720 VAUGHT RANCH RD STE 200",AUSTIN,TX,78730-2354,"(512) 320-8833",http://brohnhomes.com/,,,
TX,TRAVIS,6439,"Single Family Homes",8/24/2020,,391540,3086,"22305 HIDDEN SAGE CIRCLE","LAGO VISTA",TX,78645,,,CONTRACTOR,,,,,,,,,,,"HIGHLAND HOMES",,,,,"HIGHLAND HOMES","4201 W PARMER LN STE B180",AUSTIN,TX,78727-4110,"(512) 834-8429",,,,
TX,TRAVIS,6472,"Single Family Homes",8/26/2020,,126280,2358,"2204 VICKSBURG COVE","LAGO VISTA",TX,78645,,,CONTRACTOR,,,,,,,,,,,"BROHN HOMES",,,,,"BROHN HOMES","6720 VAUGHT RANCH RD STE 200",AUSTIN,TX,78730-2354,"(512) 320-8833",http://brohnhomes.com/,,,
TX,TRAVIS,2020-5258,"Single Family Homes",8/10/2020,,282029,2381,"14308 MCARTHUR DR",MANOR,TX,78653,SHADOWGLEN,,CONTRACTOR,,,,,,,,,,,"DR HORTON",,,,,"DR HORTON","10700 PECAN PARK BLVD STE 400",AUSTIN,TX,78750-1227,"(512) 345-4663",,,,
TX,TRAVIS,2020-5259,"Single Family Homes",8/10/2020,,358548,3027,"14312 MCARTHUR DR",MANOR,TX,78653,SHADOWGLEN,,CONTRACTOR,,,,,,,,,,,"DR HORTON",,,,,"DR HORTON","10700 PECAN PARK BLVD STE 400",AUSTIN,TX,78750-1227,"(512) 345-4663",,,,
TX,TRAVIS,2020-5260,"Single Family Homes",8/11/2020,,371222,3134,"14317 MCARTHUR DR",MANOR,TX,78653,SHADOWGLEN,,CONTRACTOR,,,,,,,,,,,"DR HORTON",,,,,"DR HORTON","10700 PECAN PARK BLVD STE 400",AUSTIN,TX,78750-1227,"(512) 345-4663",,,,
TX,TRAVIS,2020-5261,"Single Family Homes",8/10/2020,,352625,2977,"14300 MCARTHUR DR",MANOR,TX,78653,SHADOWGLEN,,CONTRACTOR,,,,,,,,,,,"DR HORTON",,,,,"DR HORTON","10700 PECAN PARK BLVD STE 400",AUSTIN,TX,78750-1227,"(512) 345-4663",,,,
TX,TRAVIS,2020-5263,"Single Family Homes",8/10/2020,,277646,2538,"14304 MCARTHUR DR",MANOR,TX,78653,SHADOWGLEN,,CONTRACTOR,,,,,,,,,,,"DR HORTON",,,,,"DR HORTON","10700 PECAN PARK BLVD STE 400",AUSTIN,TX,78750-1227,"(512) 345-4663",,,,
TX,TRAVIS,2020-5264,"Single Family Homes",8/10/2020,,299915,2532,"14313 MCARTHUR DR",MANOR,TX,78653,SHADOWGLEN,,CONTRACTOR,,,,,,,,,,,"DR HORTON",,,,,"DR HORTON","10700 PECAN PARK BLVD STE 400",AUSTIN,TX,78750-1227,"(512) 345-4663",,,,
TX,TRAVIS,2020-5265,"Single Family Homes",8/10/2020,,256799,2168,"14309 MCARTHUR DR",MANOR,TX,78653,SHADOWGLEN,,CONTRACTOR,,,,,,,,,,,"DR HORTON",,,,,"DR HORTON","10700 PECAN PARK BLVD STE 400",AUSTIN,TX,78750-1227,"(512) 345-4663",,,,
TX,TRAVIS,2020-5266,"Single Family Homes",8/10/2020,,284990,2406,"14305 MCARTHUR DR",MANOR,TX,78653,SHADOWGLEN,,CONTRACTOR,,,,,,,,,,,"DR HORTON",,,,,"DR HORTON","10700 PECAN PARK BLVD STE 400",AUSTIN,TX,78750-1227,"(512) 345-4663",,,,
TX,TRAVIS,2020-5412,"Single Family Homes",8/3/2020,,256799,2406,"14108 SAGE BLOSSOM DR",MANOR,TX,78653,SHADOWGLEN,,CONTRACTOR,,,,,,,,,,,"DR HORTON",,,,,"DR HORTON","10700 PECAN PARK BLVD STE 400",AUSTIN,TX,78750-1227,"(512) 345-4663",,,,
TX,TRAVIS,2020-5416,"Single Family Homes",8/3/2020,,239505,2022,"11802 PYRITE RD",MANOR,TX,78653,STONEWATER,,CONTRACTOR,,,,,,,,,,,"DR HORTON",,,,,"DR HORTON","10700 PECAN PARK BLVD STE 400",AUSTIN,TX,78750-1227,"(512) 345-4663",,,,
TX,TRAVIS,2020-5417,"Single Family Homes",8/3/2020,,240927,2034,"11810 PYRITE RD",MANOR,TX,78653,STONEWATER,,CONTRACTOR,,,,,,,,,,,"DR HORTON",,,,,"DR HORTON","10700 PECAN PARK BLVD STE 400",AUSTIN,TX,78750-1227,"(512) 345-4663",,,,
TX,TRAVIS,2020-5418,"Single Family Homes",8/3/2020,,232043,1959,"11812 PYRITE RD",MANOR,TX,78653,STONEWATER,,CONTRACTOR,,,,,,,,,,,"DR HORTON",,,,,"DR HORTON","10700 PECAN PARK BLVD STE 400",AUSTIN,TX,78750-1227,"(512) 345-4663",,,,
TX,TRAVIS,2020-5419,"Single Family Homes",8/3/2020,,239505,2022,"11902 PYRITE RD",MANOR,TX,78653,STONEWATER,,CONTRACTOR,,,,,,,,,,,"DR HORTON",,,,,"DR HORTON","10700 PECAN PARK BLVD STE 400",AUSTIN,TX,78750-1227,"(512) 345-4663",,,,
TX,TRAVIS,2020-5421,"Single Family Homes",8/3/2020,,221975,1874,"14804 BAJADA RD",MANOR,TX,78653,"STONEWATER NORTH",,CONTRACTOR,,,,,,,,,,,"DR HORTON",,,,,"DR HORTON","10700 PECAN PARK BLVD STE 400",AUSTIN,TX,78750-1227,"(512) 345-4663",,,,
TX,TRAVIS,2020-5422,"Single Family Homes",8/3/2020,,240927,2034,"14802 BAJADA RD",MANOR,TX,78653,STONEWATER,,CONTRACTOR,,,,,,,,,,,"DR HORTON",,,,,"DR HORTON","10700 PECAN PARK BLVD STE 400",AUSTIN,TX,78750-1227,"(512) 345-4663",,,,
TX,TRAVIS,2020-5423,"Single Family Homes",8/3/2020,,239505,2022,"14800 BAJADA RD",MANOR,TX,78653,STONEWATER,,CONTRACTOR,,,,,,,,,,,"DR HORTON",,,,,"DR HORTON","10700 PECAN PARK BLVD STE 400",AUSTIN,TX,78750-1227,"(512) 345-4663",,,,
TX,TRAVIS,2020-5426,"Single Family Homes",8/3/2020,,348598,2943,"14801 BAJADA RD",MANOR,TX,78653,STONEWATER,,CONTRACTOR,,,,,,,,,,,"DR HORTON",,,,,"DR HORTON","10700 PECAN PARK BLVD STE 400",AUSTIN,TX,78750-1227,"(512) 345-4663",,,,
TX,TRAVIS,2020-5427,"Single Family Homes",8/3/2020,,362338,3059,"14803 BAJADA RD",MANOR,TX,78653,STONEWATER,,CONTRACTOR,,,,,,,,,,,"DR HORTON",,,,,"DR HORTON","10700 PECAN PARK BLVD STE 400",AUSTIN,TX,78750-1227,"(512) 345-4663",,,,
TX,TRAVIS,2020-5428,"Single Family Homes",8/3/2020,,363404,3068,"14805 BAJADA RD",MANOR,TX,78653,STONEWATER,,CONTRACTOR,,,,,,,,,,,"DR HORTON",,,,,"DR HORTON","10700 PECAN PARK BLVD STE 400",AUSTIN,TX,78750-1227,"(512) 345-4663",,,,
TX,TRAVIS,2020-5429,"Single Family Homes",8/4/2020,,284161,2399,"13700 BULLHORN ACACIA PASS",MANOR,TX,78653,SHADOWGLEN,,CONTRACTOR,,,,,,,,,,,"M/I HOMES",,,,,"M/I HOMES","6801 N CAPITAL OF TEXAS HWY BLDG 2 STE 100",AUSTIN,TX,78731-1780,"(512) 770-8500",,,,
TX,TRAVIS,2020-5432,"Single Family Homes",8/4/2020,,289373,2443,"13717 BULLHORN ACACIA PASS",MANOR,TX,78653,,,CONTRACTOR,,,,,,,,,,,"M/I HOMES",,,,,"M/I HOMES","6801 N CAPITAL OF TEXAS HWY BLDG 2 STE 100",AUSTIN,TX,78731-1780,"(512) 770-8500",,,,
TX,BASTROP,202000722,"Single Family Homes",8/20/2020,,71940,1616,"114 INSIDER LOOP",ELGIN,TX,78621,,,CONTRACTOR,,,,,,,,,,,"BROHN HOMES",,,,,"BROHN HOMES","6720 VAUGHT RANCH RD STE 200",AUSTIN,TX,78730-2354,"(512) 320-8833",http://brohnhomes.com/,,,
TX,BASTROP,202000718,"Single Family Homes",8/20/2020,,71940,1531,"325 INSIDER LOOP",ELGIN,TX,78621,,,CONTRACTOR,,,,,,,,,,,"BROHN HOMES",,,,,"BROHN HOMES","6720 VAUGHT RANCH RD STE 200",AUSTIN,TX,78730-2354,"(512) 320-8833",http://brohnhomes.com/,,,
TX,BASTROP,202000715,"Single Family Homes",8/11/2020,,120670,2262,"319 INSIDER LOOP",ELGIN,TX,78621,,,CONTRACTOR,,,,,,,,,,,"BROHN HOMES",,,,,"BROHN HOMES","6720 VAUGHT RANCH RD STE 200",AUSTIN,TX,78730-2354,"(512) 320-8833",http://brohnhomes.com/,,,
TX,BASTROP,202000706,"Single Family Homes",8/12/2020,,120670,1846,"115 INSIDER LOOP",ELGIN,TX,78641,,,CONTRACTOR,,,,,,,,,,,"BROHN HOMES",,,,,"BROHN HOMES","6720 VAUGHT RANCH RD STE 200",AUSTIN,TX,78730-2354,"(512) 320-8833",http://brohnhomes.com/,,,
TX,BASTROP,202000702,"Single Family Homes",8/12/2020,,108790,2078,"109 INSIDER LOOP",ELGIN,TX,78621,,,CONTRACTOR,,,,,,,,,,,"BROHN HOMES",,,,,"BROHN HOMES","6720 VAUGHT RANCH RD STE 200",AUSTIN,TX,78730-2354,"(512) 320-8833",http://brohnhomes.com/,,,
TX,BASTROP,202000694,"Single Family Homes",8/12/2020,,253470,2982,"111 WEST POINT WAY",ELGIN,TX,78621,,,CONTRACTOR,,,,,,,,,,,"KB HOME",,,,,"KB HOME","10800 PECAN PARK BLVD STE 200",AUSTIN,TX,78750-1249,"(512) 651-8100",,,,
TX,BASTROP,202000685,"Single Family Homes",8/11/2020,,186405,2193,"206 SARANAC DR",ELGIN,TX,78621,,,CONTRACTOR,,,,,,,,,,,"KB HOME",,,,,"KB HOME","10800 PECAN PARK BLVD STE 200",AUSTIN,TX,78750-1249,"(512) 651-8100",,,,
TX,BASTROP,202000681,"Single Family Homes",8/10/2020,,265200,3120,"210 SARANAC DR",ELGIN,TX,78621,,,CONTRACTOR,,,,,,,,,,,"KB HOME",,,,,"KB HOME","10800 PECAN PARK BLVD STE 200",AUSTIN,TX,78750-1249,"(512) 651-8100",,,,
TX,BASTROP,202000677,"Single Family Homes",8/10/2020,,109590.9,1941,"18708 SPECULATOR LN",ELGIN,TX,78621,,,CONTRACTOR,,,,,,,,,,,"LGI HOMES",,,,,"LGI HOMES","1450 LAKE ROBBINS SUITE 430",CONROE,TX,77380,"(210) 563-4648",,"(281) 210-2601",,
TX,BASTROP,202000673,"Single Family Homes",8/10/2020,,118171,2192,"18712 SPECULATOR LN",ELGIN,TX,78621,,,CONTRACTOR,,,,,,,,,,,"LGI HOMES",,,,,"LGI HOMES","1450 LAKE ROBBINS SUITE 430",CONROE,TX,77380,"(210) 563-4648",,"(281) 210-2601",,
TX,BASTROP,202000669,"Single Family Homes",8/10/2020,,129671,2654,"18716 SPECULATOR LN",ELGIN,TX,78621,,,CONTRACTOR,,,,,,,,,,,"LGI HOMES",,,,,"LGI HOMES","1450 LAKE ROBBINS SUITE 430",CONROE,TX,77380,"(210) 563-4648",,"(281) 210-2601",,
TX,BASTROP,202000665,"Single Family Homes",8/10/2020,,109591,1941,"18720 SPECULATOR LN",ELGIN,TX,78621,,,CONTRACTOR,,,,,,,,,,,"LGI HOMES",,,,,"LGI HOMES","1450 LAKE ROBBINS SUITE 430",CONROE,TX,77380,"(210) 563-4648",,"(281) 210-2601",,
TX,BASTROP,202000661,"Single Family Homes",8/10/2020,,137990,2962,"18724 SPECULATOR LN",ELGIN,TX,78621,,,CONTRACTOR,,,,,,,,,,,"LGI HOMES",,,,,"LGI HOMES","1450 LAKE ROBBINS SUITE 430",CONROE,TX,77380,"(210) 563-4648",,"(281) 210-2601",,
TX,BASTROP,202000657,"Single Family Homes",8/10/2020,,129671,2654,"18601 SPECULATOR LN",ELGIN,TX,78621,,,CONTRACTOR,,,,,,,,,,,"LGI HOMES",,,,,"LGI HOMES","1450 LAKE ROBBINS SUITE 430",CONROE,TX,77380,"(210) 563-4648",,"(281) 210-2601",,
TX,BASTROP,202000653,"Single Family Homes",8/10/2020,,109591,1941,"18605 SPECULATOR LN",ELGIN,TX,78621,,,CONTRACTOR,,,,,,,,,,,"LGI HOMES",,,,,"LGI HOMES","1450 LAKE ROBBINS SUITE 430",CONROE,TX,77380,"(210) 563-4648",,"(281) 210-2601",,
TX,BASTROP,202000649,"Single Family Homes",8/10/2020,,118171,2192,"18609 SPECULATOR LN",ELGIN,TX,78621,,,CONTRACTOR,,,,,,,,,,,"LGI HOMES",,,,,"LGI HOMES","1450 LAKE ROBBINS SUITE 430",CONROE,TX,77380,"(210) 563-4648",,"(281) 210-2601",,
TX,BASTROP,202000645,"Single Family Homes",8/10/2020,,109591,1941,"18613 SPECULATOR LN",ELGIN,TX,78621,,,CONTRACTOR,,,,,,,,,,,"LGI HOMES",,,,,"LGI HOMES","1450 LAKE ROBBINS SUITE 430",CONROE,TX,77380,"(210) 563-4648",,"(281) 210-2601",,
TX,BASTROP,202000641,"Single Family Homes",8/10/2020,,129671,2654,"18617 SPECULATOR LN",ELGIN,TX,78621,,,CONTRACTOR,,,,,,,,,,,"LGI HOMES",,,,,"LGI HOMES","1450 LAKE ROBBINS SUITE 430",CONROE,TX,77380,"(210) 563-4648",,"(281) 210-2601",,
TX,BASTROP,202000637,"Single Family Homes",8/10/2020,,118171,2192,"18621 SPECULATOR LN",ELGIN,TX,78621,,,CONTRACTOR,,,,,,,,,,,"LGI HOMES",,,,,"LGI HOMES","1450 LAKE ROBBINS SUITE 430",CONROE,TX,77380,"(210) 563-4648",,"(281) 210-2601",,
TX,BASTROP,202000633,"Single Family Homes",8/10/2020,,109591,1941,"18701 SPECULATOR LN",ELGIN,TX,78641,,,CONTRACTOR,,,,,,,,,,,"LGI HOMES",,,,,"LGI HOMES","1450 LAKE ROBBINS SUITE 430",CONROE,TX,77380,"(210) 563-4648",,"(281) 210-2601",,
TX,BASTROP,202000629,"Single Family Homes",8/10/2020,,137990,2962,"18705 SPECULATOR LN",ELGIN,TX,78641,,,CONTRACTOR,,,,,,,,,,,"LGI HOMES",,,,,"LGI HOMES","1450 LAKE ROBBINS SUITE 430",CONROE,TX,77380,"(210) 563-4648",,"(281) 210-2601",,
TX,BASTROP,202000625,"Single Family Homes",8/10/2020,,118171,2192,"18709 SPECULATOR LN",ELGIN,TX,78641,,,CONTRACTOR,,,,,,,,,,,"LGI HOMES",,,,,"LGI HOMES","1450 LAKE ROBBINS SUITE 430",CONROE,TX,77380,"(210) 563-4648",,"(281) 210-2601",,
TX,BASTROP,202000621,"Single Family Homes",8/10/2020,,109591,1941,"18713 SPECULATOR LN",ELGIN,TX,78641,,,CONTRACTOR,,,,,,,,,,,"LGI HOMES",,,,,"LGI HOMES","1450 LAKE ROBBINS SUITE 430",CONROE,TX,77380,"(210) 563-4648",,"(281) 210-2601",,
TX,HAYS,2020-33000,"Single Family Homes",8/26/2020,,205540,2390,"613 GOLDEN GROVE PKWY","SAN MARCOS",TX,78666,,,CONTRACTOR,,,,,,,,,,,"DR HORTON",,,,,"DR HORTON","10700 PECAN PARK BLVD STE 400",AUSTIN,TX,78750-1227,"(512) 345-4663",,,,
TX,HAYS,2020-33001,"Single Family Homes",8/26/2020,,205368,2388,"523 GOLDEN GROVE PKWY","SAN MARCOS",TX,78666,,,CONTRACTOR,,,,,,,,,,,"DR HORTON",,,,,"DR HORTON","10700 PECAN PARK BLVD STE 400",AUSTIN,TX,78750-1227,"(512) 345-4663",,,,
TX,HAYS,2020-33003,"Single Family Homes",8/19/2020,,128245,1973,"112 ESCONDIDO CIR","SAN MARCOS",TX,78666,,,CONTRACTOR,,,,,,,,,,,"LENNAR HOMES",,,,,"LENNAR HOMES","13620 FM 620 RD 150",AUSTIN,TX,78717,"(512) 506-4000",http://www.lennar.com/,,,
TX,HAYS,2020-33004,"Single Family Homes",8/19/2020,,171470,2638,"117 MILESTONE CV","SAN MARCOS",TX,78666,,,CONTRACTOR,,,,,,,,,,,"LENNAR HOMES",,,,,"LENNAR HOMES","13620 FM 620 RD 150",AUSTIN,TX,78717,"(512) 506-4000",http://www.lennar.com/,,,
TX,HAYS,2020-33006,"Single Family Homes",8/19/2020,,137345,2113,"116 ESCONDIDO CIR","SAN MARCOS",TX,78666,,,CONTRACTOR,,,,,,,,,,,"LENNAR HOMES",,,,,"LENNAR HOMES","13620 FM 620 RD 150",AUSTIN,TX,78717,"(512) 506-4000",http://www.lennar.com/,,,
TX,HAYS,2020-33007,"Single Family Homes",8/19/2020,,200525,3084,"121 MILESTONE CV","SAN MARCOS",TX,78666,,,CONTRACTOR,,,,,,,,,,,"LENNAR HOMES",,,,,"LENNAR HOMES","13620 FM 620 RD 150",AUSTIN,TX,78717,"(512) 506-4000",http://www.lennar.com/,,,
TX,HAYS,2020-33008,"Single Family Homes",8/19/2020,,163670,2513,"120 ESCONDIDO CIR","SAN MARCOS",TX,78666,,,CONTRACTOR,,,,,,,,,,,"LENNAR HOMES",,,,,"LENNAR HOMES","13620 FM 620 RD 150",AUSTIN,TX,78717,"(512) 506-4000",http://www.lennar.com/,,,
TX,HAYS,2020-33009,"Single Family Homes",8/19/2020,,137345,2113,"124 ESCONDIDO CIR","SAN MARCOS",TX,78666,,,CONTRACTOR,,,,,,,,,,,"LENNAR HOMES",,,,,"LENNAR HOMES","13620 FM 620 RD 150",AUSTIN,TX,78717,"(512) 506-4000",http://www.lennar.com/,,,
TX,HAYS,2020-33010,"Single Family Homes",8/19/2020,,153530,2362,"128 ESCONDIDO CIR","SAN MARCOS",TX,78666,,,CONTRACTOR,,,,,,,,,,,"LENNAR HOMES",,,,,"LENNAR HOMES","13620 FM 620 RD 150",AUSTIN,TX,78717,"(512) 506-4000",http://www.lennar.com/,,,
TX,HAYS,2020-33012,"Single Family Homes",8/26/2020,,250000,2716,"240 CRUISING OAK ST","SAN MARCOS",TX,78666,,,CONTRACTOR,,,,,,,,,,,"BROOKFIELD RESIDENTIAL TEXAS",,,,,"BROOKFIELD RESIDENTIAL TEXAS","11501 ALTERRA PKWY STE 100",AUSTIN,TX,78758,"(512) 391-1330",,,,
TX,HAYS,2020-33039,"Single Family Homes",8/20/2020,,250000,4340,"121 HARBORSIDE DR CONDO 101","SAN MARCOS",TX,78666,,,CONTRACTOR,,,,,,,,,,,"BROOKFIELD RESIDENTIAL TEXAS",,,,,"BROOKFIELD RESIDENTIAL TEXAS","11501 ALTERRA PKWY STE 100",AUSTIN,TX,78758,"(512) 391-1330",,,,
TX,HAYS,"2020-33041 ","Single Family Homes",8/20/2020,,250000,3637,"123 DRAWING MAPLE ST","SAN MARCOS",TX,78666,,,CONTRACTOR,,,,,,,,,,,"BROOKFIELD RESIDENTIAL TEXAS",,,,,"BROOKFIELD RESIDENTIAL TEXAS","11501 ALTERRA PKWY STE 100",AUSTIN,TX,78758,"(512) 391-1330",,,,
TX,HAYS,2020-33044,"Single Family Homes",8/21/2020,,250000,3559,"1005 DANCING OAK LN","SAN MARCOS",TX,78666,,,CONTRACTOR,,,,,,,,,,,"BROOKFIELD RESIDENTIAL TEXAS",,,,,"BROOKFIELD RESIDENTIAL TEXAS","11501 ALTERRA PKWY STE 100",AUSTIN,TX,78758,"(512) 391-1330",,,,
TX,HAYS,2020-33045,"Single Family Homes",8/21/2020,,250000,2147,"313 DRAWING MAPLE ST","SAN MARCOS",TX,78666,,,CONTRACTOR,,,,,,,,,,,"BROOKFIELD RESIDENTIAL TEXAS",,,,,"BROOKFIELD RESIDENTIAL TEXAS","11501 ALTERRA PKWY STE 100",AUSTIN,TX,78758,"(512) 391-1330",,,,
TX,HAYS,2020-33048,"Single Family Homes",8/26/2020,,250000,2147,"313 PLAYING CYPRESS DR","SAN MARCOS",TX,78666,,,CONTRACTOR,,,,,,,,,,,"BROOKFIELD RESIDENTIAL TEXAS",,,,,"BROOKFIELD RESIDENTIAL TEXAS","11501 ALTERRA PKWY STE 100",AUSTIN,TX,78758,"(512) 391-1330",,,,
TX,HAYS,"2020-33056 ","Single Family Homes",8/28/2020,,250000,3157,"1124 DANCING OAK LN","SAN MARCOS",TX,78666,,,CONTRACTOR,,,,,,,,,,,"BROOKFIELD RESIDENTIAL TEXAS",,,,,"BROOKFIELD RESIDENTIAL TEXAS","11501 ALTERRA PKWY STE 100",AUSTIN,TX,78758,"(512) 391-1330",,,,
TX,HAYS,2020-33060,"Single Family Homes",8/28/2020,,250000,2093,"128 GLIDING WILLOW ST","SAN MARCOS",TX,78666,,,CONTRACTOR,,,,,,,,,,,"BROOKFIELD RESIDENTIAL TEXAS",,,,,"BROOKFIELD RESIDENTIAL TEXAS","11501 ALTERRA PKWY STE 100",AUSTIN,TX,78758,"(512) 391-1330",,,,
TX,HAYS,2020-33070,"Single Family Homes",8/28/2020,,173855,3147,"121 RUGOSA RD","SAN MARCOS",TX,78666,,,CONTRACTOR,,,,,,,,,,,"EHT OF TEXAS LP",,,,,"EHT OF TEXAS LP","3520 EXECUTIVE CENTER DR STE 100",AUSTIN,TX,78731-1636,"(757) 287-6394",,,,
TX,HAYS,2020-33104,"Single Family Homes",8/28/2020,,385820,3063,"136 HEARTLEAF RD","SAN MARCOS",TX,78666,,,CONTRACTOR,,,,,,,,,,,"HIGHLAND HOMES",,,,,"HIGHLAND HOMES","4201 W PARMER LN STE B180",AUSTIN,TX,78727-4110,"(512) 834-8429",,,,
TX,HAYS,2020-30879,"Warehouse & Manufacturing",8/7/2020,,28100000,,"2240 CLOVIS BARKER RD","SAN MARCOS",TX,78666,,,CONTRACTOR,,,,,,,,,,,FLINTCO,,,,,FLINTCO,"8100 CROSS PARK DR",AUSTIN,TX,78754-5249,"(512) 891-7224",,,,
