state,county,permno,ptype,pdate,pdescription,jvalue,jsqfeet,jaddr,jcity,jstate,jzip,jsubdiv,jlotno,aname,aaddr,acity,astate,azip,aphone,atype,aurl,afax,aprimarycontact,aemail,bldcode,units,bldgs,ctype,legal,contractor,caddress,ccity,cstate,czip,cphone,curl,cfax,cprimarycontact,cemail
TX,TRAVIS,"2019-167200 BP","Duplex, Triplex, & Fourplex",12/7/2020,,98550,4286,"7445 SPARKLING LIGHT DR UNIT A",AUSTIN,TX,78617,,,CONTRACTOR,,,,,,,,,,,"LENNAR HOMES",,,,,"LENNAR HOMES","13620 FM 620 RD 150",AUSTIN,TX,78717,"(512) 506-4000",http://www.lennar.com/,,,
TX,TRAVIS,"2020-183396 BP","Duplex, Triplex, & Fourplex",12/4/2020,,294975,3933,"7445 SPARKLING LIGHT DR",AUSTIN,TX,78617,,,CONTRACTOR,,,,,,,,,,,"LENNAR HOMES",,,,,"LENNAR HOMES","13620 FM 620 RD 150",AUSTIN,TX,78717,"(512) 506-4000",http://www.lennar.com/,,,
TX,TRAVIS,"2020-178623 BP","Educational Institution",12/7/2020,Addition,130660,7540,"73 SAN MARCOS ST",AUSTIN,TX,78702,SANCHEZ,,CONTRACTOR,,,,,,,,,,,"USA SHADE & FABRIC STRUCTURES",,,,,"USA SHADE & FABRIC STRUCTURES","1508 FERGUSON LN STE A",AUSTIN,TX,78754-1880,"(512) 836-5500",http://www.usa-shade.com/,"(512) 836-5600",,
TX,WILLIAMSON,2020-29965,"Guest Houses",11/25/2020,Addition,64000,320,"101 WIGEON CV","CEDAR PARK",TX,78613,"SILVER OAK",,"DAVID OLIVER","101 WIGEON CV","CEDAR PARK",TX,78613,,Owner,,,,,"ROMAN LEAL CONSTRUCTION",,,,,"ROMAN LEAL CONSTRUCTION","4608 WHISPERING VALLEY DR",AUSTIN,TX,78727-6834,"(512) 228-2333",http://www.romanlealconstruction.com/,"(512) 906-1555","ROMAN LEAL",info@romanlealconstruction.com
TX,WILLIAMSON,2020-29901,"Hospital & Other Medical",11/20/2020,"Finish Out",344000,911,"1401 MEDICAL PKWY","CEDAR PARK",TX,78613,,,CONTRACTOR,,,,,,,,,,,"MJ HARRIS CONSTRUCTION SERVICES",,,,,"MJ HARRIS CONSTRUCTION SERVICES","5210 MARYLAND WAY STE 101",BRENTWOOD,TN,37027-5065,"(615) 727-0400",http://www.mjharris.com/,"(615) 727-0401",,
TX,WILLIAMSON,2020-29544,"Hospital & Other Medical",11/12/2020,Renovation,350100,4900,"1335 E WHITESTONE BLVD","CEDAR PARK",TX,78613,,,CONTRACTOR,,,,,,,,,,,"ARCH-CON CORPORATION",,,,,"ARCH-CON CORPORATION","8235 DOUGLAS AVE., SUITE 1000",DALLAS,TX,75225,"(214) 420-7900",http://www.arch-con.com,,,contact@arch-con.com
TX,WILLIAMSON,2020-29833,"Hospital & Other Medical",11/25/2020,Renovation,248740,1255,"251 N BELL BLVD","CEDAR PARK",TX,78613,,,CONTRACTOR,,,,,,,,,,,"EPOCH CONSTRUCTION",,,,,"EPOCH CONSTRUCTION","10696 HADDINGTON DR",HOUSTON,TX,77043-2847,"(281) 888-6761",http://epochconstruction.net,"(281) 501-1125",,info@epochconstruction.net
TX,TRAVIS,"2020-182125 BP","Multi Family Apartments & Condos",12/3/2020,,5950000,8005,"8601 WEST GATE BLVD BLDG 3",AUSTIN,TX,78745,"CHERRY CREEK",20,CONTRACTOR,,,,,,,,,,,"WJP CONSTRUCTION SERVICES",,,,,"WJP CONSTRUCTION SERVICES","11130 JOLLYVILLE RD",AUSTIN,TX,78759-5593,"(512) 338-5300",http://wespeopleshomes.com/,,"WESLEY PEOPLES",
TX,TRAVIS,"2020-184127 BP","Multi Family Apartments & Condos",12/7/2020,,100000,2473,"1700 TUN TAVERN TRL",AUSTIN,TX,78754,MUNOS,,CONTRACTOR,,,,,,,,,,,"PROMINENCE HOMES",,,,,"PROMINENCE HOMES","1120 CAPITAL OF TEXAS HWY",AUSTIN,TX,78746,"(512) 565-9395",http://prominencehomes.co/,,,
TX,TRAVIS,"2020-184128 BP","Multi Family Apartments & Condos",12/7/2020,,100000,2211,"1700 TUN TAVERN TRL",AUSTIN,TX,78754,MUNOS,,CONTRACTOR,,,,,,,,,,,"PROMINENCE HOMES",,,,,"PROMINENCE HOMES","1120 CAPITAL OF TEXAS HWY",AUSTIN,TX,78746,"(512) 565-9395",http://prominencehomes.co/,,,
TX,TRAVIS,"2020-184129 BP","Multi Family Apartments & Condos",12/7/2020,,100000,2367,"1700 TUN TAVERN TRL",AUSTIN,TX,78754,MUNOS,,CONTRACTOR,,,,,,,,,,,"PROMINENCE HOMES",,,,,"PROMINENCE HOMES","1120 CAPITAL OF TEXAS HWY",AUSTIN,TX,78746,"(512) 565-9395",http://prominencehomes.co/,,,
TX,TRAVIS,"2020-184130 BP","Multi Family Apartments & Condos",12/7/2020,,100000,2234,"1700 TUN TAVERN TRL",AUSTIN,TX,78754,MUNOS,,CONTRACTOR,,,,,,,,,,,"PROMINENCE HOMES",,,,,"PROMINENCE HOMES","1120 CAPITAL OF TEXAS HWY",AUSTIN,TX,78746,"(512) 565-9395",http://prominencehomes.co/,,,
TX,TRAVIS,"2020-184076 BP","Multi Family Apartments & Condos",12/7/2020,,100000,2490,"1512 ROSEBURG DR",AUSTIN,TX,78754,MUNOS,,CONTRACTOR,,,,,,,,,,,"PROMINENCE HOMES",,,,,"PROMINENCE HOMES","1120 CAPITAL OF TEXAS HWY",AUSTIN,TX,78746,"(512) 565-9395",http://prominencehomes.co/,,,
TX,TRAVIS,"2020-184077 BP","Multi Family Apartments & Condos",12/7/2020,,100000,2211,"1512 ROSEBURG DR",AUSTIN,TX,78754,MUNOS,,CONTRACTOR,,,,,,,,,,,"PROMINENCE HOMES",,,,,"PROMINENCE HOMES","1120 CAPITAL OF TEXAS HWY",AUSTIN,TX,78746,"(512) 565-9395",http://prominencehomes.co/,,,
TX,TRAVIS,"2020-184078 BP","Multi Family Apartments & Condos",12/7/2020,,100000,2363,"1512 ROSEBURG DR",AUSTIN,TX,78754,MUNOS,,CONTRACTOR,,,,,,,,,,,"PROMINENCE HOMES",,,,,"PROMINENCE HOMES","1120 CAPITAL OF TEXAS HWY",AUSTIN,TX,78746,"(512) 565-9395",http://prominencehomes.co/,,,
TX,TRAVIS,"2020-184079 BP","Multi Family Apartments & Condos",12/7/2020,,100000,2242,"1512 ROSEBURG DR",AUSTIN,TX,78754,MUNOS,,CONTRACTOR,,,,,,,,,,,"PROMINENCE HOMES",,,,,"PROMINENCE HOMES","1120 CAPITAL OF TEXAS HWY",AUSTIN,TX,78746,"(512) 565-9395",http://prominencehomes.co/,,,
TX,TRAVIS,"2020-059683 BP","Multi Family Apartments & Condos",12/4/2020,,180000,3219,"5315 LA CROSSE AVE BLDG 7",AUSTIN,TX,78739,,,CONTRACTOR,,,,,,,,,,,"SYMCOX DEVELOPMENT",,,,,"SYMCOX DEVELOPMENT","2300 S LAMAR BLVD STE 106",AUSTIN,TX,78704-4968,"(512) 416-7961",,,,
TX,TRAVIS,"2020-059689 BP","Multi Family Apartments & Condos",12/4/2020,,180000,3219,"5315 LA CROSSE AVE BLDG 8",AUSTIN,TX,78739,,,CONTRACTOR,,,,,,,,,,,"SYMCOX DEVELOPMENT",,,,,"SYMCOX DEVELOPMENT","2300 S LAMAR BLVD STE 106",AUSTIN,TX,78704-4968,"(512) 416-7961",,,,
TX,TRAVIS,"2020-059698 BP","Multi Family Apartments & Condos",12/4/2020,,180000,3219,"5315 LA CROSSE AVE BLDG 6",AUSTIN,TX,78739,,,CONTRACTOR,,,,,,,,,,,"SYMCOX DEVELOPMENT",,,,,"SYMCOX DEVELOPMENT","2300 S LAMAR BLVD STE 106",AUSTIN,TX,78704-4968,"(512) 416-7961",,,,
TX,TRAVIS,"2020-183405 BP","Multi Family Apartments & Condos",12/7/2020,,206890,2434,"5411 MULBERRY GROVE LN",AUSTIN,TX,78723,TANNEHILL,,CONTRACTOR,,,,,,,,,,,"RSI COMMUNITIES",,,,,"RSI COMMUNITIES","810 HESTERS CROSSING RD STE 235","ROUND ROCK",TX,78681-7846,"(512) 953-4100",,,,
TX,TRAVIS,"2020-183449 BP","Multi Family Apartments & Condos",12/7/2020,,211225,2485,"5409 MULBERRY GROVE LN",AUSTIN,TX,78723,TANNEHILL,,CONTRACTOR,,,,,,,,,,,"RSI COMMUNITIES",,,,,"RSI COMMUNITIES","810 HESTERS CROSSING RD STE 235","ROUND ROCK",TX,78681-7846,"(512) 953-4100",,,,
TX,WILLIAMSON,2020-27901,"Offices, R&D, & Professional",11/20/2020,Renovation,200000,848,"1570 CYPRESS CREEK RD","CEDAR PARK",TX,78613,,,CONTRACTOR,,,,,,,,,,,"TEGRITY CONTRACTORS",,,,,"TEGRITY CONTRACTORS","720 US HIGHWAY 183 S STE 104",AUSTIN,TX,78741-3621,"(512) 385-6060",http://www.tegrity-contractors.com/,,,
TX,WILLIAMSON,2020-27902,"Offices, R&D, & Professional",11/20/2020,Renovation,200000,848,"1311 HIGHLAND DR","CEDAR PARK",TX,78613,,,CONTRACTOR,,,,,,,,,,,"TEGRITY CONTRACTORS",,,,,"TEGRITY CONTRACTORS","720 US HIGHWAY 183 S STE 104",AUSTIN,TX,78741-3621,"(512) 385-6060",http://www.tegrity-contractors.com/,,,
TX,TRAVIS,"2020-183320 BP","Offices, R&D, & Professional",12/3/2020,,2246000,3112,"1920 E RIVERSIDE DR BLDG C",AUSTIN,TX,78741,"SHORE RETAIL",3,CONTRACTOR,,,,,,,,,,,"STRUTHOFF COMPANY",,,,,"STRUTHOFF COMPANY","13428 WEST AVE","SAN ANTONIO",TX,78216-2005,"(210) 495-2557",,,,
TX,TRAVIS,"2020-183321 BP","Offices, R&D, & Professional",12/3/2020,Renovation,2246000,80,"1920 E RIVERSIDE DR BLDG C",AUSTIN,TX,78741,"SHORE RETAIL",3,CONTRACTOR,,,,,,,,,,,"STRUTHOFF COMPANY",,,,,"STRUTHOFF COMPANY","13428 WEST AVE","SAN ANTONIO",TX,78216-2005,"(210) 495-2557",,,,
TX,TRAVIS,"2020-183322 BP","Offices, R&D, & Professional",12/3/2020,Renovation,2246000,236,"1920 E RIVERSIDE DR BLDG C",AUSTIN,TX,78741,"SHORE RETAIL",3,CONTRACTOR,,,,,,,,,,,"STRUTHOFF COMPANY",,,,,"STRUTHOFF COMPANY","13428 WEST AVE","SAN ANTONIO",TX,78216-2005,"(210) 495-2557",,,,
TX,TRAVIS,"2019-071790 BP","Offices, R&D, & Professional",12/4/2020,"Finish Out",2500000,14373,"1011 S CONGRESS AVE BLDG 1 UNIT 200",AUSTIN,TX,78704,DECKER,,CONTRACTOR,,,,,,,,,,,"RAND CONSTRUCTION",,,,,"RAND CONSTRUCTION","2815 EXPOSITION BLVD STE 100",AUSTIN,TX,78703-1207,"(855) 206-1286",http://randcc.com/,,,
TX,TRAVIS,"2019-071791 BP","Offices, R&D, & Professional",12/4/2020,"Finish Out",2500000,6247,"1011 S CONGRESS AVE BLDG 1 UNIT 200",AUSTIN,TX,78704,DECKER,,CONTRACTOR,,,,,,,,,,,"RAND CONSTRUCTION",,,,,"RAND CONSTRUCTION","2815 EXPOSITION BLVD STE 100",AUSTIN,TX,78703-1207,"(855) 206-1286",http://randcc.com/,,,
TX,TRAVIS,"2019-236567 BP","Other Residential",12/7/2020,"Acc Struct",75000,2200,"9300 GLENLAKE DR",AUSTIN,TX,78730,GLENLAKE,25,"ERIC & CHERYL COSWAY","9300 GLENLAKE DR",AUSTIN,TX,78730,,Owner,,,,,OWNER,,,,,OWNER,,,,,,,,,
TX,TRAVIS,"2020-180226 BP","Parking Structures & Carports",12/5/2020,Addition,30000,120,"11505 DOMAIN DR",AUSTIN,TX,78758,,,CONTRACTOR,,,,,,,,,,,"ENERTECH RESOURCES",,,,,"ENERTECH RESOURCES","1820 WATSON LN E","NEW BRAUNFELS",TX,78130-7272,"(830) 387-4505",,,,
TX,TRAVIS,"2020-179780 BP","Parking Structures & Carports",12/5/2020,Addition,30000,25,"3004 PALM WAY",AUSTIN,TX,78758,,,CONTRACTOR,,,,,,,,,,,"ENERTECH RESOURCES",,,,,"ENERTECH RESOURCES","1820 WATSON LN E","NEW BRAUNFELS",TX,78130-7272,"(830) 387-4505",,,,
TX,TRAVIS,"2020-181057 BP","Parking Structures & Carports",12/5/2020,Addition,30000,120,"11909 DOMAIN DR",AUSTIN,TX,78758,,,CONTRACTOR,,,,,,,,,,,"ENERTECH RESOURCES",,,,,"ENERTECH RESOURCES","1820 WATSON LN E","NEW BRAUNFELS",TX,78130-7272,"(830) 387-4505",,,,
TX,TRAVIS,"2020-181053 BP","Parking Structures & Carports",12/5/2020,Addition,120000,100,"11600 ALTERRA PKWY",AUSTIN,TX,78758,,,CONTRACTOR,,,,,,,,,,,"STEVE BALES CONSTRUCTION",,,,,"STEVE BALES CONSTRUCTION","909 CRYSTAL CREEK DR",AUSTIN,TX,78746-4709,"(512) 263-5090",,,,
TX,HAYS,2020-0484,"Residential Renovations & Additions",11/9/2020,Renovation,150000,,"4100 EVERETT",KYLE,TX,78640,,,"ROBBY TURNER","4100 EVERETT",KYLE,TX,78640,,Owner,,,,,"VAUGHN CONSTRUCTION",,,,,"VAUGHN CONSTRUCTION","3920 N INTERSTATE 35",AUSTIN,TX,78751-5203,"(512) 663-7707",,,,
TX,TRAVIS,"2020-184455 BP","Residential Renovations & Additions",12/7/2020,Renovation,45588,80,"4719 MOUNT VERNON DR",AUSTIN,TX,78745,"GREENWOOD FOREST",12,"BAMBOO APP","13359 183A HWY STE 406-702",AUSTIN,TX,78628,"(512) 925-5133",Applicant,,,,,OWNER,,,,,OWNER,,,,,,,,,
TX,TRAVIS,"2020-183032 BP","Residential Renovations & Additions",12/4/2020,Addition,80000,2667,"1802 BROADMOOR DR",AUSTIN,TX,78723,"BROOKSIDE ESTATES",12,"JEFFREY HAHL","1802 BROADMOOR DR",AUSTIN,TX,78723,,Owner,,,,,"WHOLE HOUSE RESCUE",,,,,"WHOLE HOUSE RESCUE","7210 BETHUNE AVE ",AUSTIN,TX,78752,"(512) 786-5609",,,,
TX,TRAVIS,"2020-156814 BP","Residential Renovations & Additions",12/5/2020,Addition,30000,,"1438 MOUNT LARSON RD",AUSTIN,TX,78746,"THE SUMMIT AT WEST RIM ON MOUNT LARSON",28,"GREGORY & HEIDI ARMSTRONG","1438 MOUNT LARSON RD",AUSTIN,TX,78746,,Owner,,,,,"CAPITAL FOUNDATION",,,,,"CAPITAL FOUNDATION","1703 BENCH MARK DR",AUSTIN,TX,78728-7720,"(512) 990-1117",,,,
TX,TRAVIS,"2018-213749 BP","Residential Renovations & Additions",12/7/2020,Renovation,30300,790,"1301 FALCON CV UNIT B",AUSTIN,TX,78745,"GLENWOOD SQUARE",13,"JULIAN JONES","1301 FALCON CV UNIT B",AUSTIN,TX,78745,"(512) 618-9034",Owner,,,,,OWNER,,,,,OWNER,,,,,,,,,
TX,TRAVIS,"2020-184798 BP","Residential Renovations & Additions",12/7/2020,Renovation,39000,,"6603 BOURG CV",AUSTIN,TX,78744,"NUCKLES CROSSING",7,"HELENA SANCHEZ","6603 BOURG CV",AUSTIN,TX,78744,,Owner,,,,,"4L CONSTRUCTION",,,,,"4L CONSTRUCTION","427 BIG OAK DR","SAN ANTONIO",TX,78264-4671,"(210) 489-9599",,,,
TX,TRAVIS,"2020-183547 BP","Residential Renovations & Additions",12/3/2020,Renovation,47604,,"9409 LEANING ROCK CIR",AUSTIN,TX,78730,"LONG CANYON",22,"GEORGE & HEATHER SONNIER","9409 LEANING ROCK CIR",AUSTIN,TX,78730,,Owner,,,,,"RENEWAL BY ANDERSEN",,,,,"RENEWAL BY ANDERSEN","2100 KRAMER LN STE 600",AUSTIN,TX,78758-4045,"(512) 834-8383",,,,
TX,TRAVIS,"2020-182513 BP","Residential Renovations & Additions",12/7/2020,Renovation,48000,,"1151 EASTFIELD AVE",AUSTIN,TX,78721,EASTFIELD,7,"LEROY & MILDRED OWENS","1151 EASTFIELD AVE",AUSTIN,TX,78721,,Owner,,,,,"TEXAS HOME REDEVELOPMENT",,,,,"TEXAS HOME REDEVELOPMENT","409 DUCK LAKE DR",LAKEWAY,TX,78734-4506,"(512) 577-8467",,,,
TX,TRAVIS,"2020-183679 BP","Residential Renovations & Additions",12/3/2020,Renovation,53200,,"3408 MOUNT BONNELL RD",AUSTIN,TX,78731,"MOUNT BONNELL TERRACE",5,"ROYCE HAILEY","3408 MOUNT BONNELL RD",AUSTIN,TX,78731,,Owner,,,,,"RENEWAL BY ANDERSEN",,,,,"RENEWAL BY ANDERSEN","2100 KRAMER LN STE 600",AUSTIN,TX,78758-4045,"(512) 834-8383",,,,
TX,TRAVIS,"2020-183490 BP","Residential Renovations & Additions",12/4/2020,Renovation,65088,,"4908 CAMACHO ST",AUSTIN,TX,78723,MUELLER,14,"JEREMIAH & JANA CHARLES","4908 CAMACHO ST",AUSTIN,TX,78723,,Owner,,,,,"SERVPRO OF PFLUGERVILLE",,,,,"SERVPRO OF PFLUGERVILLE","2215 INVESTMENT DR ",PFLUGERVILLE,TX,78660,"(512) 990-4776",,,,
TX,WILLIAMSON,2020-29028,"Residential Swimming Pools & Spas",11/13/2020,,55000,931,"318 BLUFF POINT BND","CEDAR PARK",TX,78613,"RANCH AT BRUSHY CREEK",,"CHIKAGE & JAMES HOWETH","318 BLUFF POINT BND","CEDAR PARK",TX,78613,,Owner,,,,,"BLUE HAVEN POOLS",,,,,"BLUE HAVEN POOLS","260 ADDIE ROY RD STE 205",AUSTIN,TX,78746-4108,"(512) 345-2583",,,,
TX,WILLIAMSON,2020-29701,"Residential Swimming Pools & Spas",11/17/2020,,43000,776,"418 MISTY MORN LN","CEDAR PARK",TX,78613,"RED OAKS",,"KIRSTEN EBERSOLE","418 MISTY MORN LN","CEDAR PARK",TX,78613,,Owner,,,,,"CODY POOLS",,,,,"CODY POOLS","2300 W PARMER LN",AUSTIN,TX,78727-4332,"(512) 835-4966",http://www.codypools.com,,"COLE NAUMAN",
TX,WILLIAMSON,2020-29702,"Residential Swimming Pools & Spas",11/3/2020,,32863,768,"1102 ROWLEY DR","CEDAR PARK",TX,78613,"RANCH AT DEER CREEK",,CONTRACTOR,,,,,,,,,,,"CODY POOLS",,,,,"CODY POOLS","2300 W PARMER LN",AUSTIN,TX,78727-4332,"(512) 835-4966",http://www.codypools.com,,"COLE NAUMAN",
TX,WILLIAMSON,2020-29824,"Residential Swimming Pools & Spas",11/25/2020,,71000,1281,"2701 FEATHERGRASS CT","CEDAR PARK",TX,78613,"RESERVE AT TWIN CREEKS",,CONTRACTOR,,,,,,,,,,,"CODY POOLS",,,,,"CODY POOLS","2300 W PARMER LN",AUSTIN,TX,78727-4332,"(512) 835-4966",http://www.codypools.com,,"COLE NAUMAN",
TX,WILLIAMSON,2020-29837,"Residential Swimming Pools & Spas",11/25/2020,,65000,1584,"1200 ANDREW CV","CEDAR PARK",TX,78613,"BUTTERCUP CREEK",,CONTRACTOR,,,,,,,,,,,"CODY POOLS",,,,,"CODY POOLS","2300 W PARMER LN",AUSTIN,TX,78727-4332,"(512) 835-4966",http://www.codypools.com,,"COLE NAUMAN",
TX,WILLIAMSON,2020-29874,"Residential Swimming Pools & Spas",11/10/2020,,7100,755,"2602 COPFORD LN","CEDAR PARK",TX,78613,"TWIN CREEKS",,CONTRACTOR,,,,,,,,,,,"ANTHONY & SYLVAN POOLS",,,,,"ANTHONY & SYLVAN POOLS","13343 N HIGHWAY 183 STE 295",AUSTIN,TX,78750-7161,"(512) 258-1232",http://www.anthonysylvan.com/,,,
TX,WILLIAMSON,2020-29878,"Residential Swimming Pools & Spas",11/16/2020,,250000,2445,"2708 FEATHERGRASS CT","CEDAR PARK",TX,78613,"RESERVE AT TWIN CREEKS",,CONTRACTOR,,,,,,,,,,,"DENALI POOLS",,,,,"DENALI POOLS","1904 BRUSHY BEND DR","ROUND ROCK",TX,78681-1451,"(512) 955-6564",,,,
TX,WILLIAMSON,2020-29879,"Residential Swimming Pools & Spas",11/24/2020,,91987,810,"1118 ANTELOPE RDG","CEDAR PARK",TX,78613,"FOREST OAKS",,"JENNIFER EUGENIO","1118 ANTELOPE RDG","CEDAR PARK",TX,78613,,Owner,,,,,"DENALI POOLS",,,,,"DENALI POOLS","1904 BRUSHY BEND DR","ROUND ROCK",TX,78681-1451,"(512) 955-6564",,,,
TX,WILLIAMSON,2020-29978,"Residential Swimming Pools & Spas",11/24/2020,,102000,1386,"905 WALSH HILL TRL","CEDAR PARK",TX,78613,"WALSH TRAILS",,"JASON & HINA CHAN","905 WALSH HILL TRL","CEDAR PARK",TX,78613,,Owner,,,,,"ANTHONY & SYLVAN POOLS",,,,,"ANTHONY & SYLVAN POOLS","13343 N HIGHWAY 183 STE 295",AUSTIN,TX,78750-7161,"(512) 258-1232",http://www.anthonysylvan.com/,,,
TX,TRAVIS,"2020-178069 BP","Residential Swimming Pools & Spas",12/3/2020,,,422,"5604 RAINDROP CV",AUSTIN,TX,78759,"THE GREENS",53,"CHARLIE PRINTY","5604 RAINDROP CV",AUSTIN,TX,78759,,Owner,,,,,POOLSCAPES,,,,,POOLSCAPES,"307 E AUSTIN AVE","ROUND ROCK",TX,78664-5211,"(512) 341-7665",,,,
TX,TRAVIS,"2020-178955 BP","Residential Swimming Pools & Spas",12/3/2020,,,378,"11901 QUASSIA DR",AUSTIN,TX,78739,MERIDIAN,14,"BRIAN & SHARON WHITE","11901 QUASSIA DR",AUSTIN,TX,78739,,Owner,,,,,"MAJESTIC POOLSCAPES",,,,,"MAJESTIC POOLSCAPES","1401 HOOKBILL KITE","BEE CAVES",TX,78738,"(512) 402-0011",,,,
TX,TRAVIS,"2020-182717 BP","Residential Swimming Pools & Spas",12/3/2020,,,323,"2716 GERAGHTY AVE",AUSTIN,TX,78757,"GREEN ACRES",17,CONTRACTOR,,,,,,,,,,,"SYLVAN GLADE HOMES",,,,,"SYLVAN GLADE HOMES","9717 MC NEIL RD",AUSTIN,TX,78729,"(512) 541-5348",,,,
TX,TRAVIS,"2020-184533 BP","Residential Swimming Pools & Spas",12/4/2020,,,175,"1602 WILSHIRE BLVD",AUSTIN,TX,78722,"WILSHIRE PARK",17,"JEANINE HENRY","1602 WILSHIRE BLVD",AUSTIN,TX,78722,,Owner,,,,,"PARADISA HOMES",,,,,"PARADISA HOMES","7427 N LAMAR BLVD STE 101",AUSTIN,TX,78752-2358,"(512) 910-4505",http://www.paradisahomes.com/,,,
TX,TRAVIS,"2020-167393 BP","Residential Swimming Pools & Spas",12/3/2020,,,514,"12417 DORSETT RD",AUSTIN,TX,78727,"ENCHANTED FOREST",16,"JESSICA & THOMAS JAMES","12417 DORSETT RD",AUSTIN,TX,78727,,Owner,,,,,"LOY CUSTOM POOL DESIGNS",,,,,"LOY CUSTOM POOL DESIGNS","13701 RONALD W REAGAN BLVD UNIT 31","CEDAR PARK",TX,78613,"(512) 904-0006",,,,
TX,TRAVIS,"2020-182277 BP","Residential Swimming Pools & Spas",12/4/2020,,,291,"9009 CENTURION PATH",AUSTIN,TX,78747,DELVALLE,,CONTRACTOR,,,,,,,,,,,"CODY POOLS",,,,,"CODY POOLS","2300 W PARMER LN",AUSTIN,TX,78727-4332,"(512) 835-4966",http://www.codypools.com,,"COLE NAUMAN",
TX,TRAVIS,"2020-182165 BP","Residential Swimming Pools & Spas",12/6/2020,,,396,"3006 STARDUST DR",AUSTIN,TX,78757,"ALLANDALE PARK",36,CONTRACTOR,,,,,,,,,,,"CODY POOLS",,,,,"CODY POOLS","2300 W PARMER LN",AUSTIN,TX,78727-4332,"(512) 835-4966",http://www.codypools.com,,"COLE NAUMAN",
TX,TRAVIS,"2020-181446 BP","Residential Swimming Pools & Spas",12/7/2020,,,583,"4524 EAGLE FEATHER DR",AUSTIN,TX,78735,"VILLAGE PARK AT TRAVIS COUNTRY",35,"RICHARD & KODIKAY CAIN","4524 EAGLE FEATHER DR",AUSTIN,TX,78735,,Owner,,,,,"RELIANT POOLS",,,,,"RELIANT POOLS","12343 HYMEADOW DR STE 3A",AUSTIN,TX,78750-1858,"(512) 407-2623",http://www.reliantpools.com/,,,
TX,TRAVIS,"2020-184049 BP","Residential Swimming Pools & Spas",12/7/2020,,,450,"1318 MADISON AVE",AUSTIN,TX,78757,CRESTVIEW,3,"SERGIO HERRERA","1318 MADISON AVE",AUSTIN,TX,78757,,Owner,,,,,"AUSTIN WATER DESIGNS",,,,,"AUSTIN WATER DESIGNS","147800 HAMILTON POOL ROAD",AUSTIN,TX,78738,"(512) 837-1666",,,,
TX,TRAVIS,"2020-167893 BP","Residential Swimming Pools & Spas",12/7/2020,,,1465,"2905 GREENLEE DR",AUSTIN,TX,78703,"MONTE VISTA",2,"RICHARD MCCLANAHAN","2905 GREENLEE DR",AUSTIN,TX,78703,,Owner,,,,,"CROWELL BUILDERS",,,,,"CROWELL BUILDERS","2215 WESTLAKE DR STE 201",AUSTIN,TX,78746-2910,"(512) 328-9974",http://crowellbuilders.com/,,,
TX,TRAVIS,"2020-181153 BP","Residential Swimming Pools & Spas",12/7/2020,,,433,"4011 ROCKLEDGE DR",AUSTIN,TX,78731,"NORTHWEST HILLS",26,"WILLIAM CAMPBELL","4011 ROCKLEDGE DR",AUSTIN,TX,78731,,Owner,,,,,"CODY POOLS",,,,,"CODY POOLS","2300 W PARMER LN",AUSTIN,TX,78727-4332,"(512) 835-4966",http://www.codypools.com,,"COLE NAUMAN",
TX,TRAVIS,"2020-181610 BP","Residential Swimming Pools & Spas",12/7/2020,,,499,"11705 HORNSBY ST",AUSTIN,TX,78753,"EUBANK ACRES",4,"THOMAS NILLES","11705 HORNSBY ST",AUSTIN,TX,78753,,Owner,,,,,"CODY POOLS",,,,,"CODY POOLS","2300 W PARMER LN",AUSTIN,TX,78727-4332,"(512) 835-4966",http://www.codypools.com,,"COLE NAUMAN",
TX,TRAVIS,"2020-183261 BP","Residential Swimming Pools & Spas",12/7/2020,,36000,235,"3809 WILSON ST",AUSTIN,TX,78704,WILLIAMSON,7,"KEVIN & JENNIFER NOLAN","3809 WILSON ST",AUSTIN,TX,78704,,Owner,,,,,"CODY POOLS",,,,,"CODY POOLS","2300 W PARMER LN",AUSTIN,TX,78727-4332,"(512) 835-4966",http://www.codypools.com,,"COLE NAUMAN",
TX,TRAVIS,"2020-179756 BP","Residential Swimming Pools & Spas",12/4/2020,,37000,450,"11807 HIGHLAND OAKS TRL",AUSTIN,TX,78759,"HIGHLAND OAKS",4,"CHARISA CERVELLI","11807 HIGHLAND OAKS TRL",AUSTIN,TX,78759,,Owner,,,,,"CODY POOLS",,,,,"CODY POOLS","2300 W PARMER LN",AUSTIN,TX,78727-4332,"(512) 835-4966",http://www.codypools.com,,"COLE NAUMAN",
TX,TRAVIS,"2020-165183 BP","Residential Swimming Pools & Spas",12/4/2020,,50000,371,"7512 HARDY DR",AUSTIN,TX,78757,CRESTVIEW,5,"BENJAMIN & STACY FORMBY","7512 HARDY DR",AUSTIN,TX,78757,,Owner,,,,,"FORMBY CONSTRUCTION",,,,,"FORMBY CONSTRUCTION","101 CORDWOOD","DRIPPING SPRINGS",TX,78620-3151,"(979) 204-3906",,,"BENJAMIN FORMBY",
TX,TRAVIS,"2020-167576 BP","Residential Swimming Pools & Spas",12/5/2020,,50000,221,"924 E 49TH HALF ST",AUSTIN,TX,78751,"HARMON TERRACE",5,"MELISSA MCCARTY","924 E 49TH HALF ST",AUSTIN,TX,78751,,Owner,,,,,"TEXAS TINY POOLS",,,,,"TEXAS TINY POOLS","10509 OLD MANCHACA RD",AUSTIN,TX,78748-2117,"(512) 845-3151",,,,
TX,TRAVIS,"2020-163897 BP","Residential Swimming Pools & Spas",12/5/2020,,55000,216,"4212 MARATHON BLVD",AUSTIN,TX,78756,"ALTA VISTA",10,"WILLIAM MEADOWS","4212 MARATHON BLVD",AUSTIN,TX,78756,,Owner,,,,,"TEXAS TINY POOLS",,,,,"TEXAS TINY POOLS","10509 OLD MANCHACA RD",AUSTIN,TX,78748-2117,"(512) 845-3151",,,,
TX,TRAVIS,"2020-184039 BP","Residential Swimming Pools & Spas",12/4/2020,,58000,544,"5105 EVERGREEN CT",AUSTIN,TX,78731,"HIGHLAND PARK",9,"ROY GRANGER","5105 EVERGREEN CT",AUSTIN,TX,78731,,Owner,,,,,"CODY POOLS",,,,,"CODY POOLS","2300 W PARMER LN",AUSTIN,TX,78727-4332,"(512) 835-4966",http://www.codypools.com,,"COLE NAUMAN",
TX,TRAVIS,"2020-158331 BP","Residential Swimming Pools & Spas",12/3/2020,,65000,200,"12917 GANDIA DR",AUSTIN,TX,78739,,,CONTRACTOR,,,,,,,,,,,"TEXAS TINY POOLS",,,,,"TEXAS TINY POOLS","10509 OLD MANCHACA RD",AUSTIN,TX,78748-2117,"(512) 845-3151",,,,
TX,TRAVIS,"2020-177908 BP","Residential Swimming Pools & Spas",12/5/2020,,65000,231,"3202 HOLLYWOOD AVE",AUSTIN,TX,78722,AVALON,74,"MATTHEW & SAVARESE BEST","3202 HOLLYWOOD AVE",AUSTIN,TX,78722,,Owner,,,,,"TEXAS TINY POOLS",,,,,"TEXAS TINY POOLS","10509 OLD MANCHACA RD",AUSTIN,TX,78748-2117,"(512) 845-3151",,,,
TX,TRAVIS,"2020-182855 BP","Residential Swimming Pools & Spas",12/4/2020,,65237,422,"1807 FORESTGLADE DR",AUSTIN,TX,78745,"PARK FOREST",18,"NIMA REZA","1807 FORESTGLADE DR",AUSTIN,TX,78745,,Owner,,,,,"PREMIER POOLS & SPAS",,,,,"PREMIER POOLS & SPAS","7703 N LAMAR BLVD STE 606",AUSTIN,TX,78752-1027,"(512) 470-3949",,,,
TX,TRAVIS,"2020-182331 BP","Residential Swimming Pools & Spas",12/7/2020,,72000,414,"2703 MOUNTAIN LAUREL DR",AUSTIN,TX,78703,"MOUNTAIN LAUREL",2,"JASON & ANGELA LIPPMAN","2703 MOUNTAIN LAUREL DR",AUSTIN,TX,78703,,Owner,,,,,"HAMPLE POOLS AND SERVICE",,,,,"HAMPLE POOLS AND SERVICE","15503 BRENDA ST",AUSTIN,TX,78728-3902,"(512) 836-0244",,,,
TX,TRAVIS,"2020-182377 BP","Residential Swimming Pools & Spas",12/4/2020,,74000,370,"7209 BREEZY PASS CV",AUSTIN,TX,78749,"OAK HILL HEIGHTS",2,"ALEX & REBECCA WALSTON","7209 BREEZY PASS CV",AUSTIN,TX,78749,,Owner,,,,,"ANTHONY & SYLVAN POOLS",,,,,"ANTHONY & SYLVAN POOLS","13343 N HIGHWAY 183 STE 295",AUSTIN,TX,78750-7161,"(512) 258-1232",http://www.anthonysylvan.com/,,,
TX,TRAVIS,"2020-180158 BP","Residential Swimming Pools & Spas",12/4/2020,,78805,571,"7400 JOURNEYVILLE DR",AUSTIN,TX,78735,LANTANA,55,"CHRISTIE APPLEWHITE","7400 JOURNEYVILLE DR",AUSTIN,TX,78735,,Owner,,,,,"PREMIER POOLS & SPAS",,,,,"PREMIER POOLS & SPAS","7703 N LAMAR BLVD STE 606",AUSTIN,TX,78752-1027,"(512) 470-3949",,,,
TX,TRAVIS,"2020-180140 BP","Residential Swimming Pools & Spas",12/4/2020,,80000,604,"1912 W 38TH ST",AUSTIN,TX,78731,"OAKMONT HEIGHTS",7,"KELLY MCDEVITT","1912 W 38TH ST",AUSTIN,TX,78731,,Owner,,,,,"MORTAR TEK",,,,,"MORTAR TEK","9900 MCNEIL DR",AUSTIN,TX,78750-8330,"(512) 431-0960",,,ANDRESPARTIDA,
TX,TRAVIS,"2020-181775 BP","Residential Swimming Pools & Spas",12/7/2020,,84500,630,"8704 HONEYSUCKLE TRL",AUSTIN,TX,78759,"WESTOVER HILLS",3,"SEAN & BRIDGET ROACH","8704 HONEYSUCKLE TRL",AUSTIN,TX,78759,,Owner,,,,,"WILSON CENTRAL TEXAS POOLS",,,,,"WILSON CENTRAL TEXAS POOLS","107 SUNSET RIDGE",GEORGETOWN,TX,78633,"(512) 240-2159",,,,
TX,TRAVIS,"2020-179675 BP","Residential Swimming Pools & Spas",12/3/2020,,100000,501,"12001 SPRINGS HEAD LOOP",AUSTIN,TX,78717,"AVERY RANCH FAR",,CONTRACTOR,,,,,,,,,,,"CALIFORNIA POOLS OF TEXAS",,,,,"CALIFORNIA POOLS OF TEXAS","12871 RESEARCH BLVD UNIT 204",AUSTIN,TX,78613,"(512) 942-2575",,,,
TX,TRAVIS,"2020-172603 BP","Residential Swimming Pools & Spas",12/4/2020,,114988,578,"7101 GREENSHORES DR",AUSTIN,TX,78730,"GREENSHORES ON LAKE AUSTIN",80,"EDWARD & MARTHA RUTH","7101 GREENSHORES DR",AUSTIN,TX,78730,,Owner,,,,,"PREMIER POOLS & SPAS",,,,,"PREMIER POOLS & SPAS","7703 N LAMAR BLVD STE 606",AUSTIN,TX,78752-1027,"(512) 470-3949",,,,
TX,WILLIAMSON,2020-29367,Retail,11/6/2020,"Finish Out",900000,8214,"1615 SCOTTSDALE DR",LEANDER,TX,78641,,,CONTRACTOR,,,,,,,,,,,"IE2 CONSTRUCTION",,,,,"IE2 CONSTRUCTION","2205 W BRAKER LN",AUSTIN,TX,78758-4031,"(512) 973-3930",,,,
TX,WILLIAMSON,2020-29666,Retail,11/12/2020,"Finish Out",1200000,15525,"1717 SCOTTSDALE DR","CEDAR PARK",TX,78641,,,CONTRACTOR,,,,,,,,,,,"HMI CONSTRUCTION SERVICES",,,,,"HMI CONSTRUCTION SERVICES","4202 SPICEWOOD SPRINGS RD STE 208",AUSTIN,TX,78759-8621,"(512) 775-6378",http://www.hmiatx.com/,,,officemgr@hmiatx.com
TX,WILLIAMSON,2020-29715,Retail,11/30/2020,Renovation,150000,2588,"2800 E WHITESTONE BLVD","CEDAR PARK",TX,78613,,,CONTRACTOR,,,,,,,,,,,"TRINITY CONSTRUCTORS",,,,,"TRINITY CONSTRUCTORS","11313 CHURCH CANYON DR",AUSTIN,TX,78754-5900,"(512) 258-0161",,,,
TX,WILLIAMSON,2020-29877,Retail,11/19/2020,Renovation,566734,,"170 E WHITESTONE BLVD","CEDAR PARK",TX,78613,,,CONTRACTOR,,,,,,,,,,,TDINDUSTRIES,,,,,TDINDUSTRIES,"8801 JAMEEL RD STE 100",HOUSTON,TX,77040-5093,"(713) 939-1986",,,,
TX,HAYS,2020-3410,"Single Family Homes",11/2/2020,,273000,2326,"160 MARTHA LN",KYLE,TX,78640,,,CONTRACTOR,,,,,,,,,,,"BIGELOW DEVELOPMENT",,,,,"BIGELOW DEVELOPMENT","1048 SANDERS",KYLE,TX,78640-6122,"(512) 504-9243",,,,
TX,HAYS,2020-3259,"Single Family Homes",11/3/2020,,179100,1791,"227 SENECA LOOP",KYLE,TX,78640,,,CONTRACTOR,,,,,,,,,,,"ASHTON WOODS HOMES",,,,,"ASHTON WOODS HOMES","4201 W PARMER LN STE A150",AUSTIN,TX,78727-4118,"(512) 610-7000",,,,
TX,HAYS,2020-3251,"Single Family Homes",11/3/2020,,179100,,"200 SENECA LOOP",KYLE,TX,78640,,,CONTRACTOR,,,,,,,,,,,"ASHTON WOODS HOMES",,,,,"ASHTON WOODS HOMES","4201 W PARMER LN STE A150",AUSTIN,TX,78727-4118,"(512) 610-7000",,,,
TX,HAYS,2020-3295,"Single Family Homes",11/3/2020,,306700,3067,"247 SENECA LOOP",KYLE,TX,78640,,,CONTRACTOR,,,,,,,,,,,"ASHTON WOODS HOMES",,,,,"ASHTON WOODS HOMES","4201 W PARMER LN STE A150",AUSTIN,TX,78727-4118,"(512) 610-7000",,,,
TX,HAYS,2020-3257,"Single Family Homes",11/3/2020,,269600,,"207 SENECA LOOP",KYLE,TX,78640,,,CONTRACTOR,,,,,,,,,,,"ASHTON WOODS HOMES",,,,,"ASHTON WOODS HOMES","4201 W PARMER LN STE A150",AUSTIN,TX,78727-4118,"(512) 610-7000",,,,
TX,HAYS,2020-3296,"Single Family Homes",11/3/2020,,269600,,"257 SENECA LOOP",KYLE,TX,78640,,,CONTRACTOR,,,,,,,,,,,"ASHTON WOODS HOMES",,,,,"ASHTON WOODS HOMES","4201 W PARMER LN STE A150",AUSTIN,TX,78727-4118,"(512) 610-7000",,,,
TX,HAYS,2020-3293,"Single Family Homes",11/3/2020,,179100,,"250 SENECA LOOP",KYLE,TX,78640,,,CONTRACTOR,,,,,,,,,,,"ASHTON WOODS HOMES",,,,,"ASHTON WOODS HOMES","4201 W PARMER LN STE A150",AUSTIN,TX,78727-4118,"(512) 610-7000",,,,
TX,HAYS,2020-3291,"Single Family Homes",11/3/2020,,269600,2696,"230 SENECA LOOP",KYLE,TX,78640,,,CONTRACTOR,,,,,,,,,,,"ASHTON WOODS HOMES",,,,,"ASHTON WOODS HOMES","4201 W PARMER LN STE A150",AUSTIN,TX,78727-4118,"(512) 610-7000",,,,
TX,HAYS,2020-3253,"Single Family Homes",11/12/2020,,281400,2814,"220 SENECA LOOP",KYLE,TX,78640,,,CONTRACTOR,,,,,,,,,,,"ASHTON WOODS HOMES",,,,,"ASHTON WOODS HOMES","4201 W PARMER LN STE A150",AUSTIN,TX,78727-4118,"(512) 610-7000",,,,
TX,HAYS,2020-3402,"Single Family Homes",11/3/2020,,340170,,"190 MAROON LN",KYLE,TX,78640,,,CONTRACTOR,,,,,,,,,,,"KB HOME",,,,,"KB HOME","10800 PECAN PARK BLVD STE 200",AUSTIN,TX,78750-1249,"(512) 651-8100",,,,
TX,HAYS,2020-3254,"Single Family Homes",11/3/2020,,306700,3067,"177 SENECA LOOP",KYLE,TX,78640,,,CONTRACTOR,,,,,,,,,,,"ASHTON WOODS HOMES",,,,,"ASHTON WOODS HOMES","4201 W PARMER LN STE A150",AUSTIN,TX,78727-4118,"(512) 610-7000",,,,
TX,HAYS,2020-3294,"Single Family Homes",11/3/2020,,216600,,"237 SENECA LOOP",KYLE,TX,78640,,,CONTRACTOR,,,,,,,,,,,"ASHTON WOODS HOMES",,,,,"ASHTON WOODS HOMES","4201 W PARMER LN STE A150",AUSTIN,TX,78727-4118,"(512) 610-7000",,,,
TX,HAYS,2020-3292,"Single Family Homes",11/3/2020,,237900,,"240 SENECA LOOP",KYLE,TX,78640,,,CONTRACTOR,,,,,,,,,,,"ASHTON WOODS HOMES",,,,,"ASHTON WOODS HOMES","4201 W PARMER LN STE A150",AUSTIN,TX,78727-4118,"(512) 610-7000",,,,
TX,HAYS,2020-3255,"Single Family Homes",11/3/2020,,216600,2166,"187 SENECA LOOP",KYLE,TX,78640,,,CONTRACTOR,,,,,,,,,,,"ASHTON WOODS HOMES",,,,,"ASHTON WOODS HOMES","4201 W PARMER LN STE A150",AUSTIN,TX,78727-4118,"(512) 610-7000",,,,
TX,HAYS,2020-3252,"Single Family Homes",11/3/2020,,216600,2166,"210 SENECA LOOP",KYLE,TX,78640,,,CONTRACTOR,,,,,,,,,,,"ASHTON WOODS HOMES",,,,,"ASHTON WOODS HOMES","4201 W PARMER LN STE A150",AUSTIN,TX,78727-4118,"(512) 610-7000",,,,
TX,HAYS,2020-3258,"Single Family Homes",11/3/2020,,327900,3279,"217 SENECA LOOP",KYLE,TX,78640,,,CONTRACTOR,,,,,,,,,,,"ASHTON WOODS HOMES",,,,,"ASHTON WOODS HOMES","4201 W PARMER LN STE A150",AUSTIN,TX,78727-4118,"(512) 610-7000",,,,
TX,HAYS,2020-3401,"Single Family Homes",11/3/2020,,171020,2012,"171 JARBRIDGE DR",KYLE,TX,78640,,,CONTRACTOR,,,,,,,,,,,"KB HOME",,,,,"KB HOME","10800 PECAN PARK BLVD STE 200",AUSTIN,TX,78750-1249,"(512) 651-8100",,,,
TX,HAYS,2020-3404,"Single Family Homes",11/4/2020,,117880,2052,"131 EMERALD PASS",KYLE,TX,78640,,,CONTRACTOR,,,,,,,,,,,"MILESTONE COMMUNITY BUILDERS",,,,,"MILESTONE COMMUNITY BUILDERS","9111 JOLLYVILLE RD STE 111",AUSTIN,TX,78759-7406,"(512) 686-4986",http://www.mymilestone.com/,,,
TX,HAYS,2020-3358,"Single Family Homes",11/4/2020,,532132,3365,"227 MINERAL RIVER LOOP",KYLE,TX,78640,,,CONTRACTOR,,,,,,,,,,,"MHI MCGUYER HOMEBUILDERS",,,,,"MHI MCGUYER HOMEBUILDERS","8200 N MO PAC EXPY STE 300",AUSTIN,TX,78759-8844,"(512) 502-2050",,"(512) 388-1836","FRANK MCGUYER",
TX,HAYS,2020-3392,"Single Family Homes",11/4/2020,,420000,3700,"166 COYOTE CREEK WAY",KYLE,TX,78640,,,CONTRACTOR,,,,,,,,,,,"PERRY HOMES",,,,,"PERRY HOMES","6112 LLANO ST",AUSTIN,TX,78702,"(512) 810-8050",,,,
TX,HAYS,2020-3055,"Single Family Homes",11/4/2020,,391940,2515,"111 WEST BRANCH RD",KYLE,TX,78640,,,CONTRACTOR,,,,,,,,,,,"MHI MCGUYER HOMEBUILDERS",,,,,"MHI MCGUYER HOMEBUILDERS","8200 N MO PAC EXPY STE 300",AUSTIN,TX,78759-8844,"(512) 502-2050",,"(512) 388-1836","FRANK MCGUYER",
TX,HAYS,2020-3328,"Single Family Homes",11/4/2020,,350000,2747,"293 EAGLE FORD DR",KYLE,TX,78640,,,CONTRACTOR,,,,,,,,,,,"PERRY HOMES",,,,,"PERRY HOMES","6112 LLANO ST",AUSTIN,TX,78702,"(512) 810-8050",,,,
TX,HAYS,2020-3403,"Single Family Homes",11/4/2020,,117880,2269,"124 SILVER SPRINGS BND",KYLE,TX,78640,,,CONTRACTOR,,,,,,,,,,,"MILESTONE COMMUNITY BUILDERS",,,,,"MILESTONE COMMUNITY BUILDERS","9111 JOLLYVILLE RD STE 111",AUSTIN,TX,78759-7406,"(512) 686-4986",http://www.mymilestone.com/,,,
TX,HAYS,2020-3398,"Single Family Homes",11/4/2020,,285000,2799,"120 OLYMPIC DR",KYLE,TX,78640,,,CONTRACTOR,,,,,,,,,,,"CHESMAR HOMES",,,,,"CHESMAR HOMES","2900 N QUINLAN PARK RD",AUSTIN,TX,78732-6083,"(512) 233-9016",http://chesmar.com,,,
TX,HAYS,2020-3407,"Single Family Homes",11/6/2020,,285000,,"210 OLYMPIC DR",KYLE,TX,78640,,,CONTRACTOR,,,,,,,,,,,"CHESMAR HOMES",,,,,"CHESMAR HOMES","2900 N QUINLAN PARK RD",AUSTIN,TX,78732-6083,"(512) 233-9016",http://chesmar.com,,,
TX,HAYS,2020-3408,"Single Family Homes",11/6/2020,,275000,,"220 OLYMPIC DR",KYLE,TX,78640,,,CONTRACTOR,,,,,,,,,,,"CHESMAR HOMES",,,,,"CHESMAR HOMES","2900 N QUINLAN PARK RD",AUSTIN,TX,78732-6083,"(512) 233-9016",http://chesmar.com,,,
TX,HAYS,2020-3423,"Single Family Homes",11/9/2020,,276000,2356,"154 MARTHA LN",KYLE,TX,78640,,,CONTRACTOR,,,,,,,,,,,"BIGELOW DEVELOPMENT",,,,,"BIGELOW DEVELOPMENT","1048 SANDERS",KYLE,TX,78640-6122,"(512) 504-9243",,,,
TX,HAYS,2020-3351,"Single Family Homes",11/9/2020,,307990,2770,"693 SPINNAKER LOOP",KYLE,TX,78640,,,CONTRACTOR,,,,,,,,,,,"GEHAN HOMES",,,,,"GEHAN HOMES","3815 S CAPITAL OF TEXAS HWY STE 275",AUSTIN,TX,78704-6652,"(512) 330-9366",http://www.gehanhomes.com,,"JANET PHILLIPS",
TX,HAYS,2020-3484,"Single Family Homes",11/9/2020,,275740,2071,"283 TREASURE TROVE PATH",KYLE,TX,78640,,,CONTRACTOR,,,,,,,,,,,"HIGHLAND HOMES",,,,,"HIGHLAND HOMES","4201 W PARMER LN STE B180",AUSTIN,TX,78727-4110,"(512) 834-8429",,,,
TX,HAYS,2020-3418,"Single Family Homes",11/9/2020,,260000,2855,"213 FAWN RIVER RUN",KYLE,TX,78640,,,CONTRACTOR,,,,,,,,,,,"PERRY HOMES",,,,,"PERRY HOMES","6112 LLANO ST",AUSTIN,TX,78702,"(512) 810-8050",,,,
TX,HAYS,2020-3417,"Single Family Homes",11/9/2020,,370000,3038,"406 COLD RIVER RUN",KYLE,TX,78640,,,CONTRACTOR,,,,,,,,,,,"PERRY HOMES",,,,,"PERRY HOMES","6112 LLANO ST",AUSTIN,TX,78702,"(512) 810-8050",,,,
TX,HAYS,2020-3420,"Single Family Homes",11/9/2020,,370000,2525,"312 HELENA LN",KYLE,TX,78640,,,CONTRACTOR,,,,,,,,,,,"DAVID WEEKLEY HOMES",,,,,"DAVID WEEKLEY HOMES","9000 WATERFORD CENTRE BLVD",AUSTIN,TX,78758-7662,"(800) 390-6774",http://www.davidweekleyhomes.com/,,,
TX,HAYS,2020-3419,"Single Family Homes",11/9/2020,,250000,2460,"223 FAWN RIVER RUN",KYLE,TX,78640,,,CONTRACTOR,,,,,,,,,,,"PERRY HOMES",,,,,"PERRY HOMES","6112 LLANO ST",AUSTIN,TX,78702,"(512) 810-8050",,,,
TX,HAYS,2020-3362,"Single Family Homes",11/10/2020,,206900,2069,"537 COLD RIVER RUN",KYLE,TX,78640,,,CONTRACTOR,,,,,,,,,,,"M/I HOMES",,,,,"M/I HOMES","6801 N CAPITAL OF TEXAS HWY BLDG 2 STE 100",AUSTIN,TX,78731-1780,"(512) 770-8500",,,,
TX,HAYS,2020-3442,"Single Family Homes",11/10/2020,,275000,2601,"148 MARTHA LN",KYLE,TX,78640,,,CONTRACTOR,,,,,,,,,,,"BIGELOW DEVELOPMENT",,,,,"BIGELOW DEVELOPMENT","1048 SANDERS",KYLE,TX,78640-6122,"(512) 504-9243",,,,
TX,HAYS,2020-3497,"Single Family Homes",11/12/2020,,565065,4765,"652 PAINTED CREEK WAY",KYLE,TX,78640,,,CONTRACTOR,,,,,,,,,,,"HIGHLAND HOMES",,,,,"HIGHLAND HOMES","4201 W PARMER LN STE B180",AUSTIN,TX,78727-4110,"(512) 834-8429",,,,
TX,HAYS,2020-3243,"Single Family Homes",11/12/2020,,315913,3246,"414 PAINTED CREEK WAY",KYLE,TX,78640,,,CONTRACTOR,,,,,,,,,,,"MHI MCGUYER HOMEBUILDERS",,,,,"MHI MCGUYER HOMEBUILDERS","8200 N MO PAC EXPY STE 300",AUSTIN,TX,78759-8844,"(512) 502-2050",,"(512) 388-1836","FRANK MCGUYER",
TX,HAYS,2020-3222,"Single Family Homes",11/12/2020,,219594,289,"264 WEST BRANCH RD",KYLE,TX,78640,,,CONTRACTOR,,,,,,,,,,,"MHI MCGUYER HOMEBUILDERS",,,,,"MHI MCGUYER HOMEBUILDERS","8200 N MO PAC EXPY STE 300",AUSTIN,TX,78759-8844,"(512) 502-2050",,"(512) 388-1836","FRANK MCGUYER",
TX,HAYS,2020-3463,"Single Family Homes",11/13/2020,,249135,2931,"160 KENNICOTT DR",KYLE,TX,78640,,,CONTRACTOR,,,,,,,,,,,"KB HOME",,,,,"KB HOME","10800 PECAN PARK BLVD STE 200",AUSTIN,TX,78750-1249,"(512) 651-8100",,,,
TX,HAYS,2020-3470,"Single Family Homes",11/13/2020,,340170,4002,"159 KENNICOTT DR",KYLE,TX,78640,,,CONTRACTOR,,,,,,,,,,,"KB HOME",,,,,"KB HOME","10800 PECAN PARK BLVD STE 200",AUSTIN,TX,78750-1249,"(512) 651-8100",,,,
TX,HAYS,2020-3436,"Single Family Homes",11/13/2020,,248370,2922,"150 KENNICOTT DR",KYLE,TX,78640,,,CONTRACTOR,,,,,,,,,,,"KB HOME",,,,,"KB HOME","10800 PECAN PARK BLVD STE 200",AUSTIN,TX,78750-1249,"(512) 651-8100",,,,
TX,HAYS,2020-3464,"Single Family Homes",11/13/2020,,249135,2931,"101 KENNICOTT DR",KYLE,TX,78640,,,CONTRACTOR,,,,,,,,,,,"KB HOME",,,,,"KB HOME","10800 PECAN PARK BLVD STE 200",AUSTIN,TX,78750-1249,"(512) 651-8100",,,,
TX,HAYS,2020-3437,"Single Family Homes",11/13/2020,,223550,2630,"166 REDCLIFF PATH",KYLE,TX,78640,,,CONTRACTOR,,,,,,,,,,,"KB HOME",,,,,"KB HOME","10800 PECAN PARK BLVD STE 200",AUSTIN,TX,78750-1249,"(512) 651-8100",,,,
TX,HAYS,2020-3465,"Single Family Homes",11/13/2020,,249135,2931,"121 KENNICOTT DR",KYLE,TX,78640,,,CONTRACTOR,,,,,,,,,,,"KB HOME",,,,,"KB HOME","10800 PECAN PARK BLVD STE 200",AUSTIN,TX,78750-1249,"(512) 651-8100",,,,
TX,HAYS,2020-3435,"Single Family Homes",11/13/2020,,215985,,"110 KENNICOTT DR",KYLE,TX,78640,,,CONTRACTOR,,,,,,,,,,,"KB HOME",,,,,"KB HOME","10800 PECAN PARK BLVD STE 200",AUSTIN,TX,78750-1249,"(512) 651-8100",,,,
TX,HAYS,2020-3460,"Single Family Homes",11/13/2020,,341190,4014,"181 AUBURN ST",KYLE,TX,78640,,,CONTRACTOR,,,,,,,,,,,"KB HOME",,,,,"KB HOME","10800 PECAN PARK BLVD STE 200",AUSTIN,TX,78750-1249,"(512) 651-8100",,,,
TX,HAYS,2020-3462,"Single Family Homes",11/13/2020,,161160,,"130 KENNICOTT DR",KYLE,TX,78640,,,CONTRACTOR,,,,,,,,,,,"KB HOME",,,,,"KB HOME","10800 PECAN PARK BLVD STE 200",AUSTIN,TX,78750-1249,"(512) 651-8100",,,,
TX,HAYS,2020-3438,"Single Family Homes",11/16/2020,,,1843,"164 SEQUOIA DR",KYLE,TX,78640,,,CONTRACTOR,,,,,,,,,,,"SCOTT FELDER HOMES",,,,,"SCOTT FELDER HOMES","6414 RIVER PLACE BLVD STE 100",AUSTIN,TX,78730-1158,"(512) 418-5400",,,,
TX,HAYS,2020-3468,"Single Family Homes",11/16/2020,,265030,3118,"319 KENNICOTT DR",KYLE,TX,78640,,,CONTRACTOR,,,,,,,,,,,"KB HOME",,,,,"KB HOME","10800 PECAN PARK BLVD STE 200",AUSTIN,TX,78750-1249,"(512) 651-8100",,,,
TX,HAYS,2020-3446,"Single Family Homes",11/16/2020,,,1829,"253 HELENA LN",KYLE,TX,78640,,,CONTRACTOR,,,,,,,,,,,"SCOTT FELDER HOMES",,,,,"SCOTT FELDER HOMES","6414 RIVER PLACE BLVD STE 100",AUSTIN,TX,78730-1158,"(512) 418-5400",,,,
TX,HAYS,2020-3433,"Single Family Homes",11/16/2020,,325990,3366,"785 SPINNAKER LOOP",KYLE,TX,78640,,,CONTRACTOR,,,,,,,,,,,"GEHAN HOMES",,,,,"GEHAN HOMES","3815 S CAPITAL OF TEXAS HWY STE 275",AUSTIN,TX,78704-6652,"(512) 330-9366",http://www.gehanhomes.com,,"JANET PHILLIPS",
TX,HAYS,2020-3461,"Single Family Homes",11/16/2020,,236810,2786,"255 KAT GARNET DR",KYLE,TX,78640,,,CONTRACTOR,,,,,,,,,,,"KB HOME",,,,,"KB HOME","10800 PECAN PARK BLVD STE 200",AUSTIN,TX,78750-1249,"(512) 651-8100",,,,
TX,HAYS,2020-3466,"Single Family Homes",11/16/2020,,217685,2561,"216 JOHNNY CAKE DR",KYLE,TX,78640,,,CONTRACTOR,,,,,,,,,,,"KB HOME",,,,,"KB HOME","10800 PECAN PARK BLVD STE 200",AUSTIN,TX,78750-1249,"(512) 651-8100",,,,
TX,HAYS,2020-3432,"Single Family Homes",11/16/2020,,,2874,"1131 OLYMPIC LN",KYLE,TX,78640,,,CONTRACTOR,,,,,,,,,,,"SCOTT FELDER HOMES",,,,,"SCOTT FELDER HOMES","6414 RIVER PLACE BLVD STE 100",AUSTIN,TX,78730-1158,"(512) 418-5400",,,,
TX,HAYS,2020-3445,"Single Family Homes",11/16/2020,,,2789,"101 ANGELINA CT",KYLE,TX,78640,,,CONTRACTOR,,,,,,,,,,,"SCOTT FELDER HOMES",,,,,"SCOTT FELDER HOMES","6414 RIVER PLACE BLVD STE 100",AUSTIN,TX,78730-1158,"(512) 418-5400",,,,
TX,HAYS,2020-3459,"Single Family Homes",11/16/2020,,249900,2940,"310 MAROON LN",KYLE,TX,78640,,,CONTRACTOR,,,,,,,,,,,"KB HOME",,,,,"KB HOME","10800 PECAN PARK BLVD STE 200",AUSTIN,TX,78750-1249,"(512) 651-8100",,,,
TX,HAYS,2020-3447,"Single Family Homes",11/16/2020,,,2180,"229 HELENA LN",KYLE,TX,78640,,,CONTRACTOR,,,,,,,,,,,"SCOTT FELDER HOMES",,,,,"SCOTT FELDER HOMES","6414 RIVER PLACE BLVD STE 100",AUSTIN,TX,78730-1158,"(512) 418-5400",,,,
TX,HAYS,R2020-3469,"Single Family Homes",11/16/2020,,340170,4002,"270 JOHNNY CAKE DR",KYLE,TX,78640,,,CONTRACTOR,,,,,,,,,,,"KB HOME",,,,,"KB HOME","10800 PECAN PARK BLVD STE 200",AUSTIN,TX,78750-1249,"(512) 651-8100",,,,
TX,HAYS,2020-3421,"Single Family Homes",11/17/2020,,238800,2388,"134 COYOTE CREEK WAY",KYLE,TX,78640,,,CONTRACTOR,,,,,,,,,,,"M/I HOMES",,,,,"M/I HOMES","6801 N CAPITAL OF TEXAS HWY BLDG 2 STE 100",AUSTIN,TX,78731-1780,"(512) 770-8500",,,,
TX,HAYS,2020-3406,"Single Family Homes",11/17/2020,,295000,3159,"200 OLYMPIC DR",KYLE,TX,78640,,,CONTRACTOR,,,,,,,,,,,"CHESMAR HOMES",,,,,"CHESMAR HOMES","2900 N QUINLAN PARK RD",AUSTIN,TX,78732-6083,"(512) 233-9016",http://chesmar.com,,,
TX,HAYS,2020-3440,"Single Family Homes",11/17/2020,,300990,3379,"163 GARNER DR",KYLE,TX,78640,,,CONTRACTOR,,,,,,,,,,,"CHESMAR HOMES",,,,,"CHESMAR HOMES","2900 N QUINLAN PARK RD",AUSTIN,TX,78732-6083,"(512) 233-9016",http://chesmar.com,,,
TX,HAYS,2020-3409,"Single Family Homes",11/17/2020,,295000,2703,"261 BANFF DR",KYLE,TX,78640,,,CONTRACTOR,,,,,,,,,,,"CHESMAR HOMES",,,,,"CHESMAR HOMES","2900 N QUINLAN PARK RD",AUSTIN,TX,78732-6083,"(512) 233-9016",http://chesmar.com,,,
TX,HAYS,2020-3444,"Single Family Homes",11/17/2020,,370000,,"136 ANGELINA CT",KYLE,TX,78640,,,CONTRACTOR,,,,,,,,,,,"DAVID WEEKLEY HOMES",,,,,"DAVID WEEKLEY HOMES","9000 WATERFORD CENTRE BLVD",AUSTIN,TX,78758-7662,"(800) 390-6774",http://www.davidweekleyhomes.com/,,,
TX,HAYS,2020-3443,"Single Family Homes",11/17/2020,,261000,2439,"1604 ARBOR KNOT DR",KYLE,TX,78640,,,CONTRACTOR,,,,,,,,,,,"BIGELOW DEVELOPMENT",,,,,"BIGELOW DEVELOPMENT","1048 SANDERS",KYLE,TX,78640-6122,"(512) 504-9243",,,,
TX,HAYS,2020-3441,"Single Family Homes",11/17/2020,,305990,3379,"271 BANFF DR",KYLE,TX,78640,,,CONTRACTOR,,,,,,,,,,,"CHESMAR HOMES",,,,,"CHESMAR HOMES","2900 N QUINLAN PARK RD",AUSTIN,TX,78732-6083,"(512) 233-9016",http://chesmar.com,,,
TX,HAYS,2020-3422,"Single Family Homes",11/17/2020,,182500,1825,"243 PAINTED CREEK WAY",KYLE,TX,78640,,,CONTRACTOR,,,,,,,,,,,"M/I HOMES",,,,,"M/I HOMES","6801 N CAPITAL OF TEXAS HWY BLDG 2 STE 100",AUSTIN,TX,78731-1780,"(512) 770-8500",,,,
TX,HAYS,2020-3411,"Single Family Homes",11/18/2020,,300990,2878,"251 BANFF DR",KYLE,TX,78640,,,CONTRACTOR,,,,,,,,,,,"CHESMAR HOMES",,,,,"CHESMAR HOMES","2900 N QUINLAN PARK RD",AUSTIN,TX,78732-6083,"(512) 233-9016",http://chesmar.com,,,
TX,HAYS,2020-3424,"Single Family Homes",11/18/2020,,395000,,"244 COYOTE CREEK WAY",KYLE,TX,78640,,,CONTRACTOR,,,,,,,,,,,"PERRY HOMES",,,,,"PERRY HOMES","6112 LLANO ST",AUSTIN,TX,78702,"(512) 810-8050",,,,
TX,HAYS,2020-3429,"Single Family Homes",11/18/2020,,370000,3393,"183 COYOTE CREEK WAY",KYLE,TX,78640,,,CONTRACTOR,,,,,,,,,,,"PERRY HOMES",,,,,"PERRY HOMES","6112 LLANO ST",AUSTIN,TX,78702,"(512) 810-8050",,,,
TX,HAYS,2020-3430,"Single Family Homes",11/18/2020,,350000,,"122 COYOTE CREEK WAY",KYLE,TX,78640,,,CONTRACTOR,,,,,,,,,,,"PERRY HOMES",,,,,"PERRY HOMES","6112 LLANO ST",AUSTIN,TX,78702,"(512) 810-8050",,,,
TX,HAYS,2019-1874,"Single Family Homes",11/18/2020,,386940,2532,"207 MINERAL RIVER LOOP",KYLE,TX,78640,,,CONTRACTOR,,,,,,,,,,,"MHI MCGUYER HOMEBUILDERS",,,,,"MHI MCGUYER HOMEBUILDERS","8200 N MO PAC EXPY STE 300",AUSTIN,TX,78759-8844,"(512) 502-2050",,"(512) 388-1836","FRANK MCGUYER",
TX,HAYS,2020-3434,"Single Family Homes",11/18/2020,,296990,2471,"737 SPINNAKER LOOP",KYLE,TX,78640,,,CONTRACTOR,,,,,,,,,,,"GEHAN HOMES",,,,,"GEHAN HOMES","3815 S CAPITAL OF TEXAS HWY STE 275",AUSTIN,TX,78704-6652,"(512) 330-9366",http://www.gehanhomes.com,,"JANET PHILLIPS",
TX,HAYS,2020-3427,"Single Family Homes",11/18/2020,,425000,3622,"261 COYOTE CREEK WAY",KYLE,TX,78640,,,CONTRACTOR,,,,,,,,,,,"PERRY HOMES",,,,,"PERRY HOMES","6112 LLANO ST",AUSTIN,TX,78702,"(512) 810-8050",,,,
TX,HAYS,2020-3425,"Single Family Homes",11/18/2020,,400000,3837,"256 COYOTE CREEK WAY",KYLE,TX,78640,,,CONTRACTOR,,,,,,,,,,,"PERRY HOMES",,,,,"PERRY HOMES","6112 LLANO ST",AUSTIN,TX,78702,"(512) 810-8050",,,,
TX,HAYS,2020-3428,"Single Family Homes",11/18/2020,,350000,3037,"156 COYOTE CREEK WAY",KYLE,TX,78640,,,CONTRACTOR,,,,,,,,,,,"PERRY HOMES",,,,,"PERRY HOMES","6112 LLANO ST",AUSTIN,TX,78702,"(512) 810-8050",,,,
TX,HAYS,2020-3426,"Single Family Homes",11/18/2020,,420000,3689,"273 PAINTED CREEK WAY",KYLE,TX,78640,,,CONTRACTOR,,,,,,,,,,,"PERRY HOMES",,,,,"PERRY HOMES","6112 LLANO ST",AUSTIN,TX,78702,"(512) 810-8050",,,,
TX,HAYS,2020-3448,"Single Family Homes",11/18/2020,,,2353,"288 HELENA LN",KYLE,TX,78640,,,CONTRACTOR,,,,,,,,,,,"SCOTT FELDER HOMES",,,,,"SCOTT FELDER HOMES","6414 RIVER PLACE BLVD STE 100",AUSTIN,TX,78730-1158,"(512) 418-5400",,,,
TX,HAYS,2020-3431,"Single Family Homes",11/18/2020,,400000,3393,"283 PAINTED CREEK WAY",KYLE,TX,78640,,,CONTRACTOR,,,,,,,,,,,"PERRY HOMES",,,,,"PERRY HOMES","6112 LLANO ST",AUSTIN,TX,78702,"(512) 810-8050",,,,
TX,HAYS,2020-3454,"Single Family Homes",11/19/2020,,276625,2213,"334 SPINNAKER LOOP",KYLE,TX,78640,,,CONTRACTOR,,,,,,,,,,,"PACESETTER HOMES ",,,,,"PACESETTER HOMES ","7940 SHOAL CREEK BLVD STE 200",AUSTIN,TX,78757-7587,"(512) 323-5252",,,,
TX,HAYS,2020-3453,"Single Family Homes",11/19/2020,,293750,2350,"227 BISCAYNE BAY BND",KYLE,TX,78640,,,CONTRACTOR,,,,,,,,,,,"PACESETTER HOMES ",,,,,"PACESETTER HOMES ","7940 SHOAL CREEK BLVD STE 200",AUSTIN,TX,78757-7587,"(512) 323-5252",,,,
TX,HAYS,2020-3452,"Single Family Homes",11/19/2020,,227625,2221,"272 PELICAN BAY CIR",KYLE,TX,78640,,,CONTRACTOR,,,,,,,,,,,"PACESETTER HOMES ",,,,,"PACESETTER HOMES ","7940 SHOAL CREEK BLVD STE 200",AUSTIN,TX,78757-7587,"(512) 323-5252",,,,
TX,HAYS,2020-3493,"Single Family Homes",11/20/2020,,340170,,"140 AUBURN ST",KYLE,TX,78640,,,CONTRACTOR,,,,,,,,,,,"KB HOME",,,,,"KB HOME","10800 PECAN PARK BLVD STE 200",AUSTIN,TX,78750-1249,"(512) 651-8100",,,,
TX,HAYS,2020-3360,"Single Family Homes",11/20/2020,,380535,,"208 WEST BRANCH RD",KYLE,TX,78640,,,CONTRACTOR,,,,,,,,,,,"MHI MCGUYER HOMEBUILDERS",,,,,"MHI MCGUYER HOMEBUILDERS","8200 N MO PAC EXPY STE 300",AUSTIN,TX,78759-8844,"(512) 502-2050",,"(512) 388-1836","FRANK MCGUYER",
TX,HAYS,2020-3457,"Single Family Homes",10/16/2020,,189900,3204,"101 SILVER GLEN DR",KYLE,TX,78640,,,CONTRACTOR,,,,,,,,,,,"LENNAR HOMES",,,,,"LENNAR HOMES","13620 FM 620 RD 150",AUSTIN,TX,78717,"(512) 506-4000",http://www.lennar.com/,,,
TX,HAYS,2020-3355,"Single Family Homes",11/20/2020,,425295,3147,"259 MINERAL RIVER LOOP",KYLE,TX,78640,,,CONTRACTOR,,,,,,,,,,,"MHI MCGUYER HOMEBUILDERS",,,,,"MHI MCGUYER HOMEBUILDERS","8200 N MO PAC EXPY STE 300",AUSTIN,TX,78759-8844,"(512) 502-2050",,"(512) 388-1836","FRANK MCGUYER",
TX,HAYS,2020-3458,"Single Family Homes",11/20/2020,,156375,2606,"153 MORNING GLOW",KYLE,TX,78640,,,CONTRACTOR,,,,,,,,,,,"LENNAR HOMES",,,,,"LENNAR HOMES","13620 FM 620 RD 150",AUSTIN,TX,78717,"(512) 506-4000",http://www.lennar.com/,,,
TX,HAYS,2020-3494,"Single Family Homes",11/20/2020,,340170,4002,"161 REDCLIFF PATH",KYLE,TX,78640,,,CONTRACTOR,,,,,,,,,,,"KB HOME",,,,,"KB HOME","10800 PECAN PARK BLVD STE 200",AUSTIN,TX,78750-1249,"(512) 651-8100",,,,
TX,HAYS,2020-3491,"Single Family Homes",11/20/2020,,281350,3310,"301 SUNLIGHT BLVD",KYLE,TX,78640,,,CONTRACTOR,,,,,,,,,,,"KB HOME",,,,,"KB HOME","10800 PECAN PARK BLVD STE 200",AUSTIN,TX,78750-1249,"(512) 651-8100",,,,
TX,HAYS,2020-3455,"Single Family Homes",11/20/2020,,147600,2454,"111 SILVER GLEN DR",KYLE,TX,78640,,,CONTRACTOR,,,,,,,,,,,"LENNAR HOMES",,,,,"LENNAR HOMES","13620 FM 620 RD 150",AUSTIN,TX,78717,"(512) 506-4000",http://www.lennar.com/,,,
TX,HAYS,2020-3282,"Single Family Homes",11/23/2020,,484902,3791,"503 PAINTED CREEK WAY",KYLE,TX,78640,,,CONTRACTOR,,,,,,,,,,,"HIGHLAND HOMES",,,,,"HIGHLAND HOMES","4201 W PARMER LN STE B180",AUSTIN,TX,78727-4110,"(512) 834-8429",,,,
TX,HAYS,2020-3290,"Single Family Homes",11/23/2020,,388735,3060,"203 MINERAL RIVER LOOP",KYLE,TX,78640,,,CONTRACTOR,,,,,,,,,,,"HIGHLAND HOMES",,,,,"HIGHLAND HOMES","4201 W PARMER LN STE B180",AUSTIN,TX,78727-4110,"(512) 834-8429",,,,
TX,HAYS,2020-3471,"Single Family Homes",11/24/2020,,140850,1878,"260 CRYSTAL RIVER RD",KYLE,TX,78640,,,CONTRACTOR,,,,,,,,,,,"LENNAR HOMES",,,,,"LENNAR HOMES","13620 FM 620 RD 150",AUSTIN,TX,78717,"(512) 506-4000",http://www.lennar.com/,,,
TX,HAYS,2020-3487,"Single Family Homes",11/24/2020,,189450,3179,"235 SILVER SPRINGS BND",KYLE,TX,78640,,,CONTRACTOR,,,,,,,,,,,"LENNAR HOMES",,,,,"LENNAR HOMES","13620 FM 620 RD 150",AUSTIN,TX,78717,"(512) 506-4000",http://www.lennar.com/,,,
TX,HAYS,2020-3486,"Single Family Homes",11/24/2020,,247660,3538,"112 BISCAYNE DR",KYLE,TX,78640,,,CONTRACTOR,,,,,,,,,,,"CASTLEROCK COMMUNITIES",,,,,"CASTLEROCK COMMUNITIES","7670 WOODWAY DR STE 300",HOUSTON,TX,77063-1520,"(713) 600-7000",http://c-rock.com,"(713) 600-0000",,
TX,HAYS,2020-3473,"Single Family Homes",11/24/2020,,189450,3223,"121 SILVER GLEN DR",KYLE,TX,78640,,,CONTRACTOR,,,,,,,,,,,"LENNAR HOMES",,,,,"LENNAR HOMES","13620 FM 620 RD 150",AUSTIN,TX,78717,"(512) 506-4000",http://www.lennar.com/,,,
TX,HAYS,2020-3485,"Single Family Homes",11/24/2020,,171220,2446,"149 BISCAYNE DR",KYLE,TX,78640,,,CONTRACTOR,,,,,,,,,,,"CASTLEROCK COMMUNITIES",,,,,"CASTLEROCK COMMUNITIES","7670 WOODWAY DR STE 300",HOUSTON,TX,77063-1520,"(713) 600-7000",http://c-rock.com,"(713) 600-0000",,
TX,HAYS,2020-3492,"Single Family Homes",11/24/2020,,161160,1896,"281 SUNLIGHT BLVD",KYLE,TX,78640,,,CONTRACTOR,,,,,,,,,,,"KB HOME",,,,,"KB HOME","10800 PECAN PARK BLVD STE 200",AUSTIN,TX,78750-1249,"(512) 651-8100",,,,
TX,HAYS,2020-3495,"Single Family Homes",11/24/2020,,247435,2911,"111 KENNICOTT DR",KYLE,TX,78640,,,CONTRACTOR,,,,,,,,,,,"KB HOME",,,,,"KB HOME","10800 PECAN PARK BLVD STE 200",AUSTIN,TX,78750-1249,"(512) 651-8100",,,,
TX,HAYS,2020-3478,"Single Family Homes",11/24/2020,,370000,2385,"252 HELENA LN",KYLE,TX,78640,,,CONTRACTOR,,,,,,,,,,,"DAVID WEEKLEY HOMES",,,,,"DAVID WEEKLEY HOMES","9000 WATERFORD CENTRE BLVD",AUSTIN,TX,78758-7662,"(800) 390-6774",http://www.davidweekleyhomes.com/,,,
TX,HAYS,2020-3500,"Single Family Homes",11/30/2020,,118280,2080,"174 SALT SPRINGS RD",KYLE,TX,78640,,,CONTRACTOR,,,,,,,,,,,"MILESTONE COMMUNITY BUILDERS",,,,,"MILESTONE COMMUNITY BUILDERS","9111 JOLLYVILLE RD STE 111",AUSTIN,TX,78759-7406,"(512) 686-4986",http://www.mymilestone.com/,,,
TX,HAYS,2020-3501,"Single Family Homes",11/30/2020,,117130,2505,"315 SILVER SPRINGS BND",KYLE,TX,78640,,,CONTRACTOR,,,,,,,,,,,"MILESTONE COMMUNITY BUILDERS",,,,,"MILESTONE COMMUNITY BUILDERS","9111 JOLLYVILLE RD STE 111",AUSTIN,TX,78759-7406,"(512) 686-4986",http://www.mymilestone.com/,,,
TX,HAYS,2020-3499,"Single Family Homes",11/30/2020,,117880,2269,"210 SALT SPRINGS RD",KYLE,TX,78640,,,CONTRACTOR,,,,,,,,,,,"MILESTONE COMMUNITY BUILDERS",,,,,"MILESTONE COMMUNITY BUILDERS","9111 JOLLYVILLE RD STE 111",AUSTIN,TX,78759-7406,"(512) 686-4986",http://www.mymilestone.com/,,,
TX,HAYS,2020-3512,"Single Family Homes",11/30/2020,,223550,2630,"100 KENNICOTT DR",KYLE,TX,78640,,,CONTRACTOR,,,,,,,,,,,"KB HOME",,,,,"KB HOME","10800 PECAN PARK BLVD STE 200",AUSTIN,TX,78750-1249,"(512) 651-8100",,,,
TX,HAYS,2020-3511,"Single Family Homes",11/30/2020,,161160,1896,"236 JOHNNY CAKE DR",KYLE,TX,78640,,,CONTRACTOR,,,,,,,,,,,"KB HOME",,,,,"KB HOME","10800 PECAN PARK BLVD STE 200",AUSTIN,TX,78750-1249,"(512) 651-8100",,,,
TX,HAYS,2020-3288,"Single Family Homes",11/30/2020,,173040,3148,"124 SEQUOIA DR",KYLE,TX,78640,,,CONTRACTOR,,,,,,,,,,,"SCOTT FELDER HOMES",,,,,"SCOTT FELDER HOMES","6414 RIVER PLACE BLVD STE 100",AUSTIN,TX,78730-1158,"(512) 418-5400",,,,
TX,HAYS,2020-3488,"Single Family Homes",11/30/2020,,,3406,"1000 OLYMPIC LN",KYLE,TX,78640,,,CONTRACTOR,,,,,,,,,,,"SCOTT FELDER HOMES",,,,,"SCOTT FELDER HOMES","6414 RIVER PLACE BLVD STE 100",AUSTIN,TX,78730-1158,"(512) 418-5400",,,,
TX,HAYS,2020-3496,"Single Family Homes",11/30/2020,,163795,1927,"140 KENNICOTT DR",KYLE,TX,78640,,,CONTRACTOR,,,,,,,,,,,"KB HOME",,,,,"KB HOME","10800 PECAN PARK BLVD STE 200",AUSTIN,TX,78750-1249,"(512) 651-8100",,,,
TX,WILLIAMSON,010197-2020,"Single Family Homes",11/4/2020,,218020,4626,"1727 RANCH VIEW DR","CEDAR PARK",TX,75104,,,"GAIL LUX","1727 RANCH VIEW DR","CEDAR PARK",TX,75104,,Owner,,,,,OWNER,,,,,OWNER,,,,,,,,,
TX,WILLIAMSON,009915-2020,"Single Family Homes",11/4/2020,,158180,3590,"1527 SPRING HILL DR","CEDAR PARK",TX,75104,,,"GAIL LUX","1527 SPRING HILL DR","CEDAR PARK",TX,75104,,Owner,,,,,OWNER,,,,,OWNER,,,,,,,,,
TX,WILLIAMSON,2020-27930,"Single Family Homes",11/12/2020,,156690,3482,"3820 BRUSHY CREEK RD","CEDAR PARK",TX,78613,,,CONTRACTOR,,,,,,,,,,,"MILESTONE COMMUNITY BUILDERS",,,,,"MILESTONE COMMUNITY BUILDERS","9111 JOLLYVILLE RD STE 111",AUSTIN,TX,78759-7406,"(512) 686-4986",http://www.mymilestone.com/,,,
TX,WILLIAMSON,2020-29094,"Single Family Homes",11/30/2020,,700000,4917,"2503 DARTFORD BND","CEDAR PARK",TX,78613,"TWIN CREEKS",,CONTRACTOR,,,,,,,,,,,"BOOZER CONSTRUCTION",,,,,"BOOZER CONSTRUCTION","201 W MAIN ST",PFLUGERVILLE,TX,78660-2760,"(512) 251-2237",http://boozerconstruction.com/,"(512) 251-2283",,oboozer@hotmail.com
TX,WILLIAMSON,2020-29144,"Single Family Homes",11/2/2020,,399255,5323,"4105 BRADY RIDGE DR","CEDAR PARK",TX,78613,"THE RANCH AT BRUSHY CREEK",,CONTRACTOR,,,,,,,,,,,"LENNAR HOMES",,,,,"LENNAR HOMES","13620 FM 620 RD 150",AUSTIN,TX,78717,"(512) 506-4000",http://www.lennar.com/,,,
TX,WILLIAMSON,2020-29158,"Single Family Homes",11/2/2020,,359625,4795,"204 WALSH HILL TRL","CEDAR PARK",TX,78613,"RANCH AT BRUSHY CREEK",,CONTRACTOR,,,,,,,,,,,"LENNAR HOMES",,,,,"LENNAR HOMES","13620 FM 620 RD 150",AUSTIN,TX,78717,"(512) 506-4000",http://www.lennar.com/,,,
TX,WILLIAMSON,2020-29160,"Single Family Homes",11/2/2020,,359325,4791,"210 WALSH HILL TRL","CEDAR PARK",TX,78613,"RANCH AT BRUSHY CREEK",,CONTRACTOR,,,,,,,,,,,"LENNAR HOMES",,,,,"LENNAR HOMES","13620 FM 620 RD 150",AUSTIN,TX,78717,"(512) 506-4000",http://www.lennar.com/,,,
TX,WILLIAMSON,2020-29481,"Single Family Homes",11/2/2020,,442275,5897,"214 WALSH HILL TRL","CEDAR PARK",TX,78613,"RANCH AT BRUSHY CREEK",,CONTRACTOR,,,,,,,,,,,"LENNAR HOMES",,,,,"LENNAR HOMES","13620 FM 620 RD 150",AUSTIN,TX,78717,"(512) 506-4000",http://www.lennar.com/,,,
TX,WILLIAMSON,2020-29491,"Single Family Homes",11/2/2020,,162360,3608,"3300 SCENIC VALLEY DR",LEANDER,TX,78641,"MISTY VALLEY",,CONTRACTOR,,,,,,,,,,,"MILESTONE COMMUNITY BUILDERS",,,,,"MILESTONE COMMUNITY BUILDERS","9111 JOLLYVILLE RD STE 111",AUSTIN,TX,78759-7406,"(512) 686-4986",http://www.mymilestone.com/,,,
TX,WILLIAMSON,2020-29492,"Single Family Homes",11/2/2020,,165990,3682,"3504 PEAK VIEW DR",LEANDER,TX,78641,"MISTY VALLEY",,CONTRACTOR,,,,,,,,,,,"MILESTONE COMMUNITY BUILDERS",,,,,"MILESTONE COMMUNITY BUILDERS","9111 JOLLYVILLE RD STE 111",AUSTIN,TX,78759-7406,"(512) 686-4986",http://www.mymilestone.com/,,,
TX,WILLIAMSON,2020-29493,"Single Family Homes",11/2/2020,,167355,3719,"3412 SCENIC VALLEY DR",LEANDER,TX,78641,"MISTY VALLEY",,CONTRACTOR,,,,,,,,,,,"MILESTONE COMMUNITY BUILDERS",,,,,"MILESTONE COMMUNITY BUILDERS","9111 JOLLYVILLE RD STE 111",AUSTIN,TX,78759-7406,"(512) 686-4986",http://www.mymilestone.com/,,,
TX,WILLIAMSON,2020-29589,"Single Family Homes",11/4/2020,,165990,3682,"908 CLOUD COVER LN",LEANDER,TX,78641,"MISTY VALLEY",,CONTRACTOR,,,,,,,,,,,"MILESTONE COMMUNITY BUILDERS",,,,,"MILESTONE COMMUNITY BUILDERS","9111 JOLLYVILLE RD STE 111",AUSTIN,TX,78759-7406,"(512) 686-4986",http://www.mymilestone.com/,,,
TX,WILLIAMSON,2020-29612,"Single Family Homes",11/3/2020,,362325,4831,"4413 LOGAN RIDGE DR","CEDAR PARK",TX,78613,"RANCH AT BRUSHY CREEK",,CONTRACTOR,,,,,,,,,,,"LENNAR HOMES",,,,,"LENNAR HOMES","13620 FM 620 RD 150",AUSTIN,TX,78717,"(512) 506-4000",http://www.lennar.com/,,,
TX,WILLIAMSON,2020-29740,"Single Family Homes",11/2/2020,,151335,3363,"3410 SCENIC VALLEY DR",LEANDER,TX,78641,"MISTY VALLEY",,CONTRACTOR,,,,,,,,,,,"MILESTONE COMMUNITY BUILDERS",,,,,"MILESTONE COMMUNITY BUILDERS","9111 JOLLYVILLE RD STE 111",AUSTIN,TX,78759-7406,"(512) 686-4986",http://www.mymilestone.com/,,,
TX,WILLIAMSON,2020-29751,"Single Family Homes",11/2/2020,,182520,4056,"3606 ROLLING HILLS RD",LEANDER,TX,78641,"MISTY VALLEY",,CONTRACTOR,,,,,,,,,,,"MILESTONE COMMUNITY BUILDERS",,,,,"MILESTONE COMMUNITY BUILDERS","9111 JOLLYVILLE RD STE 111",AUSTIN,TX,78759-7406,"(512) 686-4986",http://www.mymilestone.com/,,,
TX,WILLIAMSON,2020-29752,"Single Family Homes",11/3/2020,,368025,4907,"208 WALSH HILL TRL","CEDAR PARK",TX,78613,"RANCH AT BRUSHY CREEK",,CONTRACTOR,,,,,,,,,,,"LENNAR HOMES",,,,,"LENNAR HOMES","13620 FM 620 RD 150",AUSTIN,TX,78717,"(512) 506-4000",http://www.lennar.com/,,,
TX,WILLIAMSON,2020-29753,"Single Family Homes",11/3/2020,,351075,4681,"202 WALSH HILL TRL","CEDAR PARK",TX,78613,"RANCH AT BRUSHY CREEK",,CONTRACTOR,,,,,,,,,,,"LENNAR HOMES",,,,,"LENNAR HOMES","13620 FM 620 RD 150",AUSTIN,TX,78717,"(512) 506-4000",http://www.lennar.com/,,,
TX,WILLIAMSON,2020-29765,"Single Family Homes",11/2/2020,,198405,4409,"3214 SCENIC VALLEY DR",LEANDER,TX,78641,"MISTY VALLEY",,CONTRACTOR,,,,,,,,,,,"MILESTONE COMMUNITY BUILDERS",,,,,"MILESTONE COMMUNITY BUILDERS","9111 JOLLYVILLE RD STE 111",AUSTIN,TX,78759-7406,"(512) 686-4986",http://www.mymilestone.com/,,,
TX,WILLIAMSON,2020-29817,"Single Family Homes",11/5/2020,,174600,3880,"3820 BRUSHY CREEK RD","CEDAR PARK",TX,78613,WILSON,,CONTRACTOR,,,,,,,,,,,"MILESTONE COMMUNITY BUILDERS",,,,,"MILESTONE COMMUNITY BUILDERS","9111 JOLLYVILLE RD STE 111",AUSTIN,TX,78759-7406,"(512) 686-4986",http://www.mymilestone.com/,,,
TX,WILLIAMSON,2020-29830,"Single Family Homes",11/30/2020,,,2870,"3200 SCENIC VALLEY DR",LEANDER,TX,78641,"MISTY VALLEY",,CONTRACTOR,,,,,,,,,,,"MILESTONE COMMUNITY BUILDERS",,,,,"MILESTONE COMMUNITY BUILDERS","9111 JOLLYVILLE RD STE 111",AUSTIN,TX,78759-7406,"(512) 686-4986",http://www.mymilestone.com/,,,
TX,WILLIAMSON,2020-29993,"Single Family Homes",11/30/2020,,154395,3431,"3503 ROLLING HILLS RD",LEANDER,TX,78641,"MISTY VALLEY",,CONTRACTOR,,,,,,,,,,,"MILESTONE COMMUNITY BUILDERS",,,,,"MILESTONE COMMUNITY BUILDERS","9111 JOLLYVILLE RD STE 111",AUSTIN,TX,78759-7406,"(512) 686-4986",http://www.mymilestone.com/,,,
TX,TRAVIS,"2020-184170 BP","Single Family Homes",12/4/2020,,118250,2150,"10709 CHARGER WAY",AUSTIN,TX,78653,"HERITAGE POINT AT WILDHORSE RANCH",7,CONTRACTOR,,,,,,,,,,,"BROHN HOMES",,,,,"BROHN HOMES","6720 VAUGHT RANCH RD STE 200",AUSTIN,TX,78730-2354,"(512) 320-8833",http://brohnhomes.com/,,,
TX,TRAVIS,"2020-181120 BP","Single Family Homes",12/7/2020,,126375,2103,"10925 HAMMOND ST",AUSTIN,TX,78747,"BRADSHAW CROSSING",43,CONTRACTOR,,,,,,,,,,,"LENNAR HOMES",,,,,"LENNAR HOMES","13620 FM 620 RD 150",AUSTIN,TX,78717,"(512) 506-4000",http://www.lennar.com/,,,
TX,TRAVIS,"2020-179795 BP","Single Family Homes",12/7/2020,,140625,1875,"3012 MARYANNE LN",AUSTIN,TX,78703,,,CONTRACTOR,,,,,,,,,,,"DR HORTON",,,,,"DR HORTON","10700 PECAN PARK BLVD STE 400",AUSTIN,TX,78750-1227,"(512) 345-4663",,,,
TX,TRAVIS,"2020-183183 BP","Single Family Homes",12/7/2020,,140700,1876,"10825 TILDON AVE",AUSTIN,TX,78754,RICE,,CONTRACTOR,,,,,,,,,,,"DR HORTON",,,,,"DR HORTON","10700 PECAN PARK BLVD STE 400",AUSTIN,TX,78750-1227,"(512) 345-4663",,,,
TX,TRAVIS,"2020-183201 BP","Single Family Homes",12/7/2020,,140700,1876,"2124 ETTALEE CT",AUSTIN,TX,78754,RICE,,CONTRACTOR,,,,,,,,,,,"DR HORTON",,,,,"DR HORTON","10700 PECAN PARK BLVD STE 400",AUSTIN,TX,78750-1227,"(512) 345-4663",,,,
TX,TRAVIS,"2020-180117 BP","Single Family Homes",12/7/2020,,140700,1876,"10713 TILDON AVE",AUSTIN,TX,78754,,,CONTRACTOR,,,,,,,,,,,"DR HORTON",,,,,"DR HORTON","10700 PECAN PARK BLVD STE 400",AUSTIN,TX,78750-1227,"(512) 345-4663",,,,
TX,TRAVIS,"2020-180958 BP","Single Family Homes",12/7/2020,,140700,1876,"2000 DALESIDE LN",AUSTIN,TX,78754,RICE,,CONTRACTOR,,,,,,,,,,,"DR HORTON",,,,,"DR HORTON","10700 PECAN PARK BLVD STE 400",AUSTIN,TX,78750-1227,"(512) 345-4663",,,,
TX,TRAVIS,"2020-183494 BP","Single Family Homes",12/3/2020,,140910,2562,"11312 CHARGER WAY",AUSTIN,TX,78653,"HERITAGE POINT AT WILDHORSE RANCH",42,CONTRACTOR,,,,,,,,,,,"BROHN HOMES",,,,,"BROHN HOMES","6720 VAUGHT RANCH RD STE 200",AUSTIN,TX,78730-2354,"(512) 320-8833",http://brohnhomes.com/,,,
TX,TRAVIS,"2020-181127 BP","Single Family Homes",12/7/2020,,146250,2368,"10929 HAMMOND ST",AUSTIN,TX,78747,"BRADSHAW CROSSING",44,CONTRACTOR,,,,,,,,,,,"LENNAR HOMES",,,,,"LENNAR HOMES","13620 FM 620 RD 150",AUSTIN,TX,78717,"(512) 506-4000",http://www.lennar.com/,,,
TX,TRAVIS,"2020-175209 BP","Single Family Homes",12/5/2020,,151650,2022,"14404 BOQUIST DR",AUSTIN,TX,78660,,,CONTRACTOR,,,,,,,,,,,"DR HORTON",,,,,"DR HORTON","10700 PECAN PARK BLVD STE 400",AUSTIN,TX,78750-1227,"(512) 345-4663",,,,
TX,TRAVIS,"2020-183223 BP","Single Family Homes",12/7/2020,,151650,2022,"2912 MARYANNE LN",AUSTIN,TX,78754,,,CONTRACTOR,,,,,,,,,,,"DR HORTON",,,,,"DR HORTON","10700 PECAN PARK BLVD STE 400",AUSTIN,TX,78750-1227,"(512) 345-4663",,,,
TX,TRAVIS,"2020-175198 BP","Single Family Homes",12/2/2020,,152550,2034,"14208 BOQUIST DR",AUSTIN,TX,78660,,,CONTRACTOR,,,,,,,,,,,"DR HORTON",,,,,"DR HORTON","10700 PECAN PARK BLVD STE 400",AUSTIN,TX,78750-1227,"(512) 345-4663",,,,
TX,TRAVIS,"2020-175225 BP","Single Family Homes",12/5/2020,,152550,2034,"14408 BOQUIST DR",AUSTIN,TX,78660,,,CONTRACTOR,,,,,,,,,,,"DR HORTON",,,,,"DR HORTON","10700 PECAN PARK BLVD STE 400",AUSTIN,TX,78750-1227,"(512) 345-4663",,,,
TX,TRAVIS,"2020-183683 BP","Single Family Homes",12/7/2020,,152550,2034,"2920 TWEEDY TRL",AUSTIN,TX,78660,,,CONTRACTOR,,,,,,,,,,,"DR HORTON",,,,,"DR HORTON","10700 PECAN PARK BLVD STE 400",AUSTIN,TX,78750-1227,"(512) 345-4663",,,,
TX,TRAVIS,"2020-183381 BP","Single Family Homes",12/4/2020,,153900,2052,"15301 PALE GLOW CV",AUSTIN,TX,78617,,,CONTRACTOR,,,,,,,,,,,"LENNAR HOMES",,,,,"LENNAR HOMES","13620 FM 620 RD 150",AUSTIN,TX,78717,"(512) 506-4000",http://www.lennar.com/,,,
TX,TRAVIS,"2020-180104 BP","Single Family Homes",12/7/2020,,154650,2062,"7704 JACOBEAN WAY",AUSTIN,TX,78724,,,CONTRACTOR,,,,,,,,,,,"DR HORTON",,,,,"DR HORTON","10700 PECAN PARK BLVD STE 400",AUSTIN,TX,78750-1227,"(512) 345-4663",,,,
TX,TRAVIS,"2020-184026 BP","Single Family Homes",12/7/2020,,154650,2062,"7717 JACOBEAN WAY",AUSTIN,TX,78724,,,CONTRACTOR,,,,,,,,,,,"DR HORTON",,,,,"DR HORTON","10700 PECAN PARK BLVD STE 400",AUSTIN,TX,78750-1227,"(512) 345-4663",,,,
TX,TRAVIS,"2020-181442 BP","Single Family Homes",12/7/2020,,155250,2034,"2908 MARYANNE LN",AUSTIN,TX,78754,,,CONTRACTOR,,,,,,,,,,,"DR HORTON",,,,,"DR HORTON","10700 PECAN PARK BLVD STE 400",AUSTIN,TX,78750-1227,"(512) 345-4663",,,,
TX,TRAVIS,"2020-183363 BP","Single Family Homes",12/4/2020,,176475,2353,"15300 PALE GLOW CV",AUSTIN,TX,78617,,,CONTRACTOR,,,,,,,,,,,"LENNAR HOMES",,,,,"LENNAR HOMES","13620 FM 620 RD 150",AUSTIN,TX,78717,"(512) 506-4000",http://www.lennar.com/,,,
TX,TRAVIS,"2020-183047 BP","Single Family Homes",12/7/2020,,176475,2353,"3021 TWEEDY TRL",AUSTIN,TX,78701,,,CONTRACTOR,,,,,,,,,,,"DR HORTON",,,,,"DR HORTON","10700 PECAN PARK BLVD STE 400",AUSTIN,TX,78750-1227,"(512) 345-4663",,,,
TX,TRAVIS,"2020-183384 BP","Single Family Homes",12/4/2020,,177600,2368,"15313 PALE GLOW CV",AUSTIN,TX,78617,,,CONTRACTOR,,,,,,,,,,,"LENNAR HOMES",,,,,"LENNAR HOMES","13620 FM 620 RD 150",AUSTIN,TX,78717,"(512) 506-4000",http://www.lennar.com/,,,
TX,TRAVIS,"2020-179758 BP","Single Family Homes",12/7/2020,,179100,2388,"7408 PEGGIE NELL DR",AUSTIN,TX,78724,,,CONTRACTOR,,,,,,,,,,,"DR HORTON",,,,,"DR HORTON","10700 PECAN PARK BLVD STE 400",AUSTIN,TX,78750-1227,"(512) 345-4663",,,,
TX,TRAVIS,"2020-181626 BP","Single Family Homes",12/7/2020,,179250,2390,"10816 MERIS LN",AUSTIN,TX,78754,RICE,,CONTRACTOR,,,,,,,,,,,"DR HORTON",,,,,"DR HORTON","10700 PECAN PARK BLVD STE 400",AUSTIN,TX,78750-1227,"(512) 345-4663",,,,
TX,TRAVIS,"2020-180725 BP","Single Family Homes",12/7/2020,,179250,2390,"7412 DAVES LANDING DR",AUSTIN,TX,78724,,,CONTRACTOR,,,,,,,,,,,"DR HORTON",,,,,"DR HORTON","10700 PECAN PARK BLVD STE 400",AUSTIN,TX,78750-1227,"(512) 345-4663",,,,
TX,TRAVIS,"2020-181583 BP","Single Family Homes",12/7/2020,,179250,2390,"10717 TILDON AVE",AUSTIN,TX,78754,,,CONTRACTOR,,,,,,,,,,,"DR HORTON",,,,,"DR HORTON","10700 PECAN PARK BLVD STE 400",AUSTIN,TX,78750-1227,"(512) 345-4663",,,,
TX,TRAVIS,"2020-172408 BP","Single Family Homes",12/7/2020,,181575,2421,"7513 PEGGIE NELL DR",AUSTIN,TX,78724,,,CONTRACTOR,,,,,,,,,,,"DR HORTON",,,,,"DR HORTON","10700 PECAN PARK BLVD STE 400",AUSTIN,TX,78750-1227,"(512) 345-4663",,,,
TX,TRAVIS,"2020-184182 BP","Single Family Homes",12/4/2020,,182875,3325,"11400 SADDLEBRED TRL",AUSTIN,TX,78653,"HERITAGE POINT AT WILDHORSE RANCH",5,CONTRACTOR,,,,,,,,,,,"BROHN HOMES",,,,,"BROHN HOMES","6720 VAUGHT RANCH RD STE 200",AUSTIN,TX,78730-2354,"(512) 320-8833",http://brohnhomes.com/,,,
TX,TRAVIS,"2020-181549 BP","Single Family Homes",12/7/2020,,188925,2519,"7412 PEGGIE NELL DR",AUSTIN,TX,78724,,,CONTRACTOR,,,,,,,,,,,"DR HORTON",,,,,"DR HORTON","10700 PECAN PARK BLVD STE 400",AUSTIN,TX,78750-1227,"(512) 345-4663",,,,
TX,TRAVIS,"2020-184753 BP","Single Family Homes",12/7/2020,,189750,3019,"1201 WINNIE DR",AUSTIN,TX,78748,SLAUGHTER,,CONTRACTOR,,,,,,,,,,,"LENNAR HOMES",,,,,"LENNAR HOMES","13620 FM 620 RD 150",AUSTIN,TX,78717,"(512) 506-4000",http://www.lennar.com/,,,
TX,TRAVIS,"2020-180911 BP","Single Family Homes",12/4/2020,,193000,1623,"7911 MELLENCAMP DR",AUSTIN,TX,78744,"EASTON PARK",3,CONTRACTOR,,,,,,,,,,,"BROOKFIELD RESIDENTIAL TEXAS HOMES",,,,,"BROOKFIELD RESIDENTIAL TEXAS HOMES","11501 ALTERRA PKWY STE 100",AUSTIN,TX,78758,"(512) 539-3678",,,,
TX,TRAVIS,"2020-180722 BP","Single Family Homes",12/7/2020,,203625,2715,"10721 MERIS LN",AUSTIN,TX,78754,,,CONTRACTOR,,,,,,,,,,,"DR HORTON",,,,,"DR HORTON","10700 PECAN PARK BLVD STE 400",AUSTIN,TX,78750-1227,"(512) 345-4663",,,,
TX,TRAVIS,"2020-180739 BP","Single Family Homes",12/7/2020,,203625,2715,"7708 JACOBEAN WAY",AUSTIN,TX,78724,,,CONTRACTOR,,,,,,,,,,,"DR HORTON",,,,,"DR HORTON","10700 PECAN PARK BLVD STE 400",AUSTIN,TX,78750-1227,"(512) 345-4663",,,,
TX,TRAVIS,"2020-180800 BP","Single Family Homes",12/7/2020,,203625,2715,"7713 JACOBEAN WAY",AUSTIN,TX,78754,,,CONTRACTOR,,,,,,,,,,,"DR HORTON",,,,,"DR HORTON","10700 PECAN PARK BLVD STE 400",AUSTIN,TX,78750-1227,"(512) 345-4663",,,,
TX,TRAVIS,"2020-182234 BP","Single Family Homes",12/4/2020,,214875,2865,"7421 PEGGIE NELL DR",AUSTIN,TX,78724,,,CONTRACTOR,,,,,,,,,,,"DR HORTON",,,,,"DR HORTON","10700 PECAN PARK BLVD STE 400",AUSTIN,TX,78750-1227,"(512) 345-4663",,,,
TX,TRAVIS,"2020-182658 BP","Single Family Homes",12/4/2020,,219075,2921,"7402 DAVES LANDING DR",AUSTIN,TX,78724,,,CONTRACTOR,,,,,,,,,,,"DR HORTON",,,,,"DR HORTON","10700 PECAN PARK BLVD STE 400",AUSTIN,TX,78750-1227,"(512) 345-4663",,,,
TX,TRAVIS,"2020-174192 BP","Single Family Homes",12/7/2020,,219450,2926,"7600 DAVES LANDING DR",AUSTIN,TX,78724,,,CONTRACTOR,,,,,,,,,,,"DR HORTON",,,,,"DR HORTON","10700 PECAN PARK BLVD STE 400",AUSTIN,TX,78750-1227,"(512) 345-4663",,,,
TX,TRAVIS,"2020-181689 BP","Single Family Homes",12/7/2020,,224925,2999,"7420 PEGGIE NELL DR",AUSTIN,TX,78724,,,CONTRACTOR,,,,,,,,,,,"DR HORTON",,,,,"DR HORTON","10700 PECAN PARK BLVD STE 400",AUSTIN,TX,78750-1227,"(512) 345-4663",,,,
TX,TRAVIS,"2020-181009 BP","Single Family Homes",12/7/2020,,229350,3058,"2905 MARYANNE LN",AUSTIN,TX,78754,,,CONTRACTOR,,,,,,,,,,,"DR HORTON",,,,,"DR HORTON","10700 PECAN PARK BLVD STE 400",AUSTIN,TX,78750-1227,"(512) 345-4663",,,,
TX,TRAVIS,"2020-174165 BP","Single Family Homes",12/4/2020,,241275,3217,"7716 CITY TOP BLVD",AUSTIN,TX,78724,,,CONTRACTOR,,,,,,,,,,,"DR HORTON",,,,,"DR HORTON","10700 PECAN PARK BLVD STE 400",AUSTIN,TX,78750-1227,"(512) 345-4663",,,,
TX,TRAVIS,"2020-173945 BP","Single Family Homes",12/4/2020,,248925,3319,"7712 CITY TOP BLVD",AUSTIN,TX,78724,,,CONTRACTOR,,,,,,,,,,,"DR HORTON",,,,,"DR HORTON","10700 PECAN PARK BLVD STE 400",AUSTIN,TX,78750-1227,"(512) 345-4663",,,,
TX,TRAVIS,"2020-180131 BP","Single Family Homes",12/7/2020,,254650,2062,"7720 JACOBEAN WAY",AUSTIN,TX,78754,,,CONTRACTOR,,,,,,,,,,,"DR HORTON",,,,,"DR HORTON","10700 PECAN PARK BLVD STE 400",AUSTIN,TX,78750-1227,"(512) 345-4663",,,,
TX,TRAVIS,"2020-182666 BP","Single Family Homes",12/3/2020,,392990,3716,"8612 CHRYSLER BND",AUSTIN,TX,78744,"EASTON PARK",12,CONTRACTOR,,,,,,,,,,,"TAYLOR MORRISON OF TEXAS",,,,,"TAYLOR MORRISON OF TEXAS","11200 LAKELINE BLVD STE 150A",AUSTIN,TX,78717-5964,"(512) 328-8866",,"(512) 328-7988",,
TX,WILLIAMSON,2020-59368,"Single Family Homes",11/6/2020,,236994,3713,"1149 STETSON HAT TRL",GEORGETOWN,TX,78628,"WOLF RANCH",,CONTRACTOR,,,,,,,,,,,"MHI MCGUYER HOMEBUILDERS",,,,,"MHI MCGUYER HOMEBUILDERS","8200 N MO PAC EXPY STE 300",AUSTIN,TX,78759-8844,"(512) 502-2050",,"(512) 388-1836","FRANK MCGUYER",
TX,WILLIAMSON,2020-60014,"Single Family Homes",11/13/2020,,278394,3516,"1712 LAKESIDE RANCH RD",GEORGETOWN,TX,78633,LAKESIDE,,CONTRACTOR,,,,,,,,,,,"MHI MCGUYER HOMEBUILDERS",,,,,"MHI MCGUYER HOMEBUILDERS","8200 N MO PAC EXPY STE 300",AUSTIN,TX,78759-8844,"(512) 502-2050",,"(512) 388-1836","FRANK MCGUYER",
TX,WILLIAMSON,2020-64211,"Single Family Homes",11/17/2020,,228990,3270,"1233 WHIPPLETREE TRL",GEORGETOWN,TX,78626,SADDLECREEK,,CONTRACTOR,,,,,,,,,,,"CASTLEROCK COMMUNITIES",,,,,"CASTLEROCK COMMUNITIES","7670 WOODWAY DR STE 300",HOUSTON,TX,77063-1520,"(713) 600-7000",http://c-rock.com,"(713) 600-0000",,
TX,WILLIAMSON,2020-64332,"Single Family Homes",11/19/2020,,480000,5381,"1305 MOONLIGHT TERRACE DR",GEORGETOWN,TX,78628,"WOLF RANCH",,CONTRACTOR,,,,,,,,,,,"DREES CUSTOM HOMES",,,,,"DREES CUSTOM HOMES","7300 RANCH ROAD 2222 BLDG 2 STE 250",AUSTIN,TX,78730-3204,"(512) 241-7100",http://www.dreeshomes.com,,,
TX,WILLIAMSON,2020-64377,"Single Family Homes",11/15/2020,,250000,3027,"300 MADDOX DR",GEORGETOWN,TX,78628,"WOLF RANCH",,CONTRACTOR,,,,,,,,,,,"PERRY HOMES",,,,,"PERRY HOMES","6112 LLANO ST",AUSTIN,TX,78702,"(512) 810-8050",,,,
TX,WILLIAMSON,2020-64645,"Single Family Homes",11/5/2020,,350000,3229,"216 MADDOX DR",GEORGETOWN,TX,78628,"WOLF RANCH",,CONTRACTOR,,,,,,,,,,,"PERRY HOMES",,,,,"PERRY HOMES","6112 LLANO ST",AUSTIN,TX,78702,"(512) 810-8050",,,,
TX,WILLIAMSON,2020-64731,"Single Family Homes",11/12/2020,,407400,3395,"1212 HIGHWATER DR",GEORGETOWN,TX,78628,"WATER OAK",,CONTRACTOR,,,,,,,,,,,"MERITAGE HOMES",,,,,"MERITAGE HOMES","8920 BUSINESS PARK DR STE 250",AUSTIN,TX,78759-7622,"(512) 610-4800",,,,
TX,WILLIAMSON,2020-65750,"Single Family Homes",11/2/2020,,245800,3224,"8201 DAISY CUTTER XING",GEORGETOWN,TX,78626,SADDLECREEK,,CONTRACTOR,,,,,,,,,,,"PACESETTER HOMES ",,,,,"PACESETTER HOMES ","7940 SHOAL CREEK BLVD STE 200",AUSTIN,TX,78757-7587,"(512) 323-5252",,,,
TX,WILLIAMSON,2020-66250,"Single Family Homes",11/15/2020,,241194,3838,"1005 WOLF HOLLOW DR",GEORGETOWN,TX,78628,"WOLF RANCH",,CONTRACTOR,,,,,,,,,,,"MHI MCGUYER HOMEBUILDERS",,,,,"MHI MCGUYER HOMEBUILDERS","8200 N MO PAC EXPY STE 300",AUSTIN,TX,78759-8844,"(512) 502-2050",,"(512) 388-1836","FRANK MCGUYER",
TX,WILLIAMSON,2020-66365,"Single Family Homes",11/15/2020,,250000,3049,"1144 STETSON HAT TRL",GEORGETOWN,TX,78628,"WOLF RANCH",,CONTRACTOR,,,,,,,,,,,"PERRY HOMES",,,,,"PERRY HOMES","6112 LLANO ST",AUSTIN,TX,78702,"(512) 810-8050",,,,
TX,WILLIAMSON,2020-66455,"Single Family Homes",11/5/2020,,319060,3710,"113 BARTON RUN DR",GEORGETOWN,TX,78628,"SHADOW CANYON",,CONTRACTOR,,,,,,,,,,,"GEHAN HOMES",,,,,"GEHAN HOMES","3815 S CAPITAL OF TEXAS HWY STE 275",AUSTIN,TX,78704-6652,"(512) 330-9366",http://www.gehanhomes.com,,"JANET PHILLIPS",
TX,WILLIAMSON,2020-66981,"Single Family Homes",11/9/2020,,314990,2578,"107 COYOTE TRL",GEORGETOWN,TX,78633,"SUN CITY",,CONTRACTOR,,,,,,,,,,,"PULTE HOMES",,,,,"PULTE HOMES","9401 AMBERGLEN BLVD STE I-150",AUSTIN,TX,78729-1154,"(512) 561-4344",,,,
TX,WILLIAMSON,2020-67073,"Single Family Homes",11/6/2020,,325000,3016,"129 HOLLYTREE CT",GEORGETOWN,TX,78628,,,CONTRACTOR,,,,,,,,,,,"DREES CUSTOM HOMES",,,,,"DREES CUSTOM HOMES","7300 RANCH ROAD 2222 BLDG 2 STE 250",AUSTIN,TX,78730-3204,"(512) 241-7100",http://www.dreeshomes.com,,,
TX,WILLIAMSON,2020-67169,"Single Family Homes",11/15/2020,,252594,3850,"3837 MERCER RD",GEORGETOWN,TX,78628,"WOLF RANCH",,CONTRACTOR,,,,,,,,,,,"MHI MCGUYER HOMEBUILDERS",,,,,"MHI MCGUYER HOMEBUILDERS","8200 N MO PAC EXPY STE 300",AUSTIN,TX,78759-8844,"(512) 502-2050",,"(512) 388-1836","FRANK MCGUYER",
TX,WILLIAMSON,2020-67179,"Single Family Homes",11/4/2020,,303990,2528,"203 SPANISH STAR ST",GEORGETOWN,TX,78633,"SUN CITY",,CONTRACTOR,,,,,,,,,,,"PULTE HOMES",,,,,"PULTE HOMES","9401 AMBERGLEN BLVD STE I-150",AUSTIN,TX,78729-1154,"(512) 561-4344",,,,
TX,WILLIAMSON,2020-67182,"Single Family Homes",11/3/2020,,275400,2295,"4016 PROMONTORY POINT TRL",GEORGETOWN,TX,78626,"VISTA POINTE",,CONTRACTOR,,,,,,,,,,,"MERITAGE HOMES",,,,,"MERITAGE HOMES","8920 BUSINESS PARK DR STE 250",AUSTIN,TX,78759-7622,"(512) 610-4800",,,,
TX,WILLIAMSON,2020-67205,"Single Family Homes",11/9/2020,,328990,2955,"109 COYOTE TRL",GEORGETOWN,TX,78633,"SUN CITY",,CONTRACTOR,,,,,,,,,,,"PULTE HOMES",,,,,"PULTE HOMES","9401 AMBERGLEN BLVD STE I-150",AUSTIN,TX,78729-1154,"(512) 561-4344",,,,
TX,WILLIAMSON,2020-67207,"Single Family Homes",11/9/2020,,317990,2536,"114 COYOTE TRL",GEORGETOWN,TX,78633,"SUN CITY",,CONTRACTOR,,,,,,,,,,,"PULTE HOMES",,,,,"PULTE HOMES","9401 AMBERGLEN BLVD STE I-150",AUSTIN,TX,78729-1154,"(512) 561-4344",,,,
TX,WILLIAMSON,2020-67209,"Single Family Homes",11/9/2020,,305990,3041,"605 GEORGIA LACE TRL",GEORGETOWN,TX,78626,"HIDDEN OAK",,CONTRACTOR,,,,,,,,,,,"PULTE HOMES",,,,,"PULTE HOMES","9401 AMBERGLEN BLVD STE I-150",AUSTIN,TX,78729-1154,"(512) 561-4344",,,,
TX,WILLIAMSON,2020-67221,"Single Family Homes",11/2/2020,,279070,3245,"501 PEACE PIPE WAY",GEORGETOWN,TX,78628,RIVERVIEW,,CONTRACTOR,,,,,,,,,,,"DR HORTON",,,,,"DR HORTON","10700 PECAN PARK BLVD STE 400",AUSTIN,TX,78750-1227,"(512) 345-4663",,,,
TX,WILLIAMSON,2020-67225,"Single Family Homes",11/2/2020,,276060,3210,"1216 BEAR TRACK LOOP",GEORGETOWN,TX,78628,"SHADOW CANYON",,CONTRACTOR,,,,,,,,,,,"DR HORTON",,,,,"DR HORTON","10700 PECAN PARK BLVD STE 400",AUSTIN,TX,78750-1227,"(512) 345-4663",,,,
TX,WILLIAMSON,2020-67226,"Single Family Homes",11/2/2020,,444000,3700,"2101 PRAIRIE OAKS DR",GEORGETOWN,TX,78628,"WATER OAK",,CONTRACTOR,,,,,,,,,,,"MERITAGE HOMES",,,,,"MERITAGE HOMES","8920 BUSINESS PARK DR STE 250",AUSTIN,TX,78759-7622,"(512) 610-4800",,,,
TX,WILLIAMSON,2020-67238,"Single Family Homes",11/9/2020,,307990,2980,"601 GEORGIA LACE TRL",GEORGETOWN,TX,78626,"HIDDEN OAK",,CONTRACTOR,,,,,,,,,,,"PULTE HOMES",,,,,"PULTE HOMES","9401 AMBERGLEN BLVD STE I-150",AUSTIN,TX,78729-1154,"(512) 561-4344",,,,
TX,WILLIAMSON,2020-67276,"Single Family Homes",11/9/2020,,165722,1927,"1021 DESAIX DR",GEORGETOWN,TX,78628,OAKMONT,,CONTRACTOR,,,,,,,,,,,"KB HOME",,,,,"KB HOME","10800 PECAN PARK BLVD STE 200",AUSTIN,TX,78750-1249,"(512) 651-8100",,,,
TX,WILLIAMSON,2020-67280,"Single Family Homes",11/9/2020,,328990,3018,"111 COYOTE TRL",GEORGETOWN,TX,78633,"SUN CITY",,CONTRACTOR,,,,,,,,,,,"PULTE HOMES",,,,,"PULTE HOMES","9401 AMBERGLEN BLVD STE I-150",AUSTIN,TX,78729-1154,"(512) 561-4344",,,,
TX,WILLIAMSON,2020-67283,"Single Family Homes",11/9/2020,,328990,3149,"105 COYOTE TRL",GEORGETOWN,TX,78633,"SUN CITY",,CONTRACTOR,,,,,,,,,,,"PULTE HOMES",,,,,"PULTE HOMES","9401 AMBERGLEN BLVD STE I-150",AUSTIN,TX,78729-1154,"(512) 561-4344",,,,
TX,WILLIAMSON,2020-67309,"Single Family Homes",11/15/2020,,313194,4002,"133 HOLLYTREE CT",GEORGETOWN,TX,78628,"WOLF RANCH",,CONTRACTOR,,,,,,,,,,,"MHI MCGUYER HOMEBUILDERS",,,,,"MHI MCGUYER HOMEBUILDERS","8200 N MO PAC EXPY STE 300",AUSTIN,TX,78759-8844,"(512) 502-2050",,"(512) 388-1836","FRANK MCGUYER",
TX,WILLIAMSON,2020-67454,"Single Family Homes",11/12/2020,,438000,3290,"220 IVA JUNE LN",GEORGETOWN,TX,78628,,,CONTRACTOR,,,,,,,,,,,"DAVID WEEKLEY HOMES",,,,,"DAVID WEEKLEY HOMES","9000 WATERFORD CENTRE BLVD",AUSTIN,TX,78758-7662,"(800) 390-6774",http://www.davidweekleyhomes.com/,,,
TX,WILLIAMSON,2020-67459,"Single Family Homes",11/2/2020,,168818,1963,"109 BREMEN ST",GEORGETOWN,TX,78626,KASPER,,CONTRACTOR,,,,,,,,,,,"DR HORTON",,,,,"DR HORTON","10700 PECAN PARK BLVD STE 400",AUSTIN,TX,78750-1227,"(512) 345-4663",,,,
TX,WILLIAMSON,2020-67460,"Single Family Homes",11/2/2020,,268148,3118,"512 OTTO AVE",GEORGETOWN,TX,78626,KASPER,,CONTRACTOR,,,,,,,,,,,"DR HORTON",,,,,"DR HORTON","10700 PECAN PARK BLVD STE 400",AUSTIN,TX,78750-1227,"(512) 345-4663",,,,
TX,WILLIAMSON,2020-67494,"Single Family Homes",11/2/2020,,186792,2172,"401 PEACE PIPE WAY",GEORGETOWN,TX,78628,,,CONTRACTOR,,,,,,,,,,,"DR HORTON",,,,,"DR HORTON","10700 PECAN PARK BLVD STE 400",AUSTIN,TX,78750-1227,"(512) 345-4663",,,,
TX,WILLIAMSON,2020-67532,"Single Family Homes",11/6/2020,,361630,4205,"134 BARTON RUN DR",GEORGETOWN,TX,78628,"SHADOW CANYON",,CONTRACTOR,,,,,,,,,,,"GEHAN HOMES",,,,,"GEHAN HOMES","3815 S CAPITAL OF TEXAS HWY STE 275",AUSTIN,TX,78704-6652,"(512) 330-9366",http://www.gehanhomes.com,,"JANET PHILLIPS",
TX,WILLIAMSON,2020-67536,"Single Family Homes",11/13/2020,,257394,3803,"121 GABRIEL POINT LN",GEORGETOWN,TX,78628,"WOLF RANCH",,CONTRACTOR,,,,,,,,,,,"MHI MCGUYER HOMEBUILDERS",,,,,"MHI MCGUYER HOMEBUILDERS","8200 N MO PAC EXPY STE 300",AUSTIN,TX,78759-8844,"(512) 502-2050",,"(512) 388-1836","FRANK MCGUYER",
TX,WILLIAMSON,2020-67576,"Single Family Homes",11/9/2020,,330990,3025,"103 COYOTE TRL",GEORGETOWN,TX,78633,"SUN CITY",,CONTRACTOR,,,,,,,,,,,"PULTE HOMES",,,,,"PULTE HOMES","9401 AMBERGLEN BLVD STE I-150",AUSTIN,TX,78729-1154,"(512) 561-4344",,,,
TX,WILLIAMSON,2020-67586,"Single Family Homes",11/15/2020,,186594,2399,"661 PECAN BOTTOM TRL",GEORGETOWN,TX,78628,"WOLF RANCH",,CONTRACTOR,,,,,,,,,,,"MHI MCGUYER HOMEBUILDERS",,,,,"MHI MCGUYER HOMEBUILDERS","8200 N MO PAC EXPY STE 300",AUSTIN,TX,78759-8844,"(512) 502-2050",,"(512) 388-1836","FRANK MCGUYER",
TX,WILLIAMSON,2020-67593,"Single Family Homes",11/15/2020,,252594,3871,"3816 MERCER RD",GEORGETOWN,TX,78628,"WOLF RANCH",,CONTRACTOR,,,,,,,,,,,"MHI MCGUYER HOMEBUILDERS",,,,,"MHI MCGUYER HOMEBUILDERS","8200 N MO PAC EXPY STE 300",AUSTIN,TX,78759-8844,"(512) 502-2050",,"(512) 388-1836","FRANK MCGUYER",
TX,WILLIAMSON,2020-67656,"Single Family Homes",11/9/2020,,31990,2864,"108 COYOTE TRL",GEORGETOWN,TX,78633,"SUN CITY",,CONTRACTOR,,,,,,,,,,,"PULTE HOMES",,,,,"PULTE HOMES","9401 AMBERGLEN BLVD STE I-150",AUSTIN,TX,78729-1154,"(512) 561-4344",,,,
TX,WILLIAMSON,2020-67671,"Single Family Homes",11/4/2020,,391988,4558,"205 BARTON RUN DR",GEORGETOWN,TX,78628,"SHADOW CANYON",,CONTRACTOR,,,,,,,,,,,"GEHAN HOMES",,,,,"GEHAN HOMES","3815 S CAPITAL OF TEXAS HWY STE 275",AUSTIN,TX,78704-6652,"(512) 330-9366",http://www.gehanhomes.com,,"JANET PHILLIPS",
TX,WILLIAMSON,2020-67688,"Single Family Homes",11/2/2020,,315480,2629,"332 WINDOM WAY",GEORGETOWN,TX,78626,"VISTA POINTE",,CONTRACTOR,,,,,,,,,,,"MERITAGE HOMES",,,,,"MERITAGE HOMES","8920 BUSINESS PARK DR STE 250",AUSTIN,TX,78759-7622,"(512) 610-4800",,,,
TX,WILLIAMSON,2020-67689,"Single Family Homes",11/6/2020,,452040,3767,"121 STONEWOOD LN",GEORGETOWN,TX,78626,"VISTA POINTE",,CONTRACTOR,,,,,,,,,,,"MERITAGE HOMES",,,,,"MERITAGE HOMES","8920 BUSINESS PARK DR STE 250",AUSTIN,TX,78759-7622,"(512) 610-4800",,,,
TX,WILLIAMSON,2020-67720,"Single Family Homes",11/2/2020,,442920,3691,"105 LONGMIRE CV",GEORGETOWN,TX,78626,,,CONTRACTOR,,,,,,,,,,,"MERITAGE HOMES",,,,,"MERITAGE HOMES","8920 BUSINESS PARK DR STE 250",AUSTIN,TX,78759-7622,"(512) 610-4800",,,,
TX,WILLIAMSON,2020-67722,"Single Family Homes",11/2/2020,,258935,2079,"701 BRIDLE CREEK DR",GEORGETOWN,TX,78626,,,CONTRACTOR,,,,,,,,,,,"CHESMAR HOMES",,,,,"CHESMAR HOMES","2900 N QUINLAN PARK RD",AUSTIN,TX,78732-6083,"(512) 233-9016",http://chesmar.com,,,
TX,WILLIAMSON,2020-67724,"Single Family Homes",11/11/2020,,274250,2517,"709 BRIDLE CREEK DR",GEORGETOWN,TX,78626,,,CONTRACTOR,,,,,,,,,,,"CHESMAR HOMES",,,,,"CHESMAR HOMES","2900 N QUINLAN PARK RD",AUSTIN,TX,78732-6083,"(512) 233-9016",http://chesmar.com,,,
TX,WILLIAMSON,2020-67727,"Single Family Homes",11/2/2020,,268990,3143,"121 HARES FOOT CV",GEORGETOWN,TX,78626,"CARLSON PLACE",,CONTRACTOR,,,,,,,,,,,"PULTE HOMES",,,,,"PULTE HOMES","9401 AMBERGLEN BLVD STE I-150",AUSTIN,TX,78729-1154,"(512) 561-4344",,,,
TX,WILLIAMSON,2020-67741,"Single Family Homes",11/9/2020,,166066,1931,"113 BREMEN ST",GEORGETOWN,TX,78626,KASPER,,CONTRACTOR,,,,,,,,,,,"DR HORTON",,,,,"DR HORTON","10700 PECAN PARK BLVD STE 400",AUSTIN,TX,78750-1227,"(512) 345-4663",,,,
TX,WILLIAMSON,2020-67744,"Single Family Homes",11/2/2020,,227986,2651,"1617 FAIRHAVEN GTWY",GEORGETOWN,TX,78626,KASPER,,CONTRACTOR,,,,,,,,,,,"DR HORTON",,,,,"DR HORTON","10700 PECAN PARK BLVD STE 400",AUSTIN,TX,78750-1227,"(512) 345-4663",,,,
TX,WILLIAMSON,2020-67746,"Single Family Homes",11/3/2020,,213194,2479,"337 PEACE PIPE WAY",GEORGETOWN,TX,78628,,,CONTRACTOR,,,,,,,,,,,"DR HORTON",,,,,"DR HORTON","10700 PECAN PARK BLVD STE 400",AUSTIN,TX,78750-1227,"(512) 345-4663",,,,
TX,WILLIAMSON,2020-67751,"Single Family Homes",11/6/2020,,197866,2301,"341 PEACE PIPE WAY",GEORGETOWN,TX,78628,"SHADOW CANYON",,CONTRACTOR,,,,,,,,,,,"DR HORTON",,,,,"DR HORTON","10700 PECAN PARK BLVD STE 400",AUSTIN,TX,78750-1227,"(512) 345-4663",,,,
TX,WILLIAMSON,2020-67752,"Single Family Homes",11/3/2020,,217752,2532,"1224 BEAR TRACK LOOP",GEORGETOWN,TX,78628,"SHADOW CANYON",,CONTRACTOR,,,,,,,,,,,"DR HORTON",,,,,"DR HORTON","10700 PECAN PARK BLVD STE 400",AUSTIN,TX,78750-1227,"(512) 345-4663",,,,
TX,WILLIAMSON,2020-67753,"Single Family Homes",11/2/2020,,276490,3215,"1217 BEAR TRACK LOOP",GEORGETOWN,TX,78628,,,CONTRACTOR,,,,,,,,,,,"DR HORTON",,,,,"DR HORTON","10700 PECAN PARK BLVD STE 400",AUSTIN,TX,78750-1227,"(512) 345-4663",,,,
TX,WILLIAMSON,2020-67754,"Single Family Homes",11/2/2020,,256022,2977,"1213 BEAR TRACK LOOP",GEORGETOWN,TX,78628,,,CONTRACTOR,,,,,,,,,,,"DR HORTON",,,,,"DR HORTON","10700 PECAN PARK BLVD STE 400",AUSTIN,TX,78750-1227,"(512) 345-4663",,,,
TX,WILLIAMSON,2020-67755,"Single Family Homes",11/2/2020,,218268,2538,"1209 BEAR TRACK LOOP",GEORGETOWN,TX,78628,"SHADOW CANYON",,CONTRACTOR,,,,,,,,,,,"DR HORTON",,,,,"DR HORTON","10700 PECAN PARK BLVD STE 400",AUSTIN,TX,78750-1227,"(512) 345-4663",,,,
TX,WILLIAMSON,2020-67762,"Single Family Homes",11/3/2020,,184470,2145,"1205 BEAR TRACK LOOP",GEORGETOWN,TX,78628,,,CONTRACTOR,,,,,,,,,,,"DR HORTON",,,,,"DR HORTON","10700 PECAN PARK BLVD STE 400",AUSTIN,TX,78750-1227,"(512) 345-4663",,,,
TX,WILLIAMSON,2020-67763,"Single Family Homes",11/2/2020,,186448,2168,"1212 BEAR TRACK LOOP",GEORGETOWN,TX,78628,,,CONTRACTOR,,,,,,,,,,,"DR HORTON",,,,,"DR HORTON","10700 PECAN PARK BLVD STE 400",AUSTIN,TX,78750-1227,"(512) 345-4663",,,,
TX,WILLIAMSON,2020-67765,"Single Family Homes",11/2/2020,,213194,2479,"1124 BEAR TRACK LOOP",GEORGETOWN,TX,78628,,,CONTRACTOR,,,,,,,,,,,"DR HORTON",,,,,"DR HORTON","10700 PECAN PARK BLVD STE 400",AUSTIN,TX,78750-1227,"(512) 345-4663",,,,
TX,WILLIAMSON,2020-67766,"Single Family Homes",11/2/2020,,197886,2301,"1125 BEAR TRACK LOOP",GEORGETOWN,TX,78628,,,CONTRACTOR,,,,,,,,,,,"DR HORTON",,,,,"DR HORTON","10700 PECAN PARK BLVD STE 400",AUSTIN,TX,78750-1227,"(512) 345-4663",,,,
TX,WILLIAMSON,2020-67767,"Single Family Homes",11/2/2020,,186792,2172,"1121 BEAR TRACK LOOP",GEORGETOWN,TX,78628,,,CONTRACTOR,,,,,,,,,,,"DR HORTON",,,,,"DR HORTON","10700 PECAN PARK BLVD STE 400",AUSTIN,TX,78750-1227,"(512) 345-4663",,,,
TX,WILLIAMSON,2020-67768,"Single Family Homes",11/6/2020,,184470,2145,"1117 BEAR TRACK LOOP",GEORGETOWN,TX,78628,,,CONTRACTOR,,,,,,,,,,,"DR HORTON",,,,,"DR HORTON","10700 PECAN PARK BLVD STE 400",AUSTIN,TX,78750-1227,"(512) 345-4663",,,,
TX,WILLIAMSON,2020-67769,"Single Family Homes",11/6/2020,,197856,2301,"1113 BEAR TRACK LOOP",GEORGETOWN,TX,78628,"SHADOW CANYON",,CONTRACTOR,,,,,,,,,,,"DR HORTON",,,,,"DR HORTON","10700 PECAN PARK BLVD STE 400",AUSTIN,TX,78750-1227,"(512) 345-4663",,,,
TX,WILLIAMSON,2020-67770,"Single Family Homes",11/6/2020,,260322,3027,"1109 BEAR TRACK LOOP",GEORGETOWN,TX,78628,,,CONTRACTOR,,,,,,,,,,,"DR HORTON",,,,,"DR HORTON","10700 PECAN PARK BLVD STE 400",AUSTIN,TX,78750-1227,"(512) 345-4663",,,,
TX,WILLIAMSON,2020-67771,"Single Family Homes",11/6/2020,,269524,3134,"1112 BEAR TRACK LOOP",GEORGETOWN,TX,78628,"SHADOW CANYON",,CONTRACTOR,,,,,,,,,,,"DR HORTON",,,,,"DR HORTON","10700 PECAN PARK BLVD STE 400",AUSTIN,TX,78750-1227,"(512) 345-4663",,,,
TX,WILLIAMSON,2020-67773,"Single Family Homes",11/9/2020,,253614,2949,"1116 BEAR TRACK LOOP",GEORGETOWN,TX,78628,"SHADOW CANYON",,CONTRACTOR,,,,,,,,,,,"DR HORTON",,,,,"DR HORTON","10700 PECAN PARK BLVD STE 400",AUSTIN,TX,78750-1227,"(512) 345-4663",,,,
TX,WILLIAMSON,2020-67774,"Single Family Homes",11/6/2020,,227556,2646,"1101 BEAR TRACK LOOP",GEORGETOWN,TX,78628,"SHADOW CANYON",,CONTRACTOR,,,,,,,,,,,"DR HORTON",,,,,"DR HORTON","10700 PECAN PARK BLVD STE 400",AUSTIN,TX,78750-1227,"(512) 345-4663",,,,
TX,WILLIAMSON,2020-67776,"Single Family Homes",11/6/2020,,197886,2301,"1104 BEAR TRACK LOOP",GEORGETOWN,TX,78628,"SHADOW CANYON",,CONTRACTOR,,,,,,,,,,,"DR HORTON",,,,,"DR HORTON","10700 PECAN PARK BLVD STE 400",AUSTIN,TX,78750-1227,"(512) 345-4663",,,,
TX,WILLIAMSON,2020-67777,"Single Family Homes",11/6/2020,,217752,2532,"1021 BEAR TRACK LOOP",GEORGETOWN,TX,78628,"SHADOW CANYON",,CONTRACTOR,,,,,,,,,,,"DR HORTON",,,,,"DR HORTON","10700 PECAN PARK BLVD STE 400",AUSTIN,TX,78750-1227,"(512) 345-4663",,,,
TX,WILLIAMSON,2020-67780,"Single Family Homes",11/6/2020,,313556,3646,"121 BEAR PAW RUN",GEORGETOWN,TX,78628,"SHADOW CANYON",,CONTRACTOR,,,,,,,,,,,"GEHAN HOMES",,,,,"GEHAN HOMES","3815 S CAPITAL OF TEXAS HWY STE 275",AUSTIN,TX,78704-6652,"(512) 330-9366",http://www.gehanhomes.com,,"JANET PHILLIPS",
TX,WILLIAMSON,2020-67800,"Single Family Homes",11/11/2020,,317320,2287,"713 BRIDLE CREEK DR",GEORGETOWN,TX,78626,SADDLECREEK,,CONTRACTOR,,,,,,,,,,,"CHESMAR HOMES",,,,,"CHESMAR HOMES","2900 N QUINLAN PARK RD",AUSTIN,TX,78732-6083,"(512) 233-9016",http://chesmar.com,,,
TX,WILLIAMSON,2020-67804,"Single Family Homes",11/12/2020,,249572,2902,"405 LOS COBOS LN",GEORGETOWN,TX,78626,"LA CONTERRA",,CONTRACTOR,,,,,,,,,,,"KB HOME",,,,,"KB HOME","10800 PECAN PARK BLVD STE 200",AUSTIN,TX,78750-1249,"(512) 651-8100",,,,
TX,WILLIAMSON,2020-67824,"Single Family Homes",11/12/2020,,170796,1986,"449 CONCHILLOS DR",GEORGETOWN,TX,78626,"LA CONTERRA",,CONTRACTOR,,,,,,,,,,,"KB HOME",,,,,"KB HOME","10800 PECAN PARK BLVD STE 200",AUSTIN,TX,78750-1249,"(512) 651-8100",,,,
TX,WILLIAMSON,2020-67831,"Single Family Homes",11/3/2020,,195204,2160,"533 REARING MARE PASS",GEORGETOWN,TX,78626,SADDLECREEK,,CONTRACTOR,,,,,,,,,,,"CENTURY COMMUNITIES",,,,,"CENTURY COMMUNITIES","6500 RIVER PLACE BLVD STE 200",AUSTIN,TX,78730-1156,"(512) 271-3825",https://www.centurycommunities.com/,,,
TX,WILLIAMSON,2020-67846,"Single Family Homes",11/3/2020,,350520,2921,"1305 HIGHWATER DR",GEORGETOWN,TX,78628,"WATER OAK",,CONTRACTOR,,,,,,,,,,,"MERITAGE HOMES",,,,,"MERITAGE HOMES","8920 BUSINESS PARK DR STE 250",AUSTIN,TX,78759-7622,"(512) 610-4800",,,,
TX,WILLIAMSON,2020-67879,"Single Family Homes",11/4/2020,,264450,3526,"9009 DAISY CUTTER XING",GEORGETOWN,TX,78626,SADDLECREEK,,CONTRACTOR,,,,,,,,,,,"LENNAR HOMES",,,,,"LENNAR HOMES","13620 FM 620 RD 150",AUSTIN,TX,78717,"(512) 506-4000",http://www.lennar.com/,,,
TX,WILLIAMSON,2020-67881,"Single Family Homes",11/4/2020,,297960,2483,"124 STONEWOOD LN",GEORGETOWN,TX,78626,"VISTA POINTE",,CONTRACTOR,,,,,,,,,,,"MERITAGE HOMES",,,,,"MERITAGE HOMES","8920 BUSINESS PARK DR STE 250",AUSTIN,TX,78759-7622,"(512) 610-4800",,,,
TX,WILLIAMSON,2020-67893,"Single Family Homes",11/6/2020,,315000,2625,"113 BIRKSHIRE DR",GEORGETOWN,TX,78626,"VISTA POINTE",,CONTRACTOR,,,,,,,,,,,"MERITAGE HOMES",,,,,"MERITAGE HOMES","8920 BUSINESS PARK DR STE 250",AUSTIN,TX,78759-7622,"(512) 610-4800",,,,
TX,WILLIAMSON,2020-67894,"Single Family Homes",11/5/2020,,295440,2462,"212 STONEWOOD LN",GEORGETOWN,TX,78626,"VISTA POINTE",,CONTRACTOR,,,,,,,,,,,"MERITAGE HOMES",,,,,"MERITAGE HOMES","8920 BUSINESS PARK DR STE 250",AUSTIN,TX,78759-7622,"(512) 610-4800",,,,
TX,WILLIAMSON,2020-67896,"Single Family Homes",11/4/2020,,295440,2462,"100 STONEWOOD LN",GEORGETOWN,TX,78626,,,CONTRACTOR,,,,,,,,,,,"MERITAGE HOMES",,,,,"MERITAGE HOMES","8920 BUSINESS PARK DR STE 250",AUSTIN,TX,78759-7622,"(512) 610-4800",,,,
TX,WILLIAMSON,2020-67898,"Single Family Homes",11/9/2020,,420960,3508,"129 STONEWOOD LN",GEORGETOWN,TX,78626,"VISTA POINTE",,CONTRACTOR,,,,,,,,,,,"MERITAGE HOMES",,,,,"MERITAGE HOMES","8920 BUSINESS PARK DR STE 250",AUSTIN,TX,78759-7622,"(512) 610-4800",,,,
TX,WILLIAMSON,2020-67899,"Single Family Homes",11/5/2020,,453840,3782,"200 STONEWOOD LN",GEORGETOWN,TX,78626,"VISTA POINTE",,CONTRACTOR,,,,,,,,,,,"MERITAGE HOMES",,,,,"MERITAGE HOMES","8920 BUSINESS PARK DR STE 250",AUSTIN,TX,78759-7622,"(512) 610-4800",,,,
TX,WILLIAMSON,2020-67947,"Single Family Homes",11/11/2020,,279005,2358,"805 BRIDLE CREEK DR",GEORGETOWN,TX,78626,SADDLECREEK,,CONTRACTOR,,,,,,,,,,,"CHESMAR HOMES",,,,,"CHESMAR HOMES","2900 N QUINLAN PARK RD",AUSTIN,TX,78732-6083,"(512) 233-9016",http://chesmar.com,,,
TX,WILLIAMSON,2020-67950,"Single Family Homes",11/6/2020,,423630,2993,"2221 PRAIRIE OAKS DR",GEORGETOWN,TX,78628,,,CONTRACTOR,,,,,,,,,,,"CHESMAR HOMES",,,,,"CHESMAR HOMES","2900 N QUINLAN PARK RD",AUSTIN,TX,78732-6083,"(512) 233-9016",http://chesmar.com,,,
TX,WILLIAMSON,2020-67953,"Single Family Homes",11/6/2020,,372290,2425,"2317 PRAIRIE OAKS DR",GEORGETOWN,TX,78628,,,CONTRACTOR,,,,,,,,,,,"CHESMAR HOMES",,,,,"CHESMAR HOMES","2900 N QUINLAN PARK RD",AUSTIN,TX,78732-6083,"(512) 233-9016",http://chesmar.com,,,
TX,WILLIAMSON,2020-67955,"Single Family Homes",11/9/2020,,108290,1217,"132 AKELA WAY",GEORGETOWN,TX,78626,RIVERHILLS,,CONTRACTOR,,,,,,,,,,,"LENNAR HOMES",,,,,"LENNAR HOMES","13620 FM 620 RD 150",AUSTIN,TX,78717,"(512) 506-4000",http://www.lennar.com/,,,
TX,WILLIAMSON,2020-67956,"Single Family Homes",11/6/2020,,321038,3733,"121 BARTON RUN DR",GEORGETOWN,TX,78628,"SHADOW CANYON",,CONTRACTOR,,,,,,,,,,,"GEHAN HOMES",,,,,"GEHAN HOMES","3815 S CAPITAL OF TEXAS HWY STE 275",AUSTIN,TX,78704-6652,"(512) 330-9366",http://www.gehanhomes.com,,"JANET PHILLIPS",
TX,WILLIAMSON,2020-67957,"Single Family Homes",11/9/2020,,124475,1474,"128 AKELA WAY",GEORGETOWN,TX,78626,RIVERHILLS,,CONTRACTOR,,,,,,,,,,,"LENNAR HOMES",,,,,"LENNAR HOMES","13620 FM 620 RD 150",AUSTIN,TX,78717,"(512) 506-4000",http://www.lennar.com/,,,
TX,WILLIAMSON,2020-68020,"Single Family Homes",11/6/2020,,500165,3155,"104 LORENA LN",GEORGETOWN,TX,78628,,,CONTRACTOR,,,,,,,,,,,"CHESMAR HOMES",,,,,"CHESMAR HOMES","2900 N QUINLAN PARK RD",AUSTIN,TX,78732-6083,"(512) 233-9016",http://chesmar.com,,,
TX,WILLIAMSON,2020-68037,"Single Family Homes",11/5/2020,,330000,2750,"1200 HIGHWATER DR",GEORGETOWN,TX,78628,,,CONTRACTOR,,,,,,,,,,,"MERITAGE HOMES",,,,,"MERITAGE HOMES","8920 BUSINESS PARK DR STE 250",AUSTIN,TX,78759-7622,"(512) 610-4800",,,,
TX,WILLIAMSON,2020-68043,"Single Family Homes",11/9/2020,,252990,2491,"113 HARES FOOT CV",GEORGETOWN,TX,78626,"CARLSON PLACE",,CONTRACTOR,,,,,,,,,,,"PULTE HOMES",,,,,"PULTE HOMES","9401 AMBERGLEN BLVD STE I-150",AUSTIN,TX,78729-1154,"(512) 561-4344",,,,
TX,WILLIAMSON,2020-68044,"Single Family Homes",11/5/2020,,411240,3427,"2204 PRAIRIE OAKS DR",GEORGETOWN,TX,78628,"WATER OAK",,CONTRACTOR,,,,,,,,,,,"MERITAGE HOMES",,,,,"MERITAGE HOMES","8920 BUSINESS PARK DR STE 250",AUSTIN,TX,78759-7622,"(512) 610-4800",,,,
TX,WILLIAMSON,2020-68057,"Single Family Homes",11/12/2020,,430000,2713,"232 IVA JUNE LN",GEORGETOWN,TX,78628,,,CONTRACTOR,,,,,,,,,,,"DAVID WEEKLEY HOMES",,,,,"DAVID WEEKLEY HOMES","9000 WATERFORD CENTRE BLVD",AUSTIN,TX,78758-7662,"(800) 390-6774",http://www.davidweekleyhomes.com/,,,
TX,WILLIAMSON,2020-68062,"Single Family Homes",11/6/2020,,424390,2993,"1223 LEANING OAK LN",GEORGETOWN,TX,78628,"WATER OAK",,CONTRACTOR,,,,,,,,,,,"CHESMAR HOMES",,,,,"CHESMAR HOMES","2900 N QUINLAN PARK RD",AUSTIN,TX,78732-6083,"(512) 233-9016",http://chesmar.com,,,
TX,WILLIAMSON,2020-68063,"Single Family Homes",11/11/2020,,279170,2152,"609 PADDOCK LN",GEORGETOWN,TX,78626,,,CONTRACTOR,,,,,,,,,,,"CHESMAR HOMES",,,,,"CHESMAR HOMES","2900 N QUINLAN PARK RD",AUSTIN,TX,78732-6083,"(512) 233-9016",http://chesmar.com,,,
TX,WILLIAMSON,2020-68064,"Single Family Homes",11/12/2020,,205368,2388,"6509 KILDARE DR",GEORGETOWN,TX,78626,"GATLIN CROSSING",,CONTRACTOR,,,,,,,,,,,"DR HORTON",,,,,"DR HORTON","10700 PECAN PARK BLVD STE 400",AUSTIN,TX,78750-1227,"(512) 345-4663",,,,
TX,WILLIAMSON,2020-68065,"Single Family Homes",11/6/2020,,189800,2354,"1516 WHIPPLETREE TRL",GEORGETOWN,TX,78626,SADDLECREEK,,CONTRACTOR,,,,,,,,,,,"CENTURY COMMUNITIES",,,,,"CENTURY COMMUNITIES","6500 RIVER PLACE BLVD STE 200",AUSTIN,TX,78730-1156,"(512) 271-3825",https://www.centurycommunities.com/,,,
TX,WILLIAMSON,2020-68101,"Single Family Homes",11/13/2020,,249990,2284,"602 BENTON LN",GEORGETOWN,TX,78633,,,CONTRACTOR,,,,,,,,,,,"PULTE HOMES",,,,,"PULTE HOMES","9401 AMBERGLEN BLVD STE I-150",AUSTIN,TX,78729-1154,"(512) 561-4344",,,,
TX,WILLIAMSON,2020-68102,"Single Family Homes",11/17/2020,,330990,2941,"122 SPANISH STAR ST",GEORGETOWN,TX,78633,"SUN CITY NEIGHBORHOOD",,CONTRACTOR,,,,,,,,,,,"PULTE HOMES",,,,,"PULTE HOMES","9401 AMBERGLEN BLVD STE I-150",AUSTIN,TX,78729-1154,"(512) 561-4344",,,,
TX,WILLIAMSON,2020-68103,"Single Family Homes",11/17/2020,,245990,2135,"620 BENTON LN",GEORGETOWN,TX,78633,,,CONTRACTOR,,,,,,,,,,,"PULTE HOMES",,,,,"PULTE HOMES","9401 AMBERGLEN BLVD STE I-150",AUSTIN,TX,78729-1154,"(512) 561-4344",,,,
TX,WILLIAMSON,2020-68213,"Single Family Homes",11/9/2020,,163345,2022,"134 COYOTE MOUNTAIN CV",GEORGETOWN,TX,78633,"WOLF RANCH",,CONTRACTOR,,,,,,,,,,,"LENNAR HOMES",,,,,"LENNAR HOMES","13620 FM 620 RD 150",AUSTIN,TX,78717,"(512) 506-4000",http://www.lennar.com/,,,
TX,WILLIAMSON,2020-68214,"Single Family Homes",11/9/2020,,200460,2532,"130 COYOTE MOUNTAIN CV",GEORGETOWN,TX,78633,"WOLF RANCH",,CONTRACTOR,,,,,,,,,,,"LENNAR HOMES",,,,,"LENNAR HOMES","13620 FM 620 RD 150",AUSTIN,TX,78717,"(512) 506-4000",http://www.lennar.com/,,,
TX,WILLIAMSON,2020-68215,"Single Family Homes",11/9/2020,,147450,1966,"138 COYOTE MOUNTAIN CV",GEORGETOWN,TX,78633,"WOLF RANCH",,CONTRACTOR,,,,,,,,,,,"LENNAR HOMES",,,,,"LENNAR HOMES","13620 FM 620 RD 150",AUSTIN,TX,78717,"(512) 506-4000",http://www.lennar.com/,,,
