state,county,permno,ptype,pdate,pdescription,jvalue,jsqfeet,jaddr,jcity,jstate,jzip,jsubdiv,jlotno,aname,aaddr,acity,astate,azip,aphone,atype,aurl,afax,aprimarycontact,aemail,bldcode,units,bldgs,ctype,legal,contractor,caddress,ccity,cstate,czip,cphone,curl,cfax,cprimarycontact,cemail
TX,TRAVIS,"2021-057894 BP","Commercial Swimming Pool & Spas",4/22/2021,,30000,1753,"916 NORWOOD PARK BLVD",AUSTIN,TX,78753,"NORWOOD PARK",1,CONTRACTOR,,,,,,,,,,,"MC AQUATIC CONSTRUCTION",,,,,"MC AQUATIC CONSTRUCTION","208 WILDERNESS TRL",GEORGETOWN,TX,78633-2112,"(512) 775-5449",,,,
TX,TRAVIS,"2018-108871 BP","Commercial Swimming Pool & Spas",4/22/2021,,190000,2300,"12113 DESSAU RD",AUSTIN,TX,78753,"PARMER PARK",1,CONTRACTOR,,,,,,,,,,,"CRYSTAL CLEAR CONSTRUCTION",,,,,"CRYSTAL CLEAR CONSTRUCTION","700 APPLEGATE STE 100",AUSTIN,TX,78753,"(512) 339-9304",,,,
TX,TRAVIS,"2021-040252 BP","Hotel, Motel & Assisted Living",4/23/2021,Addition,1941600,1524,"111 E CESAR CHAVEZ ST",AUSTIN,TX,78701,"ORIGINAL CITY",1,CONTRACTOR,,,,,,,,,,,"TD INDUSTRIES",,,,,"TD INDUSTRIES","2701 GATTIS SCHOOL RD # 101","ROUND ROCK",TX,78664-3819,"(512) 310-5076",,,,
TX,WILLIAMSON,2021-71911,"Multi Family Apartments & Condos",3/10/2021,,297500,2574,"2201 LIMESTONE LAKE DR",GEORGETOWN,TX,78626,,,CONTRACTOR,,,,,,,,,,,"CENTURY COMMUNITIES",,,,,"CENTURY COMMUNITIES","6500 RIVER PLACE BLVD STE 200",AUSTIN,TX,78730-1156,"(512) 271-3825",https://www.centurycommunities.com/,,,
TX,WILLIAMSON,2021-71912,"Multi Family Apartments & Condos",3/10/2021,,289500,2560,"2205 LIMESTONE LAKE DR",GEORGETOWN,TX,78626,,,CONTRACTOR,,,,,,,,,,,"CENTURY COMMUNITIES",,,,,"CENTURY COMMUNITIES","6500 RIVER PLACE BLVD STE 200",AUSTIN,TX,78730-1156,"(512) 271-3825",https://www.centurycommunities.com/,,,
TX,WILLIAMSON,2021-72729,"Multi Family Apartments & Condos",3/23/2021,,315000,3808,"301 ALAMAR KNOT WAY",GEORGETOWN,TX,78626,,,CONTRACTOR,,,,,,,,,,,"PACESETTER HOMES ",,,,,"PACESETTER HOMES ","7940 SHOAL CREEK BLVD STE 200",AUSTIN,TX,78757-7587,"(512) 323-5252",,,,
TX,WILLIAMSON,2021-72732,"Multi Family Apartments & Condos",3/24/2021,,305000,3400,"507 WHITE STEPPE WAY",GEORGETOWN,TX,78626,,,CONTRACTOR,,,,,,,,,,,"PACESETTER HOMES ",,,,,"PACESETTER HOMES ","7940 SHOAL CREEK BLVD STE 200",AUSTIN,TX,78757-7587,"(512) 323-5252",,,,
TX,TRAVIS,"2021-059270 BP","Multi Family Apartments & Condos",4/23/2021,,240000,2747,"7926 YELLOW THISTLE TRL",AUSTIN,TX,78735,,,CONTRACTOR,,,,,,,,,,,"HOPPER COMMUNITIES",,,,,"HOPPER COMMUNITIES","1611 W 5TH ST STE 100",AUSTIN,TX,78703-4889,"(512) 627-1733",https://www.hoppercommunities.com,,,jswanson@hoppercommunities.com
TX,TRAVIS,"2021-060415 BP","Multi Family Renovations & Additions",4/23/2021,Renovation,7600000,2062,"7928 GESSNER DR",AUSTIN,TX,78753,,2,CONTRACTOR,,,,,,,,,,,"AVA'S HANDYMEN",,,,,"AVA'S HANDYMEN","1515 CAPITAL OF TEXAS HWY ",AUSTIN,TX,78746,"(512) 659-3612",,,,
TX,TRAVIS,"2021-060078 BP","Multi Family Renovations & Additions",4/23/2021,Renovation,27000000,513,"5301 DECKER LN",AUSTIN,TX,78724,"DECKER CORNER",4,CONTRACTOR,,,,,,,,,,,"ODEN HUGHES",,,,,"ODEN HUGHES","901 S MOPAC EXPRESSWAY BOP V STE 200",AUSTN,TX,78746,"(210) 563-6833",,"(512) 813-7115","STEVE ODEN",steve@odenhughesllc.com
TX,BASTROP,21-000299,"Offices, R&D, & Professional",3/16/2021,,180085,,"630 W SH 71",BASTROP,TX,78702,,,CONTRACTOR,,,,,,,,,,,"CM CONSTRUCTORS",,,,,"CM CONSTRUCTORS","12325 HYMEADOW DR STE 3-202",AUSTIN,TX,78750-1861,"(512) 960-8300",,,,
TX,BASTROP,21-000456,"Offices, R&D, & Professional",4/9/2021,,150000,1926,"721 W SH 71",BASTROP,TX,78702,,,CONTRACTOR,,,,,,,,,,,"EMJAX CONSTRUCTION",,,,,"EMJAX CONSTRUCTION","5207 THUNDERBIRD TRL",GRANBURY,TX,76049-5306,"(817) 326-3706",,,"CHAD VAUGHN",
TX,TRAVIS,"2021-052089 BP","Offices, R&D, & Professional",4/26/2021,,875000,2777,"4303 MEDICAL PKWY",AUSTIN,TX,78756,"ALTA VISTA",1,CONTRACTOR,,,,,,,,,,,RISHERMARTIN,,,,,RISHERMARTIN,"2109 BOWMAN AVE",AUSTIN,TX,78703-2305,"(512) 495-9090",,,,
TX,WILLIAMSON,2020-70240,"Residential Renovations & Additions",3/29/2021,Renovations,500000,3694,"1215 S MAIN ST",GEORGETOWN,TX,78626,,,"WADE & LESLIE WALDEN","1215 S MAIN ST",GEORGETOWN,TX,78626,,Owner,,,,,"CASH CUSTOM HOMES",,,,,"CASH CUSTOM HOMES","120 POPPY HILLS CV S",GEORGETOWN,TX,78628-1179,"(512) 591-7331",,,"CHRISTOPHER CASH",
TX,WILLIAMSON,2021-71658,"Residential Renovations & Additions",3/2/2021,Renovations,35000,,"118 CREPE MYRTLE LN",GEORGETOWN,TX,78626,,,"CHRISTOPHER & SUSAN CONNER","118 CREPE MYRTLE LN",GEORGETOWN,TX,78626,,Owner,,,,,"BESS SERVICES",,,,,"BESS SERVICES","300 THUNDERBAY DR",GEORGETOWN,TX,78626-6304,"(512) 864-9520",http://www.bessservices.com/,"(512) 864-9529",,Info@bessservices.com
TX,WILLIAMSON,2021-72957,"Residential Renovations & Additions",3/31/2021,Renovations,64232,,"517 RIDGECREST RD",GEORGETOWN,TX,78626,,,"LENA & LAWRENCE LANSDALE","517 RIDGECREST RD",GEORGETOWN,TX,78626,,Owner,,,,,"CUSTOM BUILDERS OF AUSTIN",,,,,"CUSTOM BUILDERS OF AUSTIN","2612 ARION CIR",AUSTIN,TX,78730-4212,"(512) 814-0884",,,,
TX,TRAVIS,"2019-229040 BP","Residential Renovations & Additions",4/26/2021,Addition,40001,471,"403 DELMAR AVE",AUSTIN,TX,78752,"ST JOHNS HOME",5,"ANN DU","403 DELMAR AVE",AUSTIN,TX,78752,"(512) 947-6373",Owner,,,,,OWNER,,,,,OWNER,,,,,,,,,
TX,TRAVIS,"2021-057056 BP","Residential Renovations & Additions",4/22/2021,Addition,70000,706,"10701 GOLD YARROW DR",AUSTIN,TX,78730,"RIVER PLACE",25,"RICARDO SANCHEZ","10701 GOLD YARROW DR",AUSTIN,TX,78730,,Owner,,,,,"5 BROTHERS REMODELING",,,,,"5 BROTHERS REMODELING","4502 TINY SEED CV","ROUND ROCK",TX,78664,"(512) 905-0642",,,,
TX,TRAVIS,"2021-051349 BP","Residential Renovations & Additions",4/21/2021,Addition,180000,1906,"15420 FERNHILL DR",AUSTIN,TX,78717,"AVERY SOUTH",,CONTRACTOR,,,,,,,,,,,"DILLON CUSTOM HOMES",,,,,"DILLON CUSTOM HOMES","13359 N HIGHWAY 183 STE 406",AUSTIN,TX,78750-7154,"(512) 450-2031",http://dilloncustomhomes.net/,,,
TX,TRAVIS,"2021-058521 BP","Residential Renovations & Additions",4/23/2021,Renovation,59655,,"6817 WILLAMETTE DR",AUSTIN,TX,78723,"DUNBARTON OAKS",26,"ERIC FLOWERS ","6817 WILLAMETTE DR",AUSTIN,TX,78723,,Owner,,,,,"MANNERS CONSTRUCTION",,,,,"MANNERS CONSTRUCTION","1800 RIDGEMONT DR ",AUSTIN,TX,78726,"(512) 699-1516",,,,
TX,TRAVIS,"2021-034850 BP","Residential Renovations & Additions",4/22/2021,Renovation,68600,,"1005 GASTON AVE",AUSTIN,TX,78703,"SHOAL TERRACE",20,"PAUL & MARGARET GAUDIN","1005 GASTON AVE",AUSTIN,TX,78703,,Owner,,,,,"CAPITAL FOUNDATION",,,,,"CAPITAL FOUNDATION","1703 BENCH MARK DR",AUSTIN,TX,78728-7720,"(512) 990-1117",,,,
TX,TRAVIS,"2021-058545 BP","Residential Renovations & Additions",4/21/2021,Renovation,74958,,"6800 VALLECITO DR",AUSTIN,TX,78759,"OAK FOREST",20,"MATTHEW & ALYSON DANIEL","6800 VALLECITO DR",AUSTIN,TX,78759,,Owner,,,,,"HESTIA CONSTRUCTION & DESIGN",,,,,"HESTIA CONSTRUCTION & DESIGN","3303 NORTHLAND DRIVE 205",AUSTIN,TX,78731,"(832) 871-5582",,,,
TX,WILLIAMSON,2021-71100,"Residential Swimming Pools & Spas",3/30/2021,,100000,,"205 LISCIO LOOP",GEORGETOWN,TX,78626,,,"KYLE & ROBIN HERMAN","205 LISCIO LOOP",GEORGETOWN,TX,78626,,Owner,,,,,"ALL CLEAR POOLS",,,,,"ALL CLEAR POOLS","13704 THERMAL DR",AUSTIN,TX,78728-7732,"(512) 251-7382",,,,
TX,WILLIAMSON,2021-71743,"Residential Swimming Pools & Spas",3/26/2021,,82500,,"110 CHANOCK CV",GEORGETOWN,TX,78626,,,CONTRACTOR,,,,,,,,,,,"PREMIER POOLS & SPAS",,,,,"PREMIER POOLS & SPAS","1333 MCDERMOTT STE 200",ALLEN,TX,75013,"(214) 620-1044",,,,
TX,WILLIAMSON,2021-71809,"Residential Swimming Pools & Spas",3/9/2021,,119000,,"30409 BERRY CREEK DR",GEORGETOWN,TX,78626,,,CONTRACTOR,,,,,,,,,,,"OMNIA OUTDOORS",,,,,"OMNIA OUTDOORS","4809 WILLIAMS DR BLDG 2",GEORGETOWN,TX,78633,"(512) 240-4645",http://omniaoutdoors.com/,,,
TX,WILLIAMSON,2021-71839,"Residential Swimming Pools & Spas",3/8/2021,,56000,,"316 TRADINGHOUSE CREEK ST",GEORGETOWN,TX,78626,,,CONTRACTOR,,,,,,,,,,,"CODY POOLS",,,,,"CODY POOLS","2300 W PARMER LN",AUSTIN,TX,78727-4332,"(512) 835-4966",http://www.codypools.com,,"COLE NAUMAN",
TX,WILLIAMSON,2021-71977,"Residential Swimming Pools & Spas",3/10/2021,,41000,,"1205 MORSE CV",GEORGETOWN,TX,78626,,,"CHRISTOPHER & SHARON WALKER","1205 MORSE CV",GEORGETOWN,TX,78626,,Owner,,,,,"CODY POOLS",,,,,"CODY POOLS","2300 W PARMER LN",AUSTIN,TX,78727-4332,"(512) 835-4966",http://www.codypools.com,,"COLE NAUMAN",
TX,WILLIAMSON,2021-72148,"Residential Swimming Pools & Spas",3/10/2021,,43000,,"2802 GABRIEL VIEW DR",GEORGETOWN,TX,78626,,,"BRIAN & TAYLOR BEAULIEU","2802 GABRIEL VIEW DR",GEORGETOWN,TX,78626,,Owner,,,,,"CODY POOLS",,,,,"CODY POOLS","2300 W PARMER LN",AUSTIN,TX,78727-4332,"(512) 835-4966",http://www.codypools.com,,"COLE NAUMAN",
TX,WILLIAMSON,2021-72564,"Residential Swimming Pools & Spas",3/30/2021,,80000,,"126 LONGMIRE CV",GEORGETOWN,TX,78626,,,CONTRACTOR,,,,,,,,,,,"ALL CLEAR POOLS",,,,,"ALL CLEAR POOLS","13704 THERMAL DR",AUSTIN,TX,78728-7732,"(512) 251-7382",,,,
TX,WILLIAMSON,2021-72621,"Residential Swimming Pools & Spas",3/31/2021,,12000,,"334 BARTLETT PEAK DR",GEORGETOWN,TX,78626,,," ANN NELSEN","334 BARTLETT PEAK DR",GEORGETOWN,TX,78626,,Owner,,,,,"MLJ ELECTRIC",,,,,"MLJ ELECTRIC","1615 OAK LN",GEORGETOWN,TX,78628,"(512) 656-6093",,,,
TX,WILLIAMSON,2021-72742,"Residential Swimming Pools & Spas",3/18/2021,,60000,,"108 MAGNOLIA SPRINGS DR",GEORGETOWN,TX,78626,,,CONTRACTOR,,,,,,,,,,,"TEXAS POOLS & PATIOS",,,,,"TEXAS POOLS & PATIOS","601 S BELL BLVD","CEDAR PARK",TX,78613-3854,"(512) 402-1175",http://www.texaspoolsandpatios.com/,,,
TX,HAYS,2020-1587,"Residential Swimming Pools & Spas",3/26/2021,,100000,798,"1320 BUFFALO CANYON DR","DRIPPING SPRINGS",TX,78620,,,"TIMOTHY & JOAN HUGHES","1320 BUFFALO CANYON DR","DRIPPING SPRINGS",TX,78620,,Owner,,,,,"ALLEGIANT CONTRACTORS",,,,,"ALLEGIANT CONTRACTORS","13000 TRAILS END",AUSTIN,TX,78737-9548,"(512) 373-5009",,,,
TX,HAYS,2020-2311,"Residential Swimming Pools & Spas",3/5/2021,,124000,544,"323 SUNNY'S HALO","DRIPPING SPRINGS",TX,78620,,,"WHITNEY NEWTON","323 SUNNY'S HALO","DRIPPING SPRINGS",TX,78620,,Owner,,,,,"CRYSTAL SPRINGS CUSTOM POOLS",,,,,"CRYSTAL SPRINGS CUSTOM POOLS","5300 W HIGHWAY 290","DRIPPING SPRINGS",TX,78620-3520,"(512) 200-6969",http://crystalspringscustompools.com/,,,crystalspringscustompools@gmail.com
TX,HAYS,2020-2312,"Residential Swimming Pools & Spas",3/1/2021,,100000,700,"1425 BEARKAT CANYON","DRIPPING SPRINGS",TX,78620,,,"BRUCE WALLACE","1425 BEARKAT CANYON","DRIPPING SPRINGS",TX,78620,"(512) 496-2002",Owner,,,,,OWNER,,,,,OWNER,,,,,,,,,
TX,HAYS,2021-1145,"Residential Swimming Pools & Spas",3/16/2021,,68400,607,"2676 REUNION BLVD","DRIPPING SPRINGS",TX,78737,,,"LAMANDA MORAN","2676 REUNION BLVD","DRIPPING SPRINGS",TX,78737,"(512) 788-0685",Applicant,,,,,OWNER,,,,,OWNER,,,,,,,,,
TX,HAYS,2021-1182,"Residential Swimming Pools & Spas",3/29/2021,,70000,1505,"204 RATON PASS","DRIPPING SPRINGS",TX,78620,,,CONTRACTOR,,,,,,,,,,,"CREATIVE POOLS & PATIOS",,,,,"CREATIVE POOLS & PATIOS","701 WOODS LP",DRIFTWOOD,TX,78619,"(512) 669-0407",https://creativepoolsandpatios.com/,,"CHRIS HOUK",chris@creativepoolsandpatios.com
TX,HAYS,2021-1202,"Residential Swimming Pools & Spas",3/20/2021,,63000,1027,"265 PEAR TREE LN","DRIPPING SPRINGS",TX,78620,,,"YUSUF UGRAS","265 PEAR TREE LN","DRIPPING SPRINGS",TX,78620,,Owner,,,,,"CODY POOLS",,,,,"CODY POOLS","2300 W PARMER LN",AUSTIN,TX,78727-4332,"(512) 835-4966",http://www.codypools.com,,"COLE NAUMAN",
TX,HAYS,2021-1233,"Residential Swimming Pools & Spas",3/29/2021,,109000,1592,"116 TRINCHERAS PASS","DRIPPING SPRINGS",TX,78620,,,"JOEL & SHELLI CALLENDER","116 TRINCHERAS PASS","DRIPPING SPRINGS",TX,78620,,Owner,,,,,"ANTHONY & SYLVAN POOLS",,,,,"ANTHONY & SYLVAN POOLS","13343 N HIGHWAY 183 STE 295",AUSTIN,TX,78750-7161,"(512) 258-1232",http://www.anthonysylvan.com/,,,
TX,TRAVIS,2021-2009,"Residential Swimming Pools & Spas",3/17/2021,,140000,1720,"9503 HARBOR DR",JONESTOWN,TX,78645,,,"BENJAMIN STOCKARD","9503 HARBOR DR",JONESTOWN,TX,78645,,Owner,,,,,"CONCEPT POOLS",,,,,"CONCEPT POOLS","18001 VORWERK RD",MANOR,TX,78653-3914,"(512) 677-0197",,,,
TX,TRAVIS,2021-2022,"Residential Swimming Pools & Spas",3/23/2021,,78000,,"17708 HUNTER HOLLOW",JONESTOWN,TX,78645,,,"KEVIN WALKER","17708 HUNTER HOLLOW",JONESTOWN,TX,78645,,Owner,,,,,"OPTIMA POOLS",,,,,"OPTIMA POOLS","405 HIGHLAND SPRINGS LN",GEORGETOWN,TX,78633-1994,"(303) 594-5959",http://www.optimapools.com,,,optimapools@suddenlinkmail.com
TX,TRAVIS,2021-2031,"Residential Swimming Pools & Spas",3/1/2021,,104902,350,"18003 BREAKWATER DR",JONESTOWN,TX,78645,,,"KEITH HOLLIDAY","18003 BREAKWATER DR",JONESTOWN,TX,78645,,Owner,,,,,"YOUNGER HOMES",,,,,"YOUNGER HOMES","8121 BREEZE WAY",JONESTOWN,TX,78645-9643,"(512) 815-2297",https://www.younger-homes.com,,,hello@younger-homes.com
TX,TRAVIS,2021-2079,"Residential Swimming Pools & Spas",3/3/2021,,93000,973,"17005 NORTHLAKE HILLS DR",JONESTOWN,TX,78645,,,"DIANA GRAFFEO","17005 NORTHLAKE HILLS DR",JONESTOWN,TX,78645,,Owner,,,,,"ANTHONY & SYLVAN POOLS",,,,,"ANTHONY & SYLVAN POOLS","13343 N HIGHWAY 183 STE 295",AUSTIN,TX,78750-7161,"(512) 258-1232",http://www.anthonysylvan.com/,,,
TX,BASTROP,21-000340,"Residential Swimming Pools & Spas",3/15/2021,,41000,,"287 RIMROCK CT",BASTROP,TX,78702,,,CONTRACTOR,,,,,,,,,,,"SUPERIOR FIBERGLASS POOLS",,,,,"SUPERIOR FIBERGLASS POOLS","7600 CHEVY CHASE DR STE 300",AUSTIN,TX,78752-1599,"(512) 619-2345",http://www.superiorfiberglasspools.com/,,,
TX,TRAVIS,"2021-049078 BP","Residential Swimming Pools & Spas",4/21/2021,,,393,"6000 IVY HILLS DR",AUSTIN,TX,78759,"GREAT HILLS",13,"KENNETH OLIVER","6000 IVY HILLS DR",AUSTIN,TX,78759,,Owner,,,,,"OPEN WATER POOLS",,,,,"OPEN WATER POOLS","13359 N HIGHWAY 183 STE B-406 STE 248",AUSTIN,TX,78750-7153,"(512) 801-9712",http://www.openwaterpools.com,,,
TX,TRAVIS,"2021-009538 BP","Residential Swimming Pools & Spas",4/22/2021,,,264,"1309 JUSTIN LN",AUSTIN,TX,78757,CRESTVIEW,12,CONTRACTOR,,,,,,,,,,,"ANTHONY & SYLVAN POOLS",,,,,"ANTHONY & SYLVAN POOLS","13343 N HIGHWAY 183 STE 295",AUSTIN,TX,78750-7161,"(512) 258-1232",http://www.anthonysylvan.com/,,,
TX,TRAVIS,"2021-033226 BP","Residential Swimming Pools & Spas",4/22/2021,,,392,"1905 KAREN AVE",AUSTIN,TX,78757,"BRENTWOOD TERRACE",16,CONTRACTOR,,,,,,,,,,,"ANTHONY & SYLVAN POOLS",,,,,"ANTHONY & SYLVAN POOLS","13343 N HIGHWAY 183 STE 295",AUSTIN,TX,78750-7161,"(512) 258-1232",http://www.anthonysylvan.com/,,,
TX,TRAVIS,"2021-050271 BP","Residential Swimming Pools & Spas",4/23/2021,,,734,"7717 LAZY RIVER CV",AUSTIN,TX,78730,"GREENSHORES ON LAKE AUSTIN",10,"RICHARD TELLEZ","7717 LAZY RIVER CV",AUSTIN,TX,78730,,Owner,,,,,"LOY CUSTOM POOL DESIGNS",,,,,"LOY CUSTOM POOL DESIGNS","13701 RONALD W REAGAN BLVD UNIT 31","CEDAR PARK",TX,78613,"(512) 904-0006",,,,
TX,TRAVIS,"2021-037827 BP","Residential Swimming Pools & Spas",4/26/2021,,,476,"1436 TAMAR LN",AUSTIN,TX,78727,"SCOFIELD FARMS",16,"MICHAEL & AMELIA CONSIDINE","1436 TAMAR LN",AUSTIN,TX,78727,,Owner,,,,,"BLUE HAVEN POOLS",,,,,"BLUE HAVEN POOLS","260 ADDIE ROY RD STE 205",AUSTIN,TX,78746-4108,"(512) 345-2583",,,,
TX,TRAVIS,"2021-061410 BP","Residential Swimming Pools & Spas",4/26/2021,,,300,"1115 E 8TH ST",AUSTIN,TX,78702,"ROBERTSON GEO",5,"MARK & JULIET SHEPHERD","1115 E 8TH ST",AUSTIN,TX,78702,,Owner,,,,,"AQUA BUILDERS",,,,,"AQUA BUILDERS","10900 STONELAKE BLVD STE A-320",AUSTIN,TX,78759-5833,"(512) 804-8361",,,"EBBN MILKS",
TX,TRAVIS,"2021-050384 BP","Residential Swimming Pools & Spas",4/26/2021,,,450,"2005 HOPI TRL",AUSTIN,TX,78703,"TARRY TOWN",63,"CAITLYN RYAN","2005 HOPI TRL",AUSTIN,TX,78703,,Owner,,,,,"WESTBANK POOLS",,,,,"WESTBANK POOLS","350 LOST RIVER RD",GEORGETOWN,TX,78628-9550,"(512) 217-8004",http://www.westbankpools.com/,,,
TX,TRAVIS,"2021-054921 BP","Residential Swimming Pools & Spas",4/26/2021,,,420,"6725 KALAHARI DR",AUSTIN,TX,78739,,,CONTRACTOR,,,,,,,,,,,"MAJESTIC POOLSCAPES",,,,,"MAJESTIC POOLSCAPES","1401 HOOKBILL KITE","BEE CAVES",TX,78738,"(512) 402-0011",,,,
TX,TRAVIS,"2021-054697 BP","Residential Swimming Pools & Spas",4/21/2021,,,392,"2901 S 5TH ST",AUSTIN,TX,78704,"OAK RIDGE HEIGHTS",23,"LINDSAY JACKSON","2901 S 5TH ST",AUSTIN,TX,78704,,Owner,,,,,"B JANE GARDENS",,,,,"B JANE GARDENS","1212 ROMERIA DR ",AUSTIN,TX,78757,"(512) 296-2211",https://www.bjanegardens.com/,,,
TX,TRAVIS,"2021-054362 BP","Residential Swimming Pools & Spas",4/23/2021,,,561,"3906 EDWARDS MOUNTAIN DR",AUSTIN,TX,78731,"SHINOAK VALLEY",34,"AYMOND & MARIE FIGURELLA R","3906 EDWARDS MOUNTAIN DR",AUSTIN,TX,78731,,Owner,,,,,"WILSON CENTRAL TEXAS POOLS",,,,,"WILSON CENTRAL TEXAS POOLS","107 SUNSET RIDGE",GEORGETOWN,TX,78633,"(512) 240-2159",,,,
TX,TRAVIS,"2021-060231 BP","Residential Swimming Pools & Spas",4/26/2021,,,336,"7302 BENNETT AVE",AUSTIN,TX,78752,,,"ERIC OLSZEWSKI","7302 BENNETT AVE",AUSTIN,TX,78752,,Owner,,,,,"AUSTIN POOL GIRLS",,,,,"AUSTIN POOL GIRLS","13401 GALLERIA CIR STE 224",AUSTIN,TX,78738,"(512) 300-3694",,,"KRISTA ALLEN",
TX,TRAVIS,"2021-009459 BP","Residential Swimming Pools & Spas",4/23/2021,,40000,315,"2205 WOODMONT AVE",AUSTIN,TX,78703,WESTFIELD,5,CONTRACTOR,,,,,,,,,,,"LIQUID ASSETS CUSTOM POOLS",,,,,"LIQUID ASSETS CUSTOM POOLS","1021 RANCH ROAD 620 S",LAKEWAY,TX,78734-5611,"(512) 444-5444",,,,
TX,TRAVIS,"2021-057065 BP","Residential Swimming Pools & Spas",4/21/2021,,54000,264,"1512 OAK HEIGHTS DR",AUSTIN,TX,78741,"ELMHURST HEIGHTS",6,CONTRACTOR,,,,,,,,,,,"INNOVATIVE POOLS & SPAS",,,,,"INNOVATIVE POOLS & SPAS","13205 STILLFOREST ST",AUSTIN,TX,78729-2836,"(512) 689-5958",http://innovativepoolsandspas.com/,"(512) 331-4730","DANIEL EDISON",Innovativepools@SBCglobal.net
TX,TRAVIS,"2021-059909 BP","Residential Swimming Pools & Spas",4/26/2021,,54000,180,"515 TERRACE DR",AUSTIN,TX,78704,"BLUE BONNET HILLS",15,"YUNUS JAFFREY","515 TERRACE DR",AUSTIN,TX,78704,,Owner,,,,,"MAJESTIC POOLSCAPES",,,,,"MAJESTIC POOLSCAPES","1401 HOOKBILL KITE","BEE CAVES",TX,78738,"(512) 402-0011",,,,
TX,TRAVIS,"2021-054976 BP","Residential Swimming Pools & Spas",4/21/2021,,57000,126,"207 EL PASO ST",AUSTIN,TX,78704,BRINWOOD,12,"ERIN & KEE WESSLEY","207 EL PASO ST",AUSTIN,TX,78704,,Owner,,,,,"ANTHONY & SYLVAN POOLS",,,,,"ANTHONY & SYLVAN POOLS","13343 N HIGHWAY 183 STE 295",AUSTIN,TX,78750-7161,"(512) 258-1232",http://www.anthonysylvan.com/,,,
TX,TRAVIS,"2021-058920 BP","Residential Swimming Pools & Spas",4/22/2021,,70000,420,"1523 BEN CRENSHAW WAY",AUSTIN,TX,78746,"LOST CREEK",6,"LINDA & CHRISTOPHER GALLINA","1523 BEN CRENSHAW WAY",AUSTIN,TX,78746,,Owner,,,,,"CRYSTAL SPRINGS CUSTOM POOLS",,,,,"CRYSTAL SPRINGS CUSTOM POOLS","5300 W HIGHWAY 290","DRIPPING SPRINGS",TX,78620-3520,"(512) 200-6969",http://crystalspringscustompools.com/,,,crystalspringscustompools@gmail.com
TX,TRAVIS,"2021-033694 BP","Residential Swimming Pools & Spas",4/22/2021,,86000,449,"9303 LE CONTE CV",AUSTIN,TX,78749,"VILLAGE AT WESTERN OAKS",10,"GERARDO OSUNA","9303 LE CONTE CV",AUSTIN,TX,78749,,Owner,,,,,"PREMIER POOLS & SPAS",,,,,"PREMIER POOLS & SPAS","7703 N LAMAR BLVD STE 606",AUSTIN,TX,78752-1027,"(512) 470-3949",,,,
TX,TRAVIS,"2021-051773 BP",Retail,4/21/2021,Renovation,280000,1749,"6929 AIRPORT BLVD UNIT 100",AUSTIN,TX,78752,"NORTHFAIR CENTER",1,CONTRACTOR,,,,,,,,,,,"BRAZOS CONTRACTORS & DEVELOPMENT COMPANY",,,,,"BRAZOS CONTRACTORS & DEVELOPMENT COMPANY","9191 GULF FWY STE 400",HOUSTON,TX,77017,"(713) 947-9700",,,,
TX,TRAVIS,"2021-052275 BP",Retail,4/21/2021,,1400000,14698,"7101 E WILLIAM CANNON DR",AUSTIN,TX,78744,"EASTON PARK",1,"FIRST HARTFORD REALTY CORP","9121 ELIZABETH RD ",HOUSTON,TX,77055,"(860) 416-6625",Applicant,,,,,OWNER,,,,,OWNER,,,,,,,,,
TX,WILLIAMSON,2021-72339,"Single Family Homes",3/16/2021,,352990,2905,"214 SPANISH STAR ST",GEORGETOWN,TX,78626,,,CONTRACTOR,,,,,,,,,,,"PULTE HOMES",,,,,"PULTE HOMES","9401 AMBERGLEN BLVD STE I-150",AUSTIN,TX,78729-1154,"(512) 561-4344",,,,
TX,WILLIAMSON,2021-72345,"Single Family Homes",3/23/2021,,275394,3896,"1100 STETSON HAT TRL",GEORGETOWN,TX,78626,,,CONTRACTOR,,,,,,,,,,,"MHI MCGUYER HOMEBUILDERS",,,,,"MHI MCGUYER HOMEBUILDERS","8200 N MO PAC EXPY STE 300",AUSTIN,TX,78759-8844,"(512) 502-2050",,"(512) 388-1836","FRANK MCGUYER",
TX,WILLIAMSON,2021-72346,"Single Family Homes",3/12/2021,,152945,2353,"424 BUCKNERS ST",GEORGETOWN,TX,78626,,,CONTRACTOR,,,,,,,,,,,"LENNAR HOMES",,,,,"LENNAR HOMES","13620 FM 620 RD 150",AUSTIN,TX,78717,"(512) 506-4000",http://www.lennar.com/,,,
TX,WILLIAMSON,2021-72348,"Single Family Homes",3/12/2021,,109980,1692,"428 BUCKNERS ST",GEORGETOWN,TX,78626,,,CONTRACTOR,,,,,,,,,,,"LENNAR HOMES",,,,,"LENNAR HOMES","13620 FM 620 RD 150",AUSTIN,TX,78717,"(512) 506-4000",http://www.lennar.com/,,,
TX,WILLIAMSON,2021-72351,"Single Family Homes",3/12/2021,,121290,1866,"432 BUCKNERS ST",GEORGETOWN,TX,78626,,,CONTRACTOR,,,,,,,,,,,"LENNAR HOMES",,,,,"LENNAR HOMES","13620 FM 620 RD 150",AUSTIN,TX,78717,"(512) 506-4000",http://www.lennar.com/,,,
TX,WILLIAMSON,2021-72352,"Single Family Homes",3/12/2021,,109980,1692,"436 BUCKNERS ST",GEORGETOWN,TX,78626,,,CONTRACTOR,,,,,,,,,,,"LENNAR HOMES",,,,,"LENNAR HOMES","13620 FM 620 RD 150",AUSTIN,TX,78717,"(512) 506-4000",http://www.lennar.com/,,,
TX,WILLIAMSON,2021-72420,"Single Family Homes",3/22/2021,,270990,2242,"913 KITTY HAWK RD",GEORGETOWN,TX,78626,,,CONTRACTOR,,,,,,,,,,,"PULTE HOMES",,,,,"PULTE HOMES","9401 AMBERGLEN BLVD STE I-150",AUSTIN,TX,78729-1154,"(512) 561-4344",,,,
TX,WILLIAMSON,2021-72421,"Single Family Homes",3/30/2021,,232200,2700,"1033 DESAIX DR",GEORGETOWN,TX,78626,,,CONTRACTOR,,,,,,,,,,,"KB HOME",,,,,"KB HOME","10800 PECAN PARK BLVD STE 200",AUSTIN,TX,78750-1249,"(512) 651-8100",,,,
TX,WILLIAMSON,2021-72434,"Single Family Homes",3/30/2021,,198918,2313,"1008 DESAIX DR",GEORGETOWN,TX,78626,,,CONTRACTOR,,,,,,,,,,,"KB HOME",,,,,"KB HOME","10800 PECAN PARK BLVD STE 200",AUSTIN,TX,78750-1249,"(512) 651-8100",,,,
TX,WILLIAMSON,2021-72435,"Single Family Homes",3/30/2021,,284746,3311,"537 THUNDER VALLEY TRL",GEORGETOWN,TX,78626,,,CONTRACTOR,,,,,,,,,,,"KB HOME",,,,,"KB HOME","10800 PECAN PARK BLVD STE 200",AUSTIN,TX,78750-1249,"(512) 651-8100",,,,
TX,WILLIAMSON,2021-72436,"Single Family Homes",3/22/2021,,327990,2544,"101 SPANISH STAR ST",GEORGETOWN,TX,78626,,,CONTRACTOR,,,,,,,,,,,"PULTE HOMES",,,,,"PULTE HOMES","9401 AMBERGLEN BLVD STE I-150",AUSTIN,TX,78729-1154,"(512) 561-4344",,,,
TX,WILLIAMSON,2021-72437,"Single Family Homes",3/19/2021,,325794,3887,"312 CUMBERLAND CV",GEORGETOWN,TX,78626,,,CONTRACTOR,,,,,,,,,,,"MHI MCGUYER HOMEBUILDERS",,,,,"MHI MCGUYER HOMEBUILDERS","8200 N MO PAC EXPY STE 300",AUSTIN,TX,78759-8844,"(512) 502-2050",,"(512) 388-1836","FRANK MCGUYER",
TX,WILLIAMSON,2021-72445,"Single Family Homes",3/24/2021,,109980,1692,"404 BUCKNERS ST",GEORGETOWN,TX,78626,,,CONTRACTOR,,,,,,,,,,,"LENNAR HOMES",,,,,"LENNAR HOMES","13620 FM 620 RD 150",AUSTIN,TX,78717,"(512) 506-4000",http://www.lennar.com/,,,
TX,WILLIAMSON,2021-72446,"Single Family Homes",3/24/2021,,133380,2052,"408 BUCKNERS ST",GEORGETOWN,TX,78626,,,CONTRACTOR,,,,,,,,,,,"LENNAR HOMES",,,,,"LENNAR HOMES","13620 FM 620 RD 150",AUSTIN,TX,78717,"(512) 506-4000",http://www.lennar.com/,,,
TX,WILLIAMSON,2021-72447,"Single Family Homes",3/24/2021,,109980,1692,"412 BUCKNERS ST",GEORGETOWN,TX,78626,,,CONTRACTOR,,,,,,,,,,,"LENNAR HOMES",,,,,"LENNAR HOMES","13620 FM 620 RD 150",AUSTIN,TX,78717,"(512) 506-4000",http://www.lennar.com/,,,
TX,WILLIAMSON,2021-72448,"Single Family Homes",3/24/2021,,121290,1866,"416 BUCKNERS ST",GEORGETOWN,TX,78626,,,CONTRACTOR,,,,,,,,,,,"LENNAR HOMES",,,,,"LENNAR HOMES","13620 FM 620 RD 150",AUSTIN,TX,78717,"(512) 506-4000",http://www.lennar.com/,,,
TX,WILLIAMSON,2021-72449,"Single Family Homes",3/24/2021,,109980,1692,"420 BUCKNERS ST",GEORGETOWN,TX,78626,,,CONTRACTOR,,,,,,,,,,,"LENNAR HOMES",,,,,"LENNAR HOMES","13620 FM 620 RD 150",AUSTIN,TX,78717,"(512) 506-4000",http://www.lennar.com/,,,
TX,WILLIAMSON,2021-72450,"Single Family Homes",3/24/2021,,152945,2353,"440 BUCKNERS ST",GEORGETOWN,TX,78626,,,CONTRACTOR,,,,,,,,,,,"LENNAR HOMES",,,,,"LENNAR HOMES","13620 FM 620 RD 150",AUSTIN,TX,78717,"(512) 506-4000",http://www.lennar.com/,,,
TX,WILLIAMSON,2021-72451,"Single Family Homes",3/24/2021,,109980,1692,"444 BUCKNERS ST",GEORGETOWN,TX,78626,,,CONTRACTOR,,,,,,,,,,,"LENNAR HOMES",,,,,"LENNAR HOMES","13620 FM 620 RD 150",AUSTIN,TX,78717,"(512) 506-4000",http://www.lennar.com/,,,
TX,WILLIAMSON,2021-72455,"Single Family Homes",3/22/2021,,367460,1801,"600 TREATY OAK DR",GEORGETOWN,TX,78626,,,CONTRACTOR,,,,,,,,,,,"DAVID WEEKLEY HOMES",,,,,"DAVID WEEKLEY HOMES","9000 WATERFORD CENTRE BLVD",AUSTIN,TX,78758-7662,"(800) 390-6774",http://www.davidweekleyhomes.com/,,,
TX,WILLIAMSON,2021-72462,"Single Family Homes",3/24/2021,,310980,1698,"141 MONTEREY OAK TRL",GEORGETOWN,TX,78626,,,CONTRACTOR,,,,,,,,,,,"DAVID WEEKLEY HOMES",,,,,"DAVID WEEKLEY HOMES","9000 WATERFORD CENTRE BLVD",AUSTIN,TX,78758-7662,"(800) 390-6774",http://www.davidweekleyhomes.com/,,,
TX,WILLIAMSON,2021-72466,"Single Family Homes",3/24/2021,,133380,2052,"401 BUCKNERS ST",GEORGETOWN,TX,78626,,,CONTRACTOR,,,,,,,,,,,"LENNAR HOMES",,,,,"LENNAR HOMES","13620 FM 620 RD 150",AUSTIN,TX,78717,"(512) 506-4000",http://www.lennar.com/,,,
TX,WILLIAMSON,2021-72470,"Single Family Homes",3/24/2021,,109980,1692,"429 BUCKNERS ST",GEORGETOWN,TX,78626,,,CONTRACTOR,,,,,,,,,,,"LENNAR HOMES",,,,,"LENNAR HOMES","13620 FM 620 RD 150",AUSTIN,TX,78717,"(512) 506-4000",http://www.lennar.com/,,,
TX,WILLIAMSON,2021-72542,"Single Family Homes",3/24/2021,,109980,1692,"413 BUCKNERS ST",GEORGETOWN,TX,78626,,,CONTRACTOR,,,,,,,,,,,"LENNAR HOMES",,,,,"LENNAR HOMES","13620 FM 620 RD 150",AUSTIN,TX,78717,"(512) 506-4000",http://www.lennar.com/,,,
TX,WILLIAMSON,2021-72543,"Single Family Homes",3/24/2021,,152945,2353,"409 BUCKNERS ST",GEORGETOWN,TX,78626,,,CONTRACTOR,,,,,,,,,,,"LENNAR HOMES",,,,,"LENNAR HOMES","13620 FM 620 RD 150",AUSTIN,TX,78717,"(512) 506-4000",http://www.lennar.com/,,,
TX,WILLIAMSON,2021-72545,"Single Family Homes",3/24/2021,,109980,1692,"421 BUCKNERS ST",GEORGETOWN,TX,78626,,,CONTRACTOR,,,,,,,,,,,"LENNAR HOMES",,,,,"LENNAR HOMES","13620 FM 620 RD 150",AUSTIN,TX,78717,"(512) 506-4000",http://www.lennar.com/,,,
TX,WILLIAMSON,2021-72546,"Single Family Homes",3/24/2021,,133380,2052,"608 BIG ROCKY BND",GEORGETOWN,TX,78626,,,CONTRACTOR,,,,,,,,,,,"LENNAR HOMES",,,,,"LENNAR HOMES","13620 FM 620 RD 150",AUSTIN,TX,78717,"(512) 506-4000",http://www.lennar.com/,,,
TX,WILLIAMSON,2021-72547,"Single Family Homes",3/24/2021,,109980,1692,"900 PINEY CV",GEORGETOWN,TX,78626,,,CONTRACTOR,,,,,,,,,,,"LENNAR HOMES",,,,,"LENNAR HOMES","13620 FM 620 RD 150",AUSTIN,TX,78717,"(512) 506-4000",http://www.lennar.com/,,,
TX,WILLIAMSON,2021-72606,"Single Family Homes",3/25/2021,,270990,2158,"910 KITTY HAWK RD",GEORGETOWN,TX,78626,,,CONTRACTOR,,,,,,,,,,,"PULTE HOMES",,,,,"PULTE HOMES","9401 AMBERGLEN BLVD STE I-150",AUSTIN,TX,78729-1154,"(512) 561-4344",,,,
TX,WILLIAMSON,2021-72618,"Single Family Homes",3/25/2021,,300000,2497,"1128 ROUND MOUNTAIN PASS",GEORGETOWN,TX,78626,,,CONTRACTOR,,,,,,,,,,,"PERRY HOMES",,,,,"PERRY HOMES","6112 LLANO ST",AUSTIN,TX,78702,"(512) 810-8050",,,,
TX,WILLIAMSON,2021-72650,"Single Family Homes",3/24/2021,,150540,1874,"1200 RIO FRIO LN",GEORGETOWN,TX,78626,,,CONTRACTOR,,,,,,,,,,,"LENNAR HOMES",,,,,"LENNAR HOMES","13620 FM 620 RD 150",AUSTIN,TX,78717,"(512) 506-4000",http://www.lennar.com/,,,
TX,WILLIAMSON,2021-72653,"Single Family Homes",3/24/2021,,124475,1474,"117 AKELA WAY",GEORGETOWN,TX,78626,,,CONTRACTOR,,,,,,,,,,,"LENNAR HOMES",,,,,"LENNAR HOMES","13620 FM 620 RD 150",AUSTIN,TX,78717,"(512) 506-4000",http://www.lennar.com/,,,
TX,WILLIAMSON,2021-72655,"Single Family Homes",3/24/2021,,108290,1217,"121 AKELA WAY",GEORGETOWN,TX,78626,,,CONTRACTOR,,,,,,,,,,,"LENNAR HOMES",,,,,"LENNAR HOMES","13620 FM 620 RD 150",AUSTIN,TX,78717,"(512) 506-4000",http://www.lennar.com/,,,
TX,WILLIAMSON,2021-72659,"Single Family Homes",3/24/2021,,124475,1474,"1208 RIO FRIO LN",GEORGETOWN,TX,78626,,,CONTRACTOR,,,,,,,,,,,"LENNAR HOMES",,,,,"LENNAR HOMES","13620 FM 620 RD 150",AUSTIN,TX,78717,"(512) 506-4000",http://www.lennar.com/,,,
TX,WILLIAMSON,2021-72676,"Single Family Homes",3/24/2021,,108290,1217,"125 AKELA WAY",GEORGETOWN,TX,78626,,,CONTRACTOR,,,,,,,,,,,"LENNAR HOMES",,,,,"LENNAR HOMES","13620 FM 620 RD 150",AUSTIN,TX,78717,"(512) 506-4000",http://www.lennar.com/,,,
TX,WILLIAMSON,2021-72679,"Single Family Homes",3/24/2021,,150540,1874,"129 AKELA WAY",GEORGETOWN,TX,78626,,,CONTRACTOR,,,,,,,,,,,"LENNAR HOMES",,,,,"LENNAR HOMES","13620 FM 620 RD 150",AUSTIN,TX,78717,"(512) 506-4000",http://www.lennar.com/,,,
TX,WILLIAMSON,2021-72685,"Single Family Homes",3/24/2021,,117910,1814,"129 BLUE BLAZE TRL",GEORGETOWN,TX,78626,,,CONTRACTOR,,,,,,,,,,,"LENNAR HOMES",,,,,"LENNAR HOMES","13620 FM 620 RD 150",AUSTIN,TX,78717,"(512) 506-4000",http://www.lennar.com/,,,
TX,WILLIAMSON,2021-72773,"Single Family Homes",3/25/2021,,384000,3308,"617 WHITE TAIL CV",GEORGETOWN,TX,78626,,,CONTRACTOR,,,,,,,,,,,"DREES CUSTOM HOMES",,,,,"DREES CUSTOM HOMES","7300 RANCH ROAD 2222 BLDG 2 STE 250",AUSTIN,TX,78730-3204,"(512) 241-7100",http://www.dreeshomes.com,,,
TX,WILLIAMSON,2021-72777,"Single Family Homes",3/25/2021,,455615,3099,"232 ARROWHEAD MOUND RD",GEORGETOWN,TX,78626,,,CONTRACTOR,,,,,,,,,,,"HIGHLAND HOMES",,,,,"HIGHLAND HOMES","4201 W PARMER LN STE B180",AUSTIN,TX,78727-4110,"(512) 834-8429",,,,
TX,WILLIAMSON,2021-72778,"Single Family Homes",3/29/2021,,405415,2536,"609 PECAN BOTTOM TRL",GEORGETOWN,TX,78626,,,CONTRACTOR,,,,,,,,,,,"HIGHLAND HOMES",,,,,"HIGHLAND HOMES","4201 W PARMER LN STE B180",AUSTIN,TX,78727-4110,"(512) 834-8429",,,,
TX,WILLIAMSON,2021-72779,"Single Family Homes",3/25/2021,,411355,2608,"257 ARROWHEAD MOUND RD",GEORGETOWN,TX,78626,,,CONTRACTOR,,,,,,,,,,,"HIGHLAND HOMES",,,,,"HIGHLAND HOMES","4201 W PARMER LN STE B180",AUSTIN,TX,78727-4110,"(512) 834-8429",,,,
TX,WILLIAMSON,2021-72781,"Single Family Homes",3/25/2021,,347990,2791,"606 WOODEN RAIL LN",GEORGETOWN,TX,78626,,,CONTRACTOR,,,,,,,,,,,"PULTE HOMES",,,,,"PULTE HOMES","9401 AMBERGLEN BLVD STE I-150",AUSTIN,TX,78729-1154,"(512) 561-4344",,,,
TX,WILLIAMSON,2021-72909,"Single Family Homes",3/30/2021,,224288,2608,"534 THUNDER VALLEY TRL",GEORGETOWN,TX,78626,,,CONTRACTOR,,,,,,,,,,,"KB HOME",,,,,"KB HOME","10800 PECAN PARK BLVD STE 200",AUSTIN,TX,78750-1249,"(512) 651-8100",,,,
TX,WILLIAMSON,2021-72934,"Single Family Homes",3/29/2021,,520000,2868,"1212 WOLF HOLLOW DR",GEORGETOWN,TX,78626,,,CONTRACTOR,,,,,,,,,,,"PERRY HOMES",,,,,"PERRY HOMES","6112 LLANO ST",AUSTIN,TX,78702,"(512) 810-8050",,,,
TX,WILLIAMSON,2021-72935,"Single Family Homes",3/31/2021,,383435,2522,"120 HIGH PLAINS DR",GEORGETOWN,TX,78626,,,CONTRACTOR,,,,,,,,,,,"CHESMAR HOMES",,,,,"CHESMAR HOMES","2900 N QUINLAN PARK RD",AUSTIN,TX,78732-6083,"(512) 233-9016",http://chesmar.com,,,
TX,WILLIAMSON,2021-72937,"Single Family Homes",3/24/2021,,420120,3501,"400 WINDOM WAY",GEORGETOWN,TX,78626,,,CONTRACTOR,,,,,,,,,,,"MERITAGE HOMES",,,,,"MERITAGE HOMES","8920 BUSINESS PARK DR STE 250",AUSTIN,TX,78759-7622,"(512) 610-4800",,,,
TX,WILLIAMSON,2021-72940,"Single Family Homes",3/30/2021,,150540,1874,"113 AKELA WAY",GEORGETOWN,TX,78626,,,CONTRACTOR,,,,,,,,,,,"LENNAR HOMES",,,,,"LENNAR HOMES","13620 FM 620 RD 150",AUSTIN,TX,78717,"(512) 506-4000",http://www.lennar.com/,,,
TX,WILLIAMSON,2020-60973,"Single Family Homes",3/18/2021,,350000,1401,"122 DODGE RD",GEORGETOWN,TX,78626,,,CONTRACTOR,,,,,,,,,,,"SAN GABRIEL BUILDERS",,,,,"SAN GABRIEL BUILDERS","723 W UNIVERSITY AVE STE 110-417",GEORGETOWN,TX,78626,"(512) 695-3322",http://sangabrielbuilders.com/,,"DOUG WELCH",doug@sgbtx.com
TX,WILLIAMSON,2020-60974,"Single Family Homes",3/18/2021,,350000,1401,"120 DODGE RD",GEORGETOWN,TX,78626,,,CONTRACTOR,,,,,,,,,,,"SAN GABRIEL BUILDERS",,,,,"SAN GABRIEL BUILDERS","723 W UNIVERSITY AVE STE 110-417",GEORGETOWN,TX,78626,"(512) 695-3322",http://sangabrielbuilders.com/,,"DOUG WELCH",doug@sgbtx.com
TX,WILLIAMSON,2020-70149,"Single Family Homes",3/18/2021,,300000,1306,"1140 GARLAND RD",GEORGETOWN,TX,78626,,,CONTRACTOR,,,,,,,,,,,"SAN GABRIEL BUILDERS",,,,,"SAN GABRIEL BUILDERS","723 W UNIVERSITY AVE STE 110-417",GEORGETOWN,TX,78626,"(512) 695-3322",http://sangabrielbuilders.com/,,"DOUG WELCH",doug@sgbtx.com
TX,WILLIAMSON,2020-70304,"Single Family Homes",3/30/2021,,145000,1616,"1015 VISTA VIEW DR",GEORGETOWN,TX,78626,,,CONTRACTOR,,,,,,,,,,,"HOMES BY AVI",,,,,"HOMES BY AVI","11130 JOLLYVILLE RD STE 304",AUSTIN,TX,78759-4819,"(512) 382-0971",http://www.homesbyavi.com/,,,
TX,WILLIAMSON,2021-71162,"Single Family Homes",3/1/2021,,518800,4267,"460 PARKLINE DR",GEORGETOWN,TX,78626,PARKSIDE,,CONTRACTOR,,,,,,,,,,,"PARKSIDE CROSSING",,,,,"PARKSIDE CROSSING","400 PARKLINE DRIVE",GEORGETOWN,TX,78626,"(512) 694-2666",,,,
TX,WILLIAMSON,2021-71221,"Single Family Homes",3/1/2021,,518800,4367,"442 PARKLINE DR",GEORGETOWN,TX,78626,,,CONTRACTOR,,,,,,,,,,,"PARKSIDE CROSSING",,,,,"PARKSIDE CROSSING","400 PARKLINE DRIVE",GEORGETOWN,TX,78626,"(512) 694-2666",,,,
TX,WILLIAMSON,2021-71337,"Single Family Homes",3/18/2021,,300000,1306,"1138 GARLAND RD",GEORGETOWN,TX,78626,,,CONTRACTOR,,,,,,,,,,,"SAN GABRIEL BUILDERS",,,,,"SAN GABRIEL BUILDERS","723 W UNIVERSITY AVE STE 110-417",GEORGETOWN,TX,78626,"(512) 695-3322",http://sangabrielbuilders.com/,,"DOUG WELCH",doug@sgbtx.com
TX,WILLIAMSON,2021-71435,"Single Family Homes",3/1/2021,,518900,4056,"430 PARKLINE DR",GEORGETOWN,TX,78626,,,CONTRACTOR,,,,,,,,,,,"PARKSIDE CROSSING",,,,,"PARKSIDE CROSSING","400 PARKLINE DRIVE",GEORGETOWN,TX,78626,"(512) 694-2666",,,,
TX,WILLIAMSON,2021-71443,"Single Family Homes",3/1/2021,,518900,4122,"424 PARKLINE DR",GEORGETOWN,TX,78626,,,CONTRACTOR,,,,,,,,,,,"PARKSIDE CROSSING",,,,,"PARKSIDE CROSSING","400 PARKLINE DRIVE",GEORGETOWN,TX,78626,"(512) 694-2666",,,,
TX,WILLIAMSON,2021-71445,"Single Family Homes",3/1/2021,,518900,4051,"418 PARKLINE DR",GEORGETOWN,TX,78626,,,CONTRACTOR,,,,,,,,,,,"PARKSIDE CROSSING",,,,,"PARKSIDE CROSSING","400 PARKLINE DRIVE",GEORGETOWN,TX,78626,"(512) 694-2666",,,,
TX,WILLIAMSON,2021-71447,"Single Family Homes",3/12/2021,,419880,4267,"412 PARKLINE DR",GEORGETOWN,TX,78626,,,CONTRACTOR,,,,,,,,,,,"PARKSIDE CROSSING",,,,,"PARKSIDE CROSSING","400 PARKLINE DRIVE",GEORGETOWN,TX,78626,"(512) 694-2666",,,,
TX,WILLIAMSON,2021-71481,"Single Family Homes",3/1/2021,,418900,4180,"406 PARKLINE DR",GEORGETOWN,TX,78626,,,CONTRACTOR,,,,,,,,,,,"PARKSIDE CROSSING",,,,,"PARKSIDE CROSSING","400 PARKLINE DRIVE",GEORGETOWN,TX,78626,"(512) 694-2666",,,,
TX,WILLIAMSON,2021-72270,"Single Family Homes",3/25/2021,,398093,3238,"124 SAIL WIND WAY",GEORGETOWN,TX,78626,,,CONTRACTOR,,,,,,,,,,,"EHT OF TEXAS LP",,,,,"EHT OF TEXAS LP","3520 EXECUTIVE CENTER DR STE 100",AUSTIN,TX,78731-1636,"(757) 287-6394",,,,
TX,HAYS,2020-2165,"Single Family Homes",3/18/2021,,334412,3181,"170 BUNKER RANCH BLVD UNIT 58","DRIPPING SPRINGS",TX,78620,,,"STEVE HARREN","170 BUNKER RANCH BLVD UNIT 58","DRIPPING SPRINGS",TX,78620,,Owner,,,,,"FARRELL ENERGY",,,,,"FARRELL ENERGY","3223 PARK HILLS DR",AUSTIN,TX,78746-5514,"(409) 550-3425",,,"TRENT MARINO",
TX,HAYS,2020-2166,"Single Family Homes",3/19/2021,,282584,2688,"170 BUNKER RANCH BLVD UNIT 59","DRIPPING SPRINGS",TX,78626,,,"STEVE HARREN","170 BUNKER RANCH BLVD UNIT 59","DRIPPING SPRINGS",TX,78626,,Owner,,,,,"FARRELL ENERGY",,,,,"FARRELL ENERGY","3223 PARK HILLS DR",AUSTIN,TX,78746-5514,"(409) 550-3425",,,"TRENT MARINO",
TX,HAYS,2020-2169,"Single Family Homes",3/19/2021,,335674,3193,"170 BUNKER RANCH BLVD UNIT 62","DRIPPING SPRINGS",TX,78620,,,"STEVE HARREN","170 BUNKER RANCH BLVD UNIT 62","DRIPPING SPRINGS",TX,78620,,Owner,,,,,"FARRELL ENERGY",,,,,"FARRELL ENERGY","3223 PARK HILLS DR",AUSTIN,TX,78746-5514,"(409) 550-3425",,,"TRENT MARINO",
TX,HAYS,2020-2170,"Single Family Homes",3/19/2021,,327684,3117,"170 BUNKER RANCH BLVD UNIT 63","DRIPPING SPRINGS",TX,78626,,,"STEVE HARREN","170 BUNKER RANCH BLVD UNIT 63","DRIPPING SPRINGS",TX,78626,,Owner,,,,,"FARRELL ENERGY",,,,,"FARRELL ENERGY","3223 PARK HILLS DR",AUSTIN,TX,78746-5514,"(409) 550-3425",,,"TRENT MARINO",
TX,HAYS,2020-2199,"Single Family Homes",3/10/2021,,444481,4228,"412 PEAR TREE LN","DRIPPING SPRINGS",TX,78620,,,"ROD SANDERS","412 PEAR TREE LN","DRIPPING SPRINGS",TX,78620,,Owner,,,,,"HIGHLAND HOMES",,,,,"HIGHLAND HOMES","4201 W PARMER LN STE B180",AUSTIN,TX,78727-4110,"(512) 834-8429",,,,
TX,HAYS,2020-2203,"Single Family Homes",3/5/2021,,401904,3823,"404 DOUBLE L DR","DRIPPING SPRINGS",TX,78620,,,CONTRACTOR,,,,,,,,,,,"DREES CUSTOM HOMES",,,,,"DREES CUSTOM HOMES","7300 RANCH ROAD 2222 BLDG 2 STE 250",AUSTIN,TX,78730-3204,"(512) 241-7100",http://www.dreeshomes.com,,,
TX,HAYS,2020-2219,"Single Family Homes",3/5/2021,,252833,2405,"180 CLIMBING ROCK LOOP","DRIPPING SPRINGS",TX,78620,,,CONTRACTOR,,,,,,,,,,,"PULTE HOMES",,,,,"PULTE HOMES","9401 AMBERGLEN BLVD STE I-150",AUSTIN,TX,78729-1154,"(512) 561-4344",,,,
TX,HAYS,2020-2220,"Single Family Homes",3/3/2021,,570004,5422,"1047 JACKSDAW DR","DRIPPING SPRINGS",TX,78620,,,CONTRACTOR,,,,,,,,,,,"TAYLOR MORRISON OF TEXAS",,,,,"TAYLOR MORRISON OF TEXAS","11200 LAKELINE BLVD STE 150A",AUSTIN,TX,78717-5964,"(512) 328-8866",,"(512) 328-7988",,
TX,HAYS,2020-2223,"Single Family Homes",3/19/2021,,334412,3181,"170 BUNKER RANCH","DRIPPING SPRINGS",TX,78620,,,"STEVE HARREN","170 BUNKER RANCH","DRIPPING SPRINGS",TX,78620,,Owner,,,,,"FARRELL ENERGY",,,,,"FARRELL ENERGY","3223 PARK HILLS DR",AUSTIN,TX,78746-5514,"(409) 550-3425",,,"TRENT MARINO",
TX,HAYS,2020-2247,"Single Family Homes",3/1/2021,,334202,3179,"1375 HAZY HILLS LOOP","DRIPPING SPRINGS",TX,78620,,,CONTRACTOR,,,,,,,,,,,"ASHTON WOODS HOMES",,,,,"ASHTON WOODS HOMES","1221 N INTERSTATE 35E STE 170",CARROLLTON,TX,75006-3806,"(972) 428-5404",,,,
TX,HAYS,2020-2250,"Single Family Homes",3/3/2021,,242846,2310,"354 CLIMBING ROCK LOOP","DRIPPING SPRINGS",TX,78620,,,CONTRACTOR,,,,,,,,,,,"PULTE HOMES",,,,,"PULTE HOMES","9401 AMBERGLEN BLVD STE I-150",AUSTIN,TX,78729-1154,"(512) 561-4344",,,,
TX,HAYS,2020-2279,"Single Family Homes",3/4/2021,,330943,3148,"118 OSAGE CT","DRIPPING SPRINGS",TX,78620,,,"MARLA LAMB","118 OSAGE CT","DRIPPING SPRINGS",TX,78620,,Owner,,,,,"TAYLOR MORRISON OF TEXAS",,,,,"TAYLOR MORRISON OF TEXAS","11200 LAKELINE BLVD STE 150A",AUSTIN,TX,78717-5964,"(512) 328-8866",,"(512) 328-7988",,
TX,HAYS,2020-2295,"Single Family Homes",3/3/2021,,294569,2802,"404 CLIMBING ROCK LOOP","DRIPPING SPRINGS",TX,78620,,,CONTRACTOR,,,,,,,,,,,"PULTE HOMES",,,,,"PULTE HOMES","9401 AMBERGLEN BLVD STE I-150",AUSTIN,TX,78729-1154,"(512) 561-4344",,,,
TX,HAYS,2020-2308,"Single Family Homes",3/5/2021,,422089,4015,"389 TIERRA TR","DRIPPING SPRINGS",TX,78620,,,"JENNIFER FRESQUEZ","389 TIERRA TR","DRIPPING SPRINGS",TX,78620,,Owner,,,,,"TAYLOR MORRISON OF TEXAS",,,,,"TAYLOR MORRISON OF TEXAS","11200 LAKELINE BLVD STE 150A",AUSTIN,TX,78717-5964,"(512) 328-8866",,"(512) 328-7988",,
TX,HAYS,2020-2315,"Single Family Homes",3/1/2021,,426609,4058,"134 BRIDGE WATER LOOP","DRIPPING SPRINGS",TX,78620,,,CONTRACTOR,,,,,,,,,,,"DREES CUSTOM HOMES",,,,,"DREES CUSTOM HOMES","7300 RANCH ROAD 2222 BLDG 2 STE 250",AUSTIN,TX,78730-3204,"(512) 241-7100",http://www.dreeshomes.com,,,
TX,HAYS,2020-2318,"Single Family Homes",3/5/2021,,285002,2711,"179 YARBROUGH DR","DRIPPING SPRINGS",TX,78620,,,"JENNIFER FRESQUEZ","179 YARBROUGH DR","DRIPPING SPRINGS",TX,78620,,Owner,,,,,"TAYLOR MORRISON OF TEXAS",,,,,"TAYLOR MORRISON OF TEXAS","11200 LAKELINE BLVD STE 150A",AUSTIN,TX,78717-5964,"(512) 328-8866",,"(512) 328-7988",,
TX,HAYS,2020-2319,"Single Family Homes",3/1/2021,,354492,3372,"494 TOYAH DR","DRIPPING SPRINGS",TX,78620,,,"JENNIFER FRESQUEZ","494 TOYAH DR","DRIPPING SPRINGS",TX,78620,,Owner,,,,,"TAYLOR MORRISON OF TEXAS",,,,,"TAYLOR MORRISON OF TEXAS","11200 LAKELINE BLVD STE 150A",AUSTIN,TX,78717-5964,"(512) 328-8866",,"(512) 328-7988",,
TX,HAYS,2021-1002,"Single Family Homes",3/1/2021,,416938,3966,"151 PRAIRIE CLOVER DR","DRIPPING SPRINGS",TX,78620,,,CONTRACTOR,,,,,,,,,,,"BUFFINGTON TEXAS CLASSIC HOMES",,,,,"BUFFINGTON TEXAS CLASSIC HOMES","8601 RANCH ROAD 2222 PARK CENTRE BLDG STE 150",AUSTIN,TX,78730,"(512) 579-4800",,,,
TX,HAYS,2021-1009,"Single Family Homes",3/23/2021,,354492,3372,"158 OSAGE CT","DRIPPING SPRINGS",TX,78620,,,"MARLA LAMB","158 OSAGE CT","DRIPPING SPRINGS",TX,78620,,Owner,,,,,"TAYLOR MORRISON OF TEXAS",,,,,"TAYLOR MORRISON OF TEXAS","11200 LAKELINE BLVD STE 150A",AUSTIN,TX,78717-5964,"(512) 328-8866",,"(512) 328-7988",,
TX,HAYS,2021-1017,"Single Family Homes",3/10/2021,,412000,3623,"668 CROSSWATER LN","DRIPPING SPRINGS",TX,78620,,,"AMBER GRIMES","668 CROSSWATER LN","DRIPPING SPRINGS",TX,78620,,Owner,,,,,"DREES CUSTOM HOMES",,,,,"DREES CUSTOM HOMES","7300 RANCH ROAD 2222 BLDG 2 STE 250",AUSTIN,TX,78730-3204,"(512) 241-7100",http://www.dreeshomes.com,,,
TX,HAYS,2021-1025,"Single Family Homes",3/19/2021,,236643,2251,"108 YARBROUGH DR","DRIPPING SPRINGS",TX,78620,,,"MARIA MARTINEZ","108 YARBROUGH DR","DRIPPING SPRINGS",TX,78620,,Owner,,,,,"TAYLOR MORRISON OF TEXAS",,,,,"TAYLOR MORRISON OF TEXAS","11200 LAKELINE BLVD STE 150A",AUSTIN,TX,78717-5964,"(512) 328-8866",,"(512) 328-7988",,
TX,HAYS,2021-1026,"Single Family Homes",3/21/2021,,346186,,"149 YARBROUGH DR","DRIPPING SPRINGS",TX,78620,,,"MARIA MARTINEZ","149 YARBROUGH DR","DRIPPING SPRINGS",TX,78620,,Owner,,,,,"TAYLOR MORRISON OF TEXAS",,,,,"TAYLOR MORRISON OF TEXAS","11200 LAKELINE BLVD STE 150A",AUSTIN,TX,78717-5964,"(512) 328-8866",,"(512) 328-7988",,
TX,HAYS,2021-1029,"Single Family Homes",3/1/2021,,306343,,"1096 HAZY HILLS LOOP","DRIPPING SPRINGS",TX,78620,,,"MARLA LAMB","1096 HAZY HILLS LOOP","DRIPPING SPRINGS",TX,78620,,Owner,,,,,"TAYLOR MORRISON OF TEXAS",,,,,"TAYLOR MORRISON OF TEXAS","11200 LAKELINE BLVD STE 150A",AUSTIN,TX,78717-5964,"(512) 328-8866",,"(512) 328-7988",,
TX,HAYS,2021-1032,"Single Family Homes",3/16/2021,,548137,5214,"577 CROSSWATER LN","DRIPPING SPRINGS",TX,78620,,,"AMBER GRIMES","577 CROSSWATER LN","DRIPPING SPRINGS",TX,78620,,Owner,,,,,"DREES CUSTOM HOMES",,,,,"DREES CUSTOM HOMES","7300 RANCH ROAD 2222 BLDG 2 STE 250",AUSTIN,TX,78730-3204,"(512) 241-7100",http://www.dreeshomes.com,,,
TX,HAYS,2021-1033,"Single Family Homes",3/16/2021,,423981,4033,"1363-A HAZY HILLS LOOP","DRIPPING SPRINGS",TX,78620,,,CONTRACTOR,,,,,,,,,,,"ASHTON WOODS HOMES",,,,,"ASHTON WOODS HOMES","1221 N INTERSTATE 35E STE 170",CARROLLTON,TX,75006-3806,"(972) 428-5404",,,,
TX,HAYS,2021-1036,"Single Family Homes",3/19/2021,,460040,4376,"169 CRIMSON SKY CT","DRIPPING SPRINGS",TX,78620,,,CONTRACTOR,,,,,,,,,,,"ASHTON WOODS HOMES",,,,,"ASHTON WOODS HOMES","1221 N INTERSTATE 35E STE 170",CARROLLTON,TX,75006-3806,"(972) 428-5404",,,,
TX,HAYS,2021-1039,"Single Family Homes",3/18/2021,,626458,5959,"238 PREMIER PARK LOOP","DRIPPING SPRINGS",TX,78620,,,"AMBER BYRN","238 PREMIER PARK LOOP","DRIPPING SPRINGS",TX,78620,,Owner,,,,,"DREES CUSTOM HOMES",,,,,"DREES CUSTOM HOMES","7300 RANCH ROAD 2222 BLDG 2 STE 250",AUSTIN,TX,78730-3204,"(512) 241-7100",http://www.dreeshomes.com,,,
TX,HAYS,2021-1041,"Single Family Homes",3/2/2021,,343348,3266,"190 CLIMBING ROCK LOOP","DRIPPING SPRINGS",TX,78620,,,CONTRACTOR,,,,,,,,,,,"PULTE HOMES",,,,,"PULTE HOMES","9401 AMBERGLEN BLVD STE I-150",AUSTIN,TX,78729-1154,"(512) 561-4344",,,,
TX,HAYS,2021-1046,"Single Family Homes",3/10/2021,,295725,2813,"384 CLIMBING ROCK LOOP","DRIPPING SPRINGS",TX,78620,,,CONTRACTOR,,,,,,,,,,,"PULTE HOMES",,,,,"PULTE HOMES","9401 AMBERGLEN BLVD STE I-150",AUSTIN,TX,78729-1154,"(512) 561-4344",,,,
TX,HAYS,2021-1047,"Single Family Homes",3/10/2021,,262505,2497,"206 NODENA DR","DRIPPING SPRINGS",TX,78620,,,"MARLA LAMB","206 NODENA DR","DRIPPING SPRINGS",TX,78620,,Owner,,,,,"TAYLOR MORRISON OF TEXAS",,,,,"TAYLOR MORRISON OF TEXAS","11200 LAKELINE BLVD STE 150A",AUSTIN,TX,78717-5964,"(512) 328-8866",,"(512) 328-7988",,
TX,HAYS,2021-1049,"Single Family Homes",3/19/2021,,404532,3848,"127 BRIDGE WATER LOOP","DRIPPING SPRINGS",TX,78620,,,CONTRACTOR,,,,,,,,,,,"SCOTT FELDER HOMES",,,,,"SCOTT FELDER HOMES","6414 RIVER PLACE BLVD STE 100",AUSTIN,TX,78730-1158,"(512) 418-5400",,,,
TX,HAYS,2021-1050,"Single Family Homes",3/17/2021,,274174,,"148 NODENA DR","DRIPPING SPRINGS",TX,78620,,,"MARLA LAMB","148 NODENA DR","DRIPPING SPRINGS",TX,78620,,Owner,,,,,"TAYLOR MORRISON OF TEXAS",,,,,"TAYLOR MORRISON OF TEXAS","11200 LAKELINE BLVD STE 150A",AUSTIN,TX,78717-5964,"(512) 328-8866",,"(512) 328-7988",,
TX,HAYS,2021-1052,"Single Family Homes",3/4/2021,,354492,3372,"891 ARROWHEAD RANCH BLVD","DRIPPING SPRINGS",TX,78626,,,"MARLA LAMB","891 ARROWHEAD RANCH BLVD","DRIPPING SPRINGS",TX,78626,,Owner,,,,,"TAYLOR MORRISON OF TEXAS",,,,,"TAYLOR MORRISON OF TEXAS","11200 LAKELINE BLVD STE 150A",AUSTIN,TX,78717-5964,"(512) 328-8866",,"(512) 328-7988",,
TX,HAYS,2021-1055,"Single Family Homes",3/11/2021,,354492,3372,"1397 PINK GRANITE BLVD","DRIPPING SPRINGS",TX,78626,,,"MARIA MARTINEZ","1397 PINK GRANITE BLVD","DRIPPING SPRINGS",TX,78626,,Owner,,,,,"TAYLOR MORRISON OF TEXAS",,,,,"TAYLOR MORRISON OF TEXAS","11200 LAKELINE BLVD STE 150A",AUSTIN,TX,78717-5964,"(512) 328-8866",,"(512) 328-7988",,
TX,HAYS,2021-1056,"Single Family Homes",3/5/2021,,457517,4532,"289 PEAR TREE LN","DRIPPING SPRINGS",TX,78620,,,CONTRACTOR,,,,,,,,,,,"TAYLOR MORRISON OF TEXAS",,,,,"TAYLOR MORRISON OF TEXAS","11200 LAKELINE BLVD STE 150A",AUSTIN,TX,78717-5964,"(512) 328-8866",,"(512) 328-7988",,
TX,HAYS,2021-1057,"Single Family Homes",3/2/2021,,387502,,"1077 HAZY HILLS LOOP ","DRIPPING SPRINGS",TX,78620,,,"JENNIFER FRESQUEZ","1077 HAZY HILLS LOOP ","DRIPPING SPRINGS",TX,78620,,Owner,,,,,"TAYLOR MORRISON OF TEXAS",,,,,"TAYLOR MORRISON OF TEXAS","11200 LAKELINE BLVD STE 150A",AUSTIN,TX,78717-5964,"(512) 328-8866",,"(512) 328-7988",,
TX,HAYS,2021-1063,"Single Family Homes",3/5/2021,,404953,3852,"383 CLIMBING ROCK LOOP","DRIPPING SPRINGS",TX,78620,,,CONTRACTOR,,,,,,,,,,,"PULTE HOMES",,,,,"PULTE HOMES","9401 AMBERGLEN BLVD STE I-150",AUSTIN,TX,78729-1154,"(512) 561-4344",,,,
TX,HAYS,2021-1065,"Single Family Homes",3/1/2021,,,3692,"308 DOUBLE L DR","DRIPPING SPRINGS",TX,78620,,,"MEGAN MITCHELL","308 DOUBLE L DR","DRIPPING SPRINGS",TX,78620,,Owner,,,,,"SCOTT FELDER HOMES",,,,,"SCOTT FELDER HOMES","6414 RIVER PLACE BLVD STE 100",AUSTIN,TX,78730-1158,"(512) 418-5400",,,,
TX,HAYS,2021-1067,"Single Family Homes",3/11/2021,,232753,2214,"1007 HAZY HILLS LOOP","DRIPPING SPRINGS",TX,78620,,,CONTRACTOR,,,,,,,,,,,"DAVID WEEKLEY HOMES",,,,,"DAVID WEEKLEY HOMES","9000 WATERFORD CENTRE BLVD",AUSTIN,TX,78758-7662,"(800) 390-6774",http://www.davidweekleyhomes.com/,,,
TX,HAYS,2021-1070,"Single Family Homes",3/10/2021,,368579,3506,"431 CRIMSON SKY CT","DRIPPING SPRINGS",TX,78620,,,CONTRACTOR,,,,,,,,,,,"DAVID WEEKLEY HOMES",,,,,"DAVID WEEKLEY HOMES","9000 WATERFORD CENTRE BLVD",AUSTIN,TX,78758-7662,"(800) 390-6774",http://www.davidweekleyhomes.com/,,,
TX,HAYS,2021-1076,"Single Family Homes",3/16/2021,,580366,5243,"752 BRIDGE WATER LOOP","DRIPPING SPRINGS",TX,78620,,,CONTRACTOR,,,,,,,,,,,"SCOTT FELDER HOMES",,,,,"SCOTT FELDER HOMES","6414 RIVER PLACE BLVD STE 100",AUSTIN,TX,78730-1158,"(512) 418-5400",,,,
TX,HAYS,2021-1078,"Single Family Homes",3/4/2021,,606378,5768,"362 DELAYNE DR","DRIPPING SPRINGS",TX,78620,,,CONTRACTOR,,,,,,,,,,,"NALLE CUSTOM HOMES",,,,,"NALLE CUSTOM HOMES","105 APPLEWOOD DR","CEDAR CREEK",TX,78612-3441,"(512) 947-8972",http://www.nallecustomhomes.com/,,,
TX,HAYS,2021-1084,"Single Family Homes",3/2/2021,,254410,2420,"1186 LUCCA DR","DRIPPING SPRINGS",TX,78620,,,CONTRACTOR,,,,,,,,,,,"BROOKFIELD RESIDENTIAL PROPERTIES",,,,,"BROOKFIELD RESIDENTIAL PROPERTIES","11501 ALTERRA PKWY STE 100",AUSTIN,TX,78758-3201,"(512) 391-1330",,,,
TX,HAYS,2021-1089,"Single Family Homes",3/9/2021,,346922,3300,"249 CRIMSON SKY CT","DRIPPING SPRINGS",TX,78620,,,CONTRACTOR,,,,,,,,,,,"ASHTON WOODS HOMES",,,,,"ASHTON WOODS HOMES","1221 N INTERSTATE 35E STE 170",CARROLLTON,TX,75006-3806,"(972) 428-5404",,,,
TX,HAYS,2021-1090,"Single Family Homes",3/18/2021,,597660,5687,"278 DELAYNE DR","DRIPPING SPRINGS",TX,78620,,,CONTRACTOR,,,,,,,,,,,"HEYL HOMES",,,,,"HEYL HOMES","6601 VAUGHT RANCH RD STE 102",AUSTIN,TX,78730-2322,"(512) 343-8457",http://www.heylhomes.com/,"(512) 343-9583",,
TX,HAYS,2021-1091,"Single Family Homes",3/9/2021,,452471,4304,"1592 HAZY HILLS LOOP","DRIPPING SPRINGS",TX,78620,,,CONTRACTOR,,,,,,,,,,,"ASHTON WOODS HOMES",,,,,"ASHTON WOODS HOMES","1221 N INTERSTATE 35E STE 170",CARROLLTON,TX,75006-3806,"(972) 428-5404",,,,
TX,HAYS,2021-1092,"Single Family Homes",3/18/2021,,,5316,"162 JACKSDAW DR","DRIPPING SPRINGS",TX,78620,,,CONTRACTOR,,,,,,,,,,,"TAYLOR MORRISON OF TEXAS",,,,,"TAYLOR MORRISON OF TEXAS","11200 LAKELINE BLVD STE 150A",AUSTIN,TX,78717-5964,"(512) 328-8866",,"(512) 328-7988",,
TX,HAYS,2021-1093,"Single Family Homes",3/5/2021,,437332,4160,"143 WINDINGHART LN","DRIPPING SPRINGS",TX,78626,,,CONTRACTOR,,,,,,,,,,,"TAYLOR MORRISON OF TEXAS",,,,,"TAYLOR MORRISON OF TEXAS","11200 LAKELINE BLVD STE 150A",AUSTIN,TX,78717-5964,"(512) 328-8866",,"(512) 328-7988",,
TX,HAYS,2021-1101,"Single Family Homes",3/12/2021,,424191,4035,"593 CROSSWATER LN","DRIPPING SPRINGS",TX,78620,,,CONTRACTOR,,,,,,,,,,,"MIDCENTURY CUSTOM HOMES",,,,,"MIDCENTURY CUSTOM HOMES","206 WATERS VIEW CT","DRIPPING SPRINGS",TX,78620,"(512) 643-1969",,,,
TX,HAYS,2021-1110,"Single Family Homes",3/2/2021,,327789,3118,"1141 LUCCA DR","DRIPPING SPRINGS",TX,78620,,,CONTRACTOR,,,,,,,,,,,"BROOKFIELD RESIDENTIAL PROPERTIES",,,,,"BROOKFIELD RESIDENTIAL PROPERTIES","11501 ALTERRA PKWY STE 100",AUSTIN,TX,78758-3201,"(512) 391-1330",,,,
TX,HAYS,2021-1113,"Single Family Homes",3/11/2021,,376043,3577,"380 CRIMSON SKY CT","DRIPPING SPRINGS",TX,78620,,,CONTRACTOR,,,,,,,,,,,"DAVID WEEKLEY HOMES",,,,,"DAVID WEEKLEY HOMES","9000 WATERFORD CENTRE BLVD",AUSTIN,TX,78758-7662,"(800) 390-6774",http://www.davidweekleyhomes.com/,,,
TX,HAYS,2021-1114,"Single Family Homes",3/25/2021,,695947,,"480 DELAYNE DR","DRIPPING SPRINGS",TX,78620,,,CONTRACTOR,,,,,,,,,,,"HEYL HOMES",,,,,"HEYL HOMES","6601 VAUGHT RANCH RD STE 102",AUSTIN,TX,78730-2322,"(512) 343-8457",http://www.heylhomes.com/,"(512) 343-9583",,
TX,HAYS,2021-1116,"Single Family Homes",3/8/2021,,65000,,"856 JACKSDAW","DRIPPING SPRINGS",TX,78737,,,CONTRACTOR,,,,,,,,,,,"MAJESTIC POOLSCAPES",,,,,"MAJESTIC POOLSCAPES","4204 HOOKBILLED KITE",AUSTIN,TX,78738-6572,"(512) 402-0011",,,,
TX,HAYS,2021-1117,"Single Family Homes",3/11/2021,,307394,2924,"899 HAZY HILLS LOOP","DRIPPING SPRINGS",TX,78626,,,CONTRACTOR,,,,,,,,,,,"DAVID WEEKLEY HOMES",,,,,"DAVID WEEKLEY HOMES","9000 WATERFORD CENTRE BLVD",AUSTIN,TX,78758-7662,"(800) 390-6774",http://www.davidweekleyhomes.com/,,,
TX,HAYS,2021-1120,"Single Family Homes",3/11/2021,,465822,4431,"215 STARFIRE DR","DRIPPING SPRINGS",TX,78620,,,CONTRACTOR,,,,,,,,,,,"DAVID WEEKLEY HOMES",,,,,"DAVID WEEKLEY HOMES","9000 WATERFORD CENTRE BLVD",AUSTIN,TX,78758-7662,"(800) 390-6774",http://www.davidweekleyhomes.com/,,,
TX,HAYS,2021-1125,"Single Family Homes",3/31/2021,,605432,,"157 PEAKSIDE CIRCLE","DRIPPING SPRINGS",TX,78620,,,"MEGAN MITCHELL","308 DOUBLE L DR","DRIPPING SPRINGS",TX,78620,,Owner,,,,,"SCOTT FELDER HOMES",,,,,"SCOTT FELDER HOMES","6414 RIVER PLACE BLVD STE 100",AUSTIN,TX,78730-1158,"(512) 418-5400",,,,
TX,HAYS,2021-1126,"Single Family Homes",3/10/2021,,286158,2722,"344 CLIMBING ROCK LOOP","DRIPPING SPRINGS",TX,78620,,,CONTRACTOR,,,,,,,,,,,"PULTE HOMES",,,,,"PULTE HOMES","4800 REGENT BLVD",IRVING,TX,75063-2439,"(972) 304-2800",,,,
TX,HAYS,2021-1127,"Single Family Homes",3/3/2021,,252412,2401,"332 CLIMBING ROCK LOOP","DRIPPING SPRINGS",TX,78626,,,CONTRACTOR,,,,,,,,,,,"PULTE HOMES",,,,,"PULTE HOMES","9401 AMBERGLEN BLVD STE I-150",AUSTIN,TX,78729-1154,"(512) 561-4344",,,,
TX,HAYS,2021-1132,"Single Family Homes",3/14/2021,,273228,2599,"120 AREZZO WAY","DRIPPING SPRINGS",TX,78620,,,CONTRACTOR,,,,,,,,,,,"BROOKFIELD RESIDENTIAL PROPERTIES",,,,,"BROOKFIELD RESIDENTIAL PROPERTIES","11501 ALTERRA PKWY STE 100",AUSTIN,TX,78758-3201,"(512) 391-1330",,,,
TX,HAYS,2021-1133,"Single Family Homes",3/16/2021,,268604,2555,"1107 LUCCA DR","DRIPPING SPRINGS",TX,78620,,,CONTRACTOR,,,,,,,,,,,"BROOKFIELD RESIDENTIAL PROPERTIES",,,,,"BROOKFIELD RESIDENTIAL PROPERTIES","11501 ALTERRA PKWY STE 100",AUSTIN,TX,78758-3201,"(512) 391-1330",,,,
TX,HAYS,2021-1136,"Single Family Homes",3/12/2021,,761127,7240,"196 DELAYNE DR","DRIPPING SPRINGS",TX,78620,,,"JOSEPH BARCLAY","196 DELAYNE DR","DRIPPING SPRINGS",TX,78620,,Owner,,,,,"NALLE CUSTOM HOMES",,,,,"NALLE CUSTOM HOMES","105 APPLEWOOD DR","CEDAR CREEK",TX,78612-3441,"(512) 947-8972",http://www.nallecustomhomes.com/,,,
TX,HAYS,2021-1139,"Single Family Homes",3/18/2021,,343453,3267,"1421 HAZY HILLS LOOP","DRIPPING SPRINGS",TX,78620,,,CONTRACTOR,,,,,,,,,,,"ASHTON WOODS HOMES",,,,,"ASHTON WOODS HOMES","1221 N INTERSTATE 35E STE 170",CARROLLTON,TX,75006-3806,"(972) 428-5404",,,,
TX,HAYS,2021-1144,"Single Family Homes",3/22/2021,,497886,4736,"970 PREMIER PARK LOOP","DRIPPING SPRINGS",TX,78620,,,"AMBER GRIMES","970 PREMIER PARK LOOP","DRIPPING SPRINGS",TX,78620,,Owner,,,,,"DREES CUSTOM HOMES",,,,,"DREES CUSTOM HOMES","7300 RANCH ROAD 2222 BLDG 2 STE 250",AUSTIN,TX,78730-3204,"(512) 241-7100",http://www.dreeshomes.com,,,
TX,HAYS,2021-1149,"Single Family Homes",3/30/2021,,436491,4152,"629 PRAIRIE CLOVER DR","DRIPPING SPRINGS",TX,78620,,,"JESSICA BEANE","629 PRAIRIE CLOVER DR","DRIPPING SPRINGS",TX,78620,,Owner,,,,,"BUFFINGTON TEXAS CLASSIC HOMES",,,,,"BUFFINGTON TEXAS CLASSIC HOMES","8601 RANCH ROAD 2222 PARK CENTRE BLDG STE 150",AUSTIN,TX,78730,"(512) 579-4800",,,,
TX,HAYS,2021-1150,"Single Family Homes",3/22/2021,,452366,4304,"261 CRIMSON SKY CT","DRIPPING SPRINGS",TX,78620,,,CONTRACTOR,,,,,,,,,,,"ASHTON WOODS HOMES",,,,,"ASHTON WOODS HOMES","1221 N INTERSTATE 35E STE 170",CARROLLTON,TX,75006-3806,"(972) 428-5404",,,,
TX,HAYS,2021-1154,"Single Family Homes",3/31/2021,,317508,2567,"166 HAZY HILLS LOOP","DRIPPING SPRINGS",TX,78620,,,"SHAY BRINKLEY","166 HAZY HILLS LOOP","DRIPPING SPRINGS",TX,78620,,Owner,,,,,"NEWMARK HOMES",,,,,"NEWMARK HOMES","10455 BRIAR FOREST SUITE 200",HOUSTON,TX,77042,"(713) 346-0200",,"(713) 346-0226",,
TX,HAYS,2021-1159,"Single Family Homes",3/18/2021,,424191,4035,"245 CLIMBING ROCK LOOP","DRIPPING SPRINGS",TX,78620,,,CONTRACTOR,,,,,,,,,,,"PULTE HOMES",,,,,"PULTE HOMES","9401 AMBERGLEN BLVD STE I-150",AUSTIN,TX,78729-1154,"(512) 561-4344",,,,
TX,HAYS,2021-1166,"Single Family Homes",3/31/2021,,352958,3180,"210 CLIMBING ROCK LOOP","DRIPPING SPRINGS",TX,78620,,,CONTRACTOR,,,,,,,,,,,"PULTE HOMES",,,,,"PULTE HOMES","9401 AMBERGLEN BLVD STE I-150",AUSTIN,TX,78729-1154,"(512) 561-4344",,,,
TX,HAYS,2021-1175,"Single Family Homes",3/31/2021,,639178,6080,"1725 PARTEN RANCH PARKWAY","DRIPPING SPRINGS",TX,78620,,,"MARIA MARTINEZ","1725 PARTEN RANCH PARKWAY","DRIPPING SPRINGS",TX,78620,,Owner,,,,,"TAYLOR MORRISON OF TEXAS",,,,,"TAYLOR MORRISON OF TEXAS","11200 LAKELINE BLVD STE 150A",AUSTIN,TX,78717-5964,"(512) 328-8866",,"(512) 328-7988",,
TX,HAYS,2021-1176,"Single Family Homes",3/29/2021,,458043,4357,"283 STARFIRE DR","DRIPPING SPRINGS",TX,78620,,,CONTRACTOR,,,,,,,,,,,"DAVID WEEKLEY HOMES",,,,,"DAVID WEEKLEY HOMES","9000 WATERFORD CENTRE BLVD",AUSTIN,TX,78758-7662,"(800) 390-6774",http://www.davidweekleyhomes.com/,,,
TX,HAYS,2021-1180,"Single Family Homes",3/29/2021,,368579,3506,"991 HAZY HILLS LOOP","DRIPPING SPRINGS",TX,78620,,,CONTRACTOR,,,,,,,,,,,"DAVID WEEKLEY HOMES",,,,,"DAVID WEEKLEY HOMES","9000 WATERFORD CENTRE BLVD",AUSTIN,TX,78758-7662,"(800) 390-6774",http://www.davidweekleyhomes.com/,,,
TX,HAYS,2021-1184,"Single Family Homes",3/29/2021,,374466,3562,"1010 HAZY HILLS LOOP","DRIPPING SPRINGS",TX,78620,,,CONTRACTOR,,,,,,,,,,,"DAVID WEEKLEY HOMES",,,,,"DAVID WEEKLEY HOMES","9000 WATERFORD CENTRE BLVD",AUSTIN,TX,78758-7662,"(800) 390-6774",http://www.davidweekleyhomes.com/,,,
TX,HAYS,2021-1186,"Single Family Homes",3/29/2021,,498727,4744,"169 STARFIRE DR","DRIPPING SPRINGS",TX,78620,,,CONTRACTOR,,,,,,,,,,,"DAVID WEEKLEY HOMES",,,,,"DAVID WEEKLEY HOMES","9000 WATERFORD CENTRE BLVD",AUSTIN,TX,78758-7662,"(800) 390-6774",http://www.davidweekleyhomes.com/,,,
TX,TRAVIS,2021-2014,"Single Family Homes",3/16/2021,,495000,2984,"17636 REED PARKS",JONESTOWN,TX,78645,,,CONTRACTOR,,,,,,,,,,,"APPALOOSA CUSTOM HOMES",,,,,"APPALOOSA CUSTOM HOMES","1108 RED BIRD DR","CEDAR PARK",TX,78613-5450,"(512) 335-9982",,,"RAY W COPE",
TX,TRAVIS,2021-2023,"Single Family Homes",3/3/2021,,710000,4563,"7200 TRADEWIND VIEW DR",JONESTOWN,TX,78645,,,CONTRACTOR,,,,,,,,,,,"GRAND ENDEAVOR HOMES",,,,,"GRAND ENDEAVOR HOMES","4411 S INTERSTATE 35 STE 100",GEORGETOWN,TX,78626-7622,"(512) 766-4663",http://www.grandendeavorhomes.com/,,,
TX,TRAVIS,2021-2054,"Single Family Homes",3/10/2021,,364000,3527,"6601 ROCKY GROTTO CV",JONESTOWN,TX,78645,,,CONTRACTOR,,,,,,,,,,,"DREES CUSTOM HOMES",,,,,"DREES CUSTOM HOMES","7300 RANCH ROAD 2222 BLDG 2 STE 250",AUSTIN,TX,78730-3204,"(512) 241-7100",http://www.dreeshomes.com,,,
TX,TRAVIS,2021-2057,"Single Family Homes",3/19/2021,,484690,5102,"18901 EXCURSION FALLS WAY",JONESTOWN,TX,78645,,,CONTRACTOR,,,,,,,,,,,"GIDDENS HOMES",,,,,"GIDDENS HOMES","3001 CRYSTAL FALLS PKWY",LEANDER,TX,78641-2861,"(800) 644-9083",https://www.giddenshomes.com/,,,
TX,TRAVIS,2021-2063,"Single Family Homes",3/1/2021,,90000,1384,"10703 W LAKEVIEW DR",JONESTOWN,TX,78645,,,CONTRACTOR,,,,,,,,,,,"GLOBAL BUILDERS & REMODELERS",,,,,"GLOBAL BUILDERS & REMODELERS","921 SAN JACINTO AVE.","TEXAS CITY",TX,77590,"(832) 924-6291",,,,
TX,TRAVIS,2021-2064,"Single Family Homes",3/22/2021,,1600000,5854,"17907 BREAKWATER DR",JONESTOWN,TX,78645,,,CONTRACTOR,,,,,,,,,,,"ALLEY CONSTRUCTION",,,,,"ALLEY CONSTRUCTION","706 COGGIN AVE",BROWNWOOD,TX,76801-3504,"(325) 642-1819",,,,
TX,TRAVIS,2021-2069,"Single Family Homes",3/9/2021,,1244342,5626,"9500 RANCHLAND HILLS BLVD",JONESTOWN,TX,78645,,,CONTRACTOR,,,,,,,,,,,"PRESTON HOMES",,,,,"PRESTON HOMES","1316 OSPREY RIDGE LOOP","LAGO VISTA",TX,78645-8019,"(512) 267-7900",,,,
TX,TRAVIS,2021-2072,"Single Family Homes",3/8/2021,,610000,3573,"9117 RANCHLAND HILLS",JONESTOWN,TX,78645,,,CONTRACTOR,,,,,,,,,,,"MALVAIZ BUILDERS",,,,,"MALVAIZ BUILDERS","108 TUSCANY WAY",GEORGETOWN,TX,78633-4497,"(512) 748-5329",,,,
TX,TRAVIS,2021-2076,"Single Family Homes",3/29/2021,,532000,4660,"5132 DESTINATION WAY",JONESTOWN,TX,78645,,,CONTRACTOR,,,,,,,,,,,"DREES CUSTOM HOMES",,,,,"DREES CUSTOM HOMES","7300 RANCH ROAD 2222 BLDG 2 STE 250",AUSTIN,TX,78730-3204,"(512) 241-7100",http://www.dreeshomes.com,,,
TX,TRAVIS,2021-2085,"Single Family Homes",3/24/2021,,368000,5126,"19012 EXCURSION FALLS WAY",JONESTOWN,TX,78645,,,CONTRACTOR,,,,,,,,,,,"DREES CUSTOM HOMES",,,,,"DREES CUSTOM HOMES","7300 RANCH ROAD 2222 BLDG 2 STE 250",AUSTIN,TX,78730-3204,"(512) 241-7100",http://www.dreeshomes.com,,,
TX,TRAVIS,2021-2088,"Single Family Homes",3/24/2021,,342000,3501,"5148 DESTINATION WAY",JONESTOWN,TX,78645,,,CONTRACTOR,,,,,,,,,,,"DREES CUSTOM HOMES",,,,,"DREES CUSTOM HOMES","7300 RANCH ROAD 2222 BLDG 2 STE 250",AUSTIN,TX,78730-3204,"(512) 241-7100",http://www.dreeshomes.com,,,
TX,TRAVIS,2021-2093,"Single Family Homes",3/17/2021,,420945,4431,"18600 EXPEDITION TRAIL",JONESTOWN,TX,78645,,,CONTRACTOR,,,,,,,,,,,"GIDDENS DEVELOPMENT",,,,,"GIDDENS DEVELOPMENT","14000 RANCH ROAD 2243",LEANDER,TX,78641-8906,"(512) 422-1391",,,,
TX,TRAVIS,2021-2094,"Single Family Homes",3/24/2021,,347000,3520,"6708 ADVENTURES PLACE",JONESTOWN,TX,78645,,,CONTRACTOR,,,,,,,,,,,"DREES CUSTOM HOMES",,,,,"DREES CUSTOM HOMES","7300 RANCH ROAD 2222 BLDG 2 STE 250",AUSTIN,TX,78730-3204,"(512) 241-7100",http://www.dreeshomes.com,,,
TX,TRAVIS,2021-2097,"Single Family Homes",3/24/2021,,517000,3510,"19012 WINDY PINE COVE",JONESTOWN,TX,78645,,,CONTRACTOR,,,,,,,,,,,"DREES CUSTOM HOMES",,,,,"DREES CUSTOM HOMES","7300 RANCH ROAD 2222 BLDG 2 STE 250",AUSTIN,TX,78730-3204,"(512) 241-7100",http://www.dreeshomes.com,,,
TX,TRAVIS,2021-2100,"Single Family Homes",3/16/2021,,582825,6135,"18908 EXCURSION FALLS WAY",JONESTOWN,TX,78645,,,CONTRACTOR,,,,,,,,,,,"GIDDENS HOMES",,,,,"GIDDENS HOMES","3001 CRYSTAL FALLS PKWY",LEANDER,TX,78641-2861,"(800) 644-9083",https://www.giddenshomes.com/,,,
TX,TRAVIS,2021-2114,"Single Family Homes",3/24/2021,,500000,3427,"8108 MOONRISE TRAIL",JONESTOWN,TX,78645,,,CONTRACTOR,,,,,,,,,,,"COBALT COMPANIES",,,,,"COBALT COMPANIES","1306 W ANDERSON LN STE B",AUSTIN,TX,78757-1454,"(512) 289-4177",http://www.thecobaltcompanies.com/,,,
TX,TRAVIS,2021-2115,"Single Family Homes",3/18/2021,,350000,2427,"18222 SANDY ST",JONESTOWN,TX,78645,,,CONTRACTOR,,,,,,,,,,,"BOBBITT BUILDERS",,,,,"BOBBITT BUILDERS","8700 TIP TOP DR",JONESTOWN,TX,78645-2007,"(512) 773-2685",,,,
TX,TRAVIS,2021-2120,"Single Family Homes",3/24/2021,,150000,1664,"11538 MAIN ST",JONESTOWN,TX,78645,,,CONTRACTOR,,,,,,,,,,,"ELITE STONE & LANDSCAPE SUPPLY",,,,,"ELITE STONE & LANDSCAPE SUPPLY","18127 FM 1431",LEANDER,TX,78641-3813,"(512) 267-5150",http://elitestoneandlandscape.com/,,,
TX,TRAVIS,2021-2124,"Single Family Homes",3/31/2021,,412740,4586,"18909 EXCURSION FALLS WAY",JONESTOWN,TX,78645,,,CONTRACTOR,,,,,,,,,,,"GIDDENS HOMES",,,,,"GIDDENS HOMES","3001 CRYSTAL FALLS PKWY",LEANDER,TX,78641-2861,"(800) 644-9083",https://www.giddenshomes.com/,,,
TX,TRAVIS,2021-2126,"Single Family Homes",3/31/2021,,424650,4470,"5421 DESTINATION WAY",JONESTOWN,TX,78645,,,CONTRACTOR,,,,,,,,,,,"GIDDENS HOMES",,,,,"GIDDENS HOMES","3001 CRYSTAL FALLS PKWY",LEANDER,TX,78641-2861,"(800) 644-9083",https://www.giddenshomes.com/,,,
TX,BASTROP,21-000275,"Single Family Homes",3/17/2021,,136890,2106,"313 RIMROCK CT",BASTROP,TX,78602,,,CONTRACTOR,,,,,,,,,,,"BROHN HOMES",,,,,"BROHN HOMES","6720 VAUGHT RANCH RD STE 200",AUSTIN,TX,78730-2354,"(512) 320-8833",http://brohnhomes.com/,,,
TX,BASTROP,21-000278,"Single Family Homes",3/11/2021,,141110,2171,"132  TRAILSTONE DR",BASTROP,TX,78602,,,CONTRACTOR,,,,,,,,,,,"BROHN HOMES",,,,,"BROHN HOMES","6720 VAUGHT RANCH RD STE 200",AUSTIN,TX,78730-2354,"(512) 320-8833",http://brohnhomes.com/,,,
TX,BASTROP,21-000279,"Single Family Homes",3/8/2021,,155415,2391,"127 TRAILSIDE LN",BASTROP,TX,78602,,,CONTRACTOR,,,,,,,,,,,"BROHN HOMES",,,,,"BROHN HOMES","6720 VAUGHT RANCH RD STE 200",AUSTIN,TX,78730-2354,"(512) 320-8833",http://brohnhomes.com/,,,
TX,BASTROP,21-000280,"Single Family Homes",3/17/2021,,170730,1897,"1906 DRAGONFLY LOOP",BASTROP,TX,78602,,,CONTRACTOR,,,,,,,,,,,"KB HOME",,,,,"KB HOME","10800 PECAN PARK BLVD STE 200",AUSTIN,TX,78750-1249,"(512) 651-8100",,,,
TX,BASTROP,21-000281,"Single Family Homes",3/17/2021,,170730,1897,"1927 DRAGONFLY LOOP",BASTROP,TX,78702,,,CONTRACTOR,,,,,,,,,,,"KB HOME",,,,,"KB HOME","10800 PECAN PARK BLVD STE 200",AUSTIN,TX,78750-1249,"(512) 651-8100",,,,
TX,BASTROP,21-000282,"Single Family Homes",3/17/2021,,218430,2427,"2104 DRAGONFLY LOOP",BASTROP,TX,78602,,,CONTRACTOR,,,,,,,,,,,"KB HOME",,,,,"KB HOME","10800 PECAN PARK BLVD STE 200",AUSTIN,TX,78750-1249,"(512) 651-8100",,,,
TX,BASTROP,21-000283,"Single Family Homes",3/17/2021,,170640,1896,"2102 DRAGONFLY LOOP",BASTROP,TX,78702,,,CONTRACTOR,,,,,,,,,,,"KB HOME",,,,,"KB HOME","10800 PECAN PARK BLVD STE 200",AUSTIN,TX,78750-1249,"(512) 651-8100",,,,
TX,BASTROP,21-000284,"Single Family Homes",3/16/2021,,159410,1678,"303 WATERCOURSE WAY",BASTROP,TX,78702,,,CONTRACTOR,,,,,,,,,,,"DREAM FINDERS HOMES",,,,,"DREAM FINDERS HOMES","13281 POND SPRINGS RD STE 110",AUSTIN,TX,78729,"(512) 535-4866",http://www.dreamfindershomes.com/,,,
TX,BASTROP,21-000285,"Single Family Homes",3/17/2021,,173280,1824,"311 WATERCOURSE WAY",BASTROP,TX,78702,,,CONTRACTOR,,,,,,,,,,,"DREAM FINDERS HOMES",,,,,"DREAM FINDERS HOMES","13281 POND SPRINGS RD STE 110",AUSTIN,TX,78729,"(512) 535-4866",http://www.dreamfindershomes.com/,,,
TX,BASTROP,21-000298,"Single Family Homes",3/16/2021,,175000,1850,"1805 WILSON ST",BASTROP,TX,78702,,,"DEBRA ADAMS","1805 WILSON ST",BASTROP,TX,78702,,Owner,,,,,OWNER,,,,,OWNER,,,,,,,,,
TX,BASTROP,21-000316,"Single Family Homes",3/16/2021,,229423,3059,"117 OXBOW TER",BASTROP,TX,78702,,,CONTRACTOR,,,,,,,,,,,"DR HORTON",,,,,"DR HORTON","10700 PECAN PARK BLVD STE 400",AUSTIN,TX,78750-1227,"(512) 345-4663",,,,
TX,BASTROP,21-000317,"Single Family Homes",3/16/2021,,179100,2388,"404 RAINMAKER LN",BASTROP,TX,78702,,,CONTRACTOR,,,,,,,,,,,"DR HORTON",,,,,"DR HORTON","10700 PECAN PARK BLVD STE 400",AUSTIN,TX,78750-1227,"(512) 345-4663",,,,
TX,BASTROP,21-000318,"Single Family Homes",3/16/2021,,179100,2388,"311 RAINMAKER LN",BASTROP,TX,78702,,,CONTRACTOR,,,,,,,,,,,"DR HORTON",,,,,"DR HORTON","10700 PECAN PARK BLVD STE 400",AUSTIN,TX,78750-1227,"(512) 345-4663",,,,
TX,BASTROP,21-000319,"Single Family Homes",3/16/2021,,179100,2388,"301 RAINMAKER LN",BASTROP,TX,78702,,,CONTRACTOR,,,,,,,,,,,"DR HORTON",,,,,"DR HORTON","10700 PECAN PARK BLVD STE 400",AUSTIN,TX,78750-1227,"(512) 345-4663",,,,
TX,BASTROP,21-000320,"Single Family Homes",3/16/2021,,219450,2926,"305 RAINMAKER LN",BASTROP,TX,78702,,,CONTRACTOR,,,,,,,,,,,"DR HORTON",,,,,"DR HORTON","10700 PECAN PARK BLVD STE 400",AUSTIN,TX,78750-1227,"(512) 345-4663",,,,
TX,BASTROP,21-000321,"Single Family Homes",3/16/2021,,189600,2528,"307 RAINMAKER LN",BASTROP,TX,78702,,,CONTRACTOR,,,,,,,,,,,"DR HORTON",,,,,"DR HORTON","10700 PECAN PARK BLVD STE 400",AUSTIN,TX,78750-1227,"(512) 345-4663",,,,
TX,BASTROP,21-000322,"Single Family Homes",3/17/2021,,167960,1768,"308 WATERCOURSE WAY",BASTROP,TX,78702,,,CONTRACTOR,,,,,,,,,,,"DREAM FINDERS HOMES",,,,,"DREAM FINDERS HOMES","13281 POND SPRINGS RD STE 110",AUSTIN,TX,78729,"(512) 535-4866",http://www.dreamfindershomes.com/,,,
TX,BASTROP,21-000323,"Single Family Homes",3/17/2021,,159410,1678,"312 WATERCOURSE WAY",BASTROP,TX,78702,,,CONTRACTOR,,,,,,,,,,,"DREAM FINDERS HOMES",,,,,"DREAM FINDERS HOMES","13281 POND SPRINGS RD STE 110",AUSTIN,TX,78729,"(512) 535-4866",http://www.dreamfindershomes.com/,,,
TX,BASTROP,21-000324,"Single Family Homes",3/16/2021,,173280,1824,"408 WATERCOURSE WAY",BASTROP,TX,78702,,,CONTRACTOR,,,,,,,,,,,"DREAM FINDERS HOMES",,,,,"DREAM FINDERS HOMES","13581 POND SPRINGS RD STE 110",AUSTIN,TX,78729-4423,"(512) 535-4866",http://www.dreamfindershomes.com/,,,
TX,BASTROP,21-000325,"Single Family Homes",3/17/2021,,161595,1701,"406 WATERCOURSE WAY",BASTROP,TX,78702,,,CONTRACTOR,,,,,,,,,,,"DREAM FINDERS HOMES",,,,,"DREAM FINDERS HOMES","13281 POND SPRINGS RD STE 110",AUSTIN,TX,78729,"(512) 535-4866",http://www.dreamfindershomes.com/,,,
TX,BASTROP,21-000326,"Single Family Homes",3/17/2021,,159410,1678,"404 WATERCOURSE WAY",BASTROP,TX,78702,,,CONTRACTOR,,,,,,,,,,,"DREAM FINDERS HOMES",,,,,"DREAM FINDERS HOMES","13281 POND SPRINGS RD STE 110",AUSTIN,TX,78729,"(512) 535-4866",http://www.dreamfindershomes.com/,,,
TX,BASTROP,21-000327,"Single Family Homes",3/17/2021,,167675,1765,"316 TRAILSIDE LN",BASTROP,TX,78702,,,CONTRACTOR,,,,,,,,,,,"DREAM FINDERS HOMES",,,,,"DREAM FINDERS HOMES","13281 POND SPRINGS RD STE 110",AUSTIN,TX,78729,"(512) 535-4866",http://www.dreamfindershomes.com/,,,
TX,BASTROP,21-000328,"Single Family Homes",3/17/2021,,173280,1824,"312 TRAILSIDE LN",BASTROP,TX,78702,,,CONTRACTOR,,,,,,,,,,,"DREAM FINDERS HOMES",,,,,"DREAM FINDERS HOMES","13281 POND SPRINGS RD STE 110",AUSTIN,TX,78729,"(512) 535-4866",http://www.dreamfindershomes.com/,,,
TX,BASTROP,21-000329,"Single Family Homes",3/17/2021,,161595,1701,"310 TRAILSIDE LN",BASTROP,TX,78702,,,CONTRACTOR,,,,,,,,,,,"DREAM FINDERS HOMES",,,,,"DREAM FINDERS HOMES","13281 POND SPRINGS RD STE 110",AUSTIN,TX,78729,"(512) 535-4866",http://www.dreamfindershomes.com/,,,
TX,BASTROP,21-000333,"Single Family Homes",3/17/2021,,171990,2646,"110 CROOKED TRL",BASTROP,TX,78702,,,CONTRACTOR,,,,,,,,,,,"BROHN HOMES",,,,,"BROHN HOMES","6720 VAUGHT RANCH RD STE 200",AUSTIN,TX,78730-2354,"(512) 320-8833",http://brohnhomes.com/,,,
TX,BASTROP,21-000349,"Single Family Homes",3/16/2021,,151650,2022,"114 OXBOW TER",BASTROP,TX,78702,,,CONTRACTOR,,,,,,,,,,,"DR HORTON",,,,,"DR HORTON","10700 PECAN PARK BLVD STE 400",AUSTIN,TX,78750-1227,"(512) 345-4663",,,,
TX,BASTROP,21-000350,"Single Family Homes",3/16/2021,,152550,2034,"112 OXBOW TER",BASTROP,TX,78702,,,CONTRACTOR,,,,,,,,,,,"DR HORTON",,,,,"DR HORTON","10700 PECAN PARK BLVD STE 400",AUSTIN,TX,78750-1227,"(512) 345-4663",,,,
TX,BASTROP,21-000351,"Single Family Homes",3/16/2021,,182175,2429,"111 OXBOW TER",BASTROP,TX,78702,,,CONTRACTOR,,,,,,,,,,,"DR HORTON",,,,,"DR HORTON","10700 PECAN PARK BLVD STE 400",AUSTIN,TX,78750-1227,"(512) 345-4663",,,,
TX,BASTROP,21-000352,"Single Family Homes",3/16/2021,,151650,2022,"109 OXBOW TER",BASTROP,TX,78702,,,CONTRACTOR,,,,,,,,,,,"DR HORTON",,,,,"DR HORTON","10700 PECAN PARK BLVD STE 400",AUSTIN,TX,78750-1227,"(512) 345-4663",,,,
TX,BASTROP,21-000353,"Single Family Homes",3/16/2021,,182175,2429,"106 OXBOW TER",BASTROP,TX,78702,,,CONTRACTOR,,,,,,,,,,,"DR HORTON",,,,,"DR HORTON","10700 PECAN PARK BLVD STE 400",AUSTIN,TX,78750-1227,"(512) 345-4663",,,,
TX,BASTROP,21-000354,"Single Family Homes",3/16/2021,,174075,2321,"113 OXBOW TER",BASTROP,TX,78702,,,CONTRACTOR,,,,,,,,,,,"DR HORTON",,,,,"DR HORTON","10700 PECAN PARK BLVD STE 400",AUSTIN,TX,78750-1227,"(512) 345-4663",,,,
TX,BASTROP,21-000355,"Single Family Homes",3/16/2021,,174075,2321,"108 OXBOW TER",BASTROP,TX,78702,,,CONTRACTOR,,,,,,,,,,,"DR HORTON",,,,,"DR HORTON","10700 PECAN PARK BLVD STE 400",AUSTIN,TX,78750-1227,"(512) 345-4663",,,,
TX,BASTROP,21-000356,"Single Family Homes",3/16/2021,,152550,2034,"119 OXBOW TER",BASTROP,TX,78702,,,CONTRACTOR,,,,,,,,,,,"DR HORTON",,,,,"DR HORTON","10700 PECAN PARK BLVD STE 400",AUSTIN,TX,78750-1227,"(512) 345-4663",,,,
TX,BASTROP,21-000357,"Single Family Homes",3/16/2021,,202950,2706,"115 OXBOW TER",BASTROP,TX,78702,,,CONTRACTOR,,,,,,,,,,,"DR HORTON",,,,,"DR HORTON","10700 PECAN PARK BLVD STE 400",AUSTIN,TX,78750-1227,"(512) 345-4663",,,,
TX,BASTROP,21-000358,"Single Family Homes",3/16/2021,,179100,2388,"209 RAINMAKER LN",BASTROP,TX,78702,,,CONTRACTOR,,,,,,,,,,,"DR HORTON",,,,,"DR HORTON","10700 PECAN PARK BLVD STE 400",AUSTIN,TX,78750-1227,"(512) 345-4663",,,,
TX,BASTROP,21-000359,"Single Family Homes",3/16/2021,,230100,3068,"401 RAINMAKER LN",BASTROP,TX,78702,,,CONTRACTOR,,,,,,,,,,,"DR HORTON",,,,,"DR HORTON","10700 PECAN PARK BLVD STE 400",AUSTIN,TX,78750-1227,"(512) 345-4663",,,,
TX,BASTROP,21-000360,"Single Family Homes",3/16/2021,,231150,3082,"303 RAINMAKER LN",BASTROP,TX,78702,,,CONTRACTOR,,,,,,,,,,,"DR HORTON",,,,,"DR HORTON","10700 PECAN PARK BLVD STE 400",AUSTIN,TX,78750-1227,"(512) 345-4663",,,,
TX,BASTROP,21-000361,"Single Family Homes",3/16/2021,,188925,2519,"211 RAINMAKER LN",BASTROP,TX,78702,,,CONTRACTOR,,,,,,,,,,,"DR HORTON",,,,,"DR HORTON","10700 PECAN PARK BLVD STE 400",AUSTIN,TX,78750-1227,"(512) 345-4663",,,,
TX,BASTROP,21-000362,"Single Family Homes",3/16/2021,,187050,2494,"309 RAINMAKER LN",BASTROP,TX,78702,,,CONTRACTOR,,,,,,,,,,,"DR HORTON",,,,,"DR HORTON","10700 PECAN PARK BLVD STE 400",AUSTIN,TX,78750-1227,"(512) 345-4663",,,,
TX,BASTROP,21-000426,"Single Family Homes",3/17/2021,,133640,2056,"131 TRAILSIDE LN",BASTROP,TX,78702,,,CONTRACTOR,,,,,,,,,,,"BROHN HOMES",,,,,"BROHN HOMES","6720 VAUGHT RANCH RD STE 200",AUSTIN,TX,78730-2354,"(512) 320-8833",http://brohnhomes.com/,,,
TX,BASTROP,21-000427,"Single Family Homes",3/16/2021,,130390,2006,"231 TRAILSIDE LN",BASTROP,TX,78702,,,CONTRACTOR,,,,,,,,,,,"BROHN HOMES",,,,,"BROHN HOMES","6720 VAUGHT RANCH RD STE 200",AUSTIN,TX,78730-2354,"(512) 320-8833",http://brohnhomes.com/,,,
TX,BASTROP,21-000428,"Single Family Homes",3/17/2021,,140076,2155,"225 TRAILSIDE LN",BASTROP,TX,78702,,,CONTRACTOR,,,,,,,,,,,"BROHN HOMES",,,,,"BROHN HOMES","6720 VAUGHT RANCH RD STE 200",AUSTIN,TX,78730-2354,"(512) 320-8833",http://brohnhomes.com/,,,
TX,BASTROP,21-000429,"Single Family Homes",3/17/2021,,155747,2396,"226 TRAILSIDE LN",BASTROP,TX,78702,,,CONTRACTOR,,,,,,,,,,,"BROHN HOMES",,,,,"BROHN HOMES","6720 VAUGHT RANCH RD STE 200",AUSTIN,TX,78730-2354,"(512) 320-8833",http://brohnhomes.com/,,,
TX,BASTROP,21-000430,"Single Family Homes",3/16/2021,,168155,2587,"100 WATERCOURSE WAY",BASTROP,TX,78702,,,CONTRACTOR,,,,,,,,,,,"BROHN HOMES",,,,,"BROHN HOMES","6720 VAUGHT RANCH RD STE 200",AUSTIN,TX,78730-2354,"(512) 320-8833",http://brohnhomes.com/,,,
TX,BASTROP,21-000431,"Single Family Homes",3/17/2021,,114075,1755,"108 CROOKED TRL",BASTROP,TX,78702,,,CONTRACTOR,,,,,,,,,,,"BROHN HOMES",,,,,"BROHN HOMES","6720 VAUGHT RANCH RD STE 200",AUSTIN,TX,78730-2354,"(512) 320-8833",http://brohnhomes.com/,,,
TX,BASTROP,21-000434,"Single Family Homes",3/17/2021,,265500,2940,"312 NATURE WALK DR",BASTROP,TX,78702,,,CONTRACTOR,,,,,,,,,,,"KB HOME",,,,,"KB HOME","10800 PECAN PARK BLVD STE 200",AUSTIN,TX,78750-1249,"(512) 651-8100",,,,
TX,BASTROP,21-000436,"Single Family Homes",3/17/2021,,189540,2106,"1922 DRAGONFLY LOOP",BASTROP,TX,78702,,,CONTRACTOR,,,,,,,,,,,"KB HOME",,,,,"KB HOME","10800 PECAN PARK BLVD STE 200",AUSTIN,TX,78750-1249,"(512) 651-8100",,,,
TX,BASTROP,21-000438,"Single Family Homes",3/17/2021,,259020,2878,"1920 DRAGONFLY LOOP",BASTROP,TX,78702,,,CONTRACTOR,,,,,,,,,,,"KB HOME",,,,,"KB HOME","10800 PECAN PARK BLVD STE 200",AUSTIN,TX,78750-1249,"(512) 651-8100",,,,
TX,BASTROP,21-000448,"Single Family Homes",3/17/2021,,259110,2879,"1916 DRAGONFLY LOOP",BASTROP,TX,78702,,,CONTRACTOR,,,,,,,,,,,"KB HOME",,,,,"KB HOME","10800 PECAN PARK BLVD STE 200",AUSTIN,TX,78750-1249,"(512) 651-8100",,,,
TX,BASTROP,21-000449,"Single Family Homes",4/8/2021,,302940,3366,"314 NATURE WALK DR",BASTROP,TX,78702,,,CONTRACTOR,,,,,,,,,,,"KB HOME",,,,,"KB HOME","10800 PECAN PARK BLVD STE 200",AUSTIN,TX,78750-1249,"(512) 651-8100",,,,
TX,BASTROP,21-000451,"Single Family Homes",3/17/2021,,297900,3310,"1901 DRAGONFLY LOOP",BASTROP,TX,78702,,,CONTRACTOR,,,,,,,,,,,"KB HOME",,,,,"KB HOME","10800 PECAN PARK BLVD STE 200",AUSTIN,TX,78750-1249,"(512) 651-8100",,,,
TX,BASTROP,21-000452,"Single Family Homes",3/17/2021,,168030,1867,"1925 DRAGONFLY LOOP",BASTROP,TX,78702,,,CONTRACTOR,,,,,,,,,,,"KB HOME",,,,,"KB HOME","10800 PECAN PARK BLVD STE 200",AUSTIN,TX,78750-1249,"(512) 651-8100",,,,
TX,BASTROP,21-000453,"Single Family Homes",3/17/2021,,145145,2233,"124 TRAILSIDE LN",BASTROP,TX,78702,,,CONTRACTOR,,,,,,,,,,,"BROHN HOMES",,,,,"BROHN HOMES","6720 VAUGHT RANCH RD STE 200",AUSTIN,TX,78730-2354,"(512) 320-8833",http://brohnhomes.com/,,,
TX,BASTROP,21-000454,"Single Family Homes",3/29/2021,,80000,2086,"1006 MESQUITE ST",BASTROP,TX,78702,,,"BRIAN WASHINGTON","1006 MESQUITE ST",BASTROP,TX,78702,,Owner,,,,,OWNER,,,,,OWNER,,,,,,,,,
TX,BASTROP,21-000486,"Single Family Homes",4/8/2021,,139650,1862,"248 DRIFTWOOD LN",BASTROP,TX,78702,,,CONTRACTOR,,,,,,,,,,,"PACESETTER HOMES ",,,,,"PACESETTER HOMES ","7940 SHOAL CREEK BLVD STE 200",AUSTIN,TX,78757-7587,"(512) 323-5252",,,,
TX,BASTROP,21-000488,"Single Family Homes",4/8/2021,,158325,2111,"244 DRIFTWOOD LN",BASTROP,TX,78702,,,CONTRACTOR,,,,,,,,,,,"PACESETTER HOMES ",,,,,"PACESETTER HOMES ","7940 SHOAL CREEK BLVD STE 200",AUSTIN,TX,78757-7587,"(512) 323-5252",,,,
TX,BASTROP,21-000489,"Single Family Homes",3/16/2021,,86326,1683,"1303 NEWTON ST",BASTROP,TX,78702,,,"THOMAS JEFFERSON III","1303 NEWTON ST",BASTROP,TX,78702,,Owner,,,,,"BRIZO CONSTRUCTION",,,,,"BRIZO CONSTRUCTION","1908 AVENUE L","SANTA FE",TX,77510-8917,"(409) 316-4762",,,,
TX,BASTROP,21-000490,"Single Family Homes",4/8/2021,,209550,2794,"237 DRIFTWOOD LN",BASTROP,TX,78702,,,CONTRACTOR,,,,,,,,,,,"PACESETTER HOMES ",,,,,"PACESETTER HOMES ","7940 SHOAL CREEK BLVD STE 200",AUSTIN,TX,78757-7587,"(512) 323-5252",,,,
TX,BASTROP,21-000502,"Single Family Homes",4/8/2021,,209550,2794,"245 DRIFTWOOD LN",BASTROP,TX,78702,,,CONTRACTOR,,,,,,,,,,,"PACESETTER HOMES ",,,,,"PACESETTER HOMES ","7940 SHOAL CREEK BLVD STE 200",AUSTIN,TX,78757-7587,"(512) 323-5252",,,,
TX,BASTROP,21-000503,"Single Family Homes",4/8/2021,,209550,2794,"227 DRIFTWOOD LN",BASTROP,TX,78702,,,CONTRACTOR,,,,,,,,,,,"PACESETTER HOMES ",,,,,"PACESETTER HOMES ","7940 SHOAL CREEK BLVD STE 200",AUSTIN,TX,78757-7587,"(512) 323-5252",,,,
TX,BASTROP,21-000504,"Single Family Homes",4/8/2021,,186525,2487,"243 DRIFTWOOD LN",BASTROP,TX,78702,,,CONTRACTOR,,,,,,,,,,,"PACESETTER HOMES ",,,,,"PACESETTER HOMES ","7940 SHOAL CREEK BLVD STE 200",AUSTIN,TX,78757-7587,"(512) 323-5252",,,,
TX,BASTROP,21-000532,"Single Family Homes",3/16/2021,,151715,1597,"301 WATERCOURSE WAY",BASTROP,TX,78702,,,CONTRACTOR,,,,,,,,,,,"DREAM FINDERS HOMES",,,,,"DREAM FINDERS HOMES","13281 POND SPRINGS RD STE 110",AUSTIN,TX,78729,"(512) 535-4866",http://www.dreamfindershomes.com/,,,
TX,BASTROP,21-000533,"Single Family Homes",3/16/2021,,169005,1779,"305 WATERCOURSE WAY",BASTROP,TX,78702,,,CONTRACTOR,,,,,,,,,,,"DREAM FINDERS HOMES",,,,,"DREAM FINDERS HOMES","13281 POND SPRINGS RD STE 110",AUSTIN,TX,78729,"(512) 535-4866",http://www.dreamfindershomes.com/,,,
TX,BASTROP,21-000534,"Single Family Homes",3/16/2021,,216220,2276,"410 WATERCOURSE WAY",BASTROP,TX,78702,,,CONTRACTOR,,,,,,,,,,,"DREAM FINDERS HOMES",,,,,"DREAM FINDERS HOMES","13281 POND SPRINGS RD STE 110",AUSTIN,TX,78729,"(512) 535-4866",http://www.dreamfindershomes.com/,,,
TX,BASTROP,21-000535,"Single Family Homes",3/16/2021,,151715,1597,"108 COLD SPRING LOOP",BASTROP,TX,78702,,,CONTRACTOR,,,,,,,,,,,"DREAM FINDERS HOMES",,,,,"DREAM FINDERS HOMES","13281 POND SPRINGS RD STE 110",AUSTIN,TX,78729,"(512) 535-4866",http://www.dreamfindershomes.com/,,,
TX,BASTROP,21-000536,"Single Family Homes",3/16/2021,,151715,1597,"308 COLD SPRING LOOP",BASTROP,TX,78702,,,CONTRACTOR,,,,,,,,,,,"DREAM FINDERS HOMES",,,,,"DREAM FINDERS HOMES","13281 POND SPRINGS RD STE 110",AUSTIN,TX,78729,"(512) 535-4866",http://www.dreamfindershomes.com/,,,
TX,BASTROP,21-000537,"Single Family Homes",3/16/2021,,151715,1597,"311 COLD SPRING LOOP",BASTROP,TX,78702,,,CONTRACTOR,,,,,,,,,,,"DREAM FINDERS HOMES",,,,,"DREAM FINDERS HOMES","13281 POND SPRINGS RD STE 110",AUSTIN,TX,78729,"(512) 535-4866",http://www.dreamfindershomes.com/,,,
TX,BASTROP,21-000538,"Single Family Homes",3/16/2021,,159410,1678,"307 COLD SPRING LOOP",BASTROP,TX,78702,,,CONTRACTOR,,,,,,,,,,,"DREAM FINDERS HOMES",,,,,"DREAM FINDERS HOMES","13281 POND SPRINGS RD STE 110",AUSTIN,TX,78729,"(512) 535-4866",http://www.dreamfindershomes.com/,,,
TX,BASTROP,21-000539,"Single Family Homes",3/16/2021,,159410,1678,"207 WATERCOURSE WAY",BASTROP,TX,78702,,,CONTRACTOR,,,,,,,,,,,"DREAM FINDERS HOMES",,,,,"DREAM FINDERS HOMES","13281 POND SPRINGS RD STE 110",AUSTIN,TX,78729,"(512) 535-4866",http://www.dreamfindershomes.com/,,,
TX,BASTROP,21-000540,"Single Family Homes",3/16/2021,,159410,1678,"314 TRAILSIDE LN",BASTROP,TX,78702,,,CONTRACTOR,,,,,,,,,,,"DREAM FINDERS HOMES",,,,,"DREAM FINDERS HOMES","13281 POND SPRINGS RD STE 110",AUSTIN,TX,78729,"(512) 535-4866",http://www.dreamfindershomes.com/,,,
TX,BASTROP,21-000542,"Single Family Homes",3/16/2021,,167960,1768,"101 COLD SPRING LOOP",BASTROP,TX,78702,,,CONTRACTOR,,,,,,,,,,,"DREAM FINDERS HOMES",,,,,"DREAM FINDERS HOMES","13281 POND SPRINGS RD STE 110",AUSTIN,TX,78729,"(512) 535-4866",http://www.dreamfindershomes.com/,,,
TX,BASTROP,21-000543,"Single Family Homes",3/16/2021,,151715,1597,"113 COLD SPRING LOOP",BASTROP,TX,78702,,,CONTRACTOR,,,,,,,,,,,"DREAM FINDERS HOMES",,,,,"DREAM FINDERS HOMES","13281 POND SPRINGS RD STE 110",AUSTIN,TX,78729,"(512) 535-4866",http://www.dreamfindershomes.com/,,,
TX,BASTROP,21-000544,"Single Family Homes",3/16/2021,,167675,1765,"200 COLD SPRING LOOP",BASTROP,TX,78702,,,CONTRACTOR,,,,,,,,,,,"DREAM FINDERS HOMES",,,,,"DREAM FINDERS HOMES","13281 POND SPRINGS RD STE 110",AUSTIN,TX,78729,"(512) 535-4866",http://www.dreamfindershomes.com/,,,
TX,BASTROP,21-000545,"Single Family Homes",3/16/2021,,173280,1824,"202 COLD SPRING LOOP",BASTROP,TX,78702,,,CONTRACTOR,,,,,,,,,,,"DREAM FINDERS HOMES",,,,,"DREAM FINDERS HOMES","13281 POND SPRINGS RD STE 110",AUSTIN,TX,78729,"(512) 535-4866",http://www.dreamfindershomes.com/,,,
TX,BASTROP,21-000546,"Single Family Homes",3/16/2021,,159410,1678,"204 COLD SPRING LOOP",BASTROP,TX,78702,,,CONTRACTOR,,,,,,,,,,,"DREAM FINDERS HOMES",,,,,"DREAM FINDERS HOMES","13281 POND SPRINGS RD STE 110",AUSTIN,TX,78729,"(512) 535-4866",http://www.dreamfindershomes.com/,,,
TX,BASTROP,21-000547,"Single Family Homes",3/16/2021,,151715,1597,"103 COLD SPRING LOOP",BASTROP,TX,78702,,,CONTRACTOR,,,,,,,,,,,"DREAM FINDERS HOMES",,,,,"DREAM FINDERS HOMES","13281 POND SPRINGS RD STE 110",AUSTIN,TX,78729,"(512) 535-4866",http://www.dreamfindershomes.com/,,,
TX,BASTROP,21-000548,"Single Family Homes",3/16/2021,,151715,1597,"208 COLD SPRING LOOP",BASTROP,TX,78702,,,CONTRACTOR,,,,,,,,,,,"DREAM FINDERS HOMES",,,,,"DREAM FINDERS HOMES","13281 POND SPRINGS RD STE 110",AUSTIN,TX,78729,"(512) 535-4866",http://www.dreamfindershomes.com/,,,
TX,BASTROP,21-000549,"Single Family Homes",3/16/2021,,169005,1779,"212 COLD SPRING LOOP",BASTROP,TX,78702,,,CONTRACTOR,,,,,,,,,,,"DREAM FINDERS HOMES",,,,,"DREAM FINDERS HOMES","13281 POND SPRINGS RD STE 110",AUSTIN,TX,78729,"(512) 535-4866",http://www.dreamfindershomes.com/,,,
TX,BASTROP,21-000550,"Single Family Homes",3/16/2021,,151715,1597,"303 COLD SPRING LOOP",BASTROP,TX,78702,,,CONTRACTOR,,,,,,,,,,,"DREAM FINDERS HOMES",,,,,"DREAM FINDERS HOMES","13281 POND SPRINGS RD STE 110",AUSTIN,TX,78729,"(512) 535-4866",http://www.dreamfindershomes.com/,,,
TX,BASTROP,21-000551,"Single Family Homes",3/16/2021,,164540,1732,"205 WATERCOURSE WAY",BASTROP,TX,78702,,,CONTRACTOR,,,,,,,,,,,"DREAM FINDERS HOMES",,,,,"DREAM FINDERS HOMES","13281 POND SPRINGS RD STE 110",AUSTIN,TX,78729,"(512) 535-4866",http://www.dreamfindershomes.com/,,,
TX,BASTROP,21-000552,"Single Family Homes",3/16/2021,,159410,1678,"111 COLD SPRING LOOP",BASTROP,TX,78702,,,CONTRACTOR,,,,,,,,,,,"DREAM FINDERS HOMES",,,,,"DREAM FINDERS HOMES","13281 POND SPRINGS RD STE 110",AUSTIN,TX,78729,"(512) 535-4866",http://www.dreamfindershomes.com/,,,
TX,BASTROP,21-000553,"Single Family Homes",3/16/2021,,212040,2232,"302 WATERCOURSE WAY",BASTROP,TX,78702,,,CONTRACTOR,,,,,,,,,,,"DREAM FINDERS HOMES",,,,,"DREAM FINDERS HOMES","13281 POND SPRINGS RD STE 110",AUSTIN,TX,78729,"(512) 535-4866",http://www.dreamfindershomes.com/,,,
TX,BASTROP,21-000554,"Single Family Homes",3/16/2021,,161595,1701,"304 COLD SPRING LOOP",BASTROP,TX,78702,,,CONTRACTOR,,,,,,,,,,,"DREAM FINDERS HOMES",,,,,"DREAM FINDERS HOMES","13281 POND SPRINGS RD STE 110",AUSTIN,TX,78729,"(512) 535-4866",http://www.dreamfindershomes.com/,,,
TX,BASTROP,21-000555,"Single Family Homes",3/16/2021,,173280,1824,"306 WATERCOURSE WAY",BASTROP,TX,78702,,,CONTRACTOR,,,,,,,,,,,"DREAM FINDERS HOMES",,,,,"DREAM FINDERS HOMES","13281 POND SPRINGS RD STE 110",AUSTIN,TX,78729,"(512) 535-4866",http://www.dreamfindershomes.com/,,,
TX,BASTROP,21-000556,"Single Family Homes",3/16/2021,,159410,1678,"304 WATERCOURSE WAY",BASTROP,TX,78702,,,CONTRACTOR,,,,,,,,,,,"DREAM FINDERS HOMES",,,,,"DREAM FINDERS HOMES","13281 POND SPRINGS RD STE 110",AUSTIN,TX,78729,"(512) 535-4866",http://www.dreamfindershomes.com/,,,
TX,BASTROP,21-000557,"Single Family Homes",3/16/2021,,151715,1597,"407 WATERCOURSE WAY",BASTROP,TX,78702,,,CONTRACTOR,,,,,,,,,,,"DREAM FINDERS HOMES",,,,,"DREAM FINDERS HOMES","13281 POND SPRINGS RD STE 110",AUSTIN,TX,78729,"(512) 535-4866",http://www.dreamfindershomes.com/,,,
TX,BASTROP,21-000562,"Single Family Homes",3/16/2021,,155850,2078,"121 OXBOW TERRACE",BASTROP,TX,78702,,,CONTRACTOR,,,,,,,,,,,"DR HORTON",,,,,"DR HORTON","10700 PECAN PARK BLVD STE 400",AUSTIN,TX,78750-1227,"(512) 345-4663",,,,
TX,BASTROP,21-000564,"Single Family Homes",3/16/2021,,229425,3059,"110 OXBOW TERRACE",BASTROP,TX,78702,,,CONTRACTOR,,,,,,,,,,,"DR HORTON",,,,,"DR HORTON","10700 PECAN PARK BLVD STE 400",AUSTIN,TX,78750-1227,"(512) 345-4663",,,,
TX,BASTROP,21-000565,"Single Family Homes",3/16/2021,,151650,2022,"103 OXBOW TERRACE",BASTROP,TX,78702,,,CONTRACTOR,,,,,,,,,,,"DR HORTON",,,,,"DR HORTON","10700 PECAN PARK BLVD STE 400",AUSTIN,TX,78750-1227,"(512) 345-4663",,,,
TX,BASTROP,21-000566,"Single Family Homes",3/16/2021,,229425,3059,"105 OXBOW TERRACE",BASTROP,TX,78702,,,CONTRACTOR,,,,,,,,,,,"DR HORTON",,,,,"DR HORTON","10700 PECAN PARK BLVD STE 400",AUSTIN,TX,78750-1227,"(512) 345-4663",,,,
TX,BASTROP,21-000567,"Single Family Homes",3/16/2021,,152550,2034,"107 OXBOW TERRACE",BASTROP,TX,78702,,,CONTRACTOR,,,,,,,,,,,"DR HORTON",,,,,"DR HORTON","10700 PECAN PARK BLVD STE 400",AUSTIN,TX,78750-1227,"(512) 345-4663",,,,
TX,BASTROP,21-000568,"Single Family Homes",3/16/2021,,229425,3059,"102 OXBOW TERRACE",BASTROP,TX,78702,,,CONTRACTOR,,,,,,,,,,,"DR HORTON",,,,,"DR HORTON","10700 PECAN PARK BLVD STE 400",AUSTIN,TX,78750-1227,"(512) 345-4663",,,,
TX,BASTROP,21-000570,"Single Family Homes",3/16/2021,,152550,2034,"101 OXBOW TERRACE",BASTROP,TX,78702,,,CONTRACTOR,,,,,,,,,,,"DR HORTON",,,,,"DR HORTON","10700 PECAN PARK BLVD STE 400",AUSTIN,TX,78750-1227,"(512) 345-4663",,,,
TX,BASTROP,21-000571,"Single Family Homes",3/16/2021,,156750,2090,"122 MARINERS LANDING",BASTROP,TX,78702,,,CONTRACTOR,,,,,,,,,,,"DR HORTON",,,,,"DR HORTON","10700 PECAN PARK BLVD STE 400",AUSTIN,TX,78750-1227,"(512) 345-4663",,,,
TX,BASTROP,21-000572,"Single Family Homes",3/16/2021,,174075,2321,"120 MARINERS LANDING",BASTROP,TX,78702,,,CONTRACTOR,,,,,,,,,,,"DR HORTON",,,,,"DR HORTON","10700 PECAN PARK BLVD STE 400",AUSTIN,TX,78750-1227,"(512) 345-4663",,,,
TX,BASTROP,21-000573,"Single Family Homes",3/16/2021,,179100,2388,"409 RAINMAKER LN",BASTROP,TX,78702,,,CONTRACTOR,,,,,,,,,,,"DR HORTON",,,,,"DR HORTON","10700 PECAN PARK BLVD STE 400",AUSTIN,TX,78750-1227,"(512) 345-4663",,,,
TX,BASTROP,21-000574,"Single Family Homes",3/16/2021,,187050,2494,"407 RAINMAKER LN",BASTROP,TX,78702,,,CONTRACTOR,,,,,,,,,,,"DR HORTON",,,,,"DR HORTON","10700 PECAN PARK BLVD STE 400",AUSTIN,TX,78750-1227,"(512) 345-4663",,,,
TX,BASTROP,21-000575,"Single Family Homes",3/16/2021,,190800,2544,"402 RAINMAKER LN",BASTROP,TX,78702,,,CONTRACTOR,,,,,,,,,,,"DR HORTON",,,,,"DR HORTON","10700 PECAN PARK BLVD STE 400",AUSTIN,TX,78750-1227,"(512) 345-4663",,,,
TX,BASTROP,21-000576,"Single Family Homes",3/16/2021,,215100,2868,"403 RAINMAKER LN",BASTROP,TX,78702,,,CONTRACTOR,,,,,,,,,,,"DR HORTON",,,,,"DR HORTON","10700 PECAN PARK BLVD STE 400",AUSTIN,TX,78750-1227,"(512) 345-4663",,,,
TX,BASTROP,21-000577,"Single Family Homes",3/16/2021,,187050,2494,"213 RAINMAKER LN",BASTROP,TX,78702,,,CONTRACTOR,,,,,,,,,,,"DR HORTON",,,,,"DR HORTON","10700 PECAN PARK BLVD STE 400",AUSTIN,TX,78750-1227,"(512) 345-4663",,,,
TX,BASTROP,21-000578,"Single Family Homes",3/16/2021,,188925,2519,"408 RAINMAKER LN",BASTROP,TX,78702,,,CONTRACTOR,,,,,,,,,,,"DR HORTON",,,,,"DR HORTON","10700 PECAN PARK BLVD STE 400",AUSTIN,TX,78750-1227,"(512) 345-4663",,,,
TX,BASTROP,21-000579,"Single Family Homes",3/16/2021,,232575,3101,"207 RAINMAKER LN",BASTROP,TX,78702,,,CONTRACTOR,,,,,,,,,,,"DR HORTON",,,,,"DR HORTON","10700 PECAN PARK BLVD STE 400",AUSTIN,TX,78750-1227,"(512) 345-4663",,,,
TX,BASTROP,21-000580,"Single Family Homes",3/15/2021,,215100,2868,"205 RAINMAKER LN",BASTROP,TX,78702,,,CONTRACTOR,,,,,,,,,,,"DR HORTON",,,,,"DR HORTON","10700 PECAN PARK BLVD STE 400",AUSTIN,TX,78750-1227,"(512) 345-4663",,,,
TX,BASTROP,21-000581,"Single Family Homes",3/16/2021,,188925,2519,"405 RAINMAKER LN",BASTROP,TX,78702,,,CONTRACTOR,,,,,,,,,,,"DR HORTON",,,,,"DR HORTON","10700 PECAN PARK BLVD STE 400",AUSTIN,TX,78750-1227,"(512) 345-4663",,,,
TX,BASTROP,21-000582,"Single Family Homes",3/16/2021,,230100,3068,"203 RAINMAKER LN",BASTROP,TX,78702,,,CONTRACTOR,,,,,,,,,,,"DR HORTON",,,,,"DR HORTON","10700 PECAN PARK BLVD STE 400",AUSTIN,TX,78750-1227,"(512) 345-4663",,,,
TX,BASTROP,21-000588,"Single Family Homes",3/16/2021,,145925,2245,"116 CROOKED TRL",BASTROP,TX,78702,,,CONTRACTOR,,,,,,,,,,,"BROHN HOMES",,,,,"BROHN HOMES","6720 VAUGHT RANCH RD STE 200",AUSTIN,TX,78730-2354,"(512) 320-8833",http://brohnhomes.com/,,,
TX,BASTROP,21-000589,"Single Family Homes",3/16/2021,,135330,2082,"114 CROOKED TRL",BASTROP,TX,78702,,,CONTRACTOR,,,,,,,,,,,"BROHN HOMES",,,,,"BROHN HOMES","6720 VAUGHT RANCH RD STE 200",AUSTIN,TX,78730-2354,"(512) 320-8833",http://brohnhomes.com/,,,
TX,BASTROP,21-000590,"Single Family Homes",3/16/2021,,141050,2170,"229 TRAILSIDE LN",BASTROP,TX,78702,,,CONTRACTOR,,,,,,,,,,,"BROHN HOMES",,,,,"BROHN HOMES","6720 VAUGHT RANCH RD STE 200",AUSTIN,TX,78730-2354,"(512) 320-8833",http://brohnhomes.com/,,,
TX,BASTROP,21-000591,"Single Family Homes",3/16/2021,,141050,2170,"212 TRAILSIDE LN",BASTROP,TX,78702,,,CONTRACTOR,,,,,,,,,,,"BROHN HOMES",,,,,"BROHN HOMES","6720 VAUGHT RANCH RD STE 200",AUSTIN,TX,78730-2354,"(512) 320-8833",http://brohnhomes.com/,,,
TX,BASTROP,21-000592,"Single Family Homes",3/16/2021,,149305,2297,"245 TRAILSIDE LN",BASTROP,TX,78702,,,CONTRACTOR,,,,,,,,,,,"BROHN HOMES",,,,,"BROHN HOMES","6720 VAUGHT RANCH RD STE 200",AUSTIN,TX,78730-2354,"(512) 320-8833",http://brohnhomes.com/,,,
TX,BASTROP,21-000593,"Single Family Homes",3/16/2021,,119860,1844,"112 CROOKED TRL",BASTROP,TX,78702,,,CONTRACTOR,,,,,,,,,,,"BROHN HOMES",,,,,"BROHN HOMES","6720 VAUGHT RANCH RD STE 200",AUSTIN,TX,78730-2354,"(512) 320-8833",http://brohnhomes.com/,,,
TX,BASTROP,21-000594,"Single Family Homes",3/16/2021,,151710,2334,"233 TRAILSIDE LN",BASTROP,TX,78702,,,CONTRACTOR,,,,,,,,,,,"BROHN HOMES",,,,,"BROHN HOMES","6720 VAUGHT RANCH RD STE 200",AUSTIN,TX,78730-2354,"(512) 320-8833",http://brohnhomes.com/,,,
TX,BASTROP,21-000595,"Single Family Homes",3/16/2021,,147615,2271,"223 TRAILSIDE LN",BASTROP,TX,78702,,,CONTRACTOR,,,,,,,,,,,"BROHN HOMES",,,,,"BROHN HOMES","6720 VAUGHT RANCH RD STE 200",AUSTIN,TX,78730-2354,"(512) 320-8833",http://brohnhomes.com/,,,
TX,BASTROP,21-000600,"Single Family Homes",3/16/2021,,161595,1701,"206 COLD SPRING LOOP",BASTROP,TX,78702,,,CONTRACTOR,,,,,,,,,,,"DREAM FINDERS HOMES",,,,,"DREAM FINDERS HOMES","13281 POND SPRINGS RD STE 110",AUSTIN,TX,78729,"(512) 535-4866",http://www.dreamfindershomes.com/,,,
TX,BASTROP,21-000601,"Single Family Homes",3/16/2021,,159410,1678,"305 COLD SPRING LOOP",BASTROP,TX,78702,,,CONTRACTOR,,,,,,,,,,,"DREAM FINDERS HOMES",,,,,"DREAM FINDERS HOMES","13281 POND SPRINGS RD STE 110",AUSTIN,TX,78729,"(512) 535-4866",http://www.dreamfindershomes.com/,,,
TX,BASTROP,21-000602,"Single Family Homes",3/16/2021,,159410,1678,"310 COLD SPRING LOOP",BASTROP,TX,78702,,,CONTRACTOR,,,,,,,,,,,"DREAM FINDERS HOMES",,,,,"DREAM FINDERS HOMES","13281 POND SPRINGS RD STE 110",AUSTIN,TX,78729,"(512) 535-4866",http://www.dreamfindershomes.com/,,,
TX,TRAVIS,21-53426,"Single Family Homes",3/2/2021,,372990,2572,"6409 FOLSOM AVE",PFLUGERVILLE,TX,78602,,,CONTRACTOR,,,,,,,,,,,"PULTE HOMES",,,,,"PULTE HOMES","9401 AMBERGLEN BLVD STE I-150",AUSTIN,TX,78729-1154,"(512) 561-4344",,,,
TX,TRAVIS,21-53432,"Single Family Homes",3/21/2021,,149850,1447,"3205 DUSTED DAISY ST",PFLUGERVILLE,TX,78860,,,CONTRACTOR,,,,,,,,,,,"LENNAR HOMES",,,,,"LENNAR HOMES","13620 FM 620 RD 150",AUSTIN,TX,78717,"(512) 506-4000",http://www.lennar.com/,,,
TX,TRAVIS,21-53477,"Single Family Homes",3/21/2021,,162975,1645,"3213 DUSTED DAISY ST",PFLUGERVILLE,TX,78860,,,CONTRACTOR,,,,,,,,,,,"LENNAR HOMES",,,,,"LENNAR HOMES","13620 FM 620 RD 150",AUSTIN,TX,78717,"(512) 506-4000",http://www.lennar.com/,,,
TX,TRAVIS,21-53865,"Single Family Homes",3/14/2021,,137700,1620,"6205 PRINCIPALE DR",PFLUGERVILLE,TX,78860,,,CONTRACTOR,,,,,,,,,,,"PACESETTER HOMES ",,,,,"PACESETTER HOMES ","7940 SHOAL CREEK BLVD STE 200",AUSTIN,TX,78757-7587,"(512) 323-5252",,,,
TX,TRAVIS,21-53890,"Single Family Homes",3/7/2021,,301990,2124,"17500 BAY SKIPPER DR",PFLUGERVILLE,TX,78860,,,CONTRACTOR,,,,,,,,,,,"GEHAN HOMES",,,,,"GEHAN HOMES","3815 S CAPITAL OF TEXAS HWY STE 275",AUSTIN,TX,78704-6652,"(512) 330-9366",http://www.gehanhomes.com,,"JANET PHILLIPS",
TX,TRAVIS,21-53894,"Single Family Homes",3/7/2021,,301990,2124,"17502 BAY SKIPPER DR",PFLUGERVILLE,TX,78860,,,CONTRACTOR,,,,,,,,,,,"GEHAN HOMES",,,,,"GEHAN HOMES","3815 S CAPITAL OF TEXAS HWY STE 275",AUSTIN,TX,78704-6652,"(512) 330-9366",http://www.gehanhomes.com,,"JANET PHILLIPS",
TX,TRAVIS,21-53972,"Single Family Homes",3/14/2021,,484570,4668,"3400 FINNY LN",PFLUGERVILLE,TX,78860,,,CONTRACTOR,,,,,,,,,,,"MHI MCGUYER HOMEBUILDERS",,,,,"MHI MCGUYER HOMEBUILDERS","8200 N MO PAC EXPY STE 300",AUSTIN,TX,78759-8844,"(512) 502-2050",,"(512) 388-1836","FRANK MCGUYER",
TX,TRAVIS,21-54042,"Single Family Homes",3/14/2021,,534990,3544,"17509 CHINO LN",PFLUGERVILLE,TX,78860,,,CONTRACTOR,,,,,,,,,,,"GEHAN HOMES",,,,,"GEHAN HOMES","3815 S CAPITAL OF TEXAS HWY STE 275",AUSTIN,TX,78704-6652,"(512) 330-9366",http://www.gehanhomes.com,,"JANET PHILLIPS",
TX,TRAVIS,21-54149,"Single Family Homes",3/14/2021,,339990,2124,"601A DUSKY SAP LN",PFLUGERVILLE,TX,78860,,,CONTRACTOR,,,,,,,,,,,"GEHAN HOMES",,,,,"GEHAN HOMES","3815 S CAPITAL OF TEXAS HWY STE 275",AUSTIN,TX,78704-6652,"(512) 330-9366",http://www.gehanhomes.com,,"JANET PHILLIPS",
TX,TRAVIS,21-54151,"Single Family Homes",3/14/2021,,314990,1729,"601B DUSKY SAP LN",PFLUGERVILLE,TX,78860,,,CONTRACTOR,,,,,,,,,,,"GEHAN HOMES",,,,,"GEHAN HOMES","3815 S CAPITAL OF TEXAS HWY STE 275",AUSTIN,TX,78704-6652,"(512) 330-9366",http://www.gehanhomes.com,,"JANET PHILLIPS",
TX,TRAVIS,21-54153,"Single Family Homes",3/14/2021,,314990,1712,"601C DUSKY SAP LN",PFLUGERVILLE,TX,78860,,,CONTRACTOR,,,,,,,,,,,"GEHAN HOMES",,,,,"GEHAN HOMES","3815 S CAPITAL OF TEXAS HWY STE 275",AUSTIN,TX,78704-6652,"(512) 330-9366",http://www.gehanhomes.com,,"JANET PHILLIPS",
TX,TRAVIS,21-54155,"Single Family Homes",3/14/2021,,338990,2124,"601D DUSKY SAP LN",PFLUGERVILLE,TX,78860,,,CONTRACTOR,,,,,,,,,,,"GEHAN HOMES",,,,,"GEHAN HOMES","3815 S CAPITAL OF TEXAS HWY STE 275",AUSTIN,TX,78704-6652,"(512) 330-9366",http://www.gehanhomes.com,,"JANET PHILLIPS",
TX,TRAVIS,21-53392,"Single Family Homes",3/24/2021,,162975,1645,"3305 ANCIRA",PFLUGERVILLE,TX,78860,,,CONTRACTOR,,,,,,,,,,,"LENNAR HOMES",,,,,"LENNAR HOMES","13620 FM 620 RD 150",AUSTIN,TX,78717,"(512) 506-4000",http://www.lennar.com/,,,
TX,TRAVIS,21-53470,"Single Family Homes",3/24/2021,,149850,1447,"3301 ANCIRA",PFLUGERVILLE,TX,78860,,,CONTRACTOR,,,,,,,,,,,"LENNAR HOMES",,,,,"LENNAR HOMES","13620 FM 620 RD 150",AUSTIN,TX,78717,"(512) 506-4000",http://www.lennar.com/,,,
TX,TRAVIS,21-53471,"Single Family Homes",3/21/2021,,149850,1447,"3208 ANCIRA",PFLUGERVILLE,TX,78860,,,CONTRACTOR,,,,,,,,,,,"LENNAR HOMES",,,,,"LENNAR HOMES","13620 FM 620 RD 150",AUSTIN,TX,78717,"(512) 506-4000",http://www.lennar.com/,,,
TX,TRAVIS,21-53558,"Single Family Homes",3/1/2021,,302700,2856,"16204 MARCELLO DR",PFLUGERVILLE,TX,78860,,,CONTRACTOR,,,,,,,,,,,"DR HORTON",,,,,"DR HORTON","10700 PECAN PARK BLVD STE 400",AUSTIN,TX,78750-1227,"(512) 345-4663",,,,
TX,TRAVIS,21-53669,"Single Family Homes",3/30/2021,,318456,2927,"3508 CLAFLIN ST",PFLUGERVILLE,TX,78860,,,CONTRACTOR,,,,,,,,,,,"MHI MCGUYER HOMEBUILDERS",,,,,"MHI MCGUYER HOMEBUILDERS","8200 N MO PAC EXPY STE 300",AUSTIN,TX,78759-8844,"(512) 502-2050",,"(512) 388-1836","FRANK MCGUYER",
TX,TRAVIS,21-53675,"Single Family Homes",3/21/2021,,177750,1815,"21614 WILMILLER LN",PFLUGERVILLE,TX,78860,,,CONTRACTOR,,,,,,,,,,,"LENNAR HOMES",,,,,"LENNAR HOMES","13620 FM 620 RD 150",AUSTIN,TX,78717,"(512) 506-4000",http://www.lennar.com/,,,
TX,TRAVIS,21-53676,"Single Family Homes",3/21/2021,,200775,,"21700 WILMILLER LN",PFLUGERVILLE,TX,78860,,,CONTRACTOR,,,,,,,,,,,"LENNAR HOMES",,,,,"LENNAR HOMES","13620 FM 620 RD 150",AUSTIN,TX,78717,"(512) 506-4000",http://www.lennar.com/,,,
TX,TRAVIS,21-53677,"Single Family Homes",3/21/2021,,418802,4374,"3608 FINNY LN",PFLUGERVILLE,TX,78860,,,CONTRACTOR,,,,,,,,,,,"MHI MCGUYER HOMEBUILDERS",,,,,"MHI MCGUYER HOMEBUILDERS","8200 N MO PAC EXPY STE 300",AUSTIN,TX,78759-8844,"(512) 502-2050",,"(512) 388-1836","FRANK MCGUYER",
TX,TRAVIS,21-53678,"Single Family Homes",3/21/2021,,360978,4537,"19908 EIRE DR",PFLUGERVILLE,TX,78860,,,CONTRACTOR,,,,,,,,,,,"MHI MCGUYER HOMEBUILDERS",,,,,"MHI MCGUYER HOMEBUILDERS","8200 N MO PAC EXPY STE 300",AUSTIN,TX,78759-8844,"(512) 502-2050",,"(512) 388-1836","FRANK MCGUYER",
TX,TRAVIS,21-53692,"Single Family Homes",3/21/2021,,190425,2022,"21704 WILMILLER LN",PFLUGERVILLE,TX,78860,,,CONTRACTOR,,,,,,,,,,,"LENNAR HOMES",,,,,"LENNAR HOMES","13620 FM 620 RD 150",AUSTIN,TX,78717,"(512) 506-4000",http://www.lennar.com/,,,
TX,TRAVIS,21-53693,"Single Family Homes",3/21/2021,,149850,1447,"21708 WILMILLER LN",PFLUGERVILLE,TX,78860,,,CONTRACTOR,,,,,,,,,,,"LENNAR HOMES",,,,,"LENNAR HOMES","13620 FM 620 RD 150",AUSTIN,TX,78717,"(512) 506-4000",http://www.lennar.com/,,,
TX,TRAVIS,21-53694,"Single Family Homes",3/21/2021,,138525,1312,"21712 WILMILLER LN",PFLUGERVILLE,TX,78860,,,CONTRACTOR,,,,,,,,,,,"LENNAR HOMES",,,,,"LENNAR HOMES","13620 FM 620 RD 150",AUSTIN,TX,78717,"(512) 506-4000",http://www.lennar.com/,,,
TX,TRAVIS,21-53828,"Single Family Homes",3/2/2021,,160930,2926,"20209 CRESTED CARACARA LN",PFLUGERVILLE,TX,78860,,,CONTRACTOR,,,,,,,,,,,"SCOTT FELDER HOMES",,,,,"SCOTT FELDER HOMES","6414 RIVER PLACE BLVD STE 100",AUSTIN,TX,78730-1158,"(512) 418-5400",,,,
TX,TRAVIS,21-53838,"Single Family Homes",3/2/2021,,299990,2109,"20925 CLAIRE JEAN PATH",PFLUGERVILLE,TX,78860,,,CONTRACTOR,,,,,,,,,,,"CHESMAR HOMES",,,,,"CHESMAR HOMES","2900 N QUINLAN PARK RD",AUSTIN,TX,78732-6083,"(512) 233-9016",http://chesmar.com,,,
TX,TRAVIS,21-53859,"Single Family Homes",3/24/2021,,181305,2133,"6003 PRINCIPALE DR",PFLUGERVILLE,TX,78860,,,CONTRACTOR,,,,,,,,,,,"PACESETTER HOMES ",,,,,"PACESETTER HOMES ","7940 SHOAL CREEK BLVD STE 200",AUSTIN,TX,78757-7587,"(512) 323-5252",,,,
TX,TRAVIS,21-53860,"Single Family Homes",3/14/2021,,181305,2133,"5801 PRINCIPALE DR",PFLUGERVILLE,TX,78860,,,CONTRACTOR,,,,,,,,,,,"PACESETTER HOMES ",,,,,"PACESETTER HOMES ","7940 SHOAL CREEK BLVD STE 200",AUSTIN,TX,78757-7587,"(512) 323-5252",,,,
TX,TRAVIS,21-53862,"Single Family Homes",3/14/2021,,137700,1620,"6005 PRINCIPALE DR",PFLUGERVILLE,TX,78860,,,CONTRACTOR,,,,,,,,,,,"PACESETTER HOMES ",,,,,"PACESETTER HOMES ","7940 SHOAL CREEK BLVD STE 200",AUSTIN,TX,78757-7587,"(512) 323-5252",,,,
TX,TRAVIS,21-53866,"Single Family Homes",3/7/2021,,138525,1847,"3305 DUSTED DAISEY ST",PFLUGERVILLE,TX,78860,,,CONTRACTOR,,,,,,,,,,,"LENNAR HOMES",,,,,"LENNAR HOMES","13620 FM 620 RD 150",AUSTIN,TX,78717,"(512) 506-4000",http://www.lennar.com/,,,
TX,TRAVIS,21-53868,"Single Family Homes",3/10/2021,,411142,2840,"4432 MANDALIN ST",PFLUGERVILLE,TX,78860,,,CONTRACTOR,,,,,,,,,,,"EHT OF TEXAS LP",,,,,"EHT OF TEXAS LP","3520 EXECUTIVE CENTER DR STE 100",AUSTIN,TX,78731-1636,"(757) 287-6394",,,,
TX,TRAVIS,21-53872,"Single Family Homes",3/2/2021,,305990,2341,"20909 CLAIRE JEAN PATH",PFLUGERVILLE,TX,78860,,,CONTRACTOR,,,,,,,,,,,"CHESMAR HOMES",,,,,"CHESMAR HOMES","2900 N QUINLAN PARK RD",AUSTIN,TX,78732-6083,"(512) 233-9016",http://chesmar.com,,,
TX,TRAVIS,21-53889,"Single Family Homes",3/22/2021,,127500,1190,"17925 ORCHIDEA WAY",PFLUGERVILLE,TX,78860,,,CONTRACTOR,,,,,,,,,,,"PACESETTER HOMES ",,,,,"PACESETTER HOMES ","7940 SHOAL CREEK BLVD STE 200",AUSTIN,TX,78757-7587,"(512) 323-5252",,,,
TX,TRAVIS,21-53932,"Single Family Homes",3/14/2021,,280814,2976,"19316 CHAYTON CIRCLE",PFLUGERVILLE,TX,78860,,,CONTRACTOR,,,,,,,,,,,"MHI MCGUYER HOMEBUILDERS",,,,,"MHI MCGUYER HOMEBUILDERS","8200 N MO PAC EXPY STE 300",AUSTIN,TX,78759-8844,"(512) 502-2050",,"(512) 388-1836","FRANK MCGUYER",
TX,TRAVIS,21-53935,"Single Family Homes",3/14/2021,,188475,1966,"3309 DUSTED DAISEY ST",PFLUGERVILLE,TX,78860,,,CONTRACTOR,,,,,,,,,,,"LENNAR HOMES",,,,,"LENNAR HOMES","13620 FM 620 RD 150",AUSTIN,TX,78717,"(512) 506-4000",http://www.lennar.com/,,,
TX,TRAVIS,21-53939,"Single Family Homes",3/7/2021,,224730,4086,"20108 TALON GRASP TRL",PFLUGERVILLE,TX,78860,,,CONTRACTOR,,,,,,,,,,,"SCOTT FELDER HOMES",,,,,"SCOTT FELDER HOMES","6414 RIVER PLACE BLVD STE 100",AUSTIN,TX,78730-1158,"(512) 418-5400",,,,
TX,TRAVIS,21-53954,"Single Family Homes",3/7/2021,,347301,2222,"4401 ORYX LN",PFLUGERVILLE,TX,78860,,,CONTRACTOR,,,,,,,,,,,"EHT OF TEXAS LP",,,,,"EHT OF TEXAS LP","3520 EXECUTIVE CENTER DR STE 100",AUSTIN,TX,78731-1636,"(757) 287-6394",,,,
TX,TRAVIS,21-53955,"Single Family Homes",3/7/2021,,414062,2852,"4409 MANDALIN ST",PFLUGERVILLE,TX,78860,,,CONTRACTOR,,,,,,,,,,,"EHT OF TEXAS LP",,,,,"EHT OF TEXAS LP","3520 EXECUTIVE CENTER DR STE 100",AUSTIN,TX,78731-1636,"(757) 287-6394",,,,
TX,TRAVIS,21-53957,"Single Family Homes",3/28/2021,,204525,2133,"5915 PRINCIPALE DR",PFLUGERVILLE,TX,78860,,,CONTRACTOR,,,,,,,,,,,"PACESETTER HOMES ",,,,,"PACESETTER HOMES ","7940 SHOAL CREEK BLVD STE 200",AUSTIN,TX,78757-7587,"(512) 323-5252",,,,
TX,TRAVIS,21-53958,"Single Family Homes",3/7/2021,,349938,1988,"20909 CARRIES RANCH RD",PFLUGERVILLE,TX,78860,,,CONTRACTOR,,,,,,,,,,,"EHT OF TEXAS LP",,,,,"EHT OF TEXAS LP","3520 EXECUTIVE CENTER DR STE 100",AUSTIN,TX,78731-1636,"(757) 287-6394",,,,
TX,TRAVIS,21-53959,"Single Family Homes",3/7/2021,,340174,2326,"20900 CARRIES RANCH RD",PFLUGERVILLE,TX,78860,,,CONTRACTOR,,,,,,,,,,,"EHT OF TEXAS LP",,,,,"EHT OF TEXAS LP","3520 EXECUTIVE CENTER DR STE 100",AUSTIN,TX,78731-1636,"(757) 287-6394",,,,
TX,TRAVIS,21-53973,"Single Family Homes",3/7/2021,,332796,2197,"4424 MANDALIN ST",PFLUGERVILLE,TX,78860,,,CONTRACTOR,,,,,,,,,,,"EHT OF TEXAS LP",,,,,"EHT OF TEXAS LP","3520 EXECUTIVE CENTER DR STE 100",AUSTIN,TX,78731-1636,"(757) 287-6394",,,,
TX,TRAVIS,21-53978,"Single Family Homes",3/11/2021,,190000,2942,"4011 BIRDWATCH LP",PFLUGERVILLE,TX,78860,,,CONTRACTOR,,,,,,,,,,,"BLACKBURN COMMUNITIES",,,,,"BLACKBURN COMMUNITIES","301 BRUSHY CREEK RD STE 108",PFLUGERVILLE,TX,78613,"(512) 401-3205",https://www.blackburnhomes.com/,,,info@blackburnhomes.com
TX,TRAVIS,21-53979,"Single Family Homes",3/2/2021,,190000,2559,"4103 BIRDWATCH",PFLUGERVILLE,TX,78860,,,CONTRACTOR,,,,,,,,,,,"BLACKBURN COMMUNITIES",,,,,"BLACKBURN COMMUNITIES","301 BRUSHY CREEK RD STE 108",PFLUGERVILLE,TX,78613,"(512) 401-3205",https://www.blackburnhomes.com/,,,info@blackburnhomes.com
TX,TRAVIS,21-53986,"Single Family Homes",3/7/2021,,397905,2748,"20933 BROOKLYNN MELISSA DR",PFLUGERVILLE,TX,78860,,,CONTRACTOR,,,,,,,,,,,"EHT OF TEXAS LP",,,,,"EHT OF TEXAS LP","3520 EXECUTIVE CENTER DR STE 100",AUSTIN,TX,78731-1636,"(757) 287-6394",,,,
TX,TRAVIS,21-53988,"Single Family Homes",3/12/2021,,382905,2929,"4413 ORYX LN",PFLUGERVILLE,TX,78860,,,CONTRACTOR,,,,,,,,,,,"EHT OF TEXAS LP",,,,,"EHT OF TEXAS LP","3520 EXECUTIVE CENTER DR STE 100",AUSTIN,TX,78731-1636,"(757) 287-6394",,,,
TX,TRAVIS,21-54005,"Single Family Homes",3/14/2021,,539950,3913,"20701 CHRISTIE MARIE LN",PFLUGERVILLE,TX,78860,,,CONTRACTOR,,,,,,,,,,,"SARATOGA HOMES",,,,,"SARATOGA HOMES","7535 CYPRESS PIN OAK DR",CYPRESS,TX,77433-6739,"(832) 220-5566",https://saratogahomestexas.com,,,
TX,TRAVIS,21-54006,"Single Family Homes",3/14/2021,,367974,2930,"19813 EIRE DR",PFLUGERVILLE,TX,78860,,,CONTRACTOR,,,,,,,,,,,"MHI MCGUYER HOMEBUILDERS",,,,,"MHI MCGUYER HOMEBUILDERS","8200 N MO PAC EXPY STE 300",AUSTIN,TX,78759-8844,"(512) 502-2050",,"(512) 388-1836","FRANK MCGUYER",
TX,TRAVIS,21-54007,"Single Family Homes",3/14/2021,,284497,2713,"20721 KANGAL CT",PFLUGERVILLE,TX,78860,,,CONTRACTOR,,,,,,,,,,,"MHI MCGUYER HOMEBUILDERS",,,,,"MHI MCGUYER HOMEBUILDERS","8200 N MO PAC EXPY STE 300",AUSTIN,TX,78759-8844,"(512) 502-2050",,"(512) 388-1836","FRANK MCGUYER",
TX,TRAVIS,21-54018,"Single Family Homes",3/22/2021,,385000,3432,"20704 CHRISTIE MARIE LN",PFLUGERVILLE,TX,78860,,,CONTRACTOR,,,,,,,,,,,"SARATOGA HOMES",,,,,"SARATOGA HOMES","7535 CYPRESS PIN OAK DR",CYPRESS,TX,77433-6739,"(832) 220-5566",https://saratogahomestexas.com,,,
TX,TRAVIS,21-54040,"Single Family Homes",3/7/2021,,172205,3131,"20116 CRESTED CARACARA LN",PFLUGERVILLE,TX,78860,,,CONTRACTOR,,,,,,,,,,,"SCOTT FELDER HOMES",,,,,"SCOTT FELDER HOMES","6414 RIVER PLACE BLVD STE 100",AUSTIN,TX,78730-1158,"(512) 418-5400",,,,
TX,TRAVIS,21-54051,"Single Family Homes",3/14/2021,,188475,1966,"3108 WINDY VANE DR",PFLUGERVILLE,TX,78860,,,CONTRACTOR,,,,,,,,,,,"LENNAR HOMES",,,,,"LENNAR HOMES","13620 FM 620 RD 150",AUSTIN,TX,78717,"(512) 506-4000",http://www.lennar.com/,,,
TX,TRAVIS,21-54089,"Single Family Homes",3/7/2021,,190000,2014,"4205 BIRDWATCH LP",PFLUGERVILLE,TX,78860,,,CONTRACTOR,,,,,,,,,,,"BLACKBURN COMMUNITIES",,,,,"BLACKBURN COMMUNITIES","301 BRUSHY CREEK RD STE 108",PFLUGERVILLE,TX,78613,"(512) 401-3205",https://www.blackburnhomes.com/,,,info@blackburnhomes.com
TX,TRAVIS,21-54095,"Single Family Homes",3/14/2021,,355476,2259,"4420 KINGS CROSS RD",PFLUGERVILLE,TX,78860,,,CONTRACTOR,,,,,,,,,,,"EHT OF TEXAS LP",,,,,"EHT OF TEXAS LP","3520 EXECUTIVE CENTER DR STE 100",AUSTIN,TX,78731-1636,"(757) 287-6394",,,,
TX,TRAVIS,21-54096,"Single Family Homes",3/21/2021,,200775,2104,"21716 WILMILLER LN",PFLUGERVILLE,TX,78860,,,CONTRACTOR,,,,,,,,,,,"LENNAR HOMES",,,,,"LENNAR HOMES","13620 FM 620 RD 150",AUSTIN,TX,78717,"(512) 506-4000",http://www.lennar.com/,,,
TX,TRAVIS,21-54097,"Single Family Homes",3/21/2021,,321600,2532,"21720 WILMILLER LN",PFLUGERVILLE,TX,78860,,,CONTRACTOR,,,,,,,,,,,"LENNAR HOMES",,,,,"LENNAR HOMES","13620 FM 620 RD 150",AUSTIN,TX,78717,"(512) 506-4000",http://www.lennar.com/,,,
TX,TRAVIS,21-54098,"Single Family Homes",3/21/2021,,321600,2532,"3313 DUSTED DAISEY ST",PFLUGERVILLE,TX,78860,,,CONTRACTOR,,,,,,,,,,,"LENNAR HOMES",,,,,"LENNAR HOMES","13620 FM 620 RD 150",AUSTIN,TX,78717,"(512) 506-4000",http://www.lennar.com/,,,
TX,TRAVIS,21-54100,"Single Family Homes",3/21/2021,,200775,2104,"21724 WILMILLER LN",PFLUGERVILLE,TX,78860,,,CONTRACTOR,,,,,,,,,,,"LENNAR HOMES",,,,,"LENNAR HOMES","13620 FM 620 RD 150",AUSTIN,TX,78717,"(512) 506-4000",http://www.lennar.com/,,,
TX,TRAVIS,21-54102,"Single Family Homes",3/23/2021,,321600,2532,"3200 DUSTED DAISEY ST",PFLUGERVILLE,TX,78860,,,CONTRACTOR,,,,,,,,,,,"LENNAR HOMES",,,,,"LENNAR HOMES","13620 FM 620 RD 150",AUSTIN,TX,78717,"(512) 506-4000",http://www.lennar.com/,,,
TX,TRAVIS,21-54103,"Single Family Homes",3/26/2021,,348926,1988,"4420 MANDALIN ST",PFLUGERVILLE,TX,78860,,,CONTRACTOR,,,,,,,,,,,"EHT OF TEXAS LP",,,,,"EHT OF TEXAS LP","3520 EXECUTIVE CENTER DR STE 100",AUSTIN,TX,78731-1636,"(757) 287-6394",,,,
TX,TRAVIS,21-54114,"Single Family Homes",3/21/2021,,162975,1645,"3214 DUSTED DAISEY ST",PFLUGERVILLE,TX,78860,,,CONTRACTOR,,,,,,,,,,,"LENNAR HOMES",,,,,"LENNAR HOMES","13620 FM 620 RD 150",AUSTIN,TX,78717,"(512) 506-4000",http://www.lennar.com/,,,
TX,TRAVIS,21-54117,"Single Family Homes",3/21/2021,,138525,1312,"3210 DUSTED DAISEY ST",PFLUGERVILLE,TX,78860,,,CONTRACTOR,,,,,,,,,,,"LENNAR HOMES",,,,,"LENNAR HOMES","13620 FM 620 RD 150",AUSTIN,TX,78717,"(512) 506-4000",http://www.lennar.com/,,,
TX,TRAVIS,21-54118,"Single Family Homes",3/21/2021,,190425,2022,"3312 DUSTED DAISEY ST",PFLUGERVILLE,TX,78860,,,CONTRACTOR,,,,,,,,,,,"LENNAR HOMES",,,,,"LENNAR HOMES","13620 FM 620 RD 150",AUSTIN,TX,78717,"(512) 506-4000",http://www.lennar.com/,,,
TX,TRAVIS,21-54119,"Single Family Homes",3/21/2021,,188475,1966,"3300 DUSTED DAISEY ST",PFLUGERVILLE,TX,78860,,,CONTRACTOR,,,,,,,,,,,"LENNAR HOMES",,,,,"LENNAR HOMES","13620 FM 620 RD 150",AUSTIN,TX,78717,"(512) 506-4000",http://www.lennar.com/,,,
TX,TRAVIS,21-54120,"Single Family Homes",3/21/2021,,200775,2104,"3312 ANCIRA",PFLUGERVILLE,TX,78860,,,CONTRACTOR,,,,,,,,,,,"LENNAR HOMES",,,,,"LENNAR HOMES","13620 FM 620 RD 150",AUSTIN,TX,78717,"(512) 506-4000",http://www.lennar.com/,,,
TX,TRAVIS,21-54121,"Single Family Homes",3/21/2021,,350990,2359,"20901 CLAIRE JEAN PATH",PFLUGERVILLE,TX,78860,,,CONTRACTOR,,,,,,,,,,,"CHESMAR HOMES",,,,,"CHESMAR HOMES","2900 N QUINLAN PARK RD",AUSTIN,TX,78732-6083,"(512) 233-9016",http://chesmar.com,,,
TX,TRAVIS,21-54127,"Single Family Homes",3/21/2021,,173850,1771,"3306 DUSTED DAISEY ST",PFLUGERVILLE,TX,78860,,,CONTRACTOR,,,,,,,,,,,"LENNAR HOMES",,,,,"LENNAR HOMES","13620 FM 620 RD 150",AUSTIN,TX,78717,"(512) 506-4000",http://www.lennar.com/,,,
TX,TRAVIS,21-54132,"Single Family Homes",3/30/2021,,360448,4537,"19808 DENISON DR",PFLUGERVILLE,TX,78860,,,CONTRACTOR,,,,,,,,,,,"MHI MCGUYER HOMEBUILDERS",,,,,"MHI MCGUYER HOMEBUILDERS","8200 N MO PAC EXPY STE 300",AUSTIN,TX,78759-8844,"(512) 502-2050",,"(512) 388-1836","FRANK MCGUYER",
TX,TRAVIS,21-54133,"Single Family Homes",3/28/2021,,189908,3158,"20913 BROOKLYNN MELISSA DR",PFLUGERVILLE,TX,78860,,,CONTRACTOR,,,,,,,,,,,"GFO HOME",,,,,"GFO HOME","6012 AVIATION DR # 200",PFLUGERVILLE,TX,78660-8960,"(512) 492-8640",https://www.gfohome.com,,,
TX,TRAVIS,21-54157,"Single Family Homes",3/14/2021,,172205,3131,"20017 CRESTED CARACARA LN",PFLUGERVILLE,TX,78860,,,CONTRACTOR,,,,,,,,,,,"SCOTT FELDER HOMES",,,,,"SCOTT FELDER HOMES","6414 RIVER PLACE BLVD STE 100",AUSTIN,TX,78730-1158,"(512) 418-5400",,,,
TX,TRAVIS,21-54159,"Single Family Homes",3/14/2021,,225115,4093,"20121 TALON GRASP TRL",PFLUGERVILLE,TX,78860,,,CONTRACTOR,,,,,,,,,,,"SCOTT FELDER HOMES",,,,,"SCOTT FELDER HOMES","6414 RIVER PLACE BLVD STE 100",AUSTIN,TX,78730-1158,"(512) 418-5400",,,,
TX,TRAVIS,21-54165,"Single Family Homes",3/28/2021,,187546,2246,"20908 BROOKLYNN MELISSA DR",PFLUGERVILLE,TX,78860,,,CONTRACTOR,,,,,,,,,,,"GFO HOME",,,,,"GFO HOME","6012 AVIATION DR # 200",PFLUGERVILLE,TX,78660-8960,"(512) 492-8640",https://www.gfohome.com,,,
TX,TRAVIS,21-54166,"Single Family Homes",3/21/2021,,400405,2929,"20921 BROOKLYNN MELISSA DR",PFLUGERVILLE,TX,78860,,,CONTRACTOR,,,,,,,,,,,"EHT OF TEXAS LP",,,,,"EHT OF TEXAS LP","3520 EXECUTIVE CENTER DR STE 100",AUSTIN,TX,78731-1636,"(757) 287-6394",,,,
TX,TRAVIS,21-54167,"Single Family Homes",3/28/2021,,400405,2719,"4421 ORYX LN",PFLUGERVILLE,TX,78860,,,CONTRACTOR,,,,,,,,,,,"EHT OF TEXAS LP",,,,,"EHT OF TEXAS LP","3520 EXECUTIVE CENTER DR STE 100",AUSTIN,TX,78731-1636,"(757) 287-6394",,,,
TX,TRAVIS,21-54177,"Single Family Homes",3/14/2021,,190000,1480,"3807 BIRDWATCH LP",PFLUGERVILLE,TX,78860,,,CONTRACTOR,,,,,,,,,,,"BLACKBURN COMMUNITIES",,,,,"BLACKBURN COMMUNITIES","301 BRUSHY CREEK RD STE 108",PFLUGERVILLE,TX,78613,"(512) 401-3205",https://www.blackburnhomes.com/,,,info@blackburnhomes.com
TX,TRAVIS,21-54192,"Single Family Homes",3/14/2021,,172590,3138,"20029 CRESTED CARACARA LN",PFLUGERVILLE,TX,78860,,,CONTRACTOR,,,,,,,,,,,"SCOTT FELDER HOMES",,,,,"SCOTT FELDER HOMES","6414 RIVER PLACE BLVD STE 100",AUSTIN,TX,78730-1158,"(512) 418-5400",,,,
TX,TRAVIS,21-54193,"Single Family Homes",3/14/2021,,153945,3580,"3820 SANDHILL CRANE DR",PFLUGERVILLE,TX,78860,,,CONTRACTOR,,,,,,,,,,,"SCOTT FELDER HOMES",,,,,"SCOTT FELDER HOMES","6414 RIVER PLACE BLVD STE 100",AUSTIN,TX,78730-1158,"(512) 418-5400",,,,
TX,TRAVIS,21-54219,"Single Family Homes",3/30/2021,,325990,2435,"20924 CLAIRE JEAN PATH",PFLUGERVILLE,TX,78860,,,CONTRACTOR,,,,,,,,,,,"CHESMAR HOMES",,,,,"CHESMAR HOMES","2900 N QUINLAN PARK RD",AUSTIN,TX,78732-6083,"(512) 233-9016",http://chesmar.com,,,
TX,TRAVIS,21-54291,"Single Family Homes",3/28/2021,,258900,4319,"20125 CRESTED CARACARA LN",PFLUGERVILLE,TX,78860,,,CONTRACTOR,,,,,,,,,,,"GFO HOME",,,,,"GFO HOME","6012 AVIATION DR # 200",PFLUGERVILLE,TX,78660-8960,"(512) 492-8640",https://www.gfohome.com,,,
TX,TRAVIS,21-54292,"Single Family Homes",3/28/2021,,245898,4281,"20029 HAWK HOOD DR",PFLUGERVILLE,TX,78860,,,CONTRACTOR,,,,,,,,,,,"GFO HOME",,,,,"GFO HOME","6012 AVIATION DR # 200",PFLUGERVILLE,TX,78660-8960,"(512) 492-8640",https://www.gfohome.com,,,
TX,TRAVIS,21-54296,"Single Family Homes",3/28/2021,,245768,4319,"20008 TALON GRASP TRL",PFLUGERVILLE,TX,78860,,,CONTRACTOR,,,,,,,,,,,"GFO HOME",,,,,"GFO HOME","6012 AVIATION DR # 200",PFLUGERVILLE,TX,78660-8960,"(512) 492-8640",https://www.gfohome.com,,,
TX,TRAVIS,21-54297,"Single Family Homes",3/28/2021,,255989,4281,"20117 CRESTED CARACARA LN",PFLUGERVILLE,TX,78860,,,CONTRACTOR,,,,,,,,,,,"GFO HOME",,,,,"GFO HOME","6012 AVIATION DR # 200",PFLUGERVILLE,TX,78660-8960,"(512) 492-8640",https://www.gfohome.com,,,
TX,TRAVIS,21-54298,"Single Family Homes",3/28/2021,,248976,4319,"20021 HAWK HOOD DR",PFLUGERVILLE,TX,78860,,,CONTRACTOR,,,,,,,,,,,"GFO HOME",,,,,"GFO HOME","6012 AVIATION DR # 200",PFLUGERVILLE,TX,78660-8960,"(512) 492-8640",https://www.gfohome.com,,,
TX,TRAVIS,21-54299,"Single Family Homes",3/28/2021,,215678,3748,"20016 CRESTED CARACARA LN",PFLUGERVILLE,TX,78860,,,CONTRACTOR,,,,,,,,,,,"GFO HOME",,,,,"GFO HOME","6012 AVIATION DR # 200",PFLUGERVILLE,TX,78660-8960,"(512) 492-8640",https://www.gfohome.com,,,
TX,TRAVIS,21-54300,"Single Family Homes",3/28/2021,,215988,3748,"20121 CRESTED CARACARA LN",PFLUGERVILLE,TX,78860,,,CONTRACTOR,,,,,,,,,,,"GFO HOME",,,,,"GFO HOME","6012 AVIATION DR # 200",PFLUGERVILLE,TX,78660-8960,"(512) 492-8640",https://www.gfohome.com,,,
TX,TRAVIS,21-54301,"Single Family Homes",3/28/2021,,215467,3748,"20021 TALON GRASP TRL",PFLUGERVILLE,TX,78860,,,CONTRACTOR,,,,,,,,,,,"GFO HOME",,,,,"GFO HOME","6012 AVIATION DR # 200",PFLUGERVILLE,TX,78660-8960,"(512) 492-8640",https://www.gfohome.com,,,
TX,TRAVIS,21-54320,"Single Family Homes",3/28/2021,,213876,3748,"20032 CRESTED CARACARA LN",PFLUGERVILLE,TX,78860,,,CONTRACTOR,,,,,,,,,,,"GFO HOME",,,,,"GFO HOME","6012 AVIATION DR # 200",PFLUGERVILLE,TX,78660-8960,"(512) 492-8640",https://www.gfohome.com,,,
TX,TRAVIS,21-54321,"Single Family Homes",3/28/2021,,256900,4319,"20028 CRESTED CARACARA LN",PFLUGERVILLE,TX,78860,,,CONTRACTOR,,,,,,,,,,,"GFO HOME",,,,,"GFO HOME","6012 AVIATION DR # 200",PFLUGERVILLE,TX,78660-8960,"(512) 492-8640",https://www.gfohome.com,,,
TX,TRAVIS,21-54322,"Single Family Homes",3/28/2021,,215878,3748,"20005 TALON GRASP TRL",PFLUGERVILLE,TX,78860,,,CONTRACTOR,,,,,,,,,,,"GFO HOME",,,,,"GFO HOME","6012 AVIATION DR # 200",PFLUGERVILLE,TX,78660-8960,"(512) 492-8640",https://www.gfohome.com,,,
TX,TRAVIS,21-54323,"Single Family Homes",3/28/2021,,245789,4281,"20017 TALON GRASP TRL",PFLUGERVILLE,TX,78860,,,CONTRACTOR,,,,,,,,,,,"GFO HOME",,,,,"GFO HOME","6012 AVIATION DR # 200",PFLUGERVILLE,TX,78660-8960,"(512) 492-8640",https://www.gfohome.com,,,
TX,TRAVIS,21-54335,"Single Family Homes",3/28/2021,,215876,4521,"20025 HAWK HOOD DR",PFLUGERVILLE,TX,78860,,,CONTRACTOR,,,,,,,,,,,"GFO HOME",,,,,"GFO HOME","6012 AVIATION DR # 200",PFLUGERVILLE,TX,78660-8960,"(512) 492-8640",https://www.gfohome.com,,,
TX,TRAVIS,21-54336,"Single Family Homes",3/30/2021,,256900,4319,"20105 TALON GRASP TRL",PFLUGERVILLE,TX,78860,,,CONTRACTOR,,,,,,,,,,,"GFO HOME",,,,,"GFO HOME","6012 AVIATION DR # 200",PFLUGERVILLE,TX,78660-8960,"(512) 492-8640",https://www.gfohome.com,,,
TX,TRAVIS,21-54337,"Single Family Homes",3/28/2021,,215678,3748,"19808 HARRIER FLIGHT TRL",PFLUGERVILLE,TX,78860,,,CONTRACTOR,,,,,,,,,,,"GFO HOME",,,,,"GFO HOME","6012 AVIATION DR # 200",PFLUGERVILLE,TX,78660-8960,"(512) 492-8640",https://www.gfohome.com,,,
TX,TRAVIS,"2021-058055 BP","Single Family Homes",4/21/2021,,138225,2483,"12206 TAMPICO CV",AUSTIN,TX,78717,"ESTANCIA HILL COUNTRY",6,CONTRACTOR,,,,,,,,,,,"LENNAR HOMES",,,,,"LENNAR HOMES","13620 FM 620 RD 150",AUSTIN,TX,78717,"(512) 506-4000",http://www.lennar.com/,,,
TX,TRAVIS,"2021-048737 BP","Single Family Homes",4/26/2021,,164325,2191,"14008 LUBECK DR",AUSTIN,TX,78734,WALTERS,,CONTRACTOR,,,,,,,,,,,"DR HORTON",,,,,"DR HORTON","10700 PECAN PARK BLVD STE 400",AUSTIN,TX,78750-1227,"(512) 345-4663",,,,
TX,TRAVIS,"2021-054106 BP","Single Family Homes",4/23/2021,,176090,3077,"9832 EVENING CANOPY DR",AUSTIN,TX,78653,,,CONTRACTOR,,,,,,,,,,,"GFO HOME",,,,,"GFO HOME","6012 AVIATION DR # 200",PFLUGERVILLE,TX,78660-8960,"(512) 492-8640",https://www.gfohome.com,,,
TX,TRAVIS,"2021-061278 BP","Single Family Homes",4/26/2021,,197250,3454,"12210 TAMPICO CV",AUSTIN,TX,78717,"ESTANCIA HILL COUNTRY",6,CONTRACTOR,,,,,,,,,,,"LENNAR HOMES",,,,,"LENNAR HOMES","13620 FM 620 RD 150",AUSTIN,TX,78717,"(512) 506-4000",http://www.lennar.com/,,,
TX,TRAVIS,"2021-059919 BP","Single Family Homes",4/23/2021,,266310,2959,"6408 WAGON SPRING ST",AUSTIN,TX,78617,"ROSS ROAD",9,CONTRACTOR,,,,,,,,,,,"KB HOME",,,,,"KB HOME","10800 PECAN PARK BLVD STE 200",AUSTIN,TX,78750-1249,"(512) 651-8100",,,,
TX,TRAVIS,"2021-059896 BP","Single Family Homes",4/23/2021,,279400,2794,"10821 TIMBER BROOK PASS",AUSTIN,TX,78741,DELVALLE,,CONTRACTOR,,,,,,,,,,,"PACESETTER HOMES ",,,,,"PACESETTER HOMES ","7940 SHOAL CREEK BLVD STE 200",AUSTIN,TX,78757-7587,"(512) 323-5252",,,,
TX,TRAVIS,"2021-047675 BP","Single Family Homes",4/21/2021,,288750,1931,"7120 DANCING WIND LN",AUSTIN,TX,78617,,,CONTRACTOR,,,,,,,,,,,"LENNAR HOMES",,,,,"LENNAR HOMES","13620 FM 620 RD 150",AUSTIN,TX,78717,"(512) 506-4000",http://www.lennar.com/,,,
TX,TRAVIS,"2021-060355 BP","Single Family Homes",4/26/2021,,290000,3525,"513 FALKLAND TRCE",AUSTIN,TX,78660,CUNNINGHAM,,CONTRACTOR,,,,,,,,,,,"BLACKBURN COMMUNITIES",,,,,"BLACKBURN COMMUNITIES","301 BRUSHY CREEK RD STE 108",PFLUGERVILLE,TX,78613,"(512) 401-3205",https://www.blackburnhomes.com/,,,info@blackburnhomes.com
TX,TRAVIS,"2021-037332 BP","Single Family Homes",4/26/2021,,375000,3245,"9005 CENTURION PATH",AUSTIN,TX,78744,DELVALLE,,CONTRACTOR,,,,,,,,,,,"DAVID WEEKLEY HOMES",,,,,"DAVID WEEKLEY HOMES","9000 WATERFORD CENTRE BLVD",AUSTIN,TX,78758-7662,"(800) 390-6774",http://www.davidweekleyhomes.com/,,,
TX,TRAVIS,"2021-039672 BP","Single Family Homes",4/26/2021,,375000,2890,"8404 LAUGHLIN LN",AUSTIN,TX,78744,,,CONTRACTOR,,,,,,,,,,,"DAVID WEEKLEY HOMES",,,,,"DAVID WEEKLEY HOMES","9000 WATERFORD CENTRE BLVD",AUSTIN,TX,78758-7662,"(800) 390-6774",http://www.davidweekleyhomes.com/,,,
TX,TRAVIS,"2016-056225 BP","Single Family Homes",4/21/2021,,380000,9126,"2311 WESTROCK DR",AUSTIN,TX,78704,HILL,,CONTRACTOR,,,,,,,,,,,"GO GREEN LIVING",,,,,"GO GREEN LIVING","11044 RESEARCH BLVD STE A550",AUSTIN,TX,78759-5366,"(512) 682-6414",,,"HECTOR AVILA",
TX,TRAVIS,"2021-060385 BP","Single Family Homes",4/26/2021,,464603,4489,"800 N CAPITAL OF TEXAS HWY UNIT 707",AUSTIN,TX,78731,"ROB ROY",1,CONTRACTOR,,,,,,,,,,,"LEGACY DCS",,,,,"LEGACY DCS","205 WILD BASIN ROAD SOUTH, BLDG",AUSTIN,TX,78746,"(512) 726-0500",https://legacydcs.com/,"(512) 726-0527",,info@legacydcs.com
TX,TRAVIS,"2021-060366 BP","Single Family Homes",4/26/2021,,588510,4606,"800 N CAPITAL OF TEXAS HWY UNIT 703",AUSTIN,TX,78731,"ROB ROY",1,CONTRACTOR,,,,,,,,,,,"LEGACY DCS",,,,,"LEGACY DCS","205 WILD BASIN ROAD SOUTH, BLDG",AUSTIN,TX,78746,"(512) 726-0500",https://legacydcs.com/,"(512) 726-0527",,info@legacydcs.com
TX,TRAVIS,"2021-059918 BP","Single Family Homes",4/26/2021,,672000,4150,"3314 TOM MILLER ST",AUSTIN,TX,78723,MUELLER,21,CONTRACTOR,,,,,,,,,,,"DAVID WEEKLEY HOMES",,,,,"DAVID WEEKLEY HOMES","9000 WATERFORD CENTRE BLVD",AUSTIN,TX,78758-7662,"(800) 390-6774",http://www.davidweekleyhomes.com/,,,
