state,county,permno,ptype,pdate,pdescription,jvalue,jsqfeet,jaddr,jcity,jstate,jzip,jsubdiv,jlotno,aname,aaddr,acity,astate,azip,aphone,atype,aurl,afax,aprimarycontact,aemail,bldcode,units,bldgs,ctype,legal,contractor,caddress,ccity,cstate,czip,cphone,curl,cfax,cprimarycontact,cemail
TX,TRAVIS,21-32536,"Commercial Swimming Pool & Spas",3/8/2021,,55000,,"9301 E US HWY 290 SVRD EB",AUSTIN,TX,78724,,,CONTRACTOR,,,,,,,,,,,"PERMIT PARTNERS",,,,,"PERMIT PARTNERS","105 W RIVERSIDE DR STE 225",AUSTIN,TX,78704-1258,"(512) 593-5361",http://permit-partners.com,"(512) 213-0261",,info@permit-partners.com
TX,TRAVIS,21-33278,"Duplex, Triplex, & Fourplex",3/31/2021,,117825,,"7216 DANCING WIND","DEL VALLE",TX,78617,,,CONTRACTOR,,,,,,,,,,,"LENNAR HOMES",,,,,"LENNAR HOMES","13620 FM 620 RD 150",AUSTIN,TX,78717,"(512) 506-4000",http://www.lennar.com/,,,
TX,TRAVIS,18-21138,"Hospital & Other Medical",3/26/2021,,1138996,,"7101 E WILLIAM CANNON DR",AUSTIN,TX,78744,,,CONTRACTOR,,,,,,,,,,,"BIG RED DOG ENGINEERING",,,,,"BIG RED DOG ENGINEERING","2021 E 5TH ST STE 200",AUSTIN,TX,78702-4508,"(512) 669-5560",http://bigreddog.com,,,
TX,TRAVIS,21-32343,"Multi Family Apartments & Condos",3/3/2021,,457341,,"19201 CRUSOE CV",SPICEWOOD,TX,78669,"THE RESERVE",,CONTRACTOR,,,,,,,,,,,"LEGACY DCS",,,,,"LEGACY DCS","205 WILD BASIN ROAD SOUTH, BLDG",AUSTIN,TX,78746,"(512) 726-0500",https://legacydcs.com/,"(512) 726-0527",,info@legacydcs.com
TX,TRAVIS,21-32943,"Multi Family Apartments & Condos",3/24/2021,,184650,,"12213 TAMPICO COVE",AUSTIN,TX,78748,,,CONTRACTOR,,,,,,,,,,,"LENNAR HOMES",,,,,"LENNAR HOMES","13620 FM 620 RD 150",AUSTIN,TX,78717,"(512) 506-4000",http://www.lennar.com/,,,
TX,TRAVIS,21-32753,"Multi Family Apartments & Condos",3/9/2021,,397990,,"2802 SALVIDAR BEND",AUSTIN,TX,78744,,,CONTRACTOR,,,,,,,,,,,"TAYLOR MORRISON OF TEXAS",,,,,"TAYLOR MORRISON OF TEXAS","11200 LAKELINE BLVD STE 150A",AUSTIN,TX,78717-5964,"(512) 328-8866",,"(512) 328-7988",,
TX,TRAVIS,21-32756,"Multi Family Apartments & Condos",3/9/2021,,401990,,"15701 SINGH DR",AUSTIN,TX,78728,,,CONTRACTOR,,,,,,,,,,,"TAYLOR MORRISON OF TEXAS",,,,,"TAYLOR MORRISON OF TEXAS","11200 LAKELINE BLVD STE 150A",AUSTIN,TX,78717-5964,"(512) 328-8866",,"(512) 328-7988",,
TX,TRAVIS,21-32759,"Multi Family Apartments & Condos",3/8/2021,,141300,,"5310 WATUSI BEND",AUSTIN,TX,78732,,,CONTRACTOR,,,,,,,,,,,"LENNAR HOMES",,,,,"LENNAR HOMES","13620 FM 620 RD 150",AUSTIN,TX,78717,"(512) 506-4000",http://www.lennar.com/,,,
TX,TRAVIS,21-32757,"Multi Family Apartments & Condos",3/8/2021,,219975,,"12513 AYRSHIRE WAY",AUSTIN,TX,78732,,,CONTRACTOR,,,,,,,,,,,"LENNAR HOMES",,,,,"LENNAR HOMES","13620 FM 620 RD 150",AUSTIN,TX,78717,"(512) 506-4000",http://www.lennar.com/,,,
TX,TRAVIS,21-32758,"Multi Family Apartments & Condos",3/8/2021,,219975,,"12502 AYRSHIRE WAY",AUSTIN,TX,78732,,,CONTRACTOR,,,,,,,,,,,"LENNAR HOMES",,,,,"LENNAR HOMES","13620 FM 620 RD 150",AUSTIN,TX,78717,"(512) 506-4000",http://www.lennar.com/,,,
TX,TRAVIS,21-32942,"Multi Family Apartments & Condos",3/9/2021,,140775,,"12211 TAMPICO COVE",AUSTIN,TX,78748,,,CONTRACTOR,,,,,,,,,,,"LENNAR HOMES",,,,,"LENNAR HOMES","13620 FM 620 RD 150",AUSTIN,TX,78717,"(512) 506-4000",http://www.lennar.com/,,,
TX,TRAVIS,21-32944,"Multi Family Apartments & Condos",3/9/2021,,173775,,"12207 TAMPICO COVE",AUSTIN,TX,78748,,,CONTRACTOR,,,,,,,,,,,"LENNAR HOMES",,,,,"LENNAR HOMES","13620 FM 620 RD 150",AUSTIN,TX,78717,"(512) 506-4000",http://www.lennar.com/,,,
TX,TRAVIS,21-32947,"Multi Family Apartments & Condos",3/9/2021,,134925,,"12203 PERRITOS PLACE",AUSTIN,TX,78748,,,CONTRACTOR,,,,,,,,,,,"LENNAR HOMES",,,,,"LENNAR HOMES","13620 FM 620 RD 150",AUSTIN,TX,78717,"(512) 506-4000",http://www.lennar.com/,,,
TX,TRAVIS,21-32420,"Multi Family Apartments & Condos",3/9/2021,,399990,,"3008 SALVIDAR BND",AUSTIN,TX,78728,,,CONTRACTOR,,,,,,,,,,,"TAYLOR MORRISON OF TEXAS",,,,,"TAYLOR MORRISON OF TEXAS","11200 LAKELINE BLVD STE 150A",AUSTIN,TX,78717-5964,"(512) 328-8866",,"(512) 328-7988",,
TX,TRAVIS,21-32887,"Multi Family Apartments & Condos",3/9/2021,,202560,,"809 COPPER FROND WAY",AUSTIN,TX,78748,,,CONTRACTOR,,,,,,,,,,,"MERITAGE HOMES",,,,,"MERITAGE HOMES","8920 BUSINESS PARK DR STE 250",AUSTIN,TX,78759-7622,"(512) 610-4800",,,,
TX,TRAVIS,21-32888,"Multi Family Apartments & Condos",3/9/2021,,280080,,"901 COPPER FROND WAY",AUSTIN,TX,78748,,,CONTRACTOR,,,,,,,,,,,"MERITAGE HOMES",,,,,"MERITAGE HOMES","8920 BUSINESS PARK DR STE 250",AUSTIN,TX,78759-7622,"(512) 610-4800",,,,
TX,TRAVIS,21-33041,"Multi Family Apartments & Condos",3/31/2021,,401990,,"15710 SINGH DR",AUSTIN,TX,78728,,,CONTRACTOR,,,,,,,,,,,"TAYLOR MORRISON OF TEXAS",,,,,"TAYLOR MORRISON OF TEXAS","11200 LAKELINE BLVD STE 150A",AUSTIN,TX,78717-5964,"(512) 328-8866",,"(512) 328-7988",,
TX,TRAVIS,21-33042,"Multi Family Apartments & Condos",3/31/2021,,406990,,"2800 SALVIDAR BEND",AUSTIN,TX,78728,,,CONTRACTOR,,,,,,,,,,,"TAYLOR MORRISON OF TEXAS",,,,,"TAYLOR MORRISON OF TEXAS","11200 LAKELINE BLVD STE 150A",AUSTIN,TX,78717-5964,"(512) 328-8866",,"(512) 328-7988",,
TX,TRAVIS,21-33050,"Multi Family Apartments & Condos",3/31/2021,,403990,,"15704 SINGH DR",AUSTIN,TX,78728,,,CONTRACTOR,,,,,,,,,,,"TAYLOR MORRISON OF TEXAS",,,,,"TAYLOR MORRISON OF TEXAS","11200 LAKELINE BLVD STE 150A",AUSTIN,TX,78717-5964,"(512) 328-8866",,"(512) 328-7988",,
TX,TRAVIS,21-33052,"Multi Family Apartments & Condos",3/31/2021,,390990,,"3005 SALVIDAR BEND",AUSTIN,TX,78728,,,CONTRACTOR,,,,,,,,,,,"TAYLOR MORRISON OF TEXAS",,,,,"TAYLOR MORRISON OF TEXAS","11200 LAKELINE BLVD STE 150A",AUSTIN,TX,78717-5964,"(512) 328-8866",,"(512) 328-7988",,
TX,TRAVIS,21-33053,"Multi Family Apartments & Condos",3/31/2021,,386990,,"15703 SINGH DR",AUSTIN,TX,78728,,,CONTRACTOR,,,,,,,,,,,"TAYLOR MORRISON OF TEXAS",,,,,"TAYLOR MORRISON OF TEXAS","11200 LAKELINE BLVD STE 150A",AUSTIN,TX,78717-5964,"(512) 328-8866",,"(512) 328-7988",,
TX,TRAVIS,21-33055,"Multi Family Apartments & Condos",3/16/2021,,198450,,"12201 TAMPICO COVE",AUSTIN,TX,78748,,,CONTRACTOR,,,,,,,,,,,"LENNAR HOMES",,,,,"LENNAR HOMES","13620 FM 620 RD 150",AUSTIN,TX,78717,"(512) 506-4000",http://www.lennar.com/,,,
TX,TRAVIS,21-33056,"Multi Family Apartments & Condos",3/16/2021,,192450,,"12203 TAMPICO COVE",AUSTIN,TX,78748,,,CONTRACTOR,,,,,,,,,,,"LENNAR HOMES",,,,,"LENNAR HOMES","13620 FM 620 RD 150",AUSTIN,TX,78717,"(512) 506-4000",http://www.lennar.com/,,,
TX,TRAVIS,21-33057,"Multi Family Apartments & Condos",3/16/2021,,192450,,"402 ZAMORA CROSSING",AUSTIN,TX,78748,,,CONTRACTOR,,,,,,,,,,,"LENNAR HOMES",,,,,"LENNAR HOMES","13620 FM 620 RD 150",AUSTIN,TX,78717,"(512) 506-4000",http://www.lennar.com/,,,
TX,TRAVIS,21-33060,"Multi Family Apartments & Condos",3/16/2021,,174150,,"404 ZAMORA CROSSING",AUSTIN,TX,78748,,,CONTRACTOR,,,,,,,,,,,"LENNAR HOMES",,,,,"LENNAR HOMES","13620 FM 620 RD 150",AUSTIN,TX,78717,"(512) 506-4000",http://www.lennar.com/,,,
TX,TRAVIS,21-33022,"Multi Family Apartments & Condos",3/9/2021,,192450,,"12204 TAMPICO COVE",AUSTIN,TX,78748,,,CONTRACTOR,,,,,,,,,,,"LENNAR HOMES",,,,,"LENNAR HOMES","13620 FM 620 RD 150",AUSTIN,TX,78717,"(512) 506-4000",http://www.lennar.com/,,,
TX,TRAVIS,21-33075,"Multi Family Apartments & Condos",3/17/2021,,179400,,"7303 TRAVERTINE SPRING DR",AUSTIN,TX,78744,,,CONTRACTOR,,,,,,,,,,,"MERITAGE HOMES",,,,,"MERITAGE HOMES","8920 BUSINESS PARK DR STE 250",AUSTIN,TX,78759-7622,"(512) 610-4800",,,,
TX,TRAVIS,21-33076,"Multi Family Apartments & Condos",3/17/2021,,179400,,"7305 TRAVERTINE SPRING DR",AUSTIN,TX,78744,,,CONTRACTOR,,,,,,,,,,,"MERITAGE HOMES",,,,,"MERITAGE HOMES","8920 BUSINESS PARK DR STE 250",AUSTIN,TX,78759-7622,"(512) 610-4800",,,,
TX,TRAVIS,21-33078,"Multi Family Apartments & Condos",3/17/2021,,212520,,"7301 TRAVERTINE SPRING DR",AUSTIN,TX,78744,,3,CONTRACTOR,,,,,,,,,,,"MERITAGE HOMES",,,,,"MERITAGE HOMES","8920 BUSINESS PARK DR STE 250",AUSTIN,TX,78759-7622,"(512) 610-4800",,,,
TX,TRAVIS,21-33079,"Multi Family Apartments & Condos",3/17/2021,,233040,,"7309 TRAVERTINE SPRING DR",AUSTIN,TX,78744,,,CONTRACTOR,,,,,,,,,,,"MERITAGE HOMES",,,,,"MERITAGE HOMES","8920 BUSINESS PARK DR STE 250",AUSTIN,TX,78759-7622,"(512) 610-4800",,,,
TX,TRAVIS,21-33179,"Multi Family Apartments & Condos",3/17/2021,,193000,,"7900 MELLENCAMP DR",AUSTIN,TX,78744,,,CONTRACTOR,,,,,,,,,,,"BROOKFIELD RESIDENTIAL PROPERTIES",,,,,"BROOKFIELD RESIDENTIAL PROPERTIES","11501 ALTERRA PKWY STE 100",AUSTIN,TX,78758-3201,"(512) 391-1330",,,,
TX,TRAVIS,21-33181,"Multi Family Apartments & Condos",3/17/2021,,201000,,"IVE AUSTIN TX 78744",AUSTIN,TX,78744,,,CONTRACTOR,,,,,,,,,,,"BROOKFIELD RESIDENTIAL PROPERTIES",,,,,"BROOKFIELD RESIDENTIAL PROPERTIES","11501 ALTERRA PKWY STE 100",AUSTIN,TX,78758-3201,"(512) 391-1330",,,,
TX,TRAVIS,21-33182,"Multi Family Apartments & Condos",3/17/2021,,193000,,"7904 MELLENCAMP DR",AUSTIN,TX,78744,,,CONTRACTOR,,,,,,,,,,,"BROOKFIELD RESIDENTIAL PROPERTIES",,,,,"BROOKFIELD RESIDENTIAL PROPERTIES","11501 ALTERRA PKWY STE 100",AUSTIN,TX,78758-3201,"(512) 391-1330",,,,
TX,TRAVIS,21-33183,"Multi Family Apartments & Condos",3/17/2021,,226000,,"7906 MELLENCAMP DR",AUSTIN,TX,78744,,,CONTRACTOR,,,,,,,,,,,"BROOKFIELD RESIDENTIAL PROPERTIES",,,,,"BROOKFIELD RESIDENTIAL PROPERTIES","11501 ALTERRA PKWY STE 100",AUSTIN,TX,78758-3201,"(512) 391-1330",,,,
TX,TRAVIS,21-33184,"Multi Family Apartments & Condos",3/17/2021,,236000,,"7908 MELLENCAMP DR",AUSTIN,TX,78744,,,CONTRACTOR,,,,,,,,,,,"BROOKFIELD RESIDENTIAL PROPERTIES",,,,,"BROOKFIELD RESIDENTIAL PROPERTIES","11501 ALTERRA PKWY STE 100",AUSTIN,TX,78758-3201,"(512) 391-1330",,,,
TX,TRAVIS,21-33185,"Multi Family Apartments & Condos",3/17/2021,,219000,,"7910 MELLENCAMP DR",AUSTIN,TX,78744,,,CONTRACTOR,,,,,,,,,,,"BROOKFIELD RESIDENTIAL PROPERTIES",,,,,"BROOKFIELD RESIDENTIAL PROPERTIES","11501 ALTERRA PKWY STE 100",AUSTIN,TX,78758-3201,"(512) 391-1330",,,,
TX,TRAVIS,21-33186,"Multi Family Apartments & Condos",3/17/2021,,239000,,"7912 MELLENCAMP DR",AUSTIN,TX,78744,,,CONTRACTOR,,,,,,,,,,,"BROOKFIELD RESIDENTIAL PROPERTIES",,,,,"BROOKFIELD RESIDENTIAL PROPERTIES","11501 ALTERRA PKWY STE 100",AUSTIN,TX,78758-3201,"(512) 391-1330",,,,
TX,TRAVIS,21-33187,"Multi Family Apartments & Condos",3/17/2021,,236000,,"7914 MELLENCAMP DR",AUSTIN,TX,78744,,,CONTRACTOR,,,,,,,,,,,"BROOKFIELD RESIDENTIAL PROPERTIES",,,,,"BROOKFIELD RESIDENTIAL PROPERTIES","11501 ALTERRA PKWY STE 100",AUSTIN,TX,78758-3201,"(512) 391-1330",,,,
TX,TRAVIS,21-33080,"Multi Family Apartments & Condos",3/17/2021,,198000,,"7207 TRAVERTINE SPRING DR",AUSTIN,TX,78744,,,CONTRACTOR,,,,,,,,,,,"MERITAGE HOMES",,,,,"MERITAGE HOMES","8920 BUSINESS PARK DR STE 250",AUSTIN,TX,78759-7622,"(512) 610-4800",,,,
TX,TRAVIS,21-33081,"Multi Family Apartments & Condos",3/17/2021,,212520,,"7205 TRAVERTINE SPRING DR",AUSTIN,TX,78744,,,CONTRACTOR,,,,,,,,,,,"MERITAGE HOMES",,,,,"MERITAGE HOMES","8920 BUSINESS PARK DR STE 250",AUSTIN,TX,78759-7622,"(512) 610-4800",,,,
TX,TRAVIS,21-33191,"Multi Family Apartments & Condos",3/17/2021,,251000,,"8401 ORIZZONTE ST",AUSTIN,TX,78744,,,CONTRACTOR,,,,,,,,,,,"BROOKFIELD RESIDENTIAL PROPERTIES",,,,,"BROOKFIELD RESIDENTIAL PROPERTIES","11501 ALTERRA PKWY STE 100",AUSTIN,TX,78758-3201,"(512) 391-1330",,,,
TX,TRAVIS,21-33082,"Multi Family Apartments & Condos",3/17/2021,,212520,,"7211 TRAVERTINE SPRING DR",AUSTIN,TX,78744,,,CONTRACTOR,,,,,,,,,,,"MERITAGE HOMES",,,,,"MERITAGE HOMES","8920 BUSINESS PARK DR STE 250",AUSTIN,TX,78759-7622,"(512) 610-4800",,,,
TX,TRAVIS,21-33083,"Multi Family Apartments & Condos",3/17/2021,,233040,,"7213 TRAVERTINE SPRING DR",AUSTIN,TX,78744,,,CONTRACTOR,,,,,,,,,,,"MERITAGE HOMES",,,,,"MERITAGE HOMES","8920 BUSINESS PARK DR STE 250",AUSTIN,TX,78759-7622,"(512) 610-4800",,,,
TX,TRAVIS,21-33024,"Multi Family Apartments & Condos",3/9/2021,,187950,,"12205 TAMPICO COVE",AUSTIN,TX,78748,,,CONTRACTOR,,,,,,,,,,,"LENNAR HOMES",,,,,"LENNAR HOMES","13620 FM 620 RD 150",AUSTIN,TX,78717,"(512) 506-4000",http://www.lennar.com/,,,
TX,TRAVIS,21-33044,"Multi Family Apartments & Condos",3/31/2021,,391990,,"2902 SALVIDAR BEND",AUSTIN,TX,78728,,,CONTRACTOR,,,,,,,,,,,"TAYLOR MORRISON OF TEXAS",,,,,"TAYLOR MORRISON OF TEXAS","11200 LAKELINE BLVD STE 150A",AUSTIN,TX,78717-5964,"(512) 328-8866",,"(512) 328-7988",,
TX,TRAVIS,21-33047,"Multi Family Apartments & Condos",3/31/2021,,392990,,"15702 SINGH DR",AUSTIN,TX,78728,,,CONTRACTOR,,,,,,,,,,,"TAYLOR MORRISON OF TEXAS",,,,,"TAYLOR MORRISON OF TEXAS","11200 LAKELINE BLVD STE 150A",AUSTIN,TX,78717-5964,"(512) 328-8866",,"(512) 328-7988",,
TX,TRAVIS,21-33084,"Multi Family Apartments & Condos",3/17/2021,,246240,,"7209 TRAVERTINE SPRING DR",AUSTIN,TX,78744,,,CONTRACTOR,,,,,,,,,,,"MERITAGE HOMES",,,,,"MERITAGE HOMES","8920 BUSINESS PARK DR STE 250",AUSTIN,TX,78759-7622,"(512) 610-4800",,,,
TX,TRAVIS,21-33085,"Multi Family Apartments & Condos",3/16/2021,,250000,,"19423 SUMMIT GLORY TR",SPICEWOOD,TX,79556,,,CONTRACTOR,,,,,,,,,,,"WESTIN HOMES",,,,,"WESTIN HOMES","1 SUGAR CREEK CENTER BLVD STE 600","SUGAR LAND",TX,77478-3787,"(281) 240-1551",http://www.westin-homes.com,,,
TX,TRAVIS,21-33077,"Multi Family Apartments & Condos",3/17/2021,,198000,,"7307 TRAVERTINE SPRING DR",AUSTIN,TX,78744,,,CONTRACTOR,,,,,,,,,,,"MERITAGE HOMES",,,,,"MERITAGE HOMES","8920 BUSINESS PARK DR STE 250",AUSTIN,TX,78759-7622,"(512) 610-4800",,,,
TX,TRAVIS,21-33188,"Multi Family Apartments & Condos",3/17/2021,,239000,,"7916 MELLENCAMP DR",AUSTIN,TX,78744,,,CONTRACTOR,,,,,,,,,,,"BROOKFIELD RESIDENTIAL PROPERTIES",,,,,"BROOKFIELD RESIDENTIAL PROPERTIES","11501 ALTERRA PKWY STE 100",AUSTIN,TX,78758-3201,"(512) 391-1330",,,,
TX,TRAVIS,21-33048,"Multi Family Apartments & Condos",3/31/2021,,397990,,"15700 SINGH DR",AUSTIN,TX,78728,,,CONTRACTOR,,,,,,,,,,,"TAYLOR MORRISON OF TEXAS",,,,,"TAYLOR MORRISON OF TEXAS","11200 LAKELINE BLVD STE 150A",AUSTIN,TX,78717-5964,"(512) 328-8866",,"(512) 328-7988",,
TX,TRAVIS,21-33049,"Multi Family Apartments & Condos",3/31/2021,,400990,,"2801 SALVIDAR BEND",AUSTIN,TX,78728,,,CONTRACTOR,,,,,,,,,,,"TAYLOR MORRISON OF TEXAS",,,,,"TAYLOR MORRISON OF TEXAS","11200 LAKELINE BLVD STE 150A",AUSTIN,TX,78717-5964,"(512) 328-8866",,"(512) 328-7988",,
TX,TRAVIS,21-33297,"Multi Family Apartments & Condos",3/31/2021,,250000,,"19305 SUMMIT GLORY TR",SPICEWOOD,TX,79556,,,CONTRACTOR,,,,,,,,,,,"WESTIN HOMES",,,,,"WESTIN HOMES","1 SUGAR CREEK CENTER BLVD STE 600","SUGAR LAND",TX,77478-3787,"(281) 240-1551",http://www.westin-homes.com,,,
TX,TRAVIS,21-33298,"Multi Family Apartments & Condos",3/31/2021,,260000,,"19301 SUMMIT GLORY TR",SPICEWOOD,TX,79556,,,CONTRACTOR,,,,,,,,,,,"WESTIN HOMES",,,,,"WESTIN HOMES","1 SUGAR CREEK CENTER BLVD STE 600","SUGAR LAND",TX,77478-3787,"(281) 240-1551",http://www.westin-homes.com,,,
TX,TRAVIS,21-33343,"Multi Family Apartments & Condos",3/31/2021,,193000,,"8010 LENNON DR",AUSTIN,TX,78744,,,CONTRACTOR,,,,,,,,,,,"BROOKFIELD RESIDENTIAL PROPERTIES",,,,,"BROOKFIELD RESIDENTIAL PROPERTIES","11501 ALTERRA PKWY STE 100",AUSTIN,TX,78758-3201,"(512) 391-1330",,,,
TX,TRAVIS,21-33344,"Multi Family Apartments & Condos",3/31/2021,,201000,,"8012 LENNON DR",AUSTIN,TX,78744,,,CONTRACTOR,,,,,,,,,,,"BROOKFIELD RESIDENTIAL PROPERTIES",,,,,"BROOKFIELD RESIDENTIAL PROPERTIES","11501 ALTERRA PKWY STE 100",AUSTIN,TX,78758-3201,"(512) 391-1330",,,,
TX,TRAVIS,21-33345,"Multi Family Apartments & Condos",3/31/2021,,201000,,"8014 LENNON DR",AUSTIN,TX,78744,,,CONTRACTOR,,,,,,,,,,,"BROOKFIELD RESIDENTIAL PROPERTIES",,,,,"BROOKFIELD RESIDENTIAL PROPERTIES","11501 ALTERRA PKWY STE 100",AUSTIN,TX,78758-3201,"(512) 391-1330",,,,
TX,TRAVIS,21-33346,"Multi Family Apartments & Condos",3/31/2021,,226000,,"8016 LENNON DR",AUSTIN,TX,78744,,,CONTRACTOR,,,,,,,,,,,"BROOKFIELD RESIDENTIAL PROPERTIES",,,,,"BROOKFIELD RESIDENTIAL PROPERTIES","11501 ALTERRA PKWY STE 100",AUSTIN,TX,78758-3201,"(512) 391-1330",,,,
TX,TRAVIS,21-33347,"Multi Family Apartments & Condos",3/31/2021,,193000,,"8018 LENNON DR",AUSTIN,TX,78744,,,CONTRACTOR,,,,,,,,,,,"BROOKFIELD RESIDENTIAL PROPERTIES",,,,,"BROOKFIELD RESIDENTIAL PROPERTIES","11501 ALTERRA PKWY STE 100",AUSTIN,TX,78758-3201,"(512) 391-1330",,,,
TX,TRAVIS,21-33342,"Multi Family Apartments & Condos",3/31/2021,,226000,,"8008 LENNON DR",AUSTIN,TX,78744,,,CONTRACTOR,,,,,,,,,,,"BROOKFIELD RESIDENTIAL PROPERTIES",,,,,"BROOKFIELD RESIDENTIAL PROPERTIES","11501 ALTERRA PKWY STE 100",AUSTIN,TX,78758-3201,"(512) 391-1330",,,,
TX,TRAVIS,21-33341,"Multi Family Apartments & Condos",3/31/2021,,201000,,"8006 LENNON DR",AUSTIN,TX,78744,,,CONTRACTOR,,,,,,,,,,,"BROOKFIELD RESIDENTIAL PROPERTIES",,,,,"BROOKFIELD RESIDENTIAL PROPERTIES","11501 ALTERRA PKWY STE 100",AUSTIN,TX,78758-3201,"(512) 391-1330",,,,
TX,TRAVIS,"2021-049735 BP","Multi Family Apartments & Condos",4/5/2021,,50000000,48188,"9127 RESEARCH BLVD SVRD",AUSTIN,TX,78758,WALLACE,,CONTRACTOR,,,,,,,,,,,"PROVIDENT GENERAL CONTRACTORS LLC",,,,,"PROVIDENT GENERAL CONTRACTORS LLC","10210 N CENTRAL EXPY STE 212",DALLAS,TX,75231-3404,"(972) 385-4164",,,,
TX,TRAVIS,"2021-048551 BP","Multi Family Apartments & Condos",4/2/2021,,201000,1859,"8014 LENNON DR",AUSTIN,TX,78744,"EASTON PARK",3,CONTRACTOR,,,,,,,,,,,"BROOKFIELD RESIDENTIAL PROPERTIES",,,,,"BROOKFIELD RESIDENTIAL PROPERTIES","11501 ALTERRA PKWY STE 100",AUSTIN,TX,78758-3201,"(512) 391-1330",,,,
TX,TRAVIS,"2021-046022 BP","Multi Family Apartments & Condos",3/31/2021,,204938,2383,"806 GAINESVILLE DR",AUSTIN,TX,78729,VARCINAS,,CONTRACTOR,,,,,,,,,,,"M/I HOMES",,,,,"M/I HOMES","6801 N CAPITAL OF TEXAS HWY BLDG 2 STE 100",AUSTIN,TX,78731-1780,"(512) 770-8500",,,,
TX,TRAVIS,"2021-049041 BP","Multi Family Apartments & Condos",4/5/2021,,206572,2402,"12903 STANFORD DR",AUSTIN,TX,78652,VARCINAS,,CONTRACTOR,,,,,,,,,,,"M/I HOMES",,,,,"M/I HOMES","6801 N CAPITAL OF TEXAS HWY BLDG 2 STE 100",AUSTIN,TX,78731-1780,"(512) 770-8500",,,,
TX,TRAVIS,"2021-046722 BP","Multi Family Apartments & Condos",3/31/2021,,206890,2434,"5202 STAR DANCE PATH",AUSTIN,TX,78744,,,CONTRACTOR,,,,,,,,,,,"RSI COMMUNITIES",,,,,"RSI COMMUNITIES","810 HESTERS CROSSING RD STE 235","ROUND ROCK",TX,78681-7846,"(512) 953-4100",,,,
TX,TRAVIS,"2021-044010 BP","Multi Family Apartments & Condos",4/2/2021,,206890,2434,"5407 MULBERRY GROVE LN",AUSTIN,TX,78723,,,CONTRACTOR,,,,,,,,,,,"RSI COMMUNITIES",,,,,"RSI COMMUNITIES","810 HESTERS CROSSING RD STE 235","ROUND ROCK",TX,78681-7846,"(512) 953-4100",,,,
TX,TRAVIS,"2021-045873 BP","Multi Family Apartments & Condos",3/31/2021,,209238,2433,"13020 BLOOMINGTON DR",AUSTIN,TX,78652,VARCINAS,,CONTRACTOR,,,,,,,,,,,"M/I HOMES",,,,,"M/I HOMES","6801 N CAPITAL OF TEXAS HWY BLDG 2 STE 100",AUSTIN,TX,78731-1780,"(512) 770-8500",,,,
TX,TRAVIS,"2021-046724 BP","Multi Family Apartments & Condos",3/31/2021,,211990,2494,"5313 MULBERRY GROVE LN",AUSTIN,TX,78723,,,CONTRACTOR,,,,,,,,,,,"RSI COMMUNITIES",,,,,"RSI COMMUNITIES","810 HESTERS CROSSING RD STE 235","ROUND ROCK",TX,78681-7846,"(512) 953-4100",,,,
TX,TRAVIS,"2021-041878 BP","Multi Family Apartments & Condos",4/5/2021,,410990,1900,"5402 JASON DR",AUSTIN,TX,78723,TANNEHILL,,CONTRACTOR,,,,,,,,,,,"RSI COMMUNITIES",,,,,"RSI COMMUNITIES","810 HESTERS CROSSING RD STE 235","ROUND ROCK",TX,78681-7846,"(512) 953-4100",,,,
TX,TRAVIS,"2021-043601 BP","Multi Family Renovations & Additions",4/2/2021,Addition,52476216,16676,"4404 E OLTORF ST BLDG 1",AUSTIN,TX,78741,"CHEVY CHASE",2,CONTRACTOR,,,,,,,,,,,"ALL PRO CONSTRUCTION",,,,,"ALL PRO CONSTRUCTION","7847 FORTUNE DR","SAN ANTONIO",TX,78250-5108,"(800) 576-1071",https://allproconstruction.com/,"(210) 579-1925",,info@allprous.com
TX,TRAVIS,"2021-043602 BP","Multi Family Renovations & Additions",4/2/2021,Addition,52476216,16676,"4404 E OLTORF ST BLDG 2",AUSTIN,TX,78741,"CHEVY CHASE",2,CONTRACTOR,,,,,,,,,,,"ALL PRO CONSTRUCTION",,,,,"ALL PRO CONSTRUCTION","7847 FORTUNE DR","SAN ANTONIO",TX,78250-5108,"(800) 576-1071",https://allproconstruction.com/,"(210) 579-1925",,info@allprous.com
TX,TRAVIS,"2021-043603 BP","Multi Family Renovations & Additions",4/2/2021,Addition,52476216,17034,"4404 E OLTORF ST BLDG 3",AUSTIN,TX,78741,"CHEVY CHASE",2,CONTRACTOR,,,,,,,,,,,"ALL PRO CONSTRUCTION",,,,,"ALL PRO CONSTRUCTION","7847 FORTUNE DR","SAN ANTONIO",TX,78250-5108,"(800) 576-1071",https://allproconstruction.com/,"(210) 579-1925",,info@allprous.com
TX,TRAVIS,"2021-043604 BP","Multi Family Renovations & Additions",4/2/2021,Addition,52476216,16676,"4404 E OLTORF ST BLDG 4",AUSTIN,TX,78741,"CHEVY CHASE",2,CONTRACTOR,,,,,,,,,,,"ALL PRO CONSTRUCTION",,,,,"ALL PRO CONSTRUCTION","7847 FORTUNE DR","SAN ANTONIO",TX,78250-5108,"(800) 576-1071",https://allproconstruction.com/,"(210) 579-1925",,info@allprous.com
TX,TRAVIS,"2021-043605 BP","Multi Family Renovations & Additions",4/2/2021,Addition,52476216,17034,"4404 E OLTORF ST BLDG 5",AUSTIN,TX,78741,"CHEVY CHASE",2,CONTRACTOR,,,,,,,,,,,"ALL PRO CONSTRUCTION",,,,,"ALL PRO CONSTRUCTION","7847 FORTUNE DR","SAN ANTONIO",TX,78250-5108,"(800) 576-1071",https://allproconstruction.com/,"(210) 579-1925",,info@allprous.com
TX,TRAVIS,"2021-043606 BP","Multi Family Renovations & Additions",4/2/2021,Addition,52476216,14082,"4404 E OLTORF ST BLDG 7",AUSTIN,TX,78741,"CHEVY CHASE",2,CONTRACTOR,,,,,,,,,,,"ALL PRO CONSTRUCTION",,,,,"ALL PRO CONSTRUCTION","7847 FORTUNE DR","SAN ANTONIO",TX,78250-5108,"(800) 576-1071",https://allproconstruction.com/,"(210) 579-1925",,info@allprous.com
TX,TRAVIS,"2021-043607 BP","Multi Family Renovations & Additions",4/2/2021,Addition,52476216,31888,"4404 E OLTORF ST BLDG 11",AUSTIN,TX,78741,"CHEVY CHASE",2,CONTRACTOR,,,,,,,,,,,"ALL PRO CONSTRUCTION",,,,,"ALL PRO CONSTRUCTION","7847 FORTUNE DR","SAN ANTONIO",TX,78250-5108,"(800) 576-1071",https://allproconstruction.com/,"(210) 579-1925",,info@allprous.com
TX,TRAVIS,"2021-043608 BP","Multi Family Renovations & Additions",4/2/2021,Addition,52476216,17034,"4404 E OLTORF ST BLDG 12",AUSTIN,TX,78741,"CHEVY CHASE",2,CONTRACTOR,,,,,,,,,,,"ALL PRO CONSTRUCTION",,,,,"ALL PRO CONSTRUCTION","7847 FORTUNE DR","SAN ANTONIO",TX,78250-5108,"(800) 576-1071",https://allproconstruction.com/,"(210) 579-1925",,info@allprous.com
TX,TRAVIS,"2021-043609 BP","Multi Family Renovations & Additions",4/2/2021,Addition,52476216,17034,"4404 E OLTORF ST BLDG 13",AUSTIN,TX,78741,"CHEVY CHASE",2,CONTRACTOR,,,,,,,,,,,"ALL PRO CONSTRUCTION",,,,,"ALL PRO CONSTRUCTION","7847 FORTUNE DR","SAN ANTONIO",TX,78250-5108,"(800) 576-1071",https://allproconstruction.com/,"(210) 579-1925",,info@allprous.com
TX,TRAVIS,"2021-043610 BP","Multi Family Renovations & Additions",4/2/2021,Addition,52476216,16676,"4404 E OLTORF ST BLDG 15",AUSTIN,TX,78741,"CHEVY CHASE",2,CONTRACTOR,,,,,,,,,,,"ALL PRO CONSTRUCTION",,,,,"ALL PRO CONSTRUCTION","7847 FORTUNE DR","SAN ANTONIO",TX,78250-5108,"(800) 576-1071",https://allproconstruction.com/,"(210) 579-1925",,info@allprous.com
TX,HAYS,2021-0553,"Offices, R&D, & Professional",3/2/2021,,139394,1177,"5940 KYLE PKWY",KYLE,TX,78640,,,CONTRACTOR,,,,,,,,,,,"MED TECH CONSTRUCTION",,,,,"MED TECH CONSTRUCTION","1121 E YELLOWJACKET LN",ROCKWALL,TX,75087-4845,"(972) 226-3332",,,,
TX,HAYS,2021-0571,"Offices, R&D, & Professional",3/8/2021,,37960,1898,"1300 DACY LN 2 STE 270",KYLE,TX,78640,,,CONTRACTOR,,,,,,,,,,,"NORTH FOREST OFFICE SPACE",,,,,"NORTH FOREST OFFICE SPACE","2808 LAFAYETTE AVE",AUSTIN,TX,78722-2332,"(512) 515-1553",,,,
TX,TRAVIS,"2021-048061 BP","Offices, R&D, & Professional",4/1/2021,Renovation,30000,13089,"6500 RIVER PLACE BLVD BLDG 3 UNIT 200",AUSTIN,TX,78730,"RIVER PLACE",1,CONTRACTOR,,,,,,,,,,,"MALOBA BUILDERS & SERVICES",,,,,"MALOBA BUILDERS & SERVICES","2223 WATERLOO CITY LN STE 344",AUSTIN,TX,78741,"(512) 496-1611",,,,
TX,TRAVIS,"2021-026782 BP","Offices, R&D, & Professional",3/31/2021,,49000,79,"11920 ALTERRA PKWY",AUSTIN,TX,78758,DOMAIN,11,CONTRACTOR,,,,,,,,,,,"PRAVO CONSTRUCTION",,,,,"PRAVO CONSTRUCTION","3102 BEE CAVES RD STE 102",AUSTIN,TX,78746-5569,"(512) 808-8107",http://www.pravoconstruction.com/,,,
TX,TRAVIS,"2021-042451 BP","Offices, R&D, & Professional",4/2/2021,Addition,308016,20421,"9700 E US 290 HWY SVRD",AUSTIN,TX,78724,,1,CONTRACTOR,,,,,,,,,,,"ROSCH SOUTHWEST",,,,,"ROSCH SOUTHWEST","3000 JOE DIMAGGIO BLVD STE 28","ROUND ROCK",TX,78665-3994,"(512) 828-4272",,,,
TX,TRAVIS,"2021-048211 BP","Offices, R&D, & Professional",4/2/2021,Renovation,277200,10931,"2170 WOODWARD ST UNIT 200",AUSTIN,TX,78744,"CROW INDUSTRIAL PARK",,CONTRACTOR,,,,,,,,,,,"FLINTROCK COMMERCIAL",,,,,"FLINTROCK COMMERCIAL","10800 PECAN PARK BLVD",AUSTIN,TX,78750-1224,"(512) 845-5590",http://www.flintrockcommercial.com/,,,
TX,TRAVIS,"2021-041746 BP","Offices, R&D, & Professional",4/5/2021,"Finish Out",5820000,37897,"6900 W PARMER LN UNIT FLR1",AUSTIN,TX,78729,BAKER,,CONTRACTOR,,,,,,,,,,,"JE DUNN CONSTRUCTION",,,,,"JE DUNN CONSTRUCTION","901 S MO PAC EXPY STE 290",AUSTIN,TX,78746-5776,"(512) 329-9618",,,,
TX,TRAVIS,"2021-041747 BP","Offices, R&D, & Professional",4/5/2021,"Finish Out",5820000,39020,"6900 W PARMER LN UNIT FLR2",AUSTIN,TX,78729,BAKER,,CONTRACTOR,,,,,,,,,,,"JE DUNN CONSTRUCTION",,,,,"JE DUNN CONSTRUCTION","901 S MO PAC EXPY STE 290",AUSTIN,TX,78746-5776,"(512) 329-9618",,,,
TX,TRAVIS,"2021-041748 BP","Offices, R&D, & Professional",4/5/2021,"Finish Out",5820000,42660,"6900 W PARMER LN UNIT FLR3",AUSTIN,TX,78729,BAKER,,CONTRACTOR,,,,,,,,,,,"JE DUNN CONSTRUCTION",,,,,"JE DUNN CONSTRUCTION","901 S MO PAC EXPY STE 290",AUSTIN,TX,78746-5776,"(512) 329-9618",,,,
TX,TRAVIS,"2021-041749 BP","Offices, R&D, & Professional",4/5/2021,"Finish Out",5820000,42660,"6900 W PARMER LN UNIT FLR4",AUSTIN,TX,78729,BAKER,,CONTRACTOR,,,,,,,,,,,"JE DUNN CONSTRUCTION",,,,,"JE DUNN CONSTRUCTION","901 S MO PAC EXPY STE 290",AUSTIN,TX,78746-5776,"(512) 329-9618",,,,
TX,TRAVIS,"2021-041750 BP","Offices, R&D, & Professional",4/5/2021,"Finish Out",5820000,42100,"6900 W PARMER LN UNIT FLR5",AUSTIN,TX,78729,BAKER,,CONTRACTOR,,,,,,,,,,,"JE DUNN CONSTRUCTION",,,,,"JE DUNN CONSTRUCTION","901 S MO PAC EXPY STE 290",AUSTIN,TX,78746-5776,"(512) 329-9618",,,,
TX,TRAVIS,21-32488,"Residential Garages & Carports",3/17/2021,,200000,,"617 S PALEFACE RANCH RD",SPICEWOOD,TX,78669,,,"DAVID KERLEY","617 S PALEFACE RANCH RD",SPICEWOOD,TX,78669,,Owner,,,,,OWNER,,,,,OWNER,,,,,,,,,
TX,TRAVIS,21-32352,"Residential Garages & Carports",3/11/2021,,80000,,"4814 CITY PARK ROAD",AUSTIN,TX,78730,,,"CHRISTOPHER & MEGHAN SLOVER","4814 CITY PARK ROAD",AUSTIN,TX,78730,,Owner,,,,,"MICHAEL J BALDWIN INTERESTS",,,,,"MICHAEL J BALDWIN INTERESTS","13 LAS BRISAS DR","WEST LAKE HILLS",TX,78746-5328,"(512) 784-7413",,,,
TX,TRAVIS,21-33178,"Residential Garages & Carports",3/26/2021,,30000,,"2200 TRAIL OF MADRONES",AUSTIN,TX,78746,,,"MIKE PEPLINSKI","2200 TRAIL OF MADRONES",AUSTIN,TX,78746,,Owner,,,,,OWNER,,,,,OWNER,,,,,,,,,
TX,TRAVIS,"2021-048498 BP","Residential Garages & Carports",4/5/2021,Addition,43000,561,"5302 BRANDING CHASE",AUSTIN,TX,78727,"ANGUS VALLEY ",9,"NICOLA HONEYCUTT","5302 BRANDING CHASE",AUSTIN,TX,78727,,Owner,,,,,"SHEDS & MORE",,,,,"SHEDS & MORE","16503 TERRACE DR",AUSTIN,TX,78728-1120,"(512) 873-0281",,,,
TX,TRAVIS,21-32516,"Residential Renovations & Additions",3/5/2021,Renovations,75000,,"11206 WHISKEY RIVER DR",AUSTIN,TX,78748,,,"JAMES GONIN","11206 WHISKEY RIVER DR",AUSTIN,TX,78748,,Applicant,,,,,OWNER,,,,,OWNER,,,,,,,,,
TX,TRAVIS,20-28303,"Residential Renovations & Additions",3/12/2021,Renovations,55000,,"23817 ELM DR",AUSTIN,TX,78654,"TRAVIS OAKS",,"MITZI JONES","23817 ELM DR",AUSTIN,TX,78654,,Owner,,,,,OWNER,,,,,OWNER,,,,,,,,,
TX,TRAVIS,20-29231,"Residential Renovations & Additions",3/29/2021,Renovations,40000,,"16811 SOUTH RIDGE LN",AUSTIN,TX,78734,,,"LCRA OSSF AND PARKING","16811 SOUTH RIDGE LN",AUSTIN,TX,78734,,Owner,,,,,OWNER,,,,,OWNER,,,,,,,,,
TX,TRAVIS,21-32739,"Residential Renovations & Additions",3/26/2021,Renovations,50000,,"19607 SUMMIT GLORY TR",SPICEWOOD,TX,78669,,,"BILL VASEY","19607 SUMMIT GLORY TR",SPICEWOOD,TX,78669,,Owner,,,,,OWNER,,,,,OWNER,,,,,,,,,
TX,TRAVIS,20-31880,"Residential Renovations & Additions",3/2/2021,Renovations,80000,,"11707 SANDY RIDGE",LEANDER,TX,78641,,,"BILLY AND CHERY","11707 SANDY RIDGE",LEANDER,TX,78641,,Owner,,,,,OWNER,,,,,OWNER,,,,,,,,,
TX,TRAVIS,21-32916,"Residential Renovations & Additions",3/9/2021,Renovations,85000,,"4108 VERANO DR",AUSTIN,TX,78746,,,"NOLAN & BELL","4108 VERANO DR",AUSTIN,TX,78746,,Owner,,,,,OWNER,,,,,OWNER,,,,,,,,,
TX,TRAVIS,21-32926,"Residential Renovations & Additions",3/17/2021,Addition,200000,,"23722 PEDERNALES CANYON TRAIL",SPICEWOOD,TX,78669,,,"CHASE & FLORENCE WALKER","23722 PEDERNALES CANYON TRAIL",SPICEWOOD,TX,78669,,Owner,,,,,"WUKASCH DESIGNS",,,,,"WUKASCH DESIGNS","235 KELLY DR",BURNET,TX,78611-2831,"(512) 715-9093",,,,
TX,TRAVIS,21-33175,"Residential Renovations & Additions",3/30/2021,Addition,550000,,"5221 MCCORMICK MOUNTAIN DR",AUSTIN,TX,78734,,,"HUGH JEFFERSON RANDOLPH ARCHITECT","5221 MCCORMICK MOUNTAIN DR",AUSTIN,TX,78734,,Owner,,,,,OWNER,,,,,OWNER,,,,,,,,,
TX,TRAVIS,"2021-048390 BP","Residential Renovations & Additions",4/5/2021,Addition,30000,365,"3302 WESTHILL DR",AUSTIN,TX,78704,"WEST PARK",110,"GENTRY & MELANIE GARNER","3302 WESTHILL DR",AUSTIN,TX,78704,,Owner,,,,,"CAPSTONE CUSTOM HOMES",,,,,"CAPSTONE CUSTOM HOMES","10006 THOMAS LN","DRIPPING SPRINGS",TX,78620-2881,"(512) 924-6665",,,,
TX,TRAVIS,"2021-045770 BP","Residential Renovations & Additions",4/1/2021,Renovation,50000,900,"1702 GILES ST",AUSTIN,TX,78722,"GILES PLACE",61,CONTRACTOR,,,,,,,,,,,"MICHAEL STOLL",,,,,"MICHAEL STOLL","8900 RESEARCH BLVD STE C",AUSTIN,TX,78758-6014,"(512) 587-6004",,,,
TX,TRAVIS,"2019-053185 BP","Residential Renovations & Additions",3/31/2021,Renovation,59200,2812,"1305 VERDANT WAY",AUSTIN,TX,78746,TREETOPS,2,"JOHN LINK","1305 VERDANT WAY",AUSTIN,TX,78746,,Owner,,,,,"ACS CONSTRUCTION SERVICES",,,,,"ACS CONSTRUCTION SERVICES","10313 CIRCLE DR",AUSTIN,TX,78736-6602,"(512) 489-6615",,,,
TX,TRAVIS,"2021-046295 BP","Residential Renovations & Additions",4/4/2021,Addition,79000,196,"8800 COLBERG DR",AUSTIN,TX,78749,"CIRCLE RANCH",28,"CYNDEE & RICHARD WATSON","8800 COLBERG DR",AUSTIN,TX,78749,,Owner,,,,,"ANTHONY & SYLVAN POOLS",,,,,"ANTHONY & SYLVAN POOLS","13343 N HIGHWAY 183 STE 295",AUSTIN,TX,78750-7161,"(512) 258-1232",http://www.anthonysylvan.com/,,,
TX,TRAVIS,"2020-178433 BP","Residential Renovations & Additions",3/31/2021,Renovation,101315,1813,"2613 PEMBROOK TRL",AUSTIN,TX,78731,SHOALWOODS,2,"KAREN FROST","2613 PEMBROOK TRL",AUSTIN,TX,78731,,Owner,,,,,"MEK HOMES",,,,,"MEK HOMES","3571 FAR WEST BLVD STE 25",AUSTIN,TX,78731-3064,"(512) 848-1596",http://www.mekhomes.com/,,"MATT KRUGER",
TX,TRAVIS,"2021-042571 BP","Residential Renovations & Additions",4/1/2021,Addition,120000,579,"4604 CACTUS LN",AUSTIN,TX,78745,"WESTERN TRAILS",21,"REBECCA & TRAY JEANES","4604 CACTUS LN",AUSTIN,TX,78745,,Owner,,,,,"BLUE HORSE BUILDING & DESIGN",,,,,"BLUE HORSE BUILDING & DESIGN","12400 SH 71",AUSTIN,TX,78738,"(512) 361-4222",,,,
TX,TRAVIS,"2021-045118 BP","Residential Renovations & Additions",4/1/2021,Renovation,200000,5406,"2301 BRIDLE PATH",AUSTIN,TX,78703,WESTFIELD,20,"KAREN & RICHARD HAWKINS","2301 BRIDLE PATH",AUSTIN,TX,78703,,Owner,,,,,"DAVID WILKES BUILDERS",,,,,"DAVID WILKES BUILDERS","5450 BEE CAVE RD STE 4B","WEST LAKE HILLS",TX,78746-5251,"(512) 453-4982",http://davidwilkesbuilders.com/,,"DAVID WILKES",info@davidwilkesbuilders.com
TX,TRAVIS,"2021-041582 BP","Residential Renovations & Additions",4/1/2021,Addition,500000,1972,"1107 MISSION RIDGE",AUSTIN,TX,78704,"TRAVIS HEIGHTS",4,CONTRACTOR,,,,,,,,,,,"WALLER BUILDING COMPANY",,,,,"WALLER BUILDING COMPANY","1006 ELLINGSON LN",AUSTIN,TX,78751-4004,"(512) 481-8981",,,,
TX,TRAVIS,"2021-039415 BP","Residential Renovations & Additions",4/2/2021,Addition,150000,316,"1207 TRAVIS HEIGHTS BLVD",AUSTIN,TX,78704,"TRAVIS HEIGHTS",25,"JULIEN RENVOYE","1207 TRAVIS HEIGHTS BLVD",AUSTIN,TX,78704,,Owner,,,,,"CAMELOT CUSTOM HOMES",,,,,"CAMELOT CUSTOM HOMES","12400 HWY 71 W, STE350-404",AUSTIN,TX,78738,"(512) 336-5301",http://www.camelothomesinc.com/,"(512) 577-8384","PAUL STREETER",CamelotHomes@austin.rr.com
TX,TRAVIS,"2021-040069 BP","Residential Renovations & Additions",4/2/2021,Renovation,38600,,"10102 POND VIEW CIR",AUSTIN,TX,78753,"WINDSOR HILLS",19,"JANICE BAILEY","10102 POND VIEW CIR",AUSTIN,TX,78753,,Owner,,,,,"GUTIERREZ PAINTING AND REMODELING SERVICES",,,,,"GUTIERREZ PAINTING AND REMODELING SERVICES","1903 GRACY FARMS LN",AUSTIN,TX,78758,"(512) 792-0362",,,,
TX,TRAVIS,"2021-031949 BP","Residential Renovations & Additions",4/5/2021,Renovation,101308,,"1211 SOUTHWOOD RD",AUSTIN,TX,78704,SOUTHWOOD,2,"JANICE BAILEY","1211 SOUTHWOOD RD",AUSTIN,TX,78704,,Owner,,,,,"BASIC IDIQ",,,,,"BASIC IDIQ","7015 TIDWELL",AUSTIN,TX,77092,"(512) 966-5686",http://www.basicidiq.com/,,,
TX,TRAVIS,"2021-048889 BP","Residential Renovations & Additions",4/3/2021,"Finish Out",150000,,"2704 WARREN ST",AUSTIN,TX,78703,"MONT DALE",3,"PATRICK & ROSE HAGAN","2704 WARREN ST",AUSTIN,TX,78703,,Owner,,,,,"WATERMARK HOMES",,,,,"WATERMARK HOMES","4208 AVENUE D",AUSTIN,TX,78751-3719,"(512) 233-9301",http://www.watermarkhomesaustin.com/,"(512) 291-7650","DAVID BRATTON",david@watermarkhomesaustin.com
TX,TRAVIS,20-31781,"Residential Swimming Pools & Spas",3/8/2021,,90000,,"19303 SUMMIT GLORY TR",SPICEWOOD,TX,78669,,,CONTRACTOR,,,,,,,,,,,"DIMENSION CUSTOM POOLS",,,,,"DIMENSION CUSTOM POOLS","4819 R O DR STE 101A",SPICEWOOD,TX,78669,"(512) 522-5958",,,"BLAKE OLSON",info@dimensionpools.com
TX,TRAVIS,21-32554,"Residential Swimming Pools & Spas",3/2/2021,,220000,,"7216 DAVENPORT DIVIDE RD",AUSTIN,TX,78738,SWEETWATER,,"DAVID & JANET MANNING","7216 DAVENPORT DIVIDE RD",AUSTIN,TX,78738,,Owner,,,,,"DIMENSION CUSTOM POOLS",,,,,"DIMENSION CUSTOM POOLS","4819 R O DR STE 101A",SPICEWOOD,TX,78669,"(512) 522-5958",,,"BLAKE OLSON",info@dimensionpools.com
TX,TRAVIS,20-32108,"Residential Swimming Pools & Spas",3/1/2021,,245000,,"15900 FONTAINE AVE",AUSTIN,TX,78734,"VINEYARD BAY",,"LAURA A & TROY KINTO","15900 FONTAINE AVE",AUSTIN,TX,78734,,Owner,,,,,"DIMENSION CUSTOM POOLS",,,,,"DIMENSION CUSTOM POOLS","4819 R O DR STE 101A",SPICEWOOD,TX,78669,"(512) 522-5958",,,"BLAKE OLSON",info@dimensionpools.com
TX,TRAVIS,21-32186,"Residential Swimming Pools & Spas",3/1/2021,,116000,,"18000 DUFOUR DR",AUSTIN,TX,78738,"SWEETWATER RANCH",,"MICHAEL IGLINSKI","18000 DUFOUR DR",AUSTIN,TX,78738,,Owner,,,,,"MAJESTIC CUSTOM POOLS",,,,,"MAJESTIC CUSTOM POOLS","3850 FM518","LEAGUE CITY",TX,77573,"(281) 508-2348",,,,
TX,TRAVIS,21-32174,"Residential Swimming Pools & Spas",3/9/2021,,98000,,"9312 PRINCE WILLIAM",AUSTIN,TX,78730,,,"JERITT & ELIZABETH BUSHAW","9312 PRINCE WILLIAM",AUSTIN,TX,78730,,Owner,,,,,"TRIROCK PERMITS",,,,,"TRIROCK PERMITS","12234 N INTERSTATE 35 STE 100 BLDG B",AUSTIN,TX,78753-0002,"(512) 658-1287",,,,trirockpermits@gmail.com
TX,TRAVIS,21-32724,"Residential Swimming Pools & Spas",3/19/2021,,50000,,"6300 CHAMBLY COVE",AUSTIN,TX,78730,,,"SCHAEFER FAMILY REVOCABLE","6300 CHAMBLY COVE",AUSTIN,TX,78730,,Owner,,,,,OWNER,,,,,OWNER,,,,,,,,,
TX,TRAVIS,21-32879,"Residential Swimming Pools & Spas",3/31/2021,,60000,,"7701 LENAPE TR",AUSTIN,TX,78736,,,"BENJAMIN & JULIE HINDMAN","7701 LENAPE TR",AUSTIN,TX,78736,,Owner,,,,,"BLUE HAVEN POOLS",,,,,"BLUE HAVEN POOLS","260 ADDIE ROY RD STE 205",AUSTIN,TX,78746-4108,"(512) 345-2583",,,,
TX,TRAVIS,21-33035,"Residential Swimming Pools & Spas",3/26/2021,,100000,,"504 BROOKHAVEN TRL",AUSTIN,TX,78746,,,"ANTONIO & CHANDRA MONTERA","504 BROOKHAVEN TRL",AUSTIN,TX,78746,,Owner,,,,,"CASCADE CUSTOM POOLS",,,,,"CASCADE CUSTOM POOLS","215 RANCH ROAD 620 S",LAKEWAY,TX,78734-3922,"(512) 264-2453",http://www.cascadecustompools.com,,,
TX,HAYS,2021-0060,"Residential Swimming Pools & Spas",3/23/2021,,,450,"290 JARBRIDGE DR",KYLE,TX,78640,,,CONTRACTOR,,,,,,,,,,,"TEXAS POOLS & PATIOS",,,,,"TEXAS POOLS & PATIOS","601 S BELL BLVD","CEDAR PARK",TX,78613-3854,"(512) 402-1175",http://www.texaspoolsandpatios.com/,,,
TX,HAYS,2021-0064,"Residential Swimming Pools & Spas",3/24/2021,,,378,"181 WADING RIVER LN",KYLE,TX,78640,,,CONTRACTOR,,,,,,,,,,,"TEXAS POOLS & PATIOS",,,,,"TEXAS POOLS & PATIOS","601 S BELL BLVD","CEDAR PARK",TX,78613-3854,"(512) 402-1175",http://www.texaspoolsandpatios.com/,,,
TX,TRAVIS,21-33225,"Residential Swimming Pools & Spas",3/30/2021,,59000,,"12401 DIMMIT CT",AUSTIN,TX,78732,,,"JASON YUNKER","12401 DIMMIT CT",AUSTIN,TX,78732,,Owner,,,,,"PERMITS PLUS",,,,,"PERMITS PLUS","1107 E 52ND ST",ODESSA,TX,79762-4352,"(432) 550-4303",http://www.permitsplus-houston.com/,,,
TX,TRAVIS,21-33274,"Residential Swimming Pools & Spas",3/30/2021,,104806,,"3313 TREADSOFT COVE",AUSTIN,TX,78748,,,"NICHOLAS HARRIS","3313 TREADSOFT COVE",AUSTIN,TX,78748,,Owner,,,,,"PREMIER POOLS OF TEXAS",,,,,"PREMIER POOLS OF TEXAS","26111 INTERSTATE 45 # 401","THE WOODLANDS",TX,77380-1902,"(281) 541-2235",http://www.premierdesignbuilder.com/,,,premierdesignco@aol.com
TX,TRAVIS,21-33281,"Residential Swimming Pools & Spas",3/31/2021,,180000,,"18109 HEARD LOOP",AUSTIN,TX,78738,SWEETWATER,,CONTRACTOR,,,,,,,,,,,"TRIROCK PERMITS",,,,,"TRIROCK PERMITS","12234 N INTERSTATE 35 STE 100 BLDG B",AUSTIN,TX,78753-0002,"(512) 658-1287",,,,trirockpermits@gmail.com
TX,TRAVIS,21-33160,"Residential Swimming Pools & Spas",3/30/2021,,322000,,"8108 SKYTEX ST",AUSTIN,TX,78744,,,CONTRACTOR,,,,,,,,,,,"BROOKFIELD RESIDENTIAL PROPERTIES",,,,,"BROOKFIELD RESIDENTIAL PROPERTIES","11501 ALTERRA PKWY STE 100",AUSTIN,TX,78758-3201,"(512) 391-1330",,,,
TX,TRAVIS,21-33277,"Residential Swimming Pools & Spas",3/31/2021,,118800,,"7212 DANCING WIND","DEL VALLE",TX,78617,,,CONTRACTOR,,,,,,,,,,,"LENNAR HOMES",,,,,"LENNAR HOMES","13620 FM 620 RD 150",AUSTIN,TX,78717,"(512) 506-4000",http://www.lennar.com/,,,
TX,TRAVIS,21-33389,"Residential Swimming Pools & Spas",3/31/2021,,118800,,"7113 DANCING WIND","DEL VALLE",TX,78617,,,CONTRACTOR,,,,,,,,,,,"LENNAR HOMES",,,,,"LENNAR HOMES","13620 FM 620 RD 150",AUSTIN,TX,78717,"(512) 506-4000",http://www.lennar.com/,,,
TX,TRAVIS,21-33282,"Residential Swimming Pools & Spas",3/31/2021,,124000,,"3117 SUN DRENCHED PATH",AUSTIN,TX,78750,,,"TIMOTHY SPENCE","3117 SUN DRENCHED PATH",AUSTIN,TX,78750,,Owner,,,,,"TRIROCK PERMITS",,,,,"TRIROCK PERMITS","12234 N INTERSTATE 35 STE 100 BLDG B",AUSTIN,TX,78753-0002,"(512) 658-1287",,,,trirockpermits@gmail.com
TX,TRAVIS,21-33310,"Residential Swimming Pools & Spas",3/31/2021,,100478,,"825 SANTALUZ PATH",AUSTIN,TX,78732,,,"JILL TERRY","825 SANTALUZ PATH",AUSTIN,TX,78732,,Owner,,,,,"AUSTINTATIOUS POOLS",,,,,"AUSTINTATIOUS POOLS","12014 N LAMAR BLVD",AUSTIN,TX,78753-1801,"(512) 443-1100",,,,
TX,TRAVIS,"2021-039551 BP","Residential Swimming Pools & Spas",3/31/2021,,,508,"1925 HOLLY HILL DR",AUSTIN,TX,78746,"BEECAVE WOODS",141,CONTRACTOR,,,,,,,,,,,"MAJESTIC POOLSCAPES",,,,,"MAJESTIC POOLSCAPES","1401 HOOKBILL KITE","BEE CAVES",TX,78738,"(512) 402-0011",,,,
TX,TRAVIS,"2021-045116 BP","Residential Swimming Pools & Spas",3/31/2021,,,392,"4504 MOUNT VERNON DR",AUSTIN,TX,78745,"FOREST OAKS",3,CONTRACTOR,,,,,,,,,,,"JACK BOOTHE CONSTRUCTION",,,,,"JACK BOOTHE CONSTRUCTION","1611 EVA ST",AUSTIN,TX,78704-3012,"(210) 557-2792",,,,
TX,TRAVIS,"2021-046705 BP","Residential Swimming Pools & Spas",3/31/2021,,,549,"825 CYPRESS GROVE DR",AUSTIN,TX,78732,"MCCORMICK RANCH ON LAKE AUSTIN",16,CONTRACTOR,,,,,,,,,,,"PARADISA HOMES",,,,,"PARADISA HOMES","7427 N LAMAR BLVD STE 101",AUSTIN,TX,78752-2358,"(512) 910-4505",http://www.paradisahomes.com/,,,
TX,TRAVIS,"2021-037553 BP","Residential Swimming Pools & Spas",3/31/2021,,,445,"5406 BADGER BND",AUSTIN,TX,78749,WESTCREEK,13,"JUAN RODRIGUEZ","5406 BADGER BND",AUSTIN,TX,78749,,Owner,,,,,"RIVER HILLS CONSTRUCTION",,,,,"RIVER HILLS CONSTRUCTION","9926 VIKKI TER",AUSTIN,TX,78736-7840,"(512) 791-4402",,,,
TX,TRAVIS,"2021-042998 BP","Residential Swimming Pools & Spas",3/31/2021,,,573,"12002 MOSSBROOK CV",AUSTIN,TX,78750,"BALCONES VILLAGE",,"ERIN SIMMONS","12002 MOSSBROOK CV",AUSTIN,TX,78750,"(512) 378-0210",Owner,,,,,OWNER,,,,,OWNER,,,,,,,,,
TX,TRAVIS,"2021-048554 BP","Residential Swimming Pools & Spas",4/2/2021,,,550,"7104 SPURLOCK DR",AUSTIN,TX,78731,"HIGHLAND HILLS",66,CONTRACTOR,,,,,,,,,,,"LOHR HOMES",,,,,"LOHR HOMES","7332 VISTA MOUNTAIN DR",AUSTIN,TX,78731-1808,"(512) 653-0553",,,,
TX,TRAVIS,"2021-049292 BP","Residential Swimming Pools & Spas",4/5/2021,,,430,"809 CYPRESS GROVE DR",AUSTIN,TX,78732,"MCCORMICK RANCH ON LAKE AUSTIN",18,CONTRACTOR,,,,,,,,,,,"PARADISA HOMES",,,,,"PARADISA HOMES","7427 N LAMAR BLVD STE 101",AUSTIN,TX,78752-2358,"(512) 910-4505",http://www.paradisahomes.com/,,,
TX,TRAVIS,"2021-049108 BP","Residential Swimming Pools & Spas",4/5/2021,,,439,"6002 HIGHLANDALE DR",AUSTIN,TX,78731,"NORTHWEST HILLS MESA OAKS",31,"CARRIE THOMAS","6002 HIGHLANDALE DR",AUSTIN,TX,78731,,Owner,,,,,"CODY POOLS",,,,,"CODY POOLS","2300 W PARMER LN",AUSTIN,TX,78727-4332,"(512) 835-4966",http://www.codypools.com,,"COLE NAUMAN",
TX,TRAVIS,"2021-048381 BP","Residential Swimming Pools & Spas",4/5/2021,,,137,"5000 MC DADE DR",AUSTIN,TX,78735,"LOST CREEK AT GAINES RANCH",1,"STEVEN MARTIN","5000 MC DADE DR",AUSTIN,TX,78735,,Owner,,,,,"CODY POOLS",,,,,"CODY POOLS","2300 W PARMER LN",AUSTIN,TX,78727-4332,"(512) 835-4966",http://www.codypools.com,,"COLE NAUMAN",
TX,TRAVIS,"2021-038063 BP","Residential Swimming Pools & Spas",3/31/2021,,,702,"2302 MANANA ST",AUSTIN,TX,78730,MANANA,4,CONTRACTOR,,,,,,,,,,,"POOLS PLUS",,,,,"POOLS PLUS","5554 S PEEK RD # 54",KATY,TX,77450-7130,"(832) 372-3288",http://www.poolhouston.com,,,
TX,TRAVIS,"2021-047104 BP","Residential Swimming Pools & Spas",4/1/2021,,,288,"5109 JACOBS CREEK CT",AUSTIN,TX,78749,"WESTERN OAKS",10,"DEREK & JESSICA  MILLER","5109 JACOBS CREEK CT",AUSTIN,TX,78749,,Owner,,,,,"CODY POOLS",,,,,"CODY POOLS","2300 W PARMER LN",AUSTIN,TX,78727-4332,"(512) 835-4966",http://www.codypools.com,,"COLE NAUMAN",
TX,TRAVIS,"2021-038505 BP","Residential Swimming Pools & Spas",4/1/2021,,,573,"4005 EDGEMONT DR",AUSTIN,TX,78731,"BALCONES PARK",13,"MATTHEW & JULEE DRISCOLL","4005 EDGEMONT DR",AUSTIN,TX,78731,,Owner,,,,,"WESTBANK POOLS",,,,,"WESTBANK POOLS","350 LOST RIVER RD",GEORGETOWN,TX,78628-9550,"(512) 217-8004",http://www.westbankpools.com/,,,
TX,TRAVIS,"2021-042130 BP","Residential Swimming Pools & Spas",4/5/2021,,,1783,"14600 FLAT TOP RANCH RD",AUSTIN,TX,78732,"STEINER RANCH",5,"VIVEK & BRITTANY GOSWAMI","14600 FLAT TOP RANCH RD",AUSTIN,TX,78732,,Owner,,,,,"AQUA BUILDERS",,,,,"AQUA BUILDERS","10900 STONELAKE BLVD STE A-320",AUSTIN,TX,78759-5833,"(512) 804-8361",,,"EBBN MILKS",
TX,TRAVIS,"2018-087632 BP","Residential Swimming Pools & Spas",4/1/2021,,19000,433,"1905 CORONA DR",AUSTIN,TX,78723,DELWOOD,13,CONTRACTOR,,,,,,,,,,,"STOREY CONSTRUCTION",,,,,"STOREY CONSTRUCTION","1507 NORTH LOOP BLVD",AUSTIN,TX,78756,"(512) 501-2678",http://www.storeyconstruction.co,,,
TX,TRAVIS,"2021-048673 BP","Residential Swimming Pools & Spas",4/2/2021,,34000,419,"4619 CYPRESS BND",AUSTIN,TX,78744,"THE VIEWPOINT AT WILLIAMSON CREEK",5,"MELBIN & NANCY HERNANDEZ","4619 CYPRESS BND",AUSTIN,TX,78744,,Owner,,,,,"CODY POOLS",,,,,"CODY POOLS","2300 W PARMER LN",AUSTIN,TX,78727-4332,"(512) 835-4966",http://www.codypools.com,,"COLE NAUMAN",
TX,TRAVIS,"2021-048700 BP","Residential Swimming Pools & Spas",4/2/2021,,54000,333,"1003 MERIDEN LN",AUSTIN,TX,78703,"MARLTON PLACE",2,"LAURA & ALAN SMITH","1003 MERIDEN LN",AUSTIN,TX,78703,,Owner,,,,,"CODY POOLS",,,,,"CODY POOLS","2300 W PARMER LN",AUSTIN,TX,78727-4332,"(512) 835-4966",http://www.codypools.com,,"COLE NAUMAN",
TX,TRAVIS,"2021-045410 BP","Residential Swimming Pools & Spas",4/5/2021,,59000,336,"1714 W 34TH ST",AUSTIN,TX,78703,BRYKERWOODS,7,"FORREST & JESSICA BLOEDE","1714 W 34TH ST",AUSTIN,TX,78703,,Owner,,,,,"INNOVATIVE POOLS & SPAS",,,,,"INNOVATIVE POOLS & SPAS","13205 STILLFOREST ST",AUSTIN,TX,78729-2836,"(512) 689-5958",http://innovativepoolsandspas.com/,"(512) 331-4730","DANIEL EDISON",Innovativepools@SBCglobal.net
TX,TRAVIS,"2021-037769 BP","Residential Swimming Pools & Spas",3/31/2021,,75000,445,"4322 SENDERO DR",AUSTIN,TX,78735,"TRAILWOOD VILLAGE AT TRAVIS COUNTRY",16,"TEAL & KARLY TUCKNESS","4322 SENDERO DR",AUSTIN,TX,78735,,Owner,,,,,"KB CUSTOM POOLS",,,,,"KB CUSTOM POOLS","12507 W HIGHWAY 71","BEE CAVE",TX,78738-6521,"(512) 268-9990",,,,
TX,TRAVIS,"2021-046294 BP","Residential Swimming Pools & Spas",4/4/2021,,79000,386,"8800 COLBERG DR",AUSTIN,TX,78749,"CIRCLE RANCH",28,"CYNDEE & RICHARD WATSON","8800 COLBERG DR",AUSTIN,TX,78749,,Owner,,,,,"ANTHONY & SYLVAN POOLS",,,,,"ANTHONY & SYLVAN POOLS","13343 N HIGHWAY 183 STE 295",AUSTIN,TX,78750-7161,"(512) 258-1232",http://www.anthonysylvan.com/,,,
TX,TRAVIS,"2021-043708 BP","Residential Swimming Pools & Spas",4/1/2021,,80000,525,"7800 CHRYSLER BND",AUSTIN,TX,78744,"EASTON PARK",7,"GARY & DEBORAH BROWN","7800 CHRYSLER BND",AUSTIN,TX,78744,,Owner,,,,,"ANTHONY & SYLVAN POOLS",,,,,"ANTHONY & SYLVAN POOLS","13343 N HIGHWAY 183 STE 295",AUSTIN,TX,78750-7161,"(512) 258-1232",http://www.anthonysylvan.com/,,,
TX,TRAVIS,"2021-043715 BP","Residential Swimming Pools & Spas",4/5/2021,,86000,480,"10101 KIEFFER CT",AUSTIN,TX,78750,"SPICEWOOD AT BULLCREEK",19,"DOUGLAS & GAYLE CLARK","10101 KIEFFER CT",AUSTIN,TX,78750,,Owner,,,,,"INNOVATIVE POOLS & SPAS",,,,,"INNOVATIVE POOLS & SPAS","13205 STILLFOREST ST",AUSTIN,TX,78729-2836,"(512) 689-5958",http://innovativepoolsandspas.com/,"(512) 331-4730","DANIEL EDISON",Innovativepools@SBCglobal.net
TX,TRAVIS,"2020-184406 BP","Residential Swimming Pools & Spas",4/5/2021,,91615,493,"10305 HOLME LACEY LN",AUSTIN,TX,78750,"SPICEWOOD AT BULLCREEK",9,"MARVIN & ELIZABETH HENRY","10305 HOLME LACEY LN",AUSTIN,TX,78750,,Owner,,,,,"INNOVATIVE POOLS & SPAS",,,,,"INNOVATIVE POOLS & SPAS","13205 STILLFOREST ST",AUSTIN,TX,78729-2836,"(512) 689-5958",http://innovativepoolsandspas.com/,"(512) 331-4730","DANIEL EDISON",Innovativepools@SBCglobal.net
TX,TRAVIS,"2021-044335 BP","Residential Swimming Pools & Spas",4/2/2021,,94000,,"10704 CHARGER WAY",AUSTIN,TX,78653,"HERITAGE POINT AT WILDHORSE RANCH",11,"PATRICK & JANICE AUTEN","10704 CHARGER WAY",AUSTIN,TX,78653,,Owner,,,,,"ANTHONY & SYLVAN POOLS",,,,,"ANTHONY & SYLVAN POOLS","13343 N HIGHWAY 183 STE 295",AUSTIN,TX,78750-7161,"(512) 258-1232",http://www.anthonysylvan.com/,,,
TX,TRAVIS,"2021-043553 BP","Residential Swimming Pools & Spas",4/5/2021,,125000,,"1325 MORNING MOON CIR",AUSTIN,TX,78732,"MCCORMICK RANCH ON LAKE AUSTIN",17,"BREYON & VELINCIA JONES","1325 MORNING MOON CIR",AUSTIN,TX,78732,,Owner,,,,,"INNOVATIVE POOLS & SPAS",,,,,"INNOVATIVE POOLS & SPAS","13205 STILLFOREST ST",AUSTIN,TX,78729-2836,"(512) 689-5958",http://innovativepoolsandspas.com/,"(512) 331-4730","DANIEL EDISON",Innovativepools@SBCglobal.net
TX,TRAVIS,"2021-049310 BP","Residential Swimming Pools & Spas",4/5/2021,,130000,454,"1600 GASTON AVE",AUSTIN,TX,78703,"PEMBERTON HEIGHTS",6,"LAURIE FREY","1600 GASTON AVE",AUSTIN,TX,78703,,Owner,,,,,"IES POOLS",,,,,"IES POOLS","10960 EAST CRYSTAL FALLS PARKWAY UNIT 500"," LEANDER",TX,78641,"(512) 817-3356",,,,
TX,TRAVIS,"2021-049213 BP","Residential Swimming Pools & Spas",4/5/2021,,200000,461,"4100 CHURCHILL DOWNS DR",AUSTIN,TX,78746,"DAVENPORT RANCH",10,"DAN & KRISTI WILLIAMS","4100 CHURCHILL DOWNS DR",AUSTIN,TX,78746,,Owner,,,,,"AQUA BUILDERS",,,,,"AQUA BUILDERS","10900 STONELAKE BLVD STE A-320",AUSTIN,TX,78759-5833,"(512) 804-8361",,,"EBBN MILKS",
TX,TRAVIS,"2016-062732 BP","Residential Swimming Pools & Spas",4/2/2021,,300000,1156,"1409 ALLEN RD",AUSTIN,TX,78746,DAVIS,1,CONTRACTOR,,,,,,,,,,,"AUSTIN CONTEMPORANEO",,,,,"AUSTIN CONTEMPORANEO","1031 CAPITAL OF TEXAS HWY BLDG C STE 300","WEST LAKE HILLS",TX,78746,"(512) 748-4351",,,"FRANCISCO CONTI",
TX,HAYS,2020-0467,"Restaurant and Bar",3/11/2021,,100000,,"5289 KYLE CENTER DR",KYLE,TX,78640,,,CONTRACTOR,,,,,,,,,,,"MAYSE & ASSOCIATES",,,,,"MAYSE & ASSOCIATES","14850 QUORUM DR STE 201",DALLAS,TX,75254-7510,"(972) 386-0338",http://www.mayseassociates.com/,,"BRYCE NICHOLS",bnichols@mayseassociates.com
TX,TRAVIS,18-18379,Retail,3/16/2021,,175690,,"5020 ROSS ROAD","DEL VALLE",TX,78617,,,CONTRACTOR,,,,,,,,,,,"BUDDY WEBB & COMPANY",,,,,"BUDDY WEBB & COMPANY","3057 E CAIRO ST",SPRINGFIELD,MO,65802-6204,"(417) 877-1385",http://www.buddywebbco.com/,"(417) 877-9736","JOANNA FAY",
TX,TRAVIS,21-32918,"Single Family Homes",3/19/2021,,457341,,"2305 ESCAPE",SPICEWOOD,TX,78669,,13,CONTRACTOR,,,,,,,,,,,"LEGACY DCS",,,,,"LEGACY DCS","205 WILD BASIN ROAD SOUTH, BLDG",AUSTIN,TX,78746,"(512) 726-0500",https://legacydcs.com/,"(512) 726-0527",,info@legacydcs.com
TX,TRAVIS,21-32556,"Single Family Homes",3/4/2021,,177900,,"12208 PERRITOS PLACE",AUSTIN,TX,78748,"ENCLAVE AT ESTANCIA",337,CONTRACTOR,,,,,,,,,,,"LENNAR HOMES",,,,,"LENNAR HOMES","13620 FM 620 RD 150",AUSTIN,TX,78717,"(512) 506-4000",http://www.lennar.com/,,,
TX,TRAVIS,21-32290,"Single Family Homes",3/5/2021,,125000,,"16116 SPRING BRANCH TRL",AUSTIN,TX,78734,,,CONTRACTOR,,,,,,,,,,,"LANDMAN ENVIRONMENTAL",,,,,"LANDMAN ENVIRONMENTAL","5808 LAKESIDE TRL",AUSTIN,TX,78734-1440,"(512) 789-5048",http://www.landman-environmental.com/,,"JOHN FOX",jfox@landman-environmental.com
TX,TRAVIS,20-31555,"Single Family Homes",3/9/2021,,800000,,"3400 BEE CREEK ROAD",SPICEWOOD,TX,78669,"BEE CREEK VISTAS",,CONTRACTOR,,,,,,,,,,,"DELCON ENVIRONMENTAL SYSTEMS",,,,,"DELCON ENVIRONMENTAL SYSTEMS","12713 MAJESTIC OAKS DR",AUSTIN,TX,78732-2001,"(512) 583-1397",,,"DERRICK LORMAND",
TX,TRAVIS,21-32858,"Single Family Homes",3/12/2021,,550000,,"10603 W. DARLEEN EXTENDED",LEANDER,TX,78641,,,CONTRACTOR,,,,,,,,,,,"AA CONSTRUCTION ",,,,,"AA CONSTRUCTION ","10515 HARWIN DR",HOUSTON,TX,77036-1595,"(713) 773-3383",,,,
TX,TRAVIS,21-32653,"Single Family Homes",3/9/2021,,625000,,"14703 ROUND MOUNTAIN ROAD",LEANDER,TX,78641,,,CONTRACTOR,,,,,,,,,,,"WUKASCH DESIGNS",,,,,"WUKASCH DESIGNS","235 KELLY DR",BURNET,TX,78611-2831,"(512) 715-9093",,,,
TX,TRAVIS,20-29158,"Single Family Homes",3/30/2021,,1562000,,"8717 ACUARELA CT",AUSTIN,TX,78735,,,CONTRACTOR,,,,,,,,,,,"HEYL HOMES",,,,,"HEYL HOMES","6601 VAUGHT RANCH RD STE 102",AUSTIN,TX,78730-2322,"(512) 343-8457",http://www.heylhomes.com/,"(512) 343-9583",,
TX,TRAVIS,19-25234,"Single Family Homes",3/2/2021,,300000,,"2802 GERONIMO TR",AUSTIN,TX,78734,,,CONTRACTOR,,,,,,,,,,,BUILDWORKS,,,,,BUILDWORKS,"214 SAILORS RUN STE 145",LAKEWAY,TX,78734-4100,"(512) 920-3439",http://buildworks.squarespace.com/,,,
TX,TRAVIS,21-32479,"Single Family Homes",3/4/2021,,635000,,"18101 KINGFISHER RIDGE DR","LAGO VISTA",TX,78645,,,"JEFF SEILER","18101 KINGFISHER RIDGE DR","LAGO VISTA",TX,78645,,Owner,,,,,OWNER,,,,,OWNER,,,,,,,,,
TX,TRAVIS,20-31254,"Single Family Homes",3/9/2021,,150000,,"18704 DOUBLE CANYON",JONESTOWN,TX,78645,,,CONTRACTOR,,,,,,,,,,,"LANDMAN ENVIRONMENTAL",,,,,"LANDMAN ENVIRONMENTAL","5808 LAKESIDE TRL",AUSTIN,TX,78734-1440,"(512) 789-5048",http://www.landman-environmental.com/,,"JOHN FOX",jfox@landman-environmental.com
TX,TRAVIS,20-31813,"Single Family Homes",3/29/2021,,800000,,"17800 WINDECKER COVE","DRIPPING SPRINGS",TX,78737,,,CONTRACTOR,,,,,,,,,,,"VINTAGE ESTATE HOMES",,,,,"VINTAGE ESTATE HOMES","780 S APOLLO BLVD STE 100",MELBOURNE,FL,32901-1402,"(512) 955-6825",http://www.vintageestatehomes.com/,,"PATRICK LONGO",
TX,TRAVIS,20-31178,"Single Family Homes",3/15/2021,,80000,,"21444 HOG EYE RD & 10108 HIBBS LN HOG EYE RD & HIBBS",AUSTIN,TX,78653,,,"MARLEN & BEATRIZ GOROSTIETA VERA","21444 HOG EYE RD & 10108 HIBBS LN HOG EYE RD & HIBBS",AUSTIN,TX,78653,,Owner,,,,,OWNER,,,,,OWNER,,,,,,,,,
TX,TRAVIS,21-32487,"Single Family Homes",3/15/2021,,90000,,"9601 EVENING CANOPY",MANOR,TX,78653,"WHISPER VALLEY",,CONTRACTOR,,,,,,,,,,,"CR THURMAN HOMES",,,,,"CR THURMAN HOMES","1221 WEST CAMPBELL RD",RICHARDSON,TX,75080,"(469) 964-1554",http://www.crthurmanhomes.com,,,bthurman@thurmanpartners.com
TX,TRAVIS,21-32500,"Single Family Homes",3/5/2021,,1154000,,"22701 RAINBOW CONNECTION SKYWAY",SPICEWOOD,TX,78669,,,CONTRACTOR,,,,,,,,,,,"WUKASCH DESIGNS",,,,,"WUKASCH DESIGNS","235 KELLY DR",BURNET,TX,78611-2831,"(512) 715-9093",,,,
TX,TRAVIS,21-32919,"Single Family Homes",3/24/2021,,174150,,"12204 PERRITOS PLACE",AUSTIN,TX,78748,,,CONTRACTOR,,,,,,,,,,,"LENNAR HOMES",,,,,"LENNAR HOMES","13620 FM 620 RD 150",AUSTIN,TX,78717,"(512) 506-4000",http://www.lennar.com/,,,
TX,TRAVIS,20-31818,"Single Family Homes",3/9/2021,,408990,,"7913 CORRIGAN PASS",AUSTIN,TX,78744,,,CONTRACTOR,,,,,,,,,,,"TAYLOR MORRISON OF TEXAS",,,,,"TAYLOR MORRISON OF TEXAS","11200 LAKELINE BLVD STE 150A",AUSTIN,TX,78717-5964,"(512) 328-8866",,"(512) 328-7988",,
TX,TRAVIS,20-31180,"Single Family Homes",3/2/2021,,1400000,,"8527 GALEANA TRACE COVE",AUSTIN,TX,78733,,,"PAMELA AND MYRON LOTTMAN","8527 GALEANA TRACE COVE",AUSTIN,TX,78733,,Owner,,,,,OWNER,,,,,OWNER,,,,,,,,,
TX,TRAVIS,20-31346,"Single Family Homes",3/17/2021,,120000,,"11413 TOM SASSMAN RD",AUSTIN,TX,78747,,,"GLORIA GONZALEZ","11413 TOM SASSMAN RD",AUSTIN,TX,78747,,Owner,,,,,OWNER,,,,,OWNER,,,,,,,,,
TX,TRAVIS,20-31686,"Single Family Homes",3/9/2021,,200000,,"7120 CLIFTON LN",AUSTIN,TX,78746,,,ROBERTO,"7120 CLIFTON LN",AUSTIN,TX,78746,,Owner,,,,,OWNER,,,,,OWNER,,,,,,,,,
TX,TRAVIS,20-31278,"Single Family Homes",3/9/2021,,425990,,"8808 CHRYSLER BEND",AUSTIN,TX,78744,"MIRABEL PARK",,CONTRACTOR,,,,,,,,,,,"TAYLOR MORRISON OF TEXAS",,,,,"TAYLOR MORRISON OF TEXAS","11200 LAKELINE BLVD STE 150A",AUSTIN,TX,78717-5964,"(512) 328-8866",,"(512) 328-7988",,
TX,TRAVIS,21-32467,"Single Family Homes",3/9/2021,,374990,,"5813 ALAMOSA CLEARING DR","DRIPPING SPRINGS",TX,78620,SWEETWATER,,CONTRACTOR,,,,,,,,,,,"TAYLOR MORRISON OF TEXAS",,,,,"TAYLOR MORRISON OF TEXAS","11200 LAKELINE BLVD STE 150A",AUSTIN,TX,78717-5964,"(512) 328-8866",,"(512) 328-7988",,
TX,TRAVIS,21-32460,"Single Family Homes",3/9/2021,,430990,,"5608 CIMARRON RIDGE LN","DRIPPING SPRINGS",TX,78620,,,CONTRACTOR,,,,,,,,,,,"TAYLOR MORRISON OF TEXAS",,,,,"TAYLOR MORRISON OF TEXAS","11200 LAKELINE BLVD STE 150A",AUSTIN,TX,78717-5964,"(512) 328-8866",,"(512) 328-7988",,
TX,TRAVIS,21-32464,"Single Family Homes",3/9/2021,,374990,,"5700 ALAMOSA CLEARING DR","DRIPPING SPRINGS",TX,78620,,,CONTRACTOR,,,,,,,,,,,"TAYLOR MORRISON OF TEXAS",,,,,"TAYLOR MORRISON OF TEXAS","11200 LAKELINE BLVD STE 150A",AUSTIN,TX,78717-5964,"(512) 328-8866",,"(512) 328-7988",,
TX,TRAVIS,21-32477,"Single Family Homes",3/26/2021,,260000,,"17408 LAKE WOOD CIRCLE","DRIPPING SPRINGS",TX,78620,"MOUNTAIN CREEK LAKES",,CONTRACTOR,,,,,,,,,,,"GUIDE RITE CUSTOM HOMES",,,,,"GUIDE RITE CUSTOM HOMES","9900 SPECTRUM DR",AUSTIN,TX,78717,"(512) 462-3322",,,"JAMES EGLOFF",
TX,TRAVIS,21-32654,"Single Family Homes",3/30/2021,,120000,,"1608 WESTWARD HO TRL",AUSTIN,TX,78734,,,"BLAKE SMITH","1608 WESTWARD HO TRL",AUSTIN,TX,78734,,Applicant,,,,,OWNER,,,,,OWNER,,,,,,,,,
TX,TRAVIS,21-32521,"Single Family Homes",3/31/2021,,191000,,"13609 MARTHA WASHINGTON PLACE",MANOR,TX,78653,"PRESIDENTIAL MEADOWS",,CONTRACTOR,,,,,,,,,,,"KB HOME",,,,,"KB HOME","10800 PECAN PARK BLVD STE 200",AUSTIN,TX,78750-1249,"(512) 651-8100",,,,
TX,TRAVIS,21-32522,"Single Family Homes",3/31/2021,,203000,,"13805 INAUGURAL ST",MANOR,TX,78653,,,CONTRACTOR,,,,,,,,,,,"KB HOME",,,,,"KB HOME","10800 PECAN PARK BLVD STE 200",AUSTIN,TX,78750-1249,"(512) 651-8100",,,,
TX,TRAVIS,21-32523,"Single Family Homes",3/31/2021,,163000,,"13420 ABIGAIL ADAMS ST",MANOR,TX,78653,"PRESIDENTIAL MEADOWS",,CONTRACTOR,,,,,,,,,,,"KB HOME",,,,,"KB HOME","10800 PECAN PARK BLVD STE 200",AUSTIN,TX,78750-1249,"(512) 651-8100",,,,
TX,TRAVIS,21-32524,"Single Family Homes",3/31/2021,,213000,,"14212 JAMES BUCHANAN ST",MANOR,TX,78653,"PRESIDENTIAL MEADOWS",,CONTRACTOR,,,,,,,,,,,"KB HOME",,,,,"KB HOME","10800 PECAN PARK BLVD STE 200",AUSTIN,TX,78750-1249,"(512) 651-8100",,,,
TX,TRAVIS,20-29974,"Single Family Homes",3/9/2021,,376990,,"8105 GILWICE LN",AUSTIN,TX,78744,"EASTON PARK",,CONTRACTOR,,,,,,,,,,,"TAYLOR MORRISON OF TEXAS",,,,,"TAYLOR MORRISON OF TEXAS","11200 LAKELINE BLVD STE 150A",AUSTIN,TX,78717-5964,"(512) 328-8866",,"(512) 328-7988",,
TX,TRAVIS,20-32072,"Single Family Homes",3/1/2021,,650000,,"22608 SWEET SUMMER DR",LEANDER,TX,78641,"BLUFFS OF SANDY CREEK",,CONTRACTOR,,,,,,,,,,,"WUKASCH DESIGNS",,,,,"WUKASCH DESIGNS","235 KELLY DR",BURNET,TX,78611-2831,"(512) 715-9093",,,,
TX,TRAVIS,21-32525,"Single Family Homes",3/31/2021,,238000,,"13825 ELEANOR ROOSEVELT ST",MANOR,TX,78653,,,CONTRACTOR,,,,,,,,,,,"KB HOME",,,,,"KB HOME","10800 PECAN PARK BLVD STE 200",AUSTIN,TX,78750-1249,"(512) 651-8100",,,,
TX,TRAVIS,21-32126,"Single Family Homes",3/5/2021,,750000,,"4419 ECK LN",AUSTIN,TX,78734,"LA HACIENDA",,CONTRACTOR,,,,,,,,,,,"SOUTHWEST SEPTIC DESIGN",,,,,"SOUTHWEST SEPTIC DESIGN","2573 DEER STAND LOOP","SAN MARCOS",TX,78666-5094,"(512) 392-5645",,,,
TX,TRAVIS,20-32073,"Single Family Homes",3/9/2021,,550000,,"22610 SWEET SUMMER DR",LEANDER,TX,78641,,,CONTRACTOR,,,,,,,,,,,"WUKASCH DESIGNS",,,,,"WUKASCH DESIGNS","235 KELLY DR",BURNET,TX,78611-2831,"(512) 715-9093",,,,
TX,TRAVIS,20-32109,"Single Family Homes",3/17/2021,,17000000,,"1917 HALLAM DR",AUSTIN,TX,78746,,,"SAE CHO","1917 HALLAM DR",AUSTIN,TX,78746,,Owner,,,,,OWNER,,,,,OWNER,,,,,,,,,
TX,TRAVIS,20-32102,"Single Family Homes",3/9/2021,,420000,,"7808 LENAPE",AUSTIN,TX,78736,"OVERLOOK ESTATES",,CONTRACTOR,,,,,,,,,,,"MONTES CONSTRUCTION & REMODEL",,,,,"MONTES CONSTRUCTION & REMODEL","18 CEDAR ST",BROWNSVILLE,TX,78521-2317,"(956) 504-1481",,,,
TX,TRAVIS,21-32646,"Single Family Homes",3/26/2021,,372000,,"6824 DAVENPORT DIVIDE RD",SPICEWOOD,TX,79556,SWEETWATER,,CONTRACTOR,,,,,,,,,,,"WESTIN HOMES",,,,,"WESTIN HOMES","1 SUGAR CREEK CENTER BLVD STE 600","SUGAR LAND",TX,77478-3787,"(281) 240-1551",http://www.westin-homes.com,,,
TX,TRAVIS,21-32643,"Single Family Homes",3/26/2021,,410000,,"6901 DAVENPORT DIVIDE ROAD",SPICEWOOD,TX,79556,,,CONTRACTOR,,,,,,,,,,,"WESTIN HOMES",,,,,"WESTIN HOMES","1 SUGAR CREEK CENTER BLVD STE 600","SUGAR LAND",TX,77478-3787,"(281) 240-1551",http://www.westin-homes.com,,,
TX,TRAVIS,21-32228,"Single Family Homes",3/26/2021,,80000,,"10009 RODRIGUEZ RD",AUSTIN,TX,78747,,,"SUSAN TORRES","10009 RODRIGUEZ RD",AUSTIN,TX,78747,,Owner,,,,,OWNER,,,,,OWNER,,,,,,,,,
TX,TRAVIS,21-32644,"Single Family Homes",3/1/2021,,339000,,"6817 DAVENPORT DIVIDE RD",SPICEWOOD,TX,79556,"SWEETWATER RANCH",,CONTRACTOR,,,,,,,,,,,"WESTIN HOMES",,,,,"WESTIN HOMES","1 SUGAR CREEK CENTER BLVD STE 600","SUGAR LAND",TX,77478-3787,"(281) 240-1551",http://www.westin-homes.com,,,
TX,TRAVIS,21-32645,"Single Family Homes",3/26/2021,,372000,,"7101 DAVENPORT DIVIDE ROAD",SPICEWOOD,TX,79556,,,CONTRACTOR,,,,,,,,,,,"WESTIN HOMES",,,,,"WESTIN HOMES","1 SUGAR CREEK CENTER BLVD STE 600","SUGAR LAND",TX,77478-3787,"(281) 240-1551",http://www.westin-homes.com,,,
TX,TRAVIS,21-32715,"Single Family Homes",3/8/2021,,198659,,"4428 KINGS CROSS RD",PFLUGERVILLE,TX,78660,,,CONTRACTOR,,,,,,,,,,,"GFO HOME",,,,,"GFO HOME","6012 AVIATION DR # 200",PFLUGERVILLE,TX,78660-8960,"(512) 492-8640",https://www.gfohome.com,,,
TX,TRAVIS,21-32658,"Single Family Homes",3/1/2021,,180000,,"5713 RESPINTO DR",AUSTIN,TX,78747,"BELLA FORTUNA",,CONTRACTOR,,,,,,,,,,,"BROHN HOMES",,,,,"BROHN HOMES","6720 VAUGHT RANCH RD STE 200",AUSTIN,TX,78730-2354,"(512) 320-8833",http://brohnhomes.com/,,,
TX,TRAVIS,21-32466,"Single Family Homes",3/9/2021,,425990,,"5809 ALAMOSA CLEARING DR","DRIPPING SPRINGS",TX,78620,"SWEETWATER RANCH",,CONTRACTOR,,,,,,,,,,,"TAYLOR MORRISON OF TEXAS",,,,,"TAYLOR MORRISON OF TEXAS","11200 LAKELINE BLVD STE 150A",AUSTIN,TX,78717-5964,"(512) 328-8866",,"(512) 328-7988",,
TX,TRAVIS,21-32235,"Single Family Homes",3/10/2021,,395990,,"2905 SALDIVAR BEND",AUSTIN,TX,78728,,,CONTRACTOR,,,,,,,,,,,"TAYLOR MORRISON OF TEXAS",,,,,"TAYLOR MORRISON OF TEXAS","11200 LAKELINE BLVD STE 150A",AUSTIN,TX,78717-5964,"(512) 328-8866",,"(512) 328-7988",,
TX,TRAVIS,21-32747,"Single Family Homes",3/8/2021,,200000,,"7613 PARULINE DR",AUSTIN,TX,78738,PROVENCE,,CONTRACTOR,,,,,,,,,,,"ASHTON WOODS HOMES",,,,,"ASHTON WOODS HOMES","4201 W PARMER LN STE A150",AUSTIN,TX,78727-4118,"(512) 610-7000",,,,
TX,TRAVIS,21-32528,"Single Family Homes",3/9/2021,,318456,,"3508 CLAFLIN ST",AUSTIN,TX,78730,"LAKESIDE AT BLACK",,CONTRACTOR,,,,,,,,,,,"MHI MCGUYER HOMEBUILDERS",,,,,"MHI MCGUYER HOMEBUILDERS","8200 N MO PAC EXPY STE 300",AUSTIN,TX,78759-8844,"(512) 502-2050",,"(512) 388-1836","FRANK MCGUYER",
TX,TRAVIS,21-32535,"Single Family Homes",3/2/2021,,250000,,"9205 LAURALAN DR",AUSTIN,TX,78736,,,CONTRACTOR,,,,,,,,,,,"LANDMAN ENVIRONMENTAL",,,,,"LANDMAN ENVIRONMENTAL","5808 LAKESIDE TRL",AUSTIN,TX,78734-1440,"(512) 789-5048",http://www.landman-environmental.com/,,"JOHN FOX",jfox@landman-environmental.com
TX,TRAVIS,21-32742,"Single Family Homes",3/8/2021,,485990,,"22300 COYOTE CAVE TR",SPICEWOOD,TX,78669,"WEST CYPRESS HILLS",,CONTRACTOR,,,,,,,,,,,"PULTE HOMES",,,,,"PULTE HOMES","9401 AMBERGLEN BLVD STE I-150",AUSTIN,TX,78729-1154,"(512) 561-4344",,,,
TX,TRAVIS,21-32743,"Single Family Homes",3/8/2021,,200000,,"7608 PARULINE DR",AUSTIN,TX,78738,PROVENCE,,CONTRACTOR,,,,,,,,,,,"ASHTON WOODS HOMES",,,,,"ASHTON WOODS HOMES","4201 W PARMER LN STE A150",AUSTIN,TX,78727-4118,"(512) 610-7000",,,,
TX,TRAVIS,21-32735,"Single Family Homes",3/8/2021,,350000,,"8400 LAUGHLIN LN",AUSTIN,TX,78744,"MIRABEL PARK",,CONTRACTOR,,,,,,,,,,,"DAVID WEEKLEY HOMES",,,,,"DAVID WEEKLEY HOMES","9000 WATERFORD CENTRE BLVD",AUSTIN,TX,78758-7662,"(800) 390-6774",http://www.davidweekleyhomes.com/,,,
TX,TRAVIS,20-31238,"Single Family Homes",3/5/2021,,900000,,"3405 CARIBOU TR",AUSTIN,TX,78735,,,CONTRACTOR,,,,,,,,,,,"BEE CAVE CONSTRUCTION",,,,,"BEE CAVE CONSTRUCTION","404 MISTY MORN LN","CEDAR PARK",TX,78613-3983,"(512) 336-5512",,,,
TX,TRAVIS,20-31041,"Single Family Homes",3/5/2021,,345000,,"8612 TIP TOP DRIVE BLDG 3",JONESTOWN,TX,78645,,,"JOSEPH AND KATHERINE REEDHOLM","8612 TIP TOP DRIVE BLDG 3",JONESTOWN,TX,78645,,Owner,,,,,OWNER,,,,,OWNER,,,,,,,,,
TX,TRAVIS,20-31068,"Single Family Homes",3/3/2021,,460000,,"2704 SAN JUAN DR",AUSTIN,TX,78733,"AUSTIN LAKE ESTATES",,"KATHERINE BLAIR","2704 SAN JUAN DR",AUSTIN,TX,78733,,Owner,,,,,OWNER,,,,,OWNER,,,,,,,,,
TX,TRAVIS,21-32231,"Single Family Homes",3/10/2021,,399990,,"3007 SALDIVAR BEND",AUSTIN,TX,78728,BRATTON,,CONTRACTOR,,,,,,,,,,,"TAYLOR MORRISON OF TEXAS",,,,,"TAYLOR MORRISON OF TEXAS","11200 LAKELINE BLVD STE 150A",AUSTIN,TX,78717-5964,"(512) 328-8866",,"(512) 328-7988",,
TX,TRAVIS,21-32830,"Single Family Homes",3/3/2021,,175000,,"9716 EVENING CANOPY DR",MANOR,TX,78653,,,CONTRACTOR,,,,,,,,,,,"AHA DREAM HOMES",,,,,"AHA DREAM HOMES","10217 WIND CAVE TRL",AUSTIN,TX,78747-2696,"(512) 535-7343",http://www.ahadreamhomes.com,"(866) 204-4269",,info@ahadreamhomes.com
TX,TRAVIS,21-32561,"Single Family Homes",3/10/2021,,1000000,,"3512 BEE CREEK ROAD",SPICEWOOD,TX,78669,"BEE CREEK VISTAS",,CONTRACTOR,,,,,,,,,,,"DELCON ENVIRONMENTAL SYSTEMS",,,,,"DELCON ENVIRONMENTAL SYSTEMS","12713 MAJESTIC OAKS DR",AUSTIN,TX,78732-2001,"(512) 583-1397",,,"DERRICK LORMAND",
TX,TRAVIS,21-32833,"Single Family Homes",3/9/2021,,249000,,"6009 BERRIWEATHER DR",AUSTIN,TX,78724,GILBERT,,CONTRACTOR,,,,,,,,,,,"DR HORTON",,,,,"DR HORTON","10700 PECAN PARK BLVD STE 400",AUSTIN,TX,78750-1227,"(512) 345-4663",,,,
TX,TRAVIS,21-32835,"Single Family Homes",3/9/2021,,157800,,"6016 BERRIWEATHER DR",AUSTIN,TX,78724,,,CONTRACTOR,,,,,,,,,,,"DR HORTON",,,,,"DR HORTON","10700 PECAN PARK BLVD STE 400",AUSTIN,TX,78750-1227,"(512) 345-4663",,,,
TX,TRAVIS,21-32839,"Single Family Homes",3/9/2021,,196200,,"6021 BERRIWEATHER DR",AUSTIN,TX,78724,,,CONTRACTOR,,,,,,,,,,,"DR HORTON",,,,,"DR HORTON","10700 PECAN PARK BLVD STE 400",AUSTIN,TX,78750-1227,"(512) 345-4663",,,,
TX,TRAVIS,21-32760,"Single Family Homes",3/8/2021,,195750,,"12216 MORIAH BEND",AUSTIN,TX,78732,,,CONTRACTOR,,,,,,,,,,,"LENNAR HOMES",,,,,"LENNAR HOMES","13620 FM 620 RD 150",AUSTIN,TX,78717,"(512) 506-4000",http://www.lennar.com/,,,
TX,TRAVIS,21-32761,"Single Family Homes",3/8/2021,,235575,,"4905 WATUSI BEND",AUSTIN,TX,78732,,,CONTRACTOR,,,,,,,,,,,"LENNAR HOMES",,,,,"LENNAR HOMES","13620 FM 620 RD 150",AUSTIN,TX,78717,"(512) 506-4000",http://www.lennar.com/,,,
TX,TRAVIS,21-32843,"Single Family Homes",3/9/2021,,196200,,"6109 BERRIWEATHER DR",AUSTIN,TX,78724,,,CONTRACTOR,,,,,,,,,,,"DR HORTON",,,,,"DR HORTON","10700 PECAN PARK BLVD STE 400",AUSTIN,TX,78750-1227,"(512) 345-4663",,,,
TX,TRAVIS,21-32844,"Single Family Homes",3/9/2021,,147600,,"6104 BERRIWEATHER DR",AUSTIN,TX,78724,,,CONTRACTOR,,,,,,,,,,,"DR HORTON",,,,,"DR HORTON","10700 PECAN PARK BLVD STE 400",AUSTIN,TX,78750-1227,"(512) 345-4663",,,,
TX,TRAVIS,21-32845,"Single Family Homes",3/9/2021,,175425,,"6108 BERRIWEATHER DR",AUSTIN,TX,78724,,,CONTRACTOR,,,,,,,,,,,"DR HORTON",,,,,"DR HORTON","10700 PECAN PARK BLVD STE 400",AUSTIN,TX,78750-1227,"(512) 345-4663",,,,
TX,TRAVIS,21-32846,"Single Family Homes",3/9/2021,,157200,,"6112 BERRIWEATHER DR",AUSTIN,TX,78724,,,CONTRACTOR,,,,,,,,,,,"DR HORTON",,,,,"DR HORTON","10700 PECAN PARK BLVD STE 400",AUSTIN,TX,78750-1227,"(512) 345-4663",,,,
TX,TRAVIS,21-32847,"Single Family Homes",3/9/2021,,203550,,"6116 BERRIWEATHER DR",AUSTIN,TX,78724,,,CONTRACTOR,,,,,,,,,,,"DR HORTON",,,,,"DR HORTON","10700 PECAN PARK BLVD STE 400",AUSTIN,TX,78750-1227,"(512) 345-4663",,,,
TX,TRAVIS,21-32848,"Single Family Homes",3/9/2021,,183675,,"6113 BERRIWEATHER DR",AUSTIN,TX,78724,,,CONTRACTOR,,,,,,,,,,,"DR HORTON",,,,,"DR HORTON","10700 PECAN PARK BLVD STE 400",AUSTIN,TX,78750-1227,"(512) 345-4663",,,,
TX,TRAVIS,21-32849,"Single Family Homes",3/9/2021,,147600,,"6117 BERRIWEATHER DR",AUSTIN,TX,78724,,,CONTRACTOR,,,,,,,,,,,"DR HORTON",,,,,"DR HORTON","10700 PECAN PARK BLVD STE 400",AUSTIN,TX,78750-1227,"(512) 345-4663",,,,
TX,TRAVIS,21-32850,"Single Family Homes",3/9/2021,,249000,,"13500 TAI LONDO DR",AUSTIN,TX,78724,,,CONTRACTOR,,,,,,,,,,,"DR HORTON",,,,,"DR HORTON","10700 PECAN PARK BLVD STE 400",AUSTIN,TX,78750-1227,"(512) 345-4663",,,,
TX,TRAVIS,21-32851,"Single Family Homes",3/9/2021,,203550,,"13508 TAI LONDO DR",AUSTIN,TX,78724,,,CONTRACTOR,,,,,,,,,,,"DR HORTON",,,,,"DR HORTON","10700 PECAN PARK BLVD STE 400",AUSTIN,TX,78750-1227,"(512) 345-4663",,,,
TX,TRAVIS,20-32036,"Single Family Homes",3/8/2021,,340000,,"18310 HAMILTON POOL TRL",AUSTIN,TX,78738,,,"STANELY & SUSAN LACROIX","18310 HAMILTON POOL TRL",AUSTIN,TX,78738,,Owner,,,,,OWNER,,,,,OWNER,,,,,,,,,
TX,TRAVIS,21-32220,"Single Family Homes",3/15/2021,,154875,,"19009 FERNANDO TR",AUSTIN,TX,78738,"SWEETWATER RANCH",,CONTRACTOR,,,,,,,,,,,"LENNAR HOMES",,,,,"LENNAR HOMES","13620 FM 620 RD 150",AUSTIN,TX,78717,"(512) 506-4000",http://www.lennar.com/,,,
TX,TRAVIS,21-32788,"Single Family Homes",3/16/2021,,204935,,"14324 SILVER LACE LN",PFLUGERVILLE,TX,78660,"VILLAGE AT NORTHTOWN",,CONTRACTOR,,,,,,,,,,,"KB HOME",,,,,"KB HOME","10800 PECAN PARK BLVD STE 200",AUSTIN,TX,78750-1249,"(512) 651-8100",,,,
TX,TRAVIS,21-32797,"Single Family Homes",3/8/2021,,180000,,"11325 LAGO DE GARDA",AUSTIN,TX,78747,"BELLA FORTUNA",,CONTRACTOR,,,,,,,,,,,"BROHN HOMES",,,,,"BROHN HOMES","6720 VAUGHT RANCH RD STE 200",AUSTIN,TX,78730-2354,"(512) 320-8833",http://brohnhomes.com/,,,
TX,TRAVIS,21-32624,"Single Family Homes",3/9/2021,,300000,,"300 BLUE RIDGE TR",AUSTIN,TX,78746,,,CONTRACTOR,,,,,,,,,,,"KATIE HASTING DESIGN LLC",,,,,"KATIE HASTING DESIGN LLC","407 HONEYCOMB RDG",AUSTIN,TX,78746,"(512) 653-2214",https://katiehastingsdesign.com/,,"KATIE HASTING",katie@katiehastingsdesign.com
TX,TRAVIS,21-32810,"Single Family Homes",3/8/2021,,179400,,"7313 TRAVERTINE SPRING DR",AUSTIN,TX,78744,,,CONTRACTOR,,,,,,,,,,,"MERITAGE HOMES",,,,,"MERITAGE HOMES","8920 BUSINESS PARK DR STE 250",AUSTIN,TX,78759-7622,"(512) 610-4800",,,,
TX,TRAVIS,21-32785,"Single Family Homes",3/16/2021,,355457,,"4424 MANDALIN ST",PFLUGERVILLE,TX,78660,,,CONTRACTOR,,,,,,,,,,,"EHT OF TEXAS LP",,,,,"EHT OF TEXAS LP","3520 EXECUTIVE CENTER DR STE 100",AUSTIN,TX,78731-1636,"(757) 287-6394",,,,
TX,TRAVIS,21-32789,"Single Family Homes",3/8/2021,,121290,,"14301 SANDROCK BEND",PFLUGERVILLE,TX,78660,,,CONTRACTOR,,,,,,,,,,,"LENNAR HOMES",,,,,"LENNAR HOMES","13620 FM 620 RD 150",AUSTIN,TX,78717,"(512) 506-4000",http://www.lennar.com/,,,
TX,TRAVIS,21-32841,"Single Family Homes",3/9/2021,,176550,,"6101 BERRIWEATHER DR",AUSTIN,TX,78724,,,CONTRACTOR,,,,,,,,,,,"DR HORTON",,,,,"DR HORTON","10700 PECAN PARK BLVD STE 400",AUSTIN,TX,78750-1227,"(512) 345-4663",,,,
TX,TRAVIS,21-32798,"Single Family Homes",3/16/2021,,173230,,"204 PEARL BUTTERFLY WAY",PFLUGERVILLE,TX,78660,,,CONTRACTOR,,,,,,,,,,,"KB HOME",,,,,"KB HOME","10800 PECAN PARK BLVD STE 200",AUSTIN,TX,78750-1249,"(512) 651-8100",,,,
TX,TRAVIS,21-32842,"Single Family Homes",3/9/2021,,158700,,"6105 BERRIWEATHER DR",AUSTIN,TX,78724,,,CONTRACTOR,,,,,,,,,,,"DR HORTON",,,,,"DR HORTON","10700 PECAN PARK BLVD STE 400",AUSTIN,TX,78750-1227,"(512) 345-4663",,,,
TX,TRAVIS,21-32799,"Single Family Homes",3/8/2021,,170000,,"5625 CORSO CT",AUSTIN,TX,78747,,,CONTRACTOR,,,,,,,,,,,"BROHN HOMES",,,,,"BROHN HOMES","6720 VAUGHT RANCH RD STE 200",AUSTIN,TX,78730-2354,"(512) 320-8833",http://brohnhomes.com/,,,
TX,TRAVIS,21-32831,"Single Family Homes",3/9/2021,,183675,,"6001 BERRIWEATHER DR",AUSTIN,TX,78724,,,CONTRACTOR,,,,,,,,,,,"DR HORTON",,,,,"DR HORTON","10700 PECAN PARK BLVD STE 400",AUSTIN,TX,78750-1227,"(512) 345-4663",,,,
TX,TRAVIS,21-32776,"Single Family Homes",3/17/2021,,115005,,"13413 ABIGAIL ADAMS ST",MANOR,TX,78653,,,CONTRACTOR,,,,,,,,,,,"KB HOME",,,,,"KB HOME","10800 PECAN PARK BLVD STE 200",AUSTIN,TX,78750-1249,"(512) 651-8100",,,,
TX,TRAVIS,21-32777,"Single Family Homes",3/30/2021,,173230,,"13421 ABIGAIL ADAMS ST",MANOR,TX,78653,,,CONTRACTOR,,,,,,,,,,,"KB HOME",,,,,"KB HOME","10800 PECAN PARK BLVD STE 200",AUSTIN,TX,78750-1249,"(512) 651-8100",,,,
TX,TRAVIS,21-32783,"Single Family Homes",3/16/2021,,204935,,"108 LEMON LIGHT LN",PFLUGERVILLE,TX,78660,,,CONTRACTOR,,,,,,,,,,,"KB HOME",,,,,"KB HOME","10800 PECAN PARK BLVD STE 200",AUSTIN,TX,78750-1249,"(512) 651-8100",,,,
TX,TRAVIS,21-32784,"Single Family Homes",3/16/2021,,246330,,"328 LEMON LIGHT LN",PFLUGERVILLE,TX,78660,,,CONTRACTOR,,,,,,,,,,,"KB HOME",,,,,"KB HOME","10800 PECAN PARK BLVD STE 200",AUSTIN,TX,78750-1249,"(512) 651-8100",,,,
TX,TRAVIS,21-32832,"Single Family Homes",3/9/2021,,196200,,"6005 BERRIWEATHER DR",AUSTIN,TX,78724,,,CONTRACTOR,,,,,,,,,,,"DR HORTON",,,,,"DR HORTON","10700 PECAN PARK BLVD STE 400",AUSTIN,TX,78750-1227,"(512) 345-4663",,,,
TX,TRAVIS,21-32834,"Single Family Homes",3/9/2021,,175425,,"6012 BERRIWEATHER DR",AUSTIN,TX,78724,,,CONTRACTOR,,,,,,,,,,,"DR HORTON",,,,,"DR HORTON","10700 PECAN PARK BLVD STE 400",AUSTIN,TX,78750-1227,"(512) 345-4663",,,,
TX,TRAVIS,21-32801,"Single Family Homes",3/30/2021,,246330,,"6409 CONESTOGA WAGON WAY","DEL VALLE",TX,78640,,,CONTRACTOR,,,,,,,,,,,"KB HOME",,,,,"KB HOME","10800 PECAN PARK BLVD STE 200",AUSTIN,TX,78750-1249,"(512) 651-8100",,,,
TX,TRAVIS,21-32802,"Single Family Homes",3/30/2021,,173230,,"6608 ALBANY SLEIGH DR","DEL VALLE",TX,78640,,,CONTRACTOR,,,,,,,,,,,"KB HOME",,,,,"KB HOME","10800 PECAN PARK BLVD STE 200",AUSTIN,TX,78750-1249,"(512) 651-8100",,,,
TX,TRAVIS,20-31518,"Single Family Homes",3/10/2021,,489000,,"8920 SAM CARTER DR",AUSTIN,TX,78736,,,"LUCIANO VALRIO","8920 SAM CARTER DR",AUSTIN,TX,78736,,Owner,,,,,OWNER,,,,,OWNER,,,,,,,,,
TX,TRAVIS,21-32840,"Single Family Homes",3/9/2021,,183675,,"6023 BERRIWEATHER DR",AUSTIN,TX,78724,,,CONTRACTOR,,,,,,,,,,,"DR HORTON",,,,,"DR HORTON","10700 PECAN PARK BLVD STE 400",AUSTIN,TX,78750-1227,"(512) 345-4663",,,,
TX,TRAVIS,21-32819,"Single Family Homes",3/9/2021,,900000,,"27009 MASTERS PKWY",SPICEWOOD,TX,78669,,,CONTRACTOR,,,,,,,,,,,"GRANDVIEW CUSTOM HOMES",,,,,"GRANDVIEW CUSTOM HOMES","900 RANCH ROAD 620 S STE C101-213",LAKEWAY,TX,78734-5615,"(512) 905-2514",http://grandviewhomesaustin.com/about-grandview-custom-homes-austin-tx/,,"Taylor O'Brien",info@grandviewhomesaustin.com
TX,TRAVIS,21-32772,"Single Family Homes",3/17/2021,,204935,,"19221 JAMES CARTER JR ST",MANOR,TX,78653,,,CONTRACTOR,,,,,,,,,,,"KB HOME",,,,,"KB HOME","10800 PECAN PARK BLVD STE 200",AUSTIN,TX,78750-1249,"(512) 651-8100",,,,
TX,TRAVIS,21-32774,"Single Family Homes",3/17/2021,,104890,,"19325 JAMES CARTER JR ST",MANOR,TX,78653,,,CONTRACTOR,,,,,,,,,,,"KB HOME",,,,,"KB HOME","10800 PECAN PARK BLVD STE 200",AUSTIN,TX,78750-1249,"(512) 651-8100",,,,
TX,TRAVIS,21-32590,"Single Family Homes",3/1/2021,,179400,,"7401 TRAVERTINE SPRING DR",AUSTIN,TX,78744,,,CONTRACTOR,,,,,,,,,,,"MERITAGE HOMES",,,,,"MERITAGE HOMES","8920 BUSINESS PARK DR STE 250",AUSTIN,TX,78759-7622,"(512) 610-4800",,,,
TX,TRAVIS,21-32194,"Single Family Homes",3/9/2021,,164925,,"19013 FERNANDO TR",AUSTIN,TX,78738,SWEETWATER,,CONTRACTOR,,,,,,,,,,,"LENNAR HOMES",,,,,"LENNAR HOMES","13620 FM 620 RD 150",AUSTIN,TX,78717,"(512) 506-4000",http://www.lennar.com/,,,
TX,TRAVIS,21-32940,"Single Family Homes",3/16/2021,,300000,,"6505 EMPRESA DR",AUSTIN,TX,78738,,,CONTRACTOR,,,,,,,,,,,"PERRY HOMES",,,,,"PERRY HOMES","6112 LLANO ST",AUSTIN,TX,78702,"(512) 810-8050",,,,
TX,TRAVIS,21-32941,"Single Family Homes",3/30/2021,,480000,,"503 HERON DR",LAKEWAY,TX,78734,,,CONTRACTOR,,,,,,,,,,,"ENERTECH BUILDERS",,,,,"ENERTECH BUILDERS","3595 RR 620 S. SUITE 150 ",AUSTIN,TX,78738,"(512) 845-4517",,,,
TX,TRAVIS,21-32829,"Single Family Homes",3/19/2021,,527000,,"1905 BALLINGER DR",SPICEWOOD,TX,78669,,,CONTRACTOR,,,,,,,,,,,"SIERRA CLASSIC HOMES",,,,,"SIERRA CLASSIC HOMES","10400 RANCH ROAD 12",WIMBERLEY,TX,78676,"(512) 842-1246",http://www.sierraclassic.com/,,,
TX,TRAVIS,21-32191,"Single Family Homes",3/9/2021,,167625,,"19009 FREEMAN CIRCLE",AUSTIN,TX,78738,"SWEETWATER RANCH",,CONTRACTOR,,,,,,,,,,,"LENNAR HOMES",,,,,"LENNAR HOMES","13620 FM 620 RD 150",AUSTIN,TX,78717,"(512) 506-4000",http://www.lennar.com/,,,
TX,TRAVIS,21-32855,"Single Family Homes",3/16/2021,,212670,,"13817 ELEANOR ROOSEVELT",MANOR,TX,78653,,,CONTRACTOR,,,,,,,,,,,"KB HOME",,,,,"KB HOME","10800 PECAN PARK BLVD STE 200",AUSTIN,TX,78750-1249,"(512) 651-8100",,,,
TX,TRAVIS,21-32744,"Single Family Homes",3/8/2021,,154055,,"20117 TALON GRASP TR",PFLUGERVILLE,TX,78660,,,CONTRACTOR,,,,,,,,,,,"SCOTT FELDER HOMES",,,,,"SCOTT FELDER HOMES","6414 RIVER PLACE BLVD STE 100",AUSTIN,TX,78730-1158,"(512) 418-5400",,,,
TX,TRAVIS,21-32745,"Single Family Homes",3/9/2021,,210225,,"6112 CUCHARA BEND",AUSTIN,TX,78738,"SWEETWATER RANCH",,CONTRACTOR,,,,,,,,,,,"LENNAR HOMES",,,,,"LENNAR HOMES","13620 FM 620 RD 150",AUSTIN,TX,78717,"(512) 506-4000",http://www.lennar.com/,,,
TX,TRAVIS,21-32746,"Single Family Homes",3/8/2021,,200000,,"7633 PARULINE DR",AUSTIN,TX,78738,,,CONTRACTOR,,,,,,,,,,,"ASHTON WOODS HOMES",,,,,"ASHTON WOODS HOMES","4201 W PARMER LN STE A150",AUSTIN,TX,78727-4118,"(512) 610-7000",,,,
TX,TRAVIS,21-32706,"Single Family Homes",3/9/2021,,157200,,"6013 MONTRELIA DR",AUSTIN,TX,78724,,,CONTRACTOR,,,,,,,,,,,"DR HORTON",,,,,"DR HORTON","10700 PECAN PARK BLVD STE 400",AUSTIN,TX,78750-1227,"(512) 345-4663",,,,
TX,TRAVIS,21-32766,"Single Family Homes",3/17/2021,,113900,,"13512 MARTHA WASHINGTON PLACE",MANOR,TX,78653,,,CONTRACTOR,,,,,,,,,,,"KB HOME",,,,,"KB HOME","10800 PECAN PARK BLVD STE 200",AUSTIN,TX,78750-1249,"(512) 651-8100",,,,
TX,TRAVIS,21-32974,"Single Family Homes",3/16/2021,,634518,,"16716 HORONDELLE DR",AUSTIN,TX,78738,,,CONTRACTOR,,,,,,,,,,,"DAVID WEEKLEY HOMES",,,,,"DAVID WEEKLEY HOMES","9000 WATERFORD CENTRE BLVD",AUSTIN,TX,78758-7662,"(800) 390-6774",http://www.davidweekleyhomes.com/,,,
TX,TRAVIS,21-32768,"Single Family Homes",3/17/2021,,212075,,"13501 MARTHA WASHINGTON PL",MANOR,TX,78653,,,CONTRACTOR,,,,,,,,,,,"KB HOME",,,,,"KB HOME","10800 PECAN PARK BLVD STE 200",AUSTIN,TX,78750-1249,"(512) 651-8100",,,,
TX,TRAVIS,21-32977,"Single Family Homes",3/16/2021,,597458,,"7320 MOUCHEROLLE DR",AUSTIN,TX,78738,,,CONTRACTOR,,,,,,,,,,,"DAVID WEEKLEY HOMES",,,,,"DAVID WEEKLEY HOMES","9000 WATERFORD CENTRE BLVD",AUSTIN,TX,78758-7662,"(800) 390-6774",http://www.davidweekleyhomes.com/,,,
TX,TRAVIS,21-32769,"Single Family Homes",3/17/2021,,212075,,"13504 MARTHA WASHINGTON PL",MANOR,TX,78653,,,CONTRACTOR,,,,,,,,,,,"KB HOME",,,,,"KB HOME","10800 PECAN PARK BLVD STE 200",AUSTIN,TX,78750-1249,"(512) 651-8100",,,,
TX,TRAVIS,21-32980,"Single Family Homes",3/16/2021,,518243,,"16536 POULICHE COVE",AUSTIN,TX,78738,,,CONTRACTOR,,,,,,,,,,,"DAVID WEEKLEY HOMES",,,,,"DAVID WEEKLEY HOMES","9000 WATERFORD CENTRE BLVD",AUSTIN,TX,78758-7662,"(800) 390-6774",http://www.davidweekleyhomes.com/,,,
TX,TRAVIS,21-32958,"Single Family Homes",3/9/2021,,410000,,"7001 DAVENPORT DIVIDE ROAD",SPICEWOOD,TX,79556,SWEETWATER,,CONTRACTOR,,,,,,,,,,,"WESTIN HOMES",,,,,"WESTIN HOMES","1 SUGAR CREEK CENTER BLVD STE 600","SUGAR LAND",TX,77478-3787,"(281) 240-1551",http://www.westin-homes.com,,,
TX,TRAVIS,21-32771,"Single Family Homes",3/17/2021,,225675,,"13900 ELEANOR ROOSEVELT ST",MANOR,TX,78653,,,CONTRACTOR,,,,,,,,,,,"KB HOME",,,,,"KB HOME","10800 PECAN PARK BLVD STE 200",AUSTIN,TX,78750-1249,"(512) 651-8100",,,,
TX,TRAVIS,21-32773,"Single Family Homes",3/17/2021,,204935,,"19321 JAMES CARTER JR ST",MANOR,TX,78653,,,CONTRACTOR,,,,,,,,,,,"KB HOME",,,,,"KB HOME","10800 PECAN PARK BLVD STE 200",AUSTIN,TX,78750-1249,"(512) 651-8100",,,,
TX,TRAVIS,21-32966,"Single Family Homes",3/16/2021,,158700,,"6120 BROCADE DR",AUSTIN,TX,78724,,,CONTRACTOR,,,,,,,,,,,"DR HORTON",,,,,"DR HORTON","10700 PECAN PARK BLVD STE 400",AUSTIN,TX,78750-1227,"(512) 345-4663",,,,
TX,TRAVIS,21-32967,"Single Family Homes",3/16/2021,,147600,,"6116 BROCADE DR",AUSTIN,TX,78724,,,CONTRACTOR,,,,,,,,,,,"DR HORTON",,,,,"DR HORTON","10700 PECAN PARK BLVD STE 400",AUSTIN,TX,78750-1227,"(512) 345-4663",,,,
TX,TRAVIS,21-32872,"Single Family Homes",3/8/2021,,170000,,"11417 LAGO DE GARDA",AUSTIN,TX,78747,,,CONTRACTOR,,,,,,,,,,,"BROHN HOMES",,,,,"BROHN HOMES","6720 VAUGHT RANCH RD STE 200",AUSTIN,TX,78730-2354,"(512) 320-8833",http://brohnhomes.com/,,,
TX,TRAVIS,21-32968,"Single Family Homes",3/16/2021,,176550,,"6112 BROCADE DR",AUSTIN,TX,78724,,,CONTRACTOR,,,,,,,,,,,"DR HORTON",,,,,"DR HORTON","10700 PECAN PARK BLVD STE 400",AUSTIN,TX,78750-1227,"(512) 345-4663",,,,
TX,TRAVIS,21-32991,"Single Family Homes",3/16/2021,,175425,,"6005 BROCADE DR",AUSTIN,TX,78724,,,CONTRACTOR,,,,,,,,,,,"DR HORTON",,,,,"DR HORTON","10700 PECAN PARK BLVD STE 400",AUSTIN,TX,78750-1227,"(512) 345-4663",,,,
TX,TRAVIS,21-32992,"Single Family Homes",3/16/2021,,157200,,"6009 BROCADE DR",AUSTIN,TX,78724,,,CONTRACTOR,,,,,,,,,,,"DR HORTON",,,,,"DR HORTON","10700 PECAN PARK BLVD STE 400",AUSTIN,TX,78750-1227,"(512) 345-4663",,,,
TX,TRAVIS,21-32993,"Single Family Homes",3/15/2021,,484570.2,,"3400 FINNY LN",PFLUGERVILLE,TX,78660,"LAKESIDE AT BLACKHAWK",,CONTRACTOR,,,,,,,,,,,"MHI MCGUYER HOMEBUILDERS",,,,,"MHI MCGUYER HOMEBUILDERS","8200 N MO PAC EXPY STE 300",AUSTIN,TX,78759-8844,"(512) 502-2050",,"(512) 388-1836","FRANK MCGUYER",
TX,TRAVIS,21-32994,"Single Family Homes",3/16/2021,,173230,,"320 LEMON LIGHT",PFLUGERVILLE,TX,78660,"VILLAGE AT NORTHTOWN",,CONTRACTOR,,,,,,,,,,,"KB HOME",,,,,"KB HOME","10800 PECAN PARK BLVD STE 200",AUSTIN,TX,78750-1249,"(512) 651-8100",,,,
TX,TRAVIS,21-32995,"Single Family Homes",3/16/2021,,190315,,"402 LYNWOOD GOLD WAY",PFLUGERVILLE,TX,78660,,,CONTRACTOR,,,,,,,,,,,"KB HOME",,,,,"KB HOME","10800 PECAN PARK BLVD STE 200",AUSTIN,TX,78750-1249,"(512) 651-8100",,,,
TX,TRAVIS,21-32996,"Single Family Homes",3/16/2021,,196200,,"13512 TAI LONDO DR",AUSTIN,TX,78724,,,CONTRACTOR,,,,,,,,,,,"DR HORTON",,,,,"DR HORTON","10700 PECAN PARK BLVD STE 400",AUSTIN,TX,78750-1227,"(512) 345-4663",,,,
TX,TRAVIS,21-32997,"Single Family Homes",3/16/2021,,183675,,"13516 TAI LONDO DR",AUSTIN,TX,78724,,,CONTRACTOR,,,,,,,,,,,"DR HORTON",,,,,"DR HORTON","10700 PECAN PARK BLVD STE 400",AUSTIN,TX,78750-1227,"(512) 345-4663",,,,
TX,TRAVIS,21-32998,"Single Family Homes",3/16/2021,,175425,,"13520 TAI LONDO DR",AUSTIN,TX,78724,,,CONTRACTOR,,,,,,,,,,,"DR HORTON",,,,,"DR HORTON","10700 PECAN PARK BLVD STE 400",AUSTIN,TX,78750-1227,"(512) 345-4663",,,,
TX,TRAVIS,21-32999,"Single Family Homes",3/16/2021,,190315,,"14303 HONEY GEM WAY",PFLUGERVILLE,TX,78660,,,CONTRACTOR,,,,,,,,,,,"KB HOME",,,,,"KB HOME","10800 PECAN PARK BLVD STE 200",AUSTIN,TX,78750-1249,"(512) 651-8100",,,,
TX,TRAVIS,21-33000,"Single Family Homes",3/16/2021,,212670,,"13820 ELEANOR ROOSEVELT",MANOR,TX,78660,,,CONTRACTOR,,,,,,,,,,,"KB HOME",,,,,"KB HOME","10800 PECAN PARK BLVD STE 200",AUSTIN,TX,78750-1249,"(512) 651-8100",,,,
TX,TRAVIS,21-33001,"Single Family Homes",3/17/2021,,204935,,"13600 MARTHA WASHINGTON PL",MANOR,TX,78653,,,CONTRACTOR,,,,,,,,,,,"KB HOME",,,,,"KB HOME","10800 PECAN PARK BLVD STE 200",AUSTIN,TX,78750-1249,"(512) 651-8100",,,,
TX,TRAVIS,21-33002,"Single Family Homes",3/17/2021,,204935,,"12421 ACE IN THE HOLE",AUSTIN,TX,78640,,,CONTRACTOR,,,,,,,,,,,"KB HOME",,,,,"KB HOME","10800 PECAN PARK BLVD STE 200",AUSTIN,TX,78750-1249,"(512) 651-8100",,,,
TX,TRAVIS,21-33004,"Single Family Homes",3/17/2021,,198659,,"16921 ADORO DR",MANOR,TX,78653,,,CONTRACTOR,,,,,,,,,,,"GFO HOME",,,,,"GFO HOME","6012 AVIATION DR # 200",PFLUGERVILLE,TX,78660-8960,"(512) 492-8640",https://www.gfohome.com,,,
TX,TRAVIS,21-33005,"Single Family Homes",3/17/2021,,168963,,"16917 ADORO DR",MANOR,TX,78653,,,CONTRACTOR,,,,,,,,,,,"GFO HOME",,,,,"GFO HOME","6012 AVIATION DR # 200",PFLUGERVILLE,TX,78660-8960,"(512) 492-8640",https://www.gfohome.com,,,
TX,TRAVIS,21-33007,"Single Family Homes",3/16/2021,,198659,,"9808 ELOQUENCE DR",MANOR,TX,78653,,,CONTRACTOR,,,,,,,,,,,"GFO HOME",,,,,"GFO HOME","6012 AVIATION DR # 200",PFLUGERVILLE,TX,78660-8960,"(512) 492-8640",https://www.gfohome.com,,,
TX,TRAVIS,21-33008,"Single Family Homes",3/16/2021,,198659,,"9820 GRAPEVINE LEAF",MANOR,TX,78653,,,CONTRACTOR,,,,,,,,,,,"GFO HOME",,,,,"GFO HOME","6012 AVIATION DR # 200",PFLUGERVILLE,TX,78660-8960,"(512) 492-8640",https://www.gfohome.com,,,
TX,TRAVIS,21-32969,"Single Family Homes",3/16/2021,,196200,,"6108 BROCADE DR",AUSTIN,TX,78724,,,CONTRACTOR,,,,,,,,,,,"DR HORTON",,,,,"DR HORTON","10700 PECAN PARK BLVD STE 400",AUSTIN,TX,78750-1227,"(512) 345-4663",,,,
TX,TRAVIS,21-32193,"Single Family Homes",3/9/2021,,201525,,"19005 FREEMAN CIRCLE",AUSTIN,TX,78738,,,CONTRACTOR,,,,,,,,,,,"LENNAR HOMES",,,,,"LENNAR HOMES","13620 FM 620 RD 150",AUSTIN,TX,78717,"(512) 506-4000",http://www.lennar.com/,,,
TX,TRAVIS,21-32836,"Single Family Homes",3/9/2021,,176850,,"6020 BERRIWEATHER DR",AUSTIN,TX,78724,,,CONTRACTOR,,,,,,,,,,,"DR HORTON",,,,,"DR HORTON","10700 PECAN PARK BLVD STE 400",AUSTIN,TX,78750-1227,"(512) 345-4663",,,,
TX,TRAVIS,21-32837,"Single Family Homes",3/9/2021,,196200,,"6100 BERRIWEATHER DR",AUSTIN,TX,78724,,,CONTRACTOR,,,,,,,,,,,"DR HORTON",,,,,"DR HORTON","10700 PECAN PARK BLVD STE 400",AUSTIN,TX,78750-1227,"(512) 345-4663",,,,
TX,TRAVIS,21-33015,"Single Family Homes",3/16/2021,,152945,,"14013 SAVING GRACE WAY",PFLUGERVILLE,TX,78660,,,CONTRACTOR,,,,,,,,,,,"LENNAR HOMES",,,,,"LENNAR HOMES","13620 FM 620 RD 150",AUSTIN,TX,78717,"(512) 506-4000",http://www.lennar.com/,,,
TX,TRAVIS,21-33016,"Single Family Homes",3/16/2021,,133380,,"14309 SANDROCK BEND",PFLUGERVILLE,TX,78660,,,CONTRACTOR,,,,,,,,,,,"LENNAR HOMES",,,,,"LENNAR HOMES","13620 FM 620 RD 150",AUSTIN,TX,78717,"(512) 506-4000",http://www.lennar.com/,,,
TX,TRAVIS,21-33017,"Single Family Homes",3/17/2021,,170000,,"11533 LAGO DE GARDA DR",AUSTIN,TX,78747,,,CONTRACTOR,,,,,,,,,,,"BROHN HOMES",,,,,"BROHN HOMES","6720 VAUGHT RANCH RD STE 200",AUSTIN,TX,78730-2354,"(512) 320-8833",http://brohnhomes.com/,,,
TX,TRAVIS,21-33019,"Single Family Homes",3/15/2021,,284497.2,,"20721 KANGAL CT",PFLUGERVILLE,TX,78660,,,CONTRACTOR,,,,,,,,,,,"MHI MCGUYER HOMEBUILDERS",,,,,"MHI MCGUYER HOMEBUILDERS","8200 N MO PAC EXPY STE 300",AUSTIN,TX,78759-8844,"(512) 502-2050",,"(512) 388-1836","FRANK MCGUYER",
TX,TRAVIS,21-32938,"Single Family Homes",3/9/2021,,300000,,"6521 EMPRESA",AUSTIN,TX,78738,,,CONTRACTOR,,,,,,,,,,,"PERRY HOMES",,,,,"PERRY HOMES","6112 LLANO ST",AUSTIN,TX,78702,"(512) 810-8050",,,,
TX,TRAVIS,21-32960,"Single Family Homes",3/15/2021,,130000,,"7305 JUMENT DR",AUSTIN,TX,78738,,,CONTRACTOR,,,,,,,,,,,"DAVID WEEKLEY HOMES",,,,,"DAVID WEEKLEY HOMES","9000 WATERFORD CENTRE BLVD",AUSTIN,TX,78758-7662,"(800) 390-6774",http://www.davidweekleyhomes.com/,,,
TX,TRAVIS,21-32961,"Single Family Homes",3/15/2021,,130000,,"7201 JUMENT DR",AUSTIN,TX,78738,,,CONTRACTOR,,,,,,,,,,,"DAVID WEEKLEY HOMES",,,,,"DAVID WEEKLEY HOMES","9000 WATERFORD CENTRE BLVD",AUSTIN,TX,78758-7662,"(800) 390-6774",http://www.davidweekleyhomes.com/,,,
TX,TRAVIS,21-32963,"Single Family Homes",3/16/2021,,437000,,"7601 ECUREIL DR",AUSTIN,TX,78738,,,CONTRACTOR,,,,,,,,,,,"DREES CUSTOM HOMES",,,,,"DREES CUSTOM HOMES","7300 RANCH ROAD 2222 BLDG 2 STE 250",AUSTIN,TX,78730-3204,"(512) 241-7100",http://www.dreeshomes.com,,,
TX,TRAVIS,21-32983,"Single Family Homes",3/16/2021,,196200,,"6117 BROCADE DR",AUSTIN,TX,78724,,,CONTRACTOR,,,,,,,,,,,"DR HORTON",,,,,"DR HORTON","10700 PECAN PARK BLVD STE 400",AUSTIN,TX,78750-1227,"(512) 345-4663",,,,
TX,TRAVIS,21-32984,"Single Family Homes",3/16/2021,,248325,,"6121 BROCADE DR",AUSTIN,TX,78724,,,CONTRACTOR,,,,,,,,,,,"DR HORTON",,,,,"DR HORTON","10700 PECAN PARK BLVD STE 400",AUSTIN,TX,78750-1227,"(512) 345-4663",,,,
TX,TRAVIS,21-32970,"Single Family Homes",3/16/2021,,175425,,"6105 BROCADE DR",AUSTIN,TX,78730,,,CONTRACTOR,,,,,,,,,,,"DR HORTON",,,,,"DR HORTON","10700 PECAN PARK BLVD STE 400",AUSTIN,TX,78750-1227,"(512) 345-4663",,,,
TX,TRAVIS,21-32971,"Single Family Homes",3/16/2021,,147600,,"6109 BROCADE DR",AUSTIN,TX,78724,,,CONTRACTOR,,,,,,,,,,,"DR HORTON",,,,,"DR HORTON","10700 PECAN PARK BLVD STE 400",AUSTIN,TX,78750-1227,"(512) 345-4663",,,,
TX,TRAVIS,21-32972,"Single Family Homes",3/16/2021,,157200,,"6113 BROCADE DR",AUSTIN,TX,78724,,,CONTRACTOR,,,,,,,,,,,"DR HORTON",,,,,"DR HORTON","10700 PECAN PARK BLVD STE 400",AUSTIN,TX,78750-1227,"(512) 345-4663",,,,
TX,TRAVIS,21-32981,"Single Family Homes",3/15/2021,,224730,,"20100 GARGANEY DR",PFLUGERVILLE,TX,78660,,,CONTRACTOR,,,,,,,,,,,"SCOTT FELDER HOMES",,,,,"SCOTT FELDER HOMES","6414 RIVER PLACE BLVD STE 100",AUSTIN,TX,78730-1158,"(512) 418-5400",,,,
TX,TRAVIS,21-32985,"Single Family Homes",3/16/2021,,175425,,"6104 BROCADE DR",AUSTIN,TX,7874,,,CONTRACTOR,,,,,,,,,,,"DR HORTON",,,,,"DR HORTON","10700 PECAN PARK BLVD STE 400",AUSTIN,TX,78750-1227,"(512) 345-4663",,,,
TX,TRAVIS,21-32902,"Single Family Homes",3/9/2021,,280813.8,,"19316 CHAYTON CIRCLE",PFLUGERVILLE,TX,78660,,,CONTRACTOR,,,,,,,,,,,"MHI MCGUYER HOMEBUILDERS",,,,,"MHI MCGUYER HOMEBUILDERS","8200 N MO PAC EXPY STE 300",AUSTIN,TX,78759-8844,"(512) 502-2050",,"(512) 388-1836","FRANK MCGUYER",
TX,TRAVIS,21-32986,"Single Family Homes",3/16/2021,,183675,,"6100 BROCADE DR",AUSTIN,TX,78724,,,CONTRACTOR,,,,,,,,,,,"DR HORTON",,,,,"DR HORTON","10700 PECAN PARK BLVD STE 400",AUSTIN,TX,78750-1227,"(512) 345-4663",,,,
TX,TRAVIS,21-33061,"Single Family Homes",3/16/2021,,173775,,"405 ZAMORA CROSSING",AUSTIN,TX,78748,,,CONTRACTOR,,,,,,,,,,,"LENNAR HOMES",,,,,"LENNAR HOMES","13620 FM 620 RD 150",AUSTIN,TX,78717,"(512) 506-4000",http://www.lennar.com/,,,
TX,TRAVIS,21-33062,"Single Family Homes",3/16/2021,,163200,,"406 ZAMORA CROSSING",AUSTIN,TX,78748,,,CONTRACTOR,,,,,,,,,,,"LENNAR HOMES",,,,,"LENNAR HOMES","13620 FM 620 RD 150",AUSTIN,TX,78717,"(512) 506-4000",http://www.lennar.com/,,,
TX,TRAVIS,21-32937,"Single Family Homes",3/9/2021,,224730,,"20028 TALON GRASP TR",PFLUGERVILLE,TX,78660,,,CONTRACTOR,,,,,,,,,,,"SCOTT FELDER HOMES",,,,,"SCOTT FELDER HOMES","6414 RIVER PLACE BLVD STE 100",AUSTIN,TX,78730-1158,"(512) 418-5400",,,,
TX,TRAVIS,21-32987,"Single Family Homes",3/16/2021,,300000,,"6804 LLANO STAGE TR",AUSTIN,TX,78738,"SWEETWATER RANCH",,CONTRACTOR,,,,,,,,,,,"PERRY HOMES",,,,,"PERRY HOMES","6112 LLANO ST",AUSTIN,TX,78702,"(512) 810-8050",,,,
TX,TRAVIS,21-32988,"Single Family Homes",3/16/2021,,147600,,"6020 BROCADE DR",AUSTIN,TX,78724,,,CONTRACTOR,,,,,,,,,,,"DR HORTON",,,,,"DR HORTON","10700 PECAN PARK BLVD STE 400",AUSTIN,TX,78750-1227,"(512) 345-4663",,,,
TX,TRAVIS,21-33028,"Single Family Homes",3/16/2021,,471990,,"22304 COYOTE CAVE TR",SPICEWOOD,TX,78669,,,CONTRACTOR,,,,,,,,,,,"PULTE HOMES",,,,,"PULTE HOMES","9401 AMBERGLEN BLVD STE I-150",AUSTIN,TX,78729-1154,"(512) 561-4344",,,,
TX,TRAVIS,21-33030,"Single Family Homes",3/16/2021,,153945,,"3820 SANDHILL CRANE DR",PFLUGERVILLE,TX,78660,,,CONTRACTOR,,,,,,,,,,,"SCOTT FELDER HOMES",,,,,"SCOTT FELDER HOMES","6414 RIVER PLACE BLVD STE 100",AUSTIN,TX,78730-1158,"(512) 418-5400",,,,
TX,TRAVIS,21-33036,"Single Family Homes",3/18/2021,,400000,,"14910 OKLAHOMA ST",AUSTIN,TX,78734,,,CONTRACTOR,,,,,,,,,,,"DELCON ENVIRONMENTAL SYSTEMS",,,,,"DELCON ENVIRONMENTAL SYSTEMS","12713 MAJESTIC OAKS DR",AUSTIN,TX,78732-2001,"(512) 583-1397",,,"DERRICK LORMAND",
TX,TRAVIS,21-32989,"Single Family Homes",3/16/2021,,175425,,"6016 BROCADE DR",AUSTIN,TX,78724,,,CONTRACTOR,,,,,,,,,,,"DR HORTON",,,,,"DR HORTON","10700 PECAN PARK BLVD STE 400",AUSTIN,TX,78750-1227,"(512) 345-4663",,,,
TX,TRAVIS,21-32990,"Single Family Homes",3/16/2021,,158700,,"6012 BROCADE DR",AUSTIN,TX,78724,,,CONTRACTOR,,,,,,,,,,,"DR HORTON",,,,,"DR HORTON","10700 PECAN PARK BLVD STE 400",AUSTIN,TX,78750-1227,"(512) 345-4663",,,,
TX,TRAVIS,21-33011,"Single Family Homes",3/17/2021,,121290,,"14001 SAVING GRACE WAY",PFLUGERVILLE,TX,78660,,,CONTRACTOR,,,,,,,,,,,"LENNAR HOMES",,,,,"LENNAR HOMES","13620 FM 620 RD 150",AUSTIN,TX,78717,"(512) 506-4000",http://www.lennar.com/,,,
TX,TRAVIS,21-33117,"Single Family Homes",3/17/2021,,170000,,"11509 LAGO DE GARDA DR",AUSTIN,TX,78747,,,CONTRACTOR,,,,,,,,,,,"BROHN HOMES",,,,,"BROHN HOMES","6720 VAUGHT RANCH RD STE 200",AUSTIN,TX,78730-2354,"(512) 320-8833",http://brohnhomes.com/,,,
TX,TRAVIS,21-33122,"Single Family Homes",3/17/2021,,700000,,"6625 CAUDILL LN","BEE CAVE",TX,78738,,,"JAMES LAVENDER","6625 CAUDILL LN","BEE CAVE",TX,78738,,Owner,,,,,OWNER,,,,,OWNER,,,,,,,,,
TX,TRAVIS,21-33012,"Single Family Homes",3/17/2021,,109980,,"14005 SAVING GRACE WAY",PFLUGERVILLE,TX,78660,,,CONTRACTOR,,,,,,,,,,,"LENNAR HOMES",,,,,"LENNAR HOMES","13620 FM 620 RD 150",AUSTIN,TX,78717,"(512) 506-4000",http://www.lennar.com/,,,
TX,TRAVIS,21-33138,"Single Family Homes",3/30/2021,,250000,,"10521 LAKE PARK DR","DRIPPING SPRINGS",TX,78620,"MOUNTAIN CREEK LAKES",,CONTRACTOR,,,,,,,,,,,"PAUL SWOYER SEPTIC",,,,,"PAUL SWOYER SEPTIC","18382 FM 306 STE 101","CANYON LAKE",TX,78133-4373,"(830) 935-4936",,,,
TX,TRAVIS,21-33139,"Single Family Homes",3/30/2021,,500000,,"8333 LA PLATA LOOP",AUSTIN,TX,78737,,,CONTRACTOR,,,,,,,,,,,"JOHN PATE CONSTRUCTION",,,,,"JOHN PATE CONSTRUCTION","15101 DEBBA DR",AUSTIN,TX,78734-3622,"(512) 266-2125",,,"MARK PATE",
TX,TRAVIS,21-33013,"Single Family Homes",3/16/2021,,133380,,"14009 SAVING GRACE WAY",PFLUGERVILLE,TX,78660,,,CONTRACTOR,,,,,,,,,,,"LENNAR HOMES",,,,,"LENNAR HOMES","13620 FM 620 RD 150",AUSTIN,TX,78717,"(512) 506-4000",http://www.lennar.com/,,,
TX,TRAVIS,21-32975,"Single Family Homes",3/16/2021,,497936,,"16720 HORONDELLE DR",AUSTIN,TX,78738,,,CONTRACTOR,,,,,,,,,,,"DAVID WEEKLEY HOMES",,,,,"DAVID WEEKLEY HOMES","9000 WATERFORD CENTRE BLVD",AUSTIN,TX,78758-7662,"(800) 390-6774",http://www.davidweekleyhomes.com/,,,
TX,TRAVIS,21-32909,"Single Family Homes",3/9/2021,,172205,,"20116 CRESTED CARACARA LN",PFLUGERVILLE,TX,78660,,,CONTRACTOR,,,,,,,,,,,"SCOTT FELDER HOMES",,,,,"SCOTT FELDER HOMES","6414 RIVER PLACE BLVD STE 100",AUSTIN,TX,78730-1158,"(512) 418-5400",,,,
TX,TRAVIS,21-32978,"Single Family Homes",3/16/2021,,496455,,"16712 LILO DR",AUSTIN,TX,78738,,,CONTRACTOR,,,,,,,,,,,"DAVID WEEKLEY HOMES",,,,,"DAVID WEEKLEY HOMES","9000 WATERFORD CENTRE BLVD",AUSTIN,TX,78758-7662,"(800) 390-6774",http://www.davidweekleyhomes.com/,,,
TX,TRAVIS,21-32979,"Single Family Homes",3/16/2021,,458424,,"16700 LILO DR",AUSTIN,TX,78738,,,CONTRACTOR,,,,,,,,,,,"DAVID WEEKLEY HOMES",,,,,"DAVID WEEKLEY HOMES","9000 WATERFORD CENTRE BLVD",AUSTIN,TX,78758-7662,"(800) 390-6774",http://www.davidweekleyhomes.com/,,,
TX,TRAVIS,21-33176,"Single Family Homes",3/17/2021,,250000,,"6205 DUMFRIES LN",AUSTIN,TX,78744,,,CONTRACTOR,,,,,,,,,,,"BROOKFIELD RESIDENTIAL PROPERTIES",,,,,"BROOKFIELD RESIDENTIAL PROPERTIES","11501 ALTERRA PKWY STE 100",AUSTIN,TX,78758-3201,"(512) 391-1330",,,,
TX,HAYS,2021-3999,"Single Family Homes",3/1/2021,,170025,2267,"231 PELICAN BAY CIR",KYLE,TX,78640,,,CONTRACTOR,,,,,,,,,,,"PACESETTER HOMES ",,,,,"PACESETTER HOMES ","7940 SHOAL CREEK BLVD STE 200",AUSTIN,TX,78757-7587,"(512) 323-5252",,,,
TX,HAYS,2021-3978,"Single Family Homes",3/1/2021,,136493,2753,"130 MANATEE LN",KYLE,TX,78640,,,CONTRACTOR,,,,,,,,,,,"MILESTONE COMMUNITY BUILDERS",,,,,"MILESTONE COMMUNITY BUILDERS","9111 JOLLYVILLE RD STE 111",AUSTIN,TX,78759-7406,"(512) 686-4986",http://www.mymilestone.com/,,,
TX,HAYS,2021-3979,"Single Family Homes",3/1/2021,,134158,2099,"286 BLUE SPRINGS PASS",KYLE,TX,78640,,,CONTRACTOR,,,,,,,,,,,"MILESTONE COMMUNITY BUILDERS",,,,,"MILESTONE COMMUNITY BUILDERS","9111 JOLLYVILLE RD STE 111",AUSTIN,TX,78759-7406,"(512) 686-4986",http://www.mymilestone.com/,,,
TX,HAYS,2021-3982,"Single Family Homes",3/1/2021,,123221,2574,"321 BLUE SPRINGS PASS",KYLE,TX,78640,,,CONTRACTOR,,,,,,,,,,,"MILESTONE COMMUNITY BUILDERS",,,,,"MILESTONE COMMUNITY BUILDERS","9111 JOLLYVILLE RD STE 111",AUSTIN,TX,78759-7406,"(512) 686-4986",http://www.mymilestone.com/,,,
TX,HAYS,2021-4005,"Single Family Homes",3/1/2021,,120461,2570,"320 SILVER GLEN DR",KYLE,TX,78640,,,CONTRACTOR,,,,,,,,,,,"MILESTONE COMMUNITY BUILDERS",,,,,"MILESTONE COMMUNITY BUILDERS","9111 JOLLYVILLE RD STE 111",AUSTIN,TX,78759-7406,"(512) 686-4986",http://www.mymilestone.com/,,,
TX,HAYS,2021-3987,"Single Family Homes",3/1/2021,,163185,2967,"228 HELENA LN",KYLE,TX,78640,,,CONTRACTOR,,,,,,,,,,,"SCOTT FELDER HOMES",,,,,"SCOTT FELDER HOMES","6414 RIVER PLACE BLVD STE 100",AUSTIN,TX,78730-1158,"(512) 418-5400",,,,
TX,HAYS,2021-3969,"Single Family Homes",3/1/2021,,244230,1841,"1019 HARWELL LOOP",KYLE,TX,78640,,,CONTRACTOR,,,,,,,,,,,"EHT OF TEXAS LP",,,,,"EHT OF TEXAS LP","3520 EXECUTIVE CENTER DR STE 100",AUSTIN,TX,78731-1636,"(757) 287-6394",,,,
TX,HAYS,2021-3986,"Single Family Homes",3/1/2021,,257264,2395,"1013 HARWELL LOOP",KYLE,TX,78640,,,CONTRACTOR,,,,,,,,,,,"EHT OF TEXAS LP",,,,,"EHT OF TEXAS LP","3520 EXECUTIVE CENTER DR STE 100",AUSTIN,TX,78731-1636,"(757) 287-6394",,,,
TX,HAYS,2021-3988,"Single Family Homes",3/2/2021,,150605,2317,"230 RIOJA",KYLE,TX,78640,,,CONTRACTOR,,,,,,,,,,,"LENNAR HOMES",,,,,"LENNAR HOMES","13620 FM 620 RD 150",AUSTIN,TX,78717,"(512) 506-4000",http://www.lennar.com/,,,
TX,HAYS,2021-3989,"Single Family Homes",3/2/2021,,181090,2786,"231 RIOJA",KYLE,TX,78640,,,CONTRACTOR,,,,,,,,,,,"LENNAR HOMES",,,,,"LENNAR HOMES","13620 FM 620 RD 150",AUSTIN,TX,78717,"(512) 506-4000",http://www.lennar.com/,,,
TX,HAYS,2021-3990,"Single Family Homes",3/2/2021,,157820,2428,"241 RIOJA",KYLE,TX,78640,,,CONTRACTOR,,,,,,,,,,,"LENNAR HOMES",,,,,"LENNAR HOMES","13620 FM 620 RD 150",AUSTIN,TX,78717,"(512) 506-4000",http://www.lennar.com/,,,
TX,HAYS,2021-3977,"Single Family Homes",3/2/2021,,173940,2676,"220 RIOJA",KYLE,TX,78640,,,CONTRACTOR,,,,,,,,,,,"LENNAR HOMES",,,,,"LENNAR HOMES","13620 FM 620 RD 150",AUSTIN,TX,78717,"(512) 506-4000",http://www.lennar.com/,,,
TX,HAYS,2021-3970,"Single Family Homes",3/2/2021,,161070,2478,"201 RIOJA",KYLE,TX,78640,,,CONTRACTOR,,,,,,,,,,,"LENNAR HOMES",,,,,"LENNAR HOMES","13620 FM 620 RD 150",AUSTIN,TX,78717,"(512) 506-4000",http://www.lennar.com/,,,
TX,HAYS,2021-3971,"Single Family Homes",3/2/2021,,150605,2317,"200 RIOJA",KYLE,TX,78640,,,CONTRACTOR,,,,,,,,,,,"LENNAR HOMES",,,,,"LENNAR HOMES","13620 FM 620 RD 150",AUSTIN,TX,78717,"(512) 506-4000",http://www.lennar.com/,,,
TX,HAYS,2021-3972,"Single Family Homes",3/2/2021,,173940,2676,"211 RIOJA",KYLE,TX,78640,,,CONTRACTOR,,,,,,,,,,,"LENNAR HOMES",,,,,"LENNAR HOMES","13620 FM 620 RD 150",AUSTIN,TX,78717,"(512) 506-4000",http://www.lennar.com/,,,
TX,HAYS,2021-3973,"Single Family Homes",3/2/2021,,179205,2757,"210 RIOJA",KYLE,TX,78640,,,CONTRACTOR,,,,,,,,,,,"LENNAR HOMES",,,,,"LENNAR HOMES","13620 FM 620 RD 150",AUSTIN,TX,78717,"(512) 506-4000",http://www.lennar.com/,,,
TX,HAYS,2021-3974,"Single Family Homes",3/2/2021,,157820,2428,"221 RIOJA",KYLE,TX,78640,,,CONTRACTOR,,,,,,,,,,,"LENNAR HOMES",,,,,"LENNAR HOMES","13620 FM 620 RD 150",AUSTIN,TX,78717,"(512) 506-4000",http://www.lennar.com/,,,
TX,HAYS,2021-4003,"Single Family Homes",3/2/2021,,265125,2121,"420 SPINNAKER LOOP",KYLE,TX,78640,,,CONTRACTOR,,,,,,,,,,,"PACESETTER HOMES ",,,,,"PACESETTER HOMES ","7940 SHOAL CREEK BLVD STE 200",AUSTIN,TX,78757-7587,"(512) 323-5252",,,,
TX,HAYS,2021-4004,"Single Family Homes",3/2/2021,,123221,2574,"153 MANATEE LN",KYLE,TX,78640,,,CONTRACTOR,,,,,,,,,,,"MILESTONE COMMUNITY BUILDERS",,,,,"MILESTONE COMMUNITY BUILDERS","9111 JOLLYVILLE RD STE 111",AUSTIN,TX,78759-7406,"(512) 686-4986",http://www.mymilestone.com/,,,
TX,HAYS,2021-4143,"Single Family Homes",3/3/2021,,123620,1766,"189 MAMMOTH DR",KYLE,TX,78640,,,CONTRACTOR,,,,,,,,,,,"CASTLEROCK COMMUNITIES",,,,,"CASTLEROCK COMMUNITIES","7670 WOODWAY DR STE 300",HOUSTON,TX,77063-1520,"(713) 600-7000",http://c-rock.com,"(713) 600-0000",,
TX,HAYS,2021-4030,"Single Family Homes",3/3/2021,,105750,2103,"155 SALT SPRINGS RD",KYLE,TX,78640,,,CONTRACTOR,,,,,,,,,,,"LENNAR HOMES",,,,,"LENNAR HOMES","13620 FM 620 RD 150",AUSTIN,TX,78717,"(512) 506-4000",http://www.lennar.com/,,,
TX,HAYS,2021-4031,"Single Family Homes",3/3/2021,,143475,2548,"165 SALT SPRINGS RD",KYLE,TX,78640,,,CONTRACTOR,,,,,,,,,,,"LENNAR HOMES",,,,,"LENNAR HOMES","13620 FM 620 RD 150",AUSTIN,TX,78717,"(512) 506-4000",http://www.lennar.com/,,,
TX,HAYS,2021-4032,"Single Family Homes",3/3/2021,,120075,2219,"145 SALT SPRINGS RD",KYLE,TX,78640,,,CONTRACTOR,,,,,,,,,,,"LENNAR HOMES",,,,,"LENNAR HOMES","13620 FM 620 RD 150",AUSTIN,TX,78717,"(512) 506-4000",http://www.lennar.com/,,,
TX,HAYS,2021-4033,"Single Family Homes",3/3/2021,,143475,2548,"135 SALT SPRINGS RD",KYLE,TX,78640,,,CONTRACTOR,,,,,,,,,,,"LENNAR HOMES",,,,,"LENNAR HOMES","13620 FM 620 RD 150",AUSTIN,TX,78717,"(512) 506-4000",http://www.lennar.com/,,,
TX,HAYS,2021-4002,"Single Family Homes",3/3/2021,,272125,2177,"108 BILLOWING WAY",KYLE,TX,78640,,,CONTRACTOR,,,,,,,,,,,"PACESETTER HOMES ",,,,,"PACESETTER HOMES ","7940 SHOAL CREEK BLVD STE 200",AUSTIN,TX,78757-7587,"(512) 323-5252",,,,
TX,HAYS,2021-4039,"Single Family Homes",3/3/2021,,117880,2269,"356 SILVER GLEN DR",KYLE,TX,78640,,,CONTRACTOR,,,,,,,,,,,"MILESTONE COMMUNITY BUILDERS",,,,,"MILESTONE COMMUNITY BUILDERS","9111 JOLLYVILLE RD STE 111",AUSTIN,TX,78759-7406,"(512) 686-4986",http://www.mymilestone.com/,,,
TX,HAYS,2021-4006,"Single Family Homes",8/30/2021,,123221,2574,"260 SILVER SPRINGS BND",KYLE,TX,78640,,,CONTRACTOR,,,,,,,,,,,"MILESTONE COMMUNITY BUILDERS",,,,,"MILESTONE COMMUNITY BUILDERS","9111 JOLLYVILLE RD STE 111",AUSTIN,TX,78759-7406,"(512) 686-4986",http://www.mymilestone.com/,,,
TX,HAYS,2021-4066,"Single Family Homes",3/4/2021,,253000,2116,"604 FERRULE DR",KYLE,TX,78640,,,CONTRACTOR,,,,,,,,,,,"BIGELOW DEVELOPMENT",,,,,"BIGELOW DEVELOPMENT","1048 SANDERS",KYLE,TX,78640-6122,"(512) 504-9243",,,,
TX,HAYS,2021-4043,"Single Family Homes",3/5/2021,,297680,2480,"1250 HARWELL LOOP",KYLE,TX,78640,,,CONTRACTOR,,,,,,,,,,,"EHT OF TEXAS LP",,,,,"EHT OF TEXAS LP","3520 EXECUTIVE CENTER DR STE 100",AUSTIN,TX,78731-1636,"(757) 287-6394",,,,
TX,HAYS,2021-3896,"Single Family Homes",3/5/2021,,323033,2348,"165 BREEDLOVE",KYLE,TX,78640,,,CONTRACTOR,,,,,,,,,,,"EHT OF TEXAS LP",,,,,"EHT OF TEXAS LP","3520 EXECUTIVE CENTER DR STE 100",AUSTIN,TX,78731-1636,"(757) 287-6394",,,,
TX,HAYS,2021-4055,"Single Family Homes",3/8/2021,,147675,2556,"165 SILVER SPRINGS BND",KYLE,TX,78640,,,CONTRACTOR,,,,,,,,,,,"LENNAR HOMES",,,,,"LENNAR HOMES","13620 FM 620 RD 150",AUSTIN,TX,78717,"(512) 506-4000",http://www.lennar.com/,,,
TX,HAYS,2021-4158,"Single Family Homes",3/9/2021,,240000,1396,"568 FERRULE DR",KYLE,TX,78640,,,CONTRACTOR,,,,,,,,,,,"BIGELOW DEVELOPMENT",,,,,"BIGELOW DEVELOPMENT","1048 SANDERS",KYLE,TX,78640-6122,"(512) 504-9243",,,,
TX,HAYS,2021-4159,"Single Family Homes",3/9/2021,,275000,2215,"584 FERRULE DR",KYLE,TX,78640,,,CONTRACTOR,,,,,,,,,,,"BIGELOW DEVELOPMENT",,,,,"BIGELOW DEVELOPMENT","1048 SANDERS",KYLE,TX,78640-6122,"(512) 504-9243",,,,
TX,HAYS,2021-4155,"Single Family Homes",3/9/2021,,255000,,"608 FERRULE DR",KYLE,TX,78640,,,CONTRACTOR,,,,,,,,,,,"BIGELOW DEVELOPMENT",,,,,"BIGELOW DEVELOPMENT","1048 SANDERS",KYLE,TX,78640-6122,"(512) 504-9243",,,,
TX,HAYS,2021-4079,"Single Family Homes",3/12/2021,,217770,3111,"250 OLYMPIC PARK DR",KYLE,TX,78640,,,CONTRACTOR,,,,,,,,,,,"CASTLEROCK COMMUNITIES",,,,,"CASTLEROCK COMMUNITIES","7670 WOODWAY DR STE 300",HOUSTON,TX,77063-1520,"(713) 600-7000",http://c-rock.com,"(713) 600-0000",,
TX,HAYS,2021-4080,"Single Family Homes",3/12/2021,,117950,1685,"149 EVERGLADES DR",KYLE,TX,78640,,,CONTRACTOR,,,,,,,,,,,"CASTLEROCK COMMUNITIES",,,,,"CASTLEROCK COMMUNITIES","7670 WOODWAY DR STE 300",HOUSTON,TX,77063-1520,"(713) 600-7000",http://c-rock.com,"(713) 600-0000",,
TX,HAYS,2021-4081,"Single Family Homes",3/12/2021,,200760,2868,"308 KENAI DR",KYLE,TX,78640,,,CONTRACTOR,,,,,,,,,,,"CASTLEROCK COMMUNITIES",,,,,"CASTLEROCK COMMUNITIES","7670 WOODWAY DR STE 300",HOUSTON,TX,77063-1520,"(713) 600-7000",http://c-rock.com,"(713) 600-0000",,
TX,HAYS,2021-4082,"Single Family Homes",3/12/2021,,119140,1702,"316 KENAI DR",KYLE,TX,78640,,,CONTRACTOR,,,,,,,,,,,"CASTLEROCK COMMUNITIES",,,,,"CASTLEROCK COMMUNITIES","7670 WOODWAY DR STE 300",HOUSTON,TX,77063-1520,"(713) 600-7000",http://c-rock.com,"(713) 600-0000",,
TX,HAYS,2021-4105,"Single Family Homes",3/12/2021,,200760,2868,"324 KENAI DR",KYLE,TX,78640,,,CONTRACTOR,,,,,,,,,,,"CASTLEROCK COMMUNITIES",,,,,"CASTLEROCK COMMUNITIES","7670 WOODWAY DR STE 300",HOUSTON,TX,77063-1520,"(713) 600-7000",http://c-rock.com,"(713) 600-0000",,
TX,HAYS,2021-4107,"Single Family Homes",3/12/2021,,138250,1975,"165 ZION DR",KYLE,TX,78640,,,CONTRACTOR,,,,,,,,,,,"CASTLEROCK COMMUNITIES",,,,,"CASTLEROCK COMMUNITIES","7670 WOODWAY DR STE 300",HOUSTON,TX,77063-1520,"(713) 600-7000",http://c-rock.com,"(713) 600-0000",,
TX,HAYS,2021-4108,"Single Family Homes",3/12/2021,,117950,1685,"340 KENAI DR",KYLE,TX,78640,,,CONTRACTOR,,,,,,,,,,,"CASTLEROCK COMMUNITIES",,,,,"CASTLEROCK COMMUNITIES","7670 WOODWAY DR STE 300",HOUSTON,TX,77063-1520,"(713) 600-7000",http://c-rock.com,"(713) 600-0000",,
TX,HAYS,2021-4110,"Single Family Homes",3/12/2021,,200340,2862,"356 KENAI DR",KYLE,TX,78640,,,CONTRACTOR,,,,,,,,,,,"CASTLEROCK COMMUNITIES",,,,,"CASTLEROCK COMMUNITIES","7670 WOODWAY DR STE 300",HOUSTON,TX,77063-1520,"(713) 600-7000",http://c-rock.com,"(713) 600-0000",,
TX,HAYS,2021-4070,"Single Family Homes",3/12/2021,,136360,1948,"204 ZION DR",KYLE,TX,78640,,,CONTRACTOR,,,,,,,,,,,"CASTLEROCK COMMUNITIES",,,,,"CASTLEROCK COMMUNITIES","7670 WOODWAY DR STE 300",HOUSTON,TX,77063-1520,"(713) 600-7000",http://c-rock.com,"(713) 600-0000",,
TX,HAYS,2021-4071,"Single Family Homes",3/12/2021,,154420,2206,"205 ZION DR",KYLE,TX,78640,,,CONTRACTOR,,,,,,,,,,,"CASTLEROCK COMMUNITIES",,,,,"CASTLEROCK COMMUNITIES","7670 WOODWAY DR STE 300",HOUSTON,TX,77063-1520,"(713) 600-7000",http://c-rock.com,"(713) 600-0000",,
TX,HAYS,2021-4072,"Single Family Homes",3/12/2021,,161350,2305,"157 ZION DR",KYLE,TX,78640,,,CONTRACTOR,,,,,,,,,,,"CASTLEROCK COMMUNITIES",,,,,"CASTLEROCK COMMUNITIES","7670 WOODWAY DR STE 300",HOUSTON,TX,77063-1520,"(713) 600-7000",http://c-rock.com,"(713) 600-0000",,
TX,HAYS,2021-4073,"Single Family Homes",3/12/2021,,163590,2337,"290 OLYMPIC PARK DR",KYLE,TX,78640,,,CONTRACTOR,,,,,,,,,,,"CASTLEROCK COMMUNITIES",,,,,"CASTLEROCK COMMUNITIES","7670 WOODWAY DR STE 300",HOUSTON,TX,77063-1520,"(713) 600-7000",http://c-rock.com,"(713) 600-0000",,
TX,HAYS,2021-4074,"Single Family Homes",3/12/2021,,170540,2437,"230 OLYMPIC PARK DR",KYLE,TX,78640,,,CONTRACTOR,,,,,,,,,,,"CASTLEROCK COMMUNITIES",,,,,"CASTLEROCK COMMUNITIES","7670 WOODWAY DR STE 300",HOUSTON,TX,77063-1520,"(713) 600-7000",http://c-rock.com,"(713) 600-0000",,
TX,HAYS,2021-4075,"Single Family Homes",3/12/2021,,163730,2339,"180 OLYMPIC PARK DR",KYLE,TX,78640,,,CONTRACTOR,,,,,,,,,,,"CASTLEROCK COMMUNITIES",,,,,"CASTLEROCK COMMUNITIES","7670 WOODWAY DR STE 300",HOUSTON,TX,77063-1520,"(713) 600-7000",http://c-rock.com,"(713) 600-0000",,
TX,HAYS,2021-4059,"Single Family Homes",3/12/2021,,123620,1766,"300 KENAI DR",KYLE,TX,78640,,,CONTRACTOR,,,,,,,,,,,"CASTLEROCK COMMUNITIES",,,,,"CASTLEROCK COMMUNITIES","7670 WOODWAY DR STE 300",HOUSTON,TX,77063-1520,"(713) 600-7000",http://c-rock.com,"(713) 600-0000",,
TX,HAYS,2021-4010,"Single Family Homes",3/15/2021,,148005,2277,"180 MADRID",KYLE,TX,78640,,,CONTRACTOR,,,,,,,,,,,"LENNAR HOMES",,,,,"LENNAR HOMES","13620 FM 620 RD 150",AUSTIN,TX,78717,"(512) 506-4000",http://www.lennar.com/,,,
TX,HAYS,2021-4011,"Single Family Homes",3/15/2021,,191685,2949,"200 MADRID",KYLE,TX,78640,,,CONTRACTOR,,,,,,,,,,,"LENNAR HOMES",,,,,"LENNAR HOMES","13620 FM 620 RD 150",AUSTIN,TX,78717,"(512) 506-4000",http://www.lennar.com/,,,
TX,HAYS,2021-4012,"Single Family Homes",3/15/2021,,157040,2416,"299 BARCELONA",KYLE,TX,78640,,,CONTRACTOR,,,,,,,,,,,"LENNAR HOMES",,,,,"LENNAR HOMES","13620 FM 620 RD 150",AUSTIN,TX,78717,"(512) 506-4000",http://www.lennar.com/,,,
TX,HAYS,2021-4013,"Single Family Homes",3/15/2021,,157690,2426,"300 BARCELONA",KYLE,TX,78640,,,CONTRACTOR,,,,,,,,,,,"LENNAR HOMES",,,,,"LENNAR HOMES","13620 FM 620 RD 150",AUSTIN,TX,78717,"(512) 506-4000",http://www.lennar.com/,,,
TX,HAYS,2021-4014,"Single Family Homes",3/15/2021,,134485,2069,"290 BARCELONA",KYLE,TX,78640,,,CONTRACTOR,,,,,,,,,,,"LENNAR HOMES",,,,,"LENNAR HOMES","13620 FM 620 RD 150",AUSTIN,TX,78717,"(512) 506-4000",http://www.lennar.com/,,,
TX,HAYS,2021-4015,"Single Family Homes",3/15/2021,,113490,1746,"275 BARCELONA",KYLE,TX,78640,,,CONTRACTOR,,,,,,,,,,,"LENNAR HOMES",,,,,"LENNAR HOMES","13620 FM 620 RD 150",AUSTIN,TX,78717,"(512) 506-4000",http://www.lennar.com/,,,
TX,HAYS,2021-4016,"Single Family Homes",3/15/2021,,148005,2277,"280 BARCELONA",KYLE,TX,78640,,,CONTRACTOR,,,,,,,,,,,"LENNAR HOMES",,,,,"LENNAR HOMES","13620 FM 620 RD 150",AUSTIN,TX,78717,"(512) 506-4000",http://www.lennar.com/,,,
TX,HAYS,2021-4017,"Single Family Homes",3/15/2021,,157690,2426,"270 BARCELONA",KYLE,TX,78640,,,CONTRACTOR,,,,,,,,,,,"LENNAR HOMES",,,,,"LENNAR HOMES","13620 FM 620 RD 150",AUSTIN,TX,78717,"(512) 506-4000",http://www.lennar.com/,,,
TX,HAYS,2021-4018,"Single Family Homes",3/15/2021,,191685,2949,"260 BARCELONA",KYLE,TX,78640,,,CONTRACTOR,,,,,,,,,,,"LENNAR HOMES",,,,,"LENNAR HOMES","13620 FM 620 RD 150",AUSTIN,TX,78717,"(512) 506-4000",http://www.lennar.com/,,,
TX,HAYS,2021-4019,"Single Family Homes",3/15/2021,,123500,1900,"263 BARCELONA",KYLE,TX,78640,,,CONTRACTOR,,,,,,,,,,,"LENNAR HOMES",,,,,"LENNAR HOMES","13620 FM 620 RD 150",AUSTIN,TX,78717,"(512) 506-4000",http://www.lennar.com/,,,
TX,HAYS,2021-4020,"Single Family Homes",3/15/2021,,113490,1746,"250 BARCELONA",KYLE,TX,78640,,,CONTRACTOR,,,,,,,,,,,"LENNAR HOMES",,,,,"LENNAR HOMES","13620 FM 620 RD 150",AUSTIN,TX,78717,"(512) 506-4000",http://www.lennar.com/,,,
TX,HAYS,2021-4021,"Single Family Homes",3/15/2021,,134485,2069,"251 BARCELONA",KYLE,TX,78640,,,CONTRACTOR,,,,,,,,,,,"LENNAR HOMES",,,,,"LENNAR HOMES","13620 FM 620 RD 150",AUSTIN,TX,78717,"(512) 506-4000",http://www.lennar.com/,,,
TX,HAYS,2021-4022,"Single Family Homes",3/15/2021,,157040,2416,"240 BARCELONA",KYLE,TX,78640,,,CONTRACTOR,,,,,,,,,,,"LENNAR HOMES",,,,,"LENNAR HOMES","13620 FM 620 RD 150",AUSTIN,TX,78717,"(512) 506-4000",http://www.lennar.com/,,,
TX,HAYS,2021-4023,"Single Family Homes",3/15/2021,,157690,2426,"239 BARCELONA",KYLE,TX,78640,,,CONTRACTOR,,,,,,,,,,,"LENNAR HOMES",,,,,"LENNAR HOMES","13620 FM 620 RD 150",AUSTIN,TX,78717,"(512) 506-4000",http://www.lennar.com/,,,
TX,HAYS,2021-4024,"Single Family Homes",3/15/2021,,134485,2069,"230 BARCELONA",KYLE,TX,78640,,,CONTRACTOR,,,,,,,,,,,"LENNAR HOMES",,,,,"LENNAR HOMES","13620 FM 620 RD 150",AUSTIN,TX,78717,"(512) 506-4000",http://www.lennar.com/,,,
TX,HAYS,2021-4025,"Single Family Homes",3/15/2021,,191685,2949,"227 BARCELONA",KYLE,TX,78640,,,CONTRACTOR,,,,,,,,,,,"LENNAR HOMES",,,,,"LENNAR HOMES","13620 FM 620 RD 150",AUSTIN,TX,78717,"(512) 506-4000",http://www.lennar.com/,,,
TX,HAYS,2021-4101,"Single Family Homes",3/15/2021,,217198,1678,"188 PELICAN BAY CIR",KYLE,TX,78640,,,CONTRACTOR,,,,,,,,,,,"PACESETTER HOMES ",,,,,"PACESETTER HOMES ","7940 SHOAL CREEK BLVD STE 200",AUSTIN,TX,78757-7587,"(512) 323-5252",,,,
TX,HAYS,2021-4102,"Single Family Homes",9/13/2021,,398240,3040,"217 BISCAYNE BAY BND",KYLE,TX,78640,,,CONTRACTOR,,,,,,,,,,,"PACESETTER HOMES ",,,,,"PACESETTER HOMES ","7940 SHOAL CREEK BLVD STE 200",AUSTIN,TX,78757-7587,"(512) 323-5252",,,,
TX,HAYS,2021-4103,"Single Family Homes",3/15/2021,,259511,1981,"263 PELICAN BAY CIR",KYLE,TX,78640,,,CONTRACTOR,,,,,,,,,,,"PACESETTER HOMES ",,,,,"PACESETTER HOMES ","7940 SHOAL CREEK BLVD STE 200",AUSTIN,TX,78757-7587,"(512) 323-5252",,,,
TX,HAYS,2021-4104,"Single Family Homes",3/15/2021,,319116,2436,"128 BILLOWING WAY",KYLE,TX,78640,,,CONTRACTOR,,,,,,,,,,,"PACESETTER HOMES ",,,,,"PACESETTER HOMES ","7940 SHOAL CREEK BLVD STE 200",AUSTIN,TX,78757-7587,"(512) 323-5252",,,,
TX,HAYS,2021-3967,"Single Family Homes",3/15/2021,,229000,2290,"362 EAGLE FORD DR",KYLE,TX,78640,,,CONTRACTOR,,,,,,,,,,,"M/I HOMES",,,,,"M/I HOMES","6801 N CAPITAL OF TEXAS HWY BLDG 2 STE 100",AUSTIN,TX,78731-1780,"(512) 770-8500",,,,
TX,HAYS,2021-4060,"Single Family Homes",3/15/2021,,213200,2132,"160 FAWN RIVER RUN",KYLE,TX,78640,,,CONTRACTOR,,,,,,,,,,,"M/I HOMES",,,,,"M/I HOMES","6801 N CAPITAL OF TEXAS HWY BLDG 2 STE 100",AUSTIN,TX,78731-1780,"(512) 770-8500",,,,
TX,HAYS,2021-4061,"Single Family Homes",3/15/2021,,229000,2290,"338 EAGLE FORD DR",KYLE,TX,78640,,,CONTRACTOR,,,,,,,,,,,"M/I HOMES",,,,,"M/I HOMES","6801 N CAPITAL OF TEXAS HWY BLDG 2 STE 100",AUSTIN,TX,78731-1780,"(512) 770-8500",,,,
TX,HAYS,2021-4062,"Single Family Homes",3/15/2021,,275000,2750,"346 EAGLE FORD DR",KYLE,TX,78640,,,CONTRACTOR,,,,,,,,,,,"M/I HOMES",,,,,"M/I HOMES","6801 N CAPITAL OF TEXAS HWY BLDG 2 STE 100",AUSTIN,TX,78731-1780,"(512) 770-8500",,,,
TX,HAYS,2021-3981,"Single Family Homes",3/15/2021,,255000,2184,"600 FERRULE DR",KYLE,TX,78640,,,CONTRACTOR,,,,,,,,,,,"BIGELOW DEVELOPMENT",,,,,"BIGELOW DEVELOPMENT","1048 SANDERS",KYLE,TX,78640-6122,"(512) 504-9243",,,,
TX,HAYS,2021-4041,"Single Family Homes",3/16/2021,,181285,2789,"550 JACK RYAN",KYLE,TX,78640,,,CONTRACTOR,,,,,,,,,,,"LENNAR HOMES",,,,,"LENNAR HOMES","13620 FM 620 RD 150",AUSTIN,TX,78717,"(512) 506-4000",http://www.lennar.com/,,,
TX,HAYS,2021-4042,"Single Family Homes",3/16/2021,,156585,2409,"560 JACK RYAN",KYLE,TX,78640,,,CONTRACTOR,,,,,,,,,,,"LENNAR HOMES",,,,,"LENNAR HOMES","13620 FM 620 RD 150",AUSTIN,TX,78717,"(512) 506-4000",http://www.lennar.com/,,,
TX,HAYS,2021-4044,"Single Family Homes",3/16/2021,,196495,3023,"570 JACK RYAN",KYLE,TX,78640,,,CONTRACTOR,,,,,,,,,,,"LENNAR HOMES",,,,,"LENNAR HOMES","13620 FM 620 RD 150",AUSTIN,TX,78717,"(512) 506-4000",http://www.lennar.com/,,,
TX,HAYS,2021-4045,"Single Family Homes",3/16/2021,,145275,2235,"215 BARCELONA",KYLE,TX,78640,,,CONTRACTOR,,,,,,,,,,,"LENNAR HOMES",,,,,"LENNAR HOMES","13620 FM 620 RD 150",AUSTIN,TX,78717,"(512) 506-4000",http://www.lennar.com/,,,
TX,HAYS,2021-4046,"Single Family Homes",3/16/2021,,191685,2949,"200 BARCELONA",KYLE,TX,78640,,,CONTRACTOR,,,,,,,,,,,"LENNAR HOMES",,,,,"LENNAR HOMES","13620 FM 620 RD 150",AUSTIN,TX,78717,"(512) 506-4000",http://www.lennar.com/,,,
TX,HAYS,2021-4047,"Single Family Homes",3/16/2021,,157040,2416,"203 BARCELONA",KYLE,TX,78640,,,CONTRACTOR,,,,,,,,,,,"LENNAR HOMES",,,,,"LENNAR HOMES","13620 FM 620 RD 150",AUSTIN,TX,78717,"(512) 506-4000",http://www.lennar.com/,,,
TX,HAYS,2021-4048,"Single Family Homes",3/16/2021,,113490,1746,"190 BARCELONA",KYLE,TX,78640,,,CONTRACTOR,,,,,,,,,,,"LENNAR HOMES",,,,,"LENNAR HOMES","13620 FM 620 RD 150",AUSTIN,TX,78717,"(512) 506-4000",http://www.lennar.com/,,,
TX,HAYS,2021-4050,"Single Family Homes",3/16/2021,,134485,2069,"191 BARCELONA",KYLE,TX,78640,,,CONTRACTOR,,,,,,,,,,,"LENNAR HOMES",,,,,"LENNAR HOMES","13620 FM 620 RD 150",AUSTIN,TX,78717,"(512) 506-4000",http://www.lennar.com/,,,
TX,HAYS,2021-4052,"Single Family Homes",3/16/2021,,134485,2069,"340 RIOJA",KYLE,TX,78640,"PLUM CREEK",,CONTRACTOR,,,,,,,,,,,"LENNAR HOMES",,,,,"LENNAR HOMES","13620 FM 620 RD 150",AUSTIN,TX,78717,"(512) 506-4000",http://www.lennar.com/,,,
TX,HAYS,2021-4053,"Single Family Homes",3/16/2021,,157690,2426,"330 RIOJA",KYLE,TX,78640,,,CONTRACTOR,,,,,,,,,,,"LENNAR HOMES",,,,,"LENNAR HOMES","13620 FM 620 RD 150",AUSTIN,TX,78717,"(512) 506-4000",http://www.lennar.com/,,,
TX,HAYS,2021-4054,"Single Family Homes",3/16/2021,,134485,2069,"320 RIOJA",KYLE,TX,78640,,,CONTRACTOR,,,,,,,,,,,"LENNAR HOMES",,,,,"LENNAR HOMES","13620 FM 620 RD 150",AUSTIN,TX,78717,"(512) 506-4000",http://www.lennar.com/,,,
TX,HAYS,2021-4007,"Single Family Homes",3/16/2021,,157820,2428,"260 RIOJA",KYLE,TX,78640,,,CONTRACTOR,,,,,,,,,,,"LENNAR HOMES",,,,,"LENNAR HOMES","13620 FM 620 RD 150",AUSTIN,TX,78717,"(512) 506-4000",http://www.lennar.com/,,,
TX,HAYS,2021-4008,"Single Family Homes",3/16/2021,,150605,2317,"261 RIOJA",KYLE,TX,78640,,,CONTRACTOR,,,,,,,,,,,"LENNAR HOMES",,,,,"LENNAR HOMES","13620 FM 620 RD 150",AUSTIN,TX,78717,"(512) 506-4000",http://www.lennar.com/,,,
TX,HAYS,2021-4009,"Single Family Homes",3/16/2021,,172055,2647,"250 RIOJA",KYLE,TX,78640,,,CONTRACTOR,,,,,,,,,,,"LENNAR HOMES",,,,,"LENNAR HOMES","13620 FM 620 RD 150",AUSTIN,TX,78717,"(512) 506-4000",http://www.lennar.com/,,,
TX,HAYS,2021-4026,"Single Family Homes",3/16/2021,,148005,2277,"220 BARCELONA",KYLE,TX,78640,,,CONTRACTOR,,,,,,,,,,,"LENNAR HOMES",,,,,"LENNAR HOMES","13620 FM 620 RD 150",AUSTIN,TX,78717,"(512) 506-4000",http://www.lennar.com/,,,
TX,HAYS,2021-4027,"Single Family Homes",3/16/2021,,157690,2426,"210 BARCELONA",KYLE,TX,78640,,,CONTRACTOR,,,,,,,,,,,"LENNAR HOMES",,,,,"LENNAR HOMES","13620 FM 620 RD 150",AUSTIN,TX,78717,"(512) 506-4000",http://www.lennar.com/,,,
TX,HAYS,2021-4028,"Single Family Homes",3/16/2021,,181285,2296,"450 JACK RYAN",KYLE,TX,78640,,,CONTRACTOR,,,,,,,,,,,"LENNAR HOMES",,,,,"LENNAR HOMES","13620 FM 620 RD 150",AUSTIN,TX,78717,"(512) 506-4000",http://www.lennar.com/,,,
TX,HAYS,2021-4029,"Single Family Homes",3/16/2021,,223536,3439,"440 JACK RYAN",KYLE,TX,78640,,,CONTRACTOR,,,,,,,,,,,"LENNAR HOMES",,,,,"LENNAR HOMES","13620 FM 620 RD 150",AUSTIN,TX,78717,"(512) 506-4000",http://www.lennar.com/,,,
TX,HAYS,2021-3991,"Single Family Homes",3/16/2021,,169585,2609,"470 JACK RYAN",KYLE,TX,78640,,,CONTRACTOR,,,,,,,,,,,"LENNAR HOMES",,,,,"LENNAR HOMES","13620 FM 620 RD 150",AUSTIN,TX,78717,"(512) 506-4000",http://www.lennar.com/,,,
TX,HAYS,2021-3992,"Single Family Homes",3/16/2021,,156585,2409,"460 JACK RYAN",KYLE,TX,78640,,,CONTRACTOR,,,,,,,,,,,"LENNAR HOMES",,,,,"LENNAR HOMES","13620 FM 620 RD 150",AUSTIN,TX,78717,"(512) 506-4000",http://www.lennar.com/,,,
TX,HAYS,2021-3993,"Single Family Homes",3/16/2021,,181285,2789,"480 JACK RYAN",KYLE,TX,78640,,,CONTRACTOR,,,,,,,,,,,"LENNAR HOMES",,,,,"LENNAR HOMES","13620 FM 620 RD 150",AUSTIN,TX,78717,"(512) 506-4000",http://www.lennar.com/,,,
TX,HAYS,2021-4000,"Single Family Homes",3/16/2021,,161070,2478,"240 RIOJA",KYLE,TX,78640,,,CONTRACTOR,,,,,,,,,,,"LENNAR HOMES",,,,,"LENNAR HOMES","13620 FM 620 RD 150",AUSTIN,TX,78717,"(512) 506-4000",http://www.lennar.com/,,,
TX,HAYS,2021-4001,"Single Family Homes",3/16/2021,,181090,2786,"251 RIOJA",KYLE,TX,78640,,,CONTRACTOR,,,,,,,,,,,"LENNAR HOMES",,,,,"LENNAR HOMES","13620 FM 620 RD 150",AUSTIN,TX,78717,"(512) 506-4000",http://www.lennar.com/,,,
TX,HAYS,2021-3905,"Single Family Homes",3/16/2021,,231225,3083,"139 BILLOWING WAY",KYLE,TX,78640,,,CONTRACTOR,,,,,,,,,,,"PACESETTER HOMES ",,,,,"PACESETTER HOMES ","7940 SHOAL CREEK BLVD STE 200",AUSTIN,TX,78757-7587,"(512) 323-5252",,,,
TX,HAYS,2021-4100,"Single Family Homes",3/16/2021,,259511,1981,"444 SPINNAKER LOOP",KYLE,TX,78640,,,CONTRACTOR,,,,,,,,,,,"PACESETTER HOMES ",,,,,"PACESETTER HOMES ","7940 SHOAL CREEK BLVD STE 200",AUSTIN,TX,78757-7587,"(512) 323-5252",,,,
TX,TRAVIS,21-33192,"Single Family Homes",3/17/2021,,261000,,"8405 ORIZZONTE ST",AUSTIN,TX,78744,"EASTON PARK",,CONTRACTOR,,,,,,,,,,,"BROOKFIELD RESIDENTIAL PROPERTIES",,,,,"BROOKFIELD RESIDENTIAL PROPERTIES","11501 ALTERRA PKWY STE 100",AUSTIN,TX,78758-3201,"(512) 391-1330",,,,
TX,TRAVIS,21-33116,"Single Family Homes",3/30/2021,,190000,,"3807 BIRDWATCH LOOP",PFLUGERVILLE,TX,78660,"JAKES HILL CONDOMINIUMS",,CONTRACTOR,,,,,,,,,,,"BLACKBURN COMMUNITIES",,,,,"BLACKBURN COMMUNITIES","301 BRUSHY CREEK RD STE 108",PFLUGERVILLE,TX,78613,"(512) 401-3205",https://www.blackburnhomes.com/,,,info@blackburnhomes.com
TX,TRAVIS,21-33010,"Single Family Homes",3/15/2021,,397905,,"20933 BROOKLYNN MELISSA DR",PFLUGERVILLE,TX,78660,,,CONTRACTOR,,,,,,,,,,,"EHT OF TEXAS LP",,,,,"EHT OF TEXAS LP","3520 EXECUTIVE CENTER DR STE 100",AUSTIN,TX,78731-1636,"(757) 287-6394",,,,
TX,TRAVIS,21-33196,"Single Family Homes",3/17/2021,,250000,,"8404 AUSBLICK AVE",AUSTIN,TX,78744,,,CONTRACTOR,,,,,,,,,,,"BROOKFIELD RESIDENTIAL PROPERTIES",,,,,"BROOKFIELD RESIDENTIAL PROPERTIES","11501 ALTERRA PKWY STE 100",AUSTIN,TX,78758-3201,"(512) 391-1330",,,,
TX,TRAVIS,21-33197,"Single Family Homes",3/17/2021,,272000,,"8400 AUSBLICK AVE",AUSTIN,TX,78744,"EASTON PARK",,CONTRACTOR,,,,,,,,,,,"BROOKFIELD RESIDENTIAL PROPERTIES",,,,,"BROOKFIELD RESIDENTIAL PROPERTIES","11501 ALTERRA PKWY STE 100",AUSTIN,TX,78758-3201,"(512) 391-1330",,,,
TX,TRAVIS,21-33198,"Single Family Homes",3/17/2021,,272000,,"848412 AUSBLICK AVE",AUSTIN,TX,78744,,,CONTRACTOR,,,,,,,,,,,"BROOKFIELD RESIDENTIAL PROPERTIES",,,,,"BROOKFIELD RESIDENTIAL PROPERTIES","11501 ALTERRA PKWY STE 100",AUSTIN,TX,78758-3201,"(512) 391-1330",,,,
TX,TRAVIS,21-33046,"Single Family Homes",3/31/2021,,398990,,"15705 SINGH DR",AUSTIN,TX,78728,,,CONTRACTOR,,,,,,,,,,,"TAYLOR MORRISON OF TEXAS",,,,,"TAYLOR MORRISON OF TEXAS","11200 LAKELINE BLVD STE 150A",AUSTIN,TX,78717-5964,"(512) 328-8866",,"(512) 328-7988",,
TX,TRAVIS,21-33089,"Single Family Homes",3/16/2021,,448621,,"7200 POULAIN DR",AUSTIN,TX,78738,,,CONTRACTOR,,,,,,,,,,,"DAVID WEEKLEY HOMES",,,,,"DAVID WEEKLEY HOMES","9000 WATERFORD CENTRE BLVD",AUSTIN,TX,78758-7662,"(800) 390-6774",http://www.davidweekleyhomes.com/,,,
TX,TRAVIS,21-33173,"Single Family Homes",3/30/2021,,244000,,"6209 DUMFRIES LN",AUSTIN,TX,78744,,,CONTRACTOR,,,,,,,,,,,"BROOKFIELD RESIDENTIAL PROPERTIES",,,,,"BROOKFIELD RESIDENTIAL PROPERTIES","11501 ALTERRA PKWY STE 100",AUSTIN,TX,78758-3201,"(512) 391-1330",,,,
TX,TRAVIS,21-33190,"Single Family Homes",3/30/2021,,500000,,"14100 FT SMITH TR",AUSTIN,TX,78734,,,CONTRACTOR,,,,,,,,,,,"JOHN PATE CONSTRUCTION",,,,,"JOHN PATE CONSTRUCTION","15101 DEBBA DR",AUSTIN,TX,78734-3622,"(512) 266-2125",,,"MARK PATE",
TX,TRAVIS,21-33210,"Single Family Homes",3/4/2021,,262000,,"8408 AUSBLICK AVE",AUSTIN,TX,78744,,,CONTRACTOR,,,,,,,,,,,"BROOKFIELD RESIDENTIAL PROPERTIES",,,,,"BROOKFIELD RESIDENTIAL PROPERTIES","11501 ALTERRA PKWY STE 100",AUSTIN,TX,78758-3201,"(512) 391-1330",,,,
TX,TRAVIS,21-33171,"Single Family Homes",3/30/2021,,255000,,"6213 DUMFRIES LN",AUSTIN,TX,78744,,,CONTRACTOR,,,,,,,,,,,"BROOKFIELD RESIDENTIAL PROPERTIES",,,,,"BROOKFIELD RESIDENTIAL PROPERTIES","11501 ALTERRA PKWY STE 100",AUSTIN,TX,78758-3201,"(512) 391-1330",,,,
TX,TRAVIS,21-33174,"Single Family Homes",3/30/2021,,267000,,"6207 DUMFRIES LN",AUSTIN,TX,78744,,,CONTRACTOR,,,,,,,,,,,"BROOKFIELD RESIDENTIAL PROPERTIES",,,,,"BROOKFIELD RESIDENTIAL PROPERTIES","11501 ALTERRA PKWY STE 100",AUSTIN,TX,78758-3201,"(512) 391-1330",,,,
TX,TRAVIS,21-33177,"Single Family Homes",3/17/2021,,327000,,"8813 CHRYLSER BEND",AUSTIN,TX,78744,,,CONTRACTOR,,,,,,,,,,,"BROOKFIELD RESIDENTIAL PROPERTIES",,,,,"BROOKFIELD RESIDENTIAL PROPERTIES","11501 ALTERRA PKWY STE 100",AUSTIN,TX,78758-3201,"(512) 391-1330",,,,
TX,TRAVIS,21-33194,"Single Family Homes",3/17/2021,,240000,,"8409 ORIZZONTE ST",AUSTIN,TX,78744,,,CONTRACTOR,,,,,,,,,,,"BROOKFIELD RESIDENTIAL PROPERTIES",,,,,"BROOKFIELD RESIDENTIAL PROPERTIES","11501 ALTERRA PKWY STE 100",AUSTIN,TX,78758-3201,"(512) 391-1330",,,,
TX,TRAVIS,21-33195,"Single Family Homes",3/17/2021,,261000,,"8413 ORIZZONTE ST",AUSTIN,TX,78744,,,CONTRACTOR,,,,,,,,,,,"BROOKFIELD RESIDENTIAL PROPERTIES",,,,,"BROOKFIELD RESIDENTIAL PROPERTIES","11501 ALTERRA PKWY STE 100",AUSTIN,TX,78758-3201,"(512) 391-1330",,,,
TX,TRAVIS,21-33164,"Single Family Homes",3/30/2021,,296000,,"8311 GREYHAWK COVE",AUSTIN,TX,78744,,,CONTRACTOR,,,,,,,,,,,"BROOKFIELD RESIDENTIAL PROPERTIES",,,,,"BROOKFIELD RESIDENTIAL PROPERTIES","11501 ALTERRA PKWY STE 100",AUSTIN,TX,78758-3201,"(512) 391-1330",,,,
TX,TRAVIS,21-33168,"Single Family Homes",3/30/2021,,243000,,"8617 MC KAMY DR",AUSTIN,TX,78744,,,CONTRACTOR,,,,,,,,,,,"BROOKFIELD RESIDENTIAL PROPERTIES",,,,,"BROOKFIELD RESIDENTIAL PROPERTIES","11501 ALTERRA PKWY STE 100",AUSTIN,TX,78758-3201,"(512) 391-1330",,,,
TX,TRAVIS,21-33169,"Single Family Homes",3/30/2021,,273000,,"8619 MC KAMY DR",AUSTIN,TX,78744,,,CONTRACTOR,,,,,,,,,,,"BROOKFIELD RESIDENTIAL PROPERTIES",,,,,"BROOKFIELD RESIDENTIAL PROPERTIES","11501 ALTERRA PKWY STE 100",AUSTIN,TX,78758-3201,"(512) 391-1330",,,,
TX,TRAVIS,21-33170,"Single Family Homes",3/30/2021,,251000,,"8621 MC KAMY DR",AUSTIN,TX,78744,,,CONTRACTOR,,,,,,,,,,,"BROOKFIELD RESIDENTIAL PROPERTIES",,,,,"BROOKFIELD RESIDENTIAL PROPERTIES","11501 ALTERRA PKWY STE 100",AUSTIN,TX,78758-3201,"(512) 391-1330",,,,
TX,TRAVIS,21-33165,"Single Family Homes",3/30/2021,,300000,,"8313 GREYHAWK COVE",AUSTIN,TX,78744,,,CONTRACTOR,,,,,,,,,,,"BROOKFIELD RESIDENTIAL PROPERTIES",,,,,"BROOKFIELD RESIDENTIAL PROPERTIES","11501 ALTERRA PKWY STE 100",AUSTIN,TX,78758-3201,"(512) 391-1330",,,,
TX,TRAVIS,21-33166,"Single Family Homes",3/30/2021,,254000,,"8613 MC KAMY DR",AUSTIN,TX,78744,,,CONTRACTOR,,,,,,,,,,,"BROOKFIELD RESIDENTIAL PROPERTIES",,,,,"BROOKFIELD RESIDENTIAL PROPERTIES","11501 ALTERRA PKWY STE 100",AUSTIN,TX,78758-3201,"(512) 391-1330",,,,
TX,TRAVIS,21-33167,"Single Family Homes",3/30/2021,,275000,,"8615 MC KAMY DR",AUSTIN,TX,78744,,,CONTRACTOR,,,,,,,,,,,"BROOKFIELD RESIDENTIAL PROPERTIES",,,,,"BROOKFIELD RESIDENTIAL PROPERTIES","11501 ALTERRA PKWY STE 100",AUSTIN,TX,78758-3201,"(512) 391-1330",,,,
TX,TRAVIS,21-33172,"Single Family Homes",3/30/2021,,279000,,"6211 DUMFRIES LN",AUSTIN,TX,78744,,,CONTRACTOR,,,,,,,,,,,"BROOKFIELD RESIDENTIAL PROPERTIES",,,,,"BROOKFIELD RESIDENTIAL PROPERTIES","11501 ALTERRA PKWY STE 100",AUSTIN,TX,78758-3201,"(512) 391-1330",,,,
TX,TRAVIS,21-33292,"Single Family Homes",3/31/2021,,2251850,,"13824 INAUGURAL ST",MANOR,TX,78653,,,CONTRACTOR,,,,,,,,,,,"KB HOME",,,,,"KB HOME","10800 PECAN PARK BLVD STE 200",AUSTIN,TX,78750-1249,"(512) 651-8100",,,,
TX,TRAVIS,21-33391,"Single Family Homes",3/31/2021,,102300,,"7208 DANCING WIND","DEL VALLE",TX,78617,,,CONTRACTOR,,,,,,,,,,,"LENNAR HOMES",,,,,"LENNAR HOMES","13620 FM 620 RD 150",AUSTIN,TX,78717,"(512) 506-4000",http://www.lennar.com/,,,
TX,TRAVIS,21-33340,"Single Family Homes",3/31/2021,,193000,,"8004 LENNON DR",AUSTIN,TX,78744,,,CONTRACTOR,,,,,,,,,,,"BROOKFIELD RESIDENTIAL PROPERTIES",,,,,"BROOKFIELD RESIDENTIAL PROPERTIES","11501 ALTERRA PKWY STE 100",AUSTIN,TX,78758-3201,"(512) 391-1330",,,,
TX,TRAVIS,21-33339,"Single Family Homes",3/31/2021,,226000,,"8002 LENNON DR",AUSTIN,TX,78744,,,CONTRACTOR,,,,,,,,,,,"BROOKFIELD RESIDENTIAL PROPERTIES",,,,,"BROOKFIELD RESIDENTIAL PROPERTIES","11501 ALTERRA PKWY STE 100",AUSTIN,TX,78758-3201,"(512) 391-1330",,,,
TX,TRAVIS,21-33338,"Single Family Homes",3/31/2021,,201000,,"8000 LENNON DR",AUSTIN,TX,78744,,,CONTRACTOR,,,,,,,,,,,"BROOKFIELD RESIDENTIAL PROPERTIES",,,,,"BROOKFIELD RESIDENTIAL PROPERTIES","11501 ALTERRA PKWY STE 100",AUSTIN,TX,78758-3201,"(512) 391-1330",,,,
TX,TRAVIS,21-33369,"Single Family Homes",3/31/2021,,160425,,"7233 SPOTTED LEAF","DEL VALLE",TX,78617,,,CONTRACTOR,,,,,,,,,,,"LENNAR HOMES",,,,,"LENNAR HOMES","13620 FM 620 RD 150",AUSTIN,TX,78717,"(512) 506-4000",http://www.lennar.com/,,,
TX,TRAVIS,21-33329,"Single Family Homes",3/31/2021,,272000,,"8313 LAUGHLIN LN",AUSTIN,TX,78744,,,CONTRACTOR,,,,,,,,,,,"BROOKFIELD RESIDENTIAL PROPERTIES",,,,,"BROOKFIELD RESIDENTIAL PROPERTIES","11501 ALTERRA PKWY STE 100",AUSTIN,TX,78758-3201,"(512) 391-1330",,,,
TX,TRAVIS,21-33328,"Single Family Homes",3/31/2021,,262000,,"8311 LAUGHLIN LN",AUSTIN,TX,78744,,,CONTRACTOR,,,,,,,,,,,"BROOKFIELD RESIDENTIAL PROPERTIES",,,,,"BROOKFIELD RESIDENTIAL PROPERTIES","11501 ALTERRA PKWY STE 100",AUSTIN,TX,78758-3201,"(512) 391-1330",,,,
TX,TRAVIS,21-33330,"Single Family Homes",3/31/2021,,261000,,"8315 LAUGHLIN LN",AUSTIN,TX,78744,,,CONTRACTOR,,,,,,,,,,,"BROOKFIELD RESIDENTIAL PROPERTIES",,,,,"BROOKFIELD RESIDENTIAL PROPERTIES","11501 ALTERRA PKWY STE 100",AUSTIN,TX,78758-3201,"(512) 391-1330",,,,
TX,TRAVIS,21-33327,"Single Family Homes",3/31/2021,,251000,,"8309 LAUGHLIN LN",AUSTIN,TX,78744,,,CONTRACTOR,,,,,,,,,,,"BROOKFIELD RESIDENTIAL PROPERTIES",,,,,"BROOKFIELD RESIDENTIAL PROPERTIES","11501 ALTERRA PKWY STE 100",AUSTIN,TX,78758-3201,"(512) 391-1330",,,,
TX,TRAVIS,21-33326,"Single Family Homes",3/31/2021,,261000,,"8307 LAUGHLIN LN",AUSTIN,TX,78744,,,CONTRACTOR,,,,,,,,,,,"BROOKFIELD RESIDENTIAL PROPERTIES",,,,,"BROOKFIELD RESIDENTIAL PROPERTIES","11501 ALTERRA PKWY STE 100",AUSTIN,TX,78758-3201,"(512) 391-1330",,,,
TX,TRAVIS,21-33325,"Single Family Homes",3/31/2021,,272000,,"8305 LAUGHLIN LN",AUSTIN,TX,78744,,,CONTRACTOR,,,,,,,,,,,"BROOKFIELD RESIDENTIAL PROPERTIES",,,,,"BROOKFIELD RESIDENTIAL PROPERTIES","11501 ALTERRA PKWY STE 100",AUSTIN,TX,78758-3201,"(512) 391-1330",,,,
TX,TRAVIS,21-33324,"Single Family Homes",3/31/2021,,250000,,"8303 LAUGHLIN LN",AUSTIN,TX,78744,,,CONTRACTOR,,,,,,,,,,,"BROOKFIELD RESIDENTIAL PROPERTIES",,,,,"BROOKFIELD RESIDENTIAL PROPERTIES","11501 ALTERRA PKWY STE 100",AUSTIN,TX,78758-3201,"(512) 391-1330",,,,
TX,TRAVIS,21-33323,"Single Family Homes",3/31/2021,,240000,,"8301 LAUGHLIN LN",AUSTIN,TX,78744,,,CONTRACTOR,,,,,,,,,,,"BROOKFIELD RESIDENTIAL PROPERTIES",,,,,"BROOKFIELD RESIDENTIAL PROPERTIES","11501 ALTERRA PKWY STE 100",AUSTIN,TX,78758-3201,"(512) 391-1330",,,,
TX,HAYS,2021-4084,"Single Family Homes",3/16/2021,,400000,3229,"178 FAWN RIVER RUN",KYLE,TX,78640,,,CONTRACTOR,,,,,,,,,,,"PERRY HOMES",,,,,"PERRY HOMES","6112 LLANO ST",AUSTIN,TX,78702,"(512) 810-8050",,,,
TX,HAYS,2021-4085,"Single Family Homes",3/16/2021,,395000,3113,"256 EAGLE FORD DR",KYLE,TX,78640,,,CONTRACTOR,,,,,,,,,,,"PERRY HOMES",,,,,"PERRY HOMES","6112 LLANO ST",AUSTIN,TX,78702,"(512) 810-8050",,,,
TX,HAYS,2021-4086,"Single Family Homes",3/16/2021,,400000,3184,"444 COLD RIVER RUN",KYLE,TX,78640,,,CONTRACTOR,,,,,,,,,,,"PERRY HOMES",,,,,"PERRY HOMES","6112 LLANO ST",AUSTIN,TX,78702,"(512) 810-8050",,,,
TX,HAYS,2021-4087,"Single Family Homes",3/16/2021,,485000,2896,"207 PAINTED CREEK WAY",KYLE,TX,78640,"SIX CREEKS",,CONTRACTOR,,,,,,,,,,,"PERRY HOMES",,,,,"PERRY HOMES","6112 LLANO ST",AUSTIN,TX,78702,"(512) 810-8050",,,,
TX,HAYS,2021-4091,"Single Family Homes",3/16/2021,,390000,3027,"230 EAGLE FORD DR",KYLE,TX,78640,,,CONTRACTOR,,,,,,,,,,,"PERRY HOMES",,,,,"PERRY HOMES","6112 LLANO ST",AUSTIN,TX,78702,"(512) 810-8050",,,,
TX,HAYS,2021-4095,"Single Family Homes",3/16/2021,,380000,2896,"312 COLD RIVER RUN",KYLE,TX,78640,,,CONTRACTOR,,,,,,,,,,,"PERRY HOMES",,,,,"PERRY HOMES","6112 LLANO ST",AUSTIN,TX,78702,"(512) 810-8050",,,,
TX,HAYS,2021-4097,"Single Family Homes",3/16/2021,,390000,2925,"284 COLD RIVER RUN",KYLE,TX,78640,,,CONTRACTOR,,,,,,,,,,,"PERRY HOMES",,,,,"PERRY HOMES","6112 LLANO ST",AUSTIN,TX,78702,"(512) 810-8050",,,,
TX,HAYS,2021-4068,"Single Family Homes",3/16/2021,,420000,3146,"215 PAINTED CREEK WAY",KYLE,TX,78640,,,CONTRACTOR,,,,,,,,,,,"PERRY HOMES",,,,,"PERRY HOMES","6112 LLANO ST",AUSTIN,TX,78702,"(512) 810-8050",,,,
TX,HAYS,2021-4069,"Single Family Homes",3/16/2021,,385000,3038,"108 FAWN RIVER RUN",KYLE,TX,78640,"SIX CREEKS",,CONTRACTOR,,,,,,,,,,,"PERRY HOMES",,,,,"PERRY HOMES","6112 LLANO ST",AUSTIN,TX,78702,"(512) 810-8050",,,,
TX,HAYS,2021-4116,"Single Family Homes",9/13/2021,,119140,1702,"197 MAMMOTH DR",KYLE,TX,78640,,,CONTRACTOR,,,,,,,,,,,"CASTLEROCK COMMUNITIES",,,,,"CASTLEROCK COMMUNITIES","7670 WOODWAY DR STE 300",HOUSTON,TX,77063-1520,"(713) 600-7000",http://c-rock.com,"(713) 600-0000",,
TX,HAYS,2021-4140,"Single Family Homes",3/17/2021,,143990,2057,"180 ZION DR",KYLE,TX,78640,,,CONTRACTOR,,,,,,,,,,,"CASTLEROCK COMMUNITIES",,,,,"CASTLEROCK COMMUNITIES","7670 WOODWAY DR STE 300",HOUSTON,TX,77063-1520,"(713) 600-7000",http://c-rock.com,"(713) 600-0000",,
TX,HAYS,2021-4141,"Single Family Homes",3/17/2021,,201810,2883,"133 EVERGLADES DR",KYLE,TX,78640,,,CONTRACTOR,,,,,,,,,,,"CASTLEROCK COMMUNITIES",,,,,"CASTLEROCK COMMUNITIES","7670 WOODWAY DR STE 300",HOUSTON,TX,77063-1520,"(713) 600-7000",http://c-rock.com,"(713) 600-0000",,
TX,HAYS,2021-4124,"Single Family Homes",3/17/2021,,190120,2716,"125 ZION DR",KYLE,TX,78640,,,CONTRACTOR,,,,,,,,,,,"CASTLEROCK COMMUNITIES",,,,,"CASTLEROCK COMMUNITIES","7670 WOODWAY DR STE 300",HOUSTON,TX,77063-1520,"(713) 600-7000",http://c-rock.com,"(713) 600-0000",,
TX,HAYS,2021-4125,"Single Family Homes",3/17/2021,,160580,2294,"117 ZION DR",KYLE,TX,78640,,,CONTRACTOR,,,,,,,,,,,"CASTLEROCK COMMUNITIES",,,,,"CASTLEROCK COMMUNITIES","7670 WOODWAY DR STE 300",HOUSTON,TX,77063-1520,"(713) 600-7000",http://c-rock.com,"(713) 600-0000",,
TX,HAYS,2021-4126,"Single Family Homes",3/17/2021,,153300,2190,"116 ZION DR",KYLE,TX,78640,,,CONTRACTOR,,,,,,,,,,,"CASTLEROCK COMMUNITIES",,,,,"CASTLEROCK COMMUNITIES","7670 WOODWAY DR STE 300",HOUSTON,TX,77063-1520,"(713) 600-7000",http://c-rock.com,"(713) 600-0000",,
TX,HAYS,2021-4127,"Single Family Homes",3/17/2021,,152810,2183,"140 ZION DR",KYLE,TX,78640,,,CONTRACTOR,,,,,,,,,,,"CASTLEROCK COMMUNITIES",,,,,"CASTLEROCK COMMUNITIES","7670 WOODWAY DR STE 300",HOUSTON,TX,77063-1520,"(713) 600-7000",http://c-rock.com,"(713) 600-0000",,
TX,HAYS,2021-4128,"Single Family Homes",3/17/2021,,182210,2603,"164 ZION DR",KYLE,TX,78640,,,CONTRACTOR,,,,,,,,,,,"CASTLEROCK COMMUNITIES",,,,,"CASTLEROCK COMMUNITIES","7670 WOODWAY DR STE 300",HOUSTON,TX,77063-1520,"(713) 600-7000",http://c-rock.com,"(713) 600-0000",,
TX,HAYS,2021-4137,"Single Family Homes",3/17/2021,,163800,2340,"160 OLYMPIC PARK DR",KYLE,TX,78640,,,CONTRACTOR,,,,,,,,,,,"CASTLEROCK COMMUNITIES",,,,,"CASTLEROCK COMMUNITIES","7670 WOODWAY DR STE 300",HOUSTON,TX,77063-1520,"(713) 600-7000",http://c-rock.com,"(713) 600-0000",,
TX,HAYS,2021-4138,"Single Family Homes",3/17/2021,,161700,,"212 ZION DR",KYLE,TX,78640,,,CONTRACTOR,,,,,,,,,,,"CASTLEROCK COMMUNITIES",,,,,"CASTLEROCK COMMUNITIES","7670 WOODWAY DR STE 300",HOUSTON,TX,77063-1520,"(713) 600-7000",http://c-rock.com,"(713) 600-0000",,
TX,HAYS,2021-4118,"Single Family Homes",3/17/2021,,190960,2728,"213 ZION DR",KYLE,TX,78640,,,CONTRACTOR,,,,,,,,,,,"CASTLEROCK COMMUNITIES",,,,,"CASTLEROCK COMMUNITIES","7670 WOODWAY DR STE 300",HOUSTON,TX,77063-1520,"(713) 600-7000",http://c-rock.com,"(713) 600-0000",,
TX,HAYS,2021-4119,"Single Family Homes",3/17/2021,,153300,2190,"149 ZION DR",KYLE,TX,78640,,,CONTRACTOR,,,,,,,,,,,"CASTLEROCK COMMUNITIES",,,,,"CASTLEROCK COMMUNITIES","7670 WOODWAY DR STE 300",HOUSTON,TX,77063-1520,"(713) 600-7000",http://c-rock.com,"(713) 600-0000",,
TX,HAYS,2021-4120,"Single Family Homes",3/17/2021,,190960,,"141 ZION DR",KYLE,TX,78640,,,CONTRACTOR,,,,,,,,,,,"CASTLEROCK COMMUNITIES",,,,,"CASTLEROCK COMMUNITIES","7670 WOODWAY DR STE 300",HOUSTON,TX,77063-1520,"(713) 600-7000",http://c-rock.com,"(713) 600-0000",,
TX,HAYS,2021-4121,"Single Family Homes",3/17/2021,,123620,1766,"133 ZION DR",KYLE,TX,78640,,,CONTRACTOR,,,,,,,,,,,"CASTLEROCK COMMUNITIES",,,,,"CASTLEROCK COMMUNITIES","7670 WOODWAY DR STE 300",HOUSTON,TX,77063-1520,"(713) 600-7000",http://c-rock.com,"(713) 600-0000",,
TX,HAYS,2021-4106,"Single Family Homes",3/17/2021,,201810,2883,"332 KENAI DR",KYLE,TX,78640,,,CONTRACTOR,,,,,,,,,,,"CASTLEROCK COMMUNITIES",,,,,"CASTLEROCK COMMUNITIES","7670 WOODWAY DR STE 300",HOUSTON,TX,77063-1520,"(713) 600-7000",http://c-rock.com,"(713) 600-0000",,
TX,HAYS,2021-4109,"Single Family Homes",3/17/2021,,123620,1766,"348 KENAI DR",KYLE,TX,78640,,,CONTRACTOR,,,,,,,,,,,"CASTLEROCK COMMUNITIES",,,,,"CASTLEROCK COMMUNITIES","7670 WOODWAY DR STE 300",HOUSTON,TX,77063-1520,"(713) 600-7000",http://c-rock.com,"(713) 600-0000",,
TX,HAYS,2021-4111,"Single Family Homes",3/17/2021,,117950,1685,"117 EVERGLADES DR",KYLE,TX,78640,,,CONTRACTOR,,,,,,,,,,,"CASTLEROCK COMMUNITIES",,,,,"CASTLEROCK COMMUNITIES","7670 WOODWAY DR STE 300",HOUSTON,TX,77063-1520,"(713) 600-7000",http://c-rock.com,"(713) 600-0000",,
TX,HAYS,2021-4112,"Single Family Homes",3/17/2021,,200340,2862,"109 EVERGLADES DR",KYLE,TX,78640,,,CONTRACTOR,,,,,,,,,,,"CASTLEROCK COMMUNITIES",,,,,"CASTLEROCK COMMUNITIES","7670 WOODWAY DR STE 300",HOUSTON,TX,77063-1520,"(713) 600-7000",http://c-rock.com,"(713) 600-0000",,
TX,HAYS,2021-4113,"Single Family Homes",3/17/2021,,200760,2868,"101 EVERGLADES DR",KYLE,TX,78640,,,CONTRACTOR,,,,,,,,,,,"CASTLEROCK COMMUNITIES",,,,,"CASTLEROCK COMMUNITIES","7670 WOODWAY DR STE 300",HOUSTON,TX,77063-1520,"(713) 600-7000",http://c-rock.com,"(713) 600-0000",,
TX,HAYS,2021-4051,"Single Family Homes",3/17/2021,,157040,2416,"180 BARCELONA",KYLE,TX,78640,,,CONTRACTOR,,,,,,,,,,,"LENNAR HOMES",,,,,"LENNAR HOMES","13620 FM 620 RD 150",AUSTIN,TX,78717,"(512) 506-4000",http://www.lennar.com/,,,
TX,HAYS,2021-4131,"Single Family Homes",3/17/2021,,150645,2739,"240 HELENA LN",KYLE,TX,78640,,,CONTRACTOR,,,,,,,,,,,"SCOTT FELDER HOMES",,,,,"SCOTT FELDER HOMES","6414 RIVER PLACE BLVD STE 100",AUSTIN,TX,78730-1158,"(512) 418-5400",,,,
TX,HAYS,2021-4122,"Single Family Homes",3/17/2021,,90530,1646,"300 FABION ST",KYLE,TX,78640,,,CONTRACTOR,,,,,,,,,,,"BROHN HOMES",,,,,"BROHN HOMES","6720 VAUGHT RANCH RD STE 200",AUSTIN,TX,78730-2354,"(512) 320-8833",http://brohnhomes.com/,,,
TX,HAYS,2021-3869,"Single Family Homes",3/17/2021,,250000,3142,"1174 TREETA TRL",KYLE,TX,78640,,,CONTRACTOR,,,,,,,,,,,"LGI HOMES",,,,,"LGI HOMES","1450 LAKE ROBBINS SUITE 430",CONROE,TX,77380,"(210) 563-4648",,"(281) 210-2601",,
TX,HAYS,2021-4114,"Single Family Homes",3/18/2021,,450000,3184,"357 EAGLE FORD DR",KYLE,TX,78640,,,CONTRACTOR,,,,,,,,,,,"PERRY HOMES",,,,,"PERRY HOMES","6112 LLANO ST",AUSTIN,TX,78702,"(512) 810-8050",,,,
TX,HAYS,2021-4166,"Single Family Homes",3/19/2021,,238788,2119,"144 ALEXANDER",KYLE,TX,78640,,,CONTRACTOR,,,,,,,,,,,"EHT OF TEXAS LP",,,,,"EHT OF TEXAS LP","3520 EXECUTIVE CENTER DR STE 100",AUSTIN,TX,78731-1636,"(757) 287-6394",,,,
TX,HAYS,2021-4160,"Single Family Homes",3/19/2021,,249833,2395,"174 ALEXANDER",KYLE,TX,78640,,,CONTRACTOR,,,,,,,,,,,"EHT OF TEXAS LP",,,,,"EHT OF TEXAS LP","3520 EXECUTIVE CENTER DR STE 100",AUSTIN,TX,78731-1636,"(757) 287-6394",,,,
TX,HAYS,2021-4139,"Single Family Homes",3/19/2021,,237164,2115,"102 ALEXANDER",KYLE,TX,78640,,,CONTRACTOR,,,,,,,,,,,"EHT OF TEXAS LP",,,,,"EHT OF TEXAS LP","3520 EXECUTIVE CENTER DR STE 100",AUSTIN,TX,78731-1636,"(757) 287-6394",,,,
TX,HAYS,2021-4152,"Single Family Homes",3/19/2021,,288282,2453,"111 ALEXANDER",KYLE,TX,78640,,,CONTRACTOR,,,,,,,,,,,"EHT OF TEXAS LP",,,,,"EHT OF TEXAS LP","3520 EXECUTIVE CENTER DR STE 100",AUSTIN,TX,78731-1636,"(757) 287-6394",,,,
TX,HAYS,2021-4150,"Single Family Homes",3/22/2021,,152810,2183,"197 ZION DR",KYLE,TX,78640,,,CONTRACTOR,,,,,,,,,,,"CASTLEROCK COMMUNITIES",,,,,"CASTLEROCK COMMUNITIES","7670 WOODWAY DR STE 300",HOUSTON,TX,77063-1520,"(713) 600-7000",http://c-rock.com,"(713) 600-0000",,
TX,HAYS,2021-4151,"Single Family Homes",3/22/2021,,204400,2920,"101 ZION DR",KYLE,TX,78640,,,CONTRACTOR,,,,,,,,,,,"CASTLEROCK COMMUNITIES",,,,,"CASTLEROCK COMMUNITIES","7670 WOODWAY DR STE 300",HOUSTON,TX,77063-1520,"(713) 600-7000",http://c-rock.com,"(713) 600-0000",,
TX,HAYS,2021-4148,"Single Family Homes",3/22/2021,,201810,2883,"109 ZION DR",KYLE,TX,78640,,,CONTRACTOR,,,,,,,,,,,"CASTLEROCK COMMUNITIES",,,,,"CASTLEROCK COMMUNITIES","7670 WOODWAY DR STE 300",HOUSTON,TX,77063-1520,"(713) 600-7000",http://c-rock.com,"(713) 600-0000",,
TX,HAYS,2021-4142,"Single Family Homes",3/22/2021,,119140,1702,"125 EVERGLADES DR",KYLE,TX,78640,,,CONTRACTOR,,,,,,,,,,,"CASTLEROCK COMMUNITIES",,,,,"CASTLEROCK COMMUNITIES","7670 WOODWAY DR STE 300",HOUSTON,TX,77063-1520,"(713) 600-7000",http://c-rock.com,"(713) 600-0000",,
TX,HAYS,2021-4161,"Single Family Homes",3/22/2021,,190120,2716,"188 ZION DR",KYLE,TX,78640,,,CONTRACTOR,,,,,,,,,,,"CASTLEROCK COMMUNITIES",,,,,"CASTLEROCK COMMUNITIES","7670 WOODWAY DR STE 300",HOUSTON,TX,77063-1520,"(713) 600-7000",http://c-rock.com,"(713) 600-0000",,
TX,HAYS,2021-4162,"Single Family Homes",3/22/2021,,201810,2883,"181 MAMMOTH DR",KYLE,TX,78640,,,CONTRACTOR,,,,,,,,,,,"CASTLEROCK COMMUNITIES",,,,,"CASTLEROCK COMMUNITIES","7670 WOODWAY DR STE 300",HOUSTON,TX,77063-1520,"(713) 600-7000",http://c-rock.com,"(713) 600-0000",,
TX,HAYS,2021-4163,"Single Family Homes",3/22/2021,,175420,2506,"165 MAMMOTH DR",KYLE,TX,78640,,,CONTRACTOR,,,,,,,,,,,"CASTLEROCK COMMUNITIES",,,,,"CASTLEROCK COMMUNITIES","7670 WOODWAY DR STE 300",HOUSTON,TX,77063-1520,"(713) 600-7000",http://c-rock.com,"(713) 600-0000",,
TX,HAYS,2021-4164,"Single Family Homes",3/22/2021,,203210,2903,"149 MAMMOTH DR",KYLE,TX,78640,,,CONTRACTOR,,,,,,,,,,,"CASTLEROCK COMMUNITIES",,,,,"CASTLEROCK COMMUNITIES","7670 WOODWAY DR STE 300",HOUSTON,TX,77063-1520,"(713) 600-7000",http://c-rock.com,"(713) 600-0000",,
TX,HAYS,2021-4165,"Single Family Homes",3/22/2021,,204400,2920,"189 ZION DR",KYLE,TX,78640,,,CONTRACTOR,,,,,,,,,,,"CASTLEROCK COMMUNITIES",,,,,"CASTLEROCK COMMUNITIES","7670 WOODWAY DR STE 300",HOUSTON,TX,77063-1520,"(713) 600-7000",http://c-rock.com,"(713) 600-0000",,
TX,HAYS,2021-4171,"Single Family Homes",3/22/2021,,204400,,"101 MAMMOTH DR",KYLE,TX,78640,,,CONTRACTOR,,,,,,,,,,,"CASTLEROCK COMMUNITIES",,,,,"CASTLEROCK COMMUNITIES","7670 WOODWAY DR STE 300",HOUSTON,TX,77063-1520,"(713) 600-7000",http://c-rock.com,"(713) 600-0000",,
TX,HAYS,2021-4167,"Single Family Homes",3/22/2021,,198730,2839,"100 BISCAYNE DR",KYLE,TX,78640,,,CONTRACTOR,,,,,,,,,,,"CASTLEROCK COMMUNITIES",,,,,"CASTLEROCK COMMUNITIES","7670 WOODWAY DR STE 300",HOUSTON,TX,77063-1520,"(713) 600-7000",http://c-rock.com,"(713) 600-0000",,
TX,HAYS,2021-4168,"Single Family Homes",3/22/2021,,161700,2310,"181 ZION DR",KYLE,TX,78640,,,CONTRACTOR,,,,,,,,,,,"CASTLEROCK COMMUNITIES",,,,,"CASTLEROCK COMMUNITIES","7670 WOODWAY DR STE 300",HOUSTON,TX,77063-1520,"(713) 600-7000",http://c-rock.com,"(713) 600-0000",,
TX,HAYS,2021-4169,"Single Family Homes",3/22/2021,,156310,2233,"173 ZION DR",KYLE,TX,78640,,,CONTRACTOR,,,,,,,,,,,"CASTLEROCK COMMUNITIES",,,,,"CASTLEROCK COMMUNITIES","7670 WOODWAY DR STE 300",HOUSTON,TX,77063-1520,"(713) 600-7000",http://c-rock.com,"(713) 600-0000",,
TX,HAYS,2021-4115,"Single Family Homes",3/22/2021,,129450,2260,"125 SILVER SPRINGS BND",KYLE,TX,78640,,,CONTRACTOR,,,,,,,,,,,"LENNAR HOMES",,,,,"LENNAR HOMES","13620 FM 620 RD 150",AUSTIN,TX,78717,"(512) 506-4000",http://www.lennar.com/,,,
TX,HAYS,2021-4156,"Single Family Homes",3/22/2021,,135495,2342,"247 SILVER GLEN DR",KYLE,TX,78640,,,CONTRACTOR,,,,,,,,,,,"MILESTONE COMMUNITY BUILDERS",,,,,"MILESTONE COMMUNITY BUILDERS","9111 JOLLYVILLE RD STE 111",AUSTIN,TX,78759-7406,"(512) 686-4986",http://www.mymilestone.com/,,,
TX,HAYS,2021-4153,"Single Family Homes",3/22/2021,,137940,2508,"1024 OLYMPIC LN",KYLE,TX,78640,,,CONTRACTOR,,,,,,,,,,,"SCOTT FELDER HOMES",,,,,"SCOTT FELDER HOMES","6414 RIVER PLACE BLVD STE 100",AUSTIN,TX,78730-1158,"(512) 418-5400",,,,
TX,HAYS,2021-3897,"Single Family Homes",3/22/2021,,330135,2440,"153 BILLOWING WAY",KYLE,TX,78640,,,CONTRACTOR,,,,,,,,,,,"HIGHLAND HOMES",,,,,"HIGHLAND HOMES","4201 W PARMER LN STE B180",AUSTIN,TX,78727-4110,"(512) 834-8429",,,,
TX,HAYS,2021-3870,"Single Family Homes",3/22/2021,,250000,2390,"1162 TREETA TRL",KYLE,TX,78640,,,CONTRACTOR,,,,,,,,,,,"LGI HOMES",,,,,"LGI HOMES","6010 LUCKEY RUN","SAN ANTONIO",TX,78252-2297,"(210) 677-8200",,,,
TX,HAYS,2021-4154,"Single Family Homes",3/23/2021,,575070,3037,"626 PAINTED CREEK WAY",KYLE,TX,78640,,,CONTRACTOR,,,,,,,,,,,"MHI MCGUYER HOMEBUILDERS",,,,,"MHI MCGUYER HOMEBUILDERS","8200 N MO PAC EXPY STE 300",AUSTIN,TX,78759-8844,"(512) 502-2050",,"(512) 388-1836","FRANK MCGUYER",
TX,HAYS,2021-4233,"Single Family Homes",3/23/2021,,350000,2371,"587 FERRULE DR",KYLE,TX,78640,,,CONTRACTOR,,,,,,,,,,,"BIGELOW DEVELOPMENT",,,,,"BIGELOW DEVELOPMENT","1048 SANDERS",KYLE,TX,78640-6122,"(512) 504-9243",,,,
TX,HAYS,2021-3957,"Single Family Homes",3/24/2021,,187680,2208,"309 KENNICOTT DR",KYLE,TX,78640,,,CONTRACTOR,,,,,,,,,,,"KB HOME",,,,,"KB HOME","10800 PECAN PARK BLVD STE 200",AUSTIN,TX,78750-1249,"(512) 651-8100",,,,
TX,HAYS,2021-4098,"Single Family Homes",3/25/2021,,340680,4008,"262 CRIMSON LN",KYLE,TX,78640,,,CONTRACTOR,,,,,,,,,,,"KB HOME",,,,,"KB HOME","10800 PECAN PARK BLVD STE 200",AUSTIN,TX,78750-1249,"(512) 651-8100",,,,
TX,HAYS,2021-4185,"Single Family Homes",3/25/2021,,190620,2118,"259 CRIMSON LN",KYLE,TX,78640,,,CONTRACTOR,,,,,,,,,,,"KB HOME",,,,,"KB HOME","10800 PECAN PARK BLVD STE 200",AUSTIN,TX,78750-1249,"(512) 651-8100",,,,
TX,HAYS,2021-4186,"Single Family Homes",3/25/2021,,170640,,"271 AUBURN ST",KYLE,TX,78640,,,CONTRACTOR,,,,,,,,,,,"KB HOME",,,,,"KB HOME","10800 PECAN PARK BLVD STE 200",AUSTIN,TX,78750-1249,"(512) 651-8100",,,,
TX,HAYS,2021-4187,"Single Family Homes",3/25/2021,,264600,2940,"210 FUCHSIA ST",KYLE,TX,78640,,,CONTRACTOR,,,,,,,,,,,"KB HOME",,,,,"KB HOME","10800 PECAN PARK BLVD STE 200",AUSTIN,TX,78750-1249,"(512) 651-8100",,,,
TX,HAYS,2021-4188,"Single Family Homes",3/25/2021,,,,"260 FUCHSIA ST",KYLE,TX,78640,,,CONTRACTOR,,,,,,,,,,,"KB HOME",,,,,"KB HOME","10800 PECAN PARK BLVD STE 200",AUSTIN,TX,78750-1249,"(512) 651-8100",,,,
TX,HAYS,2021-4189,"Single Family Homes",3/25/2021,,173430,1927,"240 AUBURN ST",KYLE,TX,78640,,,CONTRACTOR,,,,,,,,,,,"KB HOME",,,,,"KB HOME","10800 PECAN PARK BLVD STE 200",AUSTIN,TX,78750-1249,"(512) 651-8100",,,,
TX,HAYS,2021-4190,"Single Family Homes",3/25/2021,,360180,4002,"265 KAT GARNET DR",KYLE,TX,78640,,,CONTRACTOR,,,,,,,,,,,"KB HOME",,,,,"KB HOME","10800 PECAN PARK BLVD STE 200",AUSTIN,TX,78750-1249,"(512) 651-8100",,,,
TX,HAYS,2021-4176,"Single Family Homes",3/25/2021,,181080,2012,"252 CRIMSON LN",KYLE,TX,78640,,,CONTRACTOR,,,,,,,,,,,"KB HOME",,,,,"KB HOME","10800 PECAN PARK BLVD STE 200",AUSTIN,TX,78750-1249,"(512) 651-8100",,,,
TX,HAYS,2021-4063,"Single Family Homes",3/25/2021,,161245,1897,"220 KENNICOTT DR",KYLE,TX,78640,,,CONTRACTOR,,,,,,,,,,,"KB HOME",,,,,"KB HOME","10800 PECAN PARK BLVD STE 200",AUSTIN,TX,78750-1249,"(512) 651-8100",,,,
TX,HAYS,2021-4065,"Single Family Homes",3/25/2021,,161245,1897,"280 KENNICOTT DR",KYLE,TX,78640,,,CONTRACTOR,,,,,,,,,,,"KB HOME",,,,,"KB HOME","10800 PECAN PARK BLVD STE 200",AUSTIN,TX,78750-1249,"(512) 651-8100",,,,
TX,HAYS,2021-3985,"Single Family Homes",3/25/2021,,205020,2961,"329 CRIMSON LN",KYLE,TX,78640,,,CONTRACTOR,,,,,,,,,,,"KB HOME",,,,,"KB HOME","10800 PECAN PARK BLVD STE 200",AUSTIN,TX,78750-1249,"(512) 651-8100",,,,
TX,HAYS,2021-4206,"Single Family Homes",3/25/2021,,567152,2879,"529 PAINTED CREEK WAY",KYLE,TX,78640,,,CONTRACTOR,,,,,,,,,,,"MHI MCGUYER HOMEBUILDERS",,,,,"MHI MCGUYER HOMEBUILDERS","8200 N MO PAC EXPY STE 300",AUSTIN,TX,78759-8844,"(512) 502-2050",,"(512) 388-1836","FRANK MCGUYER",
TX,HAYS,R2021-4207,"Single Family Homes",3/25/2021,,126225,2295,"179 SEQUOIA DR",KYLE,TX,78640,,,CONTRACTOR,,,,,,,,,,,"SCOTT FELDER HOMES",,,,,"SCOTT FELDER HOMES","6414 RIVER PLACE BLVD STE 100",AUSTIN,TX,78730-1158,"(512) 418-5400",,,,
TX,HAYS,2021-3936,"Single Family Homes",3/25/2021,,252900,2529,"212 EAGLE FORD DR",KYLE,TX,78640,,,CONTRACTOR,,,,,,,,,,,"M/I HOMES",,,,,"M/I HOMES","6801 N CAPITAL OF TEXAS HWY BLDG 2 STE 100",AUSTIN,TX,78731-1780,"(512) 770-8500",,,,
TX,HAYS,2021-4215,"Single Family Homes",3/26/2021,,123232,2578,"245 SILVER SPRINGS BND",KYLE,TX,78640,,,CONTRACTOR,,,,,,,,,,,"MILESTONE COMMUNITY BUILDERS",,,,,"MILESTONE COMMUNITY BUILDERS","9111 JOLLYVILLE RD STE 111",AUSTIN,TX,78759-7406,"(512) 686-4986",http://www.mymilestone.com/,,,
TX,HAYS,2021-4203,"Single Family Homes",3/29/2021,,123620,1766,"110 BANFF DR",KYLE,TX,78640,,,CONTRACTOR,,,,,,,,,,,"CASTLEROCK COMMUNITIES",,,,,"CASTLEROCK COMMUNITIES","7670 WOODWAY DR STE 300",HOUSTON,TX,77063-1520,"(713) 600-7000",http://c-rock.com,"(713) 600-0000",,
TX,HAYS,2021-4208,"Single Family Homes",3/29/2021,,226940,3242,"124 BISCAYNE DR",KYLE,TX,78640,,,CONTRACTOR,,,,,,,,,,,"CASTLEROCK COMMUNITIES",,,,,"CASTLEROCK COMMUNITIES","7670 WOODWAY DR STE 300",HOUSTON,TX,77063-1520,"(713) 600-7000",http://c-rock.com,"(713) 600-0000",,
TX,HAYS,2021-4209,"Single Family Homes",3/29/2021,,216440,3092,"190 OLYMPIC PARK DR",KYLE,TX,78640,,,CONTRACTOR,,,,,,,,,,,"CASTLEROCK COMMUNITIES",,,,,"CASTLEROCK COMMUNITIES","7670 WOODWAY DR STE 300",HOUSTON,TX,77063-1520,"(713) 600-7000",http://c-rock.com,"(713) 600-0000",,
TX,HAYS,2021-4205,"Single Family Homes",3/29/2021,,200340,2862,"120 BANFF DR",KYLE,TX,78640,,,CONTRACTOR,,,,,,,,,,,"CASTLEROCK COMMUNITIES",,,,,"CASTLEROCK COMMUNITIES","7670 WOODWAY DR STE 300",HOUSTON,TX,77063-1520,"(713) 600-7000",http://c-rock.com,"(713) 600-0000",,
TX,HAYS,2021-4194,"Single Family Homes",3/29/2021,,203210,2903,"100 BANFF DR",KYLE,TX,78640,,,CONTRACTOR,,,,,,,,,,,"CASTLEROCK COMMUNITIES",,,,,"CASTLEROCK COMMUNITIES","7670 WOODWAY DR STE 300",HOUSTON,TX,77063-1520,"(713) 600-7000",http://c-rock.com,"(713) 600-0000",,
TX,HAYS,2021-4191,"Single Family Homes",3/29/2021,,176820,2526,"184 MAMMOTH DR",KYLE,TX,78640,,,CONTRACTOR,,,,,,,,,,,"CASTLEROCK COMMUNITIES",,,,,"CASTLEROCK COMMUNITIES","7670 WOODWAY DR STE 300",HOUSTON,TX,77063-1520,"(713) 600-7000",http://c-rock.com,"(713) 600-0000",,
TX,HAYS,021-4192,"Single Family Homes",3/29/2021,,169190,2417,"160 MAMMOTH DR",KYLE,TX,78640,,,CONTRACTOR,,,,,,,,,,,"CASTLEROCK COMMUNITIES",,,,,"CASTLEROCK COMMUNITIES","7670 WOODWAY DR STE 300",HOUSTON,TX,77063-1520,"(713) 600-7000",http://c-rock.com,"(713) 600-0000",,
TX,HAYS,2021-4211,"Single Family Homes",3/29/2021,,129450,2367,"175 SALT SPRINGS RD",KYLE,TX,7864,,,CONTRACTOR,,,,,,,,,,,"LENNAR HOMES",,,,,"LENNAR HOMES","13620 FM 620 RD 150",AUSTIN,TX,78717,"(512) 506-4000",http://www.lennar.com/,,,
TX,HAYS,2021-4216,"Single Family Homes",3/29/2021,,120461,2570,"322 BLUE SPRINGS PASS",KYLE,TX,78640,,,CONTRACTOR,,,,,,,,,,,"MILESTONE COMMUNITY BUILDERS",,,,,"MILESTONE COMMUNITY BUILDERS","9111 JOLLYVILLE RD STE 111",AUSTIN,TX,78759-7406,"(512) 686-4986",http://www.mymilestone.com/,,,
TX,HAYS,2021-4217,"Single Family Homes",3/30/2021,,128800,2286,"343 SILVER GLEN DR",KYLE,TX,78640,,,CONTRACTOR,,,,,,,,,,,"MILESTONE COMMUNITY BUILDERS",,,,,"MILESTONE COMMUNITY BUILDERS","9111 JOLLYVILLE RD STE 111",AUSTIN,TX,78759-7406,"(512) 686-4986",http://www.mymilestone.com/,,,
TX,HAYS,2021-4220,"Single Family Homes",3/30/2021,,518734,2191,"121 WEST BRANCH RD",KYLE,TX,78640,,,CONTRACTOR,,,,,,,,,,,"MHI MCGUYER HOMEBUILDERS",,,,,"MHI MCGUYER HOMEBUILDERS","8200 N MO PAC EXPY STE 300",AUSTIN,TX,78759-8844,"(512) 502-2050",,"(512) 388-1836","FRANK MCGUYER",
TX,HAYS,2021-4221,"Single Family Homes",3/30/2021,,577615,3015,"541 PAINTED CREEK WAY",KYLE,TX,78640,,,CONTRACTOR,,,,,,,,,,,"MHI MCGUYER HOMEBUILDERS",,,,,"MHI MCGUYER HOMEBUILDERS","8200 N MO PAC EXPY STE 300",AUSTIN,TX,78759-8844,"(512) 502-2050",,"(512) 388-1836","FRANK MCGUYER",
TX,HAYS,2021-4231,"Single Family Homes",3/31/2021,,117880,2052,"375 SILVER SPRINGS BND",KYLE,TX,78640,,,CONTRACTOR,,,,,,,,,,,"MILESTONE COMMUNITY BUILDERS",,,,,"MILESTONE COMMUNITY BUILDERS","9111 JOLLYVILLE RD STE 111",AUSTIN,TX,78759-7406,"(512) 686-4986",http://www.mymilestone.com/,,,
TX,HAYS,2021-4236,"Single Family Homes",3/31/2021,,136493,2753,"560 SILVER SPRINGS BND",KYLE,TX,78640,,,CONTRACTOR,,,,,,,,,,,"MILESTONE COMMUNITY BUILDERS",,,,,"MILESTONE COMMUNITY BUILDERS","9111 JOLLYVILLE RD STE 111",AUSTIN,TX,78759-7406,"(512) 686-4986",http://www.mymilestone.com/,,,
TX,HAYS,2021-4213,"Single Family Homes",3/31/2021,,240754,1841,"132 ALEXANDER",KYLE,TX,78640,,,CONTRACTOR,,,,,,,,,,,"EHT OF TEXAS LP",,,,,"EHT OF TEXAS LP","3520 EXECUTIVE CENTER DR STE 100",AUSTIN,TX,78731-1636,"(757) 287-6394",,,,
TX,HAYS,2021-4210,"Single Family Homes",3/31/2021,,263669,2069,"261 ALEXANDER",KYLE,TX,78640,,,CONTRACTOR,,,,,,,,,,,"EHT OF TEXAS LP",,,,,"EHT OF TEXAS LP","3520 EXECUTIVE CENTER DR STE 100",AUSTIN,TX,78731-1636,"(757) 287-6394",,,,
TX,HAYS,2021-4218,"Single Family Homes",3/31/2021,,300467,2449,"152 RAINS",KYLE,TX,78640,,,CONTRACTOR,,,,,,,,,,,"EHT OF TEXAS LP",,,,,"EHT OF TEXAS LP","3520 EXECUTIVE CENTER DR STE 100",AUSTIN,TX,78731-1636,"(757) 287-6394",,,,
TX,HAYS,2021-4219,"Single Family Homes",3/31/2021,,282317,2390,"172 RAINS",KYLE,TX,78640,,,CONTRACTOR,,,,,,,,,,,"EHT OF TEXAS LP",,,,,"EHT OF TEXAS LP","3520 EXECUTIVE CENTER DR STE 100",AUSTIN,TX,78731-1636,"(757) 287-6394",,,,
TX,HAYS,2020-0322,"Single Family Homes",3/4/2021,,150000,3000,"19140 IH 35",KYLE,TX,78640,,,CONTRACTOR,,,,,,,,,,,"EMJ CORPORATION",,,,,"EMJ CORPORATION","5525 N MACARTHUR BLVD STE 400",IRVING,TX,75038-1002,"(972) 580-1210",https://www.emjcorp.com/,,,info.dallas@emjcorp.com
TX,HAYS,2020-0321,"Single Family Homes",3/4/2021,,100000,3252,"18900 IH 35",KYLE,TX,78640,,,CONTRACTOR,,,,,,,,,,,"ENDEAVOR REAL ESTATE GROUP",,,,,"ENDEAVOR REAL ESTATE GROUP","504 LAVACA ST STE 1160",AUSTIN,TX,78701-2804,"(512) 682-5500",http://www.endeavor-re.com/,"(512) 682-5505",,
TX,TRAVIS,"2021-049524 BP","Single Family Homes",4/5/2021,,91200,1216,"9602 MORNING IRIS DR",AUSTIN,TX,78660,,,CONTRACTOR,,,,,,,,,,,"PACESETTER HOMES ",,,,,"PACESETTER HOMES ","7940 SHOAL CREEK BLVD STE 200",AUSTIN,TX,78757-7587,"(512) 323-5252",,,,
TX,TRAVIS,"2021-049507 BP","Single Family Homes",4/5/2021,,110925,1479,"9621 GRAPEVINE LEAF DR",AUSTIN,TX,78653,,,CONTRACTOR,,,,,,,,,,,"PACESETTER HOMES ",,,,,"PACESETTER HOMES ","7940 SHOAL CREEK BLVD STE 200",AUSTIN,TX,78757-7587,"(512) 323-5252",,,,
TX,TRAVIS,"2021-049557 BP","Single Family Homes",4/5/2021,,116025,1547,"17218 ADORO DR",AUSTIN,TX,78653,,,CONTRACTOR,,,,,,,,,,,"PACESETTER HOMES ",,,,,"PACESETTER HOMES ","7940 SHOAL CREEK BLVD STE 200",AUSTIN,TX,78757-7587,"(512) 323-5252",,,,
TX,TRAVIS,"2021-033582 BP","Single Family Homes",4/1/2021,,140700,1876,"7407 DAVES LANDING DR",AUSTIN,TX,78724,,,CONTRACTOR,,,,,,,,,,,"DR HORTON",,,,,"DR HORTON","10700 PECAN PARK BLVD STE 400",AUSTIN,TX,78750-1227,"(512) 345-4663",,,,
TX,TRAVIS,"2021-036189 BP","Single Family Homes",4/1/2021,,146775,1957,"14016 LUBECK DR",AUSTIN,TX,78732,WALTERS,,CONTRACTOR,,,,,,,,,,,"DR HORTON",,,,,"DR HORTON","10700 PECAN PARK BLVD STE 400",AUSTIN,TX,78750-1227,"(512) 345-4663",,,,
TX,TRAVIS,"2021-034216 BP","Single Family Homes",4/1/2021,,146775,1957,"13924 LUBECK DR",AUSTIN,TX,78732,WALTERS,,CONTRACTOR,,,,,,,,,,,"DR HORTON",,,,,"DR HORTON","10700 PECAN PARK BLVD STE 400",AUSTIN,TX,78750-1227,"(512) 345-4663",,,,
TX,TRAVIS,"2021-049539 BP","Single Family Homes",4/5/2021,,148950,1986,"16920 ADORO DR",AUSTIN,TX,78653,,,CONTRACTOR,,,,,,,,,,,"PACESETTER HOMES ",,,,,"PACESETTER HOMES ","7940 SHOAL CREEK BLVD STE 200",AUSTIN,TX,78757-7587,"(512) 323-5252",,,,
TX,TRAVIS,"2021-020779 BP","Single Family Homes",4/1/2021,,151650,2022,"3037 MARYANNE LN",AUSTIN,TX,78660,,,CONTRACTOR,,,,,,,,,,,"DR HORTON",,,,,"DR HORTON","10700 PECAN PARK BLVD STE 400",AUSTIN,TX,78750-1227,"(512) 345-4663",,,,
TX,TRAVIS,"2021-027140 BP","Single Family Homes",4/1/2021,,152400,2032,"2004 DALESIDE LN",AUSTIN,TX,78754,RICE,,CONTRACTOR,,,,,,,,,,,"DR HORTON",,,,,"DR HORTON","10700 PECAN PARK BLVD STE 400",AUSTIN,TX,78750-1227,"(512) 345-4663",,,,
TX,TRAVIS,"2021-020772 BP","Single Family Homes",4/1/2021,,152550,2034,"3033 MARYANNE LN",AUSTIN,TX,78660,,,CONTRACTOR,,,,,,,,,,,"DR HORTON",,,,,"DR HORTON","10700 PECAN PARK BLVD STE 400",AUSTIN,TX,78750-1227,"(512) 345-4663",,,,
TX,TRAVIS,"2021-049025 BP","Single Family Homes",4/5/2021,,161400,2796,"1104 WINNIE DR",AUSTIN,TX,78748,SLAUGHTER,,CONTRACTOR,,,,,,,,,,,"LENNAR HOMES",,,,,"LENNAR HOMES","13620 FM 620 RD 150",AUSTIN,TX,78717,"(512) 506-4000",http://www.lennar.com/,,,
TX,TRAVIS,"2020-169499 BP","Single Family Homes",3/31/2021,,163250,1423,"1183 SARABETH WAY",AUSTIN,TX,78721,"HUSTON SAM HEIGHTS",12,CONTRACTOR,,,,,,,,,,,"PSW HOMES",,,,,"PSW HOMES","2003 S 1ST ST",AUSTIN,TX,78704-5141,"(512) 326-3905",,,,
TX,TRAVIS,"2021-034642 BP","Single Family Homes",4/1/2021,,164325,2191,"13801 LUBECK DR",AUSTIN,TX,78732,WALTERS,,CONTRACTOR,,,,,,,,,,,"DR HORTON",,,,,"DR HORTON","10700 PECAN PARK BLVD STE 400",AUSTIN,TX,78750-1227,"(512) 345-4663",,,,
TX,TRAVIS,"2021-021881 BP","Single Family Homes",4/1/2021,,164325,2191,"1109 MAIER DR",AUSTIN,TX,78753,WALTERS,,CONTRACTOR,,,,,,,,,,,"DR HORTON",,,,,"DR HORTON","10700 PECAN PARK BLVD STE 400",AUSTIN,TX,78750-1227,"(512) 345-4663",,,,
TX,TRAVIS,"2021-025620 BP","Single Family Homes",4/1/2021,,164325,2191,"14009 ZUHAUSE DR",AUSTIN,TX,78734,WALTERS,,CONTRACTOR,,,,,,,,,,,"DR HORTON",,,,,"DR HORTON","10700 PECAN PARK BLVD STE 400",AUSTIN,TX,78750-1227,"(512) 345-4663",,,,
TX,TRAVIS,"2021-025699 BP","Single Family Homes",4/1/2021,,164325,2191,"2908 EGAN DR",AUSTIN,TX,78660,,,CONTRACTOR,,,,,,,,,,,"DR HORTON",,,,,"DR HORTON","10700 PECAN PARK BLVD STE 400",AUSTIN,TX,78750-1227,"(512) 345-4663",,,,
TX,TRAVIS,"2021-049486 BP","Single Family Homes",4/5/2021,,165600,2208,"9701 GRAPEVINE LEAF DR",AUSTIN,TX,78653,,,CONTRACTOR,,,,,,,,,,,"PACESETTER HOMES ",,,,,"PACESETTER HOMES ","7940 SHOAL CREEK BLVD STE 200",AUSTIN,TX,78757-7587,"(512) 323-5252",,,,
TX,TRAVIS,"2021-043680 BP","Single Family Homes",4/1/2021,,175500,2997,"16817 ADORO DR",AUSTIN,TX,78653,,,CONTRACTOR,,,,,,,,,,,"GFO HOME",,,,,"GFO HOME","6012 AVIATION DR # 200",PFLUGERVILLE,TX,78660-8960,"(512) 492-8640",https://www.gfohome.com,,,
TX,TRAVIS,"2021-033849 BP","Single Family Homes",4/1/2021,,179100,2388,"14020 LUBECK DR",AUSTIN,TX,78732,WALTERS,,CONTRACTOR,,,,,,,,,,,"DR HORTON",,,,,"DR HORTON","10700 PECAN PARK BLVD STE 400",AUSTIN,TX,78750-1227,"(512) 345-4663",,,,
TX,TRAVIS,"2021-020992 BP","Single Family Homes",4/1/2021,,181725,2423,"10209 CRISWELL RD",AUSTIN,TX,78754,"PIONEER HILL",132,CONTRACTOR,,,,,,,,,,,"DR HORTON",,,,,"DR HORTON","10700 PECAN PARK BLVD STE 400",AUSTIN,TX,78750-1227,"(512) 345-4663",,,,
TX,TRAVIS,"2021-021903 BP","Single Family Homes",4/1/2021,,181725,2423,"14117 ZUHAUSE DR",AUSTIN,TX,78734,WALTERS,,CONTRACTOR,,,,,,,,,,,"DR HORTON",,,,,"DR HORTON","10700 PECAN PARK BLVD STE 400",AUSTIN,TX,78750-1227,"(512) 345-4663",,,,
TX,TRAVIS,"2021-025721 BP","Single Family Homes",4/1/2021,,188925,2519,"2912 EGAN DR",AUSTIN,TX,78660,,,CONTRACTOR,,,,,,,,,,,"DR HORTON",,,,,"DR HORTON","10700 PECAN PARK BLVD STE 400",AUSTIN,TX,78750-1227,"(512) 345-4663",,,,
TX,TRAVIS,"2021-025759 BP","Single Family Homes",4/1/2021,,188925,2519,"14209 CANTARRA DR",AUSTIN,TX,78660,,,CONTRACTOR,,,,,,,,,,,"DR HORTON",,,,,"DR HORTON","10700 PECAN PARK BLVD STE 400",AUSTIN,TX,78750-1227,"(512) 345-4663",,,,
TX,TRAVIS,"2021-034203 BP","Single Family Homes",4/1/2021,,188925,2519,"14009 LUBECK DR",AUSTIN,TX,78732,WALTERS,,CONTRACTOR,,,,,,,,,,,"DR HORTON",,,,,"DR HORTON","10700 PECAN PARK BLVD STE 400",AUSTIN,TX,78750-1227,"(512) 345-4663",,,,
TX,TRAVIS,"2021-025672 BP","Single Family Homes",4/1/2021,,188925,2519,"7405 PEGGIE NELL DR",AUSTIN,TX,78724,,,CONTRACTOR,,,,,,,,,,,"DR HORTON",,,,,"DR HORTON","10700 PECAN PARK BLVD STE 400",AUSTIN,TX,78750-1227,"(512) 345-4663",,,,
TX,TRAVIS,"2021-027152 BP","Single Family Homes",4/1/2021,,189600,2528,"2917 LOURIS LN",AUSTIN,TX,78660,,,CONTRACTOR,,,,,,,,,,,"DR HORTON",,,,,"DR HORTON","10700 PECAN PARK BLVD STE 400",AUSTIN,TX,78750-1227,"(512) 345-4663",,,,
TX,TRAVIS,"2021-030859 BP","Single Family Homes",4/1/2021,,189600,2528,"3304 EGAN DR",AUSTIN,TX,78660,CASTRO,,CONTRACTOR,,,,,,,,,,,"DR HORTON",,,,,"DR HORTON","10700 PECAN PARK BLVD STE 400",AUSTIN,TX,78750-1227,"(512) 345-4663",,,,
TX,TRAVIS,"2021-033492 BP","Single Family Homes",4/1/2021,,190950,2546,"10704 MERIS LN",AUSTIN,TX,78754,,,CONTRACTOR,,,,,,,,,,,"DR HORTON",,,,,"DR HORTON","10700 PECAN PARK BLVD STE 400",AUSTIN,TX,78750-1227,"(512) 345-4663",,,,
TX,TRAVIS,"2021-048467 BP","Single Family Homes",4/2/2021,,198450,3183,"12201 TAMPICO CV",AUSTIN,TX,78666,"ESTANCIA HILL COUNTRY",6,CONTRACTOR,,,,,,,,,,,"LENNAR HOMES",,,,,"LENNAR HOMES","13620 FM 620 RD 150",AUSTIN,TX,78717,"(512) 506-4000",http://www.lennar.com/,,,
TX,TRAVIS,"2021-039256 BP","Single Family Homes",4/5/2021,,200000,2001,"3017 E 14TH ST",AUSTIN,TX,78702,"MCKINLEY HEIGHTS",21,CONTRACTOR,,,,,,,,,,,"URBAN NATURE",,,,,"URBAN NATURE","1500 HETHER ST",AUSTIN,TX,78704-3312,"(512) 585-6270",,,,
TX,TRAVIS,"2021-034811 BP","Single Family Homes",4/1/2021,,214875,2865,"13908 LUBECK DR",AUSTIN,TX,78732,WALTERS,,CONTRACTOR,,,,,,,,,,,"DR HORTON",,,,,"DR HORTON","10700 PECAN PARK BLVD STE 400",AUSTIN,TX,78750-1227,"(512) 345-4663",,,,
TX,TRAVIS,"2021-024822 BP","Single Family Homes",4/1/2021,,214875,2865,"1117 MAIER DR",AUSTIN,TX,78753,WALTERS,,CONTRACTOR,,,,,,,,,,,"DR HORTON",,,,,"DR HORTON","10700 PECAN PARK BLVD STE 400",AUSTIN,TX,78750-1227,"(512) 345-4663",,,,
TX,TRAVIS,"2021-040950 BP","Single Family Homes",4/1/2021,,215100,2868,"13509 BAILEYFIELD DR",AUSTIN,TX,78660,CANTARRA,8,CONTRACTOR,,,,,,,,,,,"DR HORTON",,,,,"DR HORTON","10700 PECAN PARK BLVD STE 400",AUSTIN,TX,78750-1227,"(512) 345-4663",,,,
TX,TRAVIS,"2021-025712 BP","Single Family Homes",4/1/2021,,215100,2868,"2913 EGAN DR",AUSTIN,TX,78660,,,CONTRACTOR,,,,,,,,,,,"DR HORTON",,,,,"DR HORTON","10700 PECAN PARK BLVD STE 400",AUSTIN,TX,78750-1227,"(512) 345-4663",,,,
TX,TRAVIS,"2021-034235 BP","Single Family Homes",4/1/2021,,215100,2868,"13901 LUBECK DR",AUSTIN,TX,78732,WALTERS,,CONTRACTOR,,,,,,,,,,,"DR HORTON",,,,,"DR HORTON","10700 PECAN PARK BLVD STE 400",AUSTIN,TX,78750-1227,"(512) 345-4663",,,,
TX,TRAVIS,"2021-035150 BP","Single Family Homes",4/1/2021,,215100,2868,"13713 LUBECK DR",AUSTIN,TX,78732,WALTERS,,CONTRACTOR,,,,,,,,,,,"DR HORTON",,,,,"DR HORTON","10700 PECAN PARK BLVD STE 400",AUSTIN,TX,78750-1227,"(512) 345-4663",,,,
TX,TRAVIS,"2021-021894 BP","Single Family Homes",4/1/2021,,215100,2868,"14105 ZUHAUSE DR",AUSTIN,TX,78734,WALTERS,,CONTRACTOR,,,,,,,,,,,"DR HORTON",,,,,"DR HORTON","10700 PECAN PARK BLVD STE 400",AUSTIN,TX,78750-1227,"(512) 345-4663",,,,
TX,TRAVIS,"2021-025636 BP","Single Family Homes",4/1/2021,,215100,2868,"2916 EGAN DR",AUSTIN,TX,78660,,,CONTRACTOR,,,,,,,,,,,"DR HORTON",,,,,"DR HORTON","10700 PECAN PARK BLVD STE 400",AUSTIN,TX,78750-1227,"(512) 345-4663",,,,
TX,TRAVIS,"2021-025696 BP","Single Family Homes",4/1/2021,,215100,2868,"2900 EGAN DR",AUSTIN,TX,78660,,,CONTRACTOR,,,,,,,,,,,"DR HORTON",,,,,"DR HORTON","10700 PECAN PARK BLVD STE 400",AUSTIN,TX,78750-1227,"(512) 345-4663",,,,
TX,TRAVIS,"2021-036274 BP","Single Family Homes",4/1/2021,,230000,1879,"3902 TANIGUCHI ST",AUSTIN,TX,78723,MUELLER,24,CONTRACTOR,,,,,,,,,,,"DAVID WEEKLEY HOMES",,,,,"DAVID WEEKLEY HOMES","9000 WATERFORD CENTRE BLVD",AUSTIN,TX,78758-7662,"(800) 390-6774",http://www.davidweekleyhomes.com/,,,
TX,TRAVIS,"2021-026200 BP","Single Family Homes",4/1/2021,,230400,3072,"3012 EGAN DR",AUSTIN,TX,78660,,,CONTRACTOR,,,,,,,,,,,"DR HORTON",,,,,"DR HORTON","10700 PECAN PARK BLVD STE 400",AUSTIN,TX,78750-1227,"(512) 345-4663",,,,
TX,TRAVIS,"2021-035119 BP","Single Family Homes",4/1/2021,,230400,3072,"13717 LUBECK DR",AUSTIN,TX,78732,WALTERS,,CONTRACTOR,,,,,,,,,,,"DR HORTON",,,,,"DR HORTON","10700 PECAN PARK BLVD STE 400",AUSTIN,TX,78750-1227,"(512) 345-4663",,,,
TX,TRAVIS,"2021-024932 BP","Single Family Homes",4/1/2021,,230400,3072,"14109 ZUHAUSE DR",AUSTIN,TX,78734,WALTERS,,CONTRACTOR,,,,,,,,,,,"DR HORTON",,,,,"DR HORTON","10700 PECAN PARK BLVD STE 400",AUSTIN,TX,78750-1227,"(512) 345-4663",,,,
TX,TRAVIS,"2021-025671 BP","Single Family Homes",4/1/2021,,230400,3072,"2909 EGAN DR",AUSTIN,TX,78660,,,CONTRACTOR,,,,,,,,,,,"DR HORTON",,,,,"DR HORTON","10700 PECAN PARK BLVD STE 400",AUSTIN,TX,78750-1227,"(512) 345-4663",,,,
TX,TRAVIS,"2021-034270 BP","Single Family Homes",4/1/2021,,231975,3093,"13825 LUBECK DR",AUSTIN,TX,78732,WALTERS,,CONTRACTOR,,,,,,,,,,,"DR HORTON",,,,,"DR HORTON","10700 PECAN PARK BLVD STE 400",AUSTIN,TX,78750-1227,"(512) 345-4663",,,,
TX,TRAVIS,"2021-035197 BP","Single Family Homes",4/1/2021,,231975,3093,"13716 LUBECK DR",AUSTIN,TX,78732,WALTERS,,CONTRACTOR,,,,,,,,,,,"DR HORTON",,,,,"DR HORTON","10700 PECAN PARK BLVD STE 400",AUSTIN,TX,78750-1227,"(512) 345-4663",,,,
TX,TRAVIS,"2021-024849 BP","Single Family Homes",4/1/2021,,231975,3093,"2901 LOURIS LN",AUSTIN,TX,78660,,,CONTRACTOR,,,,,,,,,,,"DR HORTON",,,,,"DR HORTON","10700 PECAN PARK BLVD STE 400",AUSTIN,TX,78750-1227,"(512) 345-4663",,,,
TX,TRAVIS,"2021-025346 BP","Single Family Homes",4/1/2021,,231975,3093,"3005 EGAN DR",AUSTIN,TX,78660,,,CONTRACTOR,,,,,,,,,,,"DR HORTON",,,,,"DR HORTON","10700 PECAN PARK BLVD STE 400",AUSTIN,TX,78750-1227,"(512) 345-4663",,,,
TX,TRAVIS,"2021-025355 BP","Single Family Homes",4/1/2021,,231975,3093,"2920 EGAN DR",AUSTIN,TX,78660,,,CONTRACTOR,,,,,,,,,,,"DR HORTON",,,,,"DR HORTON","10700 PECAN PARK BLVD STE 400",AUSTIN,TX,78750-1227,"(512) 345-4663",,,,
TX,TRAVIS,"2020-030296 BP","Single Family Homes",3/31/2021,,253500,2327,"1185 SARABETH WAY",AUSTIN,TX,78721,"HUSTON SAM HEIGHTS",12,CONTRACTOR,,,,,,,,,,,"PSW HOMES",,,,,"PSW HOMES","2003 S 1ST ST",AUSTIN,TX,78704-5141,"(512) 326-3905",,,,
TX,TRAVIS,"2020-169486 BP","Single Family Homes",3/31/2021,,253500,2090,"1181 SARABETH WAY",AUSTIN,TX,78721,"HUSTON SAM HEIGHTS",12,CONTRACTOR,,,,,,,,,,,"PSW HOMES",,,,,"PSW HOMES","2003 S 1ST ST",AUSTIN,TX,78704-5141,"(512) 326-3905",,,,
TX,TRAVIS,"2021-041794 BP","Single Family Homes",4/2/2021,,271050,2359,"11609 CAITHNESS WAY",AUSTIN,TX,78754,"BELLINGHAM MEADOWS",7,CONTRACTOR,,,,,,,,,,,"RSI COMMUNITIES",,,,,"RSI COMMUNITIES","810 HESTERS CROSSING RD STE 235","ROUND ROCK",TX,78681-7846,"(512) 953-4100",,,,
TX,TRAVIS,"2021-039481 BP","Single Family Homes",4/2/2021,,288150,2490,"11614 CONNAUGHT CV",AUSTIN,TX,78754,"BELLINGHAM MEADOWS",25,CONTRACTOR,,,,,,,,,,,"RSI COMMUNITIES",,,,,"RSI COMMUNITIES","810 HESTERS CROSSING RD STE 235","ROUND ROCK",TX,78681-7846,"(512) 953-4100",,,,
TX,TRAVIS,"2021-041852 BP","Single Family Homes",4/2/2021,,299250,2522,"7502 ELK GROVE PATH",AUSTIN,TX,78653,"BELLINGHAM MEADOWS",22,CONTRACTOR,,,,,,,,,,,"RSI COMMUNITIES",,,,,"RSI COMMUNITIES","810 HESTERS CROSSING RD STE 235","ROUND ROCK",TX,78681-7846,"(512) 953-4100",,,,
TX,TRAVIS,"2021-039555 BP","Single Family Homes",3/31/2021,,315000,2399,"9708 EVENING CANOPY DR",AUSTIN,TX,78653,,,CONTRACTOR,,,,,,,,,,,"AHA DREAM HOMES",,,,,"AHA DREAM HOMES","10217 WIND CAVE TRL",AUSTIN,TX,78747-2696,"(512) 535-7343",http://www.ahadreamhomes.com,"(866) 204-4269",,info@ahadreamhomes.com
TX,TRAVIS,"2021-022272 BP","Single Family Homes",4/2/2021,,318300,2691,"11701 CAITHNESS WAY",AUSTIN,TX,78754,"BELLINGHAM MEADOWS",3,CONTRACTOR,,,,,,,,,,,"RSI COMMUNITIES",,,,,"RSI COMMUNITIES","810 HESTERS CROSSING RD STE 235","ROUND ROCK",TX,78681-7846,"(512) 953-4100",,,,
TX,TRAVIS,"2021-047237 BP","Single Family Homes",4/1/2021,,327300,2806,"8813 CHRYSLER BND",AUSTIN,TX,78744,DELVALLE,,CONTRACTOR,,,,,,,,,,,"BROOKFIELD RESIDENTIAL PROPERTIES",,,,,"BROOKFIELD RESIDENTIAL PROPERTIES","11501 ALTERRA PKWY STE 100",AUSTIN,TX,78758-3201,"(512) 391-1330",,,,
TX,TRAVIS,"2021-041950 BP","Single Family Homes",4/2/2021,,344550,2822,"7501 ALBANY DR",AUSTIN,TX,78653,"BELLINGHAM MEADOWS",26,CONTRACTOR,,,,,,,,,,,"RSI COMMUNITIES",,,,,"RSI COMMUNITIES","810 HESTERS CROSSING RD STE 235","ROUND ROCK",TX,78681-7846,"(512) 953-4100",,,,
TX,TRAVIS,"2021-038341 BP","Single Family Homes",4/2/2021,,346350,2834,"7507 ELK GROVE PATH",AUSTIN,TX,78653,"BELLINGHAM MEADOWS",4,CONTRACTOR,,,,,,,,,,,"RSI COMMUNITIES",,,,,"RSI COMMUNITIES","810 HESTERS CROSSING RD STE 235","ROUND ROCK",TX,78681-7846,"(512) 953-4100",,,,
TX,TRAVIS,"2021-048222 BP","Single Family Homes",4/2/2021,,355794,3121,"9717 ELOQUENCE DR",AUSTIN,TX,78653,,,CONTRACTOR,,,,,,,,,,,"BUFFINGTON TEXAS CLASSIC HOMES",,,,,"BUFFINGTON TEXAS CLASSIC HOMES","8601 RANCH ROAD 2222 PARK CENTRE BLDG STE 150",AUSTIN,TX,78730,"(512) 579-4800",,,,
TX,TRAVIS,"2021-036120 BP","Single Family Homes",4/1/2021,,367500,1937,"3904 TANIGUCHI ST",AUSTIN,TX,78723,MUELLER,23,CONTRACTOR,,,,,,,,,,,"DAVID WEEKLEY HOMES",,,,,"DAVID WEEKLEY HOMES","9000 WATERFORD CENTRE BLVD",AUSTIN,TX,78758-7662,"(800) 390-6774",http://www.davidweekleyhomes.com/,,,
TX,TRAVIS,"2021-036260 BP","Single Family Homes",3/31/2021,,512000,3616,"2919 SORIN ST",AUSTIN,TX,78723,MUELLER,11,CONTRACTOR,,,,,,,,,,,"DAVID WEEKLEY HOMES",,,,,"DAVID WEEKLEY HOMES","9000 WATERFORD CENTRE BLVD",AUSTIN,TX,78758-7662,"(800) 390-6774",http://www.davidweekleyhomes.com/,,,
TX,TRAVIS,"2021-046878 BP","Single Family Homes",3/31/2021,,522300,2981,"8108 SKYTEX ST",AUSTIN,TX,78705,DELVALLE,,CONTRACTOR,,,,,,,,,,,"BROOKFIELD RESIDENTIAL PROPERTIES",,,,,"BROOKFIELD RESIDENTIAL PROPERTIES","11501 ALTERRA PKWY STE 100",AUSTIN,TX,78758-3201,"(512) 391-1330",,,,
TX,TRAVIS,"2021-044211 BP","Single Family Homes",3/31/2021,,546000,3167,"4003 TILLEY ST",AUSTIN,TX,78723,MUELLER,2,CONTRACTOR,,,,,,,,,,,"DAVID WEEKLEY HOMES",,,,,"DAVID WEEKLEY HOMES","9000 WATERFORD CENTRE BLVD",AUSTIN,TX,78758-7662,"(800) 390-6774",http://www.davidweekleyhomes.com/,,,
TX,TRAVIS,"2021-036076 BP","Single Family Homes",3/31/2021,,554540,3636,"4009 TILLEY ST",AUSTIN,TX,78723,MUELLER,5,CONTRACTOR,,,,,,,,,,,"DAVID WEEKLEY HOMES",,,,,"DAVID WEEKLEY HOMES","9000 WATERFORD CENTRE BLVD",AUSTIN,TX,78758-7662,"(800) 390-6774",http://www.davidweekleyhomes.com/,,,
TX,TRAVIS,20-29525,"Warehouse & Manufacturing",3/24/2021,,50000000,,"13101 HAROLD GREEN RD",AUSTIN,TX,78725,,,GARZAEMC,"13101 HAROLD GREEN RD",AUSTIN,TX,78725,,Owner,,,,,OWNER,,,,,OWNER,,,,,,,,,
TX,TRAVIS,19-23416,"Warehouse & Manufacturing",3/4/2021,,2000000,,"4229 NORTH F.M. 620",AUSTIN,TX,78732,,,"GICE GICE","4229 NORTH F.M. 620",AUSTIN,TX,78732,,Owner,,,,,OWNER,,,,,OWNER,,,,,,,,,
TX,TRAVIS,"2021-038353 BP","Warehouse & Manufacturing",4/2/2021,,29000000,70210,"1400 AIRPORT COMMERCE DR",AUSTIN,TX,78741,"AIRPORT COMMERCE PARK",1,CONTRACTOR,,,,,,,,,,,"SPAWGLASS CONTRACTORS",,,,,"SPAWGLASS CONTRACTORS","1000 W MAGNOLIA AVE","FT WORTH",TX,76104-4503,"(817) 288-0890",,,,
