state,county,permno,ptype,pdate,pdescription,jvalue,jsqfeet,jaddr,jcity,jstate,jzip,jsubdiv,jlotno,aname,aaddr,acity,astate,azip,aphone,atype,aurl,afax,aprimarycontact,aemail,bldcode,units,bldgs,ctype,legal,contractor,caddress,ccity,cstate,czip,cphone,curl,cfax,cprimarycontact,cemail
TX,HAYS,2020-33144,"Auto Sales & Services",3/9/2021,,80000,2544,"4435 HWY 123","SAN MARCOS",TX,78666,,,CONTRACTOR,,,,,,,,,,,"PRUNEDA CONSTRUCTION",,,,,"PRUNEDA CONSTRUCTION","411 N HIGHWAY 95",ELGIN,TX,78621-1007,"(512) 304-0033",,,,
TX,WILLIAMSON,2021-70889,"Auto Sales & Services",3/3/2021,,2200000,3875,"4812 WILLIAMS DR",GEORGETOWN,TX,78626,,,"DESIGN CENTEX BLUEPRINT","4812 WILLIAMS DR",GEORGETOWN,TX,78626,,Owner,,,,,OWNER,,,,,OWNER,,,,,,,,,
TX,TRAVIS,"2021-054667 BP","Duplex, Triplex, & Fourplex",4/14/2021,,250200,1668,"16700 SONOMA BREEZE DR",AUSTIN,TX,78738,,,CONTRACTOR,,,,,,,,,,,"PACESETTER HOMES ",,,,,"PACESETTER HOMES ","7940 SHOAL CREEK BLVD STE 200",AUSTIN,TX,78757-7587,"(512) 323-5252",,,,
TX,TRAVIS,"2021-054668 BP","Duplex, Triplex, & Fourplex",4/14/2021,,250200,1668,"16702 SONOMA BREEZE DR",AUSTIN,TX,78738,,,CONTRACTOR,,,,,,,,,,,"PACESETTER HOMES ",,,,,"PACESETTER HOMES ","7940 SHOAL CREEK BLVD STE 200",AUSTIN,TX,78757-7587,"(512) 323-5252",,,,
TX,TRAVIS,"1984-021834 BP","Duplex, Triplex, & Fourplex",4/16/2021,,98280,,"6706 GOLD MOSS CV",AUSTIN,TX,78745,"WOODHUE HEIGHTS",14,"SEBASTIAN FLORES","6706 GOLD MOSS CV",AUSTIN,TX,78745,"(510) 314-9427",Owner,,,,,OWNER,,,,,OWNER,,,,,,,,,
TX,TRAVIS,"2021-050295 BP","Educational Institution",4/15/2021,,13855000,51250,"4401 TILLEY ST",AUSTIN,TX,78723,"BURLESON AND VARS",,CONTRACTOR,,,,,,,,,,,"JOERIS GENERAL CONTRACTORS",,,,,"JOERIS GENERAL CONTRACTORS","9211 WATERFORD CENTRE BLVD STE 150",AUSTIN,TX,78758-7679,"(512) 920-0338",,,,
TX,TRAVIS,"2021-028780 BP","Educational Institution",4/19/2021,Renovation,420000,363,"6101 HIGHLAND CAMPUS DR",AUSTIN,TX,78752,"AUSTIN MALL",3,CONTRACTOR,,,,,,,,,,,"ROGERS O'BRIEN CONSTRUCTION",,,,,"ROGERS O'BRIEN CONSTRUCTION","3901 S LAMAR BLVD STE 200",AUSTIN,TX,78704-7990,"(512) 486-3800",,,,
TX,WILLIAMSON,2020-30106,"Hospital & Other Medical",3/12/2021,,566958,4200,"119 N BELL BLVD","CEDAR PARK",TX,78613,,,CONTRACTOR,,,,,,,,,,,"CTX SERVICES",,,,,"CTX SERVICES","402A W PALM VALLEY BLVD # 161","ROUND ROCK",TX,78664-4237,"(512) 300-6243",http://www.ctxaustin.com,,,
TX,WILLIAMSON,2021-30305,"Hospital & Other Medical",3/8/2021,,296625,2373,"4701 183A TOLL RD","CEDAR PARK",TX,78613,,,CONTRACTOR,,,,,,,,,,,"ANGLER RETAIL CONSTRUCTION",,,,,"ANGLER RETAIL CONSTRUCTION","5519 LOUETTA RD",SPRING,TX,77379-7878,"(281) 684-3892",,"(281) 251-9123",,
TX,WILLIAMSON,2021-30336,"Hospital & Other Medical",3/1/2021,,525000,40351,"1501 E WHITESTONE BLVD","CEDAR PARK",TX,78613,,,CONTRACTOR,,,,,,,,,,,"F&F CONSTRUCTION",,,,,"F&F CONSTRUCTION","3180 CARRIER ST",MEMPHIS,TN,38116-2480,"(901) 398-1900",http://www.fandfconstruction.com,"(901) 332-8103",,
TX,WILLIAMSON,2021-30645,"Hospital & Other Medical",3/26/2021,,38000,2825,"1101 ARROW POINT DR","CEDAR PARK",TX,78613,,,CONTRACTOR,,,,,,,,,,,"MULTI TENANT INVESTMENTS",,,,,"MULTI TENANT INVESTMENTS","1101 ARROW POINT DR","CEDAR PARK",TX,78613-7737,"(512) 528-1368",,,"CARMINE MARINARI",
TX,HAYS,2021-34774,"Hospital & Other Medical",3/15/2021,Addition,90000,,"310 STAGECOACH TRL STE 700","SAN MARCOS",TX,78666,,,CONTRACTOR,,,,,,,,,,,"KRAFT BUILDING & REMODELING",,,,,"KRAFT BUILDING & REMODELING","PO BOX 231",DENTON,TX,76202-0231,"(940) 383-4745",https://kraftbuilding.com/,,,
TX,WILLIAMSON,2021-71987,"Hospital & Other Medical",3/12/2021,,230000,1834,"1225 S IH 35 120",GEORGETOWN,TX,78626,,,"TANAY & ASSOCIATES","1225 S IH 35 120",GEORGETOWN,TX,78626,,Owner,,,,,"YANGTZE INTERNATIOAL",,,,,"YANGTZE INTERNATIOAL","1419 CLAIBORNE LN",ALEDO,TX,76008-5806,"(817) 944-7681",http://www.yangtzeus.com/,"(817) 423-6758",,louielu@yangtzeus.com
TX,TRAVIS,"2021-023254 BP","Hospital & Other Medical",4/15/2021,Addition,131164000,21214,"12221 N MOPAC EXPY SVRD",AUSTIN,TX,78758,"THE CENTRUM",1,CONTRACTOR,,,,,,,,,,,"BRASFIELD & GORRIE",,,,,"BRASFIELD & GORRIE","8350 N CENTRAL EXPY STE 1000",DALLAS,TX,75206-1608,"(214) 624-5528",,,,
TX,WILLIAMSON,2020-68449,"Multi Family Apartments & Condos",3/1/2021,,32532941,228022,"3810 WILLIAMS DR",GEORGETOWN,TX,78626,,,"MERCURY PERMITS","3810 WILLIAMS DR",GEORGETOWN,TX,78626,,Applicant,,,,,"ABBEY RESIDENTIAL SERVICES",,,,,"ABBEY RESIDENTIAL SERVICES","1930 STONEGATE DR","VESTAVIA HLS",AL,35242-2523,"(205) 823-9101",http://www.abbeyresidential.com/,"(205) 967-9109","DEBBIE GARNER",dgarner@abbeyresidential.com
TX,WILLIAMSON,2020-70215,"Multi Family Apartments & Condos",3/2/2021,,498799,4083,"662 PARKLINE DR",GEORGETOWN,TX,78626,,,CONTRACTOR,,,,,,,,,,,"PARKSIDE CROSSING",,,,,"PARKSIDE CROSSING","400 PARKLINE DRIVE",GEORGETOWN,TX,78626,"(512) 694-2666",,,,
TX,WILLIAMSON,2020-70217,"Multi Family Apartments & Condos",3/1/2021,,519799,4083,"670 PARKLINE DR",GEORGETOWN,TX,78626,,,CONTRACTOR,,,,,,,,,,,"PARKSIDE CROSSING",,,,,"PARKSIDE CROSSING","400 PARKLINE DRIVE",GEORGETOWN,TX,78626,"(512) 694-2666",,,,
TX,WILLIAMSON,2021-71072,"Multi Family Apartments & Condos",3/1/2021,,1009000,7694,"453 PARKLINE DR",GEORGETOWN,TX,78626,,,CONTRACTOR,,,,,,,,,,,"PARKSIDE CROSSING",,,,,"PARKSIDE CROSSING","400 PARKLINE DRIVE",GEORGETOWN,TX,78626,"(512) 694-2666",,,,
TX,TRAVIS,"2021-056036 BP","Multi Family Apartments & Condos",4/16/2021,,198450,3183,"405 MANTE CT",AUSTIN,TX,78748,"ESTANCIA HILL COUNTRY",6,CONTRACTOR,,,,,,,,,,,"LENNAR HOMES",,,,,"LENNAR HOMES","13620 FM 620 RD 150",AUSTIN,TX,78717,"(512) 506-4000",http://www.lennar.com/,,,
TX,TRAVIS,"2021-056651 BP","Multi Family Apartments & Condos",4/19/2021,,206040,2424,"4603 PLUM PEACH BND",AUSTIN,TX,78723,,,CONTRACTOR,,,,,,,,,,,"RSI COMMUNITIES",,,,,"RSI COMMUNITIES","810 HESTERS CROSSING RD STE 235","ROUND ROCK",TX,78681-7846,"(512) 953-4100",,,,
TX,TRAVIS,"2021-050649 BP","Multi Family Apartments & Condos",4/14/2021,,224230,2638,"4712 PLUM PEACH BND",AUSTIN,TX,78723,,,CONTRACTOR,,,,,,,,,,,"RSI COMMUNITIES",,,,,"RSI COMMUNITIES","810 HESTERS CROSSING RD STE 235","ROUND ROCK",TX,78681-7846,"(512) 953-4100",,,,
TX,TRAVIS,"2021-045277 BP","Multi Family Apartments & Condos",4/15/2021,,338250,2735,"5406 JASON DR",AUSTIN,TX,78723,TANNEHILL,,CONTRACTOR,,,,,,,,,,,"RSI COMMUNITIES",,,,,"RSI COMMUNITIES","810 HESTERS CROSSING RD STE 235","ROUND ROCK",TX,78681-7846,"(512) 953-4100",,,,
TX,TRAVIS,"2021-051416 BP","Multi Family Apartments & Condos",4/14/2021,,432990,2007,"13603 DEFIANCE PASS",AUSTIN,TX,78717,"PRESIDIO CONDO",,CONTRACTOR,,,,,,,,,,,"DAVID WEEKLEY HOMES",,,,,"DAVID WEEKLEY HOMES","9000 WATERFORD CENTRE BLVD",AUSTIN,TX,78758-7662,"(800) 390-6774",http://www.davidweekleyhomes.com/,,,
TX,TRAVIS,"2021-051441 BP","Multi Family Apartments & Condos",4/14/2021,,432990,2011,"13609 DEFIANCE PASS",AUSTIN,TX,78717,"PRESIDIO CONDO",,CONTRACTOR,,,,,,,,,,,"DAVID WEEKLEY HOMES",,,,,"DAVID WEEKLEY HOMES","9000 WATERFORD CENTRE BLVD",AUSTIN,TX,78758-7662,"(800) 390-6774",http://www.davidweekleyhomes.com/,,,
TX,TRAVIS,"2021-050270 BP","Multi Family Apartments & Condos",4/14/2021,,454480,2011,"13607 DEFIANCE PASS",AUSTIN,TX,78717,"PRESIDIO CONDO",,CONTRACTOR,,,,,,,,,,,"DAVID WEEKLEY HOMES",,,,,"DAVID WEEKLEY HOMES","9000 WATERFORD CENTRE BLVD",AUSTIN,TX,78758-7662,"(800) 390-6774",http://www.davidweekleyhomes.com/,,,
TX,TRAVIS,"2021-050253 BP","Multi Family Apartments & Condos",4/14/2021,,457980,2009,"13605 DEFIANCE PASS",AUSTIN,TX,78717,"PRESIDIO CONDO",,CONTRACTOR,,,,,,,,,,,"DAVID WEEKLEY HOMES",,,,,"DAVID WEEKLEY HOMES","9000 WATERFORD CENTRE BLVD",AUSTIN,TX,78758-7662,"(800) 390-6774",http://www.davidweekleyhomes.com/,,,
TX,TRAVIS,"2021-050326 BP","Multi Family Apartments & Condos",4/14/2021,,465000,2009,"13611 DEFIANCE PASS",AUSTIN,TX,78717,,,CONTRACTOR,,,,,,,,,,,"DAVID WEEKLEY HOMES",,,,,"DAVID WEEKLEY HOMES","9000 WATERFORD CENTRE BLVD",AUSTIN,TX,78758-7662,"(800) 390-6774",http://www.davidweekleyhomes.com/,,,
TX,TRAVIS,"2021-054436 BP","Multi Family Apartments & Condos",4/15/2021,,526000,2591,"10204 CROUGHAN PASS",AUSTIN,TX,78717,"PRESIDIO CONDO",,CONTRACTOR,,,,,,,,,,,"DAVID WEEKLEY HOMES",,,,,"DAVID WEEKLEY HOMES","9000 WATERFORD CENTRE BLVD",AUSTIN,TX,78758-7662,"(800) 390-6774",http://www.davidweekleyhomes.com/,,,
TX,TRAVIS,"2021-050009 BP","Multi Family Apartments & Condos",4/14/2021,,548040,2742,"13600 DEFIANCE PASS",AUSTIN,TX,78717,"PRESIDIO CONDO",,CONTRACTOR,,,,,,,,,,,"DAVID WEEKLEY HOMES",,,,,"DAVID WEEKLEY HOMES","9000 WATERFORD CENTRE BLVD",AUSTIN,TX,78758-7662,"(800) 390-6774",http://www.davidweekleyhomes.com/,,,
TX,TRAVIS,"2021-050535 BP","Multi Family Renovations & Additions",4/16/2021,Addition,1108385,41830,"3124 1/2 E PARMER LN",AUSTIN,TX,78754,MUNOS,,CONTRACTOR,,,,,,,,,,,"DNT CONSTRUCTION",,,,,"DNT CONSTRUCTION","2300 PICADILLY DR","ROUND ROCK",TX,78664-8642,"(512) 837-6700",http://www.dntconstruction.com/,"(512) 837-6701",,mail@dntconstruction.com
TX,TRAVIS,"2021-053539 BP","Multi Family Renovations & Additions",4/14/2021,Renovation,118800,1980,"1200 ESTANCIA PKWY BLDG 1",AUSTIN,TX,78748,"ESTANCIA HILL COUNTRY",6,CONTRACTOR,,,,,,,,,,,"BLUSKY RESTORATION CONTRACTORS",,,,,"BLUSKY RESTORATION CONTRACTORS","9767 EASTER AVENUE CT ",CENTENNIAL,CO,80112,"(720) 854-9855",,,,
TX,TRAVIS,"2021-053546 BP","Multi Family Renovations & Additions",4/14/2021,Renovation,127170,4530,"1200 ESTANCIA PKWY BLDG 2",AUSTIN,TX,78748,"ESTANCIA HILL COUNTRY",6,CONTRACTOR,,,,,,,,,,,"BLUSKY RESTORATION CONTRACTORS",,,,,"BLUSKY RESTORATION CONTRACTORS","9767 EASTER AVENUE CT ",CENTENNIAL,CO,80112,"(720) 854-9855",,,,
TX,WILLIAMSON,2020-27725,"Offices, R&D, & Professional",3/2/2021,,830480,15160,"1335 E WHITESTONE BLVD","CEDAR PARK",TX,78613,,,CONTRACTOR,,,,,,,,,,,"FLYNN CONSTRUCTION",,,,,"FLYNN CONSTRUCTION","4638 S LAMAR BLVD",AUSTIN,TX,78745-1304,"(512) 440-7643",,,,
TX,HAYS,2020-34046,"Offices, R&D, & Professional",3/8/2021,,85000,,"400 BARNES DR","SAN MARCOS",TX,78666,,,CONTRACTOR,,,,,,,,,,,"HOPSON BUILDERS",,,,,"HOPSON BUILDERS","3202 N STATE HIGHWAY 123","SAN MARCOS",TX,78666-9777,"(512) 353-1207",,,,
TX,WILLIAMSON,2020-70667,"Offices, R&D, & Professional",3/16/2021,,100000,1857,"903 N AUSTIN AVE",GEORGETOWN,TX,78626,,,CONTRACTOR,,,,,,,,,,,"MODE DESIGN COMPANY",,,,,"MODE DESIGN COMPANY","1102 S AUSTIN AVE STE 103",GEORGETOWN,TX,78626-6756,"(512) 733-1150",,,,
TX,TRAVIS,"2021-053871 BP","Offices, R&D, & Professional",4/19/2021,Renovation,132033,13531,"6500 RIVER PLACE BLVD BLDG 1",AUSTIN,TX,78730,"RIVER PLACE",1,CONTRACTOR,,,,,,,,,,,"MARCON CONSTRUCTION",,,,,"MARCON CONSTRUCTION","708 E HOWARD LN",AUSTIN,TX,78753-9743,"(512) 990-7808",,,,
TX,TRAVIS,"2017-134012 BP","Offices, R&D, & Professional",4/19/2021,,1208000,7474,"12516 WALNUT PARK XING",AUSTIN,TX,78753,PARK,2,CONTRACTOR,,,,,,,,,,,"LARRY PEEL & COMPANY",,,,,"LARRY PEEL & COMPANY","1006 MO PAC CIR STE 201",AUSTIN,TX,78746-6806,"(512) 327-3333",https://larrypeel.com,"(512) 327-3600",,info@larrypeel.com
TX,TRAVIS,"2021-045185 BP","Offices, R&D, & Professional",4/15/2021,,16771500,41161,"1608 W 5TH ST",AUSTIN,TX,78703,GRAHAMS,2,CONTRACTOR,,,,,,,,,,,"ZAPALAC REED CONSTRUCTION",,,,,"ZAPALAC REED CONSTRUCTION","1001 S CAPITAL OF TEXAS HWY","WEST LAKE HILLS",TX,78746-6450,"(512) 306-8888",,,,
TX,TRAVIS,"2021-039595 BP","Offices, R&D, & Professional",4/15/2021,Renovation,138000,1958,"1717 W 6TH ST UNIT 262",AUSTIN,TX,78703,"LAKE AUSTIN COMMONS",1,CONTRACTOR,,,,,,,,,,,"HMI CONSTRUCTION SERVICES",,,,,"HMI CONSTRUCTION SERVICES","4202 SPICEWOOD SPRINGS RD STE 208",AUSTIN,TX,78759-8621,"(512) 775-6378",http://www.hmiatx.com/,,,officemgr@hmiatx.com
TX,WILLIAMSON,2020-67264,"Other Commercial",3/18/2021,,175000,2019,"705 WILLIAMS DR",GEORGETOWN,TX,78626,,,"ROGUE ARCHITECTS ","705 WILLIAMS DR",GEORGETOWN,TX,78626,,Owner,,,,,"JOHN KING CONSTRUCTION",,,,,"JOHN KING CONSTRUCTION","1220 MCNEIL RD STE 300","ROUND ROCK",TX,78681-6414,"(512) 836-5464",,,,
TX,TRAVIS,"2021-053480 BP","Parking Structures & Carports",4/14/2021,Renovation,150000000,564377,"11515 BURNET RD",AUSTIN,TX,78758,,,CONTRACTOR,,,,,,,,,,,"WHITE CONSTRUCTION",,,,,"WHITE CONSTRUCTION","2705 BEE CAVES RD STE 250",AUSTIN,TX,78746-5805,"(512) 302-1177",https://www.whiteconst.com/,"(512) 302-3009","NEEL WHITE",
TX,TRAVIS,"2019-153917 BP","Parks, Recreation, Entertainment, & RV Park",4/15/2021,Addition,195475,5585,"500 E 12TH ST",AUSTIN,TX,78701,"GREENBELT WATERLOO PARK",,CONTRACTOR,,,,,,,,,,,"DPR CONSTRUCTION",,,,,"DPR CONSTRUCTION","9606 N MOPAC EXPY STE 300",AUSTIN,TX,78759-5945,"(512) 345-7699",,"(512) 345-8230",,
TX,WILLIAMSON,2021-30586,"Residential Renovations & Additions",3/9/2021,Renovations,600000,7000,"3101 WELTON CLIFF DR","CEDAR PARK",TX,78613,,,CONTRACTOR,,,,,,,,,,,"BROWNBEAR CONTRACTING",,,,,"BROWNBEAR CONTRACTING","3827 GRIMES RANCH RD",AUSTIN,TX,78732,"(512) 897-7877",https://www.brownbearcontracting.com/,,"ERIC BROWN",admin@brownbearcontracting.com
TX,WILLIAMSON,2020-30164,"Residential Renovations & Additions",3/2/2021,Renovations,44000,,"2310 FARRINGTON CT","CEDAR PARK",TX,78613,,,CONTRACTOR,,,,,,,,,,,"HESTIA CONSTRUCTION & DESIGN",,,,,"HESTIA CONSTRUCTION & DESIGN","16000 BARKERS POINT LN STE 202",HOUSTON,TX,77079-4000,"(832) 399-2060",,,,
TX,WILLIAMSON,2021-30656,"Residential Renovations & Additions",3/5/2021,Renovations,30000,,"4407 ZACHARYS RUN","CEDAR PARK",TX,78613,,,"PRAVEEN & KHUSHBU GUGGARIGOUDAR","4407 ZACHARYS RUN","CEDAR PARK",TX,78613,,Owner,,,,,"TOGETHER DESIGN & BUILD",,,,,"TOGETHER DESIGN & BUILD","1620 RIVERSIDE DR ",AUSTIN,TX,78741,"(512) 222-8866",,,,
TX,HAYS,2020-33672,"Residential Renovations & Additions",3/22/2021,Renovations,112000,3890,"705 RIVER RD APT 1801","SAN MARCOS",TX,78666,,,CONTRACTOR,,,,,,,,,,,"STEVE MAJOR CONSTRUCTION",,,,,"STEVE MAJOR CONSTRUCTION","2009 CASTLE GATE CIR","SAN MARCOS",TX,78666-2219,"(512) 353-7458",,,,
TX,HAYS,2021-34447,"Residential Renovations & Additions",3/4/2021,Renovations,431919,2928,"111 HEARTLEAF RD","SAN MARCOS",TX,78666,,,CONTRACTOR,,,,,,,,,,,"MHI MCGUYER HOMEBUILDERS",,,,,"MHI MCGUYER HOMEBUILDERS","8200 N MO PAC EXPY STE 300",AUSTIN,TX,78759-8844,"(512) 502-2050",,"(512) 388-1836","FRANK MCGUYER",
TX,HAYS,2021-34752,"Residential Renovations & Additions",3/11/2021,Renovations,223686,2601,"204 SKIPPING STONE LN","SAN MARCOS",TX,78666,,,CONTRACTOR,,,,,,,,,,,"DR HORTON",,,,,"DR HORTON","10700 PECAN PARK BLVD STE 400",AUSTIN,TX,78750-1227,"(512) 345-4663",,,,
TX,TRAVIS,"2021-052523 BP","Residential Renovations & Additions",4/15/2021,Renovation,30000,1054,"1105 LINDEN ST",AUSTIN,TX,78702,"BURATTI AND CHERICO",9,"ELIZABETH & ROMIE BARRY","1105 LINDEN ST",AUSTIN,TX,78702,,Owner,,,,,"B SQUARED DESIGN & BUILD",,,,,"B SQUARED DESIGN & BUILD","2103 ELTON LN",AUSTIN,TX,78703-2921,"(310) 625-8650",,,,
TX,TRAVIS,"2021-054604 BP","Residential Renovations & Additions",4/19/2021,Renovation,49863,1150,"707 E 32ND ST",AUSTIN,TX,78705,"HARRIS PARK",29,"MEREDITH & ANISH WATERS","707 E 32ND ST",AUSTIN,TX,78705,,Owner,,,,,"HESTIA CONSTRUCTION & DESIGN",,,,,"HESTIA CONSTRUCTION & DESIGN","16000 BARKERS POINT LN STE 202",HOUSTON,TX,77079-4000,"(832) 399-2060",,,,
TX,TRAVIS,"2021-050990 BP","Residential Renovations & Additions",4/14/2021,Addition,100000,1068,"1102 LORRAIN ST",AUSTIN,TX,78703,"SHELLEY HEIGHTS",14,"YASSER NASSER","1102 LORRAIN ST",AUSTIN,TX,78703,,Owner,,,,,"LEMUS CONSTRUCTION",,,,,"LEMUS CONSTRUCTION","179 TAYLOR LN","CEDAR CREEK",TX,78612-3543,"(512) 619-1674",,,,
TX,TRAVIS,"2021-057142 BP","Residential Renovations & Additions",4/19/2021,Renovation,162000,2224,"500 W O DELL ST",AUSTIN,TX,78752,"SILVERTON HEIGHTS",23,CONTRACTOR,,,,,,,,,,,"SAJOR DEVELOPMENT",,,,,"SAJOR DEVELOPMENT","4825 DAVIS LN APT 2122",AUSTIN,TX,78749-4595,"(512) 736-5659",,,,
TX,TRAVIS,"2021-056010 BP","Residential Renovations & Additions",4/16/2021,Addition,150000,1499,"711 ORLAND BLVD",AUSTIN,TX,78745,"GREENWOOD FOREST",3,CONTRACTOR,,,,,,,,,,,"VK CONSTRUCTION AND REMODELING",,,,,"VK CONSTRUCTION AND REMODELING","3605 COBALT CV","ROUND ROCK",TX,78681-2330,"(512) 897-3710",,,,
TX,TRAVIS,"2021-024946 BP","Residential Renovations & Additions",4/14/2021,Renovation,75000,,"1905 WOODLAND AVE",AUSTIN,TX,78741,"COLORADO HILLS ESTATES",6,"WARREN ARMSTRONG","1905 WOODLAND AVE",AUSTIN,TX,78741,,Owner,,,,,"HAMMERSMITH CONSTRUCTION",,,,,"HAMMERSMITH CONSTRUCTION","1308 BLACKENEY LN ",AUSTIN,TX,78753,"(512) 879-7200",https://www.hammersmithconstructiontx.com/,,,scottsledgeatx@gmail.com
TX,WILLIAMSON,2021-30556,"Residential Swimming Pools & Spas",3/19/2021,,148718,,"301 RAGING RIVER RD","CEDAR PARK",TX,78613,,,CONTRACTOR,,,,,,,,,,,"DENALI POOLS",,,,,"DENALI POOLS","1904 BRUSHY BEND DR","ROUND ROCK",TX,78681-1451,"(512) 955-6564",,,,
TX,WILLIAMSON,2021-30557,"Residential Swimming Pools & Spas",3/19/2021,,75000,,"2307 MANSFIELD LN","CEDAR PARK",TX,78613,,,CONTRACTOR,,,,,,,,,,,"EDGEWATER POOLS",,,,,"EDGEWATER POOLS","2800 E WHITESTONE BLVD STE 120","CEDAR PARK",TX,78613-7275,"(512) 569-9364",,,"SCOTT ASTON",
TX,WILLIAMSON,2021-30558,"Residential Swimming Pools & Spas",3/23/2021,,95937,,"3903 WINCHESTER DR","CEDAR PARK",TX,78613,,,"HARMANDER & RUBINDER SINGH","3903 WINCHESTER DR","CEDAR PARK",TX,78613,,Owner,,,,,"DENALI POOLS",,,,,"DENALI POOLS","1904 BRUSHY BEND DR","ROUND ROCK",TX,78681-1451,"(512) 955-6564",,,,
TX,WILLIAMSON,2021-30567,"Residential Swimming Pools & Spas",3/4/2021,,91000,1544,"4109 PERCHERON BND","CEDAR PARK",TX,78613,,,"THOMAS WOOD","4109 PERCHERON BND","CEDAR PARK",TX,78613,,Owner,,,,,"CODY POOLS",,,,,"CODY POOLS","2300 W PARMER LN",AUSTIN,TX,78727-4332,"(512) 835-4966",http://www.codypools.com,,"COLE NAUMAN",
TX,WILLIAMSON,2021-30568,"Residential Swimming Pools & Spas",3/5/2021,,98000,1288,"2810 RIO VERDE DR","CEDAR PARK",TX,78641,,,"THOMAS & STEPHANIE DONNELL","2810 RIO VERDE DR","CEDAR PARK",TX,78641,,Owner,,,,,"LOY CUSTOM POOL DESIGNS",,,,,"LOY CUSTOM POOL DESIGNS","13701 RONALD W REAGAN BLVD UNIT 31","CEDAR PARK",TX,78613,"(512) 904-0006",,,,
TX,WILLIAMSON,2021-30595,"Residential Swimming Pools & Spas",3/3/2021,,68000,,"903 WHITEWING DR","CEDAR PARK",TX,78613,,,"DOUGLAS & MICHELLE JAMES","903 WHITEWING DR","CEDAR PARK",TX,78613,,Owner,,,,,"ANTHONY & SYLVAN POOLS",,,,,"ANTHONY & SYLVAN POOLS","13343 N HIGHWAY 183 STE 295",AUSTIN,TX,78750-7161,"(512) 258-1232",http://www.anthonysylvan.com/,,,
TX,WILLIAMSON,2021-30614,"Residential Swimming Pools & Spas",3/4/2021,,70000,1100,"4101 LAZY RIVER BND","CEDAR PARK",TX,78613,,,"ALLEN & LEAH MCKITTRICK","4101 LAZY RIVER BND","CEDAR PARK",TX,78613,,Owner,,,,,"DENALI POOLS",,,,,"DENALI POOLS","1904 BRUSHY BEND DR","ROUND ROCK",TX,78681-1451,"(512) 955-6564",,,,
TX,WILLIAMSON,2021-30617,"Residential Swimming Pools & Spas",3/3/2021,,68000,1188,"1016 VALLEY VIEW DR","CEDAR PARK",TX,78641,,,CONTRACTOR,,,,,,,,,,,"PREMIER POOLS & SPAS",,,,,"PREMIER POOLS & SPAS","1333 MCDERMOTT STE 200",ALLEN,TX,75013,"(214) 620-1044",,,,
TX,WILLIAMSON,2021-30650,"Residential Swimming Pools & Spas",3/11/2021,,108125,,"2721 CHECKER DR","CEDAR PARK",TX,78613,,,CONTRACTOR,,,,,,,,,,,"OMNIA OUTDOORS",,,,,"OMNIA OUTDOORS","4809 WILLIAMS DR BLDG 2",GEORGETOWN,TX,78633,"(512) 240-4645",http://omniaoutdoors.com/,,,
TX,WILLIAMSON,2021-30660,"Residential Swimming Pools & Spas",3/4/2021,,40000,,"301 KATI LN","CEDAR PARK",TX,78613,,,"JOSE & KARINA HERRERA ","301 KATI LN","CEDAR PARK",TX,78613,,Owner,,,,,"CODY POOLS",,,,,"CODY POOLS","2300 W PARMER LN",AUSTIN,TX,78727-4332,"(512) 835-4966",http://www.codypools.com,,"COLE NAUMAN",
TX,WILLIAMSON,2021-30681,"Residential Swimming Pools & Spas",3/8/2021,,59000,1149,"111 MUSCOVY LN","CEDAR PARK",TX,78613,"SILVER OAK",,"JOSEPH & MELISSA BURKHART","111 MUSCOVY LN","CEDAR PARK",TX,78613,,Owner,,,,,"CODY POOLS",,,,,"CODY POOLS","2300 W PARMER LN",AUSTIN,TX,78727-4332,"(512) 835-4966",http://www.codypools.com,,"COLE NAUMAN",
TX,WILLIAMSON,2021-30684,"Residential Swimming Pools & Spas",3/8/2021,,100000,,"702 ANTELOPE CV","CEDAR PARK",TX,78613,,,"SARAH BUMPUS","702 ANTELOPE CV","CEDAR PARK",TX,78613,,Owner,,,,,"OMNIA OUTDOORS",,,,,"OMNIA OUTDOORS","4809 WILLIAMS DR BLDG 2",GEORGETOWN,TX,78633,"(512) 240-4645",http://omniaoutdoors.com/,,,
TX,WILLIAMSON,2021-30687,"Residential Swimming Pools & Spas",3/18/2021,,92000,1421,"609 CAMPINO DR","CEDAR PARK",TX,78613,,,"LOGAN MILLER","609 CAMPINO DR","CEDAR PARK",TX,78613,,Owner,,,,,"SOUTHPAW POOLS INC",,,,,"SOUTHPAW POOLS INC","9900 SPECTRUM DR",AUSTIN,TX,78717-4555,"(512) 508-9683",http://www.southpawpools.com/,,"TODD KINGHORN",
TX,WILLIAMSON,2021-30696,"Residential Swimming Pools & Spas",3/11/2021,,35000,,"2901 MARTIN DR","CEDAR PARK",TX,78613,,,"JAIMIE &  VILLARREA OCHOA","2901 MARTIN DR","CEDAR PARK",TX,78613,,Owner,,,,,"TEXAS POOLS & PATIOS",,,,,"TEXAS POOLS & PATIOS","601 S BELL BLVD","CEDAR PARK",TX,78613-3854,"(512) 402-1175",http://www.texaspoolsandpatios.com/,,,
TX,WILLIAMSON,2021-30698,"Residential Swimming Pools & Spas",3/9/2021,,65000,1148,"3107 MADISINA DR","CEDAR PARK",TX,78641,,,"BLAKE & BONNIE MAYNARD","3107 MADISINA DR","CEDAR PARK",TX,78641,,Owner,,,,,"MATTOX HOME SOLUTIONS",,,,,"MATTOX HOME SOLUTIONS","605 SCENIC PATH",LEANDER,TX,78641,"(512) 703-0384",https://mattoxhomesolutions.com/,,,MattoxHS@gmail.com
TX,WILLIAMSON,2021-30724,"Residential Swimming Pools & Spas",3/24/2021,,72000,1134,"612 S LYNNWOOD TRL","CEDAR PARK",TX,78613,,,"MARC & NANCY CHOUINARD","612 S LYNNWOOD TRL","CEDAR PARK",TX,78613,,Owner,,,,,"BLUE HAVEN POOLS",,,,,"BLUE HAVEN POOLS","260 ADDIE ROY RD STE 205",AUSTIN,TX,78746-4108,"(512) 345-2583",,,,
TX,WILLIAMSON,2021-30750,"Residential Swimming Pools & Spas",3/23/2021,,42039,,"1503 FOSTER DR","CEDAR PARK",TX,78613,,,"CHARLES KOBLE","1503 FOSTER DR","CEDAR PARK",TX,78613,,Owner,,,,,"CODY POOLS",,,,,"CODY POOLS","2300 W PARMER LN",AUSTIN,TX,78727-4332,"(512) 835-4966",http://www.codypools.com,,"COLE NAUMAN",
TX,WILLIAMSON,2021-30777,"Residential Swimming Pools & Spas",3/18/2021,,99224,1082,"2206 ALLISON WAY","CEDAR PARK",TX,78613,,,"JAMES & COURTNEY HARPER","2206 ALLISON WAY","CEDAR PARK",TX,78613,,Owner,,,,,"PREMIER POOLS & SPAS",,,,,"PREMIER POOLS & SPAS","1333 MCDERMOTT STE 200",ALLEN,TX,75013,"(214) 620-1044",,,,
TX,WILLIAMSON,2021-30862,"Residential Swimming Pools & Spas",3/30/2021,,152216,1500,"603 GIRASSOL CV","CEDAR PARK",TX,78613,,,"AQUA VISTA","603 GIRASSOL CV","CEDAR PARK",TX,78613,,Owner,,,,,OWNER,,,,,OWNER,,,,,,,,,
TX,HAYS,2021-34617,"Residential Swimming Pools & Spas",3/12/2021,,40000,,"4210 HWY 123","SAN MARCOS",TX,78666,,,CONTRACTOR,,,,,,,,,,,"MC AQUATIC CONSTRUCTION",,,,,"MC AQUATIC CONSTRUCTION","208 WILDERNESS TRL",GEORGETOWN,TX,78633-2112,"(512) 775-5449",,,,
TX,HAYS,2021-35048,"Residential Swimming Pools & Spas",3/29/2021,,82700,,"308 RACING OAK LP","SAN MARCOS",TX,78666,,,"THOMAS & KAREN BREWER","308 RACING OAK LP","SAN MARCOS",TX,78666,,Owner,,,,,"CODY POOLS",,,,,"CODY POOLS","2300 W PARMER LN",AUSTIN,TX,78727-4332,"(512) 835-4966",http://www.codypools.com,,"COLE NAUMAN",
TX,HAYS,2021-35110,"Residential Swimming Pools & Spas",3/29/2021,,53562,,"3712 CINKAPIN DR","SAN MARCOS",TX,78666,,,"JOSE & DEBRA SIERRA","3712 CINKAPIN DR","SAN MARCOS",TX,78666,,Owner,,,,,"KEITH ZARS POOLS",,,,,"KEITH ZARS POOLS","17427 SAN PEDRO AVE","SAN ANTONIO",TX,78232-1407,"(210) 494-0800",,,,
TX,HAYS,2021-34708,"Residential Swimming Pools & Spas",3/4/2021,,65000,,"1130 INVASION ST","SAN MARCOS",TX,78666,,,"HENRY CRUZ","1130 INVASION ST","SAN MARCOS",TX,78666,,Owner,,,,,"SOUTHSIDE COMMUNITY CENTER",,,,,"SOUTHSIDE COMMUNITY CENTER","518 S GUADALUPE ST","SAN MARCOS",TX,78666-6840,"(512) 392-6694",http://www.southsidecommunitycenter.org/,"(512) 396-6016","JULIE GRAY",
TX,TRAVIS,"2021-048747 BP","Residential Swimming Pools & Spas",4/14/2021,,,439,"12409 BUVANA DR",AUSTIN,TX,78739,MERIDIAN,3,"JESSICA & CONOR KELLY","12409 BUVANA DR",AUSTIN,TX,78739,,Owner,,,,,"MAJESTIC POOLSCAPES",,,,,"MAJESTIC POOLSCAPES","1401 HOOKBILL KITE","BEE CAVES",TX,78738,"(512) 402-0011",,,,
TX,TRAVIS,"2021-055251 BP","Residential Swimming Pools & Spas",4/15/2021,,,292,"4509 OAKMONT BLVD",AUSTIN,TX,78731,"SHOAL VILLAGE",24,"MOLLY BIRRELL","4509 OAKMONT BLVD",AUSTIN,TX,78731,,Owner,,,,,"PARADISA HOMES",,,,,"PARADISA HOMES","7427 N LAMAR BLVD STE 101",AUSTIN,TX,78752-2358,"(512) 910-4505",http://www.paradisahomes.com/,,,
TX,TRAVIS,"2021-054703 BP","Residential Swimming Pools & Spas",4/15/2021,,,355,"8313 BOWLING GREEN DR",AUSTIN,TX,78757,"DIXIE TERRACE",3,"SEAN & MICHAEL COYLE","8313 BOWLING GREEN DR",AUSTIN,TX,78757,,Owner,,,,,"PARADISA HOMES",,,,,"PARADISA HOMES","7427 N LAMAR BLVD STE 101",AUSTIN,TX,78752-2358,"(512) 910-4505",http://www.paradisahomes.com/,,,
TX,TRAVIS,"2021-054991 BP","Residential Swimming Pools & Spas",4/15/2021,,,452,"9804 CASTLE PINES DR",AUSTIN,TX,78717,AVERY,,CONTRACTOR,,,,,,,,,,,"CODY POOLS",,,,,"CODY POOLS","2300 W PARMER LN",AUSTIN,TX,78727-4332,"(512) 835-4966",http://www.codypools.com,,"COLE NAUMAN",
TX,TRAVIS,"2021-055044 BP","Residential Swimming Pools & Spas",4/15/2021,,,468,"16813 CRYSTAL DOWNS CV",AUSTIN,TX,78717,AVERY,,CONTRACTOR,,,,,,,,,,,"CODY POOLS",,,,,"CODY POOLS","2300 W PARMER LN",AUSTIN,TX,78727-4332,"(512) 835-4966",http://www.codypools.com,,"COLE NAUMAN",
TX,TRAVIS,"2021-039257 BP","Residential Swimming Pools & Spas",4/16/2021,,,300,"3017 E 14TH ST",AUSTIN,TX,78702,"MCKINLEY HEIGHTS",21,"PRISCILLA GLOVER","3017 E 14TH ST",AUSTIN,TX,78702,,Owner,,,,,"URBAN NATURE",,,,,"URBAN NATURE","1500 HETHER ST",AUSTIN,TX,78704-3312,"(512) 585-6270",,,,
TX,TRAVIS,"2021-056096 BP","Residential Swimming Pools & Spas",4/16/2021,,,529,"9435 BING CHERRY LN",AUSTIN,TX,78750,"THE ENCLAVE AT THE VILLAGES OF SPICEWOOD",35,"DHRUV & USHMA SAMPAT","9435 BING CHERRY LN",AUSTIN,TX,78750,,Owner,,,,,"CODY POOLS",,,,,"CODY POOLS","2300 W PARMER LN",AUSTIN,TX,78727-4332,"(512) 835-4966",http://www.codypools.com,,"COLE NAUMAN",
TX,TRAVIS,"2021-041537 BP","Residential Swimming Pools & Spas",4/19/2021,,,136,"1601 E 11TH ST",AUSTIN,TX,78702,,12,"ERICA & JOSEPH HARING","1601 E 11TH ST",AUSTIN,TX,78702,,Owner,,,,,"TEXAS TINY POOLS",,,,,"TEXAS TINY POOLS","10509 OLD MANCHACA RD",AUSTIN,TX,78748-2117,"(512) 845-3151",,,,
TX,TRAVIS,"2021-039395 BP","Residential Swimming Pools & Spas",4/19/2021,,,264,"10313 BEARD AVE",AUSTIN,TX,78748,"BAUERLE RANCH",13,"NICHOLAS & KATIE JANSEN","10313 BEARD AVE",AUSTIN,TX,78748,,Owner,,,,,"TEXAS TINY POOLS",,,,,"TEXAS TINY POOLS","10509 OLD MANCHACA RD",AUSTIN,TX,78748-2117,"(512) 845-3151",,,,
TX,TRAVIS,"2021-055380 BP","Residential Swimming Pools & Spas",4/19/2021,,,413,"1511 OXFORD AVE",AUSTIN,TX,78704,"BARTON HEIGHTS",9,"JOHN TRAHAR","1511 OXFORD AVE",AUSTIN,TX,78704,,Owner,,,,,"NATIVE WATERSCAPES",,,,,"NATIVE WATERSCAPES","231 FROG POND LN",AUSTIN,TX,78735,"(512) 301-3474",,,,
TX,TRAVIS,"2021-042990 BP","Residential Swimming Pools & Spas",4/19/2021,,,195,"1106 CLAIRE AVE",AUSTIN,TX,78703,"SHOAL TERRACE",9,"JAMES SIGMON","1106 CLAIRE AVE",AUSTIN,TX,78703,,Owner,,,,,"WATERVIEW POOLS",,,,,"WATERVIEW POOLS","13313 KINDER PASS",AUSTIN,TX,78727-3415,"(512) 289-7665",http://waterviewpools.com,,,
TX,TRAVIS,"2021-052211 BP","Residential Swimming Pools & Spas",4/16/2021,,,347,"1415 GASTON AVE",AUSTIN,TX,78703,"PEMBERTON HEIGHTS",3,"MARTHA DEGRASSE","1415 GASTON AVE",AUSTIN,TX,78703,,Owner,,,,,"ATHENA POOLS",,,,,"ATHENA POOLS","2209 PERSIMMON RIDGE CT",AUSTIN,TX,78732-2085,"(512) 914-0554",http://athenapools.com,"(512) 410-0363",,athenapools@austin.rr.com
TX,TRAVIS,"2019-227402 BP","Residential Swimming Pools & Spas",4/16/2021,,40000,468,"2802 OAK PARK DR",AUSTIN,TX,78704,"BARTON HILLS",1,CONTRACTOR,,,,,,,,,,,"NJW REAL ESTATE VENTURES",,,,,"NJW REAL ESTATE VENTURES","1806 BARTON PKWY",AUSTIN,TX,78704-3210,"(512) 699-5506",,,,
TX,TRAVIS,"2021-054367 BP","Residential Swimming Pools & Spas",4/15/2021,,50000,900,"1209 N WESTON LN",AUSTIN,TX,78733,"ROB ROY ON THE LAKE",32,"JAMES GOODWIN","1209 N WESTON LN",AUSTIN,TX,78733,"(512) 751-9846",Owner,,,,,OWNER,,,,,OWNER,,,,,,,,,
TX,TRAVIS,"2021-004052 BP","Residential Swimming Pools & Spas",4/19/2021,,50000,408,"1317 WESTOVER RD",AUSTIN,TX,78703,"PEMBERTON HEIGHTS",11,CONTRACTOR,,,,,,,,,,,"ALEXANDER HOMES",,,,,"ALEXANDER HOMES","311 BOWIE ST APT 2602",AUSTIN,TX,78703-0064,"(512) 893-5010",,,,
TX,TRAVIS,"2021-055945 BP","Residential Swimming Pools & Spas",4/16/2021,,52000,203,"4410 MARATHON BLVD",AUSTIN,TX,78756,"ALTA VISTA",17,"MICHAEL & AVA GALLAGHER","4410 MARATHON BLVD",AUSTIN,TX,78756,,Owner,,,,,"CODY POOLS",,,,,"CODY POOLS","2300 W PARMER LN",AUSTIN,TX,78727-4332,"(512) 835-4966",http://www.codypools.com,,"COLE NAUMAN",
TX,TRAVIS,"2021-056022 BP","Residential Swimming Pools & Spas",4/16/2021,,60000,602,"1208 GARDEN ST",AUSTIN,TX,78702,"CANTERBURY SQUARE",58,"JEYACHANDER & PATRICIA TAMBY","1208 GARDEN ST",AUSTIN,TX,78702,,Owner,,,,,"HARLAN MAC CONSTRUCTION",,,,,"HARLAN MAC CONSTRUCTION","14748 OLIVE HILL DR",AUSTIN,TX,78717-4573,"(512) 999-8884",,,,
TX,TRAVIS,"2020-108337 BP","Residential Swimming Pools & Spas",4/16/2021,,63000,600,"7211 FOXTREE CV",AUSTIN,TX,78750,"JESTER POINT",13,"SUSANNE NAGEL","7211 FOXTREE CV",AUSTIN,TX,78750,,Owner,,,,,"ANTHONY & SYLVAN POOLS",,,,,"ANTHONY & SYLVAN POOLS","13343 N HIGHWAY 183 STE 295",AUSTIN,TX,78750-7161,"(512) 258-1232",http://www.anthonysylvan.com/,,,
TX,TRAVIS,"2021-055736 BP","Residential Swimming Pools & Spas",4/16/2021,,69000,720,"2404 NEVER BEND CV",AUSTIN,TX,78746,"DAVENPORT RANCH",22,"JAMES LAY","2404 NEVER BEND CV",AUSTIN,TX,78746,,Owner,,,,,"DAVINCI POOLS",,,,,"DAVINCI POOLS","1460 E WHITESTONE BLVD STE 150","CEDAR PARK",TX,78613-2240,"(512) 259-9321",http://www.davincipools.com/,,,
TX,TRAVIS,"2021-048487 BP","Residential Swimming Pools & Spas",4/14/2021,,91580,529,"5117 SHELTER CV",AUSTIN,TX,78730,"RIVER PLACE",20,"RACHEL HOCEVAR","5117 SHELTER CV",AUSTIN,TX,78730,,Owner,,,,,"WATERVIEW POOLS",,,,,"WATERVIEW POOLS","13313 KINDER PASS",AUSTIN,TX,78727-3415,"(512) 289-7665",http://waterviewpools.com,,,
TX,TRAVIS,"2021-055892 BP","Residential Swimming Pools & Spas",4/16/2021,,105650,744,"5700 SCOUT ISLAND CV",AUSTIN,TX,78731,"THE COURTYARD",11,CONTRACTOR,,,,,,,,,,,"AQUA BUILDERS",,,,,"AQUA BUILDERS","10900 STONELAKE BLVD STE A-320",AUSTIN,TX,78759-5833,"(512) 804-8361",,,"EBBN MILKS",
TX,WILLIAMSON,2020-30096,"Restaurant and Bar",3/3/2021,,750000,15214,"1717 SCOTTSDALE DR","CEDAR PARK",TX,78641,,,CONTRACTOR,,,,,,,,,,,"TRIMBUILT CONSTRUCTION",,,,,"TRIMBUILT CONSTRUCTION","12800 N LAMAR BLVD",AUSTIN,TX,78753-1102,"(512) 832-1979",http://www.trimbuilt.com/,"(512) 873-0142",,info@trimbuilt.com
TX,WILLIAMSON,2021-71954,"Restaurant and Bar",3/24/2021,,868010,5500,"119 W 7TH ST",GEORGETOWN,TX,78626,,,CONTRACTOR,,,,,,,,,,,"NOACKLITTLE ARCHITECTURE & INTERIORS",,,,,"NOACKLITTLE ARCHITECTURE & INTERIORS","220 INDUSTRIAL BLVD STE 101",AUSTIN,TX,78745-1276,"(512) 851-1900",http://noacklittle.com/,,,
TX,WILLIAMSON,2021-30576,Retail,3/17/2021,,55775,,"1320 ARROW POINT DR","CEDAR PARK",TX,78613,,,CONTRACTOR,,,,,,,,,,,"MULTI TENANT INVESTMENTS",,,,,"MULTI TENANT INVESTMENTS","1101 ARROW POINT DR","CEDAR PARK",TX,78613-7737,"(512) 528-1368",,,"CARMINE MARINARI",
TX,WILLIAMSON,2021-30409,Retail,3/8/2021,,176000,1618,"700 E WHITESTONE BLVD","CEDAR PARK",TX,78613,,,CONTRACTOR,,,,,,,,,,,"DKC CONSTRUCTION GROUP",,,,,"DKC CONSTRUCTION GROUP","1205 SHELDON CV STE F",AUSTIN,TX,78753-6723,"(512) 800-0290",http://www.dkccgroup.com/,,,
TX,HAYS,2020-34373,Retail,3/5/2021,,240000,3326,"2840 S IH 35 STE 102","SAN MARCOS",TX,78666,,,"CHRIS MATRAS ENTERPRISES","9931 CHERRY HILLS AVE CIR",BRADENTON,FL,34202-4002,"(941) 993-3496",Applicant,,,,,OWNER,,,,,OWNER,,,,,,,,,
TX,HAYS,2021-34454,Retail,3/9/2021,,300000,11750,"2210 S IH 35","SAN MARCOS",TX,78666,,,CONTRACTOR,,,,,,,,,,,"JAHN CONSTRUCTION",,,,,"JAHN CONSTRUCTION","4616 W HOWARD LN STE 9-975",AUSTIN,TX,78728-6330,"(512) 339-3202",http://www.jahnconstruction.com/,,,
TX,HAYS,2021-34601,Retail,3/22/2021,,200000,1000000,"3939 S IH 35 STE 1210","SAN MARCOS",TX,78666,,,CONTRACTOR,,,,,,,,,,,"HIRSCH CONSTRUCTION",,,,,"HIRSCH CONSTRUCTION","100 CONIFER HILL DR STE 306",DANVERS,MA,01923-1168,"(508) 527-4438",http://hirschcorp.com/,"(978) 762-8455",,LHirsch@hirschcorp.com
TX,WILLIAMSON,2021-72710,Retail,3/30/2021,,110000,1200,"5731 WILLIAMS DR",GEORGETOWN,TX,78626,,,"COURIC ENTERPRISES","26986 BASS BLVD",HARLINGEN,TX,78552,"(956) 241-0694",Applicant,https://couricllc.com/,,,office@couricllc.com,OWNER,,,,,OWNER,,,,,,,,,
TX,TRAVIS,"2021-053479 BP",Retail,4/14/2021,,150000000,287147,"2800 SOLARIS ST",AUSTIN,TX,78741,,,CONTRACTOR,,,,,,,,,,,"MAPLE MULTI FAMILY CONTRACTOR",,,,,"MAPLE MULTI FAMILY CONTRACTOR","820 GESSNER RD",HOUSTON,TX,77024-4289,"(713) 320-9152",,,,
TX,WILLIAMSON,2021-30339,"Single Family Homes",3/31/2021,,136755,3857,"100 S BIG SUR DR","CEDAR PARK",TX,78613,,,CONTRACTOR,,,,,,,,,,,"MILESTONE COMMUNITY BUILDERS",,,,,"MILESTONE COMMUNITY BUILDERS","9111 JOLLYVILLE RD STE 111",AUSTIN,TX,78759-7406,"(512) 686-4986",http://www.mymilestone.com/,,,
TX,WILLIAMSON,2021-30340,"Single Family Homes",3/22/2021,,136755,4379,"102 S BIG SUR DR","CEDAR PARK",TX,78613,,,CONTRACTOR,,,,,,,,,,,"MILESTONE COMMUNITY BUILDERS",,,,,"MILESTONE COMMUNITY BUILDERS","9111 JOLLYVILLE RD STE 111",AUSTIN,TX,78759-7406,"(512) 686-4986",http://www.mymilestone.com/,,,
TX,WILLIAMSON,2021-30343,"Single Family Homes",3/8/2021,,136755,4383,"106 S BIG SUR DR","CEDAR PARK",TX,78613,,,CONTRACTOR,,,,,,,,,,,"MILESTONE COMMUNITY BUILDERS",,,,,"MILESTONE COMMUNITY BUILDERS","9111 JOLLYVILLE RD STE 111",AUSTIN,TX,78759-7406,"(512) 686-4986",http://www.mymilestone.com/,,,
TX,WILLIAMSON,2021-30344,"Single Family Homes",3/30/2021,,136755,4036,"107 S BIG SUR DR","CEDAR PARK",TX,78613,,,CONTRACTOR,,,,,,,,,,,"MILESTONE COMMUNITY BUILDERS",,,,,"MILESTONE COMMUNITY BUILDERS","9111 JOLLYVILLE RD STE 111",AUSTIN,TX,78759-7406,"(512) 686-4986",http://www.mymilestone.com/,,,
TX,WILLIAMSON,2021-30345,"Single Family Homes",3/22/2021,,136755,3777,"108 S BIG SUR DR","CEDAR PARK",TX,78613,,,CONTRACTOR,,,,,,,,,,,"MILESTONE COMMUNITY BUILDERS",,,,,"MILESTONE COMMUNITY BUILDERS","9111 JOLLYVILLE RD STE 111",AUSTIN,TX,78759-7406,"(512) 686-4986",http://www.mymilestone.com/,,,
TX,WILLIAMSON,2021-30353,"Single Family Homes",3/11/2021,,136755,3791,"104 S BIG SUR DR","CEDAR PARK",TX,78613,,,CONTRACTOR,,,,,,,,,,,"MILESTONE COMMUNITY BUILDERS",,,,,"MILESTONE COMMUNITY BUILDERS","9111 JOLLYVILLE RD STE 111",AUSTIN,TX,78759-7406,"(512) 686-4986",http://www.mymilestone.com/,,,
TX,WILLIAMSON,2021-30355,"Single Family Homes",3/30/2021,,136755,3791,"112 S BIG SUR DR","CEDAR PARK",TX,78613,,,CONTRACTOR,,,,,,,,,,,"MILESTONE COMMUNITY BUILDERS",,,,,"MILESTONE COMMUNITY BUILDERS","9111 JOLLYVILLE RD STE 111",AUSTIN,TX,78759-7406,"(512) 686-4986",http://www.mymilestone.com/,,,
TX,WILLIAMSON,2021-30374,"Single Family Homes",3/22/2021,,143640,3933,"101 S BIG SUR DR","CEDAR PARK",TX,78613,,,CONTRACTOR,,,,,,,,,,,"MILESTONE COMMUNITY BUILDERS",,,,,"MILESTONE COMMUNITY BUILDERS","9111 JOLLYVILLE RD STE 111",AUSTIN,TX,78759-7406,"(512) 686-4986",http://www.mymilestone.com/,,,
TX,WILLIAMSON,2021-30410,"Single Family Homes",3/17/2021,,154395,3431,"3511 PEAK VIEW DR","CEDAR PARK",TX,78641,,,CONTRACTOR,,,,,,,,,,,"MILESTONE COMMUNITY BUILDERS",,,,,"MILESTONE COMMUNITY BUILDERS","9111 JOLLYVILLE RD STE 111",AUSTIN,TX,78759-7406,"(512) 686-4986",http://www.mymilestone.com/,,,
TX,WILLIAMSON,2021-30411,"Single Family Homes",3/1/2021,,165990,3682,"1015 VALLEY VIEW DR","CEDAR PARK",TX,78641,,,CONTRACTOR,,,,,,,,,,,"MILESTONE COMMUNITY BUILDERS",,,,,"MILESTONE COMMUNITY BUILDERS","9111 JOLLYVILLE RD STE 111",AUSTIN,TX,78759-7406,"(512) 686-4986",http://www.mymilestone.com/,,,
TX,WILLIAMSON,2021-30412,"Single Family Homes",3/5/2021,,157455,3499,"1017 VALLEY VIEW DR","CEDAR PARK",TX,78641,,,CONTRACTOR,,,,,,,,,,,"MILESTONE COMMUNITY BUILDERS",,,,,"MILESTONE COMMUNITY BUILDERS","9111 JOLLYVILLE RD STE 111",AUSTIN,TX,78759-7406,"(512) 686-4986",http://www.mymilestone.com/,,,
TX,WILLIAMSON,2021-30521,"Single Family Homes",3/1/2021,,173680,2672,"601 C-BAR RANCH TRL","CEDAR PARK",TX,78613,,,CONTRACTOR,,,,,,,,,,,"BROHN HOMES",,,,,"BROHN HOMES","6720 VAUGHT RANCH RD STE 200",AUSTIN,TX,78730-2354,"(512) 320-8833",http://brohnhomes.com/,,,
TX,WILLIAMSON,2021-30522,"Single Family Homes",3/1/2021,,158145,2433,"600 C-BAR RANCH TRL","CEDAR PARK",TX,78613,,,CONTRACTOR,,,,,,,,,,,"BROHN HOMES",,,,,"BROHN HOMES","6720 VAUGHT RANCH RD STE 200",AUSTIN,TX,78730-2354,"(512) 320-8833",http://brohnhomes.com/,,,
TX,WILLIAMSON,2021-30693,"Single Family Homes",3/17/2021,,151335,3363,"1013 VALLEY VIEW DR","CEDAR PARK",TX,78641,,,CONTRACTOR,,,,,,,,,,,"MILESTONE COMMUNITY BUILDERS",,,,,"MILESTONE COMMUNITY BUILDERS","9111 JOLLYVILLE RD STE 111",AUSTIN,TX,78759-7406,"(512) 686-4986",http://www.mymilestone.com/,,,
TX,WILLIAMSON,2021-30813,"Single Family Homes",3/19/2021,,156600,3480,"3820 BRUSHY CREEK RD","CEDAR PARK",TX,78613,,,CONTRACTOR,,,,,,,,,,,"MILESTONE COMMUNITY BUILDERS",,,,,"MILESTONE COMMUNITY BUILDERS","9111 JOLLYVILLE RD STE 111",AUSTIN,TX,78759-7406,"(512) 686-4986",http://www.mymilestone.com/,,,
TX,HAYS,2020-33253,"Single Family Homes",3/3/2021,,,2827,"3125 BRAND IRON DR","SAN MARCOS",TX,78666,,,CONTRACTOR,,,,,,,,,,,"NEW LEAF CUSTOM HOMES",,,,,"NEW LEAF CUSTOM HOMES","9601 WHITE ROCK TRL STE 205",DALLAS,TX,75238-5053,"(214) 642-4621",http://www.newleafdfw.com/,"(214) 723-5951","KATY GREGORY",katy@newleafdfw.com
TX,HAYS,2020-34210,"Single Family Homes",3/11/2021,,250000,4922,"121 PLAYING CYPRESS DR","SAN MARCOS",TX,78666,,,CONTRACTOR,,,,,,,,,,,"BROOKFIELD RESIDENTIAL PROPERTIES",,,,,"BROOKFIELD RESIDENTIAL PROPERTIES","11501 ALTERRA PKWY STE 100",AUSTIN,TX,78758-3201,"(512) 391-1330",,,,
TX,HAYS,2020-34363,"Single Family Homes",3/19/2021,,456645,3915,"109 QUIET OAK RD","SAN MARCOS",TX,78666,,,CONTRACTOR,,,,,,,,,,,"HIGHLAND HOMES",,,,,"HIGHLAND HOMES","4201 W PARMER LN STE B180",AUSTIN,TX,78727-4110,"(512) 834-8429",,,,
TX,HAYS,2020-34375,"Single Family Homes",3/1/2021,,508190,3867,"1335 ACADEMY OAKS DR","SAN MARCOS",TX,78666,,,CONTRACTOR,,,,,,,,,,,"HIGHLAND HOMES",,,,,"HIGHLAND HOMES","4201 W PARMER LN STE B180",AUSTIN,TX,78727-4110,"(512) 834-8429",,,,
TX,HAYS,2020-34378,"Single Family Homes",3/12/2021,,549400,,"611 BLUE OAK BLVD","SAN MARCOS",TX,78666,,,CONTRACTOR,,,,,,,,,,,"PERRY HOMES",,,,,"PERRY HOMES","6112 LLANO ST",AUSTIN,TX,78702,"(512) 810-8050",,,,
TX,HAYS,2021-34442,"Single Family Homes",3/4/2021,,222899,1622,"204 HEARTLEAF RD","SAN MARCOS",TX,78666,,,CONTRACTOR,,,,,,,,,,,"MHI MCGUYER HOMEBUILDERS",,,,,"MHI MCGUYER HOMEBUILDERS","8200 N MO PAC EXPY STE 300",AUSTIN,TX,78759-8844,"(512) 502-2050",,"(512) 388-1836","FRANK MCGUYER",
TX,HAYS,2021-34460,"Single Family Homes",3/4/2021,,302208,2941,"529 COPPER SAGE DR","SAN MARCOS",TX,78666,,,CONTRACTOR,,,,,,,,,,,"MHI MCGUYER HOMEBUILDERS",,,,,"MHI MCGUYER HOMEBUILDERS","8200 N MO PAC EXPY STE 300",AUSTIN,TX,78759-8844,"(512) 502-2050",,"(512) 388-1836","FRANK MCGUYER",
TX,HAYS,2021-34477,"Single Family Homes",3/4/2021,,366180.6,2420,"105 HEARTLEAF RD","SAN MARCOS",TX,78666,,,CONTRACTOR,,,,,,,,,,,"MHI MCGUYER HOMEBUILDERS",,,,,"MHI MCGUYER HOMEBUILDERS","8200 N MO PAC EXPY STE 300",AUSTIN,TX,78759-8844,"(512) 502-2050",,"(512) 388-1836","FRANK MCGUYER",
TX,HAYS,2021-34511,"Single Family Homes",3/4/2021,,536365,4126,"108 QUIET OAK RD","SAN MARCOS",TX,78666,,,CONTRACTOR,,,,,,,,,,,"HIGHLAND HOMES",,,,,"HIGHLAND HOMES","4201 W PARMER LN STE B180",AUSTIN,TX,78727-4110,"(512) 834-8429",,,,
TX,HAYS,2021-34537,"Single Family Homes",3/12/2021,,249150,2918,"4429 ROYAL OAK BLVD","SAN MARCOS",TX,78666,,,CONTRACTOR,,,,,,,,,,,"NEWLEAF HOMES",,,,,"NEWLEAF HOMES","6735 W INTERSTATE 10 STE 103","SAN ANTONIO",TX,78201-2057,"(210) 559-1888",http://www.newleafhomes.com,"(210) 641-0011",,
TX,HAYS,2021-34581,"Single Family Homes",3/17/2021,,318567,2743,"337 BLUE OAK BLVD","SAN MARCOS",TX,78666,,,CONTRACTOR,,,,,,,,,,,"EHT OF TEXAS LP",,,,,"EHT OF TEXAS LP","3520 EXECUTIVE CENTER DR STE 100",AUSTIN,TX,78731-1636,"(757) 287-6394",,,,
TX,HAYS,2021-34592,"Single Family Homes",3/12/2021,,242475,3233,"4421 ROYAL OAK BLVD","SAN MARCOS",TX,78666,,,CONTRACTOR,,,,,,,,,,,"NEWLEAF HOMES",,,,,"NEWLEAF HOMES","6735 W INTERSTATE 10 STE 103","SAN ANTONIO",TX,78201-2057,"(210) 559-1888",http://www.newleafhomes.com,"(210) 641-0011",,
TX,HAYS,2021-34593,"Single Family Homes",3/15/2021,,211800,2824,"427 ANCIENT OAK WAY","SAN MARCOS",TX,78666,,,CONTRACTOR,,,,,,,,,,,"NEWLEAF HOMES",,,,,"NEWLEAF HOMES","6735 W INTERSTATE 10 STE 103","SAN ANTONIO",TX,78201-2057,"(210) 559-1888",http://www.newleafhomes.com,"(210) 641-0011",,
TX,HAYS,2021-34594,"Single Family Homes",3/15/2021,,211800,2824,"4430 ROYAL OAK BLVD","SAN MARCOS",TX,78666,,,CONTRACTOR,,,,,,,,,,,"NEWLEAF HOMES",,,,,"NEWLEAF HOMES","6735 W INTERSTATE 10 STE 103","SAN ANTONIO",TX,78201-2057,"(210) 559-1888",http://www.newleafhomes.com,"(210) 641-0011",,
TX,HAYS,2021-34598,"Single Family Homes",3/16/2021,,250000,2358,"206 EAGLE DR","SAN MARCOS",TX,78666,,,CONTRACTOR,,,,,,,,,,,"BROOKFIELD RESIDENTIAL PROPERTIES",,,,,"BROOKFIELD RESIDENTIAL PROPERTIES","11501 ALTERRA PKWY STE 100",AUSTIN,TX,78758-3201,"(512) 391-1330",,,,
TX,HAYS,2021-34633,"Single Family Homes",3/4/2021,,202575,2701,"223 WITCHHAZEL WAY","SAN MARCOS",TX,78666,,,CONTRACTOR,,,,,,,,,,,"PACESETTER HOMES ",,,,,"PACESETTER HOMES ","7940 SHOAL CREEK BLVD STE 200",AUSTIN,TX,78757-7587,"(512) 323-5252",,,,
TX,HAYS,2021-34641,"Single Family Homes",3/16/2021,,311436,2928,"532 COPPER SAGE DR","SAN MARCOS",TX,78666,,,CONTRACTOR,,,,,,,,,,,"MHI MCGUYER HOMEBUILDERS",,,,,"MHI MCGUYER HOMEBUILDERS","8200 N MO PAC EXPY STE 300",AUSTIN,TX,78759-8844,"(512) 502-2050",,"(512) 388-1836","FRANK MCGUYER",
TX,HAYS,2021-34643,"Single Family Homes",3/29/2021,,423690,3582,"116 FOUNTAIN GRASS DR","SAN MARCOS",TX,78666,,,CONTRACTOR,,,,,,,,,,,"HIGHLAND HOMES",,,,,"HIGHLAND HOMES","4201 W PARMER LN STE B180",AUSTIN,TX,78727-4110,"(512) 834-8429",,,,
TX,HAYS,2021-34656,"Single Family Homes",3/1/2021,,173892,2022,"132 SNAPDRAGON LN","SAN MARCOS",TX,78666,,,CONTRACTOR,,,,,,,,,,,"DR HORTON",,,,,"DR HORTON","10700 PECAN PARK BLVD STE 400",AUSTIN,TX,78750-1227,"(512) 345-4663",,,,
TX,HAYS,2021-34657,"Single Family Homes",3/1/2021,,173892,2022,"123 SNAPDRAGON LN","SAN MARCOS",TX,78666,,,CONTRACTOR,,,,,,,,,,,"DR HORTON",,,,,"DR HORTON","10700 PECAN PARK BLVD STE 400",AUSTIN,TX,78750-1227,"(512) 345-4663",,,,
TX,HAYS,2021-34658,"Single Family Homes",3/1/2021,,173892,2022,"144 SNAPDRAGON LN","SAN MARCOS",TX,78666,,,CONTRACTOR,,,,,,,,,,,"DR HORTON",,,,,"DR HORTON","10700 PECAN PARK BLVD STE 400",AUSTIN,TX,78750-1227,"(512) 345-4663",,,,
TX,HAYS,2021-34660,"Single Family Homes",3/1/2021,,173892,2022,"153 ROANWOOD DR","SAN MARCOS",TX,78666,,,CONTRACTOR,,,,,,,,,,,"DR HORTON",,,,,"DR HORTON","10700 PECAN PARK BLVD STE 400",AUSTIN,TX,78750-1227,"(512) 345-4663",,,,
TX,HAYS,2021-34661,"Single Family Homes",3/1/2021,,173892,2022,"145 ROANWOOD DR","SAN MARCOS",TX,78666,,,CONTRACTOR,,,,,,,,,,,"DR HORTON",,,,,"DR HORTON","10700 PECAN PARK BLVD STE 400",AUSTIN,TX,78750-1227,"(512) 345-4663",,,,
TX,HAYS,2021-34662,"Single Family Homes",3/1/2021,,173892,2022,"133 ROANWOOD DR","SAN MARCOS",TX,78666,,,CONTRACTOR,,,,,,,,,,,"DR HORTON",,,,,"DR HORTON","10700 PECAN PARK BLVD STE 400",AUSTIN,TX,78750-1227,"(512) 345-4663",,,,
TX,HAYS,2021-34663,"Single Family Homes",3/1/2021,,262988,3058,"129 ROANWOOD DR","SAN MARCOS",TX,78666,,,CONTRACTOR,,,,,,,,,,,"DR HORTON",,,,,"DR HORTON","10700 PECAN PARK BLVD STE 400",AUSTIN,TX,78750-1227,"(512) 345-4663",,,,
TX,HAYS,2021-34665,"Single Family Homes",3/22/2021,,205540,2390,"128 NEW HAMPTON WAY","SAN MARCOS",TX,78666,,,CONTRACTOR,,,,,,,,,,,"DR HORTON",,,,,"DR HORTON","10700 PECAN PARK BLVD STE 400",AUSTIN,TX,78750-1227,"(512) 345-4663",,,,
TX,HAYS,2021-34666,"Single Family Homes",3/22/2021,,205540,2390,"117 NEW HAMPTON WAY","SAN MARCOS",TX,78666,,,CONTRACTOR,,,,,,,,,,,"DR HORTON",,,,,"DR HORTON","10700 PECAN PARK BLVD STE 400",AUSTIN,TX,78750-1227,"(512) 345-4663",,,,
TX,HAYS,2021-34668,"Single Family Homes",3/22/2021,,205540,2390,"129 FOLSOM ST","SAN MARCOS",TX,78666,,,CONTRACTOR,,,,,,,,,,,"DR HORTON",,,,,"DR HORTON","10700 PECAN PARK BLVD STE 400",AUSTIN,TX,78750-1227,"(512) 345-4663",,,,
TX,HAYS,2021-34669,"Single Family Homes",3/22/2021,,205540,2390,"129 FAIRFAX AVE","SAN MARCOS",TX,78666,,,CONTRACTOR,,,,,,,,,,,"DR HORTON",,,,,"DR HORTON","10700 PECAN PARK BLVD STE 400",AUSTIN,TX,78750-1227,"(512) 345-4663",,,,
TX,HAYS,2021-34671,"Single Family Homes",3/23/2021,,263934,3069,"108 NEW HAMPTON WAY","SAN MARCOS",TX,78666,,,CONTRACTOR,,,,,,,,,,,"DR HORTON",,,,,"DR HORTON","10700 PECAN PARK BLVD STE 400",AUSTIN,TX,78750-1227,"(512) 345-4663",,,,
TX,HAYS,2021-34673,"Single Family Homes",3/23/2021,,263074,3059,"113 FOLSOM ST","SAN MARCOS",TX,78666,,,CONTRACTOR,,,,,,,,,,,"DR HORTON",,,,,"DR HORTON","10700 PECAN PARK BLVD STE 400",AUSTIN,TX,78750-1227,"(512) 345-4663",,,,
TX,HAYS,2021-34674,"Single Family Homes",3/23/2021,,263074,3059,"105 FAIRFAX AVE","SAN MARCOS",TX,78666,,,CONTRACTOR,,,,,,,,,,,"DR HORTON",,,,,"DR HORTON","10700 PECAN PARK BLVD STE 400",AUSTIN,TX,78750-1227,"(512) 345-4663",,,,
TX,HAYS,2021-34679,"Single Family Homes",3/22/2021,,263934,3069,"118 FAIRFAX AVE","SAN MARCOS",TX,78666,,,CONTRACTOR,,,,,,,,,,,"DR HORTON",,,,,"DR HORTON","10700 PECAN PARK BLVD STE 400",AUSTIN,TX,78750-1227,"(512) 345-4663",,,,
TX,HAYS,2021-34680,"Single Family Homes",3/23/2021,,263074,3059,"125 FAIRFAX AVE","SAN MARCOS",TX,78666,,,CONTRACTOR,,,,,,,,,,,"DR HORTON",,,,,"DR HORTON","10700 PECAN PARK BLVD STE 400",AUSTIN,TX,78750-1227,"(512) 345-4663",,,,
TX,HAYS,2021-34687,"Single Family Homes",3/11/2021,,205368,2388,"113 SOLITUDE DR","SAN MARCOS",TX,78666,,,CONTRACTOR,,,,,,,,,,,"DR HORTON",,,,,"DR HORTON","10700 PECAN PARK BLVD STE 400",AUSTIN,TX,78750-1227,"(512) 345-4663",,,,
TX,HAYS,2021-34688,"Single Family Homes",3/11/2021,,210442,2447,"142 SOLITUDE DR","SAN MARCOS",TX,78666,,,CONTRACTOR,,,,,,,,,,,"DR HORTON",,,,,"DR HORTON","10700 PECAN PARK BLVD STE 400",AUSTIN,TX,78750-1227,"(512) 345-4663",,,,
TX,HAYS,2021-34689,"Single Family Homes",3/11/2021,,256108,2978,"150 SOLITUDE DR","SAN MARCOS",TX,78666,,,CONTRACTOR,,,,,,,,,,,"DR HORTON",,,,,"DR HORTON","10700 PECAN PARK BLVD STE 400",AUSTIN,TX,78750-1227,"(512) 345-4663",,,,
TX,HAYS,2021-34704,"Single Family Homes",3/11/2021,,321024,2816,"121 GRAY WOLF DR","SAN MARCOS",TX,78666,,,CONTRACTOR,,,,,,,,,,,"BUFFINGTON TEXAS CLASSIC HOMES",,,,,"BUFFINGTON TEXAS CLASSIC HOMES","8601 RANCH ROAD 2222 PARK CENTRE BLDG STE 150",AUSTIN,TX,78730,"(512) 579-4800",,,,
TX,HAYS,2021-34705,"Single Family Homes",3/1/2021,,263340,2816,"104 GRAY WOLF DR","SAN MARCOS",TX,78666,,,CONTRACTOR,,,,,,,,,,,"BUFFINGTON TEXAS CLASSIC HOMES",,,,,"BUFFINGTON TEXAS CLASSIC HOMES","8601 RANCH ROAD 2222 PARK CENTRE BLDG STE 150",AUSTIN,TX,78730,"(512) 579-4800",,,,
TX,HAYS,2021-34721,"Single Family Homes",3/2/2021,,83625,1115,"356 SPINY LIZARD LN","SAN MARCOS",TX,78666,,,CONTRACTOR,,,,,,,,,,,"PACESETTER HOMES ",,,,,"PACESETTER HOMES ","7940 SHOAL CREEK BLVD STE 200",AUSTIN,TX,78757-7587,"(512) 323-5252",,,,
TX,HAYS,2021-34732,"Single Family Homes",3/1/2021,,233146,2711,"124 BALLYNEAL LN","SAN MARCOS",TX,78666,,,CONTRACTOR,,,,,,,,,,,"DR HORTON",,,,,"DR HORTON","10700 PECAN PARK BLVD STE 400",AUSTIN,TX,78750-1227,"(512) 345-4663",,,,
TX,HAYS,2021-34744,"Single Family Homes",3/26/2021,,205540,2390,"112 NEW HAMPTON WAY","SAN MARCOS",TX,78666,,,CONTRACTOR,,,,,,,,,,,"DR HORTON",,,,,"DR HORTON","10700 PECAN PARK BLVD STE 400",AUSTIN,TX,78750-1227,"(512) 345-4663",,,,
TX,HAYS,2021-34745,"Single Family Homes",3/11/2021,,237188,2758,"118 BALLYNEAL LN","SAN MARCOS",TX,78666,,,CONTRACTOR,,,,,,,,,,,"DR HORTON",,,,,"DR HORTON","10700 PECAN PARK BLVD STE 400",AUSTIN,TX,78750-1227,"(512) 345-4663",,,,
TX,HAYS,2021-34747,"Single Family Homes",3/11/2021,,197112,2292,"132 BALLYNEAL LN","SAN MARCOS",TX,78666,,,CONTRACTOR,,,,,,,,,,,"DR HORTON",,,,,"DR HORTON","10700 PECAN PARK BLVD STE 400",AUSTIN,TX,78750-1227,"(512) 345-4663",,,,
TX,HAYS,2021-34748,"Single Family Homes",3/11/2021,,268664,3124,"129 SOLITUDE DR","SAN MARCOS",TX,78666,,,CONTRACTOR,,,,,,,,,,,"DR HORTON",,,,,"DR HORTON","10700 PECAN PARK BLVD STE 400",AUSTIN,TX,78750-1227,"(512) 345-4663",,,,
TX,HAYS,2021-34749,"Single Family Homes",3/11/2021,,237188,2758,"145 SOLITUDE DR","SAN MARCOS",TX,78666,,,CONTRACTOR,,,,,,,,,,,"DR HORTON",,,,,"DR HORTON","10700 PECAN PARK BLVD STE 400",AUSTIN,TX,78750-1227,"(512) 345-4663",,,,
TX,HAYS,2021-34750,"Single Family Homes",3/12/2021,,174924,2034,"220 SKIPPING STONE LN","SAN MARCOS",TX,78666,,,CONTRACTOR,,,,,,,,,,,"DR HORTON",,,,,"DR HORTON","10700 PECAN PARK BLVD STE 400",AUSTIN,TX,78750-1227,"(512) 345-4663",,,,
TX,HAYS,2021-34751,"Single Family Homes",3/11/2021,,199606,2321,"216 SKIPPING STONE LN","SAN MARCOS",TX,78666,,,CONTRACTOR,,,,,,,,,,,"DR HORTON",,,,,"DR HORTON","10700 PECAN PARK BLVD STE 400",AUSTIN,TX,78750-1227,"(512) 345-4663",,,,
TX,HAYS,2021-34753,"Single Family Homes",3/11/2021,,240284,2794,"211 SKIPPING STONE LN","SAN MARCOS",TX,78666,,,CONTRACTOR,,,,,,,,,,,"DR HORTON",,,,,"DR HORTON","10700 PECAN PARK BLVD STE 400",AUSTIN,TX,78750-1227,"(512) 345-4663",,,,
TX,HAYS,2021-34754,"Single Family Homes",3/11/2021,,174924,2034,"207 SKIPPING STONE LN","SAN MARCOS",TX,78666,,,CONTRACTOR,,,,,,,,,,,"DR HORTON",,,,,"DR HORTON","10700 PECAN PARK BLVD STE 400",AUSTIN,TX,78750-1227,"(512) 345-4663",,,,
TX,HAYS,2021-34755,"Single Family Homes",3/11/2021,,161164,1874,"147 SKIPPING STONE LN","SAN MARCOS",TX,78666,,,CONTRACTOR,,,,,,,,,,,"DR HORTON",,,,,"DR HORTON","10700 PECAN PARK BLVD STE 400",AUSTIN,TX,78750-1227,"(512) 345-4663",,,,
TX,HAYS,2021-34758,"Single Family Homes",3/11/2021,,199606,2321,"108 SNAPDRAGON LN","SAN MARCOS",TX,78666,,,CONTRACTOR,,,,,,,,,,,"DR HORTON",,,,,"DR HORTON","10700 PECAN PARK BLVD STE 400",AUSTIN,TX,78750-1227,"(512) 345-4663",,,,
TX,HAYS,2021-34759,"Single Family Homes",3/26/2021,,251636,2926,"124 NEW HAMPTON WAY","SAN MARCOS",TX,78666,,,CONTRACTOR,,,,,,,,,,,"DR HORTON",,,,,"DR HORTON","10700 PECAN PARK BLVD STE 400",AUSTIN,TX,78750-1227,"(512) 345-4663",,,,
TX,HAYS,2021-34760,"Single Family Homes",3/26/2021,,161336,1876,"120 NEW HAMPTON WAY","SAN MARCOS",TX,78666,,,CONTRACTOR,,,,,,,,,,,"DR HORTON",,,,,"DR HORTON","10700 PECAN PARK BLVD STE 400",AUSTIN,TX,78750-1227,"(512) 345-4663",,,,
TX,HAYS,2021-34761,"Single Family Homes",3/26/2021,,173462,2017,"116 NEW HAMPTON WAY","SAN MARCOS",TX,78666,,,CONTRACTOR,,,,,,,,,,,"DR HORTON",,,,,"DR HORTON","10700 PECAN PARK BLVD STE 400",AUSTIN,TX,78750-1227,"(512) 345-4663",,,,
TX,HAYS,2021-34763,"Single Family Homes",3/16/2021,,174752,2032,"117 FOLSOM ST","SAN MARCOS",TX,78666,,,CONTRACTOR,,,,,,,,,,,"DR HORTON",,,,,"DR HORTON","10700 PECAN PARK BLVD STE 400",AUSTIN,TX,78750-1227,"(512) 345-4663",,,,
TX,HAYS,2021-34764,"Single Family Homes",3/26/2021,,174752,2032,"109 NEW HAMPTON WAY","SAN MARCOS",TX,78666,,,CONTRACTOR,,,,,,,,,,,"DR HORTON",,,,,"DR HORTON","10700 PECAN PARK BLVD STE 400",AUSTIN,TX,78750-1227,"(512) 345-4663",,,,
TX,HAYS,2021-34765,"Single Family Homes",3/26/2021,,251636,2926,"109 FOLSOM ST","SAN MARCOS",TX,78666,,,CONTRACTOR,,,,,,,,,,,"DR HORTON",,,,,"DR HORTON","10700 PECAN PARK BLVD STE 400",AUSTIN,TX,78750-1227,"(512) 345-4663",,,,
TX,HAYS,2021-34766,"Single Family Homes",3/23/2021,,239338,2783,"105 FOLSOM ST","SAN MARCOS",TX,78666,,,CONTRACTOR,,,,,,,,,,,"DR HORTON",,,,,"DR HORTON","10700 PECAN PARK BLVD STE 400",AUSTIN,TX,78750-1227,"(512) 345-4663",,,,
TX,HAYS,2021-34772,"Single Family Homes",3/1/2021,,250000,2981,"420 FREEING OAK ST","SAN MARCOS",TX,78666,,,CONTRACTOR,,,,,,,,,,,"BROOKFIELD RESIDENTIAL PROPERTIES",,,,,"BROOKFIELD RESIDENTIAL PROPERTIES","11501 ALTERRA PKWY STE 100",AUSTIN,TX,78758-3201,"(512) 391-1330",,,,
TX,HAYS,2021-34784,"Single Family Homes",3/4/2021,,83775,1117,"2828 BRAND IRON DR","SAN MARCOS",TX,78666,,,CONTRACTOR,,,,,,,,,,,"PACESETTER HOMES ",,,,,"PACESETTER HOMES ","7940 SHOAL CREEK BLVD STE 200",AUSTIN,TX,78757-7587,"(512) 323-5252",,,,
TX,HAYS,2021-34799,"Single Family Homes",3/26/2021,,161336,1876,"127 NEW HAMPTON WAY","SAN MARCOS",TX,78666,,,CONTRACTOR,,,,,,,,,,,"DR HORTON",,,,,"DR HORTON","10700 PECAN PARK BLVD STE 400",AUSTIN,TX,78750-1227,"(512) 345-4663",,,,
TX,HAYS,2021-34808,"Single Family Homes",3/26/2021,,239338,2783,"137 FOLSOM ST","SAN MARCOS",TX,78666,,,CONTRACTOR,,,,,,,,,,,"DR HORTON",,,,,"DR HORTON","10700 PECAN PARK BLVD STE 400",AUSTIN,TX,78750-1227,"(512) 345-4663",,,,
TX,HAYS,2021-34815,"Single Family Homes",3/1/2021,,163345,2022,"324 ESCONDIDO CIR","SAN MARCOS",TX,78666,,,CONTRACTOR,,,,,,,,,,,"LENNAR HOMES",,,,,"LENNAR HOMES","13620 FM 620 RD 150",AUSTIN,TX,78717,"(512) 506-4000",http://www.lennar.com/,,,
TX,HAYS,2021-34816,"Single Family Homes",3/1/2021,,162825,1966,"328 ESCONDIDO CIR","SAN MARCOS",TX,78666,,,CONTRACTOR,,,,,,,,,,,"LENNAR HOMES",,,,,"LENNAR HOMES","13620 FM 620 RD 150",AUSTIN,TX,78717,"(512) 506-4000",http://www.lennar.com/,,,
TX,HAYS,2021-34826,"Single Family Homes",3/16/2021,,223686,2601,"104 SNAPDRAGON LN","SAN MARCOS",TX,78666,,,CONTRACTOR,,,,,,,,,,,"DR HORTON",,,,,"DR HORTON","10700 PECAN PARK BLVD STE 400",AUSTIN,TX,78750-1227,"(512) 345-4663",,,,
TX,HAYS,2021-34827,"Single Family Homes",3/16/2021,,161164,1874,"119 SNAPDRAGON LN","SAN MARCOS",TX,78666,,,CONTRACTOR,,,,,,,,,,,"DR HORTON",,,,,"DR HORTON","10700 PECAN PARK BLVD STE 400",AUSTIN,TX,78750-1227,"(512) 345-4663",,,,
TX,HAYS,2021-34828,"Single Family Homes",3/16/2021,,174924,2034,"115 SNAPDRAGON LN","SAN MARCOS",TX,78666,,,CONTRACTOR,,,,,,,,,,,"DR HORTON",,,,,"DR HORTON","10700 PECAN PARK BLVD STE 400",AUSTIN,TX,78750-1227,"(512) 345-4663",,,,
TX,HAYS,2021-34829,"Single Family Homes",3/16/2021,,174924,2034,"219 SKIPPING STONE LN","SAN MARCOS",TX,78666,,,CONTRACTOR,,,,,,,,,,,"DR HORTON",,,,,"DR HORTON","10700 PECAN PARK BLVD STE 400",AUSTIN,TX,78750-1227,"(512) 345-4663",,,,
TX,HAYS,2021-34830,"Single Family Homes",3/16/2021,,223686,2601,"215 SKIPPING STONE LN","SAN MARCOS",TX,78666,,,CONTRACTOR,,,,,,,,,,,"DR HORTON",,,,,"DR HORTON","10700 PECAN PARK BLVD STE 400",AUSTIN,TX,78750-1227,"(512) 345-4663",,,,
TX,HAYS,2021-34836,"Single Family Homes",3/12/2021,,429795,3177,"161 MISSOURI PRIMROSE LN","SAN MARCOS",TX,78666,,,CONTRACTOR,,,,,,,,,,,"HIGHLAND HOMES",,,,,"HIGHLAND HOMES","4201 W PARMER LN STE B180",AUSTIN,TX,78727-4110,"(512) 834-8429",,,,
TX,HAYS,2021-34850,"Single Family Homes",3/11/2021,,161164,1874,"208 SKIPPING STONE LN","SAN MARCOS",TX,78666,,,CONTRACTOR,,,,,,,,,,,"DR HORTON",,,,,"DR HORTON","10700 PECAN PARK BLVD STE 400",AUSTIN,TX,78750-1227,"(512) 345-4663",,,,
TX,HAYS,2021-34851,"Single Family Homes",3/26/2021,,251206,2924,"133 FOLSOM ST","SAN MARCOS",TX,78666,,,CONTRACTOR,,,,,,,,,,,"DR HORTON",,,,,"DR HORTON","10700 PECAN PARK BLVD STE 400",AUSTIN,TX,78750-1227,"(512) 345-4663",,,,
TX,HAYS,2021-34852,"Single Family Homes",3/26/2021,,233146,2711,"125 FOLSOM ST","SAN MARCOS",TX,78666,,,CONTRACTOR,,,,,,,,,,,"DR HORTON",,,,,"DR HORTON","10700 PECAN PARK BLVD STE 400",AUSTIN,TX,78750-1227,"(512) 345-4663",,,,
TX,HAYS,2021-34866,"Single Family Homes",3/4/2021,,596570,4163,"105 MONTEZUMA CYPRESS PATH","SAN MARCOS",TX,78666,,,CONTRACTOR,,,,,,,,,,,"HIGHLAND HOMES",,,,,"HIGHLAND HOMES","4201 W PARMER LN STE B180",AUSTIN,TX,78727-4110,"(512) 834-8429",,,,
TX,HAYS,2021-34888,"Single Family Homes",3/15/2021,,168376,2746,"545 BLUE OAK BLVD","SAN MARCOS",TX,78666,,,CONTRACTOR,,,,,,,,,,,"EHT OF TEXAS LP",,,,,"EHT OF TEXAS LP","3520 EXECUTIVE CENTER DR STE 100",AUSTIN,TX,78731-1636,"(757) 287-6394",,,,
TX,HAYS,2021-34911,"Single Family Homes",3/4/2021,,103455,1881,"337 SPINY LIZARD LN","SAN MARCOS",TX,78666,,,CONTRACTOR,,,,,,,,,,,"BROHN HOMES",,,,,"BROHN HOMES","6720 VAUGHT RANCH RD STE 200",AUSTIN,TX,78730-2354,"(512) 320-8833",http://brohnhomes.com/,,,
TX,HAYS,2021-34912,"Single Family Homes",3/4/2021,,115115,2093,"221 SPINY LIZARD LN","SAN MARCOS",TX,78666,,,CONTRACTOR,,,,,,,,,,,"BROHN HOMES",,,,,"BROHN HOMES","6720 VAUGHT RANCH RD STE 200",AUSTIN,TX,78730-2354,"(512) 320-8833",http://brohnhomes.com/,,,
TX,HAYS,2021-34914,"Single Family Homes",3/4/2021,,138900,1852,"1162 ESPLANADE PKWY","SAN MARCOS",TX,78666,,,CONTRACTOR,,,,,,,,,,,"PACESETTER HOMES ",,,,,"PACESETTER HOMES ","7940 SHOAL CREEK BLVD STE 200",AUSTIN,TX,78757-7587,"(512) 323-5252",,,,
TX,HAYS,2021-34915,"Single Family Homes",3/4/2021,,105825,1411,"1146 ESPLANADE PKWY","SAN MARCOS",TX,78666,,,CONTRACTOR,,,,,,,,,,,"PACESETTER HOMES ",,,,,"PACESETTER HOMES ","7940 SHOAL CREEK BLVD STE 200",AUSTIN,TX,78757-7587,"(512) 323-5252",,,,
TX,HAYS,2021-34916,"Single Family Homes",3/26/2021,,83625,1115,"230 SPINY LIZARD LN","SAN MARCOS",TX,78666,,,CONTRACTOR,,,,,,,,,,,"PACESETTER HOMES ",,,,,"PACESETTER HOMES ","7940 SHOAL CREEK BLVD STE 200",AUSTIN,TX,78757-7587,"(512) 323-5252",,,,
TX,HAYS,2021-34917,"Single Family Homes",3/4/2021,,113100,1508,"238 SPINY LIZARD LN","SAN MARCOS",TX,78666,,,CONTRACTOR,,,,,,,,,,,"PACESETTER HOMES ",,,,,"PACESETTER HOMES ","7940 SHOAL CREEK BLVD STE 200",AUSTIN,TX,78757-7587,"(512) 323-5252",,,,
TX,HAYS,2021-34919,"Single Family Homes",3/4/2021,,171470,214,"304 ESCONDIDO CIR","SAN MARCOS",TX,78666,,,CONTRACTOR,,,,,,,,,,,"LENNAR HOMES",,,,,"LENNAR HOMES","13620 FM 620 RD 150",AUSTIN,TX,78717,"(512) 506-4000",http://www.lennar.com/,,,
TX,HAYS,2021-34920,"Single Family Homes",3/4/2021,,163345,2022,"237 ESCONDIDO CIR","SAN MARCOS",TX,78666,,,CONTRACTOR,,,,,,,,,,,"LENNAR HOMES",,,,,"LENNAR HOMES","13620 FM 620 RD 150",AUSTIN,TX,78717,"(512) 506-4000",http://www.lennar.com/,,,
TX,HAYS,2021-34921,"Single Family Homes",3/4/2021,,153530,1815,"241 ESCONDIDO CIR","SAN MARCOS",TX,78666,,,CONTRACTOR,,,,,,,,,,,"LENNAR HOMES",,,,,"LENNAR HOMES","13620 FM 620 RD 150",AUSTIN,TX,78717,"(512) 506-4000",http://www.lennar.com/,,,
TX,HAYS,2021-34941,"Single Family Homes",3/19/2021,,265710.6,2385,"157 MISSOURI PRIMROSE LN","SAN MARCOS",TX,78666,,,CONTRACTOR,,,,,,,,,,,"MHI MCGUYER HOMEBUILDERS",,,,,"MHI MCGUYER HOMEBUILDERS","8200 N MO PAC EXPY STE 300",AUSTIN,TX,78759-8844,"(512) 502-2050",,"(512) 388-1836","FRANK MCGUYER",
TX,HAYS,2021-34956,"Single Family Homes",3/11/2021,,250000,2925,"128 DARING PAINTBRUSH CV","SAN MARCOS",TX,78666,,,CONTRACTOR,,,,,,,,,,,"BROOKFIELD RESIDENTIAL PROPERTIES",,,,,"BROOKFIELD RESIDENTIAL PROPERTIES","11501 ALTERRA PKWY STE 100",AUSTIN,TX,78758-3201,"(512) 391-1330",,,,
TX,HAYS,2021-34977,"Single Family Homes",3/23/2021,,250000,2720,"112 DARING PAINTBRUSH CV","SAN MARCOS",TX,78666,,,CONTRACTOR,,,,,,,,,,,"BROOKFIELD RESIDENTIAL PROPERTIES",,,,,"BROOKFIELD RESIDENTIAL PROPERTIES","11501 ALTERRA PKWY STE 100",AUSTIN,TX,78758-3201,"(512) 391-1330",,,,
TX,HAYS,2021-34978,"Single Family Homes",3/23/2021,,250000,3473,"318 SINGING SUMAC WAY","SAN MARCOS",TX,78666,,,CONTRACTOR,,,,,,,,,,,"BROOKFIELD RESIDENTIAL PROPERTIES",,,,,"BROOKFIELD RESIDENTIAL PROPERTIES","11501 ALTERRA PKWY STE 100",AUSTIN,TX,78758-3201,"(512) 391-1330",,,,
TX,HAYS,2021-35025,"Single Family Homes",3/19/2021,,121715,2213,"341 SPINY LIZARD LN","SAN MARCOS",TX,78666,,,CONTRACTOR,,,,,,,,,,,"BROHN HOMES",,,,,"BROHN HOMES","6720 VAUGHT RANCH RD STE 200",AUSTIN,TX,78730-2354,"(512) 320-8833",http://brohnhomes.com/,,,
TX,HAYS,2021-35029,"Single Family Homes",3/29/2021,,115280,2096,"345 SPINY LIZARD LN","SAN MARCOS",TX,78666,,,CONTRACTOR,,,,,,,,,,,"BROHN HOMES",,,,,"BROHN HOMES","6720 VAUGHT RANCH RD STE 200",AUSTIN,TX,78730-2354,"(512) 320-8833",http://brohnhomes.com/,,,
TX,HAYS,2021-35033,"Single Family Homes",3/19/2021,,150040,2728,"435 SPINY LIZARD LN","SAN MARCOS",TX,78666,,,CONTRACTOR,,,,,,,,,,,"BROHN HOMES",,,,,"BROHN HOMES","6720 VAUGHT RANCH RD STE 200",AUSTIN,TX,78730-2354,"(512) 320-8833",http://brohnhomes.com/,,,
TX,HAYS,2021-35034,"Single Family Homes",3/23/2021,,250000,3176,"432 CALMING AGAVE WAY","SAN MARCOS",TX,78666,,,CONTRACTOR,,,,,,,,,,,"BROOKFIELD RESIDENTIAL PROPERTIES",,,,,"BROOKFIELD RESIDENTIAL PROPERTIES","11501 ALTERRA PKWY STE 100",AUSTIN,TX,78758-3201,"(512) 391-1330",,,,
TX,HAYS,2021-35036,"Single Family Homes",3/23/2021,,401390,2877,"212 HEARTLEAF RD","SAN MARCOS",TX,78666,,,CONTRACTOR,,,,,,,,,,,"HIGHLAND HOMES",,,,,"HIGHLAND HOMES","4201 W PARMER LN STE B180",AUSTIN,TX,78727-4110,"(512) 834-8429",,,,
TX,HAYS,2021-35037,"Single Family Homes",3/31/2021,,402837,2832,"244 HEARTLEAF RD","SAN MARCOS",TX,78666,,,CONTRACTOR,,,,,,,,,,,"HIGHLAND HOMES",,,,,"HIGHLAND HOMES","4201 W PARMER LN STE B180",AUSTIN,TX,78727-4110,"(512) 834-8429",,,,
TX,HAYS,2021-35038,"Single Family Homes",3/23/2021,,250000,2774,"310 SINGING SUMAC WAY","SAN MARCOS",TX,78666,,,CONTRACTOR,,,,,,,,,,,"BROOKFIELD RESIDENTIAL PROPERTIES",,,,,"BROOKFIELD RESIDENTIAL PROPERTIES","11501 ALTERRA PKWY STE 100",AUSTIN,TX,78758-3201,"(512) 391-1330",,,,
TX,HAYS,2021-35039,"Single Family Homes",3/23/2021,,250000,2093,"228 CALMING AGAVE WAY","SAN MARCOS",TX,78666,,,CONTRACTOR,,,,,,,,,,,"BROOKFIELD RESIDENTIAL PROPERTIES",,,,,"BROOKFIELD RESIDENTIAL PROPERTIES","11501 ALTERRA PKWY STE 100",AUSTIN,TX,78758-3201,"(512) 391-1330",,,,
TX,HAYS,2021-35040,"Single Family Homes",3/19/2021,,178805,3251,"353 SPINY LIZARD LN","SAN MARCOS",TX,78666,,,CONTRACTOR,,,,,,,,,,,"BROHN HOMES",,,,,"BROHN HOMES","6720 VAUGHT RANCH RD STE 200",AUSTIN,TX,78730-2354,"(512) 320-8833",http://brohnhomes.com/,,,
TX,HAYS,2021-35041,"Single Family Homes",3/25/2021,,250000,3099,"314 SINGING SUMAC WAY","SAN MARCOS",TX,78666,,,CONTRACTOR,,,,,,,,,,,"BROOKFIELD RESIDENTIAL PROPERTIES",,,,,"BROOKFIELD RESIDENTIAL PROPERTIES","11501 ALTERRA PKWY STE 100",AUSTIN,TX,78758-3201,"(512) 391-1330",,,,
TX,HAYS,2021-35042,"Single Family Homes",3/25/2021,,250000,2571,"214 CHARMING REDBUD LN","SAN MARCOS",TX,78666,,,CONTRACTOR,,,,,,,,,,,"BROOKFIELD RESIDENTIAL PROPERTIES",,,,,"BROOKFIELD RESIDENTIAL PROPERTIES","11501 ALTERRA PKWY STE 100",AUSTIN,TX,78758-3201,"(512) 391-1330",,,,
TX,HAYS,2021-35056,"Single Family Homes",3/29/2021,,137345,1601,"316 ESCONDIDO CIR","SAN MARCOS",TX,78666,,,CONTRACTOR,,,,,,,,,,,"LENNAR HOMES",,,,,"LENNAR HOMES","13620 FM 620 RD 150",AUSTIN,TX,78717,"(512) 506-4000",http://www.lennar.com/,,,
TX,HAYS,2021-35061,"Single Family Homes",3/25/2021,,180150,2402,"145 HORSEMINT WAY","SAN MARCOS",TX,78666,,,CONTRACTOR,,,,,,,,,,,"PACESETTER HOMES ",,,,,"PACESETTER HOMES ","7940 SHOAL CREEK BLVD STE 200",AUSTIN,TX,78757-7587,"(512) 323-5252",,,,
TX,HAYS,2021-35063,"Single Family Homes",3/25/2021,,334590,2935,"313 BLUE OAK BLVD","SAN MARCOS",TX,78666,,,CONTRACTOR,,,,,,,,,,,"BUFFINGTON TEXAS CLASSIC HOMES",,,,,"BUFFINGTON TEXAS CLASSIC HOMES","8601 RANCH ROAD 2222 PARK CENTRE BLDG STE 150",AUSTIN,TX,78730,"(512) 579-4800",,,,
TX,HAYS,2021-35064,"Single Family Homes",3/25/2021,,286254,2511,"137 GOLDFINCH DR","SAN MARCOS",TX,78666,,,CONTRACTOR,,,,,,,,,,,"BUFFINGTON TEXAS CLASSIC HOMES",,,,,"BUFFINGTON TEXAS CLASSIC HOMES","8601 RANCH ROAD 2222 PARK CENTRE BLDG STE 150",AUSTIN,TX,78730,"(512) 579-4800",,,,
TX,HAYS,2021-35065,"Single Family Homes",3/25/2021,,308712,6000,"129 BLUE OAK BLVD","SAN MARCOS",TX,78666,,,CONTRACTOR,,,,,,,,,,,"BUFFINGTON TEXAS CLASSIC HOMES",,,,,"BUFFINGTON TEXAS CLASSIC HOMES","8601 RANCH ROAD 2222 PARK CENTRE BLDG STE 150",AUSTIN,TX,78730,"(512) 579-4800",,,,
TX,HAYS,2021-35066,"Single Family Homes",3/29/2021,,250000,2741,"414 SKIPPING CEDAR ST","SAN MARCOS",TX,78666,,,CONTRACTOR,,,,,,,,,,,"BROOKFIELD RESIDENTIAL PROPERTIES",,,,,"BROOKFIELD RESIDENTIAL PROPERTIES","11501 ALTERRA PKWY STE 100",AUSTIN,TX,78758-3201,"(512) 391-1330",,,,
TX,HAYS,2021-35074,"Single Family Homes",3/29/2021,,152185,2767,"317 SPINY LIZARD LN","SAN MARCOS",TX,78666,,,CONTRACTOR,,,,,,,,,,,"BROHN HOMES",,,,,"BROHN HOMES","6720 VAUGHT RANCH RD STE 200",AUSTIN,TX,78730-2354,"(512) 320-8833",http://brohnhomes.com/,,,
TX,HAYS,2021-35077,"Single Family Homes",3/29/2021,,153120,2784,"405 SPINY LIZARD LN","SAN MARCOS",TX,78666,,,CONTRACTOR,,,,,,,,,,,"BROHN HOMES",,,,,"BROHN HOMES","6720 VAUGHT RANCH RD STE 200",AUSTIN,TX,78730-2354,"(512) 320-8833",http://brohnhomes.com/,,,
TX,HAYS,2021-35089,"Single Family Homes",3/25/2021,,250000,2689,"235 CALMING AGAVE WAY","SAN MARCOS",TX,78666,,,CONTRACTOR,,,,,,,,,,,"BROOKFIELD RESIDENTIAL PROPERTIES",,,,,"BROOKFIELD RESIDENTIAL PROPERTIES","11501 ALTERRA PKWY STE 100",AUSTIN,TX,78758-3201,"(512) 391-1330",,,,
TX,HAYS,2021-35090,"Single Family Homes",3/25/2021,,250000,2668,"128 CALMING AGAVE WAY","SAN MARCOS",TX,78666,,,CONTRACTOR,,,,,,,,,,,"BROOKFIELD RESIDENTIAL PROPERTIES",,,,,"BROOKFIELD RESIDENTIAL PROPERTIES","11501 ALTERRA PKWY STE 100",AUSTIN,TX,78758-3201,"(512) 391-1330",,,,
TX,HAYS,2021-35095,"Single Family Homes",3/25/2021,,250000,2626,"112 SINGING SUMAC WAY","SAN MARCOS",TX,78666,,,CONTRACTOR,,,,,,,,,,,"BROOKFIELD RESIDENTIAL PROPERTIES",,,,,"BROOKFIELD RESIDENTIAL PROPERTIES","11501 ALTERRA PKWY STE 100",AUSTIN,TX,78758-3201,"(512) 391-1330",,,,
TX,HAYS,2021-35099,"Single Family Homes",3/25/2021,,250000,2676,"219 SINGING SUMAC WAY","SAN MARCOS",TX,78666,,,CONTRACTOR,,,,,,,,,,,"BROOKFIELD RESIDENTIAL PROPERTIES",,,,,"BROOKFIELD RESIDENTIAL PROPERTIES","11501 ALTERRA PKWY STE 100",AUSTIN,TX,78758-3201,"(512) 391-1330",,,,
TX,HAYS,2021-35106,"Single Family Homes",3/25/2021,,250000,2827,"340 CALMING AGAVE WAY","SAN MARCOS",TX,78666,,,CONTRACTOR,,,,,,,,,,,"BROOKFIELD RESIDENTIAL PROPERTIES",,,,,"BROOKFIELD RESIDENTIAL PROPERTIES","11501 ALTERRA PKWY STE 100",AUSTIN,TX,78758-3201,"(512) 391-1330",,,,
TX,HAYS,2021-35107,"Single Family Homes",3/25/2021,,250000,2475,"104 SINGING SUMAC WAY","SAN MARCOS",TX,78666,,,CONTRACTOR,,,,,,,,,,,"BROOKFIELD RESIDENTIAL PROPERTIES",,,,,"BROOKFIELD RESIDENTIAL PROPERTIES","11501 ALTERRA PKWY STE 100",AUSTIN,TX,78758-3201,"(512) 391-1330",,,,
TX,HAYS,2021-35108,"Single Family Homes",3/25/2021,,250000,3387,"117 CRUISING OAK ST","SAN MARCOS",TX,78666,,,CONTRACTOR,,,,,,,,,,,"BROOKFIELD RESIDENTIAL PROPERTIES",,,,,"BROOKFIELD RESIDENTIAL PROPERTIES","11501 ALTERRA PKWY STE 100",AUSTIN,TX,78758-3201,"(512) 391-1330",,,,
TX,HAYS,2021-35111,"Single Family Homes",3/25/2021,,250000,2450,"105 ACE LN CONDO 102","SAN MARCOS",TX,78666,,,CONTRACTOR,,,,,,,,,,,"BROOKFIELD RESIDENTIAL PROPERTIES",,,,,"BROOKFIELD RESIDENTIAL PROPERTIES","11501 ALTERRA PKWY STE 100",AUSTIN,TX,78758-3201,"(512) 391-1330",,,,
TX,HAYS,2021-35115,"Single Family Homes",3/25/2021,,250000,2791,"120 SINGING SUMAC WAY","SAN MARCOS",TX,78666,,,CONTRACTOR,,,,,,,,,,,"BROOKFIELD RESIDENTIAL PROPERTIES",,,,,"BROOKFIELD RESIDENTIAL PROPERTIES","11501 ALTERRA PKWY STE 100",AUSTIN,TX,78758-3201,"(512) 391-1330",,,,
TX,HAYS,2021-35193,"Single Family Homes",3/23/2021,,316920,2780,"141 GOLDFINCH DR","SAN MARCOS",TX,78666,,,CONTRACTOR,,,,,,,,,,,"BUFFINGTON TEXAS CLASSIC HOMES",,,,,"BUFFINGTON TEXAS CLASSIC HOMES","8601 RANCH ROAD 2222 PARK CENTRE BLDG STE 150",AUSTIN,TX,78730,"(512) 579-4800",,,,
TX,HAYS,2021-35196,"Single Family Homes",3/23/2021,,313842,2753,"142 GOLDFINCH DR","SAN MARCOS",TX,78666,,,CONTRACTOR,,,,,,,,,,,"BUFFINGTON TEXAS CLASSIC HOMES",,,,,"BUFFINGTON TEXAS CLASSIC HOMES","8601 RANCH ROAD 2222 PARK CENTRE BLDG STE 150",AUSTIN,TX,78730,"(512) 579-4800",,,,
TX,HAYS,2021-35198,"Single Family Homes",3/23/2021,,321024,2782,"129 GOLDFINCH DR","SAN MARCOS",TX,78666,,,CONTRACTOR,,,,,,,,,,,"BUFFINGTON TEXAS CLASSIC HOMES",,,,,"BUFFINGTON TEXAS CLASSIC HOMES","8601 RANCH ROAD 2222 PARK CENTRE BLDG STE 150",AUSTIN,TX,78730,"(512) 579-4800",,,,
TX,HAYS,2021-35203,"Single Family Homes",3/23/2021,,322050,2735,"145 GOLDFINCH DR","SAN MARCOS",TX,78666,,,CONTRACTOR,,,,,,,,,,,"BUFFINGTON TEXAS CLASSIC HOMES",,,,,"BUFFINGTON TEXAS CLASSIC HOMES","8601 RANCH ROAD 2222 PARK CENTRE BLDG STE 150",AUSTIN,TX,78730,"(512) 579-4800",,,,
TX,WILLIAMSON,2020-63637,"Single Family Homes",3/26/2021,,310194,3897,"1313 MOONLIGHT TERRACE DR",GEORGETOWN,TX,78626,,,CONTRACTOR,,,,,,,,,,,"MHI MCGUYER HOMEBUILDERS",,,,,"MHI MCGUYER HOMEBUILDERS","8200 N MO PAC EXPY STE 300",AUSTIN,TX,78759-8844,"(512) 502-2050",,"(512) 388-1836","FRANK MCGUYER",
TX,WILLIAMSON,2020-68273,"Single Family Homes",3/30/2021,,317082,3687,"1016 DESAIX DR",GEORGETOWN,TX,78626,,,CONTRACTOR,,,,,,,,,,,"KB HOME",,,,,"KB HOME","10800 PECAN PARK BLVD STE 200",AUSTIN,TX,78750-1249,"(512) 651-8100",,,,
TX,WILLIAMSON,2020-69261,"Single Family Homes",3/29/2021,,318000,3386,"225 IVA JUNE LN",GEORGETOWN,TX,78626,,,CONTRACTOR,,,,,,,,,,,"DREES CUSTOM HOMES",,,,,"DREES CUSTOM HOMES","7300 RANCH ROAD 2222 BLDG 2 STE 250",AUSTIN,TX,78730-3204,"(512) 241-7100",http://www.dreeshomes.com,,,
TX,WILLIAMSON,2020-70034,"Single Family Homes",3/10/2021,,177150,2362,"132 KONIK RD",GEORGETOWN,TX,78626,,,CONTRACTOR,,,,,,,,,,,"LENNAR HOMES",,,,,"LENNAR HOMES","13620 FM 620 RD 150",AUSTIN,TX,78717,"(512) 506-4000",http://www.lennar.com/,,,
TX,WILLIAMSON,2020-70128,"Single Family Homes",3/1/2021,,419990,4939,"304 IRON RAIL LN",GEORGETOWN,TX,78626,,,CONTRACTOR,,,,,,,,,,,"PULTE HOMES",,,,,"PULTE HOMES","9401 AMBERGLEN BLVD STE I-150",AUSTIN,TX,78729-1154,"(512) 561-4344",,,,
TX,WILLIAMSON,2020-70203,"Single Family Homes",3/5/2021,,356990,2941,"204 SPANISH STAR ST",GEORGETOWN,TX,78626,,,CONTRACTOR,,,,,,,,,,,"PULTE HOMES",,,,,"PULTE HOMES","9401 AMBERGLEN BLVD STE I-150",AUSTIN,TX,78729-1154,"(512) 561-4344",,,,
TX,WILLIAMSON,2020-70399,"Single Family Homes",3/19/2021,,241794,3318,"3612 MERCER RD",GEORGETOWN,TX,78626,,,CONTRACTOR,,,,,,,,,,,"MHI MCGUYER HOMEBUILDERS",,,,,"MHI MCGUYER HOMEBUILDERS","8200 N MO PAC EXPY STE 300",AUSTIN,TX,78759-8844,"(512) 502-2050",,"(512) 388-1836","FRANK MCGUYER",
TX,WILLIAMSON,2020-70520,"Single Family Homes",3/8/2021,,150540,1874,"205 GABRIELS BLUFF DR",GEORGETOWN,TX,78626,,,CONTRACTOR,,,,,,,,,,,"LENNAR HOMES",,,,,"LENNAR HOMES","13620 FM 620 RD 150",AUSTIN,TX,78717,"(512) 506-4000",http://www.lennar.com/,,,
TX,WILLIAMSON,2020-70528,"Single Family Homes",3/1/2021,,351990,3573,"101 WHITE ASTER CT",GEORGETOWN,TX,78626,,,CONTRACTOR,,,,,,,,,,,"PULTE HOMES",,,,,"PULTE HOMES","9401 AMBERGLEN BLVD STE I-150",AUSTIN,TX,78729-1154,"(512) 561-4344",,,,
TX,WILLIAMSON,2021-70719,"Single Family Homes",3/5/2021,,145000,1407,"1015 VISTA VIEW DR 2501",GEORGETOWN,TX,78626,,,CONTRACTOR,,,,,,,,,,,"HOMES BY AVI",,,,,"HOMES BY AVI","11130 JOLLYVILLE RD STE 304",AUSTIN,TX,78759-4819,"(512) 382-0971",http://www.homesbyavi.com/,,,
TX,WILLIAMSON,2021-70752,"Single Family Homes",3/18/2021,,406340,2487,"124 ARROWHEAD MOUND RD",GEORGETOWN,TX,78626,,,CONTRACTOR,,,,,,,,,,,"HIGHLAND HOMES",,,,,"HIGHLAND HOMES","4201 W PARMER LN STE B180",AUSTIN,TX,78727-4110,"(512) 834-8429",,,,
TX,WILLIAMSON,2021-70753,"Single Family Homes",3/8/2021,,172620,2466,"553 WARLANDER WAY",GEORGETOWN,TX,78626,,,CONTRACTOR,,,,,,,,,,,"CASTLEROCK COMMUNITIES",,,,,"CASTLEROCK COMMUNITIES","7670 WOODWAY DR STE 300",HOUSTON,TX,77063-1520,"(713) 600-7000",http://c-rock.com,"(713) 600-0000",,
TX,WILLIAMSON,2021-70967,"Single Family Homes",3/2/2021,,404990,3189,"305 IRON RAIL LN",GEORGETOWN,TX,78626,,,CONTRACTOR,,,,,,,,,,,"PULTE HOMES",,,,,"PULTE HOMES","9401 AMBERGLEN BLVD STE I-150",AUSTIN,TX,78729-1154,"(512) 561-4344",,,,
TX,WILLIAMSON,2021-71020,"Single Family Homes",3/12/2021,,300594,2915,"1113 TRIBUTARY TRL",GEORGETOWN,TX,78626,,,CONTRACTOR,,,,,,,,,,,"MHI MCGUYER HOMEBUILDERS",,,,,"MHI MCGUYER HOMEBUILDERS","8200 N MO PAC EXPY STE 300",AUSTIN,TX,78759-8844,"(512) 502-2050",,"(512) 388-1836","FRANK MCGUYER",
TX,WILLIAMSON,2021-71029,"Single Family Homes",3/10/2021,,373990,2921,"133 HIGH PLAINS DR",GEORGETOWN,TX,78626,,,CONTRACTOR,,,,,,,,,,,"CHESMAR HOMES",,,,,"CHESMAR HOMES","2900 N QUINLAN PARK RD",AUSTIN,TX,78732-6083,"(512) 233-9016",http://chesmar.com,,,
TX,WILLIAMSON,2021-71138,"Single Family Homes",3/17/2021,,154112,1782,"414 THUNDER VALLEY TRL",GEORGETOWN,TX,78626,,,CONTRACTOR,,,,,,,,,,,"KB HOME",,,,,"KB HOME","10800 PECAN PARK BLVD STE 200",AUSTIN,TX,78750-1249,"(512) 651-8100",,,,
TX,WILLIAMSON,2021-71141,"Single Family Homes",3/8/2021,,217210,3103,"1237 WHIPPLETREE TRL",GEORGETOWN,TX,78626,,,CONTRACTOR,,,,,,,,,,,"CASTLEROCK COMMUNITIES",,,,,"CASTLEROCK COMMUNITIES","7670 WOODWAY DR STE 300",HOUSTON,TX,77063-1520,"(713) 600-7000",http://c-rock.com,"(713) 600-0000",,
TX,WILLIAMSON,2021-71154,"Single Family Homes",3/12/2021,,451515,2814,"112 PROMONTORY TRL",GEORGETOWN,TX,78626,,,CONTRACTOR,,,,,,,,,,,"CHESMAR HOMES",,,,,"CHESMAR HOMES","2900 N QUINLAN PARK RD",AUSTIN,TX,78732-6083,"(512) 233-9016",http://chesmar.com,,,
TX,WILLIAMSON,2021-71163,"Single Family Homes",3/10/2021,,354540,2783,"204 UPLAND DR",GEORGETOWN,TX,78626,,,CONTRACTOR,,,,,,,,,,,"CHESMAR HOMES",,,,,"CHESMAR HOMES","2900 N QUINLAN PARK RD",AUSTIN,TX,78732-6083,"(512) 233-9016",http://chesmar.com,,,
TX,WILLIAMSON,2021-71177,"Single Family Homes",3/23/2021,,187875,2505,"140 KONIK RD",GEORGETOWN,TX,78626,,,CONTRACTOR,,,,,,,,,,,"LENNAR HOMES",,,,,"LENNAR HOMES","13620 FM 620 RD 150",AUSTIN,TX,78717,"(512) 506-4000",http://www.lennar.com/,,,
TX,WILLIAMSON,2021-71190,"Single Family Homes",3/12/2021,,287190,2405,"114 DEDINA DR",GEORGETOWN,TX,78626,,,CONTRACTOR,,,,,,,,,,,"CHESMAR HOMES",,,,,"CHESMAR HOMES","2900 N QUINLAN PARK RD",AUSTIN,TX,78732-6083,"(512) 233-9016",http://chesmar.com,,,
TX,WILLIAMSON,2021-71196,"Single Family Homes",3/12/2021,,296394,3618,"905 NORTH FORK TRL",GEORGETOWN,TX,78626,,,CONTRACTOR,,,,,,,,,,,"MHI MCGUYER HOMEBUILDERS",,,,,"MHI MCGUYER HOMEBUILDERS","8200 N MO PAC EXPY STE 300",AUSTIN,TX,78759-8844,"(512) 502-2050",,"(512) 388-1836","FRANK MCGUYER",
TX,WILLIAMSON,2021-71201,"Single Family Homes",3/12/2021,,296394,3618,"805 NORTH FORK TRL",GEORGETOWN,TX,78626,,,CONTRACTOR,,,,,,,,,,,"MHI MCGUYER HOMEBUILDERS",,,,,"MHI MCGUYER HOMEBUILDERS","8200 N MO PAC EXPY STE 300",AUSTIN,TX,78759-8844,"(512) 502-2050",,"(512) 388-1836","FRANK MCGUYER",
TX,WILLIAMSON,2021-71210,"Single Family Homes",3/3/2021,,291015,2123,"704 BRIDLE CREEK DR",GEORGETOWN,TX,78626,,,CONTRACTOR,,,,,,,,,,,"CHESMAR HOMES",,,,,"CHESMAR HOMES","2900 N QUINLAN PARK RD",AUSTIN,TX,78732-6083,"(512) 233-9016",http://chesmar.com,,,
TX,WILLIAMSON,2021-71237,"Single Family Homes",3/9/2021,,253990,2197,"105 BRACKEN FERN LN",GEORGETOWN,TX,78626,,,CONTRACTOR,,,,,,,,,,,"PULTE HOMES",,,,,"PULTE HOMES","9401 AMBERGLEN BLVD STE I-150",AUSTIN,TX,78729-1154,"(512) 561-4344",,,,
TX,WILLIAMSON,2021-71239,"Single Family Homes",3/17/2021,,323000,2856,"224 IVA JUNE LN",GEORGETOWN,TX,78626,,,CONTRACTOR,,,,,,,,,,,"DREES CUSTOM HOMES",,,,,"DREES CUSTOM HOMES","7300 RANCH ROAD 2222 BLDG 2 STE 250",AUSTIN,TX,78730-3204,"(512) 241-7100",http://www.dreeshomes.com,,,
TX,WILLIAMSON,2021-71244,"Single Family Homes",3/8/2021,,398000,2425,"108 IVA JUNE LN",GEORGETOWN,TX,78626,,,CONTRACTOR,,,,,,,,,,,"DREES CUSTOM HOMES",,,,,"DREES CUSTOM HOMES","7300 RANCH ROAD 2222 BLDG 2 STE 250",AUSTIN,TX,78730-3204,"(512) 241-7100",http://www.dreeshomes.com,,,
TX,WILLIAMSON,2021-71300,"Single Family Homes",3/16/2021,,425795,2536,"204 ARROWHEAD MOUND RD",GEORGETOWN,TX,78626,,,CONTRACTOR,,,,,,,,,,,"HIGHLAND HOMES",,,,,"HIGHLAND HOMES","4201 W PARMER LN STE B180",AUSTIN,TX,78727-4110,"(512) 834-8429",,,,
TX,WILLIAMSON,2021-71374,"Single Family Homes",3/30/2021,,244715,2879,"134 MOURNING DOVE LN",GEORGETOWN,TX,78626,,,CONTRACTOR,,,,,,,,,,,"KB HOME",,,,,"KB HOME","10800 PECAN PARK BLVD STE 200",AUSTIN,TX,78750-1249,"(512) 651-8100",,,,
TX,WILLIAMSON,2021-71391,"Single Family Homes",3/3/2021,,322320,2733,"1016 PADDOCK LN",GEORGETOWN,TX,78626,,,CONTRACTOR,,,,,,,,,,,"CHESMAR HOMES",,,,,"CHESMAR HOMES","2900 N QUINLAN PARK RD",AUSTIN,TX,78732-6083,"(512) 233-9016",http://chesmar.com,,,
TX,WILLIAMSON,2021-71399,"Single Family Homes",3/10/2021,,278990,2082,"1000 PADDOCK LN",GEORGETOWN,TX,78626,,,CONTRACTOR,,,,,,,,,,,"CHESMAR HOMES",,,,,"CHESMAR HOMES","2900 N QUINLAN PARK RD",AUSTIN,TX,78732-6083,"(512) 233-9016",http://chesmar.com,,,
TX,WILLIAMSON,2021-71595,"Single Family Homes",3/30/2021,,391990,4548,"212 TOVAS SECRET CV",GEORGETOWN,TX,78626,,,CONTRACTOR,,,,,,,,,,,"GEHAN HOMES",,,,,"GEHAN HOMES","3815 S CAPITAL OF TEXAS HWY STE 275",AUSTIN,TX,78704-6652,"(512) 330-9366",http://www.gehanhomes.com,,"JANET PHILLIPS",
TX,WILLIAMSON,2021-71645,"Single Family Homes",3/12/2021,,150000,2048,"4270 E UNIVERSITY AVE",GEORGETOWN,TX,78626,,,CONTRACTOR,,,,,,,,,,,"ROSE CONSTRUCTION",,,,,"ROSE CONSTRUCTION","2774 236 HIGHWAY",MOODY,TX,76557,"(254) 715-5491",,,,
TX,WILLIAMSON,2021-71654,"Single Family Homes",3/1/2021,,343990,2537,"109 YELLOW THISTLE CV",GEORGETOWN,TX,78626,,,CONTRACTOR,,,,,,,,,,,"PULTE HOMES",,,,,"PULTE HOMES","9401 AMBERGLEN BLVD STE I-150",AUSTIN,TX,78729-1154,"(512) 561-4344",,,,
TX,WILLIAMSON,2021-71680,"Single Family Homes",3/5/2021,,261594,3030,"1124 STETSON HAT TRL",GEORGETOWN,TX,78626,,,CONTRACTOR,,,,,,,,,,,"MHI MCGUYER HOMEBUILDERS",,,,,"MHI MCGUYER HOMEBUILDERS","8200 N MO PAC EXPY STE 300",AUSTIN,TX,78759-8844,"(512) 502-2050",,"(512) 388-1836","FRANK MCGUYER",
TX,WILLIAMSON,2021-71682,"Single Family Homes",3/5/2021,,254394,2280,"1221 SILVER DOLLAR TRL",GEORGETOWN,TX,78626,,,CONTRACTOR,,,,,,,,,,,"MHI MCGUYER HOMEBUILDERS",,,,,"MHI MCGUYER HOMEBUILDERS","8200 N MO PAC EXPY STE 300",AUSTIN,TX,78759-8844,"(512) 502-2050",,"(512) 388-1836","FRANK MCGUYER",
TX,WILLIAMSON,2021-71685,"Single Family Homes",3/1/2021,,361990,3537,"105 YELLOW THISTLE CV",GEORGETOWN,TX,78626,,,CONTRACTOR,,,,,,,,,,,"PULTE HOMES",,,,,"PULTE HOMES","9401 AMBERGLEN BLVD STE I-150",AUSTIN,TX,78729-1154,"(512) 561-4344",,,,
TX,WILLIAMSON,2021-71701,"Single Family Homes",3/22/2021,,344990,2852,"111 SPANISH STAR ST",GEORGETOWN,TX,78626,,,CONTRACTOR,,,,,,,,,,,"PULTE HOMES",,,,,"PULTE HOMES","9401 AMBERGLEN BLVD STE I-150",AUSTIN,TX,78729-1154,"(512) 561-4344",,,,
TX,WILLIAMSON,2021-71703,"Single Family Homes",3/18/2021,,389040,3242,"1216 LEANING OAK LN",GEORGETOWN,TX,78626,,,CONTRACTOR,,,,,,,,,,,"MERITAGE HOMES",,,,,"MERITAGE HOMES","8920 BUSINESS PARK DR STE 250",AUSTIN,TX,78759-7622,"(512) 610-4800",,,,
TX,WILLIAMSON,2021-71710,"Single Family Homes",3/1/2021,,269990,2598,"448 ENGLISH OAK ST",GEORGETOWN,TX,78626,,,CONTRACTOR,,,,,,,,,,,"PULTE HOMES",,,,,"PULTE HOMES","9401 AMBERGLEN BLVD STE I-150",AUSTIN,TX,78729-1154,"(512) 561-4344",,,,
TX,WILLIAMSON,2021-71711,"Single Family Homes",3/1/2021,,253990,2065,"116 BLACK ALDER ST",GEORGETOWN,TX,78626,,,CONTRACTOR,,,,,,,,,,,"PULTE HOMES",,,,,"PULTE HOMES","9401 AMBERGLEN BLVD STE I-150",AUSTIN,TX,78729-1154,"(512) 561-4344",,,,
TX,WILLIAMSON,2021-71712,"Single Family Homes",3/1/2021,,237990,1771,"137 BRACKEN FERN LN",GEORGETOWN,TX,78626,,,CONTRACTOR,,,,,,,,,,,"PULTE HOMES",,,,,"PULTE HOMES","9401 AMBERGLEN BLVD STE I-150",AUSTIN,TX,78729-1154,"(512) 561-4344",,,,
TX,WILLIAMSON,2021-71713,"Single Family Homes",3/1/2021,,253990,2066,"445 ENGLISH OAK ST",GEORGETOWN,TX,78626,,,CONTRACTOR,,,,,,,,,,,"PULTE HOMES",,,,,"PULTE HOMES","9401 AMBERGLEN BLVD STE I-150",AUSTIN,TX,78729-1154,"(512) 561-4344",,,,
TX,WILLIAMSON,2021-71714,"Single Family Homes",3/1/2021,,398640,3322,"205 LORENA LN",GEORGETOWN,TX,78626,,,CONTRACTOR,,,,,,,,,,,"MERITAGE HOMES",,,,,"MERITAGE HOMES","8920 BUSINESS PARK DR STE 250",AUSTIN,TX,78759-7622,"(512) 610-4800",,,,
TX,WILLIAMSON,2021-71715,"Single Family Homes",3/1/2021,,385200,3210,"1208 LEANING OAK LN",GEORGETOWN,TX,78626,,,CONTRACTOR,,,,,,,,,,,"MERITAGE HOMES",,,,,"MERITAGE HOMES","8920 BUSINESS PARK DR STE 250",AUSTIN,TX,78759-7622,"(512) 610-4800",,,,
TX,WILLIAMSON,2021-71716,"Single Family Homes",3/1/2021,,449760,3748,"2108 PRAIRIE OAKS DR",GEORGETOWN,TX,78626,,,CONTRACTOR,,,,,,,,,,,"MERITAGE HOMES",,,,,"MERITAGE HOMES","8920 BUSINESS PARK DR STE 250",AUSTIN,TX,78759-7622,"(512) 610-4800",,,,
TX,WILLIAMSON,2021-71721,"Single Family Homes",3/11/2021,,189085,2879,"140 CHERRY RIDGE RD",GEORGETOWN,TX,78626,,,CONTRACTOR,,,,,,,,,,,"LENNAR HOMES",,,,,"LENNAR HOMES","13620 FM 620 RD 150",AUSTIN,TX,78717,"(512) 506-4000",http://www.lennar.com/,,,
TX,WILLIAMSON,2021-71728,"Single Family Homes",3/11/2021,,197860,3044,"141 BLUE BLAZE TRL",GEORGETOWN,TX,78626,,,CONTRACTOR,,,,,,,,,,,"LENNAR HOMES",,,,,"LENNAR HOMES","13620 FM 620 RD 150",AUSTIN,TX,78717,"(512) 506-4000",http://www.lennar.com/,,,
TX,WILLIAMSON,2021-71731,"Single Family Homes",3/15/2021,,248368,2888,"102 SWEET AUTUMN DR",GEORGETOWN,TX,78626,,,CONTRACTOR,,,,,,,,,,,"KB HOME",,,,,"KB HOME","10800 PECAN PARK BLVD STE 200",AUSTIN,TX,78750-1249,"(512) 651-8100",,,,
TX,WILLIAMSON,2021-71738,"Single Family Homes",3/11/2021,,195260,3004,"136 CHERRY RIDGE RD",GEORGETOWN,TX,78626,,,CONTRACTOR,,,,,,,,,,,"LENNAR HOMES",,,,,"LENNAR HOMES","13620 FM 620 RD 150",AUSTIN,TX,78717,"(512) 506-4000",http://www.lennar.com/,,,
TX,WILLIAMSON,2021-71740,"Single Family Homes",3/2/2021,,232800,3104,"9104 DAISY CUTTER XING",GEORGETOWN,TX,78626,,,CONTRACTOR,,,,,,,,,,,"LENNAR HOMES",,,,,"LENNAR HOMES","13620 FM 620 RD 150",AUSTIN,TX,78717,"(512) 506-4000",http://www.lennar.com/,,,
TX,WILLIAMSON,2021-71760,"Single Family Homes",3/11/2021,,236340,3636,"133 BLUE BLAZE TRL",GEORGETOWN,TX,78626,,,CONTRACTOR,,,,,,,,,,,"LENNAR HOMES",,,,,"LENNAR HOMES","13620 FM 620 RD 150",AUSTIN,TX,78717,"(512) 506-4000",http://www.lennar.com/,,,
TX,WILLIAMSON,2021-71761,"Single Family Homes",3/11/2021,,186225,2865,"137 BLUE BLAZE TRL",GEORGETOWN,TX,78626,,,CONTRACTOR,,,,,,,,,,,"LENNAR HOMES",,,,,"LENNAR HOMES","13620 FM 620 RD 150",AUSTIN,TX,78717,"(512) 506-4000",http://www.lennar.com/,,,
TX,WILLIAMSON,2021-71765,"Single Family Homes",3/5/2021,,431990,3953,"202 IRON RAIL LN",GEORGETOWN,TX,78626,,,CONTRACTOR,,,,,,,,,,,"PULTE HOMES",,,,,"PULTE HOMES","9401 AMBERGLEN BLVD STE I-150",AUSTIN,TX,78729-1154,"(512) 561-4344",,,,
TX,WILLIAMSON,2021-71767,"Single Family Homes",3/1/2021,,201326,2341,"116 BENMYRTLE TRL",GEORGETOWN,TX,78626,,,CONTRACTOR,,,,,,,,,,,"KB HOME",,,,,"KB HOME","10800 PECAN PARK BLVD STE 200",AUSTIN,TX,78750-1249,"(512) 651-8100",,,,
TX,WILLIAMSON,2021-71768,"Single Family Homes",3/18/2021,,213022,2477,"233 BENMYRTLE TRL",GEORGETOWN,TX,78626,,,CONTRACTOR,,,,,,,,,,,"KB HOME",,,,,"KB HOME","10800 PECAN PARK BLVD STE 200",AUSTIN,TX,78750-1249,"(512) 651-8100",,,,
TX,WILLIAMSON,2021-71777,"Single Family Homes",3/2/2021,,176475,2353,"300 BUCKNERS ST",GEORGETOWN,TX,78626,,,CONTRACTOR,,,,,,,,,,,"LENNAR HOMES",,,,,"LENNAR HOMES","13620 FM 620 RD 150",AUSTIN,TX,78717,"(512) 506-4000",http://www.lennar.com/,,,
TX,WILLIAMSON,2021-71778,"Single Family Homes",3/2/2021,,126900,1692,"304 BUCKNERS ST",GEORGETOWN,TX,78626,,,CONTRACTOR,,,,,,,,,,,"LENNAR HOMES",,,,,"LENNAR HOMES","13620 FM 620 RD 150",AUSTIN,TX,78717,"(512) 506-4000",http://www.lennar.com/,,,
TX,WILLIAMSON,2021-71779,"Single Family Homes",3/2/2021,,139950,1866,"312 BUCKNERS ST",GEORGETOWN,TX,78626,,,CONTRACTOR,,,,,,,,,,,"LENNAR HOMES",,,,,"LENNAR HOMES","13620 FM 620 RD 150",AUSTIN,TX,78717,"(512) 506-4000",http://www.lennar.com/,,,
TX,WILLIAMSON,2021-71785,"Single Family Homes",3/4/2021,,176475,2353,"400 BUCKNERS ST",GEORGETOWN,TX,78626,,,CONTRACTOR,,,,,,,,,,,"LENNAR HOMES",,,,,"LENNAR HOMES","13620 FM 620 RD 150",AUSTIN,TX,78717,"(512) 506-4000",http://www.lennar.com/,,,
TX,WILLIAMSON,2021-71800,"Single Family Homes",3/3/2021,,175045,2693,"120 CHERRY RIDGE RD",GEORGETOWN,TX,78626,,,CONTRACTOR,,,,,,,,,,,"LENNAR HOMES",,,,,"LENNAR HOMES","13620 FM 620 RD 150",AUSTIN,TX,78717,"(512) 506-4000",http://www.lennar.com/,,,
TX,WILLIAMSON,2021-71801,"Single Family Homes",3/3/2021,,197860,3044,"124 CHERRY RIDGE RD",GEORGETOWN,TX,78626,,,CONTRACTOR,,,,,,,,,,,"LENNAR HOMES",,,,,"LENNAR HOMES","13620 FM 620 RD 150",AUSTIN,TX,78717,"(512) 506-4000",http://www.lennar.com/,,,
TX,WILLIAMSON,2021-71802,"Single Family Homes",3/3/2021,,183755,2827,"121 BLUE BLAZE TRL",GEORGETOWN,TX,78626,,,CONTRACTOR,,,,,,,,,,,"LENNAR HOMES",,,,,"LENNAR HOMES","13620 FM 620 RD 150",AUSTIN,TX,78717,"(512) 506-4000",http://www.lennar.com/,,,
TX,WILLIAMSON,2021-71818,"Single Family Homes",3/3/2021,,428345,2994,"625 PECAN BOTTOM TRL",GEORGETOWN,TX,78626,,,CONTRACTOR,,,,,,,,,,,"HIGHLAND HOMES",,,,,"HIGHLAND HOMES","4201 W PARMER LN STE B180",AUSTIN,TX,78727-4110,"(512) 834-8429",,,,
TX,WILLIAMSON,2021-71821,"Single Family Homes",3/9/2021,,186825,2491,"9113 DAISY CUTTER XING",GEORGETOWN,TX,78626,,,CONTRACTOR,,,,,,,,,,,"LENNAR HOMES",,,,,"LENNAR HOMES","13620 FM 620 RD 150",AUSTIN,TX,78717,"(512) 506-4000",http://www.lennar.com/,,,
TX,WILLIAMSON,2021-71822,"Single Family Homes",3/9/2021,,232800,3104,"9101 DAISY CUTTER XING",GEORGETOWN,TX,78626,,,CONTRACTOR,,,,,,,,,,,"LENNAR HOMES",,,,,"LENNAR HOMES","13620 FM 620 RD 150",AUSTIN,TX,78717,"(512) 506-4000",http://www.lennar.com/,,,
TX,WILLIAMSON,2021-71823,"Single Family Homes",3/5/2021,,180744,2658,"201 ARABIAN COLT DR",GEORGETOWN,TX,78626,,,CONTRACTOR,,,,,,,,,,,"PACESETTER HOMES ",,,,,"PACESETTER HOMES ","7940 SHOAL CREEK BLVD STE 200",AUSTIN,TX,78757-7587,"(512) 323-5252",,,,
TX,WILLIAMSON,2021-71826,"Single Family Homes",3/5/2021,,42432,1624,"108 ARABIAN COLT DR",GEORGETOWN,TX,78626,,,CONTRACTOR,,,,,,,,,,,"PACESETTER HOMES ",,,,,"PACESETTER HOMES ","7940 SHOAL CREEK BLVD STE 200",AUSTIN,TX,78757-7587,"(512) 323-5252",,,,
TX,WILLIAMSON,2021-71828,"Single Family Homes",3/24/2021,,93704,1378,"433 ARABIAN COLT DR",GEORGETOWN,TX,78626,,,CONTRACTOR,,,,,,,,,,,"PACESETTER HOMES ",,,,,"PACESETTER HOMES ","7940 SHOAL CREEK BLVD STE 200",AUSTIN,TX,78757-7587,"(512) 323-5252",,,,
TX,WILLIAMSON,2021-71882,"Single Family Homes",3/9/2021,,407990,3306,"226 FAIRWAY RIDGE RD",GEORGETOWN,TX,78626,,,CONTRACTOR,,,,,,,,,,,"PULTE HOMES",,,,,"PULTE HOMES","9401 AMBERGLEN BLVD STE I-150",AUSTIN,TX,78729-1154,"(512) 561-4344",,,,
TX,WILLIAMSON,2021-71883,"Single Family Homes",3/16/2021,,241990,1711,"441 ENGLISH OAK ST",GEORGETOWN,TX,78626,,,CONTRACTOR,,,,,,,,,,,"PULTE HOMES",,,,,"PULTE HOMES","9401 AMBERGLEN BLVD STE I-150",AUSTIN,TX,78729-1154,"(512) 561-4344",,,,
TX,WILLIAMSON,2021-71884,"Single Family Homes",3/16/2021,,273990,2598,"444 ENGLISH OAK ST",GEORGETOWN,TX,78626,,,CONTRACTOR,,,,,,,,,,,"PULTE HOMES",,,,,"PULTE HOMES","9401 AMBERGLEN BLVD STE I-150",AUSTIN,TX,78729-1154,"(512) 561-4344",,,,
TX,WILLIAMSON,2021-71885,"Single Family Homes",3/11/2021,,257990,2050,"120 BLACK ALDER ST",GEORGETOWN,TX,78626,,,CONTRACTOR,,,,,,,,,,,"PULTE HOMES",,,,,"PULTE HOMES","9401 AMBERGLEN BLVD STE I-150",AUSTIN,TX,78729-1154,"(512) 561-4344",,,,
TX,WILLIAMSON,2021-71886,"Single Family Homes",3/22/2021,,246990,1864,"108 BLACK ALDER ST",GEORGETOWN,TX,78666,,,CONTRACTOR,,,,,,,,,,,"PULTE HOMES",,,,,"PULTE HOMES","9401 AMBERGLEN BLVD STE I-150",AUSTIN,TX,78729-1154,"(512) 561-4344",,,,
TX,WILLIAMSON,2021-71889,"Single Family Homes",3/19/2021,,236994,2925,"3616 MERCER RD",GEORGETOWN,TX,78626,,,CONTRACTOR,,,,,,,,,,,"MHI MCGUYER HOMEBUILDERS",,,,,"MHI MCGUYER HOMEBUILDERS","8200 N MO PAC EXPY STE 300",AUSTIN,TX,78759-8844,"(512) 502-2050",,"(512) 388-1836","FRANK MCGUYER",
TX,WILLIAMSON,2021-71894,"Single Family Homes",3/16/2021,,261990,2171,"416 ENGLISH OAK ST",GEORGETOWN,TX,78626,,,CONTRACTOR,,,,,,,,,,,"PULTE HOMES",,,,,"PULTE HOMES","9401 AMBERGLEN BLVD STE I-150",AUSTIN,TX,78729-1154,"(512) 561-4344",,,,
TX,WILLIAMSON,2021-71895,"Single Family Homes",3/9/2021,,215850,2878,"9109 DAISY CUTTER XING",GEORGETOWN,TX,78626,,,CONTRACTOR,,,,,,,,,,,"LENNAR HOMES",,,,,"LENNAR HOMES","13620 FM 620 RD 150",AUSTIN,TX,78717,"(512) 506-4000",http://www.lennar.com/,,,
TX,WILLIAMSON,2021-71896,"Single Family Homes",3/9/2021,,264450,3526,"201 CONCHO BROOK BND",GEORGETOWN,TX,78626,,,CONTRACTOR,,,,,,,,,,,"LENNAR HOMES",,,,,"LENNAR HOMES","13620 FM 620 RD 150",AUSTIN,TX,78717,"(512) 506-4000",http://www.lennar.com/,,,
TX,WILLIAMSON,2021-71897,"Single Family Homes",3/31/2021,,186825,2491,"9200 DAISY CUTTER XING",GEORGETOWN,TX,78626,,,CONTRACTOR,,,,,,,,,,,"LENNAR HOMES",,,,,"LENNAR HOMES","13620 FM 620 RD 150",AUSTIN,TX,78717,"(512) 506-4000",http://www.lennar.com/,,,
TX,WILLIAMSON,2021-71899,"Single Family Homes",3/15/2021,,185674,2159,"106 SWEET AUTUMN DR",GEORGETOWN,TX,78626,,,CONTRACTOR,,,,,,,,,,,"KB HOME",,,,,"KB HOME","10800 PECAN PARK BLVD STE 200",AUSTIN,TX,78750-1249,"(512) 651-8100",,,,
TX,WILLIAMSON,2021-71900,"Single Family Homes",3/9/2021,,434990,4839,"200 COYOTE TRL",GEORGETOWN,TX,78626,,,CONTRACTOR,,,,,,,,,,,"PULTE HOMES",,,,,"PULTE HOMES","9401 AMBERGLEN BLVD STE I-150",AUSTIN,TX,78729-1154,"(512) 561-4344",,,,
TX,WILLIAMSON,2021-71901,"Single Family Homes",3/9/2021,,348990,2914,"204 COYOTE TRL",GEORGETOWN,TX,78626,,,CONTRACTOR,,,,,,,,,,,"PULTE HOMES",,,,,"PULTE HOMES","9401 AMBERGLEN BLVD STE I-150",AUSTIN,TX,78729-1154,"(512) 561-4344",,,,
TX,WILLIAMSON,2021-71902,"Single Family Homes",3/10/2021,,337990,3373,"203 COYOTE TRL",GEORGETOWN,TX,78626,,,CONTRACTOR,,,,,,,,,,,"PULTE HOMES",,,,,"PULTE HOMES","9401 AMBERGLEN BLVD STE I-150",AUSTIN,TX,78729-1154,"(512) 561-4344",,,,
TX,WILLIAMSON,2021-71903,"Single Family Homes",3/10/2021,,348990,3018,"504 WOODEN RAIL LN",GEORGETOWN,TX,78626,,,CONTRACTOR,,,,,,,,,,,"PULTE HOMES",,,,,"PULTE HOMES","9401 AMBERGLEN BLVD STE I-150",AUSTIN,TX,78729-1154,"(512) 561-4344",,,,
TX,WILLIAMSON,2021-71904,"Single Family Homes",3/10/2021,,323990,2304,"506 WOODEN RAIL LN",GEORGETOWN,TX,78626,,,CONTRACTOR,,,,,,,,,,,"PULTE HOMES",,,,,"PULTE HOMES","9401 AMBERGLEN BLVD STE I-150",AUSTIN,TX,78729-1154,"(512) 561-4344",,,,
TX,WILLIAMSON,2021-71905,"Single Family Homes",3/11/2021,,337990,2647,"617 WOODEN RAIL LN",GEORGETOWN,TX,78626,,,CONTRACTOR,,,,,,,,,,,"PULTE HOMES",,,,,"PULTE HOMES","9401 AMBERGLEN BLVD STE I-150",AUSTIN,TX,78729-1154,"(512) 561-4344",,,,
TX,WILLIAMSON,2021-71908,"Single Family Homes",3/15/2021,,304053,2981,"1713 LAKESIDE RANCH RD",GEORGETOWN,TX,78626,,,CONTRACTOR,,,,,,,,,,,"EHT OF TEXAS LP",,,,,"EHT OF TEXAS LP","3520 EXECUTIVE CENTER DR STE 100",AUSTIN,TX,78731-1636,"(757) 287-6394",,,,
TX,WILLIAMSON,2021-71909,"Single Family Homes",3/10/2021,,348990,2941,"621 WOODEN RAIL LN",GEORGETOWN,TX,78626,,,CONTRACTOR,,,,,,,,,,,"PULTE HOMES",,,,,"PULTE HOMES","9401 AMBERGLEN BLVD STE I-150",AUSTIN,TX,78729-1154,"(512) 561-4344",,,,
TX,WILLIAMSON,2021-71910,"Single Family Homes",3/10/2021,,337990,3485,"619 WOODEN RAIL LN",GEORGETOWN,TX,78626,,,CONTRACTOR,,,,,,,,,,,"PULTE HOMES",,,,,"PULTE HOMES","9401 AMBERGLEN BLVD STE I-150",AUSTIN,TX,78729-1154,"(512) 561-4344",,,,
TX,WILLIAMSON,2021-71913,"Single Family Homes",3/10/2021,,321990,2256,"501 GEORGIA LACE TRL",GEORGETOWN,TX,78626,,,CONTRACTOR,,,,,,,,,,,"PULTE HOMES",,,,,"PULTE HOMES","9401 AMBERGLEN BLVD STE I-150",AUSTIN,TX,78729-1154,"(512) 561-4344",,,,
TX,WILLIAMSON,2021-71915,"Single Family Homes",3/11/2021,,124475,1474,"216 GABRIELS BLUFF DR",GEORGETOWN,TX,78626,,,CONTRACTOR,,,,,,,,,,,"LENNAR HOMES",,,,,"LENNAR HOMES","13620 FM 620 RD 150",AUSTIN,TX,78717,"(512) 506-4000",http://www.lennar.com/,,,
TX,WILLIAMSON,2021-71916,"Single Family Homes",3/30/2021,,150540,1874,"220 GABRIELS BLUFF DR",GEORGETOWN,TX,78626,,,CONTRACTOR,,,,,,,,,,,"LENNAR HOMES",,,,,"LENNAR HOMES","13620 FM 620 RD 150",AUSTIN,TX,78717,"(512) 506-4000",http://www.lennar.com/,,,
TX,WILLIAMSON,2021-71918,"Single Family Homes",3/11/2021,,137020,1667,"109 AKELA WAY",GEORGETOWN,TX,78626,,,CONTRACTOR,,,,,,,,,,,"LENNAR HOMES",,,,,"LENNAR HOMES","13620 FM 620 RD 150",AUSTIN,TX,78717,"(512) 506-4000",http://www.lennar.com/,,,
TX,WILLIAMSON,2021-71920,"Single Family Homes",3/11/2021,,124475,1474,"105 AKELA WAY",GEORGETOWN,TX,78626,,,CONTRACTOR,,,,,,,,,,,"LENNAR HOMES",,,,,"LENNAR HOMES","13620 FM 620 RD 150",AUSTIN,TX,78717,"(512) 506-4000",http://www.lennar.com/,,,
TX,WILLIAMSON,2021-71922,"Single Family Homes",3/9/2021,,394000,3155,"221 IVA JUNE LN",GEORGETOWN,TX,78626,,,CONTRACTOR,,,,,,,,,,,"DREES CUSTOM HOMES",,,,,"DREES CUSTOM HOMES","7300 RANCH ROAD 2222 BLDG 2 STE 250",AUSTIN,TX,78730-3204,"(512) 241-7100",http://www.dreeshomes.com,,,
TX,WILLIAMSON,2021-71923,"Single Family Homes",3/19/2021,,245394,3301,"109 INDIAN PAINTBRUSH TRL",GEORGETOWN,TX,78626,,,CONTRACTOR,,,,,,,,,,,"MHI MCGUYER HOMEBUILDERS",,,,,"MHI MCGUYER HOMEBUILDERS","8200 N MO PAC EXPY STE 300",AUSTIN,TX,78759-8844,"(512) 502-2050",,"(512) 388-1836","FRANK MCGUYER",
TX,WILLIAMSON,2021-71924,"Single Family Homes",3/19/2021,,252000,2962,"1405 MOONLIGHT TERRACE DR",GEORGETOWN,TX,78626,,,CONTRACTOR,,,,,,,,,,,"DREES CUSTOM HOMES",,,,,"DREES CUSTOM HOMES","7300 RANCH ROAD 2222 BLDG 2 STE 250",AUSTIN,TX,78730-3204,"(512) 241-7100",http://www.dreeshomes.com,,,
TX,WILLIAMSON,2021-71938,"Single Family Homes",3/11/2021,,348990,2852,"1108 HANGING STAR LN",GEORGETOWN,TX,78626,,,CONTRACTOR,,,,,,,,,,,"PULTE HOMES",,,,,"PULTE HOMES","9401 AMBERGLEN BLVD STE I-150",AUSTIN,TX,78729-1154,"(512) 561-4344",,,,
TX,WILLIAMSON,2021-71939,"Single Family Homes",3/11/2021,,348990,2906,"302 HILLS OF TEXAS TRL",GEORGETOWN,TX,78626,,,CONTRACTOR,,,,,,,,,,,"PULTE HOMES",,,,,"PULTE HOMES","9401 AMBERGLEN BLVD STE I-150",AUSTIN,TX,78729-1154,"(512) 561-4344",,,,
TX,WILLIAMSON,2021-71940,"Single Family Homes",3/11/2021,,337990,2744,"202 COYOTE TRL",GEORGETOWN,TX,78626,,,CONTRACTOR,,,,,,,,,,,"PULTE HOMES",,,,,"PULTE HOMES","9401 AMBERGLEN BLVD STE I-150",AUSTIN,TX,78729-1154,"(512) 561-4344",,,,
TX,WILLIAMSON,2021-71944,"Single Family Homes",3/8/2021,,139950,1866,"901 PINEY CV",GEORGETOWN,TX,78626,,,CONTRACTOR,,,,,,,,,,,"LENNAR HOMES",,,,,"LENNAR HOMES","13620 FM 620 RD 150",AUSTIN,TX,78717,"(512) 506-4000",http://www.lennar.com/,,,
TX,WILLIAMSON,2021-71945,"Single Family Homes",3/10/2021,,188475,2513,"1101 NOKOTA BND",GEORGETOWN,TX,78626,,,CONTRACTOR,,,,,,,,,,,"LENNAR HOMES",,,,,"LENNAR HOMES","13620 FM 620 RD 150",AUSTIN,TX,78717,"(512) 506-4000",http://www.lennar.com/,,,
TX,WILLIAMSON,2021-71948,"Single Family Homes",3/10/2021,,231300,3084,"1013 NOKOTA BND",GEORGETOWN,TX,78626,,,CONTRACTOR,,,,,,,,,,,"LENNAR HOMES",,,,,"LENNAR HOMES","13620 FM 620 RD 150",AUSTIN,TX,78717,"(512) 506-4000",http://www.lennar.com/,,,
TX,WILLIAMSON,2021-71951,"Single Family Homes",3/10/2021,,188475,2513,"1005 NOKOTA BND",GEORGETOWN,TX,78626,,,CONTRACTOR,,,,,,,,,,,"LENNAR HOMES",,,,,"LENNAR HOMES","13620 FM 620 RD 150",AUSTIN,TX,78717,"(512) 506-4000",http://www.lennar.com/,,,
TX,WILLIAMSON,2021-71953,"Single Family Homes",3/11/2021,,188475,2513,"128 KONIK RD",GEORGETOWN,TX,78626,,,CONTRACTOR,,,,,,,,,,,"LENNAR HOMES",,,,,"LENNAR HOMES","13620 FM 620 RD 150",AUSTIN,TX,78717,"(512) 506-4000",http://www.lennar.com/,,,
TX,WILLIAMSON,2021-71955,"Single Family Homes",3/11/2021,,355990,3041,"118 CORN POPPY CV",GEORGETOWN,TX,78626,,,CONTRACTOR,,,,,,,,,,,"PULTE HOMES",,,,,"PULTE HOMES","9401 AMBERGLEN BLVD STE I-150",AUSTIN,TX,78729-1154,"(512) 561-4344",,,,
TX,WILLIAMSON,2021-71956,"Single Family Homes",3/16/2021,,273990,2588,"420 ENGLISH OAK ST",GEORGETOWN,TX,78626,,,CONTRACTOR,,,,,,,,,,,"PULTE HOMES",,,,,"PULTE HOMES","9401 AMBERGLEN BLVD STE I-150",AUSTIN,TX,78729-1154,"(512) 561-4344",,,,
TX,WILLIAMSON,2021-71957,"Single Family Homes",3/11/2021,,327990,2459,"109 WHITE ASTER CT",GEORGETOWN,TX,78626,,,CONTRACTOR,,,,,,,,,,,"PULTE HOMES",,,,,"PULTE HOMES","9401 AMBERGLEN BLVD STE I-150",AUSTIN,TX,78729-1154,"(512) 561-4344",,,,
TX,TRAVIS,"2021-047687 BP","Single Family Homes",4/19/2021,,126900,1692,"15300 GRENADINE BLOOM CV",AUSTIN,TX,78617,,,CONTRACTOR,,,,,,,,,,,"LENNAR HOMES",,,,,"LENNAR HOMES","13620 FM 620 RD 150",AUSTIN,TX,78717,"(512) 506-4000",http://www.lennar.com/,,,
TX,WILLIAMSON,2021-71958,"Single Family Homes",3/22/2021,,186825,2491,"205 CONCHO BROOK BND",GEORGETOWN,TX,78626,,,CONTRACTOR,,,,,,,,,,,"LENNAR HOMES",,,,,"LENNAR HOMES","13620 FM 620 RD 150",AUSTIN,TX,78717,"(512) 506-4000",http://www.lennar.com/,,,
TX,WILLIAMSON,2021-71961,"Single Family Homes",3/16/2021,,241990,1771,"437 ENGLISH OAK ST",GEORGETOWN,TX,78626,,,CONTRACTOR,,,,,,,,,,,"PULTE HOMES",,,,,"PULTE HOMES","9401 AMBERGLEN BLVD STE I-150",AUSTIN,TX,78729-1154,"(512) 561-4344",,,,
TX,TRAVIS,"2021-044471 BP","Single Family Homes",4/19/2021,,139950,1866,"7323 GRENADINE BLOOM BND",AUSTIN,TX,78617,,,CONTRACTOR,,,,,,,,,,,"LENNAR HOMES",,,,,"LENNAR HOMES","13620 FM 620 RD 150",AUSTIN,TX,78717,"(512) 506-4000",http://www.lennar.com/,,,
TX,WILLIAMSON,2021-71962,"Single Family Homes",3/16/2021,,267990,2423,"200 BLACK ALDER ST",GEORGETOWN,TX,78626,,,CONTRACTOR,,,,,,,,,,,"PULTE HOMES",,,,,"PULTE HOMES","9401 AMBERGLEN BLVD STE I-150",AUSTIN,TX,78729-1154,"(512) 561-4344",,,,
TX,TRAVIS,"2021-047966 BP","Single Family Homes",4/19/2021,,139950,1866,"15304 GRENADINE BLOOM CV",AUSTIN,TX,78617,,,CONTRACTOR,,,,,,,,,,,"LENNAR HOMES",,,,,"LENNAR HOMES","13620 FM 620 RD 150",AUSTIN,TX,78717,"(512) 506-4000",http://www.lennar.com/,,,
TX,WILLIAMSON,2021-71963,"Single Family Homes",3/16/2021,,292990,3065,"500 ENGLISH OAK ST",GEORGETOWN,TX,78626,,,CONTRACTOR,,,,,,,,,,,"PULTE HOMES",,,,,"PULTE HOMES","9401 AMBERGLEN BLVD STE I-150",AUSTIN,TX,78729-1154,"(512) 561-4344",,,,
TX,TRAVIS,"2021-054431 BP","Single Family Homes",4/16/2021,,144900,1947,"9610 MORNING IRIS DR",AUSTIN,TX,78626,,,CONTRACTOR,,,,,,,,,,,"PACESETTER HOMES ",,,,,"PACESETTER HOMES ","7940 SHOAL CREEK BLVD STE 200",AUSTIN,TX,78757-7587,"(512) 323-5252",,,,
TX,WILLIAMSON,2021-71964,"Single Family Homes",3/16/2021,,363990,3182,"129 WHITE ASTER CT",GEORGETOWN,TX,78626,,,CONTRACTOR,,,,,,,,,,,"PULTE HOMES",,,,,"PULTE HOMES","9401 AMBERGLEN BLVD STE I-150",AUSTIN,TX,78729-1154,"(512) 561-4344",,,,
TX,TRAVIS,"2021-050960 BP","Single Family Homes",4/19/2021,,146775,1957,"13705 LUBECK DR",AUSTIN,TX,78732,WALTERS,,CONTRACTOR,,,,,,,,,,,"DR HORTON",,,,,"DR HORTON","10700 PECAN PARK BLVD STE 400",AUSTIN,TX,78750-1227,"(512) 345-4663",,,,
TX,TRAVIS,"2021-050842 BP","Single Family Homes",4/19/2021,,146775,1957,"13800 LUBECK DR",AUSTIN,TX,78732,WALTERS,,CONTRACTOR,,,,,,,,,,,"DR HORTON",,,,,"DR HORTON","10700 PECAN PARK BLVD STE 400",AUSTIN,TX,78750-1227,"(512) 345-4663",,,,
TX,TRAVIS,"2021-049609 BP","Single Family Homes",4/19/2021,,146775,1957,"13808 LUBECK DR",AUSTIN,TX,78732,WALTERS,,CONTRACTOR,,,,,,,,,,,"DR HORTON",,,,,"DR HORTON","10700 PECAN PARK BLVD STE 400",AUSTIN,TX,78750-1227,"(512) 345-4663",,,,
TX,TRAVIS,"2021-049393 BP","Single Family Homes",4/19/2021,,146775,1957,"13900 LUBECK DR",AUSTIN,TX,78732,WALTERS,,CONTRACTOR,,,,,,,,,,,"DR HORTON",,,,,"DR HORTON","10700 PECAN PARK BLVD STE 400",AUSTIN,TX,78750-1227,"(512) 345-4663",,,,
TX,WILLIAMSON,2021-71968,"Single Family Homes",3/11/2021,,434990,4857,"224 FAIRWAY RIDGE RD",GEORGETOWN,TX,78626,,,CONTRACTOR,,,,,,,,,,,"PULTE HOMES",,,,,"PULTE HOMES","9401 AMBERGLEN BLVD STE I-150",AUSTIN,TX,78729-1154,"(512) 561-4344",,,,
TX,TRAVIS,"2021-047907 BP","Single Family Homes",4/19/2021,,153900,2052,"15302 GRENADINE BLOOM CV",AUSTIN,TX,78617,,,CONTRACTOR,,,,,,,,,,,"LENNAR HOMES",,,,,"LENNAR HOMES","13620 FM 620 RD 150",AUSTIN,TX,78717,"(512) 506-4000",http://www.lennar.com/,,,
TX,WILLIAMSON,2021-71970,"Single Family Homes",3/11/2021,,337990,2864,"508 WOODEN RAIL LN",GEORGETOWN,TX,78626,,,CONTRACTOR,,,,,,,,,,,"PULTE HOMES",,,,,"PULTE HOMES","9401 AMBERGLEN BLVD STE I-150",AUSTIN,TX,78729-1154,"(512) 561-4344",,,,
TX,WILLIAMSON,2021-71971,"Single Family Homes",3/11/2021,,348990,3166,"600 WOODEN RAIL LN",GEORGETOWN,TX,78626,,,CONTRACTOR,,,,,,,,,,,"PULTE HOMES",,,,,"PULTE HOMES","9401 AMBERGLEN BLVD STE I-150",AUSTIN,TX,78729-1154,"(512) 561-4344",,,,
TX,WILLIAMSON,2021-71972,"Single Family Homes",3/16/2021,,337990,2728,"503 WOODEN RAIL LN",GEORGETOWN,TX,78626,,,CONTRACTOR,,,,,,,,,,,"PULTE HOMES",,,,,"PULTE HOMES","9401 AMBERGLEN BLVD STE I-150",AUSTIN,TX,78729-1154,"(512) 561-4344",,,,
TX,WILLIAMSON,2021-71973,"Single Family Homes",3/16/2021,,348990,3018,"613 WOODEN RAIL LN",GEORGETOWN,TX,78626,,,CONTRACTOR,,,,,,,,,,,"PULTE HOMES",,,,,"PULTE HOMES","9401 AMBERGLEN BLVD STE I-150",AUSTIN,TX,78729-1154,"(512) 561-4344",,,,
TX,TRAVIS,"2021-047928 BP","Single Family Homes",4/19/2021,,153900,1866,"15303 GRENADINE BLOOM CV",AUSTIN,TX,78617,,,CONTRACTOR,,,,,,,,,,,"LENNAR HOMES",,,,,"LENNAR HOMES","13620 FM 620 RD 150",AUSTIN,TX,78717,"(512) 506-4000",http://www.lennar.com/,,,
TX,WILLIAMSON,2021-71975,"Single Family Homes",3/16/2021,,337990,2864,"300 HILLS OF TEXAS TRL",GEORGETOWN,TX,78626,,,CONTRACTOR,,,,,,,,,,,"PULTE HOMES",,,,,"PULTE HOMES","9401 AMBERGLEN BLVD STE I-150",AUSTIN,TX,78729-1154,"(512) 561-4344",,,,
TX,TRAVIS,"2021-051401 BP","Single Family Homes",4/19/2021,,164325,2191,"13616 LUBECK DR",AUSTIN,TX,78732,WALTERS,,CONTRACTOR,,,,,,,,,,,"DR HORTON",,,,,"DR HORTON","10700 PECAN PARK BLVD STE 400",AUSTIN,TX,78750-1227,"(512) 345-4663",,,,
TX,WILLIAMSON,2021-71976,"Single Family Homes",3/30/2021,,232800,3104,"204 CONCHO BROOK BND",GEORGETOWN,TX,78626,,,CONTRACTOR,,,,,,,,,,,"LENNAR HOMES",,,,,"LENNAR HOMES","13620 FM 620 RD 150",AUSTIN,TX,78717,"(512) 506-4000",http://www.lennar.com/,,,
TX,TRAVIS,"2021-049944 BP","Single Family Homes",4/19/2021,,164325,2191,"3029 EGAN DR",AUSTIN,TX,78660,,,CONTRACTOR,,,,,,,,,,,"DR HORTON",,,,,"DR HORTON","10700 PECAN PARK BLVD STE 400",AUSTIN,TX,78750-1227,"(512) 345-4663",,,,
TX,WILLIAMSON,2021-72007,"Single Family Homes",3/16/2021,,288490,2319,"130 WHITE ASTER CT",GEORGETOWN,TX,78626,,,CONTRACTOR,,,,,,,,,,,"PULTE HOMES",,,,,"PULTE HOMES","9401 AMBERGLEN BLVD STE I-150",AUSTIN,TX,78729-1154,"(512) 561-4344",,,,
TX,TRAVIS,"2021-049594 BP","Single Family Homes",4/19/2021,,164325,2191,"13812 LUBECK DR",AUSTIN,TX,78732,WALTERS,,CONTRACTOR,,,,,,,,,,,"DR HORTON",,,,,"DR HORTON","10700 PECAN PARK BLVD STE 400",AUSTIN,TX,78750-1227,"(512) 345-4663",,,,
TX,TRAVIS,"2021-049463 BP","Single Family Homes",4/19/2021,,164325,2191,"13817 LUBECK DR",AUSTIN,TX,78732,WALTERS,,CONTRACTOR,,,,,,,,,,,"DR HORTON",,,,,"DR HORTON","10700 PECAN PARK BLVD STE 400",AUSTIN,TX,78750-1227,"(512) 345-4663",,,,
TX,WILLIAMSON,2021-72014,"Single Family Homes",3/16/2021,,288990,2981,"621 GEORGIA LACE TRL",GEORGETOWN,TX,78626,,,CONTRACTOR,,,,,,,,,,,"PULTE HOMES",,,,,"PULTE HOMES","9401 AMBERGLEN BLVD STE I-150",AUSTIN,TX,78729-1154,"(512) 561-4344",,,,
TX,TRAVIS,"2021-049362 BP","Single Family Homes",4/19/2021,,164325,2191,"13904 LUBECK DR",AUSTIN,TX,78732,WALTERS,,CONTRACTOR,,,,,,,,,,,"DR HORTON",,,,,"DR HORTON","10700 PECAN PARK BLVD STE 400",AUSTIN,TX,78750-1227,"(512) 345-4663",,,,
TX,TRAVIS,"2021-049235 BP","Single Family Homes",4/19/2021,,164325,2191,"13708 LUBECK DR",AUSTIN,TX,78732,WALTERS,,CONTRACTOR,,,,,,,,,,,"DR HORTON",,,,,"DR HORTON","10700 PECAN PARK BLVD STE 400",AUSTIN,TX,78750-1227,"(512) 345-4663",,,,
TX,WILLIAMSON,2021-72028,"Single Family Homes",3/19/2021,,406370,3206,"128 UPLAND DR",GEORGETOWN,TX,78626,,,CONTRACTOR,,,,,,,,,,,"CHESMAR HOMES",,,,,"CHESMAR HOMES","2900 N QUINLAN PARK RD",AUSTIN,TX,78732-6083,"(512) 233-9016",http://chesmar.com,,,
TX,TRAVIS,"2021-050951 BP","Single Family Homes",4/19/2021,,167850,2238,"13704 LUBECK DR",AUSTIN,TX,78732,WALTERS,,CONTRACTOR,,,,,,,,,,,"DR HORTON",,,,,"DR HORTON","10700 PECAN PARK BLVD STE 400",AUSTIN,TX,78750-1227,"(512) 345-4663",,,,
TX,WILLIAMSON,2021-72029,"Single Family Homes",3/19/2021,,399345,3172,"125 HIGH PLAINS DR",GEORGETOWN,TX,78626,,,CONTRACTOR,,,,,,,,,,,"CHESMAR HOMES",,,,,"CHESMAR HOMES","2900 N QUINLAN PARK RD",AUSTIN,TX,78732-6083,"(512) 233-9016",http://chesmar.com,,,
TX,TRAVIS,"2021-051387 BP","Single Family Homes",4/19/2021,,168450,2246,"13620 LUBECK DR",AUSTIN,TX,78732,WALTERS,,CONTRACTOR,,,,,,,,,,,"DR HORTON",,,,,"DR HORTON","10700 PECAN PARK BLVD STE 400",AUSTIN,TX,78750-1227,"(512) 345-4663",,,,
TX,TRAVIS,"2021-050862 BP","Single Family Homes",4/19/2021,,168450,2246,"13712 LUBECK DR",AUSTIN,TX,78732,WALTERS,,CONTRACTOR,,,,,,,,,,,"DR HORTON",,,,,"DR HORTON","10700 PECAN PARK BLVD STE 400",AUSTIN,TX,78750-1227,"(512) 345-4663",,,,
TX,WILLIAMSON,2021-72031,"Single Family Homes",3/16/2021,,273990,2588,"316 ENGLISH OAK ST",GEORGETOWN,TX,78626,,,CONTRACTOR,,,,,,,,,,,"PULTE HOMES",,,,,"PULTE HOMES","9401 AMBERGLEN BLVD STE I-150",AUSTIN,TX,78729-1154,"(512) 561-4344",,,,
TX,TRAVIS,"2021-050810 BP","Single Family Homes",4/19/2021,,168450,2246,"13725 LUBECK DR",AUSTIN,TX,78732,WALTERS,,CONTRACTOR,,,,,,,,,,,"DR HORTON",,,,,"DR HORTON","10700 PECAN PARK BLVD STE 400",AUSTIN,TX,78750-1227,"(512) 345-4663",,,,
TX,TRAVIS,"2021-049481 BP","Single Family Homes",4/19/2021,,168450,2246,"13813 LUBECK DR",AUSTIN,TX,78732,WALTERS,,CONTRACTOR,,,,,,,,,,,"DR HORTON",,,,,"DR HORTON","10700 PECAN PARK BLVD STE 400",AUSTIN,TX,78750-1227,"(512) 345-4663",,,,
TX,WILLIAMSON,2021-72032,"Single Family Homes",3/16/2021,,257990,2065,"421 ENGLISH OAK ST",GEORGETOWN,TX,78626,,,CONTRACTOR,,,,,,,,,,,"PULTE HOMES",,,,,"PULTE HOMES","9401 AMBERGLEN BLVD STE I-150",AUSTIN,TX,78729-1154,"(512) 561-4344",,,,
TX,TRAVIS,"2021-052153 BP","Single Family Homes",4/15/2021,,176543,2820,"16917 ADORO DR",AUSTIN,TX,78653,,,CONTRACTOR,,,,,,,,,,,"GFO HOME",,,,,"GFO HOME","6012 AVIATION DR # 200",PFLUGERVILLE,TX,78660-8960,"(512) 492-8640",https://www.gfohome.com,,,
TX,WILLIAMSON,2021-72033,"Single Family Homes",3/16/2021,,257990,2050,"417 ENGLISH OAK ST",GEORGETOWN,TX,78626,,,CONTRACTOR,,,,,,,,,,,"PULTE HOMES",,,,,"PULTE HOMES","9401 AMBERGLEN BLVD STE I-150",AUSTIN,TX,78729-1154,"(512) 561-4344",,,,
TX,TRAVIS,"2021-049546 BP","Single Family Homes",4/19/2021,,183525,2447,"10609 SEGUIN ST",AUSTIN,TX,78754,,,CONTRACTOR,,,,,,,,,,,"DR HORTON",,,,,"DR HORTON","10700 PECAN PARK BLVD STE 400",AUSTIN,TX,78750-1227,"(512) 345-4663",,,,
TX,WILLIAMSON,2021-72034,"Single Family Homes",3/16/2021,,261990,2171,"401 ENGLISH OAK ST",GEORGETOWN,TX,78626,,,CONTRACTOR,,,,,,,,,,,"PULTE HOMES",,,,,"PULTE HOMES","9401 AMBERGLEN BLVD STE I-150",AUSTIN,TX,78729-1154,"(512) 561-4344",,,,
TX,TRAVIS,"2021-049476 BP","Single Family Homes",4/19/2021,,183525,2447,"10505 SEGUIN ST",AUSTIN,TX,78754,,,CONTRACTOR,,,,,,,,,,,"DR HORTON",,,,,"DR HORTON","10700 PECAN PARK BLVD STE 400",AUSTIN,TX,78750-1227,"(512) 345-4663",,,,
TX,TRAVIS,"2021-051428 BP","Single Family Homes",4/19/2021,,188925,2519,"13613 LUBECK DR",AUSTIN,TX,78732,WALTERS,,CONTRACTOR,,,,,,,,,,,"DR HORTON",,,,,"DR HORTON","10700 PECAN PARK BLVD STE 400",AUSTIN,TX,78750-1227,"(512) 345-4663",,,,
TX,WILLIAMSON,2021-72049,"Single Family Homes",3/19/2021,,382870,2957,"200 UPLAND DR",GEORGETOWN,TX,78626,,,CONTRACTOR,,,,,,,,,,,"CHESMAR HOMES",,,,,"CHESMAR HOMES","2900 N QUINLAN PARK RD",AUSTIN,TX,78732-6083,"(512) 233-9016",http://chesmar.com,,,
TX,TRAVIS,"2021-050979 BP","Single Family Homes",4/19/2021,,188925,2519,"13701 LUBECK DR",AUSTIN,TX,78732,WALTERS,,CONTRACTOR,,,,,,,,,,,"DR HORTON",,,,,"DR HORTON","10700 PECAN PARK BLVD STE 400",AUSTIN,TX,78750-1227,"(512) 345-4663",,,,
TX,WILLIAMSON,2021-72051,"Single Family Homes",3/19/2021,,353365,2522,"216 UPLAND DR",GEORGETOWN,TX,78626,,,CONTRACTOR,,,,,,,,,,,"CHESMAR HOMES",,,,,"CHESMAR HOMES","2900 N QUINLAN PARK RD",AUSTIN,TX,78732-6083,"(512) 233-9016",http://chesmar.com,,,
TX,TRAVIS,"2021-049932 BP","Single Family Homes",4/19/2021,,188925,2519,"3024 EGAN DR",AUSTIN,TX,78660,,,CONTRACTOR,,,,,,,,,,,"DR HORTON",,,,,"DR HORTON","10700 PECAN PARK BLVD STE 400",AUSTIN,TX,78750-1227,"(512) 345-4663",,,,
TX,WILLIAMSON,2021-72092,"Single Family Homes",3/26/2021,,236994,3555,"104 GABRIEL POINT LN",GEORGETOWN,TX,78626,,,CONTRACTOR,,,,,,,,,,,"MHI MCGUYER HOMEBUILDERS",,,,,"MHI MCGUYER HOMEBUILDERS","8200 N MO PAC EXPY STE 300",AUSTIN,TX,78759-8844,"(512) 502-2050",,"(512) 388-1836","FRANK MCGUYER",
TX,WILLIAMSON,2021-72093,"Single Family Homes",3/18/2021,,270990,2242,"802 KITTY HAWK RD",GEORGETOWN,TX,78626,,,CONTRACTOR,,,,,,,,,,,"PULTE HOMES",,,,,"PULTE HOMES","9401 AMBERGLEN BLVD STE I-150",AUSTIN,TX,78729-1154,"(512) 561-4344",,,,
TX,TRAVIS,"2021-055648 BP","Single Family Homes",4/16/2021,,198765,5974,"9820 GRAPEVINE LEAF DR",AUSTIN,TX,78653,,,CONTRACTOR,,,,,,,,,,,"GFO HOME",,,,,"GFO HOME","6012 AVIATION DR # 200",PFLUGERVILLE,TX,78660-8960,"(512) 492-8640",https://www.gfohome.com,,,
TX,TRAVIS,"2021-056652 BP","Single Family Homes",4/19/2021,,204700,2047,"10805 TIMBER BROOK PASS",AUSTIN,TX,78741,DELVALLE,,CONTRACTOR,,,,,,,,,,,"PACESETTER HOMES ",,,,,"PACESETTER HOMES ","7940 SHOAL CREEK BLVD STE 200",AUSTIN,TX,78757-7587,"(512) 323-5252",,,,
TX,WILLIAMSON,2021-72099,"Single Family Homes",3/3/2021,,153900,2052,"308 BUCKNERS ST",GEORGETOWN,TX,78626,,,CONTRACTOR,,,,,,,,,,,"LENNAR HOMES",,,,,"LENNAR HOMES","13620 FM 620 RD 150",AUSTIN,TX,78717,"(512) 506-4000",http://www.lennar.com/,,,
TX,TRAVIS,"2021-050938 BP","Single Family Homes",4/19/2021,,214875,2865,"13700 LUBECK DR",AUSTIN,TX,78732,WALTERS,,CONTRACTOR,,,,,,,,,,,"DR HORTON",,,,,"DR HORTON","10700 PECAN PARK BLVD STE 400",AUSTIN,TX,78750-1227,"(512) 345-4663",,,,
TX,WILLIAMSON,2021-72124,"Single Family Homes",3/2/2021,,126900,1692,"316 BUCKNERS ST",GEORGETOWN,TX,78626,,,CONTRACTOR,,,,,,,,,,,"LENNAR HOMES",,,,,"LENNAR HOMES","13620 FM 620 RD 150",AUSTIN,TX,78717,"(512) 506-4000",http://www.lennar.com/,,,
TX,TRAVIS,"2021-049918 BP","Single Family Homes",4/19/2021,,214875,2865,"14012 ZUHAUSE DR",AUSTIN,TX,78727,WALTERS,,CONTRACTOR,,,,,,,,,,,"DR HORTON",,,,,"DR HORTON","10700 PECAN PARK BLVD STE 400",AUSTIN,TX,78750-1227,"(512) 345-4663",,,,
TX,WILLIAMSON,2021-72126,"Single Family Homes",3/12/2021,,254990,1881,"804 KITTY HAWK RD",GEORGETOWN,TX,78626,,,CONTRACTOR,,,,,,,,,,,"PULTE HOMES",,,,,"PULTE HOMES","9401 AMBERGLEN BLVD STE I-150",AUSTIN,TX,78729-1154,"(512) 561-4344",,,,
TX,TRAVIS,"2021-049551 BP","Single Family Homes",4/19/2021,,214875,2865,"13809 LUBECK DR",AUSTIN,TX,78732,WALTERS,,CONTRACTOR,,,,,,,,,,,"DR HORTON",,,,,"DR HORTON","10700 PECAN PARK BLVD STE 400",AUSTIN,TX,78750-1227,"(512) 345-4663",,,,
TX,WILLIAMSON,2021-72127,"Single Family Homes",3/12/2021,,437990,4125,"301 HILLS OF TEXAS TRL",GEORGETOWN,TX,78626,,,CONTRACTOR,,,,,,,,,,,"PULTE HOMES",,,,,"PULTE HOMES","9401 AMBERGLEN BLVD STE I-150",AUSTIN,TX,78729-1154,"(512) 561-4344",,,,
TX,TRAVIS,"2021-050828 BP","Single Family Homes",4/19/2021,,215100,2868,"13804 LUBECK DR",AUSTIN,TX,78732,WALTERS,,CONTRACTOR,,,,,,,,,,,"DR HORTON",,,,,"DR HORTON","10700 PECAN PARK BLVD STE 400",AUSTIN,TX,78750-1227,"(512) 345-4663",,,,
TX,WILLIAMSON,2021-72128,"Single Family Homes",3/18/2021,,254990,2093,"305 YORKTOWN ST",GEORGETOWN,TX,78626,,,CONTRACTOR,,,,,,,,,,,"PULTE HOMES",,,,,"PULTE HOMES","9401 AMBERGLEN BLVD STE I-150",AUSTIN,TX,78729-1154,"(512) 561-4344",,,,
TX,TRAVIS,"2021-049589 BP","Single Family Homes",4/19/2021,,215100,2868,"13820 LUBECK DR",AUSTIN,TX,78732,WALTERS,,CONTRACTOR,,,,,,,,,,,"DR HORTON",,,,,"DR HORTON","10700 PECAN PARK BLVD STE 400",AUSTIN,TX,78750-1227,"(512) 345-4663",,,,
TX,TRAVIS,"2021-049517 BP","Single Family Homes",4/19/2021,,223350,2978,"10517 SEGUIN ST",AUSTIN,TX,78754,,,CONTRACTOR,,,,,,,,,,,"DR HORTON",,,,,"DR HORTON","10700 PECAN PARK BLVD STE 400",AUSTIN,TX,78750-1227,"(512) 345-4663",,,,
TX,WILLIAMSON,2021-72129,"Single Family Homes",3/12/2021,,274990,2154,"1005 KITTY HAWK RD",GEORGETOWN,TX,78626,,,CONTRACTOR,,,,,,,,,,,"PULTE HOMES",,,,,"PULTE HOMES","9401 AMBERGLEN BLVD STE I-150",AUSTIN,TX,78729-1154,"(512) 561-4344",,,,
TX,TRAVIS,"2021-049572 BP","Single Family Homes",4/19/2021,,223800,2984,"10613 SEGUIN ST",AUSTIN,TX,78754,,,CONTRACTOR,,,,,,,,,,,"DR HORTON",,,,,"DR HORTON","10700 PECAN PARK BLVD STE 400",AUSTIN,TX,78750-1227,"(512) 345-4663",,,,
TX,WILLIAMSON,2021-72132,"Single Family Homes",3/18/2021,,254990,1881,"800 KITTY HAWK RD",GEORGETOWN,TX,78626,,,CONTRACTOR,,,,,,,,,,,"PULTE HOMES",,,,,"PULTE HOMES","9401 AMBERGLEN BLVD STE I-150",AUSTIN,TX,78729-1154,"(512) 561-4344",,,,
TX,WILLIAMSON,2021-72133,"Single Family Homes",3/18/2021,,254990,1885,"301 YORKTOWN ST",GEORGETOWN,TX,78626,,,CONTRACTOR,,,,,,,,,,,"PULTE HOMES",,,,,"PULTE HOMES","9401 AMBERGLEN BLVD STE I-150",AUSTIN,TX,78729-1154,"(512) 561-4344",,,,
TX,WILLIAMSON,2021-72134,"Single Family Homes",3/18/2021,,274990,2069,"304 YORKTOWN ST",GEORGETOWN,TX,78626,,,CONTRACTOR,,,,,,,,,,,"PULTE HOMES",,,,,"PULTE HOMES","9401 AMBERGLEN BLVD STE I-150",AUSTIN,TX,78729-1154,"(512) 561-4344",,,,
TX,TRAVIS,"2021-049432 BP","Single Family Homes",4/19/2021,,230400,3072,"13824 LUBECK DR",AUSTIN,TX,78732,WALTERS,,CONTRACTOR,,,,,,,,,,,"DR HORTON",,,,,"DR HORTON","10700 PECAN PARK BLVD STE 400",AUSTIN,TX,78750-1227,"(512) 345-4663",,,,
TX,WILLIAMSON,2021-72135,"Single Family Homes",3/18/2021,,270990,2242,"409 YORKTOWN ST",GEORGETOWN,TX,78626,,,CONTRACTOR,,,,,,,,,,,"PULTE HOMES",,,,,"PULTE HOMES","9401 AMBERGLEN BLVD STE I-150",AUSTIN,TX,78729-1154,"(512) 561-4344",,,,
TX,TRAVIS,"2021-051099 BP","Single Family Homes",4/19/2021,,231975,3093,"13628 LUBECK DR",AUSTIN,TX,78732,WALTERS,,CONTRACTOR,,,,,,,,,,,"DR HORTON",,,,,"DR HORTON","10700 PECAN PARK BLVD STE 400",AUSTIN,TX,78750-1227,"(512) 345-4663",,,,
TX,WILLIAMSON,2021-72137,"Single Family Homes",3/18/2021,,270990,2245,"1001 KITTY HAWK RD",GEORGETOWN,TX,78626,,,CONTRACTOR,,,,,,,,,,,"PULTE HOMES",,,,,"PULTE HOMES","9401 AMBERGLEN BLVD STE I-150",AUSTIN,TX,78729-1154,"(512) 561-4344",,,,
TX,TRAVIS,"2021-050798 BP","Single Family Homes",4/19/2021,,231975,3093,"13805 LUBECK DR",AUSTIN,TX,78732,WALTERS,,CONTRACTOR,,,,,,,,,,,"DR HORTON",,,,,"DR HORTON","10700 PECAN PARK BLVD STE 400",AUSTIN,TX,78750-1227,"(512) 345-4663",,,,
TX,TRAVIS,"2021-056009 BP","Single Family Homes",4/16/2021,,250000,3121,"711 ORLAND BLVD",AUSTIN,TX,78745,"GREENWOOD FOREST",3,CONTRACTOR,,,,,,,,,,,"VK CONSTRUCTION AND REMODELING",,,,,"VK CONSTRUCTION AND REMODELING","3605 COBALT CV","ROUND ROCK",TX,78681-2330,"(512) 897-3710",,,,
TX,WILLIAMSON,2021-72139,"Single Family Homes",3/26/2021,,274990,2030,"1004 KITTY HAWK RD",GEORGETOWN,TX,78626,,,CONTRACTOR,,,,,,,,,,,"PULTE HOMES",,,,,"PULTE HOMES","9401 AMBERGLEN BLVD STE I-150",AUSTIN,TX,78729-1154,"(512) 561-4344",,,,
TX,WILLIAMSON,2021-72140,"Single Family Homes",3/18/2021,,270990,2013,"1007 KITTY HAWK RD",GEORGETOWN,TX,78626,,,CONTRACTOR,,,,,,,,,,,"PULTE HOMES",,,,,"PULTE HOMES","9401 AMBERGLEN BLVD STE I-150",AUSTIN,TX,78729-1154,"(512) 561-4344",,,,
TX,TRAVIS,"2021-049771 BP","Single Family Homes",4/19/2021,,251175,3349,"10601 SEGUIN ST",AUSTIN,TX,78754,,,CONTRACTOR,,,,,,,,,,,"DR HORTON",,,,,"DR HORTON","10700 PECAN PARK BLVD STE 400",AUSTIN,TX,78750-1227,"(512) 345-4663",,,,
TX,TRAVIS,"2021-043371 BP","Single Family Homes",4/14/2021,,271050,2359,"7607 ELK GROVE PATH",AUSTIN,TX,78653,"BELLINGHAM MEADOWS",9,CONTRACTOR,,,,,,,,,,,"RSI COMMUNITIES",,,,,"RSI COMMUNITIES","810 HESTERS CROSSING RD STE 235","ROUND ROCK",TX,78681-7846,"(512) 953-4100",,,,
TX,WILLIAMSON,2021-72141,"Single Family Homes",3/18/2021,,274990,2149,"1008 KITTY HAWK RD",GEORGETOWN,TX,78626,,,CONTRACTOR,,,,,,,,,,,"PULTE HOMES",,,,,"PULTE HOMES","9401 AMBERGLEN BLVD STE I-150",AUSTIN,TX,78729-1154,"(512) 561-4344",,,,
TX,TRAVIS,"2021-056660 BP","Single Family Homes",4/19/2021,,279400,2794,"10824 BLACKET DR",AUSTIN,TX,78613,DELVALLE,,CONTRACTOR,,,,,,,,,,,"PACESETTER HOMES ",,,,,"PACESETTER HOMES ","7940 SHOAL CREEK BLVD STE 200",AUSTIN,TX,78757-7587,"(512) 323-5252",,,,
TX,TRAVIS,"2021-046040 BP","Single Family Homes",4/16/2021,,290000,2044,"700 FALKLAND TRCE",AUSTIN,TX,78660,CUNNINGHAM,,CONTRACTOR,,,,,,,,,,,"BLACKBURN COMMUNITIES",,,,,"BLACKBURN COMMUNITIES","301 BRUSHY CREEK RD STE 108",PFLUGERVILLE,TX,78613,"(512) 401-3205",https://www.blackburnhomes.com/,,,info@blackburnhomes.com
TX,WILLIAMSON,2021-72142,"Single Family Homes",3/18/2021,,270990,2811,"1009 KITTY HAWK RD",GEORGETOWN,TX,78626,,,CONTRACTOR,,,,,,,,,,,"PULTE HOMES",,,,,"PULTE HOMES","9401 AMBERGLEN BLVD STE I-150",AUSTIN,TX,78729-1154,"(512) 561-4344",,,,
TX,TRAVIS,"2021-046061 BP","Single Family Homes",4/16/2021,,290000,2864,"605 FALKLAND TRCE",AUSTIN,TX,78660,CUNNINGHAM,,CONTRACTOR,,,,,,,,,,,"BLACKBURN COMMUNITIES",,,,,"BLACKBURN COMMUNITIES","301 BRUSHY CREEK RD STE 108",PFLUGERVILLE,TX,78613,"(512) 401-3205",https://www.blackburnhomes.com/,,,info@blackburnhomes.com
TX,WILLIAMSON,2021-72143,"Single Family Homes",3/18/2021,,270990,2013,"1002 KITTY HAWK RD",GEORGETOWN,TX,78626,,,CONTRACTOR,,,,,,,,,,,"PULTE HOMES",,,,,"PULTE HOMES","9401 AMBERGLEN BLVD STE I-150",AUSTIN,TX,78729-1154,"(512) 561-4344",,,,
TX,TRAVIS,"2021-049043 BP","Single Family Homes",4/16/2021,,290000,2864,"713 FALKLAND TRCE",AUSTIN,TX,78660,CUNNINGHAM,,CONTRACTOR,,,,,,,,,,,"BLACKBURN COMMUNITIES",,,,,"BLACKBURN COMMUNITIES","301 BRUSHY CREEK RD STE 108",PFLUGERVILLE,TX,78613,"(512) 401-3205",https://www.blackburnhomes.com/,,,info@blackburnhomes.com
TX,WILLIAMSON,2021-72172,"Single Family Homes",3/24/2021,,487000,4310,"1201 MOONLIGHT TERRACE DR",GEORGETOWN,TX,78626,,,CONTRACTOR,,,,,,,,,,,"DREES CUSTOM HOMES",,,,,"DREES CUSTOM HOMES","7300 RANCH ROAD 2222 BLDG 2 STE 250",AUSTIN,TX,78730-3204,"(512) 241-7100",http://www.dreeshomes.com,,,
TX,TRAVIS,"2021-050666 BP","Single Family Homes",4/16/2021,,290000,3400,"837 FALKLAND TRCE",AUSTIN,TX,78660,CUNNINGHAM,,CONTRACTOR,,,,,,,,,,,"BLACKBURN COMMUNITIES",,,,,"BLACKBURN COMMUNITIES","301 BRUSHY CREEK RD STE 108",PFLUGERVILLE,TX,78613,"(512) 401-3205",https://www.blackburnhomes.com/,,,info@blackburnhomes.com
TX,WILLIAMSON,2021-72186,"Single Family Homes",3/22/2021,,325990,2483,"501 WOODEN RAIL LN",GEORGETOWN,TX,78626,,,CONTRACTOR,,,,,,,,,,,"PULTE HOMES",,,,,"PULTE HOMES","9401 AMBERGLEN BLVD STE I-150",AUSTIN,TX,78729-1154,"(512) 561-4344",,,,
TX,TRAVIS,"2021-054425 BP","Single Family Homes",4/15/2021,,303012,2658,"9612 GRAPEVINE LEAF DR",AUSTIN,TX,78653,,,CONTRACTOR,,,,,,,,,,,"BUFFINGTON TEXAS CLASSIC HOMES",,,,,"BUFFINGTON TEXAS CLASSIC HOMES","8601 RANCH ROAD 2222 PARK CENTRE BLDG STE 150",AUSTIN,TX,78730,"(512) 579-4800",,,,
TX,WILLIAMSON,2021-72189,"Single Family Homes",3/16/2021,,296990,3143,"436 ENGLISH OAK ST",GEORGETOWN,TX,78626,,,CONTRACTOR,,,,,,,,,,,"PULTE HOMES",,,,,"PULTE HOMES","9401 AMBERGLEN BLVD STE I-150",AUSTIN,TX,78729-1154,"(512) 561-4344",,,,
TX,WILLIAMSON,2021-72191,"Single Family Homes",3/19/2021,,239394,1959,"212 MADDOX DR",GEORGETOWN,TX,78626,,,CONTRACTOR,,,,,,,,,,,"MHI MCGUYER HOMEBUILDERS",,,,,"MHI MCGUYER HOMEBUILDERS","8200 N MO PAC EXPY STE 300",AUSTIN,TX,78759-8844,"(512) 502-2050",,"(512) 388-1836","FRANK MCGUYER",
TX,WILLIAMSON,2021-72264,"Single Family Homes",3/11/2021,,296990,3163,"440 ENGLISH OAK ST",GEORGETOWN,TX,78626,,,CONTRACTOR,,,,,,,,,,,"PULTE HOMES",,,,,"PULTE HOMES","9401 AMBERGLEN BLVD STE I-150",AUSTIN,TX,78729-1154,"(512) 561-4344",,,,
TX,WILLIAMSON,2021-72266,"Single Family Homes",3/12/2021,,580000,2950,"210 SHELF ROCK RD",GEORGETOWN,TX,78626,,,CONTRACTOR,,,,,,,,,,,"VALE BUILDING GROUP ",,,,,"VALE BUILDING GROUP ","5900 BOXELDER TRAIL ",KILLEEN,TX,76542,"(254) 319-0545",,,,
TX,WILLIAMSON,2021-72267,"Single Family Homes",3/12/2021,,414840,3457,"2112 PRAIRIE OAKS DR",GEORGETOWN,TX,78626,,,CONTRACTOR,,,,,,,,,,,"MERITAGE HOMES",,,,,"MERITAGE HOMES","8920 BUSINESS PARK DR STE 250",AUSTIN,TX,78759-7622,"(512) 610-4800",,,,
TX,WILLIAMSON,2021-72268,"Single Family Homes",3/16/2021,,449880,3749,"2208 PRAIRIE OAKS DR",GEORGETOWN,TX,78626,,,CONTRACTOR,,,,,,,,,,,"MERITAGE HOMES",,,,,"MERITAGE HOMES","8920 BUSINESS PARK DR STE 250",AUSTIN,TX,78759-7622,"(512) 610-4800",,,,
TX,WILLIAMSON,2021-72269,"Single Family Homes",3/22/2021,,274990,2115,"808 KITTY HAWK RD",GEORGETOWN,TX,78626,,,CONTRACTOR,,,,,,,,,,,"PULTE HOMES",,,,,"PULTE HOMES","9401 AMBERGLEN BLVD STE I-150",AUSTIN,TX,78729-1154,"(512) 561-4344",,,,
TX,WILLIAMSON,2021-72270,"Single Family Homes",3/25/2021,,398093,3238,"124 SAIL WIND WAY",GEORGETOWN,TX,78626,,,CONTRACTOR,,,,,,,,,,,"EHT OF TEXAS LP",,,,,"EHT OF TEXAS LP","3520 EXECUTIVE CENTER DR STE 100",AUSTIN,TX,78731-1636,"(757) 287-6394",,,,
TX,WILLIAMSON,2021-72271,"Single Family Homes",3/22/2021,,274990,2069,"816 KITTY HAWK RD",GEORGETOWN,TX,78626,,,CONTRACTOR,,,,,,,,,,,"PULTE HOMES",,,,,"PULTE HOMES","9401 AMBERGLEN BLVD STE I-150",AUSTIN,TX,78729-1154,"(512) 561-4344",,,,
TX,WILLIAMSON,2021-72272,"Single Family Homes",3/22/2021,,270990,2279,"416 YORKTOWN ST",GEORGETOWN,TX,78626,,,CONTRACTOR,,,,,,,,,,,"PULTE HOMES",,,,,"PULTE HOMES","9401 AMBERGLEN BLVD STE I-150",AUSTIN,TX,78729-1154,"(512) 561-4344",,,,
TX,WILLIAMSON,2021-72273,"Single Family Homes",3/22/2021,,274990,2149,"1011 KITTY HAWK RD",GEORGETOWN,TX,78626,,,CONTRACTOR,,,,,,,,,,,"PULTE HOMES",,,,,"PULTE HOMES","9401 AMBERGLEN BLVD STE I-150",AUSTIN,TX,78729-1154,"(512) 561-4344",,,,
TX,WILLIAMSON,2021-72274,"Single Family Homes",3/16/2021,,408960,3408,"1121 HIGHWATER DR",GEORGETOWN,TX,78626,,,CONTRACTOR,,,,,,,,,,,"MERITAGE HOMES",,,,,"MERITAGE HOMES","8920 BUSINESS PARK DR STE 250",AUSTIN,TX,78759-7622,"(512) 610-4800",,,,
TX,WILLIAMSON,2021-72276,"Single Family Homes",3/22/2021,,254990,2067,"303 YORKTOWN ST",GEORGETOWN,TX,78626,,,CONTRACTOR,,,,,,,,,,,"PULTE HOMES",,,,,"PULTE HOMES","9401 AMBERGLEN BLVD STE I-150",AUSTIN,TX,78729-1154,"(512) 561-4344",,,,
TX,TRAVIS,"2021-054417 BP","Single Family Homes",4/15/2021,,360810,3165,"9600 ELOQUENCE DR",AUSTIN,TX,78653,,,CONTRACTOR,,,,,,,,,,,"BUFFINGTON TEXAS CLASSIC HOMES",,,,,"BUFFINGTON TEXAS CLASSIC HOMES","8601 RANCH ROAD 2222 PARK CENTRE BLDG STE 150",AUSTIN,TX,78730,"(512) 579-4800",,,,
TX,WILLIAMSON,2021-72305,"Single Family Homes",3/15/2021,,370810,2944,"204 RED GRANITE RD",GEORGETOWN,TX,78626,,,CONTRACTOR,,,,,,,,,,,"EHT OF TEXAS LP",,,,,"EHT OF TEXAS LP","3520 EXECUTIVE CENTER DR STE 100",AUSTIN,TX,78731-1636,"(757) 287-6394",,,,
TX,WILLIAMSON,2021-72306,"Single Family Homes",3/22/2021,,254990,1883,"1003 KITTY HAWK RD",GEORGETOWN,TX,78626,,,CONTRACTOR,,,,,,,,,,,"PULTE HOMES",,,,,"PULTE HOMES","9401 AMBERGLEN BLVD STE I-150",AUSTIN,TX,78729-1154,"(512) 561-4344",,,,
TX,WILLIAMSON,2021-72307,"Single Family Homes",3/26/2021,,305394,3392,"913 NORTH FORK TRL",GEORGETOWN,TX,78626,,,CONTRACTOR,,,,,,,,,,,"MHI MCGUYER HOMEBUILDERS",,,,,"MHI MCGUYER HOMEBUILDERS","8200 N MO PAC EXPY STE 300",AUSTIN,TX,78759-8844,"(512) 502-2050",,"(512) 388-1836","FRANK MCGUYER",
TX,WILLIAMSON,2021-72310,"Single Family Homes",3/30/2021,,422604,4914,"113 STATELY OAK DR",GEORGETOWN,TX,78626,,,CONTRACTOR,,,,,,,,,,,"GEHAN HOMES",,,,,"GEHAN HOMES","3815 S CAPITAL OF TEXAS HWY STE 275",AUSTIN,TX,78704-6652,"(512) 330-9366",http://www.gehanhomes.com,,"JANET PHILLIPS",
TX,WILLIAMSON,2021-72318,"Single Family Homes",3/16/2021,,350520,2921,"209 LORENA LN",GEORGETOWN,TX,78626,,,CONTRACTOR,,,,,,,,,,,"MERITAGE HOMES",,,,,"MERITAGE HOMES","8920 BUSINESS PARK DR STE 250",AUSTIN,TX,78759-7622,"(512) 610-4800",,,,
TX,WILLIAMSON,2021-72319,"Single Family Homes",3/16/2021,,411840,3432,"217 LORENA LN",GEORGETOWN,TX,78626,,,CONTRACTOR,,,,,,,,,,,"MERITAGE HOMES",,,,,"MERITAGE HOMES","8920 BUSINESS PARK DR STE 250",AUSTIN,TX,78759-7622,"(512) 610-4800",,,,
TX,WILLIAMSON,2021-72321,"Single Family Homes",3/30/2021,,290990,2990,"102 GEORGIA LACE TRL",GEORGETOWN,TX,78626,,,CONTRACTOR,,,,,,,,,,,"PULTE HOMES",,,,,"PULTE HOMES","9401 AMBERGLEN BLVD STE I-150",AUSTIN,TX,78729-1154,"(512) 561-4344",,,,
TX,WILLIAMSON,2021-72325,"Single Family Homes",3/19/2021,,378945,2783,"116 UPLAND DR",GEORGETOWN,TX,78626,,,CONTRACTOR,,,,,,,,,,,"CHESMAR HOMES",,,,,"CHESMAR HOMES","2900 N QUINLAN PARK RD",AUSTIN,TX,78732-6083,"(512) 233-9016",http://chesmar.com,,,
TX,WILLIAMSON,2021-72327,"Single Family Homes",3/19/2021,,417970,2964,"112 HIGH PLAINS DR",GEORGETOWN,TX,78626,,,CONTRACTOR,,,,,,,,,,,"CHESMAR HOMES",,,,,"CHESMAR HOMES","2900 N QUINLAN PARK RD",AUSTIN,TX,78732-6083,"(512) 233-9016",http://chesmar.com,,,
TX,WILLIAMSON,2021-72329,"Single Family Homes",3/19/2021,,427665,3206,"104 HIGH PLAINS DR",GEORGETOWN,TX,78626,,,CONTRACTOR,,,,,,,,,,,"CHESMAR HOMES",,,,,"CHESMAR HOMES","2900 N QUINLAN PARK RD",AUSTIN,TX,78732-6083,"(512) 233-9016",http://chesmar.com,,,
TX,WILLIAMSON,2021-72331,"Single Family Homes",3/22/2021,,274990,2149,"403 YORKTOWN ST",GEORGETOWN,TX,78626,,,CONTRACTOR,,,,,,,,,,,"PULTE HOMES",,,,,"PULTE HOMES","9401 AMBERGLEN BLVD STE I-150",AUSTIN,TX,78729-1154,"(512) 561-4344",,,,
TX,WILLIAMSON,2021-72332,"Single Family Homes",3/22/2021,,274990,2203,"912 KITTY HAWK RD",GEORGETOWN,TX,78626,,,CONTRACTOR,,,,,,,,,,,"PULTE HOMES",,,,,"PULTE HOMES","9401 AMBERGLEN BLVD STE I-150",AUSTIN,TX,78729-1154,"(512) 561-4344",,,,
TX,TRAVIS,"2021-054396 BP","Single Family Homes",4/14/2021,,475023,3511,"800 N CAPITAL OF TEXAS HWY UNIT 6608",AUSTIN,TX,78746,"ROB ROY",1,CONTRACTOR,,,,,,,,,,,"LEGACY DCS",,,,,"LEGACY DCS","205 WILD BASIN ROAD SOUTH, BLDG",AUSTIN,TX,78746,"(512) 726-0500",https://legacydcs.com/,"(512) 726-0527",,info@legacydcs.com
TX,TRAVIS,"2021-054619 BP","Single Family Homes",4/19/2021,,582283,3416,"800 N CAPITAL OF TEXAS HWY UNIT 6606",AUSTIN,TX,78746,"ROB ROY",1,CONTRACTOR,,,,,,,,,,,"LEGACY DCS",,,,,"LEGACY DCS","205 WILD BASIN ROAD SOUTH, BLDG",AUSTIN,TX,78746,"(512) 726-0500",https://legacydcs.com/,"(512) 726-0527",,info@legacydcs.com
TX,TRAVIS,"2021-047982 BP","Single Family Homes",4/15/2021,,683000,3082,"4500 PROGRESS ST",AUSTIN,TX,78741,SPEAR,,CONTRACTOR,,,,,,,,,,,"MILESTONE COMMUNITY BUILDERS",,,,,"MILESTONE COMMUNITY BUILDERS","9111 JOLLYVILLE RD STE 111",AUSTIN,TX,78759-7406,"(512) 686-4986",http://www.mymilestone.com/,,,
TX,TRAVIS,"2021-047983 BP","Single Family Homes",4/15/2021,,683000,2862,"4502 PROGRESS ST",AUSTIN,TX,78741,SPEAR,,CONTRACTOR,,,,,,,,,,,"MILESTONE COMMUNITY BUILDERS",,,,,"MILESTONE COMMUNITY BUILDERS","9111 JOLLYVILLE RD STE 111",AUSTIN,TX,78759-7406,"(512) 686-4986",http://www.mymilestone.com/,,,
TX,TRAVIS,"2021-047984 BP","Single Family Homes",4/15/2021,,683000,2863,"4504 PROGRESS ST",AUSTIN,TX,78741,SPEAR,,CONTRACTOR,,,,,,,,,,,"MILESTONE COMMUNITY BUILDERS",,,,,"MILESTONE COMMUNITY BUILDERS","9111 JOLLYVILLE RD STE 111",AUSTIN,TX,78759-7406,"(512) 686-4986",http://www.mymilestone.com/,,,
TX,TRAVIS,"2021-047985 BP","Single Family Homes",4/15/2021,,683000,2862,"4506 PROGRESS ST",AUSTIN,TX,78741,SPEAR,,CONTRACTOR,,,,,,,,,,,"MILESTONE COMMUNITY BUILDERS",,,,,"MILESTONE COMMUNITY BUILDERS","9111 JOLLYVILLE RD STE 111",AUSTIN,TX,78759-7406,"(512) 686-4986",http://www.mymilestone.com/,,,
TX,TRAVIS,"2021-047986 BP","Single Family Homes",4/15/2021,,683000,2565,"4508 PROGRESS ST",AUSTIN,TX,78741,SPEAR,,CONTRACTOR,,,,,,,,,,,"MILESTONE COMMUNITY BUILDERS",,,,,"MILESTONE COMMUNITY BUILDERS","9111 JOLLYVILLE RD STE 111",AUSTIN,TX,78759-7406,"(512) 686-4986",http://www.mymilestone.com/,,,
TX,TRAVIS,"2021-055635 BP","Single Family Homes",4/16/2021,,920990,5559,"16300 HORSE TRAP LN",AUSTIN,TX,78717,"HERITAGE OAKS AT PEARSON RANCH",,CONTRACTOR,,,,,,,,,,,"PULTE HOMES",,,,,"PULTE HOMES","9401 AMBERGLEN BLVD STE I-150",AUSTIN,TX,78729-1154,"(512) 561-4344",,,,
TX,TRAVIS,"2021-054652 BP","Single Family Homes",4/16/2021,,2500000,11851,"411 LAKE CLIFF TRL",AUSTIN,TX,78746,"STRATFORD HILLS",8,CONTRACTOR,,,,,,,,,,,"DALGLEISH CONSTRUCTION",,,,,"DALGLEISH CONSTRUCTION","4019 SPICEWOOD SPRINGS RD",AUSTIN,TX,78759-8764,"(512) 346-8554",http://www.dalgleish.net/,"(512) 346-8667",,
TX,TRAVIS,"2021-043390 BP","Single Family Homes",4/14/2021,,3445500,2822,"7500 ELK GROVE PATH",AUSTIN,TX,78653,"BELLINGHAM MEADOWS",23,CONTRACTOR,,,,,,,,,,,"RSI COMMUNITIES",,,,,"RSI COMMUNITIES","810 HESTERS CROSSING RD STE 235","ROUND ROCK",TX,78681-7846,"(512) 953-4100",,,,
TX,WILLIAMSON,2020-30043,"Warehouse & Manufacturing",3/31/2021,,1500000,25000,"1641 SCOTTSDALE DR","CEDAR PARK",TX,78641,,,CONTRACTOR,,,,,,,,,,,"CADENCE MCSHANE CONSTRUCTION",,,,,"CADENCE MCSHANE CONSTRUCTION","1221 S MO PAC EXPY STE 250",AUSTIN,TX,78746-7627,"(512) 328-1411",http://cadencemcshane.com,"(512) 328-1432","Srinath Pai Kasturi",skasturi@cadencemcshane.com
TX,HAYS,2021-34610,"Warehouse & Manufacturing",3/30/2021,,112006,,"1108 N IH 35","SAN MARCOS",TX,78666,,,CONTRACTOR,,,,,,,,,,,"GERLOFF COMPANY ",,,,,"GERLOFF COMPANY ","3709 PROMONTORY POINT DR STE 129",AUSTIN,TX,78744-1139,"(512) 443-8822",,"(512) 443-8877",,construction@gerloffinc.com
TX,WILLIAMSON,2020-70640,"Warehouse & Manufacturing",3/4/2021,,8000000,141254,"108 BOSELLI WAY",GEORGETOWN,TX,78626,,,"MERRIMAN ANDERSON ARCHITECTS","108 BOSELLI WAY",GEORGETOWN,TX,78626,,Applicant,,,,,"NOVAK COMMERCIAL CONSTRUCTION",,,,,"NOVAK COMMERCIAL CONSTRUCTION","204 ADAMS",GEORGETOWN,TX,78628-3680,"(512) 947-4703",,,,
TX,TRAVIS,"2021-054449 BP","Warehouse & Manufacturing",4/15/2021,Addition,45000,2007,"4323 S CONGRESS AVE",AUSTIN,TX,78745,"DRAKE WILLIAM",,CONTRACTOR,,,,,,,,,,,"MC AQUATIC CONSTRUCTION",,,,,"MC AQUATIC CONSTRUCTION","208 WILDERNESS TRL",GEORGETOWN,TX,78633-2112,"(512) 775-5449",,,,
