state,county,permno,ptype,pdate,pdescription,jvalue,jsqfeet,jaddr,jcity,jstate,jzip,jsubdiv,jlotno,aname,aaddr,acity,astate,azip,aphone,atype,aurl,afax,aprimarycontact,aemail,bldcode,units,bldgs,ctype,legal,contractor,caddress,ccity,cstate,czip,cphone,curl,cfax,cprimarycontact,cemail
TX,TRAVIS,"2020-025359 BP","Duplex, Triplex, & Fourplex",4/30/2021,,375000,4798,"907 E 44TH ST",AUSTIN,TX,78751,"SPECKELS & STAEHELY",4,CONTRACTOR,,,,,,,,,,,"REECE MCIVER CONSTRUCTION",,,,,"REECE MCIVER CONSTRUCTION","5766 BALCONES DR STE 102",AUSTIN,TX,78731-4201,"(325) 636-3605",,,,
TX,TRAVIS,"2021-060293 BP","Duplex, Triplex, & Fourplex",5/3/2021,,654434,7115,"4000 DILIGENCE DR",AUSTIN,TX,78731,,,CONTRACTOR,,,,,,,,,,,"MILESTONE COMMUNITY BUILDERS",,,,,"MILESTONE COMMUNITY BUILDERS","9111 JOLLYVILLE RD STE 111",AUSTIN,TX,78759-7406,"(512) 686-4986",http://www.mymilestone.com/,,,
TX,WILLIAMSON,2020-29260,"Multi Family Apartments & Condos",4/28/2021,,36000000,327784,"1101 HALSEY DR",LEANDER,TX,78641,,,CONTRACTOR,,,,,,,,,,,DUKE,,,,,DUKE,"13740 MIDWAY RD STE 804",DALLAS,TX,75244-4352,"(972) 385-1676",,,,
TX,WILLIAMSON,2020-27956,"Multi Family Apartments & Condos",3/31/2021,,400000,6190,"2213 LOCAL REBEL LOOP",LEANDER,TX,78641,,,CONTRACTOR,,,,,,,,,,,"PROMINENCE HOMES",,,,,"PROMINENCE HOMES","1120 CAPITAL OF TEXAS HWY",AUSTIN,TX,78746,"(512) 565-9395",http://prominencehomes.co/,,,
TX,TRAVIS,"2021-061026 BP","Multi Family Apartments & Condos",4/29/2021,,1451820,15998,"4901 SPRINGDALE RD",AUSTIN,TX,78723,,,CONTRACTOR,,,,,,,,,,,"LEGACY MCS",,,,,"LEGACY MCS","205 WILD BASIN RD BLDG 1","WEST LAKE HILLS",TX,78746-3341,"(512) 726-0500",https://www.legacymcs.com/,"(512) 726-0527",,andy@legacymcs.com
TX,TRAVIS,"2021-063968 BP","Multi Family Apartments & Condos",4/29/2021,,19200000,48193,"13649 RUTLEDGE SPUR BLDG 1",AUSTIN,TX,78717,,,CONTRACTOR,,,,,,,,,,,"BARTLETT COCKE CONSTRUCTION",,,,,"BARTLETT COCKE CONSTRUCTION","7901 E RIVERSIDE DR # 2-100",AUSTIN,TX,78744-1661,"(512) 326-4223",http://bartlettcocke.com/,,,
TX,TRAVIS,"2021-063969 BP","Multi Family Apartments & Condos",4/29/2021,,19200000,40316,"13649 RUTLEDGE SPUR BLDG 2",AUSTIN,TX,78717,,,CONTRACTOR,,,,,,,,,,,"BARTLETT COCKE CONSTRUCTION",,,,,"BARTLETT COCKE CONSTRUCTION","7901 E RIVERSIDE DR # 2-100",AUSTIN,TX,78744-1661,"(512) 326-4223",http://bartlettcocke.com/,,,
TX,TRAVIS,"2021-063970 BP","Multi Family Apartments & Condos",4/29/2021,,19200000,49452,"13649 RUTLEDGE SPUR BLDG 3",AUSTIN,TX,78717,,,CONTRACTOR,,,,,,,,,,,"BARTLETT COCKE CONSTRUCTION",,,,,"BARTLETT COCKE CONSTRUCTION","7901 E RIVERSIDE DR # 2-100",AUSTIN,TX,78744-1661,"(512) 326-4223",http://bartlettcocke.com/,,,
TX,TRAVIS,"2021-062898 BP","Multi Family Apartments & Condos",4/28/2021,,209238,2433,"909 PITTSBURGH DR",AUSTIN,TX,78752,VARCINAS,,CONTRACTOR,,,,,,,,,,,"M/I HOMES",,,,,"M/I HOMES","6801 N CAPITAL OF TEXAS HWY BLDG 2 STE 100",AUSTIN,TX,78731-1780,"(512) 770-8500",,,,
TX,TRAVIS,"2021-062919 BP","Multi Family Apartments & Condos",4/28/2021,,252152,2932,"12706 BLOOMINGTON DR",AUSTIN,TX,78652,VARCINAS,,CONTRACTOR,,,,,,,,,,,"M/I HOMES",,,,,"M/I HOMES","6801 N CAPITAL OF TEXAS HWY BLDG 2 STE 100",AUSTIN,TX,78731-1780,"(512) 770-8500",,,,
TX,TRAVIS,"2021-062745 BP","Multi Family Apartments & Condos",4/28/2021,,253990,2305,"5300 DIMESKY LN",AUSTIN,TX,78723,TANNEHILL,,CONTRACTOR,,,,,,,,,,,"RSI COMMUNITIES",,,,,"RSI COMMUNITIES","810 HESTERS CROSSING RD STE 235","ROUND ROCK",TX,78681-7846,"(512) 953-4100",,,,
TX,TRAVIS,"2021-062462 BP","Multi Family Apartments & Condos",4/28/2021,,258990,2403,"5203 JASON DR",AUSTIN,TX,78723,TANNEHILL,,CONTRACTOR,,,,,,,,,,,"RSI COMMUNITIES",,,,,"RSI COMMUNITIES","810 HESTERS CROSSING RD STE 235","ROUND ROCK",TX,78681-7846,"(512) 953-4100",,,,
TX,TRAVIS,"2021-062757 BP","Multi Family Apartments & Condos",4/28/2021,,268990,2316,"5304 DIMESKY LN",AUSTIN,TX,78723,TANNEHILL,,CONTRACTOR,,,,,,,,,,,"RSI COMMUNITIES",,,,,"RSI COMMUNITIES","810 HESTERS CROSSING RD STE 235","ROUND ROCK",TX,78681-7846,"(512) 953-4100",,,,
TX,TRAVIS,"2021-062461 BP","Multi Family Apartments & Condos",4/28/2021,,268990,2312,"5201 JASON DR",AUSTIN,TX,78723,TANNEHILL,,CONTRACTOR,,,,,,,,,,,"RSI COMMUNITIES",,,,,"RSI COMMUNITIES","810 HESTERS CROSSING RD STE 235","ROUND ROCK",TX,78681-7846,"(512) 953-4100",,,,
TX,TRAVIS,"2021-059178 BP","Multi Family Apartments & Condos",4/28/2021,,338250,2735,"5300 JASON DR",AUSTIN,TX,78723,TANNEHILL,,CONTRACTOR,,,,,,,,,,,"RSI COMMUNITIES",,,,,"RSI COMMUNITIES","810 HESTERS CROSSING RD STE 235","ROUND ROCK",TX,78681-7846,"(512) 953-4100",,,,
TX,TRAVIS,"2021-062738 BP","Multi Family Apartments & Condos",4/28/2021,,434990,2693,"5407 DIMESKY LN",AUSTIN,TX,78723,TANNEHILL,,CONTRACTOR,,,,,,,,,,,"RSI COMMUNITIES",,,,,"RSI COMMUNITIES","810 HESTERS CROSSING RD STE 235","ROUND ROCK",TX,78681-7846,"(512) 953-4100",,,,
TX,TRAVIS,"2021-064740 BP","Multi Family Renovations & Additions",4/30/2021,Addition,40000,557,"12001 VISTA PARKE DR",AUSTIN,TX,78726,,,CONTRACTOR,,,,,,,,,,,"ASH CREEK HOMES",,,,,"ASH CREEK HOMES","408 RINGTAIL STREAM DR",AUSTIN,TX,78738-7099,"(512) 328-2122",,,,
TX,TRAVIS,"2021-062732 BP","Multi Family Renovations & Additions",4/29/2021,Addition,48000,1084,"1155 BARTON SPRINGS RD",AUSTIN,TX,78704,MACKEDRICKS,,CONTRACTOR,,,,,,,,,,,"FUN N SUN POOLS",,,,,"FUN N SUN POOLS","6004 TECHNI CENTER DR STE 3-104",AUSTIN,TX,78721-2350,"(512) 264-5533",,,,
TX,TRAVIS,"2021-063972 BP","Multi Family Renovations & Additions",4/29/2021,Addition,19200000,672,"13649 RUTLEDGE SPUR BLDG GAZEBO",AUSTIN,TX,78717,,,CONTRACTOR,,,,,,,,,,,"BARTLETT COCKE CONSTRUCTION",,,,,"BARTLETT COCKE CONSTRUCTION","7901 E RIVERSIDE DR # 2-100",AUSTIN,TX,78744-1661,"(512) 326-4223",http://bartlettcocke.com/,,,
TX,TRAVIS,"2021-063973 BP","Multi Family Renovations & Additions",4/29/2021,Addition,19200000,368,"13649 RUTLEDGE SPUR BLDG BIKE1",AUSTIN,TX,78717,,,CONTRACTOR,,,,,,,,,,,"BARTLETT COCKE CONSTRUCTION",,,,,"BARTLETT COCKE CONSTRUCTION","7901 E RIVERSIDE DR # 2-100",AUSTIN,TX,78744-1661,"(512) 326-4223",http://bartlettcocke.com/,,,
TX,TRAVIS,"2021-063974 BP","Multi Family Renovations & Additions",4/29/2021,Addition,19200000,175,"13649 RUTLEDGE SPUR BLDG BIKE2",AUSTIN,TX,78717,,,CONTRACTOR,,,,,,,,,,,"BARTLETT COCKE CONSTRUCTION",,,,,"BARTLETT COCKE CONSTRUCTION","7901 E RIVERSIDE DR # 2-100",AUSTIN,TX,78744-1661,"(512) 326-4223",http://bartlettcocke.com/,,,
TX,TRAVIS,"2021-063975 BP","Multi Family Renovations & Additions",4/29/2021,Addition,19200000,175,"13649 RUTLEDGE SPUR BLDG BIKE3",AUSTIN,TX,78717,,,CONTRACTOR,,,,,,,,,,,"BARTLETT COCKE CONSTRUCTION",,,,,"BARTLETT COCKE CONSTRUCTION","7901 E RIVERSIDE DR # 2-100",AUSTIN,TX,78744-1661,"(512) 326-4223",http://bartlettcocke.com/,,,
TX,TRAVIS,"2021-063976 BP","Multi Family Renovations & Additions",4/29/2021,Addition,19200000,390,"13649 RUTLEDGE SPUR BLDG DP1",AUSTIN,TX,78717,,,CONTRACTOR,,,,,,,,,,,"BARTLETT COCKE CONSTRUCTION",,,,,"BARTLETT COCKE CONSTRUCTION","7901 E RIVERSIDE DR # 2-100",AUSTIN,TX,78744-1661,"(512) 326-4223",http://bartlettcocke.com/,,,
TX,TRAVIS,"2021-063977 BP","Multi Family Renovations & Additions",4/29/2021,Addition,19200000,390,"13649 RUTLEDGE SPUR BLDG DP2",AUSTIN,TX,78717,,,CONTRACTOR,,,,,,,,,,,"BARTLETT COCKE CONSTRUCTION",,,,,"BARTLETT COCKE CONSTRUCTION","7901 E RIVERSIDE DR # 2-100",AUSTIN,TX,78744-1661,"(512) 326-4223",http://bartlettcocke.com/,,,
TX,TRAVIS,"2021-057655 BP","Multi Family Renovations & Additions",4/28/2021,Addition,300000,978,"2109 RIVERVIEW ST",AUSTIN,TX,78702,,,CONTRACTOR,,,,,,,,,,,"BLACK RABBIT BUILD",,,,,"BLACK RABBIT BUILD","2400 E CESAR CHAVEZ ST STE 302",AUSTIN,TX,78702-4638,"(512) 535-7860",,,"JARED HAAS",
TX,TRAVIS,"2021-060273 BP","Multi Family Renovations & Additions",4/28/2021,Renovation,30000,2862,"13500 LYNDHURST ST BLDG 2",AUSTIN,TX,78717,,,CONTRACTOR,,,,,,,,,,,"INTERSTATE RESTORATION",,,,,"INTERSTATE RESTORATION","211 HOLLAND ST",HUTTO,TX,78634-5315,"(303) 944-1378",,,,
TX,TRAVIS,"2021-062378 BP","Multi Family Renovations & Additions",5/3/2021,Renovation,40000,2000,"1023 W 24TH ST",AUSTIN,TX,78705,,,CONTRACTOR,,,,,,,,,,,"SIMON STRUCTURES",,,,,"SIMON STRUCTURES","3406 WILLOWRUN CV UNIT C",AUSTIN,TX,78704,"(469) 226-3609",,,,
TX,TRAVIS,"2021-059041 BP","Multi Family Renovations & Additions",4/28/2021,Renovation,56000,2244,"6500 CHAMPION GRANDVIEW WAY BLDG 2",AUSTIN,TX,78750,CHAMPION,9,CONTRACTOR,,,,,,,,,,,"IRON FISH CONSTRUCTION",,,,,"IRON FISH CONSTRUCTION","3330 N WASHINGTON BOULEVARD,  SUITE 200",ARLINGTON,VA,22201,"(571) 867-9450",https://www.ironfishconstruction.com/,,,info@ironfishconstruction.com
TX,TRAVIS,"2021-061147 BP","Multi Family Renovations & Additions",4/28/2021,Renovation,84000,2850,"6500 CHAMPION GRANDVIEW WAY BLDG 11",AUSTIN,TX,78750,CHAMPION,9,CONTRACTOR,,,,,,,,,,,"IRON FISH CONSTRUCTION",,,,,"IRON FISH CONSTRUCTION","3330 N WASHINGTON BOULEVARD,  SUITE 200",ARLINGTON,VA,22201,"(571) 867-9450",https://www.ironfishconstruction.com/,,,info@ironfishconstruction.com
TX,TRAVIS,"2021-061151 BP","Multi Family Renovations & Additions",4/28/2021,Renovation,84000,950,"6500 CHAMPION GRANDVIEW WAY BLDG 15",AUSTIN,TX,78750,CHAMPION,9,CONTRACTOR,,,,,,,,,,,"IRON FISH CONSTRUCTION",,,,,"IRON FISH CONSTRUCTION","3330 N WASHINGTON BOULEVARD,  SUITE 200",ARLINGTON,VA,22201,"(571) 867-9450",https://www.ironfishconstruction.com/,,,info@ironfishconstruction.com
TX,TRAVIS,"2021-060283 BP","Multi Family Renovations & Additions",4/28/2021,Renovation,90000,4447,"13500 LYNDHURST ST BLDG 3",AUSTIN,TX,78717,,,CONTRACTOR,,,,,,,,,,,"INTERSTATE RESTORATION",,,,,"INTERSTATE RESTORATION","211 HOLLAND ST",HUTTO,TX,78634-5315,"(303) 944-1378",,,,
TX,TRAVIS,"2021-060309 BP","Multi Family Renovations & Additions",4/28/2021,Renovation,106000,6747,"13500 LYNDHURST ST BLDG 6",AUSTIN,TX,78717,,,CONTRACTOR,,,,,,,,,,,"INTERSTATE RESTORATION",,,,,"INTERSTATE RESTORATION","211 HOLLAND ST",HUTTO,TX,78634-5315,"(303) 944-1378",,,,
TX,TRAVIS,"2021-060305 BP","Multi Family Renovations & Additions",4/28/2021,Renovation,106000,5369,"13500 LYNDHURST ST BLDG 5",AUSTIN,TX,78717,,,CONTRACTOR,,,,,,,,,,,"INTERSTATE RESTORATION",,,,,"INTERSTATE RESTORATION","211 HOLLAND ST",HUTTO,TX,78634-5315,"(303) 944-1378",,,,
TX,TRAVIS,"2021-061320 BP","Multi Family Renovations & Additions",4/28/2021,Renovation,112000,3711,"6500 CHAMPION GRANDVIEW WAY BLDG 22",AUSTIN,TX,78750,CHAMPION,9,CONTRACTOR,,,,,,,,,,,"IRON FISH CONSTRUCTION",,,,,"IRON FISH CONSTRUCTION","3330 N WASHINGTON BOULEVARD,  SUITE 200",ARLINGTON,VA,22201,"(571) 867-9450",https://www.ironfishconstruction.com/,,,info@ironfishconstruction.com
TX,TRAVIS,"2021-061323 BP","Multi Family Renovations & Additions",4/28/2021,Renovation,112000,3060,"6500 CHAMPION GRANDVIEW WAY BLDG 27",AUSTIN,TX,78750,CHAMPION,9,CONTRACTOR,,,,,,,,,,,"IRON FISH CONSTRUCTION",,,,,"IRON FISH CONSTRUCTION","3330 N WASHINGTON BOULEVARD,  SUITE 200",ARLINGTON,VA,22201,"(571) 867-9450",https://www.ironfishconstruction.com/,,,info@ironfishconstruction.com
TX,TRAVIS,"2021-060294 BP","Multi Family Renovations & Additions",4/28/2021,Renovation,120000,7255,"13500 LYNDHURST ST BLDG 4",AUSTIN,TX,78717,,,CONTRACTOR,,,,,,,,,,,"INTERSTATE RESTORATION",,,,,"INTERSTATE RESTORATION","211 HOLLAND ST",HUTTO,TX,78634-5315,"(303) 944-1378",,,,
TX,TRAVIS,"2021-060318 BP","Multi Family Renovations & Additions",4/28/2021,Renovation,126000,3487,"13500 LYNDHURST ST BLDG 8",AUSTIN,TX,78717,,,CONTRACTOR,,,,,,,,,,,"INTERSTATE RESTORATION",,,,,"INTERSTATE RESTORATION","211 HOLLAND ST",HUTTO,TX,78634-5315,"(303) 944-1378",,,,
TX,TRAVIS,"2021-061191 BP","Multi Family Renovations & Additions",4/28/2021,Renovation,140000,4584,"6500 CHAMPION GRANDVIEW WAY BLDG 16",AUSTIN,TX,78750,CHAMPION,9,CONTRACTOR,,,,,,,,,,,"IRON FISH CONSTRUCTION",,,,,"IRON FISH CONSTRUCTION","3330 N WASHINGTON BOULEVARD,  SUITE 200",ARLINGTON,VA,22201,"(571) 867-9450",https://www.ironfishconstruction.com/,,,info@ironfishconstruction.com
TX,TRAVIS,"2021-060323 BP","Multi Family Renovations & Additions",4/28/2021,Renovation,226000,7003,"13500 LYNDHURST ST BLDG 9",AUSTIN,TX,78717,,,CONTRACTOR,,,,,,,,,,,"INTERSTATE RESTORATION",,,,,"INTERSTATE RESTORATION","211 HOLLAND ST",HUTTO,TX,78634-5315,"(303) 944-1378",,,,
TX,TRAVIS,"2021-060327 BP","Multi Family Renovations & Additions",4/28/2021,Renovation,236000,8477,"13500 LYNDHURST ST BLDG 10",AUSTIN,TX,78717,,,CONTRACTOR,,,,,,,,,,,"INTERSTATE RESTORATION",,,,,"INTERSTATE RESTORATION","211 HOLLAND ST",HUTTO,TX,78634-5315,"(303) 944-1378",,,,
TX,TRAVIS,"2021-063076 BP","Multi Family Renovations & Additions",4/28/2021,Renovation,690000,8403,"1301 W 9TH HALF ST",AUSTIN,TX,78703,,,CONTRACTOR,,,,,,,,,,,"CASTLE CRAFTERS",,,,,"CASTLE CRAFTERS","5511 MOUNT BONNELL RD",AUSTIN,TX,78731-4519,"(512) 477-9972",http://www.castlecraftersllc.com,,,
TX,WILLIAMSON,2021-31232,"Offices, R&D, & Professional",3/11/2021,,350000,2095,"505 ST DAVIDS LOOP",LEANDER,TX,78641,,,CONTRACTOR,,,,,,,,,,,"ESTES & SINACORI BUILDERS",,,,,"ESTES & SINACORI BUILDERS","8440 BURNET RD",AUSTIN,TX,78757-7013,"(512) 964-9204",,,,
TX,WILLIAMSON,2021-32063,"Offices, R&D, & Professional",4/15/2021,,100000,1785,"706 LEANDER DR",LEANDER,TX,78641,,,"D VINE REALTY","706 LEANDER DR STE 504",LEANDER,TX,78641,"(521) 550-0733",Applicant,,,,,OWNER,,,,,OWNER,,,,,,,,,
TX,WILLIAMSON,2020-30837,"Offices, R&D, & Professional",4/5/2021,,180000,1882,"1640 HIGHLAND FALLS DR",LEANDER,TX,78641,,,CONTRACTOR,,,,,,,,,,,"KIBO CONTRACTORS",,,,,"KIBO CONTRACTORS","2004 WILLIAMS DR",GEORGETOWN,TX,78628-3240,"(512) 930-5204",,,,
TX,TRAVIS,"2021-063971 BP","Offices, R&D, & Professional",4/29/2021,,19200000,614,"13649 RUTLEDGE SPUR BLDG 4",AUSTIN,TX,78717,,,CONTRACTOR,,,,,,,,,,,"BARTLETT COCKE CONSTRUCTION",,,,,"BARTLETT COCKE CONSTRUCTION","7901 E RIVERSIDE DR # 2-100",AUSTIN,TX,78744-1661,"(512) 326-4223",http://bartlettcocke.com/,,,
TX,TRAVIS,"2021-056445 BP","Offices, R&D, & Professional",4/28/2021,Addition,120000,100,"1703 1/2 W 5TH ST",AUSTIN,TX,78703,"LAKE AUSTIN COMMONS",1,CONTRACTOR,,,,,,,,,,,"STEVE BALES CONSTRUCTION",,,,,"STEVE BALES CONSTRUCTION","909 CRYSTAL CREEK DR",AUSTIN,TX,78746-4709,"(512) 263-5090",,,,
TX,WILLIAMSON,2020-31174,"Other Commercial",4/21/2021,,700000,10250,"10921 E CRYSTAL FALLS PKWY",LEANDER,TX,78641,,,CONTRACTOR,,,,,,,,,,,"CAPITAL ENGINEERING",,,,,"CAPITAL ENGINEERING","1730 COUNTY ROAD 269",LEANDER,TX,78641-1517,"(512) 917-4506",http://capitalengineeringtx.com,,"Kris Williams",marketing@CapitalEngineeringTx.com
TX,TRAVIS,"2021-064391 BP","Other Residential",4/30/2021,"Acc Struct",60000,1101,"4603 SANTA ANNA ST",AUSTIN,TX,78721,CHERNOSKY,15,"GREGORY ESPARZA","4603 SANTA ANNA ST",AUSTIN,TX,78721,,Owner,,,,,MOONTOWER,,,,,MOONTOWER,"1406 SMITH RD STE E",AUSTIN,TX,78721-3556,"(512) 524-7253",,,,
TX,TRAVIS,"2021-045120 BP","Parking Structures & Carports",4/29/2021,,4780000,11580,"2411 LAKE AUSTIN BLVD",AUSTIN,TX,78703,"JOHNSONS RIVER",2,CONTRACTOR,,,,,,,,,,,"CAPITAL CONSTRUCTORS GROUP",,,,,"CAPITAL CONSTRUCTORS GROUP","4407 BEE CAVES RD","WEST LAKE HILLS",TX,78746-6405,"(512) 658-7933",,,,
TX,TRAVIS,"2021-061028 BP","Parking Structures & Carports",4/29/2021,,1451820,648,"4901 SPRINGDALE RD BLDG CP",AUSTIN,TX,78723,,,CONTRACTOR,,,,,,,,,,,"LEGACY MCS",,,,,"LEGACY MCS","205 WILD BASIN RD BLDG 1","WEST LAKE HILLS",TX,78746-3341,"(512) 726-0500",https://www.legacymcs.com/,"(512) 726-0527",,andy@legacymcs.com
TX,TRAVIS,"2020-112051 BP","Parks, Recreation, Entertainment, & RV Park",5/3/2021,Addition,30000,864,"907 W SLAUGHTER LN",AUSTIN,TX,78748,SLAUGHTER,,CONTRACTOR,,,,,,,,,,,"TF HARPER & ASSOCIATES",,,,,"TF HARPER & ASSOCIATES","103 RED BIRD LN ",AUSTIN,TX,78745,"(512) 440-0707",,"(512) 440-0736",,
TX,TRAVIS,"2021-064206 BP","Residential Garages & Carports",4/30/2021,"Acc Struct",150000,458,"2109 W 48TH ST",AUSTIN,TX,78756,ROSEDALE,4,"BRADLEY & LAUREN HEFFERN","2109 W 48TH ST",AUSTIN,TX,78756,,Owner,,,,,"GALBRAITH CONSTRUCTION COMPANY",,,,,"GALBRAITH CONSTRUCTION COMPANY","11652 JOLLYVILLE RD STE 302",AUSTIN,TX,78759-3935,"(512) 447-6700",,,,
TX,TRAVIS,"2021-045701 BP","Residential Renovations & Additions",4/28/2021,Renovation,45000,400,"912 W GIBSON ST",AUSTIN,TX,78704,"SOUTH HEIGHTS",12,"JOSPEH & RACHEL GEPFERT","912 W GIBSON ST",AUSTIN,TX,78704,,Owner,,,,,"HARTEL HOMES",,,,,"HARTEL HOMES","1411 BERKSHIRE DR",AUSTIN,TX,78723-1838,"(315) 569-7172",,,,
TX,TRAVIS,"2019-192449 BP","Residential Renovations & Additions",5/3/2021,Renovation,50000,320,"3901 MYRICK DR",AUSTIN,TX,78731,"MESA FOREST",11,CONTRACTOR,,,,,,,,,,,"STAIN CONSTRUCTION",,,,,"STAIN CONSTRUCTION","3412 AMALFI CV",AUSTIN,TX,78759-3019,"(512) 815-8366",,,,stain@stainconstruction.com
TX,TRAVIS,"2021-060272 BP","Residential Renovations & Additions",4/30/2021,Addition,91995,84,"7211 NINE OAKS CV",AUSTIN,TX,78759,WINDRIDGE,6,"ANGELA ELLIOTT","7211 NINE OAKS CV",AUSTIN,TX,78759,,Owner,,,,,"CG&S CONSTRUCTION",,,,,"CG&S CONSTRUCTION","402 CORRAL LN",AUSTIN,TX,78745-6611,"(512) 444-1580",http://www.cgsdb.com/,"(512) 444-1790",,db@cgsdb.com
TX,TRAVIS,"2021-000305 BP","Residential Renovations & Additions",4/28/2021,Addition,200000,2640,"7601 CROSSMEADOW DR",AUSTIN,TX,78750,"LAKEWOOD PARK",10,"RICHARD & CARI ZOCH","7601 CROSSMEADOW DR",AUSTIN,TX,78750,,Owner,,,,,"C HAYNES CONSTRUCTION",,,,,"C HAYNES CONSTRUCTION","2239 STATE HIGHWAY 71 W","CEDAR CREEK",TX,78612-3451,"(512) 417-4523",,,,
TX,TRAVIS,"2021-063661 BP","Residential Renovations & Additions",4/29/2021,Renovation,400000,6283,"4109 LAKEPLACE LN",AUSTIN,TX,78746,"LAKE SHORE",113,CONTRACTOR,,,,,,,,,,,"THE BURT GROUP",,,,,"THE BURT GROUP","2111 KRAMER LN STE 100",AUSTIN,TX,78758-4032,"(512) 275-0881",http://burtgroup.com/,,,
TX,TRAVIS,"2021-064205 BP","Residential Renovations & Additions",4/30/2021,Addition,1650000,2176,"2109 W 48TH ST",AUSTIN,TX,78756,ROSEDALE,4,"BRADLEY & LAUREN HEFFERN","2109 W 48TH ST",AUSTIN,TX,78756,,Owner,,,,,"GALBRAITH CONSTRUCTION COMPANY",,,,,"GALBRAITH CONSTRUCTION COMPANY","11652 JOLLYVILLE RD STE 302",AUSTIN,TX,78759-3935,"(512) 447-6700",,,,
TX,TRAVIS,"2020-187702 BP","Residential Renovations & Additions",4/30/2021,Addition,150000,1605,"2502 SPRING LN",AUSTIN,TX,78703,"FOX SCHMIDT",9,"FREDDIE ROBBINS","2502 SPRING LN",AUSTIN,TX,78703,,Owner,,,,,"BILL TAUTE HOMES",,,,,"BILL TAUTE HOMES","2152 SAGE CREEK LOOP",AUSTIN,TX,78704-5216,"(512) 441-0699",http://billtautehomes.com/,,,billtaute@mindspring.com
TX,TRAVIS,"2021-032734 BP","Residential Renovations & Additions",4/29/2021,Renovation,30853,3577,"10800 PECAN PARK BLVD UNIT 205",AUSTIN,TX,78750,"PECAN PARK",,CONTRACTOR,,,,,,,,,,,"RG TATE & ASSOCIATES",,,,,"RG TATE & ASSOCIATES","3401 ROYAL VISTA BLVD STE C-100","ROUND ROCK",TX,78681-1149,"(512) 458-9262",http://www.rgtate.com/,,,
TX,TRAVIS,"2021-032735 BP","Residential Renovations & Additions",4/29/2021,Renovation,30853,12907,"10800 PECAN PARK BLVD UNIT 210",AUSTIN,TX,78750,"PECAN PARK",,CONTRACTOR,,,,,,,,,,,"RG TATE & ASSOCIATES",,,,,"RG TATE & ASSOCIATES","3401 ROYAL VISTA BLVD STE C-100","ROUND ROCK",TX,78681-1149,"(512) 458-9262",http://www.rgtate.com/,,,
TX,TRAVIS,"2020-140090 BP","Residential Renovations & Additions",5/3/2021,Renovation,30000,,"8127 JESTER BLVD",AUSTIN,TX,78750,"JESTER POINT",1,"RYAN MEANY","8127 JESTER BLVD",AUSTIN,TX,78750,,Owner,,,,,"TITAN SIDING, WINDOWS AND EXTERIORS",,,,,"TITAN SIDING, WINDOWS AND EXTERIORS","10713 N FM 620 RD STE 513",AUSTIN,TX,78726-1771,"(512) 944-8029",https://titansiding.com/,,,
TX,TRAVIS,"2021-059880 BP","Residential Renovations & Additions",5/1/2021,Renovation,31500,,"1544 PAYTON FALLS DR",AUSTIN,TX,78754,"PIONEER CROSSING",21,"TIMOTHY ZENCHENKO","1544 PAYTON FALLS DR",AUSTIN,TX,78754,,Owner,,,,,"WINDOW EXPO",,,,,"WINDOW EXPO","2430 LACY LN STE 102",CARROLLTON,TX,75006-6523,"(972) 234-1413",,,,
TX,TRAVIS,"2021-058427 BP","Residential Renovations & Additions",4/28/2021,Renovation,67000,,"11612 JANUARY DR",AUSTIN,TX,78753,"THE FOUR SEASONS SUMMER",7,"PHILIP STOKE","11612 JANUARY DR",AUSTIN,TX,78753,,Owner,,,,,"S&L LAND DESIGN CONSULTANTS",,,,,"S&L LAND DESIGN CONSULTANTS","5453 HITCHER BND",AUSTIN,TX,78749-4240,"(512) 415-2047",,,,
TX,TRAVIS,"2021-062960 BP","Residential Renovations & Additions",4/28/2021,Renovation,80000,,"1505 SUMMIT ST",AUSTIN,TX,78741,ELMHURST,24,"MARTINA BLUEM","1505 SUMMIT ST",AUSTIN,TX,78741,,Owner,,,,,"INVESTOR'S CHOICE REAL ESTATE",,,,,"INVESTOR'S CHOICE REAL ESTATE","PO BOX 91508",AUSTIN,TX,78709-1508,"(512) 605-7965",,,,
TX,TRAVIS,"2020-111080 BP","Residential Renovations & Additions",5/3/2021,Renovation,130000,,"5800 CANNONADE CT",AUSTIN,TX,78746,"DAVENPORT RANCH",21,"JONATHAN & KATHRYN MARTIN","5800 CANNONADE CT",AUSTIN,TX,78746,,Owner,,,,,"STAIN CONSTRUCTION",,,,,"STAIN CONSTRUCTION","3412 AMALFI CV",AUSTIN,TX,78759-3019,"(512) 815-8366",,,,stain@stainconstruction.com
TX,TRAVIS,"2021-042839 BP","Residential Swimming Pools & Spas",4/28/2021,,,289,"6205 NASCO DR",AUSTIN,TX,78757,ALLANDALE,55,"DUNCAN & DONNA FOX","6205 NASCO DR",AUSTIN,TX,78757,,Owner,,,,,"BLUE HAVEN POOLS",,,,,"BLUE HAVEN POOLS","260 ADDIE ROY RD STE 205",AUSTIN,TX,78746-4108,"(512) 345-2583",,,,
TX,TRAVIS,"2021-050877 BP","Residential Swimming Pools & Spas",4/28/2021,,,150,"12413 BUVANA DR",AUSTIN,TX,78739,MERIDIAN,2,"RYAN & ANGELA BRANIGAN","12413 BUVANA DR",AUSTIN,TX,78739,,Owner,,,,,"BLUE HAVEN POOLS",,,,,"BLUE HAVEN POOLS","260 ADDIE ROY RD STE 205",AUSTIN,TX,78746-4108,"(512) 345-2583",,,,
TX,TRAVIS,"2021-052924 BP","Residential Swimming Pools & Spas",4/28/2021,,,396,"1706 VISTA LN",AUSTIN,TX,78703,"TARRY TOWN PLACE",62,"DANIELLE & KEVIN SWEENY","1706 VISTA LN",AUSTIN,TX,78703,,Owner,,,,,"QUALITY CUSTOM POOLS ",,,,,"QUALITY CUSTOM POOLS ","2000 SHALLOW STREAM CV",AUSTIN,TX,78735-1737,"(512) 327-1725",,,,
TX,TRAVIS,"2021-035682 BP","Residential Swimming Pools & Spas",4/28/2021,,,188,"6700 BRIDGE HILL CV",AUSTIN,TX,78746,"BRIDGE HILL",9,"LADHU LAVANI","6700 BRIDGE HILL CV",AUSTIN,TX,78746,,Owner,,,,,"BLUE HAVEN POOLS",,,,,"BLUE HAVEN POOLS","260 ADDIE ROY RD STE 205",AUSTIN,TX,78746-4108,"(512) 345-2583",,,,
TX,TRAVIS,"2021-060807 BP","Residential Swimming Pools & Spas",4/29/2021,,,500,"7125 VIRIDIAN LN",AUSTIN,TX,78739,"THE HIELSCHER",30,CONTRACTOR,,,,,,,,,,,"INNOVATIVE POOLS & SPAS",,,,,"INNOVATIVE POOLS & SPAS","13205 STILLFOREST ST",AUSTIN,TX,78729-2836,"(512) 689-5958",http://innovativepoolsandspas.com/,"(512) 331-4730","DANIEL EDISON",Innovativepools@SBCglobal.net
TX,TRAVIS,"2021-064220 BP","Residential Swimming Pools & Spas",4/30/2021,,,453,"6301 PLUM HOLLOW OVERLOOK",AUSTIN,TX,78746,"LOST CREEK",21,"KEVIN & JESSICA  WRIGHT","6301 PLUM HOLLOW OVERLOOK",AUSTIN,TX,78746,,Owner,,,,,"CODY POOLS",,,,,"CODY POOLS","2300 W PARMER LN",AUSTIN,TX,78727-4332,"(512) 835-4966",http://www.codypools.com,,"COLE NAUMAN",
TX,TRAVIS,"2021-064148 BP","Residential Swimming Pools & Spas",5/2/2021,,,327,"2609 E 4TH ST",AUSTIN,TX,78702,CHERNOSKY,10,"EMERY & SARA COXE","2609 E 4TH ST",AUSTIN,TX,78702,,Owner,,,,,"DENALI POOLS",,,,,"DENALI POOLS","1904 BRUSHY BEND DR","ROUND ROCK",TX,78681-1451,"(512) 955-6564",,,,
TX,TRAVIS,"2021-065217 BP","Residential Swimming Pools & Spas",5/3/2021,,,671,"10905 CENTENNIAL TRL",AUSTIN,TX,78726,"LAUREL CANYON",4,"XINGCHU & ZHANG LIU","10905 CENTENNIAL TRL",AUSTIN,TX,78726,,Owner,,,,,"CODY POOLS",,,,,"CODY POOLS","2300 W PARMER LN",AUSTIN,TX,78727-4332,"(512) 835-4966",http://www.codypools.com,,"COLE NAUMAN",
TX,TRAVIS,"2021-065321 BP","Residential Swimming Pools & Spas",5/3/2021,,,1000,"8605 DARK SHADOW CV",AUSTIN,TX,78749,"SHADOWRIDGE CROSSING",4,"MICHAEL KRAWZSENEK","8605 DARK SHADOW CV",AUSTIN,TX,78749,,Owner,,,,,"CODY POOLS",,,,,"CODY POOLS","2300 W PARMER LN",AUSTIN,TX,78727-4332,"(512) 835-4966",http://www.codypools.com,,"COLE NAUMAN",
TX,TRAVIS,"2021-065604 BP","Residential Swimming Pools & Spas",5/3/2021,,,624,"10209 DAHLGREEN AVE",AUSTIN,TX,78739,"CIRCLE C RANCH",67,CONTRACTOR,,,,,,,,,,,"CODY POOLS",,,,,"CODY POOLS","2300 W PARMER LN",AUSTIN,TX,78727-4332,"(512) 835-4966",http://www.codypools.com,,"COLE NAUMAN",
TX,TRAVIS,"2021-056052 BP","Residential Swimming Pools & Spas",4/29/2021,,,564,"5125 PRAIRIE DUNES DR",AUSTIN,TX,78747,"ONION CREEK",83,"JOHN LITTLEFIELD","5125 PRAIRIE DUNES DR",AUSTIN,TX,78747,,Owner,,,,,"BLUE HAVEN POOLS",,,,,"BLUE HAVEN POOLS","260 ADDIE ROY RD STE 205",AUSTIN,TX,78746-4108,"(512) 345-2583",,,,
TX,TRAVIS,"2021-064292 BP","Residential Swimming Pools & Spas",4/30/2021,,,626,"3803 GREYSTONE DR",AUSTIN,TX,78731,"NORTHWEST HILLS NORTHWEST OAKS",8,"ANDREW & MELISON RUMELT","3803 GREYSTONE DR",AUSTIN,TX,78731,,Owner,,,,,"CODY POOLS",,,,,"CODY POOLS","2300 W PARMER LN",AUSTIN,TX,78727-4332,"(512) 835-4966",http://www.codypools.com,,"COLE NAUMAN",
TX,TRAVIS,"2021-052252 BP","Residential Swimming Pools & Spas",4/30/2021,,,288,"2700 DUPOINT CV",AUSTIN,TX,78748,"PHEASANT RUN",38,"PETR & RACHEL SIDOPULOS","2700 DUPOINT CV",AUSTIN,TX,78748,,Owner,,,,,"A-TEX FAMILY FUN CENTER",,,,,"A-TEX FAMILY FUN CENTER","8700 BURNET RD",AUSTIN,TX,78757-7008,"(512) 451-8353",http://www.atexfun.com/locations.php,,,
TX,TRAVIS,"2021-064602 BP","Residential Swimming Pools & Spas",5/3/2021,,,512,"6002 IVY HILLS DR",AUSTIN,TX,78759,"GREAT HILLS",12,"JAMES & RENEE IRION","6002 IVY HILLS DR",AUSTIN,TX,78759,,Owner,,,,,"OPEN WATER POOLS",,,,,"OPEN WATER POOLS","13359 N HIGHWAY 183 STE B-406 STE 248",AUSTIN,TX,78750-7153,"(512) 801-9712",http://www.openwaterpools.com,,,
TX,TRAVIS,"2021-064533 BP","Residential Swimming Pools & Spas",5/3/2021,,,559,"12513 ENCHANTED FOREST DR",AUSTIN,TX,78727,"ENCHANTED FOREST",14,"ROBERT WILLIAMSON","12513 ENCHANTED FOREST DR",AUSTIN,TX,78727,,Owner,,,,,"DENALI POOLS",,,,,"DENALI POOLS","1904 BRUSHY BEND DR","ROUND ROCK",TX,78681-1451,"(512) 955-6564",,,,
TX,TRAVIS,"2021-038519 BP","Residential Swimming Pools & Spas",4/28/2021,,45000,471,"4807 PROCK LN",AUSTIN,TX,78721,PROCK,11,CONTRACTOR,,,,,,,,,,,"BLUE HAVEN POOLS",,,,,"BLUE HAVEN POOLS","260 ADDIE ROY RD STE 205",AUSTIN,TX,78746-4108,"(512) 345-2583",,,,
TX,TRAVIS,"2021-060059 BP","Residential Swimming Pools & Spas",4/28/2021,,45000,220,"1403 GARNER AVE",AUSTIN,TX,78704,"BARTON HEIGHTS",7,"MILTON BOYD","1403 GARNER AVE",AUSTIN,TX,78704,,Owner,,,,,"NATIVE WATERSCAPES",,,,,"NATIVE WATERSCAPES","231 FROG POND LN",AUSTIN,TX,78735,"(512) 301-3474",,,,
TX,TRAVIS,"2020-117029 BP","Residential Swimming Pools & Spas",4/29/2021,,50000,531,"2907 MONTEBELLO CT",AUSTIN,TX,78746,TREEMONT,3,CONTRACTOR,,,,,,,,,,,"DRAKE DEVELOP BUILD",,,,,"DRAKE DEVELOP BUILD","1502 W 30TH ST",AUSTIN,TX,78703-1404,"(512) 538-5217",,,,
TX,TRAVIS,"2021-061881 BP","Residential Swimming Pools & Spas",4/29/2021,,50000,296,"206 BRAESWOOD RD",AUSTIN,TX,78704,"WOODWARD INDUSTRIAL DISTRICT",41,CONTRACTOR,,,,,,,,,,,"SOUTH AUSTIN BUILDER",,,,,"SOUTH AUSTIN BUILDER","2111 ALTA VISTA AVE",AUSTIN,TX,78704-4350,"(512) 567-8985",,,"MICHAEL FRIEDMAN",
TX,TRAVIS,"2021-052447 BP","Residential Swimming Pools & Spas",5/3/2021,,55000,450,"7119 CALPE DR",AUSTIN,TX,78739,AVANA,37,CONTRACTOR,,,,,,,,,,,"EPIC CREATIONS",,,,,"EPIC CREATIONS","501 N INTERSTATE 35 STE 208",AUSTIN,TX,78702-3299,"(512) 903-5568",http://www.epiccreationsaustin.com/,"(512) 777-4926",,Info@epiccreationsaustin.com
TX,TRAVIS,"2018-179833 BP","Residential Swimming Pools & Spas",5/3/2021,,65000,360,"3105 BURLESON RD",AUSTIN,TX,78741,DELVALLE,,"GIA MANGINO","3105 BURLESON RD",AUSTIN,TX,78741,,Owner,,,,,"PGM DESIGN & BUILD",,,,,"PGM DESIGN & BUILD","900 RR 620 RD STE C101 137",AUSTIN,TX,78734,"(512) 661-8798",,,,
TX,TRAVIS,"2021-060095 BP","Residential Swimming Pools & Spas",4/28/2021,,83150,561,"13017 SILVER CREEK DR",AUSTIN,TX,78727,NORTHWOOD,10,"ANDREW BERGLUND","13017 SILVER CREEK DR",AUSTIN,TX,78727,,Owner,,,,,"ANTHONY & SYLVAN POOLS",,,,,"ANTHONY & SYLVAN POOLS","13343 N HIGHWAY 183 STE 295",AUSTIN,TX,78750-7161,"(512) 258-1232",http://www.anthonysylvan.com/,,,
TX,TRAVIS,"2021-055966 BP","Residential Swimming Pools & Spas",5/3/2021,,237000,931,"5808 KEMPSON DR",AUSTIN,TX,78735,LANTANA,15,"NICOLE MORIARTY","5808 KEMPSON DR",AUSTIN,TX,78735,,Owner,,,,,"PREMIER POOLS & SPAS",,,,,"PREMIER POOLS & SPAS","7703 N LAMAR BLVD STE 606",AUSTIN,TX,78752-1027,"(512) 470-3949",,,,
TX,WILLIAMSON,2020-25109,"Restaurant and Bar",3/10/2021,,47000,3115,"1545 S US 183",LEANDER,TX,78641,,,CONTRACTOR,,,,,,,,,,,"JOHN KING CONSTRUCTION",,,,,"JOHN KING CONSTRUCTION","1220 MCNEIL RD STE 300","ROUND ROCK",TX,78681-6414,"(512) 836-5464",,,,
TX,WILLIAMSON,2020-30553,Retail,3/15/2021,,2000000,19886,"19368 RONALD W REAGAN BLVD",LEANDER,TX,78641,,,CONTRACTOR,,,,,,,,,,,"WHITE CONSTRUCTION SERVICES",,,,,"WHITE CONSTRUCTION SERVICES","514 BORONA RD",ARLINGTON,TX,76002,"(682) 256-5882",,,,
TX,WILLIAMSON,2020-30558,Retail,3/15/2021,,1300000,10542,"19376 RONALD W REAGAN BLVD",LEANDER,TX,78641,,,CONTRACTOR,,,,,,,,,,,"WHITE CONSTRUCTION",,,,,"WHITE CONSTRUCTION","11857 JUDD CT",DALLAS,TX,75243-4408,"(214) 575-5756",https://www.whiteconst.com/,,,
TX,WILLIAMSON,2020-30561,Retail,3/15/2021,,1350000,10062,"19372 RONALD W REAGAN BLVD",LEANDER,TX,78641,,,CONTRACTOR,,,,,,,,,,,"WHITE CONSTRUCTION",,,,,"WHITE CONSTRUCTION","11857 JUDD CT",DALLAS,TX,75243-4408,"(214) 575-5756",https://www.whiteconst.com/,,,
TX,WILLIAMSON,2018-16472,Retail,3/26/2021,,,22349,"12621 HERO WAY WEST",LEANDER,TX,78641,,,CONTRACTOR,,,,,,,,,,,"J3 BUILDERS & RENOVATORS",,,,,"J3 BUILDERS & RENOVATORS","PO BOX 342672",LAKEWAY,TX,78734,"(512) 766-8101",,,,
TX,WILLIAMSON,2021-31496,"Single Family Homes",3/5/2021,,,3400,"901 RIDGMAR RD",LEANDER,TX,78641,,,CONTRACTOR,,,,,,,,,,,"TOTAL CONSTRUCTION",,,,,"TOTAL CONSTRUCTION","6987 MOUNT HAWLEY RD",FRISCO,TX,75035,"(469) 878-2052",,,,
TX,WILLIAMSON,2021-31768,"Single Family Homes",3/8/2021,,,1954,"1321 MACFARLAND ST",LEANDER,TX,78641,,,CONTRACTOR,,,,,,,,,,,"STATEWIDE REMODELING",,,,,"STATEWIDE REMODELING","2209 RUTLAND DR STE 100",AUSTIN,TX,78758-5263,"(512) 817-1141",,,,
TX,WILLIAMSON,2020-28285,"Single Family Homes",4/27/2021,,,6425,"2225 HIGH LONESOME",LEANDER,TX,78641,,,CONTRACTOR,,,,,,,,,,,"DREES CUSTOM HOMES",,,,,"DREES CUSTOM HOMES","6225 N STATE HIGHWAY 161 STE 150",IRVING,TX,75038-2283,"(972) 953-4500",http://www.dreeshomes.com,,,
TX,WILLIAMSON,2020-29224,"Single Family Homes",4/7/2021,,,5093,"716 LAUGHING DOG CT",LEANDER,TX,78641,,,CONTRACTOR,,,,,,,,,,,"DREES CUSTOM HOMES",,,,,"DREES CUSTOM HOMES","7300 RANCH ROAD 2222 BLDG 2 STE 250",AUSTIN,TX,78730-3204,"(512) 241-7100",http://www.dreeshomes.com,,,
TX,WILLIAMSON,2020-29355,"Single Family Homes",3/4/2021,,,5049,"1713 SUNSET VISTA BND",LEANDER,TX,78641,,,CONTRACTOR,,,,,,,,,,,"TOLL BROTHERS",,,,,"TOLL BROTHERS","310 ARIA DR",AUSTIN,TX,78738-1740,"(512) 491-0378",,,,
TX,WILLIAMSON,2020-29498,"Single Family Homes",3/1/2021,,,3175,"1620 GLADEWATER WAY",LEANDER,TX,78641,,,CONTRACTOR,,,,,,,,,,,"LENNAR HOMES",,,,,"LENNAR HOMES","13620 FM 620 RD 150",AUSTIN,TX,78717,"(512) 506-4000",http://www.lennar.com/,,,
TX,WILLIAMSON,2020-30037,"Single Family Homes",3/10/2021,,,5840,"4517 APOLLONIA WAY",LEANDER,TX,78641,,,CONTRACTOR,,,,,,,,,,,"TOLL BROTHERS",,,,,"TOLL BROTHERS","310 ARIA DR",AUSTIN,TX,78738-1740,"(512) 491-0378",,,,
TX,WILLIAMSON,2020-30078,"Single Family Homes",3/12/2021,,,3379,"2105 LIVE OAK RD",LEANDER,TX,78641,,,CONTRACTOR,,,,,,,,,,,"COREGON BUILDING COMPANY",,,,,"COREGON BUILDING COMPANY","700 S AUSTIN AVE STE 202",GEORGETOWN,TX,78626-5771,"(512) 688-5180",https://coregonbuildingcompany.com/,,,
TX,WILLIAMSON,2020-30120,"Single Family Homes",3/22/2021,,,2533,"2228 HIGH VICTORY RD",LEANDER,TX,78641,,,CONTRACTOR,,,,,,,,,,,"HIGHLAND HOMES",,,,,"HIGHLAND HOMES","4201 W PARMER LN STE B180",AUSTIN,TX,78727-4110,"(512) 834-8429",,,,
TX,WILLIAMSON,2020-30169,"Single Family Homes",3/9/2021,,,2862,"2208 HIGH VICTORY RD",LEANDER,TX,78641,,,CONTRACTOR,,,,,,,,,,,"HIGHLAND HOMES",,,,,"HIGHLAND HOMES","4201 W PARMER LN STE B180",AUSTIN,TX,78727-4110,"(512) 834-8429",,,,
TX,WILLIAMSON,2020-30171,"Single Family Homes",3/8/2021,,,2862,"2304 HIGH VICTORY RD",LEANDER,TX,78641,,,CONTRACTOR,,,,,,,,,,,"HIGHLAND HOMES",,,,,"HIGHLAND HOMES","4201 W PARMER LN STE B180",AUSTIN,TX,78727-4110,"(512) 834-8429",,,,
TX,WILLIAMSON,2020-30186,"Single Family Homes",4/12/2021,,,4960,"3501 ARRIETA DR",LEANDER,TX,78641,,,CONTRACTOR,,,,,,,,,,,"TAYLOR MORRISON OF TEXAS",,,,,"TAYLOR MORRISON OF TEXAS","11200 LAKELINE BLVD STE 150A",AUSTIN,TX,78717-5964,"(512) 328-8866",,"(512) 328-7988",,
TX,WILLIAMSON,2020-30224,"Single Family Homes",3/4/2021,,,2519,"1705 WOOLSEY WAY",LEANDER,TX,78641,,,CONTRACTOR,,,,,,,,,,,"LENNAR HOMES",,,,,"LENNAR HOMES","13620 FM 620 RD 150",AUSTIN,TX,78717,"(512) 506-4000",http://www.lennar.com/,,,
TX,WILLIAMSON,2020-30382,"Single Family Homes",3/30/2021,,,3565,"2612 ROARING RIVER TRL",LEANDER,TX,78641,,,CONTRACTOR,,,,,,,,,,,"M/I HOMES",,,,,"M/I HOMES","6801 N CAPITAL OF TEXAS HWY BLDG 2 STE 100",AUSTIN,TX,78731-1780,"(512) 770-8500",,,,
TX,WILLIAMSON,2020-30460,"Single Family Homes",3/4/2021,,,2079,"1324 WEATHERFORD LN",LEANDER,TX,78641,,,CONTRACTOR,,,,,,,,,,,"LENNAR HOMES",,,,,"LENNAR HOMES","13620 FM 620 RD 150",AUSTIN,TX,78717,"(512) 506-4000",http://www.lennar.com/,,,
TX,WILLIAMSON,2020-30475,"Single Family Homes",3/19/2021,,,3380,"2108 HIGH VICTORY RD",LEANDER,TX,78641,,,CONTRACTOR,,,,,,,,,,,"PERRY HOMES",,,,,"PERRY HOMES","6112 LLANO ST",AUSTIN,TX,78702,"(512) 810-8050",,,,
TX,WILLIAMSON,2020-30497,"Single Family Homes",4/21/2021,,,5995,"2003 SPYGLASS HL",LEANDER,TX,78641,,,CONTRACTOR,,,,,,,,,,,"ROBILLARD CUSTOM HOMES",,,,,"ROBILLARD CUSTOM HOMES","1303 CORA CV","CEDAR PARK",TX,78613-4206,"(512) 801-2806",,,,
TX,WILLIAMSON,2020-30526,"Single Family Homes",3/10/2021,,,4837,"2761 HONEYWOOD DR",LEANDER,TX,78641,,,CONTRACTOR,,,,,,,,,,,"CALEDONIA BUILDERS",,,,,"CALEDONIA BUILDERS","3804 PANTHER HALL",LEANDER,TX,78641-3698,"(512) 739-8338",,,"IAN BOYD",
TX,WILLIAMSON,2020-30857,"Single Family Homes",3/9/2021,,,4434,"4080 CRYSTAL MESA CV",LEANDER,TX,78641,,,CONTRACTOR,,,,,,,,,,,"GROUP THREE BUILDERS",,,,,"GROUP THREE BUILDERS","3550 LAKELINE BLVD STE 170",LEANDER,TX,78641-3505,"(512) 672-8453",http://www.groupthreebuilders.com,,,
TX,WILLIAMSON,2020-30859,"Single Family Homes",3/4/2021,,,3033,"1641 WOOLSEY WAY",LEANDER,TX,78641,,,CONTRACTOR,,,,,,,,,,,"LENNAR HOMES",,,,,"LENNAR HOMES","13620 FM 620 RD 150",AUSTIN,TX,78717,"(512) 506-4000",http://www.lennar.com/,,,
TX,WILLIAMSON,2020-30865,"Single Family Homes",3/4/2021,,,2878,"1025 BLUEWOOD BND",LEANDER,TX,78641,,,CONTRACTOR,,,,,,,,,,,"LENNAR HOMES",,,,,"LENNAR HOMES","13620 FM 620 RD 150",AUSTIN,TX,78717,"(512) 506-4000",http://www.lennar.com/,,,
TX,WILLIAMSON,2020-30879,"Single Family Homes",4/16/2021,,,3180,"1713 STINNETT DR",LEANDER,TX,78641,,,CONTRACTOR,,,,,,,,,,,"KB HOME",,,,,"KB HOME","10800 PECAN PARK BLVD STE 200",AUSTIN,TX,78750-1249,"(512) 651-8100",,,,
TX,WILLIAMSON,2020-30896,"Single Family Homes",4/12/2021,,,4954,"4633 PORT GENOVA CT",LEANDER,TX,78641,,,CONTRACTOR,,,,,,,,,,,"TAYLOR MORRISON OF TEXAS",,,,,"TAYLOR MORRISON OF TEXAS","11200 LAKELINE BLVD STE 150A",AUSTIN,TX,78717-5964,"(512) 328-8866",,"(512) 328-7988",,
TX,WILLIAMSON,2020-30897,"Single Family Homes",4/22/2021,,,5995,"4632 PORT GENOVA CT",LEANDER,TX,78641,,,CONTRACTOR,,,,,,,,,,,"TAYLOR MORRISON OF TEXAS",,,,,"TAYLOR MORRISON OF TEXAS","11200 LAKELINE BLVD STE 150A",AUSTIN,TX,78717-5964,"(512) 328-8866",,"(512) 328-7988",,
TX,WILLIAMSON,2020-30976,"Single Family Homes",3/1/2021,,,5264,"1133 PLANO LN",LEANDER,TX,78641,,,CONTRACTOR,,,,,,,,,,,"KB HOME",,,,,"KB HOME","10800 PECAN PARK BLVD STE 200",AUSTIN,TX,78750-1249,"(512) 651-8100",,,,
TX,WILLIAMSON,2020-30977,"Single Family Homes",3/1/2021,,,3665,"1725 STINNETT DR",LEANDER,TX,78641,,,CONTRACTOR,,,,,,,,,,,"KB HOME",,,,,"KB HOME","10800 PECAN PARK BLVD STE 200",AUSTIN,TX,78750-1249,"(512) 651-8100",,,,
TX,WILLIAMSON,2020-30985,"Single Family Homes",3/1/2021,,,1997,"428 STARLIGHT VILLAGE LOOP",LEANDER,TX,78641,,,CONTRACTOR,,,,,,,,,,,"ELITE STONE & LANDSCAPE SUPPLY",,,,,"ELITE STONE & LANDSCAPE SUPPLY","18127 FM 1431",LEANDER,TX,78641-3813,"(512) 267-5150",http://elitestoneandlandscape.com/,,,
TX,WILLIAMSON,2020-30999,"Single Family Homes",4/15/2021,,,4276,"3345 MONGOLIAN DR",LEANDER,TX,78641,,,CONTRACTOR,,,,,,,,,,,"TAYLOR MORRISON OF TEXAS",,,,,"TAYLOR MORRISON OF TEXAS","11200 LAKELINE BLVD STE 150A",AUSTIN,TX,78717-5964,"(512) 328-8866",,"(512) 328-7988",,
TX,WILLIAMSON,2020-31028,"Single Family Homes",3/10/2021,,,5747,"325 LIMESTONE CREEK RD",LEANDER,TX,78641,,,CONTRACTOR,,,,,,,,,,,"MINT BUILDERS",,,,,"MINT BUILDERS","PO BOX 170898",AUSTIN,TX,78717-0036,"(512) 589-7405",,,,
TX,WILLIAMSON,2020-31037,"Single Family Homes",3/4/2021,,,1814,"1636 WOOLSEY WAY",LEANDER,TX,78641,,,CONTRACTOR,,,,,,,,,,,"LENNAR HOMES",,,,,"LENNAR HOMES","13620 FM 620 RD 150",AUSTIN,TX,78717,"(512) 506-4000",http://www.lennar.com/,,,
TX,WILLIAMSON,2020-31071,"Single Family Homes",3/18/2021,,,3222,"1625 INDIAN APPLE WAY",LEANDER,TX,78641,,,CONTRACTOR,,,,,,,,,,,"TRENDMAKER HOMES",,,,,"TRENDMAKER HOMES","16340 PARK TEN PL STE 250",HOUSTON,TX,77084-5144,"(281) 675-3200",,"(281) 675-3251","MARTIN EVANS",
TX,WILLIAMSON,2020-31079,"Single Family Homes",4/6/2021,,,3324,"1528 ASPINWALL CV",LEANDER,TX,78641,,,CONTRACTOR,,,,,,,,,,,"LENNAR HOMES",,,,,"LENNAR HOMES","13620 FM 620 RD 150",AUSTIN,TX,78717,"(512) 506-4000",http://www.lennar.com/,,,
TX,WILLIAMSON,2020-31081,"Single Family Homes",3/11/2021,,,2867,"2116 BASE BURNER PATH",LEANDER,TX,78641,,,CONTRACTOR,,,,,,,,,,,"GEHAN HOMES",,,,,"GEHAN HOMES","3815 S CAPITAL OF TEXAS HWY STE 275",AUSTIN,TX,78704-6652,"(512) 330-9366",http://www.gehanhomes.com,,"JANET PHILLIPS",
TX,WILLIAMSON,2020-31126,"Single Family Homes",3/9/2021,,,2875,"2120 HIGH VICTORY RD",LEANDER,TX,78641,,,CONTRACTOR,,,,,,,,,,,"HIGHLAND HOMES",,,,,"HIGHLAND HOMES","4201 W PARMER LN STE B180",AUSTIN,TX,78727-4110,"(512) 834-8429",,,,
TX,WILLIAMSON,2020-31128,"Single Family Homes",4/16/2021,,,4030,"605 W. SOUTH ST UNITS 131 &132",LEANDER,TX,78641,,,CONTRACTOR,,,,,,,,,,,"MASONWOOD HOMES",,,,,"MASONWOOD HOMES","4301 WESTBANK DR BLDG A STE 110",AUSTIN,TX,78738,"(512) 306-8300",,,,
TX,WILLIAMSON,2020-31130,"Single Family Homes",4/6/2021,,,2683,"1124 OAK CHASE WAY",LEANDER,TX,78641,,,CONTRACTOR,,,,,,,,,,,"CENTURY COMMUNITIES",,,,,"CENTURY COMMUNITIES","6500 RIVER PLACE BLVD STE 200",AUSTIN,TX,78730-1156,"(512) 271-3825",https://www.centurycommunities.com/,,,
TX,WILLIAMSON,2020-31131,"Single Family Homes",3/1/2021,,,2240,"1128 OAK CHASE WAY",LEANDER,TX,78641,,,CONTRACTOR,,,,,,,,,,,"CENTURY COMMUNITIES",,,,,"CENTURY COMMUNITIES","6500 RIVER PLACE BLVD STE 200",AUSTIN,TX,78730-1156,"(512) 271-3825",https://www.centurycommunities.com/,,,
TX,WILLIAMSON,2020-31132,"Single Family Homes",3/1/2021,,,2224,"1212 OAK CHASE WAY",LEANDER,TX,78641,,,CONTRACTOR,,,,,,,,,,,"CENTURY COMMUNITIES",,,,,"CENTURY COMMUNITIES","6500 RIVER PLACE BLVD STE 200",AUSTIN,TX,78730-1156,"(512) 271-3825",https://www.centurycommunities.com/,,,
TX,WILLIAMSON,2020-31142,"Single Family Homes",3/30/2021,,,3356,"3513 ARRIETA DR",LEANDER,TX,78641,,,CONTRACTOR,,,,,,,,,,,"TAYLOR MORRISON OF TEXAS",,,,,"TAYLOR MORRISON OF TEXAS","11200 LAKELINE BLVD STE 150A",AUSTIN,TX,78717-5964,"(512) 328-8866",,"(512) 328-7988",,
TX,WILLIAMSON,2020-31144,"Single Family Homes",3/9/2021,,,3635,"3408 PIEDMONTESE DR",LEANDER,TX,78641,,,CONTRACTOR,,,,,,,,,,,"TAYLOR MORRISON OF TEXAS",,,,,"TAYLOR MORRISON OF TEXAS","11200 LAKELINE BLVD STE 150A",AUSTIN,TX,78717-5964,"(512) 328-8866",,"(512) 328-7988",,
TX,WILLIAMSON,2020-31147,"Single Family Homes",3/30/2021,,,3231,"480 STARLIGHT VILLAGE LOOP",LEANDER,TX,78641,,,CONTRACTOR,,,,,,,,,,,"ELITE STONE & LANDSCAPE SUPPLY",,,,,"ELITE STONE & LANDSCAPE SUPPLY","18127 FM 1431",LEANDER,TX,78641-3813,"(512) 267-5150",http://elitestoneandlandscape.com/,,,
TX,WILLIAMSON,2020-30640,"Single Family Homes",4/14/2021,,,5501,"901 GIPPER LN",LEANDER,TX,78641,,,CONTRACTOR,,,,,,,,,,,"CENTURY COMMUNITIES",,,,,"CENTURY COMMUNITIES","6500 RIVER PLACE BLVD STE 200",AUSTIN,TX,78730-1156,"(512) 271-3825",https://www.centurycommunities.com/,,,
TX,WILLIAMSON,2020-30680,"Single Family Homes",3/4/2021,,,3123,"1224 TOYAH DR",LEANDER,TX,78641,,,CONTRACTOR,,,,,,,,,,,"LENNAR HOMES",,,,,"LENNAR HOMES","13620 FM 620 RD 150",AUSTIN,TX,78717,"(512) 506-4000",http://www.lennar.com/,,,
TX,WILLIAMSON,2020-30780,"Single Family Homes",3/10/2021,,,2759,"2608 SAN BAUTISTA WAY",LEANDER,TX,78641,,,CONTRACTOR,,,,,,,,,,,"PERRY HOMES",,,,,"PERRY HOMES","6112 LLANO ST",AUSTIN,TX,78702,"(512) 810-8050",,,,
TX,WILLIAMSON,2020-30804,"Single Family Homes",3/4/2021,,,2476,"1344 LINWOOD ST",LEANDER,TX,78641,,,CONTRACTOR,,,,,,,,,,,"LENNAR HOMES",,,,,"LENNAR HOMES","13620 FM 620 RD 150",AUSTIN,TX,78717,"(512) 506-4000",http://www.lennar.com/,,,
TX,WILLIAMSON,2020-30819,"Single Family Homes",3/24/2021,,,4018,"605 W SOUTH STREET UNITS 61 & 62",LEANDER,TX,78641,,,CONTRACTOR,,,,,,,,,,,"MASONWOOD HOMES",,,,,"MASONWOOD HOMES","4301 WESTBANK DR BLDG A STE 110",AUSTIN,TX,78738,"(512) 306-8300",,,,
TX,WILLIAMSON,2020-30821,"Single Family Homes",4/19/2021,,,2782,"1432 LATOKA SPRINGS RD",LEANDER,TX,78641,,,CONTRACTOR,,,,,,,,,,,"LENNAR HOMES",,,,,"LENNAR HOMES","13620 FM 620 RD 150",AUSTIN,TX,78717,"(512) 506-4000",http://www.lennar.com/,,,
TX,WILLIAMSON,2020-30825,"Single Family Homes",3/4/2021,,,4385,"4404 APOLLONIA WAY",LEANDER,TX,78641,,,CONTRACTOR,,,,,,,,,,,"TOLL BROTHERS",,,,,"TOLL BROTHERS","310 ARIA DR",AUSTIN,TX,78738-1740,"(512) 491-0378",,,,
TX,WILLIAMSON,2019-24270,"Single Family Homes",4/30/2021,,,3882,"804 CRAVEN HILL LN",LEANDER,TX,78641,,,CONTRACTOR,,,,,,,,,,,"CHESMAR HOMES",,,,,"CHESMAR HOMES","2900 N QUINLAN PARK RD",AUSTIN,TX,78732-6083,"(512) 233-9016",http://chesmar.com,,,
TX,WILLIAMSON,2020-25516,"Single Family Homes",3/8/2021,,,3677,"1717 STINNETT DR",LEANDER,TX,78641,,,CONTRACTOR,,,,,,,,,,,"KB HOME",,,,,"KB HOME","10800 PECAN PARK BLVD STE 200",AUSTIN,TX,78750-1249,"(512) 651-8100",,,,
TX,WILLIAMSON,2020-26141,"Single Family Homes",3/16/2021,,,4280,"1116 AZUL LAGOON DR",LEANDER,TX,78641,,,CONTRACTOR,,,,,,,,,,,"MHI MCGUYER HOMEBUILDERS",,,,,"MHI MCGUYER HOMEBUILDERS","8200 N MO PAC EXPY STE 300",AUSTIN,TX,78759-8844,"(512) 502-2050",,"(512) 388-1836","FRANK MCGUYER",
TX,WILLIAMSON,2020-31223,"Single Family Homes",4/13/2021,,,5975,"4101 CRYSTAL MESA CV",LEANDER,TX,78641,,,CONTRACTOR,,,,,,,,,,,"GROUP THREE BUILDERS",,,,,"GROUP THREE BUILDERS","3550 LAKELINE BLVD STE 170",LEANDER,TX,78641-3505,"(512) 672-8453",http://www.groupthreebuilders.com,,,
TX,WILLIAMSON,2020-31226,"Single Family Homes",3/17/2021,,,4416,"800 PALAMOS DR",LEANDER,TX,78641,,,CONTRACTOR,,,,,,,,,,,"GFO HOME",,,,,"GFO HOME","6012 AVIATION DR # 200",PFLUGERVILLE,TX,78660-8960,"(512) 492-8640",https://www.gfohome.com,,,
TX,WILLIAMSON,2021-31230,"Single Family Homes",3/3/2021,,,2323,"1344 WEATHERFORD LN",LEANDER,TX,78641,,,CONTRACTOR,,,,,,,,,,,"LENNAR HOMES",,,,,"LENNAR HOMES","13620 FM 620 RD 150",AUSTIN,TX,78717,"(512) 506-4000",http://www.lennar.com/,,,
TX,WILLIAMSON,2021-31287,"Single Family Homes",4/16/2021,,,5692,"2701 PINE BRANCH RD",LEANDER,TX,78641,,,CONTRACTOR,,,,,,,,,,,"GEHAN HOMES",,,,,"GEHAN HOMES","3815 S CAPITAL OF TEXAS HWY STE 275",AUSTIN,TX,78704-6652,"(512) 330-9366",http://www.gehanhomes.com,,"JANET PHILLIPS",
TX,WILLIAMSON,2021-31325,"Single Family Homes",3/12/2021,,,4018,"605 W SOUTH ST UNITS 421 & 422",LEANDER,TX,78641,,,CONTRACTOR,,,,,,,,,,,"MASONWOOD HOMES",,,,,"MASONWOOD HOMES","4301 WESTBANK DR BLDG A STE 110",AUSTIN,TX,78738,"(512) 306-8300",,,,
TX,WILLIAMSON,2021-31327,"Single Family Homes",3/12/2021,,,4018,"605 W SOUTH ST UNITS 371 & 372",LEANDER,TX,78641,,,CONTRACTOR,,,,,,,,,,,"MASONWOOD HOMES",,,,,"MASONWOOD HOMES","4301 WESTBANK DR BLDG A STE 110",AUSTIN,TX,78738,"(512) 306-8300",,,,
TX,WILLIAMSON,2021-31328,"Single Family Homes",4/13/2021,,,6031,"3320 MONGOLIAN DR",LEANDER,TX,78641,,,CONTRACTOR,,,,,,,,,,,"TAYLOR MORRISON OF TEXAS",,,,,"TAYLOR MORRISON OF TEXAS","11200 LAKELINE BLVD STE 150A",AUSTIN,TX,78717-5964,"(512) 328-8866",,"(512) 328-7988",,
TX,WILLIAMSON,2021-31329,"Single Family Homes",4/9/2021,,,4180,"3721 DEEP POCKET DR",LEANDER,TX,78641,,,CONTRACTOR,,,,,,,,,,,"MHI MCGUYER HOMEBUILDERS",,,,,"MHI MCGUYER HOMEBUILDERS","8200 N MO PAC EXPY STE 300",AUSTIN,TX,78759-8844,"(512) 502-2050",,"(512) 388-1836","FRANK MCGUYER",
TX,WILLIAMSON,2021-31336,"Single Family Homes",3/12/2021,,,4075,"2125 ADONAI TRL",LEANDER,TX,78641,,,CONTRACTOR,,,,,,,,,,,"CHESMAR HOMES",,,,,"CHESMAR HOMES","2900 N QUINLAN PARK RD",AUSTIN,TX,78732-6083,"(512) 233-9016",http://chesmar.com,,,
TX,WILLIAMSON,2021-31337,"Single Family Homes",3/1/2021,,,3378,"1729 STINNETT DR",LEANDER,TX,78641,,,CONTRACTOR,,,,,,,,,,,"KB HOME",,,,,"KB HOME","10800 PECAN PARK BLVD STE 200",AUSTIN,TX,78750-1249,"(512) 651-8100",,,,
TX,WILLIAMSON,2021-31338,"Single Family Homes",4/22/2021,,,4477,"800 PASEO DE CASTANA WAY",LEANDER,TX,78641,,,CONTRACTOR,,,,,,,,,,,"CHESMAR HOMES",,,,,"CHESMAR HOMES","2900 N QUINLAN PARK RD",AUSTIN,TX,78732-6083,"(512) 233-9016",http://chesmar.com,,,
TX,WILLIAMSON,2021-31357,"Single Family Homes",3/1/2021,,,2193,"1513 BEARD PASS",LEANDER,TX,78641,,,CONTRACTOR,,,,,,,,,,,"GEHAN HOMES",,,,,"GEHAN HOMES","3815 S CAPITAL OF TEXAS HWY STE 275",AUSTIN,TX,78704-6652,"(512) 330-9366",http://www.gehanhomes.com,,"JANET PHILLIPS",
TX,WILLIAMSON,2021-31359,"Single Family Homes",3/11/2021,,,4888,"2529 AMBUSH CYN",LEANDER,TX,78641,,,CONTRACTOR,,,,,,,,,,,"VOGEL BUILDERS",,,,,"VOGEL BUILDERS","3600 GOODNIGHT TRL",LEANDER,TX,78641-3647,"(512) 653-8147",http://www.vogelcs.com/,,,
TX,WILLIAMSON,2021-31370,"Single Family Homes",3/26/2021,,,3099,"1400 BRESCIA WALK",LEANDER,TX,78641,,,CONTRACTOR,,,,,,,,,,,"TOLL BROTHERS",,,,,"TOLL BROTHERS","310 ARIA DR",AUSTIN,TX,78738-1740,"(512) 491-0378",,,,
TX,WILLIAMSON,2021-31399,"Single Family Homes",4/13/2021,,,5584,"3337 MONGOLIAN DR",LEANDER,TX,78641,,,CONTRACTOR,,,,,,,,,,,"TAYLOR MORRISON OF TEXAS",,,,,"TAYLOR MORRISON OF TEXAS","11200 LAKELINE BLVD STE 150A",AUSTIN,TX,78717-5964,"(512) 328-8866",,"(512) 328-7988",,
TX,WILLIAMSON,2021-31400,"Single Family Homes",4/19/2021,,,3967,"917 ALMERIA BND",LEANDER,TX,78641,,,CONTRACTOR,,,,,,,,,,,"PACESETTER HOMES ",,,,,"PACESETTER HOMES ","7940 SHOAL CREEK BLVD STE 200",AUSTIN,TX,78757-7587,"(512) 323-5252",,,,
TX,WILLIAMSON,2021-31401,"Single Family Homes",4/19/2021,,,4289,"1012 ALMERIA BND",LEANDER,TX,78641,,,CONTRACTOR,,,,,,,,,,,"PACESETTER HOMES ",,,,,"PACESETTER HOMES ","7940 SHOAL CREEK BLVD STE 200",AUSTIN,TX,78757-7587,"(512) 323-5252",,,,
TX,WILLIAMSON,2021-31405,"Single Family Homes",3/2/2021,,,5803,"2821 WILD INDIGO WAY",LEANDER,TX,78641,,,CONTRACTOR,,,,,,,,,,,"TAYLOR MORRISON OF TEXAS",,,,,"TAYLOR MORRISON OF TEXAS","11200 LAKELINE BLVD STE 150A",AUSTIN,TX,78717-5964,"(512) 328-8866",,"(512) 328-7988",,
TX,WILLIAMSON,2021-31406,"Single Family Homes",3/19/2021,,,4048,"605 W. SOUTH STREET, BUILDING 34",LEANDER,TX,78641,,,CONTRACTOR,,,,,,,,,,,"MASONWOOD HOMES",,,,,"MASONWOOD HOMES","4301 WESTBANK DR BLDG A STE 110",AUSTIN,TX,78738,"(512) 306-8300",,,,
TX,WILLIAMSON,2021-31407,"Single Family Homes",3/24/2021,,,3912,"605 W. SOUTH STREET, UNITS 401 & 402",LEANDER,TX,78641,,,CONTRACTOR,,,,,,,,,,,"MASONWOOD HOMES",,,,,"MASONWOOD HOMES","4301 WESTBANK DR BLDG A STE 110",AUSTIN,TX,78738,"(512) 306-8300",,,,
TX,WILLIAMSON,2021-31408,"Single Family Homes",3/19/2021,,,4018,"605 W. SOUTH STREET, BUILDING 38, UNITS 381 & 382",LEANDER,TX,78641,,,CONTRACTOR,,,,,,,,,,,"MASONWOOD HOMES",,,,,"MASONWOOD HOMES","4301 WESTBANK DR BLDG A STE 110",AUSTIN,TX,78738,"(512) 306-8300",,,,
TX,WILLIAMSON,2021-31410,"Single Family Homes",3/31/2021,,,3978,"909 ALMERIA BND",LEANDER,TX,78641,,,CONTRACTOR,,,,,,,,,,,"PACESETTER HOMES ",,,,,"PACESETTER HOMES ","7940 SHOAL CREEK BLVD STE 200",AUSTIN,TX,78757-7587,"(512) 323-5252",,,,
TX,WILLIAMSON,2021-31411,"Single Family Homes",4/7/2021,,,4065,"913 ALMERIA BND",LEANDER,TX,78641,,,CONTRACTOR,,,,,,,,,,,"PACESETTER HOMES ",,,,,"PACESETTER HOMES ","7940 SHOAL CREEK BLVD STE 200",AUSTIN,TX,78757-7587,"(512) 323-5252",,,,
TX,WILLIAMSON,2021-31428,"Single Family Homes",3/2/2021,,,4381,"1724 ARAPAHO MOUNTAIN PASS",LEANDER,TX,78641,,,CONTRACTOR,,,,,,,,,,,"GFO HOME",,,,,"GFO HOME","6012 AVIATION DR # 200",PFLUGERVILLE,TX,78660-8960,"(512) 492-8640",https://www.gfohome.com,,,
TX,WILLIAMSON,2021-31430,"Single Family Homes",3/8/2021,,,4404,"1105 BLUE WOOD CV",LEANDER,TX,78641,,,CONTRACTOR,,,,,,,,,,,"CHESMAR HOMES",,,,,"CHESMAR HOMES","2900 N QUINLAN PARK RD",AUSTIN,TX,78732-6083,"(512) 233-9016",http://chesmar.com,,,
TX,WILLIAMSON,2021-31438,"Single Family Homes",3/4/2021,,,2636,"1413 BRESCIA WALK",LEANDER,TX,78641,,,CONTRACTOR,,,,,,,,,,,"TOLL BROTHERS",,,,,"TOLL BROTHERS","310 ARIA DR",AUSTIN,TX,78738-1740,"(512) 491-0378",,,,
TX,WILLIAMSON,2021-31442,"Single Family Homes",3/1/2021,,,4070,"1604 ABBOT CV",LEANDER,TX,78641,,,CONTRACTOR,,,,,,,,,,,"KB HOME",,,,,"KB HOME","10800 PECAN PARK BLVD STE 200",AUSTIN,TX,78750-1249,"(512) 651-8100",,,,
TX,WILLIAMSON,2021-31453,"Single Family Homes",3/11/2021,,,4354,"4425 APOLLONIA WAY",LEANDER,TX,78641,,,CONTRACTOR,,,,,,,,,,,"TAYLOR MORRISON OF TEXAS",,,,,"TAYLOR MORRISON OF TEXAS","11200 LAKELINE BLVD STE 150A",AUSTIN,TX,78717-5964,"(512) 328-8866",,"(512) 328-7988",,
TX,WILLIAMSON,2021-31454,"Single Family Homes",3/22/2021,,,3677,"1213 PLANO LN",LEANDER,TX,78641,"MASON RANCH",,CONTRACTOR,,,,,,,,,,,"KB HOME",,,,,"KB HOME","10800 PECAN PARK BLVD STE 200",AUSTIN,TX,78750-1249,"(512) 651-8100",,,,
TX,WILLIAMSON,2021-31455,"Single Family Homes",3/1/2021,,,2563,"2412 INDIAN CLOVER TRL",LEANDER,TX,78641,,,CONTRACTOR,,,,,,,,,,,"BROHN HOMES",,,,,"BROHN HOMES","6720 VAUGHT RANCH RD STE 200",AUSTIN,TX,78730-2354,"(512) 320-8833",http://brohnhomes.com/,,,
TX,WILLIAMSON,2021-31459,"Single Family Homes",3/2/2021,,,2554,"1825 HARVEST KNOLL LN",LEANDER,TX,78641,,,CONTRACTOR,,,,,,,,,,,"CENTURY COMMUNITIES",,,,,"CENTURY COMMUNITIES","6500 RIVER PLACE BLVD STE 200",AUSTIN,TX,78730-1156,"(512) 271-3825",https://www.centurycommunities.com/,,,
TX,WILLIAMSON,2021-31462,"Single Family Homes",3/24/2021,,,4018,"605 W SOUTH ST UNITS 411 & 412",LEANDER,TX,78641,,,CONTRACTOR,,,,,,,,,,,"MASONWOOD HOMES",,,,,"MASONWOOD HOMES","4301 WESTBANK DR BLDG A STE 110",AUSTIN,TX,78738,"(512) 306-8300",,,,
TX,WILLIAMSON,2021-31463,"Single Family Homes",3/2/2021,,,3054,"3420 CHARADE DR",LEANDER,TX,78641,,,CONTRACTOR,,,,,,,,,,,"TAYLOR MORRISON OF TEXAS",,,,,"TAYLOR MORRISON OF TEXAS","11200 LAKELINE BLVD STE 150A",AUSTIN,TX,78717-5964,"(512) 328-8866",,"(512) 328-7988",,
TX,WILLIAMSON,2021-31469,"Single Family Homes",3/10/2021,,,7547,"2445 BEL PAESE BND",LEANDER,TX,78641,,,CONTRACTOR,,,,,,,,,,,"TOLL BROTHERS",,,,,"TOLL BROTHERS","310 ARIA DR",AUSTIN,TX,78738-1740,"(512) 491-0378",,,,
TX,WILLIAMSON,2021-31471,"Single Family Homes",3/12/2021,,,4475,"2008 MAR VISTA LN",LEANDER,TX,78641,"PALMERA RIDGE",,CONTRACTOR,,,,,,,,,,,"PERRY HOMES",,,,,"PERRY HOMES","6112 LLANO ST",AUSTIN,TX,78702,"(512) 810-8050",,,,
TX,WILLIAMSON,2021-31475,"Single Family Homes",3/15/2021,,,4493,"1128 KERRWOOD WAY",LEANDER,TX,78641,DEERBROOKE,,CONTRACTOR,,,,,,,,,,,"GEHAN HOMES",,,,,"GEHAN HOMES","3815 S CAPITAL OF TEXAS HWY STE 275",AUSTIN,TX,78704-6652,"(512) 330-9366",http://www.gehanhomes.com,,"JANET PHILLIPS",
TX,WILLIAMSON,2021-31476,"Single Family Homes",3/25/2021,,,4288,"3312 RETINTA ST",LEANDER,TX,78641,,,CONTRACTOR,,,,,,,,,,,"TAYLOR MORRISON OF TEXAS",,,,,"TAYLOR MORRISON OF TEXAS","11200 LAKELINE BLVD STE 150A",AUSTIN,TX,78717-5964,"(512) 328-8866",,"(512) 328-7988",,
TX,WILLIAMSON,2021-31477,"Single Family Homes",3/2/2021,,,5020,"1140 KERRWOOD WAY",LEANDER,TX,78641,DEERBROOKE,,CONTRACTOR,,,,,,,,,,,"GEHAN HOMES",,,,,"GEHAN HOMES","3815 S CAPITAL OF TEXAS HWY STE 275",AUSTIN,TX,78704-6652,"(512) 330-9366",http://www.gehanhomes.com,,"JANET PHILLIPS",
TX,WILLIAMSON,2021-31479,"Single Family Homes",3/2/2021,,,4792,"1036 BIRCHBROOKE DR",LEANDER,TX,78641,,,CONTRACTOR,,,,,,,,,,,"GEHAN HOMES",,,,,"GEHAN HOMES","3815 S CAPITAL OF TEXAS HWY STE 275",AUSTIN,TX,78704-6652,"(512) 330-9366",http://www.gehanhomes.com,,"JANET PHILLIPS",
TX,WILLIAMSON,2021-31487,"Single Family Homes",3/1/2021,,,2088,"1737 FOUNTAIN BRIDGE DR",LEANDER,TX,78641,"CRYSTAL SPRINGS",,CONTRACTOR,,,,,,,,,,,"CENTURY COMMUNITIES",,,,,"CENTURY COMMUNITIES","6500 RIVER PLACE BLVD STE 200",AUSTIN,TX,78730-1156,"(512) 271-3825",https://www.centurycommunities.com/,,,
TX,WILLIAMSON,2021-31249,"Single Family Homes",3/19/2021,,,5202,"3340 MONGOLIAN DR",LEANDER,TX,78641,,,CONTRACTOR,,,,,,,,,,,"TAYLOR MORRISON OF TEXAS",,,,,"TAYLOR MORRISON OF TEXAS","11200 LAKELINE BLVD STE 150A",AUSTIN,TX,78717-5964,"(512) 328-8866",,"(512) 328-7988",,
TX,WILLIAMSON,2021-31497,"Single Family Homes",3/17/2021,,,4144,"3348 CHARADE DR",LEANDER,TX,78641,,,CONTRACTOR,,,,,,,,,,,"PULTE HOMES",,,,,"PULTE HOMES","9401 AMBERGLEN BLVD STE I-150",AUSTIN,TX,78729-1154,"(512) 561-4344",,,,
TX,WILLIAMSON,2021-31498,"Single Family Homes",3/5/2021,,,2192,"1720 FOUNTAIN BRIDGE DR",LEANDER,TX,78641,,,CONTRACTOR,,,,,,,,,,,"CENTURY COMMUNITIES",,,,,"CENTURY COMMUNITIES","6500 RIVER PLACE BLVD STE 200",AUSTIN,TX,78730-1156,"(512) 271-3825",https://www.centurycommunities.com/,,,
TX,WILLIAMSON,2021-31499,"Single Family Homes",4/8/2021,,,3300,"3637 WALKALOOSA WAY",LEANDER,TX,78641,,,CONTRACTOR,,,,,,,,,,,"MILESTONE COMMUNITY BUILDERS",,,,,"MILESTONE COMMUNITY BUILDERS","9111 JOLLYVILLE RD STE 111",AUSTIN,TX,78759-7406,"(512) 686-4986",http://www.mymilestone.com/,,,
TX,WILLIAMSON,2021-31500,"Single Family Homes",3/8/2021,,,2001,"1708 FOUNTAIN BRIDGE DR",LEANDER,TX,78641,,,CONTRACTOR,,,,,,,,,,,"CENTURY COMMUNITIES",,,,,"CENTURY COMMUNITIES","6500 RIVER PLACE BLVD STE 200",AUSTIN,TX,78730-1156,"(512) 271-3825",https://www.centurycommunities.com/,,,
TX,WILLIAMSON,2021-31501,"Single Family Homes",3/8/2021,,,1789,"1704 FOUNTAIN BRIDGE DR",LEANDER,TX,78641,,,CONTRACTOR,,,,,,,,,,,"CENTURY COMMUNITIES",,,,,"CENTURY COMMUNITIES","6500 RIVER PLACE BLVD STE 200",AUSTIN,TX,78730-1156,"(512) 271-3825",https://www.centurycommunities.com/,,,
TX,WILLIAMSON,2021-31505,"Single Family Homes",3/8/2021,,,2304,"1664 FOUNTAIN BRIDGE DR",LEANDER,TX,78641,,,CONTRACTOR,,,,,,,,,,,"CENTURY COMMUNITIES",,,,,"CENTURY COMMUNITIES","6500 RIVER PLACE BLVD STE 200",AUSTIN,TX,78730-1156,"(512) 271-3825",https://www.centurycommunities.com/,,,
TX,WILLIAMSON,2021-31506,"Single Family Homes",3/2/2021,,,3281,"708 ALTEA DR",LEANDER,TX,78641,"PALMERA RIDGE",,CONTRACTOR,,,,,,,,,,,"CHESMAR HOMES",,,,,"CHESMAR HOMES","2900 N QUINLAN PARK RD",AUSTIN,TX,78732-6083,"(512) 233-9016",http://chesmar.com,,,
TX,WILLIAMSON,2021-31507,"Single Family Homes",3/8/2021,,,2084,"1660 FOUNTAIN BRIDGE DR",LEANDER,TX,78641,,,CONTRACTOR,,,,,,,,,,,"CENTURY COMMUNITIES",,,,,"CENTURY COMMUNITIES","6500 RIVER PLACE BLVD STE 200",AUSTIN,TX,78730-1156,"(512) 271-3825",https://www.centurycommunities.com/,,,
TX,WILLIAMSON,2021-31508,"Single Family Homes",3/12/2021,,,3435,"705 ALTEA DR",LEANDER,TX,78641,,,CONTRACTOR,,,,,,,,,,,"CHESMAR HOMES",,,,,"CHESMAR HOMES","2900 N QUINLAN PARK RD",AUSTIN,TX,78732-6083,"(512) 233-9016",http://chesmar.com,,,
TX,WILLIAMSON,2021-31509,"Single Family Homes",3/2/2021,,,4404,"1101 OVERSTREET LN",LEANDER,TX,78641,,,CONTRACTOR,,,,,,,,,,,"CHESMAR HOMES",,,,,"CHESMAR HOMES","2900 N QUINLAN PARK RD",AUSTIN,TX,78732-6083,"(512) 233-9016",http://chesmar.com,,,
TX,WILLIAMSON,2021-31510,"Single Family Homes",3/2/2021,,,3682,"816 PASEO DE CASTANA WAY",LEANDER,TX,78641,,,CONTRACTOR,,,,,,,,,,,"MHI MCGUYER HOMEBUILDERS",,,,,"MHI MCGUYER HOMEBUILDERS","8200 N MO PAC EXPY STE 300",AUSTIN,TX,78759-8844,"(512) 502-2050",,"(512) 388-1836","FRANK MCGUYER",
TX,WILLIAMSON,2021-31531,"Single Family Homes",3/12/2021,,,5123,"3500 ELM RIDGE DR",LEANDER,TX,78641,,,CONTRACTOR,,,,,,,,,,,"CENTURY COMMUNITIES",,,,,"CENTURY COMMUNITIES","6500 RIVER PLACE BLVD STE 200",AUSTIN,TX,78730-1156,"(512) 271-3825",https://www.centurycommunities.com/,,,
TX,WILLIAMSON,2021-31534,"Single Family Homes",3/23/2021,,,5745,"3609 ELM RIDGE DR",LEANDER,TX,78641,,,CONTRACTOR,,,,,,,,,,,"CENTURY COMMUNITIES",,,,,"CENTURY COMMUNITIES","6500 RIVER PLACE BLVD STE 200",AUSTIN,TX,78730-1156,"(512) 271-3825",https://www.centurycommunities.com/,,,
TX,WILLIAMSON,2021-31538,"Single Family Homes",4/9/2021,,,3541,"3425 WALKALOOSA WAY",LEANDER,TX,78641,,,CONTRACTOR,,,,,,,,,,,"MILESTONE COMMUNITY BUILDERS",,,,,"MILESTONE COMMUNITY BUILDERS","9111 JOLLYVILLE RD STE 111",AUSTIN,TX,78759-7406,"(512) 686-4986",http://www.mymilestone.com/,,,
TX,WILLIAMSON,2021-31545,"Single Family Homes",4/10/2021,,,4656,"3512 GARRANO BND",LEANDER,TX,78641,,,CONTRACTOR,,,,,,,,,,,"MILESTONE COMMUNITY BUILDERS",,,,,"MILESTONE COMMUNITY BUILDERS","9111 JOLLYVILLE RD STE 111",AUSTIN,TX,78759-7406,"(512) 686-4986",http://www.mymilestone.com/,,,
TX,WILLIAMSON,2021-31569,"Single Family Homes",3/3/2021,,,3819,"2624 LONGHORN RANCH CT",LEANDER,TX,78641,,,CONTRACTOR,,,,,,,,,,,"GFO HOME",,,,,"GFO HOME","6012 AVIATION DR # 200",PFLUGERVILLE,TX,78660-8960,"(512) 492-8640",https://www.gfohome.com,,,
TX,WILLIAMSON,2021-31570,"Single Family Homes",3/3/2021,,,3819,"2720 BRUSHWOOD MDW",LEANDER,TX,78641,,,CONTRACTOR,,,,,,,,,,,"GFO HOME",,,,,"GFO HOME","6012 AVIATION DR # 200",PFLUGERVILLE,TX,78660-8960,"(512) 492-8640",https://www.gfohome.com,,,
TX,WILLIAMSON,2021-31571,"Single Family Homes",3/17/2021,,,3392,"1900 DONETTO DR",LEANDER,TX,78641,BLUFFVIEW,,CONTRACTOR,,,,,,,,,,,"PULTE HOMES",,,,,"PULTE HOMES","9401 AMBERGLEN BLVD STE I-150",AUSTIN,TX,78729-1154,"(512) 561-4344",,,,
TX,WILLIAMSON,2021-31572,"Single Family Homes",3/8/2021,,,2872,"2204 HIGH VICTORY RD",LEANDER,TX,78641,,,CONTRACTOR,,,,,,,,,,,"HIGHLAND HOMES",,,,,"HIGHLAND HOMES","4201 W PARMER LN STE B180",AUSTIN,TX,78727-4110,"(512) 834-8429",,,,
TX,WILLIAMSON,2021-31573,"Single Family Homes",3/3/2021,,,3819,"1421 COPPERFIELD WAY",LEANDER,TX,78641,,,CONTRACTOR,,,,,,,,,,,"GFO HOME",,,,,"GFO HOME","6012 AVIATION DR # 200",PFLUGERVILLE,TX,78660-8960,"(512) 492-8640",https://www.gfohome.com,,,
TX,WILLIAMSON,2021-31574,"Single Family Homes",3/3/2021,,,2695,"2617 LONGHORN RANCH CT",LEANDER,TX,78641,,,CONTRACTOR,,,,,,,,,,,"GFO HOME",,,,,"GFO HOME","6012 AVIATION DR # 200",PFLUGERVILLE,TX,78660-8960,"(512) 492-8640",https://www.gfohome.com,,,
TX,WILLIAMSON,2021-31586,"Single Family Homes",3/4/2021,,,2200,"1716 ARAPAHO MOUNTAIN PASS",LEANDER,TX,78641,,,CONTRACTOR,,,,,,,,,,,"PACESETTER HOMES ",,,,,"PACESETTER HOMES ","7940 SHOAL CREEK BLVD STE 200",AUSTIN,TX,78757-7587,"(512) 323-5252",,,,
TX,WILLIAMSON,2021-31587,"Single Family Homes",2/28/2021,,,3861,"1012 BIRCHBROOKE DR",LEANDER,TX,78641,,,CONTRACTOR,,,,,,,,,,,"PERRY HOMES",,,,,"PERRY HOMES","6112 LLANO ST",AUSTIN,TX,78702,"(512) 810-8050",,,,
TX,WILLIAMSON,2021-31588,"Single Family Homes",3/3/2021,,,2782,"1824 SHOSHONE CT",LEANDER,TX,78641,,,CONTRACTOR,,,,,,,,,,,"PACESETTER HOMES ",,,,,"PACESETTER HOMES ","7940 SHOAL CREEK BLVD STE 200",AUSTIN,TX,78757-7587,"(512) 323-5252",,,,
TX,WILLIAMSON,2021-31590,"Single Family Homes",3/5/2021,,,2782,"1349 WEATHERFORD LN",LEANDER,TX,78641,,,CONTRACTOR,,,,,,,,,,,"LENNAR HOMES",,,,,"LENNAR HOMES","13620 FM 620 RD 150",AUSTIN,TX,78717,"(512) 506-4000",http://www.lennar.com/,,,
TX,WILLIAMSON,2021-31608,"Single Family Homes",3/5/2021,,,2639,"1944 BLUE RIVER DR",LEANDER,TX,78641,,,CONTRACTOR,,,,,,,,,,,"ASHTON WOODS HOMES",,,,,"ASHTON WOODS HOMES","4201 W PARMER LN STE A150",AUSTIN,TX,78727-4118,"(512) 610-7000",,,,
TX,WILLIAMSON,2021-31609,"Single Family Homes",3/16/2021,,,2362,"1633 WOOLSEY WAY",LEANDER,TX,78641,BRYSON,,CONTRACTOR,,,,,,,,,,,"LENNAR HOMES",,,,,"LENNAR HOMES","13620 FM 620 RD 150",AUSTIN,TX,78717,"(512) 506-4000",http://www.lennar.com/,,,
TX,WILLIAMSON,2021-31610,"Single Family Homes",3/26/2021,,,4234,"3537 TRIGGER TRL",LEANDER,TX,78641,,,CONTRACTOR,,,,,,,,,,,"MILESTONE COMMUNITY BUILDERS",,,,,"MILESTONE COMMUNITY BUILDERS","9111 JOLLYVILLE RD STE 111",AUSTIN,TX,78759-7406,"(512) 686-4986",http://www.mymilestone.com/,,,
TX,WILLIAMSON,2021-31611,"Single Family Homes",3/9/2021,,,2752,"1932 BLUE RIVER DR",LEANDER,TX,78641,,,CONTRACTOR,,,,,,,,,,,"ASHTON WOODS HOMES",,,,,"ASHTON WOODS HOMES","4201 W PARMER LN STE A150",AUSTIN,TX,78727-4118,"(512) 610-7000",,,,
TX,WILLIAMSON,2021-31612,"Single Family Homes",3/18/2021,,,3195,"1928 BLUE RIVER DR",LEANDER,TX,78641,,,CONTRACTOR,,,,,,,,,,,"ASHTON WOODS HOMES",,,,,"ASHTON WOODS HOMES","4201 W PARMER LN STE A150",AUSTIN,TX,78727-4118,"(512) 610-7000",,,,
TX,WILLIAMSON,2021-31614,"Single Family Homes",3/15/2021,,,5264,"1121 PLANO LN",LEANDER,TX,78641,,,CONTRACTOR,,,,,,,,,,,"KB HOME",,,,,"KB HOME","10800 PECAN PARK BLVD STE 200",AUSTIN,TX,78750-1249,"(512) 651-8100",,,,
TX,WILLIAMSON,2021-31615,"Single Family Homes",3/15/2021,,,3613,"1124 PLANO LN",LEANDER,TX,78641,,,CONTRACTOR,,,,,,,,,,,"KB HOME",,,,,"KB HOME","10800 PECAN PARK BLVD STE 200",AUSTIN,TX,78750-1249,"(512) 651-8100",,,,
TX,WILLIAMSON,2021-31617,"Single Family Homes",3/15/2021,,,3831,"1625 STINNETT DR",LEANDER,TX,78641,,,CONTRACTOR,,,,,,,,,,,"KB HOME",,,,,"KB HOME","10800 PECAN PARK BLVD STE 200",AUSTIN,TX,78750-1249,"(512) 651-8100",,,,
TX,WILLIAMSON,2021-31618,"Single Family Homes",3/15/2021,,,3571,"1032 ARBOR ACRES LOOP",LEANDER,TX,78641,,,CONTRACTOR,,,,,,,,,,,"KB HOME",,,,,"KB HOME","10800 PECAN PARK BLVD STE 200",AUSTIN,TX,78750-1249,"(512) 651-8100",,,,
TX,WILLIAMSON,2021-31620,"Single Family Homes",3/9/2021,,,3020,"1920 BLUE RIVER DR",LEANDER,TX,78641,,,CONTRACTOR,,,,,,,,,,,"ASHTON WOODS HOMES",,,,,"ASHTON WOODS HOMES","4201 W PARMER LN STE A150",AUSTIN,TX,78727-4118,"(512) 610-7000",,,,
TX,WILLIAMSON,2021-31677,"Single Family Homes",3/17/2021,,,3476,"1813 SHOSHONE CT",LEANDER,TX,78641,,,CONTRACTOR,,,,,,,,,,,"PACESETTER HOMES ",,,,,"PACESETTER HOMES ","7940 SHOAL CREEK BLVD STE 200",AUSTIN,TX,78757-7587,"(512) 323-5252",,,,
TX,WILLIAMSON,2021-31687,"Single Family Homes",3/17/2021,,,3552,"1809 SHOSHONE CT",LEANDER,TX,78641,,,CONTRACTOR,,,,,,,,,,,"PACESETTER HOMES ",,,,,"PACESETTER HOMES ","7940 SHOAL CREEK BLVD STE 200",AUSTIN,TX,78757-7587,"(512) 323-5252",,,,
TX,WILLIAMSON,2021-31688,"Single Family Homes",3/24/2021,,,2827,"1805 SHOSHONE CT",LEANDER,TX,78641,"VALLEY VISTA",,CONTRACTOR,,,,,,,,,,,"PACESETTER HOMES ",,,,,"PACESETTER HOMES ","7940 SHOAL CREEK BLVD STE 200",AUSTIN,TX,78757-7587,"(512) 323-5252",,,,
TX,WILLIAMSON,2021-31689,"Single Family Homes",3/17/2021,,,2827,"1825 ARAPAHO MOUNTAIN PASS",LEANDER,TX,78641,,,CONTRACTOR,,,,,,,,,,,"PACESETTER HOMES ",,,,,"PACESETTER HOMES ","7940 SHOAL CREEK BLVD STE 200",AUSTIN,TX,78757-7587,"(512) 323-5252",,,,
TX,WILLIAMSON,2021-31690,"Single Family Homes",3/8/2021,,,3038,"1720 NAVAJO SONG LN",LEANDER,TX,78641,,,CONTRACTOR,,,,,,,,,,,"PACESETTER HOMES ",,,,,"PACESETTER HOMES ","7940 SHOAL CREEK BLVD STE 200",AUSTIN,TX,78757-7587,"(512) 323-5252",,,,
TX,WILLIAMSON,2021-31691,"Single Family Homes",3/27/2021,,51531,,"1804 CHICKASAW RUN",LEANDER,TX,78641,,,CONTRACTOR,,,,,,,,,,,"PACESETTER HOMES ",,,,,"PACESETTER HOMES ","7940 SHOAL CREEK BLVD STE 200",AUSTIN,TX,78757-7587,"(512) 323-5252",,,,
TX,WILLIAMSON,2021-31692,"Single Family Homes",3/23/2021,,,2376,"2609 SAN BAUTISTA WAY",LEANDER,TX,78641,,,CONTRACTOR,,,,,,,,,,,"PERRY HOMES",,,,,"PERRY HOMES","6112 LLANO ST",AUSTIN,TX,78702,"(512) 810-8050",,,,
TX,WILLIAMSON,2021-31693,"Single Family Homes",3/5/2021,,,2898,"1513 INDIAN APPLE WAY",LEANDER,TX,78641,,,CONTRACTOR,,,,,,,,,,,"TRI POINTE HOMES",,,,,"TRI POINTE HOMES","16340 PARK TEN PLACE, #250",HOUSTON,TX,77356,"(281) 675-3200",https://investors.tripointehomes.com/,,,
TX,WILLIAMSON,2021-31694,"Single Family Homes",3/10/2021,,,2482,"1348 WEATHERFORD LN",LEANDER,TX,78641,,,CONTRACTOR,,,,,,,,,,,"LENNAR HOMES",,,,,"LENNAR HOMES","13620 FM 620 RD 150",AUSTIN,TX,78717,"(512) 506-4000",http://www.lennar.com/,,,
TX,WILLIAMSON,2021-31695,"Single Family Homes",3/30/2021,,,3884,"3501 TRIGGER TRL",LEANDER,TX,78641,,,CONTRACTOR,,,,,,,,,,,"MILESTONE COMMUNITY BUILDERS",,,,,"MILESTONE COMMUNITY BUILDERS","9111 JOLLYVILLE RD STE 111",AUSTIN,TX,78759-7406,"(512) 686-4986",http://www.mymilestone.com/,,,
TX,WILLIAMSON,2021-31697,"Single Family Homes",4/10/2021,,,4159,"3449 WALKALOOSA WAY",LEANDER,TX,78641,,,CONTRACTOR,,,,,,,,,,,"MILESTONE COMMUNITY BUILDERS",,,,,"MILESTONE COMMUNITY BUILDERS","9111 JOLLYVILLE RD STE 111",AUSTIN,TX,78759-7406,"(512) 686-4986",http://www.mymilestone.com/,,,
TX,WILLIAMSON,2021-31698,"Single Family Homes",4/6/2021,,,2673,"1400 WEATHERFORD LN",LEANDER,TX,78641,,,CONTRACTOR,,,,,,,,,,,"LENNAR HOMES",,,,,"LENNAR HOMES","13620 FM 620 RD 150",AUSTIN,TX,78717,"(512) 506-4000",http://www.lennar.com/,,,
TX,WILLIAMSON,2021-31704,"Single Family Homes",4/17/2021,,,2680,"1404 WEATHERFORD LN",LEANDER,TX,78641,,,CONTRACTOR,,,,,,,,,,,"LENNAR HOMES",,,,,"LENNAR HOMES","13620 FM 620 RD 150",AUSTIN,TX,78717,"(512) 506-4000",http://www.lennar.com/,,,
TX,WILLIAMSON,2021-31705,"Single Family Homes",4/17/2021,,,2431,"1408 WEATHERFORD LN",LEANDER,TX,78641,,,CONTRACTOR,,,,,,,,,,,"LENNAR HOMES",,,,,"LENNAR HOMES","13620 FM 620 RD 150",AUSTIN,TX,78717,"(512) 506-4000",http://www.lennar.com/,,,
TX,WILLIAMSON,2021-31707,"Single Family Homes",4/2/2021,,,5220,"3305 MONGOLIAN DR",LEANDER,TX,78641,,,CONTRACTOR,,,,,,,,,,,"PULTE HOMES",,,,,"PULTE HOMES","9401 AMBERGLEN BLVD STE I-150",AUSTIN,TX,78729-1154,"(512) 561-4344",,,,
TX,WILLIAMSON,2021-31708,"Single Family Homes",3/17/2021,,,3742,"3600 GABRIELS HORN RD",LEANDER,TX,78641,,,CONTRACTOR,,,,,,,,,,,"PULTE HOMES",,,,,"PULTE HOMES","9401 AMBERGLEN BLVD STE I-150",AUSTIN,TX,78729-1154,"(512) 561-4344",,,,
TX,WILLIAMSON,2021-31722,"Single Family Homes",3/17/2021,,,4069,"1517 DONETTO DR",LEANDER,TX,78641,,,CONTRACTOR,,,,,,,,,,,"PULTE HOMES",,,,,"PULTE HOMES","9401 AMBERGLEN BLVD STE I-150",AUSTIN,TX,78729-1154,"(512) 561-4344",,,,
TX,WILLIAMSON,2021-31724,"Single Family Homes",3/9/2021,,,2084,"1712 FOUNTAIN BRIDGE DR",LEANDER,TX,78641,,,CONTRACTOR,,,,,,,,,,,"CENTURY COMMUNITIES",,,,,"CENTURY COMMUNITIES","6500 RIVER PLACE BLVD STE 200",AUSTIN,TX,78730-1156,"(512) 271-3825",https://www.centurycommunities.com/,,,
TX,WILLIAMSON,2021-31725,"Single Family Homes",3/17/2021,,,5298,"1336 DA VINCI TRL",LEANDER,TX,78641,,,CONTRACTOR,,,,,,,,,,,"TOLL BROTHERS",,,,,"TOLL BROTHERS","310 ARIA DR",AUSTIN,TX,78738-1740,"(512) 491-0378",,,,
TX,WILLIAMSON,2021-31727,"Single Family Homes",3/23/2021,,,7317,"2208 SAN POLO PL",LEANDER,TX,78641,,,CONTRACTOR,,,,,,,,,,,"TOLL BROTHERS",,,,,"TOLL BROTHERS","310 ARIA DR",AUSTIN,TX,78738-1740,"(512) 491-0378",,,,
TX,WILLIAMSON,2021-31736,"Single Family Homes",3/10/2021,,,2933,"904 AZUL LAGOON DR",LEANDER,TX,78641,,,CONTRACTOR,,,,,,,,,,,"PERRY HOMES",,,,,"PERRY HOMES","6112 LLANO ST",AUSTIN,TX,78702,"(512) 810-8050",,,,
TX,WILLIAMSON,2021-31737,"Single Family Homes",4/1/2021,,,4301,"4417 APOLLONIA WAY",LEANDER,TX,78641,,,CONTRACTOR,,,,,,,,,,,"TAYLOR MORRISON OF TEXAS",,,,,"TAYLOR MORRISON OF TEXAS","11200 LAKELINE BLVD STE 150A",AUSTIN,TX,78717-5964,"(512) 328-8866",,"(512) 328-7988",,
TX,WILLIAMSON,2021-31746,"Single Family Homes",3/29/2021,,,4527,"3425 TRIGGER TRL",LEANDER,TX,78641,,,CONTRACTOR,,,,,,,,,,,"MILESTONE COMMUNITY BUILDERS",,,,,"MILESTONE COMMUNITY BUILDERS","9111 JOLLYVILLE RD STE 111",AUSTIN,TX,78759-7406,"(512) 686-4986",http://www.mymilestone.com/,,,
TX,WILLIAMSON,2021-31747,"Single Family Homes",3/16/2021,,,2928,"936 AZUL LAGOON DR",LEANDER,TX,78641,,,CONTRACTOR,,,,,,,,,,,"PERRY HOMES",,,,,"PERRY HOMES","6112 LLANO ST",AUSTIN,TX,78702,"(512) 810-8050",,,,
TX,WILLIAMSON,2021-31748,"Single Family Homes",4/16/2021,,,4018,"605 W SOUTH ST UNITS 171 & 172",LEANDER,TX,78641,,,CONTRACTOR,,,,,,,,,,,"MASONWOOD HOMES",,,,,"MASONWOOD HOMES","4301 WESTBANK DR BLDG A STE 110",AUSTIN,TX,78738,"(512) 306-8300",,,,
TX,WILLIAMSON,2021-31752,"Single Family Homes",3/16/2021,,,4467,"2301 LUCKY LN",LEANDER,TX,78641,,,CONTRACTOR,,,,,,,,,,,"BROHN HOMES",,,,,"BROHN HOMES","6720 VAUGHT RANCH RD STE 200",AUSTIN,TX,78730-2354,"(512) 320-8833",http://brohnhomes.com/,,,
TX,WILLIAMSON,2021-31755,"Single Family Homes",3/4/2021,,,3677,"1608 LONGHORN RANCH DR",LEANDER,TX,78641,DEERBROOKE,,CONTRACTOR,,,,,,,,,,,"MERITAGE HOMES",,,,,"MERITAGE HOMES","8920 BUSINESS PARK DR STE 250",AUSTIN,TX,78759-7622,"(512) 610-4800",,,,
TX,WILLIAMSON,2021-31757,"Single Family Homes",3/4/2021,,,2533,"1612 LONGHORN RANCH DR",LEANDER,TX,78641,,,CONTRACTOR,,,,,,,,,,,"MERITAGE HOMES",,,,,"MERITAGE HOMES","8920 BUSINESS PARK DR STE 250",AUSTIN,TX,78759-7622,"(512) 610-4800",,,,
TX,WILLIAMSON,2021-31758,"Single Family Homes",3/4/2021,,,2533,"1533 LONGHORN RANCH DR",LEANDER,TX,78641,,,CONTRACTOR,,,,,,,,,,,"MERITAGE HOMES",,,,,"MERITAGE HOMES","8920 BUSINESS PARK DR STE 250",AUSTIN,TX,78759-7622,"(512) 610-4800",,,,
TX,WILLIAMSON,2021-31759,"Single Family Homes",3/23/2021,,,3922,"1324 AL FRESCO CV",LEANDER,TX,78641,,,CONTRACTOR,,,,,,,,,,,"TOLL BROTHERS",,,,,"TOLL BROTHERS","310 ARIA DR",AUSTIN,TX,78738-1740,"(512) 491-0378",,,,
TX,WILLIAMSON,2021-31760,"Single Family Homes",3/4/2021,,,2703,"1537 LONGHORN RANCH DR",LEANDER,TX,78641,,,CONTRACTOR,,,,,,,,,,,"MERITAGE HOMES",,,,,"MERITAGE HOMES","8920 BUSINESS PARK DR STE 250",AUSTIN,TX,78759-7622,"(512) 610-4800",,,,
TX,WILLIAMSON,2021-31762,"Single Family Homes",3/26/2021,,,3099,"4541 LUCABELLA LN",LEANDER,TX,78641,,,CONTRACTOR,,,,,,,,,,,"TOLL BROTHERS",,,,,"TOLL BROTHERS","310 ARIA DR",AUSTIN,TX,78738-1740,"(512) 491-0378",,,,
TX,WILLIAMSON,2021-31763,"Single Family Homes",3/23/2021,,,4664,"2125 BEL PAESE BND",LEANDER,TX,78641,,,CONTRACTOR,,,,,,,,,,,"TOLL BROTHERS",,,,,"TOLL BROTHERS","310 ARIA DR",AUSTIN,TX,78738-1740,"(512) 491-0378",,,,
TX,WILLIAMSON,2021-31764,"Single Family Homes",3/23/2021,,,4062,"2117 BEL PAESE BND",LEANDER,TX,78641,,,CONTRACTOR,,,,,,,,,,,"TOLL BROTHERS",,,,,"TOLL BROTHERS","310 ARIA DR",AUSTIN,TX,78738-1740,"(512) 491-0378",,,,
TX,WILLIAMSON,2021-31765,"Single Family Homes",4/16/2021,,,4018,"605 W SOUTH ST UNIT 91 & 92",LEANDER,TX,78641,,,CONTRACTOR,,,,,,,,,,,"MASONWOOD HOMES",,,,,"MASONWOOD HOMES","4301 WESTBANK DR BLDG A STE 110",AUSTIN,TX,78738,"(512) 306-8300",,,,
TX,WILLIAMSON,2021-31766,"Single Family Homes",4/6/2021,,,2475,"1420 LATOKA SPRINGS RD",LEANDER,TX,78641,,,CONTRACTOR,,,,,,,,,,,"LENNAR HOMES",,,,,"LENNAR HOMES","13620 FM 620 RD 150",AUSTIN,TX,78717,"(512) 506-4000",http://www.lennar.com/,,,
TX,WILLIAMSON,2021-31767,"Single Family Homes",3/10/2021,,,4982,"801 CRITTY LN",LEANDER,TX,78641,,,CONTRACTOR,,,,,,,,,,,"GEHAN HOMES",,,,,"GEHAN HOMES","3815 S CAPITAL OF TEXAS HWY STE 275",AUSTIN,TX,78704-6652,"(512) 330-9366",http://www.gehanhomes.com,,"JANET PHILLIPS",
TX,WILLIAMSON,2021-31628,"Single Family Homes",4/5/2021,,,2789,"2104 BASE BURNER PATH",LEANDER,TX,78641,,,CONTRACTOR,,,,,,,,,,,"GEHAN HOMES",,,,,"GEHAN HOMES","3815 S CAPITAL OF TEXAS HWY STE 275",AUSTIN,TX,78704-6652,"(512) 330-9366",http://www.gehanhomes.com,,"JANET PHILLIPS",
TX,WILLIAMSON,2021-31629,"Single Family Homes",3/9/2021,,,3032,"1936 BLUE RIVER DR",LEANDER,TX,78641,,,CONTRACTOR,,,,,,,,,,,"ASHTON WOODS HOMES",,,,,"ASHTON WOODS HOMES","4201 W PARMER LN STE A150",AUSTIN,TX,78727-4118,"(512) 610-7000",,,,
TX,WILLIAMSON,2021-31630,"Single Family Homes",4/21/2021,,,4112,"3513 TRIGGER TRL",LEANDER,TX,78641,,,CONTRACTOR,,,,,,,,,,,"MILESTONE COMMUNITY BUILDERS",,,,,"MILESTONE COMMUNITY BUILDERS","9111 JOLLYVILLE RD STE 111",AUSTIN,TX,78759-7406,"(512) 686-4986",http://www.mymilestone.com/,,,
TX,WILLIAMSON,2021-31633,"Single Family Homes",3/11/2021,,,4922,"1424 HINTERWALD ST",LEANDER,TX,78641,BLUFFVIEW,,CONTRACTOR,,,,,,,,,,,"TAYLOR MORRISON OF TEXAS",,,,,"TAYLOR MORRISON OF TEXAS","11200 LAKELINE BLVD STE 150A",AUSTIN,TX,78717-5964,"(512) 328-8866",,"(512) 328-7988",,
TX,WILLIAMSON,2021-31634,"Single Family Homes",3/10/2021,,,3819,"1321 LONGHORN RANCH DR",LEANDER,TX,78641,,,CONTRACTOR,,,,,,,,,,,"GFO HOME",,,,,"GFO HOME","6012 AVIATION DR # 200",PFLUGERVILLE,TX,78660-8960,"(512) 492-8640",https://www.gfohome.com,,,
TX,WILLIAMSON,2021-31635,"Single Family Homes",3/10/2021,,,2898,"1229 LONGHORN RANCH DR",LEANDER,TX,78641,DEERBROOKE,,CONTRACTOR,,,,,,,,,,,"GFO HOME",,,,,"GFO HOME","6012 AVIATION DR # 200",PFLUGERVILLE,TX,78660-8960,"(512) 492-8640",https://www.gfohome.com,,,
TX,WILLIAMSON,2021-31636,"Single Family Homes",3/26/2021,,,4714,"3525 TRIGGER TRL",LEANDER,TX,78641,,,CONTRACTOR,,,,,,,,,,,"MILESTONE COMMUNITY BUILDERS",,,,,"MILESTONE COMMUNITY BUILDERS","9111 JOLLYVILLE RD STE 111",AUSTIN,TX,78759-7406,"(512) 686-4986",http://www.mymilestone.com/,,,
TX,WILLIAMSON,2021-31638,"Single Family Homes",3/16/2021,,,3820,"3505 ARRIETA DR",LEANDER,TX,78641,BLUFFVIEW,,CONTRACTOR,,,,,,,,,,,"TAYLOR MORRISON OF TEXAS",,,,,"TAYLOR MORRISON OF TEXAS","11200 LAKELINE BLVD STE 150A",AUSTIN,TX,78717-5964,"(512) 328-8866",,"(512) 328-7988",,
TX,WILLIAMSON,2021-31639,"Single Family Homes",3/18/2021,,,4316,"1504 SUNSET VISTA BND",LEANDER,TX,78641,,,CONTRACTOR,,,,,,,,,,,"TAYLOR MORRISON OF TEXAS",,,,,"TAYLOR MORRISON OF TEXAS","11200 LAKELINE BLVD STE 150A",AUSTIN,TX,78717-5964,"(512) 328-8866",,"(512) 328-7988",,
TX,WILLIAMSON,2021-31640,"Single Family Homes",3/11/2021,,,2685,"2609 ACOMA LN",LEANDER,TX,78641,,,CONTRACTOR,,,,,,,,,,,"ASHTON WOODS HOMES",,,,,"ASHTON WOODS HOMES","4201 W PARMER LN STE A150",AUSTIN,TX,78727-4118,"(512) 610-7000",,,,
TX,WILLIAMSON,2021-31642,"Single Family Homes",3/16/2021,,,2196,"1625 WOOLSEY WAY",LEANDER,TX,78641,BRYSON,,CONTRACTOR,,,,,,,,,,,"LENNAR HOMES",,,,,"LENNAR HOMES","13620 FM 620 RD 150",AUSTIN,TX,78717,"(512) 506-4000",http://www.lennar.com/,,,
TX,WILLIAMSON,2021-31643,"Single Family Homes",3/16/2021,,,2519,"1528 BRUEGGERHOFF RD",LEANDER,TX,78641,,,CONTRACTOR,,,,,,,,,,,"LENNAR HOMES",,,,,"LENNAR HOMES","13620 FM 620 RD 150",AUSTIN,TX,78717,"(512) 506-4000",http://www.lennar.com/,,,
TX,WILLIAMSON,2021-31644,"Single Family Homes",4/21/2021,,,2504,"1632 WOOLSEY WAY",LEANDER,TX,78641,,,CONTRACTOR,,,,,,,,,,,"LENNAR HOMES",,,,,"LENNAR HOMES","13620 FM 620 RD 150",AUSTIN,TX,78717,"(512) 506-4000",http://www.lennar.com/,,,
TX,WILLIAMSON,2021-31773,"Single Family Homes",4/10/2021,,,5338,"2212 LIVE OAK RD",LEANDER,TX,78641,,,CONTRACTOR,,,,,,,,,,,"RIGHT ONE BUILDERS",,,,,"RIGHT ONE BUILDERS","104 CAVALIER COVE",HUTTO,TX,78634,"(512) 590-0158",,,"MARK RISENHOOVER",
TX,WILLIAMSON,2021-31775,"Single Family Homes",3/31/2021,,,2745,"2613 FRANCISCANA WAY",LEANDER,TX,78641,,,CONTRACTOR,,,,,,,,,,,"PERRY HOMES",,,,,"PERRY HOMES","6112 LLANO ST",AUSTIN,TX,78702,"(512) 810-8050",,,,
TX,WILLIAMSON,2021-31782,"Single Family Homes",3/15/2021,,,3282,"1105 BIRCHBROOKE DR",LEANDER,TX,78641,DEERBROOKE,,CONTRACTOR,,,,,,,,,,,"GEHAN HOMES",,,,,"GEHAN HOMES","3815 S CAPITAL OF TEXAS HWY STE 275",AUSTIN,TX,78704-6652,"(512) 330-9366",http://www.gehanhomes.com,,"JANET PHILLIPS",
TX,WILLIAMSON,2021-31783,"Single Family Homes",3/8/2021,,,3872,"2501 CARRETERA DR",LEANDER,TX,78641,,,CONTRACTOR,,,,,,,,,,,"CHESMAR HOMES",,,,,"CHESMAR HOMES","2900 N QUINLAN PARK RD",AUSTIN,TX,78732-6083,"(512) 233-9016",http://chesmar.com,,,
TX,WILLIAMSON,2021-31784,"Single Family Homes",3/8/2021,,,4257,"628 ASHER CT",LEANDER,TX,78641,,,CONTRACTOR,,,,,,,,,,,"CHESMAR HOMES",,,,,"CHESMAR HOMES","2900 N QUINLAN PARK RD",AUSTIN,TX,78732-6083,"(512) 233-9016",http://chesmar.com,,,
TX,WILLIAMSON,2021-31787,"Single Family Homes",3/30/2021,,,3520,"3424 CHARADE DR",LEANDER,TX,78641,BLUFFVIEW,,CONTRACTOR,,,,,,,,,,,"TAYLOR MORRISON OF TEXAS",,,,,"TAYLOR MORRISON OF TEXAS","11200 LAKELINE BLVD STE 150A",AUSTIN,TX,78717-5964,"(512) 328-8866",,"(512) 328-7988",,
TX,WILLIAMSON,2021-31788,"Single Family Homes",4/6/2021,,,5957,"3329 MONGOLIAN DR",LEANDER,TX,78641,BLUFFVIEW,,CONTRACTOR,,,,,,,,,,,"TAYLOR MORRISON OF TEXAS",,,,,"TAYLOR MORRISON OF TEXAS","11200 LAKELINE BLVD STE 150A",AUSTIN,TX,78717-5964,"(512) 328-8866",,"(512) 328-7988",,
TX,WILLIAMSON,2021-31822,"Single Family Homes",3/17/2021,,,2654,"3400 CHARADE DR",LEANDER,TX,78641,BLUFFVIEW,,CONTRACTOR,,,,,,,,,,,"PULTE HOMES",,,,,"PULTE HOMES","9401 AMBERGLEN BLVD STE I-150",AUSTIN,TX,78729-1154,"(512) 561-4344",,,,
TX,WILLIAMSON,2021-31823,"Single Family Homes",3/17/2021,,,3845,"3356 CHARADE DR",LEANDER,TX,78641,,,CONTRACTOR,,,,,,,,,,,"PULTE HOMES",,,,,"PULTE HOMES","9401 AMBERGLEN BLVD STE I-150",AUSTIN,TX,78729-1154,"(512) 561-4344",,,,
TX,WILLIAMSON,2021-31827,"Single Family Homes",4/2/2021,,,4454,"1504 LOW BRANCH LN",LEANDER,TX,78641,,,CONTRACTOR,,,,,,,,,,,"GEHAN HOMES",,,,,"GEHAN HOMES","3815 S CAPITAL OF TEXAS HWY STE 275",AUSTIN,TX,78704-6652,"(512) 330-9366",http://www.gehanhomes.com,,"JANET PHILLIPS",
TX,WILLIAMSON,2021-31829,"Single Family Homes",3/19/2021,,,4513,"1512 SIBLEY WAY",LEANDER,TX,78641,,,CONTRACTOR,,,,,,,,,,,"GEHAN HOMES",,,,,"GEHAN HOMES","3815 S CAPITAL OF TEXAS HWY STE 275",AUSTIN,TX,78704-6652,"(512) 330-9366",http://www.gehanhomes.com,,"JANET PHILLIPS",
TX,WILLIAMSON,2021-31831,"Single Family Homes",4/5/2021,,,3316,"1925 STRINGER PASS",LEANDER,TX,78641,"HAVEN OAKS",,CONTRACTOR,,,,,,,,,,,"KB HOME",,,,,"KB HOME","10800 PECAN PARK BLVD STE 200",AUSTIN,TX,78750-1249,"(512) 651-8100",,,,
TX,WILLIAMSON,2021-31833,"Single Family Homes",4/28/2021,,,2764,"2005 RHETTS PL",LEANDER,TX,78641,"HAVEN OAKS",,CONTRACTOR,,,,,,,,,,,"KB HOME",,,,,"KB HOME","10800 PECAN PARK BLVD STE 200",AUSTIN,TX,78750-1249,"(512) 651-8100",,,,
TX,WILLIAMSON,2021-31834,"Single Family Homes",4/5/2021,,,3571,"2009 ALEXANDER OAKS DR",LEANDER,TX,78641,"HAVEN OAKS",,CONTRACTOR,,,,,,,,,,,"KB HOME",,,,,"KB HOME","10800 PECAN PARK BLVD STE 200",AUSTIN,TX,78750-1249,"(512) 651-8100",,,,
TX,WILLIAMSON,2021-31837,"Single Family Homes",4/5/2021,,,3103,"2021 RHETTS PL",LEANDER,TX,78641,"HAVEN OAKS",,CONTRACTOR,,,,,,,,,,,"KB HOME",,,,,"KB HOME","10800 PECAN PARK BLVD STE 200",AUSTIN,TX,78750-1249,"(512) 651-8100",,,,
TX,WILLIAMSON,2021-31838,"Single Family Homes",4/7/2021,,,3479,"2016 MAR VISTA LN",LEANDER,TX,78641,,,CONTRACTOR,,,,,,,,,,,"PERRY HOMES",,,,,"PERRY HOMES","6112 LLANO ST",AUSTIN,TX,78702,"(512) 810-8050",,,,
TX,WILLIAMSON,2021-31841,"Single Family Homes",3/10/2021,,,4094,"1309 LONGHORN RANCH DR",LEANDER,TX,78641,,,CONTRACTOR,,,,,,,,,,,"GFO HOME",,,,,"GFO HOME","6012 AVIATION DR # 200",PFLUGERVILLE,TX,78660-8960,"(512) 492-8640",https://www.gfohome.com,,,
TX,WILLIAMSON,2021-31843,"Single Family Homes",4/13/2021,,,5204,"1521 DONETTO DR",LEANDER,TX,78641,,,CONTRACTOR,,,,,,,,,,,"PULTE HOMES",,,,,"PULTE HOMES","9401 AMBERGLEN BLVD STE I-150",AUSTIN,TX,78729-1154,"(512) 561-4344",,,,
TX,WILLIAMSON,2021-31845,"Single Family Homes",3/10/2021,,,3819,"1225 LONGHORN RANCH DR",LEANDER,TX,78641,DEERBROOKE,,CONTRACTOR,,,,,,,,,,,"GFO HOME",,,,,"GFO HOME","6012 AVIATION DR # 200",PFLUGERVILLE,TX,78660-8960,"(512) 492-8640",https://www.gfohome.com,,,
TX,WILLIAMSON,2021-31846,"Single Family Homes",3/10/2021,,,4093,"2612 BRUSHWOOD MDW",LEANDER,TX,78641,,,CONTRACTOR,,,,,,,,,,,"GFO HOME",,,,,"GFO HOME","6012 AVIATION DR # 200",PFLUGERVILLE,TX,78660-8960,"(512) 492-8640",https://www.gfohome.com,,,
TX,WILLIAMSON,2021-31847,"Single Family Homes",3/17/2021,,,3944,"1812 ARAPAHO MOUNTAIN PASS",LEANDER,TX,78641,"VALLEY VISTA",,CONTRACTOR,,,,,,,,,,,"GFO HOME",,,,,"GFO HOME","6012 AVIATION DR # 200",PFLUGERVILLE,TX,78660-8960,"(512) 492-8640",https://www.gfohome.com,,,
TX,WILLIAMSON,2021-31863,"Single Family Homes",3/26/2021,,,5781,"1521 DA VINCI TRL",LEANDER,TX,78641,TRAVISSO,,CONTRACTOR,,,,,,,,,,,"TOLL BROTHERS",,,,,"TOLL BROTHERS","310 ARIA DR",AUSTIN,TX,78738-1740,"(512) 491-0378",,,,
TX,WILLIAMSON,2021-31864,"Single Family Homes",3/17/2021,,,5292,"704 PALAMOS DR",LEANDER,TX,78641,MARBELLA,,CONTRACTOR,,,,,,,,,,,"GFO HOME",,,,,"GFO HOME","6012 AVIATION DR # 200",PFLUGERVILLE,TX,78660-8960,"(512) 492-8640",https://www.gfohome.com,,,
TX,WILLIAMSON,2021-31867,"Single Family Homes",3/16/2021,,,4982,"2020 MYSTIC WIND LN",LEANDER,TX,78641,,,CONTRACTOR,,,,,,,,,,,"GEHAN HOMES",,,,,"GEHAN HOMES","3815 S CAPITAL OF TEXAS HWY STE 275",AUSTIN,TX,78704-6652,"(512) 330-9366",http://www.gehanhomes.com,,"JANET PHILLIPS",
TX,WILLIAMSON,2021-31869,"Single Family Homes",3/16/2021,,,5020,"725 CRITTY LN",LEANDER,TX,78641,,,CONTRACTOR,,,,,,,,,,,"GEHAN HOMES",,,,,"GEHAN HOMES","3815 S CAPITAL OF TEXAS HWY STE 275",AUSTIN,TX,78704-6652,"(512) 330-9366",http://www.gehanhomes.com,,"JANET PHILLIPS",
TX,WILLIAMSON,2021-31871,"Single Family Homes",3/23/2021,,,3247,"1532 LOW BRANCH LN",LEANDER,TX,78641,,,CONTRACTOR,,,,,,,,,,,"GEHAN HOMES",,,,,"GEHAN HOMES","3815 S CAPITAL OF TEXAS HWY STE 275",AUSTIN,TX,78704-6652,"(512) 330-9366",http://www.gehanhomes.com,,"JANET PHILLIPS",
TX,WILLIAMSON,2021-31872,"Single Family Homes",3/16/2021,,,5125,"800 LANDING LN",LEANDER,TX,78641,HAWKES,,CONTRACTOR,,,,,,,,,,,"GEHAN HOMES",,,,,"GEHAN HOMES","3815 S CAPITAL OF TEXAS HWY STE 275",AUSTIN,TX,78704-6652,"(512) 330-9366",http://www.gehanhomes.com,,"JANET PHILLIPS",
TX,WILLIAMSON,2021-31874,"Single Family Homes",4/19/2021,,,3707,"3352 CHARADE DR",LEANDER,TX,78641,,,CONTRACTOR,,,,,,,,,,,"PULTE HOMES",,,,,"PULTE HOMES","9401 AMBERGLEN BLVD STE I-150",AUSTIN,TX,78729-1154,"(512) 561-4344",,,,
TX,WILLIAMSON,2021-31889,"Single Family Homes",3/19/2021,,,3276,"1861 TURTLE BAY LOOP",LEANDER,TX,78641,,,CONTRACTOR,,,,,,,,,,,"CENTURY COMMUNITIES",,,,,"CENTURY COMMUNITIES","6500 RIVER PLACE BLVD STE 200",AUSTIN,TX,78730-1156,"(512) 271-3825",https://www.centurycommunities.com/,,,
TX,WILLIAMSON,2021-31891,"Single Family Homes",4/6/2021,,,4514,"3620 GABRIELS HORN RD",LEANDER,TX,78641,BLUFFVIEW,,CONTRACTOR,,,,,,,,,,,"PULTE HOMES",,,,,"PULTE HOMES","9401 AMBERGLEN BLVD STE I-150",AUSTIN,TX,78729-1154,"(512) 561-4344",,,,
TX,WILLIAMSON,2021-31892,"Single Family Homes",3/31/2021,,,2723,"2609 LONGHORN RANCH CT",LEANDER,TX,78641,DEERBROOKE,,CONTRACTOR,,,,,,,,,,,"GFO HOME",,,,,"GFO HOME","6012 AVIATION DR # 200",PFLUGERVILLE,TX,78660-8960,"(512) 492-8640",https://www.gfohome.com,,,
TX,WILLIAMSON,2021-31893,"Single Family Homes",3/5/2021,,,3070,"1317 LONGHORN RANCH DR",LEANDER,TX,78641,DEERBROOKE,,CONTRACTOR,,,,,,,,,,,"GFO HOME",,,,,"GFO HOME","6012 AVIATION DR # 200",PFLUGERVILLE,TX,78660-8960,"(512) 492-8640",https://www.gfohome.com,,,
TX,WILLIAMSON,2021-31896,"Single Family Homes",4/19/2021,,,5020,"1932 MYSTIC WIND LN",LEANDER,TX,78641,HAWKES,,CONTRACTOR,,,,,,,,,,,"GEHAN HOMES",,,,,"GEHAN HOMES","3815 S CAPITAL OF TEXAS HWY STE 275",AUSTIN,TX,78704-6652,"(512) 330-9366",http://www.gehanhomes.com,,"JANET PHILLIPS",
TX,WILLIAMSON,2021-31898,"Single Family Homes",4/21/2021,,,4134,"2325 HIGH VICTORY RD",LEANDER,TX,78641,,,CONTRACTOR,,,,,,,,,,,"PERRY HOMES",,,,,"PERRY HOMES","6112 LLANO ST",AUSTIN,TX,78702,"(512) 810-8050",,,,
TX,WILLIAMSON,2021-31901,"Single Family Homes",3/8/2021,,,2912,"1605 LONGHORN RANCH DR",LEANDER,TX,78641,DEERBROOKE,,CONTRACTOR,,,,,,,,,,,"MERITAGE HOMES",,,,,"MERITAGE HOMES","8920 BUSINESS PARK DR STE 250",AUSTIN,TX,78759-7622,"(512) 610-4800",,,,
TX,WILLIAMSON,2021-31902,"Single Family Homes",3/26/2021,,,3819,"1409 COPPERFIELD WAY",LEANDER,TX,78641,DEERBROOKE,,CONTRACTOR,,,,,,,,,,,"GFO HOME",,,,,"GFO HOME","6012 AVIATION DR # 200",PFLUGERVILLE,TX,78660-8960,"(512) 492-8640",https://www.gfohome.com,,,
TX,WILLIAMSON,2021-31903,"Single Family Homes",3/19/2021,,,2703,"1609 LONGHORN RANCH DR",LEANDER,TX,78641,DEERBROOKE,,CONTRACTOR,,,,,,,,,,,"MERITAGE HOMES",,,,,"MERITAGE HOMES","8920 BUSINESS PARK DR STE 250",AUSTIN,TX,78759-7622,"(512) 610-4800",,,,
TX,WILLIAMSON,2021-31904,"Single Family Homes",3/22/2021,,,2743,"2640 LONGHORN RANCH CT",LEANDER,TX,78641,DEERBROOKE,,CONTRACTOR,,,,,,,,,,,"GFO HOME",,,,,"GFO HOME","6012 AVIATION DR # 200",PFLUGERVILLE,TX,78660-8960,"(512) 492-8640",https://www.gfohome.com,,,
TX,WILLIAMSON,2021-31905,"Single Family Homes",3/8/2021,,,2703,"1524 LONGHORN RANCH DR",LEANDER,TX,78641,DEERBROOKE,,CONTRACTOR,,,,,,,,,,,"MERITAGE HOMES",,,,,"MERITAGE HOMES","8920 BUSINESS PARK DR STE 250",AUSTIN,TX,78759-7622,"(512) 610-4800",,,,
TX,WILLIAMSON,2021-31906,"Single Family Homes",3/19/2021,,,2897,"1305 LONGHORN RANCH DR",LEANDER,TX,78641,,,CONTRACTOR,,,,,,,,,,,"GFO HOME",,,,,"GFO HOME","6012 AVIATION DR # 200",PFLUGERVILLE,TX,78660-8960,"(512) 492-8640",https://www.gfohome.com,,,
TX,WILLIAMSON,2021-31907,"Single Family Homes",3/25/2021,,,2741,"913 BIRCHBROOKE DR",LEANDER,TX,78641,DEERBROOKE,,CONTRACTOR,,,,,,,,,,,"PERRY HOMES",,,,,"PERRY HOMES","6112 LLANO ST",AUSTIN,TX,78702,"(512) 810-8050",,,,
TX,WILLIAMSON,2021-31715,"Single Family Homes",3/5/2021,,,2898,"2641 LONGHORN RANCH CT",LEANDER,TX,78641,,,CONTRACTOR,,,,,,,,,,,"GFO HOME",,,,,"GFO HOME","6012 AVIATION DR # 200",PFLUGERVILLE,TX,78660-8960,"(512) 492-8640",https://www.gfohome.com,,,
TX,WILLIAMSON,2021-31716,"Single Family Homes",3/10/2021,,,2088,"916 AZUL LAGOON DR",LEANDER,TX,78641,"PALMERA RIDGE",,CONTRACTOR,,,,,,,,,,,"PERRY HOMES",,,,,"PERRY HOMES","6112 LLANO ST",AUSTIN,TX,78702,"(512) 810-8050",,,,
TX,WILLIAMSON,2021-31804,"Single Family Homes",4/29/2021,,,5803,"3324 MONGOLIAN DR",LEANDER,TX,78641,BLUFFVIEW,,CONTRACTOR,,,,,,,,,,,"TAYLOR MORRISON OF TEXAS",,,,,"TAYLOR MORRISON OF TEXAS","11200 LAKELINE BLVD STE 150A",AUSTIN,TX,78717-5964,"(512) 328-8866",,"(512) 328-7988",,
TX,WILLIAMSON,2021-31806,"Single Family Homes",3/8/2021,,,4130,"2016 MYSTIC WIND LN",LEANDER,TX,78641,,,CONTRACTOR,,,,,,,,,,,"GEHAN HOMES",,,,,"GEHAN HOMES","3815 S CAPITAL OF TEXAS HWY STE 275",AUSTIN,TX,78704-6652,"(512) 330-9366",http://www.gehanhomes.com,,"JANET PHILLIPS",
TX,WILLIAMSON,2021-31808,"Single Family Homes",3/10/2021,,,4513,"809 SUNNY RIDGE RD",LEANDER,TX,78641,HAWKES,,CONTRACTOR,,,,,,,,,,,"GEHAN HOMES",,,,,"GEHAN HOMES","3815 S CAPITAL OF TEXAS HWY STE 275",AUSTIN,TX,78704-6652,"(512) 330-9366",http://www.gehanhomes.com,,"JANET PHILLIPS",
TX,WILLIAMSON,2021-31909,"Single Family Homes",3/26/2021,,,5817,"2412 BEL PAESE BND",LEANDER,TX,78641,TRAVISSO,,CONTRACTOR,,,,,,,,,,,"TOLL BROTHERS",,,,,"TOLL BROTHERS","310 ARIA DR",AUSTIN,TX,78738-1740,"(512) 491-0378",,,,
TX,WILLIAMSON,2021-31910,"Single Family Homes",3/18/2021,,,4513,"713 CRITTY LN",LEANDER,TX,78641,HAWKES,,CONTRACTOR,,,,,,,,,,,"GEHAN HOMES",,,,,"GEHAN HOMES","3815 S CAPITAL OF TEXAS HWY STE 275",AUSTIN,TX,78704-6652,"(512) 330-9366",http://www.gehanhomes.com,,"JANET PHILLIPS",
TX,WILLIAMSON,2021-31911,"Single Family Homes",3/18/2021,,,4454,"721 CRITTY LN",LEANDER,TX,78641,HAWKES,,CONTRACTOR,,,,,,,,,,,"GEHAN HOMES",,,,,"GEHAN HOMES","3815 S CAPITAL OF TEXAS HWY STE 275",AUSTIN,TX,78704-6652,"(512) 330-9366",http://www.gehanhomes.com,,"JANET PHILLIPS",
TX,WILLIAMSON,2021-31912,"Single Family Homes",3/19/2021,,,4463,"1528 LONGHORN RANCH DR",LEANDER,TX,78641,,,CONTRACTOR,,,,,,,,,,,"MERITAGE HOMES",,,,,"MERITAGE HOMES","8920 BUSINESS PARK DR STE 250",AUSTIN,TX,78759-7622,"(512) 610-4800",,,,
TX,WILLIAMSON,2021-31913,"Single Family Homes",3/19/2021,,,2912,"1532 LONGHORN RANCH DR",LEANDER,TX,78641,,,CONTRACTOR,,,,,,,,,,,"MERITAGE HOMES",,,,,"MERITAGE HOMES","8920 BUSINESS PARK DR STE 250",AUSTIN,TX,78759-7622,"(512) 610-4800",,,,
TX,WILLIAMSON,2021-31914,"Single Family Homes",4/8/2021,,,3677,"1536 LONGHORN RANCH DR",LEANDER,TX,78641,DEERBROOKE,,CONTRACTOR,,,,,,,,,,,"MERITAGE HOMES",,,,,"MERITAGE HOMES","8920 BUSINESS PARK DR STE 250",AUSTIN,TX,78759-7622,"(512) 610-4800",,,,
TX,WILLIAMSON,2021-31916,"Single Family Homes",4/6/2021,,,4882,"1613 SUNSET VISTA BND",LEANDER,TX,78641,TRAVISSO,,CONTRACTOR,,,,,,,,,,,"TOLL BROTHERS",,,,,"TOLL BROTHERS","310 ARIA DR",AUSTIN,TX,78738-1740,"(512) 491-0378",,,,
TX,WILLIAMSON,2021-31917,"Single Family Homes",3/19/2021,,,3233,"2604 BRUSHWOOD MDW",LEANDER,TX,78641,DEERBROOKE,,CONTRACTOR,,,,,,,,,,,"GFO HOME",,,,,"GFO HOME","6012 AVIATION DR # 200",PFLUGERVILLE,TX,78660-8960,"(512) 492-8640",https://www.gfohome.com,,,
TX,WILLIAMSON,2021-31946,"Single Family Homes",4/14/2021,,,6104,"3336 MONGOLIAN DR",LEANDER,TX,78641,BLUFFVIEW,,CONTRACTOR,,,,,,,,,,,"PULTE HOMES",,,,,"PULTE HOMES","9401 AMBERGLEN BLVD STE I-150",AUSTIN,TX,78729-1154,"(512) 561-4344",,,,
TX,WILLIAMSON,2021-31947,"Single Family Homes",4/7/2021,,,5936,"3328 MONGOLIAN DR",LEANDER,TX,78641,BLUFFVIEW,,CONTRACTOR,,,,,,,,,,,"PULTE HOMES",,,,,"PULTE HOMES","9401 AMBERGLEN BLVD STE I-150",AUSTIN,TX,78729-1154,"(512) 561-4344",,,,
TX,WILLIAMSON,2021-31948,"Single Family Homes",4/7/2021,,,6009,"3332 MONGOLIAN DR",LEANDER,TX,78641,BLUFFVIEW,,CONTRACTOR,,,,,,,,,,,"PULTE HOMES",,,,,"PULTE HOMES","9401 AMBERGLEN BLVD STE I-150",AUSTIN,TX,78729-1154,"(512) 561-4344",,,,
TX,WILLIAMSON,2021-31951,"Single Family Homes",3/31/2021,,,4427,"2600 BRUSHWOOD MDW",LEANDER,TX,78641,,,CONTRACTOR,,,,,,,,,,,"GFO HOME",,,,,"GFO HOME","6012 AVIATION DR # 200",PFLUGERVILLE,TX,78660-8960,"(512) 492-8640",https://www.gfohome.com,,,
TX,WILLIAMSON,2021-31952,"Single Family Homes",3/22/2021,,,4320,"2121 ADONAI TRL",LEANDER,TX,78641,"PALMERA RIDGE",,CONTRACTOR,,,,,,,,,,,"CHESMAR HOMES",,,,,"CHESMAR HOMES","2900 N QUINLAN PARK RD",AUSTIN,TX,78732-6083,"(512) 233-9016",http://chesmar.com,,,
TX,WILLIAMSON,2021-31954,"Single Family Homes",4/23/2021,,,2933,"920 AZUL LAGOON DR",LEANDER,TX,78641,"PALMERA RIDGE",,CONTRACTOR,,,,,,,,,,,"PERRY HOMES",,,,,"PERRY HOMES","6112 LLANO ST",AUSTIN,TX,78702,"(512) 810-8050",,,,
TX,WILLIAMSON,2021-32006,"Single Family Homes",3/23/2021,,,4390,"509 FLINTLOCK DR",LEANDER,TX,78641,,,CONTRACTOR,,,,,,,,,,,"CENTURY COMMUNITIES",,,,,"CENTURY COMMUNITIES","6500 RIVER PLACE BLVD STE 200",AUSTIN,TX,78730-1156,"(512) 271-3825",https://www.centurycommunities.com/,,,
TX,WILLIAMSON,2021-32007,"Single Family Homes",3/23/2021,,,2788,"1500 LOW BRANCH LN",LEANDER,TX,78641,,,CONTRACTOR,,,,,,,,,,,"GEHAN HOMES",,,,,"GEHAN HOMES","3815 S CAPITAL OF TEXAS HWY STE 275",AUSTIN,TX,78704-6652,"(512) 330-9366",http://www.gehanhomes.com,,"JANET PHILLIPS",
TX,WILLIAMSON,2021-32008,"Single Family Homes",4/17/2021,,,3650,"3312 WHITT CREEK TRL",LEANDER,TX,78641,,,CONTRACTOR,,,,,,,,,,,"COREGON BUILDING COMPANY",,,,,"COREGON BUILDING COMPANY","700 S AUSTIN AVE STE 202",GEORGETOWN,TX,78626-5771,"(512) 688-5180",https://coregonbuildingcompany.com/,,,
TX,WILLIAMSON,2021-32010,"Single Family Homes",3/29/2021,,,2684,"1609 INDIAN APPLE WAY",LEANDER,TX,78641,,,CONTRACTOR,,,,,,,,,,,"TRI POINTE HOMES",,,,,"TRI POINTE HOMES","16340 PARK TEN PLACE, #250",HOUSTON,TX,77356,"(281) 675-3200",https://investors.tripointehomes.com/,,,
TX,WILLIAMSON,2021-32011,"Single Family Homes",3/29/2021,,,2755,"1505 INDIAN APPLE WAY",LEANDER,TX,78641,BRYSON,,CONTRACTOR,,,,,,,,,,,"TRI POINTE HOMES",,,,,"TRI POINTE HOMES","16340 PARK TEN PLACE, #250",HOUSTON,TX,77356,"(281) 675-3200",https://investors.tripointehomes.com/,,,
TX,WILLIAMSON,2021-32012,"Single Family Homes",3/29/2021,,,3536,"1613 INDIAN APPLE WAY",LEANDER,TX,78641,,,CONTRACTOR,,,,,,,,,,,"TRI POINTE HOMES",,,,,"TRI POINTE HOMES","16340 PARK TEN PLACE, #250",HOUSTON,TX,77356,"(281) 675-3200",https://investors.tripointehomes.com/,,,
TX,WILLIAMSON,2021-32013,"Single Family Homes",3/31/2021,,,3581,"1504 INDIAN APPLE WAY",LEANDER,TX,78641,BRYSON,,CONTRACTOR,,,,,,,,,,,"TRI POINTE HOMES",,,,,"TRI POINTE HOMES","16340 PARK TEN PLACE, #250",HOUSTON,TX,77356,"(281) 675-3200",https://investors.tripointehomes.com/,,,
TX,WILLIAMSON,2021-32017,"Single Family Homes",3/29/2021,,,3612,"1621 STINNETT DR",LEANDER,TX,78641,,,CONTRACTOR,,,,,,,,,,,"KB HOME",,,,,"KB HOME","10800 PECAN PARK BLVD STE 200",AUSTIN,TX,78750-1249,"(512) 651-8100",,,,
TX,WILLIAMSON,2021-32018,"Single Family Homes",3/29/2021,,,3237,"1601 INDIAN APPLE WAY",LEANDER,TX,78641,,,CONTRACTOR,,,,,,,,,,,"TRI POINT CONSTRUCTION",,,,,"TRI POINT CONSTRUCTION","562 KINGWOOD DR STE 9",KINGWOOD,TX,77339-4477,"(281) 548-7440",http://www.tripointconstruction.com/,"(281) 548-7400",,
TX,WILLIAMSON,2021-32019,"Single Family Homes",4/16/2021,,,3494,"2004 ALEXANDER OAKS DR",LEANDER,TX,78641,"HAVEN OAKS",,CONTRACTOR,,,,,,,,,,,"KB HOME",,,,,"KB HOME","10800 PECAN PARK BLVD STE 200",AUSTIN,TX,78750-1249,"(512) 651-8100",,,,
TX,WILLIAMSON,2021-32020,"Single Family Homes",4/16/2021,,,3336,"2005 ALEXANDER OAKS DR",LEANDER,TX,78641,"HAVEN OAKS ",,CONTRACTOR,,,,,,,,,,,"KB HOME",,,,,"KB HOME","10800 PECAN PARK BLVD STE 200",AUSTIN,TX,78750-1249,"(512) 651-8100",,,,
TX,WILLIAMSON,2021-32021,"Single Family Homes",4/16/2021,,,3494,"704 ZELIA GLN",LEANDER,TX,78641,"HAVEN OAKS",,CONTRACTOR,,,,,,,,,,,"KB HOME",,,,,"KB HOME","10800 PECAN PARK BLVD STE 200",AUSTIN,TX,78750-1249,"(512) 651-8100",,,,
TX,WILLIAMSON,2021-32022,"Single Family Homes",4/8/2021,,,3171,"1525 HARRONGTON WAY",LEANDER,TX,78641,,,CONTRACTOR,,,,,,,,,,,"GEHAN HOMES",,,,,"GEHAN HOMES","3815 S CAPITAL OF TEXAS HWY STE 275",AUSTIN,TX,78704-6652,"(512) 330-9366",http://www.gehanhomes.com,,"JANET PHILLIPS",
TX,WILLIAMSON,2021-32033,"Single Family Homes",4/16/2021,,,2245,"1932 TIGS TRL",LEANDER,TX,78641,"HAVEN OAKS",,CONTRACTOR,,,,,,,,,,,"KB HOME",,,,,"KB HOME","10800 PECAN PARK BLVD STE 200",AUSTIN,TX,78750-1249,"(512) 651-8100",,,,
TX,WILLIAMSON,2021-32034,"Single Family Homes",4/26/2021,,,3356,"2013 RHETTS PL",LEANDER,TX,78641,"HAVEN OAKS ",,CONTRACTOR,,,,,,,,,,,"KB HOME",,,,,"KB HOME","10800 PECAN PARK BLVD STE 200",AUSTIN,TX,78750-1249,"(512) 651-8100",,,,
TX,WILLIAMSON,2021-32036,"Single Family Homes",4/26/2021,,,1897,"1928 STRINGER PASS",LEANDER,TX,78641,"HAVEN OAKS",,CONTRACTOR,,,,,,,,,,,"KB HOME",,,,,"KB HOME","10800 PECAN PARK BLVD STE 200",AUSTIN,TX,78750-1249,"(512) 651-8100",,,,
TX,WILLIAMSON,2021-32038,"Single Family Homes",4/26/2021,,,1927,"1920 TIGS TRL",LEANDER,TX,78641,"HAVEN OAKS",,CONTRACTOR,,,,,,,,,,,"KB HOME",,,,,"KB HOME","10800 PECAN PARK BLVD STE 200",AUSTIN,TX,78750-1249,"(512) 651-8100",,,,
TX,WILLIAMSON,2021-32039,"Single Family Homes",3/25/2021,,,3730,"2012 MYSTIC WIND LN",LEANDER,TX,78641,,,CONTRACTOR,,,,,,,,,,,"GEHAN HOMES",,,,,"GEHAN HOMES","3815 S CAPITAL OF TEXAS HWY STE 275",AUSTIN,TX,78704-6652,"(512) 330-9366",http://www.gehanhomes.com,,"JANET PHILLIPS",
TX,WILLIAMSON,2021-32040,"Single Family Homes",4/26/2021,,,3356,"708 ZELIA GLN",LEANDER,TX,78641,,,CONTRACTOR,,,,,,,,,,,"KB HOME",,,,,"KB HOME","10800 PECAN PARK BLVD STE 200",AUSTIN,TX,78750-1249,"(512) 651-8100",,,,
TX,WILLIAMSON,2021-32041,"Single Family Homes",4/13/2021,,,2643,"2009 RHETTS PL",LEANDER,TX,78641,"HAVEN OAKS",,CONTRACTOR,,,,,,,,,,,"KB HOME",,,,,"KB HOME","10800 PECAN PARK BLVD STE 200",AUSTIN,TX,78750-1249,"(512) 651-8100",,,,
TX,WILLIAMSON,2021-32042,"Single Family Homes",3/25/2021,,,4370,"2008 MYSTIC WIND LN",LEANDER,TX,78641,HAWKES,,CONTRACTOR,,,,,,,,,,,"GEHAN HOMES",,,,,"GEHAN HOMES","3815 S CAPITAL OF TEXAS HWY STE 275",AUSTIN,TX,78704-6652,"(512) 330-9366",http://www.gehanhomes.com,,"JANET PHILLIPS",
TX,WILLIAMSON,2021-32048,"Single Family Homes",4/2/2021,,,2788,"1513 LOW BRANCH LN",LEANDER,TX,78641,,,CONTRACTOR,,,,,,,,,,,"GEHAN HOMES",,,,,"GEHAN HOMES","3815 S CAPITAL OF TEXAS HWY STE 275",AUSTIN,TX,78704-6652,"(512) 330-9366",http://www.gehanhomes.com,,"JANET PHILLIPS",
TX,WILLIAMSON,2021-32049,"Single Family Homes",3/25/2021,,,4513,"733 CRITTY LN",LEANDER,TX,78641,,,CONTRACTOR,,,,,,,,,,,"GEHAN HOMES",,,,,"GEHAN HOMES","3815 S CAPITAL OF TEXAS HWY STE 275",AUSTIN,TX,78704-6652,"(512) 330-9366",http://www.gehanhomes.com,,"JANET PHILLIPS",
TX,WILLIAMSON,2021-32050,"Single Family Homes",3/25/2021,,,4513,"724 CRITTY LN",LEANDER,TX,78641,,,CONTRACTOR,,,,,,,,,,,"GEHAN HOMES",,,,,"GEHAN HOMES","3815 S CAPITAL OF TEXAS HWY STE 275",AUSTIN,TX,78704-6652,"(512) 330-9366",http://www.gehanhomes.com,,"JANET PHILLIPS",
TX,WILLIAMSON,2021-32051,"Single Family Homes",4/13/2021,,,3753,"1512 TELEMARK CV",LEANDER,TX,78641,BLUFFVIEW,,CONTRACTOR,,,,,,,,,,,"TAYLOR MORRISON OF TEXAS",,,,,"TAYLOR MORRISON OF TEXAS","11200 LAKELINE BLVD STE 150A",AUSTIN,TX,78717-5964,"(512) 328-8866",,"(512) 328-7988",,
TX,WILLIAMSON,2021-32060,"Single Family Homes",3/25/2021,,,3378,"2213 SANTA ISABELLA DR",LEANDER,TX,78641,,,CONTRACTOR,,,,,,,,,,,"MHI MCGUYER HOMEBUILDERS",,,,,"MHI MCGUYER HOMEBUILDERS","8200 N MO PAC EXPY STE 300",AUSTIN,TX,78759-8844,"(512) 502-2050",,"(512) 388-1836","FRANK MCGUYER",
TX,WILLIAMSON,2021-32064,"Single Family Homes",4/16/2021,,,5158,"1029 OVERSTREET LN",LEANDER,TX,78641,,,CONTRACTOR,,,,,,,,,,,"PERRY HOMES",,,,,"PERRY HOMES","6112 LLANO ST",AUSTIN,TX,78702,"(512) 810-8050",,,,
TX,WILLIAMSON,2021-32067,"Single Family Homes",4/15/2021,,,4088,"2113 HIGH VICTORY RD",LEANDER,TX,78641,,,CONTRACTOR,,,,,,,,,,,"PERRY HOMES",,,,,"PERRY HOMES","6112 LLANO ST",AUSTIN,TX,78702,"(512) 810-8050",,,,
TX,WILLIAMSON,2021-32069,"Single Family Homes",4/12/2021,,,4543,"821 SUNNY RIDGE RD",LEANDER,TX,78641,,,CONTRACTOR,,,,,,,,,,,"GEHAN HOMES",,,,,"GEHAN HOMES","3815 S CAPITAL OF TEXAS HWY STE 275",AUSTIN,TX,78704-6652,"(512) 330-9366",http://www.gehanhomes.com,,"JANET PHILLIPS",
TX,WILLIAMSON,2021-32070,"Single Family Homes",4/12/2021,,,4128,"805 SUNNY RIDGE RD",LEANDER,TX,78641,,,CONTRACTOR,,,,,,,,,,,"GEHAN HOMES",,,,,"GEHAN HOMES","3815 S CAPITAL OF TEXAS HWY STE 275",AUSTIN,TX,78704-6652,"(512) 330-9366",http://www.gehanhomes.com,,"JANET PHILLIPS",
TX,WILLIAMSON,2021-32071,"Single Family Homes",4/12/2021,,,4975,"825 SUNNY RIDGE RD",LEANDER,TX,78641,,,CONTRACTOR,,,,,,,,,,,"GEHAN HOMES",,,,,"GEHAN HOMES","3815 S CAPITAL OF TEXAS HWY STE 275",AUSTIN,TX,78704-6652,"(512) 330-9366",http://www.gehanhomes.com,,"JANET PHILLIPS",
TX,WILLIAMSON,2021-32072,"Single Family Homes",4/2/2021,,,3171,"1520 SIBLEY WAY",LEANDER,TX,78641,,,CONTRACTOR,,,,,,,,,,,"GEHAN HOMES",,,,,"GEHAN HOMES","3815 S CAPITAL OF TEXAS HWY STE 275",AUSTIN,TX,78704-6652,"(512) 330-9366",http://www.gehanhomes.com,,"JANET PHILLIPS",
TX,WILLIAMSON,2021-32075,"Single Family Homes",4/19/2021,,,3185,"2428 DEMORSE RD",LEANDER,TX,78641,,,CONTRACTOR,,,,,,,,,,,"GEHAN HOMES",,,,,"GEHAN HOMES","3815 S CAPITAL OF TEXAS HWY STE 275",AUSTIN,TX,78704-6652,"(512) 330-9366",http://www.gehanhomes.com,,"JANET PHILLIPS",
TX,WILLIAMSON,2021-32078,"Single Family Homes",3/31/2021,,,2703,"2701 GRIZZLY WAY",LEANDER,TX,78641,,,CONTRACTOR,,,,,,,,,,,"CHESMAR HOMES",,,,,"CHESMAR HOMES","2900 N QUINLAN PARK RD",AUSTIN,TX,78732-6083,"(512) 233-9016",http://chesmar.com,,,
TX,WILLIAMSON,2021-32079,"Single Family Homes",3/31/2021,,,2364,"2716 STONE BRANCH DR",LEANDER,TX,78641,DEERBROOKE,,CONTRACTOR,,,,,,,,,,,"CHESMAR HOMES",,,,,"CHESMAR HOMES","2900 N QUINLAN PARK RD",AUSTIN,TX,78732-6083,"(512) 233-9016",http://chesmar.com,,,
TX,WILLIAMSON,2021-32080,"Single Family Homes",3/31/2021,,,2703,"2809 STONE BRANCH DR",LEANDER,TX,78641,DEERBROOKE,,CONTRACTOR,,,,,,,,,,,"CHESMAR HOMES",,,,,"CHESMAR HOMES","2900 N QUINLAN PARK RD",AUSTIN,TX,78732-6083,"(512) 233-9016",http://chesmar.com,,,
TX,WILLIAMSON,2021-32082,"Single Family Homes",3/25/2021,,,3910,"2117 ADONAI TRL",LEANDER,TX,78641,,,CONTRACTOR,,,,,,,,,,,"CHESMAR HOMES",,,,,"CHESMAR HOMES","2900 N QUINLAN PARK RD",AUSTIN,TX,78732-6083,"(512) 233-9016",http://chesmar.com,,,
TX,WILLIAMSON,2021-32085,"Single Family Homes",4/23/2021,,,7214,"2113 SKYVIEW RIDGE PASS",LEANDER,TX,78641,,,CONTRACTOR,,,,,,,,,,,"VOGEL BUILDERS",,,,,"VOGEL BUILDERS","3600 GOODNIGHT TRL",LEANDER,TX,78641-3647,"(512) 653-8147",http://www.vogelcs.com/,,,
TX,WILLIAMSON,2021-32086,"Single Family Homes",4/2/2021,,,4454,"1524 SIBLEY WAY",LEANDER,TX,78641,,,CONTRACTOR,,,,,,,,,,,"GEHAN HOMES",,,,,"GEHAN HOMES","3815 S CAPITAL OF TEXAS HWY STE 275",AUSTIN,TX,78704-6652,"(512) 330-9366",http://www.gehanhomes.com,,"JANET PHILLIPS",
TX,WILLIAMSON,2021-32119,"Single Family Homes",4/29/2021,,,4513,"1408 LOW BRANCH LN",LEANDER,TX,78641,,,CONTRACTOR,,,,,,,,,,,"GEHAN HOMES",,,,,"GEHAN HOMES","3815 S CAPITAL OF TEXAS HWY STE 275",AUSTIN,TX,78704-6652,"(512) 330-9366",http://www.gehanhomes.com,,"JANET PHILLIPS",
TX,WILLIAMSON,2021-32120,"Single Family Homes",4/2/2021,,,2791,"1501 SIBLEY WAY",LEANDER,TX,78641,,,CONTRACTOR,,,,,,,,,,,"GEHAN HOMES",,,,,"GEHAN HOMES","3815 S CAPITAL OF TEXAS HWY STE 275",AUSTIN,TX,78704-6652,"(512) 330-9366",http://www.gehanhomes.com,,"JANET PHILLIPS",
TX,WILLIAMSON,2021-32121,"Single Family Homes",4/2/2021,,,3376,"2408 DEMORSE DR",LEANDER,TX,78641,,,CONTRACTOR,,,,,,,,,,,"GEHAN HOMES",,,,,"GEHAN HOMES","3815 S CAPITAL OF TEXAS HWY STE 275",AUSTIN,TX,78704-6652,"(512) 330-9366",http://www.gehanhomes.com,,"JANET PHILLIPS",
TX,WILLIAMSON,2021-32123,"Single Family Homes",4/21/2021,,,2752,"2013 WINSTON WAY",LEANDER,TX,78641,,,CONTRACTOR,,,,,,,,,,,"ASHTON WOODS HOMES",,,,,"ASHTON WOODS HOMES","4201 W PARMER LN STE A150",AUSTIN,TX,78727-4118,"(512) 610-7000",,,,
TX,WILLIAMSON,2021-32143,"Single Family Homes",3/27/2021,,,1670,"2804 HOPI PATH",LEANDER,TX,78641,"VALLEY VISTA",,CONTRACTOR,,,,,,,,,,,"PACESETTER HOMES ",,,,,"PACESETTER HOMES ","7940 SHOAL CREEK BLVD STE 200",AUSTIN,TX,78757-7587,"(512) 323-5252",,,,
TX,WILLIAMSON,2021-32144,"Single Family Homes",3/27/2021,,,1523,"2800 HOPI PATH",LEANDER,TX,78641,,,CONTRACTOR,,,,,,,,,,,"PACESETTER HOMES ",,,,,"PACESETTER HOMES ","7940 SHOAL CREEK BLVD STE 200",AUSTIN,TX,78757-7587,"(512) 323-5252",,,,
TX,WILLIAMSON,2021-32145,"Single Family Homes",4/19/2021,,,2080,"1724 LAKOTA LN",LEANDER,TX,78641,,,CONTRACTOR,,,,,,,,,,,"PACESETTER HOMES ",,,,,"PACESETTER HOMES ","7940 SHOAL CREEK BLVD STE 200",AUSTIN,TX,78757-7587,"(512) 323-5252",,,,
TX,WILLIAMSON,2021-32146,"Single Family Homes",4/19/2021,,,1909,"1729 LAKOTA LN",LEANDER,TX,78641,"VALLEY VISTA",,CONTRACTOR,,,,,,,,,,,"PACESETTER HOMES ",,,,,"PACESETTER HOMES ","7940 SHOAL CREEK BLVD STE 200",AUSTIN,TX,78757-7587,"(512) 323-5252",,,,
TX,WILLIAMSON,2021-32147,"Single Family Homes",3/27/2021,,,1558,"2837 SENECA PATH",LEANDER,TX,78641,"VALLEY VISTA",,CONTRACTOR,,,,,,,,,,,"PACESETTER HOMES ",,,,,"PACESETTER HOMES ","7940 SHOAL CREEK BLVD STE 200",AUSTIN,TX,78757-7587,"(512) 323-5252",,,,
TX,WILLIAMSON,2021-32149,"Single Family Homes",4/14/2021,,,3532,"2700 DANBURY LN",LEANDER,TX,78641,,,CONTRACTOR,,,,,,,,,,,"ASHTON WOODS HOMES",,,,,"ASHTON WOODS HOMES","4201 W PARMER LN STE A150",AUSTIN,TX,78727-4118,"(512) 610-7000",,,,
TX,WILLIAMSON,2021-32150,"Single Family Homes",4/14/2021,,,2459,"2704 DANBURY LN",LEANDER,TX,78641,,,CONTRACTOR,,,,,,,,,,,"ASHTON WOODS HOMES",,,,,"ASHTON WOODS HOMES","4201 W PARMER LN STE A150",AUSTIN,TX,78727-4118,"(512) 610-7000",,,,
TX,WILLIAMSON,2021-32151,"Single Family Homes",4/14/2021,,,3444,"2628 DANBURY LN",LEANDER,TX,78641,,,CONTRACTOR,,,,,,,,,,,"ASHTON WOODS HOMES",,,,,"ASHTON WOODS HOMES","4201 W PARMER LN STE A150",AUSTIN,TX,78727-4118,"(512) 610-7000",,,,
TX,WILLIAMSON,2021-32152,"Single Family Homes",4/8/2021,,,2161,"1505 LOW BRANCH LN",LEANDER,TX,78641,,,CONTRACTOR,,,,,,,,,,,"GEHAN HOMES",,,,,"GEHAN HOMES","3815 S CAPITAL OF TEXAS HWY STE 275",AUSTIN,TX,78704-6652,"(512) 330-9366",http://www.gehanhomes.com,,"JANET PHILLIPS",
TX,WILLIAMSON,2021-32153,"Single Family Homes",4/6/2021,,,3187,"2700 GRIZZLY WAY",LEANDER,TX,78641,DEERBROOKE,,CONTRACTOR,,,,,,,,,,,"PERRY HOMES",,,,,"PERRY HOMES","6112 LLANO ST",AUSTIN,TX,78702,"(512) 810-8050",,,,
TX,WILLIAMSON,2021-32154,"Single Family Homes",4/26/2021,,,4454,"1524 LOW BRANCH LN",LEANDER,TX,78641,,,CONTRACTOR,,,,,,,,,,,"GEHAN HOMES",,,,,"GEHAN HOMES","3815 S CAPITAL OF TEXAS HWY STE 275",AUSTIN,TX,78704-6652,"(512) 330-9366",http://www.gehanhomes.com,,"JANET PHILLIPS",
TX,WILLIAMSON,2021-32156,"Single Family Homes",4/29/2021,,,3256,"1533 LOW BRANCH LN",LEANDER,TX,78641,,,CONTRACTOR,,,,,,,,,,,"GEHAN HOMES",,,,,"GEHAN HOMES","3815 S CAPITAL OF TEXAS HWY STE 275",AUSTIN,TX,78704-6652,"(512) 330-9366",http://www.gehanhomes.com,,"JANET PHILLIPS",
TX,WILLIAMSON,2021-32158,"Single Family Homes",4/21/2021,,,2993,"2420 DEMORSE DR",LEANDER,TX,78641,,,CONTRACTOR,,,,,,,,,,,"GEHAN HOMES",,,,,"GEHAN HOMES","3815 S CAPITAL OF TEXAS HWY STE 275",AUSTIN,TX,78704-6652,"(512) 330-9366",http://www.gehanhomes.com,,"JANET PHILLIPS",
TX,WILLIAMSON,2021-32159,"Single Family Homes",4/14/2021,,,2559,"2632 DANBURY LN",LEANDER,TX,78641,,,CONTRACTOR,,,,,,,,,,,"ASHTON WOODS HOMES",,,,,"ASHTON WOODS HOMES","4201 W PARMER LN STE A150",AUSTIN,TX,78727-4118,"(512) 610-7000",,,,
TX,WILLIAMSON,2021-32160,"Single Family Homes",4/29/2021,,,2993,"1508 LOW BRANCH LN",LEANDER,TX,78641,,,CONTRACTOR,,,,,,,,,,,"GEHAN HOMES",,,,,"GEHAN HOMES","3815 S CAPITAL OF TEXAS HWY STE 275",AUSTIN,TX,78704-6652,"(512) 330-9366",http://www.gehanhomes.com,,"JANET PHILLIPS",
TX,WILLIAMSON,2021-32165,"Single Family Homes",4/26/2021,,,3602,"2012 ALEXANDER OAKS DR",LEANDER,TX,78641,"HAVEN OAKS",,CONTRACTOR,,,,,,,,,,,"KB HOME",,,,,"KB HOME","10800 PECAN PARK BLVD STE 200",AUSTIN,TX,78750-1249,"(512) 651-8100",,,,
TX,WILLIAMSON,2021-32125,"Single Family Homes",4/19/2021,,,3087,"1504 SIBLEY WAY",LEANDER,TX,78641,,,CONTRACTOR,,,,,,,,,,,"GEHAN HOMES",,,,,"GEHAN HOMES","3815 S CAPITAL OF TEXAS HWY STE 275",AUSTIN,TX,78704-6652,"(512) 330-9366",http://www.gehanhomes.com,,"JANET PHILLIPS",
TX,WILLIAMSON,2021-32126,"Single Family Homes",4/24/2021,,,3256,"1509 LOW BRANCH LN",LEANDER,TX,78641,,,CONTRACTOR,,,,,,,,,,,"GEHAN HOMES",,,,,"GEHAN HOMES","3815 S CAPITAL OF TEXAS HWY STE 275",AUSTIN,TX,78704-6652,"(512) 330-9366",http://www.gehanhomes.com,,"JANET PHILLIPS",
TX,WILLIAMSON,2021-32127,"Single Family Homes",3/29/2021,,,3409,"1508 SIBLEY WAY",LEANDER,TX,78641,,,CONTRACTOR,,,,,,,,,,,"GEHAN HOMES",,,,,"GEHAN HOMES","3815 S CAPITAL OF TEXAS HWY STE 275",AUSTIN,TX,78704-6652,"(512) 330-9366",http://www.gehanhomes.com,,"JANET PHILLIPS",
TX,WILLIAMSON,2021-32129,"Single Family Homes",3/29/2021,,,4454,"1428 HARRONGTON WAY",LEANDER,TX,78641,,,CONTRACTOR,,,,,,,,,,,"GEHAN HOMES",,,,,"GEHAN HOMES","3815 S CAPITAL OF TEXAS HWY STE 275",AUSTIN,TX,78704-6652,"(512) 330-9366",http://www.gehanhomes.com,,"JANET PHILLIPS",
TX,WILLIAMSON,2021-32130,"Single Family Homes",4/2/2021,,,5030,"800 CRITTY LN",LEANDER,TX,78641,,,CONTRACTOR,,,,,,,,,,,"GEHAN HOMES",,,,,"GEHAN HOMES","3815 S CAPITAL OF TEXAS HWY STE 275",AUSTIN,TX,78704-6652,"(512) 330-9366",http://www.gehanhomes.com,,"JANET PHILLIPS",
TX,WILLIAMSON,2021-32131,"Single Family Homes",4/19/2021,,,2841,"716 LANDING LN",LEANDER,TX,78641,,,CONTRACTOR,,,,,,,,,,,"GEHAN HOMES",,,,,"GEHAN HOMES","3815 S CAPITAL OF TEXAS HWY STE 275",AUSTIN,TX,78704-6652,"(512) 330-9366",http://www.gehanhomes.com,,"JANET PHILLIPS",
TX,WILLIAMSON,2021-32132,"Single Family Homes",3/23/2021,,,3256,"720 LANDING LN",LEANDER,TX,78641,,,CONTRACTOR,,,,,,,,,,,"GEHAN HOMES",,,,,"GEHAN HOMES","3815 S CAPITAL OF TEXAS HWY STE 275",AUSTIN,TX,78704-6652,"(512) 330-9366",http://www.gehanhomes.com,,"JANET PHILLIPS",
TX,WILLIAMSON,2021-32133,"Single Family Homes",3/23/2021,,,3256,"705 LANDING LN",LEANDER,TX,78641,,,CONTRACTOR,,,,,,,,,,,"GEHAN HOMES",,,,,"GEHAN HOMES","3815 S CAPITAL OF TEXAS HWY STE 275",AUSTIN,TX,78704-6652,"(512) 330-9366",http://www.gehanhomes.com,,"JANET PHILLIPS",
TX,WILLIAMSON,2021-32134,"Single Family Homes",3/23/2021,,,4484,"712 LANDING LN",LEANDER,TX,78641,,,CONTRACTOR,,,,,,,,,,,"GEHAN HOMES",,,,,"GEHAN HOMES","3815 S CAPITAL OF TEXAS HWY STE 275",AUSTIN,TX,78704-6652,"(512) 330-9366",http://www.gehanhomes.com,,"JANET PHILLIPS",
TX,WILLIAMSON,2021-32135,"Single Family Homes",4/2/2021,,,3226,"708 LANDING LN",LEANDER,TX,78641,,,CONTRACTOR,,,,,,,,,,,"GEHAN HOMES",,,,,"GEHAN HOMES","3815 S CAPITAL OF TEXAS HWY STE 275",AUSTIN,TX,78704-6652,"(512) 330-9366",http://www.gehanhomes.com,,"JANET PHILLIPS",
TX,WILLIAMSON,2021-32136,"Single Family Homes",3/25/2021,,,3256,"1433 HARRONGTON WAY",LEANDER,TX,78641,,,CONTRACTOR,,,,,,,,,,,"GEHAN HOMES",,,,,"GEHAN HOMES","3815 S CAPITAL OF TEXAS HWY STE 275",AUSTIN,TX,78704-6652,"(512) 330-9366",http://www.gehanhomes.com,,"JANET PHILLIPS",
TX,WILLIAMSON,2021-32137,"Single Family Homes",4/2/2021,,,4975,"629 LANDING LN",LEANDER,TX,78641,,,CONTRACTOR,,,,,,,,,,,"GEHAN HOMES",,,,,"GEHAN HOMES","3815 S CAPITAL OF TEXAS HWY STE 275",AUSTIN,TX,78704-6652,"(512) 330-9366",http://www.gehanhomes.com,,"JANET PHILLIPS",
TX,WILLIAMSON,2021-32138,"Single Family Homes",4/12/2021,,,4748,"701 LANDING LN",LEANDER,TX,78641,,,CONTRACTOR,,,,,,,,,,,"GEHAN HOMES",,,,,"GEHAN HOMES","3815 S CAPITAL OF TEXAS HWY STE 275",AUSTIN,TX,78704-6652,"(512) 330-9366",http://www.gehanhomes.com,,"JANET PHILLIPS",
TX,WILLIAMSON,2021-32139,"Single Family Homes",3/19/2021,,,4513,"633 LANDING LN",LEANDER,TX,78641,,,CONTRACTOR,,,,,,,,,,,"GEHAN HOMES",,,,,"GEHAN HOMES","3815 S CAPITAL OF TEXAS HWY STE 275",AUSTIN,TX,78704-6652,"(512) 330-9366",http://www.gehanhomes.com,,"JANET PHILLIPS",
TX,WILLIAMSON,2021-32179,"Single Family Homes",3/31/2021,,,2682,"1708 ARTESIAN SPRINGS XING",LEANDER,TX,78641,,,CONTRACTOR,,,,,,,,,,,"CENTURY COMMUNITIES",,,,,"CENTURY COMMUNITIES","6500 RIVER PLACE BLVD STE 200",AUSTIN,TX,78730-1156,"(512) 271-3825",https://www.centurycommunities.com/,,,
TX,WILLIAMSON,2021-32181,"Single Family Homes",4/19/2021,,,4368,"1444 DONETTO DR",LEANDER,TX,78641,,,CONTRACTOR,,,,,,,,,,,"PULTE HOMES",,,,,"PULTE HOMES","9401 AMBERGLEN BLVD STE I-150",AUSTIN,TX,78729-1154,"(512) 561-4344",,,,
TX,WILLIAMSON,2021-32184,"Single Family Homes",3/31/2021,,,2858,"932 AZUL LAGOON DR",LEANDER,TX,78641,"PALMERA RIDGE",,CONTRACTOR,,,,,,,,,,,"PERRY HOMES",,,,,"PERRY HOMES","6112 LLANO ST",AUSTIN,TX,78702,"(512) 810-8050",,,,
TX,WILLIAMSON,2021-32185,"Single Family Homes",4/8/2021,,,2639,"2044 BLUE RIVER DR",LEANDER,TX,78641,,,CONTRACTOR,,,,,,,,,,,"ASHTON WOODS HOMES",,,,,"ASHTON WOODS HOMES","4201 W PARMER LN STE A150",AUSTIN,TX,78727-4118,"(512) 610-7000",,,,
TX,WILLIAMSON,2021-32186,"Single Family Homes",3/31/2021,,,2204,"2620 PECAN ISLAND DR",LEANDER,TX,78641,,,CONTRACTOR,,,,,,,,,,,"CENTURY COMMUNITIES",,,,,"CENTURY COMMUNITIES","6500 RIVER PLACE BLVD STE 200",AUSTIN,TX,78730-1156,"(512) 271-3825",https://www.centurycommunities.com/,,,
TX,WILLIAMSON,2021-32189,"Single Family Homes",3/31/2021,,,2171,"1853 HARVEST KNOLL LN",LEANDER,TX,78641,,,CONTRACTOR,,,,,,,,,,,"CENTURY COMMUNITIES",,,,,"CENTURY COMMUNITIES","6500 RIVER PLACE BLVD STE 200",AUSTIN,TX,78730-1156,"(512) 271-3825",https://www.centurycommunities.com/,,,
TX,WILLIAMSON,2021-32191,"Single Family Homes",4/5/2021,,,4568,"2213 ADONAI TRL",LEANDER,TX,78641,"PALMERA RIDGE",,CONTRACTOR,,,,,,,,,,,"CHESMAR HOMES",,,,,"CHESMAR HOMES","2900 N QUINLAN PARK RD",AUSTIN,TX,78732-6083,"(512) 233-9016",http://chesmar.com,,,
TX,WILLIAMSON,2021-32171,"Single Family Homes",4/5/2021,,,2459,"2616 DANBURY LN",LEANDER,TX,78641,,,CONTRACTOR,,,,,,,,,,,"ASHTON WOODS HOMES",,,,,"ASHTON WOODS HOMES","4201 W PARMER LN STE A150",AUSTIN,TX,78727-4118,"(512) 610-7000",,,,
TX,WILLIAMSON,2021-32172,"Single Family Homes",3/27/2021,,,2196,"1849 HARVEST KNOLL LN",LEANDER,TX,78641,,,CONTRACTOR,,,,,,,,,,,"CENTURY COMMUNITIES",,,,,"CENTURY COMMUNITIES","6500 RIVER PLACE BLVD STE 200",AUSTIN,TX,78730-1156,"(512) 271-3825",https://www.centurycommunities.com/,,,
TX,WILLIAMSON,2021-32174,"Single Family Homes",4/22/2021,,,2132,"2620 DANBURY LN",LEANDER,TX,78641,,,CONTRACTOR,,,,,,,,,,,"ASHTON WOODS HOMES",,,,,"ASHTON WOODS HOMES","4201 W PARMER LN STE A150",AUSTIN,TX,78727-4118,"(512) 610-7000",,,,
TX,WILLIAMSON,2021-32193,"Single Family Homes",4/2/2021,,,2866,"924 AZUL LAGOON DR",LEANDER,TX,78641,,,CONTRACTOR,,,,,,,,,,,"PERRY HOMES",,,,,"PERRY HOMES","6112 LLANO ST",AUSTIN,TX,78702,"(512) 810-8050",,,,
TX,WILLIAMSON,2021-32195,"Single Family Homes",4/8/2021,,,2752,"1941 WINSTON WAY",LEANDER,TX,78641,,,CONTRACTOR,,,,,,,,,,,"ASHTON WOODS HOMES",,,,,"ASHTON WOODS HOMES","4201 W PARMER LN STE A150",AUSTIN,TX,78727-4118,"(512) 610-7000",,,,
TX,WILLIAMSON,2021-32210,"Single Family Homes",4/8/2021,,,2651,"2001 WINSTON WAY",LEANDER,TX,78641,,,CONTRACTOR,,,,,,,,,,,"ASHTON WOODS HOMES",,,,,"ASHTON WOODS HOMES","4201 W PARMER LN STE A150",AUSTIN,TX,78727-4118,"(512) 610-7000",,,,
TX,WILLIAMSON,2021-32212,"Single Family Homes",4/22/2021,,,2740,"2005 WINSTON WAY",LEANDER,TX,78641,,,CONTRACTOR,,,,,,,,,,,"ASHTON WOODS HOMES",,,,,"ASHTON WOODS HOMES","4201 W PARMER LN STE A150",AUSTIN,TX,78727-4118,"(512) 610-7000",,,,
TX,WILLIAMSON,2021-32213,"Single Family Homes",4/8/2021,,,2465,"2009 WINSTON WAY",LEANDER,TX,78641,,,CONTRACTOR,,,,,,,,,,,"ASHTON WOODS HOMES",,,,,"ASHTON WOODS HOMES","4201 W PARMER LN STE A150",AUSTIN,TX,78727-4118,"(512) 610-7000",,,,
TX,WILLIAMSON,2021-32216,"Single Family Homes",4/21/2021,,,3526,"1220 TOYAH DR",LEANDER,TX,78641,,,CONTRACTOR,,,,,,,,,,,"LENNAR HOMES",,,,,"LENNAR HOMES","13620 FM 620 RD 150",AUSTIN,TX,78717,"(512) 506-4000",http://www.lennar.com/,,,
TX,WILLIAMSON,2021-32217,"Single Family Homes",4/2/2021,,,2878,"929 MALLOW RD",LEANDER,TX,78641,,,CONTRACTOR,,,,,,,,,,,"LENNAR HOMES",,,,,"LENNAR HOMES","13620 FM 620 RD 150",AUSTIN,TX,78717,"(512) 506-4000",http://www.lennar.com/,,,
TX,WILLIAMSON,2021-32219,"Single Family Homes",4/13/2021,,,4494,"2717 PINE BRANCH RD",LEANDER,TX,78641,DEERBROOKE,,CONTRACTOR,,,,,,,,,,,"GEHAN HOMES",,,,,"GEHAN HOMES","3815 S CAPITAL OF TEXAS HWY STE 275",AUSTIN,TX,78704-6652,"(512) 330-9366",http://www.gehanhomes.com,,"JANET PHILLIPS",
TX,WILLIAMSON,2021-32220,"Single Family Homes",4/2/2021,,,2467,"1345 WEATHERFORD LN",LEANDER,TX,78641,,,CONTRACTOR,,,,,,,,,,,"LENNAR HOMES",,,,,"LENNAR HOMES","13620 FM 620 RD 150",AUSTIN,TX,78717,"(512) 506-4000",http://www.lennar.com/,,,
TX,WILLIAMSON,2021-32230,"Single Family Homes",4/19/2021,,,3148,"2233 SANTA ISABELLA DR",LEANDER,TX,78641,,,CONTRACTOR,,,,,,,,,,,"MHI MCGUYER HOMEBUILDERS",,,,,"MHI MCGUYER HOMEBUILDERS","8200 N MO PAC EXPY STE 300",AUSTIN,TX,78759-8844,"(512) 502-2050",,"(512) 388-1836","FRANK MCGUYER",
TX,WILLIAMSON,2021-32261,"Single Family Homes",4/7/2021,,,2902,"1865 TURTLE BAY LOOP",LEANDER,TX,78641,,,CONTRACTOR,,,,,,,,,,,"CENTURY COMMUNITIES",,,,,"CENTURY COMMUNITIES","6500 RIVER PLACE BLVD STE 200",AUSTIN,TX,78730-1156,"(512) 271-3825",https://www.centurycommunities.com/,,,
TX,WILLIAMSON,2021-32264,"Single Family Homes",4/19/2021,,,3050,"1804 TURTLE BAY LOOP",LEANDER,TX,78641,,,CONTRACTOR,,,,,,,,,,,"CENTURY COMMUNITIES",,,,,"CENTURY COMMUNITIES","6500 RIVER PLACE BLVD STE 200",AUSTIN,TX,78730-1156,"(512) 271-3825",https://www.centurycommunities.com/,,,
TX,WILLIAMSON,2021-32265,"Single Family Homes",4/7/2021,,,3102,"1808 TURTLE BAY LOOP",LEANDER,TX,78641,,,CONTRACTOR,,,,,,,,,,,"CENTURY COMMUNITIES",,,,,"CENTURY COMMUNITIES","6500 RIVER PLACE BLVD STE 200",AUSTIN,TX,78730-1156,"(512) 271-3825",https://www.centurycommunities.com/,,,
TX,WILLIAMSON,2021-32266,"Single Family Homes",4/19/2021,,,3220,"1801 TURTLE BAY LOOP",LEANDER,TX,78641,,,CONTRACTOR,,,,,,,,,,,"CENTURY COMMUNITIES",,,,,"CENTURY COMMUNITIES","6500 RIVER PLACE BLVD STE 200",AUSTIN,TX,78730-1156,"(512) 271-3825",https://www.centurycommunities.com/,,,
TX,WILLIAMSON,2021-32267,"Single Family Homes",4/7/2021,,,2916,"1809 TURTLE BAY LOOP",LEANDER,TX,78641,,,CONTRACTOR,,,,,,,,,,,"CENTURY COMMUNITIES",,,,,"CENTURY COMMUNITIES","6500 RIVER PLACE BLVD STE 200",AUSTIN,TX,78730-1156,"(512) 271-3825",https://www.centurycommunities.com/,,,
TX,WILLIAMSON,2021-32268,"Single Family Homes",4/19/2021,,,3276,"1813 TURTLE BAY LOOP",LEANDER,TX,78641,,,CONTRACTOR,,,,,,,,,,,"CENTURY COMMUNITIES",,,,,"CENTURY COMMUNITIES","6500 RIVER PLACE BLVD STE 200",AUSTIN,TX,78730-1156,"(512) 271-3825",https://www.centurycommunities.com/,,,
TX,WILLIAMSON,2021-32269,"Single Family Homes",4/21/2021,,,3276,"1825 TURTLE BAY LOOP",LEANDER,TX,78641,,,CONTRACTOR,,,,,,,,,,,"CENTURY COMMUNITIES",,,,,"CENTURY COMMUNITIES","6500 RIVER PLACE BLVD STE 200",AUSTIN,TX,78730-1156,"(512) 271-3825",https://www.centurycommunities.com/,,,
TX,WILLIAMSON,2021-32270,"Single Family Homes",4/7/2021,,,3102,"1848 TURTLE BAY LOOP",LEANDER,TX,78641,,,CONTRACTOR,,,,,,,,,,,"CENTURY COMMUNITIES",,,,,"CENTURY COMMUNITIES","6500 RIVER PLACE BLVD STE 200",AUSTIN,TX,78730-1156,"(512) 271-3825",https://www.centurycommunities.com/,,,
TX,WILLIAMSON,2021-32271,"Single Family Homes",4/15/2021,,,4050,"1805 TURTLE BAY LOOP",LEANDER,TX,78641,,,CONTRACTOR,,,,,,,,,,,"CENTURY COMMUNITIES",,,,,"CENTURY COMMUNITIES","6500 RIVER PLACE BLVD STE 200",AUSTIN,TX,78730-1156,"(512) 271-3825",https://www.centurycommunities.com/,,,
TX,WILLIAMSON,2021-32272,"Single Family Homes",4/12/2021,,,3404,"1844 TURTLE BAY LOOP",LEANDER,TX,78641,,,CONTRACTOR,,,,,,,,,,,"CENTURY COMMUNITIES",,,,,"CENTURY COMMUNITIES","6500 RIVER PLACE BLVD STE 200",AUSTIN,TX,78730-1156,"(512) 271-3825",https://www.centurycommunities.com/,,,
TX,WILLIAMSON,2021-32274,"Single Family Homes",4/15/2021,,,3450,"3401 CHARADE DR",LEANDER,TX,78641,,,CONTRACTOR,,,,,,,,,,,"TAYLOR MORRISON OF TEXAS",,,,,"TAYLOR MORRISON OF TEXAS","11200 LAKELINE BLVD STE 150A",AUSTIN,TX,78717-5964,"(512) 328-8866",,"(512) 328-7988",,
TX,WILLIAMSON,2021-32287,"Single Family Homes",4/21/2021,,,3256,"1505 HARRONGTON WAY",LEANDER,TX,78641,,,CONTRACTOR,,,,,,,,,,,"GEHAN HOMES",,,,,"GEHAN HOMES","3815 S CAPITAL OF TEXAS HWY STE 275",AUSTIN,TX,78704-6652,"(512) 330-9366",http://www.gehanhomes.com,,"JANET PHILLIPS",
TX,WILLIAMSON,2021-32289,"Single Family Homes",4/24/2021,,,3403,"2105 BONAVISTA WAY",LEANDER,TX,78641,,,CONTRACTOR,,,,,,,,,,,"MHI MCGUYER HOMEBUILDERS",,,,,"MHI MCGUYER HOMEBUILDERS","8200 N MO PAC EXPY STE 300",AUSTIN,TX,78759-8844,"(512) 502-2050",,"(512) 388-1836","FRANK MCGUYER",
TX,WILLIAMSON,2021-32292,"Single Family Homes",4/28/2021,,,4659,"1509 SUNSET VISTA BND",LEANDER,TX,78641,,,CONTRACTOR,,,,,,,,,,,"TOLL BROTHERS",,,,,"TOLL BROTHERS","310 ARIA DR",AUSTIN,TX,78738-1740,"(512) 491-0378",,,,
TX,WILLIAMSON,2021-32293,"Single Family Homes",4/22/2021,,,4240,"1624 SUNSET VISTA BND",LEANDER,TX,78641,,,CONTRACTOR,,,,,,,,,,,"TOLL BROTHERS",,,,,"TOLL BROTHERS","310 ARIA DR",AUSTIN,TX,78738-1740,"(512) 491-0378",,,,
TX,WILLIAMSON,2021-32294,"Single Family Homes",4/22/2021,,,4797,"4401 APOLLONIA WAY",LEANDER,TX,78641,,,CONTRACTOR,,,,,,,,,,,"TOLL BROTHERS",,,,,"TOLL BROTHERS","310 ARIA DR",AUSTIN,TX,78738-1740,"(512) 491-0378",,,,
TX,WILLIAMSON,2021-32296,"Single Family Homes",4/10/2021,,,3385,"921 GRIZZLY CV",LEANDER,TX,78641,,,CONTRACTOR,,,,,,,,,,,"PERRY HOMES",,,,,"PERRY HOMES","6112 LLANO ST",AUSTIN,TX,78702,"(512) 810-8050",,,,
TX,WILLIAMSON,2021-32316,"Single Family Homes",4/30/2021,,,2165,"2709 GRIZZLY WAY",LEANDER,TX,78641,,,CONTRACTOR,,,,,,,,,,,"CENTURY COMMUNITIES",,,,,"CENTURY COMMUNITIES","6500 RIVER PLACE BLVD STE 200",AUSTIN,TX,78730-1156,"(512) 271-3825",https://www.centurycommunities.com/,,,
TX,WILLIAMSON,2021-32317,"Single Family Homes",4/10/2021,,,2466,"2713 GRIZZLY WAY",LEANDER,TX,78641,DEERBROOKE,,CONTRACTOR,,,,,,,,,,,"CENTURY COMMUNITIES",,,,,"CENTURY COMMUNITIES","6500 RIVER PLACE BLVD STE 200",AUSTIN,TX,78730-1156,"(512) 271-3825",https://www.centurycommunities.com/,,,
TX,WILLIAMSON,2021-32321,"Single Family Homes",4/10/2021,,,2209,"2717 GRIZZLY WAY",LEANDER,TX,78641,DEERBROOKE,,CONTRACTOR,,,,,,,,,,,"CENTURY COMMUNITIES",,,,,"CENTURY COMMUNITIES","6500 RIVER PLACE BLVD STE 200",AUSTIN,TX,78730-1156,"(512) 271-3825",https://www.centurycommunities.com/,,,
TX,WILLIAMSON,2021-32323,"Single Family Homes",4/10/2021,,,2622,"937 MALLOW RD",LEANDER,TX,78641,,,CONTRACTOR,,,,,,,,,,,"LENNAR HOMES",,,,,"LENNAR HOMES","13620 FM 620 RD 150",AUSTIN,TX,78717,"(512) 506-4000",http://www.lennar.com/,,,
TX,WILLIAMSON,2021-32325,"Single Family Homes",4/24/2021,,,2878,"1004 BLUEWOOD BND",LEANDER,TX,78641,BRYSON,,CONTRACTOR,,,,,,,,,,,"LENNAR HOMES",,,,,"LENNAR HOMES","13620 FM 620 RD 150",AUSTIN,TX,78717,"(512) 506-4000",http://www.lennar.com/,,,
TX,WILLIAMSON,2021-32329,"Single Family Homes",4/10/2021,,,3104,"1005 MALLOW RD",LEANDER,TX,78641,,,CONTRACTOR,,,,,,,,,,,"LENNAR HOMES",,,,,"LENNAR HOMES","13620 FM 620 RD 150",AUSTIN,TX,78717,"(512) 506-4000",http://www.lennar.com/,,,
TX,WILLIAMSON,2021-32330,"Single Family Homes",4/26/2021,,,3186,"1008 BLUEWOOD BND",LEANDER,TX,78641,,,CONTRACTOR,,,,,,,,,,,"LENNAR HOMES",,,,,"LENNAR HOMES","13620 FM 620 RD 150",AUSTIN,TX,78717,"(512) 506-4000",http://www.lennar.com/,,,
TX,WILLIAMSON,2021-32332,"Single Family Homes",4/24/2021,,,3276,"1852 TURTLE BAY LOOP",LEANDER,TX,78641,,,CONTRACTOR,,,,,,,,,,,"CENTURY COMMUNITIES",,,,,"CENTURY COMMUNITIES","6500 RIVER PLACE BLVD STE 200",AUSTIN,TX,78730-1156,"(512) 271-3825",https://www.centurycommunities.com/,,,
TX,WILLIAMSON,2021-32341,"Single Family Homes",4/10/2021,,,2878,"1009 MALLOW RD",LEANDER,TX,78641,BRYSON,,CONTRACTOR,,,,,,,,,,,"LENNAR HOMES",,,,,"LENNAR HOMES","13620 FM 620 RD 150",AUSTIN,TX,78717,"(512) 506-4000",http://www.lennar.com/,,,
TX,WILLIAMSON,2021-32345,"Single Family Homes",4/28/2021,,,7137,"4541 VIA ROMA PASS",LEANDER,TX,78641,,,CONTRACTOR,,,,,,,,,,,"TOLL BROTHERS",,,,,"TOLL BROTHERS","310 ARIA DR",AUSTIN,TX,78738-1740,"(512) 491-0378",,,,
TX,WILLIAMSON,2021-32346,"Single Family Homes",4/24/2021,,,2836,"2924 SAGE RANCH DR",LEANDER,TX,78641,DEERBROOKE,,CONTRACTOR,,,,,,,,,,,"CENTURY COMMUNITIES",,,,,"CENTURY COMMUNITIES","6500 RIVER PLACE BLVD STE 200",AUSTIN,TX,78730-1156,"(512) 271-3825",https://www.centurycommunities.com/,,,
TX,WILLIAMSON,2021-32348,"Single Family Homes",4/24/2021,,,2622,"2920 SAGE RANCH DR",LEANDER,TX,78641,DEERBROOKE,,CONTRACTOR,,,,,,,,,,,"CENTURY COMMUNITIES",,,,,"CENTURY COMMUNITIES","6500 RIVER PLACE BLVD STE 200",AUSTIN,TX,78730-1156,"(512) 271-3825",https://www.centurycommunities.com/,,,
TX,WILLIAMSON,2021-32350,"Single Family Homes",4/22/2021,,,7790,"2036 MURANO LN",LEANDER,TX,78641,TRAVISSO,,CONTRACTOR,,,,,,,,,,,"TOLL BROTHERS",,,,,"TOLL BROTHERS","310 ARIA DR",AUSTIN,TX,78738-1740,"(512) 491-0378",,,,
TX,WILLIAMSON,2021-32352,"Single Family Homes",4/24/2021,,,2590,"2912 SAGE RANCH DR",LEANDER,TX,78641,,,CONTRACTOR,,,,,,,,,,,"CENTURY COMMUNITIES",,,,,"CENTURY COMMUNITIES","6500 RIVER PLACE BLVD STE 200",AUSTIN,TX,78730-1156,"(512) 271-3825",https://www.centurycommunities.com/,,,
TX,WILLIAMSON,2021-32354,"Single Family Homes",4/24/2021,,,2740,"2904 SAGE RANCH DR",LEANDER,TX,78641,DEERBROOKE,,CONTRACTOR,,,,,,,,,,,"CENTURY COMMUNITIES",,,,,"CENTURY COMMUNITIES","6500 RIVER PLACE BLVD STE 200",AUSTIN,TX,78730-1156,"(512) 271-3825",https://www.centurycommunities.com/,,,
TX,WILLIAMSON,2021-32360,"Single Family Homes",4/15/2021,,,5614,"3604 ELM RIDGE DR",LEANDER,TX,78641,"REAGANS OVERLOOK",,CONTRACTOR,,,,,,,,,,,"CENTURY COMMUNITIES",,,,,"CENTURY COMMUNITIES","6500 RIVER PLACE BLVD STE 200",AUSTIN,TX,78730-1156,"(512) 271-3825",https://www.centurycommunities.com/,,,
TX,WILLIAMSON,2021-32234,"Single Family Homes",4/27/2021,,,3948,"3612 GABRIELS HORN RD",LEANDER,TX,78641,BLUFFVIEW,,CONTRACTOR,,,,,,,,,,,"TAYLOR MORRISON OF TEXAS",,,,,"TAYLOR MORRISON OF TEXAS","11200 LAKELINE BLVD STE 150A",AUSTIN,TX,78717-5964,"(512) 328-8866",,"(512) 328-7988",,
TX,WILLIAMSON,2021-32240,"Single Family Homes",4/13/2021,,,4296,"1128 BRITTMORE CV",LEANDER,TX,78641,,,CONTRACTOR,,,,,,,,,,,"CHESMAR HOMES",,,,,"CHESMAR HOMES","2900 N QUINLAN PARK RD",AUSTIN,TX,78732-6083,"(512) 233-9016",http://chesmar.com,,,
TX,WILLIAMSON,2021-32242,"Single Family Homes",4/24/2021,,,4343,"1120 BRITTMORE CV",LEANDER,TX,78641,,,CONTRACTOR,,,,,,,,,,,"GEHAN HOMES",,,,,"GEHAN HOMES","3815 S CAPITAL OF TEXAS HWY STE 275",AUSTIN,TX,78704-6652,"(512) 330-9366",http://www.gehanhomes.com,,"JANET PHILLIPS",
TX,WILLIAMSON,2021-32243,"Single Family Homes",4/19/2021,,,4767,"1032 BIRCHBROOKE DR",LEANDER,TX,78641,,,CONTRACTOR,,,,,,,,,,,"GEHAN HOMES",,,,,"GEHAN HOMES","3815 S CAPITAL OF TEXAS HWY STE 275",AUSTIN,TX,78704-6652,"(512) 330-9366",http://www.gehanhomes.com,,"JANET PHILLIPS",
TX,WILLIAMSON,2021-32244,"Single Family Homes",4/21/2021,,,4036,"2321 HIGH VICTORY RD",LEANDER,TX,78641,"PALMERA BLUFF",,CONTRACTOR,,,,,,,,,,,"PERRY HOMES",,,,,"PERRY HOMES","6112 LLANO ST",AUSTIN,TX,78702,"(512) 810-8050",,,,
TX,WILLIAMSON,2021-32245,"Single Family Homes",4/13/2021,,,2740,"1817 HARVEST KNOLL LN",LEANDER,TX,78641,,,CONTRACTOR,,,,,,,,,,,"CENTURY COMMUNITIES",,,,,"CENTURY COMMUNITIES","6500 RIVER PLACE BLVD STE 200",AUSTIN,TX,78730-1156,"(512) 271-3825",https://www.centurycommunities.com/,,,
TX,WILLIAMSON,2021-32246,"Single Family Homes",4/29/2021,,,3861,"1000 BIRCHBROOKE DR",LEANDER,TX,78641,DEERBROOKE,,CONTRACTOR,,,,,,,,,,,"PERRY HOMES",,,,,"PERRY HOMES","6112 LLANO ST",AUSTIN,TX,78702,"(512) 810-8050",,,,
TX,WILLIAMSON,2021-32248,"Single Family Homes",4/6/2021,,,2910,"832 AZUL LAGOON DR",LEANDER,TX,78641,"PALMERA RIDGE",,CONTRACTOR,,,,,,,,,,,"PERRY HOMES",,,,,"PERRY HOMES","6112 LLANO ST",AUSTIN,TX,78702,"(512) 810-8050",,,,
TX,WILLIAMSON,2021-32249,"Single Family Homes",4/15/2021,,,2186,"2612 PECAN ISLAND DR",LEANDER,TX,78641,,,CONTRACTOR,,,,,,,,,,,"CENTURY COMMUNITIES",,,,,"CENTURY COMMUNITIES","6500 RIVER PLACE BLVD STE 200",AUSTIN,TX,78730-1156,"(512) 271-3825",https://www.centurycommunities.com/,,,
TX,WILLIAMSON,2021-32255,"Single Family Homes",4/6/2021,,,2933,"820 AZUL LAGOON DR",LEANDER,TX,78641,,,CONTRACTOR,,,,,,,,,,,"PERRY HOMES",,,,,"PERRY HOMES","6112 LLANO ST",AUSTIN,TX,78702,"(512) 810-8050",,,,
TX,WILLIAMSON,2021-32207,"Single Family Homes",4/8/2021,,,2447,"1945 WINSTON WAY",LEANDER,TX,78641,,,CONTRACTOR,,,,,,,,,,,"ASHTON WOODS HOMES",,,,,"ASHTON WOODS HOMES","4201 W PARMER LN STE A150",AUSTIN,TX,78727-4118,"(512) 610-7000",,,,
TX,WILLIAMSON,2021-32374,"Single Family Homes",4/28/2021,,,4153,"1217 DEERING CREEK DR",LEANDER,TX,78641,,,CONTRACTOR,,,,,,,,,,,"SITTERLE HOMES",,,,,"SITTERLE HOMES","113 NAPLES LN",AUSTIN,TX,78737-4686,"(210) 494-9192",http://www.sitterlehomes.com,,,
TX,WILLIAMSON,2021-32375,"Single Family Homes",4/28/2021,,,3909,"2441 DEERING CREEK CT",LEANDER,TX,78641,DEERBROOKE,,CONTRACTOR,,,,,,,,,,,"SITTERLE HOMES",,,,,"SITTERLE HOMES","113 NAPLES LN",AUSTIN,TX,78737-4686,"(210) 494-9192",http://www.sitterlehomes.com,,,
TX,WILLIAMSON,2021-32418,"Single Family Homes",4/26/2021,,,3220,"1860 TURTLE BAY LOOP",LEANDER,TX,78641,,,CONTRACTOR,,,,,,,,,,,"CENTURY COMMUNITIES",,,,,"CENTURY COMMUNITIES","6500 RIVER PLACE BLVD STE 200",AUSTIN,TX,78730-1156,"(512) 271-3825",https://www.centurycommunities.com/,,,
TX,WILLIAMSON,2021-32419,"Single Family Homes",4/21/2021,,,2916,"1856 TURTLE BAY LOOP",LEANDER,TX,78641,,,CONTRACTOR,,,,,,,,,,,"CENTURY COMMUNITIES",,,,,"CENTURY COMMUNITIES","6500 RIVER PLACE BLVD STE 200",AUSTIN,TX,78730-1156,"(512) 271-3825",https://www.centurycommunities.com/,,,
TX,WILLIAMSON,2021-32422,"Single Family Homes",4/21/2021,,,4513,"1517 LOW BRANCH LN",LEANDER,TX,78641,,,CONTRACTOR,,,,,,,,,,,"GEHAN HOMES",,,,,"GEHAN HOMES","3815 S CAPITAL OF TEXAS HWY STE 275",AUSTIN,TX,78704-6652,"(512) 330-9366",http://www.gehanhomes.com,,"JANET PHILLIPS",
TX,WILLIAMSON,2021-32423,"Single Family Homes",4/21/2021,,,1908,"1728 FOUNTAIN BRIDGE DR",LEANDER,TX,78641,,,CONTRACTOR,,,,,,,,,,,"CENTURY COMMUNITIES",,,,,"CENTURY COMMUNITIES","6500 RIVER PLACE BLVD STE 200",AUSTIN,TX,78730-1156,"(512) 271-3825",https://www.centurycommunities.com/,,,
TX,WILLIAMSON,2021-32426,"Single Family Homes",4/26/2021,,,3276,"1924 TURTLE BAY LOOP",LEANDER,TX,78641,,,CONTRACTOR,,,,,,,,,,,"CENTURY COMMUNITIES",,,,,"CENTURY COMMUNITIES","6500 RIVER PLACE BLVD STE 200",AUSTIN,TX,78730-1156,"(512) 271-3825",https://www.centurycommunities.com/,,,
TX,WILLIAMSON,2021-32428,"Single Family Homes",4/21/2021,,,2088,"1868 ARENDALE DR",LEANDER,TX,78641,,,CONTRACTOR,,,,,,,,,,,"CENTURY COMMUNITIES",,,,,"CENTURY COMMUNITIES","6500 RIVER PLACE BLVD STE 200",AUSTIN,TX,78730-1156,"(512) 271-3825",https://www.centurycommunities.com/,,,
TX,WILLIAMSON,2021-32429,"Single Family Homes",4/23/2021,,,3075,"928 BIRCHBROOKE DR",LEANDER,TX,78641,,,CONTRACTOR,,,,,,,,,,,"PERRY HOMES",,,,,"PERRY HOMES","6112 LLANO ST",AUSTIN,TX,78702,"(512) 810-8050",,,,
TX,WILLIAMSON,2021-32431,"Single Family Homes",4/21/2021,,,2303,"2061 ARENDALE DR",LEANDER,TX,78641,,,CONTRACTOR,,,,,,,,,,,"CENTURY COMMUNITIES",,,,,"CENTURY COMMUNITIES","6500 RIVER PLACE BLVD STE 200",AUSTIN,TX,78730-1156,"(512) 271-3825",https://www.centurycommunities.com/,,,
TX,WILLIAMSON,2021-32450,"Single Family Homes",4/28/2021,,,2631,"2629 DANBURY LN",LEANDER,TX,78641,,,CONTRACTOR,,,,,,,,,,,"ASHTON WOODS HOMES",,,,,"ASHTON WOODS HOMES","4201 W PARMER LN STE A150",AUSTIN,TX,78727-4118,"(512) 610-7000",,,,
TX,WILLIAMSON,2021-32452,"Single Family Homes",4/23/2021,,,2251,"1736 FOUNTAIN BRIDGE DR",LEANDER,TX,78641,,,CONTRACTOR,,,,,,,,,,,"CENTURY COMMUNITIES",,,,,"CENTURY COMMUNITIES","6500 RIVER PLACE BLVD STE 200",AUSTIN,TX,78730-1156,"(512) 271-3825",https://www.centurycommunities.com/,,,
TX,WILLIAMSON,2021-32454,"Single Family Homes",4/23/2021,,,1974,"1732 FOUNTAIN BRIDGE DR",LEANDER,TX,78641,,,CONTRACTOR,,,,,,,,,,,"CENTURY COMMUNITIES",,,,,"CENTURY COMMUNITIES","6500 RIVER PLACE BLVD STE 200",AUSTIN,TX,78730-1156,"(512) 271-3825",https://www.centurycommunities.com/,,,
TX,TRAVIS,"2021-047719 BP","Single Family Homes",5/3/2021,,126900,2368,"15301 GRENADINE BLOOM CV",AUSTIN,TX,78617,,,CONTRACTOR,,,,,,,,,,,"LENNAR HOMES",,,,,"LENNAR HOMES","13620 FM 620 RD 150",AUSTIN,TX,78717,"(512) 506-4000",http://www.lennar.com/,,,
TX,TRAVIS,"2020-174496 BP","Single Family Homes",4/28/2021,,163250,1476,"1180 SARABETH WAY",AUSTIN,TX,78721,"HUSTON SAM HEIGHTS",9,CONTRACTOR,,,,,,,,,,,"PSW HOMES",,,,,"PSW HOMES","2003 S 1ST ST",AUSTIN,TX,78704-5141,"(512) 326-3905",,,,
TX,TRAVIS,"2021-058692 BP","Single Family Homes",4/30/2021,,168450,2246,"13713 ZUHAUSE DR",AUSTIN,TX,78660,WALTERS,,CONTRACTOR,,,,,,,,,,,"DR HORTON",,,,,"DR HORTON","10700 PECAN PARK BLVD STE 400",AUSTIN,TX,78750-1227,"(512) 345-4663",,,,
TX,TRAVIS,"2020-169504 BP","Single Family Homes",4/28/2021,,182750,1561,"1184 SARABETH WAY",AUSTIN,TX,78721,"HUSTON SAM HEIGHTS",9,CONTRACTOR,,,,,,,,,,,"PSW HOMES",,,,,"PSW HOMES","2003 S 1ST ST",AUSTIN,TX,78704-5141,"(512) 326-3905",,,,
TX,TRAVIS,"2021-062885 BP","Single Family Homes",4/28/2021,,189750,3089,"1102 WINNIE DR",AUSTIN,TX,78748,SLAUGHTER,,CONTRACTOR,,,,,,,,,,,"LENNAR HOMES",,,,,"LENNAR HOMES","13620 FM 620 RD 150",AUSTIN,TX,78717,"(512) 506-4000",http://www.lennar.com/,,,
TX,TRAVIS,"2021-061221 BP","Single Family Homes",4/30/2021,,200400,2672,"2205 ALAMO HEIGHTS AVE",AUSTIN,TX,78754,,,CONTRACTOR,,,,,,,,,,,"DR HORTON",,,,,"DR HORTON","10700 PECAN PARK BLVD STE 400",AUSTIN,TX,78750-1227,"(512) 345-4663",,,,
TX,TRAVIS,"2020-169460 BP","Single Family Homes",4/28/2021,,212750,2113,"1182 SARABETH WAY",AUSTIN,TX,78721,"HUSTON SAM HEIGHTS",9,CONTRACTOR,,,,,,,,,,,"PSW HOMES",,,,,"PSW HOMES","2003 S 1ST ST",AUSTIN,TX,78704-5141,"(512) 326-3905",,,,
TX,TRAVIS,"2021-065218 BP","Single Family Homes",5/3/2021,,232470,2583,"4813 DELANCEY DR",AUSTIN,TX,78653,,,CONTRACTOR,,,,,,,,,,,"KB HOME",,,,,"KB HOME","10800 PECAN PARK BLVD STE 200",AUSTIN,TX,78750-1249,"(512) 651-8100",,,,
TX,TRAVIS,"2021-062377 BP","Single Family Homes",4/28/2021,,481000,3142,"2917 SORIN ST",AUSTIN,TX,78723,MUELLER,10,CONTRACTOR,,,,,,,,,,,"DAVID WEEKLEY HOMES",,,,,"DAVID WEEKLEY HOMES","9000 WATERFORD CENTRE BLVD",AUSTIN,TX,78758-7662,"(800) 390-6774",http://www.davidweekleyhomes.com/,,,
TX,WILLIAMSON,2020-29963,"Warehouse & Manufacturing",3/24/2021,,,105823,"19348 RONALD W REAGAN BLVD",LEANDER,TX,78641,,,CONTRACTOR,,,,,,,,,,,"SPAWGLASS CONTRACTORS",,,,,"SPAWGLASS CONTRACTORS","1000 W MAGNOLIA AVE","FT WORTH",TX,76104-4503,"(817) 288-0890",,,,
