state,county,permno,ptype,pdate,pdescription,jvalue,jsqfeet,jaddr,jcity,jstate,jzip,jsubdiv,jlotno,aname,aaddr,acity,astate,azip,aphone,atype,aurl,afax,aprimarycontact,aemail,bldcode,units,bldgs,ctype,legal,contractor,caddress,ccity,cstate,czip,cphone,curl,cfax,cprimarycontact,cemail
TX,TRAVIS,"2021-085773 BP","Churches & Other Religious",6/14/2021,Addition,50300000,,"5701 E MARTIN LUTHER KING JR BLVD",AUSTIN,TX,78721,TANNEHILL,,CONTRACTOR,,,,,,,,,,,"ASD CONSULTANTS",,,,,"ASD CONSULTANTS","8120 N INTERSTATE 35",AUSTIN,TX,78753-6410,"(512) 836-3329",,,,
TX,TRAVIS,21-34003,"Duplex, Triplex, & Fourplex",5/3/2021,,160425,,"7309 SPOTTED LEAF",AUSTIN,TX,78617,"STONEY RIDGE",,CONTRACTOR,,,,,,,,,,,"LENNAR HOMES",,,,,"LENNAR HOMES","13620 FM 620 RD 150",AUSTIN,TX,78717,"(512) 506-4000",http://www.lennar.com/,,,
TX,TRAVIS,21-34004,"Duplex, Triplex, & Fourplex",5/4/2021,,139200,,"7305 SPOTTED LEAF",AUSTIN,TX,78617,,,CONTRACTOR,,,,,,,,,,,"LENNAR HOMES",,,,,"LENNAR HOMES","13620 FM 620 RD 150",AUSTIN,TX,78717,"(512) 506-4000",http://www.lennar.com/,,,
TX,TRAVIS,21-34009,"Duplex, Triplex, & Fourplex",5/3/2021,,118500,,"12120 SCARLET SLEEVE",AUSTIN,TX,78617,,,CONTRACTOR,,,,,,,,,,,"LENNAR HOMES",,,,,"LENNAR HOMES","13620 FM 620 RD 150",AUSTIN,TX,78717,"(512) 506-4000",http://www.lennar.com/,,,
TX,TRAVIS,21-34010,"Duplex, Triplex, & Fourplex",5/4/2021,,104400,,"12116 SCARLET SLEEVE",AUSTIN,TX,78617,,,CONTRACTOR,,,,,,,,,,,"LENNAR HOMES",,,,,"LENNAR HOMES","13620 FM 620 RD 150",AUSTIN,TX,78717,"(512) 506-4000",http://www.lennar.com/,,,
TX,TRAVIS,21-34011,"Duplex, Triplex, & Fourplex",5/3/2021,,118800,,"12112 SCARLET SLEEVE",AUSTIN,TX,78617,"STONEY RIDGE",,CONTRACTOR,,,,,,,,,,,"LENNAR HOMES",,,,,"LENNAR HOMES","13620 FM 620 RD 150",AUSTIN,TX,78717,"(512) 506-4000",http://www.lennar.com/,,,
TX,TRAVIS,21-34012,"Duplex, Triplex, & Fourplex",5/4/2021,,117825,,"12108 SCARLET SLEEVE",AUSTIN,TX,78617,"STONEY RIDGE",,CONTRACTOR,,,,,,,,,,,"LENNAR HOMES",,,,,"LENNAR HOMES","13620 FM 620 RD 150",AUSTIN,TX,78717,"(512) 506-4000",http://www.lennar.com/,,,
TX,TRAVIS,21-34016,"Duplex, Triplex, & Fourplex",5/4/2021,,118800,,"12109 SHORT LEAF",AUSTIN,TX,78617,,,CONTRACTOR,,,,,,,,,,,"LENNAR HOMES",,,,,"LENNAR HOMES","13620 FM 620 RD 150",AUSTIN,TX,78717,"(512) 506-4000",http://www.lennar.com/,,,
TX,TRAVIS,21-34017,"Duplex, Triplex, & Fourplex",5/3/2021,,102300,,"12105 SHORT LEAF PATH",AUSTIN,TX,78617,"STONEY RIDGE",,CONTRACTOR,,,,,,,,,,,"LENNAR HOMES",,,,,"LENNAR HOMES","13620 FM 620 RD 150",AUSTIN,TX,78717,"(512) 506-4000",http://www.lennar.com/,,,
TX,TRAVIS,21-34018,"Duplex, Triplex, & Fourplex",5/4/2021,,101325,,"12101 SHORT LEAF PATH",AUSTIN,TX,78617,,,CONTRACTOR,,,,,,,,,,,"LENNAR HOMES",,,,,"LENNAR HOMES","13620 FM 620 RD 150",AUSTIN,TX,78717,"(512) 506-4000",http://www.lennar.com/,,,
TX,TRAVIS,21-34129,"Duplex, Triplex, & Fourplex",5/24/2021,,104400,,"7128 DANCING WIND",AUSTIN,TX,78617,"STONEY RIDGE",,CONTRACTOR,,,,,,,,,,,"LENNAR HOMES",,,,,"LENNAR HOMES","13620 FM 620 RD 150",AUSTIN,TX,78717,"(512) 506-4000",http://www.lennar.com/,,,
TX,TRAVIS,21-34131,"Duplex, Triplex, & Fourplex",5/24/2021,,102300,,"7125 DANCING WIND",AUSTIN,TX,78617,,,CONTRACTOR,,,,,,,,,,,"LENNAR HOMES",,,,,"LENNAR HOMES","13620 FM 620 RD 150",AUSTIN,TX,78717,"(512) 506-4000",http://www.lennar.com/,,,
TX,TRAVIS,21-34392,"Duplex, Triplex, & Fourplex",5/25/2021,,102300,,"7116 SPOTTED LEAF WAY","DEL VALLE",TX,78617,"STONEY RIDGE",,CONTRACTOR,,,,,,,,,,,"LENNAR HOMES",,,,,"LENNAR HOMES","13620 FM 620 RD 150",AUSTIN,TX,78717,"(512) 506-4000",http://www.lennar.com/,,,
TX,TRAVIS,21-34388,"Duplex, Triplex, & Fourplex",5/25/2021,,200250,,"17613 AVALAR AVE",PFLUGERVILLE,TX,78660,,,CONTRACTOR,,,,,,,,,,,"DR HORTON",,,,,"DR HORTON","10700 PECAN PARK BLVD STE 400",AUSTIN,TX,78750-1227,"(512) 345-4663",,,,
TX,TRAVIS,21-34389,"Duplex, Triplex, & Fourplex",5/25/2021,,202650,,"17617 AVALAR AVE",PFLUGERVILLE,TX,78660,SORENTO,,CONTRACTOR,,,,,,,,,,,"DR HORTON",,,,,"DR HORTON","10700 PECAN PARK BLVD STE 400",AUSTIN,TX,78750-1227,"(512) 345-4663",,,,
TX,TRAVIS,21-34390,"Duplex, Triplex, & Fourplex",5/25/2021,,248925,,"16809 PONTE COVE",PFLUGERVILLE,TX,78660,SORENTO,,CONTRACTOR,,,,,,,,,,,"DR HORTON",,,,,"DR HORTON","10700 PECAN PARK BLVD STE 400",AUSTIN,TX,78750-1227,"(512) 345-4663",,,,
TX,TRAVIS,21-34386,"Duplex, Triplex, & Fourplex",5/25/2021,,118500,,"7100 SPOTTED LEAF WAY","DEL VALLE",TX,78617,,,CONTRACTOR,,,,,,,,,,,"LENNAR HOMES",,,,,"LENNAR HOMES","13620 FM 620 RD 150",AUSTIN,TX,78717,"(512) 506-4000",http://www.lennar.com/,,,
TX,TRAVIS,21-34387,"Duplex, Triplex, & Fourplex",5/25/2021,,104400,,"7104 SPOTTED LEAF WAY","DEL VALLE",TX,78617,,,CONTRACTOR,,,,,,,,,,,"LENNAR HOMES",,,,,"LENNAR HOMES","13620 FM 620 RD 150",AUSTIN,TX,78717,"(512) 506-4000",http://www.lennar.com/,,,
TX,TRAVIS,21-34404,"Duplex, Triplex, & Fourplex",5/25/2021,,95400,,"7113 SPOTTED LEAF WAY","DEL VALLE",TX,78617,"STONEY RIDGE",,CONTRACTOR,,,,,,,,,,,"LENNAR HOMES",,,,,"LENNAR HOMES","13620 FM 620 RD 150",AUSTIN,TX,78717,"(512) 506-4000",http://www.lennar.com/,,,
TX,TRAVIS,21-34405,"Duplex, Triplex, & Fourplex",5/25/2021,,95400,,"7117 SPOTTED LEAF WAY","DEL VALLE",TX,78617,"STONEY RIDGE",,CONTRACTOR,,,,,,,,,,,"LENNAR HOMES",,,,,"LENNAR HOMES","13620 FM 620 RD 150",AUSTIN,TX,78717,"(512) 506-4000",http://www.lennar.com/,,,
TX,TRAVIS,21-34406,"Duplex, Triplex, & Fourplex",5/25/2021,,104400,,"7121 SPOTTED LEAF WAY","DEL VALLE",TX,78617,,,CONTRACTOR,,,,,,,,,,,"LENNAR HOMES",,,,,"LENNAR HOMES","13620 FM 620 RD 150",AUSTIN,TX,78717,"(512) 506-4000",http://www.lennar.com/,,,
TX,TRAVIS,"2021-088539 BP","Hospital & Other Medical",6/10/2021,Renovation,2256535,7100,"901 W BEN WHITE BLVD SVRD",AUSTIN,TX,78704,"SOUTH AUSTIN MEDICAL CENTER",1,CONTRACTOR,,,,,,,,,,,"CM CONSTRUCTORS",,,,,"CM CONSTRUCTORS","12325 HYMEADOW DR STE 3-202",AUSTIN,TX,78750-1861,"(512) 960-8300",,,,
TX,TRAVIS,21-34026,"Multi Family Apartments & Condos",5/21/2021,,381990,,"15717 OGLETHORPE DR",AUSTIN,TX,78728,,,CONTRACTOR,,,,,,,,,,,"TAYLOR MORRISON OF TEXAS",,,,,"TAYLOR MORRISON OF TEXAS","11200 LAKELINE BLVD STE 150A",AUSTIN,TX,78717-5964,"(512) 328-8866",,"(512) 328-7988",,
TX,TRAVIS,21-34027,"Multi Family Apartments & Condos",5/21/2021,,401990,,"15711 OGLETHORPE DR",AUSTIN,TX,78728,,95,CONTRACTOR,,,,,,,,,,,"TAYLOR MORRISON OF TEXAS",,,,,"TAYLOR MORRISON OF TEXAS","11200 LAKELINE BLVD STE 150A",AUSTIN,TX,78717-5964,"(512) 328-8866",,"(512) 328-7988",,
TX,TRAVIS,21-34028,"Multi Family Apartments & Condos",5/21/2021,,401990,,"15801 OGLETHORPE DR",AUSTIN,TX,78728,,,CONTRACTOR,,,,,,,,,,,"TAYLOR MORRISON OF TEXAS",,,,,"TAYLOR MORRISON OF TEXAS","11200 LAKELINE BLVD STE 150A",AUSTIN,TX,78717-5964,"(512) 328-8866",,"(512) 328-7988",,
TX,TRAVIS,21-34029,"Multi Family Apartments & Condos",5/21/2021,,390990,,"15713 OGLETHORPE DR",AUSTIN,TX,78728,,,CONTRACTOR,,,,,,,,,,,"TAYLOR MORRISON OF TEXAS",,,,,"TAYLOR MORRISON OF TEXAS","11200 LAKELINE BLVD STE 150A",AUSTIN,TX,78717-5964,"(512) 328-8866",,"(512) 328-7988",,
TX,TRAVIS,21-34030,"Multi Family Apartments & Condos",5/21/2021,,403990,,"15803 OGLETHORPE DR",AUSTIN,TX,78728,,,CONTRACTOR,,,,,,,,,,,"TAYLOR MORRISON OF TEXAS",,,,,"TAYLOR MORRISON OF TEXAS","11200 LAKELINE BLVD STE 150A",AUSTIN,TX,78717-5964,"(512) 328-8866",,"(512) 328-7988",,
TX,TRAVIS,21-34032,"Multi Family Apartments & Condos",5/21/2021,,403990,,"15715 OGLETHORPE DR",AUSTIN,TX,78728,,,CONTRACTOR,,,,,,,,,,,"TAYLOR MORRISON OF TEXAS",,,,,"TAYLOR MORRISON OF TEXAS","11200 LAKELINE BLVD STE 150A",AUSTIN,TX,78717-5964,"(512) 328-8866",,"(512) 328-7988",,
TX,TRAVIS,21-34074,"Multi Family Apartments & Condos",5/21/2021,,392990,,"15707 OGLETHORPE DR",AUSTIN,TX,78744,,,CONTRACTOR,,,,,,,,,,,"TAYLOR MORRISON OF TEXAS",,,,,"TAYLOR MORRISON OF TEXAS","11200 LAKELINE BLVD STE 150A",AUSTIN,TX,78717-5964,"(512) 328-8866",,"(512) 328-7988",,
TX,TRAVIS,21-34043,"Multi Family Apartments & Condos",5/4/2021,,118915,,"17926 PAPAVERI WAY",PFLUGERVILLE,TX,78660,,,CONTRACTOR,,,,,,,,,,,"PACESETTER HOMES ",,,,,"PACESETTER HOMES ","7940 SHOAL CREEK BLVD STE 200",AUSTIN,TX,78757-7587,"(512) 323-5252",,,,
TX,TRAVIS,21-34119,"Multi Family Apartments & Condos",5/21/2021,,193000,,"7605 FRIDA BEND",AUSTIN,TX,78744,"EASTON PARK",,CONTRACTOR,,,,,,,,,,,"BROOKFIELD RESIDENTIAL PROPERTIES",,,,,"BROOKFIELD RESIDENTIAL PROPERTIES","11501 ALTERRA PKWY STE 100",AUSTIN,TX,78758-3201,"(512) 391-1330",,,,
TX,TRAVIS,21-34212,"Multi Family Apartments & Condos",5/25/2021,,197520,,"7503 GRAND LINDEN WAY",AUSTIN,TX,78744,,,CONTRACTOR,,,,,,,,,,,"MERITAGE HOMES",,,,,"MERITAGE HOMES","8920 BUSINESS PARK DR STE 250",AUSTIN,TX,78759-7622,"(512) 610-4800",,,,
TX,TRAVIS,21-34213,"Multi Family Apartments & Condos",5/25/2021,,212520,,"7501 GRAND LINDEN WAY",AUSTIN,TX,78744,,,CONTRACTOR,,,,,,,,,,,"MERITAGE HOMES",,,,,"MERITAGE HOMES","8920 BUSINESS PARK DR STE 250",AUSTIN,TX,78759-7622,"(512) 610-4800",,,,
TX,TRAVIS,21-34215,"Multi Family Apartments & Condos",5/25/2021,,245640,,"7507 GRAND LINDEN WAY",AUSTIN,TX,78744,,,CONTRACTOR,,,,,,,,,,,"MERITAGE HOMES",,,,,"MERITAGE HOMES","8920 BUSINESS PARK DR STE 250",AUSTIN,TX,78759-7622,"(512) 610-4800",,,,
TX,TRAVIS,21-34120,"Multi Family Apartments & Condos",5/21/2021,,201000,,"7607 FRIDA BEND",AUSTIN,TX,78744,"EASTON PARK",,CONTRACTOR,,,,,,,,,,,"BROOKFIELD RESIDENTIAL PROPERTIES",,,,,"BROOKFIELD RESIDENTIAL PROPERTIES","11501 ALTERRA PKWY STE 100",AUSTIN,TX,78758-3201,"(512) 391-1330",,,,
TX,TRAVIS,21-34124,"Multi Family Apartments & Condos",5/20/2021,,226000,,"7901 LENNON DR",AUSTIN,TX,78744,,,CONTRACTOR,,,,,,,,,,,"BROOKFIELD RESIDENTIAL PROPERTIES",,,,,"BROOKFIELD RESIDENTIAL PROPERTIES","11501 ALTERRA PKWY STE 100",AUSTIN,TX,78758-3201,"(512) 391-1330",,,,
TX,TRAVIS,21-34127,"Multi Family Apartments & Condos",5/20/2021,,201000,,"7907 LENNON DR",AUSTIN,TX,78744,,,CONTRACTOR,,,,,,,,,,,"BROOKFIELD RESIDENTIAL PROPERTIES",,,,,"BROOKFIELD RESIDENTIAL PROPERTIES","11501 ALTERRA PKWY STE 100",AUSTIN,TX,78758-3201,"(512) 391-1330",,,,
TX,TRAVIS,21-34445,"Multi Family Apartments & Condos",5/25/2021,,437000,,"2405 SUNSET VISTA CIRCLE",SPICEWOOD,TX,78669,,,CONTRACTOR,,,,,,,,,,,"DREES CUSTOM HOMES",,,,,"DREES CUSTOM HOMES","7300 RANCH ROAD 2222 BLDG 2 STE 250",AUSTIN,TX,78730-3204,"(512) 241-7100",http://www.dreeshomes.com,,,
TX,TRAVIS,21-34486,"Multi Family Apartments & Condos",5/25/2021,,233040,,"7511 GRAND LINDEN WAY",AUSTIN,TX,78744,,3,CONTRACTOR,,,,,,,,,,,"MERITAGE HOMES",,,,,"MERITAGE HOMES","8920 BUSINESS PARK DR STE 250",AUSTIN,TX,78759-7622,"(512) 610-4800",,,,
TX,TRAVIS,21-34441,"Multi Family Apartments & Condos",5/25/2021,,179400,,"7601 GRAND LINDEN WAY",AUSTIN,TX,78744,,,CONTRACTOR,,,,,,,,,,,"MERITAGE HOMES",,,,,"MERITAGE HOMES","8920 BUSINESS PARK DR STE 250",AUSTIN,TX,78759-7622,"(512) 610-4800",,,,
TX,TRAVIS,21-34443,"Multi Family Apartments & Condos",5/25/2021,,212520,,"7603 GRAND LINDEN WAY",AUSTIN,TX,78744,"EASTON PARK",,CONTRACTOR,,,,,,,,,,,"MERITAGE HOMES",,,,,"MERITAGE HOMES","8920 BUSINESS PARK DR STE 250",AUSTIN,TX,78759-7622,"(512) 610-4800",,,,
TX,TRAVIS,21-34444,"Multi Family Apartments & Condos",5/25/2021,,245640,,"7513 GRAND LINDEN WAY",AUSTIN,TX,78744,,,CONTRACTOR,,,,,,,,,,,"MERITAGE HOMES",,,,,"MERITAGE HOMES","8920 BUSINESS PARK DR STE 250",AUSTIN,TX,78759-7622,"(512) 610-4800",,,,
TX,TRAVIS,"2021-087060 BP","Multi Family Apartments & Condos",6/9/2021,,242606,2821,"12916 STANFORD DR",AUSTIN,TX,78652,,,CONTRACTOR,,,,,,,,,,,"M/I HOMES",,,,,"M/I HOMES","6801 N CAPITAL OF TEXAS HWY BLDG 2 STE 100",AUSTIN,TX,78731-1780,"(512) 770-8500",,,,
TX,TRAVIS,"2021-087102 BP","Multi Family Apartments & Condos",6/9/2021,,255850,2975,"801 MORGANTOWN DR",AUSTIN,TX,78748,,,CONTRACTOR,,,,,,,,,,,"M/I HOMES",,,,,"M/I HOMES","6801 N CAPITAL OF TEXAS HWY BLDG 2 STE 100",AUSTIN,TX,78731-1780,"(512) 770-8500",,,,
TX,TRAVIS,"2021-088733 BP","Multi Family Apartments & Condos",6/14/2021,,208378,2423,"12909 BLOOMINGTON DR",AUSTIN,TX,78748,,,CONTRACTOR,,,,,,,,,,,"M/I HOMES",,,,,"M/I HOMES","6801 N CAPITAL OF TEXAS HWY BLDG 2 STE 100",AUSTIN,TX,78731-1780,"(512) 770-8500",,,,
TX,TRAVIS,"2021-088740 BP","Multi Family Apartments & Condos",6/14/2021,,209238,2433,"801 BAKERSFIELD PL",AUSTIN,TX,78748,,,CONTRACTOR,,,,,,,,,,,"M/I HOMES",,,,,"M/I HOMES","6801 N CAPITAL OF TEXAS HWY BLDG 2 STE 100",AUSTIN,TX,78731-1780,"(512) 770-8500",,,,
TX,TRAVIS,"2021-088977 BP","Multi Family Renovations & Additions",6/11/2021,Renovation,40000,8337,"200 CONGRESS AVE UNIT 51P",AUSTIN,TX,78701,,,CONTRACTOR,,,,,,,,,,,"DALGLEISH CONSTRUCTION",,,,,"DALGLEISH CONSTRUCTION","4019 SPICEWOOD SPRINGS RD",AUSTIN,TX,78759-8764,"(512) 346-8554",http://www.dalgleish.net/,"(512) 346-8667",,
TX,TRAVIS,"2021-088810 BP","Multi Family Renovations & Additions",6/10/2021,Renovation,34880,727,"8600 N FM 620 RD # 18",AUSTIN,TX,78726,"GRANDVIEW HILLS",3,CONTRACTOR,,,,,,,,,,,HURCON,,,,,HURCON,"1100 LOUISIANA ST",HOUSTON,TX,77002-5227,"(281) 847-3600",,,,
TX,TRAVIS,"2021-088804 BP","Multi Family Renovations & Additions",6/10/2021,Renovation,42880,3951,"8600 N FM 620 RD",AUSTIN,TX,78726,"GRANDVIEW HILLS",3,CONTRACTOR,,,,,,,,,,,HURCON,,,,,HURCON,"1100 LOUISIANA ST",HOUSTON,TX,77002-5227,"(281) 847-3600",,,,
TX,TRAVIS,"2021-088803 BP","Multi Family Renovations & Additions",6/10/2021,Renovation,59760,2181,"8600 N FM 620 RD # 12",AUSTIN,TX,78726,"GRANDVIEW HILLS",3,CONTRACTOR,,,,,,,,,,,HURCON,,,,,HURCON,"1100 LOUISIANA ST",HOUSTON,TX,77002-5227,"(281) 847-3600",,,,
TX,TRAVIS,"2021-088798 BP","Multi Family Renovations & Additions",6/10/2021,Renovation,83760,2730,"8600 N FM 620 RD # 2",AUSTIN,TX,78726,"GRANDVIEW HILLS",3,CONTRACTOR,,,,,,,,,,,HURCON,,,,,HURCON,"1100 LOUISIANA ST",HOUSTON,TX,77002-5227,"(281) 847-3600",,,,
TX,TRAVIS,"2021-088802 BP","Multi Family Renovations & Additions",6/10/2021,Renovation,86600,2181,"8600 N FM 620 RD # 6",AUSTIN,TX,78726,"GRANDVIEW HILLS",3,CONTRACTOR,,,,,,,,,,,HURCON,,,,,HURCON,"1100 LOUISIANA ST",HOUSTON,TX,77002-5227,"(281) 847-3600",,,,
TX,TRAVIS,"2021-088372 BP","Multi Family Renovations & Additions",6/14/2021,Renovation,380000,8960,"507 SABINE ST",AUSTIN,TX,78701,,,CONTRACTOR,,,,,,,,,,,"SHEPPERD CONSTRUCTION OF TEXAS",,,,,"SHEPPERD CONSTRUCTION OF TEXAS","5401 FM 1626 STE 170-497",KYLE,TX,78640-6038,"(512) 568-0830",http://shepperdconstruction.com/,,,info@shepperdconstruction.com
TX,TRAVIS,"2021-059962 BP","Multi Family Renovations & Additions",6/10/2021,Addition,114981,23030,"7731 MENCHACA RD",AUSTIN,TX,78745,,,CONTRACTOR,,,,,,,,,,,"ERW SOLUTIONS",,,,,"ERW SOLUTIONS","5035 VESTA FARLEY RD ","FORT WORTH",TX,76119,"(817) 330-3545",,,,
TX,TRAVIS,"2021-068297 BP","Offices, R&D, & Professional",6/9/2021,Renovation,40000,12283,"7800 SHOAL CREEK BLVD UNIT 100",AUSTIN,TX,78757,,1,CONTRACTOR,,,,,,,,,,,"RAND CONSTRUCTION CORPORATION",,,,,"RAND CONSTRUCTION CORPORATION","2815 EXPOSITION BLVD STE 100",AUSTIN,TX,78703-1207,"(855) 206-1286",,,,
TX,TRAVIS,"2021-088512 BP","Offices, R&D, & Professional",6/10/2021,Renovation,800000,12125,"303 COLORADO ST UNIT 2800",AUSTIN,TX,78701,"ORIGINAL CITY",9,CONTRACTOR,,,,,,,,,,,"RAND CONSTRUCTION CORPORATION",,,,,"RAND CONSTRUCTION CORPORATION","2815 EXPOSITION BLVD STE 100",AUSTIN,TX,78703-1207,"(855) 206-1286",,,,
TX,TRAVIS,"2021-088513 BP","Offices, R&D, & Professional",6/10/2021,Renovation,800000,7085,"303 COLORADO ST UNIT 2850",AUSTIN,TX,78701,"ORIGINAL CITY",9,CONTRACTOR,,,,,,,,,,,"RAND CONSTRUCTION CORPORATION",,,,,"RAND CONSTRUCTION CORPORATION","2815 EXPOSITION BLVD STE 100",AUSTIN,TX,78703-1207,"(855) 206-1286",,,,
TX,TRAVIS,"2021-068066 BP","Other Commercial",6/10/2021,Addition,74507,25258,"1709 ALAMO HEIGHTS AVE",AUSTIN,TX,78754,"PIONEER CROSSING",44,CONTRACTOR,,,,,,,,,,,"ERW SOLUTIONS",,,,,"ERW SOLUTIONS","5035 VESTA FARLEY RD ","FORT WORTH",TX,76119,"(817) 330-3545",,,,
TX,TRAVIS,"2021-084808 BP","Other Residential",6/9/2021,"Acc Struct",30000,437,"4810 SHOAL CREEK BLVD",AUSTIN,TX,78756,SHOALMONT,1,"WIMBERLEY & ELIZABETH LANE","4810 SHOAL CREEK BLVD",AUSTIN,TX,78756,,Owner,,,,,"WATER LILY HOMES",,,,,"WATER LILY HOMES","4700 HILWIN CIR ",AUSTIN,TX,78756,"(512) 731-4783",,,,
TX,TRAVIS,20-28616,"Parking Structures & Carports",5/5/2021,,173185.7,,"13713 MAYE PLACE",AUSTIN,TX,78728,,,CONTRACTOR,,,,,,,,,,,"J33S CONSULTING ENGINEERING",,,,,"J33S CONSULTING ENGINEERING","2430 CROMWELL CIRCLE # 1402",AUSTIN,TX,78741,"(512) 378-3773",,,"Juany Benitez",
TX,TRAVIS,21-34044,"Residential Renovations & Additions",5/4/2021,Addition,290000,,"9304 SCENIC BLUFF DR",AUSTIN,TX,78733,,,"LESLEY RICKETTS","9304 SCENIC BLUFF DR",AUSTIN,TX,78733,,Owner,,,,,OWNER,,,,,OWNER,,,,,,,,,
TX,TRAVIS,21-34498,"Residential Renovations & Additions",5/25/2021,Renovations,812454,,"4460 RIVER GARDEN TR",AUSTIN,TX,78746,,,CONTRACTOR,,,,,,,,,,,"DALGLEISH CONSTRUCTION",,,,,"DALGLEISH CONSTRUCTION","4019 SPICEWOOD SPRINGS RD",AUSTIN,TX,78759-8764,"(512) 346-8554",http://www.dalgleish.net/,"(512) 346-8667",,
TX,TRAVIS,"2021-086231 BP","Residential Renovations & Additions",6/10/2021,Renovation,3000000,10495,"1601 NILES RD",AUSTIN,TX,78703,ENFIELD,29,CONTRACTOR,,,,,,,,,,,"SHOBERG CUSTOM HOMES ",,,,,"SHOBERG CUSTOM HOMES ","101 WESTLAKE DR STE 143","WEST LAKE HILLS",TX,78746-5826,"(512) 589 6052",,,,
TX,TRAVIS,2021-2148,"Residential Renovations & Additions",5/25/2021,Addition,51435,,"10813 LAKESIDE DR",JONESTOWN,TX,78645,,,"SCOTT SPEER","10813 LAKESIDE DR",JONESTOWN,TX,78645,,Owner,,,,,"SANTA CRUZ THOMAS",,,,,"SANTA CRUZ THOMAS","3805 SPANISH BAY CV ",AUSTIN,TX,78646,"(757) 717-2868",,,,
TX,TRAVIS,"2021-088142 BP","Residential Renovations & Additions",6/10/2021,Renovation,50000,300,"6400 OASIS DR",AUSTIN,TX,78749,"LEGEND OAKS",1,"DAVID ZIMMERMAN","6400 OASIS DR",AUSTIN,TX,78749,,Owner,,,,,"TOGETHER DESIGN & BUILD",,,,,"TOGETHER DESIGN & BUILD","1620 RIVERSIDE DR ",AUSTIN,TX,78741,"(512) 222-8866",,,,
TX,TRAVIS,21-34490,"Residential Renovations & Additions",5/25/2021,Renovations,52922,,"10705 STRAW FLOWER DR",AUSTIN,TX,78733,,,CONTRACTOR,,,,,,,,,,,"HESTIA CONSTRUCTION & DESIGN",,,,,"HESTIA CONSTRUCTION & DESIGN","3303 NORTHLAND DRIVE 205",AUSTIN,TX,78731,"(832) 871-5582",,,,
TX,TRAVIS,21-33916,"Residential Swimming Pools & Spas",5/10/2021,,1000000,,"1501 BLACK BEAR DR",MANCHACA,TX,78652,,,"DANIEL BALBOA","1501 BLACK BEAR DR",MANCHACA,TX,78652,,Owner,,,,,OWNER,,,,,OWNER,,,,,,,,,
TX,TRAVIS,"2021-088007 BP","Residential Swimming Pools & Spas",6/9/2021,,,536,"1706 PASADENA DR",AUSTIN,TX,78757,CRESTVIEW,14,"LIGON & WELDON MILLER","1706 PASADENA DR",AUSTIN,TX,78757,,Owner,,,,,"CODY POOLS",,,,,"CODY POOLS","2300 W PARMER LN",AUSTIN,TX,78727-4332,"(512) 835-4966",http://www.codypools.com,,"COLE NAUMAN",
TX,TRAVIS,"2021-088357 BP","Residential Swimming Pools & Spas",6/10/2021,,,318,"7200 AUBURN BLAZE LN",AUSTIN,TX,78744,"EASTON PARK",93,"NATALE & NATHANIEL STEPHENS","7200 AUBURN BLAZE LN",AUSTIN,TX,78744,,Owner,,,,,"CODY POOLS",,,,,"CODY POOLS","2300 W PARMER LN",AUSTIN,TX,78727-4332,"(512) 835-4966",http://www.codypools.com,,"COLE NAUMAN",
TX,TRAVIS,"2021-061219 BP","Residential Swimming Pools & Spas",6/9/2021,,56000,393,"15705 SAMUEL TRL",AUSTIN,TX,78717,"HERITAGE OAKS AT PEARSON RANCH",,CONTRACTOR,,,,,,,,,,,"AUSTINTATIOUS POOLS",,,,,"AUSTINTATIOUS POOLS","12014 N LAMAR BLVD",AUSTIN,TX,78753-1801,"(512) 443-1100",,,,
TX,TRAVIS,2021-2177,"Residential Swimming Pools & Spas",5/14/2021,,425000,687,"4609 DESTINATION WAY",JONESTOWN,TX,78645,,,"SHAWN & TARA FOX","4609 DESTINATION WAY,",JONESTOWN,TX,78645,,Owner,,,,,"RIVER HILLS CONSTRUCTION",,,,,"RIVER HILLS CONSTRUCTION","9926 VIKKI TER",AUSTIN,TX,78736-7840,"(512) 791-4402",,,,
TX,TRAVIS,"2021-088419 BP","Residential Swimming Pools & Spas",6/10/2021,,,448,"15321 SISTERS CIR",AUSTIN,TX,78717,"PEARSON PLACE",,CONTRACTOR,,,,,,,,,,,"PREMIER POOLS & SPAS",,,,,"PREMIER POOLS & SPAS","7703 N LAMAR BLVD STE 606",AUSTIN,TX,78752-1027,"(512) 470-3949",,,,
TX,TRAVIS,"2021-083535 BP","Residential Swimming Pools & Spas",6/9/2021,,,657,"2208 DELCREST DR",AUSTIN,TX,78704,"SOUTHWEST TERRACE",2,"JACOB & STACEY PEARSON","2208 DELCREST DR",AUSTIN,TX,78704,,Owner,,,,,"AUSTIN OUTDOOR DESIGN",,,,,"AUSTIN OUTDOOR DESIGN","1107 S 8TH ST",AUSTIN,TX,78704-2373,"(512) 368-2001",http://www.austinlivesoutdoors.com/,,"John Fitzpatrick",info@austinoutdoordesign.com
TX,TRAVIS,"2021-084688 BP","Residential Swimming Pools & Spas",6/9/2021,,,510,"2632 NIEMANN DR",AUSTIN,TX,78748,"SOUTHLAND OAKS",17,"DAVID & RENEE VALDEZ","2632 NIEMANN DR",AUSTIN,TX,78748,,Owner,,,,,"ANTHONY & SYLVAN POOLS",,,,,"ANTHONY & SYLVAN POOLS","13343 N HIGHWAY 183 STE 295",AUSTIN,TX,78750-7161,"(512) 258-1232",http://www.anthonysylvan.com/,,,
TX,TRAVIS,"2021-087403 BP","Residential Swimming Pools & Spas",6/10/2021,,,357,"11903 BROOKWOOD CV",AUSTIN,TX,78750,"BALCONES VILLAGE",14,"PAUL & ROSA REIGER","11903 BROOKWOOD CV",AUSTIN,TX,78750,,Owner,,,,,"TRINITY POOLS & SCAPES",,,,,"TRINITY POOLS & SCAPES","56 TIBURON DR","THE HILLS",TX,78738-1556,"(512) 695-8254",,,,
TX,TRAVIS,"2021-088951 BP","Residential Swimming Pools & Spas",6/11/2021,,47000,242,"817 W GIBSON ST",AUSTIN,TX,78704,"SOUTH HEIGHTS",9,"ANDY & MARY FORCH","817 W GIBSON ST",AUSTIN,TX,78704,,Owner,,,,,"TRINITY POOLS & SCAPES",,,,,"TRINITY POOLS & SCAPES","56 TIBURON DR","THE HILLS",TX,78738-1556,"(512) 695-8254",,,,
TX,TRAVIS,21-34422,"Residential Swimming Pools & Spas",5/25/2021,,100000,,"6016 SPANISH OAKS CLUB BLVD",AUSTIN,TX,78738,"SPANISH OAKS",,"ANTHONY & TRACY SCIORTINO","6016 SPANISH OAKS CLUB BLVD",AUSTIN,TX,78738,,Owner,,,,,"CASCADE CUSTOM POOLS",,,,,"CASCADE CUSTOM POOLS","215 RANCH ROAD 620 S",LAKEWAY,TX,78734-3922,"(512) 264-2453",http://www.cascadecustompools.com,,,
TX,TRAVIS,"2021-087481 BP","Residential Swimming Pools & Spas",6/9/2021,,,360,"1605 WESTMOOR DR",AUSTIN,TX,78723,"WINDSOR PARK",12,"HEIDI SIEGENTHALER","1605 WESTMOOR DR",AUSTIN,TX,78723,,Owner,,,,,"GUARDIAN CUSTOM BUILDERS",,,,,"GUARDIAN CUSTOM BUILDERS","1516 DENISE DR","NEW BRAUNFELS",TX,78130-3169,"(210) 710-5222",,,"JEFFREY GRIER",
TX,TRAVIS,"2021-089042 BP","Residential Swimming Pools & Spas",6/11/2021,,,328,"1515 AGGIE LN",AUSTIN,TX,78757,CRESTVIEW,23,"ESTHER RIVERA","1515 AGGIE LN",AUSTIN,TX,78757,,Owner,,,,,"PARADISA HOMES",,,,,"PARADISA HOMES","7427 N LAMAR BLVD STE 101",AUSTIN,TX,78752-2358,"(512) 910-4505",http://www.paradisahomes.com/,,,
TX,TRAVIS,"2021-090384 BP","Residential Swimming Pools & Spas",6/14/2021,,,296,"5222 MEADOW CREEK DR",AUSTIN,TX,78745,"EMERALD FOREST",6,CONTRACTOR,,,,,,,,,,,"PARADISA HOMES",,,,,"PARADISA HOMES","7427 N LAMAR BLVD STE 101",AUSTIN,TX,78752-2358,"(512) 910-4505",http://www.paradisahomes.com/,,,
TX,TRAVIS,"2021-090508 BP","Residential Swimming Pools & Spas",6/14/2021,,,328,"702 HUERTA ST",AUSTIN,TX,78704,"OAK RIDGE HEIGHTS",6,CONTRACTOR,,,,,,,,,,,"PARADISA HOMES",,,,,"PARADISA HOMES","7427 N LAMAR BLVD STE 101",AUSTIN,TX,78752-2358,"(512) 910-4505",http://www.paradisahomes.com/,,,
TX,TRAVIS,"2021-087385 BP","Residential Swimming Pools & Spas",6/10/2021,,,221,"1515 CLOVERLEAF DR",AUSTIN,TX,78723,DELWOOD,8,"BENJAMIN & TRETJAK GODWIN","1515 CLOVERLEAF DR",AUSTIN,TX,78723,,Owner,,,,,"AQUAMARINE POOLS",,,,,"AQUAMARINE POOLS","8360 N INTERSTATE 35",GEORGETOWN,TX,78626-1766,"(800) 432-8994",,,,john@aquapools.com
TX,TRAVIS,"2021-043843 BP","Residential Swimming Pools & Spas",6/14/2021,,80000,775,"3200 LOOKOUT LN",AUSTIN,TX,78746,"DAVENPORT RANCH",48,"JAYARAM SUBRAMANIAN","3200 LOOKOUT LN",AUSTIN,TX,78746,,Owner,,,,,POOLSCAPES,,,,,POOLSCAPES,"307 E AUSTIN AVE","ROUND ROCK",TX,78664-5211,"(512) 341-7665",,,,
TX,TRAVIS,"2021-081132 BP","Residential Swimming Pools & Spas",6/10/2021,,70000,337,"3000 RAE DELL AVE",AUSTIN,TX,78704,"BARTON HILLS",15,"JESSICA LUTRIN","3000 RAE DELL AVE",AUSTIN,TX,78704,,Owner,,,,,POOLSCAPES,,,,,POOLSCAPES,"307 E AUSTIN AVE","ROUND ROCK",TX,78664-5211,"(512) 341-7665",,,,
TX,TRAVIS,"2021-088680 BP","Residential Swimming Pools & Spas",6/11/2021,,,300,"1135 GILLESPIE PL",AUSTIN,TX,78704,"TRAVIS HEIGHTS",14,CONTRACTOR,,,,,,,,,,,"JACK BOOTHE CONSTRUCTION",,,,,"JACK BOOTHE CONSTRUCTION","1611 EVA ST",AUSTIN,TX,78704-3012,"(210) 557-2792",,,,
TX,TRAVIS,21-34363,"Residential Swimming Pools & Spas",5/25/2021,,90000,,"22520 ROCK WREN ROAD",SPICEWOOD,TX,78669,"WEST CYPRESS HILLS",,"DENNIS & KIM BALAZS","22520 ROCK WREN ROAD",SPICEWOOD,TX,78669,,Owner,,,,,"MAJESTIC POOLSCAPES",,,,,"MAJESTIC POOLSCAPES","1401 HOOKBILL KITE","BEE CAVES",TX,78738,"(512) 402-0011",,,,
TX,TRAVIS,"2021-088295 BP","Residential Swimming Pools & Spas",6/10/2021,,45000,96,"7916 ORISHA DR",AUSTIN,TX,78739,,,CONTRACTOR,,,,,,,,,,,"SUPERIOR FIBER GLASS POOLS",,,,,"SUPERIOR FIBER GLASS POOLS","PO BOX 140435",AUSTIN,TX,78714-0435,"(512) 906-5899",,,,
TX,TRAVIS,"2021-088795 BP","Residential Swimming Pools & Spas",6/11/2021,,,240,"4202 CUMBRIA LN",AUSTIN,TX,78727,MILWOOD,17,"ANDREW BROWN","4202 CUMBRIA LN",AUSTIN,TX,78727,,Owner,,,,,"BRIGHTEN POOLS",,,,,"BRIGHTEN POOLS","6215 MESA GRANDE DR ",AUSTIN,TX,78749,"(512) 217-8004",https://brightenpools.com/,,,brightenpools@yahoo.com
TX,TRAVIS,"2021-064515 BP","Residential Swimming Pools & Spas",6/9/2021,,80000,306,"4603 SINCLAIR AVE",AUSTIN,TX,78756,ROSEDALE,19,"SAM & MARCI DITZELL","4603 SINCLAIR AVE",AUSTIN,TX,78756,,Owner,,,,,"CALIFORNIA POOLS OF TEXAS",,,,,"CALIFORNIA POOLS OF TEXAS","12871 RESEARCH BLVD UNIT 204",AUSTIN,TX,78613,"(512) 942-2575",,,,
TX,TRAVIS,21-34371,"Residential Swimming Pools & Spas",5/25/2021,,180000,,"4012 LAKE EDGE WAY",PFLUGERVILLE,TX,78660,"VILLAGES OF HIDDEN LAKE",," AZUCENA DAGUER","4012 LAKE EDGE WAY",PFLUGERVILLE,TX,78660,,Owner,,,,,"SERENITY POOLS & OUTDOORS",,,,,"SERENITY POOLS & OUTDOORS","2413 BILLY PAT RD",LEANDER,TX,78641,"(512) 986-7979",,,,
TX,TRAVIS,"2021-042691 BP","Residential Swimming Pools & Spas",6/11/2021,,,368,"1209 AZIE MORTON RD",AUSTIN,TX,78704,HILL,,CONTRACTOR,,,,,,,,,,,"REDBUD DEVELOPMENT GROUP",,,,,"REDBUD DEVELOPMENT GROUP","1201 AZIE MORTON RD ",AUSTIN,TX,78704,"(512) 348-6884",,,,
TX,TRAVIS,"2021-084901 BP","Residential Swimming Pools & Spas",6/11/2021,,80000,450,"12405 SPARKLING CREEK CIR",AUSTIN,TX,78729,SPRINGWOODS,,CONTRACTOR,,,,,,,,,,,"TRI-COUNTY POOLS SERVICE",,,,,"TRI-COUNTY POOLS SERVICE","1817 FLEISCHER DR ",AUSTIN,TX,78728,"(512) 990-8899",,,,
TX,TRAVIS,"2021-084926 BP",Retail,6/9/2021,,1500000,231,"6111 N FM 620 RD BLDG A",AUSTIN,TX,78732,"STEINER RANCH",1,CONTRACTOR,,,,,,,,,,,"TRINITY CONSTRUCTORS",,,,,"TRINITY CONSTRUCTORS","11313 CHURCH CANYON DR",AUSTIN,TX,78754-5900,"(512) 258-0161",,,,
TX,TRAVIS,"2021-080971 BP",Retail,6/10/2021,Addition,34383,3895,"10435 BURNET RD",AUSTIN,TX,78758,"HURRICANE STEEL INDUSTRIAL",1,CONTRACTOR,,,,,,,,,,,"ERW SOLUTIONS",,,,,"ERW SOLUTIONS","5035 VESTA FARLEY RD ","FORT WORTH",TX,76119,"(817) 330-3545",,,,
TX,TRAVIS,21-33444,"Single Family Homes",5/4/2021,,275000,,"1205 SHARPS RD",ADDISON,TX,78734,,,CONTRACTOR,,,,,,,,,,,"BRB DEVELOPMENT",,,,,"BRB DEVELOPMENT","5766 BALCONES DR STE 102",AUSTIN,TX,78731-4201,"(512) 410-8037",,,"BEAU J HALE",
TX,TRAVIS,21-33966,"Single Family Homes",5/3/2021,,200000,,"7637 ALOUETTE DR",AUSTIN,TX,78738,,,CONTRACTOR,,,,,,,,,,,"ASHTON WOODS HOMES",,,,,"ASHTON WOODS HOMES","4201 W PARMER LN STE A150",AUSTIN,TX,78727-4118,"(512) 610-7000",,,,
TX,TRAVIS,21-33949,"Single Family Homes",5/3/2021,,381273,,"3400 CLAFLIN ST",PFLUGERVILLE,TX,78660,"LAKESIDE AT BLACKHAWK",,CONTRACTOR,,,,,,,,,,,"MHI MCGUYER HOMEBUILDERS",,,,,"MHI MCGUYER HOMEBUILDERS","8200 N MO PAC EXPY STE 300",AUSTIN,TX,78759-8844,"(512) 502-2050",,"(512) 388-1836","FRANK MCGUYER",
TX,TRAVIS,21-33948,"Single Family Homes",5/3/2021,,525990,,"22321 COYOTE CAVE TR",SPICEWOOD,TX,78669,"WEST CYPRESS",,CONTRACTOR,,,,,,,,,,,"PULTE HOMES",,,,,"PULTE HOMES","9401 AMBERGLEN BLVD STE I-150",AUSTIN,TX,78729-1154,"(512) 561-4344",,,,
TX,TRAVIS,21-33967,"Single Family Homes",5/3/2021,,180000,,"11329 COMANO DR",AUSTIN,TX,78747,,,CONTRACTOR,,,,,,,,,,,"BROHN HOMES",,,,,"BROHN HOMES","6720 VAUGHT RANCH RD STE 200",AUSTIN,TX,78730-2354,"(512) 320-8833",http://brohnhomes.com/,,,
TX,TRAVIS,21-33445,"Single Family Homes",5/21/2021,,252624,,"9604 ELOQUENCE DR",AUSTIN,TX,78653,"WHISPER VALLEY",,CONTRACTOR,,,,,,,,,,,"BUFFINGTON TEXAS CLASSIC HOMES",,,,,"BUFFINGTON TEXAS CLASSIC HOMES","8601 RANCH ROAD 2222 PARK CENTRE BLDG STE 150",AUSTIN,TX,78730,"(512) 579-4800",,,,
TX,TRAVIS,20-28914,"Single Family Homes",5/11/2021,,180000,,"22405 TRAILRIDERS",ELGIN,TX,78621,,,"GERBER DAVID CACERES","22405 TRAILRIDERS",ELGIN,TX,78621,,Owner,,,,,OWNER,,,,,OWNER,,,,,,,,,
TX,TRAVIS,21-33979,"Single Family Homes",5/4/2021,,180000,,"7409 GRENADINE BLOOM BEND",AUSTIN,TX,78617,,,CONTRACTOR,,,,,,,,,,,"GEHAN HOMES",,,,,"GEHAN HOMES","3815 S CAPITAL OF TEXAS HWY STE 275",AUSTIN,TX,78704-6652,"(512) 330-9366",http://www.gehanhomes.com,,"JANET PHILLIPS",
TX,TRAVIS,21-33960,"Single Family Homes",5/3/2021,,200000,,"7645 ALOUETTE DR",AUSTIN,TX,78738,,,CONTRACTOR,,,,,,,,,,,"ASHTON WOODS HOMES",,,,,"ASHTON WOODS HOMES","4201 W PARMER LN STE A150",AUSTIN,TX,78727-4118,"(512) 610-7000",,,,
TX,TRAVIS,21-33963,"Single Family Homes",5/3/2021,,170000,,"11317 CAMANO DR",AUSTIN,TX,78747,,,CONTRACTOR,,,,,,,,,,,"BROHN HOMES",,,,,"BROHN HOMES","6720 VAUGHT RANCH RD STE 200",AUSTIN,TX,78730-2354,"(512) 320-8833",http://brohnhomes.com/,,,
TX,TRAVIS,21-33964,"Single Family Homes",5/3/2021,,180000,,"11325 COMANO DR",AUSTIN,TX,78747,,,CONTRACTOR,,,,,,,,,,,"BROHN HOMES",,,,,"BROHN HOMES","6720 VAUGHT RANCH RD STE 200",AUSTIN,TX,78730-2354,"(512) 320-8833",http://brohnhomes.com/,,,
TX,TRAVIS,21-33961,"Single Family Homes",5/24/2021,,400000,,"8320 SKYTEX ST",AUSTIN,TX,78744,,,CONTRACTOR,,,,,,,,,,,"PERRY HOMES",,,,,"PERRY HOMES","6112 LLANO ST",AUSTIN,TX,78702,"(512) 810-8050",,,,
TX,TRAVIS,21-34001,"Single Family Homes",5/3/2021,,118500,,"7317 SPOTTED LEAF",AUSTIN,TX,78617,"STONEY RIDGE",,CONTRACTOR,,,,,,,,,,,"LENNAR HOMES",,,,,"LENNAR HOMES","13620 FM 620 RD 150",AUSTIN,TX,78717,"(512) 506-4000",http://www.lennar.com/,,,
TX,TRAVIS,21-33955,"Single Family Homes",5/24/2021,,369132,,"9725 ELOQUENCE DR",AUSTIN,TX,78653,"WHISPER VALLEY",,CONTRACTOR,,,,,,,,,,,"BUFFINGTON TEXAS CLASSIC HOMES",,,,,"BUFFINGTON TEXAS CLASSIC HOMES","8601 RANCH ROAD 2222 PARK CENTRE BLDG STE 150",AUSTIN,TX,78730,"(512) 579-4800",,,,
TX,TRAVIS,21-34002,"Single Family Homes",5/4/2021,,104400,,"7313 SPOTTED LEAF",AUSTIN,TX,78617,,,CONTRACTOR,,,,,,,,,,,"LENNAR HOMES",,,,,"LENNAR HOMES","13620 FM 620 RD 150",AUSTIN,TX,78717,"(512) 506-4000",http://www.lennar.com/,,,
TX,TRAVIS,21-34005,"Single Family Homes",5/4/2021,,118800,,"7236 DANCING WIND",AUSTIN,TX,78617,"STONEY RIDGE",,CONTRACTOR,,,,,,,,,,,"LENNAR HOMES",,,,,"LENNAR HOMES","13620 FM 620 RD 150",AUSTIN,TX,78717,"(512) 506-4000",http://www.lennar.com/,,,
TX,TRAVIS,21-34006,"Single Family Homes",5/3/2021,,117825,,"7240 DANCING WIND",AUSTIN,TX,78617,,,CONTRACTOR,,,,,,,,,,,"LENNAR HOMES",,,,,"LENNAR HOMES","13620 FM 620 RD 150",AUSTIN,TX,78717,"(512) 506-4000",http://www.lennar.com/,,,
TX,TRAVIS,21-34007,"Single Family Homes",5/3/2021,,117825,,"7124 DANCING WIND",AUSTIN,TX,78617,"STONEY RIDGE",,CONTRACTOR,,,,,,,,,,,"LENNAR HOMES",,,,,"LENNAR HOMES","13620 FM 620 RD 150",AUSTIN,TX,78717,"(512) 506-4000",http://www.lennar.com/,,,
TX,TRAVIS,21-34008,"Single Family Homes",5/4/2021,,118800,,"7120 DANCING WIND",AUSTIN,TX,78617,"STONEY RIDGE",,CONTRACTOR,,,,,,,,,,,"LENNAR HOMES",,,,,"LENNAR HOMES","13620 FM 620 RD 150",AUSTIN,TX,78717,"(512) 506-4000",http://www.lennar.com/,,,
TX,TRAVIS,21-34013,"Single Family Homes",5/4/2021,,104400,,"7117 DANCING WIND",AUSTIN,TX,78617,,,CONTRACTOR,,,,,,,,,,,"LENNAR HOMES",,,,,"LENNAR HOMES","13620 FM 620 RD 150",AUSTIN,TX,78717,"(512) 506-4000",http://www.lennar.com/,,,
TX,TRAVIS,21-34014,"Single Family Homes",5/3/2021,,118500,,"7121 DANCING WIND",AUSTIN,TX,78617,"STONEY RIDGE",,CONTRACTOR,,,,,,,,,,,"LENNAR HOMES",,,,,"LENNAR HOMES","13620 FM 620 RD 150",AUSTIN,TX,78717,"(512) 506-4000",http://www.lennar.com/,,,
TX,TRAVIS,21-34015,"Single Family Homes",5/3/2021,,117825,,"12113 SHORT LEAF PATH",AUSTIN,TX,78617,,,CONTRACTOR,,,,,,,,,,,"LENNAR HOMES",,,,,"LENNAR HOMES","13620 FM 620 RD 150",AUSTIN,TX,78717,"(512) 506-4000",http://www.lennar.com/,,,
TX,TRAVIS,21-33978,"Single Family Homes",5/4/2021,,180000,,"7415 GRENADINE BLOOM BEND",AUSTIN,TX,78617,,,CONTRACTOR,,,,,,,,,,,"GEHAN HOMES",,,,,"GEHAN HOMES","3815 S CAPITAL OF TEXAS HWY STE 275",AUSTIN,TX,78704-6652,"(512) 330-9366",http://www.gehanhomes.com,,"JANET PHILLIPS",
TX,TRAVIS,21-33981,"Single Family Homes",5/4/2021,,168000,,"7411 GRENADINE BLOOM BEND",AUSTIN,TX,78617,"SUN CHASE",,CONTRACTOR,,,,,,,,,,,"GEHAN HOMES",,,,,"GEHAN HOMES","3815 S CAPITAL OF TEXAS HWY STE 275",AUSTIN,TX,78704-6652,"(512) 330-9366",http://www.gehanhomes.com,,"JANET PHILLIPS",
TX,TRAVIS,21-33980,"Single Family Homes",5/3/2021,,169000,,"7413 GRENADINE BLOOM BEND",AUSTIN,TX,78617,"SUN CHASE",,CONTRACTOR,,,,,,,,,,,"GEHAN HOMES",,,,,"GEHAN HOMES","3815 S CAPITAL OF TEXAS HWY STE 275",AUSTIN,TX,78704-6652,"(512) 330-9366",http://www.gehanhomes.com,,"JANET PHILLIPS",
TX,TRAVIS,21-33912,"Single Family Homes",5/3/2021,,121770,,"6417 CONESTOGA WAGON WAY","DEL VALLE",TX,78640,,,CONTRACTOR,,,,,,,,,,,"KB HOME",,,,,"KB HOME","10800 PECAN PARK BLVD STE 200",AUSTIN,TX,78750-1249,"(512) 651-8100",,,,
TX,TRAVIS,20-31360,"Single Family Homes",5/25/2021,,213000,,"13400 ABIGAIL ADAMS ST",MANOR,TX,78653,"PRESIDENTIAL MEADOWS",,CONTRACTOR,,,,,,,,,,,"KB HOME",,,,,"KB HOME","10800 PECAN PARK BLVD STE 200",AUSTIN,TX,78750-1249,"(512) 651-8100",,,,
TX,TRAVIS,21-33991,"Single Family Homes",5/24/2021,,536990,,"8109 HUBBLE WALK",AUSTIN,TX,78744,,,CONTRACTOR,,,,,,,,,,,"TAYLOR MORRISON OF TEXAS",,,,,"TAYLOR MORRISON OF TEXAS","11200 LAKELINE BLVD STE 150A",AUSTIN,TX,78717-5964,"(512) 328-8866",,"(512) 328-7988",,
TX,TRAVIS,21-34031,"Single Family Homes",5/21/2021,,393990,,"15709 OGLETHORPE DR",AUSTIN,TX,78728,,,CONTRACTOR,,,,,,,,,,,"TAYLOR MORRISON OF TEXAS",,,,,"TAYLOR MORRISON OF TEXAS","11200 LAKELINE BLVD STE 150A",AUSTIN,TX,78717-5964,"(512) 328-8866",,"(512) 328-7988",,
TX,TRAVIS,21-34033,"Single Family Homes",5/24/2021,,239850,,"17221 BASSANO AVE",PFLUGERVILLE,TX,78660,SORENTO,,CONTRACTOR,,,,,,,,,,,"DR HORTON",,,,,"DR HORTON","10700 PECAN PARK BLVD STE 400",AUSTIN,TX,78750-1227,"(512) 345-4663",,,,
TX,TRAVIS,21-34034,"Single Family Homes",5/24/2021,,261150,,"17208 BASSANO AVE",PFLUGERVILLE,TX,78660,SORENTO,,CONTRACTOR,,,,,,,,,,,"DR HORTON",,,,,"DR HORTON","10700 PECAN PARK BLVD STE 400",AUSTIN,TX,78750-1227,"(512) 345-4663",,,,
TX,TRAVIS,21-34035,"Single Family Homes",5/24/2021,,263925,,"17204 BASSANO AVE",PFLUGERVILLE,TX,78860,SORENTO,,CONTRACTOR,,,,,,,,,,,"DR HORTON",,,,,"DR HORTON","10700 PECAN PARK BLVD STE 400",AUSTIN,TX,78750-1227,"(512) 345-4663",,,,
TX,TRAVIS,21-34021,"Single Family Homes",5/24/2021,,175425,,"5816 BROCADE DR",AUSTIN,TX,78724,"GILBERT LANE",,CONTRACTOR,,,,,,,,,,,"DR HORTON",,,,,"DR HORTON","10700 PECAN PARK BLVD STE 400",AUSTIN,TX,78750-1227,"(512) 345-4663",,,,
TX,TRAVIS,21-34022,"Single Family Homes",5/24/2021,,198900,,"17217 BASSANO AVE",PFLUGERVILLE,TX,78660,,,CONTRACTOR,,,,,,,,,,,"DR HORTON",,,,,"DR HORTON","10700 PECAN PARK BLVD STE 400",AUSTIN,TX,78750-1227,"(512) 345-4663",,,,
TX,TRAVIS,21-34023,"Single Family Homes",5/24/2021,,248925,,"17213 BASSANO AVE",PFLUGERVILLE,TX,78660,,,CONTRACTOR,,,,,,,,,,,"DR HORTON",,,,,"DR HORTON","10700 PECAN PARK BLVD STE 400",AUSTIN,TX,78750-1227,"(512) 345-4663",,,,
TX,TRAVIS,21-34024,"Single Family Homes",5/4/2021,,535990,,"6909 EMPRESA DR",AUSTIN,TX,78738,,,CONTRACTOR,,,,,,,,,,,"CHESMAR HOMES",,,,,"CHESMAR HOMES","2900 N QUINLAN PARK RD",AUSTIN,TX,78732-6083,"(512) 233-9016",http://chesmar.com,,,
TX,TRAVIS,21-33976,"Single Family Homes",5/3/2021,,331014,,"20001 TALON GRASP TR",PFLUGERVILLE,TX,78660,"PARK AT BLACKHAWK",,CONTRACTOR,,,,,,,,,,,"MHI MCGUYER HOMEBUILDERS",,,,,"MHI MCGUYER HOMEBUILDERS","8200 N MO PAC EXPY STE 300",AUSTIN,TX,78759-8844,"(512) 502-2050",,"(512) 388-1836","FRANK MCGUYER",
TX,TRAVIS,21-33974,"Single Family Homes",5/3/2021,,154770,,"20110 GARGANEY DR",PFLUGERVILLE,TX,78660,,,CONTRACTOR,,,,,,,,,,,"SCOTT FELDER HOMES",,,,,"SCOTT FELDER HOMES","6414 RIVER PLACE BLVD STE 100",AUSTIN,TX,78730-1158,"(512) 418-5400",,,,
TX,TRAVIS,21-33906,"Single Family Homes",5/3/2021,,154055,,"20108 GARGANEY DR",PFLUGERVILLE,TX,78660,"PARK AT BLACKHAWK",,CONTRACTOR,,,,,,,,,,,"SCOTT FELDER HOMES",,,,,"SCOTT FELDER HOMES","6414 RIVER PLACE BLVD STE 100",AUSTIN,TX,78730-1158,"(512) 418-5400",,,,
TX,TRAVIS,21-33993,"Single Family Homes",5/4/2021,,101325,,"7220 DANCING WIND",AUSTIN,TX,78617,"STONEY RIDGE",,CONTRACTOR,,,,,,,,,,,"LENNAR HOMES",,,,,"LENNAR HOMES","13620 FM 620 RD 150",AUSTIN,TX,78717,"(512) 506-4000",http://www.lennar.com/,,,
TX,TRAVIS,21-33994,"Single Family Homes",5/3/2021,,102300,,"7224 DANCING WIND",AUSTIN,TX,78617,"STONEY RIDGE",,CONTRACTOR,,,,,,,,,,,"LENNAR HOMES",,,,,"LENNAR HOMES","13620 FM 620 RD 150",AUSTIN,TX,78717,"(512) 506-4000",http://www.lennar.com/,,,
TX,TRAVIS,21-34000,"Single Family Homes",5/4/2021,,104400,,"7232 DANCING WIND",AUSTIN,TX,78617,"STONEY RIDGE",,CONTRACTOR,,,,,,,,,,,"LENNAR HOMES",,,,,"LENNAR HOMES","13620 FM 620 RD 150",AUSTIN,TX,78717,"(512) 506-4000",http://www.lennar.com/,,,
TX,TRAVIS,21-33975,"Single Family Homes",5/3/2021,,216150,,"19205 FERNANDO TR",AUSTIN,TX,78738,"SWEETWATER RANCH",,CONTRACTOR,,,,,,,,,,,"LENNAR HOMES",,,,,"LENNAR HOMES","13620 FM 620 RD 150",AUSTIN,TX,78717,"(512) 506-4000",http://www.lennar.com/,,,
TX,TRAVIS,21-34019,"Single Family Homes",5/4/2021,,104400,,"7100 DANCING WIND",AUSTIN,TX,78617,"STONEY RIDGE",,CONTRACTOR,,,,,,,,,,,"LENNAR HOMES",,,,,"LENNAR HOMES","13620 FM 620 RD 150",AUSTIN,TX,78717,"(512) 506-4000",http://www.lennar.com/,,,
TX,TRAVIS,21-34020,"Single Family Homes",5/3/2021,,118500,,"7104 DANCING WIND",AUSTIN,TX,78617,,,CONTRACTOR,,,,,,,,,,,"LENNAR HOMES",,,,,"LENNAR HOMES","13620 FM 620 RD 150",AUSTIN,TX,78717,"(512) 506-4000",http://www.lennar.com/,,,
TX,TRAVIS,21-33913,"Single Family Homes",5/24/2021,,353400,,"9717 ELOQUENCE DR",AUSTIN,TX,78653,"WHISPER VALLEY",,CONTRACTOR,,,,,,,,,,,"BUFFINGTON TEXAS CLASSIC HOMES",,,,,"BUFFINGTON TEXAS CLASSIC HOMES","8601 RANCH ROAD 2222 PARK CENTRE BLDG STE 150",AUSTIN,TX,78730,"(512) 579-4800",,,,
TX,TRAVIS,21-34083,"Single Family Homes",5/24/2021,,364000,,"7504 ECUREIL DR",AUSTIN,TX,78738,,,CONTRACTOR,,,,,,,,,,,"DREES CUSTOM HOMES",,,,,"DREES CUSTOM HOMES","7300 RANCH ROAD 2222 BLDG 2 STE 250",AUSTIN,TX,78730-3204,"(512) 241-7100",http://www.dreeshomes.com,,,
TX,TRAVIS,21-34046,"Single Family Homes",5/24/2021,,501194,,"16817 MORELLE DR",AUSTIN,TX,78738,,,CONTRACTOR,,,,,,,,,,,"DAVID WEEKLEY HOMES",,,,,"DAVID WEEKLEY HOMES","9000 WATERFORD CENTRE BLVD",AUSTIN,TX,78758-7662,"(800) 390-6774",http://www.davidweekleyhomes.com/,,,
TX,TRAVIS,21-34047,"Single Family Homes",5/24/2021,,625871,,"16801 MORELLE DR",AUSTIN,TX,78738,,,CONTRACTOR,,,,,,,,,,,"DAVID WEEKLEY HOMES",,,,,"DAVID WEEKLEY HOMES","9000 WATERFORD CENTRE BLVD",AUSTIN,TX,78758-7662,"(800) 390-6774",http://www.davidweekleyhomes.com/,,,
TX,TRAVIS,21-34048,"Single Family Homes",5/24/2021,,505271,,"16904 MORELLE DR",AUSTIN,TX,78738,,,CONTRACTOR,,,,,,,,,,,"DAVID WEEKLEY HOMES",,,,,"DAVID WEEKLEY HOMES","9000 WATERFORD CENTRE BLVD",AUSTIN,TX,78758-7662,"(800) 390-6774",http://www.davidweekleyhomes.com/,,,
TX,TRAVIS,21-34066,"Single Family Homes",5/4/2021,,1700000,,"4900 AMARRA DR",AUSTIN,TX,78735,,,CONTRACTOR,,,,,,,,,,,"HEYL HOMES",,,,,"HEYL HOMES","6601 VAUGHT RANCH RD STE 102",AUSTIN,TX,78730-2322,"(512) 343-8457",http://www.heylhomes.com/,"(512) 343-9583",,
TX,TRAVIS,21-33683,"Single Family Homes",5/3/2021,,111060,,"13501 ABIGAIL",MANOR,TX,78653,"PRESIDENTIAL MEADOWS",,CONTRACTOR,,,,,,,,,,,"KB HOME",,,,,"KB HOME","10800 PECAN PARK BLVD STE 200",AUSTIN,TX,78750-1249,"(512) 651-8100",,,,
TX,TRAVIS,21-33684,"Single Family Homes",5/3/2021,,183420,,"14216 JAMES BUCHANAN",MANOR,TX,78653,"PRESIDENTIAL MEADOWS",,CONTRACTOR,,,,,,,,,,,"KB HOME",,,,,"KB HOME","10800 PECAN PARK BLVD STE 200",AUSTIN,TX,78750-1249,"(512) 651-8100",,,,
TX,TRAVIS,21-33685,"Single Family Homes",5/3/2021,,224550,,"13520 MARTHA WASHINGTON",MANOR,TX,78653,"PRESIDENTIAL MEADOWS",,CONTRACTOR,,,,,,,,,,,"KB HOME",,,,,"KB HOME","10800 PECAN PARK BLVD STE 200",AUSTIN,TX,78750-1249,"(512) 651-8100",,,,
TX,TRAVIS,21-33686,"Single Family Homes",5/3/2021,,183420,,"12501 ACE IN THE HOLE","DEL VALLE",TX,78640,,,CONTRACTOR,,,,,,,,,,,"KB HOME",,,,,"KB HOME","10800 PECAN PARK BLVD STE 200",AUSTIN,TX,78750-1249,"(512) 651-8100",,,,
TX,TRAVIS,21-34116,"Single Family Homes",5/24/2021,,196470,,"13813 GREAT SOCIETY",MANOR,TX,78653,,,CONTRACTOR,,,,,,,,,,,"KB HOME",,,,,"KB HOME","10800 PECAN PARK BLVD STE 200",AUSTIN,TX,78750-1249,"(512) 651-8100",,,,
TX,TRAVIS,21-34112,"Single Family Homes",5/24/2021,,225180,,"19117 RUSHMORE",MANOR,TX,78653,"PRESIDENTIAL MEADOWS",,CONTRACTOR,,,,,,,,,,,"KB HOME",,,,,"KB HOME","10800 PECAN PARK BLVD STE 200",AUSTIN,TX,78750-1249,"(512) 651-8100",,,,
TX,TRAVIS,21-34114,"Single Family Homes",5/24/2021,,224640,,"13821 ABRAHAM LINCOLN",MANOR,TX,78653,"PRESIDENTIAL MEADOWS",,CONTRACTOR,,,,,,,,,,,"KB HOME",,,,,"KB HOME","10800 PECAN PARK BLVD STE 200",AUSTIN,TX,78750-1249,"(512) 651-8100",,,,
TX,TRAVIS,21-34103,"Single Family Homes",5/24/2021,,475000,,"16900 MORELLE DR",AUSTIN,TX,78738,,,CONTRACTOR,,,,,,,,,,,"NEWMARK HOMES",,,,,"NEWMARK HOMES","10455 BRIAR FOREST SUITE 200",HOUSTON,TX,77042,"(713) 346-0200",,"(713) 346-0226",,
TX,TRAVIS,21-34098,"Single Family Homes",5/24/2021,,475000,,"16824 MORELLE DR",AUSTIN,TX,78738,,,CONTRACTOR,,,,,,,,,,,"NEWMARK HOMES",,,,,"NEWMARK HOMES","10455 BRIAR FOREST SUITE 200",HOUSTON,TX,77042,"(713) 346-0200",,"(713) 346-0226",,
TX,TRAVIS,21-34099,"Single Family Homes",5/24/2021,,475000,,"16828 MORELLE DR",AUSTIN,TX,78738,,,CONTRACTOR,,,,,,,,,,,"NEWMARK HOMES",,,,,"NEWMARK HOMES","10455 BRIAR FOREST SUITE 200",HOUSTON,TX,77042,"(713) 346-0200",,"(713) 346-0226",,
TX,TRAVIS,21-34073,"Single Family Homes",5/24/2021,,553990,,"5729 NAVAJO DRAW LN","DRIPPING SPRINGS",TX,78620,"SWEETWATER RANCH",,CONTRACTOR,,,,,,,,,,,"TAYLOR MORRISON OF TEXAS",,,,,"TAYLOR MORRISON OF TEXAS","11200 LAKELINE BLVD STE 150A",AUSTIN,TX,78717-5964,"(512) 328-8866",,"(512) 328-7988",,
TX,TRAVIS,21-34049,"Single Family Homes",5/24/2021,,565990,,"5733 NAVAJO DRAW LN",AUSTIN,TX,78620,"SWEETWATER RANCH",,CONTRACTOR,,,,,,,,,,,"TAYLOR MORRISON OF TEXAS",,,,,"TAYLOR MORRISON OF TEXAS","11200 LAKELINE BLVD STE 150A",AUSTIN,TX,78717-5964,"(512) 328-8866",,"(512) 328-7988",,
TX,TRAVIS,21-34036,"Single Family Homes",5/24/2021,,267225,,"17216 BASSANO AVE",PFLUGERVILLE,TX,78660,SORENTO,,CONTRACTOR,,,,,,,,,,,"DR HORTON",,,,,"DR HORTON","10700 PECAN PARK BLVD STE 400",AUSTIN,TX,78750-1227,"(512) 345-4663",,,,
TX,TRAVIS,21-34037,"Single Family Homes",5/24/2021,,282900,,"17212 BASSANO AVE",PFLUGERVILLE,TX,78660,SORENTO,,CONTRACTOR,,,,,,,,,,,"DR HORTON",,,,,"DR HORTON","10700 PECAN PARK BLVD STE 400",AUSTIN,TX,78750-1227,"(512) 345-4663",,,,
TX,TRAVIS,21-34038,"Single Family Homes",5/24/2021,,248700,,"17812 AVALAR AVE",PFLUGERVILLE,TX,78660,SORENTO,,CONTRACTOR,,,,,,,,,,,"DR HORTON",,,,,"DR HORTON","10700 PECAN PARK BLVD STE 400",AUSTIN,TX,78750-1227,"(512) 345-4663",,,,
TX,TRAVIS,21-34039,"Single Family Homes",5/24/2021,,201075,,"17804 AVALAR AVE",PFLUGERVILLE,TX,78660,SORENTO,,CONTRACTOR,,,,,,,,,,,"DR HORTON",,,,,"DR HORTON","10700 PECAN PARK BLVD STE 400",AUSTIN,TX,78750-1227,"(512) 345-4663",,,,
TX,TRAVIS,21-34040,"Single Family Homes",5/24/2021,,200250,,"17808 AVALAR AVE",PFLUGERVILLE,TX,78660,SORENTO,,CONTRACTOR,,,,,,,,,,,"DR HORTON",,,,,"DR HORTON","10700 PECAN PARK BLVD STE 400",AUSTIN,TX,78750-1227,"(512) 345-4663",,,,
TX,TRAVIS,21-34041,"Single Family Homes",5/24/2021,,260775,,"17144 AVENTURA AVE",PFLUGERVILLE,TX,78660,SORENTO,,CONTRACTOR,,,,,,,,,,,"DR HORTON",,,,,"DR HORTON","10700 PECAN PARK BLVD STE 400",AUSTIN,TX,78750-1227,"(512) 345-4663",,,,
TX,TRAVIS,21-34042,"Single Family Homes",5/24/2021,,282900,,"16812 LEMONIA COVE",PFLUGERVILLE,TX,78660,SORENTO,,CONTRACTOR,,,,,,,,,,,"DR HORTON",,,,,"DR HORTON","10700 PECAN PARK BLVD STE 400",AUSTIN,TX,78750-1227,"(512) 345-4663",,,,
TX,TRAVIS,21-32170,"Single Family Homes",5/25/2021,,1069756,,"14700 HARRIS RIDGE",AUSTIN,TX,78660,,,CONTRACTOR,,,,,,,,,,,"CUNNINGHAM ALLEN INC",,,,,"CUNNINGHAM ALLEN INC","3103 BEE CAVES RD STE 202",AUSTIN,TX,78746-5580,"(512) 327-2946",http://www.cunningham-allen.com/,,"JANA RICE",
TX,TRAVIS,21-33533,"Single Family Homes",5/3/2021,,224730,,"3805 SANDHILL CRANE DR",PFLUGERVILLE,TX,78660,"PARK AT BLACKHAWK",,CONTRACTOR,,,,,,,,,,,"SCOTT FELDER HOMES",,,,,"SCOTT FELDER HOMES","6414 RIVER PLACE BLVD STE 100",AUSTIN,TX,78730-1158,"(512) 418-5400",,,,
TX,TRAVIS,21-33990,"Single Family Homes",5/3/2021,,180000,,"11321 COMANO DR",AUSTIN,TX,78747,,,CONTRACTOR,,,,,,,,,,,"BROHN HOMES",,,,,"BROHN HOMES","6720 VAUGHT RANCH RD STE 200",AUSTIN,TX,78730-2354,"(512) 320-8833",http://brohnhomes.com/,,,
TX,TRAVIS,21-34061,"Single Family Homes",5/20/2021,,592375,,"12933 LUNA MONTANA WAY",AUSTIN,TX,78732,"COMANCHE CANYON",,CONTRACTOR,,,,,,,,,,,"INTOWN HOMES",,,,,"INTOWN HOMES","1520 OLIVER ST",HOUSTON,TX,77007,"(713) 961-3877",http://www.intown-homes.com/,,,
TX,TRAVIS,21-33995,"Single Family Homes",5/4/2021,,118800,,"7112 DANCING WIND",AUSTIN,TX,78617,"STONEY RIDGE",,CONTRACTOR,,,,,,,,,,,"LENNAR HOMES",,,,,"LENNAR HOMES","13620 FM 620 RD 150",AUSTIN,TX,78717,"(512) 506-4000",http://www.lennar.com/,,,
TX,TRAVIS,21-33997,"Single Family Homes",5/4/2021,,95400,,"7312 SPOTTED LEAF",AUSTIN,TX,78617,"STONEY RIDGE",,CONTRACTOR,,,,,,,,,,,"LENNAR HOMES",,,,,"LENNAR HOMES","13620 FM 620 RD 150",AUSTIN,TX,78717,"(512) 506-4000",http://www.lennar.com/,,,
TX,TRAVIS,21-33998,"Single Family Homes",5/3/2021,,139200,,"7116 DANCING WIND",AUSTIN,TX,78617,"STONEY RIDGE",,CONTRACTOR,,,,,,,,,,,"LENNAR HOMES",,,,,"LENNAR HOMES","13620 FM 620 RD 150",AUSTIN,TX,78717,"(512) 506-4000",http://www.lennar.com/,,,
TX,TRAVIS,21-33999,"Single Family Homes",5/3/2021,,118500,,"7228 DANCING WIND",AUSTIN,TX,78617,"STONEY RIDGE",,CONTRACTOR,,,,,,,,,,,"LENNAR HOMES",,,,,"LENNAR HOMES","13620 FM 620 RD 150",AUSTIN,TX,78717,"(512) 506-4000",http://www.lennar.com/,,,
TX,TRAVIS,21-34086,"Single Family Homes",5/24/2021,,167700,,"5913 CIMARRON RIDGE",AUSTIN,TX,78738,"SWEETWATER RANCH",,CONTRACTOR,,,,,,,,,,,"LENNAR HOMES",,,,,"LENNAR HOMES","13620 FM 620 RD 150",AUSTIN,TX,78717,"(512) 506-4000",http://www.lennar.com/,,,
TX,TRAVIS,21-34087,"Single Family Homes",5/24/2021,,167700,,"5901 CIMARRON RIDGE",AUSTIN,TX,78738,"SWEETWATER RANCH",,CONTRACTOR,,,,,,,,,,,"LENNAR HOMES",,,,,"LENNAR HOMES","13620 FM 620 RD 150",AUSTIN,TX,78717,"(512) 506-4000",http://www.lennar.com/,,,
TX,TRAVIS,21-34080,"Single Family Homes",5/4/2021,,160425,,"7105 DANCING WIND",AUSTIN,TX,78617,"STONEY RIDGE",,CONTRACTOR,,,,,,,,,,,"LENNAR HOMES",,,,,"LENNAR HOMES","13620 FM 620 RD 150",AUSTIN,TX,78717,"(512) 506-4000",http://www.lennar.com/,,,
TX,TRAVIS,21-34108,"Single Family Homes",5/24/2021,,96950,,"13712 MUSSEL RUN",ELGIN,TX,78621,"ELM CREEK",,CONTRACTOR,,,,,,,,,,,"LENNAR HOMES",,,,,"LENNAR HOMES","13620 FM 620 RD 150",AUSTIN,TX,78717,"(512) 506-4000",http://www.lennar.com/,,,
TX,TRAVIS,21-34110,"Single Family Homes",5/24/2021,,94575,,"13718 MUSSEL RUN",ELGIN,TX,78621,"ELM CREEK",,CONTRACTOR,,,,,,,,,,,"LENNAR HOMES",,,,,"LENNAR HOMES","13620 FM 620 RD 150",AUSTIN,TX,78717,"(512) 506-4000",http://www.lennar.com/,,,
TX,TRAVIS,21-34111,"Single Family Homes",5/24/2021,,94575,,"13811 MUSSEL RUN",ELGIN,TX,78621,"ELM CREEK",,CONTRACTOR,,,,,,,,,,,"LENNAR HOMES",,,,,"LENNAR HOMES","13620 FM 620 RD 150",AUSTIN,TX,78717,"(512) 506-4000",http://www.lennar.com/,,,
TX,TRAVIS,21-34104,"Single Family Homes",5/20/2021,,261000,,"8411 LAUGHLIN LN",AUSTIN,TX,78744,,,CONTRACTOR,,,,,,,,,,,"BROOKFIELD RESIDENTIAL PROPERTIES",,,,,"BROOKFIELD RESIDENTIAL PROPERTIES","11501 ALTERRA PKWY STE 100",AUSTIN,TX,78758-3201,"(512) 391-1330",,,,
TX,TRAVIS,21-34105,"Single Family Homes",5/20/2021,,240000,,"8413 LAUGHLIN LN",AUSTIN,TX,78744,,,CONTRACTOR,,,,,,,,,,,"BROOKFIELD RESIDENTIAL PROPERTIES",,,,,"BROOKFIELD RESIDENTIAL PROPERTIES","11501 ALTERRA PKWY STE 100",AUSTIN,TX,78758-3201,"(512) 391-1330",,,,
TX,TRAVIS,21-34106,"Single Family Homes",5/20/2021,,272000,,"8415 LAUGHLIN LN",AUSTIN,TX,78744,,,CONTRACTOR,,,,,,,,,,,"BROOKFIELD RESIDENTIAL PROPERTIES",,,,,"BROOKFIELD RESIDENTIAL PROPERTIES","11501 ALTERRA PKWY STE 100",AUSTIN,TX,78758-3201,"(512) 391-1330",,,,
TX,TRAVIS,21-34107,"Single Family Homes",5/21/2021,,251000,,"8419 LAUGHLIN LN",AUSTIN,TX,78744,,,CONTRACTOR,,,,,,,,,,,"BROOKFIELD RESIDENTIAL PROPERTIES",,,,,"BROOKFIELD RESIDENTIAL PROPERTIES","11501 ALTERRA PKWY STE 100",AUSTIN,TX,78758-3201,"(512) 391-1330",,,,
TX,TRAVIS,21-34115,"Single Family Homes",5/21/2021,,262000,,"8417 LAUGHLIN LN",AUSTIN,TX,78744,,,CONTRACTOR,,,,,,,,,,,"BROOKFIELD RESIDENTIAL PROPERTIES",,,,,"BROOKFIELD RESIDENTIAL PROPERTIES","11501 ALTERRA PKWY STE 100",AUSTIN,TX,78758-3201,"(512) 391-1330",,,,
TX,TRAVIS,21-34117,"Single Family Homes",5/20/2021,,239000,,"7601 FRIDA BEND",AUSTIN,TX,78744,,,CONTRACTOR,,,,,,,,,,,"BROOKFIELD RESIDENTIAL PROPERTIES",,,,,"BROOKFIELD RESIDENTIAL PROPERTIES","11501 ALTERRA PKWY STE 100",AUSTIN,TX,78758-3201,"(512) 391-1330",,,,
TX,TRAVIS,21-34118,"Single Family Homes",5/21/2021,,236000,,"7603 FRIDA BEND",AUSTIN,TX,78744,"EASTON PARK",,CONTRACTOR,,,,,,,,,,,"BROOKFIELD RESIDENTIAL PROPERTIES",,,,,"BROOKFIELD RESIDENTIAL PROPERTIES","11501 ALTERRA PKWY STE 100",AUSTIN,TX,78758-3201,"(512) 391-1330",,,,
TX,TRAVIS,21-34088,"Single Family Homes",5/24/2021,,271300,,"8400 CUMBRAE LN",AUSTIN,TX,78744,,,CONTRACTOR,,,,,,,,,,,"BROOKFIELD RESIDENTIAL PROPERTIES",,,,,"BROOKFIELD RESIDENTIAL PROPERTIES","11501 ALTERRA PKWY STE 100",AUSTIN,TX,78758-3201,"(512) 391-1330",,,,
TX,TRAVIS,21-34089,"Single Family Homes",5/24/2021,,282500,,"8401 CUMBRAE LN",AUSTIN,TX,78744,,,CONTRACTOR,,,,,,,,,,,"BROOKFIELD RESIDENTIAL PROPERTIES",,,,,"BROOKFIELD RESIDENTIAL PROPERTIES","11501 ALTERRA PKWY STE 100",AUSTIN,TX,78758-3201,"(512) 391-1330",,,,
TX,TRAVIS,21-34090,"Single Family Homes",5/24/2021,,274500,,"8403 CUMBRAE LN",AUSTIN,TX,78744,,,CONTRACTOR,,,,,,,,,,,"BROOKFIELD RESIDENTIAL PROPERTIES",,,,,"BROOKFIELD RESIDENTIAL PROPERTIES","11501 ALTERRA PKWY STE 100",AUSTIN,TX,78758-3201,"(512) 391-1330",,,,
TX,TRAVIS,21-34091,"Single Family Homes",5/24/2021,,246900,,"8405 CUMBRAE LN",AUSTIN,TX,78744,,,CONTRACTOR,,,,,,,,,,,"BROOKFIELD RESIDENTIAL PROPERTIES",,,,,"BROOKFIELD RESIDENTIAL PROPERTIES","11501 ALTERRA PKWY STE 100",AUSTIN,TX,78758-3201,"(512) 391-1330",,,,
TX,TRAVIS,21-34092,"Single Family Homes",5/24/2021,,255300,,"8408 CUMBRAE LN",AUSTIN,TX,78744,,,CONTRACTOR,,,,,,,,,,,"BROOKFIELD RESIDENTIAL PROPERTIES",,,,,"BROOKFIELD RESIDENTIAL PROPERTIES","11501 ALTERRA PKWY STE 100",AUSTIN,TX,78758-3201,"(512) 391-1330",,,,
TX,TRAVIS,21-34093,"Single Family Homes",5/24/2021,,283300,,"8500 CUMBRAE LN",AUSTIN,TX,78744,,,CONTRACTOR,,,,,,,,,,,"BROOKFIELD RESIDENTIAL PROPERTIES",,,,,"BROOKFIELD RESIDENTIAL PROPERTIES","11501 ALTERRA PKWY STE 100",AUSTIN,TX,78758-3201,"(512) 391-1330",,,,
TX,TRAVIS,21-34094,"Single Family Homes",5/24/2021,,259900,,"8502 CUMBRAE LN",AUSTIN,TX,78744,,,CONTRACTOR,,,,,,,,,,,"BROOKFIELD RESIDENTIAL PROPERTIES",,,,,"BROOKFIELD RESIDENTIAL PROPERTIES","11501 ALTERRA PKWY STE 100",AUSTIN,TX,78758-3201,"(512) 391-1330",,,,
TX,TRAVIS,21-34095,"Single Family Homes",5/24/2021,,275200,,"8504 CUMBRAE LN",AUSTIN,TX,78744,,,CONTRACTOR,,,,,,,,,,,"BROOKFIELD RESIDENTIAL PROPERTIES",,,,,"BROOKFIELD RESIDENTIAL PROPERTIES","11501 ALTERRA PKWY STE 100",AUSTIN,TX,78758-3201,"(512) 391-1330",,,,
TX,TRAVIS,21-34096,"Single Family Homes",5/24/2021,,254900,,"8506 CUMBRAE LN",AUSTIN,TX,78744,,,CONTRACTOR,,,,,,,,,,,"BROOKFIELD RESIDENTIAL PROPERTIES",,,,,"BROOKFIELD RESIDENTIAL PROPERTIES","11501 ALTERRA PKWY STE 100",AUSTIN,TX,78758-3201,"(512) 391-1330",,,,
TX,TRAVIS,21-34097,"Single Family Homes",5/24/2021,,247700,,"8508 CUMBRAE LN",AUSTIN,TX,78744,,,CONTRACTOR,,,,,,,,,,,"BROOKFIELD RESIDENTIAL PROPERTIES",,,,,"BROOKFIELD RESIDENTIAL PROPERTIES","11501 ALTERRA PKWY STE 100",AUSTIN,TX,78758-3201,"(512) 391-1330",,,,
TX,TRAVIS,21-34100,"Single Family Homes",5/20/2021,,251000,,"8405 LAUGHLIN LN",AUSTIN,TX,78744,,,CONTRACTOR,,,,,,,,,,,"BROOKFIELD RESIDENTIAL PROPERTIES",,,,,"BROOKFIELD RESIDENTIAL PROPERTIES","11501 ALTERRA PKWY STE 100",AUSTIN,TX,78758-3201,"(512) 391-1330",,,,
TX,TRAVIS,21-34101,"Single Family Homes",5/21/2021,,272000,,"8407 LAUGHLIN LN",AUSTIN,TX,78744,,,CONTRACTOR,,,,,,,,,,,"BROOKFIELD RESIDENTIAL PROPERTIES",,,,,"BROOKFIELD RESIDENTIAL PROPERTIES","11501 ALTERRA PKWY STE 100",AUSTIN,TX,78758-3201,"(512) 391-1330",,,,
TX,TRAVIS,21-34102,"Single Family Homes",5/21/2021,,250000,,"8409 LAUGHLIN LN",AUSTIN,TX,78744,,,CONTRACTOR,,,,,,,,,,,"BROOKFIELD RESIDENTIAL PROPERTIES",,,,,"BROOKFIELD RESIDENTIAL PROPERTIES","11501 ALTERRA PKWY STE 100",AUSTIN,TX,78758-3201,"(512) 391-1330",,,,
TX,TRAVIS,21-34045,"Single Family Homes",5/25/2021,,457341,,"2204 ESCAPE",SPICEWOOD,TX,78669,"THE RESERVE",,CONTRACTOR,,,,,,,,,,,"LEGACY DCS",,,,,"LEGACY DCS","205 WILD BASIN ROAD SOUTH, BLDG",AUSTIN,TX,78746,"(512) 726-0500",https://legacydcs.com/,"(512) 726-0527",,info@legacydcs.com
TX,TRAVIS,21-34197,"Single Family Homes",5/24/2021,,87000,,"19620 SUMMIT GLORY TRAIL #4",SPICEWOOD,TX,78669,,,"MARK OBERKIRCH","19620 SUMMIT GLORY TRAIL #4",SPICEWOOD,TX,78669,,Owner,,,,,OWNER,,,,,OWNER,,,,,,,,,
TX,TRAVIS,21-34221,"Single Family Homes",5/24/2021,,437000,,"16908 SANGLIER DR",AUSTIN,TX,78738,,,CONTRACTOR,,,,,,,,,,,"DREES CUSTOM HOMES",,,,,"DREES CUSTOM HOMES","7300 RANCH ROAD 2222 BLDG 2 STE 250",AUSTIN,TX,78730-3204,"(512) 241-7100",http://www.dreeshomes.com,,,
TX,TRAVIS,21-34208,"Single Family Homes",5/24/2021,,548026,,"16820 MORELLE DR",AUSTIN,TX,78738,,,CONTRACTOR,,,,,,,,,,,"DAVID WEEKLEY HOMES",,,,,"DAVID WEEKLEY HOMES","9000 WATERFORD CENTRE BLVD",AUSTIN,TX,78758-7662,"(800) 390-6774",http://www.davidweekleyhomes.com/,,,
TX,TRAVIS,21-34209,"Single Family Homes",5/24/2021,,500506,,"16901 MORELLE DR",AUSTIN,TX,78738,PROVENCE,,CONTRACTOR,,,,,,,,,,,"DAVID WEEKLEY HOMES",,,,,"DAVID WEEKLEY HOMES","9000 WATERFORD CENTRE BLVD",AUSTIN,TX,78758-7662,"(800) 390-6774",http://www.davidweekleyhomes.com/,,,
TX,TRAVIS,21-34210,"Single Family Homes",5/24/2021,,530994,,"16908 MORELLE DR",AUSTIN,TX,78738,PROVENCE,,CONTRACTOR,,,,,,,,,,,"DAVID WEEKLEY HOMES",,,,,"DAVID WEEKLEY HOMES","9000 WATERFORD CENTRE BLVD",AUSTIN,TX,78758-7662,"(800) 390-6774",http://www.davidweekleyhomes.com/,,,
TX,TRAVIS,21-34206,"Single Family Homes",5/24/2021,,591063,,"16821 MORELLE DR",AUSTIN,TX,78738,,,CONTRACTOR,,,,,,,,,,,"DAVID WEEKLEY HOMES",,,,,"DAVID WEEKLEY HOMES","9000 WATERFORD CENTRE BLVD",AUSTIN,TX,78758-7662,"(800) 390-6774",http://www.davidweekleyhomes.com/,,,
TX,TRAVIS,21-34207,"Single Family Homes",5/24/2021,,525099,,"16928 MORELLE DR",AUSTIN,TX,78738,,,CONTRACTOR,,,,,,,,,,,"DAVID WEEKLEY HOMES",,,,,"DAVID WEEKLEY HOMES","9000 WATERFORD CENTRE BLVD",AUSTIN,TX,78758-7662,"(800) 390-6774",http://www.davidweekleyhomes.com/,,,
TX,TRAVIS,21-34203,"Single Family Homes",5/24/2021,,440786,,"16924 MORELLE DR",AUSTIN,TX,78738,,,CONTRACTOR,,,,,,,,,,,"DAVID WEEKLEY HOMES",,,,,"DAVID WEEKLEY HOMES","9000 WATERFORD CENTRE BLVD",AUSTIN,TX,78758-7662,"(800) 390-6774",http://www.davidweekleyhomes.com/,,,
TX,TRAVIS,21-34204,"Single Family Homes",5/24/2021,,,,"16905 MORELLE DR",AUSTIN,TX,78738,,,CONTRACTOR,,,,,,,,,,,"DAVID WEEKLEY HOMES",,,,,"DAVID WEEKLEY HOMES","9000 WATERFORD CENTRE BLVD",AUSTIN,TX,78758-7662,"(800) 390-6774",http://www.davidweekleyhomes.com/,,,
TX,TRAVIS,21-34214,"Single Family Homes",5/25/2021,,233040,,"7505 GRAND LINDEN WAY",AUSTIN,TX,78744,,,CONTRACTOR,,,,,,,,,,,"MERITAGE HOMES",,,,,"MERITAGE HOMES","8920 BUSINESS PARK DR STE 250",AUSTIN,TX,78759-7622,"(512) 610-4800",,,,
TX,TRAVIS,21-34189,"Single Family Homes",5/21/2021,,179400,,"7117 TERRAZZO COTTAGE LN",AUSTIN,TX,78744,,,CONTRACTOR,,,,,,,,,,,"MERITAGE HOMES",,,,,"MERITAGE HOMES","8920 BUSINESS PARK DR STE 250",AUSTIN,TX,78759-7622,"(512) 610-4800",,,,
TX,TRAVIS,21-34191,"Single Family Homes",5/21/2021,,197520,,"7113 TERRAZZO COTTAGE LN",AUSTIN,TX,78744,,,CONTRACTOR,,,,,,,,,,,"MERITAGE HOMES",,,,,"MERITAGE HOMES","8920 BUSINESS PARK DR STE 250",AUSTIN,TX,78759-7622,"(512) 610-4800",,,,
TX,TRAVIS,21-34192,"Single Family Homes",5/21/2021,,212520,,"7119 TERRAZZO COTTAGE LN",AUSTIN,TX,78744,,,CONTRACTOR,,,,,,,,,,,"MERITAGE HOMES",,,,,"MERITAGE HOMES","8920 BUSINESS PARK DR STE 250",AUSTIN,TX,78759-7622,"(512) 610-4800",,,,
TX,TRAVIS,21-34193,"Single Family Homes",5/21/2021,,212520,,"7115 TERRAZZO COTTAGE LN",AUSTIN,TX,78744,,,CONTRACTOR,,,,,,,,,,,"MERITAGE HOMES",,,,,"MERITAGE HOMES","8920 BUSINESS PARK DR STE 250",AUSTIN,TX,78759-7622,"(512) 610-4800",,,,
TX,TRAVIS,21-34194,"Single Family Homes",5/21/2021,,233040,,"7121 TERRAZZO COTTAGE LN",AUSTIN,TX,78744,,,CONTRACTOR,,,,,,,,,,,"MERITAGE HOMES",,,,,"MERITAGE HOMES","8920 BUSINESS PARK DR STE 250",AUSTIN,TX,78759-7622,"(512) 610-4800",,,,
TX,TRAVIS,21-34195,"Single Family Homes",5/21/2021,,233040,,"7111 TERRAZZO COTTAGE LN",AUSTIN,TX,78744,,,CONTRACTOR,,,,,,,,,,,"MERITAGE HOMES",,,,,"MERITAGE HOMES","8920 BUSINESS PARK DR STE 250",AUSTIN,TX,78759-7622,"(512) 610-4800",,,,
TX,TRAVIS,21-34196,"Single Family Homes",5/21/2021,,212520,,"7120 TERRAZZO COTTAGE LN",AUSTIN,TX,78744,,,CONTRACTOR,,,,,,,,,,,"MERITAGE HOMES",,,,,"MERITAGE HOMES","8920 BUSINESS PARK DR STE 250",AUSTIN,TX,78759-7622,"(512) 610-4800",,,,
TX,TRAVIS,21-34163,"Single Family Homes",5/25/2021,,183420,,"13616 ABIGAIL ADAMS",MANOR,TX,78653,"PRESIDENTIAL MEADOWS",,CONTRACTOR,,,,,,,,,,,"KB HOME",,,,,"KB HOME","10800 PECAN PARK BLVD STE 200",AUSTIN,TX,78750-1249,"(512) 651-8100",,,,
TX,TRAVIS,21-34235,"Single Family Homes",5/25/2021,,161280,,"13629 JAMES GARFIELD ST",MANOR,TX,78653,,,CONTRACTOR,,,,,,,,,,,"KB HOME",,,,,"KB HOME","10800 PECAN PARK BLVD STE 200",AUSTIN,TX,78750-1249,"(512) 651-8100",,,,
TX,TRAVIS,21-34137,"Single Family Homes",5/25/2021,,142650,,"19317 JAMES CARTER JR ST",AUSTIN,TX,78653,"PRESIDENTIAL MEADOWS",,CONTRACTOR,,,,,,,,,,,"KB HOME",,,,,"KB HOME","10800 PECAN PARK BLVD STE 200",AUSTIN,TX,78750-1249,"(512) 651-8100",,,,
TX,TRAVIS,21-34294,"Single Family Homes",5/25/2021,,216990,,"19225 JAMES CARTER JR",MANOR,TX,78653,"PRESIDENTIAL MEADOWS",,CONTRACTOR,,,,,,,,,,,"KB HOME",,,,,"KB HOME","10800 PECAN PARK BLVD STE 200",AUSTIN,TX,78750-1249,"(512) 651-8100",,,,
TX,TRAVIS,21-34351,"Single Family Homes",5/24/2021,,391500,,"8801 BESTRIDE BEND",AUSTIN,TX,78744,"MIRABEL PARK",,CONTRACTOR,,,,,,,,,,,"NEWMARK HOMES",,,,,"NEWMARK HOMES","10455 BRIAR FOREST SUITE 200",HOUSTON,TX,77042,"(713) 346-0200",,"(713) 346-0226",,
TX,TRAVIS,21-34352,"Single Family Homes",5/24/2021,,328590,,"8805 BESTRIDE BEND",AUSTIN,TX,78744,"MIRABEL PARK",,CONTRACTOR,,,,,,,,,,,"NEWMARK HOMES",,,,,"NEWMARK HOMES","10455 BRIAR FOREST SUITE 200",HOUSTON,TX,77042,"(713) 346-0200",,"(713) 346-0226",,
TX,TRAVIS,21-34353,"Single Family Homes",5/24/2021,,391230,,"8807 BESTRIDE BEND",AUSTIN,TX,78744,,,CONTRACTOR,,,,,,,,,,,"NEWMARK HOMES",,,,,"NEWMARK HOMES","10455 BRIAR FOREST SUITE 200",HOUSTON,TX,77042,"(713) 346-0200",,"(713) 346-0226",,
TX,TRAVIS,21-34205,"Single Family Homes",5/21/2021,,475000,,"16921 MORELLE DR",AUSTIN,TX,78738,,,CONTRACTOR,,,,,,,,,,,"NEWMARK HOMES",,,,,"NEWMARK HOMES","10455 BRIAR FOREST SUITE 200",HOUSTON,TX,77042,"(713) 346-0200",,"(713) 346-0226",,
TX,TRAVIS,21-34172,"Single Family Homes",5/21/2021,,475000,,"16829 MORELLE DR",AUSTIN,TX,78738,,,CONTRACTOR,,,,,,,,,,,"NEWMARK HOMES",,,,,"NEWMARK HOMES","10455 BRIAR FOREST SUITE 200",HOUSTON,TX,77042,"(713) 346-0200",,"(713) 346-0226",,
TX,TRAVIS,21-34171,"Single Family Homes",5/21/2021,,475000,,"16916 MORELLE DR",AUSTIN,TX,78738,,,CONTRACTOR,,,,,,,,,,,"NEWMARK HOMES",,,,,"NEWMARK HOMES","10455 BRIAR FOREST SUITE 200",HOUSTON,TX,77042,"(713) 346-0200",,"(713) 346-0226",,
TX,TRAVIS,21-34183,"Single Family Homes",5/21/2021,,475000,,"16813 MORELLE DR",AUSTIN,TX,78738,,,CONTRACTOR,,,,,,,,,,,"NEWMARK HOMES",,,,,"NEWMARK HOMES","10455 BRIAR FOREST SUITE 200",HOUSTON,TX,77042,"(713) 346-0200",,"(713) 346-0226",,
TX,TRAVIS,21-34184,"Single Family Homes",5/21/2021,,475000,,"16825 MORELLE DR",AUSTIN,TX,78738,,,CONTRACTOR,,,,,,,,,,,"NEWMARK HOMES",,,,,"NEWMARK HOMES","10455 BRIAR FOREST SUITE 200",HOUSTON,TX,77042,"(713) 346-0200",,"(713) 346-0226",,
TX,TRAVIS,21-34185,"Single Family Homes",5/21/2021,,475000,,"16912 MORELLE DR",AUSTIN,TX,78738,,,CONTRACTOR,,,,,,,,,,,"NEWMARK HOMES",,,,,"NEWMARK HOMES","10455 BRIAR FOREST SUITE 200",HOUSTON,TX,77042,"(713) 346-0200",,"(713) 346-0226",,
TX,TRAVIS,21-34237,"Single Family Homes",5/25/2021,,487990,,"19104 MAITLAND DR","DRIPPING SPRINGS",TX,78620,"SWEETWATER RANCH",,CONTRACTOR,,,,,,,,,,,"TAYLOR MORRISON OF TEXAS",,,,,"TAYLOR MORRISON OF TEXAS","11200 LAKELINE BLVD STE 150A",AUSTIN,TX,78717-5964,"(512) 328-8866",,"(512) 328-7988",,
TX,TRAVIS,21-34190,"Single Family Homes",5/24/2021,,400990,,"2806 MARY ELIZABETH DR",AUSTIN,TX,78728,,,CONTRACTOR,,,,,,,,,,,"TAYLOR MORRISON OF TEXAS",,,,,"TAYLOR MORRISON OF TEXAS","11200 LAKELINE BLVD STE 150A",AUSTIN,TX,78717-5964,"(512) 328-8866",,"(512) 328-7988",,
TX,TRAVIS,21-34187,"Single Family Homes",5/25/2021,,402990,,"3004 MARY ELIZABETH DR",AUSTIN,TX,78728,,,CONTRACTOR,,,,,,,,,,,"TAYLOR MORRISON OF TEXAS",,,,,"TAYLOR MORRISON OF TEXAS","11200 LAKELINE BLVD STE 150A",AUSTIN,TX,78717-5964,"(512) 328-8866",,"(512) 328-7988",,
TX,TRAVIS,21-34188,"Single Family Homes",5/25/2021,,392990,,"2804 MARY ELIZABETH DR",AUSTIN,TX,78728,,,CONTRACTOR,,,,,,,,,,,"TAYLOR MORRISON OF TEXAS",,,,,"TAYLOR MORRISON OF TEXAS","11200 LAKELINE BLVD STE 150A",AUSTIN,TX,78717-5964,"(512) 328-8866",,"(512) 328-7988",,
TX,TRAVIS,21-34292,"Single Family Homes",5/25/2021,,512990,,"19112 MAITLAND DR","DRIPPING SPRINGS",TX,78620,"SWEETWATER RANCH",,CONTRACTOR,,,,,,,,,,,"TAYLOR MORRISON OF TEXAS",,,,,"TAYLOR MORRISON OF TEXAS","11200 LAKELINE BLVD STE 150A",AUSTIN,TX,78717-5964,"(512) 328-8866",,"(512) 328-7988",,
TX,TRAVIS,21-34293,"Single Family Homes",5/25/2021,,511990,,"19108 MAITLAND DR","DRIPPING SPRINGS",TX,78620,"SWEETWATER RANCH",,CONTRACTOR,,,,,,,,,,,"TAYLOR MORRISON OF TEXAS",,,,,"TAYLOR MORRISON OF TEXAS","11200 LAKELINE BLVD STE 150A",AUSTIN,TX,78717-5964,"(512) 328-8866",,"(512) 328-7988",,
TX,TRAVIS,21-34283,"Single Family Homes",5/25/2021,,487990,,"5717 ALAMOSA CLEARING DR","DRIPPING SPRINGS",TX,78620,"SWEETWATER RANCH",,CONTRACTOR,,,,,,,,,,,"TAYLOR MORRISON OF TEXAS",,,,,"TAYLOR MORRISON OF TEXAS","11200 LAKELINE BLVD STE 150A",AUSTIN,TX,78717-5964,"(512) 328-8866",,"(512) 328-7988",,
TX,TRAVIS,21-34288,"Single Family Homes",5/25/2021,,468990,,"5616 ALAMOSA CLEARING DR","DRIPPING SPRINGS",TX,78620,"SWEETWATER RANCH",,CONTRACTOR,,,,,,,,,,,"TAYLOR MORRISON OF TEXAS",,,,,"TAYLOR MORRISON OF TEXAS","11200 LAKELINE BLVD STE 150A",AUSTIN,TX,78717-5964,"(512) 328-8866",,"(512) 328-7988",,
TX,TRAVIS,21-34148,"Single Family Homes",5/21/2021,,116025,,"17218 ADORO DR",MANOR,TX,78653,"WHISPER VALLEY",,CONTRACTOR,,,,,,,,,,,"PACESETTER HOMES ",,,,,"PACESETTER HOMES ","7940 SHOAL CREEK BLVD STE 200",AUSTIN,TX,78757-7587,"(512) 323-5252",,,,
TX,TRAVIS,21-34149,"Single Family Homes",5/21/2021,,110825,,"9621 GRAPEVINE LEAF",MANOR,TX,78653,"WHISPER VALLEY",,CONTRACTOR,,,,,,,,,,,"PACESETTER HOMES ",,,,,"PACESETTER HOMES ","7940 SHOAL CREEK BLVD STE 200",AUSTIN,TX,78757-7587,"(512) 323-5252",,,,
TX,TRAVIS,21-34153,"Single Family Homes",5/21/2021,,91200,,"9602 MORNING IRIS",MANOR,TX,78653,,,CONTRACTOR,,,,,,,,,,,"PACESETTER HOMES ",,,,,"PACESETTER HOMES ","7940 SHOAL CREEK BLVD STE 200",AUSTIN,TX,78757-7587,"(512) 323-5252",,,,
TX,TRAVIS,21-34154,"Single Family Homes",5/21/2021,,144900,,"9610 MORNING IRIS",MANOR,TX,78653,"WHISPER VALLEY",,CONTRACTOR,,,,,,,,,,,"PACESETTER HOMES ",,,,,"PACESETTER HOMES ","7940 SHOAL CREEK BLVD STE 200",AUSTIN,TX,78757-7587,"(512) 323-5252",,,,
TX,TRAVIS,21-34173,"Single Family Homes",5/24/2021,,267225,,"16808 LEMONIA COVE",PFLUGERVILLE,TX,78660,,,CONTRACTOR,,,,,,,,,,,"DR HORTON",,,,,"DR HORTON","10700 PECAN PARK BLVD STE 400",AUSTIN,TX,78750-1227,"(512) 345-4663",,,,
TX,TRAVIS,21-34174,"Single Family Homes",5/24/2021,,261825,,"16804 LEMONIA COVE",PFLUGERVILLE,TX,78660,SORENTO,,CONTRACTOR,,,,,,,,,,,"DR HORTON",,,,,"DR HORTON","10700 PECAN PARK BLVD STE 400",AUSTIN,TX,78750-1227,"(512) 345-4663",,,,
TX,TRAVIS,21-34176,"Single Family Homes",5/24/2021,,279075,,"16805 LEMONIA COVE",PFLUGERVILLE,TX,78660,SORENTO,,CONTRACTOR,,,,,,,,,,,"DR HORTON",,,,,"DR HORTON","10700 PECAN PARK BLVD STE 400",AUSTIN,TX,78750-1227,"(512) 345-4663",,,,
TX,TRAVIS,21-34177,"Single Family Homes",5/24/2021,,263925,,"16817 LEMONIA COVE",PFLUGERVILLE,TX,78660,,,CONTRACTOR,,,,,,,,,,,"DR HORTON",,,,,"DR HORTON","10700 PECAN PARK BLVD STE 400",AUSTIN,TX,78750-1227,"(512) 345-4663",,,,
TX,TRAVIS,21-34178,"Single Family Homes",5/24/2021,,260775,,"16816 LEMONIA COVE",PFLUGERVILLE,TX,78660,,,CONTRACTOR,,,,,,,,,,,"DR HORTON",,,,,"DR HORTON","10700 PECAN PARK BLVD STE 400",AUSTIN,TX,78750-1227,"(512) 345-4663",,,,
TX,TRAVIS,21-34179,"Single Family Homes",5/24/2021,,147600,,"5721 BROCADE DR",AUSTIN,TX,78724,"GILBERT LANE",,CONTRACTOR,,,,,,,,,,,"DR HORTON",,,,,"DR HORTON","10700 PECAN PARK BLVD STE 400",AUSTIN,TX,78750-1227,"(512) 345-4663",,,,
TX,TRAVIS,21-34180,"Single Family Homes",5/24/2021,,147600,,"5737 BROCADE DR",AUSTIN,TX,78724,,,CONTRACTOR,,,,,,,,,,,"DR HORTON",,,,,"DR HORTON","10700 PECAN PARK BLVD STE 400",AUSTIN,TX,78750-1227,"(512) 345-4663",,,,
TX,TRAVIS,21-34181,"Single Family Homes",5/24/2021,,147600,,"5716 BROCADE DR",AUSTIN,TX,78724,"GILBERT LANE",,CONTRACTOR,,,,,,,,,,,"DR HORTON",,,,,"DR HORTON","10700 PECAN PARK BLVD STE 400",AUSTIN,TX,78750-1227,"(512) 345-4663",,,,
TX,TRAVIS,21-34170,"Single Family Homes",5/24/2021,,232275,,"17708 AVALAR AVE",PFLUGERVILLE,TX,78660,,,CONTRACTOR,,,,,,,,,,,"DR HORTON",,,,,"DR HORTON","10700 PECAN PARK BLVD STE 400",AUSTIN,TX,78750-1227,"(512) 345-4663",,,,
TX,TRAVIS,21-34169,"Single Family Homes",5/24/2021,,239250,,"16804 PONTE COVE",PFLUGERVILLE,TX,78660,,,CONTRACTOR,,,,,,,,,,,"DR HORTON",,,,,"DR HORTON","10700 PECAN PARK BLVD STE 400",AUSTIN,TX,78750-1227,"(512) 345-4663",,,,
TX,TRAVIS,21-34168,"Single Family Homes",5/24/2021,,202650,,"17209 BASSANO AVE",PFLUGERVILLE,TX,78660,,,CONTRACTOR,,,,,,,,,,,"DR HORTON",,,,,"DR HORTON","10700 PECAN PARK BLVD STE 400",AUSTIN,TX,78750-1227,"(512) 345-4663",,,,
TX,TRAVIS,21-34167,"Single Family Homes",5/24/2021,,232275,,"17816 AVALAR AVE",PFLUGERVILLE,TX,78660,,,CONTRACTOR,,,,,,,,,,,"DR HORTON",,,,,"DR HORTON","10700 PECAN PARK BLVD STE 400",AUSTIN,TX,78750-1227,"(512) 345-4663",,,,
TX,TRAVIS,21-34166,"Single Family Homes",5/24/2021,,239850,,"17712 AVALAR AVE",PFLUGERVILLE,TX,78660,SORENTO,,CONTRACTOR,,,,,,,,,,,"DR HORTON",,,,,"DR HORTON","10700 PECAN PARK BLVD STE 400",AUSTIN,TX,78750-1227,"(512) 345-4663",,,,
TX,TRAVIS,21-34280,"Single Family Homes",5/25/2021,,203550,,"13408 SHYJIA DR",AUSTIN,TX,78724,"GILBERT LANE",,CONTRACTOR,,,,,,,,,,,"DR HORTON",,,,,"DR HORTON","10700 PECAN PARK BLVD STE 400",AUSTIN,TX,78750-1227,"(512) 345-4663",,,,
TX,TRAVIS,21-34281,"Single Family Homes",5/25/2021,,248325,,"13412 SHYJIA DR",AUSTIN,TX,78724,"GILBERT LANE",,CONTRACTOR,,,,,,,,,,,"DR HORTON",,,,,"DR HORTON","10700 PECAN PARK BLVD STE 400",AUSTIN,TX,78750-1227,"(512) 345-4663",,,,
TX,TRAVIS,21-34282,"Single Family Homes",5/25/2021,,248325,,"13416 SHYJIA DR",AUSTIN,TX,78724,"GILBERT LANE",,CONTRACTOR,,,,,,,,,,,"DR HORTON",,,,,"DR HORTON","10700 PECAN PARK BLVD STE 400",AUSTIN,TX,78750-1227,"(512) 345-4663",,,,
TX,TRAVIS,21-34272,"Single Family Homes",5/25/2021,,196200,,"6000 BERRIWEATHER DR",AUSTIN,TX,78724,"GILBERT LANE",,CONTRACTOR,,,,,,,,,,,"DR HORTON",,,,,"DR HORTON","10700 PECAN PARK BLVD STE 400",AUSTIN,TX,78750-1227,"(512) 345-4663",,,,
TX,TRAVIS,21-34273,"Single Family Homes",5/25/2021,,158700,,"6004 BERRIWEATHER DR",AUSTIN,TX,78724,"GILBERT LANE",,CONTRACTOR,,,,,,,,,,,"DR HORTON",,,,,"DR HORTON","10700 PECAN PARK BLVD STE 400",AUSTIN,TX,78750-1227,"(512) 345-4663",,,,
TX,TRAVIS,21-34274,"Single Family Homes",5/25/2021,,183675,,"6008 BERRIWEATHER DR",AUSTIN,TX,78724,"GILBERT LANE",,CONTRACTOR,,,,,,,,,,,"DR HORTON",,,,,"DR HORTON","10700 PECAN PARK BLVD STE 400",AUSTIN,TX,78750-1227,"(512) 345-4663",,,,
TX,TRAVIS,21-34275,"Single Family Homes",5/25/2021,,176850,,"5804 BROCADE DR",AUSTIN,TX,78724,"GILBERT LANE",,CONTRACTOR,,,,,,,,,,,"DR HORTON",,,,,"DR HORTON","10700 PECAN PARK BLVD STE 400",AUSTIN,TX,78750-1227,"(512) 345-4663",,,,
TX,TRAVIS,21-34276,"Single Family Homes",5/25/2021,,213075,,"5705 BROCADE DR",AUSTIN,TX,78724,"GILBERT LANE",,CONTRACTOR,,,,,,,,,,,"DR HORTON",,,,,"DR HORTON","10700 PECAN PARK BLVD STE 400",AUSTIN,TX,78750-1227,"(512) 345-4663",,,,
TX,TRAVIS,21-34277,"Single Family Homes",5/25/2021,,248325,,"6112 MONTRELIA DR",AUSTIN,TX,78724,"GILBERT LANE",,CONTRACTOR,,,,,,,,,,,"DR HORTON",,,,,"DR HORTON","10700 PECAN PARK BLVD STE 400",AUSTIN,TX,78750-1227,"(512) 345-4663",,,,
TX,TRAVIS,21-34309,"Single Family Homes",5/25/2021,,285375,,"16713 CASA ANNA DR",PFLUGERVILLE,TX,78660,SORENTO,,CONTRACTOR,,,,,,,,,,,"DR HORTON",,,,,"DR HORTON","10700 PECAN PARK BLVD STE 400",AUSTIN,TX,78750-1227,"(512) 345-4663",,,,
TX,TRAVIS,21-34310,"Single Family Homes",5/25/2021,,282900,,"16717 CASA ANNA DR",PFLUGERVILLE,TX,78660,SORENTO,,CONTRACTOR,,,,,,,,,,,"DR HORTON",,,,,"DR HORTON","10700 PECAN PARK BLVD STE 400",AUSTIN,TX,78750-1227,"(512) 345-4663",,,,
TX,TRAVIS,21-34311,"Single Family Homes",5/25/2021,,260775,,"16709 CASA ANNA DR",PFLUGERVILLE,TX,78660,,,CONTRACTOR,,,,,,,,,,,"DR HORTON",,,,,"DR HORTON","10700 PECAN PARK BLVD STE 400",AUSTIN,TX,78750-1227,"(512) 345-4663",,,,
TX,TRAVIS,21-34312,"Single Family Homes",5/25/2021,,282900,,"17700 GILBERTO DR",PFLUGERVILLE,TX,78660,SORENTO,,CONTRACTOR,,,,,,,,,,,"DR HORTON",,,,,"DR HORTON","10700 PECAN PARK BLVD STE 400",AUSTIN,TX,78750-1227,"(512) 345-4663",,,,
TX,TRAVIS,21-34299,"Single Family Homes",5/25/2021,,198900,,"16800 PONTE COVE",PFLUGERVILLE,TX,78660,,,CONTRACTOR,,,,,,,,,,,"DR HORTON",,,,,"DR HORTON","10700 PECAN PARK BLVD STE 400",AUSTIN,TX,78750-1227,"(512) 345-4663",,,,
TX,TRAVIS,21-34300,"Single Family Homes",5/25/2021,,202650,,"17704 AVALAR AVE",PFLUGERVILLE,TX,78660,,,CONTRACTOR,,,,,,,,,,,"DR HORTON",,,,,"DR HORTON","10700 PECAN PARK BLVD STE 400",AUSTIN,TX,78750-1227,"(512) 345-4663",,,,
TX,TRAVIS,21-34302,"Single Family Homes",5/25/2021,,177150,,"16816 PONTE COVE",PFLUGERVILLE,TX,78660,,,CONTRACTOR,,,,,,,,,,,"DR HORTON",,,,,"DR HORTON","10700 PECAN PARK BLVD STE 400",AUSTIN,TX,78750-1227,"(512) 345-4663",,,,
TX,TRAVIS,21-34303,"Single Family Homes",5/25/2021,,193650,,"16812 PONTE COVE",AUSTIN,TX,78660,SORENTO,,CONTRACTOR,,,,,,,,,,,"DR HORTON",,,,,"DR HORTON","10700 PECAN PARK BLVD STE 400",AUSTIN,TX,78750-1227,"(512) 345-4663",,,,
TX,TRAVIS,21-34304,"Single Family Homes",5/25/2021,,201075,,"16808 PONTE COVE",PFLUGERVILLE,TX,78660,SORENTO,,CONTRACTOR,,,,,,,,,,,"DR HORTON",,,,,"DR HORTON","10700 PECAN PARK BLVD STE 400",AUSTIN,TX,78750-1227,"(512) 345-4663",,,,
TX,TRAVIS,21-34306,"Single Family Homes",5/25/2021,,285375,,"16813 CASA ANNA DR",PFLUGERVILLE,TX,78660,,,CONTRACTOR,,,,,,,,,,,"DR HORTON",,,,,"DR HORTON","10700 PECAN PARK BLVD STE 400",AUSTIN,TX,78750-1227,"(512) 345-4663",,,,
TX,TRAVIS,21-34307,"Single Family Homes",5/25/2021,,263175,,"16801 CASA ANNA DR",PFLUGERVILLE,TX,78660,,,CONTRACTOR,,,,,,,,,,,"DR HORTON",,,,,"DR HORTON","10700 PECAN PARK BLVD STE 400",AUSTIN,TX,78750-1227,"(512) 345-4663",,,,
TX,TRAVIS,21-34308,"Single Family Homes",5/25/2021,,261150,,"16809 CASA ANNA DR",PFLUGERVILLE,TX,78660,SORENTO,,CONTRACTOR,,,,,,,,,,,"DR HORTON",,,,,"DR HORTON","10700 PECAN PARK BLVD STE 400",AUSTIN,TX,78750-1227,"(512) 345-4663",,,,
TX,TRAVIS,21-34296,"Single Family Homes",5/25/2021,,248700,,"16821 PONTE COVE",PFLUGERVILLE,TX,78660,,,CONTRACTOR,,,,,,,,,,,"DR HORTON",,,,,"DR HORTON","10700 PECAN PARK BLVD STE 400",AUSTIN,TX,78750-1227,"(512) 345-4663",,,,
TX,TRAVIS,21-34298,"Single Family Homes",5/25/2021,,248925,,"17620 AVALAR AVE",PFLUGERVILLE,TX,78660,,,CONTRACTOR,,,,,,,,,,,"DR HORTON",,,,,"DR HORTON","10700 PECAN PARK BLVD STE 400",AUSTIN,TX,78750-1227,"(512) 345-4663",,,,
TX,TRAVIS,21-34393,"Single Family Homes",5/25/2021,,200250,,"16813 PONTE COVE",PFLUGERVILLE,TX,78660,SORENTO,,CONTRACTOR,,,,,,,,,,,"DR HORTON",,,,,"DR HORTON","10700 PECAN PARK BLVD STE 400",AUSTIN,TX,78750-1227,"(512) 345-4663",,,,
TX,TRAVIS,21-34394,"Single Family Homes",5/25/2021,,202650,,"16817 PONTE COVE",PFLUGERVILLE,TX,78660,SORENTO,,CONTRACTOR,,,,,,,,,,,"DR HORTON",,,,,"DR HORTON","10700 PECAN PARK BLVD STE 400",AUSTIN,TX,78750-1227,"(512) 345-4663",,,,
TX,TRAVIS,21-34290,"Single Family Homes",5/25/2021,,312299.4,,"4312 TREY EDSEL DR",PFLUGERVILLE,TX,78660,"PARK AT BLACKHAWK",,CONTRACTOR,,,,,,,,,,,"MHI MCGUYER HOMEBUILDERS",,,,,"MHI MCGUYER HOMEBUILDERS","8200 N MO PAC EXPY STE 300",AUSTIN,TX,78759-8844,"(512) 502-2050",,"(512) 388-1836","FRANK MCGUYER",
TX,TRAVIS,21-34291,"Single Family Homes",5/25/2021,,332754,,"4308 TREY EDSEL DR",PFLUGERVILLE,TX,78660,"PARK AT BLACKHAWK",,CONTRACTOR,,,,,,,,,,,"MHI MCGUYER HOMEBUILDERS",,,,,"MHI MCGUYER HOMEBUILDERS","8200 N MO PAC EXPY STE 300",AUSTIN,TX,78759-8844,"(512) 502-2050",,"(512) 388-1836","FRANK MCGUYER",
TX,TRAVIS,21-34136,"Single Family Homes",5/24/2021,,264615,,"4328 TREY EDSEL DR",PFLUGERVILLE,TX,78660,"PARK AT BLACKHAWK",,CONTRACTOR,,,,,,,,,,,"MHI MCGUYER HOMEBUILDERS",,,,,"MHI MCGUYER HOMEBUILDERS","8200 N MO PAC EXPY STE 300",AUSTIN,TX,78759-8844,"(512) 502-2050",,"(512) 388-1836","FRANK MCGUYER",
TX,TRAVIS,21-34159,"Single Family Homes",5/24/2021,,329703.6,,"20104 CRESTED CARACARA LN",PFLUGERVILLE,TX,78660,"PARK AT BLACKHAWK",,CONTRACTOR,,,,,,,,,,,"MHI MCGUYER HOMEBUILDERS",,,,,"MHI MCGUYER HOMEBUILDERS","8200 N MO PAC EXPY STE 300",AUSTIN,TX,78759-8844,"(512) 502-2050",,"(512) 388-1836","FRANK MCGUYER",
TX,TRAVIS,21-34158,"Single Family Homes",5/24/2021,,399771,,"19801 EIRE DR",PFLUGERVILLE,TX,78660,"LAKESIDE AT BLACKHAWK",,CONTRACTOR,,,,,,,,,,,"MHI MCGUYER HOMEBUILDERS",,,,,"MHI MCGUYER HOMEBUILDERS","8200 N MO PAC EXPY STE 300",AUSTIN,TX,78759-8844,"(512) 502-2050",,"(512) 388-1836","FRANK MCGUYER",
TX,TRAVIS,21-34236,"Single Family Homes",5/25/2021,,293120.4,,"4437 SHADY HILL LN",PFLUGERVILLE,TX,78660,,,CONTRACTOR,,,,,,,,,,,"MHI MCGUYER HOMEBUILDERS",,,,,"MHI MCGUYER HOMEBUILDERS","8200 N MO PAC EXPY STE 300",AUSTIN,TX,78759-8844,"(512) 502-2050",,"(512) 388-1836","FRANK MCGUYER",
TX,TRAVIS,21-34186,"Single Family Homes",5/24/2021,,301377.6,,"20808 CARRIES RANCH RD",PFLUGERVILLE,TX,78660,,,CONTRACTOR,,,,,,,,,,,"MHI MCGUYER HOMEBUILDERS",,,,,"MHI MCGUYER HOMEBUILDERS","8200 N MO PAC EXPY STE 300",AUSTIN,TX,78759-8844,"(512) 502-2050",,"(512) 388-1836","FRANK MCGUYER",
TX,TRAVIS,21-34151,"Single Family Homes",5/21/2021,,200000,,"7701 ALOUETTE DR",AUSTIN,TX,78738,PROVENCE,,CONTRACTOR,,,,,,,,,,,"ASHTON WOODS HOMES",,,,,"ASHTON WOODS HOMES","4201 W PARMER LN STE A150",AUSTIN,TX,78727-4118,"(512) 610-7000",,,,
TX,TRAVIS,21-34152,"Single Family Homes",5/24/2021,,200000,,"7641 ALOUETTE DR",AUSTIN,TX,78738,,,CONTRACTOR,,,,,,,,,,,"ASHTON WOODS HOMES",,,,,"ASHTON WOODS HOMES","4201 W PARMER LN STE A150",AUSTIN,TX,78727-4118,"(512) 610-7000",,,,
TX,TRAVIS,21-34157,"Single Family Homes",5/24/2021,,545990,,"22120 COYOTE CAVE TR",SPICEWOOD,TX,78669,"WEST CYPRESS HILLS",,CONTRACTOR,,,,,,,,,,,"PULTE HOMES",,,,,"PULTE HOMES","9401 AMBERGLEN BLVD STE I-150",AUSTIN,TX,78729-1154,"(512) 561-4344",,,,
TX,TRAVIS,21-34323,"Single Family Homes",5/25/2021,,523990,,"22204 COYOTE CAVE TR",SPICEWOOD,TX,78669,,,CONTRACTOR,,,,,,,,,,,"PULTE HOMES",,,,,"PULTE HOMES","9401 AMBERGLEN BLVD STE I-150",AUSTIN,TX,78729-1154,"(512) 561-4344",,,,
TX,TRAVIS,21-34324,"Single Family Homes",5/25/2021,,526990,,"22112 COYOTE CAVE TR",SPICEWOOD,TX,78669,,,CONTRACTOR,,,,,,,,,,,"PULTE HOMES",,,,,"PULTE HOMES","9401 AMBERGLEN BLVD STE I-150",AUSTIN,TX,78729-1154,"(512) 561-4344",,,,
TX,TRAVIS,21-34313,"Single Family Homes",5/19/2021,,545990,,"22113 COYOTE CAVE TRAIL","DRIPPING SPRINGS",TX,78669,"WEST CYPRESS HILLS",,CONTRACTOR,,,,,,,,,,,"PULTE HOMES",,,,,"PULTE HOMES","9401 AMBERGLEN BLVD STE I-150",AUSTIN,TX,78729-1154,"(512) 561-4344",,,,
TX,TRAVIS,21-34341,"Single Family Homes",5/25/2021,,503990,,"22105 COYOTE CAVE TR",SPICEWOOD,TX,78669,"WEST CYPRESS HILLS",,CONTRACTOR,,,,,,,,,,,"PULTE HOMES",,,,,"PULTE HOMES","9401 AMBERGLEN BLVD STE I-150",AUSTIN,TX,78729-1154,"(512) 561-4344",,,,
TX,TRAVIS,21-34342,"Single Family Homes",5/24/2021,,555990,,"22020 COYOTE CAVE TR",SPICEWOOD,TX,78669,"WEST CYPRESS HILLS ",,CONTRACTOR,,,,,,,,,,,"PULTE HOMES",,,,,"PULTE HOMES","9401 AMBERGLEN BLVD STE I-150",AUSTIN,TX,78729-1154,"(512) 561-4344",,,,
TX,TRAVIS,21-34346,"Single Family Homes",5/25/2021,,224730,,"20000 TALON GRASP TR",PFLUGERVILLE,TX,78660,"PARK AT BLACKHAWK",,CONTRACTOR,,,,,,,,,,,"SCOTT FELDER HOMES",,,,,"SCOTT FELDER HOMES","6414 RIVER PLACE BLVD STE 100",AUSTIN,TX,78730-1158,"(512) 418-5400",,,,
TX,TRAVIS,21-34343,"Single Family Homes",5/25/2021,,186065,,"20201 CRESTED CARACARA LN",PFLUGERVILLE,TX,78660,"PARK AT BLACKHAWK",,CONTRACTOR,,,,,,,,,,,"SCOTT FELDER HOMES",,,,,"SCOTT FELDER HOMES","6414 RIVER PLACE BLVD STE 100",AUSTIN,TX,78730-1158,"(512) 418-5400",,,,
TX,TRAVIS,21-34344,"Single Family Homes",5/25/2021,,172590,,"20016 TALON GRASP TR",PFLUGERVILLE,TX,78660,"PARK AT BLACKHAWK",,CONTRACTOR,,,,,,,,,,,"SCOTT FELDER HOMES",,,,,"SCOTT FELDER HOMES","6414 RIVER PLACE BLVD STE 100",AUSTIN,TX,78730-1158,"(512) 418-5400",,,,
TX,TRAVIS,21-34334,"Single Family Homes",5/25/2021,,400000,,"9113 SPIRE VIEW",AUSTIN,TX,78744,,,CONTRACTOR,,,,,,,,,,,"PERRY HOMES",,,,,"PERRY HOMES","6112 LLANO ST",AUSTIN,TX,78702,"(512) 810-8050",,,,
TX,TRAVIS,21-34336,"Single Family Homes",5/25/2021,,400000,,"8313 HUBBLE WALK",AUSTIN,TX,78744,,,CONTRACTOR,,,,,,,,,,,"PERRY HOMES",,,,,"PERRY HOMES","6112 LLANO ST",AUSTIN,TX,78702,"(512) 810-8050",,,,
TX,TRAVIS,21-34335,"Single Family Homes",5/25/2021,,400000,,"8200 HUBBLE WALK",AUSTIN,TX,78744,,,CONTRACTOR,,,,,,,,,,,"PERRY HOMES",,,,,"PERRY HOMES","6112 LLANO ST",AUSTIN,TX,78702,"(512) 810-8050",,,,
TX,TRAVIS,21-34285,"Single Family Homes",5/24/2021,,300000,,"18317 HEWETSON COVE",AUSTIN,TX,78738,"SWEETWATER RANCH",,CONTRACTOR,,,,,,,,,,,"PERRY HOMES",,,,,"PERRY HOMES","6112 LLANO ST",AUSTIN,TX,78702,"(512) 810-8050",,,,
TX,TRAVIS,21-34202,"Single Family Homes",5/24/2021,,300000,,"6217 HEWETSON DR",AUSTIN,TX,78738,"SWEETWATER RANCH",,CONTRACTOR,,,,,,,,,,,"PERRY HOMES",,,,,"PERRY HOMES","6112 LLANO ST",AUSTIN,TX,78702,"(512) 810-8050",,,,
TX,TRAVIS,21-34142,"Single Family Homes",5/21/2021,,69000,,"704 LAKEWOOD HILLS TERRACE",AUSTIN,TX,78732,,,CONTRACTOR,,,,,,,,,,,"PERMITS PLUS",,,,,"PERMITS PLUS","1107 E 52ND ST",ODESSA,TX,79762-4352,"(432) 550-4303",http://www.permitsplus-houston.com/,,,
TX,TRAVIS,21-34228,"Single Family Homes",5/24/2021,,123955,,"13802 MUSSEL RUN",ELGIN,TX,78621,"ELM CREEK",,CONTRACTOR,,,,,,,,,,,"LENNAR HOMES",,,,,"LENNAR HOMES","13620 FM 620 RD 150",AUSTIN,TX,78717,"(512) 506-4000",http://www.lennar.com/,,,
TX,TRAVIS,21-34229,"Single Family Homes",5/24/2021,,63570,,"13808 MUSSEL RUN",ELGIN,TX,78621,"ELM CREEK",,CONTRACTOR,,,,,,,,,,,"LENNAR HOMES",,,,,"LENNAR HOMES","13620 FM 620 RD 150",AUSTIN,TX,78717,"(512) 506-4000",http://www.lennar.com/,,,
TX,TRAVIS,21-34130,"Single Family Homes",5/24/2021,,118500,,"7200 DANCING WIND",AUSTIN,TX,78617,"STONEY RIDGE",,CONTRACTOR,,,,,,,,,,,"LENNAR HOMES",,,,,"LENNAR HOMES","13620 FM 620 RD 150",AUSTIN,TX,78717,"(512) 506-4000",http://www.lennar.com/,,,
TX,TRAVIS,21-34132,"Single Family Homes",5/24/2021,,101325,,"7129 DANCING WIND",AUSTIN,TX,78617,"STONEY RIDGE",,CONTRACTOR,,,,,,,,,,,"LENNAR HOMES",,,,,"LENNAR HOMES","13620 FM 620 RD 150",AUSTIN,TX,78717,"(512) 506-4000",http://www.lennar.com/,,,
TX,TRAVIS,21-34258,"Single Family Homes",5/25/2021,,96950,,"13800 MUSSEL RUN",ELGIN,TX,78621,"ELM CREEK",,CONTRACTOR,,,,,,,,,,,"LENNAR HOMES",,,,,"LENNAR HOMES","13620 FM 620 RD 150",AUSTIN,TX,78717,"(512) 506-4000",http://www.lennar.com/,,,
TX,TRAVIS,21-34317,"Single Family Homes",5/24/2021,,136875,,"12200 MORIAH BEND",AUSTIN,TX,78732,"STEINER RANCH",,CONTRACTOR,,,,,,,,,,,"LENNAR HOMES",,,,,"LENNAR HOMES","13620 FM 620 RD 150",AUSTIN,TX,78717,"(512) 506-4000",http://www.lennar.com/,,,
TX,TRAVIS,21-34255,"Single Family Homes",5/25/2021,,96950,,"13810 MUSSEL RUN",ELGIN,TX,78621,"ELM CREEK",,CONTRACTOR,,,,,,,,,,,"LENNAR HOMES",,,,,"LENNAR HOMES","13620 FM 620 RD 150",AUSTIN,TX,78717,"(512) 506-4000",http://www.lennar.com/,,,
TX,TRAVIS,21-34257,"Single Family Homes",5/25/2021,,96950,,"13905 MUSSEL RUN",ELGIN,TX,78621,"ELM CREEK",,CONTRACTOR,,,,,,,,,,,"LENNAR HOMES",,,,,"LENNAR HOMES","13620 FM 620 RD 150",AUSTIN,TX,78717,"(512) 506-4000",http://www.lennar.com/,,,
TX,TRAVIS,21-34391,"Single Family Homes",5/25/2021,,101325,,"7108 SPOTTED LEAF WAY","DEL VALLE",TX,78617,,,CONTRACTOR,,,,,,,,,,,"LENNAR HOMES",,,,,"LENNAR HOMES","13620 FM 620 RD 150",AUSTIN,TX,78717,"(512) 506-4000",http://www.lennar.com/,,,
TX,TRAVIS,21-34121,"Single Family Homes",5/20/2021,,226000,,"7609 FRIDA BEND",AUSTIN,TX,78744,,,CONTRACTOR,,,,,,,,,,,"BROOKFIELD RESIDENTIAL PROPERTIES",,,,,"BROOKFIELD RESIDENTIAL PROPERTIES","11501 ALTERRA PKWY STE 100",AUSTIN,TX,78758-3201,"(512) 391-1330",,,,
TX,TRAVIS,21-34125,"Single Family Homes",5/20/2021,,201000,,"7903 LENNON DR",AUSTIN,TX,78744,"EASTON PARK",,CONTRACTOR,,,,,,,,,,,"BROOKFIELD RESIDENTIAL PROPERTIES",,,,,"BROOKFIELD RESIDENTIAL PROPERTIES","11501 ALTERRA PKWY STE 100",AUSTIN,TX,78758-3201,"(512) 391-1330",,,,
TX,TRAVIS,21-34126,"Single Family Homes",5/20/2021,,226000,,"7905 LENNON DR",AUSTIN,TX,78744,"EASTON PARK",,CONTRACTOR,,,,,,,,,,,"BROOKFIELD RESIDENTIAL PROPERTIES",,,,,"BROOKFIELD RESIDENTIAL PROPERTIES","11501 ALTERRA PKWY STE 100",AUSTIN,TX,78758-3201,"(512) 391-1330",,,,
TX,TRAVIS,21-34128,"Single Family Homes",5/20/2021,,239000,,"7909 LENNON DR",AUSTIN,TX,78744,,,CONTRACTOR,,,,,,,,,,,"BROOKFIELD RESIDENTIAL PROPERTIES",,,,,"BROOKFIELD RESIDENTIAL PROPERTIES","11501 ALTERRA PKWY STE 100",AUSTIN,TX,78758-3201,"(512) 391-1330",,,,
TX,TRAVIS,21-34143,"Single Family Homes",5/21/2021,,705000,,"1928 ART ADAMS WAY",SPICEWOOD,TX,78669,"LAKE TRAVIS",,CONTRACTOR,,,,,,,,,,,"NEIMAN-FOSTER HOMES & CONSTRUCTION",,,,,"NEIMAN-FOSTER HOMES & CONSTRUCTION","100 FERGUSON RD","HORSESHOE BAY",TX,78657,"(830) 637-7158",,,,
TX,TRAVIS,21-34175,"Single Family Homes",5/21/2021,,715000,,"1924 ART ADAMS WAY",SPICEWOOD,TX,78669,"LAKE TRAVIS",,CONTRACTOR,,,,,,,,,,,"NEIMAN-FOSTER HOMES & CONSTRUCTION",,,,,"NEIMAN-FOSTER HOMES & CONSTRUCTION","100 FERGUSON RD","HORSESHOE BAY",TX,78657,"(830) 637-7158",,,,
TX,TRAVIS,21-34455,"Single Family Homes",5/25/2021,,458000,,"2405 SKYWALK LN",SPICEWOOD,TX,78669,,,CONTRACTOR,,,,,,,,,,,"DREES CUSTOM HOMES",,,,,"DREES CUSTOM HOMES","7300 RANCH ROAD 2222 BLDG 2 STE 250",AUSTIN,TX,78730-3204,"(512) 241-7100",http://www.dreeshomes.com,,,
TX,TRAVIS,21-34467,"Single Family Homes",5/25/2021,,434000,,"6825 DAVENPORT DIVIDE",AUSTIN,TX,78738,"SWEETWATER RANCH",,CONTRACTOR,,,,,,,,,,,"DREES CUSTOM HOMES",,,,,"DREES CUSTOM HOMES","7300 RANCH ROAD 2222 BLDG 2 STE 250",AUSTIN,TX,78730-3204,"(512) 241-7100",http://www.dreeshomes.com,,,
TX,TRAVIS,2021-2152,"Single Family Homes",5/13/2021,,564000,4172,"6721 ADVENTURES PLACE",JONESTOWN,TX,78645,,,CONTRACTOR,,,,,,,,,,,"DREES CUSTOM HOMES",,,,,"DREES CUSTOM HOMES","7300 RANCH ROAD 2222 BLDG 2 STE 250",AUSTIN,TX,78730-3204,"(512) 241-7100",http://www.dreeshomes.com,,,
TX,TRAVIS,2021-2154,"Single Family Homes",5/11/2021,,371000,4673,"19308 SPLENDOR COURT",JONESTOWN,TX,78645,,,CONTRACTOR,,,,,,,,,,,"DREES CUSTOM HOMES",,,,,"DREES CUSTOM HOMES","7300 RANCH ROAD 2222 BLDG 2 STE 250",AUSTIN,TX,78730-3204,"(512) 241-7100",http://www.dreeshomes.com,,,
TX,TRAVIS,2021-2043,"Single Family Homes",5/26/2021,,356000,3736,"6800 SUNSET RIDGE WAY",JONESTOWN,TX,78645,,,CONTRACTOR,,,,,,,,,,,"DREES CUSTOM HOMES",,,,,"DREES CUSTOM HOMES","7300 RANCH ROAD 2222 BLDG 2 STE 250",AUSTIN,TX,78730-3204,"(512) 241-7100",http://www.dreeshomes.com,,,
TX,TRAVIS,"2021-080991 BP","Single Family Homes",6/9/2021,,375000,3186,"8300 PETRONAS PASS",AUSTIN,TX,78744,"EASTON PARK",24,CONTRACTOR,,,,,,,,,,,"DAVID WEEKLEY HOMES",,,,,"DAVID WEEKLEY HOMES","9000 WATERFORD CENTRE BLVD",AUSTIN,TX,78758-7662,"(800) 390-6774",http://www.davidweekleyhomes.com/,,,
TX,TRAVIS,21-34442,"Single Family Homes",5/25/2021,,212520,,"7509 GRAND LINDEN WAY",AUSTIN,TX,78744,"EASTON PARK",3,CONTRACTOR,,,,,,,,,,,"MERITAGE HOMES",,,,,"MERITAGE HOMES","8920 BUSINESS PARK DR STE 250",AUSTIN,TX,78759-7622,"(512) 610-4800",,,,
TX,TRAVIS,2021-2163,"Single Family Homes",5/7/2021,,972800,8020,"7716 CALCUTTA RUN",JONESTOWN,TX,78645,,,CONTRACTOR,,,,,,,,,,,"SILVERTON CUSTOM HOMES",,,,,"SILVERTON CUSTOM HOMES","18592 FM 1431",JONESTOWN,TX,78645-3253,"(512) 267-3777",http://www.silvertoncustomhomes.com/,,,
TX,TRAVIS,21-34478,"Single Family Homes",5/25/2021,,1121500,,"18304 CEDAR SAGE CT",LEANDER,TX,78645,"WATERFORD ON LAKE",,CONTRACTOR,,,,,,,,,,,"SILVERTON CUSTOM HOMES",,,,,"SILVERTON CUSTOM HOMES","18592 FM 1431",JONESTOWN,TX,78645-3253,"(512) 267-3777",http://www.silvertoncustomhomes.com/,,,
TX,TRAVIS,21-34495,"Single Family Homes",5/25/2021,,201510,,"13620 ABIGAIL ADAMS ST",MANOR,TX,78653,"PRESIDENTIAL MEADOWS",,CONTRACTOR,,,,,,,,,,,"KB HOME",,,,,"KB HOME","10800 PECAN PARK BLVD STE 200",AUSTIN,TX,78750-1249,"(512) 651-8100",,,,
TX,TRAVIS,21-34499,"Single Family Homes",5/25/2021,,225180,,"13913 ABRAHAM LINCOLN ST",MANOR,TX,78653,"PRESIDENTIAL MEADOWS",,CONTRACTOR,,,,,,,,,,,"KB HOME",,,,,"KB HOME","10800 PECAN PARK BLVD STE 200",AUSTIN,TX,78750-1249,"(512) 651-8100",,,,
TX,TRAVIS,21-34448,"Single Family Homes",5/25/2021,,216990,,"14104 JAMES BUCHANAN",MANOR,TX,78653,,,CONTRACTOR,,,,,,,,,,,"KB HOME",,,,,"KB HOME","10800 PECAN PARK BLVD STE 200",AUSTIN,TX,78750-1249,"(512) 651-8100",,,,
TX,TRAVIS,21-34456,"Single Family Homes",5/25/2021,,216990,,"14304 JAMES BUCHANAN",MANOR,TX,78653,"PRESIDENTIAL MEADOWS",,CONTRACTOR,,,,,,,,,,,"KB HOME",,,,,"KB HOME","10800 PECAN PARK BLVD STE 200",AUSTIN,TX,78750-1249,"(512) 651-8100",,,,
TX,TRAVIS,21-34377,"Single Family Homes",5/25/2021,,216990,,"13612 MARTHA WASHINGTON",MANOR,TX,78653,"PRESIDENTIAL MEADOWS",,CONTRACTOR,,,,,,,,,,,"KB HOME",,,,,"KB HOME","10800 PECAN PARK BLVD STE 200",AUSTIN,TX,78750-1249,"(512) 651-8100",,,,
TX,TRAVIS,21-34383,"Single Family Homes",5/25/2021,,150750,,"13809 ELEANOR ROOSEVELT",MANOR,TX,78653,"PRESIDENTIAL MEADOWS",,CONTRACTOR,,,,,,,,,,,"KB HOME",,,,,"KB HOME","10800 PECAN PARK BLVD STE 200",AUSTIN,TX,78750-1249,"(512) 651-8100",,,,
TX,TRAVIS,21-34427,"Single Family Homes",5/25/2021,,475000,,"16929 MORELLE DR",AUSTIN,TX,78738,,,CONTRACTOR,,,,,,,,,,,"NEWMARK HOMES",,,,,"NEWMARK HOMES","10455 BRIAR FOREST SUITE 200",HOUSTON,TX,77042,"(713) 346-0200",,"(713) 346-0226",,
TX,TRAVIS,"2021-089594 BP","Single Family Homes",6/14/2021,,264000,2634,"9101 LOOKSEE LN",AUSTIN,TX,78747,"MIRABEL PARK",15,CONTRACTOR,,,,,,,,,,,"PACESETTER HOMES ",,,,,"PACESETTER HOMES ","7940 SHOAL CREEK BLVD STE 200",AUSTIN,TX,78757-7587,"(512) 323-5252",,,,
TX,TRAVIS,"2021-089593 BP","Single Family Homes",6/14/2021,,264000,3081,"9215 LOOKSEE LN",AUSTIN,TX,78747,"MIRABEL PARK",22,CONTRACTOR,,,,,,,,,,,"PACESETTER HOMES ",,,,,"PACESETTER HOMES ","7940 SHOAL CREEK BLVD STE 200",AUSTIN,TX,78757-7587,"(512) 323-5252",,,,
TX,TRAVIS,"2021-090171 BP","Single Family Homes",6/14/2021,,264000,2588,"8907 LOOKSEE LN",AUSTIN,TX,78747,"MIRABEL PARK",7,CONTRACTOR,,,,,,,,,,,"PACESETTER HOMES ",,,,,"PACESETTER HOMES ","7940 SHOAL CREEK BLVD STE 200",AUSTIN,TX,78757-7587,"(512) 323-5252",,,,
TX,TRAVIS,"2021-090189 BP","Single Family Homes",6/14/2021,,264000,2602,"9115 LOOKSEE LN",AUSTIN,TX,78747,"MIRABEL PARK",18,CONTRACTOR,,,,,,,,,,,"PACESETTER HOMES ",,,,,"PACESETTER HOMES ","7940 SHOAL CREEK BLVD STE 200",AUSTIN,TX,78757-7587,"(512) 323-5252",,,,
TX,TRAVIS,"2021-090396 BP","Single Family Homes",6/14/2021,,264000,3180,"9200 APOGEE BLVD",AUSTIN,TX,78744,"MIRABEL PARK",27,CONTRACTOR,,,,,,,,,,,"PACESETTER HOMES ",,,,,"PACESETTER HOMES ","7940 SHOAL CREEK BLVD STE 200",AUSTIN,TX,78757-7587,"(512) 323-5252",,,,
TX,TRAVIS,"2021-090442 BP","Single Family Homes",6/14/2021,,279400,2608,"10717 HARWOOD OVERLOOK PASS",AUSTIN,TX,78747,,,CONTRACTOR,,,,,,,,,,,"PACESETTER HOMES ",,,,,"PACESETTER HOMES ","7940 SHOAL CREEK BLVD STE 200",AUSTIN,TX,78757-7587,"(512) 323-5252",,,,
TX,TRAVIS,"2021-090413 BP","Single Family Homes",6/14/2021,,279400,2607,"10817 TIMBER BROOK PASS",AUSTIN,TX,78747,,,CONTRACTOR,,,,,,,,,,,"PACESETTER HOMES ",,,,,"PACESETTER HOMES ","7940 SHOAL CREEK BLVD STE 200",AUSTIN,TX,78757-7587,"(512) 323-5252",,,,
TX,TRAVIS,"2021-090405 BP","Single Family Homes",6/14/2021,,279400,2794,"10701 HARWOOD OVERLOOK PASS",AUSTIN,TX,78747,,,CONTRACTOR,,,,,,,,,,,"PACESETTER HOMES ",,,,,"PACESETTER HOMES ","7940 SHOAL CREEK BLVD STE 200",AUSTIN,TX,78757-7587,"(512) 323-5252",,,,
TX,TRAVIS,"2021-090391 BP","Single Family Homes",6/14/2021,,300600,3883,"9408 APOGEE BLVD",AUSTIN,TX,78744,"MIRABEL PARK",12,CONTRACTOR,,,,,,,,,,,"PACESETTER HOMES ",,,,,"PACESETTER HOMES ","7940 SHOAL CREEK BLVD STE 200",AUSTIN,TX,78757-7587,"(512) 323-5252",,,,
TX,TRAVIS,21-34502,"Single Family Homes",5/25/2021,,150675,,"17000 ADORO DR",MANOR,TX,78653,"WHISPER VALLEY",,CONTRACTOR,,,,,,,,,,,"PACESETTER HOMES ",,,,,"PACESETTER HOMES ","7940 SHOAL CREEK BLVD STE 200",AUSTIN,TX,78757-7587,"(512) 323-5252",,,,
TX,TRAVIS,21-34508,"Single Family Homes",5/25/2021,,165600,,"9701 GRAPEVINE LEAF DR",MANOR,TX,78653,"WHISPER VALLEY",,CONTRACTOR,,,,,,,,,,,"PACESETTER HOMES ",,,,,"PACESETTER HOMES ","7940 SHOAL CREEK BLVD STE 200",AUSTIN,TX,78757-7587,"(512) 323-5252",,,,
TX,TRAVIS,21-34518,"Single Family Homes",5/25/2021,,91200,,"9612 MORNING IRIS",MANOR,TX,78653,"WHISPER VALLEY",,CONTRACTOR,,,,,,,,,,,"PACESETTER HOMES ",,,,,"PACESETTER HOMES ","7940 SHOAL CREEK BLVD STE 200",AUSTIN,TX,78757-7587,"(512) 323-5252",,,,
TX,TRAVIS,21-34500,"Single Family Homes",5/25/2021,,150675,,"16920 ADORO DR",MANOR,TX,78653,"WHISPER VALLEY VILLAGE",,CONTRACTOR,,,,,,,,,,,"PACESETTER HOMES ",,,,,"PACESETTER HOMES ","7940 SHOAL CREEK BLVD STE 200",AUSTIN,TX,78757-7587,"(512) 323-5252",,,,
TX,TRAVIS,21-34543,"Single Family Homes",5/25/2021,,239850,,"17612 AVALAR AVE",PFLUGERVILLE,TX,78660,,,CONTRACTOR,,,,,,,,,,,"DR HORTON",,,,,"DR HORTON","10700 PECAN PARK BLVD STE 400",AUSTIN,TX,78750-1227,"(512) 345-4663",,,,
TX,TRAVIS,21-34540,"Single Family Homes",5/25/2021,,248700,,"17601 AVALAR AVE",PFLUGERVILLE,TX,78660,SORENTO,,CONTRACTOR,,,,,,,,,,,"DR HORTON",,,,,"DR HORTON","10700 PECAN PARK BLVD STE 400",AUSTIN,TX,78750-1227,"(512) 345-4663",,,,
TX,TRAVIS,21-34541,"Single Family Homes",5/25/2021,,201075,,"17605 AVALAR AVE",PFLUGERVILLE,TX,78660,SORENTO,,CONTRACTOR,,,,,,,,,,,"DR HORTON",,,,,"DR HORTON","10700 PECAN PARK BLVD STE 400",AUSTIN,TX,78750-1227,"(512) 345-4663",,,,
TX,TRAVIS,21-34542,"Single Family Homes",5/25/2021,,194250,,"17609 AVALAR AVE",PFLUGERVILLE,TX,78660,SORENTO,,CONTRACTOR,,,,,,,,,,,"DR HORTON",,,,,"DR HORTON","10700 PECAN PARK BLVD STE 400",AUSTIN,TX,78750-1227,"(512) 345-4663",,,,
TX,TRAVIS,21-34528,"Single Family Homes",5/25/2021,,158700,,"5908 BERRIWEATHER DR",AUSTIN,TX,78724,"GILBERT LANE",,CONTRACTOR,,,,,,,,,,,"DR HORTON",,,,,"DR HORTON","10700 PECAN PARK BLVD STE 400",AUSTIN,TX,78750-1227,"(512) 345-4663",,,,
TX,TRAVIS,21-34529,"Single Family Homes",5/25/2021,,147600,,"5904 BERRIWEATHER DR",AUSTIN,TX,78724,"GILBERT LANE",,CONTRACTOR,,,,,,,,,,,"DR HORTON",,,,,"DR HORTON","10700 PECAN PARK BLVD STE 400",AUSTIN,TX,78750-1227,"(512) 345-4663",,,,
TX,TRAVIS,21-34530,"Single Family Homes",5/25/2021,,183675,,"5900 BERRIWEATHER DR",AUSTIN,TX,78724,"GILBERT LANE",,CONTRACTOR,,,,,,,,,,,"DR HORTON",,,,,"DR HORTON","10700 PECAN PARK BLVD STE 400",AUSTIN,TX,78750-1227,"(512) 345-4663",,,,
TX,TRAVIS,21-34531,"Single Family Homes",5/25/2021,,248325,,"5916 BERRIWEATHER DR",AUSTIN,TX,78724,"GILBERT LANE",,CONTRACTOR,,,,,,,,,,,"DR HORTON",,,,,"DR HORTON","10700 PECAN PARK BLVD STE 400",AUSTIN,TX,78750-1227,"(512) 345-4663",,,,
TX,TRAVIS,21-34395,"Single Family Homes",5/25/2021,,282900,,"17148 AVENTURA AVE",PFLUGERVILLE,TX,78660,SORENTO,,CONTRACTOR,,,,,,,,,,,"DR HORTON",,,,,"DR HORTON","10700 PECAN PARK BLVD STE 400",AUSTIN,TX,78750-1227,"(512) 345-4663",,,,
TX,TRAVIS,21-34398,"Single Family Homes",5/25/2021,,267225,,"17200 BASSANO AVE",PFLUGERVILLE,TX,78660,SORENTO,,CONTRACTOR,,,,,,,,,,,"DR HORTON",,,,,"DR HORTON","10700 PECAN PARK BLVD STE 400",AUSTIN,TX,78750-1227,"(512) 345-4663",,,,
TX,TRAVIS,21-34399,"Single Family Homes",5/25/2021,,285300,,"17612 GILBERTO DR",PFLUGERVILLE,TX,78660,,,CONTRACTOR,,,,,,,,,,,"DR HORTON",,,,,"DR HORTON","10700 PECAN PARK BLVD STE 400",AUSTIN,TX,78750-1227,"(512) 345-4663",,,,
TX,TRAVIS,"2021-082194 BP","Single Family Homes",6/9/2021,,223350,2978,"10609 GONZALES RANGER PASS",AUSTIN,TX,78754,,,CONTRACTOR,,,,,,,,,,,"DR HORTON",,,,,"DR HORTON","10700 PECAN PARK BLVD STE 400",AUSTIN,TX,78750-1227,"(512) 345-4663",,,,
TX,TRAVIS,"2021-078764 BP","Single Family Homes",6/9/2021,,179100,2388,"10525 GONZALES RANGER PASS",AUSTIN,TX,78754,,,CONTRACTOR,,,,,,,,,,,"DR HORTON",,,,,"DR HORTON","10700 PECAN PARK BLVD STE 400",AUSTIN,TX,78750-1227,"(512) 345-4663",,,,
TX,TRAVIS,"2021-080323 BP","Single Family Homes",6/9/2021,,179100,2388,"10501 SEGUIN ST",AUSTIN,TX,78754,,,CONTRACTOR,,,,,,,,,,,"DR HORTON",,,,,"DR HORTON","10700 PECAN PARK BLVD STE 400",AUSTIN,TX,78750-1227,"(512) 345-4663",,,,
TX,TRAVIS,"2021-082204 BP","Single Family Homes",6/9/2021,,179250,2390,"10613 GONZALES RANGER PASS",AUSTIN,TX,78754,,,CONTRACTOR,,,,,,,,,,,"DR HORTON",,,,,"DR HORTON","10700 PECAN PARK BLVD STE 400",AUSTIN,TX,78750-1227,"(512) 345-4663",,,,
TX,TRAVIS,"2021-081367 BP","Single Family Homes",6/9/2021,,183525,2447,"10700 GONZALES RANGER PASS",AUSTIN,TX,78754,,,CONTRACTOR,,,,,,,,,,,"DR HORTON",,,,,"DR HORTON","10700 PECAN PARK BLVD STE 400",AUSTIN,TX,78750-1227,"(512) 345-4663",,,,
TX,TRAVIS,"2021-078725 BP","Single Family Homes",6/9/2021,,200400,2672,"10621 GONZALES RANGER PASS",AUSTIN,TX,78754,,,CONTRACTOR,,,,,,,,,,,"DR HORTON",,,,,"DR HORTON","10700 PECAN PARK BLVD STE 400",AUSTIN,TX,78750-1227,"(512) 345-4663",,,,
TX,TRAVIS,21-34025,"Single Family Homes",5/3/2021,,505990,,"6917 EMPRESA DR",AUSTIN,TX,78738,"SWEETWATER RANCH",,CONTRACTOR,,,,,,,,,,,"CHESMAR HOMES",,,,,"CHESMAR HOMES","2900 N QUINLAN PARK RD",AUSTIN,TX,78732-6083,"(512) 233-9016",http://chesmar.com,,,
TX,TRAVIS,2021-2169,"Single Family Homes",5/25/2021,,600000,4214,"8612 RANCHLAND HILLS BLVD",JONESTOWN,TX,78645,,,CONTRACTOR,,,,,,,,,,,"CJR HOMES",,,,,"CJR HOMES","10713 N FM 620 RD",AUSTIN,TX,78726-1756,"(512) 750-9623",http://www.cjrhomesinc.com/,,"Kyle Rhea",kyle@cjrhomesinc.com
TX,TRAVIS,2021-2178,"Single Family Homes",5/4/2021,,570984,4856,"19109 EXCURSION FALLS WAY",JONESTOWN,TX,78645,,,CONTRACTOR,,,,,,,,,,,"MHI MCGUYER HOMEBUILDERS",,,,,"MHI MCGUYER HOMEBUILDERS","8200 N MO PAC EXPY STE 300",AUSTIN,TX,78759-8844,"(512) 502-2050",,"(512) 388-1836","FRANK MCGUYER",
TX,TRAVIS,2021-2181,"Single Family Homes",5/4/2021,,584718,5019,"6621 ROCKY GROTTO CV",JONESTOWN,TX,78645,,,CONTRACTOR,,,,,,,,,,,"MHI MCGUYER HOMEBUILDERS",,,,,"MHI MCGUYER HOMEBUILDERS","8200 N MO PAC EXPY STE 300",AUSTIN,TX,78759-8844,"(512) 502-2050",,"(512) 388-1836","FRANK MCGUYER",
TX,TRAVIS,2021-2182,"Single Family Homes",5/4/2021,,522382,4770,"6613 ROCKY GROTTO CV",JONESTOWN,TX,78645,,,CONTRACTOR,,,,,,,,,,,"MHI MCGUYER HOMEBUILDERS",,,,,"MHI MCGUYER HOMEBUILDERS","8200 N MO PAC EXPY STE 300",AUSTIN,TX,78759-8844,"(512) 502-2050",,"(512) 388-1836","FRANK MCGUYER",
TX,TRAVIS,2021-2183,"Single Family Homes",5/4/2021,,514034,5512,"6609 ROCKY GROTTO CV",JONESTOWN,TX,78645,,,CONTRACTOR,,,,,,,,,,,"MHI MCGUYER HOMEBUILDERS",,,,,"MHI MCGUYER HOMEBUILDERS","8200 N MO PAC EXPY STE 300",AUSTIN,TX,78759-8844,"(512) 502-2050",,"(512) 388-1836","FRANK MCGUYER",
TX,TRAVIS,2021-2195,"Single Family Homes",5/13/2021,,491678,3679,"6716 ADVENTURES PLACE",JONESTOWN,TX,78645,,,CONTRACTOR,,,,,,,,,,,"MHI MCGUYER HOMEBUILDERS",,,,,"MHI MCGUYER HOMEBUILDERS","8200 N MO PAC EXPY STE 300",AUSTIN,TX,78759-8844,"(512) 502-2050",,"(512) 388-1836","FRANK MCGUYER",
TX,TRAVIS,21-34430,"Single Family Homes",5/25/2021,,250819.8,,"4316 TREY EDSEL DR",PFLUGERVILLE,TX,78660,"PARK AT BLACKHAWK",,CONTRACTOR,,,,,,,,,,,"MHI MCGUYER HOMEBUILDERS",,,,,"MHI MCGUYER HOMEBUILDERS","8200 N MO PAC EXPY STE 300",AUSTIN,TX,78759-8844,"(512) 502-2050",,"(512) 388-1836","FRANK MCGUYER",
TX,TRAVIS,21-34466,"Single Family Homes",5/25/2021,,357354,,"19800 HARRIER FLIGHT TRL",PFLUGERVILLE,TX,78660,"PARK AT BLACKHAWK",,CONTRACTOR,,,,,,,,,,,"MHI MCGUYER HOMEBUILDERS",,,,,"MHI MCGUYER HOMEBUILDERS","8200 N MO PAC EXPY STE 300",AUSTIN,TX,78759-8844,"(512) 502-2050",,"(512) 388-1836","FRANK MCGUYER",
TX,TRAVIS,21-34428,"Single Family Homes",5/25/2021,,402839.4,,"3801 SANDHILL CRANE DR",PFLUGERVILLE,TX,78660,,,CONTRACTOR,,,,,,,,,,,"MHI MCGUYER HOMEBUILDERS",,,,,"MHI MCGUYER HOMEBUILDERS","8200 N MO PAC EXPY STE 300",AUSTIN,TX,78759-8844,"(512) 502-2050",,"(512) 388-1836","FRANK MCGUYER",
TX,TRAVIS,"2021-090420 BP","Single Family Homes",6/14/2021,,495990,3163,"6812 ELLSWORTH WALK",AUSTIN,TX,78724,PARKE,26,CONTRACTOR,,,,,,,,,,,"PULTE HOMES",,,,,"PULTE HOMES","9401 AMBERGLEN BLVD STE I-150",AUSTIN,TX,78729-1154,"(512) 561-4344",,,,
TX,TRAVIS,21-34373,"Single Family Homes",5/25/2021,,523990,,"22100 COYOTE CAVE TRAIL",SPICEWOOD,TX,78669,"WEST CYPRESS HILLS",,CONTRACTOR,,,,,,,,,,,"PULTE HOMES",,,,,"PULTE HOMES","9401 AMBERGLEN BLVD STE I-150",AUSTIN,TX,78729-1154,"(512) 561-4344",,,,
TX,TRAVIS,21-34374,"Single Family Homes",5/25/2021,,545990,,"22104 COYOTE CAVE TR",SPICEWOOD,TX,78669,"WEST CYPRESS HILLS",,CONTRACTOR,,,,,,,,,,,"PULTE HOMES",,,,,"PULTE HOMES","9401 AMBERGLEN BLVD STE I-150",AUSTIN,TX,78729-1154,"(512) 561-4344",,,,
TX,TRAVIS,2021-2176,"Single Family Homes",5/14/2021,,400000,2244,"8905 HOBBY LANE",JONESTOWN,TX,78645,,,CONTRACTOR,,,,,,,,,,,"BOBBITT BUILDERS",,,,,"BOBBITT BUILDERS","8700 TIP TOP DR",JONESTOWN,TX,78645-2007,"(512) 773-2685",,,,
TX,TRAVIS,"2021-087991 BP","Single Family Homes",6/14/2021,,500000,4125,"800 W JAMES ST",AUSTIN,TX,78704,"SOUTH HEIGHTS",1,CONTRACTOR,,,,,,,,,,,"GREATER AUSTIN BUILDERS",,,,,"GREATER AUSTIN BUILDERS","6249 SH 29",BERTRAM,TX,78605,"(512) 663-9096",http://greateraustinbuilders.com/,,,
TX,TRAVIS,21-34523,"Single Family Homes",5/25/2021,,180000,,"11328 COMANO DR",AUSTIN,TX,78747,"BELLA FORTUNA",,CONTRACTOR,,,,,,,,,,,"BROHN HOMES",,,,,"BROHN HOMES","6720 VAUGHT RANCH RD STE 200",AUSTIN,TX,78730-2354,"(512) 320-8833",http://brohnhomes.com/,,,
TX,TRAVIS,21-34469,"Single Family Homes",5/25/2021,,180000,,"11320 COMANO DR",AUSTIN,TX,78747,"BELLA FORTUNA",,CONTRACTOR,,,,,,,,,,,"BROHN HOMES",,,,,"BROHN HOMES","6720 VAUGHT RANCH RD STE 200",AUSTIN,TX,78730-2354,"(512) 320-8833",http://brohnhomes.com/,,,
TX,TRAVIS,21-34378,"Single Family Homes",5/25/2021,,180000,,"11505 LAGO DE GARDA DR",AUSTIN,TX,78747,"BELLA FORTUNA",,CONTRACTOR,,,,,,,,,,,"BROHN HOMES",,,,,"BROHN HOMES","6720 VAUGHT RANCH RD STE 200",AUSTIN,TX,78730-2354,"(512) 320-8833",http://brohnhomes.com/,,,
TX,TRAVIS,21-34382,"Single Family Homes",5/25/2021,,300000,,"6809 EMPRESA",AUSTIN,TX,78738,"SWEETWATER RANCH",,CONTRACTOR,,,,,,,,,,,"PERRY HOMES",,,,,"PERRY HOMES","6112 LLANO ST",AUSTIN,TX,78702,"(512) 810-8050",,,,
TX,TRAVIS,"2021-086238 BP","Single Family Homes",6/11/2021,,145650,1942,"7604 IVY TRELIS TRL",AUSTIN,TX,78617,,,CONTRACTOR,,,,,,,,,,,"LENNAR HOMES",,,,,"LENNAR HOMES","13620 FM 620 RD 150",AUSTIN,TX,78717,"(512) 506-4000",http://www.lennar.com/,,,
TX,TRAVIS,"2019-021920 BP","Single Family Homes",6/9/2021,,152250,7409,"10201 BUSTER DR",AUSTIN,TX,78748,MALONE,34,CONTRACTOR,,,,,,,,,,,"LENNAR HOMES",,,,,"LENNAR HOMES","13620 FM 620 RD 150",AUSTIN,TX,78717,"(512) 506-4000",http://www.lennar.com/,,,
TX,TRAVIS,21-34379,"Single Family Homes",5/25/2021,,118800,,"7124 SPOTTED LEAF WAY","DEL VALLE",TX,78617,"STONEY RIDGE",,CONTRACTOR,,,,,,,,,,,"LENNAR HOMES",,,,,"LENNAR HOMES","13620 FM 620 RD 150",AUSTIN,TX,78717,"(512) 506-4000",http://www.lennar.com/,,,
TX,TRAVIS,2021-2188,"Single Family Homes",5/11/2021,,305000,1540,"10938 PANORAMIC VIEW",JONESTOWN,TX,78645,,,CONTRACTOR,,,,,,,,,,,"FLINT ARROW",,,,,"FLINT ARROW","17913 LAFAYETTE PARK RD",JONESTOWN,TX,78645-3139,"(512) 966-7988",https://www.flintarrowllc.com/,,"DAVID ROTHENBERG",paradraft@gmail.com
TX,TRAVIS,21-34362,"Single Family Homes",5/25/2021,,300846,,"9716 ELOQUENCE DR",AUSTIN,TX,78653,"WHISPER VALLEY",,CONTRACTOR,,,,,,,,,,,"BUFFINGTON TEXAS CLASSIC HOMES",,,,,"BUFFINGTON TEXAS CLASSIC HOMES","8601 RANCH ROAD 2222 PARK CENTRE BLDG STE 150",AUSTIN,TX,78730,"(512) 579-4800",,,,
TX,TRAVIS,21-34457,"Single Family Homes",5/25/2021,,252624,,"17205 ADORO DR",AUSTIN,TX,78653,"WHISPER VALLEY",,CONTRACTOR,,,,,,,,,,,"BUFFINGTON TEXAS CLASSIC HOMES",,,,,"BUFFINGTON TEXAS CLASSIC HOMES","8601 RANCH ROAD 2222 PARK CENTRE BLDG STE 150",AUSTIN,TX,78730,"(512) 579-4800",,,,
TX,TRAVIS,21-34459,"Single Family Homes",5/25/2021,,326382,,"17021 ADORO DR",AUSTIN,TX,78653,"WHISPER VALLEY",,CONTRACTOR,,,,,,,,,,,"BUFFINGTON TEXAS CLASSIC HOMES",,,,,"BUFFINGTON TEXAS CLASSIC HOMES","8601 RANCH ROAD 2222 PARK CENTRE BLDG STE 150",AUSTIN,TX,78730,"(512) 579-4800",,,,
TX,TRAVIS,21-34424,"Single Family Homes",5/25/2021,,537000,,"1844 ART ADAMS WAY",SPICEWOOD,TX,78669,"LAKE TRAVIS",,CONTRACTOR,,,,,,,,,,,"TOSCANA HOMES AND PROPERTIES",,,,,"TOSCANA HOMES AND PROPERTIES","26601 MASTERS PKWY",SPICEWOOD,TX,78669,"(512) 663-6388",,,"MICHAEL MCDONALD",
