state,county,permno,ptype,pdate,pdescription,jvalue,jsqfeet,jaddr,jcity,jstate,jzip,jsubdiv,jlotno,aname,aaddr,acity,astate,azip,aphone,atype,aurl,afax,aprimarycontact,aemail,bldcode,units,bldgs,ctype,legal,contractor,caddress,ccity,cstate,czip,cphone,curl,cfax,cprimarycontact,cemail
TX,HAYS,BLC2020-0518,"Churches & Other Religious",2/25/2021,Renovation,40000,4586,"400 OLD POST RD",KYLE,TX,78640,,,CONTRACTOR,,,,,,,,,,,"LAUGER COMPANIES",,,,,"LAUGER COMPANIES","36 ENTERPRISE DR",VICTORIA,TX,77905,"(361) 576-0003",,,,
TX,TRAVIS,"2021-012186 BP","Educational Institution",3/8/2021,Addition,2000000,8848,"12900 DESSAU RD BLDG A",AUSTIN,TX,78754,HUNT,,CONTRACTOR,,,,,,,,,,,"HCS COMMERCIAL GENERAL CONTRACTORS",,,,,"HCS COMMERCIAL GENERAL CONTRACTORS","365 WAYSIDE DR",WACO,TX,76705,"(254) 829-3200",http://www.hcs-gc.com,,,
TX,TRAVIS,"2021-030281 BP","Educational Institution",3/8/2021,,2000000,25851,"1438 E YAGER LN",AUSTIN,TX,78753,"YAGER ACADEMY",1,CONTRACTOR,,,,,,,,,,,KENCON,,,,,KENCON,"4823 WHIRLWIND DR","SAN ANTONIO",TX,78217-3714,"(210) 280-7306",http://www.kenconltd.com/,"(210) 590-8120",,bids@kenconltd.com
TX,TRAVIS,"2021-011664 BP","Educational Institution",3/3/2021,,35770000,102955,"7505 SILVERCREST DR",AUSTIN,TX,78757,DAVIS,,CONTRACTOR,,,,,,,,,,,"ROGERS O'BRIEN CONSTRUCTION",,,,,"ROGERS O'BRIEN CONSTRUCTION","3901 S LAMAR BLVD STE 200",AUSTIN,TX,78704-7990,"(512) 486-3800",,,,
TX,TRAVIS,"2020-066349 BP","Educational Institution",3/8/2021,Addition,52000,2225,"405 DENSON DR",AUSTIN,TX,78752,WALLACE,,CONTRACTOR,,,,,,,,,,,"USA SHADE & FABRIC STRUCTURES",,,,,"USA SHADE & FABRIC STRUCTURES","1508 FERGUSON LN STE A",AUSTIN,TX,78754-1880,"(512) 836-5500",http://www.usa-shade.com/,"(512) 836-5600",,
TX,TRAVIS,20-31581,"Multi Family Apartments & Condos",2/24/2021,,384990,,"3012 SUDHA DR UNIT 16",AUSTIN,TX,78728,"BRATTON CONDOMINIUMS",,CONTRACTOR,,,,,,,,,,,"TAYLOR MORRISON OF TEXAS",,,,,"TAYLOR MORRISON OF TEXAS","11200 LAKELINE BLVD STE 150A",AUSTIN,TX,78717-5964,"(512) 328-8866",,"(512) 328-7988",,
TX,TRAVIS,20-31609,"Multi Family Apartments & Condos",2/5/2021,,394990,,"3002 SUDHA DR UNIT 21",AUSTIN,TX,78728,BRATTON,,CONTRACTOR,,,,,,,,,,,"TAYLOR MORRISON OF TEXAS",,,,,"TAYLOR MORRISON OF TEXAS","11200 LAKELINE BLVD STE 150A",AUSTIN,TX,78717-5964,"(512) 328-8866",,"(512) 328-7988",,
TX,TRAVIS,20-31611,"Multi Family Apartments & Condos",2/5/2021,,388990,,"3014 SUDHA DR UNIT 15",AUSTIN,TX,78728,BRATTON,,CONTRACTOR,,,,,,,,,,,"TAYLOR MORRISON OF TEXAS",,,,,"TAYLOR MORRISON OF TEXAS","11200 LAKELINE BLVD STE 150A",AUSTIN,TX,78717-5964,"(512) 328-8866",,"(512) 328-7988",,
TX,TRAVIS,20-31619,"Multi Family Apartments & Condos",2/5/2021,,398990,,"2908 SALVIDAR BEND UNIT 25",AUSTIN,TX,78728,BRATTON,,CONTRACTOR,,,,,,,,,,,"TAYLOR MORRISON OF TEXAS",,,,,"TAYLOR MORRISON OF TEXAS","11200 LAKELINE BLVD STE 150A",AUSTIN,TX,78717-5964,"(512) 328-8866",,"(512) 328-7988",,
TX,TRAVIS,20-31990,"Multi Family Apartments & Condos",2/5/2021,,386990,,"3001 SALVIDAR BEND UNIT 123",AUSTIN,TX,78728,"BRATTON CONDOMINIUMS",,CONTRACTOR,,,,,,,,,,,"TAYLOR MORRISON OF TEXAS",,,,,"TAYLOR MORRISON OF TEXAS","11200 LAKELINE BLVD STE 150A",AUSTIN,TX,78717-5964,"(512) 328-8866",,"(512) 328-7988",,
TX,TRAVIS,20-31991,"Multi Family Apartments & Condos",2/5/2021,,398990,,"2903 SALVIDAR BND UNIT 127",AUSTIN,TX,78728,"BRATTON CONDOMINIUMS",,CONTRACTOR,,,,,,,,,,,"TAYLOR MORRISON OF TEXAS",,,,,"TAYLOR MORRISON OF TEXAS","11200 LAKELINE BLVD STE 150A",AUSTIN,TX,78717-5964,"(512) 328-8866",,"(512) 328-7988",,
TX,TRAVIS,21-32168,"Multi Family Apartments & Condos",2/5/2021,,393990,,"2900 SALVIDAR BEND UNIT 82",AUSTIN,TX,78728,BRATTON,,CONTRACTOR,,,,,,,,,,,"TAYLOR MORRISON OF TEXAS",,,,,"TAYLOR MORRISON OF TEXAS","11200 LAKELINE BLVD STE 150A",AUSTIN,TX,78717-5964,"(512) 328-8866",,"(512) 328-7988",,
TX,TRAVIS,"2021-031860 BP","Multi Family Apartments & Condos",3/5/2021,,5000000,41333,"8200 S CONGRESS AVE BLDG 2",AUSTIN,TX,78745,"SOUTHSIDE STORAGE",1,CONTRACTOR,,,,,,,,,,,"SKYBECK CONSTRUCTION",,,,,"SKYBECK CONSTRUCTION","3811 BEE CAVE RD STE 205","WEST LAKE HILLS",TX,78746-6459,"(512) 225-9343",http://skybeck.com/,,"BILL SKEEN",bskeen@Skybeck.com
TX,TRAVIS,"2021-031861 BP","Multi Family Apartments & Condos",3/5/2021,,5000000,76521,"8200 S CONGRESS AVE BLDG 3",AUSTIN,TX,78745,"SOUTHSIDE STORAGE",1,CONTRACTOR,,,,,,,,,,,"SKYBECK CONSTRUCTION",,,,,"SKYBECK CONSTRUCTION","3811 BEE CAVE RD STE 205","WEST LAKE HILLS",TX,78746-6459,"(512) 225-9343",http://skybeck.com/,,"BILL SKEEN",bskeen@Skybeck.com
TX,TRAVIS,"2021-031862 BP","Multi Family Apartments & Condos",3/5/2021,,5000000,78392,"8200 S CONGRESS AVE BLDG 4",AUSTIN,TX,78745,"SOUTHSIDE STORAGE",1,CONTRACTOR,,,,,,,,,,,"SKYBECK CONSTRUCTION",,,,,"SKYBECK CONSTRUCTION","3811 BEE CAVE RD STE 205","WEST LAKE HILLS",TX,78746-6459,"(512) 225-9343",http://skybeck.com/,,"BILL SKEEN",bskeen@Skybeck.com
TX,TRAVIS,"2021-031863 BP","Multi Family Apartments & Condos",3/5/2021,,5000000,48622,"8200 S CONGRESS AVE BLDG 5",AUSTIN,TX,78745,"SOUTHSIDE STORAGE",1,CONTRACTOR,,,,,,,,,,,"SKYBECK CONSTRUCTION",,,,,"SKYBECK CONSTRUCTION","3811 BEE CAVE RD STE 205","WEST LAKE HILLS",TX,78746-6459,"(512) 225-9343",http://skybeck.com/,,"BILL SKEEN",bskeen@Skybeck.com
TX,TRAVIS,"2021-031865 BP","Multi Family Apartments & Condos",3/5/2021,,5000000,47748,"8200 S CONGRESS AVE BLDG 7",AUSTIN,TX,78745,"SOUTHSIDE STORAGE",1,CONTRACTOR,,,,,,,,,,,"SKYBECK CONSTRUCTION",,,,,"SKYBECK CONSTRUCTION","3811 BEE CAVE RD STE 205","WEST LAKE HILLS",TX,78746-6459,"(512) 225-9343",http://skybeck.com/,,"BILL SKEEN",bskeen@Skybeck.com
TX,TRAVIS,"2021-031864 BP","Multi Family Apartments & Condos",3/8/2021,,5000000,46940,"8200 S CONGRESS AVE BLDG 6",AUSTIN,TX,78745,"SOUTHSIDE STORAGE",1,CONTRACTOR,,,,,,,,,,,"SKYBECK CONSTRUCTION",,,,,"SKYBECK CONSTRUCTION","3811 BEE CAVE RD STE 205","WEST LAKE HILLS",TX,78746-6459,"(512) 225-9343",http://skybeck.com/,,"BILL SKEEN",bskeen@Skybeck.com
TX,TRAVIS,"2021-030361 BP","Multi Family Apartments & Condos",3/3/2021,,164776,1916,"12707 BLOOMINGTON DR",AUSTIN,TX,78652,VARCINAS,,CONTRACTOR,,,,,,,,,,,"M/I HOMES",,,,,"M/I HOMES","6801 N CAPITAL OF TEXAS HWY BLDG 2 STE 100",AUSTIN,TX,78731-1780,"(512) 770-8500",,,,
TX,TRAVIS,"2021-030338 BP","Multi Family Apartments & Condos",3/3/2021,,205282,2387,"12702 BLOOMINGTON DR",AUSTIN,TX,78731,VARCINAS,,CONTRACTOR,,,,,,,,,,,"M/I HOMES",,,,,"M/I HOMES","6801 N CAPITAL OF TEXAS HWY BLDG 2 STE 100",AUSTIN,TX,78731-1780,"(512) 770-8500",,,,
TX,TRAVIS,"2021-030478 BP","Multi Family Apartments & Condos",3/8/2021,,209238,2433,"909 PITTSBURGH DR",AUSTIN,TX,78752,VARCINAS,,CONTRACTOR,,,,,,,,,,,"M/I HOMES",,,,,"M/I HOMES","6801 N CAPITAL OF TEXAS HWY BLDG 2 STE 100",AUSTIN,TX,78731-1780,"(512) 770-8500",,,,
TX,TRAVIS,"2021-030324 BP","Multi Family Apartments & Condos",3/3/2021,,210270,2445,"1002 PITTSBURGH DR",AUSTIN,TX,78752,VARCINAS,,CONTRACTOR,,,,,,,,,,,"M/I HOMES",,,,,"M/I HOMES","6801 N CAPITAL OF TEXAS HWY BLDG 2 STE 100",AUSTIN,TX,78731-1780,"(512) 770-8500",,,,
TX,TRAVIS,"2021-030369 BP","Multi Family Apartments & Condos",3/3/2021,,212076,2466,"919 PITTSBURGH DR",AUSTIN,TX,78752,VARCINAS,,CONTRACTOR,,,,,,,,,,,"M/I HOMES",,,,,"M/I HOMES","6801 N CAPITAL OF TEXAS HWY BLDG 2 STE 100",AUSTIN,TX,78731-1780,"(512) 770-8500",,,,
TX,TRAVIS,"2021-021287 BP","Multi Family Apartments & Condos",3/8/2021,,255850,2975,"12721 BLOOMINGTON DR",AUSTIN,TX,78652,VARCINAS,,CONTRACTOR,,,,,,,,,,,"M/I HOMES",,,,,"M/I HOMES","6801 N CAPITAL OF TEXAS HWY BLDG 2 STE 100",AUSTIN,TX,78731-1780,"(512) 770-8500",,,,
TX,TRAVIS,"2021-030407 BP","Multi Family Apartments & Condos",3/8/2021,,255850,2975,"908 PITTSBURGH DR",AUSTIN,TX,78752,VARCINAS,,CONTRACTOR,,,,,,,,,,,"M/I HOMES",,,,,"M/I HOMES","6801 N CAPITAL OF TEXAS HWY BLDG 2 STE 100",AUSTIN,TX,78731-1780,"(512) 770-8500",,,,
TX,TRAVIS,"2021-026362 BP","Multi Family Apartments & Condos",3/4/2021,,268990,2312,"5208 DIMESKY LN",AUSTIN,TX,78735,TANNEHILL,,CONTRACTOR,,,,,,,,,,,"RSI COMMUNITIES",,,,,"RSI COMMUNITIES","810 HESTERS CROSSING RD STE 235","ROUND ROCK",TX,78681-7846,"(512) 953-4100",,,,
TX,TRAVIS,"2021-026345 BP","Multi Family Apartments & Condos",3/4/2021,,268990,2316,"5402 DIMESKY LN",AUSTIN,TX,78735,TANNEHILL,,CONTRACTOR,,,,,,,,,,,"RSI COMMUNITIES",,,,,"RSI COMMUNITIES","810 HESTERS CROSSING RD STE 235","ROUND ROCK",TX,78681-7846,"(512) 953-4100",,,,
TX,TRAVIS,"2021-031866 BP","Multi Family Apartments & Condos",3/5/2021,,5000000,81933,"8200 S CONGRESS AVE BLDG 1",AUSTIN,TX,78745,"SOUTHSIDE STORAGE",1,CONTRACTOR,,,,,,,,,,,"SKYBECK CONSTRUCTION",,,,,"SKYBECK CONSTRUCTION","3811 BEE CAVE RD STE 205","WEST LAKE HILLS",TX,78746-6459,"(512) 225-9343",http://skybeck.com/,,"BILL SKEEN",bskeen@Skybeck.com
TX,TRAVIS,21-32379,"Multi Family Apartments & Condos",2/22/2021,,160000,,"4103 BIRDWATCH LOOP UNIT 26",PFLUGERVILLE,TX,78660,"JAKES HILL CONDOMINIUM",,CONTRACTOR,,,,,,,,,,,"BLACKBURN COMMUNITIES",,,,,"BLACKBURN COMMUNITIES","301 BRUSHY CREEK RD STE 108",PFLUGERVILLE,TX,78613,"(512) 401-3205",https://www.blackburnhomes.com/,,,info@blackburnhomes.com
TX,TRAVIS,21-32503,"Multi Family Apartments & Condos",2/22/2021,,155400,,"12202 PERRITOS PL UNIT 340",AUSTIN,TX,78748,"ENCLAVE AT ESTANCIA",,CONTRACTOR,,,,,,,,,,,"LENNAR HOMES",,,,,"LENNAR HOMES","13620 FM 620 RD 150",AUSTIN,TX,78717,"(512) 506-4000",http://www.lennar.com/,,,
TX,TRAVIS,21-32504,"Multi Family Apartments & Condos",2/22/2021,,173775,,"12205 PERRITOS PL UNIT 329",AUSTIN,TX,78748,"ENCLAVE AT ESTANCIA",,CONTRACTOR,,,,,,,,,,,"LENNAR HOMES",,,,,"LENNAR HOMES","13620 FM 620 RD 150",AUSTIN,TX,78717,"(512) 506-4000",http://www.lennar.com/,,,
TX,TRAVIS,21-32505,"Multi Family Apartments & Condos",2/22/2021,,192450,,"12206 PERRITOS PL UNIT 338",AUSTIN,TX,78748,"ENCLAVE AT ESTANCIA",,CONTRACTOR,,,,,,,,,,,"LENNAR HOMES",,,,,"LENNAR HOMES","13620 FM 620 RD 150",AUSTIN,TX,78717,"(512) 506-4000",http://www.lennar.com/,,,
TX,TRAVIS,21-32508,"Multi Family Apartments & Condos",2/24/2021,,389990,,"2909 SUDHA UNIT 76",AUSTIN,TX,78728,BRATTON,,CONTRACTOR,,,,,,,,,,,"TAYLOR MORRISON OF TEXAS",,,,,"TAYLOR MORRISON OF TEXAS","11200 LAKELINE BLVD STE 150A",AUSTIN,TX,78717-5964,"(512) 328-8866",,"(512) 328-7988",,
TX,TRAVIS,21-32509,"Multi Family Apartments & Condos",2/24/2021,,399990,,"3004 SUDHA DR",AUSTIN,TX,78728,BRATTON,,CONTRACTOR,,,,,,,,,,,"TAYLOR MORRISON OF TEXAS",,,,,"TAYLOR MORRISON OF TEXAS","11200 LAKELINE BLVD STE 150A",AUSTIN,TX,78717-5964,"(512) 328-8866",,"(512) 328-7988",,
TX,TRAVIS,21-32510,"Multi Family Apartments & Condos",2/24/2021,,390990,,"3008 SUDHA DR",AUSTIN,TX,78728,BRATTON,18,CONTRACTOR,,,,,,,,,,,"TAYLOR MORRISON OF TEXAS",,,,,"TAYLOR MORRISON OF TEXAS","11200 LAKELINE BLVD STE 150A",AUSTIN,TX,78717-5964,"(512) 328-8866",,"(512) 328-7988",,
TX,TRAVIS,"2021-031871 BP","Multi Family Renovations & Additions",3/5/2021,Addition,5000000,579,"8200 S CONGRESS AVE BLDG MAINT",AUSTIN,TX,78745,"SOUTHSIDE STORAGE",1,CONTRACTOR,,,,,,,,,,,"SKYBECK CONSTRUCTION",,,,,"SKYBECK CONSTRUCTION","3811 BEE CAVE RD STE 205","WEST LAKE HILLS",TX,78746-6459,"(512) 225-9343",http://skybeck.com/,,"BILL SKEEN",bskeen@Skybeck.com
TX,TRAVIS,"2021-031872 BP","Multi Family Renovations & Additions",3/5/2021,Addition,5000000,896,"8200 S CONGRESS AVE BLDG TC",AUSTIN,TX,78745,"SOUTHSIDE STORAGE",1,CONTRACTOR,,,,,,,,,,,"SKYBECK CONSTRUCTION",,,,,"SKYBECK CONSTRUCTION","3811 BEE CAVE RD STE 205","WEST LAKE HILLS",TX,78746-6459,"(512) 225-9343",http://skybeck.com/,,"BILL SKEEN",bskeen@Skybeck.com
TX,TRAVIS,"2021-031873 BP","Multi Family Renovations & Additions",3/5/2021,Addition,5000000,630,"8200 S CONGRESS AVE BLDG CP1",AUSTIN,TX,78745,"SOUTHSIDE STORAGE",1,CONTRACTOR,,,,,,,,,,,"SKYBECK CONSTRUCTION",,,,,"SKYBECK CONSTRUCTION","3811 BEE CAVE RD STE 205","WEST LAKE HILLS",TX,78746-6459,"(512) 225-9343",http://skybeck.com/,,"BILL SKEEN",bskeen@Skybeck.com
TX,TRAVIS,"2021-031874 BP","Multi Family Renovations & Additions",3/5/2021,Addition,5000000,630,"8200 S CONGRESS AVE BLDG CP2",AUSTIN,TX,78745,"SOUTHSIDE STORAGE",1,CONTRACTOR,,,,,,,,,,,"SKYBECK CONSTRUCTION",,,,,"SKYBECK CONSTRUCTION","3811 BEE CAVE RD STE 205","WEST LAKE HILLS",TX,78746-6459,"(512) 225-9343",http://skybeck.com/,,"BILL SKEEN",bskeen@Skybeck.com
TX,TRAVIS,"2021-031875 BP","Multi Family Renovations & Additions",3/5/2021,Addition,5000000,630,"8200 S CONGRESS AVE BLDG CP3",AUSTIN,TX,78745,"SOUTHSIDE STORAGE",1,CONTRACTOR,,,,,,,,,,,"SKYBECK CONSTRUCTION",,,,,"SKYBECK CONSTRUCTION","3811 BEE CAVE RD STE 205","WEST LAKE HILLS",TX,78746-6459,"(512) 225-9343",http://skybeck.com/,,"BILL SKEEN",bskeen@Skybeck.com
TX,TRAVIS,"2021-031876 BP","Multi Family Renovations & Additions",3/5/2021,Addition,5000000,630,"8200 S CONGRESS AVE BLDG CP4",AUSTIN,TX,78745,"SOUTHSIDE STORAGE",1,CONTRACTOR,,,,,,,,,,,"SKYBECK CONSTRUCTION",,,,,"SKYBECK CONSTRUCTION","3811 BEE CAVE RD STE 205","WEST LAKE HILLS",TX,78746-6459,"(512) 225-9343",http://skybeck.com/,,"BILL SKEEN",bskeen@Skybeck.com
TX,TRAVIS,"2021-031877 BP","Multi Family Renovations & Additions",3/5/2021,Addition,5000000,630,"8200 S CONGRESS AVE BLDG CP5",AUSTIN,TX,78745,"SOUTHSIDE STORAGE",1,CONTRACTOR,,,,,,,,,,,"SKYBECK CONSTRUCTION",,,,,"SKYBECK CONSTRUCTION","3811 BEE CAVE RD STE 205","WEST LAKE HILLS",TX,78746-6459,"(512) 225-9343",http://skybeck.com/,,"BILL SKEEN",bskeen@Skybeck.com
TX,TRAVIS,"2021-031878 BP","Multi Family Renovations & Additions",3/5/2021,Addition,5000000,630,"8200 S CONGRESS AVE BLDG CP6",AUSTIN,TX,78745,"SOUTHSIDE STORAGE",1,CONTRACTOR,,,,,,,,,,,"SKYBECK CONSTRUCTION",,,,,"SKYBECK CONSTRUCTION","3811 BEE CAVE RD STE 205","WEST LAKE HILLS",TX,78746-6459,"(512) 225-9343",http://skybeck.com/,,"BILL SKEEN",bskeen@Skybeck.com
TX,TRAVIS,"2021-031879 BP","Multi Family Renovations & Additions",3/5/2021,Addition,5000000,630,"8200 S CONGRESS AVE BLDG CP7",AUSTIN,TX,78745,"SOUTHSIDE STORAGE",1,CONTRACTOR,,,,,,,,,,,"SKYBECK CONSTRUCTION",,,,,"SKYBECK CONSTRUCTION","3811 BEE CAVE RD STE 205","WEST LAKE HILLS",TX,78746-6459,"(512) 225-9343",http://skybeck.com/,,"BILL SKEEN",bskeen@Skybeck.com
TX,TRAVIS,"2021-031880 BP","Multi Family Renovations & Additions",3/5/2021,Addition,5000000,630,"8200 S CONGRESS AVE BLDG CP8",AUSTIN,TX,78745,"SOUTHSIDE STORAGE",1,CONTRACTOR,,,,,,,,,,,"SKYBECK CONSTRUCTION",,,,,"SKYBECK CONSTRUCTION","3811 BEE CAVE RD STE 205","WEST LAKE HILLS",TX,78746-6459,"(512) 225-9343",http://skybeck.com/,,"BILL SKEEN",bskeen@Skybeck.com
TX,TRAVIS,"2021-031881 BP","Multi Family Renovations & Additions",3/5/2021,Addition,5000000,630,"8200 S CONGRESS AVE BLDG CP9",AUSTIN,TX,78745,"SOUTHSIDE STORAGE",1,CONTRACTOR,,,,,,,,,,,"SKYBECK CONSTRUCTION",,,,,"SKYBECK CONSTRUCTION","3811 BEE CAVE RD STE 205","WEST LAKE HILLS",TX,78746-6459,"(512) 225-9343",http://skybeck.com/,,"BILL SKEEN",bskeen@Skybeck.com
TX,TRAVIS,"2021-031882 BP","Multi Family Renovations & Additions",3/5/2021,Addition,5000000,630,"8200 S CONGRESS AVE BLDG CP10",AUSTIN,TX,78745,"SOUTHSIDE STORAGE",1,CONTRACTOR,,,,,,,,,,,"SKYBECK CONSTRUCTION",,,,,"SKYBECK CONSTRUCTION","3811 BEE CAVE RD STE 205","WEST LAKE HILLS",TX,78746-6459,"(512) 225-9343",http://skybeck.com/,,"BILL SKEEN",bskeen@Skybeck.com
TX,TRAVIS,"2021-031883 BP","Multi Family Renovations & Additions",3/5/2021,Addition,5000000,630,"8200 S CONGRESS AVE BLDG CP11",AUSTIN,TX,78745,"SOUTHSIDE STORAGE",1,CONTRACTOR,,,,,,,,,,,"SKYBECK CONSTRUCTION",,,,,"SKYBECK CONSTRUCTION","3811 BEE CAVE RD STE 205","WEST LAKE HILLS",TX,78746-6459,"(512) 225-9343",http://skybeck.com/,,"BILL SKEEN",bskeen@Skybeck.com
TX,TRAVIS,"2021-031884 BP","Multi Family Renovations & Additions",3/5/2021,Addition,5000000,630,"8200 S CONGRESS AVE BLDG CP12",AUSTIN,TX,78745,"SOUTHSIDE STORAGE",1,CONTRACTOR,,,,,,,,,,,"SKYBECK CONSTRUCTION",,,,,"SKYBECK CONSTRUCTION","3811 BEE CAVE RD STE 205","WEST LAKE HILLS",TX,78746-6459,"(512) 225-9343",http://skybeck.com/,,"BILL SKEEN",bskeen@Skybeck.com
TX,TRAVIS,"2021-031885 BP","Multi Family Renovations & Additions",3/5/2021,Addition,5000000,946,"8200 S CONGRESS AVE BLDG GAR1",AUSTIN,TX,78745,"SOUTHSIDE STORAGE",1,CONTRACTOR,,,,,,,,,,,"SKYBECK CONSTRUCTION",,,,,"SKYBECK CONSTRUCTION","3811 BEE CAVE RD STE 205","WEST LAKE HILLS",TX,78746-6459,"(512) 225-9343",http://skybeck.com/,,"BILL SKEEN",bskeen@Skybeck.com
TX,TRAVIS,"2021-031888 BP","Multi Family Renovations & Additions",3/5/2021,Addition,5000000,946,"8200 S CONGRESS AVE BLDG GAR4",AUSTIN,TX,78745,"SOUTHSIDE STORAGE",1,CONTRACTOR,,,,,,,,,,,"SKYBECK CONSTRUCTION",,,,,"SKYBECK CONSTRUCTION","3811 BEE CAVE RD STE 205","WEST LAKE HILLS",TX,78746-6459,"(512) 225-9343",http://skybeck.com/,,"BILL SKEEN",bskeen@Skybeck.com
TX,TRAVIS,"2021-031889 BP","Multi Family Renovations & Additions",3/5/2021,Renovation,5000000,946,"8200 S CONGRESS AVE BLDG GAR5",AUSTIN,TX,78745,"SOUTHSIDE STORAGE",1,CONTRACTOR,,,,,,,,,,,"SKYBECK CONSTRUCTION",,,,,"SKYBECK CONSTRUCTION","3811 BEE CAVE RD STE 205","WEST LAKE HILLS",TX,78746-6459,"(512) 225-9343",http://skybeck.com/,,"BILL SKEEN",bskeen@Skybeck.com
TX,TRAVIS,"2021-031890 BP","Multi Family Renovations & Additions",3/5/2021,Addition,5000000,316,"8200 S CONGRESS AVE BLDG DP",AUSTIN,TX,78745,"SOUTHSIDE STORAGE",1,CONTRACTOR,,,,,,,,,,,"SKYBECK CONSTRUCTION",,,,,"SKYBECK CONSTRUCTION","3811 BEE CAVE RD STE 205","WEST LAKE HILLS",TX,78746-6459,"(512) 225-9343",http://skybeck.com/,,"BILL SKEEN",bskeen@Skybeck.com
TX,TRAVIS,"2021-031891 BP","Multi Family Renovations & Additions",3/5/2021,Addition,5000000,422,"8200 S CONGRESS AVE BLDG GAZEBO",AUSTIN,TX,78745,"SOUTHSIDE STORAGE",1,CONTRACTOR,,,,,,,,,,,"SKYBECK CONSTRUCTION",,,,,"SKYBECK CONSTRUCTION","3811 BEE CAVE RD STE 205","WEST LAKE HILLS",TX,78746-6459,"(512) 225-9343",http://skybeck.com/,,"BILL SKEEN",bskeen@Skybeck.com
TX,TRAVIS,"2021-031887 BP","Multi Family Renovations & Additions",3/8/2021,Addition,5000000,946,"8200 S CONGRESS AVE BLDG GAR3",AUSTIN,TX,78745,"SOUTHSIDE STORAGE",1,CONTRACTOR,,,,,,,,,,,"SKYBECK CONSTRUCTION",,,,,"SKYBECK CONSTRUCTION","3811 BEE CAVE RD STE 205","WEST LAKE HILLS",TX,78746-6459,"(512) 225-9343",http://skybeck.com/,,"BILL SKEEN",bskeen@Skybeck.com
TX,TRAVIS,"2021-031886 BP","Multi Family Renovations & Additions",3/8/2021,Addition,5000000,1069,"8200 S CONGRESS AVE BLDG GAR2",AUSTIN,TX,78745,"SOUTHSIDE STORAGE",1,CONTRACTOR,,,,,,,,,,,"SKYBECK CONSTRUCTION",,,,,"SKYBECK CONSTRUCTION","3811 BEE CAVE RD STE 205","WEST LAKE HILLS",TX,78746-6459,"(512) 225-9343",http://skybeck.com/,,"BILL SKEEN",bskeen@Skybeck.com
TX,TRAVIS,"2021-029878 BP","Multi Family Renovations & Additions",3/8/2021,Addition,127243,10904,"15222 N FM 620 RD",AUSTIN,TX,78717,DAVY,,CONTRACTOR,,,,,,,,,,,"ROSCH SOUTHWEST",,,,,"ROSCH SOUTHWEST","3000 JOE DIMAGGIO BLVD STE 28","ROUND ROCK",TX,78665-3994,"(512) 828-4272",,,,
TX,TRAVIS,"2021-021172 BP","Multi Family Renovations & Additions",3/3/2021,Addition,200000,6456,"9019 NORTH LAKE CREEK PKWY BLDG CLUB",AUSTIN,TX,78717,,,CONTRACTOR,,,,,,,,,,,"JOURNEYMAN CONSTRUCTION",,,,,"JOURNEYMAN CONSTRUCTION","7701 N LAMAR BLVD STE 100",AUSTIN,TX,78752-1012,"(512) 247-7000",,,,
TX,TRAVIS,"2021-030401 BP","Multi Family Renovations & Additions",3/8/2021,Renovation,209238,2433,"918 PITTSBURGH DR",AUSTIN,TX,78752,VARCINAS,,CONTRACTOR,,,,,,,,,,,"M/I HOMES",,,,,"M/I HOMES","6801 N CAPITAL OF TEXAS HWY BLDG 2 STE 100",AUSTIN,TX,78731-1780,"(512) 770-8500",,,,
TX,TRAVIS,21-32482,"Multi Family Renovations & Additions",2/4/2021,Renovation,455000,,"19304 SUMMIT GLORY TRL UNIT 67",SPICEWOOD,TX,78669,"THE SUMMIT CONDOMINIUMS",,CONTRACTOR,,,,,,,,,,,"DREES CUSTOM HOMES",,,,,"DREES CUSTOM HOMES","7300 RANCH ROAD 2222 BLDG 2 STE 250",AUSTIN,TX,78730-3204,"(512) 241-7100",http://www.dreeshomes.com,,,
TX,TRAVIS,"2021-014652 BP","Offices, R&D, & Professional",3/5/2021,Addition,115529,8290,"5225 JAIN LN",AUSTIN,TX,78721,TANNEHILL,,CONTRACTOR,,,,,,,,,,,"ROSCH SOUTHWEST",,,,,"ROSCH SOUTHWEST","3000 JOE DIMAGGIO BLVD STE 28","ROUND ROCK",TX,78665-3994,"(512) 828-4272",,,,
TX,TRAVIS,"2021-031936 BP","Residential Renovations & Additions",3/5/2021,Renovation,50000,1458,"12911 CANDLESTICK PL",AUSTIN,TX,78727,"LAMPLIGHT VILLAGE",8,"KYLE & MARLENE KIRKLAND","12911 CANDLESTICK PL",AUSTIN,TX,78727,,Owner,,,,,"MARKET PROPERTIES",,,,,"MARKET PROPERTIES","6800 WEST GATE BLVD",AUSTIN,TX,78745-4883,"(512) 444-0303",,,,
TX,TRAVIS,"2021-032307 BP","Residential Renovations & Additions",3/8/2021,Renovation,126976,1200,"11101 CALLE VERDE DR",AUSTIN,TX,78759,"BALCONES WOODS",6,"CARSON & SARAH HIGGS","11101 CALLE VERDE DR",AUSTIN,TX,78759,,Owner,,,,,"LONGBOW CONSTRUCTION",,,,,"LONGBOW CONSTRUCTION","4008 BISCAY DR",AUSTIN,TX,78759,"(512) 431-5656",,,,
TX,TRAVIS,"2019-223557 BP","Residential Renovations & Additions",3/4/2021,Addition,100000,598,"3213 HARRIS PARK AVE",AUSTIN,TX,78705,STARK,7,CONTRACTOR,,,,,,,,,,,"DEBBIE OUTLAW PROPERTIES",,,,,"DEBBIE OUTLAW PROPERTIES","16105 CHATEAU AVE ",AUSTIN,TX,78734,"(432) 770-5206",,,,
TX,TRAVIS,"2020-058794 BP","Residential Renovations & Additions",3/3/2021,Addition,148500,1377,"1509 CHELSEA LN",AUSTIN,TX,78704,DELVALLE,,CONTRACTOR,,,,,,,,,,,"MISSION HOME BUILDERS",,,,,"MISSION HOME BUILDERS","4705 MANCHACA ",AUSTIN,TX,78745,"(512) 508-2923",,,,
TX,TRAVIS,"2021-030869 BP","Residential Renovations & Additions",3/4/2021,Addition,230000,1372,"1309 LEONA ST",AUSTIN,TX,78702,JOHNS,8,CONTRACTOR,,,,,,,,,,,KILIGRAY,,,,,KILIGRAY,"815A BRAZOS ST UNIT 543",AUSTIN,TX,78701-2502,"(512) 767-5710",,,,
TX,TRAVIS,"2021-030726 BP","Residential Renovations & Additions",3/4/2021,Renovation,30000,,"1115 ELEANOR ST",AUSTIN,TX,78721,"GREEN VALLEY",26,"CAMERON SEAGO","1115 ELEANOR ST",AUSTIN,TX,78721,,Owner,,,,,"LEVELSMART FOUNDATION",,,,,"LEVELSMART FOUNDATION","8701 BALCONES CLUB DR",AUSTIN,TX,78750-3003,"(512) 484-0015",,,,
TX,TRAVIS,"2021-029324 BP","Residential Renovations & Additions",3/8/2021,Renovation,35000,,"5103 BACKTRAIL DR",AUSTIN,TX,78731,"CAT MOUNTAIN",12,CONTRACTOR,,,,,,,,,,,"ENERGY ONE WINDOWS",,,,,"ENERGY ONE WINDOWS","11500 METRIC BLVD STE 250",AUSTIN,TX,78758-4077,"(512) 342-8700",http://www.energyonewindows.com/,,,
TX,TRAVIS,"2021-030555 BP","Residential Renovations & Additions",3/8/2021,Renovation,44389,,"1405 SALINA ST",AUSTIN,TX,78702,JOHNS,8,"DANIEL PENNINGTON","1405 SALINA ST",AUSTIN,TX,78702,,Owner,,,,,"TESLA ENERGY OPERATIONS",,,,,"TESLA ENERGY OPERATIONS","2301 SCARBROUGH DR STE 340",AUSTIN,TX,78728,"(214) 724-6768",,,,
TX,TRAVIS,"2021-023058 BP","Residential Swimming Pools & Spas",3/4/2021,,,711,"10810 REDMOND CV",AUSTIN,TX,78739,"CIRCLE RANCH",41,"MARK & ANMARIE BOCHEY","10810 REDMOND CV",AUSTIN,TX,78739,,Owner,,,,,"SCALLON POOLS",,,,,"SCALLON POOLS","PO BOX 341416",LAKEWAY,TX,78734-0024,"(512) 288-9909",,,,
TX,TRAVIS,"2021-031359 BP","Residential Swimming Pools & Spas",3/4/2021,,,624,"13424 MERIDIAN PARK BLVD",AUSTIN,TX,78739,,,CONTRACTOR,,,,,,,,,,,"NALLE CUSTOM HOMES",,,,,"NALLE CUSTOM HOMES","105 APPLEWOOD DR","CEDAR CREEK",TX,78612-3441,"(512) 947-8972",http://www.nallecustomhomes.com/,,,
TX,TRAVIS,"2021-030353 BP","Residential Swimming Pools & Spas",3/4/2021,,,104,"13301 MERIDIAN PARK BLVD",AUSTIN,TX,78739,,,CONTRACTOR,,,,,,,,,,,"NALLE CUSTOM HOMES",,,,,"NALLE CUSTOM HOMES","105 APPLEWOOD DR","CEDAR CREEK",TX,78612-3441,"(512) 947-8972",http://www.nallecustomhomes.com/,,,
TX,TRAVIS,"2020-088112 BP","Residential Swimming Pools & Spas",3/5/2021,,,509,"30 CHALMERS AVE",AUSTIN,TX,78702,CHALMERS,26,"BRETT & BENJAMIN GRAU","30 CHALMERS AVE",AUSTIN,TX,78702,,Owner,,,,,"JOSEPH DESIGN BUILD",,,,,"JOSEPH DESIGN BUILD","1100 S LAMAR BLVD STE 1145",AUSTIN,TX,78704-0371,"(512) 200-2168",,,,
TX,TRAVIS,"2021-033280 BP","Residential Swimming Pools & Spas",3/8/2021,,,326,"2104 ANN ARBOR AVE",AUSTIN,TX,78704,"AVON HEIGHTS",8,"DEBORAH WASHINGTON","2104 ANN ARBOR AVE",AUSTIN,TX,78704,,Owner,,,,,"SOUTH AUSTIN DEVELOPMENT GROUP",,,,,"SOUTH AUSTIN DEVELOPMENT GROUP","1600B VALLEYRIDGE DR",AUSTIN,TX,78704-6050,"(512) 550-2144",http://southaustindg.com/,,,info@southaustindg.com
TX,TRAVIS,"2021-002511 BP","Residential Swimming Pools & Spas",3/8/2021,,,404,"4005 SIDEHILL PATH",AUSTIN,TX,78731,"NORTHWEST HILLS NORTHWEST OAKS",1,"TOM STENIS","4005 SIDEHILL PATH",AUSTIN,TX,78731,,Owner,,,,,"PARADISA HOMES",,,,,"PARADISA HOMES","7427 N LAMAR BLVD STE 101",AUSTIN,TX,78752-2358,"(512) 910-4505",http://www.paradisahomes.com/,,,
TX,TRAVIS,"2021-022508 BP","Residential Swimming Pools & Spas",3/5/2021,,,239,"2403 INDIAN TRL",AUSTIN,TX,78703,"TARRY TOWN",89,"GRACE CAPUANO","2403 INDIAN TRL",AUSTIN,TX,78703,,Owner,,,,,"BUTTERFIELD CUSTOM HOMES",,,,,"BUTTERFIELD CUSTOM HOMES","421 W 3RD ST APT 602",AUSTIN,TX,78701-4164,"(512) 522-2440",http://www.butterfieldcustomhomes.com,,,
TX,TRAVIS,"2021-029619 BP","Residential Swimming Pools & Spas",3/8/2021,,,288,"1709 TAYLOR GAINES ST",AUSTIN,TX,78741,"ELMHURST HEIGHTS",11,CONTRACTOR,,,,,,,,,,,"CODY POOLS",,,,,"CODY POOLS","2300 W PARMER LN",AUSTIN,TX,78727-4332,"(512) 835-4966",http://www.codypools.com,,"COLE NAUMAN",
TX,TRAVIS,"2021-029841 BP","Residential Swimming Pools & Spas",3/8/2021,,,532,"10500 AVERY CLUB DR",AUSTIN,TX,78717,,,CONTRACTOR,,,,,,,,,,,"AUSTIN WATER DESIGNS",,,,,"AUSTIN WATER DESIGNS","147800 HAMILTON POOL ROAD",AUSTIN,TX,78738,"(512) 837-1666",,,,
TX,TRAVIS,"2021-027710 BP","Residential Swimming Pools & Spas",3/4/2021,,50000,348,"1301 DARTER LN",AUSTIN,TX,78746,WOODHAVEN,1,CONTRACTOR,,,,,,,,,,,"LOHR HOMES",,,,,"LOHR HOMES","7332 VISTA MOUNTAIN DR",AUSTIN,TX,78731-1808,"(512) 653-0553",,,,
TX,TRAVIS,"2021-026107 BP","Residential Swimming Pools & Spas",3/4/2021,,54032,392,"11001 CHARGER WAY",AUSTIN,TX,78653,"HERITAGE POINT AT WILDHORSE RANCH",27,CONTRACTOR,,,,,,,,,,,"TRI COUNTY POOLS",,,,,"TRI COUNTY POOLS","1817 FLEISCHER DR",AUSTIN,TX,78728-5702,"(512) 990-9252",,,,
TX,TRAVIS,"2021-030459 BP","Residential Swimming Pools & Spas",3/5/2021,,65000,909,"12501 ORO VALLEY TRL",AUSTIN,TX,78729,"LOS INDIOS",,CONTRACTOR,,,,,,,,,,,"POOL DUDE",,,,,"POOL DUDE","11500 JOLLYVLLE RD 2121",AUSTIN,TX,78759,"(512) 795-1854",,,,
TX,TRAVIS,"2021-027789 BP","Residential Swimming Pools & Spas",3/4/2021,,75000,461,"5005 WESTFIELD DR",AUSTIN,TX,78731,"HIGHLAND VILLAGE",19,CONTRACTOR,,,,,,,,,,,"KB CUSTOM POOLS",,,,,"KB CUSTOM POOLS","12507 W HIGHWAY 71","BEE CAVE",TX,78738-6521,"(512) 268-9990",,,,
TX,TRAVIS,"2021-030466 BP","Residential Swimming Pools & Spas",3/8/2021,,80000,292,"6727 JESTER BLVD",AUSTIN,TX,78750,"JESTER ESTATE",8,"SEAN MABARAK","6727 JESTER BLVD",AUSTIN,TX,78750,,Owner,,,,,POOLSCAPES,,,,,POOLSCAPES,"307 E AUSTIN AVE","ROUND ROCK",TX,78664-5211,"(512) 341-7665",,,,
TX,TRAVIS,"2021-029692 BP","Residential Swimming Pools & Spas",3/8/2021,,85000,209,"7208 N UTE TRL",AUSTIN,TX,78729,"INDIAN OAKS",,CONTRACTOR,,,,,,,,,,,"TEXAS TINY POOLS",,,,,"TEXAS TINY POOLS","10509 OLD MANCHACA RD",AUSTIN,TX,78748-2117,"(512) 845-3151",,,,
TX,TRAVIS,"2019-210478 BP","Restaurant and Bar",3/3/2021,Addition,70000,589,"6406 N IH 35 SVRD UNIT 2343",AUSTIN,TX,78752,WALLACE,,CONTRACTOR,,,,,,,,,,,"FALCON CONSTRUCTION",,,,,"FALCON CONSTRUCTION","505 E HUNTLAND DR STE 530",AUSTIN,TX,78752-3760,"(512) 563-9402",http://www.falconusa.net/,"(512) 454-7800","PERRY STRICKLER",perry@falconusa.net
TX,HAYS,BLC2020-0546,Retail,2/22/2021,Renovation,600000,3548,"20471 INTERSTATE 35",KYLE,TX,78640,,,CONTRACTOR,,,,,,,,,,,"EXCEL ENGINEERING",,,,,"EXCEL ENGINEERING","100 CAMELOT DR","FOND DU LAC",WI,54935-8333,"(920) 322-1690",http://www.excelengineer.com/,"(920) 926-9801","JAY JOHNSON",info@excelengineer.com
TX,HAYS,BLC2019-0256,Retail,2/26/2021,,250000,4965,"4500 S 1626",KYLE,TX,78640,,,CONTRACTOR,,,,,,,,,,,"BLOCK 16 ARCHITECTS & URBANISTS",,,,,"BLOCK 16 ARCHITECTS & URBANISTS","3708 SPICEWOOD SPRINGS RD #200",AUSTIN,TX,78759,"(512) 916-0041",,,,
TX,HAYS,BLC2019-0255,Retail,2/26/2021,,250000,5009,"4520 S 1626",KYLE,TX,78640,,,CONTRACTOR,,,,,,,,,,,"BLOCK 16 ARCHITECTS & URBANISTS",,,,,"BLOCK 16 ARCHITECTS & URBANISTS","3708 SPICEWOOD SPRINGS RD #200",AUSTIN,TX,78759,"(512) 916-0041",,,,
TX,HAYS,BLC2019-0257,Retail,2/26/2021,,500000,9981,"4460 S 1626",KYLE,TX,78640,,,CONTRACTOR,,,,,,,,,,,"BLOCK 16 ARCHITECTS & URBANISTS",,,,,"BLOCK 16 ARCHITECTS & URBANISTS","3708 SPICEWOOD SPRINGS RD #200",AUSTIN,TX,78759,"(512) 916-0041",,,,
TX,TRAVIS,"2006-028910 BP",Retail,3/3/2021,"Finish Out",48800,915,"15424 FM 1825 RD BLDG 1 UNIT 105",AUSTIN,TX,78660,CINEMARK,1,CONTRACTOR,,,,,,,,,,,"MANAGEMENT SPECIALTIES",,,,,"MANAGEMENT SPECIALTIES","80 REDBIRD RD",GRANGER,TX,76530-5325,"(512) 930-5591",,,"RANDY LEE",
TX,TRAVIS,19-24287,"Single Family Homes",2/12/2021,,165240,,"15125 CUSTIS LN",AUSTIN,TX,78725,"AUSTINS COLONY",,CONTRACTOR,,,,,,,,,,,"DR HORTON",,,,,"DR HORTON","10700 PECAN PARK BLVD STE 400",AUSTIN,TX,78750-1227,"(512) 345-4663",,,,
TX,TRAVIS,20-29016,"Single Family Homes",2/3/2021,,350000,,"17701 CARLSON RD",ELGIN,TX,78621,,,CONTRACTOR,,,,,,,,,,,"LANDMAN ENVIRONMENTAL",,,,,"LANDMAN ENVIRONMENTAL","5808 LAKESIDE TRL",AUSTIN,TX,78734-1440,"(512) 789-5048",http://www.landman-environmental.com/,,"JOHN FOX",jfox@landman-environmental.com
TX,TRAVIS,20-31210,"Single Family Homes",2/2/2021,,137020,,"2705 ENTRADA TRANQUILA WAY",PFLUGERVILLE,TX,78660,ENTRADA,48,CONTRACTOR,,,,,,,,,,,"LENNAR HOMES",,,,,"LENNAR HOMES","13620 FM 620 RD 150",AUSTIN,TX,78717,"(512) 506-4000",http://www.lennar.com/,,,
TX,TRAVIS,20-31554,"Single Family Homes",2/25/2021,,1000000,,"2410 LOHMANS FORD RD","LAGO VISTA",TX,78645,,,CONTRACTOR,,,,,,,,,,,"WUKASCH DESIGNS",,,,,"WUKASCH DESIGNS","235 KELLY DR",BURNET,TX,78611-2831,"(512) 715-9093",,,,
TX,TRAVIS,20-31963,"Single Family Homes",2/2/2021,,675000,,"14607 ROUND MOUNTAIN RD",LEANDER,TX,78641,"THE BLUFFS OF SANDY CREEK",4,CONTRACTOR,,,,,,,,,,,"WUKASCH DESIGNS",,,,,"WUKASCH DESIGNS","235 KELLY DR",BURNET,TX,78611-2831,"(512) 715-9093",,,,
TX,TRAVIS,20-28548,"Single Family Homes",2/22/2021,,318797,,"14117 SAGE BLOSSOM DR",MANOR,TX,78653,SHADOWGLEN,21,CONTRACTOR,,,,,,,,,,,"DR HORTON",,,,,"DR HORTON","10700 PECAN PARK BLVD STE 400",AUSTIN,TX,78750-1227,"(512) 345-4663",,,,
TX,TRAVIS,20-28676,"Single Family Homes",2/22/2021,,308603,,"14004 SAGE BLOSSOM DR",MANOR,TX,78653,SHADOWGLEN,11,CONTRACTOR,,,,,,,,,,,"DR HORTON",,,,,"DR HORTON","10700 PECAN PARK BLVD STE 400",AUSTIN,TX,78750-1227,"(512) 345-4663",,,,
TX,TRAVIS,20-31201,"Single Family Homes",2/22/2021,,125000,,"15209 RICHERSON UNIT 16",AUSTIN,TX,78734,"CARDINAL HILLS ESTATES",37,CONTRACTOR,,,,,,,,,,,"LANDMAN ENVIRONMENTAL",,,,,"LANDMAN ENVIRONMENTAL","5808 LAKESIDE TRL",AUSTIN,TX,78734-1440,"(512) 789-5048",http://www.landman-environmental.com/,,"JOHN FOX",jfox@landman-environmental.com
TX,TRAVIS,20-31286,"Single Family Homes",2/2/2021,,458990,,"5704 ALAMOSA CLEARING DR","DRIPPING SPRINGS",TX,78620,"SWEETWATER RANCH VILLAGE",14,CONTRACTOR,,,,,,,,,,,"TAYLOR MORRISON OF TEXAS",,,,,"TAYLOR MORRISON OF TEXAS","11200 LAKELINE BLVD STE 150A",AUSTIN,TX,78717-5964,"(512) 328-8866",,"(512) 328-7988",,
TX,TRAVIS,20-31414,"Single Family Homes",2/5/2021,,200000,,"10308 TWIN LAKE CIR","DRIPPING SPRINGS",TX,78620,"TWIN LAKE HILLS",30,CONTRACTOR,,,,,,,,,,,"SOUTHWEST SEPTIC DESIGN",,,,,"SOUTHWEST SEPTIC DESIGN","2573 DEER STAND LOOP","SAN MARCOS",TX,78666-5094,"(512) 392-5645",,,,
TX,TRAVIS,20-31484,"Single Family Homes",2/22/2021,,350000,,"1205 CASTILE RD",AUSTIN,TX,78733,"AUSTIN LAKE HILLS",28,CONTRACTOR,,,,,,,,,,,"WUKASCH DESIGNS",,,,,"WUKASCH DESIGNS","235 KELLY DR",BURNET,TX,78611-2831,"(512) 715-9093",,,,
TX,TRAVIS,20-31555,"Single Family Homes",2/26/2021,,800000,,"3400 BEE CREEK RD",SPICEWOOD,TX,78669,"BEE CREEK VISTAS",3,CONTRACTOR,,,,,,,,,,,"DELCON ENVIRONMENTAL SYSTEMS",,,,,"DELCON ENVIRONMENTAL SYSTEMS","12713 MAJESTIC OAKS DR",AUSTIN,TX,78732-2001,"(512) 583-1397",,,"DERRICK LORMAND",
TX,TRAVIS,20-31578,"Single Family Homes",2/2/2021,,160000,,"7300 MOUCHEROLLE DR",AUSTIN,TX,78738,PROVENCE,10,CONTRACTOR,,,,,,,,,,,"DAVID WEEKLEY HOMES",,,,,"DAVID WEEKLEY HOMES","9000 WATERFORD CENTRE BLVD",AUSTIN,TX,78758-7662,"(800) 390-6774",http://www.davidweekleyhomes.com/,,,
TX,TRAVIS,20-31635,"Single Family Homes",2/5/2021,,393990,,"15706 SINGH DR",AUSTIN,TX,78728,BRATTON,11,CONTRACTOR,,,,,,,,,,,"TAYLOR MORRISON OF TEXAS",,,,,"TAYLOR MORRISON OF TEXAS","11200 LAKELINE BLVD STE 150A",AUSTIN,TX,78717-5964,"(512) 328-8866",,"(512) 328-7988",,
TX,TRAVIS,20-31637,"Single Family Homes",2/5/2021,,399990,,"2909 SALVIDAR BEND",AUSTIN,TX,78728,BRATTON,,CONTRACTOR,,,,,,,,,,,"TAYLOR MORRISON OF TEXAS",,,,,"TAYLOR MORRISON OF TEXAS","11200 LAKELINE BLVD STE 150A",AUSTIN,TX,78717-5964,"(512) 328-8866",,"(512) 328-7988",,
TX,TRAVIS,20-31671,"Single Family Homes",2/22/2021,,2800000,,"12900 SHORE VISTA DR",AUSTIN,TX,78732,"RIVER BEND",1,CONTRACTOR,,,,,,,,,,,"YOUNGER HOMES",,,,,"YOUNGER HOMES","8121 BREEZE WAY",JONESTOWN,TX,78645-9643,"(512) 815-2297",https://www.younger-homes.com,,,hello@younger-homes.com
TX,TRAVIS,20-31672,"Single Family Homes",2/23/2021,,239394,,"4421 SHADY HILL LN",PFLUGERVILLE,TX,78660,"PARK AT BLACKHAWK",37,CONTRACTOR,,,,,,,,,,,"MHI MCGUYER HOMEBUILDERS",,,,,"MHI MCGUYER HOMEBUILDERS","8200 N MO PAC EXPY STE 300",AUSTIN,TX,78759-8844,"(512) 502-2050",,"(512) 388-1836","FRANK MCGUYER",
TX,TRAVIS,20-31698,"Single Family Homes",2/5/2021,,399990,,"2907 SALIVIDAR BEND",AUSTIN,TX,78728,BRATTON,72,CONTRACTOR,,,,,,,,,,,"TAYLOR MORRISON OF TEXAS",,,,,"TAYLOR MORRISON OF TEXAS","11200 LAKELINE BLVD STE 150A",AUSTIN,TX,78717-5964,"(512) 328-8866",,"(512) 328-7988",,
TX,TRAVIS,20-31709,"Single Family Homes",2/22/2021,,1000000,,"8616 SPRINGDALE RIDGE",AUSTIN,TX,78738,BELVEDERE,,CONTRACTOR,,,,,,,,,,,"GRANDVIEW CUSTOM HOMES",,,,,"GRANDVIEW CUSTOM HOMES","900 RANCH ROAD 620 S STE C101-213",LAKEWAY,TX,78734-5615,"(512) 905-2514",http://grandviewhomesaustin.com/about-grandview-custom-homes-austin-tx/,,"Taylor O'Brien",info@grandviewhomesaustin.com
TX,TRAVIS,20-31752,"Single Family Homes",2/22/2021,,150075,,"19017 FREEMAN CIR",AUSTIN,TX,78738,"SWEETWATER RANCH VILLAGE",9,CONTRACTOR,,,,,,,,,,,"LENNAR HOMES",,,,,"LENNAR HOMES","13620 FM 620 RD 150",AUSTIN,TX,78717,"(512) 506-4000",http://www.lennar.com/,,,
TX,TRAVIS,20-31868,"Single Family Homes",2/2/2021,,160000,,"11633 LAGO DE GARDA",AUSTIN,TX,78747,"BELLA FORTUNA",11,CONTRACTOR,,,,,,,,,,,"BROHN HOMES",,,,,"BROHN HOMES","6720 VAUGHT RANCH RD STE 200",AUSTIN,TX,78730-2354,"(512) 320-8833",http://brohnhomes.com/,,,
TX,TRAVIS,20-31916,"Single Family Homes",2/25/2021,,452500,,"10304 CIRCLE DR",AUSTIN,TX,78736,"PRESERVE AT OAK HILL",8,CONTRACTOR,,,,,,,,,,,"ALL POINTS CONSTRUCTION SERVICES",,,,,"ALL POINTS CONSTRUCTION SERVICES","3509B WENDEL CV",AUSTIN,TX,78731-3142,"(512) 218-1747",,,"PAUL B THIESSEN",
TX,TRAVIS,20-31949,"Single Family Homes",2/2/2021,,520000,,"22501 SWEET SUMMER DR",LEANDER,TX,78641,"THE BLUFFS OF SANDY CREEK",3,CONTRACTOR,,,,,,,,,,,"WUKASCH DESIGNS",,,,,"WUKASCH DESIGNS","235 KELLY DR",BURNET,TX,78611-2831,"(512) 715-9093",,,,
TX,TRAVIS,20-31951,"Single Family Homes",2/1/2021,,45000,,"25006 WHITNEY DR",SPICEWOOD,TX,78669,"OLD FERRY",167,CONTRACTOR,,,,,,,,,,,"DELCON ENVIRONMENTAL SYSTEMS",,,,,"DELCON ENVIRONMENTAL SYSTEMS","12713 MAJESTIC OAKS DR",AUSTIN,TX,78732-2001,"(512) 583-1397",,,"DERRICK LORMAND",
TX,TRAVIS,20-32006,"Single Family Homes",2/11/2021,,200000,,"14210 FT SMITH TRL",AUSTIN,TX,78734,"APACHE SHORES",52,CONTRACTOR,,,,,,,,,,,"JOHN PATE CONSTRUCTION",,,,,"JOHN PATE CONSTRUCTION","15101 DEBBA DR",AUSTIN,TX,78734-3622,"(512) 266-2125",,,"MARK PATE",
TX,TRAVIS,20-32088,"Single Family Homes",2/24/2021,,225000,,"14431 HUNTERS PASS",AUSTIN,TX,78734,"APACHE SHORES",1324,CONTRACTOR,,,,,,,,,,,"LANDMAN ENVIRONMENTAL",,,,,"LANDMAN ENVIRONMENTAL","5808 LAKESIDE TRL",AUSTIN,TX,78734-1440,"(512) 789-5048",http://www.landman-environmental.com/,,"JOHN FOX",jfox@landman-environmental.com
TX,TRAVIS,20-32091,"Single Family Homes",2/10/2021,,200000,,"7621 PARULINE DR",AUSTIN,TX,78738,PROVENCE,,CONTRACTOR,,,,,,,,,,,"ASHTON WOODS HOMES",,,,,"ASHTON WOODS HOMES","4201 W PARMER LN STE A150",AUSTIN,TX,78727-4118,"(512) 610-7000",,,,
TX,TRAVIS,20-32092,"Single Family Homes",2/22/2021,,195750,,"5204 WATUSI BEND",AUSTIN,TX,78732,"STEINER RANCH",53,CONTRACTOR,,,,,,,,,,,"LENNAR HOMES",,,,,"LENNAR HOMES","13620 FM 620 RD 150",AUSTIN,TX,78717,"(512) 506-4000",http://www.lennar.com/,,,
TX,TRAVIS,20-32100,"Single Family Homes",2/24/2021,,550000,,"4422 BRASADA LN",AUSTIN,TX,78654,"CHIMNEY OAKS AT LAKE TRAVIS",1,CONTRACTOR,,,,,,,,,,,"WUKASCH DESIGNS",,,,,"WUKASCH DESIGNS","235 KELLY DR",BURNET,TX,78611-2831,"(512) 715-9093",,,,
TX,TRAVIS,21-32129,"Single Family Homes",2/22/2021,,205700,,"16821 ADORO DR",MANOR,TX,78653,"WHISPER VALLEY VILLAGE",7,CONTRACTOR,,,,,,,,,,,"GFO HOME",,,,,"GFO HOME","6012 AVIATION DR # 200",PFLUGERVILLE,TX,78660-8960,"(512) 492-8640",https://www.gfohome.com,,,
TX,TRAVIS,21-32135,"Single Family Homes",2/22/2021,,498990,,"5709 CIMARRON RIDGE LN","DRIPPING SPRINGS",TX,78620,"SWEETWATER RANCH VILLAGE",18,CONTRACTOR,,,,,,,,,,,"TAYLOR MORRISON OF TEXAS",,,,,"TAYLOR MORRISON OF TEXAS","11200 LAKELINE BLVD STE 150A",AUSTIN,TX,78717-5964,"(512) 328-8866",,"(512) 328-7988",,
TX,TRAVIS,21-32136,"Single Family Homes",2/22/2021,,165000,,"5636 RESPINTO DR",AUSTIN,TX,78747,"BELLA FORTUNA",51,CONTRACTOR,,,,,,,,,,,"BROHN HOMES",,,,,"BROHN HOMES","6720 VAUGHT RANCH RD STE 200",AUSTIN,TX,78730-2354,"(512) 320-8833",http://brohnhomes.com/,,,
TX,TRAVIS,21-32137,"Single Family Homes",2/5/2021,,170000,,"5633 RESPINTO DR",AUSTIN,TX,78747,"BELLA FORTUNA",7,CONTRACTOR,,,,,,,,,,,"BROHN HOMES",,,,,"BROHN HOMES","6720 VAUGHT RANCH RD STE 200",AUSTIN,TX,78730-2354,"(512) 320-8833",http://brohnhomes.com/,,,
TX,TRAVIS,21-32138,"Single Family Homes",2/5/2021,,160000,,"5625 RESPINTO DR",AUSTIN,TX,78747,"BELLA FORTUNA",9,CONTRACTOR,,,,,,,,,,,"BROHN HOMES",,,,,"BROHN HOMES","6720 VAUGHT RANCH RD STE 200",AUSTIN,TX,78730-2354,"(512) 320-8833",http://brohnhomes.com/,,,
TX,TRAVIS,21-32139,"Single Family Homes",2/5/2021,,155000,,"5621 RESPINTO DR",AUSTIN,TX,78747,"BELLA FORTUNA",10,CONTRACTOR,,,,,,,,,,,"BROHN HOMES",,,,,"BROHN HOMES","6720 VAUGHT RANCH RD STE 200",AUSTIN,TX,78730-2354,"(512) 320-8833",http://brohnhomes.com/,,,
TX,TRAVIS,21-32140,"Single Family Homes",2/5/2021,,155000,,"5637 REPSINTO DR",AUSTIN,TX,78747,"BELLA FORTUNA",6,CONTRACTOR,,,,,,,,,,,"BROHN HOMES",,,,,"BROHN HOMES","6720 VAUGHT RANCH RD STE 200",AUSTIN,TX,78730-2354,"(512) 320-8833",http://brohnhomes.com/,,,
TX,TRAVIS,21-32141,"Single Family Homes",2/5/2021,,165000,,"11625 LAGO DE GARDA",AUSTIN,TX,78747,"BELLA FORTUNA",13,CONTRACTOR,,,,,,,,,,,"BROHN HOMES",,,,,"BROHN HOMES","6720 VAUGHT RANCH RD STE 200",AUSTIN,TX,78730-2354,"(512) 320-8833",http://brohnhomes.com/,,,
TX,TRAVIS,21-32142,"Single Family Homes",2/5/2021,,155000,,"11428 LAGO DE GARDA",AUSTIN,TX,78747,"BELLA FORTUNA",3,CONTRACTOR,,,,,,,,,,,"BROHN HOMES",,,,,"BROHN HOMES","6720 VAUGHT RANCH RD STE 200",AUSTIN,TX,78730-2354,"(512) 320-8833",http://brohnhomes.com/,,,
TX,TRAVIS,21-32156,"Single Family Homes",2/22/2021,,242742,,"13820 SAGE BLOSSOM DR",MANOR,TX,78653,SHADOWGLEN,4,CONTRACTOR,,,,,,,,,,,"DR HORTON",,,,,"DR HORTON","10700 PECAN PARK BLVD STE 400",AUSTIN,TX,78750-1227,"(512) 345-4663",,,,
TX,TRAVIS,21-32200,"Single Family Homes",2/5/2021,,155000,,"11305 LAGO DE GARDA",AUSTIN,TX,78747,"BELLA FORTUNA",52,CONTRACTOR,,,,,,,,,,,"BROHN HOMES",,,,,"BROHN HOMES","6720 VAUGHT RANCH RD STE 200",AUSTIN,TX,78730-2354,"(512) 320-8833",http://brohnhomes.com/,,,
TX,TRAVIS,21-32201,"Single Family Homes",2/5/2021,,165000,,"5608 CORSO CT",AUSTIN,TX,78747,"BELLA FORTUNA",24,CONTRACTOR,,,,,,,,,,,"BROHN HOMES",,,,,"BROHN HOMES","6720 VAUGHT RANCH RD STE 200",AUSTIN,TX,78730-2354,"(512) 320-8833",http://brohnhomes.com/,,,
TX,TRAVIS,21-32202,"Single Family Homes",2/5/2021,,150000,,"5620 CORSO CT",AUSTIN,TX,78747,"BELLA FORTUNA",27,CONTRACTOR,,,,,,,,,,,"BROHN HOMES",,,,,"BROHN HOMES","6720 VAUGHT RANCH RD STE 200",AUSTIN,TX,78730-2354,"(512) 320-8833",http://brohnhomes.com/,,,
TX,TRAVIS,21-32203,"Single Family Homes",2/5/2021,,155000,,"5616 RESPINTO DR",AUSTIN,TX,78747,"BELLA FORTUNA",46,CONTRACTOR,,,,,,,,,,,"BROHN HOMES",,,,,"BROHN HOMES","6720 VAUGHT RANCH RD STE 200",AUSTIN,TX,78730-2354,"(512) 320-8833",http://brohnhomes.com/,,,
TX,TRAVIS,21-32204,"Single Family Homes",2/5/2021,,155000,,"5624 RESPINTO DR",AUSTIN,TX,78747,"BELLA FORTUNA",48,CONTRACTOR,,,,,,,,,,,"BROHN HOMES",,,,,"BROHN HOMES","6720 VAUGHT RANCH RD STE 200",AUSTIN,TX,78730-2354,"(512) 320-8833",http://brohnhomes.com/,,,
TX,TRAVIS,21-32206,"Single Family Homes",2/5/2021,,150000,,"11613 LAGO DE GARDA",AUSTIN,TX,78747,"BELLA FORTUNA",16,CONTRACTOR,,,,,,,,,,,"BROHN HOMES",,,,,"BROHN HOMES","6720 VAUGHT RANCH RD STE 200",AUSTIN,TX,78730-2354,"(512) 320-8833",http://brohnhomes.com/,,,
TX,TRAVIS,21-32205,"Single Family Homes",2/24/2021,,150000,,"1209 SHARPS RD",AUSTIN,TX,78734,"APACHE SHORES",24,CONTRACTOR,,,,,,,,,,,"LANDMAN ENVIRONMENTAL",,,,,"LANDMAN ENVIRONMENTAL","5808 LAKESIDE TRL",AUSTIN,TX,78734-1440,"(512) 789-5048",http://www.landman-environmental.com/,,"JOHN FOX",jfox@landman-environmental.com
TX,TRAVIS,21-32210,"Single Family Homes",2/22/2021,,170000,,"11501 MILANO DR",AUSTIN,TX,78747,"BELLA FORTUNA",1,CONTRACTOR,,,,,,,,,,,"BROHN HOMES",,,,,"BROHN HOMES","6720 VAUGHT RANCH RD STE 200",AUSTIN,TX,78730-2354,"(512) 320-8833",http://brohnhomes.com/,,,
TX,TRAVIS,21-32211,"Single Family Homes",2/5/2021,,150000,,"5704 RESPINTO DR",AUSTIN,TX,78747,"BELLA FORTUNA",45,CONTRACTOR,,,,,,,,,,,"BROHN HOMES",,,,,"BROHN HOMES","6720 VAUGHT RANCH RD STE 200",AUSTIN,TX,78730-2354,"(512) 320-8833",http://brohnhomes.com/,,,
TX,TRAVIS,21-32240,"Single Family Homes",2/24/2021,,430990,,"5612 CIMARRON RIDGE LN","DRIPPING SPRINGS",TX,78620,"SWEETWATER RANCH VILLAGE",10,CONTRACTOR,,,,,,,,,,,"TAYLOR MORRISON OF TEXAS",,,,,"TAYLOR MORRISON OF TEXAS","11200 LAKELINE BLVD STE 150A",AUSTIN,TX,78717-5964,"(512) 328-8866",,"(512) 328-7988",,
TX,TRAVIS,21-32242,"Single Family Homes",2/23/2021,,200000,,"7629 ALOUETTE DR",AUSTIN,TX,78738,PROVENCE,16,CONTRACTOR,,,,,,,,,,,"ASHTON WOODS HOMES",,,,,"ASHTON WOODS HOMES","4201 W PARMER LN STE A150",AUSTIN,TX,78727-4118,"(512) 610-7000",,,,
TX,TRAVIS,21-32255,"Single Family Homes",2/4/2021,,317000,,"7512 COLIBRI DR",AUSTIN,TX,78738,PROVENCE,12,CONTRACTOR,,,,,,,,,,,"DREES CUSTOM HOMES",,,,,"DREES CUSTOM HOMES","7300 RANCH ROAD 2222 BLDG 2 STE 250",AUSTIN,TX,78730-3204,"(512) 241-7100",http://www.dreeshomes.com,,,
TX,TRAVIS,21-32262,"Single Family Homes",2/4/2021,,375000,,"8317 YOKOHAMA TERR",AUSTIN,TX,78744,"EASTON PARK",16,CONTRACTOR,,,,,,,,,,,"DAVID WEEKLEY HOMES",,,,,"DAVID WEEKLEY HOMES","9000 WATERFORD CENTRE BLVD",AUSTIN,TX,78758-7662,"(800) 390-6774",http://www.davidweekleyhomes.com/,,,
TX,TRAVIS,21-32263,"Single Family Homes",2/4/2021,,375000,,"8901 CENTURION PATH",AUSTIN,TX,78744,"MIRABEL PARK",12,CONTRACTOR,,,,,,,,,,,"DAVID WEEKLEY HOMES",,,,,"DAVID WEEKLEY HOMES","9000 WATERFORD CENTRE BLVD",AUSTIN,TX,78758-7662,"(800) 390-6774",http://www.davidweekleyhomes.com/,,,
TX,TRAVIS,21-32264,"Single Family Homes",2/4/2021,,375000,,"8901 SPIRE VIEW",AUSTIN,TX,78744,"MIRABEL PARK",8,CONTRACTOR,,,,,,,,,,,"DAVID WEEKLEY HOMES",,,,,"DAVID WEEKLEY HOMES","9000 WATERFORD CENTRE BLVD",AUSTIN,TX,78758-7662,"(800) 390-6774",http://www.davidweekleyhomes.com/,,,
TX,TRAVIS,21-32265,"Single Family Homes",2/4/2021,,375000,,"8905 CENTURION PATH",AUSTIN,TX,78744,"MIRABEL PARK",11,CONTRACTOR,,,,,,,,,,,"DAVID WEEKLEY HOMES",,,,,"DAVID WEEKLEY HOMES","9000 WATERFORD CENTRE BLVD",AUSTIN,TX,78758-7662,"(800) 390-6774",http://www.davidweekleyhomes.com/,,,
TX,TRAVIS,21-32266,"Single Family Homes",2/4/2021,,375000,,"9005 SPIRE VIEW",AUSTIN,TX,78744,"MIRABEL PARK",3,CONTRACTOR,,,,,,,,,,,"DAVID WEEKLEY HOMES",,,,,"DAVID WEEKLEY HOMES","9000 WATERFORD CENTRE BLVD",AUSTIN,TX,78758-7662,"(800) 390-6774",http://www.davidweekleyhomes.com/,,,
TX,TRAVIS,21-32273,"Single Family Homes",2/4/2021,,375000,,"9005 CENTURION PATH",AUSTIN,TX,78744,"MIRABEL PARK",6,CONTRACTOR,,,,,,,,,,,"DAVID WEEKLEY HOMES",,,,,"DAVID WEEKLEY HOMES","9000 WATERFORD CENTRE BLVD",AUSTIN,TX,78758-7662,"(800) 390-6774",http://www.davidweekleyhomes.com/,,,
TX,TRAVIS,21-32274,"Single Family Homes",2/4/2021,,375000,,"9001 CENTURION PATH",AUSTIN,TX,78744,"MIRABEL PARK",7,CONTRACTOR,,,,,,,,,,,"DAVID WEEKLEY HOMES",,,,,"DAVID WEEKLEY HOMES","9000 WATERFORD CENTRE BLVD",AUSTIN,TX,78758-7662,"(800) 390-6774",http://www.davidweekleyhomes.com/,,,
TX,TRAVIS,21-32275,"Single Family Homes",2/5/2021,,375000,,"8909 CENTURION PATH",AUSTIN,TX,78744,"MIRABEL PARK",10,CONTRACTOR,,,,,,,,,,,"DAVID WEEKLEY HOMES",,,,,"DAVID WEEKLEY HOMES","9000 WATERFORD CENTRE BLVD",AUSTIN,TX,78758-7662,"(800) 390-6774",http://www.davidweekleyhomes.com/,,,
TX,TRAVIS,21-32276,"Single Family Homes",2/4/2021,,375000,,"9000 LOOKSEE LN",AUSTIN,TX,78744,"MIRABEL PARK",17,CONTRACTOR,,,,,,,,,,,"DAVID WEEKLEY HOMES",,,,,"DAVID WEEKLEY HOMES","9000 WATERFORD CENTRE BLVD",AUSTIN,TX,78758-7662,"(800) 390-6774",http://www.davidweekleyhomes.com/,,,
TX,TRAVIS,21-32277,"Single Family Homes",2/4/2021,,375000,,"9008 CHRYSLER BND",AUSTIN,TX,78744,"MIRABEL PARK",5,CONTRACTOR,,,,,,,,,,,"DAVID WEEKLEY HOMES",,,,,"DAVID WEEKLEY HOMES","9000 WATERFORD CENTRE BLVD",AUSTIN,TX,78758-7662,"(800) 390-6774",http://www.davidweekleyhomes.com/,,,
TX,TRAVIS,21-32278,"Single Family Homes",2/4/2021,,375000,,"9004 LOOKSEE LN",AUSTIN,TX,78744,"MIRABEL PARK",18,CONTRACTOR,,,,,,,,,,,"DAVID WEEKLEY HOMES",,,,,"DAVID WEEKLEY HOMES","9000 WATERFORD CENTRE BLVD",AUSTIN,TX,78758-7662,"(800) 390-6774",http://www.davidweekleyhomes.com/,,,
TX,TRAVIS,21-32279,"Single Family Homes",2/5/2021,,500000,,"6902 COMANCHE TRL",AUSTIN,TX,78730,"COMANCHE PASS",3,CONTRACTOR,,,,,,,,,,,"CODY POOLS",,,,,"CODY POOLS","2300 W PARMER LN",AUSTIN,TX,78727-4332,"(512) 835-4966",http://www.codypools.com,,"COLE NAUMAN",
TX,TRAVIS,21-32280,"Single Family Homes",2/5/2021,,568000,,"18020 LECCION DR",PFLUGERVILLE,TX,78660,SORENTO,17,CONTRACTOR,,,,,,,,,,,"GEHAN HOMES",,,,,"GEHAN HOMES","3815 S CAPITAL OF TEXAS HWY STE 275",AUSTIN,TX,78704-6652,"(512) 330-9366",http://www.gehanhomes.com,,"JANET PHILLIPS",
TX,TRAVIS,21-32284,"Single Family Homes",2/22/2021,,700000,,"26700 WOODPECKER TRL",SPICEWOOD,TX,78669,"THE RANCH",7,CONTRACTOR,,,,,,,,,,,"SHUMATE HOMES",,,,,"SHUMATE HOMES","3516 PACE BEND RD S",SPICEWOOD,TX,78669-1690,"(512) 785-0274",,,"HAROLD SHUMATE",
TX,TRAVIS,21-32285,"Single Family Homes",2/24/2021,,388990,,"2901 SALDIVAR BEND",AUSTIN,TX,78728,BRATTON,128,CONTRACTOR,,,,,,,,,,,"TAYLOR MORRISON OF TEXAS",,,,,"TAYLOR MORRISON OF TEXAS","11200 LAKELINE BLVD STE 150A",AUSTIN,TX,78717-5964,"(512) 328-8866",,"(512) 328-7988",,
TX,TRAVIS,21-32297,"Single Family Homes",2/5/2021,,172205,,"20113 TALON GRASP TRL",PFLUGERVILLE,TX,78660,"PARK AT BLACKHAWK",29,CONTRACTOR,,,,,,,,,,,"SCOTT FELDER HOMES",,,,,"SCOTT FELDER HOMES","6414 RIVER PLACE BLVD STE 100",AUSTIN,TX,78730-1158,"(512) 418-5400",,,,
TX,TRAVIS,21-32300,"Single Family Homes",2/5/2021,,239338,,"12708 MISSION RIVER DR",MANCHACA,TX,78652,"BEAR CREEK CROSSING",74,CONTRACTOR,,,,,,,,,,,"M/I HOMES",,,,,"M/I HOMES","6801 N CAPITAL OF TEXAS HWY BLDG 2 STE 100",AUSTIN,TX,78731-1780,"(512) 770-8500",,,,
TX,TRAVIS,21-32302,"Single Family Homes",2/5/2021,,221450,,"408 BUFFALO RIDGE DR",MANCHACA,TX,78652,"BEAR CREEK CROSSING",52,CONTRACTOR,,,,,,,,,,,"M/I HOMES",,,,,"M/I HOMES","6801 N CAPITAL OF TEXAS HWY BLDG 2 STE 100",AUSTIN,TX,78731-1780,"(512) 770-8500",,,,
TX,TRAVIS,21-32308,"Single Family Homes",2/5/2021,,172205,,"20004 TALON GRASP TRL",PFLUGERVILLE,TX,78660,"PARK AT BLACKHAWK",13,CONTRACTOR,,,,,,,,,,,"SCOTT FELDER HOMES",,,,,"SCOTT FELDER HOMES","6414 RIVER PLACE BLVD STE 100",AUSTIN,TX,78730-1158,"(512) 418-5400",,,,
TX,TRAVIS,21-32309,"Single Family Homes",2/5/2021,,143165,,"3816 SANDHILL CRANE DR",PFLUGERVILLE,TX,78660,"PARK AT BLACKHAWK",,CONTRACTOR,,,,,,,,,,,"SCOTT FELDER HOMES",,,,,"SCOTT FELDER HOMES","6414 RIVER PLACE BLVD STE 100",AUSTIN,TX,78730-1158,"(512) 418-5400",,,,
TX,TRAVIS,21-32313,"Single Family Homes",2/4/2021,,318700,,"8209 HUBBLE WALK",AUSTIN,TX,78744,"MIRABEL PARK",18,CONTRACTOR,,,,,,,,,,,"BROOKFIELD RESIDENTIAL PROPERTIES",,,,,"BROOKFIELD RESIDENTIAL PROPERTIES","11501 ALTERRA PKWY STE 100",AUSTIN,TX,78758-3201,"(512) 391-1330",,,,
TX,TRAVIS,21-32314,"Single Family Homes",2/5/2021,,307200,,"8908 CHRYSLER BEND",AUSTIN,TX,78744,"MIRABEL PARK",16,CONTRACTOR,,,,,,,,,,,"BROOKFIELD RESIDENTIAL PROPERTIES",,,,,"BROOKFIELD RESIDENTIAL PROPERTIES","11501 ALTERRA PKWY STE 100",AUSTIN,TX,78758-3201,"(512) 391-1330",,,,
TX,TRAVIS,21-32315,"Single Family Homes",2/5/2021,,308400,,"9108 SPIRE VIEW",AUSTIN,TX,78744,"MIRABEL PARK",,CONTRACTOR,,,,,,,,,,,"BROOKFIELD RESIDENTIAL PROPERTIES",,,,,"BROOKFIELD RESIDENTIAL PROPERTIES","11501 ALTERRA PKWY STE 100",AUSTIN,TX,78758-3201,"(512) 391-1330",,,,
TX,TRAVIS,,"Single Family Homes",2/5/2021,,260000,,"8300 AUSBLICK AVE",AUSTIN,TX,78744,"EASTON PARK",1,CONTRACTOR,,,,,,,,,,,"BROOKFIELD RESIDENTIAL PROPERTIES",,,,,"BROOKFIELD RESIDENTIAL PROPERTIES","11501 ALTERRA PKWY STE 100",AUSTIN,TX,78758-3201,"(512) 391-1330",,,,
TX,TRAVIS,21-32319,"Single Family Homes",2/5/2021,,271100,,"8301 ORIZZONTE ST",AUSTIN,TX,78744,"EASTON PARK",2,CONTRACTOR,,,,,,,,,,,"BROOKFIELD RESIDENTIAL PROPERTIES",,,,,"BROOKFIELD RESIDENTIAL PROPERTIES","11501 ALTERRA PKWY STE 100",AUSTIN,TX,78758-3201,"(512) 391-1330",,,,
TX,TRAVIS,21-32337,"Single Family Homes",2/4/2021,,578835,,"16408 COURSIER DR",AUSTIN,TX,78738,PROVENCE,,CONTRACTOR,,,,,,,,,,,"NEWMARK HOMES",,,,,"NEWMARK HOMES","10455 BRIAR FOREST SUITE 200",HOUSTON,TX,77042,"(713) 346-0200",,"(713) 346-0226",,
TX,TRAVIS,21-32347,"Single Family Homes",2/22/2021,,236500,,"101 TANGLED BRUSH DR",MANCHACA,TX,78652,"BEAR CREEK CROSSING",51,CONTRACTOR,,,,,,,,,,,"M/I HOMES",,,,,"M/I HOMES","6801 N CAPITAL OF TEXAS HWY BLDG 2 STE 100",AUSTIN,TX,78731-1780,"(512) 770-8500",,,,
TX,TRAVIS,21-32348,"Single Family Homes",2/5/2021,,1500000,,"8505 OLLA CERO LN",AUSTIN,TX,78735,"AMARRA DRIVE",3,CONTRACTOR,,,,,,,,,,,"HEYL HOMES",,,,,"HEYL HOMES","6601 VAUGHT RANCH RD STE 102",AUSTIN,TX,78730-2322,"(512) 343-8457",http://www.heylhomes.com/,"(512) 343-9583",,
TX,TRAVIS,21-32349,"Single Family Homes",2/23/2021,,1700000,,"8709 ACUARELA CT",AUSTIN,TX,78735,"AMARRA DRIVE",5,CONTRACTOR,,,,,,,,,,,"HEYL HOMES",,,,,"HEYL HOMES","6601 VAUGHT RANCH RD STE 102",AUSTIN,TX,78730-2322,"(512) 343-8457",http://www.heylhomes.com/,"(512) 343-9583",,
TX,TRAVIS,21-32367,"Single Family Homes",2/22/2021,,258516,,"304 BUFFALO RIDGE DR",MANCHACA,TX,78652,"BEAR CREEK CROSSING",58,CONTRACTOR,,,,,,,,,,,"M/I HOMES",,,,,"M/I HOMES","6801 N CAPITAL OF TEXAS HWY BLDG 2 STE 100",AUSTIN,TX,78731-1780,"(512) 770-8500",,,,
TX,TRAVIS,21-32368,"Single Family Homes",2/5/2021,,155000,,"11700 LAGO DE GARDA",AUSTIN,TX,78747,"BELLA FORTUNA",9,CONTRACTOR,,,,,,,,,,,"BROHN HOMES",,,,,"BROHN HOMES","6720 VAUGHT RANCH RD STE 200",AUSTIN,TX,78730-2354,"(512) 320-8833",http://brohnhomes.com/,,,
TX,TRAVIS,21-32369,"Single Family Homes",2/5/2021,,165000,,"11632 LAGO DE GARDA",AUSTIN,TX,78747,"BELLA FORTUNA",10,CONTRACTOR,,,,,,,,,,,"BROHN HOMES",,,,,"BROHN HOMES","6720 VAUGHT RANCH RD STE 200",AUSTIN,TX,78730-2354,"(512) 320-8833",http://brohnhomes.com/,,,
TX,TRAVIS,21-32370,"Single Family Homes",2/5/2021,,170000,,"11628 LAGO DE GARDA",AUSTIN,TX,78747,"BELLA FORTUNA",11,CONTRACTOR,,,,,,,,,,,"BROHN HOMES",,,,,"BROHN HOMES","6720 VAUGHT RANCH RD STE 200",AUSTIN,TX,78730-2354,"(512) 320-8833",http://brohnhomes.com/,,,
TX,TRAVIS,21-32371,"Single Family Homes",2/5/2021,,150000,,"11624 LAGO DE GARDA",AUSTIN,TX,78747,"BELLA FORTUNA",12,CONTRACTOR,,,,,,,,,,,"BROHN HOMES",,,,,"BROHN HOMES","6720 VAUGHT RANCH RD STE 200",AUSTIN,TX,78730-2354,"(512) 320-8833",http://brohnhomes.com/,,,
TX,TRAVIS,21-32372,"Single Family Homes",2/5/2021,,150000,,"11620 LAGO DE GARDA",AUSTIN,TX,78747,"BELLA FORTUNA",13,CONTRACTOR,,,,,,,,,,,"BROHN HOMES",,,,,"BROHN HOMES","6720 VAUGHT RANCH RD STE 200",AUSTIN,TX,78730-2354,"(512) 320-8833",http://brohnhomes.com/,,,
TX,TRAVIS,21-32373,"Single Family Homes",2/22/2021,,200000,,"7616 PARULINE DR",AUSTIN,TX,78738,PROVENCE,6,CONTRACTOR,,,,,,,,,,,"ASHTON WOODS HOMES",,,,,"ASHTON WOODS HOMES","4201 W PARMER LN STE A150",AUSTIN,TX,78727-4118,"(512) 610-7000",,,,
TX,TRAVIS,21-32374,"Single Family Homes",2/22/2021,,200000,,"7629 PARULINE DR",AUSTIN,TX,78738,PROVENCE,13,CONTRACTOR,,,,,,,,,,,"ASHTON WOODS HOMES",,,,,"ASHTON WOODS HOMES","4201 W PARMER LN STE A150",AUSTIN,TX,78727-4118,"(512) 610-7000",,,,
TX,HAYS,BLR2020-3639,"Single Family Homes",2/1/2021,,250000,3142,"1378 TREETA TRL",KYLE,TX,78640,"BUNTON CREEK",,CONTRACTOR,,,,,,,,,,,"LGI HOMES",,,,,"LGI HOMES","1450 LAKE ROBBINS SUITE 430",CONROE,TX,77380,"(210) 563-4648",,"(281) 210-2601",,
TX,HAYS,BLR2020-3641,"Single Family Homes",2/1/2021,,250000,3142,"1354 TREETA TRL",KYLE,TX,78640,"BUNTON CREEK",,CONTRACTOR,,,,,,,,,,,"LGI HOMES",,,,,"LGI HOMES","1450 LAKE ROBBINS SUITE 430",CONROE,TX,77380,"(210) 563-4648",,"(281) 210-2601",,
TX,HAYS,BLR2020-3645,"Single Family Homes",2/1/2021,,250000,3142,"1222 TREETA TRL",KYLE,TX,78640,"BUNTON CREEK",,CONTRACTOR,,,,,,,,,,,"LGI HOMES",,,,,"LGI HOMES","1450 LAKE ROBBINS SUITE 430",CONROE,TX,77380,"(210) 563-4648",,"(281) 210-2601",,
TX,HAYS,BLR2020-3647,"Single Family Homes",2/1/2021,,250000,3142,"1198 TREETA TRL",KYLE,TX,78640,"BUNTON CREEK",,CONTRACTOR,,,,,,,,,,,"LGI HOMES",,,,,"LGI HOMES","1450 LAKE ROBBINS SUITE 430",CONROE,TX,77380,"(210) 563-4648",,"(281) 210-2601",,
TX,HAYS,BLR2020-3648,"Single Family Homes",2/1/2021,,250000,2823,"1186 TREETA TRL",KYLE,TX,78640,"BUNTON CREEK",,CONTRACTOR,,,,,,,,,,,"LGI HOMES",,,,,"LGI HOMES","1450 LAKE ROBBINS SUITE 430",CONROE,TX,77380,"(210) 563-4648",,"(281) 210-2601",,
TX,HAYS,BLR2020-3662,"Single Family Homes",2/1/2021,,250000,2823,"1271 TREETA TRL",KYLE,TX,78640,"BUNTON CREEK",,CONTRACTOR,,,,,,,,,,,"LGI HOMES",,,,,"LGI HOMES","1450 LAKE ROBBINS SUITE 430",CONROE,TX,77380,"(210) 563-4648",,"(281) 210-2601",,
TX,HAYS,BLR2020-3664,"Single Family Homes",2/1/2021,,250000,2823,"1212 BREANNA LN",KYLE,TX,78640,"BUNTON CREEK",,CONTRACTOR,,,,,,,,,,,"LGI HOMES",,,,,"LGI HOMES","1450 LAKE ROBBINS SUITE 430",CONROE,TX,77380,"(210) 563-4648",,"(281) 210-2601",,
TX,HAYS,BLR2020-3665,"Single Family Homes",2/1/2021,,250000,2390,"1224 BREANNA LN",KYLE,TX,78640,"BUNTON CREEK",,CONTRACTOR,,,,,,,,,,,"LGI HOMES",,,,,"LGI HOMES","1450 LAKE ROBBINS SUITE 430",CONROE,TX,77380,"(210) 563-4648",,"(281) 210-2601",,
TX,HAYS,BLR2020-3667,"Single Family Homes",2/1/2021,,250000,3142,"1248 BREANNA LN",KYLE,TX,78640,"BUNTON CREEK",,CONTRACTOR,,,,,,,,,,,"LGI HOMES",,,,,"LGI HOMES","1450 LAKE ROBBINS SUITE 430",CONROE,TX,77380,"(210) 563-4648",,"(281) 210-2601",,
TX,HAYS,BLR2020-3656,"Single Family Homes",2/1/2021,,250000,3142,"1307 TREETA TRL",KYLE,TX,78640,"BUNTON CREEK",,CONTRACTOR,,,,,,,,,,,"LGI HOMES",,,,,"LGI HOMES","1450 LAKE ROBBINS SUITE 430",CONROE,TX,77380,"(210) 563-4648",,"(281) 210-2601",,
TX,HAYS,BLR2021-3815,"Single Family Homes",2/1/2021,,257000,2116,"592 FERRULE DR",KYLE,TX,78640,BROOKSIDE,,CONTRACTOR,,,,,,,,,,,"BIGELOW DEVELOPMENT",,,,,"BIGELOW DEVELOPMENT","1048 SANDERS",KYLE,TX,78640-6122,"(512) 504-9243",,,,
TX,HAYS,BLR2020-3612,"Single Family Homes",2/1/2021,,229800,1915,"1625 WOODLANDS DR",KYLE,TX,78640,WOODLANDS,,CONTRACTOR,,,,,,,,,,,"MERITAGE HOMES",,,,,"MERITAGE HOMES","8920 BUSINESS PARK DR STE 250",AUSTIN,TX,78759-7622,"(512) 610-4800",,,,
TX,HAYS,BLR2021-3807,"Single Family Homes",2/2/2021,,136738,2753,"440 SILVER SPRINGS BND",KYLE,TX,78640,"COOL SPRINGS",,CONTRACTOR,,,,,,,,,,,"MILESTONE COMMUNITY BUILDERS",,,,,"MILESTONE COMMUNITY BUILDERS","9111 JOLLYVILLE RD STE 111",AUSTIN,TX,78759-7406,"(512) 686-4986",http://www.mymilestone.com/,,,
TX,HAYS,BLR2021-3808,"Single Family Homes",2/2/2021,,120461,2570,"400 SILVER SPRINGS BND",KYLE,TX,78640,"COOL SPRINGS",,CONTRACTOR,,,,,,,,,,,"MILESTONE COMMUNITY BUILDERS",,,,,"MILESTONE COMMUNITY BUILDERS","9111 JOLLYVILLE RD STE 111",AUSTIN,TX,78759-7406,"(512) 686-4986",http://www.mymilestone.com/,,,
TX,HAYS,BLR2021-3884,"Single Family Homes",2/2/2021,,284000,2374,"142 MARTHA LN",KYLE,TX,78640,"PLUM CREEK",,CONTRACTOR,,,,,,,,,,,"BIGELOW DEVELOPMENT",,,,,"BIGELOW DEVELOPMENT","1048 SANDERS",KYLE,TX,78640-6122,"(512) 504-9243",,,,
TX,HAYS,BLR2021-3816,"Single Family Homes",2/3/2021,,120461,2570,"101 EMERALD PASS",KYLE,TX,78640,"COOL SPRINGS",,CONTRACTOR,,,,,,,,,,,"MILESTONE COMMUNITY BUILDERS",,,,,"MILESTONE COMMUNITY BUILDERS","9111 JOLLYVILLE RD STE 111",AUSTIN,TX,78759-7406,"(512) 686-4986",http://www.mymilestone.com/,,,
TX,HAYS,BLR2021-3817,"Single Family Homes",2/3/2021,,182500,1825,"379 EAGLE FORD DR",KYLE,TX,78640,"SIX CREEKS",,CONTRACTOR,,,,,,,,,,,"M/I HOMES",,,,,"M/I HOMES","6801 N CAPITAL OF TEXAS HWY BLDG 2 STE 100",AUSTIN,TX,78731-1780,"(512) 770-8500",,,,
TX,HAYS,BLR2021-3812,"Single Family Homes",2/3/2021,,257500,2575,"178 COYOTE CREEK WAY",KYLE,TX,78640,"SIX CREEKS",,CONTRACTOR,,,,,,,,,,,"M/I HOMES",,,,,"M/I HOMES","6801 N CAPITAL OF TEXAS HWY BLDG 2 STE 100",AUSTIN,TX,78731-1780,"(512) 770-8500",,,,
TX,HAYS,BLR2021-3813,"Single Family Homes",2/3/2021,,257500,2575,"303 EAGLE FORD DR",KYLE,TX,78640,"SIX CREEKS",,CONTRACTOR,,,,,,,,,,,"M/I HOMES",,,,,"M/I HOMES","6801 N CAPITAL OF TEXAS HWY BLDG 2 STE 100",AUSTIN,TX,78731-1780,"(512) 770-8500",,,,
TX,HAYS,BLR2021-3819,"Single Family Homes",2/3/2021,,147600,2454,"185 SALT SPRINGS RD",KYLE,TX,78640,"COOL SPRINGS",,CONTRACTOR,,,,,,,,,,,"LENNAR HOMES",,,,,"LENNAR HOMES","13620 FM 620 RD 150",AUSTIN,TX,78717,"(512) 506-4000",http://www.lennar.com/,,,
TX,HAYS,BLR2021-3821,"Single Family Homes",2/4/2021,,333500,2668,"286 PELICAN BAY CIR",KYLE,TX,78640,CROSSWINDS,,CONTRACTOR,,,,,,,,,,,"PACESETTER HOMES ",,,,,"PACESETTER HOMES ","7940 SHOAL CREEK BLVD STE 200",AUSTIN,TX,78757-7587,"(512) 323-5252",,,,
TX,HAYS,BLR2021-3822,"Single Family Homes",2/4/2021,,263750,2110,"212 PELICAN BAY CIR",KYLE,TX,78640,CROSSWINDS,,CONTRACTOR,,,,,,,,,,,"PACESETTER HOMES ",,,,,"PACESETTER HOMES ","7940 SHOAL CREEK BLVD STE 200",AUSTIN,TX,78757-7587,"(512) 323-5252",,,,
TX,HAYS,BLR2021-3823,"Single Family Homes",2/4/2021,,286250,2290,"201 BISCAYNE BAY BND",KYLE,TX,78640,CROSSWINDS,,CONTRACTOR,,,,,,,,,,,"PACESETTER HOMES ",,,,,"PACESETTER HOMES ","7940 SHOAL CREEK BLVD STE 200",AUSTIN,TX,78757-7587,"(512) 323-5252",,,,
TX,HAYS,BLR2021-3824,"Single Family Homes",2/4/2021,,349250,2794,"294 PELICAN BAY CIR",KYLE,TX,78640,CROSSWINDS,,CONTRACTOR,,,,,,,,,,,"PACESETTER HOMES ",,,,,"PACESETTER HOMES ","7940 SHOAL CREEK BLVD STE 200",AUSTIN,TX,78757-7587,"(512) 323-5252",,,,
TX,HAYS,BLR2021-3825,"Single Family Homes",2/4/2021,,284875,2279,"412 SPINNAKER LOOP",KYLE,TX,78640,CROSSWINDS,,CONTRACTOR,,,,,,,,,,,"PACESETTER HOMES ",,,,,"PACESETTER HOMES ","7940 SHOAL CREEK BLVD STE 200",AUSTIN,TX,78757-7587,"(512) 323-5252",,,,
TX,HAYS,BLR2021-3818,"Single Family Homes",2/4/2021,,410000,3088,"137 FAWN RIVER RUN,",KYLE,TX,78640,"SIX CREEKS",,CONTRACTOR,,,,,,,,,,,"PERRY HOMES",,,,,"PERRY HOMES","6112 LLANO ST",AUSTIN,TX,78702,"(512) 810-8050",,,,
TX,HAYS,BLR2021-3827,"Single Family Homes",2/4/2021,,189450,3223,"255 SALT SPRINGS RD",KYLE,TX,78640,"COOL SPRINGS",,CONTRACTOR,,,,,,,,,,,"LENNAR HOMES",,,,,"LENNAR HOMES","13620 FM 620 RD 150",AUSTIN,TX,78717,"(512) 506-4000",http://www.lennar.com/,,,
TX,HAYS,BLR2021-3828,"Single Family Homes",2/4/2021,,147600,2454,"245 SALT SPRINGS RD",KYLE,TX,78640,"COOL SPRINGS",,CONTRACTOR,,,,,,,,,,,"LENNAR HOMES",,,,,"LENNAR HOMES","13620 FM 620 RD 150",AUSTIN,TX,78717,"(512) 506-4000",http://www.lennar.com/,,,
TX,HAYS,BLR2021-3829,"Single Family Homes",2/4/2021,,129675,2416,"235 SALT SPRINGS RD",KYLE,TX,78640,"COOL SPRINGS",,CONTRACTOR,,,,,,,,,,,"LENNAR HOMES",,,,,"LENNAR HOMES","13620 FM 620 RD 150",AUSTIN,TX,78717,"(512) 506-4000",http://www.lennar.com/,,,
TX,HAYS,BLR2021-3832,"Single Family Homes",2/4/2021,,133050,2418,"195 SALT SPRINGS RD",KYLE,TX,78640,"COOL SPRINGS",,CONTRACTOR,,,,,,,,,,,"LENNAR HOMES",,,,,"LENNAR HOMES","13620 FM 620 RD 150",AUSTIN,TX,78717,"(512) 506-4000",http://www.lennar.com/,,,
TX,HAYS,BLR2021-3838,"Single Family Homes",2/5/2021,,117880,1695,"332 SILVER GLEN DR",KYLE,TX,78640,"COOL SPRINGS",,CONTRACTOR,,,,,,,,,,,"MILESTONE COMMUNITY BUILDERS",,,,,"MILESTONE COMMUNITY BUILDERS","9111 JOLLYVILLE RD STE 111",AUSTIN,TX,78759-7406,"(512) 686-4986",http://www.mymilestone.com/,,,
TX,HAYS,BLR2021-3839,"Single Family Homes",2/5/2021,,135495,2342,"172 MANATEE LN",KYLE,TX,78640,"COOL SPRINGS",,CONTRACTOR,,,,,,,,,,,"MILESTONE COMMUNITY BUILDERS",,,,,"MILESTONE COMMUNITY BUILDERS","9111 JOLLYVILLE RD STE 111",AUSTIN,TX,78759-7406,"(512) 686-4986",http://www.mymilestone.com/,,,
TX,HAYS,BLR2021-3840,"Single Family Homes",2/5/2021,,126515,2343,"226 SILVER SPRINGS BND",KYLE,TX,78640,"COOL SPRINGS",,CONTRACTOR,,,,,,,,,,,"MILESTONE COMMUNITY BUILDERS",,,,,"MILESTONE COMMUNITY BUILDERS","9111 JOLLYVILLE RD STE 111",AUSTIN,TX,78759-7406,"(512) 686-4986",http://www.mymilestone.com/,,,
TX,HAYS,BLR2021-3806,"Single Family Homes",2/5/2021,,249135,2931,"230 FUCHSIA ST",KYLE,TX,78640,"SUNSET HILLS",,CONTRACTOR,,,,,,,,,,,"KB HOME",,,,,"KB HOME","10800 PECAN PARK BLVD STE 200",AUSTIN,TX,78750-1249,"(512) 651-8100",,,,
TX,HAYS,BLR2021-3788,"Single Family Homes",2/5/2021,,265030,3118,"170 KENNICOTT DR",KYLE,TX,78640,STAG,,CONTRACTOR,,,,,,,,,,,"KB HOME",,,,,"KB HOME","10800 PECAN PARK BLVD STE 200",AUSTIN,TX,78750-1249,"(512) 651-8100",,,,
TX,HAYS,BLR2021-3790,"Single Family Homes",2/5/2021,,161160,1896,"260 AUBURN ST",KYLE,TX,78640,"SUNSET HILLS",,CONTRACTOR,,,,,,,,,,,"KB HOME",,,,,"KB HOME","10800 PECAN PARK BLVD STE 200",AUSTIN,TX,78750-1249,"(512) 651-8100",,,,
TX,HAYS,BLR2021-3826,"Single Family Homes",2/5/2021,,120000,2246,"215 SALT SPRINGS RD",KYLE,TX,78640,"COOL SPRINGS",,CONTRACTOR,,,,,,,,,,,"LENNAR HOMES",,,,,"LENNAR HOMES","13620 FM 620 RD 150",AUSTIN,TX,78717,"(512) 506-4000",http://www.lennar.com/,,,
TX,HAYS,BLR2021-3830,"Single Family Homes",2/5/2021,,105750,2029,"225 SALT SPRINGS RD",KYLE,TX,78640,"COOL SPRINGS",,CONTRACTOR,,,,,,,,,,,"LENNAR HOMES",,,,,"LENNAR HOMES","13620 FM 620 RD 150",AUSTIN,TX,78717,"(512) 506-4000",http://www.lennar.com/,,,
TX,HAYS,BLR2021-3831,"Single Family Homes",2/5/2021,,143475,2548,"205 SALT SPRINGS RD",KYLE,TX,78640,"COOL SPRINGS",,CONTRACTOR,,,,,,,,,,,"LENNAR HOMES",,,,,"LENNAR HOMES","13620 FM 620 RD 150",AUSTIN,TX,78717,"(512) 506-4000",http://www.lennar.com/,,,
TX,HAYS,BLR2021-3837,"Single Family Homes",2/8/2021,,578035,3882,"562 PAINTED CREEK WAY",KYLE,TX,78640,"SIX CREEKS",,CONTRACTOR,,,,,,,,,,,"HIGHLAND HOMES",,,,,"HIGHLAND HOMES","4201 W PARMER LN STE B180",AUSTIN,TX,78727-4110,"(512) 834-8429",,,,
TX,HAYS,BLR2021-3847,"Single Family Homes",2/9/2021,,206900,2069,"189 PAINTED CREEK WAY",KYLE,TX,78640,"SIX CREEKS",,CONTRACTOR,,,,,,,,,,,"M/I HOMES",,,,,"M/I HOMES","6801 N CAPITAL OF TEXAS HWY BLDG 2 STE 100",AUSTIN,TX,78731-1780,"(512) 770-8500",,,,
TX,HAYS,BLR2021-3848,"Single Family Homes",2/9/2021,,232700,2327,"502 COLD RIVER RUN",KYLE,TX,78640,"SIX CREEKS",,CONTRACTOR,,,,,,,,,,,"M/I HOMES",,,,,"M/I HOMES","6801 N CAPITAL OF TEXAS HWY BLDG 2 STE 100",AUSTIN,TX,78731-1780,"(512) 770-8500",,,,
TX,HAYS,BLR2021-3849,"Single Family Homes",2/9/2021,,206900,2069,"136 FAWN RIVER RUN",KYLE,TX,78640,"SIX CREEKS",,CONTRACTOR,,,,,,,,,,,"M/I HOMES",,,,,"M/I HOMES","6801 N CAPITAL OF TEXAS HWY BLDG 2 STE 100",AUSTIN,TX,78731-1780,"(512) 770-8500",,,,
TX,HAYS,BLR2021-3851,"Single Family Homes",2/9/2021,,229000,2290,"426 COLD RIVER RUN",KYLE,TX,78640,"SIX CREEKS",,CONTRACTOR,,,,,,,,,,,"M/I HOMES",,,,,"M/I HOMES","6801 N CAPITAL OF TEXAS HWY BLDG 2 STE 100",AUSTIN,TX,78731-1780,"(512) 770-8500",,,,
TX,HAYS,BLR2021-3853,"Single Family Homes",2/9/2021,,184000,1840,"171 FAWN RIVER RUN",KYLE,TX,78640,"SIX CREEKS",,CONTRACTOR,,,,,,,,,,,"M/I HOMES",,,,,"M/I HOMES","6801 N CAPITAL OF TEXAS HWY BLDG 2 STE 100",AUSTIN,TX,78731-1780,"(512) 770-8500",,,,
TX,HAYS,BLR2021-3841,"Single Family Homes",2/9/2021,,278900,2789,"196 EAGLE FORD DR",KYLE,TX,78640,"SIX CREEKS",,CONTRACTOR,,,,,,,,,,,"M/I HOMES",,,,,"M/I HOMES","6801 N CAPITAL OF TEXAS HWY BLDG 2 STE 100",AUSTIN,TX,78731-1780,"(512) 770-8500",,,,
TX,HAYS,BLR2021-3842,"Single Family Homes",2/9/2021,,182500,1825,"152 FAWN RIVER RUN",KYLE,TX,78640,"SIX CREEKS",,CONTRACTOR,,,,,,,,,,,"M/I HOMES",,,,,"M/I HOMES","6801 N CAPITAL OF TEXAS HWY BLDG 2 STE 100",AUSTIN,TX,78731-1780,"(512) 770-8500",,,,
TX,HAYS,BLR2021-3843,"Single Family Homes",2/9/2021,,213200,2132,"294 COLD RIVER RUN",KYLE,TX,78640,"SIX CREEKS",,CONTRACTOR,,,,,,,,,,,"M/I HOMES",,,,,"M/I HOMES","6801 N CAPITAL OF TEXAS HWY BLDG 2 STE 100",AUSTIN,TX,78731-1780,"(512) 770-8500",,,,
TX,HAYS,BLR2021-3844,"Single Family Homes",2/9/2021,,275000,2750,"222 EAGLE FORD DR",KYLE,TX,78640,"SIX CREEKS",,CONTRACTOR,,,,,,,,,,,"M/I HOMES",,,,,"M/I HOMES","6801 N CAPITAL OF TEXAS HWY BLDG 2 STE 100",AUSTIN,TX,78731-1780,"(512) 770-8500",,,,
TX,HAYS,BLR2021-3846,"Single Family Homes",2/9/2021,,120075,2219,"278 SILVER GLEN DR",KYLE,TX,78640,"COOL SPRINGS",,CONTRACTOR,,,,,,,,,,,"LENNAR HOMES",,,,,"LENNAR HOMES","13620 FM 620 RD 150",AUSTIN,TX,78717,"(512) 506-4000",http://www.lennar.com/,,,
TX,HAYS,BLR2021-3811,"Single Family Homes",2/10/2021,,370000,1848,"135 SEQUOIA DR",KYLE,TX,78640,"CYPRESS FOREST",,CONTRACTOR,,,,,,,,,,,"DAVID WEEKLEY HOMES",,,,,"DAVID WEEKLEY HOMES","9000 WATERFORD CENTRE BLVD",AUSTIN,TX,78758-7662,"(800) 390-6774",http://www.davidweekleyhomes.com/,,,
TX,HAYS,BLR2021-3859,"Single Family Homes",2/10/2021,,370000,2729,"112 ANGELINA CT",KYLE,TX,78640,"CYPRESS FOREST",,CONTRACTOR,,,,,,,,,,,"DAVID WEEKLEY HOMES",,,,,"DAVID WEEKLEY HOMES","9000 WATERFORD CENTRE BLVD",AUSTIN,TX,78758-7662,"(800) 390-6774",http://www.davidweekleyhomes.com/,,,
TX,HAYS,BLR2021-3860,"Single Family Homes",2/10/2021,,370000,2728,"1115 OLYMPIC LN",KYLE,TX,78640,"CYPRESS FOREST",,CONTRACTOR,,,,,,,,,,,"DAVID WEEKLEY HOMES",,,,,"DAVID WEEKLEY HOMES","9000 WATERFORD CENTRE BLVD",AUSTIN,TX,78758-7662,"(800) 390-6774",http://www.davidweekleyhomes.com/,,,
TX,HAYS,BLR2021-3861,"Single Family Homes",2/10/2021,,370000,2423,"277 HELENA LN",KYLE,TX,78640,"CYPRESS FOREST",,CONTRACTOR,,,,,,,,,,,"DAVID WEEKLEY HOMES",,,,,"DAVID WEEKLEY HOMES","9000 WATERFORD CENTRE BLVD",AUSTIN,TX,78758-7662,"(800) 390-6774",http://www.davidweekleyhomes.com/,,,
TX,HAYS,BLR2021-3893,"Single Family Homes",2/10/2021,,,3132,"200 OLYMPIC CT",KYLE,TX,78640,"CYPRESS FOREST",,CONTRACTOR,,,,,,,,,,,"SCOTT FELDER HOMES",,,,,"SCOTT FELDER HOMES","6414 RIVER PLACE BLVD STE 100",AUSTIN,TX,78730-1158,"(512) 418-5400",,,,
TX,HAYS,BLR2021-3845,"Single Family Homes",2/11/2021,,425000,3146,"456 COLD RIVER RUN",KYLE,TX,78640,"SIX CREEKS",,CONTRACTOR,,,,,,,,,,,"PERRY HOMES",,,,,"PERRY HOMES","6112 LLANO ST",AUSTIN,TX,78702,"(512) 810-8050",,,,
TX,HAYS,BLR2021-3858,"Single Family Homes",2/11/2021,,294247,2322,"193 ALEXANDER",KYLE,TX,78640,"PLUM CREEK",,CONTRACTOR,,,,,,,,,,,"EHT OF TEXAS LP",,,,,"EHT OF TEXAS LP","3520 EXECUTIVE CENTER DR STE 100",AUSTIN,TX,78731-1636,"(757) 287-6394",,,,
TX,HAYS,BLR2021-3894,"Single Family Homes",2/12/2021,,247181,1868,"180 ALEXANDER",KYLE,TX,78640,"PLUM CREEK",,CONTRACTOR,,,,,,,,,,,"EHT OF TEXAS LP",,,,,"EHT OF TEXAS LP","3520 EXECUTIVE CENTER DR STE 100",AUSTIN,TX,78731-1636,"(757) 287-6394",,,,
TX,HAYS,BLR2021-3758,"Single Family Homes",2/12/2021,,,2903,"222 ARAPAHO DR",KYLE,TX,78640,"CYPRESS FOREST",,CONTRACTOR,,,,,,,,,,,"SCOTT FELDER HOMES",,,,,"SCOTT FELDER HOMES","6414 RIVER PLACE BLVD STE 100",AUSTIN,TX,78730-1158,"(512) 418-5400",,,,
TX,HAYS,BLR2021-3810,"Single Family Homes",2/12/2021,,215985,2541,"230 KENNICOTT DR",KYLE,TX,78640,STAGECOACH,,CONTRACTOR,,,,,,,,,,,"KB HOME",,,,,"KB HOME","10800 PECAN PARK BLVD STE 200",AUSTIN,TX,78750-1249,"(512) 651-8100",,,,
TX,HAYS,BLR2021-3834,"Single Family Homes",2/12/2021,,340170,4002,"239 KENNICOTT DR",KYLE,TX,78640,STAGECOACH,,CONTRACTOR,,,,,,,,,,,"KB HOME",,,,,"KB HOME","10800 PECAN PARK BLVD STE 200",AUSTIN,TX,78750-1249,"(512) 651-8100",,,,
TX,HAYS,BLR2021-3835,"Single Family Homes",2/12/2021,,340170,4002,"282 CRIMSON LN",KYLE,TX,78640,"SUNSET HILLS",,CONTRACTOR,,,,,,,,,,,"KB HOME",,,,,"KB HOME","10800 PECAN PARK BLVD STE 200",AUSTIN,TX,78750-1249,"(512) 651-8100",,,,
TX,HAYS,BLR2021-3854,"Single Family Homes",2/12/2021,,340680,4008,"209 KENNICOTT DR",KYLE,TX,78640,STAGECOACH,,CONTRACTOR,,,,,,,,,,,"KB HOME",,,,,"KB HOME","10800 PECAN PARK BLVD STE 200",AUSTIN,TX,78750-1249,"(512) 651-8100",,,,
TX,HAYS,BLR2021-3855,"Single Family Homes",2/12/2021,,161160,1896,"269 KENNICOTT DR",KYLE,TX,78640,STAGECOACH,,CONTRACTOR,,,,,,,,,,,"KB HOME",,,,,"KB HOME","10800 PECAN PARK BLVD STE 200",AUSTIN,TX,78750-1249,"(512) 651-8100",,,,
TX,HAYS,BLR2021-3856,"Single Family Homes",2/12/2021,,236810,2786,"246 JOHNNY CAKE DR",KYLE,TX,78640,STAGECOACH,,CONTRACTOR,,,,,,,,,,,"KB HOME",,,,,"KB HOME","10800 PECAN PARK BLVD STE 200",AUSTIN,TX,78750-1249,"(512) 651-8100",,,,
TX,HAYS,BLR2021-3857,"Single Family Homes",2/12/2021,,340170,4002,"200 FUCHSIA ST",KYLE,TX,78640,"SUNSET HILLS",,CONTRACTOR,,,,,,,,,,,"KB HOME",,,,,"KB HOME","10800 PECAN PARK BLVD STE 200",AUSTIN,TX,78750-1249,"(512) 651-8100",,,,
TX,HAYS,BLR2021-3886,"Single Family Homes",2/16/2021,,340170,4002,"270 AUBURN ST",KYLE,TX,78640,"SUNSET HILLS",,CONTRACTOR,,,,,,,,,,,"KB HOME",,,,,"KB HOME","10800 PECAN PARK BLVD STE 200",AUSTIN,TX,78750-1249,"(512) 651-8100",,,,
TX,HAYS,BLR2021-3887,"Single Family Homes",2/16/2021,,247435,2911,"231 AUBURN ST",KYLE,TX,78640,"SUNSET HILLS",,CONTRACTOR,,,,,,,,,,,"KB HOME",,,,,"KB HOME","10800 PECAN PARK BLVD STE 200",AUSTIN,TX,78750-1249,"(512) 651-8100",,,,
TX,HAYS,BLR2021-3888,"Single Family Homes",2/16/2021,,247435,2911,"299 CRIMSON LN",KYLE,TX,78640,"SUNSET HILLS",,CONTRACTOR,,,,,,,,,,,"KB HOME",,,,,"KB HOME","10800 PECAN PARK BLVD STE 200",AUSTIN,TX,78750-1249,"(512) 651-8100",,,,
TX,HAYS,BLR2021-3889,"Single Family Homes",2/16/2021,,207485,2441,"220 FUCHSIA ST",KYLE,TX,78640,"SUNSET HILLS",,CONTRACTOR,,,,,,,,,,,"KB HOME",,,,,"KB HOME","10800 PECAN PARK BLVD STE 200",AUSTIN,TX,78750-1249,"(512) 651-8100",,,,
TX,HAYS,BLR2021-3891,"Single Family Homes",2/16/2021,,340170,4002,"190 KENNICOTT DR",KYLE,TX,78640,STAGECOACH,,CONTRACTOR,,,,,,,,,,,"KB HOME",,,,,"KB HOME","10800 PECAN PARK BLVD STE 200",AUSTIN,TX,78750-1249,"(512) 651-8100",,,,
TX,HAYS,BLR2021-3892,"Single Family Homes",2/16/2021,,265030,3118,"200 KENNICOTT DR",KYLE,TX,78640,STAGECOACH,,CONTRACTOR,,,,,,,,,,,"KB HOME",,,,,"KB HOME","10800 PECAN PARK BLVD STE 200",AUSTIN,TX,78750-1249,"(512) 651-8100",,,,
TX,HAYS,BLR2021-3895,"Single Family Homes",2/17/2021,,406035,2133,"153 WEST BRANCH RD",KYLE,TX,78640,"SIX CREEKS",,CONTRACTOR,,,,,,,,,,,"MHI MCGUYER HOMEBUILDERS",,,,,"MHI MCGUYER HOMEBUILDERS","8200 N MO PAC EXPY STE 300",AUSTIN,TX,78759-8844,"(512) 502-2050",,"(512) 388-1836","FRANK MCGUYER",
TX,HAYS,BLR2021-3908,"Single Family Homes",2/17/2021,,306990,3099,"282 TREASURE TROVE PATH",KYLE,TX,78640,CROSSWINDS,,CONTRACTOR,,,,,,,,,,,"GEHAN HOMES",,,,,"GEHAN HOMES","3815 S CAPITAL OF TEXAS HWY STE 275",AUSTIN,TX,78704-6652,"(512) 330-9366",http://www.gehanhomes.com,,"JANET PHILLIPS",
TX,HAYS,BLR2021-3890,"Single Family Homes",2/18/2021,,207485,2441,"251 AUBURN ST",KYLE,TX,78640,"SUNSET HILLS",,CONTRACTOR,,,,,,,,,,,"KB HOME",,,,,"KB HOME","10800 PECAN PARK BLVD STE 200",AUSTIN,TX,78750-1249,"(512) 651-8100",,,,
TX,HAYS,BLR2021-3910,"Single Family Homes",2/18/2021,,290000,2621,"130 MARTHA LN",KYLE,TX,78640,"PLUM CREEK",,CONTRACTOR,,,,,,,,,,,"BIGELOW DEVELOPMENT",,,,,"BIGELOW DEVELOPMENT","1048 SANDERS",KYLE,TX,78640-6122,"(512) 504-9243",,,,
TX,HAYS,BLR2021-3937,"Single Family Homes",2/19/2021,,295000,2606,"124 MARTHA LN",KYLE,TX,7640,"PLUM CREEK",,CONTRACTOR,,,,,,,,,,,"BIGELOW DEVELOPMENT",,,,,"BIGELOW DEVELOPMENT","1048 SANDERS",KYLE,TX,78640-6122,"(512) 504-9243",,,,
TX,HAYS,BLR2021-3941,"Single Family Homes",2/19/2021,,161350,2305,"117 MAMMOTH DR",KYLE,TX,78640,PARAMOUNT,,CONTRACTOR,,,,,,,,,,,"CASTLEROCK COMMUNITIES",,,,,"CASTLEROCK COMMUNITIES","7670 WOODWAY DR STE 300",HOUSTON,TX,77063-1520,"(713) 600-7000",http://c-rock.com,"(713) 600-0000",,
TX,HAYS,BLR2021-3942,"Single Family Homes",2/19/2021,,203210,2903,"196 ZION DR",KYLE,TX,78640,PARAMOUNT,,CONTRACTOR,,,,,,,,,,,"CASTLEROCK COMMUNITIES",,,,,"CASTLEROCK COMMUNITIES","7670 WOODWAY DR STE 300",HOUSTON,TX,77063-1520,"(713) 600-7000",http://c-rock.com,"(713) 600-0000",,
TX,HAYS,BLR2021-3943,"Single Family Homes",2/19/2021,,152810,2183,"109 MAMMOTH DR",KYLE,TX,78640,PARAMOUNT,,CONTRACTOR,,,,,,,,,,,"CASTLEROCK COMMUNITIES",,,,,"CASTLEROCK COMMUNITIES","7670 WOODWAY DR STE 300",HOUSTON,TX,77063-1520,"(713) 600-7000",http://c-rock.com,"(713) 600-0000",,
TX,HAYS,BLR2021-3944,"Single Family Homes",2/19/2021,,155190,2217,"157 MAMMOTH DR",KYLE,TX,78640,PARAMOUNT,,CONTRACTOR,,,,,,,,,,,"CASTLEROCK COMMUNITIES",,,,,"CASTLEROCK COMMUNITIES","7670 WOODWAY DR STE 300",HOUSTON,TX,77063-1520,"(713) 600-7000",http://c-rock.com,"(713) 600-0000",,
TX,HAYS,BLR2021-3945,"Single Family Homes",2/19/2021,,152810,2183,"141 MAMMOTH DR",KYLE,TX,78640,PARAMOUNT,,CONTRACTOR,,,,,,,,,,,"CASTLEROCK COMMUNITIES",,,,,"CASTLEROCK COMMUNITIES","7670 WOODWAY DR STE 300",HOUSTON,TX,77063-1520,"(713) 600-7000",http://c-rock.com,"(713) 600-0000",,
TX,HAYS,BLR2021-3933,"Single Family Homes",2/22/2021,,450000,3073,"225 PAINTED CREEK WAY",KYLE,TX,78640,"SIX CREEKS",,CONTRACTOR,,,,,,,,,,,"PERRY HOMES",,,,,"PERRY HOMES","6112 LLANO ST",AUSTIN,TX,78702,"(512) 810-8050",,,,
TX,HAYS,BLR2021-3934,"Single Family Homes",2/22/2021,,425000,3146,"186 FAWN RIVER RUN",KYLE,TX,78640,"SIX CREEKS",,CONTRACTOR,,,,,,,,,,,"PERRY HOMES",,,,,"PERRY HOMES","6112 LLANO ST",AUSTIN,TX,78702,"(512) 810-8050",,,,
TX,HAYS,BLR2021-3939,"Single Family Homes",2/22/2021,,243333,2119,"190 ALEXANDER",KYLE,TX,78640,"PLUM CREEK",,CONTRACTOR,,,,,,,,,,,"EHT OF TEXAS LP",,,,,"EHT OF TEXAS LP","3520 EXECUTIVE CENTER DR STE 100",AUSTIN,TX,78731-1636,"(757) 287-6394",,,,
TX,HAYS,BLR2021-3940,"Single Family Homes",2/22/2021,,268045,2069,"1270 HARWELL LOOP",KYLE,TX,78640,"PLUM CREEK",,CONTRACTOR,,,,,,,,,,,"EHT OF TEXAS LP",,,,,"EHT OF TEXAS LP","3520 EXECUTIVE CENTER DR STE 100",AUSTIN,TX,78731-1636,"(757) 287-6394",,,,
TX,HAYS,BLR2021-3850,"Single Family Homes",2/22/2021,,229000,2290,"251 PAINTED CREEK WAY",KYLE,TX,78640,"SIX CREEKS",,CONTRACTOR,,,,,,,,,,,"M/I HOMES",,,,,"M/I HOMES","6801 N CAPITAL OF TEXAS HWY BLDG 2 STE 100",AUSTIN,TX,78731-1780,"(512) 770-8500",,,,
TX,HAYS,BLR2021-3852,"Single Family Homes",2/22/2021,,182500,1825,"354 EAGLE FORD DR",KYLE,TX,78640,"SIX CREEKS",,CONTRACTOR,,,,,,,,,,,"M/I HOMES",,,,,"M/I HOMES","6801 N CAPITAL OF TEXAS HWY BLDG 2 STE 100",AUSTIN,TX,78731-1780,"(512) 770-8500",,,,
TX,HAYS,BLR2021-3864,"Single Family Homes",2/22/2021,,182500,1825,"311 EAGLE FORD DR",KYLE,TX,78640,"SIX CREEKS",,CONTRACTOR,,,,,,,,,,,"M/I HOMES",,,,,"M/I HOMES","6801 N CAPITAL OF TEXAS HWY BLDG 2 STE 100",AUSTIN,TX,78731-1780,"(512) 770-8500",,,,
TX,HAYS,BLR2021-3906,"Single Family Homes",2/22/2021,,275000,2750,"128 FAWN RIVER RUN",KYLE,TX,78640,"SIX CREEKS",,CONTRACTOR,,,,,,,,,,,"M/I HOMES",,,,,"M/I HOMES","6801 N CAPITAL OF TEXAS HWY BLDG 2 STE 100",AUSTIN,TX,78731-1780,"(512) 770-8500",,,,
TX,HAYS,BLR2021-3907,"Single Family Homes",2/22/2021,,184000,1840,"436 COLD RIVER RUN",KYLE,TX,78640,"SIX CREEKS",,CONTRACTOR,,,,,,,,,,,"M/I HOMES",,,,,"M/I HOMES","6801 N CAPITAL OF TEXAS HWY BLDG 2 STE 100",AUSTIN,TX,78731-1780,"(512) 770-8500",,,,
TX,HAYS,BLR2021-3862,"Single Family Homes",2/22/2021,,250000,2823,"1342 TREETA TRL",KYLE,TX,78640,"BUNTON CREEK",,CONTRACTOR,,,,,,,,,,,"LGI HOMES",,,,,"LGI HOMES","1450 LAKE ROBBINS SUITE 430",CONROE,TX,77380,"(210) 563-4648",,"(281) 210-2601",,
TX,HAYS,BLR2021-3863,"Single Family Homes",2/22/2021,,250000,3142,"1330 TREETA TRL",KYLE,TX,78640,"BUNTON CREEK",,CONTRACTOR,,,,,,,,,,,"LGI HOMES",,,,,"LGI HOMES","1450 LAKE ROBBINS SUITE 430",CONROE,TX,77380,"(210) 563-4648",,"(281) 210-2601",,
TX,HAYS,BLR2021-3899,"Single Family Homes",2/22/2021,,250000,3142,"1037 VIOLET LN",KYLE,TX,78640,"BUNTON CREEK",,CONTRACTOR,,,,,,,,,,,"LGI HOMES",,,,,"LGI HOMES","1450 LAKE ROBBINS SUITE 430",CONROE,TX,77380,"(210) 563-4648",,"(281) 210-2601",,
TX,HAYS,BLR2021-3900,"Single Family Homes",2/22/2021,,250000,2808,"1025 VIOLET LN",KYLE,TX,78640,"BUNTON CREEK",,CONTRACTOR,,,,,,,,,,,"LGI HOMES",,,,,"LGI HOMES","1450 LAKE ROBBINS SUITE 430",CONROE,TX,77380,"(210) 563-4648",,"(281) 210-2601",,
TX,HAYS,BLR2021-3901,"Single Family Homes",2/22/2021,,250000,2808,"1048 VIOLET LN",KYLE,TX,78640,"BUNTON CREEK",,CONTRACTOR,,,,,,,,,,,"LGI HOMES",,,,,"LGI HOMES","1450 LAKE ROBBINS SUITE 430",CONROE,TX,77380,"(210) 563-4648",,"(281) 210-2601",,
TX,HAYS,BLR2021-3902,"Single Family Homes",2/22/2021,,250000,3142,"1036 VIOLET LN",KYLE,TX,78640,"BUNTON CREEK",,CONTRACTOR,,,,,,,,,,,"LGI HOMES",,,,,"LGI HOMES","1450 LAKE ROBBINS SUITE 430",CONROE,TX,77380,"(210) 563-4648",,"(281) 210-2601",,
TX,HAYS,BLR2021-3912,"Single Family Homes",2/22/2021,,250000,3142,"1201 BREANNA LN",KYLE,TX,78640,"BUNTON CREEK",,CONTRACTOR,,,,,,,,,,,"LGI HOMES",,,,,"LGI HOMES","1450 LAKE ROBBINS SUITE 430",CONROE,TX,77380,"(210) 563-4648",,"(281) 210-2601",,
TX,HAYS,BLR2021-3913,"Single Family Homes",2/22/2021,,250000,2390,"1213 BREANNA LN",KYLE,TX,78640,"BUNTON CREEK",,CONTRACTOR,,,,,,,,,,,"LGI HOMES",,,,,"LGI HOMES","1450 LAKE ROBBINS SUITE 430",CONROE,TX,77380,"(210) 563-4648",,"(281) 210-2601",,
TX,HAYS,BLR2021-3914,"Single Family Homes",2/22/2021,,250000,2823,"1225 BREANNA LN",KYLE,TX,78640,"BUNTON CREEK",,CONTRACTOR,,,,,,,,,,,"LGI HOMES",,,,,"LGI HOMES","1450 LAKE ROBBINS SUITE 430",CONROE,TX,77380,"(210) 563-4648",,"(281) 210-2601",,
TX,HAYS,BLR2021-3915,"Single Family Homes",2/22/2021,,250000,3142,"1237 BREANNA LN",KYLE,TX,78640,"BUNTON CREEK",,CONTRACTOR,,,,,,,,,,,"LGI HOMES",,,,,"LGI HOMES","1450 LAKE ROBBINS SUITE 430",CONROE,TX,77380,"(210) 563-4648",,"(281) 210-2601",,
TX,HAYS,BLR2021-3916,"Single Family Homes",2/22/2021,,250000,2808,"1278 BREANNA LN",KYLE,TX,78640,"BUNTON CREEK",,CONTRACTOR,,,,,,,,,,,"LGI HOMES",,,,,"LGI HOMES","1450 LAKE ROBBINS SUITE 430",CONROE,TX,77380,"(210) 563-4648",,"(281) 210-2601",,
TX,HAYS,BLR2021-3922,"Single Family Homes",2/22/2021,,250000,2390,"1226 AMY DR",KYLE,TX,78640,"BUNTON CREEK",,CONTRACTOR,,,,,,,,,,,"LGI HOMES",,,,,"LGI HOMES","1450 LAKE ROBBINS SUITE 430",CONROE,TX,77380,"(210) 563-4648",,"(281) 210-2601",,
TX,HAYS,BLR2021-3923,"Single Family Homes",2/22/2021,,250000,3142,"1238 AMY DR",KYLE,TX,78640,"BUNTON CREEK",,CONTRACTOR,,,,,,,,,,,"LGI HOMES",,,,,"LGI HOMES","1450 LAKE ROBBINS SUITE 430",CONROE,TX,77380,"(210) 563-4648",,"(281) 210-2601",,
TX,HAYS,BLR2021-3865,"Single Family Homes",2/22/2021,,250000,2390,"1318 TREETA TRL",KYLE,TX,78640,"BUNTON CREEK",,CONTRACTOR,,,,,,,,,,,"LGI HOMES",,,,,"LGI HOMES","1450 LAKE ROBBINS SUITE 430",CONROE,TX,77380,"(210) 563-4648",,"(281) 210-2601",,
TX,HAYS,BLR2021-3866,"Single Family Homes",2/22/2021,,250000,2823,BLR2021-3866,KYLE,TX,78640,"BUNTON CREEK",,CONTRACTOR,,,,,,,,,,,"LGI HOMES",,,,,"LGI HOMES","1450 LAKE ROBBINS SUITE 430",CONROE,TX,77380,"(210) 563-4648",,"(281) 210-2601",,
TX,HAYS,BLR2021-3867,"Single Family Homes",2/22/2021,,250000,3142,"1294 TREETA TRL",KYLE,TX,78640,"BUNTON CREEK",,CONTRACTOR,,,,,,,,,,,"LGI HOMES",,,,,"LGI HOMES","1450 LAKE ROBBINS SUITE 430",CONROE,TX,77380,"(210) 563-4648",,"(281) 210-2601",,
TX,HAYS,BLR2021-3868,"Single Family Homes",2/22/2021,,250000,2823,"1282 TREETA TRL",KYLE,TX,78640,"BUNTON CREEK",,CONTRACTOR,,,,,,,,,,,"LGI HOMES",,,,,"LGI HOMES","1450 LAKE ROBBINS SUITE 430",CONROE,TX,77380,"(210) 563-4648",,"(281) 210-2601",,
TX,HAYS,BLR2021-3871,"Single Family Homes",2/22/2021,,250000,3142,"1150 TREETA TRL",KYLE,TX,78640,"BUNTON CREEK",,CONTRACTOR,,,,,,,,,,,"LGI HOMES",,,,,"LGI HOMES","1450 LAKE ROBBINS SUITE 430",CONROE,TX,77380,"(210) 563-4648",,"(281) 210-2601",,
TX,HAYS,BLR2021-3873,"Single Family Homes",2/22/2021,,250000,3142,BLR2021-3873,KYLE,TX,78640,"BUNTON CREEK",,CONTRACTOR,,,,,,,,,,,"LGI HOMES",,,,,"LGI HOMES","1450 LAKE ROBBINS SUITE 430",CONROE,TX,77380,"(210) 563-4648",,"(281) 210-2601",,
TX,HAYS,BLR2021-3874,"Single Family Homes",2/22/2021,,250000,2390,"1114 TREETA TRL",KYLE,TX,78640,"BUNTON CREEK",,CONTRACTOR,,,,,,,,,,,"LGI HOMES",,,,,"LGI HOMES","1450 LAKE ROBBINS SUITE 430",CONROE,TX,77380,"(210) 563-4648",,"(281) 210-2601",,
TX,HAYS,BLR2021-3875,"Single Family Homes",2/22/2021,,250000,2808,"1102 TREETA TRL",KYLE,TX,78640,"BUNTON CREEK",,CONTRACTOR,,,,,,,,,,,"LGI HOMES",,,,,"LGI HOMES","1450 LAKE ROBBINS SUITE 430",CONROE,TX,77380,"(210) 563-4648",,"(281) 210-2601",,
TX,HAYS,BLR2021-3876,"Single Family Homes",2/22/2021,,250000,3142,"1235 TREETA TRL",KYLE,TX,78640,"BUNTON CREEK",,CONTRACTOR,,,,,,,,,,,"LGI HOMES",,,,,"LGI HOMES","1450 LAKE ROBBINS SUITE 430",CONROE,TX,77380,"(210) 563-4648",,"(281) 210-2601",,
TX,HAYS,BLR2021-3877,"Single Family Homes",2/22/2021,,250000,2823,"1223 TREETA TRL",KYLE,TX,78640,"BUNTON CREEK",,CONTRACTOR,,,,,,,,,,,"LGI HOMES",,,,,"LGI HOMES","1450 LAKE ROBBINS SUITE 430",CONROE,TX,77380,"(210) 563-4648",,"(281) 210-2601",,
TX,HAYS,BLR2021-3878,"Single Family Homes",2/22/2021,,250000,3142,"1211 TREETA TRL",KYLE,TX,78640,"BUNTON CREEK",,CONTRACTOR,,,,,,,,,,,"LGI HOMES",,,,,"LGI HOMES","1450 LAKE ROBBINS SUITE 430",CONROE,TX,77380,"(210) 563-4648",,"(281) 210-2601",,
TX,HAYS,BLR2021-3879,"Single Family Homes",2/22/2021,,250000,2390,"1199 TREETA TRL",KYLE,TX,78640,"BUNTON CREEK",,CONTRACTOR,,,,,,,,,,,"LGI HOMES",,,,,"LGI HOMES","1450 LAKE ROBBINS SUITE 430",CONROE,TX,77380,"(210) 563-4648",,"(281) 210-2601",,
TX,HAYS,BLR2021-3880,"Single Family Homes",2/22/2021,,250000,3142,"1187 TREETA TRL",KYLE,TX,78640,"BUNTON CREEK",,CONTRACTOR,,,,,,,,,,,"LGI HOMES",,,,,"LGI HOMES","1450 LAKE ROBBINS SUITE 430",CONROE,TX,77380,"(210) 563-4648",,"(281) 210-2601",,
TX,HAYS,BLR2021-3881,"Single Family Homes",2/22/2021,,250000,2823,BLR2021-3881,KYLE,TX,78640,"BUNTON CREEK",,CONTRACTOR,,,,,,,,,,,"LGI HOMES",,,,,"LGI HOMES","1450 LAKE ROBBINS SUITE 430",CONROE,TX,77380,"(210) 563-4648",,"(281) 210-2601",,
TX,HAYS,BLR2021-3882,"Single Family Homes",2/22/2021,,250000,3142,"1163 TREETA TRL",KYLE,TX,78640,"BUNTON CREEK",,CONTRACTOR,,,,,,,,,,,"LGI HOMES",,,,,"LGI HOMES","1450 LAKE ROBBINS SUITE 430",CONROE,TX,77380,"(210) 563-4648",,"(281) 210-2601",,
TX,HAYS,BLR2021-3885,"Single Family Homes",2/24/2021,,290000,2606,"136 MARTHA LN",KYLE,TX,78640,"PLUM CREEK",,CONTRACTOR,,,,,,,,,,,"BIGELOW DEVELOPMENT",,,,,"BIGELOW DEVELOPMENT","1048 SANDERS",KYLE,TX,78640-6122,"(512) 504-9243",,,,
TX,HAYS,BLR2021-3968,"Single Family Homes",2/24/2021,,252000,1869,"596 FERRULE DR",KYLE,TX,78640,BROOKSIDE,,CONTRACTOR,,,,,,,,,,,"BIGELOW DEVELOPMENT",,,,,"BIGELOW DEVELOPMENT","1048 SANDERS",KYLE,TX,78640-6122,"(512) 504-9243",,,,
TX,HAYS,BLR2021-3966,"Single Family Homes",2/24/2021,,317000,2687,"118 MARTHA LN",KYLE,TX,78640,"PLUM CREEK",,CONTRACTOR,,,,,,,,,,,"BIGELOW DEVELOPMENT",,,,,"BIGELOW DEVELOPMENT","1048 SANDERS",KYLE,TX,78640-6122,"(512) 504-9243",,,,
TX,HAYS,BLR2021-3976,"Single Family Homes",2/25/2021,,335363,2658,"126 RAINS",KYLE,TX,78640,"PLUM CREEK",,CONTRACTOR,,,,,,,,,,,"EHT OF TEXAS LP",,,,,"EHT OF TEXAS LP","3520 EXECUTIVE CENTER DR STE 100",AUSTIN,TX,78731-1636,"(757) 287-6394",,,,
TX,HAYS,BLR2021-3947,"Single Family Homes",2/26/2021,,340170,4002,"135 SIX SHOOTER DR",KYLE,TX,78640,STAGECOACH,,CONTRACTOR,,,,,,,,,,,"KB HOME",,,,,"KB HOME","10800 PECAN PARK BLVD STE 200",AUSTIN,TX,78750-1249,"(512) 651-8100",,,,
TX,HAYS,BLR2021-3948,"Single Family Homes",2/26/2021,,180030,2118,"280 JARBRIDGE DR",KYLE,TX,78640,STAGECOACH,,CONTRACTOR,,,,,,,,,,,"KB HOME",,,,,"KB HOME","10800 PECAN PARK BLVD STE 200",AUSTIN,TX,78750-1249,"(512) 651-8100",,,,
TX,HAYS,BLR2021-3949,"Single Family Homes",2/26/2021,,265030,3118,"160 KAT GARNET DR",KYLE,TX,78640,STAGECOACH,,CONTRACTOR,,,,,,,,,,,"KB HOME",,,,,"KB HOME","10800 PECAN PARK BLVD STE 200",AUSTIN,TX,78750-1249,"(512) 651-8100",,,,
TX,HAYS,BLR2021-3950,"Single Family Homes",2/26/2021,,340170,4002,"190 KAT GARNET DR",KYLE,TX,78640,STAGECOACH,,CONTRACTOR,,,,,,,,,,,"KB HOME",,,,,"KB HOME","10800 PECAN PARK BLVD STE 200",AUSTIN,TX,78750-1249,"(512) 651-8100",,,,
TX,HAYS,BLR2021-3951,"Single Family Homes",2/26/2021,,306000,3600,"200 KAT GARNET DR",KYLE,TX,78640,STAGECOACH,,CONTRACTOR,,,,,,,,,,,"KB HOME",,,,,"KB HOME","10800 PECAN PARK BLVD STE 200",AUSTIN,TX,78750-1249,"(512) 651-8100",,,,
TX,HAYS,BLR2021-3952,"Single Family Homes",2/26/2021,,265030,3118,"259 KENNICOTT DR",KYLE,TX,78640,STAGECOACH,,CONTRACTOR,,,,,,,,,,,"KB HOME",,,,,"KB HOME","10800 PECAN PARK BLVD STE 200",AUSTIN,TX,78750-1249,"(512) 651-8100",,,,
TX,HAYS,BLR2021-3953,"Single Family Homes",2/26/2021,,219725,2585,"289 KENNICOTT DR",KYLE,TX,78640,STAGECOACH,,CONTRACTOR,,,,,,,,,,,"KB HOME",,,,,"KB HOME","10800 PECAN PARK BLVD STE 200",AUSTIN,TX,78750-1249,"(512) 651-8100",,,,
TX,HAYS,BLR2021-3954,"Single Family Homes",2/26/2021,,161075,1895,"229 KENNICOTT DR",KYLE,TX,78640,STAGECOACH,,CONTRACTOR,,,,,,,,,,,"KB HOME",,,,,"KB HOME","10800 PECAN PARK BLVD STE 200",AUSTIN,TX,78750-1249,"(512) 651-8100",,,,
TX,HAYS,BLR2021-3955,"Single Family Homes",2/26/2021,,199920,2352,"190 FUCHSIA ST",KYLE,TX,78640,"SUNSET HILLS",,CONTRACTOR,,,,,,,,,,,"KB HOME",,,,,"KB HOME","10800 PECAN PARK BLVD STE 200",AUSTIN,TX,78750-1249,"(512) 651-8100",,,,
TX,HAYS,BLR2021-3956,"Single Family Homes",2/26/2021,,196605,2313,"260 KENNICOTT DR",KYLE,TX,78640,STAGECOACH,,CONTRACTOR,,,,,,,,,,,"KB HOME",,,,,"KB HOME","10800 PECAN PARK BLVD STE 200",AUSTIN,TX,78750-1249,"(512) 651-8100",,,,
TX,HAYS,BLR2021-3958,"Single Family Homes",2/26/2021,,244885,2881,"141 KENNICOTT DR",KYLE,TX,78640,STAGECOACH,,CONTRACTOR,,,,,,,,,,,"KB HOME",,,,,"KB HOME","10800 PECAN PARK BLVD STE 200",AUSTIN,TX,78750-1249,"(512) 651-8100",,,,
TX,HAYS,BLR2021-3959,"Single Family Homes",2/26/2021,,161160,1896,"211 AUBURN ST",KYLE,TX,78640,"SUNSET HILLS",,CONTRACTOR,,,,,,,,,,,"KB HOME",,,,,"KB HOME","10800 PECAN PARK BLVD STE 200",AUSTIN,TX,78750-1249,"(512) 651-8100",,,,
TX,HAYS,BLR2021-3960,"Single Family Homes",2/26/2021,,340170,4002,"219 CRIMSON LN",KYLE,TX,78640,"SUNSET HILLS",,CONTRACTOR,,,,,,,,,,,"KB HOME",,,,,"KB HOME","10800 PECAN PARK BLVD STE 200",AUSTIN,TX,78750-1249,"(512) 651-8100",,,,
TX,HAYS,BLR2021-3961,"Single Family Homes",2/26/2021,,251685,2961,"279 CRIMSON LN",KYLE,TX,78640,"SUNSET HILLS",,CONTRACTOR,,,,,,,,,,,"KB HOME",,,,,"KB HOME","10800 PECAN PARK BLVD STE 200",AUSTIN,TX,78750-1249,"(512) 651-8100",,,,
TX,HAYS,BLR2021-3963,"Single Family Homes",2/26/2021,,249900,2940,"270 FUCHSIA ST",KYLE,TX,78640,"SUNSET HILLS",,CONTRACTOR,,,,,,,,,,,"KB HOME",,,,,"KB HOME","10800 PECAN PARK BLVD STE 200",AUSTIN,TX,78750-1249,"(512) 651-8100",,,,
TX,HAYS,BLR2021-3964,"Single Family Homes",2/26/2021,,215985,2541,"309 CRIMSON LN",KYLE,TX,78640,"SUNSET HILLS",,CONTRACTOR,,,,,,,,,,,"KB HOME",,,,,"KB HOME","10800 PECAN PARK BLVD STE 200",AUSTIN,TX,78750-1249,"(512) 651-8100",,,,
TX,HAYS,BLR2021-3965,"Single Family Homes",2/26/2021,,196180,2308,"241 AUBURN ST",KYLE,TX,78640,"SUNSET HILLS",,CONTRACTOR,,,,,,,,,,,"KB HOME",,,,,"KB HOME","10800 PECAN PARK BLVD STE 200",AUSTIN,TX,78750-1249,"(512) 651-8100",,,,
TX,HAYS,BLR2020-3620,"Single Family Homes",2/26/2021,,275190,2142,"266 TREASURE TROVE PATH",KYLE,TX,78640,CROSSWINDS,,CONTRACTOR,,,,,,,,,,,"HIGHLAND HOMES",,,,,"HIGHLAND HOMES","4201 W PARMER LN STE B180",AUSTIN,TX,78727-4110,"(512) 834-8429",,,,
TX,HAYS,BLR2020-3672,"Single Family Homes",2/26/2021,,312440,2518,"258 TREASURE TROVE PATH",KYLE,TX,78640,CROSSWINDS,,CONTRACTOR,,,,,,,,,,,"HIGHLAND HOMES",,,,,"HIGHLAND HOMES","4201 W PARMER LN STE B180",AUSTIN,TX,78727-4110,"(512) 834-8429",,,,
TX,HAYS,BLR2021-3796,"Single Family Homes",2/26/2021,,392360,3507,"147 TREASURE TROVE PATH",KYLE,TX,78640,CROSSWINDS,,CONTRACTOR,,,,,,,,,,,"HIGHLAND HOMES",,,,,"HIGHLAND HOMES","4201 W PARMER LN STE B180",AUSTIN,TX,78727-4110,"(512) 834-8429",,,,
TX,HAYS,BLR2021-3983,"Single Family Homes",2/26/2021,,189450,3179,"125 SALT SPRINGS RD",KYLE,TX,78640,"COOL SPRINGS",,CONTRACTOR,,,,,,,,,,,"LENNAR HOMES",,,,,"LENNAR HOMES","13620 FM 620 RD 150",AUSTIN,TX,78717,"(512) 506-4000",http://www.lennar.com/,,,
TX,TRAVIS,"2021-030312 BP","Single Family Homes",3/3/2021,,138225,2404,"12203 PERRITOS ST",AUSTIN,TX,78748,"ESTANCIA HILL COUNTRY",6,CONTRACTOR,,,,,,,,,,,"LENNAR HOMES",,,,,"LENNAR HOMES","13620 FM 620 RD 150",AUSTIN,TX,78717,"(512) 506-4000",http://www.lennar.com/,,,
TX,TRAVIS,"2021-030306 BP","Single Family Homes",3/3/2021,,144150,2517,"12211 TAMPICO CV",AUSTIN,TX,78752,"ESTANCIA HILL COUNTRY",6,CONTRACTOR,,,,,,,,,,,"LENNAR HOMES",,,,,"LENNAR HOMES","13620 FM 620 RD 150",AUSTIN,TX,78717,"(512) 506-4000",http://www.lennar.com/,,,
TX,TRAVIS,"2021-031804 BP","Single Family Homes",3/5/2021,,145860,2652,"10901 CHARGER WAY",AUSTIN,TX,78653,"HERITAGE POINT AT WILDHORSE RANCH",32,CONTRACTOR,,,,,,,,,,,"BROHN HOMES",,,,,"BROHN HOMES","6720 VAUGHT RANCH RD STE 200",AUSTIN,TX,78730-2354,"(512) 320-8833",http://brohnhomes.com/,,,
TX,TRAVIS,"2021-032004 BP","Single Family Homes",3/8/2021,,150000,2087,"1216 DELANO ST",AUSTIN,TX,78721,"LINCOLN GARDENS",24,CONTRACTOR,,,,,,,,,,,"TEXAS HOME REDEVELOPMENT",,,,,"TEXAS HOME REDEVELOPMENT","409 DUCK LAKE DR",LAKEWAY,TX,78734-4506,"(512) 577-8467",,,,
TX,TRAVIS,"2021-030486 BP","Single Family Homes",3/3/2021,,152250,2668,"1108 WINNIE DR",AUSTIN,TX,78748,SLAUGHTER,,CONTRACTOR,,,,,,,,,,,"LENNAR HOMES",,,,,"LENNAR HOMES","13620 FM 620 RD 150",AUSTIN,TX,78717,"(512) 506-4000",http://www.lennar.com/,,,
TX,TRAVIS,"2021-028130 BP","Single Family Homes",3/3/2021,,158475,2113,"3800 BRECKENRIDGE DR",AUSTIN,TX,78744,"COLORADO CROSSING",10,CONTRACTOR,,,,,,,,,,,"LENNAR HOMES",,,,,"LENNAR HOMES","13620 FM 620 RD 150",AUSTIN,TX,78717,"(512) 506-4000",http://www.lennar.com/,,,
TX,TRAVIS,"2021-027250 BP","Single Family Homes",3/8/2021,,164325,2191,"2925 EGAN DR",AUSTIN,TX,78748,,,CONTRACTOR,,,,,,,,,,,"DR HORTON",,,,,"DR HORTON","10700 PECAN PARK BLVD STE 400",AUSTIN,TX,78750-1227,"(512) 345-4663",,,,
TX,TRAVIS,"2021-030316 BP","Single Family Homes",3/3/2021,,177900,2959,"12207 TAMPICO CV",AUSTIN,TX,78752,"ESTANCIA HILL COUNTRY",6,CONTRACTOR,,,,,,,,,,,"LENNAR HOMES",,,,,"LENNAR HOMES","13620 FM 620 RD 150",AUSTIN,TX,78717,"(512) 506-4000",http://www.lennar.com/,,,
TX,TRAVIS,"2021-030443 BP","Single Family Homes",3/3/2021,,188325,3152,"1106 WINNIE DR",AUSTIN,TX,78748,SLAUGHTER,,CONTRACTOR,,,,,,,,,,,"LENNAR HOMES",,,,,"LENNAR HOMES","13620 FM 620 RD 150",AUSTIN,TX,78717,"(512) 506-4000",http://www.lennar.com/,,,
TX,TRAVIS,"2021-030309 BP","Single Family Homes",3/3/2021,,188475,3042,"12213 TAMPICO CV",AUSTIN,TX,78752,"ESTANCIA HILL COUNTRY",6,CONTRACTOR,,,,,,,,,,,"LENNAR HOMES",,,,,"LENNAR HOMES","13620 FM 620 RD 150",AUSTIN,TX,78717,"(512) 506-4000",http://www.lennar.com/,,,
TX,TRAVIS,"2021-030318 BP","Single Family Homes",3/3/2021,,197250,3462,"12204 TAMPICO CV",AUSTIN,TX,78752,"ESTANCIA HILL COUNTRY",6,CONTRACTOR,,,,,,,,,,,"LENNAR HOMES",,,,,"LENNAR HOMES","13620 FM 620 RD 150",AUSTIN,TX,78717,"(512) 506-4000",http://www.lennar.com/,,,
TX,TRAVIS,"2021-030303 BP","Single Family Homes",3/3/2021,,197250,3256,"12201 PERRITOS ST",AUSTIN,TX,78748,"ESTANCIA HILL COUNTRY",6,CONTRACTOR,,,,,,,,,,,"LENNAR HOMES",,,,,"LENNAR HOMES","13620 FM 620 RD 150",AUSTIN,TX,78717,"(512) 506-4000",http://www.lennar.com/,,,
TX,TRAVIS,"2021-031707 BP","Single Family Homes",3/6/2021,,284658,2497,"9813 ELOQUENCE DR",AUSTIN,TX,78653,,,CONTRACTOR,,,,,,,,,,,"BUFFINGTON TEXAS CLASSIC HOMES",,,,,"BUFFINGTON TEXAS CLASSIC HOMES","8601 RANCH ROAD 2222 PARK CENTRE BLDG STE 150",AUSTIN,TX,78730,"(512) 579-4800",,,,
TX,TRAVIS,"2021-030991 BP","Single Family Homes",3/4/2021,,290000,2646,"517 FALKLAND TRCE",AUSTIN,TX,78660,CUNNINGHAM,,CONTRACTOR,,,,,,,,,,,"BLACKBURN COMMUNITIES",,,,,"BLACKBURN COMMUNITIES","301 BRUSHY CREEK RD STE 108",PFLUGERVILLE,TX,78613,"(512) 401-3205",https://www.blackburnhomes.com/,,,info@blackburnhomes.com
TX,TRAVIS,"2021-031702 BP","Single Family Homes",3/6/2021,,317490,2785,"17217 ADORO DR",AUSTIN,TX,78653,,,CONTRACTOR,,,,,,,,,,,"BUFFINGTON TEXAS CLASSIC HOMES",,,,,"BUFFINGTON TEXAS CLASSIC HOMES","8601 RANCH ROAD 2222 PARK CENTRE BLDG STE 150",AUSTIN,TX,78730,"(512) 579-4800",,,,
TX,TRAVIS,"2021-024528 BP","Single Family Homes",3/4/2021,,344500,2912,"7603 ALBANY DR",AUSTIN,TX,78754,"BELLINGHAM MEADOWS",18,CONTRACTOR,,,,,,,,,,,"RSI COMMUNITIES",,,,,"RSI COMMUNITIES","810 HESTERS CROSSING RD STE 235","ROUND ROCK",TX,78681-7846,"(512) 953-4100",,,,
TX,TRAVIS,"2021-019291 BP","Single Family Homes",3/4/2021,,344550,2822,"7603 ELK GROVE PATH",AUSTIN,TX,78653,"BELLINGHAM MEADOWS",7,CONTRACTOR,,,,,,,,,,,"RSI COMMUNITIES",,,,,"RSI COMMUNITIES","810 HESTERS CROSSING RD STE 235","ROUND ROCK",TX,78681-7846,"(512) 953-4100",,,,
TX,TRAVIS,"2021-019178 BP","Single Family Homes",3/4/2021,,377400,1911,"3900 TANIGUCHI ST",AUSTIN,TX,78723,MUELLER,25,CONTRACTOR,,,,,,,,,,,"DAVID WEEKLEY HOMES",,,,,"DAVID WEEKLEY HOMES","9000 WATERFORD CENTRE BLVD",AUSTIN,TX,78758-7662,"(800) 390-6774",http://www.davidweekleyhomes.com/,,,
TX,TRAVIS,"2021-031698 BP","Single Family Homes",3/6/2021,,401850,3525,"17209 ADORO DR",AUSTIN,TX,78653,,,CONTRACTOR,,,,,,,,,,,"BUFFINGTON TEXAS CLASSIC HOMES",,,,,"BUFFINGTON TEXAS CLASSIC HOMES","8601 RANCH ROAD 2222 PARK CENTRE BLDG STE 150",AUSTIN,TX,78730,"(512) 579-4800",,,,
TX,TRAVIS,"2020-058793 BP","Single Family Homes",3/3/2021,,435000,3772,"1509 CHELSEA LN",AUSTIN,TX,78704,DELVALLE,,CONTRACTOR,,,,,,,,,,,"MISSION HOME BUILDERS",,,,,"MISSION HOME BUILDERS","4705 MANCHACA ",AUSTIN,TX,78745,"(512) 508-2923",,,,
TX,TRAVIS,"2021-019317 BP","Single Family Homes",3/5/2021,,498470,3102,"2915 SORIN ST",AUSTIN,TX,78723,MUELLER,9,CONTRACTOR,,,,,,,,,,,"DAVID WEEKLEY HOMES",,,,,"DAVID WEEKLEY HOMES","9000 WATERFORD CENTRE BLVD",AUSTIN,TX,78758-7662,"(800) 390-6774",http://www.davidweekleyhomes.com/,,,
TX,TRAVIS,"2021-031121 BP","Single Family Homes",3/8/2021,,525000,3311,"1801 MOHLE DR",AUSTIN,TX,78703,BRYKERWOODS,8,CONTRACTOR,,,,,,,,,,,"NYGARD & COMPANY",,,,,"NYGARD & COMPANY","100 COMMONS RD STE 7-339","DRIPPING SPRINGS",TX,78620-4400,"(512) 844-6871",http://www.nygardandcompany.com/,,,
TX,TRAVIS,"2020-088111 BP","Single Family Homes",3/5/2021,,550000,3785,"30 CHALMERS AVE",AUSTIN,TX,78702,CHALMERS,26,CONTRACTOR,,,,,,,,,,,"JOSEPH DESIGN BUILD",,,,,"JOSEPH DESIGN BUILD","1100 S LAMAR BLVD STE 1145",AUSTIN,TX,78704-0371,"(512) 200-2168",,,,
TX,TRAVIS,"2021-019332 BP","Single Family Homes",3/4/2021,,620780,4317,"3318 TOM MILLER ST",AUSTIN,TX,78723,MUELLER,19,CONTRACTOR,,,,,,,,,,,"DAVID WEEKLEY HOMES",,,,,"DAVID WEEKLEY HOMES","9000 WATERFORD CENTRE BLVD",AUSTIN,TX,78758-7662,"(800) 390-6774",http://www.davidweekleyhomes.com/,,,
TX,TRAVIS,"2021-019305 BP","Single Family Homes",3/4/2021,,620830,4213,"3507 CEPEDA ST",AUSTIN,TX,78723,MUELLER,4,CONTRACTOR,,,,,,,,,,,"DAVID WEEKLEY HOMES",,,,,"DAVID WEEKLEY HOMES","9000 WATERFORD CENTRE BLVD",AUSTIN,TX,78758-7662,"(800) 390-6774",http://www.davidweekleyhomes.com/,,,
TX,TRAVIS,"2021-029510 BP","Single Family Homes",3/5/2021,,785990,4911,"16324 DONOHER DR",AUSTIN,TX,78717,,,CONTRACTOR,,,,,,,,,,,"PULTE HOMES",,,,,"PULTE HOMES","9401 AMBERGLEN BLVD STE I-150",AUSTIN,TX,78729-1154,"(512) 561-4344",,,,
TX,TRAVIS,"2021-029512 BP","Single Family Homes",3/5/2021,,787990,5624,"16316 DONOHER DR",AUSTIN,TX,78717,,,CONTRACTOR,,,,,,,,,,,"PULTE HOMES",,,,,"PULTE HOMES","9401 AMBERGLEN BLVD STE I-150",AUSTIN,TX,78729-1154,"(512) 561-4344",,,,
TX,TRAVIS,"2021-029513 BP","Single Family Homes",3/5/2021,,920990,6186,"10301 LAVON BND",AUSTIN,TX,78717,,,CONTRACTOR,,,,,,,,,,,"PULTE HOMES",,,,,"PULTE HOMES","9401 AMBERGLEN BLVD STE I-150",AUSTIN,TX,78729-1154,"(512) 561-4344",,,,
TX,TRAVIS,21-32375,"Single Family Homes",2/22/2021,,200000,,"7624 PARULINE DR",AUSTIN,TX,78738,PROVENCE,8,CONTRACTOR,,,,,,,,,,,"ASHTON WOODS HOMES",,,,,"ASHTON WOODS HOMES","4201 W PARMER LN STE A150",AUSTIN,TX,78727-4118,"(512) 610-7000",,,,
TX,TRAVIS,21-32376,"Single Family Homes",2/22/2021,,200000,,"7600 ALOUETTE DR",AUSTIN,TX,78738,PROVENCE,1,CONTRACTOR,,,,,,,,,,,"ASHTON WOODS HOMES",,,,,"ASHTON WOODS HOMES","4201 W PARMER LN STE A150",AUSTIN,TX,78727-4118,"(512) 610-7000",,,,
TX,TRAVIS,21-32383,"Single Family Homes",2/23/2021,,143000,,"18909 RUSHMORE ST",MANOR,TX,78653,"PRESIDENTIAL MEADOWS",25,CONTRACTOR,,,,,,,,,,,"KB HOME",,,,,"KB HOME","10800 PECAN PARK BLVD STE 200",AUSTIN,TX,78750-1249,"(512) 651-8100",,,,
TX,TRAVIS,21-32384,"Single Family Homes",2/23/2021,,238000,,"13920 ELEANOR ROOSEVELT ST",MANOR,TX,78653,"PRESIDENTIAL MEADOWS",13,CONTRACTOR,,,,,,,,,,,"KB HOME",,,,,"KB HOME","10800 PECAN PARK BLVD STE 200",AUSTIN,TX,78750-1249,"(512) 651-8100",,,,
TX,TRAVIS,21-32385,"Single Family Homes",2/23/2021,,127000,,"18824 RUSHMORE ST",MANOR,TX,78653,"PRESIDENTIAL MEADOWS",1,CONTRACTOR,,,,,,,,,,,"KB HOME",,,,,"KB HOME","10800 PECAN PARK BLVD STE 200",AUSTIN,TX,78750-1249,"(512) 651-8100",,,,
TX,TRAVIS,21-32387,"Single Family Homes",2/23/2021,,213000,,"13901 ABRAHAM LINCOLN ST",MANOR,TX,78653,"PRESIDENTIAL MEADOWS",21,CONTRACTOR,,,,,,,,,,,"KB HOME",,,,,"KB HOME","10800 PECAN PARK BLVD STE 200",AUSTIN,TX,78750-1249,"(512) 651-8100",,,,
TX,TRAVIS,21-32389,"Single Family Homes",2/22/2021,,300000,,"5212 BUCHANAN DRAW",AUSTIN,TX,78738,"SWEETWATER RANCH VILLAGE",81,CONTRACTOR,,,,,,,,,,,"PERRY HOMES",,,,,"PERRY HOMES","6112 LLANO ST",AUSTIN,TX,78702,"(512) 810-8050",,,,
TX,TRAVIS,21-32390,"Single Family Homes",2/23/2021,,206000,,"208 PEARL BUTTERFLY WAY",PFLUGERVILLE,TX,78660,"VILLAGE AT NORTHTOWN",15,CONTRACTOR,,,,,,,,,,,"KB HOME",,,,,"KB HOME","10800 PECAN PARK BLVD STE 200",AUSTIN,TX,78750-1249,"(512) 651-8100",,,,
TX,TRAVIS,21-32391,"Single Family Homes",2/23/2021,,191000,,"14313 SILVER LACE LN",PFLUGERVILLE,TX,78660,"VILLAGE AT NORTHTOWN",1,CONTRACTOR,,,,,,,,,,,"KB HOME",,,,,"KB HOME","10800 PECAN PARK BLVD STE 200",AUSTIN,TX,78750-1249,"(512) 651-8100",,,,
TX,TRAVIS,21-32392,"Single Family Homes",2/23/2021,,161000,,"6125 ALBANY SLEIGH DR","DEL VALLE",TX,78642,"ROSS ROAD",21,CONTRACTOR,,,,,,,,,,,"KB HOME",,,,,"KB HOME","10800 PECAN PARK BLVD STE 200",AUSTIN,TX,78750-1249,"(512) 651-8100",,,,
TX,TRAVIS,21-32393,"Single Family Homes",2/23/2021,,222000,,"14312 SILVER LACE LN",PFLUGERVILLE,TX,78660,"VILLAGE AT NORTHTOWN",4,CONTRACTOR,,,,,,,,,,,"KB HOME",,,,,"KB HOME","10800 PECAN PARK BLVD STE 200",AUSTIN,TX,78750-1249,"(512) 651-8100",,,,
TX,TRAVIS,21-32394,"Single Family Homes",2/23/2021,,155000,,"13617 MARTHA WASHINGTON PL",MANOR,TX,78653,"PRESIDENTIAL MEADOWS",20,CONTRACTOR,,,,,,,,,,,"KB HOME",,,,,"KB HOME","10800 PECAN PARK BLVD STE 200",AUSTIN,TX,78750-1249,"(512) 651-8100",,,,
TX,TRAVIS,21-32395,"Single Family Homes",2/23/2021,,137000,,"14300 JAMES BUCHANAN ST",MANOR,TX,78653,"PRESIDENTIAL MEADOWS",24,CONTRACTOR,,,,,,,,,,,"KB HOME",,,,,"KB HOME","10800 PECAN PARK BLVD STE 200",AUSTIN,TX,78750-1249,"(512) 651-8100",,,,
TX,TRAVIS,21-32396,"Single Family Homes",2/22/2021,,205000,,"13516 MARTHA WASHINGTON PL",MANOR,TX,78653,"PRESIDENTIAL MEADOWS",35,CONTRACTOR,,,,,,,,,,,"KB HOME",,,,,"KB HOME","10800 PECAN PARK BLVD STE 200",AUSTIN,TX,78750-1249,"(512) 651-8100",,,,
TX,TRAVIS,21-32397,"Single Family Homes",2/5/2021,,165000,,"5617 CORSO CT",AUSTIN,TX,78747,"BELLA FORTUNA",18,CONTRACTOR,,,,,,,,,,,"BROHN HOMES",,,,,"BROHN HOMES","6720 VAUGHT RANCH RD STE 200",AUSTIN,TX,78730-2354,"(512) 320-8833",http://brohnhomes.com/,,,
TX,TRAVIS,21-32398,"Single Family Homes",2/23/2021,,163000,,"13601 MARTHA WASHINGTON PL",MANOR,TX,78653,"PRESIDENTIAL MEADOWS",24,CONTRACTOR,,,,,,,,,,,"KB HOME",,,,,"KB HOME","10800 PECAN PARK BLVD STE 200",AUSTIN,TX,78750-1249,"(512) 651-8100",,,,
TX,TRAVIS,21-32399,"Single Family Homes",2/23/2021,,213000,,"13813 ELEANOR ROOSEVELT ST",MANOR,TX,78653,"PRESIDENTIAL MEADOWS",11,CONTRACTOR,,,,,,,,,,,"KB HOME",,,,,"KB HOME","10800 PECAN PARK BLVD STE 200",AUSTIN,TX,78750-1249,"(512) 651-8100",,,,
TX,TRAVIS,21-32400,"Single Family Homes",2/23/2021,,206000,,"12505 ACE IN THE HOLE LN","DEL VALLE",TX,78652,"ROSS ROAD",21,CONTRACTOR,,,,,,,,,,,"KB HOME",,,,,"KB HOME","10800 PECAN PARK BLVD STE 200",AUSTIN,TX,78750-1249,"(512) 651-8100",,,,
TX,TRAVIS,21-32402,"Single Family Homes",2/5/2021,,281280,,"14100 MCARTHUR DR",MANOR,TX,78653,SHADOWGLEN,5,CONTRACTOR,,,,,,,,,,,"DR HORTON",,,,,"DR HORTON","10700 PECAN PARK BLVD STE 400",AUSTIN,TX,78750-1227,"(512) 345-4663",,,,
TX,TRAVIS,21-32403,"Single Family Homes",2/5/2021,,281382,,"14112 MCARTHUR DR",MANOR,TX,78653,SHADOWGLEN,2,CONTRACTOR,,,,,,,,,,,"DR HORTON",,,,,"DR HORTON","10700 PECAN PARK BLVD STE 400",AUSTIN,TX,78750-1227,"(512) 345-4663",,,,
TX,TRAVIS,21-32404,"Single Family Homes",2/5/2021,,289334,,"14108 MCARTHUR DR",MANOR,TX,78653,SHADOWGLEN,30,CONTRACTOR,,,,,,,,,,,"DR HORTON",,,,,"DR HORTON","10700 PECAN PARK BLVD STE 400",AUSTIN,TX,78750-1227,"(512) 345-4663",,,,
TX,TRAVIS,21-32405,"Single Family Homes",2/5/2021,,258749,,"14104 MCARTHUR DR",MANOR,TX,78653,SHADOWGLEN,41,CONTRACTOR,,,,,,,,,,,"DR HORTON",,,,,"DR HORTON","10700 PECAN PARK BLVD STE 400",AUSTIN,TX,78750-1227,"(512) 345-4663",,,,
TX,TRAVIS,21-32406,"Single Family Homes",2/5/2021,,283624,,"14101 MC ARTHUR DR",MANOR,TX,78653,SHADOWGLEN,6,CONTRACTOR,,,,,,,,,,,"DR HORTON",,,,,"DR HORTON","10700 PECAN PARK BLVD STE 400",AUSTIN,TX,78750-1227,"(512) 345-4663",,,,
TX,TRAVIS,21-32407,"Single Family Homes",2/5/2021,,221027,,"14105 MCARTHUR DR",MANOR,TX,78653,SHADOWGLEN,7,CONTRACTOR,,,,,,,,,,,"DR HORTON",,,,,"DR HORTON","10700 PECAN PARK BLVD STE 400",AUSTIN,TX,78750-1227,"(512) 345-4663",,,,
TX,TRAVIS,21-32408,"Single Family Homes",2/5/2021,,245291,,"14109 MCARTHUR DR",MANOR,TX,78653,SHADOWGLEN,8,CONTRACTOR,,,,,,,,,,,"DR HORTON",,,,,"DR HORTON","10700 PECAN PARK BLVD STE 400",AUSTIN,TX,78750-1227,"(512) 345-4663",,,,
TX,TRAVIS,21-32409,"Single Family Homes",2/5/2021,,319511,,"14113 MCARTHUR DR",MANOR,TX,78653,SHADOWGLEN,9,CONTRACTOR,,,,,,,,,,,"DR HORTON",,,,,"DR HORTON","10700 PECAN PARK BLVD STE 400",AUSTIN,TX,78750-1227,"(512) 345-4663",,,,
TX,TRAVIS,21-32410,"Single Family Homes",2/5/2021,,308602,,"14117 MCARTHUR DR",MANOR,TX,78653,SHADOWGLEN,10,CONTRACTOR,,,,,,,,,,,"DR HORTON",,,,,"DR HORTON","10700 PECAN PARK BLVD STE 400",AUSTIN,TX,78750-1227,"(512) 345-4663",,,,
TX,TRAVIS,21-32412,"Single Family Homes",2/5/2021,,327769,,"13816 SAGE BLOSSOM DR",MANOR,TX,78653,SHADOWGLEN,,CONTRACTOR,,,,,,,,,,,"DR HORTON",,,,,"DR HORTON","10700 PECAN PARK BLVD STE 400",AUSTIN,TX,78750-1227,"(512) 345-4663",,,,
TX,TRAVIS,21-32413,"Single Family Homes",2/5/2021,,258749,,"14304 MCARTHUR DR",MANOR,TX,78653,SHADOWGLEN,,CONTRACTOR,,,,,,,,,,,"DR HORTON",,,,,"DR HORTON","10700 PECAN PARK BLVD STE 400",AUSTIN,TX,78750-1227,"(512) 345-4663",,,,
TX,TRAVIS,21-32414,"Single Family Homes",2/5/2021,,242742,,"14004 MCARTHUR DR",MANOR,TX,78653,SHADOWGLEN,9,CONTRACTOR,,,,,,,,,,,"DR HORTON",,,,,"DR HORTON","10700 PECAN PARK BLVD STE 400",AUSTIN,TX,78750-1227,"(512) 345-4663",,,,
TX,TRAVIS,21-32415,"Single Family Homes",2/5/2021,,289436,,"14008 MCARTHUR DR",MANOR,TX,78653,SHADOWGLEN,8,CONTRACTOR,,,,,,,,,,,"DR HORTON",,,,,"DR HORTON","10700 PECAN PARK BLVD STE 400",AUSTIN,TX,78750-1227,"(512) 345-4663",,,,
TX,TRAVIS,21-32416,"Single Family Homes",2/5/2021,,308602,,"14001 MCARTHUR DR",MANOR,TX,78653,SHADOWGLEN,13,CONTRACTOR,,,,,,,,,,,"DR HORTON",,,,,"DR HORTON","10700 PECAN PARK BLVD STE 400",AUSTIN,TX,78750-1227,"(512) 345-4663",,,,
TX,TRAVIS,21-32417,"Single Family Homes",2/5/2021,,319511,,"14005 MCARTHUR DR",MANOR,TX,78653,SHADOWGLEN,22,CONTRACTOR,,,,,,,,,,,"DR HORTON",,,,,"DR HORTON","10700 PECAN PARK BLVD STE 400",AUSTIN,TX,78750-1227,"(512) 345-4663",,,,
TX,TRAVIS,21-32418,"Single Family Homes",2/5/2021,,221027,,"14009 MCARTHUR DR",MANOR,TX,78653,SHADOWGLEN,3,CONTRACTOR,,,,,,,,,,,"DR HORTON",,,,,"DR HORTON","10700 PECAN PARK BLVD STE 400",AUSTIN,TX,78750-1227,"(512) 345-4663",,,,
TX,TRAVIS,21-32419,"Single Family Homes",2/5/2021,,319001,,"14017 MCARTHUR DR",MANOR,TX,78653,SHADOWGLEN,5,CONTRACTOR,,,,,,,,,,,"DR HORTON",,,,,"DR HORTON","10700 PECAN PARK BLVD STE 400",AUSTIN,TX,78750-1227,"(512) 345-4663",,,,
TX,TRAVIS,21-32421,"Single Family Homes",2/5/2021,,308602,,"13928 MCARTHUR DR",MANOR,TX,78653,SHADOWGLEN,5,CONTRACTOR,,,,,,,,,,,"DR HORTON",,,,,"DR HORTON","10700 PECAN PARK BLVD STE 400",AUSTIN,TX,78750-1227,"(512) 345-4663",,,,
TX,TRAVIS,21-32422,"Single Family Homes",2/5/2021,,242742,,"13917 MCARTHUR DR",MANOR,TX,78653,SHADOWGLEN,21,CONTRACTOR,,,,,,,,,,,"DR HORTON",,,,,"DR HORTON","10700 PECAN PARK BLVD STE 400",AUSTIN,TX,78750-1227,"(512) 345-4663",,,,
TX,TRAVIS,21-32423,"Single Family Homes",2/5/2021,,221027,,"13908 MCARTHUR DR",MANOR,TX,78653,SHADOWGLEN,8,CONTRACTOR,,,,,,,,,,,"DR HORTON",,,,,"DR HORTON","10700 PECAN PARK BLVD STE 400",AUSTIN,TX,78750-1227,"(512) 345-4663",,,,
TX,TRAVIS,21-32424,"Single Family Homes",2/5/2021,,258137,,"13900 MCARTHUR DR",MANOR,TX,78653,SHADOWGLEN,9,CONTRACTOR,,,,,,,,,,,"DR HORTON",,,,,"DR HORTON","10700 PECAN PARK BLVD STE 400",AUSTIN,TX,78750-1227,"(512) 345-4663",,,,
TX,TRAVIS,21-32425,"Single Family Homes",2/5/2021,,245291,,"13901 MCARTHUR DR",MANOR,TX,78653,SHADOWGLEN,17,CONTRACTOR,,,,,,,,,,,"DR HORTON",,,,,"DR HORTON","10700 PECAN PARK BLVD STE 400",AUSTIN,TX,78750-1227,"(512) 345-4663",,,,
TX,TRAVIS,21-32426,"Single Family Homes",2/5/2021,,319511,,"13909 MCARTHUR DR",MANOR,TX,78653,SHADOWGLEN,19,CONTRACTOR,,,,,,,,,,,"DR HORTON",,,,,"DR HORTON","10700 PECAN PARK BLVD STE 400",AUSTIN,TX,78750-1227,"(512) 345-4663",,,,
TX,TRAVIS,21-32427,"Single Family Homes",2/5/2021,,3195111,,"13825 MCARTHUR DR",MANOR,TX,78653,SHADOWGLEN,,CONTRACTOR,,,,,,,,,,,"DR HORTON",,,,,"DR HORTON","10700 PECAN PARK BLVD STE 400",AUSTIN,TX,78750-1227,"(512) 345-4663",,,,
TX,TRAVIS,21-32446,"Single Family Homes",2/22/2021,,253000,,"2408 SKYWALK LN",SPICEWOOD,TX,79556,"SUMMIT OF LAKE TRAVIS",54,CONTRACTOR,,,,,,,,,,,"WESTIN HOMES",,,,,"WESTIN HOMES","1 SUGAR CREEK CENTER BLVD STE 600","SUGAR LAND",TX,77478-3787,"(281) 240-1551",http://www.westin-homes.com,,,
TX,TRAVIS,21-32447,"Single Family Homes",2/22/2021,,280000,,"19306 SUMMIT GLORY TRL",SPICEWOOD,TX,79556,"SUMMIT OF LAKE TRAVIS",66,CONTRACTOR,,,,,,,,,,,"WESTIN HOMES",,,,,"WESTIN HOMES","1 SUGAR CREEK CENTER BLVD STE 600","SUGAR LAND",TX,77478-3787,"(281) 240-1551",http://www.westin-homes.com,,,
TX,TRAVIS,21-32449,"Single Family Homes",2/22/2021,,453990,,"22216 COYOTE CAVE TRL",SPICEWOOD,TX,78669,"CYPRESS HILLS",16,CONTRACTOR,,,,,,,,,,,"PULTE HOMES",,,,,"PULTE HOMES","9401 AMBERGLEN BLVD STE I-150",AUSTIN,TX,78729-1154,"(512) 561-4344",,,,
TX,TRAVIS,21-32452,"Single Family Homes",2/5/2021,,224730,,"20108 TALON GRASP TRL",PFLUGERVILLE,TX,78660,"PARK AT BLACKHAWK",3,CONTRACTOR,,,,,,,,,,,"SCOTT FELDER HOMES",,,,,"SCOTT FELDER HOMES","6414 RIVER PLACE BLVD STE 100",AUSTIN,TX,78730-1158,"(512) 418-5400",,,,
TX,TRAVIS,21-32453,"Single Family Homes",2/5/2021,,160930,,"20209 CRESTED CARACARA LN",PFLUGERVILLE,TX,78660,"PARK AT BLACKHAWK",54,CONTRACTOR,,,,,,,,,,,"SCOTT FELDER HOMES",,,,,"SCOTT FELDER HOMES","6414 RIVER PLACE BLVD STE 100",AUSTIN,TX,78730-1158,"(512) 418-5400",,,,
TX,TRAVIS,21-32454,"Single Family Homes",2/22/2021,,156300,,"6001 CIMARRON RIDGE",AUSTIN,TX,78738,"SWEETWATER RANCH VILLAGE",11,CONTRACTOR,,,,,,,,,,,"LENNAR HOMES",,,,,"LENNAR HOMES","13620 FM 620 RD 150",AUSTIN,TX,78717,"(512) 506-4000",http://www.lennar.com/,,,
TX,TRAVIS,21-32457,"Single Family Homes",2/24/2021,,4421990,,"8416 HUBBLE WALK",AUSTIN,TX,78744,"MIRABEL PARK",15,CONTRACTOR,,,,,,,,,,,"TAYLOR MORRISON OF TEXAS",,,,,"TAYLOR MORRISON OF TEXAS","11200 LAKELINE BLVD STE 150A",AUSTIN,TX,78717-5964,"(512) 328-8866",,"(512) 328-7988",,
TX,TRAVIS,21-32458,"Single Family Homes",2/22/2021,,130000,,"9609 EVENING CANOPY",MANOR,TX,78653,"WHISPER VALLEY VILLAGE",3,CONTRACTOR,,,,,,,,,,,"THURMAN HOMES",,,,,"THURMAN HOMES","2121 PEORIA DR",LEANDER,TX,78641-4405,"(512) 925-4647",,,,
TX,TRAVIS,21-32459,"Single Family Homes",2/22/2021,,130000,,"9701 EVENING CANOPY",MANOR,TX,78653,"WHISPER VALLEY VILLAGE",,CONTRACTOR,,,,,,,,,,,"THURMAN HOMES",,,,,"THURMAN HOMES","2121 PEORIA DR",LEANDER,TX,78641-4405,"(512) 925-4647",,,,
TX,TRAVIS,21-32461,"Single Family Homes",2/5/2021,,150000,,"5629 CORSO CT",AUSTIN,TX,78747,"BELLA FORTUNA",15,CONTRACTOR,,,,,,,,,,,"BROHN HOMES",,,,,"BROHN HOMES","6720 VAUGHT RANCH RD STE 200",AUSTIN,TX,78730-2354,"(512) 320-8833",http://brohnhomes.com/,,,
TX,TRAVIS,21-32462,"Single Family Homes",2/5/2021,,155000,,"5621 CORSO CT",AUSTIN,TX,78747,"BELLA FORTUNA",17,CONTRACTOR,,,,,,,,,,,"BROHN HOMES",,,,,"BROHN HOMES","6720 VAUGHT RANCH RD STE 200",AUSTIN,TX,78730-2354,"(512) 320-8833",http://brohnhomes.com/,,,
TX,TRAVIS,21-32465,"Single Family Homes",2/5/2021,,150000,,"5609 CORSO CT","TRAVIS COUNTY",TX,78747,"BELLA FORTUNA",20,CONTRACTOR,,,,,,,,,,,"BROHN HOMES",,,,,"BROHN HOMES","6720 VAUGHT RANCH RD STE 200",AUSTIN,TX,78730-2354,"(512) 320-8833",http://brohnhomes.com/,,,
TX,TRAVIS,21-32468,"Single Family Homes",2/5/2021,,155000,,"5601 CORSO CT",AUSTIN,TX,78747,"BELLA FORTUNA",21,CONTRACTOR,,,,,,,,,,,"BROHN HOMES",,,,,"BROHN HOMES","6720 VAUGHT RANCH RD STE 200",AUSTIN,TX,78730-2354,"(512) 320-8833",http://brohnhomes.com/,,,
TX,TRAVIS,21-32469,"Single Family Homes",2/5/2021,,150000,,"5604 CORSO CT",AUSTIN,TX,78747,"BELLA FORTUNA",23,CONTRACTOR,,,,,,,,,,,"BROHN HOMES",,,,,"BROHN HOMES","6720 VAUGHT RANCH RD STE 200",AUSTIN,TX,78730-2354,"(512) 320-8833",http://brohnhomes.com/,,,
TX,TRAVIS,21-32470,"Single Family Homes",2/5/2021,,150000,,"5616 CORSO CT",AUSTIN,TX,78747,"BELLA FORTUNA",26,CONTRACTOR,,,,,,,,,,,"BROHN HOMES",,,,,"BROHN HOMES","6720 VAUGHT RANCH RD STE 200",AUSTIN,TX,78730-2354,"(512) 320-8833",http://brohnhomes.com/,,,
TX,TRAVIS,21-32473,"Single Family Homes",2/24/2021,,232815,,"19904 DENISON DR",PFLUGERVILLE,TX,78660,"LAKESIDE AT BLACKHAWK",32,CONTRACTOR,,,,,,,,,,,"SCOTT FELDER HOMES",,,,,"SCOTT FELDER HOMES","6414 RIVER PLACE BLVD STE 100",AUSTIN,TX,78730-1158,"(512) 418-5400",,,,
TX,TRAVIS,21-32474,"Single Family Homes",2/22/2021,,162159,,"3408 CLAFLIN ST",PFLUGERVILLE,TX,78653,"LAKESIDE AT BLACKHAWK",3,CONTRACTOR,,,,,,,,,,,"SCOTT FELDER HOMES",,,,,"SCOTT FELDER HOMES","6414 RIVER PLACE BLVD STE 100",AUSTIN,TX,78730-1158,"(512) 418-5400",,,,
TX,TRAVIS,21-32475,"Single Family Homes",2/22/2021,,229130,,"19800 EIRE DR",PFLUGERVILLE,TX,78660,"LAKESIDE AT BLACKHAWK",10,CONTRACTOR,,,,,,,,,,,"SCOTT FELDER HOMES",,,,,"SCOTT FELDER HOMES","6414 RIVER PLACE BLVD STE 100",AUSTIN,TX,78730-1158,"(512) 418-5400",,,,
TX,TRAVIS,21-32485,"Single Family Homes",2/22/2021,,300000,,"6417 EMPRESA DR",AUSTIN,TX,78738,"SWEETWATER RANCH VILLAGE",8,CONTRACTOR,,,,,,,,,,,"PERRY HOMES",,,,,"PERRY HOMES","6112 LLANO ST",AUSTIN,TX,78702,"(512) 810-8050",,,,
TX,TRAVIS,21-32486,"Single Family Homes",2/22/2021,,415990,,"22217 COYOTE CAVE TRL",AUSTIN,TX,78728,"CYPRESS HILLS",31,CONTRACTOR,,,,,,,,,,,"PULTE HOMES",,,,,"PULTE HOMES","9401 AMBERGLEN BLVD STE I-150",AUSTIN,TX,78729-1154,"(512) 561-4344",,,,
TX,TRAVIS,21-32489,"Single Family Homes",2/24/2021,,121290,,"14216 LYNDORA LN",PFLUGERVILLE,TX,78660,ENTRADA,21,CONTRACTOR,,,,,,,,,,,"LENNAR HOMES",,,,,"LENNAR HOMES","13620 FM 620 RD 150",AUSTIN,TX,78717,"(512) 506-4000",http://www.lennar.com/,,,
TX,TRAVIS,21-32490,"Single Family Homes",2/24/2021,,152945,,"14220 LYNDORA LN",PFLUGERVILLE,TX,78660,ENTRADA,22,CONTRACTOR,,,,,,,,,,,"LENNAR HOMES",,,,,"LENNAR HOMES","13620 FM 620 RD 150",AUSTIN,TX,78717,"(512) 506-4000",http://www.lennar.com/,,,
TX,TRAVIS,21-32491,"Single Family Homes",2/24/2021,,121290,,"14224 LYNDORA LN",PFLUGERVILLE,TX,78660,ENTRADA,23,CONTRACTOR,,,,,,,,,,,"LENNAR HOMES",,,,,"LENNAR HOMES","13620 FM 620 RD 150",AUSTIN,TX,78717,"(512) 506-4000",http://www.lennar.com/,,,
TX,TRAVIS,21-32494,"Single Family Homes",2/24/2021,,109980,,"14305 SANDROCK BEND",PFLUGERVILLE,TX,78660,ENTRADA,28,CONTRACTOR,,,,,,,,,,,"LENNAR HOMES",,,,,"LENNAR HOMES","13620 FM 620 RD 150",AUSTIN,TX,78717,"(512) 506-4000",http://www.lennar.com/,,,
TX,TRAVIS,21-32507,"Single Family Homes",2/5/2021,,190000,,"4205 BIRDWATCH LOOP",PFLUGERVILLE,TX,78660,"JAKES HILL CONDOMINIUM",13,CONTRACTOR,,,,,,,,,,,"BLACKBURN COMMUNITIES",,,,,"BLACKBURN COMMUNITIES","301 BRUSHY CREEK RD STE 108",PFLUGERVILLE,TX,78613,"(512) 401-3205",https://www.blackburnhomes.com/,,,info@blackburnhomes.com
TX,TRAVIS,21-32515,"Single Family Homes",2/10/2021,,350000,,"2513 DE SOTO DR",AUSTIN,TX,78733,"AUSTIN LAKE ESTATES",9,CONTRACTOR,,,,,,,,,,,"WUKASCH DESIGNS",,,,,"WUKASCH DESIGNS","235 KELLY DR",BURNET,TX,78611-2831,"(512) 715-9093",,,,
TX,TRAVIS,21-32519,"Single Family Homes",2/23/2021,,203550,,"14502 FITZGIBBON DR",AUSTIN,TX,78725,"AUSTINS COLONY",32,CONTRACTOR,,,,,,,,,,,"DR HORTON",,,,,"DR HORTON","10700 PECAN PARK BLVD STE 400",AUSTIN,TX,78750-1227,"(512) 345-4663",,,,
TX,TRAVIS,21-32520,"Single Family Homes",2/23/2021,,158775,,"14504 FITZGIBBON DR",AUSTIN,TX,78725,"AUSTINS COLONY",33,CONTRACTOR,,,,,,,,,,,"DR HORTON",,,,,"DR HORTON","10700 PECAN PARK BLVD STE 400",AUSTIN,TX,78750-1227,"(512) 345-4663",,,,
TX,TRAVIS,21-32527,"Single Family Homes",2/23/2021,,230000,,"14300 SILVER LACE LN",PFLUGERVILLE,TX,78660,"VILLAGE AT NORTHTOWN",7,CONTRACTOR,,,,,,,,,,,"KB HOME",,,,,"KB HOME","10800 PECAN PARK BLVD STE 200",AUSTIN,TX,78750-1249,"(512) 651-8100",,,,
TX,TRAVIS,21-32529,"Single Family Homes",2/5/2021,,180000,,"11516 MILANO DR",AUSTIN,TX,78747,"BELLA FORTUNA",31,CONTRACTOR,,,,,,,,,,,"BROHN HOMES",,,,,"BROHN HOMES","6720 VAUGHT RANCH RD STE 200",AUSTIN,TX,78730-2354,"(512) 320-8833",http://brohnhomes.com/,,,
TX,TRAVIS,21-32530,"Single Family Homes",2/5/2021,,170000,,"11512 MILANO DR",AUSTIN,TX,78747,"BELLA FORTUNA",32,CONTRACTOR,,,,,,,,,,,"BROHN HOMES",,,,,"BROHN HOMES","6720 VAUGHT RANCH RD STE 200",AUSTIN,TX,78730-2354,"(512) 320-8833",http://brohnhomes.com/,,,
TX,TRAVIS,21-32531,"Single Family Homes",2/5/2021,,170000,,"11520 MILANO DR",AUSTIN,TX,78747,"BELLA FORTUNA",30,CONTRACTOR,,,,,,,,,,,"BROHN HOMES",,,,,"BROHN HOMES","6720 VAUGHT RANCH RD STE 200",AUSTIN,TX,78730-2354,"(512) 320-8833",http://brohnhomes.com/,,,
TX,TRAVIS,21-32532,"Single Family Homes",2/5/2021,,170000,,"11508 MILANO DR",AUSTIN,TX,78747,"BELLA FORTUNA",33,CONTRACTOR,,,,,,,,,,,"BROHN HOMES",,,,,"BROHN HOMES","6720 VAUGHT RANCH RD STE 200",AUSTIN,TX,78730-2354,"(512) 320-8833",http://brohnhomes.com/,,,
TX,TRAVIS,21-32533,"Single Family Homes",2/5/2021,,180000,,"11504 MILANO DR",AUSTIN,TX,78747,"BELLA FORTUNA",34,CONTRACTOR,,,,,,,,,,,"BROHN HOMES",,,,,"BROHN HOMES","6720 VAUGHT RANCH RD STE 200",AUSTIN,TX,78730-2354,"(512) 320-8833",http://brohnhomes.com/,,,
TX,TRAVIS,21-32534,"Single Family Homes",2/22/2021,,170000,,"11500 MILANO DR",AUSTIN,TX,78747,"BELLA FORTUNA",35,CONTRACTOR,,,,,,,,,,,"BROHN HOMES",,,,,"BROHN HOMES","6720 VAUGHT RANCH RD STE 200",AUSTIN,TX,78730-2354,"(512) 320-8833",http://brohnhomes.com/,,,
TX,TRAVIS,21-32538,"Single Family Homes",2/22/2021,,170000,,"11420 MILANO DR",AUSTIN,TX,78747,"BELLA FORTUNA",36,CONTRACTOR,,,,,,,,,,,"BROHN HOMES",,,,,"BROHN HOMES","6720 VAUGHT RANCH RD STE 200",AUSTIN,TX,78730-2354,"(512) 320-8833",http://brohnhomes.com/,,,
TX,TRAVIS,21-32539,"Single Family Homes",2/22/2021,,180000,,"11416 MILANO DR",AUSTIN,TX,78747,"BELLA FORTUNA",37,CONTRACTOR,,,,,,,,,,,"BROHN HOMES",,,,,"BROHN HOMES","6720 VAUGHT RANCH RD STE 200",AUSTIN,TX,78730-2354,"(512) 320-8833",http://brohnhomes.com/,,,
TX,TRAVIS,21-32540,"Single Family Homes",2/22/2021,,170000,,"11412 MILANO DR",AUSTIN,TX,78747,"BELLA FORTUNA",38,CONTRACTOR,,,,,,,,,,,"BROHN HOMES",,,,,"BROHN HOMES","6720 VAUGHT RANCH RD STE 200",AUSTIN,TX,78730-2354,"(512) 320-8833",http://brohnhomes.com/,,,
TX,TRAVIS,21-32542,"Single Family Homes",2/22/2021,,170000,,"11408 MILANO DR",AUSTIN,TX,78747,"BELLA FORTUNA",39,CONTRACTOR,,,,,,,,,,,"BROHN HOMES",,,,,"BROHN HOMES","6720 VAUGHT RANCH RD STE 200",AUSTIN,TX,78730-2354,"(512) 320-8833",http://brohnhomes.com/,,,
TX,TRAVIS,21-32543,"Single Family Homes",2/22/2021,,180000,,"11404 MILANO DR",AUSTIN,TX,78747,"BELLA FORTUNA",40,CONTRACTOR,,,,,,,,,,,"BROHN HOMES",,,,,"BROHN HOMES","6720 VAUGHT RANCH RD STE 200",AUSTIN,TX,78730-2354,"(512) 320-8833",http://brohnhomes.com/,,,
TX,TRAVIS,21-32544,"Single Family Homes",2/22/2021,,180000,,"11400 MILANO DR",AUSTIN,TX,78747,"BELLA FORTUNA",41,CONTRACTOR,,,,,,,,,,,"BROHN HOMES",,,,,"BROHN HOMES","6720 VAUGHT RANCH RD STE 200",AUSTIN,TX,78730-2354,"(512) 320-8833",http://brohnhomes.com/,,,
TX,TRAVIS,21-32545,"Single Family Homes",2/22/2021,,170000,,"5600 RESPINTO DR",AUSTIN,TX,78747,"BELLA FORTUNA",42,CONTRACTOR,,,,,,,,,,,"BROHN HOMES",,,,,"BROHN HOMES","6720 VAUGHT RANCH RD STE 200",AUSTIN,TX,78730-2354,"(512) 320-8833",http://brohnhomes.com/,,,
TX,TRAVIS,21-32546,"Single Family Homes",2/22/2021,,170000,,"5604 RESPINTO DR",AUSTIN,TX,78747,"BELLA FORTUNA",43,CONTRACTOR,,,,,,,,,,,"BROHN HOMES",,,,,"BROHN HOMES","6720 VAUGHT RANCH RD STE 200",AUSTIN,TX,78730-2354,"(512) 320-8833",http://brohnhomes.com/,,,
TX,TRAVIS,21-32547,"Single Family Homes",2/22/2021,,170000,,"11324 LAGO DE GARDA DR",AUSTIN,TX,78747,"BELLA FORTUNA",52,CONTRACTOR,,,,,,,,,,,"BROHN HOMES",,,,,"BROHN HOMES","6720 VAUGHT RANCH RD STE 200",AUSTIN,TX,78730-2354,"(512) 320-8833",http://brohnhomes.com/,,,
TX,TRAVIS,21-32548,"Single Family Homes",2/22/2021,,170000,,"11308 LAGO DE GARDA DR",AUSTIN,TX,78747,"BELLA FORTUNA",54,CONTRACTOR,,,,,,,,,,,"BROHN HOMES",,,,,"BROHN HOMES","6720 VAUGHT RANCH RD STE 200",AUSTIN,TX,78730-2354,"(512) 320-8833",http://brohnhomes.com/,,,
TX,TRAVIS,21-32550,"Single Family Homes",2/5/2021,,180000,,"11316 LAGO DE GARDA DR",AUSTIN,TX,78747,"BELLA FORTUNA",53,CONTRACTOR,,,,,,,,,,,"BROHN HOMES",,,,,"BROHN HOMES","6720 VAUGHT RANCH RD STE 200",AUSTIN,TX,78730-2354,"(512) 320-8833",http://brohnhomes.com/,,,
TX,TRAVIS,21-32551,"Single Family Homes",2/5/2021,,180000,,"11300 LAGO DE GARDA DR",AUSTIN,TX,78747,"BELLA FORTUNA",55,CONTRACTOR,,,,,,,,,,,"BROHN HOMES",,,,,"BROHN HOMES","6720 VAUGHT RANCH RD STE 200",AUSTIN,TX,78730-2354,"(512) 320-8833",http://brohnhomes.com/,,,
TX,TRAVIS,21-32562,"Single Family Homes",2/24/2021,,339078,,"20925 BROOKLYNN MELISSA DR",PFLUGERVILLE,TX,78660,"PARK AT BLACKHAWK",3,CONTRACTOR,,,,,,,,,,,"EHT OF TEXAS LP",,,,,"EHT OF TEXAS LP","3520 EXECUTIVE CENTER DR STE 100",AUSTIN,TX,78731-1636,"(757) 287-6394",,,,
TX,TRAVIS,21-32563,"Single Family Homes",2/24/2021,,311627,,"20924 AKBASH LN",PFLUGERVILLE,TX,78660,"PARK AT BLACKHAWK",14,CONTRACTOR,,,,,,,,,,,"EHT OF TEXAS LP",,,,,"EHT OF TEXAS LP","3520 EXECUTIVE CENTER DR STE 100",AUSTIN,TX,78731-1636,"(757) 287-6394",,,,
TX,TRAVIS,21-32564,"Single Family Homes",2/23/2021,,347301,,"4401 ORYX LN",PFLUGERVILLE,TX,78660,"PARK AT BLACKHAWK",15,CONTRACTOR,,,,,,,,,,,"EHT OF TEXAS LP",,,,,"EHT OF TEXAS LP","3520 EXECUTIVE CENTER DR STE 100",AUSTIN,TX,78731-1636,"(757) 287-6394",,,,
