state,county,permno,ptype,pdate,pdescription,jvalue,jsqfeet,jaddr,jcity,jstate,jzip,jsubdiv,jlotno,aname,aaddr,acity,astate,azip,aphone,atype,aurl,afax,aprimarycontact,aemail,bldcode,units,bldgs,ctype,legal,contractor,caddress,ccity,cstate,czip,cphone,curl,cfax,cprimarycontact,cemail
TX,TRAVIS,20-26160,"Auto Sales & Services",12/16/2020,,550000,,"19035 W SH 71",SPICEWOOD,TX,78669,,,CONTRACTOR,,,,,,,,,,,"INTERFIELD GROUP",,,,,"INTERFIELD GROUP","401 STUDEWOOD ST STE 300",HOUSTON,TX,77007-2733,"(713) 780-0909",http://www.interfield.net/,,"PATRICIA MATA",pmata@interfield.net
TX,TRAVIS,19-25142,"Auto Sales & Services",12/3/2020,,1200000,,"18105 W TX-71",SPICEWOOD,TX,78669,,,CONTRACTOR,,,,,,,,,,,KIMLEY-HORN,,,,,KIMLEY-HORN,"10814 JOLLYVILLE RD",AUSTIN,TX,78759-5674,"(512) 418-1771",http://www.kimley-horn.com,,,
TX,WILLIAMSON,2020-70300,"Auto Sales & Services",1/25/2021,,1500000,4000,"1006 LEANDER RD",GEORGETOWN,TX,78628,,,CONTRACTOR,,,,,,,,,,,"ZEMANEK ARCHITECTURE & DESIGN",,,,,"ZEMANEK ARCHITECTURE & DESIGN","107A E MAIN ST",JENKS,TX,74037,"(918) 606-2090",http://www.zemanekad.com/,,,
TX,TRAVIS,19-23965,"Educational Institution",12/7/2020,,5000000,,"3000 BARTON CREEK BLVD",AUSTIN,TX,78735,,,CONTRACTOR,,,,,,,,,,,"O CONNELL ROBERTSON",,,,,"O CONNELL ROBERTSON","4040 BROADWAY ST STE 200","SAN ANTONIO",TX,78209-6300,"(210) 224-6032",http://www.oconnellrobertson.com/,"(210) 224-6453","RICK BURNIGHT",sanantonioinfo@oconnellrobertson.com
TX,TRAVIS,"2020-108939 BP","Hotel, Motel & Assisted Living",1/27/2021,,15553381,315550,"1201 RED RIVER ST",AUSTIN,TX,78701,"ORIGINAL CITY",1,CONTRACTOR,,,,,,,,,,,"SWINERTON BUILDERS",,,,,"SWINERTON BUILDERS","5707 SOUTHWEST PKWY BLDG 1",AUSTIN,TX,78735-6213,"(512) 327-5599",,,,
TX,TRAVIS,20-26864,"Multi Family Apartments & Condos",12/29/2020,,611576,,"7430 BLUFF SPRINGS RD",AUSTIN,TX,78744,,,CONTRACTOR,,,,,,,,,,,KIMLEY-HORN,,,,,KIMLEY-HORN,"10814 JOLLYVILLE RD",AUSTIN,TX,78759-5674,"(512) 418-1771",http://www.kimley-horn.com,,,
TX,TRAVIS,"2021-012119 BP","Multi Family Apartments & Condos",1/28/2021,,138225,2404,"12205 CORONILLA BND",AUSTIN,TX,78748,"ESTANCIA HILL COUNTRY",6,CONTRACTOR,,,,,,,,,,,"LENNAR HOMES",,,,,"LENNAR HOMES","13620 FM 620 RD 150",AUSTIN,TX,78717,"(512) 506-4000",http://www.lennar.com/,,,
TX,TRAVIS,"2021-012120 BP","Multi Family Apartments & Condos",1/28/2021,,144150,2517,"12212 PERRITOS ST",AUSTIN,TX,78748,"ESTANCIA HILL COUNTRY",6,CONTRACTOR,,,,,,,,,,,"LENNAR HOMES",,,,,"LENNAR HOMES","13620 FM 620 RD 150",AUSTIN,TX,78717,"(512) 506-4000",http://www.lennar.com/,,,
TX,TRAVIS,"2021-012134 BP","Multi Family Apartments & Condos",1/28/2021,,162860,1916,"5410 MULBERRY GROVE LN",AUSTIN,TX,78723,TANNEHILL,,CONTRACTOR,,,,,,,,,,,"RSI COMMUNITIES",,,,,"RSI COMMUNITIES","810 HESTERS CROSSING RD STE 235","ROUND ROCK",TX,78681-7846,"(512) 953-4100",,,,
TX,TRAVIS,"2021-012127 BP","Multi Family Apartments & Condos",1/28/2021,,162860,1916,"5312 MULBERRY GROVE LN",AUSTIN,TX,78723,TANNEHILL,,CONTRACTOR,,,,,,,,,,,"RSI COMMUNITIES",,,,,"RSI COMMUNITIES","810 HESTERS CROSSING RD STE 235","ROUND ROCK",TX,78681-7846,"(512) 953-4100",,,,
TX,TRAVIS,"2021-012308 BP","Multi Family Apartments & Condos",2/1/2021,,168130,1955,"12900 BLOOMINGTON DR",AUSTIN,TX,78653,VARCINAS,,CONTRACTOR,,,,,,,,,,,"M/I HOMES",,,,,"M/I HOMES","6801 N CAPITAL OF TEXAS HWY BLDG 2 STE 100",AUSTIN,TX,78731-1780,"(512) 770-8500",,,,
TX,TRAVIS,"2021-011230 BP","Multi Family Apartments & Condos",1/27/2021,,170765,2009,"5403 MULBERRY GROVE LN",AUSTIN,TX,78723,TANNEHILL,,CONTRACTOR,,,,,,,,,,,"RSI COMMUNITIES",,,,,"RSI COMMUNITIES","810 HESTERS CROSSING RD STE 235","ROUND ROCK",TX,78681-7846,"(512) 953-4100",,,,
TX,TRAVIS,"2021-012220 BP","Multi Family Apartments & Condos",1/28/2021,,170765,2009,"5306 MULBERRY GROVE LN",AUSTIN,TX,78723,TANNEHILL,,CONTRACTOR,,,,,,,,,,,"RSI COMMUNITIES",,,,,"RSI COMMUNITIES","810 HESTERS CROSSING RD STE 235","ROUND ROCK",TX,78681-7846,"(512) 953-4100",,,,
TX,TRAVIS,"2021-014002 BP","Multi Family Apartments & Condos",2/1/2021,,180600,2100,"12809 BLOOMINGTON DR",AUSTIN,TX,78652,VARCINAS,,CONTRACTOR,,,,,,,,,,,"M/I HOMES",,,,,"M/I HOMES","6801 N CAPITAL OF TEXAS HWY BLDG 2 STE 100",AUSTIN,TX,78731-1780,"(512) 770-8500",,,,
TX,TRAVIS,"2021-012312 BP","Multi Family Apartments & Condos",2/1/2021,,191006,2221,"12903 BLOOMINGTON DR",AUSTIN,TX,78652,VARCINAS,,CONTRACTOR,,,,,,,,,,,"M/I HOMES",,,,,"M/I HOMES","6801 N CAPITAL OF TEXAS HWY BLDG 2 STE 100",AUSTIN,TX,78731-1780,"(512) 770-8500",,,,
TX,TRAVIS,"2021-013948 BP","Multi Family Apartments & Condos",2/1/2021,,202530,2355,"12914 STANFORD DR",AUSTIN,TX,78748,VARCINAS,,CONTRACTOR,,,,,,,,,,,"M/I HOMES",,,,,"M/I HOMES","6801 N CAPITAL OF TEXAS HWY BLDG 2 STE 100",AUSTIN,TX,78731-1780,"(512) 770-8500",,,,
TX,TRAVIS,"2021-013952 BP","Multi Family Apartments & Condos",2/1/2021,,202530,2355,"12908 STANFORD DR",AUSTIN,TX,78748,VARCINAS,,CONTRACTOR,,,,,,,,,,,"M/I HOMES",,,,,"M/I HOMES","6801 N CAPITAL OF TEXAS HWY BLDG 2 STE 100",AUSTIN,TX,78731-1780,"(512) 770-8500",,,,
TX,TRAVIS,"2021-014032 BP","Multi Family Apartments & Condos",2/1/2021,,202530,2355,"913 PITTSBURGH DR",AUSTIN,TX,78650,VARCINAS,,CONTRACTOR,,,,,,,,,,,"M/I HOMES",,,,,"M/I HOMES","6801 N CAPITAL OF TEXAS HWY BLDG 2 STE 100",AUSTIN,TX,78731-1780,"(512) 770-8500",,,,
TX,TRAVIS,"2021-012733 BP","Multi Family Apartments & Condos",2/1/2021,,206228,2398,"805 GAINESVILLE DR",AUSTIN,TX,76240,VARCINAS,,CONTRACTOR,,,,,,,,,,,"M/I HOMES",,,,,"M/I HOMES","6801 N CAPITAL OF TEXAS HWY BLDG 2 STE 100",AUSTIN,TX,78731-1780,"(512) 770-8500",,,,
TX,TRAVIS,"2021-012214 BP","Multi Family Apartments & Condos",1/28/2021,,206890,2434,"4700 FOUNTAIN GRASS LN",AUSTIN,TX,78723,TANNEHILL,,CONTRACTOR,,,,,,,,,,,"RSI COMMUNITIES",,,,,"RSI COMMUNITIES","810 HESTERS CROSSING RD STE 235","ROUND ROCK",TX,78681-7846,"(512) 953-4100",,,,
TX,TRAVIS,"2021-013969 BP","Multi Family Apartments & Condos",2/1/2021,,210270,2445,"12720 BLOOMINGTON DR",AUSTIN,TX,78652,VARCINAS,,CONTRACTOR,,,,,,,,,,,"M/I HOMES",,,,,"M/I HOMES","6801 N CAPITAL OF TEXAS HWY BLDG 2 STE 100",AUSTIN,TX,78731-1780,"(512) 770-8500",,,,
TX,TRAVIS,"2021-014048 BP","Multi Family Apartments & Condos",2/1/2021,,210270,2445,"900 PITTSBURGH DR",AUSTIN,TX,78652,VARCINAS,,CONTRACTOR,,,,,,,,,,,"M/I HOMES",,,,,"M/I HOMES","6801 N CAPITAL OF TEXAS HWY BLDG 2 STE 100",AUSTIN,TX,78731-1780,"(512) 770-8500",,,,
TX,TRAVIS,"2021-012738 BP","Multi Family Apartments & Condos",2/1/2021,,242606,2821,"803 GAINESVILLE DR",AUSTIN,TX,76240,VARCINAS,,CONTRACTOR,,,,,,,,,,,"M/I HOMES",,,,,"M/I HOMES","6801 N CAPITAL OF TEXAS HWY BLDG 2 STE 100",AUSTIN,TX,78731-1780,"(512) 770-8500",,,,
TX,TRAVIS,"2021-012742 BP","Multi Family Apartments & Condos",2/1/2021,,242606,2821,"1008 PITTSBURGH DR",AUSTIN,TX,78652,VARCINAS,,CONTRACTOR,,,,,,,,,,,"M/I HOMES",,,,,"M/I HOMES","6801 N CAPITAL OF TEXAS HWY BLDG 2 STE 100",AUSTIN,TX,78731-1780,"(512) 770-8500",,,,
TX,TRAVIS,"2021-012346 BP","Multi Family Apartments & Condos",2/1/2021,,246820,2870,"12708 BLOOMINGTON DR",AUSTIN,TX,78652,VARCINAS,,CONTRACTOR,,,,,,,,,,,"M/I HOMES",,,,,"M/I HOMES","6801 N CAPITAL OF TEXAS HWY BLDG 2 STE 100",AUSTIN,TX,78731-1780,"(512) 770-8500",,,,
TX,TRAVIS,"2021-000613 BP","Multi Family Apartments & Condos",1/27/2021,,252152,2932,"12812 STANFORD DR",AUSTIN,TX,78748,VARCINAS,,CONTRACTOR,,,,,,,,,,,"M/I HOMES",,,,,"M/I HOMES","6801 N CAPITAL OF TEXAS HWY BLDG 2 STE 100",AUSTIN,TX,78731-1780,"(512) 770-8500",,,,
TX,TRAVIS,"2021-011259 BP","Multi Family Apartments & Condos",1/27/2021,,252152,2932,"914 PITTSBURGH DR",AUSTIN,TX,78652,VARCINAS,,CONTRACTOR,,,,,,,,,,,"M/I HOMES",,,,,"M/I HOMES","6801 N CAPITAL OF TEXAS HWY BLDG 2 STE 100",AUSTIN,TX,78731-1780,"(512) 770-8500",,,,
TX,TRAVIS,"2021-012330 BP","Multi Family Apartments & Condos",2/1/2021,,252152,2932,"12716 BLOOMINGTON DR",AUSTIN,TX,78652,VARCINAS,,CONTRACTOR,,,,,,,,,,,"M/I HOMES",,,,,"M/I HOMES","6801 N CAPITAL OF TEXAS HWY BLDG 2 STE 100",AUSTIN,TX,78731-1780,"(512) 770-8500",,,,
TX,TRAVIS,"2021-013983 BP","Multi Family Apartments & Condos",2/1/2021,,255850,2975,"12714 BLOOMINGTON DR",AUSTIN,TX,78652,VARCINAS,,CONTRACTOR,,,,,,,,,,,"M/I HOMES",,,,,"M/I HOMES","6801 N CAPITAL OF TEXAS HWY BLDG 2 STE 100",AUSTIN,TX,78731-1780,"(512) 770-8500",,,,
TX,TRAVIS,"2020-149520 BP","Multi Family Apartments & Condos",1/27/2021,,65000000,186110,"313 W 17TH ST",AUSTIN,TX,78701,,,CONTRACTOR,,,,,,,,,,,"BARTLETT COCKE CONSTRUCTION",,,,,"BARTLETT COCKE CONSTRUCTION","7901 E RIVERSIDE DR # 2-100",AUSTIN,TX,78744-1661,"(512) 326-4223",http://bartlettcocke.com/,,,
TX,TRAVIS,"2021-009653 BP","Multi Family Apartments & Condos",1/29/2021,,123400000,429459,"215 BRAZOS ST",AUSTIN,TX,78701,"ORIGINAL CITY",10,CONTRACTOR,,,,,,,,,,,"THE HANOVER COMPANY",,,,,"THE HANOVER COMPANY","5847 SAN FELIPE ST, SUITE 3600",HOUSTON,TX,77057,"(713) 267-2100",,,,
TX,WILLIAMSON,2020-70044,"Multi Family Apartments & Condos",1/12/2021,,150000,1040,"308 E 19TH 1/2 ST",GEORGETOWN,TX,78626,,,CONTRACTOR,,,,,,,,,,,"CHANCE LEIGH CUSTOM HOMES",,,,,"CHANCE LEIGH CUSTOM HOMES","1912 WOODGLEN DR","ROUND ROCK",TX,78681-2220,"(512) 848-1185",http://www.chanceleighcustomhomes.com/,,"Chance Leigh",chance@chanceleighcustomhomes.com
TX,WILLIAMSON,2020-70407,"Multi Family Apartments & Condos",1/10/2020,,145000,1407,"1015 VISTA VIEW DR # 2401",GEORGETOWN,TX,78626,"VISTA POINT",,CONTRACTOR,,,,,,,,,,,"HOMES BY AVI",,,,,"HOMES BY AVI","11130 JOLLYVILLE RD STE 304",AUSTIN,TX,78759-4819,"(512) 382-0971",http://www.homesbyavi.com/,,,
TX,WILLIAMSON,2020-70408,"Multi Family Apartments & Condos",1/11/2021,,145000,1407,"1015 VISTA VIEW DR # 2402",GEORGETOWN,TX,78626,"VISTA POINT",,CONTRACTOR,,,,,,,,,,,"HOMES BY AVI",,,,,"HOMES BY AVI","11130 JOLLYVILLE RD STE 304",AUSTIN,TX,78759-4819,"(512) 382-0971",http://www.homesbyavi.com/,,,
TX,WILLIAMSON,2020-70548,"Multi Family Apartments & Condos",1/12/2021,,150000,1040,"306 E 19TH 1/2 ST",GEORGETOWN,TX,78626,,,CONTRACTOR,,,,,,,,,,,"CHANCE LEIGH CUSTOM HOMES",,,,,"CHANCE LEIGH CUSTOM HOMES","1912 WOODGLEN DR","ROUND ROCK",TX,78681-2220,"(512) 848-1185",http://www.chanceleighcustomhomes.com/,,"Chance Leigh",chance@chanceleighcustomhomes.com
TX,WILLIAMSON,2020-70552,"Multi Family Apartments & Condos",1/12/2021,,150000,1040,"206 E 20TH ST",GEORGETOWN,TX,78626,,,CONTRACTOR,,,,,,,,,,,"CHANCE LEIGH CUSTOM HOMES",,,,,"CHANCE LEIGH CUSTOM HOMES","1912 WOODGLEN DR","ROUND ROCK",TX,78681-2220,"(512) 848-1185",http://www.chanceleighcustomhomes.com/,,"Chance Leigh",chance@chanceleighcustomhomes.com
TX,WILLIAMSON,2020-70555,"Multi Family Apartments & Condos",1/12/2021,,150000,1040,"208 E 20TH ST",GEORGETOWN,TX,78626,,,CONTRACTOR,,,,,,,,,,,"CHANCE LEIGH CUSTOM HOMES",,,,,"CHANCE LEIGH CUSTOM HOMES","1912 WOODGLEN DR","ROUND ROCK",TX,78681-2220,"(512) 848-1185",http://www.chanceleighcustomhomes.com/,,"Chance Leigh",chance@chanceleighcustomhomes.com
TX,WILLIAMSON,2020-70556,"Multi Family Apartments & Condos",1/14/2021,,150000,1040,"212 E 20TH ST",GEORGETOWN,TX,78626,,,CONTRACTOR,,,,,,,,,,,"CHANCE LEIGH CUSTOM HOMES",,,,,"CHANCE LEIGH CUSTOM HOMES","1912 WOODGLEN DR","ROUND ROCK",TX,78681-2220,"(512) 848-1185",http://www.chanceleighcustomhomes.com/,,"Chance Leigh",chance@chanceleighcustomhomes.com
TX,WILLIAMSON,2020-70558,"Multi Family Apartments & Condos",1/14/2021,,150000,1040,"214 E 20TH ST",GEORGETOWN,TX,78626,,,CONTRACTOR,,,,,,,,,,,"CHANCE LEIGH CUSTOM HOMES",,,,,"CHANCE LEIGH CUSTOM HOMES","1912 WOODGLEN DR","ROUND ROCK",TX,78681-2220,"(512) 848-1185",http://www.chanceleighcustomhomes.com/,,"Chance Leigh",chance@chanceleighcustomhomes.com
TX,WILLIAMSON,2020-70559,"Multi Family Apartments & Condos",1/14/2021,,200000,1657,"302 E 19TH 1/2 ST",GEORGETOWN,TX,78626,,,CONTRACTOR,,,,,,,,,,,"CHANCE LEIGH CUSTOM HOMES",,,,,"CHANCE LEIGH CUSTOM HOMES","1912 WOODGLEN DR","ROUND ROCK",TX,78681-2220,"(512) 848-1185",http://www.chanceleighcustomhomes.com/,,"Chance Leigh",chance@chanceleighcustomhomes.com
TX,WILLIAMSON,2020-70562,"Multi Family Apartments & Condos",1/14/2021,,200000,1657,"304 E 19TH 1/2 ST",GEORGETOWN,TX,78626,,,CONTRACTOR,,,,,,,,,,,"CHANCE LEIGH CUSTOM HOMES",,,,,"CHANCE LEIGH CUSTOM HOMES","1912 WOODGLEN DR","ROUND ROCK",TX,78681-2220,"(512) 848-1185",http://www.chanceleighcustomhomes.com/,,"Chance Leigh",chance@chanceleighcustomhomes.com
TX,WILLIAMSON,2020-70565,"Multi Family Apartments & Condos",1/14/2021,,200000,1657,"216 E 20TH ST",GEORGETOWN,TX,78626,,,CONTRACTOR,,,,,,,,,,,"CHANCE LEIGH CUSTOM HOMES",,,,,"CHANCE LEIGH CUSTOM HOMES","1912 WOODGLEN DR","ROUND ROCK",TX,78681-2220,"(512) 848-1185",http://www.chanceleighcustomhomes.com/,,"Chance Leigh",chance@chanceleighcustomhomes.com
TX,WILLIAMSON,2020-70566,"Multi Family Apartments & Condos",1/14/2021,,200000,1657,"218 E 20TH ST",GEORGETOWN,TX,78626,,,CONTRACTOR,,,,,,,,,,,"CHANCE LEIGH CUSTOM HOMES",,,,,"CHANCE LEIGH CUSTOM HOMES","1912 WOODGLEN DR","ROUND ROCK",TX,78681-2220,"(512) 848-1185",http://www.chanceleighcustomhomes.com/,,"Chance Leigh",chance@chanceleighcustomhomes.com
TX,WILLIAMSON,2020-70568,"Multi Family Apartments & Condos",1/15/2021,,200000,1657,"201 E 21ST ST",GEORGETOWN,TX,78626,,,CONTRACTOR,,,,,,,,,,,"CHANCE LEIGH CUSTOM HOMES",,,,,"CHANCE LEIGH CUSTOM HOMES","1912 WOODGLEN DR","ROUND ROCK",TX,78681-2220,"(512) 848-1185",http://www.chanceleighcustomhomes.com/,,"Chance Leigh",chance@chanceleighcustomhomes.com
TX,WILLIAMSON,2020-70571,"Multi Family Apartments & Condos",1/15/2021,,200000,1657,"203 E 21ST ST",GEORGETOWN,TX,78626,,,CONTRACTOR,,,,,,,,,,,"CHANCE LEIGH CUSTOM HOMES",,,,,"CHANCE LEIGH CUSTOM HOMES","1912 WOODGLEN DR","ROUND ROCK",TX,78681-2220,"(512) 848-1185",http://www.chanceleighcustomhomes.com/,,"Chance Leigh",chance@chanceleighcustomhomes.com
TX,WILLIAMSON,2021-70721,"Multi Family Apartments & Condos",1/26/2021,,145000,1407,"1015 VISTA VIEW DR # 2502",GEORGETOWN,TX,78626,,,CONTRACTOR,,,,,,,,,,,"HOMES BY AVI",,,,,"HOMES BY AVI","11130 JOLLYVILLE RD STE 304",AUSTIN,TX,78759-4819,"(512) 382-0971",http://www.homesbyavi.com/,,,
TX,WILLIAMSON,2020-70216,"Multi Family Apartments & Condos",1/15/2021,,498799,4083,"656 PARKLINE DR",GEORGETOWN,TX,78626,"PARKSIDE CROSSING",,CONTRACTOR,,,,,,,,,,,"PARKSIDE CROSSING",,,,,"PARKSIDE CROSSING","400 PARKLINE DRIVE",GEORGETOWN,TX,78626,"(512) 694-2666",,,,
TX,WILLIAMSON,2020-70218,"Multi Family Apartments & Condos",1/15/2021,,489899,4083,"650 PARKLINE DR",GEORGETOWN,TX,78626,"PARKSIDE CROSSING",,CONTRACTOR,,,,,,,,,,,"PARKSIDE CROSSING",,,,,"PARKSIDE CROSSING","400 PARKLINE DRIVE",GEORGETOWN,TX,78626,"(512) 694-2666",,,,
TX,WILLIAMSON,2020-70223,"Multi Family Apartments & Condos",1/15/2021,,489899,4038,"644 PARKLINE DR",GEORGETOWN,TX,78626,"PARKSIDE CROSSING",,CONTRACTOR,,,,,,,,,,,"PARKSIDE CROSSING",,,,,"PARKSIDE CROSSING","400 PARKLINE DRIVE",GEORGETOWN,TX,78626,"(512) 694-2666",,,,
TX,WILLIAMSON,2020-70224,"Multi Family Apartments & Condos",1/14/2021,,489899,4038,"638 PARKLINE DR",GEORGETOWN,TX,78626,"PARKSIDE CROSSING",,CONTRACTOR,,,,,,,,,,,"PARKSIDE CROSSING",,,,,"PARKSIDE CROSSING","400 PARKLINE DRIVE",GEORGETOWN,TX,78626,"(512) 694-2666",,,,
TX,WILLIAMSON,2021-70758,"Multi Family Apartments & Condos",1/25/2021,,500800,4122,"630 PARKLINE DR",GEORGETOWN,TX,78626,"PARKSIDE CROSSING",,CONTRACTOR,,,,,,,,,,,"PARKSIDE CROSSING",,,,,"PARKSIDE CROSSING","400 PARKLINE DRIVE",GEORGETOWN,TX,78626,"(512) 694-2666",,,,
TX,WILLIAMSON,2021-70773,"Multi Family Apartments & Condos",1/25/2021,,504000,4122,"606 PARKLINE DR",GEORGETOWN,TX,78626,"PARKSIDE CROSSING",,CONTRACTOR,,,,,,,,,,,"PARKSIDE CROSSING",,,,,"PARKSIDE CROSSING","400 PARKLINE DRIVE",GEORGETOWN,TX,78626,"(512) 694-2666",,,,
TX,WILLIAMSON,2021-70775,"Multi Family Apartments & Condos",1/25/2021,,504000,4267,"600 PARKLINE DR",GEORGETOWN,TX,78626,"PARKSIDE CROSSING",,CONTRACTOR,,,,,,,,,,,"PARKSIDE CROSSING",,,,,"PARKSIDE CROSSING","400 PARKLINE DRIVE",GEORGETOWN,TX,78626,"(512) 694-2666",,,,
TX,WILLIAMSON,2021-70779,"Multi Family Apartments & Condos",1/25/2021,,518300,4143,"612 PARKLINE DR",GEORGETOWN,TX,78626,"PARKSIDE CROSSING",,CONTRACTOR,,,,,,,,,,,"PARKSIDE CROSSING",,,,,"PARKSIDE CROSSING","400 PARKLINE DRIVE",GEORGETOWN,TX,78626,"(512) 694-2666",,,,
TX,WILLIAMSON,2021-70781,"Multi Family Apartments & Condos",1/25/2021,,500800,4163,"624 PARKLINE DR",GEORGETOWN,TX,78626,"PARKSIDE CROSSING",,CONTRACTOR,,,,,,,,,,,"PARKSIDE CROSSING",,,,,"PARKSIDE CROSSING","400 PARKLINE DRIVE",GEORGETOWN,TX,78626,"(512) 694-2666",,,,
TX,TRAVIS,20-30098,"Multi Family Renovations & Additions",12/15/2020,Addition,750000,,"3101 WELLS BRANCH PKWY",AUSTIN,TX,78728,,,CONTRACTOR,,,,,,,,,,,"ACE CONSTRUCTION SERVICES",,,,,"ACE CONSTRUCTION SERVICES","1521 GREEN OAK PL STE 196",KINGWOOD,TX,77339-2012,"(281) 359-9907",http://host.trustab.org/aceconstruction,"(281) 359-9908","HILMER MORGAN",hmorgan@aceconstruction.org
TX,TRAVIS,20-27280,"Offices, R&D, & Professional",12/22/2020,,123093,,"13921 JOHN HENRY FAULK DR",AUSTIN,TX,78660,,,CONTRACTOR,,,,,,,,,,,"360 PROFESSIONAL SERVICES",,,,,"360 PROFESSIONAL SERVICES","PO BOX 3639","CEDAR PARK",TX,78630-3639,"(512) 354-4682",http://www.360psinc.com/,"(512) 900-7962","SCOTT FOSTER",info@360psinc.com
TX,TRAVIS,20-27788,"Offices, R&D, & Professional",12/3/2020,,740000,,"2300 ROWE LN",PFLUGERVILLE,TX,78660,,,CONTRACTOR,,,,,,,,,,,"KIMLEY-HORN & ASSOCIATES",,,,,"KIMLEY-HORN & ASSOCIATES","10415 MORADO CIR # 300",AUSTIN,TX,78759-5696,"(512) 418-1771",http://www.kimley-horn.com/,,,info@kimley-horn.com
TX,WILLIAMSON,2020-69498,"Offices, R&D, & Professional",1/7/2021,,1000055,5709,"4871 WILLIAMS DR",GEORGETOWN,TX,78633,,,CONTRACTOR,,,,,,,,,,,"COCKRUM COMMERCIAL",,,,,"COCKRUM COMMERCIAL","200 SEDRO TRAIL",GEORGETOWN,TX,78633,"(512) 868-1011",https://cockrumcommercial.com/,,,
TX,WILLIAMSON,2021-70778,"Offices, R&D, & Professional",1/8/2021,Renovation,,1937,"3301 SHELL RD # 401",GEORGETOWN,TX,78626,,,CONTRACTOR,,,,,,,,,,,"K&W ENGINEERING SOLUTIONS",,,,,"K&W ENGINEERING SOLUTIONS","650 PVT RD 912",GEORGETOWN,TX,78628,"(512) 639-3131",https://www.kwengineering.net/,,,info@kwengineeringsolutions.com
TX,TRAVIS,19-23472,"Other Commercial",12/3/2020,,1873593,,"6400 COLTON BLUFF SPRINGS RD",AUSTIN,TX,78747,,,CONTRACTOR,,,,,,,,,,,"CARLSON BRIGANCE & DOERING INC",,,,,"CARLSON BRIGANCE & DOERING INC","5501 W WILLIAM CANNON DR",AUSTIN,TX,78749-2034,"(512) 280-5160",http://www.cbdeng.com/,"(512) 280-5165","GEOFF GUERRERO",
TX,TRAVIS,18-21370,"Other Commercial",12/2/2020,,1500000,,"5630 KARA DR",AUSTIN,TX,78744,,,CONTRACTOR,,,,,,,,,,,"KITCHEN TABLE CIVIL SOLUTIONS",,,,,"KITCHEN TABLE CIVIL SOLUTIONS","6805 N CAPITAL OF TEXAS HWY STE 315",AUSTIN,TX,78731-1774,"(512) 758-7474",,,,
TX,TRAVIS,20-28645,"Other Residential",12/11/2020,Septic,600000,,"16508-B FM 973 N",MANOR,TX,78653,"THOS HANCOCK",,CONTRACTOR,,,,,,,,,,,"DELCON ENVIRONMENTAL SYSTEMS",,,,,"DELCON ENVIRONMENTAL SYSTEMS","12713 MAJESTIC OAKS DR",AUSTIN,TX,78732-2001,"(512) 583-1397",,,"DERRICK LORMAND",
TX,TRAVIS,"2020-149521 BP","Parking Structures & Carports",1/27/2021,,65000000,98043,"313 W 17TH ST",AUSTIN,TX,78701,,,CONTRACTOR,,,,,,,,,,,"BARTLETT COCKE CONSTRUCTION",,,,,"BARTLETT COCKE CONSTRUCTION","7901 E RIVERSIDE DR # 2-100",AUSTIN,TX,78744-1661,"(512) 326-4223",http://bartlettcocke.com/,,,
TX,TRAVIS,"2021-009654 BP","Parking Structures & Carports",2/1/2021,,123400000,159665,"215 BRAZOS ST",AUSTIN,TX,78701,"ORIGINAL CITY",10,CONTRACTOR,,,,,,,,,,,"THE HANOVER COMPANY",,,,,"THE HANOVER COMPANY","5847 SAN FELIPE ST, SUITE 3600",HOUSTON,TX,77057,"(713) 267-2100",,,,
TX,TRAVIS,20-27779,"Residential Garages & Carports",12/2/2020,Addition,40000,,"16802 FOREST WAY",AUSTIN,TX,78734,"HUDSON BEND COLONY",,"PAMELA JOHNSON","16802 FOREST WAY",AUSTIN,TX,78734,,Owner,,,,,"FW CONSTRUCTION",,,,,"FW CONSTRUCTION","13500 SADDLE BACK PASS",AUSTIN,TX,78738-6112,"(512) 784-3225",,,,
TX,TRAVIS,20-31403,"Residential Renovations & Additions",12/28/2020,Renovation,87500,,"1504 CANYON EDGE DR",AUSTIN,TX,78733,"AUSTIN LAKE HILLS",29,"STUART & MARTINE LAWRENCE","1504 CANYON EDGE DR",AUSTIN,TX,78733,,Owner,,,,,OWNER,,,,,OWNER,,,,,,,,,
TX,TRAVIS,"2021-009028 BP","Residential Renovations & Additions",1/28/2021,Renovation,40000,4581,"2300 PEASE RD",AUSTIN,TX,78703,"SUNSET HILL ENFIELD",1,"RICHARD HARDIN","2300 PEASE RD",AUSTIN,TX,78703,,Owner,,,,,"TAYLOR & TAYLOR DESIGNS",,,,,"TAYLOR & TAYLOR DESIGNS","1022 WIRT RD STE 308",HOUSTON,TX,77055-6858,"(713) 977-2715",,,,
TX,TRAVIS,"2021-000663 BP","Residential Renovations & Additions",1/29/2021,Addition,68623,1073,"2205 LARAMIE TRL",AUSTIN,TX,78745,"WESTERN TRAILS ESTATES",5,"JUSTIN & MANDY BARRETT","2205 LARAMIE TRL",AUSTIN,TX,78745,,Owner,,,,,"ADR CONSTRUCTION",,,,,"ADR CONSTRUCTION","2801 STONECREEK PL","ROUND ROCK",TX,78681-2198,"(512) 297-5326",,,,
TX,TRAVIS,"2021-011855 BP","Residential Renovations & Additions",1/29/2021,Renovation,71619,250,"8906 MOUNTBATTEN CIR",AUSTIN,TX,78730,"WESTMINSTER GLEN",147,"TRAVIS & KATHLEEN VIGIL","8906 MOUNTBATTEN CIR",AUSTIN,TX,78730,,Owner,,,,,"HESTIA CONSTRUCTION & DESIGN",,,,,"HESTIA CONSTRUCTION & DESIGN","16000 BARKERS POINT LN STE 202",HOUSTON,TX,77079-4000,"(832) 399-2060",,,,
TX,TRAVIS,"2021-011765 BP","Residential Renovations & Additions",1/29/2021,Renovation,100000,450,"2305 LANCASTER DR",AUSTIN,TX,78748,"CASTLEWOOD FOREST",9,"SPARTAN ROEMER","2305 LANCASTER DR",AUSTIN,TX,78748,,Owner,,,,,"STAIN CONSTRUCTION",,,,,"STAIN CONSTRUCTION","8508 BOWLING GREEN DR",AUSTIN,TX,78757-7018,"(512) 815-8366",,,,
TX,TRAVIS,"2021-013258 BP","Residential Renovations & Additions",1/29/2021,Renovation,100000,288,"1501 PALO DURO RD",AUSTIN,TX,78757,"VIOLET CROWN HEIGHTS",10,"AMANDA & AUSTIN HILBERG","1501 PALO DURO RD",AUSTIN,TX,78757,,Owner,,,,,"REJUVE GROUP",,,,,"REJUVE GROUP","4716 DORCHESTER HEIGHTS LN",AUSTIN,TX,78754-5403,"(512) 926-4052",,,"PHIL NICOLOSI",rejuvegroup@gmail.com
TX,TRAVIS,"2021-009505 BP","Residential Renovations & Additions",1/28/2021,Addition,171500,735,"3606 SERENA WOODS CT",AUSTIN,TX,78759,"SERENA WOODS",19,"LAURA & WALKER STEMPLE","3606 SERENA WOODS CT",AUSTIN,TX,78759,,Owner,,,,,"ROBERTS HOMEBUILDERS",,,,,"ROBERTS HOMEBUILDERS","13225 BRDMEADE AVE ",AUSTIN,TX,78729,"(512) 799-4135",,,,
TX,TRAVIS,"2021-013054 BP","Residential Renovations & Additions",1/29/2021,Addition,150000,1257,"4706 PROCK LN BLDG 2",AUSTIN,TX,78721,PROCK,4,CONTRACTOR,,,,,,,,,,,"IRONSTONE PARTNERS",,,,,"IRONSTONE PARTNERS","210 VAILCO LN ",LAKEWAY,TX,78738,"(512) 289-1020",,,,
TX,TRAVIS,"2021-013106 BP","Residential Renovations & Additions",1/29/2021,Addition,150000,1257,"4706 PROCK LN BLDG 4",AUSTIN,TX,78721,PROCK,4,CONTRACTOR,,,,,,,,,,,"IRONSTONE PARTNERS",,,,,"IRONSTONE PARTNERS","210 VAILCO LN ",LAKEWAY,TX,78738,"(512) 289-1020",,,,
TX,TRAVIS,"2021-012672 BP","Residential Renovations & Additions",1/28/2021,Addition,31540,,"5011 CAPE VERDE CV",AUSTIN,TX,78744,VILLAGE,9,"KENT CLAYPOOL","5011 CAPE VERDE CV",AUSTIN,TX,78744,,Owner,,,,,"BATS FOUNDATION REPAIR",,,,,"BATS FOUNDATION REPAIR","1003 ADVENTURE LN UNIT B","CEDAR PARK",TX,78613-4092,"(512) 584-6557",https://www.batsfoundationrepair.com,,,
TX,TRAVIS,"2021-007432 BP","Residential Renovations & Additions",2/1/2021,Renovation,120000,,"4819 TRAIL CREST CIR",AUSTIN,TX,78735,"TRAILWOOD VILLAGE ONE AT TRAVIS COUNTRY",24,"JAMES & JACQUELINE JOHNSON","4819 TRAIL CREST CIR",AUSTIN,TX,78735,,Owner,,,,,"SELL YOUR HOUSE",,,,,"SELL YOUR HOUSE","3724 JEFFERSON ST STE 316",AUSTIN,TX,78731-6222,"(512) 226-3791",,,,
TX,TRAVIS,"2021-012428 BP","Residential Renovations & Additions",1/28/2021,Renovation,122350,,"1504 WESTOVER RD",AUSTIN,TX,78703,EDGEMONT,16,"CHRISTOPHER BRECKWOLDT","1504 WESTOVER RD",AUSTIN,TX,78703,,Owner,,,,,"RENEWAL BY ANDERSEN",,,,,"RENEWAL BY ANDERSEN","2100 KRAMER LN STE 600",AUSTIN,TX,78758-4045,"(512) 834-8383",,,,
TX,WILLIAMSON,2020-70198,"Residential Renovations & Additions",1/14/2021,Renovation,44726,150,"205 YELLOW ROSE TRL",GEORGETOWN,TX,78633,,,"CLIFFORD & CAROL HENSLEY","205 YELLOW ROSE TRL",GEORGETOWN,TX,78633,,Owner,,,,,OWNER,,,,,OWNER,,,,,,,,,
TX,TRAVIS,20-31669,"Residential Swimming Pools & Spas",12/17/2020,,95787,,"19020 SILVER MAPLE DR","LAGO VISTA",TX,78645,"WATERFORD ON LAKE TRAVIS",,"LESLIE HARLIEN","19020 SILVER MAPLE DR","LAGO VISTA",TX,78645,,Owner,,,,,"PERMITS PLUS",,,,,"PERMITS PLUS","1107 E 52ND ST",ODESSA,TX,79762-4352,"(432) 550-4303",http://www.permitsplus-houston.com/,,,
TX,TRAVIS,20-29704,"Residential Swimming Pools & Spas",12/8/2020,,88945,,"1800 AMIS",AUSTIN,TX,78734,"VINEYARD BAY",2,"DEBORAH HUGONIN","1800 AMIS",AUSTIN,TX,78734,,Owner,,,,,"DIMENSION CUSTOM POOLS",,,,,"DIMENSION CUSTOM POOLS","4819 R O DR STE 101A",SPICEWOOD,TX,78669,"(512) 522-5958",,,"BLAKE OLSON",info@dimensionpools.com
TX,TRAVIS,20-30222,"Residential Swimming Pools & Spas",12/15/2020,,135000,,"21500 SERENDIPITY PLACE",SPICEWOOD,TX,78669,"COLONIA SERENDIPITY",6,"JONATHAN SMITH","21500 SERENDIPITY PLACE",SPICEWOOD,TX,78669,,Owner,,,,,"DIMENSION CUSTOM POOLS",,,,,"DIMENSION CUSTOM POOLS","4819 R O DR STE 101A",SPICEWOOD,TX,78669,"(512) 522-5958",,,"BLAKE OLSON",info@dimensionpools.com
TX,TRAVIS,20-30341,"Residential Swimming Pools & Spas",12/8/2020,,68000,,"10401 HILL COUNTRY SKYLINE","DRIPPING SPRINGS",TX,78620,"CAVE ESTATES",6,"KENT & KERRI HARLAN","10401 HILL COUNTRY SKYLINE","DRIPPING SPRINGS",TX,78620,,Owner,,,,,"CRYSTAL SPRINGS CUSTOM POOLS",,,,,"CRYSTAL SPRINGS CUSTOM POOLS","5300 W HIGHWAY 290","DRIPPING SPRINGS",TX,78620-3520,"(512) 200-6969",http://crystalspringscustompools.com/,,,crystalspringscustompools@gmail.com
TX,TRAVIS,20-29638,"Residential Swimming Pools & Spas",12/8/2020,,100000,,"325 S COMMON FORD RD",AUSTIN,TX,78733,"WOODLAKE TRAILS",5,"LAWRENCE & KIRSTIN BRADSHAW","325 S COMMON FORD RD",AUSTIN,TX,78733,,Owner,,,,,"RELIANT POOLS",,,,,"RELIANT POOLS","12343 HYMEADOW DR STE 3A",AUSTIN,TX,78750-1858,"(512) 407-2623",http://www.reliantpools.com/,,,
TX,TRAVIS,20-30036,"Residential Swimming Pools & Spas",12/9/2020,,121000,,"18505 EMPRESA PL",AUSTIN,TX,78738,"SWEETWATER RANCH VILLAGE",56,"CHRISTOPHER FERREIRA","18505 EMPRESA PL",AUSTIN,TX,78738,,Owner,,,,,"PREMIER POOLS & SPAS",,,,,"PREMIER POOLS & SPAS","7703 N LAMAR BLVD STE 606",AUSTIN,TX,78752-1027,"(512) 470-3949",,,,
TX,TRAVIS,20-31108,"Residential Swimming Pools & Spas",12/23/2020,,91617,,"8402 LA PLATA LOOP",AUSTIN,TX,78737,"LEWIS MOUNTAIN RANCH",25,"VALERIE SANTIAGO","8402 LA PLATA LOOP",AUSTIN,TX,78737,,Owner,,,,,"TRI COUNTY POOLS",,,,,"TRI COUNTY POOLS","1817 FLEISCHER DR",AUSTIN,TX,78728-5702,"(512) 990-9252",,,,
TX,TRAVIS,20-30824,"Residential Swimming Pools & Spas",12/7/2020,,74000,,"1603 LIPAN TRL",AUSTIN,TX,78733,"AUSTIN LAKE HILLS",41,"BRADLEY & LINDSAY EAST","1603 LIPAN TRL",AUSTIN,TX,78733,,Owner,,,,,"TRIROCK PERMITS",,,,,"TRIROCK PERMITS","12234 N INTERSTATE 35 STE 100 BLDG B",AUSTIN,TX,78753-0002,"(512) 658-1287",,,,trirockpermits@gmail.com
TX,TRAVIS,20-31274,"Residential Swimming Pools & Spas",12/8/2020,,100000,,"12432 BEVERLY VILLAS CT",AUSTIN,TX,78732,"BEVERLY RIDGE CONDOMINIUMS",6,"RONALD TURNER","12432 BEVERLY VILLAS CT",AUSTIN,TX,78732,,Owner,,,,,"CODY POOLS",,,,,"CODY POOLS","2300 W PARMER LN",AUSTIN,TX,78727-4332,"(512) 835-4966",http://www.codypools.com,,"COLE NAUMAN",
TX,TRAVIS,20-29901,"Residential Swimming Pools & Spas",12/22/2020,,60000,,"3 CICERO LN",AUSTIN,TX,78746,,,"GEMMA & PATRICK BORJA","3 CICERO LN",AUSTIN,TX,78746,,Owner,,,,,OWNER,,,,,OWNER,,,,,,,,,
TX,TRAVIS,20-31449,"Residential Swimming Pools & Spas",12/7/2020,,87000,,"2400 RIO MESA",AUSTIN,TX,78732,"STEINER RANCH",1,"ERIC & DARILYNN BEILER","2400 RIO MESA",AUSTIN,TX,78732,,Owner,,,,,"TRIROCK PERMITS",,,,,"TRIROCK PERMITS","12234 N INTERSTATE 35 STE 100 BLDG B",AUSTIN,TX,78753-0002,"(512) 658-1287",,,,trirockpermits@gmail.com
TX,TRAVIS,20-31451,"Residential Swimming Pools & Spas",12/22/2020,,90000,,"17932 TURKEY TROT TRL","DRIPPING SPRINGS",TX,78620,"CAVE ESTATES",61,"DAVID & MAYRA RADZINSKI","17932 TURKEY TROT TRL","DRIPPING SPRINGS",TX,78620,,Owner,,,,,"CALIFORNIA POOLS OF TEXAS",,,,,"CALIFORNIA POOLS OF TEXAS","12871 RESEARCH BLVD UNIT 204",AUSTIN,TX,78613,"(512) 942-2575",,,,
TX,TRAVIS,20-31485,"Residential Swimming Pools & Spas",12/8/2020,,90000,,"17208 YELLOWSTAR DR",AUSTIN,TX,78738,"ROCKY CREEK RANCH",52,"RYAN & EMILY CHAPLINSKI","17208 YELLOWSTAR DR",AUSTIN,TX,78738,,Owner,,,,,"KB CUSTOM POOLS",,,,,"KB CUSTOM POOLS","12507 W HIGHWAY 71","BEE CAVE",TX,78738-6521,"(512) 268-9990",,,,
TX,TRAVIS,20-31558,"Residential Swimming Pools & Spas",12/31/2020,,80000,,"16004 LA ROSA DR",AUSTIN,TX,78738,"BELLA COLINAS",,"MICHAEL & JULIE DASILVA","16004 LA ROSA DR",AUSTIN,TX,78738,,Owner,,,,,"MAJESTIC POOLSCAPES",,,,,"MAJESTIC POOLSCAPES","1401 HOOKBILL KITE","BEE CAVES",TX,78738,"(512) 402-0011",,,,
TX,TRAVIS,20-31559,"Residential Swimming Pools & Spas",12/8/2020,,60000,,"18709 TANNER BAYOU LOOP",AUSTIN,TX,78738,"SWEETWATER RANCH VILLAGE",3,"NICOLE & MIGDOEL MIRANDA","18709 TANNER BAYOU LOOP",AUSTIN,TX,78738,,Owner,,,,,"DA VINCI POOLS",,,,,"DA VINCI POOLS","1460 E WHITESTONE BLVD STE 150","CEDAR PARK",TX,78613-2240,"(512) 259-9321",http://www.davincipools.com/,,,
TX,TRAVIS,20-31592,"Residential Swimming Pools & Spas",12/21/2020,,80000,,"15933 CINCA TERRA","BEE CAVE",TX,78738,"BELLA COLINAS",22,"GIOVANNI & ZULEYMA DIGIACOMO","15933 CINCA TERRA","BEE CAVE",TX,78738,,Owner,,,,,"CODY POOLS",,,,,"CODY POOLS","2300 W PARMER LN",AUSTIN,TX,78727-4332,"(512) 835-4966",http://www.codypools.com,,"COLE NAUMAN",
TX,TRAVIS,20-31634,"Residential Swimming Pools & Spas",12/8/2020,,110000,,"8701 FLYCATCHER",AUSTIN,TX,78738,"ROCKY CREEK RANCH",11,CONTRACTOR,,,,,,,,,,,"PREMIER POOLS & SPAS",,,,,"PREMIER POOLS & SPAS","7703 N LAMAR BLVD STE 606",AUSTIN,TX,78752-1027,"(512) 470-3949",,,,
TX,TRAVIS,20-31636,"Residential Swimming Pools & Spas",12/21/2020,,100000,,"4717 AMARRA DR",AUSTIN,TX,78735,"AMARRA DRIVE",13,"MARK SOULES","4717 AMARRA DR",AUSTIN,TX,78735,,Owner,,,,,"CASCADE CUSTOM POOLS",,,,,"CASCADE CUSTOM POOLS","215 RANCH ROAD 620 S",LAKEWAY,TX,78734-3922,"(512) 264-2453",http://www.cascadecustompools.com,,,
TX,TRAVIS,20-31689,"Residential Swimming Pools & Spas",12/8/2020,,130000,,"6700 DAVENPORT DIVIDE",AUSTIN,TX,78738,"SWEETWATER RANCH VILLAGE",4,"MICHAEL & ANDRIA BABINEAUX","6700 DAVENPORT DIVIDE",AUSTIN,TX,78738,,Owner,,,,,"DIMENSION CUSTOM POOLS",,,,,"DIMENSION CUSTOM POOLS","4819 R O DR STE 101A",SPICEWOOD,TX,78669,"(512) 522-5958",,,"BLAKE OLSON",info@dimensionpools.com
TX,TRAVIS,20-31690,"Residential Swimming Pools & Spas",12/8/2020,,139000,,"18212 HEWETSON COVE",AUSTIN,TX,78738,"SWEETWATER RANCH VILLAGE",54,"DAVID & LUDY VALDEZ","18212 HEWETSON COVE",AUSTIN,TX,78738,,Owner,,,,,"DIMENSION CUSTOM POOLS",,,,,"DIMENSION CUSTOM POOLS","4819 R O DR STE 101A",SPICEWOOD,TX,78669,"(512) 522-5958",,,"BLAKE OLSON",info@dimensionpools.com
TX,TRAVIS,20-31693,"Residential Swimming Pools & Spas",12/8/2020,,97000,,"12708 RUSH CREEK LN",AUSTIN,TX,78732,"STEINER RANCH",8,"STACY & RYAN WEISEMAN","12708 RUSH CREEK LN",AUSTIN,TX,78732,,Owner,,,,,"DIMENSION CUSTOM POOLS",,,,,"DIMENSION CUSTOM POOLS","4819 R O DR STE 101A",SPICEWOOD,TX,78669,"(512) 522-5958",,,"BLAKE OLSON",info@dimensionpools.com
TX,TRAVIS,20-31803,"Residential Swimming Pools & Spas",12/22/2020,,133000,,"12951 BRINGHAM DR",AUSTIN,TX,78732,"STEINER RANCH",17,CONTRACTOR,,,,,,,,,,,"TRIROCK PERMITS",,,,,"TRIROCK PERMITS","12234 N INTERSTATE 35 STE 100 BLDG B",AUSTIN,TX,78753-0002,"(512) 658-1287",,,,trirockpermits@gmail.com
TX,TRAVIS,20-31788,"Residential Swimming Pools & Spas",12/22/2020,,73000,,"15900 CINCA TERRA DR",AUSTIN,TX,78738,"BELLA COLINAS",13,"NAMITA & MICHAEL VIGNA","15900 CINCA TERRA DR",AUSTIN,TX,78738,,Owner,,,,,"MAJESTIC POOLSCAPES",,,,,"MAJESTIC POOLSCAPES","1401 HOOKBILL KITE","BEE CAVES",TX,78738,"(512) 402-0011",,,,
TX,TRAVIS,20-31795,"Residential Swimming Pools & Spas",12/22/2020,,139200,,"13304 BRIGHT SKY OVERLOOK",AUSTIN,TX,78732,"STEINER RANCH",24,"JOSHUA & KAROLINA CHAMAS","13304 BRIGHT SKY OVERLOOK",AUSTIN,TX,78732,,Owner,,,,,"PREMIER POOLS & SPAS",,,,,"PREMIER POOLS & SPAS","7703 N LAMAR BLVD STE 606",AUSTIN,TX,78752-1027,"(512) 470-3949",,,,
TX,TRAVIS,20-31840,"Residential Swimming Pools & Spas",12/22/2020,,52000,,"417 HORSEBACK HOLLOW",AUSTIN,TX,78732,"STEINER RANCH",50,"CHRISTOPHER & MARGARET ROMETTY","417 HORSEBACK HOLLOW",AUSTIN,TX,78732,,Owner,,,,,"PERMITS PLUS",,,,,"PERMITS PLUS","1107 E 52ND ST",ODESSA,TX,79762-4352,"(432) 550-4303",http://www.permitsplus-houston.com/,,,
TX,TRAVIS,20-31911,"Residential Swimming Pools & Spas",12/28/2020,,70000,,"13060 ZEN GARDENS WAY",AUSTIN,TX,78732,"RIVER DANCE",9,"TODD & LAURA SELF","13060 ZEN GARDENS WAY",AUSTIN,TX,78732,,Owner,,,,,"ATHENA POOLS",,,,,"ATHENA POOLS","2209 PERSIMMON RIDGE CT",AUSTIN,TX,78732-2085,"(512) 914-0554",http://athenapools.com,"(512) 410-0363",,athenapools@austin.rr.com
TX,TRAVIS,20-31867,"Residential Swimming Pools & Spas",12/22/2020,,65000,,"6120 OSCEOLA TRL",AUSTIN,TX,78738,"SWEETWATER RANCH VILLAGE",5,"MILLIE & RISHI RANA","6120 OSCEOLA TRL",AUSTIN,TX,78738,,Owner,,,,,"SAIS CUSTOM HOMES",,,,,"SAIS CUSTOM HOMES","18109 LIPAN APACHE COVE",AUSTIN,TX,78738,"(512) 796-8288",,,,
TX,TRAVIS,20-31959,"Residential Swimming Pools & Spas",12/28/2020,,40000,,"3004 CASHELL WOOD DR","CEDAR PARK",TX,78613,"ANDERSON MILL",16,"IAIN & SOFIA HURN","3004 CASHELL WOOD DR","CEDAR PARK",TX,78613,,Owner,,,,,"TEXAS POOLS & PATIOS",,,,,"TEXAS POOLS & PATIOS","601 S BELL BLVD","CEDAR PARK",TX,78613-3854,"(512) 402-1175",http://www.texaspoolsandpatios.com/,,,
TX,TRAVIS,"2021-010866 BP","Residential Swimming Pools & Spas",1/27/2021,,,392,"6709 HAVENBROOK CV",AUSTIN,TX,78759,"GREAT HILLS",1,"MUNISH & CHARU GUPTA","6709 HAVENBROOK CV",AUSTIN,TX,78759,,Owner,,,,,"ANTHONY & SYLVAN POOLS",,,,,"ANTHONY & SYLVAN POOLS","13343 N HIGHWAY 183 STE 295",AUSTIN,TX,78750-7161,"(512) 258-1232",http://www.anthonysylvan.com/,,,
TX,TRAVIS,"2020-114588 BP","Residential Swimming Pools & Spas",1/27/2021,,,151,"1108 W 11TH ST",AUSTIN,TX,78703,SILLIMAN,7,CONTRACTOR,,,,,,,,,,,"URBAN CONSTRUCTORS",,,,,"URBAN CONSTRUCTORS","10318 LAKE RD STE 103A",HOUSTON,TX,77070-1873,"(281) 370-6687",http://www.urbanconstructors.com,,,
TX,TRAVIS,"2021-008799 BP","Residential Swimming Pools & Spas",1/27/2021,,,480,"12809 ARROWHEAD PASS",AUSTIN,TX,78729,"INDIAN OAKS",1,"KALLIE YOAS","12809 ARROWHEAD PASS",AUSTIN,TX,78729,"(512) 775-1236",Owner,,,,,OWNER,,,,,OWNER,,,,,,,,,
TX,TRAVIS,"2021-012411 BP","Residential Swimming Pools & Spas",1/28/2021,,,384,"1204 BRENTWOOD ST",AUSTIN,TX,78757,"VIOLET CROWN HEIGHTS",20,"MICHAEL WHITE","1204 BRENTWOOD ST",AUSTIN,TX,78757,,Owner,,,,,"PARADISA HOMES",,,,,"PARADISA HOMES","7427 N LAMAR BLVD STE 101",AUSTIN,TX,78752-2358,"(512) 910-4505",http://www.paradisahomes.com/,,,
TX,TRAVIS,"2021-001945 BP","Residential Swimming Pools & Spas",1/29/2021,,,420,"12219 TANGLEWILD DR",AUSTIN,TX,78758,"TATUMWILD ESTATES",,"PHUONG & ANDREW VO","12219 TANGLEWILD DR",AUSTIN,TX,78758,,Owner,,,,,"INNOVATION POOL STRUCTURE",,,,,"INNOVATION POOL STRUCTURE","PO BOX 17546",AUSTIN,TX,78760-7546,"(512) 243-9977",,,,
TX,TRAVIS,"2021-005938 BP","Residential Swimming Pools & Spas",1/29/2021,,,382,"2606 ALBATA AVE",AUSTIN,TX,78757,"GREEN ACRES",10,"VENEET & CAMEN GUPTA","2606 ALBATA AVE",AUSTIN,TX,78757,,Owner,,,,,"DENALI POOLS",,,,,"DENALI POOLS","1904 BRUSHY BEND DR","ROUND ROCK",TX,78681-1451,"(512) 955-6564",,,,
TX,TRAVIS,"2021-013174 BP","Residential Swimming Pools & Spas",1/29/2021,,,120,"3203 HOLTON ST",AUSTIN,TX,78702,"EDEN ACRES",1,CONTRACTOR,,,,,,,,,,,"ZACH SAVAGE HOMES",,,,,"ZACH SAVAGE HOMES","11516 SPICEWOOD PKWY",AUSTIN,TX,78750-2602,"(512) 801-2488",http://zachsavagehomes.com,,,
TX,TRAVIS,"2021-013394 BP","Residential Swimming Pools & Spas",2/1/2021,,,992,"3411 SPANISH OAK DR",AUSTIN,TX,78731,"BALCONES PARK",13,"JIM & VICKI RADO","3411 SPANISH OAK DR",AUSTIN,TX,78731,,Owner,,,,,"DAVID WEEKLEY HOMES",,,,,"DAVID WEEKLEY HOMES","9000 WATERFORD CENTRE BLVD",AUSTIN,TX,78758-7662,"(800) 390-6774",http://www.davidweekleyhomes.com/,,,
TX,TRAVIS,"2021-013012 BP","Residential Swimming Pools & Spas",2/1/2021,,,597,"4013 GLENGARRY DR",AUSTIN,TX,78731,"EDWARDS MOUNTAIN",31,"MICHAEL THOMAS","4013 GLENGARRY DR",AUSTIN,TX,78731,,Owner,,,,,"CODY POOLS",,,,,"CODY POOLS","2300 W PARMER LN",AUSTIN,TX,78727-4332,"(512) 835-4966",http://www.codypools.com,,"COLE NAUMAN",
TX,TRAVIS,"2021-011564 BP","Residential Swimming Pools & Spas",1/28/2021,,45000,322,"13009 ZEN VILLA DR",AUSTIN,TX,78739,,,CONTRACTOR,,,,,,,,,,,"CODY POOLS",,,,,"CODY POOLS","2300 W PARMER LN",AUSTIN,TX,78727-4332,"(512) 835-4966",http://www.codypools.com,,"COLE NAUMAN",
TX,TRAVIS,"2021-013028 BP","Residential Swimming Pools & Spas",1/29/2021,,50000,200,"2015 GOODRICH AVE",AUSTIN,TX,78704,"FOWLER HEIGHTS",1,"BRIAN & SARAH ROCK","2015 GOODRICH AVE",AUSTIN,TX,78704,,Owner,,,,,"AQUA BUILDERS",,,,,"AQUA BUILDERS","10900 STONELAKE BLVD STE A-320",AUSTIN,TX,78759-5833,"(512) 804-8361",,,"EBBN MILKS",
TX,TRAVIS,"2021-013130 BP","Residential Swimming Pools & Spas",2/1/2021,,64000,415,"5802 WYNONA AVE",AUSTIN,TX,78756,ALLANDALE,88,"MICHAEL & BRIANNA RYAN","5802 WYNONA AVE",AUSTIN,TX,78756,,Owner,,,,,"ANTHONY & SYLVAN POOLS",,,,,"ANTHONY & SYLVAN POOLS","13343 N HIGHWAY 183 STE 295",AUSTIN,TX,78750-7161,"(512) 258-1232",http://www.anthonysylvan.com/,,,
TX,TRAVIS,"2021-006162 BP","Residential Swimming Pools & Spas",1/27/2021,,64500,563,"2725 ALSATIA DR",AUSTIN,TX,78748,"ESTATES OF BAUERLE RANCH",25,"MICHAEL DOHERTY","2725 ALSATIA DR",AUSTIN,TX,78748,,Owner,,,,,"JAIDA CUSTOM POOLS",,,,,"JAIDA CUSTOM POOLS","3915 BAY HILL DR",HUTTO,TX,78634,"(512) 363-7955",,,,
TX,TRAVIS,"2021-013206 BP","Residential Swimming Pools & Spas",2/1/2021,,64964,456,"9805 WHITLEY BAY DR",AUSTIN,TX,78717,"AVERY RANCH",,CONTRACTOR,,,,,,,,,,,"PREMIER POOLS & SPAS",,,,,"PREMIER POOLS & SPAS","7703 N LAMAR BLVD STE 606",AUSTIN,TX,78752-1027,"(512) 470-3949",,,,
TX,TRAVIS,"2021-009090 BP","Residential Swimming Pools & Spas",1/29/2021,,65000,501,"3417 CALADIUM CIR",AUSTIN,TX,78748,"BRODIE SPRINGS",16,"JERIMY BEAN","3417 CALADIUM CIR",AUSTIN,TX,78748,"(512) 628-1678",Owner,,,,,OWNER,,,,,OWNER,,,,,,,,,
TX,TRAVIS,"2021-005300 BP","Residential Swimming Pools & Spas",1/28/2021,,66852,452,"6212 SMITH OAK TRL",AUSTIN,TX,78749,WESTCREEK,1,"STUART & NICOLE SMITH","6212 SMITH OAK TRL",AUSTIN,TX,78749,,Owner,,,,,"PREMIER POOLS & SPAS",,,,,"PREMIER POOLS & SPAS","7703 N LAMAR BLVD STE 606",AUSTIN,TX,78752-1027,"(512) 470-3949",,,,
TX,TRAVIS,"2021-013023 BP","Residential Swimming Pools & Spas",2/1/2021,,90000,449,"10407 LAVON BND",AUSTIN,TX,78717,,,CONTRACTOR,,,,,,,,,,,"PREMIER POOLS & SPAS",,,,,"PREMIER POOLS & SPAS","7703 N LAMAR BLVD STE 606",AUSTIN,TX,78752-1027,"(512) 470-3949",,,,
TX,TRAVIS,"2021-009236 BP","Residential Swimming Pools & Spas",1/29/2021,,110000,752,"7208 VIA DONO DR",AUSTIN,TX,78749,"HEIGHTS AT LOMA VISTA",10,"DANIEL  ANDRASI","7208 VIA DONO DR",AUSTIN,TX,78749,,Owner,,,,,"PREMIER POOLS & SPAS",,,,,"PREMIER POOLS & SPAS","7703 N LAMAR BLVD STE 606",AUSTIN,TX,78752-1027,"(512) 470-3949",,,,
TX,WILLIAMSON,2021-70798,"Residential Swimming Pools & Spas",1/26/2021,,63394,,"74 JAN LN",GEORGETOWN,TX,78626,,,"ROBERT & ASHLEY GAYLOR","74 JAN LN",GEORGETOWN,TX,78626,,Owner,,,,,"DENALI POOLS",,,,,"DENALI POOLS","1904 BRUSHY BEND DR","ROUND ROCK",TX,78681-1451,"(512) 955-6564",,,,
TX,WILLIAMSON,2021-70799,"Residential Swimming Pools & Spas",1/11/2021,,42000,,"801 W 19TH ST",GEORGETOWN,TX,78626,,,CONTRACTOR,,,,,,,,,,,"CODY POOLS",,,,,"CODY POOLS","2300 W PARMER LN",AUSTIN,TX,78727-4332,"(512) 835-4966",http://www.codypools.com,,"COLE NAUMAN",
TX,TRAVIS,20-30397,Retail,12/23/2020,Addition,34100,,"2200 W HOWARD LN",AUSTIN,TX,78728,,,CONTRACTOR,,,,,,,,,,,"EQUIPMENT SOLUTIONS",,,,,"EQUIPMENT SOLUTIONS","109 WATERFORD LN",GEORGETOWN,TX,78628,"(512) 244-1258",,,,
TX,WILLIAMSON,2020-69683,Retail,1/27/2021,"Finish Out",175000,2498,"4405 WILLIAMS DR # 250",GEORGETOWN,TX,78626,,,CONTRACTOR,,,,,,,,,,,"BASEY CONSTRUCTION SERVICES",,,,,"BASEY CONSTRUCTION SERVICES","303 SONNY DR BLDG C",LEANDER,TX,78641,"(512) 848-8588",https://baseycsi.com/,,"STEVEN BASEY",steve@baseycsi.com
TX,TRAVIS,20-31802,"Single Family Homes",12/23/2020,,200122,,"12700 MISSION RIVER DR",MANCHACA,TX,78652,"BEAR CREEK CROSSING",76,CONTRACTOR,,,,,,,,,,,"M/I HOMES",,,,,"M/I HOMES","6801 N CAPITAL OF TEXAS HWY BLDG 2 STE 100",AUSTIN,TX,78731-1780,"(512) 770-8500",,,,
TX,TRAVIS,20-31806,"Single Family Homes",12/22/2020,,327060,,"12004 COPPERSTONE AVE",AUSTIN,TX,78748,COPPERSTONE,1,CONTRACTOR,,,,,,,,,,,"MERITAGE HOMES",,,,,"MERITAGE HOMES","8920 BUSINESS PARK DR STE 250",AUSTIN,TX,78759-7622,"(512) 610-4800",,,,
TX,TRAVIS,20-31807,"Single Family Homes",12/22/2020,,900000,,"7508 DAVENPORT DIVIDE RD",AUSTIN,TX,78738,"SWEETWATER RANCH VILLAGE",22,CONTRACTOR,,,,,,,,,,,"NALLE CUSTOM HOMES",,,,,"NALLE CUSTOM HOMES","105 APPLEWOOD DR","CEDAR CREEK",TX,78612-3441,"(512) 947-8972",http://www.nallecustomhomes.com/,,,
TX,TRAVIS,20-31808,"Single Family Homes",12/22/2020,,160000,,"3805 BIRDWATCH LOOP",PFLUGERVILLE,TX,78660,"JAKES HILL CONDOMINIUM",6,CONTRACTOR,,,,,,,,,,,"BLACKBURN COMMUNITIES",,,,,"BLACKBURN COMMUNITIES","301 BRUSHY CREEK RD STE 108",PFLUGERVILLE,TX,78613,"(512) 401-3205",https://www.blackburnhomes.com/,,,info@blackburnhomes.com
TX,TRAVIS,20-31809,"Single Family Homes",12/23/2020,,258137,,"17300 CROWNFIELD PATH",MANOR,TX,78653,SHADOWGLEN,14,CONTRACTOR,,,,,,,,,,,"DR HORTON",,,,,"DR HORTON","10700 PECAN PARK BLVD STE 400",AUSTIN,TX,78750-1227,"(512) 345-4663",,,,
TX,TRAVIS,20-31810,"Single Family Homes",12/30/2020,,155250,,"20912 BROOKLYNN MELISSA DR",PFLUGERVILLE,TX,78660,BLACKHAWK,11,CONTRACTOR,,,,,,,,,,,"GFO HOME",,,,,"GFO HOME","6012 AVIATION DR # 200",PFLUGERVILLE,TX,78660-8960,"(512) 492-8640",https://www.gfohome.com,,,
TX,TRAVIS,20-31811,"Single Family Homes",12/23/2020,,121290,,"14201 SANDROCK BEND",PFLUGERVILLE,TX,78660,ENTRADA,37,CONTRACTOR,,,,,,,,,,,"LENNAR HOMES",,,,,"LENNAR HOMES","13620 FM 620 RD 150",AUSTIN,TX,78717,"(512) 506-4000",http://www.lennar.com/,,,
TX,TRAVIS,20-31812,"Single Family Homes",12/22/2020,,163560,,"11806 LILY BRANCH LN UNIT 12",AUSTIN,TX,78748,COPPERSTONE,,CONTRACTOR,,,,,,,,,,,"MERITAGE HOMES",,,,,"MERITAGE HOMES","8920 BUSINESS PARK DR STE 250",AUSTIN,TX,78759-7622,"(512) 610-4800",,,,
TX,TRAVIS,20-31776,"Single Family Homes",12/22/2020,,177480,,"803 RUSSET ROCK DR",AUSTIN,TX,78748,COPPERSTONE,7,CONTRACTOR,,,,,,,,,,,"MERITAGE HOMES",,,,,"MERITAGE HOMES","8920 BUSINESS PARK DR STE 250",AUSTIN,TX,78759-7622,"(512) 610-4800",,,,
TX,TRAVIS,20-31777,"Single Family Homes",12/22/2020,,163560,,"805 RUSSET ROCK DR",AUSTIN,TX,78748,COPPERSTONE,8,CONTRACTOR,,,,,,,,,,,"MERITAGE HOMES",,,,,"MERITAGE HOMES","8920 BUSINESS PARK DR STE 250",AUSTIN,TX,78759-7622,"(512) 610-4800",,,,
TX,TRAVIS,20-31778,"Single Family Homes",12/22/2020,,177360,,"807 RUSSETT ROCK DR",AUSTIN,TX,78748,COPPERSTONE,,CONTRACTOR,,,,,,,,,,,"MERITAGE HOMES",,,,,"MERITAGE HOMES","8920 BUSINESS PARK DR STE 250",AUSTIN,TX,78759-7622,"(512) 610-4800",,,,
TX,TRAVIS,20-31779,"Single Family Homes",12/22/2020,,202560,,"809 RUSSETT ROCK DR",AUSTIN,TX,78748,COPPERSTONE,10,CONTRACTOR,,,,,,,,,,,"MERITAGE HOMES",,,,,"MERITAGE HOMES","8920 BUSINESS PARK DR STE 250",AUSTIN,TX,78759-7622,"(512) 610-4800",,,,
TX,TRAVIS,20-31786,"Single Family Homes",12/28/2020,,1800000,,"7805 LAZY RIVER CV",AUSTIN,TX,78748,"GREENSHORES ON LAKE AUSTIN",12,CONTRACTOR,,,,,,,,,,,"DAVEY MCEATHRON ARCHITECTURE",,,,,"DAVEY MCEATHRON ARCHITECTURE","6806 SYRACUSE CV",AUSTIN,TX,78723-2842,"(512) 599-0660",http://www.daveymarchitecture.com/,,"Davey McEathron",davey@daveymarch.com
TX,TRAVIS,20-31790,"Single Family Homes",12/23/2020,,196940,,"216 TANGLED BRUSH DR",MANCHACA,TX,78652,"BEAR CREEK CROSSING",34,CONTRACTOR,,,,,,,,,,,"M/I HOMES",,,,,"M/I HOMES","6801 N CAPITAL OF TEXAS HWY BLDG 2 STE 100",AUSTIN,TX,78731-1780,"(512) 770-8500",,,,
TX,TRAVIS,20-31792,"Single Family Homes",12/22/2020,,502250,,"13005 LUNA MONTANA WAY",AUSTIN,TX,78732,"COMANCHE CANYON RANCH",30,CONTRACTOR,,,,,,,,,,,"INTOWN HOMES",,,,,"INTOWN HOMES","4408 SPICEWOOD SPRINGS RD",AUSTIN,TX,78759-8504,"(512) 917-6659",http://www.intown-homes.com/,,,
TX,TRAVIS,20-31794,"Single Family Homes",12/22/2020,,925700,,"12936 ZEN GARDENS WAY",AUSTIN,TX,78732,"RIVER DANCE",11,CONTRACTOR,,,,,,,,,,,"MARC JONES CONSTRUCTION",,,,,"MARC JONES CONSTRUCTION","22171 MCH RD",MANDEVILLE,TX,70471,,,,,
TX,TRAVIS,20-31815,"Single Family Homes",12/23/2020,,565870,,"6421 EMPRESA DR",AUSTIN,TX,78738,"SWEETWATER RANCH VILLAGE",7,CONTRACTOR,,,,,,,,,,,"CHESMAR HOMES",,,,,"CHESMAR HOMES","2900 N QUINLAN PARK RD",AUSTIN,TX,78732-6083,"(512) 233-9016",http://chesmar.com,,,
TX,TRAVIS,20-31847,"Single Family Homes",12/23/2020,,248118,,"20713 KANGAL CT",PFLUGERVILLE,TX,78660,"PARK AT BLACKHAWK",45,CONTRACTOR,,,,,,,,,,,"MHI MCGUYER HOMEBUILDERS",,,,,"MHI MCGUYER HOMEBUILDERS","8200 N MO PAC EXPY STE 300",AUSTIN,TX,78759-8844,"(512) 502-2050",,"(512) 388-1836","FRANK MCGUYER",
TX,TRAVIS,20-31817,"Single Family Homes",12/23/2020,,243594,,"20832 CARRIES RANCH RD",PFLUGERVILLE,TX,78660,"PARK AT BLACKHAWK",44,CONTRACTOR,,,,,,,,,,,"MHI MCGUYER HOMEBUILDERS",,,,,"MHI MCGUYER HOMEBUILDERS","8200 N MO PAC EXPY STE 300",AUSTIN,TX,78759-8844,"(512) 502-2050",,"(512) 388-1836","FRANK MCGUYER",
TX,TRAVIS,20-31819,"Single Family Homes",12/23/2020,,200000,,"7601 ALOUETTE DR",AUSTIN,TX,78738,PROVENCE,9,CONTRACTOR,,,,,,,,,,,"ASHTON WOODS HOMES",,,,,"ASHTON WOODS HOMES","4201 W PARMER LN STE A150",AUSTIN,TX,78727-4118,"(512) 610-7000",,,,
TX,TRAVIS,20-31820,"Single Family Homes",12/23/2020,,200000,,"7617 ALOUETTE DR",AUSTIN,TX,78738,PROVENCE,13,CONTRACTOR,,,,,,,,,,,"ASHTON WOODS HOMES",,,,,"ASHTON WOODS HOMES","4201 W PARMER LN STE A150",AUSTIN,TX,78727-4118,"(512) 610-7000",,,,
TX,TRAVIS,20-31825,"Single Family Homes",12/22/2020,,195750,,"12110 MORIAH BEND",AUSTIN,TX,78732,STEINER,11,CONTRACTOR,,,,,,,,,,,"LENNAR HOMES",,,,,"LENNAR HOMES","13620 FM 620 RD 150",AUSTIN,TX,78717,"(512) 506-4000",http://www.lennar.com/,,,
TX,TRAVIS,20-31827,"Single Family Homes",12/22/2020,,195750,,"5302 WATUSI BEND UNIT 49",AUSTIN,TX,78732,"STEINER RANCH",,CONTRACTOR,,,,,,,,,,,"LENNAR HOMES",,,,,"LENNAR HOMES","13620 FM 620 RD 150",AUSTIN,TX,78717,"(512) 506-4000",http://www.lennar.com/,,,
TX,TRAVIS,20-31828,"Single Family Homes",12/22/2020,,235575,,"5306 WATUSI BEND UNIT 48",AUSTIN,TX,78732,STEINER,,CONTRACTOR,,,,,,,,,,,"LENNAR HOMES",,,,,"LENNAR HOMES","13620 FM 620 RD 150",AUSTIN,TX,78717,"(512) 506-4000",http://www.lennar.com/,,,
TX,TRAVIS,20-31829,"Single Family Homes",12/22/2020,,141300,,"5202 WATUSI BEND UNIT 54",AUSTIN,TX,78732,"STEINER RANCH",,CONTRACTOR,,,,,,,,,,,"LENNAR HOMES",,,,,"LENNAR HOMES","13620 FM 620 RD 150",AUSTIN,TX,78717,"(512) 506-4000",http://www.lennar.com/,,,
TX,TRAVIS,20-31831,"Single Family Homes",12/22/2020,,224925,,"5105 WATUSI BEND UNIT 33",AUSTIN,TX,78732,"STEINER RANCH",,CONTRACTOR,,,,,,,,,,,"LENNAR HOMES",,,,,"LENNAR HOMES","13620 FM 620 RD 150",AUSTIN,TX,78717,"(512) 506-4000",http://www.lennar.com/,,,
TX,TRAVIS,20-31833,"Single Family Homes",12/22/2020,,272520,,"11804 LILY BRANCH LN",AUSTIN,TX,78748,COPPERSTONE,13,CONTRACTOR,,,,,,,,,,,"MERITAGE HOMES",,,,,"MERITAGE HOMES","8920 BUSINESS PARK DR STE 250",AUSTIN,TX,78759-7622,"(512) 610-4800",,,,
TX,TRAVIS,20-31834,"Single Family Homes",12/22/2020,,246600,,"11802 LILY BRANCH LN",AUSTIN,TX,78748,COPPERSTONE,14,CONTRACTOR,,,,,,,,,,,"MERITAGE HOMES",,,,,"MERITAGE HOMES","8920 BUSINESS PARK DR STE 250",AUSTIN,TX,78759-7622,"(512) 610-4800",,,,
TX,TRAVIS,20-31835,"Single Family Homes",12/22/2020,,327060,,"11809 LILY BRANCH LN UNIT 122",AUSTIN,TX,78748,"COPPERSTONE CONDOMINIUMS",,CONTRACTOR,,,,,,,,,,,"MERITAGE HOMES",,,,,"MERITAGE HOMES","8920 BUSINESS PARK DR STE 250",AUSTIN,TX,78759-7622,"(512) 610-4800",,,,
TX,TRAVIS,20-31836,"Single Family Homes",12/22/2020,,280080,,"11807 LILY BRANCH LN UNIT 123",AUSTIN,TX,78748,"COPPERSTONE CONDOMINIUMS",,CONTRACTOR,,,,,,,,,,,"MERITAGE HOMES",,,,,"MERITAGE HOMES","8920 BUSINESS PARK DR STE 250",AUSTIN,TX,78759-7622,"(512) 610-4800",,,,
TX,TRAVIS,20-31837,"Single Family Homes",12/22/2020,,310200,,"11805 LILY BRANCH LN UNIT 124",AUSTIN,TX,78748,"COPPERSTONE CONDOMINIUMS",,CONTRACTOR,,,,,,,,,,,"MERITAGE HOMES",,,,,"MERITAGE HOMES","8920 BUSINESS PARK DR STE 250",AUSTIN,TX,78759-7622,"(512) 610-4800",,,,
TX,TRAVIS,20-31838,"Single Family Homes",12/22/2020,,202560,,"11803 LILY BRANCH LN UNIT 125",AUSTIN,TX,78748,"COPPERSTONE CONDOMINIUMS",,CONTRACTOR,,,,,,,,,,,"MERITAGE HOMES",,,,,"MERITAGE HOMES","8920 BUSINESS PARK DR STE 250",AUSTIN,TX,78759-7622,"(512) 610-4800",,,,
TX,TRAVIS,20-31839,"Single Family Homes",12/23/2020,,153560,,"3401 CLAFLIN ST",PFLUGERVILLE,TX,78660,"LAKESIDE AT BLACKHAWK",1,CONTRACTOR,,,,,,,,,,,"SCOTT FELDER HOMES",,,,,"SCOTT FELDER HOMES","6414 RIVER PLACE BLVD STE 100",AUSTIN,TX,78730-1158,"(512) 418-5400",,,,
TX,TRAVIS,20-31856,"Single Family Homes",12/22/2020,,349900,,"8600 APOGEE BLVD",AUSTIN,TX,78744,"EASTON PARK",,CONTRACTOR,,,,,,,,,,,"PACESETTER HOMES ",,,,,"PACESETTER HOMES ","7940 SHOAL CREEK BLVD STE 200",AUSTIN,TX,78757-7587,"(512) 323-5252",,,,
TX,TRAVIS,20-31895,"Single Family Homes",12/23/2020,,400000,,"8317 HUBBLE WALK",AUSTIN,TX,78744,"MIRABEL PARK",7,CONTRACTOR,,,,,,,,,,,"PERRY HOMES",,,,,"PERRY HOMES","6112 LLANO ST",AUSTIN,TX,78702,"(512) 810-8050",,,,
TX,TRAVIS,20-31896,"Single Family Homes",12/23/2020,,121290,,"14209 LYNDORA LN",PFLUGERVILLE,TX,78660,ENTRADA,17,CONTRACTOR,,,,,,,,,,,"LENNAR HOMES",,,,,"LENNAR HOMES","13620 FM 620 RD 150",AUSTIN,TX,78717,"(512) 506-4000",http://www.lennar.com/,,,
TX,TRAVIS,20-31897,"Single Family Homes",12/23/2020,,152945,,"14205 LYNDORA LN",PFLUGERVILLE,TX,78660,ENTRADA,18,CONTRACTOR,,,,,,,,,,,"LENNAR HOMES",,,,,"LENNAR HOMES","13620 FM 620 RD 150",AUSTIN,TX,78717,"(512) 506-4000",http://www.lennar.com/,,,
TX,TRAVIS,20-31899,"Single Family Homes",12/23/2020,,133760,,"4400 SHADY HILL LN",PFLUGERVILLE,TX,78660,"PARK AT BLACKHAWK",10,CONTRACTOR,,,,,,,,,,,"SCOTT FELDER HOMES",,,,,"SCOTT FELDER HOMES","6414 RIVER PLACE BLVD STE 100",AUSTIN,TX,78730-1158,"(512) 418-5400",,,,
TX,TRAVIS,20-31900,"Single Family Homes",12/23/2020,,150000,,"13221 CAROL LAWLER LN",MANOR,TX,78653,SHADOWGLEN,19,CONTRACTOR,,,,,,,,,,,"PERRY HOMES",,,,,"PERRY HOMES","6112 LLANO ST",AUSTIN,TX,78702,"(512) 810-8050",,,,
TX,TRAVIS,20-31901,"Single Family Homes",12/23/2020,,150000,,"16705 CHRISTINA GARZA DR",MANOR,TX,78653,SHADOWGLEN,3,CONTRACTOR,,,,,,,,,,,"PERRY HOMES",,,,,"PERRY HOMES","6112 LLANO ST",AUSTIN,TX,78702,"(512) 810-8050",,,,
TX,TRAVIS,20-31902,"Single Family Homes",12/23/2020,,200000,,"7620 PARULINE DR",AUSTIN,TX,78738,PROVENCE,7,CONTRACTOR,,,,,,,,,,,"ASHTON WOODS HOMES",,,,,"ASHTON WOODS HOMES","4201 W PARMER LN STE A150",AUSTIN,TX,78727-4118,"(512) 610-7000",,,,
TX,TRAVIS,20-31910,"Single Family Homes",12/23/2020,,233040,,"7607 ECKINGTON ST",AUSTIN,TX,78744,"EASTON PARK",235,CONTRACTOR,,,,,,,,,,,"MERITAGE HOMES",,,,,"MERITAGE HOMES","8920 BUSINESS PARK DR STE 250",AUSTIN,TX,78759-7622,"(512) 610-4800",,,,
TX,TRAVIS,20-31917,"Single Family Homes",12/28/2020,,475390,,"6905 EMPRESA DR",AUSTIN,TX,78738,"SWEETWATER RANCH VILLAGE",39,CONTRACTOR,,,,,,,,,,,"CHESMAR HOMES",,,,,"CHESMAR HOMES","2900 N QUINLAN PARK RD",AUSTIN,TX,78732-6083,"(512) 233-9016",http://chesmar.com,,,
TX,TRAVIS,20-31918,"Single Family Homes",12/28/2020,,566290,,"18616 JAMES POWER CT",AUSTIN,TX,78738,"SWEETWATER RANCH VILLAGE",24,CONTRACTOR,,,,,,,,,,,"CHESMAR HOMES",,,,,"CHESMAR HOMES","2900 N QUINLAN PARK RD",AUSTIN,TX,78732-6083,"(512) 233-9016",http://chesmar.com,,,
TX,TRAVIS,20-31919,"Single Family Homes",12/23/2020,,198000,,"7503 TRAVERTINE SPRING DR",AUSTIN,TX,78744,"EASTON PARK",127,CONTRACTOR,,,,,,,,,,,"MERITAGE HOMES",,,,,"MERITAGE HOMES","8920 BUSINESS PARK DR STE 250",AUSTIN,TX,78759-7622,"(512) 610-4800",,,,
TX,TRAVIS,20-31920,"Single Family Homes",12/23/2020,,212520,,"7505 TRAVERTINE SPRING DR",AUSTIN,TX,78744,"EASTON PARK",128,CONTRACTOR,,,,,,,,,,,"MERITAGE HOMES",,,,,"MERITAGE HOMES","8920 BUSINESS PARK DR STE 250",AUSTIN,TX,78759-7622,"(512) 610-4800",,,,
TX,TRAVIS,20-31923,"Single Family Homes",12/23/2020,,246240,,"7509 TRAVERTINE SPRING DR",AUSTIN,TX,78744,"EASTON PARK",130,CONTRACTOR,,,,,,,,,,,"MERITAGE HOMES",,,,,"MERITAGE HOMES","8920 BUSINESS PARK DR STE 250",AUSTIN,TX,78759-7622,"(512) 610-4800",,,,
TX,TRAVIS,20-31924,"Single Family Homes",12/23/2020,,198000,,"7410 TRAVERTINE SPRING DR",AUSTIN,TX,78744,"EASTON PARK",146,CONTRACTOR,,,,,,,,,,,"MERITAGE HOMES",,,,,"MERITAGE HOMES","8920 BUSINESS PARK DR STE 250",AUSTIN,TX,78759-7622,"(512) 610-4800",,,,
TX,TRAVIS,20-31925,"Single Family Homes",12/23/2020,,212520,,"7412 TRAVERTINE SPRING DR",AUSTIN,TX,78744,"EASTON PARK",147,CONTRACTOR,,,,,,,,,,,"MERITAGE HOMES",,,,,"MERITAGE HOMES","8920 BUSINESS PARK DR STE 250",AUSTIN,TX,78759-7622,"(512) 610-4800",,,,
TX,TRAVIS,20-31857,"Single Family Homes",12/22/2020,,317550,,"8708 APOGEE BLVD",AUSTIN,TX,78744,"EASTON PARK",,CONTRACTOR,,,,,,,,,,,"PACESETTER HOMES ",,,,,"PACESETTER HOMES ","7940 SHOAL CREEK BLVD STE 200",AUSTIN,TX,78757-7587,"(512) 323-5252",,,,
TX,TRAVIS,20-31858,"Single Family Homes",12/22/2020,,342900,,"8508 APOGEE BLVD",AUSTIN,TX,78744,"EASTON PARK",30,CONTRACTOR,,,,,,,,,,,"PACESETTER HOMES ",,,,,"PACESETTER HOMES ","7940 SHOAL CREEK BLVD STE 200",AUSTIN,TX,78757-7587,"(512) 323-5252",,,,
TX,TRAVIS,20-31859,"Single Family Homes",12/22/2020,,219975,,"5207 WATUSI BEND",AUSTIN,TX,78732,"STEINER RANCH",31,CONTRACTOR,,,,,,,,,,,"LENNAR HOMES",,,,,"LENNAR HOMES","13620 FM 620 RD 150",AUSTIN,TX,78717,"(512) 506-4000",http://www.lennar.com/,,,
TX,TRAVIS,20-31860,"Single Family Homes",12/22/2020,,184650,,"407 MANTE UNIT 319",AUSTIN,TX,78748,"ENCLAVE AT ESTANCIA",,CONTRACTOR,,,,,,,,,,,"LENNAR HOMES",,,,,"LENNAR HOMES","13620 FM 620 RD 150",AUSTIN,TX,78717,"(512) 506-4000",http://www.lennar.com/,,,
TX,TRAVIS,20-31870,"Single Family Homes",12/22/2020,,507500,,"13228 VILLA MONTANA WAY",AUSTIN,TX,78732,"COMANCHE CANYON RANCH",82,CONTRACTOR,,,,,,,,,,,"INTOWN HOMES",,,,,"INTOWN HOMES","4408 SPICEWOOD SPRINGS RD",AUSTIN,TX,78759-8504,"(512) 917-6659",http://www.intown-homes.com/,,,
TX,TRAVIS,20-31871,"Single Family Homes",12/22/2020,,478250,,"13112 LUNA MONTANA WAY",AUSTIN,TX,78732,"COMANCHE CANYON RANCH",64,CONTRACTOR,,,,,,,,,,,"INTOWN HOMES",,,,,"INTOWN HOMES","4408 SPICEWOOD SPRINGS RD",AUSTIN,TX,78759-8504,"(512) 917-6659",http://www.intown-homes.com/,,,
TX,TRAVIS,20-31876,"Single Family Homes",12/23/2020,,418990,,"22301 COYOTE TRL",SPICEWOOD,TX,78669,"CYPRESS HILLS",30,CONTRACTOR,,,,,,,,,,,"PULTE HOMES",,,,,"PULTE HOMES","9401 AMBERGLEN BLVD STE I-150",AUSTIN,TX,78729-1154,"(512) 561-4344",,,,
TX,TRAVIS,20-31877,"Single Family Homes",12/23/2020,,542470,,"6501 EMPRESA DR",AUSTIN,TX,78738,"SWEETWATER RANCH VILLAGE",6,CONTRACTOR,,,,,,,,,,,"CHESMAR HOMES",,,,,"CHESMAR HOMES","2900 N QUINLAN PARK RD",AUSTIN,TX,78732-6083,"(512) 233-9016",http://chesmar.com,,,
TX,TRAVIS,20-31886,"Single Family Homes",12/23/2020,,212520,,"7506 TRAVERTINE SPRING DR",AUSTIN,TX,78744,"EASTON PARK",243,CONTRACTOR,,,,,,,,,,,"MERITAGE HOMES",,,,,"MERITAGE HOMES","8920 BUSINESS PARK DR STE 250",AUSTIN,TX,78759-7622,"(512) 610-4800",,,,
TX,TRAVIS,20-31887,"Single Family Homes",12/23/2020,,179400,,"7603 ECKINGTON ST",AUSTIN,TX,78744,"EASTON PARK",237,CONTRACTOR,,,,,,,,,,,"MERITAGE HOMES",,,,,"MERITAGE HOMES","8920 BUSINESS PARK DR STE 250",AUSTIN,TX,78759-7622,"(512) 610-4800",,,,
TX,TRAVIS,20-31888,"Single Family Homes",12/23/2020,,198000,,"7605 ECKINGTON ST",AUSTIN,TX,78744,"EASTON PARK",236,CONTRACTOR,,,,,,,,,,,"MERITAGE HOMES",,,,,"MERITAGE HOMES","8920 BUSINESS PARK DR STE 250",AUSTIN,TX,78759-7622,"(512) 610-4800",,,,
TX,TRAVIS,20-31889,"Single Family Homes",12/23/2020,,212520,,"7609 ECKINGTON ST",AUSTIN,TX,78744,"EASTON PARK",234,CONTRACTOR,,,,,,,,,,,"MERITAGE HOMES",,,,,"MERITAGE HOMES","8920 BUSINESS PARK DR STE 250",AUSTIN,TX,78759-7622,"(512) 610-4800",,,,
TX,TRAVIS,20-31894,"Single Family Homes",12/23/2020,,400000,,"8009 CORRIGAN PASS",AUSTIN,TX,78744,"MIRABEL PARK",9,CONTRACTOR,,,,,,,,,,,"PERRY HOMES",,,,,"PERRY HOMES","6112 LLANO ST",AUSTIN,TX,78702,"(512) 810-8050",,,,
TX,TRAVIS,20-31926,"Single Family Homes",12/23/2020,,233040,,"7414 TRAVERTINE SPRING DR",AUSTIN,TX,78744,"EASTON PARK",148,CONTRACTOR,,,,,,,,,,,"MERITAGE HOMES",,,,,"MERITAGE HOMES","8920 BUSINESS PARK DR STE 250",AUSTIN,TX,78759-7622,"(512) 610-4800",,,,
TX,TRAVIS,20-31927,"Single Family Homes",12/23/2020,,245640,,"7416 TRAVERTINE SPRING DR",AUSTIN,TX,78744,"EASTON PARK",3,CONTRACTOR,,,,,,,,,,,"MERITAGE HOMES",,,,,"MERITAGE HOMES","8920 BUSINESS PARK DR STE 250",AUSTIN,TX,78759-7622,"(512) 610-4800",,,,
TX,TRAVIS,20-31928,"Single Family Homes",12/28/2020,,168000,,"15528 COTTAGE ORCHID DR",AUSTIN,TX,78617,"SUN CHASE",123,CONTRACTOR,,,,,,,,,,,"GEHAN HOMES",,,,,"GEHAN HOMES","3815 S CAPITAL OF TEXAS HWY STE 275",AUSTIN,TX,78704-6652,"(512) 330-9366",http://www.gehanhomes.com,,"JANET PHILLIPS",
TX,TRAVIS,20-31930,"Single Family Homes",12/23/2020,,233040,,"7601 ECKINGTON ST",AUSTIN,TX,78744,"EASTON PARK",236,CONTRACTOR,,,,,,,,,,,"MERITAGE HOMES",,,,,"MERITAGE HOMES","8920 BUSINESS PARK DR STE 250",AUSTIN,TX,78759-7622,"(512) 610-4800",,,,
TX,TRAVIS,20-31931,"Single Family Homes",12/22/2020,,177360,,"11808 LILY BRANCH LN",AUSTIN,TX,78748,COPPERSTONE,11,CONTRACTOR,,,,,,,,,,,"MERITAGE HOMES",,,,,"MERITAGE HOMES","8920 BUSINESS PARK DR STE 250",AUSTIN,TX,78759-7622,"(512) 610-4800",,,,
TX,TRAVIS,20-31935,"Single Family Homes",12/23/2020,,533590,,"6405 EMPRESA DR",AUSTIN,TX,78738,"SWEETWATER RANCH VILLAGE",11,CONTRACTOR,,,,,,,,,,,"CHESMAR HOMES",,,,,"CHESMAR HOMES","2900 N QUINLAN PARK RD",AUSTIN,TX,78732-6083,"(512) 233-9016",http://chesmar.com,,,
TX,TRAVIS,20-31936,"Single Family Homes",12/23/2020,,442000,,"7516 COLIBRI DR",AUSTIN,TX,78738,PROVENCE,13,CONTRACTOR,,,,,,,,,,,"DREES CUSTOM HOMES",,,,,"DREES CUSTOM HOMES","7300 RANCH ROAD 2222 BLDG 2 STE 250",AUSTIN,TX,78730-3204,"(512) 241-7100",http://www.dreeshomes.com,,,
TX,TRAVIS,20-31938,"Single Family Homes",12/28/2020,,171300,,"19013 FREEMAN CIR",AUSTIN,TX,78738,"SWEETWATER RANCH VILLAGE",10,CONTRACTOR,,,,,,,,,,,"LENNAR HOMES",,,,,"LENNAR HOMES","13620 FM 620 RD 150",AUSTIN,TX,78717,"(512) 506-4000",http://www.lennar.com/,,,
TX,TRAVIS,20-31943,"Single Family Homes",12/28/2020,,133380,,"14217 LYNDORA LN",PFLUGERVILLE,TX,78660,ENTRADA,15,CONTRACTOR,,,,,,,,,,,"LENNAR HOMES",,,,,"LENNAR HOMES","13620 FM 620 RD 150",AUSTIN,TX,78717,"(512) 506-4000",http://www.lennar.com/,,,
TX,TRAVIS,20-31952,"Single Family Homes",12/28/2020,,327060,,"11801 LILY BRANCH LN UNIT 126",AUSTIN,TX,78748,"COPPERSTONE CONDOMINIUMS",,CONTRACTOR,,,,,,,,,,,"MERITAGE HOMES",,,,,"MERITAGE HOMES","8920 BUSINESS PARK DR STE 250",AUSTIN,TX,78759-7622,"(512) 610-4800",,,,
TX,TRAVIS,20-31953,"Single Family Homes",12/28/2020,,163560,,"11800 LILY BRANCH LN UNIT 15",AUSTIN,TX,78748,"COPPERSTONE CONDOMINIUMS",,CONTRACTOR,,,,,,,,,,,"MERITAGE HOMES",,,,,"MERITAGE HOMES","8920 BUSINESS PARK DR STE 250",AUSTIN,TX,78759-7622,"(512) 610-4800",,,,
TX,TRAVIS,20-31954,"Single Family Homes",12/28/2020,,177480,,"11706 LILY BRANCH LN UNIT 16",AUSTIN,TX,78748,"COPPERSTONE CONDOMINIUMS",,CONTRACTOR,,,,,,,,,,,"MERITAGE HOMES",,,,,"MERITAGE HOMES","8920 BUSINESS PARK DR STE 250",AUSTIN,TX,78759-7622,"(512) 610-4800",,,,
TX,TRAVIS,20-31957,"Single Family Homes",12/28/2020,,170930,,"20908 CARRIES RANCH RD",PFLUGERVILLE,TX,78660,"PARK AT BLACKHAWK",10,CONTRACTOR,,,,,,,,,,,"GFO HOME",,,,,"GFO HOME","6012 AVIATION DR # 200",PFLUGERVILLE,TX,78660-8960,"(512) 492-8640",https://www.gfohome.com,,,
TX,TRAVIS,20-31960,"Single Family Homes",12/28/2020,,315400,,"8408 SKYTEX ST",AUSTIN,TX,78744,"MIRABEL PARK",17,CONTRACTOR,,,,,,,,,,,"BROOKFIELD RESIDENTIAL PROPERTIES",,,,,"BROOKFIELD RESIDENTIAL PROPERTIES","11501 ALTERRA PKWY STE 100",AUSTIN,TX,78758-3201,"(512) 391-1330",,,,
TX,TRAVIS,20-31976,"Single Family Homes",12/28/2020,,146355,,"4321 TREY EDSEL DR",PFLUGERVILLE,TX,78660,"PARK AT BLACKHAWK",17,CONTRACTOR,,,,,,,,,,,"SCOTT FELDER HOMES",,,,,"SCOTT FELDER HOMES","6414 RIVER PLACE BLVD STE 100",AUSTIN,TX,78730-1158,"(512) 418-5400",,,,
TX,BASTROP,20-000436,"Single Family Homes",1/13/2021,,330150,2201,"6141 RIVER PLACE BLVD",BASTROP,TX,78730,,,"MEGAN MITCHELL","6141 RIVER PLACE BLVD",BASTROP,TX,78730,,Owner,,,,,"MATTHEW SOUTHWELL",,,,,"MATTHEW SOUTHWELL","6414 RIVER PLACE BLVD STE 100",AUSTIN,TX,78730,"(512) 569-9832",,,,
TX,BASTROP,20-000443,"Single Family Homes",1/14/2021,,315000,1836,"1104 HILLTOP DR",BASTROP,TX,78666,,,"NICK CHESSER","1104 HILLTOP DR",BASTROP,TX,78666,"(512) 575-0626",Applicant,,,,,OWNER,,,,,OWNER,,,,,,,,,
TX,BASTROP,20-000468,"Single Family Homes",12/16/2020,,251770,2962,"10800 PECAN PARK BLVD #200",BASTROP,TX,78730,,,CONTRACTOR,,,,,,,,,,,"KB HOME",,,,,"KB HOME","10800 PECAN PARK BLVD STE 200",AUSTIN,TX,78750-1249,"(512) 651-8100",,,,
TX,BASTROP,20-000580,"Single Family Homes",12/16/2020,,200000,1500,"1311 CHESTNUT ST",BASTROP,TX,78730,,,CONTRACTOR,,,,,,,,,,,"BASTROP BUILDING DEPARTMENT",,,,,"BASTROP BUILDING DEPARTMENT","1311 CHESTNUT ST",BASTROP,TX,78602-3404,"(512) 332-8800",,,,plan@cityofbastrop.org
TX,BASTROP,20-000748,"Single Family Homes",12/16/2020,,250000,,"1506 ROSANKY ST",BASTROP,TX,78602,,,"MARK & FRAN PATT","1506 ROSANKY ST",BASTROP,TX,78602,,Owner,,,,,"FIRST RATE CONSTRUCTION",,,,,"FIRST RATE CONSTRUCTION","2005 BOYDS CREEK HWY",SEVIERVILLE,TN,37876-0231,"(865) 774-8565",http://www.frconstruction.net/,"(865) 774-8549",,mail@frconstruction.net
TX,TRAVIS,"2021-011250 BP","Single Family Homes",1/27/2021,,140910,2562,"11105 CHARGER WAY",AUSTIN,TX,78653,"HERITAGE POINT AT WILDHORSE RANCH",15,CONTRACTOR,,,,,,,,,,,"BROHN HOMES",,,,,"BROHN HOMES","6720 VAUGHT RANCH RD STE 200",AUSTIN,TX,78730-2354,"(512) 320-8833",http://brohnhomes.com/,,,
TX,TRAVIS,"2021-004884 BP","Single Family Homes",1/28/2021,,141900,1892,"2925 MARYANNE LN",AUSTIN,TX,78660,,,CONTRACTOR,,,,,,,,,,,"DR HORTON",,,,,"DR HORTON","10700 PECAN PARK BLVD STE 400",AUSTIN,TX,78750-1227,"(512) 345-4663",,,,
TX,TRAVIS,"2020-158084 BP","Single Family Homes",1/27/2021,,143925,1919,"7109 DANCING WIND LN",AUSTIN,TX,78617,,,CONTRACTOR,,,,,,,,,,,"LENNAR HOMES",,,,,"LENNAR HOMES","13620 FM 620 RD 150",AUSTIN,TX,78717,"(512) 506-4000",http://www.lennar.com/,,,
TX,TRAVIS,"2020-158085 BP","Single Family Homes",1/27/2021,,144825,3562,"7113 DANCING WIND LN",AUSTIN,TX,78617,,,CONTRACTOR,,,,,,,,,,,"LENNAR HOMES",,,,,"LENNAR HOMES","13620 FM 620 RD 150",AUSTIN,TX,78717,"(512) 506-4000",http://www.lennar.com/,,,
TX,TRAVIS,"2021-004760 BP","Single Family Homes",1/28/2021,,152550,2034,"2917 MARYANNE LN",AUSTIN,TX,78660,,,CONTRACTOR,,,,,,,,,,,"DR HORTON",,,,,"DR HORTON","10700 PECAN PARK BLVD STE 400",AUSTIN,TX,78750-1227,"(512) 345-4663",,,,
TX,TRAVIS,"2021-013249 BP","Single Family Homes",1/29/2021,,159390,2898,"11009 CHARGER WAY",AUSTIN,TX,78653,"HERITAGE POINT AT WILDHORSE RANCH",25,CONTRACTOR,,,,,,,,,,,"BROHN HOMES",,,,,"BROHN HOMES","6720 VAUGHT RANCH RD STE 200",AUSTIN,TX,78730-2354,"(512) 320-8833",http://brohnhomes.com/,,,
TX,TRAVIS,"2020-091824 BP","Single Family Homes",1/28/2021,,171375,2285,"7233 SPOTTED LEAF WAY",AUSTIN,TX,78617,,,CONTRACTOR,,,,,,,,,,,"LENNAR HOMES",,,,,"LENNAR HOMES","13620 FM 620 RD 150",AUSTIN,TX,78717,"(512) 506-4000",http://www.lennar.com/,,,
TX,TRAVIS,"2021-011256 BP","Single Family Homes",1/27/2021,,195150,2602,"8409 LOOKSEE LN",AUSTIN,TX,78747,DELVALLE,,CONTRACTOR,,,,,,,,,,,"PACESETTER HOMES ",,,,,"PACESETTER HOMES ","7940 SHOAL CREEK BLVD STE 200",AUSTIN,TX,78757-7587,"(512) 323-5252",,,,
TX,TRAVIS,"2020-091822 BP","Single Family Homes",1/28/2021,,195675,2609,"7229 SPOTTED LEAF WAY",AUSTIN,TX,78617,,,CONTRACTOR,,,,,,,,,,,"LENNAR HOMES",,,,,"LENNAR HOMES","13620 FM 620 RD 150",AUSTIN,TX,78717,"(512) 506-4000",http://www.lennar.com/,,,
TX,TRAVIS,"2021-012817 BP","Single Family Homes",1/29/2021,,197550,2634,"8609 LOOKSEE LN",AUSTIN,TX,78747,DELVALLE,,CONTRACTOR,,,,,,,,,,,"PACESETTER HOMES ",,,,,"PACESETTER HOMES ","7940 SHOAL CREEK BLVD STE 200",AUSTIN,TX,78757-7587,"(512) 323-5252",,,,
TX,TRAVIS,"2021-013053 BP","Single Family Homes",1/29/2021,,200000,2473,"4706 PROCK LN BLDG 1",AUSTIN,TX,78721,PROCK,4,CONTRACTOR,,,,,,,,,,,"IRONSTONE PARTNERS",,,,,"IRONSTONE PARTNERS","210 VAILCO LN ",LAKEWAY,TX,78738,"(512) 289-1020",,,,
TX,TRAVIS,"2021-013105 BP","Single Family Homes",1/29/2021,,200000,2473,"4706 PROCK LN BLDG 3",AUSTIN,TX,78721,PROCK,4,CONTRACTOR,,,,,,,,,,,"IRONSTONE PARTNERS",,,,,"IRONSTONE PARTNERS","210 VAILCO LN ",LAKEWAY,TX,78738,"(512) 289-1020",,,,
TX,TRAVIS,"2021-003682 BP","Single Family Homes",1/27/2021,,227100,2064,"7509 ELK GROVE PATH",AUSTIN,TX,78744,"BELLINGHAM MEADOWS",5,CONTRACTOR,,,,,,,,,,,"RSI COMMUNITIES",,,,,"RSI COMMUNITIES","810 HESTERS CROSSING RD STE 235","ROUND ROCK",TX,78681-7846,"(512) 953-4100",,,,
TX,TRAVIS,"2021-013940 BP","Single Family Homes",2/1/2021,,230250,3070,"8605 LOOKSEE LN",AUSTIN,TX,78747,DELVALLE,,CONTRACTOR,,,,,,,,,,,"PACESETTER HOMES ",,,,,"PACESETTER HOMES ","7940 SHOAL CREEK BLVD STE 200",AUSTIN,TX,78757-7587,"(512) 323-5252",,,,
TX,TRAVIS,"2021-004903 BP","Single Family Homes",1/28/2021,,231975,3093,"7417 PEGGIE NELL DR",AUSTIN,TX,78724,,,CONTRACTOR,,,,,,,,,,,"DR HORTON",,,,,"DR HORTON","10700 PECAN PARK BLVD STE 400",AUSTIN,TX,78750-1227,"(512) 345-4663",,,,
TX,TRAVIS,"2021-014083 BP","Single Family Homes",2/1/2021,,233700,3116,"8505 LOOKSEE LN",AUSTIN,TX,78747,DELVALLE,,CONTRACTOR,,,,,,,,,,,"PACESETTER HOMES ",,,,,"PACESETTER HOMES ","7940 SHOAL CREEK BLVD STE 200",AUSTIN,TX,78757-7587,"(512) 323-5252",,,,
TX,TRAVIS,"2021-014057 BP","Single Family Homes",2/1/2021,,254175,2971,"8613 LOOKSEE LN",AUSTIN,TX,78747,DELVALLE,,CONTRACTOR,,,,,,,,,,,"PACESETTER HOMES ",,,,,"PACESETTER HOMES ","7940 SHOAL CREEK BLVD STE 200",AUSTIN,TX,78757-7587,"(512) 323-5252",,,,
TX,TRAVIS,"2021-012190 BP","Single Family Homes",1/28/2021,,255675,3535,"16501 SUMMERY ST",AUSTIN,TX,78653,"WHISPER VALLEY VILLAGE",14,CONTRACTOR,,,,,,,,,,,"PACESETTER HOMES ",,,,,"PACESETTER HOMES ","7940 SHOAL CREEK BLVD STE 200",AUSTIN,TX,78757-7587,"(512) 323-5252",,,,
TX,TRAVIS,"2021-013934 BP","Single Family Homes",2/1/2021,,262425,3499,"8012 CHRYSLER BND",AUSTIN,TX,78744,"EASTON PARK",14,CONTRACTOR,,,,,,,,,,,"PACESETTER HOMES ",,,,,"PACESETTER HOMES ","7940 SHOAL CREEK BLVD STE 200",AUSTIN,TX,78757-7587,"(512) 323-5252",,,,
TX,TRAVIS,"2021-012125 BP","Single Family Homes",1/28/2021,,268470,2355,"9608 GRAPEVINE LEAF DR",AUSTIN,TX,78704,,,CONTRACTOR,,,,,,,,,,,"BUFFINGTON TEXAS CLASSIC HOMES",,,,,"BUFFINGTON TEXAS CLASSIC HOMES","8601 RANCH ROAD 2222 PARK CENTRE BLDG STE 150",AUSTIN,TX,78730,"(512) 579-4800",,,,
TX,TRAVIS,"2021-011236 BP","Single Family Homes",1/27/2021,,290000,3296,"609 FALKLAND TRCE",AUSTIN,TX,78660,CUNNINGHAM,,CONTRACTOR,,,,,,,,,,,"BLACKBURN COMMUNITIES",,,,,"BLACKBURN COMMUNITIES","301 BRUSHY CREEK RD STE 108",PFLUGERVILLE,TX,78613,"(512) 401-3205",https://www.blackburnhomes.com/,,,info@blackburnhomes.com
TX,TRAVIS,"2021-014132 BP","Single Family Homes",2/1/2021,,290000,2234,"712 FALKLAND TRCE",AUSTIN,TX,78660,CUNNINGHAM,,CONTRACTOR,,,,,,,,,,,"BLACKBURN COMMUNITIES",,,,,"BLACKBURN COMMUNITIES","301 BRUSHY CREEK RD STE 108",PFLUGERVILLE,TX,78613,"(512) 401-3205",https://www.blackburnhomes.com/,,,info@blackburnhomes.com
TX,TRAVIS,"2021-014161 BP","Single Family Homes",2/1/2021,,290000,2227,"704 FALKLAND TRCE",AUSTIN,TX,78660,CUNNINGHAM,,CONTRACTOR,,,,,,,,,,,"BLACKBURN COMMUNITIES",,,,,"BLACKBURN COMMUNITIES","301 BRUSHY CREEK RD STE 108",PFLUGERVILLE,TX,78613,"(512) 401-3205",https://www.blackburnhomes.com/,,,info@blackburnhomes.com
TX,TRAVIS,"2021-012749 BP","Single Family Homes",2/1/2021,,787990,5325,"16305 DONOHER DR",AUSTIN,TX,78717,,,CONTRACTOR,,,,,,,,,,,"PULTE HOMES",,,,,"PULTE HOMES","9401 AMBERGLEN BLVD STE I-150",AUSTIN,TX,78729-1154,"(512) 561-4344",,,,
TX,TRAVIS,"2020-124507 BP","Single Family Homes",1/27/2021,,800000,9368,"9618 OLD LAMPASAS TRL",AUSTIN,TX,78750,"THE OVERLOOK AT BULL CREEK",5,CONTRACTOR,,,,,,,,,,,"WILDE CUSTOM HOMES",,,,,"WILDE CUSTOM HOMES","5524 BEE CAVE RD STE B-4","WEST LAKE HILLS",TX,78746-5248,"(512) 327-1801",,,,
TX,WILLIAMSON,2019-50409,"Single Family Homes",1/11/2021,,250000,3125,"3828 MERCER RD",GEORGETOWN,TX,78628,"WOLF RANCH",,CONTRACTOR,,,,,,,,,,,"PERRY HOMES",,,,,"PERRY HOMES","6112 LLANO ST",AUSTIN,TX,78702,"(512) 810-8050",,,,
TX,WILLIAMSON,2019-55190,"Single Family Homes",1/6/2021,,513000,3801,"385 ADAMS ST",GEORGETOWN,TX,78628,"SUMMIT AT RIVERY PARK",,CONTRACTOR,,,,,,,,,,,"NOVAK BROTHERS",,,,,"NOVAK BROTHERS","807 S ROCK ST STE 103",GEORGETOWN,TX,78626-5832,"(512) 930-7774",http://www.novakbros.com,,,
TX,WILLIAMSON,2019-55191,"Single Family Homes",1/6/2021,,513000,3801,"389 ADAMS ST",GEORGETOWN,TX,78628,"SUMMIT AT RIVERY PARK",,CONTRACTOR,,,,,,,,,,,"NOVAK BROTHERS",,,,,"NOVAK BROTHERS","807 S ROCK ST STE 103",GEORGETOWN,TX,78626-5832,"(512) 930-7774",http://www.novakbros.com,,,
TX,WILLIAMSON,2019-55192,"Single Family Homes",1/6/2021,,513000,3801,"393 ADAMS ST",GEORGETOWN,TX,78628,,,CONTRACTOR,,,,,,,,,,,"NOVAK BROTHERS",,,,,"NOVAK BROTHERS","807 S ROCK ST STE 103",GEORGETOWN,TX,78626-5832,"(512) 930-7774",http://www.novakbros.com,,,
TX,WILLIAMSON,2020-58894,"Single Family Homes",1/11/2021,,208794,2768,"1132 STETSON HAT TRL",GEORGETOWN,TX,78628,"WOLF RANCH",,CONTRACTOR,,,,,,,,,,,"MHI MCGUYER HOMEBUILDERS",,,,,"MHI MCGUYER HOMEBUILDERS","8200 N MO PAC EXPY STE 300",AUSTIN,TX,78759-8844,"(512) 502-2050",,"(512) 388-1836","FRANK MCGUYER",
TX,WILLIAMSON,2020-59817,"Single Family Homes",1/22/2021,,216594,3090,"148 BELFORD ST",GEORGETOWN,TX,78628,"WOLF RANCH",,CONTRACTOR,,,,,,,,,,,"MHI MCGUYER HOMEBUILDERS",,,,,"MHI MCGUYER HOMEBUILDERS","8200 N MO PAC EXPY STE 300",AUSTIN,TX,78759-8844,"(512) 502-2050",,"(512) 388-1836","FRANK MCGUYER",
TX,WILLIAMSON,2020-68383,"Single Family Homes",1/28/2021,,420895,2960,"276 ARROWHEAD MOUND RD",GEORGETOWN,TX,78628,"WOLF RANCH",,CONTRACTOR,,,,,,,,,,,"HIGHLAND HOMES",,,,,"HIGHLAND HOMES","4201 W PARMER LN STE B180",AUSTIN,TX,78727-4110,"(512) 834-8429",,,,
TX,WILLIAMSON,2020-68384,"Single Family Homes",1/4/2021,,394990,3502,"310 IRON RAIL LN",GEORGETOWN,TX,78628,,,CONTRACTOR,,,,,,,,,,,"PULTE HOMES",,,,,"PULTE HOMES","9401 AMBERGLEN BLVD STE I-150",AUSTIN,TX,78729-1154,"(512) 561-4344",,,,
TX,WILLIAMSON,2020-68498,"Single Family Homes",1/5/2021,,340194,4458,"101 IVA JUNE LN",GEORGETOWN,TX,78628,,,CONTRACTOR,,,,,,,,,,,"MHI MCGUYER HOMEBUILDERS",,,,,"MHI MCGUYER HOMEBUILDERS","8200 N MO PAC EXPY STE 300",AUSTIN,TX,78759-8844,"(512) 502-2050",,"(512) 388-1836","FRANK MCGUYER",
TX,WILLIAMSON,2020-68500,"Single Family Homes",1/7/2021,,277794,2590,"1624 LAKESIDE RANCH RD",GEORGETOWN,TX,78628,LAKESIDE,,CONTRACTOR,,,,,,,,,,,"MHI MCGUYER HOMEBUILDERS",,,,,"MHI MCGUYER HOMEBUILDERS","8200 N MO PAC EXPY STE 300",AUSTIN,TX,78759-8844,"(512) 502-2050",,"(512) 388-1836","FRANK MCGUYER",
TX,WILLIAMSON,2020-68710,"Single Family Homes",1/12/2021,,279900,2703,"604 BRIDLE CREEK DR",GEORGETOWN,TX,78628,,,CONTRACTOR,,,,,,,,,,,"CHESMAR HOMES",,,,,"CHESMAR HOMES","2900 N QUINLAN PARK RD",AUSTIN,TX,78732-6083,"(512) 233-9016",http://chesmar.com,,,
TX,WILLIAMSON,2020-68811,"Single Family Homes",1/4/2021,,265715,2123,"716 BRIDLE CREEK DR",GEORGETOWN,TX,78628,,,CONTRACTOR,,,,,,,,,,,"CHESMAR HOMES",,,,,"CHESMAR HOMES","2900 N QUINLAN PARK RD",AUSTIN,TX,78732-6083,"(512) 233-9016",http://chesmar.com,,,
TX,WILLIAMSON,2020-68888,"Single Family Homes",1/12/2021,,219594,2932,"108 GABRIEL POINT LN",GEORGETOWN,TX,78628,"WOLF RANCH",,CONTRACTOR,,,,,,,,,,,"MHI MCGUYER HOMEBUILDERS",,,,,"MHI MCGUYER HOMEBUILDERS","8200 N MO PAC EXPY STE 300",AUSTIN,TX,78759-8844,"(512) 502-2050",,"(512) 388-1836","FRANK MCGUYER",
TX,WILLIAMSON,2020-68892,"Single Family Homes",1/5/2021,,311994,4146,"205 IVA JUNE LN",GEORGETOWN,TX,78628,,,CONTRACTOR,,,,,,,,,,,"MHI MCGUYER HOMEBUILDERS",,,,,"MHI MCGUYER HOMEBUILDERS","8200 N MO PAC EXPY STE 300",AUSTIN,TX,78759-8844,"(512) 502-2050",,"(512) 388-1836","FRANK MCGUYER",
TX,WILLIAMSON,2020-68954,"Single Family Homes",1/21/2021,,250000,3049,"1004 ROUND MOUNTAIN PASS",GEORGETOWN,TX,78628,"WOLF RANCH",,CONTRACTOR,,,,,,,,,,,"PERRY HOMES",,,,,"PERRY HOMES","6112 LLANO ST",AUSTIN,TX,78702,"(512) 810-8050",,,,
TX,WILLIAMSON,2020-69007,"Single Family Homes",1/7/2021,,278394,2441,"604 CEDAR LAKE BLVD",GEORGETOWN,TX,78628,LAKESIDE,,CONTRACTOR,,,,,,,,,,,"MHI MCGUYER HOMEBUILDERS",,,,,"MHI MCGUYER HOMEBUILDERS","8200 N MO PAC EXPY STE 300",AUSTIN,TX,78759-8844,"(512) 502-2050",,"(512) 388-1836","FRANK MCGUYER",
TX,WILLIAMSON,2020-69042,"Single Family Homes",1/8/2021,,222594,2710,"237 DIAMONDBACK DR",GEORGETOWN,TX,78628,,,CONTRACTOR,,,,,,,,,,,"MHI MCGUYER HOMEBUILDERS",,,,,"MHI MCGUYER HOMEBUILDERS","8200 N MO PAC EXPY STE 300",AUSTIN,TX,78759-8844,"(512) 502-2050",,"(512) 388-1836","FRANK MCGUYER",
TX,WILLIAMSON,2020-69064,"Single Family Homes",1/7/2021,,252990,2593,"2216 CLIFFBRAKE WAY",GEORGETOWN,TX,78628,,,CONTRACTOR,,,,,,,,,,,"PULTE HOMES",,,,,"PULTE HOMES","9401 AMBERGLEN BLVD STE I-150",AUSTIN,TX,78729-1154,"(512) 561-4344",,,,
TX,WILLIAMSON,2020-69067,"Single Family Homes",1/7/2021,,268990,3142,"620 ENGLISH OAK ST",GEORGETOWN,TX,78628,,,CONTRACTOR,,,,,,,,,,,"PULTE HOMES",,,,,"PULTE HOMES","9401 AMBERGLEN BLVD STE I-150",AUSTIN,TX,78729-1154,"(512) 561-4344",,,,
TX,WILLIAMSON,2020-69095,"Single Family Homes",1/7/2021,,229990,1962,"2317 CLIFFBRAKE WAY",GEORGETOWN,TX,78628,,,CONTRACTOR,,,,,,,,,,,"PULTE HOMES",,,,,"PULTE HOMES","9401 AMBERGLEN BLVD STE I-150",AUSTIN,TX,78729-1154,"(512) 561-4344",,,,
TX,WILLIAMSON,2020-69097,"Single Family Homes",1/7/2021,,244990,2197,"2332 CLIFFBRAKE WAY",GEORGETOWN,TX,78628,,,CONTRACTOR,,,,,,,,,,,"PULTE HOMES",,,,,"PULTE HOMES","9401 AMBERGLEN BLVD STE I-150",AUSTIN,TX,78729-1154,"(512) 561-4344",,,,
TX,WILLIAMSON,2020-69201,"Single Family Homes",1/11/2021,,419990,4839,"312 IRON RAIL LN",GEORGETOWN,TX,78628,,,CONTRACTOR,,,,,,,,,,,"PULTE HOMES",,,,,"PULTE HOMES","9401 AMBERGLEN BLVD STE I-150",AUSTIN,TX,78729-1154,"(512) 561-4344",,,,
TX,WILLIAMSON,2020-69208,"Single Family Homes",1/13/2021,,316990,3272,"602 GEORGIA LACE TRL",GEORGETOWN,TX,78628,"HIDDEN OAK",,CONTRACTOR,,,,,,,,,,,"PULTE HOMES",,,,,"PULTE HOMES","9401 AMBERGLEN BLVD STE I-150",AUSTIN,TX,78729-1154,"(512) 561-4344",,,,
TX,WILLIAMSON,2020-69245,"Single Family Homes",1/14/2021,,401268,3217,"208 RED GRANITE RD",GEORGETOWN,TX,78628,,,CONTRACTOR,,,,,,,,,,,"EHT OF TEXAS LP",,,,,"EHT OF TEXAS LP","3520 EXECUTIVE CENTER DR STE 100",AUSTIN,TX,78731-1636,"(757) 287-6394",,,,
TX,WILLIAMSON,2020-69469,"Single Family Homes",1/15/2021,,230394,2764,"224 DIAMONDBACK DR",GEORGETOWN,TX,78628,"WOLF RANCH",,CONTRACTOR,,,,,,,,,,,"MHI MCGUYER HOMEBUILDERS",,,,,"MHI MCGUYER HOMEBUILDERS","8200 N MO PAC EXPY STE 300",AUSTIN,TX,78759-8844,"(512) 502-2050",,"(512) 388-1836","FRANK MCGUYER",
TX,WILLIAMSON,2020-69477,"Single Family Homes",1/12/2021,,316990,3252,"505 GEORGIA LACE TRL",GEORGETOWN,TX,78628,"HIDDEN OAK",,CONTRACTOR,,,,,,,,,,,"PULTE HOMES",,,,,"PULTE HOMES","9401 AMBERGLEN BLVD STE I-150",AUSTIN,TX,78729-1154,"(512) 561-4344",,,,
TX,WILLIAMSON,2020-69483,"Single Family Homes",1/25/2021,,228932,2062,"201 BENMYRTLE TRL",GEORGETOWN,TX,78628,,,CONTRACTOR,,,,,,,,,,,"KB HOME",,,,,"KB HOME","10800 PECAN PARK BLVD STE 200",AUSTIN,TX,78750-1249,"(512) 651-8100",,,,
TX,WILLIAMSON,2020-69516,"Single Family Homes",1/12/2021,,276990,2190,"513 GEORGIA LACE TRL",GEORGETOWN,TX,78628,"HIDDEN OAK",,CONTRACTOR,,,,,,,,,,,"PULTE HOMES",,,,,"PULTE HOMES","9401 AMBERGLEN BLVD STE I-150",AUSTIN,TX,78729-1154,"(512) 561-4344",,,,
TX,WILLIAMSON,2020-69589,"Single Family Homes",1/21/2021,,489990,3349,"121 MOUNTAIN LION RD",GEORGETOWN,TX,78628,,,CONTRACTOR,,,,,,,,,,,"DAVID WEEKLEY HOMES",,,,,"DAVID WEEKLEY HOMES","9000 WATERFORD CENTRE BLVD",AUSTIN,TX,78758-7662,"(800) 390-6774",http://www.davidweekleyhomes.com/,,,
TX,WILLIAMSON,2020-69598,"Single Family Homes",1/11/2021,,268148,3118,"1208 VOGEL DR",GEORGETOWN,TX,78628,,,CONTRACTOR,,,,,,,,,,,"DR HORTON",,,,,"DR HORTON","10700 PECAN PARK BLVD STE 400",AUSTIN,TX,78750-1227,"(512) 345-4663",,,,
TX,WILLIAMSON,2020-69600,"Single Family Homes",1/11/2021,,244670,2845,"1212 VOGEL DR",GEORGETOWN,TX,78628,,,CONTRACTOR,,,,,,,,,,,"DR HORTON",,,,,"DR HORTON","10700 PECAN PARK BLVD STE 400",AUSTIN,TX,78750-1227,"(512) 345-4663",,,,
TX,WILLIAMSON,2020-69602,"Single Family Homes",1/11/2021,,199004,2314,"124 BRUNNEN WAY",GEORGETOWN,TX,78628,KASPER,,CONTRACTOR,,,,,,,,,,,"DR HORTON",,,,,"DR HORTON","10700 PECAN PARK BLVD STE 400",AUSTIN,TX,78750-1227,"(512) 345-4663",,,,
TX,WILLIAMSON,2020-69604,"Single Family Homes",1/11/2021,,241316,2806,"605 OTTO AVE",GEORGETOWN,TX,78628,,,CONTRACTOR,,,,,,,,,,,"DR HORTON",,,,,"DR HORTON","10700 PECAN PARK BLVD STE 400",AUSTIN,TX,78750-1227,"(512) 345-4663",,,,
TX,WILLIAMSON,2020-69614,"Single Family Homes",1/11/2021,,237704,2764,"621 OTTO AVE",GEORGETOWN,TX,78628,,,CONTRACTOR,,,,,,,,,,,"DR HORTON",,,,,"DR HORTON","10700 PECAN PARK BLVD STE 400",AUSTIN,TX,78750-1227,"(512) 345-4663",,,,
TX,WILLIAMSON,2020-69623,"Single Family Homes",1/11/2021,,294640,2070,"637 PECAN BOTTOM TRL",GEORGETOWN,TX,78628,,,CONTRACTOR,,,,,,,,,,,"HIGHLAND HOMES",,,,,"HIGHLAND HOMES","4201 W PARMER LN STE B180",AUSTIN,TX,78727-4110,"(512) 834-8429",,,,
TX,WILLIAMSON,2020-69662,"Single Family Homes",1/14/2021,,157760,2866,"240 ARABIAN COLT DR",GEORGETOWN,TX,78628,SADDLECREEK,,CONTRACTOR,,,,,,,,,,,"PACESETTER HOMES ",,,,,"PACESETTER HOMES ","7940 SHOAL CREEK BLVD STE 200",AUSTIN,TX,78757-7587,"(512) 323-5252",,,,
TX,WILLIAMSON,2020-69691,"Single Family Homes",1/14/2021,,329990,3350,"122 GEORGIA LACE TRL",GEORGETOWN,TX,78628,"HIDDEN OAK",,CONTRACTOR,,,,,,,,,,,"PULTE HOMES",,,,,"PULTE HOMES","9401 AMBERGLEN BLVD STE I-150",AUSTIN,TX,78729-1154,"(512) 561-4344",,,,
TX,WILLIAMSON,2020-69694,"Single Family Homes",1/14/2021,,329990,3350,"114 GEORGIA LACE TRL",GEORGETOWN,TX,78628,"HIDDEN OAK",,CONTRACTOR,,,,,,,,,,,"PULTE HOMES",,,,,"PULTE HOMES","9401 AMBERGLEN BLVD STE I-150",AUSTIN,TX,78729-1154,"(512) 561-4344",,,,
TX,WILLIAMSON,2020-69695,"Single Family Homes",1/11/2021,,320990,3341,"429 GEORGIA LACE TRL",GEORGETOWN,TX,78628,"HIDDEN OAK",,CONTRACTOR,,,,,,,,,,,"PULTE HOMES",,,,,"PULTE HOMES","9401 AMBERGLEN BLVD STE I-150",AUSTIN,TX,78729-1154,"(512) 561-4344",,,,
TX,WILLIAMSON,2020-69697,"Single Family Homes",1/12/2021,,392990,3189,"204 IRON RAIL LN",GEORGETOWN,TX,78628,"SUN CITY",,CONTRACTOR,,,,,,,,,,,"PULTE HOMES",,,,,"PULTE HOMES","9401 AMBERGLEN BLVD STE I-150",AUSTIN,TX,78729-1154,"(512) 561-4344",,,,
TX,WILLIAMSON,2020-69700,"Single Family Homes",1/11/2021,,308990,3047,"509 GEORGIA LACE TRL",GEORGETOWN,TX,78628,"HIDDEN OAK",,CONTRACTOR,,,,,,,,,,,"PULTE HOMES",,,,,"PULTE HOMES","9401 AMBERGLEN BLVD STE I-150",AUSTIN,TX,78729-1154,"(512) 561-4344",,,,
TX,WILLIAMSON,2020-69704,"Single Family Homes",1/7/2021,,250000,2887,"1112 WOLF HOLLOW DR",GEORGETOWN,TX,78628,"WOLF RANCH",,CONTRACTOR,,,,,,,,,,,"PERRY HOMES",,,,,"PERRY HOMES","6112 LLANO ST",AUSTIN,TX,78702,"(512) 810-8050",,,,
TX,WILLIAMSON,2020-69720,"Single Family Homes",1/25/2021,,297000,2962,"108 EAGLE PASS TRL",GEORGETOWN,TX,78628,,,CONTRACTOR,,,,,,,,,,,"DREES CUSTOM HOMES",,,,,"DREES CUSTOM HOMES","7300 RANCH ROAD 2222 BLDG 2 STE 250",AUSTIN,TX,78730-3204,"(512) 241-7100",http://www.dreeshomes.com,,,
TX,WILLIAMSON,2020-69749,"Single Family Homes",1/20/2021,,161280,2304,"1232 WHIPPLETREE TRL",GEORGETOWN,TX,78628,SADDLECREEK,,CONTRACTOR,,,,,,,,,,,"CASTLEROCK COMMUNITIES",,,,,"CASTLEROCK COMMUNITIES","7670 WOODWAY DR STE 300",HOUSTON,TX,77063-1520,"(713) 600-7000",http://c-rock.com,"(713) 600-0000",,
TX,WILLIAMSON,2020-69774,"Single Family Homes",1/22/2021,,162825,1966,"709 LEGENDS LN",GEORGETOWN,TX,78628,,,CONTRACTOR,,,,,,,,,,,"LENNAR HOMES",,,,,"LENNAR HOMES","13620 FM 620 RD 150",AUSTIN,TX,78717,"(512) 506-4000",http://www.lennar.com/,,,
TX,WILLIAMSON,2020-69782,"Single Family Homes",1/22/2021,,163540,1916,"717 LEGENDS LN",GEORGETOWN,TX,78628,,,CONTRACTOR,,,,,,,,,,,"LENNAR HOMES",,,,,"LENNAR HOMES","13620 FM 620 RD 150",AUSTIN,TX,78717,"(512) 506-4000",http://www.lennar.com/,,,
TX,WILLIAMSON,2020-69787,"Single Family Homes",1/11/2021,,241316,2806,"641 OTTO AVE",GEORGETOWN,TX,78628,,,CONTRACTOR,,,,,,,,,,,"DR HORTON",,,,,"DR HORTON","10700 PECAN PARK BLVD STE 400",AUSTIN,TX,78750-1227,"(512) 345-4663",,,,
TX,WILLIAMSON,2020-69803,"Single Family Homes",1/11/2021,,237704,2764,"616 OTTO AVE",GEORGETOWN,TX,78628,,,CONTRACTOR,,,,,,,,,,,"DR HORTON",,,,,"DR HORTON","10700 PECAN PARK BLVD STE 400",AUSTIN,TX,78750-1227,"(512) 345-4663",,,,
TX,WILLIAMSON,2020-69804,"Single Family Homes",1/11/2021,,273050,3175,"620 OTTO AVE",GEORGETOWN,TX,78628,,,CONTRACTOR,,,,,,,,,,,"DR HORTON",,,,,"DR HORTON","10700 PECAN PARK BLVD STE 400",AUSTIN,TX,78750-1227,"(512) 345-4663",,,,
TX,WILLIAMSON,2020-69806,"Single Family Homes",1/11/2021,,253614,2949,"1024 BEAR TRACK LOOP",GEORGETOWN,TX,78628,,,CONTRACTOR,,,,,,,,,,,"DR HORTON",,,,,"DR HORTON","10700 PECAN PARK BLVD STE 400",AUSTIN,TX,78750-1227,"(512) 345-4663",,,,
TX,WILLIAMSON,2020-69809,"Single Family Homes",1/11/2021,,260322,3027,"1012 BEAR TRACK LOOP",GEORGETOWN,TX,78628,,,CONTRACTOR,,,,,,,,,,,"DR HORTON",,,,,"DR HORTON","10700 PECAN PARK BLVD STE 400",AUSTIN,TX,78750-1227,"(512) 345-4663",,,,
TX,WILLIAMSON,2020-69811,"Single Family Homes",1/11/2021,,197886,2301,"1016 BEAR TRACK LOOP",GEORGETOWN,TX,78628,,,CONTRACTOR,,,,,,,,,,,"DR HORTON",,,,,"DR HORTON","10700 PECAN PARK BLVD STE 400",AUSTIN,TX,78750-1227,"(512) 345-4663",,,,
TX,WILLIAMSON,2020-69812,"Single Family Homes",1/11/2021,,217752,2532,"1000 BEAR TRACK LOOP",GEORGETOWN,TX,78628,,,CONTRACTOR,,,,,,,,,,,"DR HORTON",,,,,"DR HORTON","10700 PECAN PARK BLVD STE 400",AUSTIN,TX,78750-1227,"(512) 345-4663",,,,
TX,WILLIAMSON,2020-69832,"Single Family Homes",1/8/2021,,234594,3351,"1001 WOLF HOLLOW DR",GEORGETOWN,TX,78628,"WOLF RANCH",,CONTRACTOR,,,,,,,,,,,"MHI MCGUYER HOMEBUILDERS",,,,,"MHI MCGUYER HOMEBUILDERS","8200 N MO PAC EXPY STE 300",AUSTIN,TX,78759-8844,"(512) 502-2050",,"(512) 388-1836","FRANK MCGUYER",
TX,WILLIAMSON,2020-69834,"Single Family Homes",1/21/2021,,349000,2964,"209 AXIS LOOP",GEORGETOWN,TX,78628,"DEER HAVEN",,CONTRACTOR,,,,,,,,,,,"DREES CUSTOM HOMES",,,,,"DREES CUSTOM HOMES","7300 RANCH ROAD 2222 BLDG 2 STE 250",AUSTIN,TX,78730-3204,"(512) 241-7100",http://www.dreeshomes.com,,,
TX,WILLIAMSON,2020-69836,"Single Family Homes",1/22/2021,,216594,2296,"1205 SILVER DOLLAR TRL",GEORGETOWN,TX,78628,,,CONTRACTOR,,,,,,,,,,,"MHI MCGUYER HOMEBUILDERS",,,,,"MHI MCGUYER HOMEBUILDERS","8200 N MO PAC EXPY STE 300",AUSTIN,TX,78759-8844,"(512) 502-2050",,"(512) 388-1836","FRANK MCGUYER",
TX,WILLIAMSON,2020-69841,"Single Family Homes",1/15/2021,,250194,3514,"1301 SILVER DOLLAR TRL",GEORGETOWN,TX,78628,"WOLF RANCH",,CONTRACTOR,,,,,,,,,,,"MHI MCGUYER HOMEBUILDERS",,,,,"MHI MCGUYER HOMEBUILDERS","8200 N MO PAC EXPY STE 300",AUSTIN,TX,78759-8844,"(512) 502-2050",,"(512) 388-1836","FRANK MCGUYER",
TX,WILLIAMSON,2020-69866,"Single Family Homes",1/20/2021,,153252,1782,"108 BENMYRTLE TRL",GEORGETOWN,TX,78628,,,CONTRACTOR,,,,,,,,,,,"KB HOME",,,,,"KB HOME","10800 PECAN PARK BLVD STE 200",AUSTIN,TX,78750-1249,"(512) 651-8100",,,,
TX,WILLIAMSON,2020-69903,"Single Family Homes",1/14/2021,,425000,4857,"321 CUMBERLAND CV",GEORGETOWN,TX,78628,"WOLF RANCH",,CONTRACTOR,,,,,,,,,,,"DREES CUSTOM HOMES",,,,,"DREES CUSTOM HOMES","7300 RANCH ROAD 2222 BLDG 2 STE 250",AUSTIN,TX,78730-3204,"(512) 241-7100",http://www.dreeshomes.com,,,
TX,WILLIAMSON,2020-69968,"Single Family Homes",1/11/2021,,260322,3027,"900 BALSORA CV",GEORGETOWN,TX,78628,,,CONTRACTOR,,,,,,,,,,,"DR HORTON",,,,,"DR HORTON","10700 PECAN PARK BLVD STE 400",AUSTIN,TX,78750-1227,"(512) 345-4663",,,,
TX,WILLIAMSON,2020-69971,"Single Family Homes",1/11/2021,,166066,1931,"1233 VOGEL DR",GEORGETOWN,TX,78628,,,CONTRACTOR,,,,,,,,,,,"DR HORTON",,,,,"DR HORTON","10700 PECAN PARK BLVD STE 400",AUSTIN,TX,78750-1227,"(512) 345-4663",,,,
TX,WILLIAMSON,2020-69972,"Single Family Homes",1/11/2021,,230394,2679,"673 OTTO AVE",GEORGETOWN,TX,78628,,,CONTRACTOR,,,,,,,,,,,"DR HORTON",,,,,"DR HORTON","10700 PECAN PARK BLVD STE 400",AUSTIN,TX,78750-1227,"(512) 345-4663",,,,
TX,WILLIAMSON,2020-69973,"Single Family Homes",1/11/2021,,244154,2839,"1224 VOGEL DR",GEORGETOWN,TX,78628,,,CONTRACTOR,,,,,,,,,,,"DR HORTON",,,,,"DR HORTON","10700 PECAN PARK BLVD STE 400",AUSTIN,TX,78750-1227,"(512) 345-4663",,,,
TX,WILLIAMSON,2020-69974,"Single Family Homes",1/11/2021,,208034,2419,"1228 VOGEL DR",GEORGETOWN,TX,78628,,,CONTRACTOR,,,,,,,,,,,"DR HORTON",,,,,"DR HORTON","10700 PECAN PARK BLVD STE 400",AUSTIN,TX,78750-1227,"(512) 345-4663",,,,
TX,WILLIAMSON,2020-69975,"Single Family Homes",1/11/2021,,241316,2806,"640 OTTO AVE",GEORGETOWN,TX,78628,,,CONTRACTOR,,,,,,,,,,,"DR HORTON",,,,,"DR HORTON","10700 PECAN PARK BLVD STE 400",AUSTIN,TX,78750-1227,"(512) 345-4663",,,,
TX,WILLIAMSON,2020-69977,"Single Family Homes",1/11/2021,,244670,2845,"1232 VOGEL DR",GEORGETOWN,TX,78628,FAIRHAVEN,,CONTRACTOR,,,,,,,,,,,"DR HORTON",,,,,"DR HORTON","10700 PECAN PARK BLVD STE 400",AUSTIN,TX,78750-1227,"(512) 345-4663",,,,
TX,WILLIAMSON,2020-69979,"Single Family Homes",1/11/2021,,268148,3118,"1236 VOGEL DR",GEORGETOWN,TX,78628,FAIRHAVEN,,CONTRACTOR,,,,,,,,,,,"DR HORTON",,,,,"DR HORTON","10700 PECAN PARK BLVD STE 400",AUSTIN,TX,78750-1227,"(512) 345-4663",,,,
TX,WILLIAMSON,2020-69982,"Single Family Homes",1/11/2021,,230394,2679,"636 OTTO AVE",GEORGETOWN,TX,78628,,,CONTRACTOR,,,,,,,,,,,"DR HORTON",,,,,"DR HORTON","10700 PECAN PARK BLVD STE 400",AUSTIN,TX,78750-1227,"(512) 345-4663",,,,
TX,WILLIAMSON,2020-70099,"Single Family Homes",1/11/2021,,2200000,7032,"224 MARAVILLA BLUFF LN",GEORGETOWN,TX,78628,MARAVILLA,,CONTRACTOR,,,,,,,,,,,"TIM W LONG CUSTOM HOMES",,,,,"TIM W LONG CUSTOM HOMES","4400 HWY 29 STE B",GEORGETOWN,TX,78628,"(512) 869-2608",http://www.timlonghomes.com/,,,
TX,WILLIAMSON,2020-70125,"Single Family Homes",1/11/2021,,231990,1883,"710 BENTON LN",GEORGETOWN,TX,78628,,,CONTRACTOR,,,,,,,,,,,"PULTE HOMES",,,,,"PULTE HOMES","9401 AMBERGLEN BLVD STE I-150",AUSTIN,TX,78729-1154,"(512) 561-4344",,,,
TX,WILLIAMSON,2020-70126,"Single Family Homes",1/11/2021,,231990,1881,"714 BENTON LN",GEORGETOWN,TX,78628,,,CONTRACTOR,,,,,,,,,,,"PULTE HOMES",,,,,"PULTE HOMES","9401 AMBERGLEN BLVD STE I-150",AUSTIN,TX,78729-1154,"(512) 561-4344",,,,
TX,WILLIAMSON,2020-70131,"Single Family Homes",1/14/2021,,419990,4015,"228 FAIRWAY RIDGE RD",GEORGETOWN,TX,78628,"SUN CITY TEXAS NEIGHBORHOOD",,CONTRACTOR,,,,,,,,,,,"PULTE HOMES",,,,,"PULTE HOMES","9401 AMBERGLEN BLVD STE I-150",AUSTIN,TX,78729-1154,"(512) 561-4344",,,,
TX,WILLIAMSON,2020-70132,"Single Family Homes",1/14/2021,,321990,2728,"105 SPANISH STAR ST",GEORGETOWN,TX,78628,"SUN CITY NEIGHBORHOOD",,CONTRACTOR,,,,,,,,,,,"PULTE HOMES",,,,,"PULTE HOMES","9401 AMBERGLEN BLVD STE I-150",AUSTIN,TX,78729-1154,"(512) 561-4344",,,,
TX,WILLIAMSON,2020-70134,"Single Family Homes",1/6/2021,,289990,2405,"115 DEDINA DR",GEORGETOWN,TX,78628,SADDLECREEK,,CONTRACTOR,,,,,,,,,,,"CHESMAR HOMES",,,,,"CHESMAR HOMES","2900 N QUINLAN PARK RD",AUSTIN,TX,78732-6083,"(512) 233-9016",http://chesmar.com,,,
TX,WILLIAMSON,2020-70136,"Single Family Homes",1/12/2021,,332990,2955,"1110 HANGING STAR LN",GEORGETOWN,TX,78628,"SUN CITY NEIGHBORHOOD",,CONTRACTOR,,,,,,,,,,,"PULTE HOMES",,,,,"PULTE HOMES","9401 AMBERGLEN BLVD STE I-150",AUSTIN,TX,78729-1154,"(512) 561-4344",,,,
TX,WILLIAMSON,2020-70137,"Single Family Homes",1/12/2021,,397990,3350,"209 IRON RAIL LN",GEORGETOWN,TX,78628,,,CONTRACTOR,,,,,,,,,,,"PULTE HOMES",,,,,"PULTE HOMES","9401 AMBERGLEN BLVD STE I-150",AUSTIN,TX,78729-1154,"(512) 561-4344",,,,
TX,WILLIAMSON,2020-70139,"Single Family Homes",1/6/2021,,387000,3343,"228 IVA JUNE LN",GEORGETOWN,TX,78628,,,CONTRACTOR,,,,,,,,,,,"DREES CUSTOM HOMES",,,,,"DREES CUSTOM HOMES","7300 RANCH ROAD 2222 BLDG 2 STE 250",AUSTIN,TX,78730-3204,"(512) 241-7100",http://www.dreeshomes.com,,,
TX,WILLIAMSON,2020-70140,"Single Family Homes",1/6/2021,,621000,3629,"1124 LAZY OAKS DR",GEORGETOWN,TX,78628,"WATER OAK",,CONTRACTOR,,,,,,,,,,,"SITTERLE HOMES",,,,,"SITTERLE HOMES","113 NAPLES LN",AUSTIN,TX,78737-4686,"(210) 494-9192",http://www.sitterlehomes.com,,,
TX,WILLIAMSON,2020-70143,"Single Family Homes",1/5/2021,,161280,2304,"1268 WHIPPLETREE TRL",GEORGETOWN,TX,78628,SADDLECREEK,,CONTRACTOR,,,,,,,,,,,"CASTLEROCK COMMUNITIES",,,,,"CASTLEROCK COMMUNITIES","7670 WOODWAY DR STE 300",HOUSTON,TX,77063-1520,"(713) 600-7000",http://c-rock.com,"(713) 600-0000",,
TX,WILLIAMSON,2020-70168,"Single Family Homes",1/22/2021,,150670,1771,"122 COYOTE MOUNTAIN CV",GEORGETOWN,TX,78628,,,CONTRACTOR,,,,,,,,,,,"LENNAR HOMES",,,,,"LENNAR HOMES","13620 FM 620 RD 150",AUSTIN,TX,78717,"(512) 506-4000",http://www.lennar.com/,,,
TX,WILLIAMSON,2020-70202,"Single Family Homes",1/14/2021,,311990,2674,"206 SPANISH STAR ST",GEORGETOWN,TX,78628,"SUN CITY NEIGHBORHOOD",,CONTRACTOR,,,,,,,,,,,"PULTE HOMES",,,,,"PULTE HOMES","9401 AMBERGLEN BLVD STE I-150",AUSTIN,TX,78729-1154,"(512) 561-4344",,,,
TX,WILLIAMSON,2020-70204,"Single Family Homes",1/14/2021,,415990,3739,"306 IRON RAIL LN",GEORGETOWN,TX,78628,,,CONTRACTOR,,,,,,,,,,,"PULTE HOMES",,,,,"PULTE HOMES","9401 AMBERGLEN BLVD STE I-150",AUSTIN,TX,78729-1154,"(512) 561-4344",,,,
TX,WILLIAMSON,2020-70252,"Single Family Homes",1/22/2021,,137345,1601,"161 CHERRY RIDGE RD",GEORGETOWN,TX,78628,"WOLF RANCH",,CONTRACTOR,,,,,,,,,,,"LENNAR HOMES",,,,,"LENNAR HOMES","13620 FM 620 RD 150",AUSTIN,TX,78717,"(512) 506-4000",http://www.lennar.com/,,,
TX,WILLIAMSON,2020-70259,"Single Family Homes",1/4/2021,,184814,2149,"1001 BEAR TRACK LOOP",GEORGETOWN,TX,78628,,,CONTRACTOR,,,,,,,,,,,"DR HORTON",,,,,"DR HORTON","10700 PECAN PARK BLVD STE 400",AUSTIN,TX,78750-1227,"(512) 345-4663",,,,
TX,WILLIAMSON,2020-70261,"Single Family Homes",1/25/2021,,213194,2479,"912 BALSORA CV",GEORGETOWN,TX,78628,,,CONTRACTOR,,,,,,,,,,,"DR HORTON",,,,,"DR HORTON","10700 PECAN PARK BLVD STE 400",AUSTIN,TX,78750-1227,"(512) 345-4663",,,,
TX,WILLIAMSON,2020-70264,"Single Family Homes",1/4/2021,,279672,3252,"916 BALSORA CV",GEORGETOWN,TX,78628,,,CONTRACTOR,,,,,,,,,,,"DR HORTON",,,,,"DR HORTON","10700 PECAN PARK BLVD STE 400",AUSTIN,TX,78750-1227,"(512) 345-4663",,,,
TX,WILLIAMSON,2020-70265,"Single Family Homes",1/22/2021,,305394,4786,"917 NORTH FORK TRL",GEORGETOWN,TX,78628,,,CONTRACTOR,,,,,,,,,,,"MHI MCGUYER HOMEBUILDERS",,,,,"MHI MCGUYER HOMEBUILDERS","8200 N MO PAC EXPY STE 300",AUSTIN,TX,78759-8844,"(512) 502-2050",,"(512) 388-1836","FRANK MCGUYER",
TX,WILLIAMSON,2020-70293,"Single Family Homes",1/5/2021,,381960,2783,"117 HIGH PLAINS DR",GEORGETOWN,TX,78628,"WATER OAK",,CONTRACTOR,,,,,,,,,,,"CHESMAR HOMES",,,,,"CHESMAR HOMES","2900 N QUINLAN PARK RD",AUSTIN,TX,78732-6083,"(512) 233-9016",http://chesmar.com,,,
TX,WILLIAMSON,2020-70308,"Single Family Homes",1/14/2021,,351990,2246,"713 BENTON LN",GEORGETOWN,TX,78628,,,CONTRACTOR,,,,,,,,,,,"PULTE HOMES",,,,,"PULTE HOMES","9401 AMBERGLEN BLVD STE I-150",AUSTIN,TX,78729-1154,"(512) 561-4344",,,,
TX,WILLIAMSON,2020-70310,"Single Family Homes",1/14/2021,,251990,2161,"717 BENTON LN",GEORGETOWN,TX,78628,,,CONTRACTOR,,,,,,,,,,,"PULTE HOMES",,,,,"PULTE HOMES","9401 AMBERGLEN BLVD STE I-150",AUSTIN,TX,78729-1154,"(512) 561-4344",,,,
TX,WILLIAMSON,2020-70311,"Single Family Homes",1/14/2021,,251990,2241,"600 BENTON LN",GEORGETOWN,TX,78628,,,CONTRACTOR,,,,,,,,,,,"PULTE HOMES",,,,,"PULTE HOMES","9401 AMBERGLEN BLVD STE I-150",AUSTIN,TX,78729-1154,"(512) 561-4344",,,,
TX,WILLIAMSON,2020-70312,"Single Family Homes",1/14/2021,,251990,2241,"207 YORKTOWN ST",GEORGETOWN,TX,78628,"SUN CITY",,CONTRACTOR,,,,,,,,,,,"PULTE HOMES",,,,,"PULTE HOMES","9401 AMBERGLEN BLVD STE I-150",AUSTIN,TX,78729-1154,"(512) 561-4344",,,,
TX,WILLIAMSON,2020-70313,"Single Family Homes",1/15/2021,,292194,3673,"921 NORTH FORK TRL",GEORGETOWN,TX,78628,,,CONTRACTOR,,,,,,,,,,,"MHI MCGUYER HOMEBUILDERS",,,,,"MHI MCGUYER HOMEBUILDERS","8200 N MO PAC EXPY STE 300",AUSTIN,TX,78759-8844,"(512) 502-2050",,"(512) 388-1836","FRANK MCGUYER",
TX,WILLIAMSON,2020-70367,"Single Family Homes",1/12/2021,,332990,2852,"213 SPANISH STAR ST",GEORGETOWN,TX,78628,"SUN CITY NEIGHBORHOOD",,CONTRACTOR,,,,,,,,,,,"PULTE HOMES",,,,,"PULTE HOMES","9401 AMBERGLEN BLVD STE I-150",AUSTIN,TX,78729-1154,"(512) 561-4344",,,,
TX,WILLIAMSON,2020-70368,"Single Family Homes",1/14/2021,,403990,4437,"232 FAIRWAY RIDGE RD",GEORGETOWN,TX,78628,"SUN CITY TEXAS NEIGHBORHOOD",,CONTRACTOR,,,,,,,,,,,"PULTE HOMES",,,,,"PULTE HOMES","9401 AMBERGLEN BLVD STE I-150",AUSTIN,TX,78729-1154,"(512) 561-4344",,,,
TX,WILLIAMSON,2020-70378,"Single Family Homes",1/28/2021,,346666,4031,"109 STATELY OAK DR",GEORGETOWN,TX,78628,"HIDDEN OAKS AT BERRY CREEK",,CONTRACTOR,,,,,,,,,,,"GEHAN HOMES",,,,,"GEHAN HOMES","3815 S CAPITAL OF TEXAS HWY STE 275",AUSTIN,TX,78704-6652,"(512) 330-9366",http://www.gehanhomes.com,,"JANET PHILLIPS",
TX,WILLIAMSON,2020-70389,"Single Family Homes",1/15/2021,,504000,5011,"100 IVA JUNE LN",GEORGETOWN,TX,78628,"WOLF RANCH",,CONTRACTOR,,,,,,,,,,,"DAVID WEEKLEY HOMES",,,,,"DAVID WEEKLEY HOMES","9000 WATERFORD CENTRE BLVD",AUSTIN,TX,78758-7662,"(800) 390-6774",http://www.davidweekleyhomes.com/,,,
TX,WILLIAMSON,2020-70410,"Single Family Homes",1/12/2021,,382840,2783,"220 UPLAND DR",GEORGETOWN,TX,78628,,,CONTRACTOR,,,,,,,,,,,"CHESMAR HOMES",,,,,"CHESMAR HOMES","2900 N QUINLAN PARK RD",AUSTIN,TX,78732-6083,"(512) 233-9016",http://chesmar.com,,,
TX,WILLIAMSON,2020-70414,"Single Family Homes",1/8/2021,,264594,3869,"149 BELFORD ST",GEORGETOWN,TX,78628,"WOLF RANCH",,CONTRACTOR,,,,,,,,,,,"MHI MCGUYER HOMEBUILDERS",,,,,"MHI MCGUYER HOMEBUILDERS","8200 N MO PAC EXPY STE 300",AUSTIN,TX,78759-8844,"(512) 502-2050",,"(512) 388-1836","FRANK MCGUYER",
TX,WILLIAMSON,2020-70422,"Single Family Homes",1/21/2021,,433990,5013,"1104 SCENIC OAKS DR",GEORGETOWN,TX,78628,"HIDDEN OAKS AT BERRY CREEK",,CONTRACTOR,,,,,,,,,,,"GEHAN HOMES",,,,,"GEHAN HOMES","3815 S CAPITAL OF TEXAS HWY STE 275",AUSTIN,TX,78704-6652,"(512) 330-9366",http://www.gehanhomes.com,,"JANET PHILLIPS",
TX,WILLIAMSON,2020-70439,"Single Family Homes",1/11/2021,,137020,1667,"213 GABRIELS BLUFF DR",GEORGETOWN,TX,78628,,,CONTRACTOR,,,,,,,,,,,"LENNAR HOMES",,,,,"LENNAR HOMES","13620 FM 620 RD 150",AUSTIN,TX,78717,"(512) 506-4000",http://www.lennar.com/,,,
TX,WILLIAMSON,2020-70440,"Single Family Homes",1/12/2021,,124475,1474,"112 AKELA WAY",GEORGETOWN,TX,78628,RIVERHILLS,,CONTRACTOR,,,,,,,,,,,"LENNAR HOMES",,,,,"LENNAR HOMES","13620 FM 620 RD 150",AUSTIN,TX,78717,"(512) 506-4000",http://www.lennar.com/,,,
TX,WILLIAMSON,2020-70441,"Single Family Homes",1/12/2021,,108290,1217,"209 GABRIELS BLUFF DR",GEORGETOWN,TX,78628,,,CONTRACTOR,,,,,,,,,,,"LENNAR HOMES",,,,,"LENNAR HOMES","13620 FM 620 RD 150",AUSTIN,TX,78717,"(512) 506-4000",http://www.lennar.com/,,,
TX,WILLIAMSON,2020-70442,"Single Family Homes",1/8/2021,,260394,3928,"308 MADDOX DR",GEORGETOWN,TX,78628,"WOLF RANCH",,CONTRACTOR,,,,,,,,,,,"MHI MCGUYER HOMEBUILDERS",,,,,"MHI MCGUYER HOMEBUILDERS","8200 N MO PAC EXPY STE 300",AUSTIN,TX,78759-8844,"(512) 502-2050",,"(512) 388-1836","FRANK MCGUYER",
TX,WILLIAMSON,2020-70444,"Single Family Homes",1/14/2021,,425990,4125,"301 IRON RAIL LN",GEORGETOWN,TX,78628,"SUN CITY",,CONTRACTOR,,,,,,,,,,,"PULTE HOMES",,,,,"PULTE HOMES","9401 AMBERGLEN BLVD STE I-150",AUSTIN,TX,78729-1154,"(512) 561-4344",,,,
TX,WILLIAMSON,2020-70448,"Single Family Homes",1/4/2021,,208034,2419,"312 MAIS DR",GEORGETOWN,TX,78628,,,CONTRACTOR,,,,,,,,,,,"DR HORTON",,,,,"DR HORTON","10700 PECAN PARK BLVD STE 400",AUSTIN,TX,78750-1227,"(512) 345-4663",,,,
TX,WILLIAMSON,2020-70450,"Single Family Homes",1/11/2021,,244154,2839,"308 MAIS DR",GEORGETOWN,TX,78628,FAIRHAVEN,,CONTRACTOR,,,,,,,,,,,"DR HORTON",,,,,"DR HORTON","10700 PECAN PARK BLVD STE 400",AUSTIN,TX,78750-1227,"(512) 345-4663",,,,
TX,WILLIAMSON,2020-70451,"Single Family Homes",1/11/2021,,268148,3118,"304 MAIS DR",GEORGETOWN,TX,78628,,,CONTRACTOR,,,,,,,,,,,"DR HORTON",,,,,"DR HORTON","10700 PECAN PARK BLVD STE 400",AUSTIN,TX,78750-1227,"(512) 345-4663",,,,
TX,WILLIAMSON,2020-70452,"Single Family Homes",1/11/2021,,208034,22419,"300 MAIS DR",GEORGETOWN,TX,78628,,,CONTRACTOR,,,,,,,,,,,"DR HORTON",,,,,"DR HORTON","10700 PECAN PARK BLVD STE 400",AUSTIN,TX,78750-1227,"(512) 345-4663",,,,
TX,WILLIAMSON,2020-70453,"Single Family Homes",1/11/2021,,241316,2806,"720 SHINER LN",GEORGETOWN,TX,78628,,,CONTRACTOR,,,,,,,,,,,"DR HORTON",,,,,"DR HORTON","10700 PECAN PARK BLVD STE 400",AUSTIN,TX,78750-1227,"(512) 345-4663",,,,
TX,WILLIAMSON,2020-70454,"Single Family Homes",1/11/2021,,288530,3355,"681 OTTO AVE",GEORGETOWN,TX,78628,,,CONTRACTOR,,,,,,,,,,,"DR HORTON",,,,,"DR HORTON","10700 PECAN PARK BLVD STE 400",AUSTIN,TX,78750-1227,"(512) 345-4663",,,,
TX,WILLIAMSON,2020-70455,"Single Family Homes",1/11/2021,,241316,2806,"677 OTTO AVE",GEORGETOWN,TX,78628,,,CONTRACTOR,,,,,,,,,,,"DR HORTON",,,,,"DR HORTON","10700 PECAN PARK BLVD STE 400",AUSTIN,TX,78750-1227,"(512) 345-4663",,,,
TX,WILLIAMSON,2020-70458,"Single Family Homes",1/11/2021,,260322,3027,"209 PEACE PIPE WAY",GEORGETOWN,TX,78628,"SHADOW CANYON",,CONTRACTOR,,,,,,,,,,,"DR HORTON",,,,,"DR HORTON","10700 PECAN PARK BLVD STE 400",AUSTIN,TX,78750-1227,"(512) 345-4663",,,,
TX,WILLIAMSON,2020-70461,"Single Family Homes",1/20/2021,,224288,2608,"410 THUNDER VALLEY TRL",GEORGETOWN,TX,78628,,,CONTRACTOR,,,,,,,,,,,"KB HOME",,,,,"KB HOME","10800 PECAN PARK BLVD STE 200",AUSTIN,TX,78750-1249,"(512) 651-8100",,,,
TX,WILLIAMSON,2020-70463,"Single Family Homes",1/14/2021,,325990,3467,"600 DOUBLE LOOP ST",GEORGETOWN,TX,78628,"SUN CITY NEIGHBORHOOD",,CONTRACTOR,,,,,,,,,,,"PULTE HOMES",,,,,"PULTE HOMES","9401 AMBERGLEN BLVD STE I-150",AUSTIN,TX,78729-1154,"(512) 561-4344",,,,
TX,WILLIAMSON,2020-70464,"Single Family Homes",1/14/2021,,398990,10364,"201 IRON RAIL LN",GEORGETOWN,TX,78628,"SUN CITY",,CONTRACTOR,,,,,,,,,,,"PULTE HOMES",,,,,"PULTE HOMES","9401 AMBERGLEN BLVD STE I-150",AUSTIN,TX,78729-1154,"(512) 561-4344",,,,
TX,WILLIAMSON,2020-70469,"Single Family Homes",1/14/2021,,425990,4060,"102 IRON RAIL LN",GEORGETOWN,TX,78628,"SUN CITY",,CONTRACTOR,,,,,,,,,,,"PULTE HOMES",,,,,"PULTE HOMES","9401 AMBERGLEN BLVD STE I-150",AUSTIN,TX,78729-1154,"(512) 561-4344",,,,
TX,WILLIAMSON,2020-70485,"Single Family Homes",1/5/2021,,161280,2304,"1252 WHIPPLETREE TRL",GEORGETOWN,TX,78628,SADDLECREEK,,CONTRACTOR,,,,,,,,,,,"CASTLEROCK COMMUNITIES",,,,,"CASTLEROCK COMMUNITIES","7670 WOODWAY DR STE 300",HOUSTON,TX,77063-1520,"(713) 600-7000",http://c-rock.com,"(713) 600-0000",,
TX,WILLIAMSON,2020-70487,"Single Family Homes",1/8/2021,,161280,2304,"1240 WHIPPLETREE TRL",GEORGETOWN,TX,78628,SADDLECREEK,,CONTRACTOR,,,,,,,,,,,"CASTLEROCK COMMUNITIES",,,,,"CASTLEROCK COMMUNITIES","7670 WOODWAY DR STE 300",HOUSTON,TX,77063-1520,"(713) 600-7000",http://c-rock.com,"(713) 600-0000",,
TX,WILLIAMSON,2020-70489,"Single Family Homes",1/12/2021,,281040,2342,"2008 CHAMBERLIN TRL",GEORGETOWN,TX,78628,"VISTA POINTE",,CONTRACTOR,,,,,,,,,,,"MERITAGE HOMES",,,,,"MERITAGE HOMES","8920 BUSINESS PARK DR STE 250",AUSTIN,TX,78759-7622,"(512) 610-4800",,,,
TX,WILLIAMSON,2020-70490,"Single Family Homes",1/12/2021,,425760,3548,"2013 CHAMBERLIN TRL",GEORGETOWN,TX,78628,"VISTA POINTE",,CONTRACTOR,,,,,,,,,,,"MERITAGE HOMES",,,,,"MERITAGE HOMES","8920 BUSINESS PARK DR STE 250",AUSTIN,TX,78759-7622,"(512) 610-4800",,,,
TX,WILLIAMSON,2020-70491,"Single Family Homes",1/14/2021,,458160,3818,"1309 HIGHWATER DR",GEORGETOWN,TX,78628,,,CONTRACTOR,,,,,,,,,,,"MERITAGE HOMES",,,,,"MERITAGE HOMES","8920 BUSINESS PARK DR STE 250",AUSTIN,TX,78759-7622,"(512) 610-4800",,,,
TX,WILLIAMSON,2020-70494,"Single Family Homes",1/12/2021,,96915,1047,"108 AKELA WAY",GEORGETOWN,TX,78628,"RIVER HILLS",,CONTRACTOR,,,,,,,,,,,"LENNAR HOMES",,,,,"LENNAR HOMES","13620 FM 620 RD 150",AUSTIN,TX,78717,"(512) 506-4000",http://www.lennar.com/,,,
TX,WILLIAMSON,2020-70496,"Single Family Homes",1/14/2021,,322920,2691,"2113 PRAIRIE OAKS DR",GEORGETOWN,TX,78628,,,CONTRACTOR,,,,,,,,,,,"MERITAGE HOMES",,,,,"MERITAGE HOMES","8920 BUSINESS PARK DR STE 250",AUSTIN,TX,78759-7622,"(512) 610-4800",,,,
TX,WILLIAMSON,2020-70517,"Single Family Homes",1/25/2021,,288530,3355,"716 SHINER LN",GEORGETOWN,TX,78628,FAIRHAVEN,,CONTRACTOR,,,,,,,,,,,"DR HORTON",,,,,"DR HORTON","10700 PECAN PARK BLVD STE 400",AUSTIN,TX,78750-1227,"(512) 345-4663",,,,
TX,WILLIAMSON,2020-70518,"Single Family Homes",1/14/2021,,254130,2955,"685 OTTO AVE",GEORGETOWN,TX,78628,,,CONTRACTOR,,,,,,,,,,,"DR HORTON",,,,,"DR HORTON","10700 PECAN PARK BLVD STE 400",AUSTIN,TX,78750-1227,"(512) 345-4663",,,,
TX,WILLIAMSON,2020-70519,"Single Family Homes",1/14/2021,,202358,2353,"400 GALWAY BAY LN",GEORGETOWN,TX,78628,WESTHAVEN,,CONTRACTOR,,,,,,,,,,,"DR HORTON",,,,,"DR HORTON","10700 PECAN PARK BLVD STE 400",AUSTIN,TX,78750-1227,"(512) 345-4663",,,,
TX,WILLIAMSON,2020-70521,"Single Family Homes",1/13/2021,,108290,1217,"104 AKELA WAY",GEORGETOWN,TX,78628,,,CONTRACTOR,,,,,,,,,,,"LENNAR HOMES",,,,,"LENNAR HOMES","13620 FM 620 RD 150",AUSTIN,TX,78717,"(512) 506-4000",http://www.lennar.com/,,,
TX,WILLIAMSON,2020-70525,"Single Family Homes",1/13/2021,,162675,2169,"120 KONIK RD",GEORGETOWN,TX,78628,SADDLECREEK,,CONTRACTOR,,,,,,,,,,,"LENNAR HOMES",,,,,"LENNAR HOMES","13620 FM 620 RD 150",AUSTIN,TX,78717,"(512) 506-4000",http://www.lennar.com/,,,
TX,WILLIAMSON,2020-70539,"Single Family Homes",1/19/2021,,108290,1217,"208 GABRIELS BLUFF DR",GEORGETOWN,TX,78628,"RIVER HILLS",,CONTRACTOR,,,,,,,,,,,"LENNAR HOMES",,,,,"LENNAR HOMES","13620 FM 620 RD 150",AUSTIN,TX,78717,"(512) 506-4000",http://www.lennar.com/,,,
TX,WILLIAMSON,2020-70582,"Single Family Homes",1/7/2021,,244990,2248,"2220 CLIFFBRAKE WAY",GEORGETOWN,TX,78628,,,CONTRACTOR,,,,,,,,,,,"PULTE HOMES",,,,,"PULTE HOMES","9401 AMBERGLEN BLVD STE I-150",AUSTIN,TX,78729-1154,"(512) 561-4344",,,,
TX,WILLIAMSON,2020-70583,"Single Family Homes",1/8/2021,,252990,2590,"616 ENGLISH OAK ST",GEORGETOWN,TX,78628,,,CONTRACTOR,,,,,,,,,,,"PULTE HOMES",,,,,"PULTE HOMES","9401 AMBERGLEN BLVD STE I-150",AUSTIN,TX,78729-1154,"(512) 561-4344",,,,
TX,WILLIAMSON,2020-70584,"Single Family Homes",1/7/2021,,244990,2247,"612 ENGLISH OAK ST",GEORGETOWN,TX,78628,,,CONTRACTOR,,,,,,,,,,,"PULTE HOMES",,,,,"PULTE HOMES","9401 AMBERGLEN BLVD STE I-150",AUSTIN,TX,78729-1154,"(512) 561-4344",,,,
TX,WILLIAMSON,2020-70585,"Single Family Homes",1/14/2021,,268990,3163,"2300 CLIFFBRAKE WAY",GEORGETOWN,TX,78628,,,CONTRACTOR,,,,,,,,,,,"PULTE HOMES",,,,,"PULTE HOMES","9401 AMBERGLEN BLVD STE I-150",AUSTIN,TX,78729-1154,"(512) 561-4344",,,,
TX,WILLIAMSON,2020-70587,"Single Family Homes",1/7/2021,,244990,2248,"512 ENGLISH OAK ST",GEORGETOWN,TX,78628,"CARLSON PLACE",,CONTRACTOR,,,,,,,,,,,"PULTE HOMES",,,,,"PULTE HOMES","9401 AMBERGLEN BLVD STE I-150",AUSTIN,TX,78729-1154,"(512) 561-4344",,,,
TX,WILLIAMSON,2020-70589,"Single Family Homes",1/7/2021,,236990,2065,"520 ENGLISH OAK ST",GEORGETOWN,TX,78628,"CARLSON PLACE",,CONTRACTOR,,,,,,,,,,,"PULTE HOMES",,,,,"PULTE HOMES","9401 AMBERGLEN BLVD STE I-150",AUSTIN,TX,78729-1154,"(512) 561-4344",,,,
TX,WILLIAMSON,2020-70598,"Single Family Homes",1/14/2021,,255190,2636,"600 ENGLISH OAK ST",GEORGETOWN,TX,78628,"CARLSON PLACE",,CONTRACTOR,,,,,,,,,,,"PULTE HOMES",,,,,"PULTE HOMES","9401 AMBERGLEN BLVD STE I-150",AUSTIN,TX,78729-1154,"(512) 561-4344",,,,
TX,WILLIAMSON,2020-70599,"Single Family Homes",1/22/2021,,117910,1814,"144 CHERRY RIDGE RD",GEORGETOWN,TX,78628,"WOLF RANCH",,CONTRACTOR,,,,,,,,,,,"LENNAR HOMES",,,,,"LENNAR HOMES","13620 FM 620 RD 150",AUSTIN,TX,78717,"(512) 506-4000",http://www.lennar.com/,,,
TX,WILLIAMSON,2020-70600,"Single Family Homes",1/14/2021,,268990,2636,"604 ENGLISH OAK ST",GEORGETOWN,TX,78628,,,CONTRACTOR,,,,,,,,,,,"PULTE HOMES",,,,,"PULTE HOMES","9401 AMBERGLEN BLVD STE I-150",AUSTIN,TX,78729-1154,"(512) 561-4344",,,,
TX,WILLIAMSON,2020-70601,"Single Family Homes",1/14/2021,,252990,1958,"2308 CLIFFBRAKE WAY",GEORGETOWN,TX,78628,,,CONTRACTOR,,,,,,,,,,,"PULTE HOMES",,,,,"PULTE HOMES","9401 AMBERGLEN BLVD STE I-150",AUSTIN,TX,78729-1154,"(512) 561-4344",,,,
TX,WILLIAMSON,2020-70602,"Single Family Homes",1/14/2021,,258990,2257,"2328 CLIFFBRAKE WAY",GEORGETOWN,TX,78628,,,CONTRACTOR,,,,,,,,,,,"PULTE HOMES",,,,,"PULTE HOMES","9401 AMBERGLEN BLVD STE I-150",AUSTIN,TX,78729-1154,"(512) 561-4344",,,,
TX,WILLIAMSON,2020-70607,"Single Family Homes",1/14/2021,,268990,3142,"2324 CLIFFBRAKE WAY",GEORGETOWN,TX,78628,"CARLSON PLACE",,CONTRACTOR,,,,,,,,,,,"PULTE HOMES",,,,,"PULTE HOMES","9401 AMBERGLEN BLVD STE I-150",AUSTIN,TX,78729-1154,"(512) 561-4344",,,,
TX,WILLIAMSON,2020-70608,"Single Family Homes",1/14/2021,,252990,2590,"2304 CLIFFBRAKE WAY",GEORGETOWN,TX,78628,,,CONTRACTOR,,,,,,,,,,,"PULTE HOMES",,,,,"PULTE HOMES","9401 AMBERGLEN BLVD STE I-150",AUSTIN,TX,78729-1154,"(512) 561-4344",,,,
TX,WILLIAMSON,2020-70613,"Single Family Homes",1/14/2021,,252990,2590,"2321 CLIFFBRAKE WAY",GEORGETOWN,TX,78628,,,CONTRACTOR,,,,,,,,,,,"PULTE HOMES",,,,,"PULTE HOMES","9401 AMBERGLEN BLVD STE I-150",AUSTIN,TX,78729-1154,"(512) 561-4344",,,,
TX,WILLIAMSON,2020-70614,"Single Family Homes",1/14/2021,,243190,2209,"516 ENGLISH OAK ST",GEORGETOWN,TX,78628,"CARLSON PLACE",,CONTRACTOR,,,,,,,,,,,"PULTE HOMES",,,,,"PULTE HOMES","9401 AMBERGLEN BLVD STE I-150",AUSTIN,TX,78729-1154,"(512) 561-4344",,,,
TX,WILLIAMSON,2020-70615,"Single Family Homes",1/14/2021,,255290,2647,"2312 CLIFFBRAKE WAY",GEORGETOWN,TX,78628,,,CONTRACTOR,,,,,,,,,,,"PULTE HOMES",,,,,"PULTE HOMES","9401 AMBERGLEN BLVD STE I-150",AUSTIN,TX,78729-1154,"(512) 561-4344",,,,
TX,WILLIAMSON,2020-70617,"Single Family Homes",1/14/2021,,244670,2845,"224 MAIS DR",GEORGETOWN,TX,78628,,,CONTRACTOR,,,,,,,,,,,"DR HORTON",,,,,"DR HORTON","10700 PECAN PARK BLVD STE 400",AUSTIN,TX,78750-1227,"(512) 345-4663",,,,
TX,WILLIAMSON,2020-70620,"Single Family Homes",1/14/2021,,268148,3118,"220 MAIS DR",GEORGETOWN,TX,78628,,,CONTRACTOR,,,,,,,,,,,"DR HORTON",,,,,"DR HORTON","10700 PECAN PARK BLVD STE 400",AUSTIN,TX,78750-1227,"(512) 345-4663",,,,
TX,WILLIAMSON,2020-70622,"Single Family Homes",1/14/2021,,208034,2419,"216 MAIS DR",GEORGETOWN,TX,78628,,,CONTRACTOR,,,,,,,,,,,"DR HORTON",,,,,"DR HORTON","10700 PECAN PARK BLVD STE 400",AUSTIN,TX,78750-1227,"(512) 345-4663",,,,
TX,WILLIAMSON,2020-70623,"Single Family Homes",1/14/2021,,244154,2839,"212 MAIS DR",GEORGETOWN,TX,78628,,,CONTRACTOR,,,,,,,,,,,"DR HORTON",,,,,"DR HORTON","10700 PECAN PARK BLVD STE 400",AUSTIN,TX,78750-1227,"(512) 345-4663",,,,
TX,WILLIAMSON,2020-70624,"Single Family Homes",1/14/2021,,268148,3118,"208 MAIS DR",GEORGETOWN,TX,78628,,,CONTRACTOR,,,,,,,,,,,"DR HORTON",,,,,"DR HORTON","10700 PECAN PARK BLVD STE 400",AUSTIN,TX,78750-1227,"(512) 345-4663",,,,
TX,WILLIAMSON,2020-70626,"Single Family Homes",1/25/2021,,208034,2419,"204 MAIS DR",GEORGETOWN,TX,78628,,,CONTRACTOR,,,,,,,,,,,"DR HORTON",,,,,"DR HORTON","10700 PECAN PARK BLVD STE 400",AUSTIN,TX,78750-1227,"(512) 345-4663",,,,
TX,WILLIAMSON,2020-70627,"Single Family Homes",1/25/2021,,244670,2845,"200 MAIS DR",GEORGETOWN,TX,78628,FAIRHAVEN,,CONTRACTOR,,,,,,,,,,,"DR HORTON",,,,,"DR HORTON","10700 PECAN PARK BLVD STE 400",AUSTIN,TX,78750-1227,"(512) 345-4663",,,,
TX,WILLIAMSON,2020-70629,"Single Family Homes",1/14/2021,,230136,2676,"704 SHINER LN",GEORGETOWN,TX,78628,,,CONTRACTOR,,,,,,,,,,,"DR HORTON",,,,,"DR HORTON","10700 PECAN PARK BLVD STE 400",AUSTIN,TX,78750-1227,"(512) 345-4663",,,,
TX,WILLIAMSON,2020-70630,"Single Family Homes",1/14/2021,,241316,2806,"708 SHINER LN",GEORGETOWN,TX,78628,,,CONTRACTOR,,,,,,,,,,,"DR HORTON",,,,,"DR HORTON","10700 PECAN PARK BLVD STE 400",AUSTIN,TX,78750-1227,"(512) 345-4663",,,,
TX,WILLIAMSON,2020-70633,"Single Family Homes",1/14/2021,,273050,3175,"712 SHINER LN",GEORGETOWN,TX,78628,,,CONTRACTOR,,,,,,,,,,,"DR HORTON",,,,,"DR HORTON","10700 PECAN PARK BLVD STE 400",AUSTIN,TX,78750-1227,"(512) 345-4663",,,,
TX,WILLIAMSON,2020-70637,"Single Family Homes",1/14/2021,,208034,2419,"1252 VOGEL DR",GEORGETOWN,TX,78628,,,CONTRACTOR,,,,,,,,,,,"DR HORTON",,,,,"DR HORTON","10700 PECAN PARK BLVD STE 400",AUSTIN,TX,78750-1227,"(512) 345-4663",,,,
TX,WILLIAMSON,2020-70660,"Single Family Homes",1/25/2021,,213194,2479,"1020 BEAR TRACK LOOP",GEORGETOWN,TX,78628,RIVERVIEW,,CONTRACTOR,,,,,,,,,,,"DR HORTON",,,,,"DR HORTON","10700 PECAN PARK BLVD STE 400",AUSTIN,TX,78750-1227,"(512) 345-4663",,,,
TX,WILLIAMSON,2020-70668,"Single Family Homes",1/20/2021,,153650,2195,"549 WARLANDER WAY",GEORGETOWN,TX,78628,SADDLECREEK,,CONTRACTOR,,,,,,,,,,,"CASTLEROCK COMMUNITIES",,,,,"CASTLEROCK COMMUNITIES","7670 WOODWAY DR STE 300",HOUSTON,TX,77063-1520,"(713) 600-7000",http://c-rock.com,"(713) 600-0000",,
TX,WILLIAMSON,2020-70672,"Single Family Homes",1/21/2021,,424645,2629,"244 ARROWHEAD MOUND RD",GEORGETOWN,TX,78628,"WOLF RANCH",,CONTRACTOR,,,,,,,,,,,"HIGHLAND HOMES",,,,,"HIGHLAND HOMES","4201 W PARMER LN STE B180",AUSTIN,TX,78727-4110,"(512) 834-8429",,,,
TX,WILLIAMSON,2020-70681,"Single Family Homes",1/28/2021,,325990,2925,"623 WOODEN RAIL LN",GEORGETOWN,TX,78628,"SUN CITY",,CONTRACTOR,,,,,,,,,,,"PULTE HOMES",,,,,"PULTE HOMES","9401 AMBERGLEN BLVD STE I-150",AUSTIN,TX,78729-1154,"(512) 561-4344",,,,
TX,WILLIAMSON,2021-70676,"Single Family Homes",1/26/2021,,325990,3470,"116 SPANISH STAR ST",GEORGETOWN,TX,78628,"SUN CITY NEIGHBORHOOD",,CONTRACTOR,,,,,,,,,,,"PULTE HOMES",,,,,"PULTE HOMES","9401 AMBERGLEN BLVD STE I-150",AUSTIN,TX,78729-1154,"(512) 561-4344",,,,
TX,WILLIAMSON,2021-70678,"Single Family Homes",1/26/2021,,32990,2849,"124 SPANISH STAR ST",GEORGETOWN,TX,78628,"SUN CITY NEIGHBORHOOD",,CONTRACTOR,,,,,,,,,,,"PULTE HOMES",,,,,"PULTE HOMES","9401 AMBERGLEN BLVD STE I-150",AUSTIN,TX,78729-1154,"(512) 561-4344",,,,
TX,WILLIAMSON,2021-70679,"Single Family Homes",1/26/2021,,336990,3018,"808 HANGING STAR LN",GEORGETOWN,TX,78628,"SUN CITY NEIGHBORHOOD",,CONTRACTOR,,,,,,,,,,,"PULTE HOMES",,,,,"PULTE HOMES","9401 AMBERGLEN BLVD STE I-150",AUSTIN,TX,78729-1154,"(512) 561-4344",,,,
TX,WILLIAMSON,2021-70702,"Single Family Homes",1/28/2021,,411105,3041,"105 ARROWHEAD MOUND RD",GEORGETOWN,TX,78628,"WOLF RANCH",,CONTRACTOR,,,,,,,,,,,"HIGHLAND HOMES",,,,,"HIGHLAND HOMES","4201 W PARMER LN STE B180",AUSTIN,TX,78727-4110,"(512) 834-8429",,,,
TX,WILLIAMSON,2021-70704,"Single Family Homes",1/14/2021,,244990,2202,"608 ENGLISH OAK ST",GEORGETOWN,TX,78628,,,CONTRACTOR,,,,,,,,,,,"PULTE HOMES",,,,,"PULTE HOMES","9401 AMBERGLEN BLVD STE I-150",AUSTIN,TX,78729-1154,"(512) 561-4344",,,,
TX,WILLIAMSON,2021-70707,"Single Family Homes",1/26/2021,,252490,2066,"133 BRACKEN FERN LN",GEORGETOWN,TX,78628,"CARLSON PLACE",,CONTRACTOR,,,,,,,,,,,"PULTE HOMES",,,,,"PULTE HOMES","9401 AMBERGLEN BLVD STE I-150",AUSTIN,TX,78729-1154,"(512) 561-4344",,,,
TX,WILLIAMSON,2021-70713,"Single Family Homes",1/20/2021,,203910,2913,"1304 WHIPPLETREE TRL",GEORGETOWN,TX,78628,,,CONTRACTOR,,,,,,,,,,,"CASTLEROCK COMMUNITIES",,,,,"CASTLEROCK COMMUNITIES","7670 WOODWAY DR STE 300",HOUSTON,TX,77063-1520,"(713) 600-7000",http://c-rock.com,"(713) 600-0000",,
TX,WILLIAMSON,2021-70747,"Single Family Homes",1/20/2021,,273990,2123,"111 DEDINA DR",GEORGETOWN,TX,78628,SADDLECREEK,,CONTRACTOR,,,,,,,,,,,"CHESMAR HOMES",,,,,"CHESMAR HOMES","2900 N QUINLAN PARK RD",AUSTIN,TX,78732-6083,"(512) 233-9016",http://chesmar.com,,,
TX,WILLIAMSON,2021-70754,"Single Family Homes",1/27/2021,,454990,3522,"1208 SCENIC OAKS DR",GEORGETOWN,TX,78628,"HIDDEN OAKS AT BERRY CREEK",,CONTRACTOR,,,,,,,,,,,"GEHAN HOMES",,,,,"GEHAN HOMES","3815 S CAPITAL OF TEXAS HWY STE 275",AUSTIN,TX,78704-6652,"(512) 330-9366",http://www.gehanhomes.com,,"JANET PHILLIPS",
TX,WILLIAMSON,2021-70774,"Single Family Homes",1/20/2021,,300110,2273,"1012 PADDOCK LN",GEORGETOWN,TX,78628,SADDLECREEK,,CONTRACTOR,,,,,,,,,,,"CHESMAR HOMES",,,,,"CHESMAR HOMES","2900 N QUINLAN PARK RD",AUSTIN,TX,78732-6083,"(512) 233-9016",http://chesmar.com,,,
TX,WILLIAMSON,2021-70776,"Single Family Homes",1/20/2021,,306990,2703,"110 DEDINA DR",GEORGETOWN,TX,78628,SADDLECREEK,,CONTRACTOR,,,,,,,,,,,"CHESMAR HOMES",,,,,"CHESMAR HOMES","2900 N QUINLAN PARK RD",AUSTIN,TX,78732-6083,"(512) 233-9016",http://chesmar.com,,,
TX,WILLIAMSON,2021-70777,"Single Family Homes",1/20/2021,,315950,2677,"1004 PADDOCK LN",GEORGETOWN,TX,78628,SADDLECREEK,,CONTRACTOR,,,,,,,,,,,"CHESMAR HOMES",,,,,"CHESMAR HOMES","2900 N QUINLAN PARK RD",AUSTIN,TX,78732-6083,"(512) 233-9016",http://chesmar.com,,,
TX,WILLIAMSON,2021-70784,"Single Family Homes",1/20/2021,,448901,2957,"156 HIGH PLAINS DR",GEORGETOWN,TX,78628,"WATER OAK",,CONTRACTOR,,,,,,,,,,,"CHESMAR HOMES",,,,,"CHESMAR HOMES","2900 N QUINLAN PARK RD",AUSTIN,TX,78732-6083,"(512) 233-9016",http://chesmar.com,,,
TX,WILLIAMSON,2021-70785,"Single Family Homes",1/14/2021,,304990,2430,"109 CORN POPPY CV",GEORGETOWN,TX,78628,"HIDDEN OAK",,CONTRACTOR,,,,,,,,,,,"PULTE HOMES",,,,,"PULTE HOMES","9401 AMBERGLEN BLVD STE I-150",AUSTIN,TX,78729-1154,"(512) 561-4344",,,,
TX,WILLIAMSON,2021-70787,"Single Family Homes",1/26/2021,,388786,3447,"1936 LAKESIDE RANCH RD",GEORGETOWN,TX,78628,LAKESIDE,,CONTRACTOR,,,,,,,,,,,"EHT OF TEXAS LP",,,,,"EHT OF TEXAS LP","3520 EXECUTIVE CENTER DR STE 100",AUSTIN,TX,78731-1636,"(757) 287-6394",,,,
TX,WILLIAMSON,2021-70790,"Single Family Homes",1/14/2021,,238190,2050,"2316 CLIFFBRAKE WAY",GEORGETOWN,TX,78628,,,CONTRACTOR,,,,,,,,,,,"PULTE HOMES",,,,,"PULTE HOMES","9401 AMBERGLEN BLVD STE I-150",AUSTIN,TX,78729-1154,"(512) 561-4344",,,,
TX,WILLIAMSON,2021-70791,"Single Family Homes",1/26/2021,,255190,2636,"2325 CLIFFBRAKE WAY",GEORGETOWN,TX,78628,,,CONTRACTOR,,,,,,,,,,,"PULTE HOMES",,,,,"PULTE HOMES","9401 AMBERGLEN BLVD STE I-150",AUSTIN,TX,78729-1154,"(512) 561-4344",,,,
TX,WILLIAMSON,2021-70792,"Single Family Homes",1/26/2021,,228190,1771,"2313 CLIFFBRAKE WAY",GEORGETOWN,TX,78628,"CARLSON PLACE",,CONTRACTOR,,,,,,,,,,,"PULTE HOMES",,,,,"PULTE HOMES","9401 AMBERGLEN BLVD STE I-150",AUSTIN,TX,78729-1154,"(512) 561-4344",,,,
TX,WILLIAMSON,2021-70793,"Single Family Homes",1/14/2021,,255190,2598,"2340 CLIFFBRAKE WAY",GEORGETOWN,TX,78628,,,CONTRACTOR,,,,,,,,,,,"PULTE HOMES",,,,,"PULTE HOMES","9401 AMBERGLEN BLVD STE I-150",AUSTIN,TX,78729-1154,"(512) 561-4344",,,,
TX,WILLIAMSON,2021-70794,"Single Family Homes",1/26/2021,,255190,2588,"2336 CLIFFBRAKE WAY",GEORGETOWN,TX,78628,,,CONTRACTOR,,,,,,,,,,,"PULTE HOMES",,,,,"PULTE HOMES","9401 AMBERGLEN BLVD STE I-150",AUSTIN,TX,78729-1154,"(512) 561-4344",,,,
TX,WILLIAMSON,2021-70795,"Single Family Homes",1/26/2021,,238190,2065,"2320 CLIFFBRAKE WAY",GEORGETOWN,TX,78628,"CARLSON PLACE",,CONTRACTOR,,,,,,,,,,,"PULTE HOMES",,,,,"PULTE HOMES","9401 AMBERGLEN BLVD STE I-150",AUSTIN,TX,78729-1154,"(512) 561-4344",,,,
TX,WILLIAMSON,2021-70796,"Single Family Homes",1/26/2021,,243190,2209,"2400 CLIFFBRAKE WAY",GEORGETOWN,TX,78628,"CARLSON PLACE",,CONTRACTOR,,,,,,,,,,,"PULTE HOMES",,,,,"PULTE HOMES","9401 AMBERGLEN BLVD STE I-150",AUSTIN,TX,78729-1154,"(512) 561-4344",,,,
TX,WILLIAMSON,2021-70797,"Single Family Homes",1/26/2021,,238190,2065,"2309 CLIFFBRAKE WAY",GEORGETOWN,TX,78628,,,CONTRACTOR,,,,,,,,,,,"PULTE HOMES",,,,,"PULTE HOMES","9401 AMBERGLEN BLVD STE I-150",AUSTIN,TX,78729-1154,"(512) 561-4344",,,,
TX,WILLIAMSON,2021-70803,"Single Family Homes",1/15/2021,,187875,2505,"124 KONIK RD",GEORGETOWN,TX,78628,SADDLECREEK,,CONTRACTOR,,,,,,,,,,,"LENNAR HOMES",,,,,"LENNAR HOMES","13620 FM 620 RD 150",AUSTIN,TX,78717,"(512) 506-4000",http://www.lennar.com/,,,
TX,WILLIAMSON,2021-70804,"Single Family Homes",1/26/2021,,269490,2661,"2329 CLIFFBRAKE WAY",GEORGETOWN,TX,78628,,,CONTRACTOR,,,,,,,,,,,"PULTE HOMES",,,,,"PULTE HOMES","9401 AMBERGLEN BLVD STE I-150",AUSTIN,TX,78729-1154,"(512) 561-4344",,,,
TX,WILLIAMSON,2021-70806,"Single Family Homes",1/26/2021,,262490,2501,"112 BRACKEN FERN LN",GEORGETOWN,TX,78628,"CARLSON PLACE",,CONTRACTOR,,,,,,,,,,,"PULTE HOMES",,,,,"PULTE HOMES","9401 AMBERGLEN BLVD STE I-150",AUSTIN,TX,78729-1154,"(512) 561-4344",,,,
TX,WILLIAMSON,2021-70807,"Single Family Homes",1/29/2021,,350000,2070,"804 HEDGEWOOD DR",GEORGETOWN,TX,78628,BRIARWOOD,,CONTRACTOR,,,,,,,,,,,"DESTINY BUILDERS",,,,,"DESTINY BUILDERS","407 HIGHLAND SPRINGS LN",GEORGETOWN,TX,78633-1994,"(512) 818-4169",http://destinybuildersinc.com/,,,
TX,WILLIAMSON,2021-70808,"Single Family Homes",1/26/2021,,262490,2434,"109 BRACKEN FERN LN",GEORGETOWN,TX,78628,"CARLSON PLACE",,CONTRACTOR,,,,,,,,,,,"PULTE HOMES",,,,,"PULTE HOMES","9401 AMBERGLEN BLVD STE I-150",AUSTIN,TX,78729-1154,"(512) 561-4344",,,,
TX,WILLIAMSON,2021-70809,"Single Family Homes",1/26/2021,,252490,2065,"108 BRACKEN FERN LN",GEORGETOWN,TX,78628,,,CONTRACTOR,,,,,,,,,,,"PULTE HOMES",,,,,"PULTE HOMES","9401 AMBERGLEN BLVD STE I-150",AUSTIN,TX,78729-1154,"(512) 561-4344",,,,
TX,WILLIAMSON,2021-70810,"Single Family Homes",1/26/2021,,268490,2596,"125 BRACKEN FERN LN",GEORGETOWN,TX,78628,"CARLSON PLACE",,CONTRACTOR,,,,,,,,,,,"PULTE HOMES",,,,,"PULTE HOMES","9401 AMBERGLEN BLVD STE I-150",AUSTIN,TX,78729-1154,"(512) 561-4344",,,,
TX,WILLIAMSON,2021-70811,"Single Family Homes",1/26/2021,,252490,2050,"129 BRACKEN FERN LN",GEORGETOWN,TX,78628,"CARLSON PLACE",,CONTRACTOR,,,,,,,,,,,"PULTE HOMES",,,,,"PULTE HOMES","9401 AMBERGLEN BLVD STE I-150",AUSTIN,TX,78729-1154,"(512) 561-4344",,,,
TX,WILLIAMSON,2021-70815,"Single Family Homes",1/15/2021,,387075,2689,"116 HIGH PLAINS DR",GEORGETOWN,TX,78628,"WATER OAK",,CONTRACTOR,,,,,,,,,,,"CHESMAR HOMES",,,,,"CHESMAR HOMES","2900 N QUINLAN PARK RD",AUSTIN,TX,78732-6083,"(512) 233-9016",http://chesmar.com,,,
TX,WILLIAMSON,2021-70823,"Single Family Homes",1/15/2021,,346860,2522,"120 UPLAND DR",GEORGETOWN,TX,78628,,,CONTRACTOR,,,,,,,,,,,"CHESMAR HOMES",,,,,"CHESMAR HOMES","2900 N QUINLAN PARK RD",AUSTIN,TX,78732-6083,"(512) 233-9016",http://chesmar.com,,,
TX,WILLIAMSON,2021-70824,"Single Family Homes",1/28/2021,,511990,4033,"1404 SCENIC OAKS DR",GEORGETOWN,TX,78628,"HIDDEN OAKS AT BERRY CREEK",,CONTRACTOR,,,,,,,,,,,"GEHAN HOMES",,,,,"GEHAN HOMES","3815 S CAPITAL OF TEXAS HWY STE 275",AUSTIN,TX,78704-6652,"(512) 330-9366",http://www.gehanhomes.com,,"JANET PHILLIPS",
TX,WILLIAMSON,2021-70832,"Single Family Homes",1/26/2021,,31990,2673,"123 SPANISH STAR ST",GEORGETOWN,TX,78628,"SUN CITY NEIGHBORHOOD",,CONTRACTOR,,,,,,,,,,,"PULTE HOMES",,,,,"PULTE HOMES","9401 AMBERGLEN BLVD STE I-150",AUSTIN,TX,78729-1154,"(512) 561-4344",,,,
TX,WILLIAMSON,2021-70838,"Single Family Homes",1/14/2021,,167356,1946,"124 MAIS DR",GEORGETOWN,TX,78628,FAIRHAVEN,,CONTRACTOR,,,,,,,,,,,"DR HORTON",,,,,"DR HORTON","10700 PECAN PARK BLVD STE 400",AUSTIN,TX,78750-1227,"(512) 345-4663",,,,
TX,WILLIAMSON,2021-70839,"Single Family Homes",1/14/2021,,179654,2089,"209 MAIS DR",GEORGETOWN,TX,78628,FAIRHAVEN,,CONTRACTOR,,,,,,,,,,,"DR HORTON",,,,,"DR HORTON","10700 PECAN PARK BLVD STE 400",AUSTIN,TX,78750-1227,"(512) 345-4663",,,,
TX,WILLIAMSON,2021-70840,"Single Family Homes",1/14/2021,,180342,2097,"205 MAIS DR",GEORGETOWN,TX,78628,FAIRHAVEN,,CONTRACTOR,,,,,,,,,,,"DR HORTON",,,,,"DR HORTON","10700 PECAN PARK BLVD STE 400",AUSTIN,TX,78750-1227,"(512) 345-4663",,,,
TX,WILLIAMSON,2021-70841,"Single Family Homes",1/14/2021,,167356,1946,"201 MAIS DR",GEORGETOWN,TX,78628,FAIRHAVEN,,CONTRACTOR,,,,,,,,,,,"DR HORTON",,,,,"DR HORTON","10700 PECAN PARK BLVD STE 400",AUSTIN,TX,78750-1227,"(512) 345-4663",,,,
TX,WILLIAMSON,2021-70842,"Single Family Homes",1/14/2021,,166066,1931,"120 MAIS DR",GEORGETOWN,TX,78628,,,CONTRACTOR,,,,,,,,,,,"DR HORTON",,,,,"DR HORTON","10700 PECAN PARK BLVD STE 400",AUSTIN,TX,78750-1227,"(512) 345-4663",,,,
TX,WILLIAMSON,2021-70846,"Single Family Homes",1/14/2021,,166066,1931,"116 MAIS DR",GEORGETOWN,TX,78628,FAIRHAVEN,,CONTRACTOR,,,,,,,,,,,"DR HORTON",,,,,"DR HORTON","10700 PECAN PARK BLVD STE 400",AUSTIN,TX,78750-1227,"(512) 345-4663",,,,
TX,WILLIAMSON,2021-70847,"Single Family Homes",1/14/2021,,268148,3118,"109 ELLINGER RD",GEORGETOWN,TX,78628,FAIRHAVEN,,CONTRACTOR,,,,,,,,,,,"DR HORTON",,,,,"DR HORTON","10700 PECAN PARK BLVD STE 400",AUSTIN,TX,78750-1227,"(512) 345-4663",,,,
TX,WILLIAMSON,2021-70848,"Single Family Homes",1/14/2021,,166066,1931,"105 ELLINGER RD",GEORGETOWN,TX,78628,FAIRHAVEN,,CONTRACTOR,,,,,,,,,,,"DR HORTON",,,,,"DR HORTON","10700 PECAN PARK BLVD STE 400",AUSTIN,TX,78750-1227,"(512) 345-4663",,,,
TX,WILLIAMSON,2021-70849,"Single Family Homes",1/14/2021,,268148,3118,"101 ELLINGER RD",GEORGETOWN,TX,78628,FAIRHAVEN,,CONTRACTOR,,,,,,,,,,,"DR HORTON",,,,,"DR HORTON","10700 PECAN PARK BLVD STE 400",AUSTIN,TX,78750-1227,"(512) 345-4663",,,,
TX,WILLIAMSON,2021-70851,"Single Family Homes",1/14/2021,,180342,2097,"108 ELLINGER RD",GEORGETOWN,TX,78628,,,CONTRACTOR,,,,,,,,,,,"DR HORTON",,,,,"DR HORTON","10700 PECAN PARK BLVD STE 400",AUSTIN,TX,78750-1227,"(512) 345-4663",,,,
TX,WILLIAMSON,2021-70852,"Single Family Homes",1/14/2021,,167356,1946,"112 ELLINGER RD",GEORGETOWN,TX,78628,FAIRHAVEN,,CONTRACTOR,,,,,,,,,,,"DR HORTON",,,,,"DR HORTON","10700 PECAN PARK BLVD STE 400",AUSTIN,TX,78750-1227,"(512) 345-4663",,,,
TX,WILLIAMSON,2021-70853,"Single Family Homes",1/14/2021,,244670,2845,"116 ELLINGER RD",GEORGETOWN,TX,78628,FAIRHAVEN,,CONTRACTOR,,,,,,,,,,,"DR HORTON",,,,,"DR HORTON","10700 PECAN PARK BLVD STE 400",AUSTIN,TX,78750-1227,"(512) 345-4663",,,,
TX,WILLIAMSON,2021-70854,"Single Family Homes",1/14/2021,,268148,3118,"120 ELLINGER RD",GEORGETOWN,TX,78628,FAIRHAVEN,,CONTRACTOR,,,,,,,,,,,"DR HORTON",,,,,"DR HORTON","10700 PECAN PARK BLVD STE 400",AUSTIN,TX,78750-1227,"(512) 345-4663",,,,
TX,WILLIAMSON,2021-70855,"Single Family Homes",1/14/2021,,166066,1931,"129 ELLINGER RD",GEORGETOWN,TX,78628,FAIRHAVEN,,CONTRACTOR,,,,,,,,,,,"DR HORTON",,,,,"DR HORTON","10700 PECAN PARK BLVD STE 400",AUSTIN,TX,78750-1227,"(512) 345-4663",,,,
TX,WILLIAMSON,2021-70859,"Single Family Homes",1/21/2021,,482490,2813,"128 MOUNTAIN LION RD",GEORGETOWN,TX,78628,"WOLF RANCH",,CONTRACTOR,,,,,,,,,,,"DAVID WEEKLEY HOMES",,,,,"DAVID WEEKLEY HOMES","9000 WATERFORD CENTRE BLVD",AUSTIN,TX,78758-7662,"(800) 390-6774",http://www.davidweekleyhomes.com/,,,
TX,WILLIAMSON,2021-70898,"Single Family Homes",1/20/2021,,357090,2956,"960 PADDOCK LN",GEORGETOWN,TX,78628,SADDLECREEK,,CONTRACTOR,,,,,,,,,,,"CHESMAR HOMES",,,,,"CHESMAR HOMES","2900 N QUINLAN PARK RD",AUSTIN,TX,78732-6083,"(512) 233-9016",http://chesmar.com,,,
TX,WILLIAMSON,2021-70909,"Single Family Homes",1/15/2021,,365600,2961,"121 HIGH PLAINS DR",GEORGETOWN,TX,78628,"WATER OAK",,CONTRACTOR,,,,,,,,,,,"CHESMAR HOMES",,,,,"CHESMAR HOMES","2900 N QUINLAN PARK RD",AUSTIN,TX,78732-6083,"(512) 233-9016",http://chesmar.com,,,
TX,WILLIAMSON,2021-70916,"Single Family Homes",1/26/2021,,344990,2941,"118 COYOTE TRL",GEORGETOWN,TX,78628,"SUN CITY",,CONTRACTOR,,,,,,,,,,,"PULTE HOMES",,,,,"PULTE HOMES","9401 AMBERGLEN BLVD STE I-150",AUSTIN,TX,78729-1154,"(512) 561-4344",,,,
TX,WILLIAMSON,2021-70929,"Single Family Homes",1/26/2021,,253990,2099,"121 BRACKEN FERN LN",GEORGETOWN,TX,78628,"CARLSON PLACE",,CONTRACTOR,,,,,,,,,,,"PULTE HOMES",,,,,"PULTE HOMES","9401 AMBERGLEN BLVD STE I-150",AUSTIN,TX,78729-1154,"(512) 561-4344",,,,
TX,WILLIAMSON,2021-70931,"Single Family Homes",1/26/2021,,431990,3935,"706 HAVENHILLS LN",GEORGETOWN,TX,78628,"SUN CITY",,CONTRACTOR,,,,,,,,,,,"PULTE HOMES",,,,,"PULTE HOMES","9401 AMBERGLEN BLVD STE I-150",AUSTIN,TX,78729-1154,"(512) 561-4344",,,,
TX,WILLIAMSON,2021-70933,"Single Family Homes",1/26/2021,,333990,2871,"119 SPANISH STAR ST",GEORGETOWN,TX,78628,"SUN CITY NEIGHBORHOOD",,CONTRACTOR,,,,,,,,,,,"PULTE HOMES",,,,,"PULTE HOMES","9401 AMBERGLEN BLVD STE I-150",AUSTIN,TX,78729-1154,"(512) 561-4344",,,,
TX,WILLIAMSON,2021-70934,"Single Family Homes",1/26/2021,,344990,3238,"604 WOODEN RAIL LN",GEORGETOWN,TX,78628,"SUN CITY",,CONTRACTOR,,,,,,,,,,,"PULTE HOMES",,,,,"PULTE HOMES","9401 AMBERGLEN BLVD STE I-150",AUSTIN,TX,78729-1154,"(512) 561-4344",,,,
TX,WILLIAMSON,2021-70935,"Single Family Homes",1/19/2021,,274445,2095,"409 ARABIAN COLT DR",GEORGETOWN,TX,78628,SADDLECREEK,,CONTRACTOR,,,,,,,,,,,"PACESETTER HOMES ",,,,,"PACESETTER HOMES ","7940 SHOAL CREEK BLVD STE 200",AUSTIN,TX,78757-7587,"(512) 323-5252",,,,
TX,WILLIAMSON,2021-70938,"Single Family Homes",1/19/2021,,226360,1728,"244 ARABIAN COLT DR",GEORGETOWN,TX,78628,SADDLECREEK,,CONTRACTOR,,,,,,,,,,,"PACESETTER HOMES ",,,,,"PACESETTER HOMES ","7940 SHOAL CREEK BLVD STE 200",AUSTIN,TX,78757-7587,"(512) 323-5252",,,,
TX,WILLIAMSON,2021-70963,"Single Family Homes",1/26/2021,,344990,2869,"114 SPANISH STAR ST",GEORGETOWN,TX,78628,"SUN CITY NEIGHBORHOOD",,CONTRACTOR,,,,,,,,,,,"PULTE HOMES",,,,,"PULTE HOMES","9401 AMBERGLEN BLVD STE I-150",AUSTIN,TX,78729-1154,"(512) 561-4344",,,,
TX,WILLIAMSON,2021-70965,"Single Family Homes",1/26/2021,,333990,2849,"510 WOODEN RAIL LN",GEORGETOWN,TX,78628,"SUN CITY",,CONTRACTOR,,,,,,,,,,,"PULTE HOMES",,,,,"PULTE HOMES","9401 AMBERGLEN BLVD STE I-150",AUSTIN,TX,78729-1154,"(512) 561-4344",,,,
TX,WILLIAMSON,2021-70973,"Single Family Homes",1/22/2021,,367048,4268,"309 BEAR PAW RUN",GEORGETOWN,TX,78628,"SHADOW CANYON",,CONTRACTOR,,,,,,,,,,,"GEHAN HOMES",,,,,"GEHAN HOMES","3815 S CAPITAL OF TEXAS HWY STE 275",AUSTIN,TX,78704-6652,"(512) 330-9366",http://www.gehanhomes.com,,"JANET PHILLIPS",
TX,WILLIAMSON,2021-70977,"Single Family Homes",1/26/2021,,242990,1845,"116 BRACKEN FERN LN",GEORGETOWN,TX,78628,"CARLSON PLACE",,CONTRACTOR,,,,,,,,,,,"PULTE HOMES",,,,,"PULTE HOMES","9401 AMBERGLEN BLVD STE I-150",AUSTIN,TX,78729-1154,"(512) 561-4344",,,,
TX,WILLIAMSON,2021-70978,"Single Family Homes",1/26/2021,,282990,3050,"2305 CLIFFBRAKE WAY",GEORGETOWN,TX,78628,"CARLSON PLACE",,CONTRACTOR,,,,,,,,,,,"PULTE HOMES",,,,,"PULTE HOMES","9401 AMBERGLEN BLVD STE I-150",AUSTIN,TX,78729-1154,"(512) 561-4344",,,,
TX,WILLIAMSON,2021-70993,"Single Family Homes",1/26/2021,,268990,2593,"104 BRACKEN FERN LN",GEORGETOWN,TX,78628,"CARLSON PLACE",,CONTRACTOR,,,,,,,,,,,"PULTE HOMES",,,,,"PULTE HOMES","9401 AMBERGLEN BLVD STE I-150",AUSTIN,TX,78729-1154,"(512) 561-4344",,,,
TX,WILLIAMSON,2021-70999,"Single Family Homes",1/26/2021,,253990,2149,"128 BRACKEN FERN LN",GEORGETOWN,TX,78628,"CARLSON PLACE",,CONTRACTOR,,,,,,,,,,,"PULTE HOMES",,,,,"PULTE HOMES","9401 AMBERGLEN BLVD STE I-150",AUSTIN,TX,78729-1154,"(512) 561-4344",,,,
TX,WILLIAMSON,2021-71000,"Single Family Homes",1/26/2021,,242990,1962,"124 BRACKEN FERN LN",GEORGETOWN,TX,78628,"CARLSON PLACE",,CONTRACTOR,,,,,,,,,,,"PULTE HOMES",,,,,"PULTE HOMES","9401 AMBERGLEN BLVD STE I-150",AUSTIN,TX,78729-1154,"(512) 561-4344",,,,
TX,WILLIAMSON,2021-71001,"Single Family Homes",1/26/2021,,253990,2149,"117 BRACKEN FERN LN",GEORGETOWN,TX,78628,"CARLSON PLACE",,CONTRACTOR,,,,,,,,,,,"PULTE HOMES",,,,,"PULTE HOMES","9401 AMBERGLEN BLVD STE I-150",AUSTIN,TX,78729-1154,"(512) 561-4344",,,,
TX,WILLIAMSON,2021-71003,"Single Family Homes",1/26/2021,,242990,1850,"120 BRACKEN FERN LN",GEORGETOWN,TX,78628,"CARLSON PLACE",,CONTRACTOR,,,,,,,,,,,"PULTE HOMES",,,,,"PULTE HOMES","9401 AMBERGLEN BLVD STE I-150",AUSTIN,TX,78729-1154,"(512) 561-4344",,,,
TX,WILLIAMSON,2021-71004,"Single Family Homes",1/26/2021,,253990,2247,"141 BRACKEN FERN LN",GEORGETOWN,TX,78628,"CARLSON PLACE",,CONTRACTOR,,,,,,,,,,,"PULTE HOMES",,,,,"PULTE HOMES","9401 AMBERGLEN BLVD STE I-150",AUSTIN,TX,78729-1154,"(512) 561-4344",,,,
TX,WILLIAMSON,2021-71005,"Single Family Homes",1/26/2021,,253990,2149,"101 BRACKEN FERN LN",GEORGETOWN,TX,78628,"CARLSON PLACE",,CONTRACTOR,,,,,,,,,,,"PULTE HOMES",,,,,"PULTE HOMES","9401 AMBERGLEN BLVD STE I-150",AUSTIN,TX,78729-1154,"(512) 561-4344",,,,
TX,WILLIAMSON,2021-71008,"Single Family Homes",1/21/2021,,250000,3113,"1140 ROUND MOUNTAIN PASS",GEORGETOWN,TX,78628,"WOLF RANCH",,CONTRACTOR,,,,,,,,,,,"PERRY HOMES",,,,,"PERRY HOMES","6112 LLANO ST",AUSTIN,TX,78702,"(512) 810-8050",,,,
TX,WILLIAMSON,2021-71028,"Single Family Homes",1/20/2021,,306215,2405,"102 DEDINA DR",GEORGETOWN,TX,78628,SADDLECREEK,,CONTRACTOR,,,,,,,,,,,"CHESMAR HOMES",,,,,"CHESMAR HOMES","2900 N QUINLAN PARK RD",AUSTIN,TX,78732-6083,"(512) 233-9016",http://chesmar.com,,,
TX,WILLIAMSON,2021-71048,"Single Family Homes",1/19/2021,,290990,2410,"220 ARABIAN COLT DR",GEORGETOWN,TX,78628,SADDLECREEK,,CONTRACTOR,,,,,,,,,,,"PACESETTER HOMES ",,,,,"PACESETTER HOMES ","7940 SHOAL CREEK BLVD STE 200",AUSTIN,TX,78757-7587,"(512) 323-5252",,,,
TX,WILLIAMSON,2021-71056,"Single Family Homes",1/19/2021,,235800,1808,"256 ARABIAN COLT DR",GEORGETOWN,TX,78626,SADDLECREEK,,CONTRACTOR,,,,,,,,,,,"PACESETTER HOMES ",,,,,"PACESETTER HOMES ","7940 SHOAL CREEK BLVD STE 200",AUSTIN,TX,78757-7587,"(512) 323-5252",,,,
TX,WILLIAMSON,2021-71074,"Single Family Homes",1/25/2021,,437905,3158,"264 ARROWHEAD MOUND RD",GEORGETOWN,TX,78628,"WOLF RANCH",,CONTRACTOR,,,,,,,,,,,"HIGHLAND HOMES",,,,,"HIGHLAND HOMES","4201 W PARMER LN STE B180",AUSTIN,TX,78727-4110,"(512) 834-8429",,,,
TX,WILLIAMSON,2021-71076,"Single Family Homes",1/25/2021,,456180,3170,"256 ARROWHEAD MOUND RD",GEORGETOWN,TX,78628,"WOLF RANCH",,CONTRACTOR,,,,,,,,,,,"HIGHLAND HOMES",,,,,"HIGHLAND HOMES","4201 W PARMER LN STE B180",AUSTIN,TX,78727-4110,"(512) 834-8429",,,,
TX,WILLIAMSON,2021-71077,"Single Family Homes",1/26/2021,,288990,3143,"113 BRACKEN FERN LN",GEORGETOWN,TX,78628,"CARLSON PLACE",,CONTRACTOR,,,,,,,,,,,"PULTE HOMES",,,,,"PULTE HOMES","9401 AMBERGLEN BLVD STE I-150",AUSTIN,TX,78729-1154,"(512) 561-4344",,,,
TX,WILLIAMSON,2021-71394,"Single Family Homes",1/30/2021,,343990,3275,"106 WHITE ASTER CT",GEORGETOWN,TX,78628,"HIDDEN OAK",,CONTRACTOR,,,,,,,,,,,"PULTE HOMES",,,,,"PULTE HOMES","9401 AMBERGLEN BLVD STE I-150",AUSTIN,TX,78729-1154,"(512) 561-4344",,,,
TX,WILLIAMSON,2020-59983,"Warehouse & Manufacturing",1/19/2021,,3000000,22408,"401 SH 130",GEORGETOWN,TX,78626,,,CONTRACTOR,,,,,,,,,,,"NEAL ARCHITECTURAL GROUP",,,,,"NEAL ARCHITECTURAL GROUP","1023 CANYON CREEK DR # 125,",TEMPLE,TX,76502,"(254) 778-1466",,,,
