state,county,permno,ptype,pdate,pdescription,jvalue,jsqfeet,jaddr,jcity,jstate,jzip,jsubdiv,jlotno,aname,aaddr,acity,astate,azip,aphone,atype,aurl,afax,aprimarycontact,aemail,bldcode,units,bldgs,ctype,legal,contractor,caddress,ccity,cstate,czip,cphone,curl,cfax,cprimarycontact,cemail
TX,WILLIAMSON,2101-0018,"Hotel, Motel & Assisted Living",1/26/2021,,48500,,"400 ROUND ROCK AVE","ROUND ROCK",TX,78664,,,"GOLDEN CHICK","400 ROUND ROCK AVE","ROUND ROCK",TX,78664,,Owner,,,,,OWNER,,,,,OWNER,,,,,,,,,
TX,HAYS,2020-32176,"Multi Family Apartments & Condos",1/20/2021,,425000,17981,"1909 DUTTON DR","SAN MARCOS",TX,78660,,,CONTRACTOR,,,,,,,,,,,"WOOLSEY CONSTRUCTION",,,,,"WOOLSEY CONSTRUCTION","144 LANDA ST APT 851","NEW BRAUNFELS",TX,78130-7981,"(855) 519-4696",,,,
TX,TRAVIS,"2021-020315 BP","Multi Family Apartments & Condos",2/10/2021,,1914984,21747,"8001 E WILLIAM CANNON DR BLDG 6",AUSTIN,TX,78744,DELVALLE,,CONTRACTOR,,,,,,,,,,,"BROWNSTONE CONSTRUCTION",,,,,"BROWNSTONE CONSTRUCTION","6517 MAPLERIDGE ST",HOUSTON,TX,77081-4610,"(713) 432-7727",http://thebrownstonegroup.net/,"(713) 432-0129","WILLIAM BROWN",bill@thebrownstonegroup.net
TX,TRAVIS,"2021-020316 BP","Multi Family Apartments & Condos",2/10/2021,,2204605,25036,"8001 E WILLIAM CANNON DR BLDG 7",AUSTIN,TX,78744,DELVALLE,,CONTRACTOR,,,,,,,,,,,"BROWNSTONE CONSTRUCTION",,,,,"BROWNSTONE CONSTRUCTION","6517 MAPLERIDGE ST",HOUSTON,TX,77081-4610,"(713) 432-7727",http://thebrownstonegroup.net/,"(713) 432-0129","WILLIAM BROWN",bill@thebrownstonegroup.net
TX,TRAVIS,"2021-020317 BP","Multi Family Apartments & Condos",2/10/2021,,2204605,25036,"8001 E WILLIAM CANNON DR BLDG 8",AUSTIN,TX,78744,DELVALLE,,CONTRACTOR,,,,,,,,,,,"BROWNSTONE CONSTRUCTION",,,,,"BROWNSTONE CONSTRUCTION","6517 MAPLERIDGE ST",HOUSTON,TX,77081-4610,"(713) 432-7727",http://thebrownstonegroup.net/,"(713) 432-0129","WILLIAM BROWN",bill@thebrownstonegroup.net
TX,TRAVIS,"2021-020318 BP","Multi Family Apartments & Condos",2/10/2021,,2485508,28226,"8001 E WILLIAM CANNON DR BLDG 9",AUSTIN,TX,78744,DELVALLE,,CONTRACTOR,,,,,,,,,,,"BROWNSTONE CONSTRUCTION",,,,,"BROWNSTONE CONSTRUCTION","6517 MAPLERIDGE ST",HOUSTON,TX,77081-4610,"(713) 432-7727",http://thebrownstonegroup.net/,"(713) 432-0129","WILLIAM BROWN",bill@thebrownstonegroup.net
TX,TRAVIS,"2021-020310 BP","Multi Family Apartments & Condos",2/10/2021,,2718508,30872,"8001 E WILLIAM CANNON DR BLDG 1",AUSTIN,TX,78744,DELVALLE,,CONTRACTOR,,,,,,,,,,,"BROWNSTONE CONSTRUCTION",,,,,"BROWNSTONE CONSTRUCTION","6517 MAPLERIDGE ST",HOUSTON,TX,77081-4610,"(713) 432-7727",http://thebrownstonegroup.net/,"(713) 432-0129","WILLIAM BROWN",bill@thebrownstonegroup.net
TX,TRAVIS,"2021-020311 BP","Multi Family Apartments & Condos",2/10/2021,,2718508,30872,"8001 E WILLIAM CANNON DR BLDG 2",AUSTIN,TX,78744,DELVALLE,,CONTRACTOR,,,,,,,,,,,"BROWNSTONE CONSTRUCTION",,,,,"BROWNSTONE CONSTRUCTION","6517 MAPLERIDGE ST",HOUSTON,TX,77081-4610,"(713) 432-7727",http://thebrownstonegroup.net/,"(713) 432-0129","WILLIAM BROWN",bill@thebrownstonegroup.net
TX,TRAVIS,"2021-020312 BP","Multi Family Apartments & Condos",2/10/2021,,2718508,30872,"8001 E WILLIAM CANNON DR BLDG 3",AUSTIN,TX,78744,DELVALLE,,CONTRACTOR,,,,,,,,,,,"BROWNSTONE CONSTRUCTION",,,,,"BROWNSTONE CONSTRUCTION","6517 MAPLERIDGE ST",HOUSTON,TX,77081-4610,"(713) 432-7727",http://thebrownstonegroup.net/,"(713) 432-0129","WILLIAM BROWN",bill@thebrownstonegroup.net
TX,TRAVIS,"2021-020319 BP","Multi Family Apartments & Condos",2/10/2021,,2718508,30872,"8001 E WILLIAM CANNON DR BLDG 10",AUSTIN,TX,78744,DELVALLE,,CONTRACTOR,,,,,,,,,,,"BROWNSTONE CONSTRUCTION",,,,,"BROWNSTONE CONSTRUCTION","6517 MAPLERIDGE ST",HOUSTON,TX,77081-4610,"(713) 432-7727",http://thebrownstonegroup.net/,"(713) 432-0129","WILLIAM BROWN",bill@thebrownstonegroup.net
TX,TRAVIS,"2021-020314 BP","Multi Family Apartments & Condos",2/10/2021,,3104640,35257,"8001 E WILLIAM CANNON DR BLDG 5",AUSTIN,TX,78744,DELVALLE,,CONTRACTOR,,,,,,,,,,,"BROWNSTONE CONSTRUCTION",,,,,"BROWNSTONE CONSTRUCTION","6517 MAPLERIDGE ST",HOUSTON,TX,77081-4610,"(713) 432-7727",http://thebrownstonegroup.net/,"(713) 432-0129","WILLIAM BROWN",bill@thebrownstonegroup.net
TX,TRAVIS,"2021-020313 BP","Multi Family Apartments & Condos",2/10/2021,,3165576,30872,"8001 E WILLIAM CANNON DR BLDG 4",AUSTIN,TX,78744,DELVALLE,,CONTRACTOR,,,,,,,,,,,"BROWNSTONE CONSTRUCTION",,,,,"BROWNSTONE CONSTRUCTION","6517 MAPLERIDGE ST",HOUSTON,TX,77081-4610,"(713) 432-7727",http://thebrownstonegroup.net/,"(713) 432-0129","WILLIAM BROWN",bill@thebrownstonegroup.net
TX,TRAVIS,"2021-020320 BP","Multi Family Apartments & Condos",2/10/2021,,4004058,45471,"8001 E WILLIAM CANNON DR BLDG 11",AUSTIN,TX,78744,DELVALLE,,CONTRACTOR,,,,,,,,,,,"BROWNSTONE CONSTRUCTION",,,,,"BROWNSTONE CONSTRUCTION","6517 MAPLERIDGE ST",HOUSTON,TX,77081-4610,"(713) 432-7727",http://thebrownstonegroup.net/,"(713) 432-0129","WILLIAM BROWN",bill@thebrownstonegroup.net
TX,TRAVIS,"2020-184068 BP","Multi Family Apartments & Condos",2/11/2021,,160000,1498,"814 NORTH BLUFF DR BLDG 72",AUSTIN,TX,78745,CANNON,,CONTRACTOR,,,,,,,,,,,"PSW HOMES",,,,,"PSW HOMES","2003 S 1ST ST",AUSTIN,TX,78704-5141,"(512) 326-3905",,,,
TX,TRAVIS,"2021-022841 BP","Multi Family Apartments & Condos",2/12/2021,,185385,2181,"4607 SWEET ANNIE PATH",AUSTIN,TX,78704,TANNEHILL,,CONTRACTOR,,,,,,,,,,,"RSI COMMUNITIES",,,,,"RSI COMMUNITIES","810 HESTERS CROSSING RD STE 235","ROUND ROCK",TX,78681-7846,"(512) 953-4100",,,,
TX,TRAVIS,"2021-021041 BP","Multi Family Apartments & Condos",2/10/2021,,201000,1784,"8006 MELLENCAMP DR",AUSTIN,TX,78744,"EASTON PARK",3,CONTRACTOR,,,,,,,,,,,"BROOKFIELD RESIDENTIAL PROPERTIES",,,,,"BROOKFIELD RESIDENTIAL PROPERTIES","11501 ALTERRA PKWY STE 100",AUSTIN,TX,78758-3201,"(512) 391-1330",,,,
TX,TRAVIS,"2021-021585 BP","Multi Family Apartments & Condos",2/10/2021,,201000,1753,"8008 MELLENCAMP DR",AUSTIN,TX,78744,"EASTON PARK",3,CONTRACTOR,,,,,,,,,,,"BROOKFIELD RESIDENTIAL PROPERTIES",,,,,"BROOKFIELD RESIDENTIAL PROPERTIES","11501 ALTERRA PKWY STE 100",AUSTIN,TX,78758-3201,"(512) 391-1330",,,,
TX,TRAVIS,"2020-113891 BP","Multi Family Apartments & Condos",2/10/2021,,206040,2424,"4804 STAR JASMINE DR",AUSTIN,TX,78723,TANNEHILL,,CONTRACTOR,,,,,,,,,,,"RSI COMMUNITIES",,,,,"RSI COMMUNITIES","810 HESTERS CROSSING RD STE 235","ROUND ROCK",TX,78681-7846,"(512) 953-4100",,,,
TX,TRAVIS,"2021-021607 BP","Multi Family Apartments & Condos",2/10/2021,,226000,2091,"8010 MELLENCAMP DR",AUSTIN,TX,78744,"EASTON PARK",3,CONTRACTOR,,,,,,,,,,,"RSI COMMUNITIES",,,,,"RSI COMMUNITIES","810 HESTERS CROSSING RD STE 235","ROUND ROCK",TX,78681-7846,"(512) 953-4100",,,,
TX,TRAVIS,"2021-022243 BP","Multi Family Apartments & Condos",2/11/2021,,236000,2163,"7914 LENNON DR",AUSTIN,TX,78744,"EASTON PARK",3,CONTRACTOR,,,,,,,,,,,"BROOKFIELD RESIDENTIAL PROPERTIES",,,,,"BROOKFIELD RESIDENTIAL PROPERTIES","11501 ALTERRA PKWY STE 100",AUSTIN,TX,78758-3201,"(512) 391-1330",,,,
TX,TRAVIS,"2021-022254 BP","Multi Family Apartments & Condos",2/11/2021,,239000,2199,"7916 LENNON DR",AUSTIN,TX,78744,"EASTON PARK",3,CONTRACTOR,,,,,,,,,,,"BROOKFIELD RESIDENTIAL PROPERTIES",,,,,"BROOKFIELD RESIDENTIAL PROPERTIES","11501 ALTERRA PKWY STE 100",AUSTIN,TX,78758-3201,"(512) 391-1330",,,,
TX,TRAVIS,"2021-015088 BP","Multi Family Apartments & Condos",2/12/2021,,513015,2618,"10200 CROUGHAN PASS",AUSTIN,TX,78717,"PRESIDIO CONDO",,CONTRACTOR,,,,,,,,,,,"DAVID WEEKLEY HOMES",,,,,"DAVID WEEKLEY HOMES","9000 WATERFORD CENTRE BLVD",AUSTIN,TX,78758-7662,"(800) 390-6774",http://www.davidweekleyhomes.com/,,,
TX,TRAVIS,"2021-020326 BP","Multi Family Renovations & Additions",2/10/2021,Addition,713617,8104,"8001 E WILLIAM CANNON DR BLDG CLUB",AUSTIN,TX,78744,DELVALLE,,CONTRACTOR,,,,,,,,,,,"BROWNSTONE CONSTRUCTION",,,,,"BROWNSTONE CONSTRUCTION","6517 MAPLERIDGE ST",HOUSTON,TX,77081-4610,"(713) 432-7727",http://thebrownstonegroup.net/,"(713) 432-0129","WILLIAM BROWN",bill@thebrownstonegroup.net
TX,WILLIAMSON,2101-0004,"Offices, R&D, & Professional",1/8/2021,,374000,,"3101 EAGLES NEST ST 420","ROUND ROCK",TX,78665,,,CONTRACTOR,,,,,,,,,,,"BURKE REAL ESTATE GROUP",,,,,"BURKE REAL ESTATE GROUP","2590 OAKMONT DR STE 210","ROUND ROCK",TX,78665-1036,"(512) 439-4050",http://www.burkegroup.net/,,,
TX,WILLIAMSON,2101-0005,"Offices, R&D, & Professional",1/8/2021,,374000,,"3101 EAGLES NEST ST 430","ROUND ROCK",TX,78864,,,CONTRACTOR,,,,,,,,,,,"BURKE REAL ESTATE GROUP",,,,,"BURKE REAL ESTATE GROUP","2590 OAKMONT DR STE 210","ROUND ROCK",TX,78665-1036,"(512) 439-4050",http://www.burkegroup.net/,,,
TX,WILLIAMSON,2101-0006,"Offices, R&D, & Professional",1/8/2021,,374000,,"3101 EAGLES NEST ST 435","ROUND ROCK",TX,78864,,,CONTRACTOR,,,,,,,,,,,"BURKE REAL ESTATE GROUP",,,,,"BURKE REAL ESTATE GROUP","2590 OAKMONT DR STE 210","ROUND ROCK",TX,78665-1036,"(512) 439-4050",http://www.burkegroup.net/,,,
TX,WILLIAMSON,2101-0007,"Offices, R&D, & Professional",1/8/2021,,374000,,"3101 EAGLES NEST ST 470","ROUND ROCK",TX,78864,,,CONTRACTOR,,,,,,,,,,,"BURKE REAL ESTATE GROUP",,,,,"BURKE REAL ESTATE GROUP","2590 OAKMONT DR STE 210","ROUND ROCK",TX,78665-1036,"(512) 439-4050",http://www.burkegroup.net/,,,
TX,WILLIAMSON,2101-0021,"Offices, R&D, & Professional",1/28/2021,,830000,,"3100 RM 1431","ROUND ROCK",TX,78664,"TH ENCLAVE AT MAYFIELD RANCH",,"A3 ROUND ROCK","3100 RM 1431","ROUND ROCK",TX,78664,,Owner,,,,,OWNER,,,,,OWNER,,,,,,,,,
TX,WILLIAMSON,2101-0008,"Offices, R&D, & Professional",1/12/2021,,160000,,"810 HESTERS CROSSING RD 150","ROUND ROCK",TX,78864,,,"MARK IV LA FRONTERA","810 HESTERS CROSSING RD 150","ROUND ROCK",TX,78864,,Owner,,,,,OWNER,,,,,OWNER,,,,,,,,,
TX,WILLIAMSON,2101-0017,"Offices, R&D, & Professional",1/26/2021,,1411000,,"2300 GREENLAWN BLVD BLDG 3","ROUND ROCK",TX,78664,,,"DELL COMPUTER HOLDING","2300 GREENLAWN BLVD BLDG 3","ROUND ROCK",TX,78664,,Owner,,,,,OWNER,,,,,OWNER,,,,,,,,,
TX,TRAVIS,"2021-020322 BP","Parking Structures & Carports",2/10/2021,,137193,1558,"8001 E WILLIAM CANNON DR UNIT GAR 14",AUSTIN,TX,78744,DELVALLE,,CONTRACTOR,,,,,,,,,,,"BROWNSTONE CONSTRUCTION",,,,,"BROWNSTONE CONSTRUCTION","6517 MAPLERIDGE ST",HOUSTON,TX,77081-4610,"(713) 432-7727",http://thebrownstonegroup.net/,"(713) 432-0129","WILLIAM BROWN",bill@thebrownstonegroup.net
TX,TRAVIS,"2021-020323 BP","Parking Structures & Carports",2/10/2021,,137193,1558,"8001 E WILLIAM CANNON DR UNIT GAR 15",AUSTIN,TX,78744,DELVALLE,,CONTRACTOR,,,,,,,,,,,"BROWNSTONE CONSTRUCTION",,,,,"BROWNSTONE CONSTRUCTION","6517 MAPLERIDGE ST",HOUSTON,TX,77081-4610,"(713) 432-7727",http://thebrownstonegroup.net/,"(713) 432-0129","WILLIAM BROWN",bill@thebrownstonegroup.net
TX,TRAVIS,"2021-020325 BP","Parking Structures & Carports",2/10/2021,,137197,1558,"8001 E WILLIAM CANNON DR BLDG 1",AUSTIN,TX,78744,,,CONTRACTOR,,,,,,,,,,,"BROWNSTONE CONSTRUCTION",,,,,"BROWNSTONE CONSTRUCTION","6517 MAPLERIDGE ST",HOUSTON,TX,77081-4610,"(713) 432-7727",http://thebrownstonegroup.net/,"(713) 432-0129","WILLIAM BROWN",bill@thebrownstonegroup.net
TX,TRAVIS,"2021-020324 BP","Parking Structures & Carports",2/10/2021,,147144,1671,"8001 E WILLIAM CANNON DR UNIT GAR 16",AUSTIN,TX,78744,DELVALLE,,CONTRACTOR,,,,,,,,,,,"BROWNSTONE CONSTRUCTION",,,,,"BROWNSTONE CONSTRUCTION","6517 MAPLERIDGE ST",HOUSTON,TX,77081-4610,"(713) 432-7727",http://thebrownstonegroup.net/,"(713) 432-0129","WILLIAM BROWN",bill@thebrownstonegroup.net
TX,TRAVIS,"2021-020321 BP","Parking Structures & Carports",2/10/2021,,147320,1673,"8001 E WILLIAM CANNON DR UNIT GAR 13",AUSTIN,TX,78744,DELVALLE,,CONTRACTOR,,,,,,,,,,,"BROWNSTONE CONSTRUCTION",,,,,"BROWNSTONE CONSTRUCTION","6517 MAPLERIDGE ST",HOUSTON,TX,77081-4610,"(713) 432-7727",http://thebrownstonegroup.net/,"(713) 432-0129","WILLIAM BROWN",bill@thebrownstonegroup.net
TX,HAYS,2019-29543,"Residential Renovations & Additions",1/14/2021,Renovations,100000,,"126 S GUADALUPE ST","SAN MARCOS",TX,78660,,,CONTRACTOR,,,,,,,,,,,"STEVE MAJOR CONSTRUCTION",,,,,"STEVE MAJOR CONSTRUCTION","2009 CASTLE GATE CIR","SAN MARCOS",TX,78666-2219,"(512) 353-7458",,,,
TX,HAYS,2020-34040,"Residential Renovations & Additions",1/11/2021,Renovations,500000,,"201 TELLURIDE ST","SAN MARCOS",TX,78660,,,CONTRACTOR,,,,,,,,,,,"SIGNATURE CONSTRUCTION",,,,,"SIGNATURE CONSTRUCTION","720 3RD AVE SW",CARMEL,IN,46032-2036,"(317) 817-0360",,,,
TX,HAYS,"2020-34118 ","Residential Renovations & Additions",1/4/2021,Renovations,60000,,"212 N LBJ DR","SAN MARCOS",TX,78660,,,CONTRACTOR,,,,,,,,,,,"HILL COUNTRY MECHANICAL & ELECTRICAL SERVICES",,,,,"HILL COUNTRY MECHANICAL & ELECTRICAL SERVICES","190 CENTER ST SUITE 107","NEW BRAUNFELS",TX,78130,"(830) 221-7207",,,,
TX,HAYS,2020-33359,"Residential Renovations & Additions",1/28/2021,Renovations,400000,2500,"904 W SAN ANTONIO ST","SAN MARCOS",TX,78666,,,"MATT & JENNIFER GOEBLER","904 W SAN ANTONIO ST","SAN MARCOS",TX,78666,,Owner,,,,,"BALDERACH & COMPANY",,,,,"BALDERACH & COMPANY","508 OAKLAND AVE",AUSTIN,TX,78703-5152,"(512) 472-8794",,"(512) 472-8795",,
TX,HAYS,2020-34088,"Residential Renovations & Additions",1/13/2021,Renovations,87000,1650,"306 JUAREZ AVE","SAN MARCOS",TX,78666,,,CONTRACTOR,,,,,,,,,,,"CHAMBERS CONTRACTORS",,,,,"CHAMBERS CONTRACTORS","160 S FREDERICKSBURG ST","SAN MARCOS",TX,78666-5528,"(512) 393-9910",,,"MATTHEW CHAMBERS",
TX,HAYS,BLR2020-3633,"Residential Renovations & Additions",1/19/2021,Renovation,65000,2904,"151 ALEXANDER",KYLE,TX,78640,"PLUM CREEK",,CONTRACTOR,,,,,,,,,,,HURCON,,,,,HURCON,"15660 W HARDY RD STE 100",HOUSTON,TX,77060-3135,"(281) 847-3600",,,,
TX,TRAVIS,"2021-022869 BP","Residential Renovations & Additions",2/12/2021,Renovation,41540,,"11705 BARCHETTA DR",AUSTIN,TX,78758,GRACYWOODS,8,"AARON & ALLYSON STEVENS","11705 BARCHETTA DR",AUSTIN,TX,78758,,Owner,,,,,"POWER HRG",,,,,"POWER HRG","7701 METROPOLIS DR 300",AUSTIN,TX,78744,"(610) 874-5000",,,,
TX,TRAVIS,"2021-022886 BP","Residential Renovations & Additions",2/12/2021,Renovation,41540,,"13100 BROUGHTON WAY",AUSTIN,TX,78727,"SCOFIELD FARMS",13,"TAM & LAM LY","13100 BROUGHTON WAY",AUSTIN,TX,78727,,Owner,,,,,"POWER HRG",,,,,"POWER HRG","7701 METROPOLIS DR 300",AUSTIN,TX,78744,"(610) 874-5000",,,,
TX,TRAVIS,"2021-022901 BP","Residential Renovations & Additions",2/12/2021,Renovation,41540,,"9804 CASTLE PINES DR",AUSTIN,TX,78717,AVERY,,CONTRACTOR,,,,,,,,,,,"POWER HRG",,,,,"POWER HRG","7701 METROPOLIS DR 300",AUSTIN,TX,78744,"(610) 874-5000",,,,
TX,TRAVIS,"2021-022906 BP","Residential Renovations & Additions",2/12/2021,Renovation,41540,,"2514 DOVEMEADOW DR",AUSTIN,TX,78744,"DOVE SPRINGS",23,"SARAH & ZACHARY QUINN","2514 DOVEMEADOW DR",AUSTIN,TX,78744,,Owner,,,,,"POWER HRG",,,,,"POWER HRG","7701 METROPOLIS DR 300",AUSTIN,TX,78744,"(610) 874-5000",,,,
TX,TRAVIS,"2021-022912 BP","Residential Renovations & Additions",2/12/2021,Renovation,41540,,"909 CEDAR GLN",AUSTIN,TX,78745,"SALEM WALK",9,"JANICE HANSON","909 CEDAR GLN",AUSTIN,TX,78745,,Owner,,,,,"POWER HRG",,,,,"POWER HRG","7701 METROPOLIS DR 300",AUSTIN,TX,78744,"(610) 874-5000",,,,
TX,TRAVIS,"2021-022920 BP","Residential Renovations & Additions",2/12/2021,Renovation,41540,,"11102 CHATEAU HILL",AUSTIN,TX,78750,"SPICEWOOD ESTATES",1,"SONIA HORANZY","11102 CHATEAU HILL",AUSTIN,TX,78750,,Owner,,,,,"POWER HRG",,,,,"POWER HRG","7701 METROPOLIS DR 300",AUSTIN,TX,78744,"(610) 874-5000",,,,
TX,TRAVIS,"2021-022308 BP","Residential Renovations & Additions",2/10/2021,Renovation,56000,,"5203 S SCOUT ISLAND CIR",AUSTIN,TX,78731,"THE COURTYARD",10,"MARK & LAURIE ORMAN","5203 S SCOUT ISLAND CIR",AUSTIN,TX,78731,,Owner,,,,,"NICHOLAS PROPERTIES",,,,,"NICHOLAS PROPERTIES","200 BILLINGS LN ",AUSTIN,TX,78733,"(678) 707-9104",,,,
TX,TRAVIS,"2021-022315 BP","Residential Renovations & Additions",2/11/2021,Renovation,57014,,"718 SPARKS AVE",AUSTIN,TX,78705,"HARRIS PARK",17,"KWAME WALKER","718 SPARKS AVE",AUSTIN,TX,78705,,Owner,,,,,"RENEWAL BY ANDERSEN",,,,,"RENEWAL BY ANDERSEN","2100 KRAMER LN STE 600",AUSTIN,TX,78758-4045,"(512) 834-8383",,,,
TX,TRAVIS,"2021-022795 BP","Residential Renovations & Additions",2/12/2021,Renovation,110000,,"4810 TWIN VALLEY DR",AUSTIN,TX,78731,"CAT MOUNTAIN VILLAS",9,"NARENDRA NATH","4810 TWIN VALLEY DR",AUSTIN,TX,78731,,Owner,,,,,"ONESTAR CONSTRUCTION",,,,,"ONESTAR CONSTRUCTION","4711 ADELPHI LN ",AUSTIN,TX,78727,"(832) 444-2908",https://www.jonestarconstruction.com/,,,Info@jonestarconstruction.com
TX,WILLIAMSON,2101-0001,"Residential Swimming Pools & Spas",1/8/2021,,84170,,"2817 NOLINA LN","ROUND ROCK",TX,78664,,,"DERRELL WAYNE JR & REBECCA ANNE JOHNSON","2817 NOLINA LN","ROUND ROCK",TX,78664,,Owner,,,,,"SOLID POOLS",,,,,"SOLID POOLS","721 COUNTY ROAD 105",HUTTO,TX,78634-3013,"(512) 970-3167",http://www.solidpools.com/,,"MIKE BRESLIN",info@solidpools.com
TX,WILLIAMSON,2101-0002,"Residential Swimming Pools & Spas",1/7/2021,,29400,,"2912 GOLDEN CREEK CV","ROUND ROCK",TX,78664,,,"MARK PARKER","2912 GOLDEN CREEK CV","ROUND ROCK",TX,78664,,Owner,,,,,POOLS123.COM,,,,,POOLS123.COM,"PO BOX 2518",TAYLOR,TX,76574,"(214) 883-8650",,,,
TX,WILLIAMSON,2101-0003,"Residential Swimming Pools & Spas",1/28/2021,,129965,,"2906 ARBOR CT","ROUND ROCK",TX,78664,,,"MICHAEL & ELOISA WILLEMSEN","2906 ARBOR CT","ROUND ROCK",TX,78664,,Owner,,,,,"DENALI POOLS",,,,,"DENALI POOLS","1904 BRUSHY BEND DR","ROUND ROCK",TX,78681-1451,"(512) 955-6564",,,,
TX,WILLIAMSON,2101-0004,"Residential Swimming Pools & Spas",1/20/2021,,3800,,"946 BLUE SPRING CIR","ROUND ROCK",TX,78664,,,"ARTHUR G & LINDA TELFORD","946 BLUE SPRING CIR","ROUND ROCK",TX,78664,,Owner,,,,,"LONGHORN CONSTRUCTION & DEVELOPMENT",,,,,"LONGHORN CONSTRUCTION & DEVELOPMENT","16708 PICADILLY CT UNIT 117","ROUND ROCK",TX,78664,"(512) 877-9898",,,,
TX,WILLIAMSON,2101-0005,"Residential Swimming Pools & Spas",1/22/2021,,81700,,"3817 CYPRESS POINT CV","ROUND ROCK",TX,78664,,,"REAGAN & STEPHANIE NORTON","3817 CYPRESS POINT CV","ROUND ROCK",TX,78664,,Owner,,,,,"NEW WAVE POOLS",,,,,"NEW WAVE POOLS","2205 CREEKVIEW DR","ROUND ROCK",TX,78681-7260,"(512) 699-3193",,,,
TX,WILLIAMSON,2101-0006,"Residential Swimming Pools & Spas",1/19/2021,,66346,,"3032 FREEMAN PARK DR","ROUND ROCK",TX,78664,,,"CHRISTOPHER & GREG RESNICK","3032 FREEMAN PARK DR","ROUND ROCK",TX,78664,,Owner,,,,,"DENALI POOLS",,,,,"DENALI POOLS","1904 BRUSHY BEND DR","ROUND ROCK",TX,78681-1451,"(512) 955-6564",,,,
TX,WILLIAMSON,2101-0007,"Residential Swimming Pools & Spas",1/28/2021,,66439,,"1012 COLE CV","ROUND ROCK",TX,78664,,,"NICHOLAS D ABBATIELLO","1012 COLE CV","ROUND ROCK",TX,78664,,Owner,,,,,"RELIANT POOLS",,,,,"RELIANT POOLS","12343 HYMEADOW DR STE 3A",AUSTIN,TX,78750-1858,"(512) 407-2623",http://www.reliantpools.com/,,,
TX,WILLIAMSON,2101-0008,"Residential Swimming Pools & Spas",1/27/2021,,65000,,"3511 OGRIN CV","ROUND ROCK",TX,78664,,,"NICOLE A & JONATHAN B MCDANIELS","3511 OGRIN CV","ROUND ROCK",TX,78664,,Owner,,,,,"TEXAS POOLS & PATIOS",,,,,"TEXAS POOLS & PATIOS","601 S BELL BLVD","CEDAR PARK",TX,78613-3854,"(512) 402-1175",http://www.texaspoolsandpatios.com/,,,
TX,WILLIAMSON,2101-0009,"Residential Swimming Pools & Spas",1/28/2021,,35000,,"4035 HONEY BEAR LOOP","ROUND ROCK",TX,78664,,,"JEFFRY D & SUSAN A MOFFITT","4035 HONEY BEAR LOOP","ROUND ROCK",TX,78664,,Owner,,,,,"TEXAS POOLS & PATIOS",,,,,"TEXAS POOLS & PATIOS","601 S BELL BLVD","CEDAR PARK",TX,78613-3854,"(512) 402-1175",http://www.texaspoolsandpatios.com/,,,
TX,WILLIAMSON,2101-0010,"Residential Swimming Pools & Spas",1/22/2021,,38000,,"1613 WEST END PL","ROUND ROCK",TX,78664,,,"STEPHEN & JENNIFER L SHOCKLEY-DANIELS","1613 WEST END PL","ROUND ROCK",TX,78664,,Owner,,,,,OWNER,,,,,OWNER,,,,,,,,,
TX,WILLIAMSON,2101-0011,"Residential Swimming Pools & Spas",1/25/2021,,78000,,"1354 PINE FOREST CIR","ROUND ROCK",TX,78664,,,"DEAN & TAUNA CUNNINGHAM","1354 PINE FOREST CIR","ROUND ROCK",TX,78664,,Owner,,,,,"NEW WAVE POOLS",,,,,"NEW WAVE POOLS","2205 CREEKVIEW DR","ROUND ROCK",TX,78681-7260,"(512) 699-3193",,,,
TX,WILLIAMSON,2101-0012,"Residential Swimming Pools & Spas",1/26/2021,,81040,,"1566 HOMEWOOD CIR","ROUND ROCK",TX,78664,,,"MARK & SHARON PALMER","1566 HOMEWOOD CIR","ROUND ROCK",TX,78664,,Owner,,,,,"DENALI POOLS",,,,,"DENALI POOLS","1904 BRUSHY BEND DR","ROUND ROCK",TX,78681-1451,"(512) 955-6564",,,,
TX,WILLIAMSON,2101-0013,"Residential Swimming Pools & Spas",1/27/2021,,46800,,"4929 STRADA DR","ROUND ROCK",TX,78664,,,"TIMOTHY & CANDICE EDWARDS","4929 STRADA DR","ROUND ROCK",TX,78664,,Owner,,,,,"FLINTROCK COMMERCIAL",,,,,"FLINTROCK COMMERCIAL","10800 PECAN PARK BLVD",AUSTIN,TX,78750-1224,"(512) 845-5590",http://www.flintrockcommercial.com/,,,
TX,WILLIAMSON,2101-0014,"Residential Swimming Pools & Spas",1/29/2021,,79000,,"3028 HAYNES DR","ROUND ROCK",TX,78664,,,"JOSHUA B & AUTUMN B SPENCER","3028 HAYNES DR","ROUND ROCK",TX,78664,,Owner,,,,,OWNER,,,,,OWNER,,,,,,,,,
TX,HAYS,POOLR2020-0057,"Residential Swimming Pools & Spas",1/19/2021,,49000,428,"346 CIBOLA DR",KYLE,TX,78640,,,"ANABELL & GEORGE ALVAREZ","346 CIBOLA DR",KYLE,TX,78640,,Owner,,,,,"BLUE HAVEN POOLS",,,,,"BLUE HAVEN POOLS","260 ADDIE ROY RD STE 205",AUSTIN,TX,78746-4108,"(512) 345-2583",,,,
TX,HAYS,POOLR2020-0056,"Residential Swimming Pools & Spas",1/29/2021,,37185,782,"112 RAFE CT",KYLE,TX,78640,"POST OAK",,"RANDALL & RUSSELL MEANS","112 RAFE CT",KYLE,TX,78640,,Owner,,,,,"CODY POOLS",,,,,"CODY POOLS","2300 W PARMER LN",AUSTIN,TX,78727-4332,"(512) 835-4966",http://www.codypools.com,,"COLE NAUMAN",
TX,TRAVIS,"2021-020255 BP","Residential Swimming Pools & Spas",2/10/2021,,10000,523,"10134 PLANTERS WOODS DR",AUSTIN,TX,78730,"RIVER PLACE",22,"MICHAEL & ANN KENEFICK","10134 PLANTERS WOODS DR",AUSTIN,TX,78730,,Owner,,,,,"WATERVIEW POOLS",,,,,"WATERVIEW POOLS","13313 KINDER PASS",AUSTIN,TX,78727-3415,"(512) 289-7665",http://waterviewpools.com,,,
TX,TRAVIS,"2021-021056 BP","Residential Swimming Pools & Spas",2/11/2021,,,187,"1812 COLLIER ST",AUSTIN,TX,78704,"BARTON HEIGHTS",9,"PRISCILLA GLOVER","1812 COLLIER ST",AUSTIN,TX,78704,,Owner,,,,,"CODY POOLS",,,,,"CODY POOLS","2300 W PARMER LN",AUSTIN,TX,78727-4332,"(512) 835-4966",http://www.codypools.com,,"COLE NAUMAN",
TX,TRAVIS,"2021-012560 BP","Residential Swimming Pools & Spas",2/11/2021,,,360,"1907 GLENCLIFF DR",AUSTIN,TX,78704,"BARTON HILLS",5,CONTRACTOR,,,,,,,,,,,"MOAZAMI HOMES",,,,,"MOAZAMI HOMES","3571 FAR WEST BLVD UNIT 220",AUSTIN,TX,78731-3064,"(512) 507-9675",,,,
TX,TRAVIS,"2021-015676 BP","Residential Swimming Pools & Spas",2/11/2021,,,484,"7421 DOSWELL LN",AUSTIN,TX,78739,"THE HIELSCHER",12,"STEVE & SHIWEI XU","7421 DOSWELL LN",AUSTIN,TX,78739,,Owner,,,,,"MAJESTIC POOLSCAPES",,,,,"MAJESTIC POOLSCAPES","1401 HOOKBILL KITE","BEE CAVES",TX,78738,"(512) 402-0011",,,,
TX,TRAVIS,"2020-088799 BP","Residential Swimming Pools & Spas",2/13/2021,,,176,"902 DANIEL DR",AUSTIN,TX,78704,"ARBOLES TERRACE",3,CONTRACTOR,,,,,,,,,,,"CODY POOLS",,,,,"CODY POOLS","2300 W PARMER LN",AUSTIN,TX,78727-4332,"(512) 835-4966",http://www.codypools.com,,"COLE NAUMAN",
TX,TRAVIS,"2021-021887 BP","Residential Swimming Pools & Spas",2/13/2021,,,400,"1309 CULLEN AVE",AUSTIN,TX,78757,CRESTVIEW,27,"KIMBERLEY HELMAN","1309 CULLEN AVE",AUSTIN,TX,78757,,Owner,,,,,"CODY POOLS",,,,,"CODY POOLS","2300 W PARMER LN",AUSTIN,TX,78727-4332,"(512) 835-4966",http://www.codypools.com,,"COLE NAUMAN",
TX,TRAVIS,"2021-006295 BP","Residential Swimming Pools & Spas",2/11/2021,,,420,"12500 MORELIA WAY",AUSTIN,TX,78748,,,"MATTHEW & ADRIANA ORTA","12500 MORELIA WAY",AUSTIN,TX,78748,,Owner,,,,,"WESTBANK POOLS",,,,,"WESTBANK POOLS","350 LOST RIVER RD",GEORGETOWN,TX,78628-9550,"(512) 217-8004",http://www.westbankpools.com/,,,
TX,TRAVIS,"2021-015444 BP","Residential Swimming Pools & Spas",2/11/2021,,10000,78,"1001 LOTT AVE",AUSTIN,TX,78721,MOORE,18,CONTRACTOR,,,,,,,,,,,"MANNA CUSTOM HOMES",,,,,"MANNA CUSTOM HOMES","620 CALDWELL ST",LEXINGTON,TX,78947-6370,"(254) 931-4081",,,,
TX,TRAVIS,"2021-013165 BP","Residential Swimming Pools & Spas",2/12/2021,,30000,189,"1115 W 31ST ST",AUSTIN,TX,78705,,,CONTRACTOR,,,,,,,,,,,"DIG B",,,,,"DIG B","1614 FOREST TRL",AUSTIN,TX,78703-3232,"(512) 586-8652",,,"CRAIG HOVERMAN",
TX,TRAVIS,"2021-009280 BP","Residential Swimming Pools & Spas",2/12/2021,,41172,403,"10417 BRAMBLE BERRY DR",AUSTIN,TX,78748,MALONE,2,"RICARDO MOYA","10417 BRAMBLE BERRY DR",AUSTIN,TX,78748,,Owner,,,,,"GARY'S POOL & PATIO ",,,,,"GARY'S POOL & PATIO ","13800 SAN PEDRO AVE STE 2","SAN ANTONIO",TX,78232-4466,"(210) 494-5002",http://www.garyspoolandpatio.com/,,,
TX,TRAVIS,"2021-021594 BP","Residential Swimming Pools & Spas",2/11/2021,,56000,360,"2210 S 3RD ST",AUSTIN,TX,78704,BAWCOM,2,CONTRACTOR,,,,,,,,,,,"ANTHONY & SYLVAN POOLS",,,,,"ANTHONY & SYLVAN POOLS","13343 N HIGHWAY 183 STE 295",AUSTIN,TX,78750-7161,"(512) 258-1232",http://www.anthonysylvan.com/,,,
TX,TRAVIS,"2020-192734 BP","Residential Swimming Pools & Spas",2/12/2021,,59640,560,"1904 PETRIFIED FOREST DR",AUSTIN,TX,78747,"PARKSIDE AT SLAUGHTER CREEK",125,"CHARLES BRENT","1904 PETRIFIED FOREST DR",AUSTIN,TX,78747,,Owner,,,,,"GARY'S POOL & PATIO ",,,,,"GARY'S POOL & PATIO ","13800 SAN PEDRO AVE STE 2","SAN ANTONIO",TX,78232-4466,"(210) 494-5002",http://www.garyspoolandpatio.com/,,,
TX,TRAVIS,"2021-011183 BP","Residential Swimming Pools & Spas",2/10/2021,,78500,400,"7300 ROLLING STONE CV",AUSTIN,TX,78739,LACROSSE,16,"WESLEY & SONIA DORRIS","7300 ROLLING STONE CV",AUSTIN,TX,78739,,Owner,,,,,"PREMIER POOLS & SPAS",,,,,"PREMIER POOLS & SPAS","7703 N LAMAR BLVD STE 606",AUSTIN,TX,78752-1027,"(512) 470-3949",,,,
TX,TRAVIS,"2021-021053 BP","Residential Swimming Pools & Spas",2/12/2021,,84000,475,"12421 TABOR OAKS DR",AUSTIN,TX,78739,"BARKER RANCH AT SHADY HOLLOW",15,"JOSHUA & SHARON POZOS","12421 TABOR OAKS DR",AUSTIN,TX,78739,,Owner,,,,,"ANTHONY & SYLVAN POOLS",,,,,"ANTHONY & SYLVAN POOLS","13343 N HIGHWAY 183 STE 295",AUSTIN,TX,78750-7161,"(512) 258-1232",http://www.anthonysylvan.com/,,,
TX,WILLIAMSON,2101-0002,Retail,1/8/2021,,40000,,"2200 E PALM VALLEY BLVD 118","ROUND ROCK",TX,78664,,,"TOTAL MENS PRIMARY CARE","2200 E PALM VALLEY BLVD 118","ROUND ROCK",TX,78664,,Owner,,,,,OWNER,,,,,OWNER,,,,,,,,,
TX,WILLIAMSON,2101-0013,Retail,1/19/2021,,405735,,"900 E OLD SETTLERS BLVD 350","ROUND ROCK",TX,78864,,,"EASTGROUP PROPERTIES","900 E OLD SETTLERS BLVD 350","ROUND ROCK",TX,78864,,Owner,,,,,"DH ALLEN",,,,,"DH ALLEN","8868 RESEARCH BLVD STE 307",AUSTIN,TX,78758-6401,"(512) 342-1677",,,,
TX,WILLIAMSON,2101-0014,Retail,1/19/2021,,430131,,"900 E OLD SETTLERS BLVD 400","ROUND ROCK",TX,78864,,,CONTRACTOR,,,,,,,,,,,"DH ALLEN",,,,,"DH ALLEN","8868 RESEARCH BLVD STE 307",AUSTIN,TX,78758-6401,"(512) 342-1677",,,,
TX,WILLIAMSON,2101-0019,Retail,1/26/2021,,625000,,"799 LOUIS HENNA BLVD 200","ROUND ROCK",TX,78864,,,WALGREENS,"799 LOUIS HENNA BLVD 200","ROUND ROCK",TX,78864,,Owner,,,,,OWNER,,,,,OWNER,,,,,,,,,
TX,WILLIAMSON,2101-0022,Retail,1/28/2021,,990000,,"4700 E PALM VALLEY BLVD","ROUND ROCK",TX,78664,,,CONTRACTOR,,,,,,,,,,,"BETTER BUILT ENTERPRISES",,,,,"BETTER BUILT ENTERPRISES","1123 W BLANCO RD","SAN ANTONIO",TX,78232-1012,"(210) 492-5437",http://www.betterbuiltenterprises.net,"(210) 492-8462",,office@betterbuiltenterprises.net
TX,WILLIAMSON,2101-0023,Retail,1/28/2021,,3096720,,"3750 GATTIS SCHOOL RD","ROUND ROCK",TX,78864,,,"HEB GROCERY COMPANY","3750 GATTIS SCHOOL RD","ROUND ROCK",TX,78864,,Owner,,,,,OWNER,,,,,OWNER,,,,,,,,,
TX,WILLIAMSON,2003-0020,"Single Family Homes",1/7/2021,,458990,,"3024 MILETTO DR","ROUND ROCK",TX,78864,,,CONTRACTOR,,,,,,,,,,,"TAYLOR MORRISON OF TEXAS",,,,,"TAYLOR MORRISON OF TEXAS","11200 LAKELINE BLVD STE 150A",AUSTIN,TX,78717-5964,"(512) 328-8866",,"(512) 328-7988",,
TX,WILLIAMSON,2101-0003,"Single Family Homes",1/22/2021,,307990,,"3104 MILETTO DR","ROUND ROCK",TX,78664,,,CONTRACTOR,,,,,,,,,,,"TAYLOR MORRISON OF TEXAS",,,,,"TAYLOR MORRISON OF TEXAS","11200 LAKELINE BLVD STE 150A",AUSTIN,TX,78717-5964,"(512) 328-8866",,"(512) 328-7988",,
TX,WILLIAMSON,2101-0004,"Single Family Homes",1/22/2021,,365990,,"3117 CAPRA CV","ROUND ROCK",TX,78864,,,CONTRACTOR,,,,,,,,,,,"TAYLOR MORRISON OF TEXAS",,,,,"TAYLOR MORRISON OF TEXAS","11200 LAKELINE BLVD STE 150A",AUSTIN,TX,78717-5964,"(512) 328-8866",,"(512) 328-7988",,
TX,WILLIAMSON,2101-0005,"Single Family Homes",1/22/2021,,330990,,"5319 CORNETTO BLFS","ROUND ROCK",TX,78864,,,CONTRACTOR,,,,,,,,,,,"TAYLOR MORRISON OF TEXAS",,,,,"TAYLOR MORRISON OF TEXAS","11200 LAKELINE BLVD STE 150A",AUSTIN,TX,78717-5964,"(512) 328-8866",,"(512) 328-7988",,
TX,WILLIAMSON,2101-0019,"Single Family Homes",1/25/2021,,430990,,"5328 ORSINI BLFS","ROUND ROCK",TX,78664,,,CONTRACTOR,,,,,,,,,,,"TAYLOR MORRISON OF TEXAS",,,,,"TAYLOR MORRISON OF TEXAS","11200 LAKELINE BLVD STE 150A",AUSTIN,TX,78717-5964,"(512) 328-8866",,"(512) 328-7988",,
TX,WILLIAMSON,2101-0020,"Single Family Homes",1/25/2021,,426990,,"5258 ORSINI BLFS","ROUND ROCK",TX,78664,,,CONTRACTOR,,,,,,,,,,,"TAYLOR MORRISON OF TEXAS",,,,,"TAYLOR MORRISON OF TEXAS","11200 LAKELINE BLVD STE 150A",AUSTIN,TX,78717-5964,"(512) 328-8866",,"(512) 328-7988",,
TX,WILLIAMSON,2101-0021,"Single Family Homes",1/25/2021,,448990,,"5257 ORSINI BLFS","ROUND ROCK",TX,78664,,,CONTRACTOR,,,,,,,,,,,"TAYLOR MORRISON OF TEXAS",,,,,"TAYLOR MORRISON OF TEXAS","11200 LAKELINE BLVD STE 150A",AUSTIN,TX,78717-5964,"(512) 328-8866",,"(512) 328-7988",,
TX,WILLIAMSON,2101-0022,"Single Family Homes",1/21/2021,,250000,,"2105 TIGER TRL 202","ROUND ROCK",TX,78664,,,CONTRACTOR,,,,,,,,,,,"CH ENTERPRISES",,,,,"CH ENTERPRISES","695 SUNSET DRIVE",WIMBERLEY,TX,78676,"(512) 722-6000",,,,
TX,WILLIAMSON,2101-0023,"Single Family Homes",1/21/2021,,250000,,"2105 TIGER TRL 203","ROUND ROCK",TX,78664,,,CONTRACTOR,,,,,,,,,,,"CH ENTERPRISES",,,,,"CH ENTERPRISES","695 SUNSET DRIVE",WIMBERLEY,TX,78676,"(512) 722-6000",,,,
TX,WILLIAMSON,2101-0025,"Single Family Homes",1/26/2021,,283990,,"3215 BARTOLI GDNS","ROUND ROCK",TX,78664,,,CONTRACTOR,,,,,,,,,,,"TAYLOR MORRISON OF TEXAS",,,,,"TAYLOR MORRISON OF TEXAS","11200 LAKELINE BLVD STE 150A",AUSTIN,TX,78717-5964,"(512) 328-8866",,"(512) 328-7988",,
TX,WILLIAMSON,2101-0026,"Single Family Homes",1/26/2021,,441990,,"5303 ORSINI BLFS","ROUND ROCK",TX,78664,,,CONTRACTOR,,,,,,,,,,,"TAYLOR MORRISON OF TEXAS",,,,,"TAYLOR MORRISON OF TEXAS","11200 LAKELINE BLVD STE 150A",AUSTIN,TX,78717-5964,"(512) 328-8866",,"(512) 328-7988",,
TX,WILLIAMSON,2101-0027,"Single Family Homes",1/26/2021,,453990,,"5311 ORSINI BLFS","ROUND ROCK",TX,78664,,,CONTRACTOR,,,,,,,,,,,"TAYLOR MORRISON OF TEXAS",,,,,"TAYLOR MORRISON OF TEXAS","11200 LAKELINE BLVD STE 150A",AUSTIN,TX,78717-5964,"(512) 328-8866",,"(512) 328-7988",,
TX,WILLIAMSON,2101-0028,"Single Family Homes",1/26/2021,,453990,,"5324 ORSINI BLFS","ROUND ROCK",TX,78664,,,CONTRACTOR,,,,,,,,,,,"TAYLOR MORRISON OF TEXAS",,,,,"TAYLOR MORRISON OF TEXAS","11200 LAKELINE BLVD STE 150A",AUSTIN,TX,78717-5964,"(512) 328-8866",,"(512) 328-7988",,
TX,WILLIAMSON,2101-0029,"Single Family Homes",1/26/2021,,405990,,"5315 ORSINI BLFS","ROUND ROCK",TX,78664,,,CONTRACTOR,,,,,,,,,,,"TAYLOR MORRISON OF TEXAS",,,,,"TAYLOR MORRISON OF TEXAS","11200 LAKELINE BLVD STE 150A",AUSTIN,TX,78717-5964,"(512) 328-8866",,"(512) 328-7988",,
TX,WILLIAMSON,2101-0030,"Single Family Homes",1/26/2021,,505990,,"5261 ORSINI BLFS","ROUND ROCK",TX,78664,,,CONTRACTOR,,,,,,,,,,,"TAYLOR MORRISON OF TEXAS",,,,,"TAYLOR MORRISON OF TEXAS","11200 LAKELINE BLVD STE 150A",AUSTIN,TX,78717-5964,"(512) 328-8866",,"(512) 328-7988",,
TX,WILLIAMSON,2101-0031,"Single Family Homes",1/26/2021,,518990,,"5262 ORSINI BLFS","ROUND ROCK",TX,78664,,,CONTRACTOR,,,,,,,,,,,"TAYLOR MORRISON OF TEXAS",,,,,"TAYLOR MORRISON OF TEXAS","11200 LAKELINE BLVD STE 150A",AUSTIN,TX,78717-5964,"(512) 328-8866",,"(512) 328-7988",,
TX,WILLIAMSON,2101-0032,"Single Family Homes",1/26/2021,,517998,,"2455 CAPESTRANO CIR","ROUND ROCK",TX,78664,,,CONTRACTOR,,,,,,,,,,,"TAYLOR MORRISON OF TEXAS",,,,,"TAYLOR MORRISON OF TEXAS","11200 LAKELINE BLVD STE 150A",AUSTIN,TX,78717-5964,"(512) 328-8866",,"(512) 328-7988",,
TX,WILLIAMSON,2101-0018,"Single Family Homes",1/21/2021,,250000,,"2105 TIGER TRL 201","ROUND ROCK",TX,78664,,,CONTRACTOR,,,,,,,,,,,"CH ENTERPRISES",,,,,"CH ENTERPRISES","695 SUNSET DRIVE",WIMBERLEY,TX,78676,"(512) 722-6000",,,,
TX,HAYS,2020-34380,"Single Family Homes",1/21/2021,,230487.6,2114,"408 TRAILING LANTANA LN","SAN MARCOS",TX,78664,,,CONTRACTOR,,,,,,,,,,,"MHI MCGUYER HOMEBUILDERS",,,,,"MHI MCGUYER HOMEBUILDERS","8200 N MO PAC EXPY STE 300",AUSTIN,TX,78759-8844,"(512) 502-2050",,"(512) 388-1836","FRANK MCGUYER",
TX,HAYS,2020-31634,"Single Family Homes",1/27/2021,,85000,1280,"1411 EARLE ST","SAN MARCOS",TX,78660,,,CONTRACTOR,,,,,,,,,,,"HABITAT FOR HUMANITY-AUSTIN",,,,,"HABITAT FOR HUMANITY-AUSTIN","310 COMAL ST STE 100",AUSTIN,TX,78702-4450,"(512) 472-8788",,,,
TX,HAYS,2020-32208,"Single Family Homes",1/12/2021,,200000,3032,"623 STURGEON DR","SAN MARCOS",TX,78660,,,CONTRACTOR,,,,,,,,,,,"FIVE MILE CONSTRUCTION",,,,,"FIVE MILE CONSTRUCTION","608 CLYDE CT","SAN MARCOS",TX,78666,"(512) 757-1606",,,,
TX,HAYS,2020-32592,"Single Family Homes",1/26/2021,,250000,3332,"104 BALINESE CV CONDO 101","SAN MARCOS",TX,78660,,,CONTRACTOR,,,,,,,,,,,"BROOKFIELD RESIDENTIAL PROPERTIES",,,,,"BROOKFIELD RESIDENTIAL PROPERTIES","11501 ALTERRA PKWY STE 100",AUSTIN,TX,78758-3201,"(512) 391-1330",,,,
TX,HAYS,2020-32931,"Single Family Homes",1/8/2021,,237370,4006,"3007 SAND POST PL","SAN MARCOS",TX,78660,,,CONTRACTOR,,,,,,,,,,,"NEW LEAF CUSTOM HOMES",,,,,"NEW LEAF CUSTOM HOMES","9601 WHITE ROCK TRL STE 205",DALLAS,TX,75238-5053,"(214) 642-4621",http://www.newleafdfw.com/,"(214) 723-5951","KATY GREGORY",katy@newleafdfw.com
TX,HAYS,2020-33395,"Single Family Homes",1/26/2021,,193000,1676,"906 GRAVEL ST","SAN MARCOS",TX,78660,,,CONTRACTOR,,,,,,,,,,,"ABEL & JOSE INVESTMENTS",,,,,"ABEL & JOSE INVESTMENTS","328 STORY DR",BUDA,TX,78610,"(512) 426-0424",,,,
TX,HAYS,2020-33667,"Single Family Homes",1/22/2021,,134035,3081,"252 EMERALD GARDEN RD","SAN MARCOS",TX,78660,,,CONTRACTOR,,,,,,,,,,,"SCOTT FELDER HOMES",,,,,"SCOTT FELDER HOMES","6414 RIVER PLACE BLVD STE 100",AUSTIN,TX,78730-1158,"(512) 418-5400",,,,
TX,HAYS,2020-33848,"Single Family Homes",1/25/2021,,384445,2912,"416 TRAILING LANTANA LN","SAN MARCOS",TX,78660,,,CONTRACTOR,,,,,,,,,,,"HIGHLAND HOMES",,,,,"HIGHLAND HOMES","4201 W PARMER LN STE B180",AUSTIN,TX,78727-4110,"(512) 834-8429",,,,
TX,HAYS,2020-33891,"Single Family Homes",1/12/2021,,232500,3886,"323 ANCIENT OAK WAY","SAN MARCOS",TX,78660,,,CONTRACTOR,,,,,,,,,,,"NEW LEAF CUSTOM HOMES",,,,,"NEW LEAF CUSTOM HOMES","9601 WHITE ROCK TRL STE 205",DALLAS,TX,75238-5053,"(214) 642-4621",http://www.newleafdfw.com/,"(214) 723-5951","KATY GREGORY",katy@newleafdfw.com
TX,HAYS,2020-33894,"Single Family Homes",1/12/2021,,232500,3886,"3003 SAND POST PL","SAN MARCOS",TX,78660,,,CONTRACTOR,,,,,,,,,,,"NEW LEAF CUSTOM HOMES",,,,,"NEW LEAF CUSTOM HOMES","9601 WHITE ROCK TRL STE 205",DALLAS,TX,75238-5053,"(214) 642-4621",http://www.newleafdfw.com/,"(214) 723-5951","KATY GREGORY",katy@newleafdfw.com
TX,HAYS,2020-33936,"Single Family Homes",1/21/2021,,374945,3340,"412 TEAKMILL TRL","SAN MARCOS",TX,78860,,,CONTRACTOR,,,,,,,,,,,"HIGHLAND HOMES",,,,,"HIGHLAND HOMES","4201 W PARMER LN STE B180",AUSTIN,TX,78727-4110,"(512) 834-8429",,,,
TX,HAYS,2020-33939,"Single Family Homes",1/22/2021,,473930,4013,"305 COPPER SAGE DR","SAN MARCOS",TX,78660,,,CONTRACTOR,,,,,,,,,,,"HIGHLAND HOMES",,,,,"HIGHLAND HOMES","4201 W PARMER LN STE B180",AUSTIN,TX,78727-4110,"(512) 834-8429",,,,
TX,HAYS,2020-33942,"Single Family Homes",1/21/2021,,329590,2249,"404 TRAILING LANTANA LN","SAN MARCOS",TX,78660,,,CONTRACTOR,,,,,,,,,,,"HIGHLAND HOMES",,,,,"HIGHLAND HOMES","4201 W PARMER LN STE B180",AUSTIN,TX,78727-4110,"(512) 834-8429",,,,
TX,HAYS,2020-33983,"Single Family Homes",1/21/2021,,268584,2756,"321 COPPER SAGE DR","SAN MARCOS",TX,78660,,,CONTRACTOR,,,,,,,,,,,"MHI MCGUYER HOMEBUILDERS",,,,,"MHI MCGUYER HOMEBUILDERS","8200 N MO PAC EXPY STE 300",AUSTIN,TX,78759-8844,"(512) 502-2050",,"(512) 388-1836","FRANK MCGUYER",
TX,HAYS,2020-33985,"Single Family Homes",1/21/2021,,354345,3871,"328 TEAKMILL TRL","SAN MARCOS",TX,78660,,,CONTRACTOR,,,,,,,,,,,"HIGHLAND HOMES",,,,,"HIGHLAND HOMES","4201 W PARMER LN STE B180",AUSTIN,TX,78727-4110,"(512) 834-8429",,,,
TX,HAYS,2020-34081,"Single Family Homes",1/19/2021,,584500,4087,"105 QUIET OAK RD","SAN MARCOS",TX,78660,,,CONTRACTOR,,,,,,,,,,,"HIGHLAND HOMES",,,,,"HIGHLAND HOMES","4201 W PARMER LN STE B180",AUSTIN,TX,78727-4110,"(512) 834-8429",,,,
TX,HAYS,2020-34096,"Single Family Homes",1/15/2021,,290934,2293,"129 ALBA AVE","SAN MARCOS",TX,78660,,,CONTRACTOR,,,,,,,,,,,"EHT OF TEXAS LP",,,,,"EHT OF TEXAS LP","3520 EXECUTIVE CENTER DR STE 100",AUSTIN,TX,78731-1636,"(757) 287-6394",,,,
TX,HAYS,2020-34108,"Single Family Homes",1/8/2021,,210442,2447,"433 GOLDEN GROVE PKWY","SAN MARCOS",TX,78660,,,CONTRACTOR,,,,,,,,,,,"DR HORTON",,,,,"DR HORTON","10700 PECAN PARK BLVD STE 400",AUSTIN,TX,78750-1227,"(512) 345-4663",,,,
TX,HAYS,2020-34111,"Single Family Homes",1/8/2021,,205540,6681,"425 GOLDEN GROVE PKWY","SAN MARCOS",TX,78660,,,CONTRACTOR,,,,,,,,,,,"DR HORTON",,,,,"DR HORTON","10700 PECAN PARK BLVD STE 400",AUSTIN,TX,78750-1227,"(512) 345-4663",,,,
TX,HAYS,2020-34113,"Single Family Homes",1/8/2021,,234092,2722,"104 CALLADO CIR","SAN MARCOS",TX,78660,,,CONTRACTOR,,,,,,,,,,,"DR HORTON",,,,,"DR HORTON","10700 PECAN PARK BLVD STE 400",AUSTIN,TX,78750-1227,"(512) 345-4663",,,,
TX,HAYS,2020-34116,"Single Family Homes",1/8/2021,,256108,2978,"119 CALLADO CIR","SAN MARCOS",TX,78660,,,CONTRACTOR,,,,,,,,,,,"DR HORTON",,,,,"DR HORTON","10700 PECAN PARK BLVD STE 400",AUSTIN,TX,78750-1227,"(512) 345-4663",,,,
TX,HAYS,2020-34117,"Single Family Homes",1/8/2021,,205540,2390,"123 CALLADO CIR","SAN MARCOS",TX,78660,,,CONTRACTOR,,,,,,,,,,,"DR HORTON",,,,,"DR HORTON","10700 PECAN PARK BLVD STE 400",AUSTIN,TX,78750-1227,"(512) 345-4663",,,,
TX,HAYS,2020-34119,"Single Family Homes",1/28/2021,,233146,2711,"131 CALLADO CIR","SAN MARCOS",TX,78660,,,CONTRACTOR,,,,,,,,,,,"DR HORTON",,,,,"DR HORTON","10700 PECAN PARK BLVD STE 400",AUSTIN,TX,78750-1227,"(512) 345-4663",,,,
TX,HAYS,2020-34120,"Single Family Homes",1/8/2021,,205368,2388,"112 CALLADO CIR","SAN MARCOS",TX,78666,,,CONTRACTOR,,,,,,,,,,,"DR HORTON",,,,,"DR HORTON","10700 PECAN PARK BLVD STE 400",AUSTIN,TX,78750-1227,"(512) 345-4663",,,,
TX,HAYS,2020-34122,"Single Family Homes",1/8/2021,,234092,2722,"120 CALLADO CIR","SAN MARCOS",TX,78666,,,CONTRACTOR,,,,,,,,,,,"DR HORTON",,,,,"DR HORTON","10700 PECAN PARK BLVD STE 400",AUSTIN,TX,78750-1227,"(512) 345-4663",,,,
TX,HAYS,2020-34123,"Single Family Homes",1/8/2021,,210442,2447,"127 CALLADO CIR","SAN MARCOS",TX,78666,,,CONTRACTOR,,,,,,,,,,,"DR HORTON",,,,,"DR HORTON","10700 PECAN PARK BLVD STE 400",AUSTIN,TX,78750-1227,"(512) 345-4663",,,,
TX,HAYS,2020-34176,"Single Family Homes",1/8/2021,,237188,2758,"139 CALLADO CIR","SAN MARCOS",TX,78660,,,CONTRACTOR,,,,,,,,,,,"DR HORTON",,,,,"DR HORTON","10700 PECAN PARK BLVD STE 400",AUSTIN,TX,78750-1227,"(512) 345-4663",,,,
TX,HAYS,2020-34178,"Single Family Homes",1/8/2021,,197112,2292,"143 CALLADO CIR","SAN MARCOS",TX,78666,,,CONTRACTOR,,,,,,,,,,,"DR HORTON",,,,,"DR HORTON","10700 PECAN PARK BLVD STE 400",AUSTIN,TX,78750-1227,"(512) 345-4663",,,,
TX,HAYS,2020-34179,"Single Family Homes",1/8/2021,,234092,2722,"147 CALLADO CIR","SAN MARCOS",TX,78666,,,CONTRACTOR,,,,,,,,,,,"DR HORTON",,,,,"DR HORTON","10700 PECAN PARK BLVD STE 400",AUSTIN,TX,78750-1227,"(512) 345-4663",,,,
TX,HAYS,2020-34181,"Single Family Homes",1/8/2021,,237618,2763,"155 CALLADO CIR","SAN MARCOS",TX,78666,,,CONTRACTOR,,,,,,,,,,,"DR HORTON",,,,,"DR HORTON","10700 PECAN PARK BLVD STE 400",AUSTIN,TX,78750-1227,"(512) 345-4663",,,,
TX,HAYS,2020-34183,"Single Family Homes",1/8/2021,,237188,2758,"132 CALLADO CIR","SAN MARCOS",TX,78666,,,CONTRACTOR,,,,,,,,,,,"DR HORTON",,,,,"DR HORTON","10700 PECAN PARK BLVD STE 400",AUSTIN,TX,78750-1227,"(512) 345-4663",,,,
TX,HAYS,2020-34184,"Single Family Homes",1/8/2021,,234092,2722,"136 CALLADO CIR","SAN MARCOS",TX,78666,,,CONTRACTOR,,,,,,,,,,,"DR HORTON",,,,,"DR HORTON","10700 PECAN PARK BLVD STE 400",AUSTIN,TX,78750-1227,"(512) 345-4663",,,,
TX,HAYS,2020-34185,"Single Family Homes",1/21/2021,,210442,2447,"140 CALLADO CIR","SAN MARCOS",TX,78666,,,CONTRACTOR,,,,,,,,,,,"DR HORTON",,,,,"DR HORTON","10700 PECAN PARK BLVD STE 400",AUSTIN,TX,78750-1227,"(512) 345-4663",,,,
TX,HAYS,2020-34186,"Single Family Homes",1/21/2021,,205368,2388,"144 CALLADO CIR","SAN MARCOS",TX,78666,,,CONTRACTOR,,,,,,,,,,,"DR HORTON",,,,,"DR HORTON","10700 PECAN PARK BLVD STE 400",AUSTIN,TX,78750-1227,"(512) 345-4663",,,,
TX,HAYS,2020-34212,"Single Family Homes",1/4/2021,,148650,1982,"318 SPINY LIZARD LN","SAN MARCOS",TX,78666,,,CONTRACTOR,,,,,,,,,,,"PACESETTER HOMES ",,,,,"PACESETTER HOMES ","7940 SHOAL CREEK BLVD STE 200",AUSTIN,TX,78757-7587,"(512) 323-5252",,,,
TX,HAYS,2020-34223,"Single Family Homes",1/22/2021,,148390,2698,"231 SPINY LIZARD LN","SAN MARCOS",TX,78666,,,CONTRACTOR,,,,,,,,,,,"BROHN HOMES",,,,,"BROHN HOMES","6720 VAUGHT RANCH RD STE 200",AUSTIN,TX,78730-2354,"(512) 320-8833",http://brohnhomes.com/,,,
TX,HAYS,2020-34226,"Single Family Homes",1/12/2021,,185700,2476,"140 EMERY OAK CT","SAN MARCOS",TX,78666,,,CONTRACTOR,,,,,,,,,,,"NEW LEAF CUSTOM HOMES",,,,,"NEW LEAF CUSTOM HOMES","9601 WHITE ROCK TRL STE 205",DALLAS,TX,75238-5053,"(214) 642-4621",http://www.newleafdfw.com/,"(214) 723-5951","KATY GREGORY",katy@newleafdfw.com
TX,HAYS,2020-34236,"Single Family Homes",1/12/2021,,250000,2522,"113 MULLIGAN DR CONDO 101","SAN MARCOS",TX,78666,,,CONTRACTOR,,,,,,,,,,,"BROOKFIELD RESIDENTIAL PROPERTIES",,,,,"BROOKFIELD RESIDENTIAL PROPERTIES","11501 ALTERRA PKWY STE 100",AUSTIN,TX,78758-3201,"(512) 391-1330",,,,
TX,HAYS,2020-34247,"Single Family Homes",1/12/2021,,281544,2601,"521 COPPER SAGE DR","SAN MARCOS",TX,78666,,,CONTRACTOR,,,,,,,,,,,"MHI MCGUYER HOMEBUILDERS",,,,,"MHI MCGUYER HOMEBUILDERS","8200 N MO PAC EXPY STE 300",AUSTIN,TX,78759-8844,"(512) 502-2050",,"(512) 388-1836","FRANK MCGUYER",
TX,HAYS,2020-34263,"Single Family Homes",1/5/2021,,424536,3724,"113 RUGOSA RD","SAN MARCOS",TX,78666,,,CONTRACTOR,,,,,,,,,,,"BUFFINGTON TEXAS CLASSIC HOMES",,,,,"BUFFINGTON TEXAS CLASSIC HOMES","8601 RANCH ROAD 2222 PARK CENTRE BLDG STE 150",AUSTIN,TX,78730,"(512) 579-4800",,,,
TX,HAYS,2020-34285,"Single Family Homes",1/21/2021,,306982.2,3535,"136 RAINBOW VALLEY TRL","SAN MARCOS",TX,78666,,,CONTRACTOR,,,,,,,,,,,"MHI MCGUYER HOMEBUILDERS",,,,,"MHI MCGUYER HOMEBUILDERS","8200 N MO PAC EXPY STE 300",AUSTIN,TX,78759-8844,"(512) 502-2050",,"(512) 388-1836","FRANK MCGUYER",
TX,HAYS,2020-34286,"Single Family Homes",1/5/2021,,250000,2934,"516 CALMING AGAVE WAY","SAN MARCOS",TX,78666,,,CONTRACTOR,,,,,,,,,,,"BROOKFIELD RESIDENTIAL PROPERTIES",,,,,"BROOKFIELD RESIDENTIAL PROPERTIES","11501 ALTERRA PKWY STE 100",AUSTIN,TX,78758-3201,"(512) 391-1330",,,,
TX,HAYS,2020-34289,"Single Family Homes",1/21/2021,,330668.8,3776,"537 COPPER SAGE DR","SAN MARCOS",TX,78666,,,CONTRACTOR,,,,,,,,,,,"MHI MCGUYER HOMEBUILDERS",,,,,"MHI MCGUYER HOMEBUILDERS","8200 N MO PAC EXPY STE 300",AUSTIN,TX,78759-8844,"(512) 502-2050",,"(512) 388-1836","FRANK MCGUYER",
TX,HAYS,2020-34291,"Single Family Homes",1/8/2021,,250000,3740,"336 CALMING AGAVE WAY","SAN MARCOS",TX,78666,,,CONTRACTOR,,,,,,,,,,,"BROOKFIELD RESIDENTIAL PROPERTIES",,,,,"BROOKFIELD RESIDENTIAL PROPERTIES","11501 ALTERRA PKWY STE 100",AUSTIN,TX,78758-3201,"(512) 391-1330",,,,
TX,HAYS,2020-34293,"Single Family Homes",1/5/2021,,250000,3594,"420 CALMING AGAVE WAY","SAN MARCOS",TX,78666,,,CONTRACTOR,,,,,,,,,,,"BROOKFIELD RESIDENTIAL PROPERTIES",,,,,"BROOKFIELD RESIDENTIAL PROPERTIES","11501 ALTERRA PKWY STE 100",AUSTIN,TX,78758-3201,"(512) 391-1330",,,,
TX,HAYS,2020-34299,"Single Family Homes",1/7/2021,,250000,2093,"214 CALMING AGAVE WAY","SAN MARCOS",TX,78666,,,CONTRACTOR,,,,,,,,,,,"BROOKFIELD RESIDENTIAL PROPERTIES",,,,,"BROOKFIELD RESIDENTIAL PROPERTIES","11501 ALTERRA PKWY STE 100",AUSTIN,TX,78758-3201,"(512) 391-1330",,,,
TX,HAYS,2020-34303,"Single Family Homes",1/7/2021,,465920,3779,"612 COPPER SAGE DR","SAN MARCOS",TX,78666,,,CONTRACTOR,,,,,,,,,,,"HIGHLAND HOMES",,,,,"HIGHLAND HOMES","4201 W PARMER LN STE B180",AUSTIN,TX,78727-4110,"(512) 834-8429",,,,
TX,HAYS,2020-34309,"Single Family Homes",1/29/2021,,324650,3172,"109 BLUE OAK BLVD","SAN MARCOS",TX,78666,,,CONTRACTOR,,,,,,,,,,,"EHT OF TEXAS LP",,,,,"EHT OF TEXAS LP","3520 EXECUTIVE CENTER DR STE 100",AUSTIN,TX,78731-1636,"(757) 287-6394",,,,
TX,HAYS,2020-34322,"Single Family Homes",1/11/2021,,140985,1645,"131 VINTAGE DR","SAN MARCOS",TX,78666,,,CONTRACTOR,,,,,,,,,,,"LENNAR HOMES",,,,,"LENNAR HOMES","13620 FM 620 RD 150",AUSTIN,TX,78717,"(512) 506-4000",http://www.lennar.com/,,,
TX,HAYS,2020-34323,"Single Family Homes",1/11/2021,,200460,2532,"135 VINTAGE DR","SAN MARCOS",TX,78666,,,CONTRACTOR,,,,,,,,,,,"LENNAR HOMES",,,,,"LENNAR HOMES","13620 FM 620 RD 150",AUSTIN,TX,78717,"(512) 506-4000",http://www.lennar.com/,,,
TX,HAYS,2020-34330,"Single Family Homes",1/21/2021,,169764,1974,"320 BRODY LN","SAN MARCOS",TX,78666,,,CONTRACTOR,,,,,,,,,,,"DR HORTON",,,,,"DR HORTON","10700 PECAN PARK BLVD STE 400",AUSTIN,TX,78750-1227,"(512) 345-4663",,,,
TX,HAYS,2020-34336,"Single Family Homes",1/21/2021,,274351.8,2691,"128 HEARTLEAF RD","SAN MARCOS",TX,78666,,,CONTRACTOR,,,,,,,,,,,"MHI MCGUYER HOMEBUILDERS",,,,,"MHI MCGUYER HOMEBUILDERS","8200 N MO PAC EXPY STE 300",AUSTIN,TX,78759-8844,"(512) 502-2050",,"(512) 388-1836","FRANK MCGUYER",
TX,HAYS,2020-34340,"Single Family Homes",1/21/2021,,200460,2532,"245 ESCONDIDO CIR","SAN MARCOS",TX,78666,,,CONTRACTOR,,,,,,,,,,,"LENNAR HOMES",,,,,"LENNAR HOMES","13620 FM 620 RD 150",AUSTIN,TX,78717,"(512) 506-4000",http://www.lennar.com/,,,
TX,HAYS,2020-34341,"Single Family Homes",1/12/2021,,250000,13191,"124 TWIRLING PECAN CV","SAN MARCOS",TX,78666,,,CONTRACTOR,,,,,,,,,,,"BROOKFIELD RESIDENTIAL PROPERTIES",,,,,"BROOKFIELD RESIDENTIAL PROPERTIES","11501 ALTERRA PKWY STE 100",AUSTIN,TX,78758-3201,"(512) 391-1330",,,,
TX,HAYS,2020-34342,"Single Family Homes",1/14/2021,,250000,2164,"206 CALMING AGAVE WAY","SAN MARCOS",TX,78666,,,CONTRACTOR,,,,,,,,,,,"BROOKFIELD RESIDENTIAL PROPERTIES",,,,,"BROOKFIELD RESIDENTIAL PROPERTIES","11501 ALTERRA PKWY STE 100",AUSTIN,TX,78758-3201,"(512) 391-1330",,,,
TX,HAYS,2020-34343,"Single Family Homes",1/27/2021,,250000,3582,"508 CALMING AGAVE WAY","SAN MARCOS",TX,78666,,,CONTRACTOR,,,,,,,,,,,"BROOKFIELD RESIDENTIAL PROPERTIES",,,,,"BROOKFIELD RESIDENTIAL PROPERTIES","11501 ALTERRA PKWY STE 100",AUSTIN,TX,78758-3201,"(512) 391-1330",,,,
TX,HAYS,2020-34350,"Single Family Homes",1/11/2021,,162825,1966,"116 VINTAGE DR","SAN MARCOS",TX,78666,,,CONTRACTOR,,,,,,,,,,,"LENNAR HOMES",,,,,"LENNAR HOMES","13620 FM 620 RD 150",AUSTIN,TX,78717,"(512) 506-4000",http://www.lennar.com/,,,
TX,HAYS,2020-34351,"Single Family Homes",1/11/2021,,117910,1312,"112 VINTAGE DR","SAN MARCOS",TX,78666,,,CONTRACTOR,,,,,,,,,,,"LENNAR HOMES",,,,,"LENNAR HOMES","13620 FM 620 RD 150",AUSTIN,TX,78717,"(512) 506-4000",http://www.lennar.com/,,,
TX,HAYS,2020-34359,"Single Family Homes",1/11/2021,,150670,1771,"139 VINTAGE DR","SAN MARCOS",TX,78666,,,CONTRACTOR,,,,,,,,,,,"LENNAR HOMES",,,,,"LENNAR HOMES","13620 FM 620 RD 150",AUSTIN,TX,78717,"(512) 506-4000",http://www.lennar.com/,,,
TX,HAYS,2020-34379,"Single Family Homes",1/21/2021,,313915.2,2762,"121 QUIET OAK RD","SAN MARCOS",TX,78666,,,CONTRACTOR,,,,,,,,,,,"MHI MCGUYER HOMEBUILDERS",,,,,"MHI MCGUYER HOMEBUILDERS","8200 N MO PAC EXPY STE 300",AUSTIN,TX,78759-8844,"(512) 502-2050",,"(512) 388-1836","FRANK MCGUYER",
TX,HAYS,2020-34395,"Single Family Homes",1/11/2021,,163345,2022,"226 ESCONDIDO CIR","SAN MARCOS",TX,78666,,,CONTRACTOR,,,,,,,,,,,"LENNAR HOMES",,,,,"LENNAR HOMES","13620 FM 620 RD 150",AUSTIN,TX,78717,"(512) 506-4000",http://www.lennar.com/,,,
TX,HAYS,2021-34399,"Single Family Homes",1/28/2021,,557085,4174,"524 COPPER SAGE DR","SAN MARCOS",TX,78666,,,CONTRACTOR,,,,,,,,,,,"HIGHLAND HOMES",,,,,"HIGHLAND HOMES","4201 W PARMER LN STE B180",AUSTIN,TX,78727-4110,"(512) 834-8429",,,,
TX,HAYS,2021-34405,"Single Family Homes",1/14/2021,,137345,1601,"108 VINTAGE DR","SAN MARCOS",TX,78666,,,CONTRACTOR,,,,,,,,,,,"LENNAR HOMES",,,,,"LENNAR HOMES","13620 FM 620 RD 150",AUSTIN,TX,78717,"(512) 506-4000",http://www.lennar.com/,,,
TX,HAYS,2021-34414,"Single Family Homes",1/20/2021,,432630,3795,"112 RUGOSA RD","SAN MARCOS",TX,78666,,,CONTRACTOR,,,,,,,,,,,"BUFFINGTON TEXAS CLASSIC HOMES",,,,,"BUFFINGTON TEXAS CLASSIC HOMES","8601 RANCH ROAD 2222 PARK CENTRE BLDG STE 150",AUSTIN,TX,78730,"(512) 579-4800",,,,
TX,HAYS,2021-34415,"Single Family Homes",1/20/2021,,384864,3376,"145 BLUE OAK BLVD","SAN MARCOS",TX,78666,,,CONTRACTOR,,,,,,,,,,,"BUFFINGTON TEXAS CLASSIC HOMES",,,,,"BUFFINGTON TEXAS CLASSIC HOMES","8601 RANCH ROAD 2222 PARK CENTRE BLDG STE 150",AUSTIN,TX,78730,"(512) 579-4800",,,,
TX,HAYS,2021-34416,"Single Family Homes",1/19/2021,,250000,3548,"113 CRUISING OAK ST","SAN MARCOS",TX,78666,,,CONTRACTOR,,,,,,,,,,,"BROOKFIELD RESIDENTIAL PROPERTIES",,,,,"BROOKFIELD RESIDENTIAL PROPERTIES","11501 ALTERRA PKWY STE 100",AUSTIN,TX,78758-3201,"(512) 391-1330",,,,
TX,HAYS,2021-34422,"Single Family Homes",1/26/2021,,153525,2047,"2835 BRAND IRON DR","SAN MARCOS",TX,78666,,,CONTRACTOR,,,,,,,,,,,"PACESETTER HOMES ",,,,,"PACESETTER HOMES ","7940 SHOAL CREEK BLVD STE 200",AUSTIN,TX,78757-7587,"(512) 323-5252",,,,
TX,HAYS,2021-34424,"Single Family Homes",1/21/2021,,161925,2159,"205 WITCHHAZEL WAY","SAN MARCOS",TX,78666,,,CONTRACTOR,,,,,,,,,,,"PACESETTER HOMES ",,,,,"PACESETTER HOMES ","7940 SHOAL CREEK BLVD STE 200",AUSTIN,TX,78757-7587,"(512) 323-5252",,,,
TX,HAYS,2021-34426,"Single Family Homes",1/21/2021,,162525,2167,"213 WITCHHAZEL WAY","SAN MARCOS",TX,78666,,,CONTRACTOR,,,,,,,,,,,"PACESETTER HOMES ",,,,,"PACESETTER HOMES ","7940 SHOAL CREEK BLVD STE 200",AUSTIN,TX,78757-7587,"(512) 323-5252",,,,
TX,HAYS,2021-34433,"Single Family Homes",1/21/2021,,110925,1479,"117 WILLIAM MOON WAY","SAN MARCOS",TX,78666,,,CONTRACTOR,,,,,,,,,,,"PACESETTER HOMES ",,,,,"PACESETTER HOMES ","7940 SHOAL CREEK BLVD STE 200",AUSTIN,TX,78757-7587,"(512) 323-5252",,,,
TX,HAYS,2021-34440,"Single Family Homes",1/29/2021,,554835,4146,"533 COPPER SAGE DR","SAN MARCOS",TX,78666,,,CONTRACTOR,,,,,,,,,,,"HIGHLAND HOMES",,,,,"HIGHLAND HOMES","4201 W PARMER LN STE B180",AUSTIN,TX,78727-4110,"(512) 834-8429",,,,
TX,HAYS,2021-34444,"Single Family Homes",1/26/2021,,105625,1275,"137 RUSTIC GLEN DR","SAN MARCOS",TX,78666,,,CONTRACTOR,,,,,,,,,,,"PACESETTER HOMES ",,,,,"PACESETTER HOMES ","7940 SHOAL CREEK BLVD STE 200",AUSTIN,TX,78757-7587,"(512) 323-5252",,,,
TX,HAYS,2021-34445,"Single Family Homes",1/27/2021,,145500,1940,"226 SPINY LIZARD LN","SAN MARCOS",TX,78666,,,CONTRACTOR,,,,,,,,,,,"PACESETTER HOMES ",,,,,"PACESETTER HOMES ","7940 SHOAL CREEK BLVD STE 200",AUSTIN,TX,78757-7587,"(512) 323-5252",,,,
TX,HAYS,2021-34457,"Single Family Homes",1/27/2021,,250000,2695,"412 CALMING AGAVE WAY","SAN MARCOS",TX,78666,,,CONTRACTOR,,,,,,,,,,,"BROOKFIELD RESIDENTIAL PROPERTIES",,,,,"BROOKFIELD RESIDENTIAL PROPERTIES","11501 ALTERRA PKWY STE 100",AUSTIN,TX,78758-3201,"(512) 391-1330",,,,
TX,HAYS,2021-34458,"Single Family Homes",1/27/2021,,250000,3176,"332 CALMING AGAVE WAY","SAN MARCOS",TX,78666,,,CONTRACTOR,,,,,,,,,,,"BROOKFIELD RESIDENTIAL PROPERTIES",,,,,"BROOKFIELD RESIDENTIAL PROPERTIES","11501 ALTERRA PKWY STE 100",AUSTIN,TX,78758-3201,"(512) 391-1330",,,,
TX,HAYS,2021-34459,"Single Family Homes",1/27/2021,,250000,3634,"404 CALMING AGAVE WAY","SAN MARCOS",TX,78666,,,CONTRACTOR,,,,,,,,,,,"BROOKFIELD RESIDENTIAL PROPERTIES",,,,,"BROOKFIELD RESIDENTIAL PROPERTIES","11501 ALTERRA PKWY STE 100",AUSTIN,TX,78758-3201,"(512) 391-1330",,,,
TX,HAYS,2021-34478,"Single Family Homes",1/28/2021,,330828,2902,"124 BLUE OAK BLVD","SAN MARCOS",TX,78666,,,CONTRACTOR,,,,,,,,,,,"BUFFINGTON TEXAS CLASSIC HOMES",,,,,"BUFFINGTON TEXAS CLASSIC HOMES","8601 RANCH ROAD 2222 PARK CENTRE BLDG STE 150",AUSTIN,TX,78730,"(512) 579-4800",,,,
TX,HAYS,2021-34479,"Single Family Homes",1/28/2021,,162825,1966,"127 VINTAGE DR","SAN MARCOS",TX,78666,,,CONTRACTOR,,,,,,,,,,,"LENNAR HOMES",,,,,"LENNAR HOMES","13620 FM 620 RD 150",AUSTIN,TX,78717,"(512) 506-4000",http://www.lennar.com/,,,
TX,HAYS,2021-34485,"Single Family Homes",1/28/2021,,128245,1447,"240 ESCONDIDO CIR","SAN MARCOS",TX,78666,,,CONTRACTOR,,,,,,,,,,,"LENNAR HOMES",,,,,"LENNAR HOMES","13620 FM 620 RD 150",AUSTIN,TX,78717,"(512) 506-4000",http://www.lennar.com/,,,
TX,HAYS,2021-34496,"Single Family Homes",1/28/2021,,163345,2011,"123 VINTAGE DR","SAN MARCOS",TX,78666,,,CONTRACTOR,,,,,,,,,,,"LENNAR HOMES",,,,,"LENNAR HOMES","13620 FM 620 RD 150",AUSTIN,TX,78717,"(512) 506-4000",http://www.lennar.com/,,,
TX,HAYS,2021-34497,"Single Family Homes",1/28/2021,,140985,1645,"119 VINTAGE DR","SAN MARCOS",TX,78666,,,CONTRACTOR,,,,,,,,,,,"LENNAR HOMES",,,,,"LENNAR HOMES","13620 FM 620 RD 150",AUSTIN,TX,78717,"(512) 506-4000",http://www.lennar.com/,,,
TX,HAYS,2021-34498,"Single Family Homes",1/27/2021,,250000,3192,"433 FLYING ORCHID DR","SAN MARCOS",TX,78666,,,CONTRACTOR,,,,,,,,,,,"BROOKFIELD RESIDENTIAL PROPERTIES",,,,,"BROOKFIELD RESIDENTIAL PROPERTIES","11501 ALTERRA PKWY STE 100",AUSTIN,TX,78758-3201,"(512) 391-1330",,,,
TX,HAYS,2021-34499,"Single Family Homes",1/27/2021,,250000,2765,"231 CALMING AGAVE WAY","SAN MARCOS",TX,78666,,,CONTRACTOR,,,,,,,,,,,"BROOKFIELD RESIDENTIAL PROPERTIES",,,,,"BROOKFIELD RESIDENTIAL PROPERTIES","11501 ALTERRA PKWY STE 100",AUSTIN,TX,78758-3201,"(512) 391-1330",,,,
TX,HAYS,2021-34500,"Single Family Homes",1/27/2021,,250000,3334,"405 CALMING AGAVE WAY","SAN MARCOS",TX,78666,,,CONTRACTOR,,,,,,,,,,,"BROOKFIELD RESIDENTIAL PROPERTIES",,,,,"BROOKFIELD RESIDENTIAL PROPERTIES","11501 ALTERRA PKWY STE 100",AUSTIN,TX,78758-3201,"(512) 391-1330",,,,
TX,HAYS,2021-34501,"Single Family Homes",1/27/2021,,250000,2805,"223 CALMING AGAVE WAY","SAN MARCOS",TX,78666,,,CONTRACTOR,,,,,,,,,,,"BROOKFIELD RESIDENTIAL PROPERTIES",,,,,"BROOKFIELD RESIDENTIAL PROPERTIES","11501 ALTERRA PKWY STE 100",AUSTIN,TX,78758-3201,"(512) 391-1330",,,,
TX,HAYS,BLR2020-3617,"Single Family Homes",1/4/2021,,89540,1628,"1417 GOFORTH RD",KYLE,TX,78640,"CASETTA RANCH",,CONTRACTOR,,,,,,,,,,,"BROHN HOMES",,,,,"BROHN HOMES","6720 VAUGHT RANCH RD STE 200",AUSTIN,TX,78730-2354,"(512) 320-8833",http://brohnhomes.com/,,,
TX,HAYS,BLR2020-3629,"Single Family Homes",1/4/2021,,125125,2275,BLR2020-3629,KYLE,TX,78640,"CASETTA RANCH",,CONTRACTOR,,,,,,,,,,,"BROHN HOMES",,,,,"BROHN HOMES","6720 VAUGHT RANCH RD STE 200",AUSTIN,TX,78730-2354,"(512) 320-8833",http://brohnhomes.com/,,,
TX,HAYS,BLR2020-3618,"Single Family Homes",1/4/2021,,190000,3847,"125 BROOKS RANCH DR",KYLE,TX,78640,"BROOKS RANCH",,CONTRACTOR,,,,,,,,,,,"BLACKBURN HOMES",,,,,"BLACKBURN HOMES","3750 E PALM VALLEY BLVD","ROUND ROCK",TX,78665-3312,"(512) 341-9212",https://www.blackburncommunities.com,,,
TX,HAYS,BLR2020-3619,"Single Family Homes",1/4/2021,,180000,2810,"135 BROOKS RANCH DR",KYLE,TX,78640,"BROOKS RANCH",,CONTRACTOR,,,,,,,,,,,"BLACKBURN HOMES",,,,,"BLACKBURN HOMES","3750 E PALM VALLEY BLVD","ROUND ROCK",TX,78665-3312,"(512) 341-9212",https://www.blackburncommunities.com,,,
TX,HAYS,BLR2020-3624,"Single Family Homes",1/4/2021,,123232,2578,"488 SILVER SPRINGS BND",KYLE,TX,78640,"COOL SPRINGS",,CONTRACTOR,,,,,,,,,,,"MILESTONE COMMUNITY BUILDERS",,,,,"MILESTONE COMMUNITY BUILDERS","9111 JOLLYVILLE RD STE 111",AUSTIN,TX,78759-7406,"(512) 686-4986",http://www.mymilestone.com/,,,
TX,HAYS,BLR2020-3613,"Single Family Homes",1/4/2021,,129450,2213,"175 SILVER SPRINGS BND",KYLE,TX,78640,"COOL SPRINGS",,CONTRACTOR,,,,,,,,,,,"LENNAR HOMES",,,,,"LENNAR HOMES","13620 FM 620 RD 150",AUSTIN,TX,78717,"(512) 506-4000",http://www.lennar.com/,,,
TX,HAYS,BLR2020-3702,"Single Family Homes",1/5/2021,,340680,4008,"150 AUBURN ST",KYLE,TX,78640,"SUNSET HILLS",,CONTRACTOR,,,,,,,,,,,"KB HOME",,,,,"KB HOME","10800 PECAN PARK BLVD STE 200",AUSTIN,TX,78750-1249,"(512) 651-8100",,,,
TX,HAYS,BLR2020-3634,"Single Family Homes",1/6/2021,,387520,3182,"291 WEST BRANCH RD",KYLE,TX,78640,"SIX CREEKS",,CONTRACTOR,,,,,,,,,,,"HIGHLAND HOMES",,,,,"HIGHLAND HOMES","4201 W PARMER LN STE B180",AUSTIN,TX,78727-4110,"(512) 834-8429",,,,
TX,HAYS,BLR2020-3627,"Single Family Homes",1/6/2021,,130955,2381,"182 HORTUS DR",KYLE,TX,78640,"CASETTA RANCH",,CONTRACTOR,,,,,,,,,,,"BROHN HOMES",,,,,"BROHN HOMES","6720 VAUGHT RANCH RD STE 200",AUSTIN,TX,78730-2354,"(512) 320-8833",http://brohnhomes.com/,,,
TX,HAYS,BLR2020-3636,"Single Family Homes",1/6/2021,,117880,2269,"465 SILVER SPRINGS BND",KYLE,TX,78640,"COOL SPRINGS",,CONTRACTOR,,,,,,,,,,,"MILESTONE COMMUNITY BUILDERS",,,,,"MILESTONE COMMUNITY BUILDERS","9111 JOLLYVILLE RD STE 111",AUSTIN,TX,78759-7406,"(512) 686-4986",http://www.mymilestone.com/,,,
TX,HAYS,BLR2020-3637,"Single Family Homes",1/6/2021,,136738,2753,"367 SILVER GLEN DR",KYLE,TX,78640,"COOL SPRINGS",,CONTRACTOR,,,,,,,,,,,"MILESTONE COMMUNITY BUILDERS",,,,,"MILESTONE COMMUNITY BUILDERS","9111 JOLLYVILLE RD STE 111",AUSTIN,TX,78759-7406,"(512) 686-4986",http://www.mymilestone.com/,,,
TX,HAYS,BLR2020-3660,"Single Family Homes",1/6/2021,,143475,2548,"182 SILVER GLEN DR",KYLE,TX,78640,"COOL SPRINGS",,CONTRACTOR,,,,,,,,,,,"LENNAR HOMES",,,,,"LENNAR HOMES","13620 FM 620 RD 150",AUSTIN,TX,78717,"(512) 506-4000",http://www.lennar.com/,,,
TX,HAYS,BLR2020-3658,"Single Family Homes",1/6/2021,,189450,3223,"194 SILVER GLEN DR",KYLE,TX,78640,"COOL SPRINGS",,CONTRACTOR,,,,,,,,,,,"LENNAR HOMES",,,,,"LENNAR HOMES","13620 FM 620 RD 150",AUSTIN,TX,78717,"(512) 506-4000",http://www.lennar.com/,,,
TX,HAYS,BLR2020-3653,"Single Family Homes",1/6/2021,,105750,2029,"218 SILVER GLEN DR",KYLE,TX,78640,"COOL SPRINGS",,CONTRACTOR,,,,,,,,,,,"LENNAR HOMES",,,,,"LENNAR HOMES","13620 FM 620 RD 150",AUSTIN,TX,78717,"(512) 506-4000",http://www.lennar.com/,,,
TX,HAYS,BLR2020-3635,"Single Family Homes",1/6/2021,,96525,1899,"195 SILVER SPRINGS BND",KYLE,TX,78640,"COOL SPRINGS",,CONTRACTOR,,,,,,,,,,,"LENNAR HOMES",,,,,"LENNAR HOMES","13620 FM 620 RD 150",AUSTIN,TX,78717,"(512) 506-4000",http://www.lennar.com/,,,
TX,HAYS,BLR2020-3631,"Single Family Homes",1/6/2021,,105750,1923,"205 SILVER SPRINGS BND",KYLE,TX,78640,"COOL SPRINGS",,CONTRACTOR,,,,,,,,,,,"LENNAR HOMES",,,,,"LENNAR HOMES","13620 FM 620 RD 150",AUSTIN,TX,78717,"(512) 506-4000",http://www.lennar.com/,,,
TX,HAYS,BLR2020-3651,"Single Family Homes",1/6/2021,,133050,2311,"230 SILVER GLEN DR",KYLE,TX,78640,"COOL SPRINGS",,CONTRACTOR,,,,,,,,,,,"LENNAR HOMES",,,,,"LENNAR HOMES","13620 FM 620 RD 150",AUSTIN,TX,78717,"(512) 506-4000",http://www.lennar.com/,,,
TX,HAYS,BLR2020-3669,"Single Family Homes",1/7/2021,,126515,2343,"476 SILVER SPRINGS BND",KYLE,TX,78640,"COOL SPRINGS",,CONTRACTOR,,,,,,,,,,,"MILESTONE COMMUNITY BUILDERS",,,,,"MILESTONE COMMUNITY BUILDERS","9111 JOLLYVILLE RD STE 111",AUSTIN,TX,78759-7406,"(512) 686-4986",http://www.mymilestone.com/,,,
TX,HAYS,BLR2020-3670,"Single Family Homes",1/7/2021,,136738,2753,"222 SALT SPRINGS RD",KYLE,TX,78640,"COOL SPRINGS",,CONTRACTOR,,,,,,,,,,,"MILESTONE COMMUNITY BUILDERS",,,,,"MILESTONE COMMUNITY BUILDERS","9111 JOLLYVILLE RD STE 111",AUSTIN,TX,78759-7406,"(512) 686-4986",http://www.mymilestone.com/,,,
TX,HAYS,BLR2020-3615,"Single Family Homes",1/7/2021,,306700,3067,"510 BUNTON RESERVE BLVD",KYLE,TX,78640,"BUNTON CREEK RESERVE",,CONTRACTOR,,,,,,,,,,,"ASHTON WOODS HOMES",,,,,"ASHTON WOODS HOMES","4201 W PARMER LN STE A150",AUSTIN,TX,78727-4118,"(512) 610-7000",,,,
TX,HAYS,BLR2020-3616,"Single Family Homes",1/7/2021,,216600,2166,"520 BUNTON RESERVE BLVD",KYLE,TX,78640,"BUNTON CREEK RESERVE",,CONTRACTOR,,,,,,,,,,,"ASHTON WOODS HOMES",,,,,"ASHTON WOODS HOMES","4201 W PARMER LN STE A150",AUSTIN,TX,78727-4118,"(512) 610-7000",,,,
TX,HAYS,BLR2020-3661,"Single Family Homes",1/7/2021,,189450,3179,"201 SILVER GLEN DR",KYLE,TX,78640,"COOL SPRINGS",,CONTRACTOR,,,,,,,,,,,"LENNAR HOMES",,,,,"LENNAR HOMES","13620 FM 620 RD 150",AUSTIN,TX,78717,"(512) 506-4000",http://www.lennar.com/,,,
TX,HAYS,BLR2020-3655,"Single Family Homes",1/7/2021,,129450,2367,"206 SILVER GLEN DR",KYLE,TX,78640,"COOL SPRINGS",,CONTRACTOR,,,,,,,,,,,"LENNAR HOMES",,,,,"LENNAR HOMES","13620 FM 620 RD 150",AUSTIN,TX,78717,"(512) 506-4000",http://www.lennar.com/,,,
TX,HAYS,BLR2020-3685,"Single Family Homes",1/7/2021,,163520,2336,"170 OLYMPIC PARK DR",KYLE,TX,78640,PARAMOUNT,,CONTRACTOR,,,,,,,,,,,"CASTLEROCK COMMUNITIES",,,,,"CASTLEROCK COMMUNITIES","7670 WOODWAY DR STE 300",HOUSTON,TX,77063-1520,"(713) 600-7000",http://c-rock.com,"(713) 600-0000",,
TX,HAYS,BLR2020-3696,"Single Family Homes",1/8/2021,,120461,2570,"524 SILVER SPRINGS BND",KYLE,TX,78640,,,CONTRACTOR,,,,,,,,,,,"MILESTONE COMMUNITY BUILDERS",,,,,"MILESTONE COMMUNITY BUILDERS","9111 JOLLYVILLE RD STE 111",AUSTIN,TX,78759-7406,"(512) 686-4986",http://www.mymilestone.com/,,,
TX,HAYS,BLR2020-3697,"Single Family Homes",1/8/2021,,123232,2578,"355 SILVER GLEN DR",KYLE,TX,78640,"COOL SPRINGS",,CONTRACTOR,,,,,,,,,,,"MILESTONE COMMUNITY BUILDERS",,,,,"MILESTONE COMMUNITY BUILDERS","9111 JOLLYVILLE RD STE 111",AUSTIN,TX,78759-7406,"(512) 686-4986",http://www.mymilestone.com/,,,
TX,HAYS,BLR2020-3689,"Single Family Homes",1/8/2021,,123232,2578,"112 SILVER SPRINGS BND",KYLE,TX,78640,"COOL SPRINGS",,CONTRACTOR,,,,,,,,,,,"MILESTONE COMMUNITY BUILDERS",,,,,"MILESTONE COMMUNITY BUILDERS","9111 JOLLYVILLE RD STE 111",AUSTIN,TX,78759-7406,"(512) 686-4986",http://www.mymilestone.com/,,,
TX,HAYS,BLR2020-3686,"Single Family Homes",1/8/2021,,76340,1388,"204 FABION ST",KYLE,TX,78640,"CASETTA RANCH",,CONTRACTOR,,,,,,,,,,,"BROHN HOMES",,,,,"BROHN HOMES","6720 VAUGHT RANCH RD STE 200",AUSTIN,TX,78730-2354,"(512) 320-8833",http://brohnhomes.com/,,,
TX,HAYS,BLR2020-3687,"Single Family Homes",1/8/2021,,92840,1688,"212 FABION ST",KYLE,TX,78640,"CASETTA RANCH",,CONTRACTOR,,,,,,,,,,,"BROHN HOMES",,,,,"BROHN HOMES","6720 VAUGHT RANCH RD STE 200",AUSTIN,TX,78730-2354,"(512) 320-8833",http://brohnhomes.com/,,,
TX,HAYS,BLR2020-3698,"Single Family Homes",1/8/2021,,71940,1308,"228 FABION ST",KYLE,TX,78640,"CASETTA RANCH",,CONTRACTOR,,,,,,,,,,,"BROHN HOMES",,,,,"BROHN HOMES","6720 VAUGHT RANCH RD STE 200",AUSTIN,TX,78730-2354,"(512) 320-8833",http://brohnhomes.com/,,,
TX,HAYS,BLR2020-3673,"Single Family Homes",1/8/2021,,158145,2433,"140 CARMELLO",KYLE,TX,78640,"PLUM CREEK",,CONTRACTOR,,,,,,,,,,,"LENNAR HOMES",,,,,"LENNAR HOMES","13620 FM 620 RD 150",AUSTIN,TX,78717,"(512) 506-4000",http://www.lennar.com/,,,
TX,HAYS,BLR2020-3674,"Single Family Homes",1/8/2021,,225420,3468,"120 CARMELLO",KYLE,TX,78640,"PLUM CREEK",,CONTRACTOR,,,,,,,,,,,"LENNAR HOMES",,,,,"LENNAR HOMES","13620 FM 620 RD 150",AUSTIN,TX,78717,"(512) 506-4000",http://www.lennar.com/,,,
TX,HAYS,BLR2020-3675,"Single Family Homes",1/8/2021,,225420,3468,"540 JACK RYAN",KYLE,TX,78640,"PLUM CREEK",,CONTRACTOR,,,,,,,,,,,"LENNAR HOMES",,,,,"LENNAR HOMES","13620 FM 620 RD 150",AUSTIN,TX,78717,"(512) 506-4000",http://www.lennar.com/,,,
TX,HAYS,BLR2020-3676,"Single Family Homes",1/8/2021,,158275,2435,"530 JACK RYAN",KYLE,TX,78640,"PLUM CREEK",,CONTRACTOR,,,,,,,,,,,"LENNAR HOMES",,,,,"LENNAR HOMES","13620 FM 620 RD 150",AUSTIN,TX,78717,"(512) 506-4000",http://www.lennar.com/,,,
TX,HAYS,BLR2020-3638,"Single Family Homes",1/8/2021,,158855,2441,"130 CARMELLO",KYLE,TX,78640,"PLUM CREEK",,CONTRACTOR,,,,,,,,,,,"LENNAR HOMES",,,,,"LENNAR HOMES","13620 FM 620 RD 150",AUSTIN,TX,78717,"(512) 506-4000",http://www.lennar.com/,,,
TX,HAYS,BLR2020-3678,"Single Family Homes",1/8/2021,,158665,2441,"101 MADRID",KYLE,TX,78640,"PLUM CREEK",,CONTRACTOR,,,,,,,,,,,"LENNAR HOMES",,,,,"LENNAR HOMES","13620 FM 620 RD 150",AUSTIN,TX,78717,"(512) 506-4000",http://www.lennar.com/,,,
TX,HAYS,BLR2020-3679,"Single Family Homes",1/8/2021,,159185,2499,"100 MADRID",KYLE,TX,78640,"PLUM CREEK",,CONTRACTOR,,,,,,,,,,,"LENNAR HOMES",,,,,"LENNAR HOMES","13620 FM 620 RD 150",AUSTIN,TX,78717,"(512) 506-4000",http://www.lennar.com/,,,
TX,HAYS,BLR2020-3608,"Single Family Homes",1/11/2021,,86515,1573,"1313 GOFORTH RD",KYLE,TX,78640,"CASETTA RANCH",,CONTRACTOR,,,,,,,,,,,"BROHN HOMES",,,,,"BROHN HOMES","6720 VAUGHT RANCH RD STE 200",AUSTIN,TX,78730-2354,"(512) 320-8833",http://brohnhomes.com/,,,
TX,HAYS,BLR2020-3699,"Single Family Homes",1/11/2021,,81620,1484,"244 FABION ST",KYLE,TX,78640,"CASETTA RANCH",,CONTRACTOR,,,,,,,,,,,"BROHN HOMES",,,,,"BROHN HOMES","6720 VAUGHT RANCH RD STE 200",AUSTIN,TX,78730-2354,"(512) 320-8833",http://brohnhomes.com/,,,
TX,HAYS,BLR2020-3700,"Single Family Homes",1/11/2021,,64845,1179,"236 FABION ST",KYLE,TX,78640,"CASETTA RANCH",,CONTRACTOR,,,,,,,,,,,"BROHN HOMES",,,,,"BROHN HOMES","6720 VAUGHT RANCH RD STE 200",AUSTIN,TX,78730-2354,"(512) 320-8833",http://brohnhomes.com/,,,
TX,HAYS,BLR2020-3623,"Single Family Homes",1/12/2021,,650406,4373,"180 WADING RIVER LN",KYLE,TX,78640,"SIX CREEKS",,CONTRACTOR,,,,,,,,,,,"MHI MCGUYER HOMEBUILDERS",,,,,"MHI MCGUYER HOMEBUILDERS","8200 N MO PAC EXPY STE 300",AUSTIN,TX,78759-8844,"(512) 502-2050",,"(512) 388-1836","FRANK MCGUYER",
TX,HAYS,BLR2020-3548,"Single Family Homes",1/12/2021,,561190,2846,"649 PAINTED CREEK WAY",KYLE,TX,78640,"SIX CREEKS",,CONTRACTOR,,,,,,,,,,,"MHI MCGUYER HOMEBUILDERS",,,,,"MHI MCGUYER HOMEBUILDERS","8200 N MO PAC EXPY STE 300",AUSTIN,TX,78759-8844,"(512) 502-2050",,"(512) 388-1836","FRANK MCGUYER",
TX,HAYS,BLR2020-3543,"Single Family Homes",1/12/2021,,465070,3124,"196 WEST BRANCH RD",KYLE,TX,78640,,,CONTRACTOR,,,,,,,,,,,"MHI MCGUYER HOMEBUILDERS",,,,,"MHI MCGUYER HOMEBUILDERS","8200 N MO PAC EXPY STE 300",AUSTIN,TX,78759-8844,"(512) 502-2050",,"(512) 388-1836","FRANK MCGUYER",
TX,HAYS,BLR2020-3415,"Single Family Homes",1/12/2021,,349450,2867,"319 BISCAYNE BAY BND",KYLE,TX,78640,CROSSWINDS,,CONTRACTOR,,,,,,,,,,,"HIGHLAND HOMES",,,,,"HIGHLAND HOMES","4201 W PARMER LN STE B180",AUSTIN,TX,78727-4110,"(512) 834-8429",,,,
TX,HAYS,BLR2020-3708,"Single Family Homes",1/12/2021,,229000,2290,"304 COLD RIVER RUN",KYLE,TX,78640,"SIX CREEKS",,CONTRACTOR,,,,,,,,,,,"M/I HOMES",,,,,"M/I HOMES","6801 N CAPITAL OF TEXAS HWY BLDG 2 STE 100",AUSTIN,TX,78731-1780,"(512) 770-8500",,,,
TX,HAYS,BLR2020-3690,"Single Family Homes",1/12/2021,,257500,2575,"169 PAINTED CREEK WAY",KYLE,TX,78640,"SIX CREEKS",,CONTRACTOR,,,,,,,,,,,"M/I HOMES",,,,,"M/I HOMES","6801 N CAPITAL OF TEXAS HWY BLDG 2 STE 100",AUSTIN,TX,78731-1780,"(512) 770-8500",,,,
TX,HAYS,BLR2020-3691,"Single Family Homes",1/13/2021,,374400,3048,"671 SPINNAKER LOOP",KYLE,TX,78640,CROSSWINDS,,CONTRACTOR,,,,,,,,,,,"HIGHLAND HOMES",,,,,"HIGHLAND HOMES","4201 W PARMER LN STE B180",AUSTIN,TX,78727-4110,"(512) 834-8429",,,,
TX,HAYS,BLR2020-3704,"Single Family Homes",1/13/2021,,180000,2183,"165 BROOKS RANCH DR",KYLE,TX,78640,"BROOKS RANCH",,CONTRACTOR,,,,,,,,,,,"BLACKBURN HOMES",,,,,"BLACKBURN HOMES","3750 E PALM VALLEY BLVD","ROUND ROCK",TX,78665-3312,"(512) 341-9212",https://www.blackburncommunities.com,,,
TX,HAYS,BLR2020-3705,"Single Family Homes",1/13/2021,,190000,3092,"175 BROOKS RANCH DR",KYLE,TX,78640,"BROOKS RANCH",,CONTRACTOR,,,,,,,,,,,"BLACKBURN HOMES",,,,,"BLACKBURN HOMES","3750 E PALM VALLEY BLVD","ROUND ROCK",TX,78665-3312,"(512) 341-9212",https://www.blackburncommunities.com,,,
TX,HAYS,BLR2020-3716,"Single Family Homes",1/13/2021,,136738,2753,"310 BLUE SPRINGS PASS",KYLE,TX,78640,"COOL SPRINGS",,CONTRACTOR,,,,,,,,,,,"MILESTONE COMMUNITY BUILDERS",,,,,"MILESTONE COMMUNITY BUILDERS","9111 JOLLYVILLE RD STE 111",AUSTIN,TX,78759-7406,"(512) 686-4986",http://www.mymilestone.com/,,,
TX,HAYS,BLR2020-3717,"Single Family Homes",1/13/2021,,117880,1695,"363 SILVER SPRINGS BND",KYLE,TX,78640,"COOL SPRINGS",,CONTRACTOR,,,,,,,,,,,"MILESTONE COMMUNITY BUILDERS",,,,,"MILESTONE COMMUNITY BUILDERS","9111 JOLLYVILLE RD STE 111",AUSTIN,TX,78759-7406,"(512) 686-4986",http://www.mymilestone.com/,,,
TX,HAYS,BLR2020-3530,"Single Family Homes",1/13/2021,,106975,1945,"1369 GOFORTH RD",KYLE,TX,78640,"CASETTA RANCH",,CONTRACTOR,,,,,,,,,,,"BROHN HOMES",,,,,"BROHN HOMES","6720 VAUGHT RANCH RD STE 200",AUSTIN,TX,78730-2354,"(512) 320-8833",http://brohnhomes.com/,,,
TX,HAYS,BLR2020-3586,"Single Family Homes",1/13/2021,,94875,1752,"1329 GOFORTH RD",KYLE,TX,78640,"CASETTA RANCH",,CONTRACTOR,,,,,,,,,,,"BROHN HOMES",,,,,"BROHN HOMES","6720 VAUGHT RANCH RD STE 200",AUSTIN,TX,78730-2354,"(512) 320-8833",http://brohnhomes.com/,,,
TX,HAYS,BLR2020-3703,"Single Family Homes",1/13/2021,,86020,1564,"260 FABION ST",KYLE,TX,78640,"CASETTA RANCH",,CONTRACTOR,,,,,,,,,,,"BROHN HOMES",,,,,"BROHN HOMES","6720 VAUGHT RANCH RD STE 200",AUSTIN,TX,78730-2354,"(512) 320-8833",http://brohnhomes.com/,,,
TX,HAYS,BLR2020-3718,"Single Family Homes",1/13/2021,,189450,3179,"242 SILVER GLEN DR",KYLE,TX,78640,"COOL SPRINGS",,CONTRACTOR,,,,,,,,,,,"LENNAR HOMES",,,,,"LENNAR HOMES","13620 FM 620 RD 150",AUSTIN,TX,78717,"(512) 506-4000",http://www.lennar.com/,,,
TX,HAYS,BLR2020-3719,"Single Family Homes",1/13/2021,,147600,2454,"254 SILVER GLEN DR",KYLE,TX,78640,"COOL SPRINGS",,CONTRACTOR,,,,,,,,,,,"LENNAR HOMES",,,,,"LENNAR HOMES","13620 FM 620 RD 150",AUSTIN,TX,78717,"(512) 506-4000",http://www.lennar.com/,,,
TX,HAYS,BLR2020-3596,"Single Family Homes",1/14/2021,,359690,2985,"131 WEST BRANCH RD",KYLE,TX,78640,"SIX CREEKS",,CONTRACTOR,,,,,,,,,,,"HIGHLAND HOMES",,,,,"HIGHLAND HOMES","4201 W PARMER LN STE B180",AUSTIN,TX,78727-4110,"(512) 834-8429",,,,
TX,HAYS,BLR2020-3412,"Single Family Homes",1/14/2021,,377185,3176,"195 MINERAL RIVER LOOP",KYLE,TX,78640,"SIX CREEKS",,CONTRACTOR,,,,,,,,,,,"HIGHLAND HOMES",,,,,"HIGHLAND HOMES","4201 W PARMER LN STE B180",AUSTIN,TX,78727-4110,"(512) 834-8429",,,,
TX,HAYS,BLR2020-3413,"Single Family Homes",1/14/2021,,476620,3769,"452 PAINTED CREEK WAY",KYLE,TX,78640,"SIX CREEKS",,CONTRACTOR,,,,,,,,,,,"HIGHLAND HOMES",,,,,"HIGHLAND HOMES","4201 W PARMER LN STE B180",AUSTIN,TX,78727-4110,"(512) 834-8429",,,,
TX,HAYS,BLR2020-3706,"Single Family Homes",1/15/2021,,100650,1830,"1449 GOFORTH RD",KYLE,TX,78640,"CASETTA RANCH",,CONTRACTOR,,,,,,,,,,,"BROHN HOMES",,,,,"BROHN HOMES","6720 VAUGHT RANCH RD STE 200",AUSTIN,TX,78730-2354,"(512) 320-8833",http://brohnhomes.com/,,,
TX,HAYS,BLR2020-3652,"Single Family Homes",1/15/2021,,250000,2390,"1331 TREETA TRL",KYLE,TX,78640,"BUNTON CREEK",,CONTRACTOR,,,,,,,,,,,"LGI HOMES",,,,,"LGI HOMES","1450 LAKE ROBBINS SUITE 430",CONROE,TX,77380,"(210) 563-4648",,"(281) 210-2601",,
TX,HAYS,,"Single Family Homes",1/15/2021,,250000,2823,"1319 TREETA TRL",KYLE,TX,78640,,,CONTRACTOR,,,,,,,,,,,"LGI HOMES",,,,,"LGI HOMES","1450 LAKE ROBBINS SUITE 430",CONROE,TX,77380,"(210) 563-4648",,"(281) 210-2601",,
TX,HAYS,BLR2020-3657,"Single Family Homes",1/15/2021,,250000,2390,"1295 TREETA TRL",KYLE,TX,78640,"BUNTON CREEK",,CONTRACTOR,,,,,,,,,,,"LGI HOMES",,,,,"LGI HOMES","1450 LAKE ROBBINS SUITE 430",CONROE,TX,77380,"(210) 563-4648",,"(281) 210-2601",,
TX,HAYS,BLR2020-3659,"Single Family Homes",1/15/2021,,250000,3142,"1283 TREETA TRL",KYLE,TX,78640,"BUNTON CREEK",,CONTRACTOR,,,,,,,,,,,"LGI HOMES",,,,,"LGI HOMES","1450 LAKE ROBBINS SUITE 430",CONROE,TX,77380,"(210) 563-4648",,"(281) 210-2601",,
TX,HAYS,BLR2020-3642,"Single Family Homes",1/15/2021,,250000,2390,"1270 TREETA TRL",KYLE,TX,78640,"BUNTON CREEK",,CONTRACTOR,,,,,,,,,,,"LGI HOMES",,,,,"LGI HOMES","1450 LAKE ROBBINS SUITE 430",CONROE,TX,77380,"(210) 563-4648",,"(281) 210-2601",,
TX,HAYS,BLR2020-3643,"Single Family Homes",1/15/2021,,250000,2390,"1246 TREETA TRL",KYLE,TX,78640,"BUNTON CREEK",,CONTRACTOR,,,,,,,,,,,"LGI HOMES",,,,,"LGI HOMES","1450 LAKE ROBBINS SUITE 430",CONROE,TX,77380,"(210) 563-4648",,"(281) 210-2601",,
TX,HAYS,BLR2020-3644,"Single Family Homes",1/15/2021,,250000,2823,"1234 TREETA TRL",KYLE,TX,78640,"BUNTON CREEK",,CONTRACTOR,,,,,,,,,,,"LGI HOMES",,,,,"LGI HOMES","1450 LAKE ROBBINS SUITE 430",CONROE,TX,77380,"(210) 563-4648",,"(281) 210-2601",,
TX,HAYS,BLR2020-3649,"Single Family Homes",1/15/2021,,250000,2390,"1355 TREETA TRL",KYLE,TX,78640,"BUNTON CREEK",,CONTRACTOR,,,,,,,,,,,"LGI HOMES",,,,,"LGI HOMES","1450 LAKE ROBBINS SUITE 430",CONROE,TX,77380,"(210) 563-4648",,"(281) 210-2601",,
TX,HAYS,BLR2020-3650,"Single Family Homes",1/15/2021,,250000,3142,"1343 TREETA TRL",KYLE,TX,78640,"BUNTON CREEK",,CONTRACTOR,,,,,,,,,,,"LGI HOMES",,,,,"LGI HOMES","1450 LAKE ROBBINS SUITE 430",CONROE,TX,77380,"(210) 563-4648",,"(281) 210-2601",,
TX,HAYS,BLR2020-3663,"Single Family Homes",1/15/2021,,250000,2390,"1247 TREETA TRL",KYLE,TX,78640,"BUNTON CREEK",,CONTRACTOR,,,,,,,,,,,"LGI HOMES",,,,,"LGI HOMES","1450 LAKE ROBBINS SUITE 430",CONROE,TX,77380,"(210) 563-4648",,"(281) 210-2601",,
TX,HAYS,BLR2020-3666,"Single Family Homes",1/15/2021,,250000,2823,"1236 BREANNA LN",KYLE,TX,78640,"BUNTON CREEK",,CONTRACTOR,,,,,,,,,,,"LGI HOMES",,,,,"LGI HOMES","1450 LAKE ROBBINS SUITE 430",CONROE,TX,77380,"(210) 563-4648",,"(281) 210-2601",,
TX,HAYS,BLR2020-3668,"Single Family Homes",1/15/2021,,250000,2390,"1260 BREANNA LN",KYLE,TX,78640,"BUNTON CREEK",,CONTRACTOR,,,,,,,,,,,"LGI HOMES",,,,,"LGI HOMES","1450 LAKE ROBBINS SUITE 430",CONROE,TX,77380,"(210) 563-4648",,"(281) 210-2601",,
TX,HAYS,BLR2020-3726,"Single Family Homes",1/15/2021,,247660,3538,"300 OLYMPIC PARK DR",KYLE,TX,78640,PARAMOUNT,,CONTRACTOR,,,,,,,,,,,"CASTLEROCK COMMUNITIES",,,,,"CASTLEROCK COMMUNITIES","7670 WOODWAY DR STE 300",HOUSTON,TX,77063-1520,"(713) 600-7000",http://c-rock.com,"(713) 600-0000",,
TX,HAYS,BLR2020-3710,"Single Family Homes",1/19/2021,,164400,1644,"366 COLD RIVER RUN",KYLE,TX,78640,"SIX CREEKS",,CONTRACTOR,,,,,,,,,,,"M/I HOMES",,,,,"M/I HOMES","6801 N CAPITAL OF TEXAS HWY BLDG 2 STE 100",AUSTIN,TX,78731-1780,"(512) 770-8500",,,,
TX,HAYS,BLR2021-3751,"Single Family Homes",1/20/2021,,370000,3131,"1036 OLYMPIC LN",KYLE,TX,78640,"CYPRESS FOREST",,CONTRACTOR,,,,,,,,,,,"DAVID WEEKLEY HOMES",,,,,"DAVID WEEKLEY HOMES","9000 WATERFORD CENTRE BLVD",AUSTIN,TX,78758-7662,"(800) 390-6774",http://www.davidweekleyhomes.com/,,,
TX,HAYS,BLR2021-3752,"Single Family Homes",1/20/2021,,370000,2531,"1060 OLYMPIC LN",KYLE,TX,78640,"CYPRESS FOREST",,CONTRACTOR,,,,,,,,,,,"DAVID WEEKLEY HOMES",,,,,"DAVID WEEKLEY HOMES","9000 WATERFORD CENTRE BLVD",AUSTIN,TX,78758-7662,"(800) 390-6774",http://www.davidweekleyhomes.com/,,,
TX,HAYS,BLR2020-3592,"Single Family Homes",1/20/2021,,80960,1472,"196 FABION ST",KYLE,TX,78640,"CASETTA RANCH",,CONTRACTOR,,,,,,,,,,,"BROHN HOMES",,,,,"BROHN HOMES","6720 VAUGHT RANCH RD STE 200",AUSTIN,TX,78730-2354,"(512) 320-8833",http://brohnhomes.com/,,,
TX,HAYS,BLR2021-3732,"Single Family Homes",1/20/2021,,268600,2686,"123 COYOTE CREEK WAY",KYLE,TX,78640,"SIX CREEKS",,CONTRACTOR,,,,,,,,,,,"M/I HOMES",,,,,"M/I HOMES","6801 N CAPITAL OF TEXAS HWY BLDG 2 STE 100",AUSTIN,TX,78731-1780,"(512) 770-8500",,,,
TX,HAYS,BLR2021-3729,"Single Family Homes",1/20/2021,,213200,2132,"197 PAINTED CREEK WAY",KYLE,TX,78640,"SIX CREEKS",,CONTRACTOR,,,,,,,,,,,"M/I HOMES",,,,,"M/I HOMES","6801 N CAPITAL OF TEXAS HWY BLDG 2 STE 100",AUSTIN,TX,78731-1780,"(512) 770-8500",,,,
TX,HAYS,BLR2021-3760,"Single Family Homes",1/25/2021,,118280,2080,"148 SILVER SPRINGS BND",KYLE,TX,78640,"COOL SPRINGS",,CONTRACTOR,,,,,,,,,,,"MILESTONE COMMUNITY BUILDERS",,,,,"MILESTONE COMMUNITY BUILDERS","9111 JOLLYVILLE RD STE 111",AUSTIN,TX,78759-7406,"(512) 686-4986",http://www.mymilestone.com/,,,
TX,HAYS,BLR2021-3761,"Single Family Homes",1/25/2021,,134158,2099,"339 SILVER SPRINGS BND",KYLE,TX,78640,"COOL SPRINGS",,CONTRACTOR,,,,,,,,,,,"MILESTONE COMMUNITY BUILDERS",,,,,"MILESTONE COMMUNITY BUILDERS","9111 JOLLYVILLE RD STE 111",AUSTIN,TX,78759-7406,"(512) 686-4986",http://www.mymilestone.com/,,,
TX,HAYS,BLR2021-3762,"Single Family Homes",1/25/2021,,136738,2753,"274 BLUE SPRINGS PASS",KYLE,TX,78640,"COOL SPRINGS",,CONTRACTOR,,,,,,,,,,,"MILESTONE COMMUNITY BUILDERS",,,,,"MILESTONE COMMUNITY BUILDERS","9111 JOLLYVILLE RD STE 111",AUSTIN,TX,78759-7406,"(512) 686-4986",http://www.mymilestone.com/,,,
TX,HAYS,BLR2020-3588,"Single Family Homes",1/25/2021,,97790,1778,"1321 GOFORTH RD",KYLE,TX,78640,"CASETTA RANCH",,CONTRACTOR,,,,,,,,,,,"BROHN HOMES",,,,,"BROHN HOMES","6720 VAUGHT RANCH RD STE 200",AUSTIN,TX,78730-2354,"(512) 320-8833",http://brohnhomes.com/,,,
TX,HAYS,BLR2020-3720,"Single Family Homes",1/25/2021,,105380,1916,"276 FABION ST",KYLE,TX,78640,"CASETTA RANCH",,CONTRACTOR,,,,,,,,,,,"BROHN HOMES",,,,,"BROHN HOMES","6720 VAUGHT RANCH RD STE 200",AUSTIN,TX,78730-2354,"(512) 320-8833",http://brohnhomes.com/,,,
TX,HAYS,BLR2020-3711,"Single Family Homes",1/25/2021,,158145,2433,"170 RIOJA",KYLE,TX,78640,"PLUM CREEK",,CONTRACTOR,,,,,,,,,,,"LENNAR HOMES",,,,,"LENNAR HOMES","13620 FM 620 RD 150",AUSTIN,TX,78717,"(512) 506-4000",http://www.lennar.com/,,,
TX,HAYS,BLR2020-3712,"Single Family Homes",1/25/2021,,161330,2842,"181 RIOJA",KYLE,TX,78640,"PLUM CREEK",,CONTRACTOR,,,,,,,,,,,"LENNAR HOMES",,,,,"LENNAR HOMES","13620 FM 620 RD 150",AUSTIN,TX,78717,"(512) 506-4000",http://www.lennar.com/,,,
TX,HAYS,BLR2020-3692,"Single Family Homes",1/25/2021,,150930,2322,"140 RIOJA",KYLE,TX,78640,"PLUM CREEK",,CONTRACTOR,,,,,,,,,,,"LENNAR HOMES",,,,,"LENNAR HOMES","13620 FM 620 RD 150",AUSTIN,TX,78717,"(512) 506-4000",http://www.lennar.com/,,,
TX,HAYS,BLR2020-3694,"Single Family Homes",1/25/2021,,161330,2482,"150 RIOJA",KYLE,TX,78640,"PLUM CREEK",,CONTRACTOR,,,,,,,,,,,"LENNAR HOMES",,,,,"LENNAR HOMES","13620 FM 620 RD 150",AUSTIN,TX,78717,"(512) 506-4000",http://www.lennar.com/,,,
TX,HAYS,BLR2020-3695,"Single Family Homes",1/25/2021,,181090,2786,"153 RIOJA",KYLE,TX,78640,"PLUM CREEK",,CONTRACTOR,,,,,,,,,,,"LENNAR HOMES",,,,,"LENNAR HOMES","13620 FM 620 RD 150",AUSTIN,TX,78717,"(512) 506-4000",http://www.lennar.com/,,,
TX,HAYS,BLR2020-3707,"Single Family Homes",1/25/2021,,172315,2651,"160 RIOJA",KYLE,TX,78640,"PLUM CREEK",,CONTRACTOR,,,,,,,,,,,"LENNAR HOMES",,,,,"LENNAR HOMES","13620 FM 620 RD 150",AUSTIN,TX,78717,"(512) 506-4000",http://www.lennar.com/,,,
TX,HAYS,BLR2020-3709,"Single Family Homes",1/25/2021,,149045,2293,"167 RIOJA",KYLE,TX,78640,,,CONTRACTOR,,,,,,,,,,,"LENNAR HOMES",,,,,"LENNAR HOMES","13620 FM 620 RD 150",AUSTIN,TX,78717,"(512) 506-4000",http://www.lennar.com/,,,
TX,HAYS,BLR2020-3680,"Single Family Homes",1/25/2021,,137345,2113,"113 MADRID",KYLE,TX,78640,"PLUM CREEK",,CONTRACTOR,,,,,,,,,,,"LENNAR HOMES",,,,,"LENNAR HOMES","13620 FM 620 RD 150",AUSTIN,TX,78717,"(512) 506-4000",http://www.lennar.com/,,,
TX,HAYS,BLR2020-3681,"Single Family Homes",1/25/2021,,114985,1769,"110 MADRID",KYLE,TX,78640,"PLUM CREEK",,CONTRACTOR,,,,,,,,,,,"LENNAR HOMES",,,,,"LENNAR HOMES","13620 FM 620 RD 150",AUSTIN,TX,78717,"(512) 506-4000",http://www.lennar.com/,,,
TX,HAYS,BLR2020-3682,"Single Family Homes",1/25/2021,,150215,2311,"125 MADRID",KYLE,TX,78640,"PLUM CREEK",,CONTRACTOR,,,,,,,,,,,"LENNAR HOMES",,,,,"LENNAR HOMES","13620 FM 620 RD 150",AUSTIN,TX,78717,"(512) 506-4000",http://www.lennar.com/,,,
TX,HAYS,BLR2020-3683,"Single Family Homes",1/25/2021,,158665,2441,"120 MADRID",KYLE,TX,78640,"PLUM CREEK",,CONTRACTOR,,,,,,,,,,,"LENNAR HOMES",,,,,"LENNAR HOMES","13620 FM 620 RD 150",AUSTIN,TX,78717,"(512) 506-4000",http://www.lennar.com/,,,
TX,HAYS,BLR2020-3684,"Single Family Homes",1/25/2021,,158665,2441,"139 MADRID",KYLE,TX,78640,"PLUM CREEK",,CONTRACTOR,,,,,,,,,,,"LENNAR HOMES",,,,,"LENNAR HOMES","13620 FM 620 RD 150",AUSTIN,TX,78717,"(512) 506-4000",http://www.lennar.com/,,,
TX,HAYS,BLR2021-3764,"Single Family Homes",1/25/2021,,143475,2548,"266 SILVER GLEN DR",KYLE,TX,78640,"COOL SPRINGS",,CONTRACTOR,,,,,,,,,,,"LENNAR HOMES",,,,,"LENNAR HOMES","13620 FM 620 RD 150",AUSTIN,TX,78717,"(512) 506-4000",http://www.lennar.com/,,,
TX,HAYS,BLR2021-3727,"Single Family Homes",1/26/2021,,186975,2493,"172 BILLOWING WAY",KYLE,TX,78640,CROSSWINDS,,CONTRACTOR,,,,,,,,,,,"PACESETTER HOMES ",,,,,"PACESETTER HOMES ","7940 SHOAL CREEK BLVD STE 200",AUSTIN,TX,78757-7587,"(512) 323-5252",,,,
TX,HAYS,BLR2021-3728,"Single Family Homes",1/26/2021,,163425,2179,"264 PELICAN BAY CIR",KYLE,TX,78640,CROSSWINDS,,CONTRACTOR,,,,,,,,,,,"PACESETTER HOMES ",,,,,"PACESETTER HOMES ","7940 SHOAL CREEK BLVD STE 200",AUSTIN,TX,78757-7587,"(512) 323-5252",,,,
TX,HAYS,BLR2021-3731,"Single Family Homes",1/26/2021,,227700,3036,"300 PELICAN BAY CIR",KYLE,TX,78640,CROSSWINDS,,CONTRACTOR,,,,,,,,,,,"PACESETTER HOMES ",,,,,"PACESETTER HOMES ","7940 SHOAL CREEK BLVD STE 200",AUSTIN,TX,78757-7587,"(512) 323-5252",,,,
TX,HAYS,BLR2021-3770,"Single Family Homes",1/26/2021,,128800,2286,"136 SILVER SPRINGS BND",KYLE,TX,78640,"COOL SPRINGS",,CONTRACTOR,,,,,,,,,,,"MILESTONE COMMUNITY BUILDERS",,,,,"MILESTONE COMMUNITY BUILDERS","9111 JOLLYVILLE RD STE 111",AUSTIN,TX,78759-7406,"(512) 686-4986",http://www.mymilestone.com/,,,
TX,HAYS,BLR2021-3771,"Single Family Homes",1/26/2021,,123232,2578,"121 EMERALD PASS",KYLE,TX,78640,"COOL SPRINGS",,CONTRACTOR,,,,,,,,,,,"MILESTONE COMMUNITY BUILDERS",,,,,"MILESTONE COMMUNITY BUILDERS","9111 JOLLYVILLE RD STE 111",AUSTIN,TX,78759-7406,"(512) 686-4986",http://www.mymilestone.com/,,,
TX,HAYS,BLR2021-3773,"Single Family Homes",1/26/2021,,125461,2547,"144 MANATEE LN",KYLE,TX,78640,"COOL SPRINGS",,CONTRACTOR,,,,,,,,,,,"MILESTONE COMMUNITY BUILDERS",,,,,"MILESTONE COMMUNITY BUILDERS","9111 JOLLYVILLE RD STE 111",AUSTIN,TX,78759-7406,"(512) 686-4986",http://www.mymilestone.com/,,,
TX,HAYS,BLR2021-3753,"Single Family Homes",1/26/2021,,273974,2069,"119 ALEXANDER",KYLE,TX,78640,"PLUM CREEK",,CONTRACTOR,,,,,,,,,,,"EHT OF TEXAS LP",,,,,"EHT OF TEXAS LP","3520 EXECUTIVE CENTER DR STE 100",AUSTIN,TX,78731-1636,"(757) 287-6394",,,,
TX,HAYS,BLR2021-3754,"Single Family Homes",1/26/2021,,342558,2909,"207 ALEXANDER",KYLE,TX,78640,"PLUM CREEK",,CONTRACTOR,,,,,,,,,,,"EHT OF TEXAS LP",,,,,"EHT OF TEXAS LP","3520 EXECUTIVE CENTER DR STE 100",AUSTIN,TX,78731-1636,"(757) 287-6394",,,,
TX,HAYS,BLR2021-3750,"Single Family Homes",1/26/2021,,316787,2339,"169 ALEXANDER",KYLE,TX,78640,"PLUM CREEK",,CONTRACTOR,,,,,,,,,,,"EHT OF TEXAS LP",,,,,"EHT OF TEXAS LP","3520 EXECUTIVE CENTER DR STE 100",AUSTIN,TX,78731-1636,"(757) 287-6394",,,,
TX,HAYS,BLR2021-3766,"Single Family Homes",1/26/2021,,252000,2116,"462 FERRULE DR",KYLE,TX,78640,BROOKSIDE,,CONTRACTOR,,,,,,,,,,,"BIGELOW DEVELOPMENT",,,,,"BIGELOW DEVELOPMENT","1048 SANDERS",KYLE,TX,78640-6122,"(512) 504-9243",,,,
TX,HAYS,BLR2021-3769,"Single Family Homes",1/26/2021,,270000,2299,"466 FERRULE DR",KYLE,TX,78640,BROOKSIDE,,CONTRACTOR,,,,,,,,,,,"BIGELOW DEVELOPMENT",,,,,"BIGELOW DEVELOPMENT","1048 SANDERS",KYLE,TX,78640-6122,"(512) 504-9243",,,,
TX,HAYS,BLR2021-3772,"Single Family Homes",1/27/2021,,120461,2570,"129 MANATEE LN",KYLE,TX,78640,"COOL SPRINGS",,CONTRACTOR,,,,,,,,,,,"MILESTONE COMMUNITY BUILDERS",,,,,"MILESTONE COMMUNITY BUILDERS","9111 JOLLYVILLE RD STE 111",AUSTIN,TX,78759-7406,"(512) 686-4986",http://www.mymilestone.com/,,,
TX,HAYS,BLR2021-3872,"Single Family Homes",1/27/2021,,250000,2823,"1138 TREETA TRL",KYLE,TX,78640,"BUNTON CREEK",,CONTRACTOR,,,,,,,,,,,"LGI HOMES",,,,,"LGI HOMES","1450 LAKE ROBBINS SUITE 430",CONROE,TX,77380,"(210) 563-4648",,"(281) 210-2601",,
TX,HAYS,BLR2021-3768,"Single Family Homes",1/27/2021,,268600,2686,"144 COYOTE CREEK WAY",KYLE,TX,78640,"SIX CREEKS",,CONTRACTOR,,,,,,,,,,,"M/I HOMES",,,,,"M/I HOMES","6801 N CAPITAL OF TEXAS HWY BLDG 2 STE 100",AUSTIN,TX,78731-1780,"(512) 770-8500",,,,
TX,HAYS,BLR2020-3626,"Single Family Homes",1/27/2021,,181090,2786,"130 RIOJA",KYLE,TX,78640,"PLUM CREEK",,CONTRACTOR,,,,,,,,,,,"LENNAR HOMES",,,,,"LENNAR HOMES","13620 FM 620 RD 150",AUSTIN,TX,78717,"(512) 506-4000",http://www.lennar.com/,,,
TX,HAYS,BLR2021-3736,"Single Family Homes",1/27/2021,,160030,2462,"120 RIOJA",KYLE,TX,78640,"PLUM CREEK",,CONTRACTOR,,,,,,,,,,,"LENNAR HOMES",,,,,"LENNAR HOMES","13620 FM 620 RD 150",AUSTIN,TX,78717,"(512) 506-4000",http://www.lennar.com/,,,
TX,HAYS,BLR2021-3737,"Single Family Homes",1/27/2021,,174200,2680,"125 RIOJA",KYLE,TX,78640,"PLUM CREEK",,CONTRACTOR,,,,,,,,,,,"LENNAR HOMES",,,,,"LENNAR HOMES","13620 FM 620 RD 150",AUSTIN,TX,78717,"(512) 506-4000",http://www.lennar.com/,,,
TX,HAYS,BLR2021-3738,"Single Family Homes",1/27/2021,,137345,2113,"167 MADRID",KYLE,TX,78640,"PLUM CREEK",,CONTRACTOR,,,,,,,,,,,"LENNAR HOMES",,,,,"LENNAR HOMES","13620 FM 620 RD 150",AUSTIN,TX,78717,"(512) 506-4000",http://www.lennar.com/,,,
TX,HAYS,BLR2021-3739,"Single Family Homes",1/27/2021,,137345,2113,"140 MADRID",KYLE,TX,78640,"PLUM CREEK",,CONTRACTOR,,,,,,,,,,,"LENNAR HOMES",,,,,"LENNAR HOMES","13620 FM 620 RD 150",AUSTIN,TX,78717,"(512) 506-4000",http://www.lennar.com/,,,
TX,HAYS,BLR2021-3740,"Single Family Homes",1/27/2021,,159185,2449,"153 MADRID",KYLE,TX,78640,"PLUM CREEK",,CONTRACTOR,,,,,,,,,,,"LENNAR HOMES",,,,,"LENNAR HOMES","13620 FM 620 RD 150",AUSTIN,TX,78717,"(512) 506-4000",http://www.lennar.com/,,,
TX,HAYS,BLR2021-3742,"Single Family Homes",1/27/2021,,124995,1923,"150 MADRID",KYLE,TX,78640,"PLUM CREEK",,CONTRACTOR,,,,,,,,,,,"LENNAR HOMES",,,,,"LENNAR HOMES","13620 FM 620 RD 150",AUSTIN,TX,78717,"(512) 506-4000",http://www.lennar.com/,,,
TX,HAYS,BLR2021-3743,"Single Family Homes",1/27/2021,,197405,3037,"181 MADRID",KYLE,TX,78640,"PLUM CREEK",,CONTRACTOR,,,,,,,,,,,"LENNAR HOMES",,,,,"LENNAR HOMES","13620 FM 620 RD 150",AUSTIN,TX,78717,"(512) 506-4000",http://www.lennar.com/,,,
TX,HAYS,BLR2021-3744,"Single Family Homes",1/27/2021,,114985,1769,"160 MADRID",KYLE,TX,78640,"PLUM CREEK",,CONTRACTOR,,,,,,,,,,,"LENNAR HOMES",,,,,"LENNAR HOMES","13620 FM 620 RD 150",AUSTIN,TX,78717,"(512) 506-4000",http://www.lennar.com/,,,
TX,HAYS,BLR2021-3745,"Single Family Homes",1/27/2021,,114985,1769,"193 MADRID",KYLE,TX,78640,"PLUM CREEK",,CONTRACTOR,,,,,,,,,,,"LENNAR HOMES",,,,,"LENNAR HOMES","13620 FM 620 RD 150",AUSTIN,TX,78717,"(512) 506-4000",http://www.lennar.com/,,,
TX,HAYS,BLR2021-3746,"Single Family Homes",1/27/2021,,159185,2449,"170 MADRID",KYLE,TX,78640,"PLUM CREEK",,CONTRACTOR,,,,,,,,,,,"LENNAR HOMES",,,,,"LENNAR HOMES","13620 FM 620 RD 150",AUSTIN,TX,78717,"(512) 506-4000",http://www.lennar.com/,,,
TX,HAYS,BLR2021-3747,"Single Family Homes",1/27/2021,,159185,2449,"203 MADRID",KYLE,TX,78640,"PLUM CREEK",,CONTRACTOR,,,,,,,,,,,"LENNAR HOMES",,,,,"LENNAR HOMES","13620 FM 620 RD 150",AUSTIN,TX,78717,"(512) 506-4000",http://www.lennar.com/,,,
TX,HAYS,BLR2021-3748,"Single Family Homes",1/27/2021,,167050,2570,"520 JACK RYAN",KYLE,TX,78640,"PLUM CREEK",,CONTRACTOR,,,,,,,,,,,"LENNAR HOMES",,,,,"LENNAR HOMES","13620 FM 620 RD 150",AUSTIN,TX,78717,"(512) 506-4000",http://www.lennar.com/,,,
TX,HAYS,BLR2020-3721,"Single Family Homes",1/27/2021,,159445,2453,"100 RIOJA",KYLE,TX,78640,"PLUM CREEK",,CONTRACTOR,,,,,,,,,,,"LENNAR HOMES",,,,,"LENNAR HOMES","13620 FM 620 RD 150",AUSTIN,TX,78717,"(512) 506-4000",http://www.lennar.com/,,,
TX,HAYS,BLR2020-3722,"Single Family Homes",1/27/2021,,150930,2322,"101 RIOJA",KYLE,TX,78640,"PLUM CREEK",,CONTRACTOR,,,,,,,,,,,"LENNAR HOMES",,,,,"LENNAR HOMES","13620 FM 620 RD 150",AUSTIN,TX,78717,"(512) 506-4000",http://www.lennar.com/,,,
TX,HAYS,BLR2020-3723,"Single Family Homes",1/27/2021,,174200,2680,"110 RIOJA",KYLE,TX,78640,"PLUM CREEK",,CONTRACTOR,,,,,,,,,,,"LENNAR HOMES",,,,,"LENNAR HOMES","13620 FM 620 RD 150",AUSTIN,TX,78717,"(512) 506-4000",http://www.lennar.com/,,,
TX,HAYS,BLR2020-3724,"Single Family Homes",1/27/2021,,181090,2786,"111 RIOJA",KYLE,TX,78640,"PLUM CREEK",,CONTRACTOR,,,,,,,,,,,"LENNAR HOMES",,,,,"LENNAR HOMES","13620 FM 620 RD 150",AUSTIN,TX,78717,"(512) 506-4000",http://www.lennar.com/,,,
TX,HAYS,BLR2020-3713,"Single Family Homes",1/27/2021,,150930,2322,"190 RIOJA",KYLE,TX,78640,"PLUM CREEK",,CONTRACTOR,,,,,,,,,,,"LENNAR HOMES",,,,,"LENNAR HOMES","13620 FM 620 RD 150",AUSTIN,TX,78717,"(512) 506-4000",http://www.lennar.com/,,,
TX,HAYS,BLR2020-3715,"Single Family Homes",1/27/2021,,172315,2651,"191 RIOJA",KYLE,TX,78640,"PLUM CREEK",,CONTRACTOR,,,,,,,,,,,"LENNAR HOMES",,,,,"LENNAR HOMES","13620 FM 620 RD 150",AUSTIN,TX,78717,"(512) 506-4000",http://www.lennar.com/,,,
TX,HAYS,BLR2021-3787,"Single Family Homes",1/28/2021,,244885,2881,"190 JARBRIDGE DR",KYLE,TX,78640,STAGECOACH,,CONTRACTOR,,,,,,,,,,,"KB HOME",,,,,"KB HOME","10800 PECAN PARK BLVD STE 200",AUSTIN,TX,78750-1249,"(512) 651-8100",,,,
TX,HAYS,BLR2021-3789,"Single Family Homes",1/28/2021,,265030,3118,"265 MAUVE LN",KYLE,TX,78640,"SUNSET HILLS",,CONTRACTOR,,,,,,,,,,,"KB HOME",,,,,"KB HOME","10800 PECAN PARK BLVD STE 200",AUSTIN,TX,78750-1249,"(512) 651-8100",,,,
TX,HAYS,BLR2021-3795,"Single Family Homes",1/29/2021,,,3700,"124 ANGELINA CT",KYLE,TX,78640,"CYPRESS FOREST",,CONTRACTOR,,,,,,,,,,,"SCOTT FELDER HOMES",,,,,"SCOTT FELDER HOMES","6414 RIVER PLACE BLVD STE 100",AUSTIN,TX,78730-1158,"(512) 418-5400",,,,
TX,HAYS,BLR2021-3759,"Single Family Homes",1/29/2021,,,2971,"276 HELENA LN",KYLE,TX,78640,"CYPRESS FOREST",,CONTRACTOR,,,,,,,,,,,"SCOTT FELDER HOMES",,,,,"SCOTT FELDER HOMES","6414 RIVER PLACE BLVD STE 100",AUSTIN,TX,78730-1158,"(512) 418-5400",,,,
TX,HAYS,BLR2021-3791,"Single Family Homes",1/29/2021,,224400,1895,"256 PELICAN BAY CIR",KYLE,TX,78640,CROSSWINDS,,CONTRACTOR,,,,,,,,,,,"PACESETTER HOMES ",,,,,"PACESETTER HOMES ","7940 SHOAL CREEK BLVD STE 200",AUSTIN,TX,78757-7587,"(512) 323-5252",,,,
TX,HAYS,BLR2021-3797,"Single Family Homes",1/29/2021,,117880,1695,"512 SILVER SPRINGS BND",KYLE,TX,78640,"COOL SPRINGS",,CONTRACTOR,,,,,,,,,,,"MILESTONE COMMUNITY BUILDERS",,,,,"MILESTONE COMMUNITY BUILDERS","9111 JOLLYVILLE RD STE 111",AUSTIN,TX,78759-7406,"(512) 686-4986",http://www.mymilestone.com/,,,
TX,HAYS,BLR2021-3798,"Single Family Homes",1/29/2021,,127740,2683,"190 SILVER SPRINGS BND",KYLE,TX,78640,"COOL SPRINGS",,CONTRACTOR,,,,,,,,,,,"MILESTONE COMMUNITY BUILDERS",,,,,"MILESTONE COMMUNITY BUILDERS","9111 JOLLYVILLE RD STE 111",AUSTIN,TX,78759-7406,"(512) 686-4986",http://www.mymilestone.com/,,,
TX,HAYS,BLR2021-3799,"Single Family Homes",1/29/2021,,118280,2080,"141 MANATEE LN",KYLE,TX,78640,"COOL SPRINGS",,CONTRACTOR,,,,,,,,,,,"MILESTONE COMMUNITY BUILDERS",,,,,"MILESTONE COMMUNITY BUILDERS","9111 JOLLYVILLE RD STE 111",AUSTIN,TX,78759-7406,"(512) 686-4986",http://www.mymilestone.com/,,,
TX,HAYS,BLR2021-3800,"Single Family Homes",1/29/2021,,136738,2753,"208 SILVER SPRINGS BND",KYLE,TX,78640,"COOL SPRINGS",,CONTRACTOR,,,,,,,,,,,"MILESTONE COMMUNITY BUILDERS",,,,,"MILESTONE COMMUNITY BUILDERS","9111 JOLLYVILLE RD STE 111",AUSTIN,TX,78759-7406,"(512) 686-4986",http://www.mymilestone.com/,,,
TX,HAYS,BLR2021-3801,"Single Family Homes",1/29/2021,,125461,2547,"124 SILVER GLEN DR",KYLE,TX,78640,"COOL SPRINGS",,CONTRACTOR,,,,,,,,,,,"MILESTONE COMMUNITY BUILDERS",,,,,"MILESTONE COMMUNITY BUILDERS","9111 JOLLYVILLE RD STE 111",AUSTIN,TX,78759-7406,"(512) 686-4986",http://www.mymilestone.com/,,,
TX,HAYS,BLR2021-3802,"Single Family Homes",1/29/2021,,136738,2753,"320 SILVER SPRINGS BND",KYLE,TX,78640,"COOL SPRINGS",,CONTRACTOR,,,,,,,,,,,"MILESTONE COMMUNITY BUILDERS",,,,,"MILESTONE COMMUNITY BUILDERS","9111 JOLLYVILLE RD STE 111",AUSTIN,TX,78759-7406,"(512) 686-4986",http://www.mymilestone.com/,,,
TX,HAYS,BLR2021-3803,"Single Family Homes",1/29/2021,,117880,2269,"158 MANATEE LN",KYLE,TX,78640,"COOL SPRINGS",,CONTRACTOR,,,,,,,,,,,"MILESTONE COMMUNITY BUILDERS",,,,,"MILESTONE COMMUNITY BUILDERS","9111 JOLLYVILLE RD STE 111",AUSTIN,TX,78759-7406,"(512) 686-4986",http://www.mymilestone.com/,,,
TX,HAYS,BLR2021-3767,"Single Family Homes",1/29/2021,,121461,2430,"160 SILVER SPRINGS BND",KYLE,TX,78640,"COOL SPRINGS",,CONTRACTOR,,,,,,,,,,,"MILESTONE COMMUNITY BUILDERS",,,,,"MILESTONE COMMUNITY BUILDERS","9111 JOLLYVILLE RD STE 111",AUSTIN,TX,78759-7406,"(512) 686-4986",http://www.mymilestone.com/,,,
TX,HAYS,BLR2021-3774,"Single Family Homes",1/29/2021,,118280,2080,"108 SILVER GLEN DR",KYLE,TX,78640,"COOL SPRINGS",,CONTRACTOR,,,,,,,,,,,"MILESTONE COMMUNITY BUILDERS",,,,,"MILESTONE COMMUNITY BUILDERS","9111 JOLLYVILLE RD STE 111",AUSTIN,TX,78759-7406,"(512) 686-4986",http://www.mymilestone.com/,,,
TX,HAYS,BLR2021-3776,"Single Family Homes",1/29/2021,,117880,2052,"156 SILVER GLEN DR",KYLE,TX,78640,"COOL SPRINGS",,CONTRACTOR,,,,,,,,,,,"MILESTONE COMMUNITY BUILDERS",,,,,"MILESTONE COMMUNITY BUILDERS","9111 JOLLYVILLE RD STE 111",AUSTIN,TX,78759-7406,"(512) 686-4986",http://www.mymilestone.com/,,,
TX,HAYS,BLR2021-3777,"Single Family Homes",1/29/2021,,120461,2570,"211 SILVER GLEN DR",KYLE,TX,78640,"COOL SPRINGS",,CONTRACTOR,,,,,,,,,,,"MILESTONE COMMUNITY BUILDERS",,,,,"MILESTONE COMMUNITY BUILDERS","9111 JOLLYVILLE RD STE 111",AUSTIN,TX,78759-7406,"(512) 686-4986",http://www.mymilestone.com/,,,
TX,HAYS,BLR2021-3778,"Single Family Homes",1/29/2021,,117880,2052,"234 SALT SPRINGS RD",KYLE,TX,78640,"COOL SPRINGS",,CONTRACTOR,,,,,,,,,,,"MILESTONE COMMUNITY BUILDERS",,,,,"MILESTONE COMMUNITY BUILDERS","9111 JOLLYVILLE RD STE 111",AUSTIN,TX,78759-7406,"(512) 686-4986",http://www.mymilestone.com/,,,
TX,HAYS,BLR2021-3779,"Single Family Homes",1/29/2021,,117880,2269,"140 SILVER GLEN DR",KYLE,TX,78640,"COOL SPRINGS",,CONTRACTOR,,,,,,,,,,,"MILESTONE COMMUNITY BUILDERS",,,,,"MILESTONE COMMUNITY BUILDERS","9111 JOLLYVILLE RD STE 111",AUSTIN,TX,78759-7406,"(512) 686-4986",http://www.mymilestone.com/,,,
TX,HAYS,BLR2021-3780,"Single Family Homes",1/29/2021,,117880,1695,"172 SILVER SPRINGS BND",KYLE,TX,78640,"COOL SPRINGS",,CONTRACTOR,,,,,,,,,,,"MILESTONE COMMUNITY BUILDERS",,,,,"MILESTONE COMMUNITY BUILDERS","9111 JOLLYVILLE RD STE 111",AUSTIN,TX,78759-7406,"(512) 686-4986",http://www.mymilestone.com/,,,
TX,HAYS,BLR2021-3781,"Single Family Homes",1/29/2021,,121461,2430,"332 SILVER SPRINGS BND",KYLE,TX,78640,"COOL SPRINGS",,CONTRACTOR,,,,,,,,,,,"MILESTONE COMMUNITY BUILDERS",,,,,"MILESTONE COMMUNITY BUILDERS","9111 JOLLYVILLE RD STE 111",AUSTIN,TX,78759-7406,"(512) 686-4986",http://www.mymilestone.com/,,,
TX,HAYS,BLR2021-3782,"Single Family Homes",1/29/2021,,123221,2574,"416 SILVER SPRINGS BND",KYLE,TX,78640,"COOL SPRINGS",,CONTRACTOR,,,,,,,,,,,"MILESTONE COMMUNITY BUILDERS",,,,,"MILESTONE COMMUNITY BUILDERS","9111 JOLLYVILLE RD STE 111",AUSTIN,TX,78759-7406,"(512) 686-4986",http://www.mymilestone.com/,,,
TX,HAYS,BLR2021-3783,"Single Family Homes",1/29/2021,,128800,2286,"384 SILVER SPRINGS BND",KYLE,TX,78640,"COOL SPRINGS",,CONTRACTOR,,,,,,,,,,,"MILESTONE COMMUNITY BUILDERS",,,,,"MILESTONE COMMUNITY BUILDERS","9111 JOLLYVILLE RD STE 111",AUSTIN,TX,78759-7406,"(512) 686-4986",http://www.mymilestone.com/,,,
TX,HAYS,BLR2021-3784,"Single Family Homes",1/29/2021,,117130,2505,"366 SILVER SPRINGS BND",KYLE,TX,78640,"COOL SPRINGS",,CONTRACTOR,,,,,,,,,,,"MILESTONE COMMUNITY BUILDERS",,,,,"MILESTONE COMMUNITY BUILDERS","9111 JOLLYVILLE RD STE 111",AUSTIN,TX,78759-7406,"(512) 686-4986",http://www.mymilestone.com/,,,
TX,HAYS,BLR2021-3785,"Single Family Homes",1/29/2021,,135495,2342,"348 SILVER SPRINGS BND",KYLE,TX,78640,"COOL SPRINGS",,CONTRACTOR,,,,,,,,,,,"MILESTONE COMMUNITY BUILDERS",,,,,"MILESTONE COMMUNITY BUILDERS","9111 JOLLYVILLE RD STE 111",AUSTIN,TX,78759-7406,"(512) 686-4986",http://www.mymilestone.com/,,,
TX,HAYS,BLR2021-3786,"Single Family Homes",1/29/2021,,120461,2570,"417 SILVER SPRINGS BND",KYLE,TX,78640,"COOL SPRINGS",,CONTRACTOR,,,,,,,,,,,"MILESTONE COMMUNITY BUILDERS",,,,,"MILESTONE COMMUNITY BUILDERS","9111 JOLLYVILLE RD STE 111",AUSTIN,TX,78759-7406,"(512) 686-4986",http://www.mymilestone.com/,,,
TX,HAYS,BLR2020-3640,"Single Family Homes",1/29/2021,,250000,2390,"1366 TREETA TRL",KYLE,TX,78640,"BUNTON CREEK",,CONTRACTOR,,,,,,,,,,,"LGI HOMES",,,,,"LGI HOMES","1450 LAKE ROBBINS SUITE 430",CONROE,TX,77380,"(210) 563-4648",,"(281) 210-2601",,
TX,HAYS,BLR2021-3741,"Single Family Homes",1/29/2021,,159185,2449,"130 MADRID",KYLE,TX,78640,"PLUM CREEK",,CONTRACTOR,,,,,,,,,,,"LENNAR HOMES",,,,,"LENNAR HOMES","13620 FM 620 RD 150",AUSTIN,TX,78717,"(512) 506-4000",http://www.lennar.com/,,,
TX,HAYS,BLR2021-3749,"Single Family Homes",1/29/2021,,182910,2814,"510 JACK RYAN",KYLE,TX,78640,"PLUM CREEK",,CONTRACTOR,,,,,,,,,,,"LENNAR HOMES",,,,,"LENNAR HOMES","13620 FM 620 RD 150",AUSTIN,TX,78717,"(512) 506-4000",http://www.lennar.com/,,,
TX,HAYS,BLR2021-3763,"Single Family Homes",1/29/2021,,143780,2212,"500 JACK RYAN",KYLE,TX,78640,"PLUM CREEK",,CONTRACTOR,,,,,,,,,,,"LENNAR HOMES",,,,,"LENNAR HOMES","13620 FM 620 RD 150",AUSTIN,TX,78717,"(512) 506-4000",http://www.lennar.com/,,,
TX,HAYS,BLR2021-3765,"Single Family Homes",1/29/2021,,164190,2526,"490 JACK RYAN",KYLE,TX,78640,"PLUM CREEK",,CONTRACTOR,,,,,,,,,,,"LENNAR HOMES",,,,,"LENNAR HOMES","13620 FM 620 RD 150",AUSTIN,TX,78717,"(512) 506-4000",http://www.lennar.com/,,,
TX,HAYS,BLR2021-3804,"Single Family Homes",1/29/2021,,163520,2336,"185 BISCAYNE DR",KYLE,TX,78640,PARAMOUNT,,CONTRACTOR,,,,,,,,,,,"CASTLEROCK COMMUNITIES",,,,,"CASTLEROCK COMMUNITIES","7670 WOODWAY DR STE 300",HOUSTON,TX,77063-1520,"(713) 600-7000",http://c-rock.com,"(713) 600-0000",,
TX,HAYS,BLR2021-3805,"Single Family Homes",1/29/2021,,145670,2081,"173 MAMMOTH DR",KYLE,TX,78640,PARAMOUNT,,CONTRACTOR,,,,,,,,,,,"CASTLEROCK COMMUNITIES",,,,,"CASTLEROCK COMMUNITIES","7670 WOODWAY DR STE 300",HOUSTON,TX,77063-1520,"(713) 600-7000",http://c-rock.com,"(713) 600-0000",,
TX,TRAVIS,"2020-191685 BP","Single Family Homes",2/11/2021,,40000,1350,"6611 HERGOTZ LN",AUSTIN,TX,78742,DELVALLE,,CONTRACTOR,,,,,,,,,,,"FORSITE STUDIO",,,,,"FORSITE STUDIO","1205 E CESAR CHAVEZ ST",AUSTIN,TX,78702-4332,"(512) 659-6905",,,,
TX,TRAVIS,"2021-014022 BP","Single Family Homes",2/11/2021,,121650,2212,"10724 STEINBECK DR",AUSTIN,TX,78747,BRADSHAW,23,CONTRACTOR,,,,,,,,,,,"LENNAR HOMES",,,,,"LENNAR HOMES","13620 FM 620 RD 150",AUSTIN,TX,78717,"(512) 506-4000",http://www.lennar.com/,,,
TX,TRAVIS,"2021-020752 BP","Single Family Homes",2/12/2021,,151650,2022,"14016 HEYWOOD DR",AUSTIN,TX,78660,,,CONTRACTOR,,,,,,,,,,,"DR HORTON",,,,,"DR HORTON","10700 PECAN PARK BLVD STE 400",AUSTIN,TX,78750-1227,"(512) 345-4663",,,,
TX,TRAVIS,"2021-019344 BP","Single Family Homes",2/5/2020,,152550,2034,"3013 MARYANNE LN",AUSTIN,TX,78660,,,CONTRACTOR,,,,,,,,,,,"DR HORTON",,,,,"DR HORTON","10700 PECAN PARK BLVD STE 400",AUSTIN,TX,78750-1227,"(512) 345-4663",,,,
TX,TRAVIS,"2021-019045 BP","Single Family Homes",2/12/2021,,159525,2127,"3025 LOURIS LN",AUSTIN,TX,78660,,,CONTRACTOR,,,,,,,,,,,"DR HORTON",,,,,"DR HORTON","10700 PECAN PARK BLVD STE 400",AUSTIN,TX,78750-1227,"(512) 345-4663",,,,
TX,TRAVIS,"2020-185623 BP","Single Family Homes",2/11/2021,,160000,1294,"814 NORTH BLUFF DR BLDG 67",AUSTIN,TX,78745,CANNON,,CONTRACTOR,,,,,,,,,,,"PSW HOMES",,,,,"PSW HOMES","2003 S 1ST ST",AUSTIN,TX,78704-5141,"(512) 326-3905",,,,
TX,TRAVIS,"2020-185720 BP","Single Family Homes",2/11/2021,,160000,1401,"814 NORTH BLUFF DR BLDG 68",AUSTIN,TX,78745,CANNON,,CONTRACTOR,,,,,,,,,,,"PSW HOMES",,,,,"PSW HOMES","2003 S 1ST ST",AUSTIN,TX,78704-5141,"(512) 326-3905",,,,
TX,TRAVIS,"2020-186659 BP","Single Family Homes",2/11/2021,,160000,1294,"814 NORTH BLUFF DR BLDG 69",AUSTIN,TX,78745,CANNON,,CONTRACTOR,,,,,,,,,,,"PSW HOMES",,,,,"PSW HOMES","2003 S 1ST ST",AUSTIN,TX,78704-5141,"(512) 326-3905",,,,
TX,TRAVIS,"2020-186672 BP","Single Family Homes",2/11/2021,,160000,1401,"814 NORTH BLUFF DR BLDG 70",AUSTIN,TX,78745,CANNON,,CONTRACTOR,,,,,,,,,,,"PSW HOMES",,,,,"PSW HOMES","2003 S 1ST ST",AUSTIN,TX,78704-5141,"(512) 326-3905",,,,
TX,TRAVIS,"2020-186706 BP","Single Family Homes",2/11/2021,,160000,1498,"814 NORTH BLUFF DR BLDG 71",AUSTIN,TX,78745,CANNON,,CONTRACTOR,,,,,,,,,,,"PSW HOMES",,,,,"PSW HOMES","2003 S 1ST ST",AUSTIN,TX,78704-5141,"(512) 326-3905",,,,
TX,TRAVIS,"2021-020969 BP","Single Family Homes",2/15/2021,,164325,2191,"14104 BOQUIST DR",AUSTIN,TX,78660,,,CONTRACTOR,,,,,,,,,,,"DR HORTON",,,,,"DR HORTON","10700 PECAN PARK BLVD STE 400",AUSTIN,TX,78750-1227,"(512) 345-4663",,,,
TX,TRAVIS,"2021-020964 BP","Single Family Homes",2/15/2020,,176475,2353,"3025 MARYANNE LN",AUSTIN,TX,78660,,,CONTRACTOR,,,,,,,,,,,"DR HORTON",,,,,"DR HORTON","10700 PECAN PARK BLVD STE 400",AUSTIN,TX,78750-1227,"(512) 345-4663",,,,
TX,TRAVIS,"2021-020973 BP","Single Family Homes",2/15/2020,,179100,2388,"14100 BOQUIST DR",AUSTIN,TX,78660,,,CONTRACTOR,,,,,,,,,,,"DR HORTON",,,,,"DR HORTON","10700 PECAN PARK BLVD STE 400",AUSTIN,TX,78750-1227,"(512) 345-4663",,,,
TX,TRAVIS,"2021-019089 BP","Single Family Homes",2/12/2021,,181725,2423,"14120 BOQUIST DR",AUSTIN,TX,78660,,,CONTRACTOR,,,,,,,,,,,"DR HORTON",,,,,"DR HORTON","10700 PECAN PARK BLVD STE 400",AUSTIN,TX,78750-1227,"(512) 345-4663",,,,
TX,TRAVIS,"2021-019095 BP","Single Family Homes",2/12/2021,,189600,2528,"2904 LOURIS LN",AUSTIN,TX,78660,,,CONTRACTOR,,,,,,,,,,,"DR HORTON",,,,,"DR HORTON","10700 PECAN PARK BLVD STE 400",AUSTIN,TX,78750-1227,"(512) 345-4663",,,,
TX,TRAVIS,"2021-020967 BP","Single Family Homes",2/15/2020,,190800,2544,"14108 BOQUIST DR",AUSTIN,TX,78660,,,CONTRACTOR,,,,,,,,,,,"DR HORTON",,,,,"DR HORTON","10700 PECAN PARK BLVD STE 400",AUSTIN,TX,78750-1227,"(512) 345-4663",,,,
TX,TRAVIS,"2020-160384 BP","Single Family Homes",2/12/2021,,195825,2611,"15423 SWEET MIMOSA DR",AUSTIN,TX,78617,,,CONTRACTOR,,,,,,,,,,,"LENNAR HOMES",,,,,"LENNAR HOMES","13620 FM 620 RD 150",AUSTIN,TX,78717,"(512) 506-4000",http://www.lennar.com/,,,
TX,TRAVIS,"2021-022438 BP","Single Family Homes",2/11/2021,,197000,3256,"12201 CORONILLA BND",AUSTIN,TX,78748,"ESTANCIA HILL COUNTRY",6,CONTRACTOR,,,,,,,,,,,"LENNAR HOMES",,,,,"LENNAR HOMES","13620 FM 620 RD 150",AUSTIN,TX,78717,"(512) 506-4000",http://www.lennar.com/,,,
TX,TRAVIS,"2021-021698 BP","Single Family Homes",2/10/2021,,197250,3256,"12207 CORONILLA BND",AUSTIN,TX,78748,"ESTANCIA HILL COUNTRY",6,CONTRACTOR,,,,,,,,,,,"LENNAR HOMES",,,,,"LENNAR HOMES","13620 FM 620 RD 150",AUSTIN,TX,78717,"(512) 506-4000",http://www.lennar.com/,,,
TX,TRAVIS,"2021-019103 BP","Single Family Homes",2/12/2021,,215100,2868,"14112 BOQUIST DR",AUSTIN,TX,78660,,,CONTRACTOR,,,,,,,,,,,"DR HORTON",,,,,"DR HORTON","10700 PECAN PARK BLVD STE 400",AUSTIN,TX,78750-1227,"(512) 345-4663",,,,
TX,TRAVIS,"2021-020786 BP","Single Family Homes",2/5/2020,,229350,3058,"3029 MARYANNE LN",AUSTIN,TX,78660,,,CONTRACTOR,,,,,,,,,,,"DR HORTON",,,,,"DR HORTON","10700 PECAN PARK BLVD STE 400",AUSTIN,TX,78750-1227,"(512) 345-4663",,,,
TX,TRAVIS,"2021-019069 BP","Single Family Homes",2/12/2021,,231975,3093,"3001 LOURIS LN",AUSTIN,TX,78660,,,CONTRACTOR,,,,,,,,,,,"DR HORTON",,,,,"DR HORTON","10700 PECAN PARK BLVD STE 400",AUSTIN,TX,78750-1227,"(512) 345-4663",,,,
TX,TRAVIS,"2021-020794 BP","Single Family Homes",2/15/2020,,231975,3093,"3012 LOURIS LN",AUSTIN,TX,78660,,,CONTRACTOR,,,,,,,,,,,"DR HORTON",,,,,"DR HORTON","10700 PECAN PARK BLVD STE 400",AUSTIN,TX,78750-1227,"(512) 345-4663",,,,
TX,TRAVIS,"2021-020983 BP","Single Family Homes",2/5/2020,,231975,3093,"2916 LOURIS LN",AUSTIN,TX,78660,,,CONTRACTOR,,,,,,,,,,,"DR HORTON",,,,,"DR HORTON","10700 PECAN PARK BLVD STE 400",AUSTIN,TX,78750-1227,"(512) 345-4663",,,,
TX,TRAVIS,"2021-021954 BP","Single Family Homes",2/10/2021,,254990,2348,"10824 JAMESON DR",AUSTIN,TX,78745,DELVALLE,,CONTRACTOR,,,,,,,,,,,"MILESTONE COMMUNITY BUILDERS",,,,,"MILESTONE COMMUNITY BUILDERS","9111 JOLLYVILLE RD STE 111",AUSTIN,TX,78759-7406,"(512) 686-4986",http://www.mymilestone.com/,,,
TX,TRAVIS,"2021-021928 BP","Single Family Homes",2/10/2021,,254990,2582,"10820 JAMESON DR",AUSTIN,TX,78704,DELVALLE,,CONTRACTOR,,,,,,,,,,,"MILESTONE COMMUNITY BUILDERS",,,,,"MILESTONE COMMUNITY BUILDERS","9111 JOLLYVILLE RD STE 111",AUSTIN,TX,78759-7406,"(512) 686-4986",http://www.mymilestone.com/,,,
TX,TRAVIS,"2021-021917 BP","Single Family Homes",2/10/2021,,254990,2710,"10817 BLACKET DR",AUSTIN,TX,78705,DELVALLE,,CONTRACTOR,,,,,,,,,,,"MILESTONE COMMUNITY BUILDERS",,,,,"MILESTONE COMMUNITY BUILDERS","9111 JOLLYVILLE RD STE 111",AUSTIN,TX,78759-7406,"(512) 686-4986",http://www.mymilestone.com/,,,
TX,TRAVIS,"2021-021883 BP","Single Family Homes",2/10/2021,,254990,2774,"6313 PINE LEAF TRL",AUSTIN,TX,78757,DELVALLE,,CONTRACTOR,,,,,,,,,,,"MILESTONE COMMUNITY BUILDERS",,,,,"MILESTONE COMMUNITY BUILDERS","9111 JOLLYVILLE RD STE 111",AUSTIN,TX,78759-7406,"(512) 686-4986",http://www.mymilestone.com/,,,
TX,TRAVIS,"2021-022620 BP","Single Family Homes",2/11/2021,,260000,2190,"8300 AUSBLICK AVE",AUSTIN,TX,78747,DELVALLE,,CONTRACTOR,,,,,,,,,,,"BROOKFIELD RESIDENTIAL PROPERTIES",,,,,"BROOKFIELD RESIDENTIAL PROPERTIES","11501 ALTERRA PKWY STE 100",AUSTIN,TX,78758-3201,"(512) 391-1330",,,,
TX,TRAVIS,"2021-015449 BP","Single Family Homes",2/10/2021,,268950,2342,"7601 ELK GROVE PATH",AUSTIN,TX,78653,"BELLINGHAM MEADOWS",6,CONTRACTOR,,,,,,,,,,,"RSI COMMUNITIES",,,,,"RSI COMMUNITIES","810 HESTERS CROSSING RD STE 235","ROUND ROCK",TX,78681-7846,"(512) 953-4100",,,,
TX,TRAVIS,"2021-021843 BP","Single Family Homes",2/12/2021,,275000,4152,"2610 GERAGHTY AVE",AUSTIN,TX,78757,"GREEN ACRES",27,CONTRACTOR,,,,,,,,,,,"DOMINIQUE LEVESQUE CONSTRUCTION",,,,,"DOMINIQUE LEVESQUE CONSTRUCTION","1708 CULLEN AVE",AUSTIN,TX,78757-2531,"(512) 633-1419",http://dominiquelevesque.com,,,
TX,TRAVIS,"2021-022614 BP","Single Family Homes",2/11/2021,,282500,2707,"8304 AUSBLICK AVE",AUSTIN,TX,78747,DELVALLE,,CONTRACTOR,,,,,,,,,,,"BROOKFIELD RESIDENTIAL PROPERTIES",,,,,"BROOKFIELD RESIDENTIAL PROPERTIES","11501 ALTERRA PKWY STE 100",AUSTIN,TX,78758-3201,"(512) 391-1330",,,,
TX,TRAVIS,"2021-021965 BP","Single Family Homes",2/10/2021,,290000,3111,"905 FALKLAND TRCE",AUSTIN,TX,78660,CUNNINGHAM,,CONTRACTOR,,,,,,,,,,,"BLACKBURN COMMUNITIES",,,,,"BLACKBURN COMMUNITIES","301 BRUSHY CREEK RD STE 108",PFLUGERVILLE,TX,78613,"(512) 401-3205",https://www.blackburnhomes.com/,,,info@blackburnhomes.com
TX,TRAVIS,"2021-021973 BP","Single Family Homes",2/10/2021,,290000,3435,"901 FALKLAND TRCE",AUSTIN,TX,78660,CUNNINGHAM,,CONTRACTOR,,,,,,,,,,,"BLACKBURN COMMUNITIES",,,,,"BLACKBURN COMMUNITIES","301 BRUSHY CREEK RD STE 108",PFLUGERVILLE,TX,78613,"(512) 401-3205",https://www.blackburnhomes.com/,,,info@blackburnhomes.com
TX,TRAVIS,"2021-023079 BP","Single Family Homes",2/13/2021,,294120,2580,"9805 ELOQUENCE DR",AUSTIN,TX,78653,,,CONTRACTOR,,,,,,,,,,,"BUFFINGTON TEXAS CLASSIC HOMES",,,,,"BUFFINGTON TEXAS CLASSIC HOMES","8601 RANCH ROAD 2222 PARK CENTRE BLDG STE 150",AUSTIN,TX,78730,"(512) 579-4800",,,,
TX,TRAVIS,"2021-022633 BP","Single Family Homes",2/11/2021,,297700,2418,"8308 AUSBLICK AVE",AUSTIN,TX,78747,DELVALLE,,CONTRACTOR,,,,,,,,,,,"BROOKFIELD RESIDENTIAL PROPERTIES",,,,,"BROOKFIELD RESIDENTIAL PROPERTIES","11501 ALTERRA PKWY STE 100",AUSTIN,TX,78758-3201,"(512) 391-1330",,,,
TX,TRAVIS,"2021-021700 BP","Single Family Homes",2/10/2021,,315000,2399,"9705 EVENING CANOPY DR",AUSTIN,TX,78653,,,CONTRACTOR,,,,,,,,,,,"AHA DREAM HOMES",,,,,"AHA DREAM HOMES","10217 WIND CAVE TRL",AUSTIN,TX,78747-2696,"(512) 535-7343",http://www.ahadreamhomes.com,"(866) 204-4269",,info@ahadreamhomes.com
TX,TRAVIS,"2021-006064 BP","Single Family Homes",2/10/2021,,450000,3477,"1603 WILLOW ST",AUSTIN,TX,78702,RIVERSIDE,2,CONTRACTOR,,,,,,,,,,,"OAKMAN BUILDING COMPANY",,,,,"OAKMAN BUILDING COMPANY","6507 JESTER BLVD #510-B",AUSTIN,TX,78750,"(512) 565-7770",,,,
TX,TRAVIS,"2021-013164 BP","Single Family Homes",2/12/2021,,500000,3793,"1115 W 31ST ST",AUSTIN,TX,78705,,,CONTRACTOR,,,,,,,,,,,"DIG B",,,,,"DIG B","1614 FOREST TRL",AUSTIN,TX,78703-3232,"(512) 586-8652",,,"CRAIG HOVERMAN",
TX,TRAVIS,"2021-022442 BP","Single Family Homes",2/12/2021,,914990,6128,"10308 LAVON BND",AUSTIN,TX,78717,,,CONTRACTOR,,,,,,,,,,,"PULTE HOMES",,,,,"PULTE HOMES","9401 AMBERGLEN BLVD STE I-150",AUSTIN,TX,78729-1154,"(512) 561-4344",,,,
TX,TRAVIS,"2021-022456 BP","Single Family Homes",2/12/2021,,924990,7769,"10312 LAVON BND",AUSTIN,TX,78717,,,CONTRACTOR,,,,,,,,,,,"PULTE HOMES",,,,,"PULTE HOMES","9401 AMBERGLEN BLVD STE I-150",AUSTIN,TX,78729-1154,"(512) 561-4344",,,,
TX,TRAVIS,"2021-015443 BP","Single Family Homes",2/11/2021,,1300000,3146,"1001 LOTT AVE",AUSTIN,TX,78721,MOORE,18,CONTRACTOR,,,,,,,,,,,"MANNA CUSTOM HOMES",,,,,"MANNA CUSTOM HOMES","620 CALDWELL ST",LEXINGTON,TX,78947-6370,"(254) 931-4081",,,,
TX,WILLIAMSON,2101-0003,"Warehouse & Manufacturing",1/8/2021,,374000,,"3101 EAGLES NEST ST 410","ROUND ROCK",TX,78864,,,CONTRACTOR,,,,,,,,,,,"BURKE REAL ESTATE GROUP",,,,,"BURKE REAL ESTATE GROUP","2590 OAKMONT DR STE 210","ROUND ROCK",TX,78665-1036,"(512) 439-4050",http://www.burkegroup.net/,,,
TX,HAYS,BLC2020-0341,"Warehouse & Manufacturing",1/5/2021,,878000,7242,"930 KOHLERS XING",KYLE,TX,78640,,,CONTRACTOR,,,,,,,,,,,"KPG COMMERCIAL",,,,,"KPG COMMERCIAL","3809 S 2ND ST D-200",AUSTIN,TX,78704,"(512) 441-1062",,,,
TX,HAYS,BLC2020-0339,"Warehouse & Manufacturing",1/5/2021,,1248000,10288,"910 KOHLERS XING",KYLE,TX,78640,,,CONTRACTOR,,,,,,,,,,,"KPG COMMERCIAL",,,,,"KPG COMMERCIAL","3809 S 2ND ST D-200",AUSTIN,TX,78704,"(512) 441-1062",,,,
TX,HAYS,BLC2020-0340,"Warehouse & Manufacturing",1/5/2021,,873000,7201,"920 KOHLERS XING",KYLE,TX,78640,,,CONTRACTOR,,,,,,,,,,,"NOACKLITTLE ARCHITECTURE & INTERIORS",,,,,"NOACKLITTLE ARCHITECTURE & INTERIORS","220 INDUSTRIAL BLVD STE 101",AUSTIN,TX,78745-1276,"(512) 851-1900",http://noacklittle.com/,,,
