state,county,permno,ptype,pdate,pdescription,jvalue,jsqfeet,jaddr,jcity,jstate,jzip,jsubdiv,jlotno,aname,aaddr,acity,astate,azip,aphone,atype,aurl,afax,aprimarycontact,aemail,bldcode,units,bldgs,ctype,legal,contractor,caddress,ccity,cstate,czip,cphone,curl,cfax,cprimarycontact,cemail
TX,TRAVIS,"2021-000510 BP","Auto Sales & Services",1/20/2021,,2000000,5592,"6400 E BEN WHITE BLVD","ALAMO HEIGHTS",TX,78741,"BEN WHITE MONTOPOLIS",4,CONTRACTOR,,,,,,,,,,,"JJO CONSTRUCTION",,,,,"JJO CONSTRUCTION","9045 OSBORNE DR",MENTOR,OH,44060-4326,"(440) 255-1515",http://www.jjoconstruction.com/,"(440) 255-4141","JOSEPH OREL",
TX,WILLIAMSON,012-0018,"Churches & Other Religious",12/21/2020,,2000000,,"3379 GATTIS SCHOOL RD","ROUND ROCK",TX,78664,,,"FELLOWSHIP AT FOREST CREEK","3379 GATTIS SCHOOL RD","ROUND ROCK",TX,78664,,Owner,,,,,"NAVCON GROUP",,,,,"NAVCON GROUP","2300 GREENHILL DR","ROUND ROCK",TX,78664-2775,"(512) 531-2800",,,,
TX,HAYS,2020-33921,"Commercial Swimming Pool & Spas",12/2/2020,,250000,,"210 N EDWARD GARY ST","SAN MARCOS",TX,78666,,,CONTRACTOR,,,,,,,,,,,"CODY POOLS",,,,,"CODY POOLS","2300 W PARMER LN",AUSTIN,TX,78727-4332,"(512) 835-4966",http://www.codypools.com,,"COLE NAUMAN",
TX,HAYS,2020-34074,"Duplex, Triplex, & Fourplex",12/9/2020,,250000,3342,"208 BOLIVAR WAY CONDO 101","SAN MARCOS",TX,78666,,,CONTRACTOR,,,,,,,,,,,"BROOKFIELD RESIDENTIAL PROPERTIES",,,,,"BROOKFIELD RESIDENTIAL PROPERTIES","11501 ALTERRA PKWY STE 100",AUSTIN,TX,78758-3201,"(512) 391-1330",,,,
TX,HAYS,2020-34080,"Duplex, Triplex, & Fourplex",12/14/2020,,250000,4352,"204 BOLIVAR WAY CONDO 101","SAN MARCOS",TX,78666,,,CONTRACTOR,,,,,,,,,,,"BROOKFIELD RESIDENTIAL PROPERTIES",,,,,"BROOKFIELD RESIDENTIAL PROPERTIES","11501 ALTERRA PKWY STE 100",AUSTIN,TX,78758-3201,"(512) 391-1330",,,,
TX,HAYS,2020-34287,"Duplex, Triplex, & Fourplex",12/30/2020,,250000,4008,"117 HARBORSIDE DR CONDO 101","SAN MARCOS",TX,78666,,,CONTRACTOR,,,,,,,,,,,"BROOKFIELD RESIDENTIAL PROPERTIES",,,,,"BROOKFIELD RESIDENTIAL PROPERTIES","11501 ALTERRA PKWY STE 100",AUSTIN,TX,78758-3201,"(512) 391-1330",,,,
TX,TRAVIS,"2021-007781 BP","Educational Institution",1/25/2021,Addition,2925000,13011,"1501 DESSAU RIDGE LN",AUSTIN,TX,78754,"BOMBADIL TOM",3,CONTRACTOR,,,,,,,,,,,HCS,,,,,HCS,"365 WAYSIDE",WACO,TX,76705-5488,"(254) 715-3264",http://www.hcs-gc.com/,,,
TX,TRAVIS,"2021-006975 BP","Educational Institution",1/20/2021,Renovation,2146980,10786,"6700 ARROYO SECO BLDG B",AUSTIN,TX,78757,SPEAR,,CONTRACTOR,,,,,,,,,,,"BARTLETT COCKE CONSTRUCTION",,,,,"BARTLETT COCKE CONSTRUCTION","7901 E RIVERSIDE DR # 2-100",AUSTIN,TX,78744-1661,"(512) 326-4223",http://bartlettcocke.com/,,,
TX,TRAVIS,"2021-006977 BP","Educational Institution",1/20/2021,Renovation,3038000,18105,"6700 ARROYO SECO BLDG D",AUSTIN,TX,78757,SPEAR,,CONTRACTOR,,,,,,,,,,,"BARTLETT COCKE CONSTRUCTION",,,,,"BARTLETT COCKE CONSTRUCTION","7901 E RIVERSIDE DR # 2-100",AUSTIN,TX,78744-1661,"(512) 326-4223",http://bartlettcocke.com/,,,
TX,TRAVIS,"2021-006974 BP","Educational Institution",1/20/2021,Renovation,10459000,34404,"6700 ARROYO SECO BLDG A",AUSTIN,TX,78757,SPEAR,,CONTRACTOR,,,,,,,,,,,"BARTLETT COCKE CONSTRUCTION",,,,,"BARTLETT COCKE CONSTRUCTION","7901 E RIVERSIDE DR # 2-100",AUSTIN,TX,78744-1661,"(512) 326-4223",http://bartlettcocke.com/,,,
TX,TRAVIS,"2021-006976 BP","Educational Institution",1/20/2021,Renovation,11049131,19142,"6700 ARROYO SECO BLDG C",AUSTIN,TX,78757,SPEAR,,CONTRACTOR,,,,,,,,,,,"BARTLETT COCKE CONSTRUCTION",,,,,"BARTLETT COCKE CONSTRUCTION","7901 E RIVERSIDE DR # 2-100",AUSTIN,TX,78744-1661,"(512) 326-4223",http://bartlettcocke.com/,,,
TX,WILLIAMSON,2012-0001,"Educational Institution",12/1/2020,,40131770,,"300 W ANDERSON AVE","ROUND ROCK",TX,78664,,,"ROUND ROCK ISD","1311 ROUND ROCK AVE","ROUND ROCK",TX,76092,,Owner,,,,,OWNER,,,,,OWNER,,,,,,,,,
TX,WILLIAMSON,2020-29236,"Hospital & Other Medical",12/14/2020,"Finish Out",49500,1472,"15609 RONALD W REAGAN BLVD",LEANDER,TX,78641,,,CONTRACTOR,,,,,,,,,,,"OMNI BUILD",,,,,"OMNI BUILD","1701 LEGACY DR STE 1400",FRISCO,TX,75034-1841,"(469) 850-0701",https://www.omnibuildgroup.com,,,
TX,TRAVIS,2020-5077,"Hospital & Other Medical",12/16/2020,"Finish Out",192392,1817,"12700 LEXINGTON ST. SUITE 200",MANOR,TX,78653,,,CONTRACTOR,,,,,,,,,,,"KOLBROOK DESIGN",,,,,"KOLBROOK DESIGN","828 DAVIS ST STE 300",EVANSTON,IL,60201-4443,"(847) 492-1992",http://www.kolbrook.com/,,"STEVEN KOLBER",
TX,WILLIAMSON,2012-0021,"Hospital & Other Medical",12/23/2020,,1800000,,"4701 CAMPUS VILLAGE DR","ROUND ROCK",TX,78664,,,"AVERY CENTER DEVELOPMENT","4701 CAMPUS VILLAGE DR","ROUND ROCK",TX,78664,,Owner,,,,,"DENUCCI CONSTRUCTORS",,,,,"DENUCCI CONSTRUCTORS","8310 N CAPITAL OF TEXAS HWY #275",AUSTIN,TX,78731-1011,"(512) 335-0600",,,,
TX,WILLIAMSON,2012-0023,"Hospital & Other Medical",12/28/2020,,4200000,,"2980 JOE DIMAGGIO BLVD BLDG 1","ROUND ROCK",TX,78665,,,"UCA CONSTRUCTION","PO BOX 171176",AUSTIN,TX,78665,,Owner,,,,,"LOTT BROTHERS CONSTRUCTION",,,,,"LOTT BROTHERS CONSTRUCTION","13284 POND SPRINGS RD STE 501",AUSTIN,TX,78729-7183,"(512) 401-8882",,,,
TX,WILLIAMSON,2012-0024,"Hospital & Other Medical",12/28/2020,,4200000,,"2980 JOE DIMAGGIO BLVD","ROUND ROCK",TX,78664,,,CONTRACTOR,,,,,,,,,,,"LOTT BROTHERS CONSTRUCTION",,,,,"LOTT BROTHERS CONSTRUCTION","13284 POND SPRINGS RD STE 501",AUSTIN,TX,78729-7183,"(512) 401-8882",,,,
TX,WILLIAMSON,2012-0026,"Hospital & Other Medical",12/29/2020,,750000,,"3589 N IH 35","ROUND ROCK",TX,78664,,,"CVP ROUND ROCK DB","3519 NE 15TH AVE #251","ROUND ROCK",TX,78664,,Owner,,,,,OWNER,,,,,OWNER,,,,,,,,,
TX,WILLIAMSON,2012-0011,"Hospital & Other Medical",12/9/2020,,100000,,"1350 E PALM VALLEY BLVD 500","ROUND ROCK",TX,78664,,,"DYLLAN TILLMAN","1350 E PALM VALLEY BLVD 500","ROUND ROCK",TX,78664,,Owner,,,,,OWNER,,,,,OWNER,,,,,,,,,
TX,WILLIAMSON,2012-0025,"Hospital & Other Medical",12/28/2020,,850000,,"2400 ROUND ROCK AVE","ROUND ROCK",TX,78664,,,"ST DAVIDS MEDICAL CENTER","2400 ROUND ROCK AVE","ROUND ROCK",TX,78664,,Owner,,,,,OWNER,,,,,OWNER,,,,,,,,,
TX,TRAVIS,"2020-192971 BP","Multi Family Apartments & Condos",1/22/2021,,1054917,17710,"13624 DESSAU RD BLDG 4",AUSTIN,TX,78753,CUSHING,,CONTRACTOR,,,,,,,,,,,"BLACKBURN COMMUNITIES",,,,,"BLACKBURN COMMUNITIES","301 BRUSHY CREEK RD STE 108",PFLUGERVILLE,TX,78613,"(512) 401-3205",https://www.blackburnhomes.com/,,,info@blackburnhomes.com
TX,TRAVIS,"2020-192978 BP","Multi Family Apartments & Condos",1/22/2021,,1054917,17710,"13624 DESSAU RD BLDG 11",AUSTIN,TX,78753,CUSHING,,CONTRACTOR,,,,,,,,,,,"BLACKBURN COMMUNITIES",,,,,"BLACKBURN COMMUNITIES","301 BRUSHY CREEK RD STE 108",PFLUGERVILLE,TX,78613,"(512) 401-3205",https://www.blackburnhomes.com/,,,info@blackburnhomes.com
TX,TRAVIS,"2020-192972 BP","Multi Family Apartments & Condos",1/22/2021,,1510896,25365,"13624 DESSAU RD BLDG 5",AUSTIN,TX,78753,CUSHING,,CONTRACTOR,,,,,,,,,,,"BLACKBURN COMMUNITIES",,,,,"BLACKBURN COMMUNITIES","301 BRUSHY CREEK RD STE 108",PFLUGERVILLE,TX,78613,"(512) 401-3205",https://www.blackburnhomes.com/,,,info@blackburnhomes.com
TX,TRAVIS,"2020-192979 BP","Multi Family Apartments & Condos",1/22/2021,,1680838,28218,"13624 DESSAU RD BLDG 12",AUSTIN,TX,78753,CUSHING,,CONTRACTOR,,,,,,,,,,,"BLACKBURN COMMUNITIES",,,,,"BLACKBURN COMMUNITIES","301 BRUSHY CREEK RD STE 108",PFLUGERVILLE,TX,78613,"(512) 401-3205",https://www.blackburnhomes.com/,,,info@blackburnhomes.com
TX,TRAVIS,"2020-192969 BP","Multi Family Apartments & Condos",1/22/2021,,1815696,30482,"13624 DESSAU RD BLDG 2",AUSTIN,TX,78753,CUSHING,,CONTRACTOR,,,,,,,,,,,"BLACKBURN COMMUNITIES",,,,,"BLACKBURN COMMUNITIES","301 BRUSHY CREEK RD STE 108",PFLUGERVILLE,TX,78613,"(512) 401-3205",https://www.blackburnhomes.com/,,,info@blackburnhomes.com
TX,TRAVIS,"2020-192970 BP","Multi Family Apartments & Condos",1/22/2021,,1815696,30482,"13624 DESSAU RD BLDG 3",AUSTIN,TX,78753,CUSHING,,CONTRACTOR,,,,,,,,,,,"BLACKBURN COMMUNITIES",,,,,"BLACKBURN COMMUNITIES","301 BRUSHY CREEK RD STE 108",PFLUGERVILLE,TX,78613,"(512) 401-3205",https://www.blackburnhomes.com/,,,info@blackburnhomes.com
TX,TRAVIS,"2020-192973 BP","Multi Family Apartments & Condos",1/22/2021,,1815696,30482,"13624 DESSAU RD BLDG 6",AUSTIN,TX,78753,CUSHING,,CONTRACTOR,,,,,,,,,,,"BLACKBURN COMMUNITIES",,,,,"BLACKBURN COMMUNITIES","301 BRUSHY CREEK RD STE 108",PFLUGERVILLE,TX,78613,"(512) 401-3205",https://www.blackburnhomes.com/,,,info@blackburnhomes.com
TX,TRAVIS,"2020-192974 BP","Multi Family Apartments & Condos",1/22/2021,,1815696,30482,"13624 DESSAU RD BLDG 7",AUSTIN,TX,78753,CUSHING,,CONTRACTOR,,,,,,,,,,,"BLACKBURN COMMUNITIES",,,,,"BLACKBURN COMMUNITIES","301 BRUSHY CREEK RD STE 108",PFLUGERVILLE,TX,78613,"(512) 401-3205",https://www.blackburnhomes.com/,,,info@blackburnhomes.com
TX,TRAVIS,"2020-192975 BP","Multi Family Apartments & Condos",1/22/2021,,1815696,30482,"13624 DESSAU RD BLDG 8",AUSTIN,TX,78753,,,CONTRACTOR,,,,,,,,,,,"BLACKBURN COMMUNITIES",,,,,"BLACKBURN COMMUNITIES","301 BRUSHY CREEK RD STE 108",PFLUGERVILLE,TX,78613,"(512) 401-3205",https://www.blackburnhomes.com/,,,info@blackburnhomes.com
TX,TRAVIS,"2020-192976 BP","Multi Family Apartments & Condos",1/22/2021,,1815696,30482,"13624 DESSAU RD BLDG 9",AUSTIN,TX,78753,CUSHING,,CONTRACTOR,,,,,,,,,,,"BLACKBURN COMMUNITIES",,,,,"BLACKBURN COMMUNITIES","301 BRUSHY CREEK RD STE 108",PFLUGERVILLE,TX,78613,"(512) 401-3205",https://www.blackburnhomes.com/,,,info@blackburnhomes.com
TX,TRAVIS,"2020-192977 BP","Multi Family Apartments & Condos",1/22/2021,,1922855,32281,"13624 DESSAU RD BLDG 10",AUSTIN,TX,78753,CUSHING,,CONTRACTOR,,,,,,,,,,,"BLACKBURN COMMUNITIES",,,,,"BLACKBURN COMMUNITIES","301 BRUSHY CREEK RD STE 108",PFLUGERVILLE,TX,78613,"(512) 401-3205",https://www.blackburnhomes.com/,,,info@blackburnhomes.com
TX,TRAVIS,"2020-192968 BP","Multi Family Apartments & Condos",1/22/2021,,1922856,32281,"13624 DESSAU RD BLDG 1",AUSTIN,TX,78753,CUSHING,,CONTRACTOR,,,,,,,,,,,"BLACKBURN COMMUNITIES",,,,,"BLACKBURN COMMUNITIES","301 BRUSHY CREEK RD STE 108",PFLUGERVILLE,TX,78613,"(512) 401-3205",https://www.blackburnhomes.com/,,,info@blackburnhomes.com
TX,TRAVIS,"2021-008288 BP","Multi Family Apartments & Condos",1/21/2021,,80000000,88170,"212 W HIGHLAND MALL BLVD",AUSTIN,TX,78752,"SERVICE MERCHANDISE",4,CONTRACTOR,,,,,,,,,,,"ODEN HUGHES",,,,,"ODEN HUGHES","901 S MOPAC EXPRESSWAY BOP V STE 200",AUSTN,TX,78746,"(210) 563-6833",,"(512) 813-7115","STEVE ODEN",steve@odenhughesllc.com
TX,TRAVIS,"2021-005148 BP","Multi Family Apartments & Condos",1/20/2021,,169162,1967,"12815 STANFORD DR",AUSTIN,TX,78727,VARCINAS,,CONTRACTOR,,,,,,,,,,,"M/I HOMES",,,,,"M/I HOMES","6801 N CAPITAL OF TEXAS HWY BLDG 2 STE 100",AUSTIN,TX,78731-1780,"(512) 770-8500",,,,
TX,TRAVIS,"2021-007546 BP","Multi Family Apartments & Condos",1/20/2021,,205282,2387,"13006 BLOOMINGTON DR",AUSTIN,TX,78702,VARCINAS,,CONTRACTOR,,,,,,,,,,,"M/I HOMES",,,,,"M/I HOMES","6801 N CAPITAL OF TEXAS HWY BLDG 2 STE 100",AUSTIN,TX,78731-1780,"(512) 770-8500",,,,
TX,TRAVIS,"2021-009408 BP","Multi Family Apartments & Condos",1/25/2021,,435990,2774,"5202 SIGMAN LN",AUSTIN,TX,78702,TANNEHILL,,CONTRACTOR,,,,,,,,,,,"RSI COMMUNITIES",,,,,"RSI COMMUNITIES","810 HESTERS CROSSING RD STE 235","ROUND ROCK",TX,78681-7846,"(512) 953-4100",,,,
TX,TRAVIS,2020-5057,"Multi Family Apartments & Condos",12/2/2020,,1875744,27602,"11925 RING DR BLDG 1",MANOR,TX,78653,,,CONTRACTOR,,,,,,,,,,,"HENSLEY LAMKIN RACHEL",,,,,"HENSLEY LAMKIN RACHEL","14881 QUORUM DR STE 550",DALLAS,TX,75254-7092,"(972) 726-9400",http://www.hlrinc.net/,,"ROBERT LAMKIN",INFO@HLRINC.NETMAP
TX,TRAVIS,2020-5289,"Multi Family Apartments & Condos",12/2/2020,,500000,5496,"11925 RING DR",MANOR,TX,78653,,,CONTRACTOR,,,,,,,,,,,"HENSLEY LAMKIN RACHEL",,,,,"HENSLEY LAMKIN RACHEL","14881 QUORUM DR STE 550",DALLAS,TX,75254-7092,"(972) 726-9400",http://www.hlrinc.net/,,"ROBERT LAMKIN",INFO@HLRINC.NETMAP
TX,TRAVIS,2020-5295,"Multi Family Apartments & Condos",12/2/2020,,1875744,27602,"11925 RING DR BLDG 2",MANOR,TX,78653,,,CONTRACTOR,,,,,,,,,,,"HENSLEY LAMKIN RACHEL",,,,,"HENSLEY LAMKIN RACHEL","14881 QUORUM DR STE 550",DALLAS,TX,75254-7092,"(972) 726-9400",http://www.hlrinc.net/,,"ROBERT LAMKIN",INFO@HLRINC.NETMAP
TX,TRAVIS,2020-5296,"Multi Family Apartments & Condos",12/2/2020,,1875744,27602,"11925 RING DR BLDG 3",MANOR,TX,78653,,,CONTRACTOR,,,,,,,,,,,"HENSLEY LAMKIN RACHEL",,,,,"HENSLEY LAMKIN RACHEL","14881 QUORUM DR STE 550",DALLAS,TX,75254-7092,"(972) 726-9400",http://www.hlrinc.net/,,"ROBERT LAMKIN",INFO@HLRINC.NETMAP
TX,TRAVIS,2020-5297,"Multi Family Apartments & Condos",12/2/2020,,1875744,27602,"11925 RING DR BLDG 4",MANOR,TX,78653,,,CONTRACTOR,,,,,,,,,,,"HENSLEY LAMKIN RACHEL",,,,,"HENSLEY LAMKIN RACHEL","14881 QUORUM DR STE 550",DALLAS,TX,75254-7092,"(972) 726-9400",http://www.hlrinc.net/,,"ROBERT LAMKIN",INFO@HLRINC.NETMAP
TX,TRAVIS,2020-5298,"Multi Family Apartments & Condos",12/2/2020,,1875744,27602,"11925 RING DR BLDG 5",MANOR,TX,78653,,,CONTRACTOR,,,,,,,,,,,"HENSLEY LAMKIN RACHEL",,,,,"HENSLEY LAMKIN RACHEL","14881 QUORUM DR STE 550",DALLAS,TX,75254-7092,"(972) 726-9400",http://www.hlrinc.net/,,"ROBERT LAMKIN",INFO@HLRINC.NETMAP
TX,TRAVIS,2020-5300,"Multi Family Apartments & Condos",12/2/2020,,1875744,27602,"11925 RING DR BLDG 6",MANOR,TX,78653,,,CONTRACTOR,,,,,,,,,,,"HENSLEY LAMKIN RACHEL",,,,,"HENSLEY LAMKIN RACHEL","14881 QUORUM DR STE 550",DALLAS,TX,75254-7092,"(972) 726-9400",http://www.hlrinc.net/,,"ROBERT LAMKIN",INFO@HLRINC.NETMAP
TX,TRAVIS,2020-5301,"Multi Family Apartments & Condos",12/2/2020,,1875744,27602,"11925 RING DR BLDG 7",MANOR,TX,78653,,,CONTRACTOR,,,,,,,,,,,"HENSLEY LAMKIN RACHEL",,,,,"HENSLEY LAMKIN RACHEL","14881 QUORUM DR STE 550",DALLAS,TX,75254-7092,"(972) 726-9400",http://www.hlrinc.net/,,"ROBERT LAMKIN",INFO@HLRINC.NETMAP
TX,TRAVIS,2020-5302,"Multi Family Apartments & Condos",12/2/2020,,1875744,27602,"11925 RING DR BLDG 8",MANOR,TX,78653,,,CONTRACTOR,,,,,,,,,,,"HENSLEY LAMKIN RACHEL",,,,,"HENSLEY LAMKIN RACHEL","14881 QUORUM DR STE 550",DALLAS,TX,75254-7092,"(972) 726-9400",http://www.hlrinc.net/,,"ROBERT LAMKIN",INFO@HLRINC.NETMAP
TX,TRAVIS,2020-5303,"Multi Family Apartments & Condos",12/2/2020,,1875744,27602,"11925 RING DR BLDG 11",MANOR,TX,78653,,,CONTRACTOR,,,,,,,,,,,"HENSLEY LAMKIN RACHEL",,,,,"HENSLEY LAMKIN RACHEL","14881 QUORUM DR STE 550",DALLAS,TX,75254-7092,"(972) 726-9400",http://www.hlrinc.net/,,"ROBERT LAMKIN",INFO@HLRINC.NETMAP
TX,TRAVIS,2020-5304,"Multi Family Apartments & Condos",12/2/2020,,1875744,27602,"11925 RING DR BLDG 12",MANOR,TX,78653,,,CONTRACTOR,,,,,,,,,,,"HENSLEY LAMKIN RACHEL",,,,,"HENSLEY LAMKIN RACHEL","14881 QUORUM DR STE 550",DALLAS,TX,75254-7092,"(972) 726-9400",http://www.hlrinc.net/,,"ROBERT LAMKIN",INFO@HLRINC.NETMAP
TX,TRAVIS,2020-5305,"Multi Family Apartments & Condos",12/2/2020,,2297412,33576,"11925 RING DR BLDG 9",MANOR,TX,78653,,,CONTRACTOR,,,,,,,,,,,"HENSLEY LAMKIN RACHEL",,,,,"HENSLEY LAMKIN RACHEL","14881 QUORUM DR STE 550",DALLAS,TX,75254-7092,"(972) 726-9400",http://www.hlrinc.net/,,"ROBERT LAMKIN",INFO@HLRINC.NETMAP
TX,TRAVIS,2020-5306,"Multi Family Apartments & Condos",12/2/2020,,2297412,33576,"11925 RING DR BLDG 10",MANOR,TX,78653,,,CONTRACTOR,,,,,,,,,,,"HENSLEY LAMKIN RACHEL",,,,,"HENSLEY LAMKIN RACHEL","14881 QUORUM DR STE 550",DALLAS,TX,75254-7092,"(972) 726-9400",http://www.hlrinc.net/,,"ROBERT LAMKIN",INFO@HLRINC.NETMAP
TX,WILLIAMSON,2012-0022,"Multi Family Apartments & Condos",12/28/2020,,1200000,,"406 N LEE ST","ROUND ROCK",TX,78664,,,"SCOTT BIALEK","15219 THATCHER DR","ROUND ROCK",TX,78664,,Owner,,,,,OWNER,,,,,OWNER,,,,,,,,,
TX,WILLIAMSON,2012-0032,"Multi Family Apartments & Condos",12/31/2020,,100000,,"409 W MAIN ST","ROUND ROCK",TX,78664,,,"NAGLE HOLDINGS LP","400 W MAIN STREET","ROUND ROCK",TX,78664,,Owner,,,,,OWNER,,,,,OWNER,,,,,,,,,
TX,WILLIAMSON,2012-0015,"Multi Family Apartments & Condos",1/4/2021,,203333,,"2105 TIGER TRL 101","ROUND ROCK",TX,78664,,,CONTRACTOR,,,,,,,,,,,"CH ENTERPRISES",,,,,"CH ENTERPRISES","695 SUNSET DRIVE",WIMBERLEY,TX,78676,"(512) 722-6000",,,,
TX,WILLIAMSON,2012-0016,"Multi Family Apartments & Condos",1/4/2021,,203333,,"2105 TIGER TRL 102","ROUND ROCK",TX,78664,,,CONTRACTOR,,,,,,,,,,,"CH ENTERPRISES",,,,,"CH ENTERPRISES","695 SUNSET DRIVE",WIMBERLEY,TX,78676,"(512) 722-6000",,,,
TX,WILLIAMSON,2012-0017,"Multi Family Apartments & Condos",1/4/2021,,203333,,"2105 TIGER TRL 103","ROUND ROCK",TX,78664,"MEADOWS AT CHANDLER CREEK",,CONTRACTOR,,,,,,,,,,,"CH ENTERPRISES",,,,,"CH ENTERPRISES","695 SUNSET DRIVE",WIMBERLEY,TX,78676,"(512) 722-6000",,,,
TX,WILLIAMSON,2020-27265,"Offices, R&D, & Professional",12/18/2020,"Finish Out",58000,,"104 W WILLIS ST",LEANDER,TX,78641,,,CONTRACTOR,,,,,,,,,,,"ROMAN LEAL CONSTRUCTION",,,,,"ROMAN LEAL CONSTRUCTION","4608 WHISPERING VALLEY DR",AUSTIN,TX,78727-6834,"(512) 228-2333",http://www.romanlealconstruction.com/,"(512) 906-1555","ROMAN LEAL",info@romanlealconstruction.com
TX,WILLIAMSON,2020-29666,"Offices, R&D, & Professional",12/7/2020,"Finish Out",200000,2143,"10824 E CRYSTAL FALLS PKWY",LEANDER,TX,78641,"CRYSTAL SPRINGS",,CONTRACTOR,,,,,,,,,,,"WAHLERS CONSTRUCTION",,,,,"WAHLERS CONSTRUCTION","5293 FM 306","NEW BRAUNFELS",TX,78132-3502,"(210) 389-8590",,,,
TX,TRAVIS,"2021-010435 BP","Offices, R&D, & Professional",1/25/2021,"Finish Out",100000,1420,"200 W 6TH ST",AUSTIN,TX,78701,"ORIGINAL CITY",1,CONTRACTOR,,,,,,,,,,,"DPR CONSTRUCTION",,,,,"DPR CONSTRUCTION","9606 N MOPAC EXPY STE 300",AUSTIN,TX,78759-5945,"(512) 345-7699",,"(512) 345-8230",,
TX,TRAVIS,"2021-005748 BP","Offices, R&D, & Professional",1/22/2021,,1950000,15598,"7710 N FM 620 RD BLDG 12B",AUSTIN,TX,78726,,,CONTRACTOR,,,,,,,,,,,"OVERLOOK CONSTRUCTION",,,,,"OVERLOOK CONSTRUCTION","4611 BEE CAVES RD","WEST LAKE HILLS",TX,78746-5220,"(512) 328-7600",,,,
TX,HAYS,2020-33340,"Offices, R&D, & Professional",12/9/2020,Renovation,1300000,1379,"242 N GUADALUPE ST","SAN MARCOS",TX,78666,,,CONTRACTOR,,,,,,,,,,,"NOVAK COMMERCIAL CONSTRUCTION",,,,,"NOVAK COMMERCIAL CONSTRUCTION","204 ADAMS",GEORGETOWN,TX,78628-3680,"(512) 947-4703",,,,
TX,WILLIAMSON,2012-0020,"Offices, R&D, & Professional",12/22/2020,,1800000,,"2261 GATTIS SCHOOL RD","ROUND ROCK",TX,76884,,,"GSR CAPITAL","105 RANCHO TRAIL","ROUND ROCK",TX,76884,,Owner,,,,,OWNER,,,,,OWNER,,,,,,,,,
TX,WILLIAMSON,2012-0031,"Offices, R&D, & Professional",12/31/2020,,954100,,"107 S LEWIS ST","ROUND ROCK",TX,78664,,,"BRENT CAMPBELL","2615 BRUNSTON CT","ROUND ROCK",TX,78664,,Owner,,,,,OWNER,,,,,OWNER,,,,,,,,,
TX,TRAVIS,"2020-192981 BP","Other Commercial",1/22/2021,Addition,60459,1015,"13624 DESSAU RD",AUSTIN,TX,78753,CUSHING,,CONTRACTOR,,,,,,,,,,,"BLACKBURN COMMUNITIES",,,,,"BLACKBURN COMMUNITIES","301 BRUSHY CREEK RD STE 108",PFLUGERVILLE,TX,78613,"(512) 401-3205",https://www.blackburnhomes.com/,,,info@blackburnhomes.com
TX,TRAVIS,"2021-004539 BP","Other Commercial",1/21/2021,Renovation,1451820,16646,"4901 SPRINGDALE RD UNIT 105",AUSTIN,TX,78723,,,CONTRACTOR,,,,,,,,,,,"LEGACY MCS",,,,,"LEGACY MCS","205 WILD BASIN RD BLDG 1","WEST LAKE HILLS",TX,78746-3341,"(512) 726-0500",https://www.legacymcs.com/,"(512) 726-0527",,andy@legacymcs.com
TX,TRAVIS,"2020-192995 BP","Parking Structures & Carports",1/22/2021,,36025,1441,"13624 DESSAU RD BLDG GAR2",AUSTIN,TX,78753,CUSHING,,CONTRACTOR,,,,,,,,,,,"BLACKBURN COMMUNITIES",,,,,"BLACKBURN COMMUNITIES","301 BRUSHY CREEK RD STE 108",PFLUGERVILLE,TX,78613,"(512) 401-3205",https://www.blackburnhomes.com/,,,info@blackburnhomes.com
TX,TRAVIS,"2020-193005 BP","Parking Structures & Carports",1/22/2021,,36025,1441,"13624 DESSAU RD BLDG GAR12",AUSTIN,TX,78753,CUSHING,,CONTRACTOR,,,,,,,,,,,"BLACKBURN COMMUNITIES",,,,,"BLACKBURN COMMUNITIES","301 BRUSHY CREEK RD STE 108",PFLUGERVILLE,TX,78613,"(512) 401-3205",https://www.blackburnhomes.com/,,,info@blackburnhomes.com
TX,TRAVIS,"2020-192994 BP","Parking Structures & Carports",1/22/2021,,124125,965,"13624 DESSAU RD BLDG GAR1",AUSTIN,TX,78753,CUSHING,,CONTRACTOR,,,,,,,,,,,"BLACKBURN COMMUNITIES",,,,,"BLACKBURN COMMUNITIES","301 BRUSHY CREEK RD STE 108",PFLUGERVILLE,TX,78613,"(512) 401-3205",https://www.blackburnhomes.com/,,,info@blackburnhomes.com
TX,TRAVIS,"2020-192989 BP","Parking Structures & Carports",1/22/2021,Addition,1922856,1296,"13624 DESSAU RD BLDG CP8",AUSTIN,TX,78660,CUSHING,,CONTRACTOR,,,,,,,,,,,"BLACKBURN COMMUNITIES",,,,,"BLACKBURN COMMUNITIES","301 BRUSHY CREEK RD STE 108",PFLUGERVILLE,TX,78613,"(512) 401-3205",https://www.blackburnhomes.com/,,,info@blackburnhomes.com
TX,TRAVIS,"2020-192980 BP","Parking Structures & Carports",1/22/2021,Addition,4454359,7478,"13624 DESSAU RD BLDG",AUSTIN,TX,78660,CUSHING,,CONTRACTOR,,,,,,,,,,,"BLACKBURN COMMUNITIES",,,,,"BLACKBURN COMMUNITIES","301 BRUSHY CREEK RD STE 108",PFLUGERVILLE,TX,78613,"(512) 401-3205",https://www.blackburnhomes.com/,,,info@blackburnhomes.com
TX,TRAVIS,"2021-005952 BP","Residential Garages & Carports",1/22/2021,"Acc Struct",130000,786,"2405 DEL CURTO RD",AUSTIN,TX,78704,DELCREST,6,"AARON & WHITNEY SOMERS","2405 DEL CURTO RD",AUSTIN,TX,78704,,Owner,,,,,"FW CONSTRUCTION",,,,,"FW CONSTRUCTION","13500 SADDLE BACK PASS",AUSTIN,TX,78738-6112,"(512) 784-3225",,,,
TX,HAYS,2020-33980,"Residential Garages & Carports",12/11/2020,,50000,595,"317 SCOTT ST","SAN MARCOS",TX,78666,,,"EDWARD & KELLY NEWMAN","317 SCOTT ST","SAN MARCOS",TX,78666,,Owner,,,,,OWNER,,,,,OWNER,,,,,,,,,
TX,WILLIAMSON,2020-30118,"Residential Renovations & Additions",12/9/2020,Addition,,5846,"2108 STARLIT TER",LEANDER,TX,78641,TRAVISSO,,CONTRACTOR,,,,,,,,,,,"AUSTIN EXPRESS PERMITS",,,,,"AUSTIN EXPRESS PERMITS","5401 RUSK CT",AUSTIN,TX,78723-6043,"(512) 921-4299",http://www.austinexpresspermits.com/,,"MICHAEL KANE",kane@austinexpresspermits.com
TX,TRAVIS,"2021-010191 BP","Residential Renovations & Additions",1/25/2021,Addition,35000,1775,"1805 W 32ND ST",AUSTIN,TX,78703,BRYKERWOODS,1,"SAMAN & JENNIFER HASSIBI","1805 W 32ND ST",AUSTIN,TX,78703,,Owner,,,,,"TENNEY CONSTRUCTION",,,,,"TENNEY CONSTRUCTION","1804 MOHLE DR",AUSTIN,TX,78703-1814,"(512) 236-8356",,,,
TX,TRAVIS,"2021-005992 BP","Residential Renovations & Additions",1/25/2021,Addition,45000,93,"6400 TRISSINO DR",AUSTIN,TX,78739,AVANA,36,"DAVID V SHRUM ARCHITECT","702-B 34TH ST",AUSTIN,TX,78705,"(512) 496-6808",Architect,,,,,OWNER,,,,,OWNER,,,,,,,,,
TX,TRAVIS,"2021-008029 BP","Residential Renovations & Additions",1/20/2021,Addition,122625,322,"5901 SHOAL CREEK BLVD",AUSTIN,TX,78757,"ALLANDALE OAKS",27,"JONATHAN WOOLFOLK","5901 SHOAL CREEK BLVD",AUSTIN,TX,78757,,Owner,,,,,"STREAMLINE GENERAL CONTRACTORS",,,,,"STREAMLINE GENERAL CONTRACTORS","5109 RAIN LILY DR",AUSTIN,TX,78739-2139,"(512) 626-2066",,,,
TX,TRAVIS,"2021-005951 BP","Residential Renovations & Additions",1/22/2021,Addition,130000,885,"2405 DEL CURTO RD",AUSTIN,TX,78704,DELCREST,6,"AARON & WHITNEY SOMERS","2405 DEL CURTO RD",AUSTIN,TX,78704,,Owner,,,,,"FW CONSTRUCTION",,,,,"FW CONSTRUCTION","13500 SADDLE BACK PASS",AUSTIN,TX,78738-6112,"(512) 784-3225",,,,
TX,TRAVIS,"2021-008331 BP","Residential Renovations & Additions",1/21/2021,Renovation,200000,483,"1700 WEST AVE",AUSTIN,TX,78701,,,CONTRACTOR,,,,,,,,,,,"BF HOMES",,,,,"BF HOMES","1305 HILLSIDE AVE",AUSTIN,TX,78704-1826,"(713) 585-2222",,,,
TX,TRAVIS,"2021-007495 BP","Residential Renovations & Additions",1/20/2021,Renovation,34450,,"4903 BUNDY CREST CIR",AUSTIN,TX,78723,"CREST HILLS",26,"DAVIS & RUBY LEE","4903 BUNDY CREST CIR",AUSTIN,TX,78723,,Owner,,,,,"OLSHAN FOUNDATION REPAIR",,,,,"OLSHAN FOUNDATION REPAIR","1720 SE LOOP 410","SAN ANTONIO",TX,78220-4922,"(210) 495-5758",,,,
TX,TRAVIS,"2021-007543 BP","Residential Renovations & Additions",1/20/2021,Renovation,34450,,"4809 RUSSET HILL DR",AUSTIN,TX,78723,"SPRINGDALE HILLS",23,"RAYMOND & JOHNNIE HOUSTON","4809 RUSSET HILL DR",AUSTIN,TX,78723,,Owner,,,,,"OLSHAN FOUNDATION REPAIR",,,,,"OLSHAN FOUNDATION REPAIR","1720 SE LOOP 410","SAN ANTONIO",TX,78220-4922,"(210) 495-5758",,,,
TX,TRAVIS,"2021-007551 BP","Residential Renovations & Additions",1/20/2021,Renovation,34450,,"11302 OAKWOOD DR",AUSTIN,TX,78753,"EUBANK ACRES",2,"MAUREEN & JIM DAMM","11302 OAKWOOD DR",AUSTIN,TX,78753,,Owner,,,,,"OLSHAN FOUNDATION REPAIR",,,,,"OLSHAN FOUNDATION REPAIR","1720 SE LOOP 410","SAN ANTONIO",TX,78220-4922,"(210) 495-5758",,,,
TX,TRAVIS,"2020-190780 BP","Residential Renovations & Additions",1/20/2021,Renovation,40000,,"1511 DRAKE AVE",AUSTIN,TX,78704,"FAIRVIEW PARK",5,"JUSTIN HILTON","1511 DRAKE AVE",AUSTIN,TX,78704,,Owner,,,,,"ALL IN ONE FOUNDATION REPAIR",,,,,"ALL IN ONE FOUNDATION REPAIR","13350B OLD KIMBRO RD",MANOR,TX,78653-5376,"(512) 821-0058",http://www.allinonefoundationrepair.com/,,,
TX,TRAVIS,"2021-010054 BP","Residential Renovations & Additions",1/25/2021,Renovation,67020,,"1607 NUECES ST",AUSTIN,TX,78701,"ODELL OFFICE CONDOMINIUMS",,"SHARON SHUPPERT","1607 NUECES ST",AUSTIN,TX,78701,,Owner,,,,,"DOUGLAS FOUNDATION REPAIR",,,,,"DOUGLAS FOUNDATION REPAIR","12510 EDWARDS HOLLOW RUN",AUSTIN,TX,78739-7639,"(512) 740-8114",http://www.douglasfoundationrepair.com/,"(512) 276-6617",,douglasfoundationrepair@gmail.com
TX,TRAVIS,"2021-008170 BP","Residential Renovations & Additions",1/20/2021,Renovation,121548,,"5201 RATON PASS",AUSTIN,TX,78724,"LAS CIMAS",18,"ERNESTINE HARDEMAN","5201 RATON PASS",AUSTIN,TX,78724,,Owner,,,,,"BASIC IDIQ",,,,,"BASIC IDIQ","7015 TIDWELL",AUSTIN,TX,77092,"(512) 966-5686",http://www.basicidiq.com/,,,
TX,TRAVIS,"2021-007316 BP","Residential Renovations & Additions",1/21/2021,Renovation,122000,,"2701 HILLVIEW GREEN LN",AUSTIN,TX,78703,"HILLVIEW GREEN",10,"ANN MILLER","2701 HILLVIEW GREEN LN",AUSTIN,TX,78703,,Owner,,,,,"CAPITAL FOUNDATION",,,,,"CAPITAL FOUNDATION","1703 BENCH MARK DR",AUSTIN,TX,78728-7720,"(512) 990-1117",,,,
TX,TRAVIS,"2021-007298 BP","Residential Renovations & Additions",1/20/2021,Renovation,242000,,"8301 WEYBURN DR",AUSTIN,TX,78757,"LANIER TERRACE",7,"TESSA CARROLL","8301 WEYBURN DR",AUSTIN,TX,78757,,Owner,,,,,"BLACKMON MOORING",,,,,"BLACKMON MOORING","2251 PICADILLY DR STE C320","ROUND ROCK",TX,78664-8658,"(512) 431-7304",,,,
TX,TRAVIS,2020-5972,"Residential Renovations & Additions",12/18/2020,Renovation,169228,,"16721 HAMILTON POINT CIR",MANOR,TX,78653,,,"EVERETT & PAULA ISON","16721 HAMILTON POINT CIR",MANOR,TX,78653,,Owner,,,,,"VIDAL CONSTRUCTION",,,,,"VIDAL CONSTRUCTION","19901 SOUTHWEST FWY STE 110","SUGAR LAND",TX,77479-6538,"(281) 316-0210",http://www.vidalconstruction.com/,"(281) 557-0274","EDWIN VIDAL",evidal@vidalconstruction.com
TX,HAYS,2020-33354,"Residential Renovations & Additions",12/9/2020,Renovation,45000,1550,"212 CALIXTO CT","SAN MARCOS",TX,78666,,,"SHEILA & JAMES SMITH","212 CALIXTO CT","SAN MARCOS",TX,78666,,Owner,,,,,OWNER,,,,,OWNER,,,,,,,,,
TX,TRAVIS,2020-1934,"Residential Renovations & Additions",12/22/2020,Renovation,40000,,"18201 TERRACE DR",JONESTOWN,TX,78645,,,"FOR THE WIN VENTURES LLC","18201 TERRACE DR",JONESTOWN,TX,78645,,Owner,,,,,"ROJAS REMODELING SERVICES",,,,,"ROJAS REMODELING SERVICES","1911 HERRING AVE",WACO,TX,76708-2850,"(254) 235-3176",,,,
TX,WILLIAMSON,2020-29451,"Residential Swimming Pools & Spas",12/8/2020,,,500,"813 DREAM CATCHER DR",LEANDER,TX,78641,"GRAND MESA",,CONTRACTOR,,,,,,,,,,,"FRONT2BACK HOME SERVICES",,,,,"FRONT2BACK HOME SERVICES","9900 SPECTRUM DR",AUSTIN,TX,78717,"(512) 696-4100",,,,
TX,WILLIAMSON,2020-29829,"Residential Swimming Pools & Spas",12/7/2020,,,1845,"412 OLD PECAN LN",LEANDER,TX,78641,"REAGANS OVERLOOK",,"DARRYL & JUANITA HOLT","412 OLD PECAN LN",LEANDER,TX,78641,,Owner,,,,,"PERMITS PLUS",,,,,"PERMITS PLUS","1107 E 52ND ST",ODESSA,TX,79762-4352,"(432) 550-4303",http://www.permitsplus-houston.com/,,,
TX,WILLIAMSON,2020-29895,"Residential Swimming Pools & Spas",12/7/2020,,,380,"1213 RUTHERFORD DR",LEANDER,TX,78641,RIDGEWOOD,,"BRENDA & BRIAN DELAURI","1213 RUTHERFORD DR",LEANDER,TX,78641,,Owner,,,,,"BLUE HAVEN POOLS",,,,,"BLUE HAVEN POOLS","260 ADDIE ROY RD STE 205",AUSTIN,TX,78746-4108,"(512) 345-2583",,,,
TX,WILLIAMSON,2020-30009,"Residential Swimming Pools & Spas",12/2/2020,,,1250,"2701 MONTE RANCH TRL",LEANDER,TX,78641,GREATWOOD,,CONTRACTOR,,,,,,,,,,,"EDGEWATER POOLS",,,,,"EDGEWATER POOLS","2800 E WHITESTONE BLVD STE 120","CEDAR PARK",TX,78613-7275,"(512) 569-9364",,,"SCOTT ASTON",
TX,WILLIAMSON,2020-30060,"Residential Swimming Pools & Spas",12/3/2020,,,480,"1721 SIENA SUNSET RD",LEANDER,TX,78641,TRAVISSO,,CONTRACTOR,,,,,,,,,,,"SERENITY POOLS & OUTDOORS",,,,,"SERENITY POOLS & OUTDOORS","2413 BILLY PAT RD",LEANDER,TX,78641,"(512) 986-7979",,,,
TX,WILLIAMSON,2020-30111,"Residential Swimming Pools & Spas",12/10/2020,,,1393,"21 FAIR OAKS ST",LEANDER,TX,78641,"RIDGMAR CROSSING",,"BRYAN & MARGARET HUNT","21 FAIR OAKS ST",LEANDER,TX,78641,,Owner,,,,,"GK POOLS",,,,,"GK POOLS","PO BOX 1379","LIBERTY HILL",TX,78642-1379,"(512) 845-7449",,,,
TX,WILLIAMSON,2020-30201,"Residential Swimming Pools & Spas",12/23/2020,,,1975,"3001 CRYSTAL FALLS PKWY",LEANDER,TX,78641,"GRAND MESA",,"ROBERT & DIXIE MEGREW","3001 CRYSTAL FALLS PKWY",LEANDER,TX,78641,,Owner,,,,,"DENALI POOLS",,,,,"DENALI POOLS","1904 BRUSHY BEND DR","ROUND ROCK",TX,78681-1451,"(512) 955-6564",,,,
TX,WILLIAMSON,2020-30202,"Residential Swimming Pools & Spas",12/2/2020,,,1750,"2304 HIGH LONESOME",LEANDER,TX,78641,"GRAND MESA AT CRYSTAL FALLS",,CONTRACTOR,,,,,,,,,,,"PERMITS PLUS",,,,,"PERMITS PLUS","1107 E 52ND ST",ODESSA,TX,79762-4352,"(432) 550-4303",http://www.permitsplus-houston.com/,,,
TX,WILLIAMSON,2020-30203,"Residential Swimming Pools & Spas",12/1/2020,,,,"2521 CARRETERA DR",LEANDER,TX,78641,"PALMERA RIDGE",,"CYNTHIA & DANIEL REUTER","2521 CARRETERA DR",LEANDER,TX,78641,,Owner,,,,,"TRIROCK PERMITS",,,,,"TRIROCK PERMITS","12234 N INTERSTATE 35 STE 100 BLDG B",AUSTIN,TX,78753-0002,"(512) 658-1287",,,,trirockpermits@gmail.com
TX,WILLIAMSON,2020-30204,"Residential Swimming Pools & Spas",12/2/2020,,,2333,"2012 PALOS VERDES",LEANDER,TX,78641,"GRAND MESA AT CRYSTAL FALLS",,CONTRACTOR,,,,,,,,,,,"TRIROCK PERMITS",,,,,"TRIROCK PERMITS","12234 N INTERSTATE 35 STE 100 BLDG B",AUSTIN,TX,78753-0002,"(512) 658-1287",,,,trirockpermits@gmail.com
TX,WILLIAMSON,2020-30205,"Residential Swimming Pools & Spas",12/2/2020,,,566,"1824 BUFFALO THUNDER",LEANDER,TX,78641,"THE HIGHLANDS AT CRYSTAL FALLS",,CONTRACTOR,,,,,,,,,,,"RELIANT POOLS",,,,,"RELIANT POOLS","12343 HYMEADOW DR STE 3A",AUSTIN,TX,78750-1858,"(512) 407-2623",http://www.reliantpools.com/,,,
TX,WILLIAMSON,2020-30257,"Residential Swimming Pools & Spas",12/7/2020,,,486,"1609 CRESSON TRL",LEANDER,TX,78641,"MASON RANCH",,"ASHLEY SMITH","1609 CRESSON TRL",LEANDER,TX,78641,,Owner,,,,,"SOUTHPAW POOLS INC",,,,,"SOUTHPAW POOLS INC","9900 SPECTRUM DR",AUSTIN,TX,78717-4555,"(512) 508-9683",http://www.southpawpools.com/,,"TODD KINGHORN",
TX,WILLIAMSON,2020-30259,"Residential Swimming Pools & Spas",12/2/2020,,,840,"2512 LA MIRADA ST",LEANDER,TX,78641,"PALMERA RIDGE",,"ANNE & MICHAEL DAVIS","2512 LA MIRADA ST",LEANDER,TX,78641,,Owner,,,,,"PERMITS PLUS",,,,,"PERMITS PLUS","1107 E 52ND ST",ODESSA,TX,79762-4352,"(432) 550-4303",http://www.permitsplus-houston.com/,,,
TX,WILLIAMSON,2020-30286,"Residential Swimming Pools & Spas",12/7/2020,,,1500,"3608 EASY MONEY ST",LEANDER,TX,78641,"GRAND MESA AT CRYSTAL FALLS",,CONTRACTOR,,,,,,,,,,,"SCALLON POOLS",,,,,"SCALLON POOLS","PO BOX 341416",LAKEWAY,TX,78734-0024,"(512) 288-9909",,,,
TX,WILLIAMSON,2020-30396,"Residential Swimming Pools & Spas",12/17/2020,,,570,"3421 BRANCH HOLW",LEANDER,TX,78641,"REAGANS OVERLOOK",,"RICHARD MUNOZ","3421 BRANCH HOLW",LEANDER,TX,78641,,Owner,,,,,"LEGACY POOLS",,,,,"LEGACY POOLS","4307 S INTERSTATE 35",GEORGETOWN,TX,78626-7595,"(512) 524-0247",,,,
TX,WILLIAMSON,2020-30411,"Residential Swimming Pools & Spas",12/10/2020,,,1495,"2609 LONG LASSO PASS",LEANDER,TX,78641,"THE BLUFFS AT CRYSTAL FALLS",,CONTRACTOR,,,,,,,,,,,"DENALI POOLS",,,,,"DENALI POOLS","1904 BRUSHY BEND DR","ROUND ROCK",TX,78681-1451,"(512) 955-6564",,,,
TX,WILLIAMSON,2020-30457,"Residential Swimming Pools & Spas",12/14/2020,,,912,"305 OLD PECAN LN",LEANDER,TX,78641,"REAGANS OVERLOOK",,CONTRACTOR,,,,,,,,,,,"CASCADE CUSTOM POOLS",,,,,"CASCADE CUSTOM POOLS","215 RANCH ROAD 620 S",LAKEWAY,TX,78734-3922,"(512) 264-2453",http://www.cascadecustompools.com,,,
TX,WILLIAMSON,2020-30473,"Residential Swimming Pools & Spas",12/14/2020,,,1085,"2661 GREAT OWL PASS",LEANDER,TX,78641,GREATWOOD,,"JESSE MONAGHAN","2661 GREAT OWL PASS",LEANDER,TX,78641,,Owner,,,,,"PREMIER POOLS & SPAS",,,,,"PREMIER POOLS & SPAS","7703 N LAMAR BLVD STE 606",AUSTIN,TX,78752-1027,"(512) 470-3949",,,,
TX,WILLIAMSON,2020-30488,"Residential Swimming Pools & Spas",12/23/2020,,,690,"505 UNITY DR",LEANDER,TX,78641,TRAVISSO,,"KENTON & SARAH MOORE","505 UNITY DR",LEANDER,TX,78641,,Owner,,,,,"LEGACY POOLS",,,,,"LEGACY POOLS","4307 S INTERSTATE 35",GEORGETOWN,TX,78626-7595,"(512) 524-0247",,,,
TX,WILLIAMSON,2020-30498,"Residential Swimming Pools & Spas",12/23/2020,,,550,"3756 GOOD NIGHT TRL",LEANDER,TX,78641,TRAVISSO,,CONTRACTOR,,,,,,,,,,,"LEGACY POOLS",,,,,"LEGACY POOLS","4307 S INTERSTATE 35",GEORGETOWN,TX,78626-7595,"(512) 524-0247",,,,
TX,WILLIAMSON,2020-30500,"Residential Swimming Pools & Spas",12/23/2020,,,370,"2213 CACTUS VALLEY DR",LEANDER,TX,78641,HAZLEWOOD,,"VICTORIA DEUTSCH","2213 CACTUS VALLEY DR",LEANDER,TX,78641,,Owner,,,,,"AQUAMARINE POOLS",,,,,"AQUAMARINE POOLS","8360 N INTERSTATE 35",GEORGETOWN,TX,78626-1766,"(800) 432-8994",,,,john@aquapools.com
TX,WILLIAMSON,2020-30593,"Residential Swimming Pools & Spas",12/17/2020,,,1037,"721 JUDGE FISK DR",LEANDER,TX,78641,BRYSON,,"DAVID & MELISSA WRIGHT","721 JUDGE FISK DR",LEANDER,TX,78641,,Owner,,,,,"PERMITS PLUS",,,,,"PERMITS PLUS","1107 E 52ND ST",ODESSA,TX,79762-4352,"(432) 550-4303",http://www.permitsplus-houston.com/,,,
TX,WILLIAMSON,2020-30594,"Residential Swimming Pools & Spas",12/17/2020,,,400,"2508 YUMA TRL",LEANDER,TX,78641,"BLUFFS AT CRYSTAL FALLS",,CONTRACTOR,,,,,,,,,,,"AUSTINTATIOUS POOLS",,,,,"AUSTINTATIOUS POOLS","12014 N LAMAR BLVD",AUSTIN,TX,78753-1801,"(512) 443-1100",,,,
TX,WILLIAMSON,2020-30600,"Residential Swimming Pools & Spas",12/17/2020,,,1199,"2541 AMBUSH CYN",LEANDER,TX,78641,"CRYSTAL FALLS",,CONTRACTOR,,,,,,,,,,,"SOUTHPAW POOLS INC",,,,,"SOUTHPAW POOLS INC","9900 SPECTRUM DR",AUSTIN,TX,78717-4555,"(512) 508-9683",http://www.southpawpools.com/,,"TODD KINGHORN",
TX,WILLIAMSON,2020-30610,"Residential Swimming Pools & Spas",12/18/2020,,,430,"1333 SADDLESPUR LN",LEANDER,TX,78641,"MASON RANCH",,"JASPER & SARAH FLORES","1333 SADDLESPUR LN",LEANDER,TX,78641,,Owner,,,,,"IES RESIDENTIAL",,,,,"IES RESIDENTIAL","516 W KENNEDALE PKWY",KENNEDALE,TX,76060-4618,"(516) 760-6081",https://www.iesresidential.com,,,
TX,WILLIAMSON,2020-30618,"Residential Swimming Pools & Spas",12/22/2020,,,1400,"2037 TRIBAL WAY",LEANDER,TX,78641,"THE HIGHLANDS AT CRYSTAL FALLS",,CONTRACTOR,,,,,,,,,,,"EDGEWATER POOLS",,,,,"EDGEWATER POOLS","2800 E WHITESTONE BLVD STE 120","CEDAR PARK",TX,78613-7275,"(512) 569-9364",,,"SCOTT ASTON",
TX,WILLIAMSON,2020-30619,"Residential Swimming Pools & Spas",12/21/2020,,,1064,"3600 PRAIRIE HEIGHTS DR",LEANDER,TX,78641,"REAGANS OVERLOOK",,"KESHVENDRA & RICHA DUBEY","3600 PRAIRIE HEIGHTS DR",LEANDER,TX,78641,,Owner,,,,,"INNOVATIVE POOLS & SPAS",,,,,"INNOVATIVE POOLS & SPAS","13205 STILLFOREST ST",AUSTIN,TX,78729-2836,"(512) 689-5958",http://innovativepoolsandspas.com/,"(512) 331-4730","DANIEL EDISON",Innovativepools@SBCglobal.net
TX,WILLIAMSON,2020-30653,"Residential Swimming Pools & Spas",12/17/2020,,,914,"508 LOYAL JUNE TRL",LEANDER,TX,78641,"GRAND MESA AT CRYSTAL FALLS",,CONTRACTOR,,,,,,,,,,,"SOUTHPAW POOLS INC",,,,,"SOUTHPAW POOLS INC","9900 SPECTRUM DR",AUSTIN,TX,78717-4555,"(512) 508-9683",http://www.southpawpools.com/,,"TODD KINGHORN",
TX,WILLIAMSON,2020-30682,"Residential Swimming Pools & Spas",12/17/2020,,,913,"2512 BELEN DR",LEANDER,TX,78641,"PALMERA RIDGE",,"BRADLEY & KRISTINA BETTS","2512 BELEN DR",LEANDER,TX,78641,,Owner,,,,,"LOY CUSTOM POOLS",,,,,"LOY CUSTOM POOLS","13201 LEGENDARY DR APT 15205",AUSTIN,TX,78727-4046,"(512) 904-0006",https://www.loycustompooldesigns.com,,"DENNIS LOY",info@loycustompools.com
TX,WILLIAMSON,2020-30683,"Residential Swimming Pools & Spas",12/17/2020,,,1822,"2804 COURAGEOUS",LEANDER,TX,78641,"THE HIGHLANDS AT CRYSTAL FALLS",,"JENNIFER CARTLIDGE","2804 COURAGEOUS",LEANDER,TX,78641,,Owner,,,,,"BLUE OX POOLS",,,,,"BLUE OX POOLS","2804 COURAGEOUS",LEANDER,TX,78641,"(512) 635-9195",,,,
TX,WILLIAMSON,2020-30684,"Residential Swimming Pools & Spas",12/17/2020,,,1786,"2517 LIVENZA PL",LEANDER,TX,78641,TRAVISSO,,CONTRACTOR,,,,,,,,,,,"PERMITS PLUS",,,,,"PERMITS PLUS","1107 E 52ND ST",ODESSA,TX,79762-4352,"(432) 550-4303",http://www.permitsplus-houston.com/,,,
TX,WILLIAMSON,2020-30848,"Residential Swimming Pools & Spas",12/31/2020,,,1100,"807 MISSION HLS",LEANDER,TX,78641,"GRAND MESA AT CRYSTAL FALLS",,CONTRACTOR,,,,,,,,,,,"EDGEWATER POOLS",,,,,"EDGEWATER POOLS","2800 E WHITESTONE BLVD STE 120","CEDAR PARK",TX,78613-7275,"(512) 569-9364",,,"SCOTT ASTON",
TX,TRAVIS,"2020-188287 BP","Residential Swimming Pools & Spas",1/20/2021,,,200,"1105 W MONROE ST",AUSTIN,TX,78704,"CAPITAL HEIGHTS",9,CONTRACTOR,,,,,,,,,,,"TUSKER DEVELOPMENT",,,,,"TUSKER DEVELOPMENT","5425 TORTUGA TRL",AUSTIN,TX,78731-4540,"(512) 534-0112",,,,
TX,TRAVIS,"2020-194024 BP","Residential Swimming Pools & Spas",1/20/2021,,,584,"10912 BEXLEY LN",AUSTIN,TX,78739,"CIRCLE RANCH",17,"PETER KELLER","10912 BEXLEY LN",AUSTIN,TX,78739,,Owner,,,,,"AUSTIN POOL GIRLS",,,,,"AUSTIN POOL GIRLS","13401 GALLERIA CIRCLE # 224",AUSTIN,TX,78738,"(512) 300-3694",,,,
TX,TRAVIS,"2021-006164 BP","Residential Swimming Pools & Spas",1/20/2021,,,210,"809 CUMBERLAND RD",AUSTIN,TX,78704,"OAK RIDGE HEIGHTS",9,CONTRACTOR,,,,,,,,,,,"PETER DICK ARCHITECT AND BUILDER",,,,,"PETER DICK ARCHITECT AND BUILDER","1113-A ANNIE ST",AUSTIN,TX,78704,"(512) 658-9974",,,,
TX,TRAVIS,"2020-057192 BP","Residential Swimming Pools & Spas",1/21/2021,,,420,"407 RIDGEWOOD RD",AUSTIN,TX,78746,"RIDGEWOOD VILLAGE",25,"STEPHEN SOWARD","407 RIDGEWOOD RD",AUSTIN,TX,78746,,Owner,,,,,"WATERVIEW POOLS",,,,,"WATERVIEW POOLS","13313 KINDER PASS",AUSTIN,TX,78727-3415,"(512) 289-7665",http://waterviewpools.com,,,
TX,TRAVIS,"2020-192401 BP","Residential Swimming Pools & Spas",1/22/2021,,,571,"11413 PRADERA DR",AUSTIN,TX,78759,"OAK FOREST",11,"GERALDINE DODGE","11413 PRADERA DR",AUSTIN,TX,78759,"(832) 287-9004",Owner,,,,,OWNER,,,,,OWNER,,,,,,,,,
TX,TRAVIS,"2021-006152 BP","Residential Swimming Pools & Spas",1/22/2021,,,220,"11528 MAGGIORE DR",AUSTIN,TX,78739,"CIRCLE RANCH",25,"SHAWN & LISA MARCHESE","11528 MAGGIORE DR",AUSTIN,TX,78739,,Owner,,,,,"BRIGHTEN POOLS",,,,,"BRIGHTEN POOLS","6215 MESA GRANDE DR ",AUSTIN,TX,78749,"(512) 217-8004",https://brightenpools.com/,,,brightenpools@yahoo.com
TX,TRAVIS,"2020-163369 BP","Residential Swimming Pools & Spas",1/25/2021,,,569,"10710 SPICEWOOD CLUB DR",AUSTIN,TX,78750,SPICEWOOD,1,"DEAN & LENA TEFFER","10710 SPICEWOOD CLUB DR",AUSTIN,TX,78750,,Owner,,,,,"ATHENA POOLS",,,,,"ATHENA POOLS","2209 PERSIMMON RIDGE CT",AUSTIN,TX,78732-2085,"(512) 914-0554",http://athenapools.com,"(512) 410-0363",,athenapools@austin.rr.com
TX,TRAVIS,"2021-006365 BP","Residential Swimming Pools & Spas",1/25/2021,,,200,"6812 CARDINAL BLOOM LOOP",AUSTIN,TX,78744,"EASTON PARK",123,"MATTHEW LEARY","6812 CARDINAL BLOOM LOOP",AUSTIN,TX,78744,,Owner,,,,,"BRIGHTEN POOLS",,,,,"BRIGHTEN POOLS","6215 MESA GRANDE DR ",AUSTIN,TX,78749,"(512) 217-8004",https://brightenpools.com/,,,brightenpools@yahoo.com
TX,TRAVIS,"2021-009206 BP","Residential Swimming Pools & Spas",1/22/2021,,38483,260,"8912 SPARKLING CREEK DR",AUSTIN,TX,78729,SPRINGWOODS,117,CONTRACTOR,,,,,,,,,,,"BLUE BOTTOM POOL & SPA SUPPLY",,,,,"BLUE BOTTOM POOL & SPA SUPPLY","11416 N FM 620 STE J",AUSTIN,TX,78726-1170,"(512) 436-9572",http://www.bluebottompoolsupply.com/,,,info@bluebottompoolsupply.com
TX,TRAVIS,"2021-006102 BP","Residential Swimming Pools & Spas",1/22/2021,,45000,405,"2223 THRASHER LN",AUSTIN,TX,78741,THRASHER,1,CONTRACTOR,,,,,,,,,,,"BLUE HAVEN POOLS",,,,,"BLUE HAVEN POOLS","260 ADDIE ROY RD STE 205",AUSTIN,TX,78746-4108,"(512) 345-2583",,,,
TX,TRAVIS,"2021-005374 BP","Residential Swimming Pools & Spas",1/20/2021,,50000,300,"2010 GOODRICH AVE UNIT 2A",AUSTIN,TX,78704,,,CONTRACTOR,,,,,,,,,,,"IES POOLS",,,,,"IES POOLS","10960 EAST CRYSTAL FALLS PARKWAY UNIT 500"," LEANDER",TX,78641,"(512) 817-3356",,,,
TX,TRAVIS,"2021-004982 BP","Residential Swimming Pools & Spas",1/20/2021,,53256,526,"3022 CHATELAINE DR",AUSTIN,TX,78746,TREEMONT,30,"BLAIR & LAURA HELGREN","3022 CHATELAINE DR",AUSTIN,TX,78746,,Owner,,,,,"ONE THOUSAND WAVES",,,,,"ONE THOUSAND WAVES","2720 BEE CAVES RD # 127",AUSTIN,TX,78746-5642,"(512) 373-8001",,,,
TX,TRAVIS,"2021-004653 BP","Residential Swimming Pools & Spas",1/20/2021,,61000,496,"16504 ALONG CREEK CV",AUSTIN,TX,78717,"AVERY RANCH",,CONTRACTOR,,,,,,,,,,,"CODY POOLS",,,,,"CODY POOLS","2300 W PARMER LN",AUSTIN,TX,78727-4332,"(512) 835-4966",http://www.codypools.com,,"COLE NAUMAN",
TX,TRAVIS,"2021-007490 BP","Residential Swimming Pools & Spas",1/21/2021,,64000,425,"4713 CHIAPPERO TRL",AUSTIN,TX,78731,SHOALWOODS,8,"JORDAN & ADAM BAUMAN","4713 CHIAPPERO TRL",AUSTIN,TX,78731,,Owner,,,,,"AUSTINTATIOUS POOLS",,,,,"AUSTINTATIOUS POOLS","12014 N LAMAR BLVD",AUSTIN,TX,78753-1801,"(512) 443-1100",,,,
TX,TRAVIS,"2020-167857 BP","Residential Swimming Pools & Spas",1/20/2021,,70000,650,"1125 MORNING MOON CIR",AUSTIN,TX,78732,"MCCORMICK RANCH ON LAKE AUSTIN",13,CONTRACTOR,,,,,,,,,,,"CANYON VISTA CUSTOM HOMES",,,,,"CANYON VISTA CUSTOM HOMES","10804 RUSH RD",AUSTIN,TX,78732-6056,"(512) 293-7825",http://www.canyonvistacontracting.com/,,,
TX,WILLIAMSON,2012-0001,"Residential Swimming Pools & Spas",12/1/2020,,82000,,"700 TRAILSIDE BND","ROUND ROCK",TX,78665,,,"MARY SUSAN & STEVEN PATRICK ONEAL","700 TRAILSIDE BND","ROUND ROCK",TX,78665,,Owner,,,,,OWNER,,,,,OWNER,,,,,,,,,
TX,WILLIAMSON,2012-0002,"Residential Swimming Pools & Spas",12/1/2020,,29000,,"3209 PINE NEEDLE CV","ROUND ROCK",TX,78664,,,"SANDRA & LOUIS STRICKLAND","3209 PINE NEEDLE CV","ROUND ROCK",TX,78664,,Owner,,,,,POOLS123.COM,,,,,POOLS123.COM,"PO BOX 2518",TAYLOR,TX,76574,"(214) 883-8650",,,,
TX,WILLIAMSON,2012-0003,"Residential Swimming Pools & Spas",12/7/2020,,88000,,"1702 REPRISE CV","ROUND ROCK",TX,78664,,,CONTRACTOR,,,,,,,,,,,"ANTHONY & SYLVAN POOLS",,,,,"ANTHONY & SYLVAN POOLS","13343 N HIGHWAY 183 STE 295",AUSTIN,TX,78750-7161,"(512) 258-1232",http://www.anthonysylvan.com/,,,
TX,HAYS,2020-34225,"Residential Swimming Pools & Spas",12/29/2020,,61500,,"1125 DANCING OAK LN","SAN MARCOS",TX,78666,,,"KYLE & LOUANN KRAUSE","1125 DANCING OAK LN","SAN MARCOS",TX,78666,,Owner,,,,,"KEITH ZARS POOLS",,,,,"KEITH ZARS POOLS","17427 SAN PEDRO AVE","SAN ANTONIO",TX,78232-1407,"(210) 494-0800",,,,
TX,WILLIAMSON,2012-0004,"Residential Swimming Pools & Spas",12/7/2020,,63014,,"1612 MESA VERDE DR","ROUND ROCK",TX,78664,,,"JASON & MYASHIA MERCER","1612 MESA VERDE DR","ROUND ROCK",TX,78664,,Owner,,,,,"BLUE HAVEN POOLS",,,,,"BLUE HAVEN POOLS","260 ADDIE ROY RD STE 205",AUSTIN,TX,78746-4108,"(512) 345-2583",,,,
TX,WILLIAMSON,2012-0005,"Residential Swimming Pools & Spas",12/9/2020,,87801,,"3502 ASPEN LEAF","ROUND ROCK",TX,78664,,,"STEPHEN & JENNIFER GARCIA","3502 ASPEN LEAF","ROUND ROCK",TX,78664,,Owner,,,,,"DENALI POOLS",,,,,"DENALI POOLS","1904 BRUSHY BEND DR","ROUND ROCK",TX,78681-1451,"(512) 955-6564",,,,
TX,WILLIAMSON,2012-0006,"Residential Swimming Pools & Spas",12/8/2020,,60000,,"3037 ALTON PL","ROUND ROCK",TX,78664,,,"SARAH R & ROBERT B MCNUTT","3037 ALTON PL","ROUND ROCK",TX,78665,,Owner,,,,,"ALL DAYS CONTRACTORS",,,,,"ALL DAYS CONTRACTORS","103 CREEK DRIVE",GEORGETOWN,TX,78628,"(512) 698-5552",,,,
TX,WILLIAMSON,2012-0007,"Residential Swimming Pools & Spas",12/8/2020,,53000,,"1107 NATIVE GARDEN CV","ROUND ROCK",TX,78664,,,"KEVIN M & AMY B STANCOVEN","1107 NATIVE GARDEN CV","ROUND ROCK",TX,78664,,Owner,,,,,OWNER,,,,,OWNER,,,,,,,,,
TX,WILLIAMSON,2012-0009,"Residential Swimming Pools & Spas",12/10/2020,,57000,,"3939 LORD BYRON CIR","ROUND ROCK",TX,78664,,,"SHELLY RENAE BUCKNER","3939 LORD BYRON CIR","ROUND ROCK",TX,78664,,Owner,,,,,OWNER,,,,,OWNER,,,,,,,,,
TX,WILLIAMSON,2012-0010,"Residential Swimming Pools & Spas",12/17/2020,,66389,,"3017 TIMOTHY DR","ROUND ROCK",TX,78664,,,"JACOB C & JENNIFER L BOWLAND","3017 TIMOTHY DR","ROUND ROCK",TX,78665,,Owner,,,,,OWNER,,,,,OWNER,,,,,,,,,
TX,WILLIAMSON,2012-0011,"Residential Swimming Pools & Spas",12/17/2020,,93000,,"907 OAKLANDS DR","ROUND ROCK",TX,78664,,,"BRIAN & NICOLE EVERT","907 OAKLANDS DR","ROUND ROCK",TX,78664,,Owner,,,,,"ANTHONY & SYLVAN POOLS",,,,,"ANTHONY & SYLVAN POOLS","13343 N HIGHWAY 183 STE 295",AUSTIN,TX,78750-7161,"(512) 258-1232",http://www.anthonysylvan.com/,,,
TX,WILLIAMSON,2012-0012,"Residential Swimming Pools & Spas",12/17/2020,,65000,,"3944 SAPPHIRE LOOP","ROUND ROCK",TX,78664,,,"JENNIFER CRANE","3944 SAPPHIRE LOOP","ROUND ROCK",TX,78664,,Owner,,,,,"CODY POOLS",,,,,"CODY POOLS","2300 W PARMER LN",AUSTIN,TX,78727-4332,"(512) 835-4966",http://www.codypools.com,,"COLE NAUMAN",
TX,WILLIAMSON,2012-0013,"Residential Swimming Pools & Spas",12/18/2020,,69650,,"2429 ARBOR DR","ROUND ROCK",TX,78664,,,"JASON SCOTT & WHITNEY HOLLAND","2429 ARBOR DR","ROUND ROCK",TX,78681,,Owner,,,,,"ROUND ROCK POOL PROS",,,,,"ROUND ROCK POOL PROS","2111 SAM BASS RD STE A600,","ROUND ROCK",TX,78681,"(512) 766-7946",,,,
TX,WILLIAMSON,2012-0014,"Residential Swimming Pools & Spas",12/18/2020,,57000,,"3016 HAYNES DR","ROUND ROCK",TX,78664,,,"BIJUN & EDWARD CHAO CHANG SONG","3016 HAYNES DR","ROUND ROCK",TX,78665,,Owner,,,,,"PREMIER POOLS & SPAS",,,,,"PREMIER POOLS & SPAS","7703 N LAMAR BLVD STE 606",AUSTIN,TX,78752-1027,"(512) 470-3949",,,,
TX,WILLIAMSON,2012-0015,"Residential Swimming Pools & Spas",12/21/2020,,85724,,"705 HIDDEN GLEN CT","ROUND ROCK",TX,78664,,,"TODD & MICHELLE SCHUMAKER","705 HIDDEN GLEN CT","ROUND ROCK",TX,78681,,Owner,,,,,"SOUTHPAW POOLS INC",,,,,"SOUTHPAW POOLS INC","9900 SPECTRUM DR",AUSTIN,TX,78717-4555,"(512) 508-9683",http://www.southpawpools.com/,,"TODD KINGHORN",
TX,WILLIAMSON,2012-0016,"Residential Swimming Pools & Spas",12/22/2020,,63000,,"2925 PLANTATION DR","ROUND ROCK",TX,78664,,,"JOHN & JESSICA GALLIA","2925 PLANTATION DR","ROUND ROCK",TX,78664,,Owner,,,,,"SOUTHPAW POOLS INC",,,,,"SOUTHPAW POOLS INC","9900 SPECTRUM DR",AUSTIN,TX,78717-4555,"(512) 508-9683",http://www.southpawpools.com/,,"TODD KINGHORN",
TX,WILLIAMSON,2012-0017,"Residential Swimming Pools & Spas",12/22/2020,,82000,,"2809 NOLINA LN","ROUND ROCK",TX,78664,,,"THOMAS & KAREN FAUTH","2809 NOLINA LN","ROUND ROCK",TX,78681,,Owner,,,,,"ARIA POOLS",,,,,"ARIA POOLS","930 S BELL BLVD STE 410","CEDAR PARK",TX,78613,"(512) 351-9526",,,,
TX,WILLIAMSON,2012-0018,"Residential Swimming Pools & Spas",12/28/2020,,38677,,"1501 PINEHURST LN","ROUND ROCK",TX,78664,,,"STEPHEN LAWRENCE JONES","1501 PINEHURST LN","ROUND ROCK",TX,78664,,Owner,,,,,POOLS123.COM,,,,,POOLS123.COM,"PO BOX 2518",TAYLOR,TX,76574,"(214) 883-8650",,,,
TX,WILLIAMSON,2012-0019,"Residential Swimming Pools & Spas",12/28/2020,,30000,,"3619 CARNOUSTY CV","ROUND ROCK",TX,78664,,,"PAIGE BELLAMY & RYAN MCKELLER","3619 CARNOUSTY CV","ROUND ROCK",TX,78664,,Owner,,,,,"TEXAS POOLS & PATIOS",,,,,"TEXAS POOLS & PATIOS","601 S BELL BLVD","CEDAR PARK",TX,78613-3854,"(512) 402-1175",http://www.texaspoolsandpatios.com/,,,
TX,WILLIAMSON,2012-0020,"Residential Swimming Pools & Spas",12/31/2020,,124000,,"1113 DYER CROSSING WAY","ROUND ROCK",TX,78664,,,"AMIR & MINA MEMIC","1113 DYER CROSSING WAY","ROUND ROCK",TX,78665,,Owner,,,,,"ROUND ROCK POOL PROS",,,,,"ROUND ROCK POOL PROS","2111 SAM BASS RD STE A600,","ROUND ROCK",TX,78681,"(512) 766-7946",,,,
TX,WILLIAMSON,2012-0007,"Restaurant and Bar",12/16/2020,,56000,,"121 E MAIN ST","ROUND ROCK",TX,78664,,,"OAKFIELD MAIN","121 E MAIN ST","ROUND ROCK",TX,78664,,Owner,,,,,"TJR CONSTRUCTION GROUP",,,,,"TJR CONSTRUCTION GROUP","909 WHITEWING DR","CEDAR PARK",TX,78613-4903,"(512) 300-9209",,,,
TX,WILLIAMSON,2020-29010,Retail,12/15/2020,"Finish Out",220000,3231,"651 N US 183",LEANDER,TX,78641,,,CONTRACTOR,,,,,,,,,,,"RIVER CITY BUILDERS",,,,,"RIVER CITY BUILDERS","11415 ENCHANTED SUNSET ST","SAN ANTONIO",TX,78253-5008,"(210) 679-7638",,,"ELUTERIO TENORIO",
TX,TRAVIS,"2020-181865 BP",Retail,1/21/2021,Renovation,45000,575,"1311 E CESAR CHAVEZ ST",AUSTIN,TX,78702,"CANTERBURY SQUARE",9,CONTRACTOR,,,,,,,,,,,FRANKLIN-ALAN,,,,,FRANKLIN-ALAN,"1209 W 49TH ST",AUSTIN,TX,78756-3102,"(512) 845-3467",,,,
TX,HAYS,2020-33468,Retail,12/3/2020,,1200000,6750,"5403 S IH 35","SAN MARCOS",TX,78666,,,CONTRACTOR,,,,,,,,,,,"MARC GENERAL CONSTRUCTION",,,,,"MARC GENERAL CONSTRUCTION","7681 TRAINER HALE RD",SCHERTZ,TX,78154-4544,"(480) 225-5918",http://www.marcgc2015.com/,"(210) 566-1620","AARON SAMS",ahatch@marcgc2015.com
TX,WILLIAMSON,2012-0012,Retail,12/9/2020,,666336,,"1951 N IH 35","ROUND ROCK",TX,78664,,,"NAI PARTNERS","1951 N IH 35","ROUND ROCK",TX,78664,,Owner,,,,,OWNER,,,,,OWNER,,,,,,,,,
TX,WILLIAMSON,2012-0017,Retail,12/21/2020,,278000,,"3701 GATTIS SCHOOL RD 400","ROUND ROCK",TX,78664,,,"HIGH COUNTRY MARKET","3701 GATTIS SCHOOL RD 400","ROUND ROCK",TX,76092,,Owner,,,,,OWNER,,,,,OWNER,,,,,,,,,
TX,WILLIAMSON,2012-0005,Retail,12/28/2020,,60000,,"808 E PALM VALLEY BLVD 200","ROUND ROCK",TX,78664,,,"DIANE AND BOB PAKVLA","808 E PALM VALLEY BLVD 200","ROUND ROCK",TX,78664,,Owner,,,,,OWNER,,,,,OWNER,,,,,,,,,
TX,WILLIAMSON,2012-0006,Retail,12/16/2020,,45000,,"2111 N IH 35 1000","ROUND ROCK",TX,78664,,,"DANLY PROPERTIES","2111 N IH 35 1000","ROUND ROCK",TX,78664,,Owner,,,,,OWNER,,,,,OWNER,,,,,,,,,
TX,WILLIAMSON,2012-0009,Retail,12/7/2020,,330000,,"3815 JARRETT WAY BLDG B #220","ROUND ROCK",TX,78664,,,"DOVER FUELING","3815 JARRETT WAY BLDG B #220","ROUND ROCK",TX,78664,,Owner,,,,,"NAVCON GROUP",,,,,"NAVCON GROUP","2300 GREENHILL DR","ROUND ROCK",TX,78664-2775,"(512) 531-2800",,,,
TX,WILLIAMSON,2012-0015,Retail,12/15/2020,,35000,,"2081 DOUBLE CREEK DR 400","ROUND ROCK",TX,78664,,,"TUAN VAN NGUYEN","2081 DOUBLE CREEK DR 400","ROUND ROCK",TX,78664,,Owner,,,,,"MAYNOR CONSTRUCTION",,,,,"MAYNOR CONSTRUCTION","10404 DOC HOLLIDAY TRAIL",AUSTIN,TX,78753,"(512) 897-5917",https://www.maynorconstructionllc.com/,,"Maynor Dubon",enriquedubon.07@gmail.com
TX,WILLIAMSON,2020-30244,"Single Family Homes",12/18/2020,,,5203,"521 STERLING RIDGE DR",LEANDER,TX,78641,"HAWKES LANDING",,CONTRACTOR,,,,,,,,,,,"GEHAN HOMES",,,,,"GEHAN HOMES","3815 S CAPITAL OF TEXAS HWY STE 275",AUSTIN,TX,78704-6652,"(512) 330-9366",http://www.gehanhomes.com,,"JANET PHILLIPS",
TX,WILLIAMSON,2020-30247,"Single Family Homes",12/18/2020,,,3256,"525 STERLING RIDGE DR",LEANDER,TX,78641,"HAWKES LANDING",,CONTRACTOR,,,,,,,,,,,"GEHAN HOMES",,,,,"GEHAN HOMES","3815 S CAPITAL OF TEXAS HWY STE 275",AUSTIN,TX,78704-6652,"(512) 330-9366",http://www.gehanhomes.com,,"JANET PHILLIPS",
TX,WILLIAMSON,2020-30249,"Single Family Homes",12/22/2020,,,4046,"3329 CHARADE DR",LEANDER,TX,78641,BLUFFVIEW,,CONTRACTOR,,,,,,,,,,,"TAYLOR MORRISON OF TEXAS",,,,,"TAYLOR MORRISON OF TEXAS","11200 LAKELINE BLVD STE 150A",AUSTIN,TX,78717-5964,"(512) 328-8866",,"(512) 328-7988",,
TX,WILLIAMSON,2020-30250,"Single Family Homes",12/22/2020,,,2812,"3432 CHARADE DR",LEANDER,TX,78641,BLUFFVIEW,,CONTRACTOR,,,,,,,,,,,"TAYLOR MORRISON OF TEXAS",,,,,"TAYLOR MORRISON OF TEXAS","11200 LAKELINE BLVD STE 150A",AUSTIN,TX,78717-5964,"(512) 328-8866",,"(512) 328-7988",,
TX,WILLIAMSON,2020-30254,"Single Family Homes",12/30/2020,,,4112,"605 W SOUTH ST UNITS 101-102",LEANDER,TX,78641,,,CONTRACTOR,,,,,,,,,,,"IDEA HOMES",,,,,"IDEA HOMES","2404 LAKE AUSTIN BLVD",AUSTIN,TX,78703-4544,"(512) 457-9800",,,,
TX,WILLIAMSON,2020-30260,"Single Family Homes",12/18/2020,,,3256,"2213 MCCLENDON TRL",LEANDER,TX,78641,HOMESTEAD,,CONTRACTOR,,,,,,,,,,,"GEHAN HOMES",,,,,"GEHAN HOMES","3815 S CAPITAL OF TEXAS HWY STE 275",AUSTIN,TX,78704-6652,"(512) 330-9366",http://www.gehanhomes.com,,"JANET PHILLIPS",
TX,WILLIAMSON,2020-30261,"Single Family Homes",12/8/2020,,,3167,"2217 MCCLENDON TRL",LEANDER,TX,78641,HOMESTEAD,,CONTRACTOR,,,,,,,,,,,"GEHAN HOMES",,,,,"GEHAN HOMES","3815 S CAPITAL OF TEXAS HWY STE 275",AUSTIN,TX,78704-6652,"(512) 330-9366",http://www.gehanhomes.com,,"JANET PHILLIPS",
TX,WILLIAMSON,2020-30262,"Single Family Homes",12/16/2020,,,2808,"2224 MCCLENDON TRL",LEANDER,TX,78641,HOMESTEAD,,CONTRACTOR,,,,,,,,,,,"GEHAN HOMES",,,,,"GEHAN HOMES","3815 S CAPITAL OF TEXAS HWY STE 275",AUSTIN,TX,78704-6652,"(512) 330-9366",http://www.gehanhomes.com,,"JANET PHILLIPS",
TX,WILLIAMSON,2020-30263,"Single Family Homes",12/16/2020,,,2808,"1508 MCKINNEY DR",LEANDER,TX,78641,HOMESTEAD,,CONTRACTOR,,,,,,,,,,,"GEHAN HOMES",,,,,"GEHAN HOMES","3815 S CAPITAL OF TEXAS HWY STE 275",AUSTIN,TX,78704-6652,"(512) 330-9366",http://www.gehanhomes.com,,"JANET PHILLIPS",
TX,WILLIAMSON,2020-30272,"Single Family Homes",12/18/2020,,,2770,"1521 BEARD PASS",LEANDER,TX,78641,HOMESTEAD,,CONTRACTOR,,,,,,,,,,,"GEHAN HOMES",,,,,"GEHAN HOMES","3815 S CAPITAL OF TEXAS HWY STE 275",AUSTIN,TX,78704-6652,"(512) 330-9366",http://www.gehanhomes.com,,"JANET PHILLIPS",
TX,WILLIAMSON,2020-30273,"Single Family Homes",12/16/2020,,,3431,"936 BIRCHBROOKE DR",LEANDER,TX,78641,DEERBROOKE,,CONTRACTOR,,,,,,,,,,,"PERRY HOMES",,,,,"PERRY HOMES","6112 LLANO ST",AUSTIN,TX,78702,"(512) 810-8050",,,,
TX,WILLIAMSON,2020-30275,"Single Family Homes",12/23/2020,,,4147,"625 LA TAMAR CT",LEANDER,TX,78641,"PALMERA RIDGE",,CONTRACTOR,,,,,,,,,,,"CHESMAR HOMES",,,,,"CHESMAR HOMES","2900 N QUINLAN PARK RD",AUSTIN,TX,78732-6083,"(512) 233-9016",http://chesmar.com,,,
TX,WILLIAMSON,2020-30276,"Single Family Homes",12/28/2020,,,3897,"2120 MAR VISTA LN",LEANDER,TX,78641,"PALMERA RIDGE",,CONTRACTOR,,,,,,,,,,,"MHI MCGUYER HOMEBUILDERS",,,,,"MHI MCGUYER HOMEBUILDERS","8200 N MO PAC EXPY STE 300",AUSTIN,TX,78759-8844,"(512) 502-2050",,"(512) 388-1836","FRANK MCGUYER",
TX,WILLIAMSON,2020-30278,"Single Family Homes",12/23/2020,,,3215,"2408 CADDO CANOE DR",LEANDER,TX,78641,"VALLEY VISTA",,CONTRACTOR,,,,,,,,,,,"PACESETTER HOMES ",,,,,"PACESETTER HOMES ","7940 SHOAL CREEK BLVD STE 200",AUSTIN,TX,78757-7587,"(512) 323-5252",,,,
TX,WILLIAMSON,2020-30279,"Single Family Homes",12/17/2020,,,5521,"2621 PINE BRANCH RD",LEANDER,TX,78641,DEERBROOKE,,CONTRACTOR,,,,,,,,,,,"GEHAN HOMES",,,,,"GEHAN HOMES","3815 S CAPITAL OF TEXAS HWY STE 275",AUSTIN,TX,78704-6652,"(512) 330-9366",http://www.gehanhomes.com,,"JANET PHILLIPS",
TX,WILLIAMSON,2020-30280,"Single Family Homes",12/23/2020,,,3552,"2420 CADDO CANOE DR",LEANDER,TX,78641,"VALLEY VISTA",,CONTRACTOR,,,,,,,,,,,"PACESETTER HOMES ",,,,,"PACESETTER HOMES ","7940 SHOAL CREEK BLVD STE 200",AUSTIN,TX,78757-7587,"(512) 323-5252",,,,
TX,WILLIAMSON,2020-30290,"Single Family Homes",12/21/2020,,,2862,"2704 BRUSHWOOD MDW",LEANDER,TX,78641,DEERBROOKE,,CONTRACTOR,,,,,,,,,,,"GFO HOME",,,,,"GFO HOME","6012 AVIATION DR # 200",PFLUGERVILLE,TX,78660-8960,"(512) 492-8640",https://www.gfohome.com,,,
TX,WILLIAMSON,2020-30291,"Single Family Homes",12/21/2020,,,3989,"820 NICOSIA CT",LEANDER,TX,78641,MARBELLA,,CONTRACTOR,,,,,,,,,,,"GFO HOME",,,,,"GFO HOME","6012 AVIATION DR # 200",PFLUGERVILLE,TX,78660-8960,"(512) 492-8640",https://www.gfohome.com,,,
TX,WILLIAMSON,2020-30292,"Single Family Homes",12/31/2020,,,3325,"2012 BLUE RIVER DR",LEANDER,TX,78641,LEANDER,,CONTRACTOR,,,,,,,,,,,"ASHTON WOODS HOMES",,,,,"ASHTON WOODS HOMES","4201 W PARMER LN STE A150",AUSTIN,TX,78727-4118,"(512) 610-7000",,,,
TX,WILLIAMSON,2020-30295,"Single Family Homes",12/23/2020,,,2224,"2817 SAGE RANCH DR",LEANDER,TX,78641,DEERBROOKE,,CONTRACTOR,,,,,,,,,,,"CENTURY COMMUNITIES",,,,,"CENTURY COMMUNITIES","6500 RIVER PLACE BLVD STE 200",AUSTIN,TX,78730-1156,"(512) 271-3825",https://www.centurycommunities.com/,,,
TX,WILLIAMSON,2020-30305,"Single Family Homes",12/28/2020,,,2193,"1224 OAK CHASE WAY",LEANDER,TX,78641,DEERBROOKE,,CONTRACTOR,,,,,,,,,,,"CENTURY COMMUNITIES",,,,,"CENTURY COMMUNITIES","6500 RIVER PLACE BLVD STE 200",AUSTIN,TX,78730-1156,"(512) 271-3825",https://www.centurycommunities.com/,,,
TX,WILLIAMSON,2020-30309,"Single Family Homes",12/23/2020,,,2238,"2929 SAGE RANCH DR",LEANDER,TX,78641,DEERBROOKE,,CONTRACTOR,,,,,,,,,,,"CENTURY COMMUNITIES",,,,,"CENTURY COMMUNITIES","6500 RIVER PLACE BLVD STE 200",AUSTIN,TX,78730-1156,"(512) 271-3825",https://www.centurycommunities.com/,,,
TX,WILLIAMSON,2020-30326,"Single Family Homes",12/23/2020,,,3282,"1825 CHICKASAW RUN",LEANDER,TX,78641,"VALLEY VISTA",,CONTRACTOR,,,,,,,,,,,"PACESETTER HOMES ",,,,,"PACESETTER HOMES ","7940 SHOAL CREEK BLVD STE 200",AUSTIN,TX,78757-7587,"(512) 323-5252",,,,
TX,WILLIAMSON,2020-30327,"Single Family Homes",12/23/2020,,,1833,"1633 ARAPAHO MOUNTAIN PASS",LEANDER,TX,78641,"VALLEY VISTA",,CONTRACTOR,,,,,,,,,,,"PACESETTER HOMES ",,,,,"PACESETTER HOMES ","7940 SHOAL CREEK BLVD STE 200",AUSTIN,TX,78757-7587,"(512) 323-5252",,,,
TX,WILLIAMSON,2020-30329,"Single Family Homes",12/18/2020,,,4855,"712 PALAMOS DR",LEANDER,TX,78641,MARBELLA,,CONTRACTOR,,,,,,,,,,,"GFO HOME",,,,,"GFO HOME","6012 AVIATION DR # 200",PFLUGERVILLE,TX,78660-8960,"(512) 492-8640",https://www.gfohome.com,,,
TX,WILLIAMSON,2020-30337,"Single Family Homes",12/31/2020,,,2752,"2020 BLUE RIVER DR",LEANDER,TX,78641,LEANDER,,CONTRACTOR,,,,,,,,,,,"ASHTON WOODS HOMES",,,,,"ASHTON WOODS HOMES","4201 W PARMER LN STE A150",AUSTIN,TX,78727-4118,"(512) 610-7000",,,,
TX,WILLIAMSON,2020-30344,"Single Family Homes",12/18/2020,,,4130,"525 LANDING LN",LEANDER,TX,78641,"HAWKES LANDING",,CONTRACTOR,,,,,,,,,,,"GEHAN HOMES",,,,,"GEHAN HOMES","3815 S CAPITAL OF TEXAS HWY STE 275",AUSTIN,TX,78704-6652,"(512) 330-9366",http://www.gehanhomes.com,,"JANET PHILLIPS",
TX,WILLIAMSON,2020-30346,"Single Family Homes",12/23/2020,,,3789,"2217 ADONAI TRL",LEANDER,TX,78641,"PALMERA RIDGE",,CONTRACTOR,,,,,,,,,,,"CHESMAR HOMES",,,,,"CHESMAR HOMES","2900 N QUINLAN PARK RD",AUSTIN,TX,78732-6083,"(512) 233-9016",http://chesmar.com,,,
TX,WILLIAMSON,2020-30364,"Single Family Homes",12/30/2020,,,2240,"2517 PECAN ISLAND DR",SACHSE,TX,78641,"CRYSTAL SPRINGS",,CONTRACTOR,,,,,,,,,,,"CENTURY COMMUNITIES",,,,,"CENTURY COMMUNITIES","6500 RIVER PLACE BLVD STE 200",AUSTIN,TX,78730-1156,"(512) 271-3825",https://www.centurycommunities.com/,,,
TX,WILLIAMSON,2020-30365,"Single Family Homes",12/23/2020,,,2263,"2217 ARENDALE DR",LEANDER,TX,78641,"CRYSTAL SPRINGS",,CONTRACTOR,,,,,,,,,,,"CENTURY COMMUNITIES",,,,,"CENTURY COMMUNITIES","6500 RIVER PLACE BLVD STE 200",AUSTIN,TX,78730-1156,"(512) 271-3825",https://www.centurycommunities.com/,,,
TX,WILLIAMSON,2020-30366,"Single Family Homes",12/23/2020,,,2251,"2209 ARENDALE DR",LEANDER,TX,78641,"CRYSTAL SPRINGS",,CONTRACTOR,,,,,,,,,,,"CENTURY COMMUNITIES",,,,,"CENTURY COMMUNITIES","6500 RIVER PLACE BLVD STE 200",AUSTIN,TX,78730-1156,"(512) 271-3825",https://www.centurycommunities.com/,,,
TX,WILLIAMSON,2020-30368,"Single Family Homes",12/23/2020,,,2554,"2513 PECAN ISLAND DR",LEANDER,TX,78641,"CRYSTAL SPRINGS",,CONTRACTOR,,,,,,,,,,,"CENTURY COMMUNITIES",,,,,"CENTURY COMMUNITIES","6500 RIVER PLACE BLVD STE 200",AUSTIN,TX,78730-1156,"(512) 271-3825",https://www.centurycommunities.com/,,,
TX,WILLIAMSON,2020-30369,"Single Family Homes",12/23/2020,,,2218,"2537 PECAN ISLAND DR",LEANDER,TX,78641,"CRYSTAL SPRINGS",,CONTRACTOR,,,,,,,,,,,"CENTURY COMMUNITIES",,,,,"CENTURY COMMUNITIES","6500 RIVER PLACE BLVD STE 200",AUSTIN,TX,78730-1156,"(512) 271-3825",https://www.centurycommunities.com/,,,
TX,WILLIAMSON,2020-30370,"Single Family Homes",12/23/2020,,,2186,"2521 PECAN ISLAND DR",LEANDER,TX,78641,"CRYSTAL SPRINGS",,CONTRACTOR,,,,,,,,,,,"CENTURY COMMUNITIES",,,,,"CENTURY COMMUNITIES","6500 RIVER PLACE BLVD STE 200",AUSTIN,TX,78730-1156,"(512) 271-3825",https://www.centurycommunities.com/,,,
TX,WILLIAMSON,2020-30371,"Single Family Homes",12/28/2020,,,3270,"1221 CORNITH LN",LEANDER,TX,78641,"MASON RANCH",,CONTRACTOR,,,,,,,,,,,"KB HOME",,,,,"KB HOME","10800 PECAN PARK BLVD STE 200",AUSTIN,TX,78750-1249,"(512) 651-8100",,,,
TX,WILLIAMSON,2020-30372,"Single Family Homes",12/28/2020,,,3571,"1245 CORNITH LN",LEANDER,TX,78641,"MASON RANCH",,CONTRACTOR,,,,,,,,,,,"KB HOME",,,,,"KB HOME","10800 PECAN PARK BLVD STE 200",AUSTIN,TX,78750-1249,"(512) 651-8100",,,,
TX,WILLIAMSON,2020-30374,"Single Family Homes",12/30/2020,,,4048,"605 W SOUTH ST UNITS 121-122",LEANDER,TX,78641,,,CONTRACTOR,,,,,,,,,,,"IDEA HOMES",,,,,"IDEA HOMES","2404 LAKE AUSTIN BLVD",AUSTIN,TX,78703-4544,"(512) 457-9800",,,,
TX,WILLIAMSON,2020-30375,"Single Family Homes",12/30/2020,,,4030,"605 W SOUTH ST UNITS 151-152",LEANDER,TX,78641,,,CONTRACTOR,,,,,,,,,,,"IDEA HOMES",,,,,"IDEA HOMES","2404 LAKE AUSTIN BLVD",AUSTIN,TX,78703-4544,"(512) 457-9800",,,,
TX,WILLIAMSON,2020-30376,"Single Family Homes",12/30/2020,,,4048,"605 W SOUTH ST UNITS 161-162",LEANDER,TX,78641,,,CONTRACTOR,,,,,,,,,,,"IDEA HOMES",,,,,"IDEA HOMES","2404 LAKE AUSTIN BLVD",AUSTIN,TX,78703-4544,"(512) 457-9800",,,,
TX,WILLIAMSON,2020-30389,"Single Family Homes",12/30/2020,,,4755,"1129 BRITTMORE CV",LEANDER,TX,78641,DEERBROOKE,,CONTRACTOR,,,,,,,,,,,"GEHAN HOMES",,,,,"GEHAN HOMES","3815 S CAPITAL OF TEXAS HWY STE 275",AUSTIN,TX,78704-6652,"(512) 330-9366",http://www.gehanhomes.com,,"JANET PHILLIPS",
TX,WILLIAMSON,2020-30406,"Single Family Homes",12/30/2020,,,3621,"1216 WESTBOROUGH LN",LEANDER,TX,78641,"SARITA VALLEY",,CONTRACTOR,,,,,,,,,,,"PINEHURST BUILDERS",,,,,"PINEHURST BUILDERS","4700 SNAKE EAGLE CV",AUSTIN,TX,78738,"(217) 355-1202",,,,
TX,WILLIAMSON,2020-30407,"Single Family Homes",12/30/2020,,,4642,"2725 JUNIPER WOODS RD",LEANDER,TX,78641,DEERBROOKE,,CONTRACTOR,,,,,,,,,,,"GEHAN HOMES",,,,,"GEHAN HOMES","3815 S CAPITAL OF TEXAS HWY STE 275",AUSTIN,TX,78704-6652,"(512) 330-9366",http://www.gehanhomes.com,,"JANET PHILLIPS",
TX,WILLIAMSON,2020-30414,"Single Family Homes",12/30/2020,,,4363,"508 LANDING LN",LEANDER,TX,78641,"HAWKES LANDING",,CONTRACTOR,,,,,,,,,,,"GEHAN HOMES",,,,,"GEHAN HOMES","3815 S CAPITAL OF TEXAS HWY STE 275",AUSTIN,TX,78704-6652,"(512) 330-9366",http://www.gehanhomes.com,,"JANET PHILLIPS",
TX,WILLIAMSON,2020-30430,"Single Family Homes",12/30/2020,,,3406,"1205 SUMMERBROOKE CIR",LEANDER,TX,78641,"SARITA VALLEY",,CONTRACTOR,,,,,,,,,,,"PINEHURST BUILDERS",,,,,"PINEHURST BUILDERS","4700 SNAKE EAGLE CV",AUSTIN,TX,78738,"(217) 355-1202",,,,
TX,TRAVIS,"2021-008492 BP","Single Family Homes",1/22/2021,,85000,1407,"6405 FARRELL GLEN DR",AUSTIN,TX,78724,"SCENIC POINT",36,CONTRACTOR,,,,,,,,,,,"HABITAT FOR HUMANITY-AUSTIN",,,,,"HABITAT FOR HUMANITY-AUSTIN","310 COMAL ST STE 100",AUSTIN,TX,78702-4450,"(512) 472-8788",,,,
TX,TRAVIS,"2018-183792 BP","Single Family Homes",1/21/2021,,125000,4413,"1703 CLIFFORD AVE",AUSTIN,TX,78702,CHERNOSKY,4,"STEHPEN LAMB","1705 CLIFFORD AVE ",AUSTIN,TX,78702,"(512) 417-4362",Applicant,,,,,OWNER,,,,,OWNER,,,,,,,,,
TX,TRAVIS,"2021-005147 BP","Single Family Homes",1/20/2021,,126375,2103,"6012 EDEN DR",AUSTIN,TX,78747,"BRADSHAW CROSSING",38,CONTRACTOR,,,,,,,,,,,"LENNAR HOMES",,,,,"LENNAR HOMES","13620 FM 620 RD 150",AUSTIN,TX,78717,"(512) 506-4000",http://www.lennar.com/,,,
TX,TRAVIS,"2021-004740 BP","Single Family Homes",1/21/2021,,151650,2022,"2913 MARYANNE LN",AUSTIN,TX,78702,,,CONTRACTOR,,,,,,,,,,,"DR HORTON",,,,,"DR HORTON","10700 PECAN PARK BLVD STE 400",AUSTIN,TX,78750-1227,"(512) 345-4663",,,,
TX,TRAVIS,"2021-008784 BP","Single Family Homes",1/25/2021,,153900,2052,"15305 GRENADINE BLOOM CV",AUSTIN,TX,78617,,,CONTRACTOR,,,,,,,,,,,"LENNAR HOMES",,,,,"LENNAR HOMES","13620 FM 620 RD 150",AUSTIN,TX,78717,"(512) 506-4000",http://www.lennar.com/,,,
TX,TRAVIS,"2021-004664 BP","Single Family Homes",1/21/2021,,176475,2353,"2909 MARYANNE LN",AUSTIN,TX,78702,,,CONTRACTOR,,,,,,,,,,,"DR HORTON",,,,,"DR HORTON","10700 PECAN PARK BLVD STE 400",AUSTIN,TX,78750-1227,"(512) 345-4663",,,,
TX,TRAVIS,"2021-003561 BP","Single Family Homes",1/21/2021,,179100,2388,"2909 LOURIS LN",AUSTIN,TX,78660,,,CONTRACTOR,,,,,,,,,,,"DR HORTON",,,,,"DR HORTON","10700 PECAN PARK BLVD STE 400",AUSTIN,TX,78750-1227,"(512) 345-4663",,,,
TX,TRAVIS,"2020-175028 BP","Single Family Homes",1/20/2021,,200000,1327,"5715 WOODROW AVE",AUSTIN,TX,78756,WILDER,20,CONTRACTOR,,,,,,,,,,,"HIVE HOUSE",,,,,"HIVE HOUSE","711 E 8TH ST",GEORGETOWN,TX,78626-6009,"(512) 917-3745",,,,
TX,TRAVIS,"2021-004707 BP","Single Family Homes",1/21/2021,,219450,2926,"7408 DAVES LANDING DR",AUSTIN,TX,78724,,,CONTRACTOR,,,,,,,,,,,"DR HORTON",,,,,"DR HORTON","10700 PECAN PARK BLVD STE 400",AUSTIN,TX,78750-1227,"(512) 345-4663",,,,
TX,TRAVIS,"2021-008944 BP","Single Family Homes",1/25/2021,,290000,2044,"717 FALKLAND TRCE",AUSTIN,TX,78660,CUNNINGHAM,,CONTRACTOR,,,,,,,,,,,"BLACKBURN COMMUNITIES",,,,,"BLACKBURN COMMUNITIES","301 BRUSHY CREEK RD STE 108",PFLUGERVILLE,TX,78613,"(512) 401-3205",https://www.blackburnhomes.com/,,,info@blackburnhomes.com
TX,TRAVIS,"2021-004792 BP","Single Family Homes",1/21/2021,,303800,2824,"9205 SPIRE VW",AUSTIN,TX,78747,DELVALLE,,CONTRACTOR,,,,,,,,,,,"BROOKFIELD RESIDENTIAL PROPERTIES",,,,,"BROOKFIELD RESIDENTIAL PROPERTIES","11501 ALTERRA PKWY STE 100",AUSTIN,TX,78758-3201,"(512) 391-1330",,,,
TX,TRAVIS,"2021-004801 BP","Single Family Homes",1/21/2021,,313900,2841,"8308 SKYTEX ST",AUSTIN,TX,78702,,,CONTRACTOR,,,,,,,,,,,"BROOKFIELD RESIDENTIAL PROPERTIES",,,,,"BROOKFIELD RESIDENTIAL PROPERTIES","11501 ALTERRA PKWY STE 100",AUSTIN,TX,78758-3201,"(512) 391-1330",,,,
TX,TRAVIS,"2021-007038 BP","Single Family Homes",1/20/2021,,375000,2853,"8208 ORIZZONTE ST",AUSTIN,TX,78747,DELVALLE,,CONTRACTOR,,,,,,,,,,,"DAVID WEEKLEY HOMES",,,,,"DAVID WEEKLEY HOMES","9000 WATERFORD CENTRE BLVD",AUSTIN,TX,78758-7662,"(800) 390-6774",http://www.davidweekleyhomes.com/,,,
TX,TRAVIS,"2021-006163 BP","Single Family Homes",1/20/2021,,200000,1807,"809 CUMBERLAND RD",AUSTIN,TX,78704,"OAK RIDGE HEIGHTS",9,CONTRACTOR,,,,,,,,,,,"PETER DICK ARCHITECT AND BUILDER",,,,,"PETER DICK ARCHITECT AND BUILDER","1113-A ANNIE ST",AUSTIN,TX,78704,"(512) 658-9974",,,,
TX,TRAVIS,2020-5805,"Single Family Homes",12/4/2020,,306549,2588,"14209 JEANNETTE RANKIN",MANOR,TX,78653,"PRESIDENTIAL HEIGHTS",,CONTRACTOR,,,,,,,,,,,"STARLIGHT HOMES",,,,,"STARLIGHT HOMES","1800 VALLEY VIEW LN STE 100",DALLAS,TX,75234-8944,"(972) 428-5408",,,,
TX,TRAVIS,2020-5806,"Single Family Homes",12/4/2020,,257748,2176,"12625 JAMIE DR",MANOR,TX,78653,"PRESIDENTIAL HEIGHTS",,CONTRACTOR,,,,,,,,,,,"STARLIGHT HOMES",,,,,"STARLIGHT HOMES","1800 VALLEY VIEW LN STE 100",DALLAS,TX,75234-8944,"(972) 428-5408",,,,
TX,TRAVIS,2020-5807,"Single Family Homes",12/4/2020,,257748,2176,"14205 JEANNETTE RANKIN",MANOR,TX,78653,"PRESIDENTIAL HEIGHTS",,CONTRACTOR,,,,,,,,,,,"STARLIGHT HOMES",,,,,"STARLIGHT HOMES","1800 VALLEY VIEW LN STE 100",DALLAS,TX,75234-8944,"(972) 428-5408",,,,
TX,TRAVIS,2020-5808,"Single Family Homes",12/4/2020,,264973,2236,"14213 JEANNETTE RANKIN",MANOR,TX,78653,"PRESIDENTIAL HEIGHTS",,CONTRACTOR,,,,,,,,,,,"STARLIGHT HOMES",,,,,"STARLIGHT HOMES","1800 VALLEY VIEW LN STE 100",DALLAS,TX,75234-8944,"(972) 428-5408",,,,
TX,TRAVIS,2020-5810,"Single Family Homes",12/4/2020,,280016,2364,"14221 JEANNETTE RANKIN",MANOR,TX,78653,"PRESIDENTIAL HEIGHTS",,CONTRACTOR,,,,,,,,,,,"STARLIGHT HOMES",,,,,"STARLIGHT HOMES","1800 VALLEY VIEW LN STE 100",DALLAS,TX,75234-8944,"(972) 428-5408",,,,
TX,TRAVIS,2020-5811,"Single Family Homes",12/4/2020,,211434,1785,"14217 JEANNETTE RANKIN",MANOR,TX,78653,"PRESIDENTIAL HEIGHTS",,CONTRACTOR,,,,,,,,,,,"STARLIGHT HOMES",,,,,"STARLIGHT HOMES","1800 VALLEY VIEW LN STE 100",DALLAS,TX,75234-8944,"(972) 428-5408",,,,
TX,TRAVIS,2020-5832,"Single Family Homes",12/4/2020,,306549,2588,"12713 SAMUEL ADAMS",MANOR,TX,78653,"PRESIDENTIAL HEIGHTS",,CONTRACTOR,,,,,,,,,,,"STARLIGHT HOMES",,,,,"STARLIGHT HOMES","1800 VALLEY VIEW LN STE 100",DALLAS,TX,75234-8944,"(972) 428-5408",,,,
TX,TRAVIS,2020-5833,"Single Family Homes",12/4/2020,,257748,2176,"12717 SAMUEL ADAMS",MANOR,TX,78653,"PRESIDENTIAL HEIGHTS",,CONTRACTOR,,,,,,,,,,,"STARLIGHT HOMES",,,,,"STARLIGHT HOMES","1800 VALLEY VIEW LN STE 100",DALLAS,TX,75234-8944,"(972) 428-5408",,,,
TX,TRAVIS,2020-5834,"Single Family Homes",12/4/2020,,341610,2884,"12712 SAMUEL ADAMS",MANOR,TX,78653,"PRESIDENTIAL HEIGHTS",,CONTRACTOR,,,,,,,,,,,"STARLIGHT HOMES",,,,,"STARLIGHT HOMES","1800 VALLEY VIEW LN STE 100",DALLAS,TX,75234-8944,"(972) 428-5408",,,,
TX,TRAVIS,2020-5836,"Single Family Homes",12/4/2020,,341610,2884,"12617 JAMIE DR",MANOR,TX,78653,"PRESIDENTIAL HEIGHTS",,CONTRACTOR,,,,,,,,,,,"STARLIGHT HOMES",,,,,"STARLIGHT HOMES","1800 VALLEY VIEW LN STE 100",DALLAS,TX,75234-8944,"(972) 428-5408",,,,
TX,TRAVIS,2020-5837,"Single Family Homes",12/4/2020,,341610,2884,"12713 JAMIE DR",MANOR,TX,78653,"PRESIDENTIAL HEIGHTS",,CONTRACTOR,,,,,,,,,,,"STARLIGHT HOMES",,,,,"STARLIGHT HOMES","1800 VALLEY VIEW LN STE 100",DALLAS,TX,75234-8944,"(972) 428-5408",,,,
TX,TRAVIS,2020-5848,"Single Family Homes",12/9/2020,,264973,2237,"12716 SAMUEL ADAMS",MANOR,TX,78653,"PRESIDENTIAL HEIGHTS",,CONTRACTOR,,,,,,,,,,,"STARLIGHT HOMES",,,,,"STARLIGHT HOMES","1800 VALLEY VIEW LN STE 100",DALLAS,TX,75234-8944,"(972) 428-5408",,,,
TX,TRAVIS,2020-5849,"Single Family Homes",12/9/2020,,264973,2237,"12609 JAMIE DR",MANOR,TX,78653,"PRESIDENTIAL HEIGHTS",,CONTRACTOR,,,,,,,,,,,"STARLIGHT HOMES",,,,,"STARLIGHT HOMES","1800 VALLEY VIEW LN STE 100",DALLAS,TX,75234-8944,"(972) 428-5408",,,,
TX,TRAVIS,2020-5850,"Single Family Homes",12/9/2020,,264973,2237,"12701 JAMIE DR",MANOR,TX,78653,"PRESIDENTIAL HEIGHTS",,CONTRACTOR,,,,,,,,,,,"STARLIGHT HOMES",,,,,"STARLIGHT HOMES","1800 VALLEY VIEW LN STE 100",DALLAS,TX,75234-8944,"(972) 428-5408",,,,
TX,TRAVIS,2020-5852,"Single Family Homes",12/9/2020,,385792,3257,"12613 JAMIE DR",MANOR,TX,78653,"PRESIDENTIAL HEIGHTS",,CONTRACTOR,,,,,,,,,,,"STARLIGHT HOMES",,,,,"STARLIGHT HOMES","1800 VALLEY VIEW LN STE 100",DALLAS,TX,75234-8944,"(972) 428-5408",,,,
TX,TRAVIS,2020-5853,"Single Family Homes",12/9/2020,,385792,3257,"12705 JAMIE DR",MANOR,TX,78653,"PRESIDENTIAL HEIGHTS",,CONTRACTOR,,,,,,,,,,,"STARLIGHT HOMES",,,,,"STARLIGHT HOMES","1800 VALLEY VIEW LN STE 100",DALLAS,TX,75234-8944,"(972) 428-5408",,,,
TX,TRAVIS,2020-5854,"Single Family Homes",12/9/2020,,341018,2879,"12621 JAMIE DR",MANOR,TX,78653,"PRESIDENTIAL HEIGHTS",,CONTRACTOR,,,,,,,,,,,"STARLIGHT HOMES",,,,,"STARLIGHT HOMES","1800 VALLEY VIEW LN STE 100",DALLAS,TX,75234-8944,"(972) 428-5408",,,,
TX,TRAVIS,2020-5855,"Single Family Homes",12/9/2020,,280016,2364,"12709 JAMIE DR",MANOR,TX,78653,"PRESIDENTIAL HEIGHTS",,CONTRACTOR,,,,,,,,,,,"STARLIGHT HOMES",,,,,"STARLIGHT HOMES","1800 VALLEY VIEW LN STE 100",DALLAS,TX,75234-8944,"(972) 428-5408",,,,
TX,TRAVIS,2020-5860,"Single Family Homes",12/14/2020,,381883,3224,"13216 CAROL LAWLER LN",MANOR,TX,78653,,,CONTRACTOR,,,,,,,,,,,"PERRY HOMES",,,,,"PERRY HOMES","6112 LLANO ST",AUSTIN,TX,78702,"(512) 810-8050",,,,
TX,TRAVIS,2020-5867,"Single Family Homes",12/14/2020,,398822,3367,"16708 RAKESH WAY",MANOR,TX,78653,SHADOWGLEN,,CONTRACTOR,,,,,,,,,,,"PERRY HOMES",,,,,"PERRY HOMES","6112 LLANO ST",AUSTIN,TX,78702,"(512) 810-8050",,,,
TX,TRAVIS,2020-5868,"Single Family Homes",12/15/2020,,365537,3086,"16709 CHRISTINA GARZA DR",MANOR,TX,78653,SHADOWGLEN,,CONTRACTOR,,,,,,,,,,,"PERRY HOMES",,,,,"PERRY HOMES","6112 LLANO ST",AUSTIN,TX,78702,"(512) 810-8050",,,,
TX,TRAVIS,2020-5878,"Single Family Homes",12/2/2020,,321118,2711,"13720 BULLHORN ACACIA PASS",MANOR,TX,78653,SHADOWGLEN,,CONTRACTOR,,,,,,,,,,,"M/I HOMES",,,,,"M/I HOMES","6801 N CAPITAL OF TEXAS HWY BLDG 2 STE 100",AUSTIN,TX,78731-1780,"(512) 770-8500",,,,
TX,TRAVIS,2020-5879,"Single Family Homes",12/2/2020,,284162,2399,"13725 BULLHORN ACACIA PASS",MANOR,TX,78653,SHADOWGLEN,,CONTRACTOR,,,,,,,,,,,"M/I HOMES",,,,,"M/I HOMES","6801 N CAPITAL OF TEXAS HWY BLDG 2 STE 100",AUSTIN,TX,78731-1780,"(512) 770-8500",,,,
TX,TRAVIS,2020-5880,"Single Family Homes",12/2/2020,,289374,2443,"13609 BULLHORN ACACIA PASS",MANOR,TX,78653,SHADOWGLEN,,CONTRACTOR,,,,,,,,,,,"M/I HOMES",,,,,"M/I HOMES","6801 N CAPITAL OF TEXAS HWY BLDG 2 STE 100",AUSTIN,TX,78731-1780,"(512) 770-8500",,,,
TX,TRAVIS,2020-5921,"Single Family Homes",12/29/2020,,280016,2364,"14109 JEANETTE RANKIN",MANOR,TX,78653,"PRESIDENTIAL HEIGHTS",,CONTRACTOR,,,,,,,,,,,"STARLIGHT HOMES",,,,,"STARLIGHT HOMES","1800 VALLEY VIEW LN STE 100",DALLAS,TX,75234-8944,"(972) 428-5408",,,,
TX,TRAVIS,2020-5931,"Single Family Homes",12/14/2020,,299916,2532,"17300 CROWNFIELD PATH",MANOR,TX,78653,SHADOWGLEN,,CONTRACTOR,,,,,,,,,,,"DR HORTON",,,,,"DR HORTON","10700 PECAN PARK BLVD STE 400",AUSTIN,TX,78750-1227,"(512) 345-4663",,,,
TX,TRAVIS,2020-5932,"Single Family Homes",12/29/2020,,341018,2879,"14201 JEANETTE RANKIN",MANOR,TX,78653,"PRESIDENTIAL HEIGHTS",,CONTRACTOR,,,,,,,,,,,"STARLIGHT HOMES",,,,,"STARLIGHT HOMES","1800 VALLEY VIEW LN STE 100",DALLAS,TX,75234-8944,"(972) 428-5408",,,,
TX,TRAVIS,2020-5937,"Single Family Homes",12/29/2020,,385792,3257,"14125 JEANETTE RANKIN",MANOR,TX,78653,"PRESIDENTIAL HEIGHTS",,CONTRACTOR,,,,,,,,,,,"STARLIGHT HOMES",,,,,"STARLIGHT HOMES","1800 VALLEY VIEW LN STE 100",DALLAS,TX,75234-8944,"(972) 428-5408",,,,
TX,TRAVIS,2020-5938,"Single Family Homes",12/29/2020,,211434,1785,"14121 JEANETTE RANKIN",MANOR,TX,78653,"PRESIDENTIAL HEIGHTS",,CONTRACTOR,,,,,,,,,,,"STARLIGHT HOMES",,,,,"STARLIGHT HOMES","1800 VALLEY VIEW LN STE 100",DALLAS,TX,75234-8944,"(972) 428-5408",,,,
TX,TRAVIS,2020-5939,"Single Family Homes",12/29/2020,,264973,2236,"14117 JEANETTE RANKIN",MANOR,TX,78653,"PRESIDENTIAL HEIGHTS",,CONTRACTOR,,,,,,,,,,,"STARLIGHT HOMES",,,,,"STARLIGHT HOMES","1800 VALLEY VIEW LN STE 100",DALLAS,TX,75234-8944,"(972) 428-5408",,,,
TX,TRAVIS,2020-5940,"Single Family Homes",12/29/2020,,211434,1785,"14113 JEANETTE RANKIN",MANOR,TX,78653,"PRESIDENTIAL HEIGHTS",,CONTRACTOR,,,,,,,,,,,"STARLIGHT HOMES",,,,,"STARLIGHT HOMES","1800 VALLEY VIEW LN STE 100",DALLAS,TX,75234-8944,"(972) 428-5408",,,,
TX,TRAVIS,2020-5943,"Single Family Homes",12/29/2020,,306549,2588,"14105 JEANNETTE RANKIN",MANOR,TX,78653,"PRESIDENTIAL HEIGHTS",,CONTRACTOR,,,,,,,,,,,"STARLIGHT HOMES",,,,,"STARLIGHT HOMES","1800 VALLEY VIEW LN STE 100",DALLAS,TX,75234-8944,"(972) 428-5408",,,,
TX,TRAVIS,2020-5944,"Single Family Homes",12/29/2020,,385792,3257,"14101 JEANETTE RANKIN",MANOR,TX,78653,"PRESIDENTIAL HEIGHTS",,CONTRACTOR,,,,,,,,,,,"STARLIGHT HOMES",,,,,"STARLIGHT HOMES","1800 VALLEY VIEW LN STE 100",DALLAS,TX,75234-8944,"(972) 428-5408",,,,
TX,TRAVIS,2020-5949,"Single Family Homes",12/29/2020,,257748,2176,"14224 JEANETTE RANKIN",MANOR,TX,78653,"PRESIDENTIAL HEIGHTS",,CONTRACTOR,,,,,,,,,,,"STARLIGHT HOMES",,,,,"STARLIGHT HOMES","1800 VALLEY VIEW LN STE 100",DALLAS,TX,75234-8944,"(972) 428-5408",,,,
TX,TRAVIS,2020-5950,"Single Family Homes",12/29/2020,,385792,3257,"14220 JEANETTE RANKIN",MANOR,TX,78653,"PRESIDENTIAL HEIGHTS",,CONTRACTOR,,,,,,,,,,,"STARLIGHT HOMES",,,,,"STARLIGHT HOMES","1800 VALLEY VIEW LN STE 100",DALLAS,TX,75234-8944,"(972) 428-5408",,,,
TX,TRAVIS,2020-5951,"Single Family Homes",12/29/2020,,241046,2035,"14216 JEANETTE RANKIN",MANOR,TX,78653,"PRESIDENTIAL HEIGHTS",,CONTRACTOR,,,,,,,,,,,"STARLIGHT HOMES",,,,,"STARLIGHT HOMES","1800 VALLEY VIEW LN STE 100",DALLAS,TX,75234-8944,"(972) 428-5408",,,,
TX,TRAVIS,2020-5952,"Single Family Homes",12/29/2020,,2114334,1785,"14212 JEANETTE RANKIN",MANOR,TX,78653,"PRESIDENTIAL HEIGHTS",,CONTRACTOR,,,,,,,,,,,"STARLIGHT HOMES",,,,,"STARLIGHT HOMES","1800 VALLEY VIEW LN STE 100",DALLAS,TX,75234-8944,"(972) 428-5408",,,,
TX,TRAVIS,2020-5955,"Single Family Homes",12/29/2020,,264973,2237,"14208 JEANETTE RANKIN",MANOR,TX,78653,"PRESIDENTIAL HEIGHTS",,CONTRACTOR,,,,,,,,,,,"STARLIGHT HOMES",,,,,"STARLIGHT HOMES","1800 VALLEY VIEW LN STE 100",DALLAS,TX,75234-8944,"(972) 428-5408",,,,
TX,TRAVIS,2020-5957,"Single Family Homes",12/29/2020,,241046,2035,"14204 JEANETTE RANKIN",MANOR,TX,78653,"PRESIDENTIAL HEIGHTS",,CONTRACTOR,,,,,,,,,,,"STARLIGHT HOMES",,,,,"STARLIGHT HOMES","1800 VALLEY VIEW LN STE 100",DALLAS,TX,75234-8944,"(972) 428-5408",,,,
TX,TRAVIS,2020-5958,"Single Family Homes",12/29/2020,,,2588,"14200 JEANETTE RANKIN",MANOR,TX,78653,"PRESIDENTIAL HEIGHTS",,CONTRACTOR,,,,,,,,,,,"STARLIGHT HOMES",,,,,"STARLIGHT HOMES","1800 VALLEY VIEW LN STE 100",DALLAS,TX,75234-8944,"(972) 428-5408",,,,
TX,TRAVIS,2020-5965,"Single Family Homes",12/29/2020,,257748,2176,"14124 JEANETTE RANKIN",MANOR,TX,78653,"PRESIDENTIAL HEIGHTS",,CONTRACTOR,,,,,,,,,,,"STARLIGHT HOMES",,,,,"STARLIGHT HOMES","1800 VALLEY VIEW LN STE 100",DALLAS,TX,75234-8944,"(972) 428-5408",,,,
TX,TRAVIS,2020-5966,"Single Family Homes",12/29/2020,,385792,3257,"14120 JEANETTE RANKIN",MANOR,TX,78653,"PRESIDENTIAL HEIGHTS",,CONTRACTOR,,,,,,,,,,,"STARLIGHT HOMES",,,,,"STARLIGHT HOMES","1800 VALLEY VIEW LN STE 100",DALLAS,TX,75234-8944,"(972) 428-5408",,,,
TX,TRAVIS,2020-5967,"Single Family Homes",12/29/2020,,241046,2035,"14116 JEANETTE RANKIN",MANOR,TX,78653,"PRESIDENTIAL HEIGHTS",,CONTRACTOR,,,,,,,,,,,"STARLIGHT HOMES",,,,,"STARLIGHT HOMES","1800 VALLEY VIEW LN STE 100",DALLAS,TX,75234-8944,"(972) 428-5408",,,,
TX,TRAVIS,2020-5969,"Single Family Homes",12/18/2020,,366366,3093,"13221 CAROL LAWLER LN",MANOR,TX,78653,SHADOWGLEN,,CONTRACTOR,,,,,,,,,,,"PERRY HOMES",,,,,"PERRY HOMES","6112 LLANO ST",AUSTIN,TX,78702,"(512) 810-8050",,,,
TX,TRAVIS,2020-5970,"Single Family Homes",12/18/2020,,368025,3107,"16705 CHRISTINA GARZA DR",MANOR,TX,78653,SHADOWGLEN,,CONTRACTOR,,,,,,,,,,,"PERRY HOMES",,,,,"PERRY HOMES","6112 LLANO ST",AUSTIN,TX,78702,"(512) 810-8050",,,,
TX,HAYS,2020-32446,"Single Family Homes",12/4/2020,,150000,2566,"660 BLUE OAK BLVD","SAN MARCOS",TX,78666,,,CONTRACTOR,,,,,,,,,,,"PERRY HOMES",,,,,"PERRY HOMES","6112 LLANO ST",AUSTIN,TX,78702,"(512) 810-8050",,,,
TX,HAYS,2020-33038,"Single Family Homes",12/14/2020,,248511,2970,"509 COPPER SAGE DR","SAN MARCOS",TX,78666,,,CONTRACTOR,,,,,,,,,,,"MHI MCGUYER HOMEBUILDERS",,,,,"MHI MCGUYER HOMEBUILDERS","8200 N MO PAC EXPY STE 300",AUSTIN,TX,78759-8844,"(512) 502-2050",,"(512) 388-1836","FRANK MCGUYER",
TX,HAYS,2020-33513,"Single Family Homes",12/9/2020,,153530,2352,"213 ESCONDIDO CIR","SAN MARCOS",TX,78666,,,CONTRACTOR,,,,,,,,,,,"LENNAR HOMES",,,,,"LENNAR HOMES","13620 FM 620 RD 150",AUSTIN,TX,78717,"(512) 506-4000",http://www.lennar.com/,,,
TX,HAYS,2020-33573,"Single Family Homes",12/7/2020,,223318,2439,"132 MISSOURI PRIMROSE LN","SAN MARCOS",TX,78666,,,CONTRACTOR,,,,,,,,,,,"MHI MCGUYER HOMEBUILDERS",,,,,"MHI MCGUYER HOMEBUILDERS","8200 N MO PAC EXPY STE 300",AUSTIN,TX,78759-8844,"(512) 502-2050",,"(512) 388-1836","FRANK MCGUYER",
TX,HAYS,2020-33608,"Single Family Homes",12/2/2020,,150800,1508,"348 SPINY LIZARD LN","SAN MARCOS",TX,78666,,,CONTRACTOR,,,,,,,,,,,"PACESETTER HOMES ",,,,,"PACESETTER HOMES ","7940 SHOAL CREEK BLVD STE 200",AUSTIN,TX,78757-7587,"(512) 323-5252",,,,
TX,HAYS,2020-33731,"Single Family Homes",12/18/2020,,210442,2447,"128 SKY MEADOWS CIR","SAN MARCOS",TX,78666,,,CONTRACTOR,,,,,,,,,,,"DR HORTON",,,,,"DR HORTON","10700 PECAN PARK BLVD STE 400",AUSTIN,TX,78750-1227,"(512) 345-4663",,,,
TX,HAYS,2020-33812,"Single Family Homes",12/14/2020,,184556,2146,"124 SKY MEADOWS CIR","SAN MARCOS",TX,78666,,,CONTRACTOR,,,,,,,,,,,"DR HORTON",,,,,"DR HORTON","10700 PECAN PARK BLVD STE 400",AUSTIN,TX,78750-1227,"(512) 345-4663",,,,
TX,HAYS,2020-33851,"Single Family Homes",12/7/2020,,475045,3841,"132 RAINBOW VALLEY TRL","SAN MARCOS",TX,78666,,,CONTRACTOR,,,,,,,,,,,"HIGHLAND HOMES",,,,,"HIGHLAND HOMES","4201 W PARMER LN STE B180",AUSTIN,TX,78727-4110,"(512) 834-8429",,,,
TX,HAYS,2020-33865,"Single Family Homes",12/14/2020,,233146,2711,"112 SKY MEADOWS CIR","SAN MARCOS",TX,78666,,,CONTRACTOR,,,,,,,,,,,"DR HORTON",,,,,"DR HORTON","10700 PECAN PARK BLVD STE 400",AUSTIN,TX,78750-1227,"(512) 345-4663",,,,
TX,HAYS,2020-33890,"Single Family Homes",12/21/2020,,211050,3510,"423 ANCIENT OAK WAY","SAN MARCOS",TX,78666,,,CONTRACTOR,,,,,,,,,,,"NEWLEAF HOMES",,,,,"NEWLEAF HOMES","6735 W INTERSTATE 10 STE 103","SAN ANTONIO",TX,78201-2057,"(210) 559-1888",http://www.newleafhomes.com,"(210) 641-0011",,
TX,HAYS,2020-33893,"Single Family Homes",12/21/2020,,232500,3900,"4505 ROYAL OAK BLVD","SAN MARCOS",TX,78666,,,CONTRACTOR,,,,,,,,,,,"NEWLEAF HOMES",,,,,"NEWLEAF HOMES","6735 W INTERSTATE 10 STE 103","SAN ANTONIO",TX,78201-2057,"(210) 559-1888",http://www.newleafhomes.com,"(210) 641-0011",,
TX,HAYS,2020-33905,"Single Family Homes",12/9/2020,,257699,2393,"324 TEAKMILL TRL","SAN MARCOS",TX,78666,,,CONTRACTOR,,,,,,,,,,,"MHI MCGUYER HOMEBUILDERS",,,,,"MHI MCGUYER HOMEBUILDERS","8200 N MO PAC EXPY STE 300",AUSTIN,TX,78759-8844,"(512) 502-2050",,"(512) 388-1836","FRANK MCGUYER",
TX,HAYS,2020-33930,"Single Family Homes",12/1/2020,,250000,3608,"113 TWIRLING PECAN CV","SAN MARCOS",TX,78666,,,CONTRACTOR,,,,,,,,,,,"BROOKFIELD RESIDENTIAL PROPERTIES",,,,,"BROOKFIELD RESIDENTIAL PROPERTIES","11501 ALTERRA PKWY STE 100",AUSTIN,TX,78758-3201,"(512) 391-1330",,,,
TX,HAYS,2020-33941,"Single Family Homes",12/16/2020,,387990,2976,"220 PIN CHERRY PASS","SAN MARCOS",TX,78666,,,CONTRACTOR,,,,,,,,,,,"HIGHLAND HOMES",,,,,"HIGHLAND HOMES","4201 W PARMER LN STE B180",AUSTIN,TX,78727-4110,"(512) 834-8429",,,,
TX,HAYS,2020-33959,"Single Family Homes",12/14/2020,,266858,3103,"535 GOLDEN GROVE PKWY","SAN MARCOS",TX,78666,,,CONTRACTOR,,,,,,,,,,,"DR HORTON",,,,,"DR HORTON","10700 PECAN PARK BLVD STE 400",AUSTIN,TX,78750-1227,"(512) 345-4663",,,,
TX,HAYS,2020-33960,"Single Family Homes",12/14/2020,,178708,2078,"539 GOLDEN GROVE PKWY","SAN MARCOS",TX,78666,,,CONTRACTOR,,,,,,,,,,,"DR HORTON",,,,,"DR HORTON","10700 PECAN PARK BLVD STE 400",AUSTIN,TX,78750-1227,"(512) 345-4663",,,,
TX,HAYS,2020-33984,"Single Family Homes",12/17/2020,,324524,2844,"228 RAINBOW VALLEY TRL","SAN MARCOS",TX,78666,,,CONTRACTOR,,,,,,,,,,,"MHI MCGUYER HOMEBUILDERS",,,,,"MHI MCGUYER HOMEBUILDERS","8200 N MO PAC EXPY STE 300",AUSTIN,TX,78759-8844,"(512) 502-2050",,"(512) 388-1836","FRANK MCGUYER",
TX,HAYS,2020-33986,"Single Family Homes",12/21/2020,,396495,3536,"137 MISSOURI PRIMROSE LN","SAN MARCOS",TX,78666,,,CONTRACTOR,,,,,,,,,,,"HIGHLAND HOMES",,,,,"HIGHLAND HOMES","4201 W PARMER LN STE B180",AUSTIN,TX,78727-4110,"(512) 834-8429",,,,
TX,HAYS,2020-33989,"Single Family Homes",12/2/2020,,250000,2774,"124 RIDING PLUM DR","SAN MARCOS",TX,78666,,,CONTRACTOR,,,,,,,,,,,"BROOKFIELD RESIDENTIAL PROPERTIES",,,,,"BROOKFIELD RESIDENTIAL PROPERTIES","11501 ALTERRA PKWY STE 100",AUSTIN,TX,78758-3201,"(512) 391-1330",,,,
TX,HAYS,2020-33991,"Single Family Homes",12/1/2020,,196125,2615,"149 WITCHHAZEL WAY","SAN MARCOS",TX,78666,,,CONTRACTOR,,,,,,,,,,,"PACESETTER HOMES ",,,,,"PACESETTER HOMES ","7940 SHOAL CREEK BLVD STE 200",AUSTIN,TX,78757-7587,"(512) 323-5252",,,,
TX,HAYS,2020-33994,"Single Family Homes",12/1/2020,,195300,2604,"209 WITCHHAZEL WAY","SAN MARCOS",TX,78666,,,CONTRACTOR,,,,,,,,,,,"PACESETTER HOMES ",,,,,"PACESETTER HOMES ","7940 SHOAL CREEK BLVD STE 200",AUSTIN,TX,78757-7587,"(512) 323-5252",,,,
TX,HAYS,2020-33995,"Single Family Homes",12/1/2020,,113025,1508,"216 WITCHHAZEL WAY","SAN MARCOS",TX,78666,,,CONTRACTOR,,,,,,,,,,,"PACESETTER HOMES ",,,,,"PACESETTER HOMES ","7940 SHOAL CREEK BLVD STE 200",AUSTIN,TX,78757-7587,"(512) 323-5252",,,,
TX,HAYS,2020-34011,"Single Family Homes",12/11/2020,,250000,3608,"105 PLAYING CYPRESS DR","SAN MARCOS",TX,78666,,,CONTRACTOR,,,,,,,,,,,"BROOKFIELD RESIDENTIAL PROPERTIES",,,,,"BROOKFIELD RESIDENTIAL PROPERTIES","11501 ALTERRA PKWY STE 100",AUSTIN,TX,78758-3201,"(512) 391-1330",,,,
TX,HAYS,2020-34015,"Single Family Homes",12/1/2020,,114900,1532,"220 WITCHHAZEL WAY","SAN MARCOS",TX,78666,,,CONTRACTOR,,,,,,,,,,,"PACESETTER HOMES ",,,,,"PACESETTER HOMES ","7940 SHOAL CREEK BLVD STE 200",AUSTIN,TX,78757-7587,"(512) 323-5252",,,,
TX,HAYS,2020-34016,"Single Family Homes",12/1/2020,,108975,1453,"116 WITCHHAZEL WAY","SAN MARCOS",TX,78666,,,CONTRACTOR,,,,,,,,,,,"PACESETTER HOMES ",,,,,"PACESETTER HOMES ","7940 SHOAL CREEK BLVD STE 200",AUSTIN,TX,78757-7587,"(512) 323-5252",,,,
TX,HAYS,2020-34027,"Single Family Homes",12/1/2020,,115000,1115,"2848 BRAND IRON DR","SAN MARCOS",TX,78666,,,CONTRACTOR,,,,,,,,,,,"PACESETTER HOMES ",,,,,"PACESETTER HOMES ","7940 SHOAL CREEK BLVD STE 200",AUSTIN,TX,78757-7587,"(512) 323-5252",,,,
TX,HAYS,2020-34048,"Single Family Homes",12/28/2020,,150000,3739,"112 HEARTLEAF RD","SAN MARCOS",TX,78666,,,CONTRACTOR,,,,,,,,,,,"PERRY HOMES",,,,,"PERRY HOMES","6112 LLANO ST",AUSTIN,TX,78702,"(512) 810-8050",,,,
TX,HAYS,2020-34054,"Single Family Homes",12/1/2020,,121600,1534,"2852 BRAND IRON DR","SAN MARCOS",TX,78666,,,CONTRACTOR,,,,,,,,,,,"PACESETTER HOMES ",,,,,"PACESETTER HOMES ","7940 SHOAL CREEK BLVD STE 200",AUSTIN,TX,78757-7587,"(512) 323-5252",,,,
TX,HAYS,2020-34057,"Single Family Homes",12/1/2020,,121600,1216,"145 RUSTIC GLEN DR","SAN MARCOS",TX,78666,,,CONTRACTOR,,,,,,,,,,,"PACESETTER HOMES ",,,,,"PACESETTER HOMES ","7940 SHOAL CREEK BLVD STE 200",AUSTIN,TX,78757-7587,"(512) 323-5252",,,,
TX,HAYS,2020-34083,"Single Family Homes",12/9/2020,,288114,2592,"113 BLUE OAK BLVD","SAN MARCOS",TX,78666,,,CONTRACTOR,,,,,,,,,,,"EHT OF TEXAS LP",,,,,"EHT OF TEXAS LP","3520 EXECUTIVE CENTER DR STE 100",AUSTIN,TX,78731-1636,"(757) 287-6394",,,,
TX,HAYS,2020-34084,"Single Family Homes",12/11/2020,,128245,1447,"210 ESCONDIDO CIR","SAN MARCOS",TX,78666,,,CONTRACTOR,,,,,,,,,,,"LENNAR HOMES",,,,,"LENNAR HOMES","13620 FM 620 RD 150",AUSTIN,TX,78717,"(512) 506-4000",http://www.lennar.com/,,,
TX,HAYS,2020-34099,"Single Family Homes",12/4/2020,,154275,2805,"124 LYNDON DR","SAN MARCOS",TX,78666,,,CONTRACTOR,,,,,,,,,,,"BROHN HOMES",,,,,"BROHN HOMES","6720 VAUGHT RANCH RD STE 200",AUSTIN,TX,78730-2354,"(512) 320-8833",http://brohnhomes.com/,,,
TX,HAYS,2020-34100,"Single Family Homes",12/30/2020,,218227,1791,"153 MISSOURI PRIMROSE LN","SAN MARCOS",TX,78666,,,CONTRACTOR,,,,,,,,,,,"MHI MCGUYER HOMEBUILDERS",,,,,"MHI MCGUYER HOMEBUILDERS","8200 N MO PAC EXPY STE 300",AUSTIN,TX,78759-8844,"(512) 502-2050",,"(512) 388-1836","FRANK MCGUYER",
TX,WILLIAMSON,2002-0019,"Single Family Homes",12/21/2020,,467990,,"3016 MILETTO DR","ROUND ROCK",TX,78664,,,CONTRACTOR,,,,,,,,,,,"TAYLOR MORRISON OF TEXAS",,,,,"TAYLOR MORRISON OF TEXAS","11200 LAKELINE BLVD STE 150A",AUSTIN,TX,78717-5964,"(512) 328-8866",,"(512) 328-7988",,
TX,WILLIAMSON,2002-0046,"Single Family Homes",12/18/2020,,458990,,"3039 MILETTO DR","ROUND ROCK",TX,78664,,,CONTRACTOR,,,,,,,,,,,"TAYLOR MORRISON OF TEXAS",,,,,"TAYLOR MORRISON OF TEXAS","11200 LAKELINE BLVD STE 150A",AUSTIN,TX,78717-5964,"(512) 328-8866",,"(512) 328-7988",,
TX,WILLIAMSON,2012-0001,"Single Family Homes",12/7/2020,,315990,,"3109 MILETTO DR","ROUND ROCK",TX,78664,,,CONTRACTOR,,,,,,,,,,,"TAYLOR MORRISON OF TEXAS",,,,,"TAYLOR MORRISON OF TEXAS","11200 LAKELINE BLVD STE 150A",AUSTIN,TX,78717-5964,"(512) 328-8866",,"(512) 328-7988",,
TX,HAYS,2020-34104,"Single Family Homes",12/9/2020,,180400,3280,"135 LYNDON DR","SAN MARCOS",TX,78666,,,CONTRACTOR,,,,,,,,,,,"BROHN HOMES",,,,,"BROHN HOMES","6720 VAUGHT RANCH RD STE 200",AUSTIN,TX,78730-2354,"(512) 320-8833",http://brohnhomes.com/,,,
TX,HAYS,2020-34110,"Single Family Homes",12/14/2020,,197026,2291,"429 GOLDEN GROVE PKWY","SAN MARCOS",TX,78666,,,CONTRACTOR,,,,,,,,,,,"DR HORTON",,,,,"DR HORTON","10700 PECAN PARK BLVD STE 400",AUSTIN,TX,78750-1227,"(512) 345-4663",,,,
TX,WILLIAMSON,2012-0002,"Single Family Homes",12/14/2020,,335100,,"3100 MILETTO DR","ROUND ROCK",TX,78664,,,CONTRACTOR,,,,,,,,,,,"TAYLOR MORRISON OF TEXAS",,,,,"TAYLOR MORRISON OF TEXAS","11200 LAKELINE BLVD STE 150A",AUSTIN,TX,78717-5964,"(512) 328-8866",,"(512) 328-7988",,
TX,WILLIAMSON,2012-0003,"Single Family Homes",12/15/2020,,317990,,"3116 MILETTO DR","ROUND ROCK",TX,78664,,,CONTRACTOR,,,,,,,,,,,"TAYLOR MORRISON OF TEXAS",,,,,"TAYLOR MORRISON OF TEXAS","11200 LAKELINE BLVD STE 150A",AUSTIN,TX,78717-5964,"(512) 328-8866",,"(512) 328-7988",,
TX,WILLIAMSON,2012-0004,"Single Family Homes",12/7/2020,,525990,,"1505 OVERTURE PL","ROUND ROCK",TX,78664,,,CONTRACTOR,,,,,,,,,,,"MILESTONE COMMUNITY BUILDERS",,,,,"MILESTONE COMMUNITY BUILDERS","9111 JOLLYVILLE RD STE 111",AUSTIN,TX,78759-7406,"(512) 686-4986",http://www.mymilestone.com/,,,
TX,WILLIAMSON,2012-0005,"Single Family Homes",12/15/2020,,337990,,"5348 CORNETTO BLFS","ROUND ROCK",TX,78664,,,CONTRACTOR,,,,,,,,,,,"TAYLOR MORRISON OF TEXAS",,,,,"TAYLOR MORRISON OF TEXAS","11200 LAKELINE BLVD STE 150A",AUSTIN,TX,78717-5964,"(512) 328-8866",,"(512) 328-7988",,
TX,WILLIAMSON,2012-0007,"Single Family Homes",12/15/2020,,498990,,"2444 CAPESTRANO CIR","ROUND ROCK",TX,78664,,,CONTRACTOR,,,,,,,,,,,"TAYLOR MORRISON OF TEXAS",,,,,"TAYLOR MORRISON OF TEXAS","11200 LAKELINE BLVD STE 150A",AUSTIN,TX,78717-5964,"(512) 328-8866",,"(512) 328-7988",,
TX,WILLIAMSON,2012-0008,"Single Family Homes",12/15/2020,,496990,,"1412 REPRISE BND","ROUND ROCK",TX,78664,,,CONTRACTOR,,,,,,,,,,,"MILESTONE COMMUNITY BUILDERS",,,,,"MILESTONE COMMUNITY BUILDERS","9111 JOLLYVILLE RD STE 111",AUSTIN,TX,78759-7406,"(512) 686-4986",http://www.mymilestone.com/,,,
TX,HAYS,2020-34114,"Single Family Homes",12/17/2020,,210442,2447,"108 CALLADO CIR","SAN MARCOS",TX,78666,,,CONTRACTOR,,,,,,,,,,,"DR HORTON",,,,,"DR HORTON","10700 PECAN PARK BLVD STE 400",AUSTIN,TX,78750-1227,"(512) 345-4663",,,,
TX,HAYS,2020-34115,"Single Family Homes",12/14/2020,,268664,3124,"115 CALLADO CIR","SAN MARCOS",TX,78666,,,CONTRACTOR,,,,,,,,,,,"DR HORTON",,,,,"DR HORTON","10700 PECAN PARK BLVD STE 400",AUSTIN,TX,78750-1227,"(512) 345-4663",,,,
TX,HAYS,2020-34121,"Single Family Homes",12/14/2020,,197112,2292,"116 CALLADO CIR","SAN MARCOS",TX,78666,,,CONTRACTOR,,,,,,,,,,,"DR HORTON",,,,,"DR HORTON","10700 PECAN PARK BLVD STE 400",AUSTIN,TX,78750-1227,"(512) 345-4663",,,,
TX,HAYS,2020-34124,"Single Family Homes",12/14/2020,,268664,3124,"124 CALLADO CIR","SAN MARCOS",TX,78666,,,CONTRACTOR,,,,,,,,,,,"DR HORTON",,,,,"DR HORTON","10700 PECAN PARK BLVD STE 400",AUSTIN,TX,78750-1227,"(512) 345-4663",,,,
TX,HAYS,2020-34125,"Single Family Homes",12/14/2020,,251120,2920,"128 CALLADO CIR","SAN MARCOS",TX,78666,,,CONTRACTOR,,,,,,,,,,,"DR HORTON",,,,,"DR HORTON","10700 PECAN PARK BLVD STE 400",AUSTIN,TX,78750-1227,"(512) 345-4663",,,,
TX,HAYS,2020-34128,"Single Family Homes",12/9/2020,,163345,2022,"120 VINTAGE DR","SAN MARCOS",TX,78666,,,CONTRACTOR,,,,,,,,,,,"LENNAR HOMES",,,,,"LENNAR HOMES","13620 FM 620 RD 150",AUSTIN,TX,78717,"(512) 506-4000",http://www.lennar.com/,,,
TX,HAYS,2020-34130,"Single Family Homes",12/7/2020,,162825,1966,"147 VINTAGE DR","SAN MARCOS",TX,78666,,,CONTRACTOR,,,,,,,,,,,"LENNAR HOMES",,,,,"LENNAR HOMES","13620 FM 620 RD 150",AUSTIN,TX,78717,"(512) 506-4000",http://www.lennar.com/,,,
TX,WILLIAMSON,2012-0009,"Single Family Homes",12/16/2020,,267990,,"3209 DE LUCA CT","ROUND ROCK",TX,76884,,,CONTRACTOR,,,,,,,,,,,"TAYLOR MORRISON OF TEXAS",,,,,"TAYLOR MORRISON OF TEXAS","11200 LAKELINE BLVD STE 150A",AUSTIN,TX,78717-5964,"(512) 328-8866",,"(512) 328-7988",,
TX,WILLIAMSON,SFR2012-0010,"Single Family Homes",12/15/2020,,503990,,"5253 ORSINI BLFS","ROUND ROCK",TX,78664,,,CONTRACTOR,,,,,,,,,,,"TAYLOR MORRISON OF TEXAS",,,,,"TAYLOR MORRISON OF TEXAS","11200 LAKELINE BLVD STE 150A",AUSTIN,TX,78717-5964,"(512) 328-8866",,"(512) 328-7988",,
TX,WILLIAMSON,2012-0011,"Single Family Homes",12/17/2020,,303990,,"3105 MILETTO DR","ROUND ROCK",TX,78664,,,CONTRACTOR,,,,,,,,,,,"TAYLOR MORRISON OF TEXAS",,,,,"TAYLOR MORRISON OF TEXAS","11200 LAKELINE BLVD STE 150A",AUSTIN,TX,78717-5964,"(512) 328-8866",,"(512) 328-7988",,
TX,HAYS,2020-34133,"Single Family Homes",12/30/2020,,375936,3543,"541 COPPER SAGE DR","SAN MARCOS",TX,78666,,,CONTRACTOR,,,,,,,,,,,"MHI MCGUYER HOMEBUILDERS",,,,,"MHI MCGUYER HOMEBUILDERS","8200 N MO PAC EXPY STE 300",AUSTIN,TX,78759-8844,"(512) 502-2050",,"(512) 388-1836","FRANK MCGUYER",
TX,WILLIAMSON,2012-0014,"Single Family Homes",12/10/2020,,315990,,"5339 CORNETTO BLFS","ROUND ROCK",TX,78664,,,CONTRACTOR,,,,,,,,,,,"TAYLOR MORRISON OF TEXAS",,,,,"TAYLOR MORRISON OF TEXAS","11200 LAKELINE BLVD STE 150A",AUSTIN,TX,78717-5964,"(512) 328-8866",,"(512) 328-7988",,
TX,HAYS,2020-34134,"Single Family Homes",12/7/2020,,128245,1447,"143 VINTAGE DR","SAN MARCOS",TX,78666,,,CONTRACTOR,,,,,,,,,,,"LENNAR HOMES",,,,,"LENNAR HOMES","13620 FM 620 RD 150",AUSTIN,TX,78717,"(512) 506-4000",http://www.lennar.com/,,,
TX,HAYS,2020-34136,"Single Family Homes",12/7/2020,,162825,1966,"222 ESCONDIDO CIR","SAN MARCOS",TX,78666,,,CONTRACTOR,,,,,,,,,,,"LENNAR HOMES",,,,,"LENNAR HOMES","13620 FM 620 RD 150",AUSTIN,TX,78717,"(512) 506-4000",http://www.lennar.com/,,,
TX,HAYS,2020-34137,"Single Family Homes",12/7/2020,,128245,1447,"225 ESCONDIDO CIR","SAN MARCOS",TX,78666,,,CONTRACTOR,,,,,,,,,,,"LENNAR HOMES",,,,,"LENNAR HOMES","13620 FM 620 RD 150",AUSTIN,TX,78717,"(512) 506-4000",http://www.lennar.com/,,,
TX,HAYS,2020-34138,"Single Family Homes",12/7/2020,,162825,1966,"229 ESCONDIDO CIR","SAN MARCOS",TX,78666,,,CONTRACTOR,,,,,,,,,,,"LENNAR HOMES",,,,,"LENNAR HOMES","13620 FM 620 RD 150",AUSTIN,TX,78717,"(512) 506-4000",http://www.lennar.com/,,,
TX,HAYS,2020-34139,"Single Family Homes",12/17/2020,,228403,2114,"464 ACADEMY OAKS DR","SAN MARCOS",TX,78666,,,CONTRACTOR,,,,,,,,,,,"MHI MCGUYER HOMEBUILDERS",,,,,"MHI MCGUYER HOMEBUILDERS","8200 N MO PAC EXPY STE 300",AUSTIN,TX,78759-8844,"(512) 502-2050",,"(512) 388-1836","FRANK MCGUYER",
TX,HAYS,2020-34145,"Single Family Homes",12/8/2020,,160900,1609,"149 RUSTIC GLEN DR","SAN MARCOS",TX,78666,,,CONTRACTOR,,,,,,,,,,,"PACESETTER HOMES ",,,,,"PACESETTER HOMES ","7940 SHOAL CREEK BLVD STE 200",AUSTIN,TX,78757-7587,"(512) 323-5252",,,,
TX,HAYS,2020-34148,"Single Family Homes",12/21/2020,,158510,2882,"909 ACADEMY OAKS DR","SAN MARCOS",TX,78666,,,CONTRACTOR,,,,,,,,,,,"SCOTT FELDER HOMES",,,,,"SCOTT FELDER HOMES","6414 RIVER PLACE BLVD STE 100",AUSTIN,TX,78730-1158,"(512) 418-5400",,,,
TX,HAYS,2020-34162,"Single Family Homes",12/22/2020,,250000,2668,"328 DRAWING MAPLE ST","SAN MARCOS",TX,78666,,,CONTRACTOR,,,,,,,,,,,"BROOKFIELD RESIDENTIAL PROPERTIES",,,,,"BROOKFIELD RESIDENTIAL PROPERTIES","11501 ALTERRA PKWY STE 100",AUSTIN,TX,78758-3201,"(512) 391-1330",,,,
TX,HAYS,2020-34163,"Single Family Homes",12/22/2020,,250000,2874,"210 CHARMING REDBUD LN","SAN MARCOS",TX,78666,,,CONTRACTOR,,,,,,,,,,,"BROOKFIELD RESIDENTIAL PROPERTIES",,,,,"BROOKFIELD RESIDENTIAL PROPERTIES","11501 ALTERRA PKWY STE 100",AUSTIN,TX,78758-3201,"(512) 391-1330",,,,
TX,WILLIAMSON,2012-0019,"Single Family Homes",12/18/2020,,121894,,"3017 SETTLEMENT DR 33","ROUND ROCK",TX,78664,,,CONTRACTOR,,,,,,,,,,,"HOMES BY AVI",,,,,"HOMES BY AVI","11130 JOLLYVILLE RD STE 304",AUSTIN,TX,78759-4819,"(512) 382-0971",http://www.homesbyavi.com/,,,
TX,HAYS,2020-34172,"Single Family Homes",12/9/2020,,117910,1312,"233 ESCONDIDO CIR","SAN MARCOS",TX,78666,,,CONTRACTOR,,,,,,,,,,,"LENNAR HOMES",,,,,"LENNAR HOMES","13620 FM 620 RD 150",AUSTIN,TX,78717,"(512) 506-4000",http://www.lennar.com/,,,
TX,WILLIAMSON,2012-0024,"Single Family Homes",12/22/2020,,386990,,"5336 ORSINI BLFS","ROUND ROCK",TX,78664,,,CONTRACTOR,,,,,,,,,,,"TAYLOR MORRISON OF TEXAS",,,,,"TAYLOR MORRISON OF TEXAS","11200 LAKELINE BLVD STE 150A",AUSTIN,TX,78717-5964,"(512) 328-8866",,"(512) 328-7988",,
TX,HAYS,2020-34175,"Single Family Homes",12/14/2020,,268406,3121,"135 CALLADO CIR","SAN MARCOS",TX,78666,,,CONTRACTOR,,,,,,,,,,,"DR HORTON",,,,,"DR HORTON","10700 PECAN PARK BLVD STE 400",AUSTIN,TX,78750-1227,"(512) 345-4663",,,,
TX,WILLIAMSON,2012-0025,"Single Family Homes",12/22/2020,,451990,,"5332 ORSINI BLFS","ROUND ROCK",TX,78664,,,CONTRACTOR,,,,,,,,,,,"TAYLOR MORRISON OF TEXAS",,,,,"TAYLOR MORRISON OF TEXAS","11200 LAKELINE BLVD STE 150A",AUSTIN,TX,78717-5964,"(512) 328-8866",,"(512) 328-7988",,
TX,HAYS,2020-34180,"Single Family Homes",12/14/2020,,155832,1812,"151 CALLADO CIR","SAN MARCOS",TX,78666,,,CONTRACTOR,,,,,,,,,,,"DR HORTON",,,,,"DR HORTON","10700 PECAN PARK BLVD STE 400",AUSTIN,TX,78750-1227,"(512) 345-4663",,,,
TX,WILLIAMSON,2012-0026,"Single Family Homes",12/30/2020,,495990,,"2412 SOPRANO WAY","ROUND ROCK",TX,78664,,,CONTRACTOR,,,,,,,,,,,"MILESTONE COMMUNITY BUILDERS",,,,,"MILESTONE COMMUNITY BUILDERS","9111 JOLLYVILLE RD STE 111",AUSTIN,TX,78759-7406,"(512) 686-4986",http://www.mymilestone.com/,,,
TX,WILLIAMSON,2012-0027,"Single Family Homes",12/22/2020,,391990,,"5307 ORSINI BLFS","ROUND ROCK",TX,78664,,,CONTRACTOR,,,,,,,,,,,"TAYLOR MORRISON OF TEXAS",,,,,"TAYLOR MORRISON OF TEXAS","11200 LAKELINE BLVD STE 150A",AUSTIN,TX,78717-5964,"(512) 328-8866",,"(512) 328-7988",,
TX,HAYS,2020-34182,"Single Family Homes",12/14/2020,,197112,2292,"203 CALLADO CIR","SAN MARCOS",TX,78666,,,CONTRACTOR,,,,,,,,,,,"DR HORTON",,,,,"DR HORTON","10700 PECAN PARK BLVD STE 400",AUSTIN,TX,78750-1227,"(512) 345-4663",,,,
TX,WILLIAMSON,2012-0028,"Single Family Homes",12/22/2020,,318990,,"5228 CORNETTO BLFS","ROUND ROCK",TX,78864,,,CONTRACTOR,,,,,,,,,,,"TAYLOR MORRISON OF TEXAS",,,,,"TAYLOR MORRISON OF TEXAS","11200 LAKELINE BLVD STE 150A",AUSTIN,TX,78717-5964,"(512) 328-8866",,"(512) 328-7988",,
TX,HAYS,2020-34187,"Single Family Homes",12/17/2020,,268664,3124,"148 CALLADO CIR","SAN MARCOS",TX,78666,,,CONTRACTOR,,,,,,,,,,,"DR HORTON",,,,,"DR HORTON","10700 PECAN PARK BLVD STE 400",AUSTIN,TX,78750-1227,"(512) 345-4663",,,,
TX,WILLIAMSON,2012-0029,"Single Family Homes",12/28/2020,,268470,,"3453 PAULING LOOP","ROUND ROCK",TX,78664,,,CONTRACTOR,,,,,,,,,,,"BUFFINGTON TEXAS CLASSIC HOMES",,,,,"BUFFINGTON TEXAS CLASSIC HOMES","8601 RANCH ROAD 2222 PARK CENTRE BLDG STE 150",AUSTIN,TX,78730,"(512) 579-4800",,,,
TX,HAYS,2020-34194,"Single Family Homes",12/11/2020,,286482,2513,"133 GOLDFINCH DR","SAN MARCOS",TX,78666,,,CONTRACTOR,,,,,,,,,,,"BUFFINGTON TEXAS CLASSIC HOMES",,,,,"BUFFINGTON TEXAS CLASSIC HOMES","8601 RANCH ROAD 2222 PARK CENTRE BLDG STE 150",AUSTIN,TX,78730,"(512) 579-4800",,,,
TX,WILLIAMSON,2012-0033,"Single Family Homes",12/22/2020,,194076,,"3750 E PALM VALLEY BLVD 58","ROUND ROCK",TX,78664,,,"DIAMOND OAKS LLC","2088 OLD TAYLOR RD","ROUND ROCK",TX,78664,,Owner,,,,,OWNER,,,,,OWNER,,,,,,,,,
TX,WILLIAMSON,2012-0034,"Single Family Homes",12/22/2020,,194076,,"3750 E PALM VALLEY BLVD 98","ROUND ROCK",TX,78664,,,CONTRACTOR,,,,,,,,,,,"DIAMOND OAKS",,,,,"DIAMOND OAKS","3750 E PALM VALLEY BLVD","ROUND ROCK",TX,78665-3312,"(830) 596-3388",,,,
TX,HAYS,2020-34196,"Single Family Homes",12/11/2020,,279870,2455,"129 GRAY WOLF DR","SAN MARCOS",TX,78666,,,CONTRACTOR,,,,,,,,,,,"BUFFINGTON TEXAS CLASSIC HOMES",,,,,"BUFFINGTON TEXAS CLASSIC HOMES","8601 RANCH ROAD 2222 PARK CENTRE BLDG STE 150",AUSTIN,TX,78730,"(512) 579-4800",,,,
TX,WILLIAMSON,2012-0035,"Single Family Homes",12/22/2020,,437990,,"4919 BRUCO LN","ROUND ROCK",TX,78664,,,CONTRACTOR,,,,,,,,,,,"TAYLOR MORRISON OF TEXAS",,,,,"TAYLOR MORRISON OF TEXAS","11200 LAKELINE BLVD STE 150A",AUSTIN,TX,78717-5964,"(512) 328-8866",,"(512) 328-7988",,
TX,WILLIAMSON,2012-0036,"Single Family Homes",12/22/2020,,318990,,"3106 PORTICO PATH","ROUND ROCK",TX,78664,,,CONTRACTOR,,,,,,,,,,,"TAYLOR MORRISON OF TEXAS",,,,,"TAYLOR MORRISON OF TEXAS","11200 LAKELINE BLVD STE 150A",AUSTIN,TX,78717-5964,"(512) 328-8866",,"(512) 328-7988",,
TX,HAYS,2020-34211,"Single Family Homes",12/22/2020,,250000,3634,"512 CALMING AGAVE WAY","SAN MARCOS",TX,78666,,,CONTRACTOR,,,,,,,,,,,"BROOKFIELD RESIDENTIAL PROPERTIES",,,,,"BROOKFIELD RESIDENTIAL PROPERTIES","11501 ALTERRA PKWY STE 100",AUSTIN,TX,78758-3201,"(512) 391-1330",,,,
TX,WILLIAMSON,2012-0038,"Single Family Homes",12/22/2020,,238185,,"3750 E PALM VALLEY BLVD 96","ROUND ROCK",TX,78664,,,CONTRACTOR,,,,,,,,,,,"DIAMOND OAKS",,,,,"DIAMOND OAKS","3750 E PALM VALLEY BLVD","ROUND ROCK",TX,78665-3312,"(830) 596-3388",,,,
TX,HAYS,2020-34214,"Single Family Homes",12/11/2020,,140625,1872,"1121 ESPLANADE PKWY","SAN MARCOS",TX,78666,,,CONTRACTOR,,,,,,,,,,,"PACESETTER HOMES ",,,,,"PACESETTER HOMES ","7940 SHOAL CREEK BLVD STE 200",AUSTIN,TX,78757-7587,"(512) 323-5252",,,,
TX,WILLIAMSON,2012-0039,"Single Family Homes",12/22/2020,,525990,,"1548 REPRISE BND","ROUND ROCK",TX,78664,,,CONTRACTOR,,,,,,,,,,,"MILESTONE COMMUNITY BUILDERS",,,,,"MILESTONE COMMUNITY BUILDERS","9111 JOLLYVILLE RD STE 111",AUSTIN,TX,78759-7406,"(512) 686-4986",http://www.mymilestone.com/,,,
TX,WILLIAMSON,2012-0043,"Single Family Homes",12/29/2020,,194076,,"3750 E PALM VALLEY BLVD 47","ROUND ROCK",TX,78664,,,CONTRACTOR,,,,,,,,,,,"DIAMOND OAKS",,,,,"DIAMOND OAKS","3750 E PALM VALLEY BLVD","ROUND ROCK",TX,78665-3312,"(830) 596-3388",,,,
TX,HAYS,2020-34217,"Single Family Homes",12/14/2020,,110550,2010,"120 LYNDON DR","SAN MARCOS",TX,78666,,,CONTRACTOR,,,,,,,,,,,"BROHN HOMES",,,,,"BROHN HOMES","6720 VAUGHT RANCH RD STE 200",AUSTIN,TX,78730-2354,"(512) 320-8833",http://brohnhomes.com/,,,
TX,HAYS,2020-34218,"Single Family Homes",12/29/2020,,102190,1858,"221 GRAY WOLF DR","SAN MARCOS",TX,78666,,,CONTRACTOR,,,,,,,,,,,"BROHN HOMES",,,,,"BROHN HOMES","6720 VAUGHT RANCH RD STE 200",AUSTIN,TX,78730-2354,"(512) 320-8833",http://brohnhomes.com/,,,
TX,HAYS,2020-34221,"Single Family Homes",12/21/2020,,240370,3205,"4437 ROYAL OAK BLVD","SAN MARCOS",TX,78666,,,CONTRACTOR,,,,,,,,,,,"NEWLEAF HOMES",,,,,"NEWLEAF HOMES","6735 W INTERSTATE 10 STE 103","SAN ANTONIO",TX,78201-2057,"(210) 559-1888",http://www.newleafhomes.com,"(210) 641-0011",,
TX,HAYS,2020-34227,"Single Family Homes",12/21/2020,,249450,3326,"4445 ROYAL OAK BLVD","SAN MARCOS",TX,78666,,,CONTRACTOR,,,,,,,,,,,"NEWLEAF HOMES",,,,,"NEWLEAF HOMES","6735 W INTERSTATE 10 STE 103","SAN ANTONIO",TX,78201-2057,"(210) 559-1888",http://www.newleafhomes.com,"(210) 641-0011",,
TX,HAYS,2020-34233,"Single Family Homes",12/22/2020,,250000,3852,"428 CALMING AGAVE WAY","SAN MARCOS",TX,78666,,,CONTRACTOR,,,,,,,,,,,"BROOKFIELD RESIDENTIAL PROPERTIES",,,,,"BROOKFIELD RESIDENTIAL PROPERTIES","11501 ALTERRA PKWY STE 100",AUSTIN,TX,78758-3201,"(512) 391-1330",,,,
TX,HAYS,2020-34234,"Single Family Homes",12/22/2020,,250000,3334,"206 CHARMING REDBUD LN","SAN MARCOS",TX,78666,,,CONTRACTOR,,,,,,,,,,,"BROOKFIELD RESIDENTIAL PROPERTIES",,,,,"BROOKFIELD RESIDENTIAL PROPERTIES","11501 ALTERRA PKWY STE 100",AUSTIN,TX,78758-3201,"(512) 391-1330",,,,
TX,HAYS,2020-34249,"Single Family Homes",12/22/2020,,153530,1815,"218 ESCONDIDO CIR","SAN MARCOS",TX,78666,,,CONTRACTOR,,,,,,,,,,,"LENNAR HOMES",,,,,"LENNAR HOMES","13620 FM 620 RD 150",AUSTIN,TX,78717,"(512) 506-4000",http://www.lennar.com/,,,
TX,HAYS,2020-34251,"Single Family Homes",12/22/2020,,150670,1771,"214 ESCONDIDO CIR","SAN MARCOS",TX,78666,,,CONTRACTOR,,,,,,,,,,,"LENNAR HOMES",,,,,"LENNAR HOMES","13620 FM 620 RD 150",AUSTIN,TX,78717,"(512) 506-4000",http://www.lennar.com/,,,
TX,HAYS,2020-34278,"Single Family Homes",12/29/2020,,128265,2343,"321 SPINY LIZARD LN","SAN MARCOS",TX,78666,,,CONTRACTOR,,,,,,,,,,,"BROHN HOMES",,,,,"BROHN HOMES","6720 VAUGHT RANCH RD STE 200",AUSTIN,TX,78730-2354,"(512) 320-8833",http://brohnhomes.com/,,,
TX,HAYS,2020-34280,"Single Family Homes",12/29/2020,,126225,2295,"417 SPINY LIZARD LN","SAN MARCOS",TX,78666,,,CONTRACTOR,,,,,,,,,,,"BROHN HOMES",,,,,"BROHN HOMES","6720 VAUGHT RANCH RD STE 200",AUSTIN,TX,78730-2354,"(512) 320-8833",http://brohnhomes.com/,,,
TX,TRAVIS,20-29973,"Single Family Homes",12/9/2020,,650000,,"22709 MARY NELL LN",SPICEWOOD,TX,78669,"THE COVES AT SKY RANCH",,CONTRACTOR,,,,,,,,,,,"LANDMAN ENVIRONMENTAL",,,,,"LANDMAN ENVIRONMENTAL","5808 LAKESIDE TRL",AUSTIN,TX,78734-1440,"(512) 789-5048",http://www.landman-environmental.com/,,"JOHN FOX",jfox@landman-environmental.com
TX,TRAVIS,20-29644,"Single Family Homes",12/11/2020,,35797,,"23038 PEDERNALES CANYON TRL",SPICEWOOD,TX,78669,"LICK CREEK RANCH",11,CONTRACTOR,,,,,,,,,,,"AIR PRO",,,,,"AIR PRO","4213 TODD LN STE C",AUSTIN,TX,78744-1084,"(512) 326-1511",,,,
TX,TRAVIS,20-29616,"Single Family Homes",12/15/2020,,150540,,"13412 MUSSEL RUN",ELGIN,TX,78621,"ELM CREEK",23,CONTRACTOR,,,,,,,,,,,"LENNAR HOMES",,,,,"LENNAR HOMES","13620 FM 620 RD 150",AUSTIN,TX,78717,"(512) 506-4000",http://www.lennar.com/,,,
TX,TRAVIS,20-29571,"Single Family Homes",12/17/2020,,180000,,"24005 BLUEBIRD LN",AUSTIN,TX,78654,"TRAVIS OAKS",,CONTRACTOR,,,,,,,,,,,"WUKASCH DESIGNS",,,,,"WUKASCH DESIGNS","235 KELLY DR",BURNET,TX,78611-2831,"(512) 715-9093",,,,
TX,TRAVIS,20-29499,"Single Family Homes",12/15/2020,,124475,,"13410 MUSSEL RUN",ELGIN,TX,78621,"ELM CREEK",,CONTRACTOR,,,,,,,,,,,"LENNAR HOMES",,,,,"LENNAR HOMES","13620 FM 620 RD 150",AUSTIN,TX,78717,"(512) 506-4000",http://www.lennar.com/,,,
TX,TRAVIS,20-30363,"Single Family Homes",12/23/2020,,3930470,,"9620 ANGELWYLDE",AUSTIN,TX,78733,ANGELWYLDE,9,CONTRACTOR,,,,,,,,,,,"EPPRIGHT HOMES",,,,,"EPPRIGHT HOMES","13301 GALLERIA CIR # B175",AUSTIN,TX,78738-6434,"(512) 347-9956",http://epprighthomes.com/,"(512) 347-9966",,info@epprighthomes.com
TX,TRAVIS,20-30238,"Single Family Homes",12/21/2020,,1750000,,"2001 FLYING J BLVD",SPICEWOOD,TX,78669,"CLIFFSIDE AT THE RESERVE AT LAKE TRAVIS",,CONTRACTOR,,,,,,,,,,,"DALAINEY PERFORMANCE HOMES",,,,,"DALAINEY PERFORMANCE HOMES","13492 N HIGHWAY 183 STE 120-288",AUSTIN,TX,78750-2252,"(281) 830-4791",,,,
TX,TRAVIS,20-30151,"Single Family Homes",12/28/2020,,500000,,"3138 CHISHOLM TRL",AUSTIN,TX,78734,"APACHE SHORES",,CONTRACTOR,,,,,,,,,,,"DELCON ENVIRONMENTAL SYSTEMS",,,,,"DELCON ENVIRONMENTAL SYSTEMS","12713 MAJESTIC OAKS DR",AUSTIN,TX,78732-2001,"(512) 583-1397",,,"DERRICK LORMAND",
TX,TRAVIS,20-31227,"Single Family Homes",12/29/2020,,598000,,"24508 LOIS LN",SPICEWOOD,TX,78669,"PEDERNALES CANYON RANCH",9,CONTRACTOR,,,,,,,,,,,"WUKASCH DESIGNS",,,,,"WUKASCH DESIGNS","235 KELLY DR",BURNET,TX,78611-2831,"(512) 715-9093",,,,
TX,TRAVIS,20-31213,"Single Family Homes",12/15/2020,,136695,,"14232 SANDROCK BEND",PFLUGERVILLE,TX,78660,ENTRADA,,CONTRACTOR,,,,,,,,,,,"LENNAR HOMES",,,,,"LENNAR HOMES","13620 FM 620 RD 150",AUSTIN,TX,78717,"(512) 506-4000",http://www.lennar.com/,,,
TX,TRAVIS,20-31039,"Single Family Homes",12/17/2020,,219560,,"19805 EIRE DR",PFLUGERVILLE,TX,78660,"LAKESIDE AT BLACKHAWK",12,CONTRACTOR,,,,,,,,,,,"SCOTT FELDER HOMES",,,,,"SCOTT FELDER HOMES","6414 RIVER PLACE BLVD STE 100",AUSTIN,TX,78730-1158,"(512) 418-5400",,,,
TX,TRAVIS,20-30987,"Single Family Homes",12/16/2020,,250000,,"1215 LAKESHORE DR #2",SPICEWOOD,TX,78669,"LAGUNA VISTA",56,CONTRACTOR,,,,,,,,,,,"SPILLMAN EXCAVATING",,,,,"SPILLMAN EXCAVATING","14310 W HIGHWAY 71",AUSTIN,TX,78738-2909,"(512) 636-0528",http://www.spillmanexcavating.com/,"(512) 263-1622",,info@spillmanexcavating.com
TX,TRAVIS,20-31214,"Single Family Homes",12/15/2020,,121290,,"14228 SANDROCK BEND",PFLUGERVILLE,TX,78660,ENTRADA,23,CONTRACTOR,,,,,,,,,,,"LENNAR HOMES",,,,,"LENNAR HOMES","13620 FM 620 RD 150",AUSTIN,TX,78717,"(512) 506-4000",http://www.lennar.com/,,,
TX,TRAVIS,20-31215,"Single Family Homes",12/15/2020,,109980,,"14224 SANDROCK BEND",PFLUGERVILLE,TX,78660,ENTRADA,22,CONTRACTOR,,,,,,,,,,,"LENNAR HOMES",,,,,"LENNAR HOMES","13620 FM 620 RD 150",AUSTIN,TX,78717,"(512) 506-4000",http://www.lennar.com/,,,
TX,TRAVIS,20-31231,"Single Family Homes",12/15/2020,,800000,,"1104 WATERCLIFF DR","LAGO VISTA",TX,78645,"WATERFORD ON LAKE TRAVIS",28,CONTRACTOR,,,,,,,,,,,"LAKE TRAVIS BUILDERS",,,,,"LAKE TRAVIS BUILDERS","12400 W HIGHWAY 71 WEST STE 350-418",AUSTIN,TX,78738-6517,"(512) 848-8401",,,,
TX,TRAVIS,20-31116,"Single Family Homes",12/15/2020,,153920,,"14200 SANDROCK BEND",PFLUGERVILLE,TX,78660,ENTRADA,16,CONTRACTOR,,,,,,,,,,,"LENNAR HOMES",,,,,"LENNAR HOMES","13620 FM 620 RD 150",AUSTIN,TX,78717,"(512) 506-4000",http://www.lennar.com/,,,
TX,TRAVIS,20-30775,"Single Family Homes",12/11/2020,,155400,,"308 GARCITAS CV",AUSTIN,TX,78748,"ENCLAVE AT ESTANCIA",300,CONTRACTOR,,,,,,,,,,,"LENNAR HOMES",,,,,"LENNAR HOMES","13620 FM 620 RD 150",AUSTIN,TX,78717,"(512) 506-4000",http://www.lennar.com/,,,
TX,TRAVIS,20-31113,"Single Family Homes",12/15/2020,,153920,,"14216 SANDROCK BEND",PFLUGERVILLE,TX,78660,ENTRADA,20,CONTRACTOR,,,,,,,,,,,"LENNAR HOMES",,,,,"LENNAR HOMES","13620 FM 620 RD 150",AUSTIN,TX,78717,"(512) 506-4000",http://www.lennar.com/,,,
TX,TRAVIS,20-31112,"Single Family Homes",12/15/2020,,121290,,"14220 SANDROCK BEND",PFLUGERVILLE,TX,78660,ENTRADA,21,CONTRACTOR,,,,,,,,,,,"LENNAR HOMES",,,,,"LENNAR HOMES","13620 FM 620 RD 150",AUSTIN,TX,78717,"(512) 506-4000",http://www.lennar.com/,,,
TX,TRAVIS,20-31115,"Single Family Homes",12/15/2020,,121290,,"14204 SANDROCK BEND",PFLUGERVILLE,TX,78660,ENTRADA,17,CONTRACTOR,,,,,,,,,,,"LENNAR HOMES",,,,,"LENNAR HOMES","13620 FM 620 RD 150",AUSTIN,TX,78717,"(512) 506-4000",http://www.lennar.com/,,,
TX,TRAVIS,20-31117,"Single Family Homes",12/15/2020,,133380,,"14212 SANDROCK BEND",PFLUGERVILLE,TX,78660,ENTRADA,19,CONTRACTOR,,,,,,,,,,,"LENNAR HOMES",,,,,"LENNAR HOMES","13620 FM 620 RD 150",AUSTIN,TX,78717,"(512) 506-4000",http://www.lennar.com/,,,
TX,TRAVIS,20-31114,"Single Family Homes",12/15/2020,,109980,,"14208 SANDROCK BEND",PFLUGERVILLE,TX,78660,ENTRADA,18,CONTRACTOR,,,,,,,,,,,"LENNAR HOMES",,,,,"LENNAR HOMES","13620 FM 620 RD 150",AUSTIN,TX,78717,"(512) 506-4000",http://www.lennar.com/,,,
TX,TRAVIS,20-31410,"Single Family Homes",12/9/2020,,227260,,"3609 FINNY LN",PFLUGERVILLE,TX,78660,"LAKESIDE AT BLACKHAWK",15,CONTRACTOR,,,,,,,,,,,"SCOTT FELDER HOMES",,,,,"SCOTT FELDER HOMES","6414 RIVER PLACE BLVD STE 100",AUSTIN,TX,78730-1158,"(512) 418-5400",,,,
TX,TRAVIS,20-31072,"Single Family Homes",12/28/2020,,575000,,"22512 SWEET SUMMER DR",LEANDER,TX,78641,"THE BLUFFS OF SANDY CREEK",10,CONTRACTOR,,,,,,,,,,,"WUKASCH DESIGNS",,,,,"WUKASCH DESIGNS","235 KELLY DR",BURNET,TX,78611-2831,"(512) 715-9093",,,,
TX,TRAVIS,20-30220,"Single Family Homes",12/8/2020,,400000,,"18705 LUND CARLSON",ELGIN,TX,78621,,,CONTRACTOR,,,,,,,,,,,"SUNSET CONSTRUCTION & EXCAVATION",,,,,"SUNSET CONSTRUCTION & EXCAVATION","16910 HAMILTON POOL RD",AUSTIN,TX,78738-7201,"(512) 565-3793",,,"JAMES KUYKENDALL",
TX,TRAVIS,20-29402,"Single Family Homes",12/28/2020,,770000,,"1108 MARLY WAY",AUSTIN,TX,78733,"SEVEN OAKS",2,CONTRACTOR,,,,,,,,,,,"MARION INTERIOR DESIGN",,,,,"MARION INTERIOR DESIGN","3005 S LAMAR BLVD STE D109-155",AUSTIN,TX,78704,"(512) 766-7036",https://www.marioninteriordesign.com/,,,susie@marioninteriordesign.com
TX,TRAVIS,19-23988,"Single Family Homes",12/7/2020,,150000,,"12112 MOSSYGATE TRL",MANOR,TX,78653,SHADOWGLEN,108,CONTRACTOR,,,,,,,,,,,"PERRY HOMES",,,,,"PERRY HOMES","6112 LLANO ST",AUSTIN,TX,78702,"(512) 810-8050",,,,
TX,TRAVIS,19-22469,"Single Family Homes",12/29/2020,,1400000,,"14746 HORNSBY HILL",AUSTIN,TX,78734,"BEBYS RANCH",11,CONTRACTOR,,,,,,,,,,,"SPILLMAN EXCAVATING",,,,,"SPILLMAN EXCAVATING","14310 W HIGHWAY 71",AUSTIN,TX,78738-2909,"(512) 636-0528",http://www.spillmanexcavating.com/,"(512) 263-1622",,info@spillmanexcavating.com
TX,TRAVIS,20-30541,"Single Family Homes",12/23/2020,,198659,,"9720 GRAPEVINE LEAF DR",MANOR,TX,78653,"WHISPER VALLEY VILLAGE",26,CONTRACTOR,,,,,,,,,,,"GFO HOME",,,,,"GFO HOME","6012 AVIATION DR # 200",PFLUGERVILLE,TX,78660-8960,"(512) 492-8640",https://www.gfohome.com,,,
TX,TRAVIS,20-30566,"Single Family Homes",12/8/2020,,250000,,"16716 MOINEAU DR",AUSTIN,TX,78738,PROVENCE,21,CONTRACTOR,,,,,,,,,,,"WESTIN HOMES",,,,,"WESTIN HOMES","1 SUGAR CREEK CENTER BLVD STE 600","SUGAR LAND",TX,77478-3787,"(281) 240-1551",http://www.westin-homes.com,,,
TX,TRAVIS,20-30584,"Single Family Homes",12/8/2020,,311448,,"9520 PETRICHOR DR",AUSTIN,TX,78653,"WHISPER VALLEY VILLAGE",5,CONTRACTOR,,,,,,,,,,,"BUFFINGTON TEXAS CLASSIC HOMES",,,,,"BUFFINGTON TEXAS CLASSIC HOMES","8601 RANCH ROAD 2222 PARK CENTRE BLDG STE 150",AUSTIN,TX,78730,"(512) 579-4800",,,,
TX,TRAVIS,20-30711,"Single Family Homes",12/22/2020,,175575,,"6116 BRAMPTON LN",AUSTIN,TX,78724,"GILBERT LANE",11,CONTRACTOR,,,,,,,,,,,"DR HORTON",,,,,"DR HORTON","10700 PECAN PARK BLVD STE 400",AUSTIN,TX,78750-1227,"(512) 345-4663",,,,
TX,TRAVIS,20-30919,"Single Family Homes",12/9/2020,,985000,,"27017 HAYNIE FLAT RD",SPICEWOOD,TX,78669,"THE RANCH AT LAKESIDE",2,CONTRACTOR,,,,,,,,,,,"MADIGAN CUSTOM HOMES",,,,,"MADIGAN CUSTOM HOMES","20808 STATE HIGHWAY 71 W",SPICEWOOD,TX,78669-6631,"(512) 264-2691",http://madigancustomhomes.com/,,"JIM MADIGAN",info@madigancustomhomes.com
TX,TRAVIS,19-21480,"Single Family Homes",12/8/2020,,170000,,"2648 CRAZYHORSE PASS",AUSTIN,TX,78734,"APACHE SHORES",1120,CONTRACTOR,,,,,,,,,,,"LOUIE HAUSMAN",,,,,"LOUIE HAUSMAN","14203 DEBBA DR",AUSTIN,TX,78734-3720,"(512) 261-3030",,,,
TX,TRAVIS,20-31004,"Single Family Homes",12/8/2020,,220794,,"20813 CARRIES RANCH RD",PFLUGERVILLE,TX,78660,"PARK AT BLACKHAWK",12,CONTRACTOR,,,,,,,,,,,"MHI MCGUYER HOMEBUILDERS",,,,,"MHI MCGUYER HOMEBUILDERS","8200 N MO PAC EXPY STE 300",AUSTIN,TX,78759-8844,"(512) 502-2050",,"(512) 388-1836","FRANK MCGUYER",
TX,TRAVIS,20-30866,"Single Family Homes",12/22/2020,,475000,,"22609 SWEET SUMMER DR",LEANDER,TX,78641,"THE BLUFFS OF SANDY CREEK",15,CONTRACTOR,,,,,,,,,,,"WUKASCH DESIGNS",,,,,"WUKASCH DESIGNS","235 KELLY DR",BURNET,TX,78611-2831,"(512) 715-9093",,,,
TX,TRAVIS,20-30963,"Single Family Homes",12/9/2020,,153900,,"5915 ALAMOSA CLEARING",AUSTIN,TX,78738,"SWEETWATER RANCH VILLAGE",17,CONTRACTOR,,,,,,,,,,,"LENNAR HOMES",,,,,"LENNAR HOMES","13620 FM 620 RD 150",AUSTIN,TX,78717,"(512) 506-4000",http://www.lennar.com/,,,
TX,TRAVIS,20-31273,"Single Family Homes",12/7/2020,,150000,,"16705 RAKESH WAY",MANOR,TX,78653,SHADOWGLEN,24,CONTRACTOR,,,,,,,,,,,"PERRY HOMES",,,,,"PERRY HOMES","6112 LLANO ST",AUSTIN,TX,78702,"(512) 810-8050",,,,
TX,TRAVIS,20-31275,"Single Family Homes",12/22/2020,,133380,,"2532 FORGETMENOT LN",PFLUGERVILLE,TX,78660,ENTRADA,12,CONTRACTOR,,,,,,,,,,,"LENNAR HOMES",,,,,"LENNAR HOMES","13620 FM 620 RD 150",AUSTIN,TX,78717,"(512) 506-4000",http://www.lennar.com/,,,
TX,TRAVIS,20-31276,"Single Family Homes",12/7/2020,,250000,,"9828 EVENING CANOPY DR",AUSTIN,TX,78653,"WHISPER VALLEY VILLAGE",21,CONTRACTOR,,,,,,,,,,,"BUFFINGTON TEXAS CLASSIC HOMES",,,,,"BUFFINGTON TEXAS CLASSIC HOMES","8601 RANCH ROAD 2222 PARK CENTRE BLDG STE 150",AUSTIN,TX,78730,"(512) 579-4800",,,,
TX,TRAVIS,2020-1878,"Single Family Homes",12/11/2020,,462000,3320,"18704 EXPEDITION TRAIL",JONESTOWN,TX,78645,,,"AMBER GRIMES","18704 EXPEDITION TRAIL",JONESTOWN,TX,78645,,Owner,,,,,"DREES CUSTOM HOMES",,,,,"DREES CUSTOM HOMES","7300 RANCH ROAD 2222 BLDG 2 STE 250",AUSTIN,TX,78730-3204,"(512) 241-7100",http://www.dreeshomes.com,,,
TX,TRAVIS,20-31277,"Single Family Homes",12/8/2020,,278046,,"9624 EVENING CANOPY DR",AUSTIN,TX,78653,"WHISPER VALLEY",12,CONTRACTOR,,,,,,,,,,,"BUFFINGTON TEXAS CLASSIC HOMES",,,,,"BUFFINGTON TEXAS CLASSIC HOMES","8601 RANCH ROAD 2222 PARK CENTRE BLDG STE 150",AUSTIN,TX,78730,"(512) 579-4800",,,,
TX,TRAVIS,2020-1906,"Single Family Homes",12/10/2020,,581685,6123,"7220 CELEBRATION CT",JONESTOWN,TX,78645,,,CONTRACTOR,,,,,,,,,,,"GIDDENS HOMES",,,,,"GIDDENS HOMES","3001 CRYSTAL FALLS PKWY",LEANDER,TX,78641-2861,"(800) 644-9083",https://www.giddenshomes.com/,,,
TX,TRAVIS,20-31279,"Single Family Homes",12/7/2020,,273714,,"9801 ELOQUENCE DR",AUSTIN,TX,78653,"WHISPER VALLEY VILLAGE",13,CONTRACTOR,,,,,,,,,,,"BUFFINGTON TEXAS CLASSIC HOMES",,,,,"BUFFINGTON TEXAS CLASSIC HOMES","8601 RANCH ROAD 2222 PARK CENTRE BLDG STE 150",AUSTIN,TX,78730,"(512) 579-4800",,,,
TX,TRAVIS,2020-1908,"Single Family Homes",12/11/2020,,460000,3555,"18701 EXPEDITION TR",JONESTOWN,TX,78645,,,CONTRACTOR,,,,,,,,,,,"DREES CUSTOM HOMES",,,,,"DREES CUSTOM HOMES","7300 RANCH ROAD 2222 BLDG 2 STE 250",AUSTIN,TX,78730-3204,"(512) 241-7100",http://www.dreeshomes.com,,,
TX,TRAVIS,20-31302,"Single Family Homes",12/7/2020,,150000,,"9605 EVENING CANOPY",MANOR,TX,78653,"WHISPER VALLEY VILLAGE",2,CONTRACTOR,,,,,,,,,,,"THURMAN HOMES",,,,,"THURMAN HOMES","2121 PEORIA DR",LEANDER,TX,78641-4405,"(512) 925-4647",,,,
TX,TRAVIS,2020-1926,"Single Family Homes",12/11/2020,,455000,4455,"4909 DESTINATION WAY",JONESTOWN,TX,78645,,,CONTRACTOR,,,,,,,,,,,"DREES CUSTOM HOMES",,,,,"DREES CUSTOM HOMES","7300 RANCH ROAD 2222 BLDG 2 STE 250",AUSTIN,TX,78730-3204,"(512) 241-7100",http://www.dreeshomes.com,,,
TX,TRAVIS,20-31138,"Single Family Homes",12/8/2020,,167700,,"6013 CIMARRON RIDGE",AUSTIN,TX,78738,"SWEETWATER RANCH VILLAGE",13,CONTRACTOR,,,,,,,,,,,"LENNAR HOMES",,,,,"LENNAR HOMES","13620 FM 620 RD 150",AUSTIN,TX,78717,"(512) 506-4000",http://www.lennar.com/,,,
TX,TRAVIS,2020-1931,"Single Family Homes",12/1/2020,,408405,4299,"19008 WINDY PINE COVE",JONESTOWN,TX,78645,,,CONTRACTOR,,,,,,,,,,,"GIDDENS HOMES",,,,,"GIDDENS HOMES","3001 CRYSTAL FALLS PKWY",LEANDER,TX,78641-2861,"(800) 644-9083",https://www.giddenshomes.com/,,,
TX,TRAVIS,20-31154,"Single Family Homes",12/15/2020,,240000,,"9724 EVENING CANOPY",MANOR,TX,78653,"WHISPER VALLEY VILLAGE",5,CONTRACTOR,,,,,,,,,,,"THURMAN HOMES",,,,,"THURMAN HOMES","2121 PEORIA DR",LEANDER,TX,78641-4405,"(512) 925-4647",,,,
TX,TRAVIS,20-31011,"Single Family Homes",12/28/2020,,160000,,"15105 SPRING HILL LN",PFLUGERVILLE,TX,78660,"SPRING HILL VILLAGE",,CONTRACTOR,,,,,,,,,,,"FRANCISCO GUERRERO",,,,,"FRANCISCO GUERRERO","437 CLAIREMONT AVE","FORT WORTH",TX,76103-3609,"(817) 818-7012",,,,
TX,TRAVIS,2020-1941,"Single Family Homes",12/11/2020,,105000,2070,"10620 WEST LAKEVIEW",JONESTOWN,TX,78645,,,CONTRACTOR,,,,,,,,,,,"DANNEN DEVELOPMENT",,,,,"DANNEN DEVELOPMENT","PO BOX 2255","CEDAR PARK",TX,78613,"(512) 623-0155",https://www.dannendev.com/,,"RYAN JACKSON",ryan@dannendev.com
TX,TRAVIS,20-28185,"Single Family Homes",12/21/2020,,317084,,"8604 APOGEE BLVD",AUSTIN,TX,78744,"EASTON PARK",33,CONTRACTOR,,,,,,,,,,,"PACESETTER HOMES ",,,,,"PACESETTER HOMES ","7940 SHOAL CREEK BLVD STE 200",AUSTIN,TX,78757-7587,"(512) 323-5252",,,,
TX,TRAVIS,2020-1948,"Single Family Homes",12/23/2020,,452390,4762,"19001 WINDY PINE COVE",JONESTOWN,TX,78645,,,CONTRACTOR,,,,,,,,,,,"GIDDENS HOMES",,,,,"GIDDENS HOMES","3001 CRYSTAL FALLS PKWY",LEANDER,TX,78641-2861,"(800) 644-9083",https://www.giddenshomes.com/,,,
TX,TRAVIS,2020-1952,"Single Family Homes",12/29/2020,,1315493,3775,"17809 REGATTA VIEW DR",JONESTOWN,TX,78645,,,"MARK HUGHES","17809 REGATTA VIEW DR",JONESTOWN,TX,78645,,Owner,,,,,"YOUNGER HOMES",,,,,"YOUNGER HOMES","8121 BREEZE WAY",JONESTOWN,TX,78645-9643,"(512) 815-2297",https://www.younger-homes.com,,,hello@younger-homes.com
TX,TRAVIS,20-27123,"Single Family Homes",12/22/2020,,25000000,,"8510 GALEANA TRACE CV",AUSTIN,TX,78733,"CARRIAGE CROSSING",1,CONTRACTOR,,,,,,,,,,,"HOGAN LEGACY CORPORATION",,,,,"HOGAN LEGACY CORPORATION","702 CHURCHILL FARMS DR",GEORGETOWN,TX,78626,"(512) 998-6838",,,"CHERIE HOGAN",
TX,TRAVIS,2020-1953,"Single Family Homes",12/23/2020,,420945,4431,"18700 EXPEDITION TR",JONESTOWN,TX,78645,,,CONTRACTOR,,,,,,,,,,,"GIDDENS HOMES",,,,,"GIDDENS HOMES","3001 CRYSTAL FALLS PKWY",LEANDER,TX,78641-2861,"(800) 644-9083",https://www.giddenshomes.com/,,,
TX,TRAVIS,20-31334,"Single Family Homes",12/7/2020,,140000,,"6413 CONESTOGA WAGON WAY","DEL VALLE",TX,78640,"ROSS ROAD",9,CONTRACTOR,,,,,,,,,,,"KB HOME",,,,,"KB HOME","10800 PECAN PARK BLVD STE 200",AUSTIN,TX,78750-1249,"(512) 651-8100",,,,
TX,TRAVIS,20-31335,"Single Family Homes",12/7/2020,,415000,,"7505 COLIBRI DR",AUSTIN,TX,78738,PROVENCE,26,CONTRACTOR,,,,,,,,,,,"DREES CUSTOM HOMES",,,,,"DREES CUSTOM HOMES","7300 RANCH ROAD 2222 BLDG 2 STE 250",AUSTIN,TX,78730-3204,"(512) 241-7100",http://www.dreeshomes.com,,,
TX,TRAVIS,20-26764,"Single Family Homes",12/18/2020,,650000,,"8216 BELLANCIA DR",AUSTIN,TX,78738,BELVEDERE,41,CONTRACTOR,,,,,,,,,,,"PAUL SWOYER SEPTICS",,,,,"PAUL SWOYER SEPTICS","23011 FM306","CANYON LAKE",TX,78133,"(830) 935-4936",,,,
TX,TRAVIS,20-31370,"Single Family Homes",12/7/2020,,196299,,"7609 PARULINE DR",AUSTIN,TX,78738,PROVENCE,18,CONTRACTOR,,,,,,,,,,,"ASHTON WOODS HOMES",,,,,"ASHTON WOODS HOMES","4201 W PARMER LN STE A150",AUSTIN,TX,78727-4118,"(512) 610-7000",,,,
TX,TRAVIS,20-31163,"Single Family Homes",12/7/2020,,155000,,"11737 LAGO DE GARDA DR",AUSTIN,TX,78747,"BELLA FORTUNA",1,CONTRACTOR,,,,,,,,,,,"BROHN HOMES",,,,,"BROHN HOMES","6720 VAUGHT RANCH RD STE 200",AUSTIN,TX,78730-2354,"(512) 320-8833",http://brohnhomes.com/,,,
TX,TRAVIS,20-31373,"Single Family Homes",12/7/2020,,440990,,"3200 MAYSILEE ST",AUSTIN,TX,78728,"PRESTON PARK",27,CONTRACTOR,,,,,,,,,,,"PULTE HOMES",,,,,"PULTE HOMES","9401 AMBERGLEN BLVD STE I-150",AUSTIN,TX,78729-1154,"(512) 561-4344",,,,
TX,TRAVIS,20-31374,"Single Family Homes",12/7/2020,,375000,,"8324 LOOKSEE LN",AUSTIN,TX,78744,"EASTON PARK",3,CONTRACTOR,,,,,,,,,,,"DAVID WEEKLEY HOMES",,,,,"DAVID WEEKLEY HOMES","9000 WATERFORD CENTRE BLVD",AUSTIN,TX,78758-7662,"(800) 390-6774",http://www.davidweekleyhomes.com/,,,
TX,TRAVIS,20-31357,"Single Family Homes",12/8/2020,,235000,,"13804 ELEANOR ROOSEVELT ST",MANOR,TX,78653,"PRESIDENTIAL MEADOWS",2,CONTRACTOR,,,,,,,,,,,"KB HOME",,,,,"KB HOME","10800 PECAN PARK BLVD STE 200",AUSTIN,TX,78750-1249,"(512) 651-8100",,,,
TX,TRAVIS,20-31358,"Single Family Homes",12/8/2020,,135000,,"19313 JAMES CARTER JR ST",MANOR,TX,78653,"PRESIDENTIAL MEADOWS",11,CONTRACTOR,,,,,,,,,,,"KB HOME",,,,,"KB HOME","10800 PECAN PARK BLVD STE 200",AUSTIN,TX,78750-1249,"(512) 651-8100",,,,
TX,TRAVIS,20-31362,"Single Family Homes",12/7/2020,,291720,,"8404 SKYTEX ST",AUSTIN,TX,78744,"MIRABEL PARK",18,CONTRACTOR,,,,,,,,,,,"BROOKFIELD RESIDENTIAL PROPERTIES",,,,,"BROOKFIELD RESIDENTIAL PROPERTIES","11501 ALTERRA PKWY STE 100",AUSTIN,TX,78758-3201,"(512) 391-1330",,,,
TX,TRAVIS,20-31401,"Single Family Homes",12/8/2020,,258516,,"212 TANGLED BRUSH DR",MANCHACA,TX,78652,"BEAR CREEK CROSSING",33,CONTRACTOR,,,,,,,,,,,"M/I HOMES",,,,,"M/I HOMES","6801 N CAPITAL OF TEXAS HWY BLDG 2 STE 100",AUSTIN,TX,78731-1780,"(512) 770-8500",,,,
TX,TRAVIS,20-31404,"Single Family Homes",12/8/2020,,457990,,"18012 LECCION",PFLUGERVILLE,TX,78660,SORENTO,19,CONTRACTOR,,,,,,,,,,,"GEHAN HOMES",,,,,"GEHAN HOMES","3815 S CAPITAL OF TEXAS HWY STE 275",AUSTIN,TX,78704-6652,"(512) 330-9366",http://www.gehanhomes.com,,"JANET PHILLIPS",
TX,TRAVIS,20-31407,"Single Family Homes",12/8/2020,,450990,,"18008 LECCION DR",PFLUGERVILLE,TX,78660,SORENTO,20,CONTRACTOR,,,,,,,,,,,"GEHAN HOMES",,,,,"GEHAN HOMES","3815 S CAPITAL OF TEXAS HWY STE 275",AUSTIN,TX,78704-6652,"(512) 330-9366",http://www.gehanhomes.com,,"JANET PHILLIPS",
TX,TRAVIS,20-31408,"Single Family Homes",12/8/2020,,408990,,"7913 CORRIGAN PASS",AUSTIN,TX,78744,"MIRABEL PARK",11,CONTRACTOR,,,,,,,,,,,"TAYLOR MORRISON OF TEXAS",,,,,"TAYLOR MORRISON OF TEXAS","11200 LAKELINE BLVD STE 150A",AUSTIN,TX,78717-5964,"(512) 328-8866",,"(512) 328-7988",,
TX,TRAVIS,20-31409,"Single Family Homes",12/8/2020,,167625,,"5901 ALAMOSA CLEARING",AUSTIN,TX,78738,"SWEETWATER RANCH VILLAGE",24,CONTRACTOR,,,,,,,,,,,"LENNAR HOMES",,,,,"LENNAR HOMES","13620 FM 620 RD 150",AUSTIN,TX,78717,"(512) 506-4000",http://www.lennar.com/,,,
TX,TRAVIS,20-31363,"Single Family Homes",12/7/2020,,285840,,"9104 SPIRE VIEW",AUSTIN,TX,78744,"MIRABEL PARK",18,CONTRACTOR,,,,,,,,,,,"BROOKFIELD RESIDENTIAL PROPERTIES",,,,,"BROOKFIELD RESIDENTIAL PROPERTIES","11501 ALTERRA PKWY STE 100",AUSTIN,TX,78758-3201,"(512) 391-1330",,,,
TX,TRAVIS,20-31364,"Single Family Homes",12/7/2020,,375000,,"8108 SPIRE VIEW",AUSTIN,TX,78744,"EASTON PARK",13,CONTRACTOR,,,,,,,,,,,"DAVID WEEKLEY HOMES",,,,,"DAVID WEEKLEY HOMES","9000 WATERFORD CENTRE BLVD",AUSTIN,TX,78758-7662,"(800) 390-6774",http://www.davidweekleyhomes.com/,,,
TX,TRAVIS,20-31359,"Single Family Homes",12/8/2020,,174000,,"19421 JAMES CARTER JR ST",MANOR,TX,78653,"PRESIDENTIAL MEADOWS",20,CONTRACTOR,,,,,,,,,,,"KB HOME",,,,,"KB HOME","10800 PECAN PARK BLVD STE 200",AUSTIN,TX,78750-1249,"(512) 651-8100",,,,
TX,TRAVIS,20-31365,"Single Family Homes",12/7/2020,,375000,,"8117 SPIRE VIEW",AUSTIN,TX,78744,"EASTON PARK",10,CONTRACTOR,,,,,,,,,,,"DAVID WEEKLEY HOMES",,,,,"DAVID WEEKLEY HOMES","9000 WATERFORD CENTRE BLVD",AUSTIN,TX,78758-7662,"(800) 390-6774",http://www.davidweekleyhomes.com/,,,
TX,TRAVIS,20-31367,"Single Family Homes",12/7/2020,,311080,,"8412 HUBBLE WALK",AUSTIN,TX,78744,"MIRABEL PARK",16,CONTRACTOR,,,,,,,,,,,"BROOKFIELD RESIDENTIAL PROPERTIES",,,,,"BROOKFIELD RESIDENTIAL PROPERTIES","11501 ALTERRA PKWY STE 100",AUSTIN,TX,78758-3201,"(512) 391-1330",,,,
TX,TRAVIS,20-31368,"Single Family Homes",12/7/2020,,313770,,"8204 HUBBLE WALK",AUSTIN,TX,78744,"MIRABEL PARK",2,CONTRACTOR,,,,,,,,,,,"BROOKFIELD RESIDENTIAL PROPERTIES",,,,,"BROOKFIELD RESIDENTIAL PROPERTIES","11501 ALTERRA PKWY STE 100",AUSTIN,TX,78758-3201,"(512) 391-1330",,,,
TX,TRAVIS,20-31378,"Single Family Homes",12/7/2020,,375000,,"8212 ORIZZONTE ST",AUSTIN,TX,78744,"EASTON PARK",11,CONTRACTOR,,,,,,,,,,,"DAVID WEEKLEY HOMES",,,,,"DAVID WEEKLEY HOMES","9000 WATERFORD CENTRE BLVD",AUSTIN,TX,78758-7662,"(800) 390-6774",http://www.davidweekleyhomes.com/,,,
TX,TRAVIS,20-31377,"Single Family Homes",12/8/2020,,196940,,"308 BUFFALO RIDGE DR",MANCHACA,TX,78652,"BEAR CREEK CROSSING",57,CONTRACTOR,,,,,,,,,,,"M/I HOMES",,,,,"M/I HOMES","6801 N CAPITAL OF TEXAS HWY BLDG 2 STE 100",AUSTIN,TX,78731-1780,"(512) 770-8500",,,,
TX,TRAVIS,20-31369,"Single Family Homes",12/7/2020,,191730,,"3517 FINNY LN",PFLUGERVILLE,TX,78660,"LAKESIDE AT BLACKHAWK",18,CONTRACTOR,,,,,,,,,,,"SCOTT FELDER HOMES",,,,,"SCOTT FELDER HOMES","6414 RIVER PLACE BLVD STE 100",AUSTIN,TX,78730-1158,"(512) 418-5400",,,,
TX,TRAVIS,20-31390,"Single Family Homes",12/8/2020,,288463,,"20916 BROOKLYNN MELISSA DR",PFLUGERVILLE,TX,78660,"PARK AT BLACKHAWK",12,CONTRACTOR,,,,,,,,,,,"EHT OF TEXAS LP",,,,,"EHT OF TEXAS LP","3520 EXECUTIVE CENTER DR STE 100",AUSTIN,TX,78731-1636,"(757) 287-6394",,,,
TX,TRAVIS,20-31391,"Single Family Homes",12/8/2020,,346024,,"20909 AKBASH LN",PFLUGERVILLE,TX,78660,"PARK AT BLACKHAWK",6,CONTRACTOR,,,,,,,,,,,"EHT OF TEXAS LP",,,,,"EHT OF TEXAS LP","3520 EXECUTIVE CENTER DR STE 100",AUSTIN,TX,78731-1636,"(757) 287-6394",,,,
TX,TRAVIS,20-31433,"Single Family Homes",12/21/2020,,110160,,"6303 PRINCIPALE DR UNIT 214",PFLUGERVILLE,TX,78660,SORENTO,,CONTRACTOR,,,,,,,,,,,"PACESETTER HOMES ",,,,,"PACESETTER HOMES ","7940 SHOAL CREEK BLVD STE 200",AUSTIN,TX,78757-7587,"(512) 323-5252",,,,
TX,TRAVIS,20-31434,"Single Family Homes",12/21/2020,,89148,,"17906 PAPAVERI WAY UNIT 185",PFLUGERVILLE,TX,78660,SORENTO,,CONTRACTOR,,,,,,,,,,,"PACESETTER HOMES ",,,,,"PACESETTER HOMES ","7940 SHOAL CREEK BLVD STE 200",AUSTIN,TX,78757-7587,"(512) 323-5252",,,,
TX,TRAVIS,20-31436,"Single Family Homes",12/21/2020,,80920,,"17907 PAPAVERI WAY UNIT 210",PFLUGERVILLE,TX,78660,SORENTO,,CONTRACTOR,,,,,,,,,,,"PACESETTER HOMES ",,,,,"PACESETTER HOMES ","7940 SHOAL CREEK BLVD STE 200",AUSTIN,TX,78757-7587,"(512) 323-5252",,,,
TX,TRAVIS,20-31437,"Single Family Homes",12/21/2020,,145588,,"6113 PRINCIPALE DR UNIT 223",PFLUGERVILLE,TX,78660,SORENTO,,CONTRACTOR,,,,,,,,,,,"PACESETTER HOMES ",,,,,"PACESETTER HOMES ","7940 SHOAL CREEK BLVD STE 200",AUSTIN,TX,78757-7587,"(512) 323-5252",,,,
TX,TRAVIS,20-31438,"Single Family Homes",12/21/2020,,110160,,"6111 PRINCIPALE DR UNIT 223",PFLUGERVILLE,TX,78660,SORENTO,,CONTRACTOR,,,,,,,,,,,"PACESETTER HOMES ",,,,,"PACESETTER HOMES ","7940 SHOAL CREEK BLVD STE 200",AUSTIN,TX,78757-7587,"(512) 323-5252",,,,
TX,TRAVIS,20-31439,"Single Family Homes",12/21/2020,,144840,,"6102 PRINCIPALE DR UNIT 153",PFLUGERVILLE,TX,78660,SORENTO,,CONTRACTOR,,,,,,,,,,,"PACESETTER HOMES ",,,,,"PACESETTER HOMES ","7940 SHOAL CREEK BLVD STE 200",AUSTIN,TX,78757-7587,"(512) 323-5252",,,,
TX,TRAVIS,20-31440,"Single Family Homes",12/21/2020,,80920,,"17923 PAPAVERI WAY UNIT 202",PFLUGERVILLE,TX,78660,,,CONTRACTOR,,,,,,,,,,,"PACESETTER HOMES ",,,,,"PACESETTER HOMES ","7940 SHOAL CREEK BLVD STE 200",AUSTIN,TX,78757-7587,"(512) 323-5252",,,,
TX,TRAVIS,20-31164,"Single Family Homes",12/7/2020,,145000,,"11733 LAGO DE GARDA DR",AUSTIN,TX,78747,"BELLA FORTUNA",2,CONTRACTOR,,,,,,,,,,,"BROHN HOMES",,,,,"BROHN HOMES","6720 VAUGHT RANCH RD STE 200",AUSTIN,TX,78730-2354,"(512) 320-8833",http://brohnhomes.com/,,,
TX,TRAVIS,20-31165,"Single Family Homes",12/7/2020,,165000,,"11729 LAGO DE GARDA",AUSTIN,TX,78747,"BELLA FORTUNA",3,CONTRACTOR,,,,,,,,,,,"BROHN HOMES",,,,,"BROHN HOMES","6720 VAUGHT RANCH RD STE 200",AUSTIN,TX,78730-2354,"(512) 320-8833",http://brohnhomes.com/,,,
TX,TRAVIS,20-31166,"Single Family Homes",12/7/2020,,185000,,"11725 LAGO DE GARDA",AUSTIN,TX,78747,"BELLA FORTUNA",4,CONTRACTOR,,,,,,,,,,,"BROHN HOMES",,,,,"BROHN HOMES","6720 VAUGHT RANCH RD STE 200",AUSTIN,TX,78730-2354,"(512) 320-8833",http://brohnhomes.com/,,,
TX,TRAVIS,20-31167,"Single Family Homes",12/7/2020,,145000,,"11721 LAGO DE GARDA",AUSTIN,TX,78747,"BELLA FORTUNA",,CONTRACTOR,,,,,,,,,,,"BROHN HOMES",,,,,"BROHN HOMES","6720 VAUGHT RANCH RD STE 200",AUSTIN,TX,78730-2354,"(512) 320-8833",http://brohnhomes.com/,,,
TX,TRAVIS,20-31168,"Single Family Homes",12/7/2020,,150000,,"11717 LAGO DE GARDA",AUSTIN,TX,78747,"BELLA FORTUNA",6,CONTRACTOR,,,,,,,,,,,"BROHN HOMES",,,,,"BROHN HOMES","6720 VAUGHT RANCH RD STE 200",AUSTIN,TX,78730-2354,"(512) 320-8833",http://brohnhomes.com/,,,
TX,TRAVIS,20-31169,"Single Family Homes",12/7/2020,,170000,,"11713 LAGO DE GARDA",AUSTIN,TX,78747,"BELLA FORTUNA",7,CONTRACTOR,,,,,,,,,,,"BROHN HOMES",,,,,"BROHN HOMES","6720 VAUGHT RANCH RD STE 200",AUSTIN,TX,78730-2354,"(512) 320-8833",http://brohnhomes.com/,,,
TX,TRAVIS,20-31170,"Single Family Homes",12/7/2020,,145000,,"11709 LAGO DE GARDA",AUSTIN,TX,78747,"BELLA FORTUNA",8,CONTRACTOR,,,,,,,,,,,"BROHN HOMES",,,,,"BROHN HOMES","6720 VAUGHT RANCH RD STE 200",AUSTIN,TX,78730-2354,"(512) 320-8833",http://brohnhomes.com/,,,
TX,TRAVIS,20-31171,"Single Family Homes",12/7/2020,,150000,,"11629 LAGO DE GARDA",AUSTIN,TX,78747,"BELLA FORTUNA",12,CONTRACTOR,,,,,,,,,,,"BROHN HOMES",,,,,"BROHN HOMES","6720 VAUGHT RANCH RD STE 200",AUSTIN,TX,78730-2354,"(512) 320-8833",http://brohnhomes.com/,,,
TX,TRAVIS,20-31172,"Single Family Homes",12/7/2020,,185000,,"11517 LAGO DE GARDA",AUSTIN,TX,78747,"BELLA FORTUNA",25,CONTRACTOR,,,,,,,,,,,"BROHN HOMES",,,,,"BROHN HOMES","6720 VAUGHT RANCH RD STE 200",AUSTIN,TX,78730-2354,"(512) 320-8833",http://brohnhomes.com/,,,
TX,TRAVIS,20-31175,"Single Family Homes",12/7/2020,,160000,,"5612 CORSO CT",AUSTIN,TX,78747,"BELLA FORTUNA",25,CONTRACTOR,,,,,,,,,,,"BROHN HOMES",,,,,"BROHN HOMES","6720 VAUGHT RANCH RD STE 200",AUSTIN,TX,78730-2354,"(512) 320-8833",http://brohnhomes.com/,,,
TX,TRAVIS,20-31392,"Single Family Homes",12/22/2020,,324735,,"20913 AKBASH LN",PFLUGERVILLE,TX,78660,"PARK AT BLACKHAWK",5,CONTRACTOR,,,,,,,,,,,"EHT OF TEXAS LP",,,,,"EHT OF TEXAS LP","3520 EXECUTIVE CENTER DR STE 100",AUSTIN,TX,78731-1636,"(757) 287-6394",,,,
TX,TRAVIS,20-31160,"Single Family Homes",12/7/2020,,150000,,"5620 RESPINTO DR",AUSTIN,TX,78747,"BELLA FORTUNA",47,CONTRACTOR,,,,,,,,,,,"BROHN HOMES",,,,,"BROHN HOMES","6720 VAUGHT RANCH RD STE 200",AUSTIN,TX,78730-2354,"(512) 320-8833",http://brohnhomes.com/,,,
TX,TRAVIS,20-31348,"Single Family Homes",12/8/2020,,205000,,"14320 SILVER LACE LN",PFLUGERVILLE,TX,78660,"VILLAGE AT NORTHTOWN",5,CONTRACTOR,,,,,,,,,,,"KB HOME",,,,,"KB HOME","10800 PECAN PARK BLVD STE 200",AUSTIN,TX,78750-1249,"(512) 651-8100",,,,
TX,TRAVIS,20-31347,"Single Family Homes",12/8/2020,,247000,,"14316 SILVER LACE LN",PFLUGERVILLE,TX,78660,"VILLAGE AT NORTHTOWN",3,CONTRACTOR,,,,,,,,,,,"KB HOME",,,,,"KB HOME","10800 PECAN PARK BLVD STE 200",AUSTIN,TX,78750-1249,"(512) 651-8100",,,,
TX,TRAVIS,20-31161,"Single Family Homes",12/3/2020,,350000,,"18505 EMPRESA PL",AUSTIN,TX,78738,"SWEETWATER RANCH VILLAGE",56,CONTRACTOR,,,,,,,,,,,"PERRY HOMES",,,,,"PERRY HOMES","6112 LLANO ST",AUSTIN,TX,78702,"(512) 810-8050",,,,
TX,TRAVIS,20-31352,"Single Family Homes",12/8/2020,,191000,,"14306 HONEY GEM DR",PFLUGERVILLE,TX,78660,"VILLAGE AT NORTHTOWN",38,CONTRACTOR,,,,,,,,,,,"KB HOME",,,,,"KB HOME","10800 PECAN PARK BLVD STE 200",AUSTIN,TX,78750-1249,"(512) 651-8100",,,,
TX,TRAVIS,20-31379,"Single Family Homes",12/7/2020,,300000,,"9613 LIGHTHEARTED DR",MANOR,TX,78653,"WHISPER VALLEY VILLAGE",8,CONTRACTOR,,,,,,,,,,,"AHA DREAM HOMES",,,,,"AHA DREAM HOMES","10217 WIND CAVE TRL",AUSTIN,TX,78747-2696,"(512) 535-7343",http://www.ahadreamhomes.com,"(866) 204-4269",,info@ahadreamhomes.com
TX,TRAVIS,20-31441,"Single Family Homes",12/21/2020,,144840,,"6014 PRINCIPALE DR UNIT 150",PFLUGERVILLE,TX,78660,SORENTO,,CONTRACTOR,,,,,,,,,,,"PACESETTER HOMES ",,,,,"PACESETTER HOMES ","7940 SHOAL CREEK BLVD STE 200",AUSTIN,TX,78757-7587,"(512) 323-5252",,,,
TX,TRAVIS,20-31393,"Single Family Homes",12/7/2020,,342024,,"4412 KINGS CROSS RD",PFLUGERVILLE,TX,78660,"PARK AT BLACKHAWK",5,CONTRACTOR,,,,,,,,,,,"EHT OF TEXAS LP",,,,,"EHT OF TEXAS LP","3520 EXECUTIVE CENTER DR STE 100",AUSTIN,TX,78731-1636,"(757) 287-6394",,,,
TX,TRAVIS,20-31394,"Single Family Homes",12/22/2020,,327235,,"20913 CARRIES RANCH RD",PFLUGERVILLE,TX,78660,"PARK AT BLACKHAWK",4,CONTRACTOR,,,,,,,,,,,"EHT OF TEXAS LP",,,,,"EHT OF TEXAS LP","3520 EXECUTIVE CENTER DR STE 100",AUSTIN,TX,78731-1636,"(757) 287-6394",,,,
TX,TRAVIS,20-31395,"Single Family Homes",12/22/2020,,364822,,"21017 BROOKLYNN MELISSA DR",PFLUGERVILLE,TX,78660,"PARK AT BLACKHAWK",22,CONTRACTOR,,,,,,,,,,,"EHT OF TEXAS LP",,,,,"EHT OF TEXAS LP","3520 EXECUTIVE CENTER DR STE 100",AUSTIN,TX,78731-1636,"(757) 287-6394",,,,
TX,TRAVIS,20-31396,"Single Family Homes",12/23/2020,,347624,,"21104 BROOKLYNN MELISSA DR",PFLUGERVILLE,TX,78660,"PARK AT BLACKHAWK",,CONTRACTOR,,,,,,,,,,,"EHT OF TEXAS LP",,,,,"EHT OF TEXAS LP","3520 EXECUTIVE CENTER DR STE 100",AUSTIN,TX,78731-1636,"(757) 287-6394",,,,
TX,TRAVIS,20-31432,"Single Family Homes",12/21/2020,,110160,,"6101 PRINCIPALE DR UNIT 228",PFLUGERVILLE,TX,78660,SORENTO,,CONTRACTOR,,,,,,,,,,,"PACESETTER HOMES ",,,,,"PACESETTER HOMES ","7940 SHOAL CREEK BLVD STE 200",AUSTIN,TX,78757-7587,"(512) 323-5252",,,,
TX,TRAVIS,20-31422,"Single Family Homes",12/17/2020,,450000,,"3105 COYOTE CT",AUSTIN,TX,78734,"APACHE SHORES",13,CONTRACTOR,,,,,,,,,,,"DELCON ENVIRONMENTAL SYSTEMS",,,,,"DELCON ENVIRONMENTAL SYSTEMS","12713 MAJESTIC OAKS DR",AUSTIN,TX,78732-2001,"(512) 583-1397",,,"DERRICK LORMAND",
TX,TRAVIS,20-31423,"Single Family Homes",12/17/2020,,300000,,"3143 CHISHOLM TRL",AUSTIN,TX,78734,"APACHE SHORES",185,CONTRACTOR,,,,,,,,,,,"DELCON ENVIRONMENTAL SYSTEMS",,,,,"DELCON ENVIRONMENTAL SYSTEMS","12713 MAJESTIC OAKS DR",AUSTIN,TX,78732-2001,"(512) 583-1397",,,"DERRICK LORMAND",
TX,TRAVIS,20-31424,"Single Family Homes",12/17/2020,,400000,,"3145 CHISHOLM TRL",AUSTIN,TX,78734,"APACHE SHORES",186,CONTRACTOR,,,,,,,,,,,"DELCON ENVIRONMENTAL SYSTEMS",,,,,"DELCON ENVIRONMENTAL SYSTEMS","12713 MAJESTIC OAKS DR",AUSTIN,TX,78732-2001,"(512) 583-1397",,,"DERRICK LORMAND",
TX,TRAVIS,20-31425,"Single Family Homes",12/21/2020,,85136,,"17911 PAPAVERI WAY UNIT 208",PFLUGERVILLE,TX,78660,SORENTO,,CONTRACTOR,,,,,,,,,,,"PACESETTER HOMES ",,,,,"PACESETTER HOMES ","7940 SHOAL CREEK BLVD STE 200",AUSTIN,TX,78757-7587,"(512) 323-5252",,,,
TX,TRAVIS,20-31426,"Single Family Homes",12/21/2020,,89896,,"17919 PAPAVERI WAY UNIT 204",PFLUGERVILLE,TX,78660,SORENTO,,CONTRACTOR,,,,,,,,,,,"PACESETTER HOMES ",,,,,"PACESETTER HOMES ","7940 SHOAL CREEK BLVD STE 200",AUSTIN,TX,78757-7587,"(512) 323-5252",,,,
TX,TRAVIS,20-31427,"Single Family Homes",12/21/2020,,89896,,"17913 PAPAVERI WAY UNIT 207",PFLUGERVILLE,TX,78660,SORENTO,,CONTRACTOR,,,,,,,,,,,"PACESETTER HOMES ",,,,,"PACESETTER HOMES ","7940 SHOAL CREEK BLVD STE 200",AUSTIN,TX,78757-7587,"(512) 323-5252",,,,
TX,TRAVIS,20-31472,"Single Family Homes",12/8/2020,,198000,,"7315 ACELA TRL",AUSTIN,TX,78744,"EASTON PARK",200,CONTRACTOR,,,,,,,,,,,"MERITAGE HOMES",,,,,"MERITAGE HOMES","8920 BUSINESS PARK DR STE 250",AUSTIN,TX,78759-7622,"(512) 610-4800",,,,
TX,TRAVIS,20-31473,"Single Family Homes",12/8/2020,,212520,,"7313 ACELA TRL",AUSTIN,TX,78744,"EASTON PARK",3,CONTRACTOR,,,,,,,,,,,"MERITAGE HOMES",,,,,"MERITAGE HOMES","8920 BUSINESS PARK DR STE 250",AUSTIN,TX,78759-7622,"(512) 610-4800",,,,
TX,TRAVIS,20-31474,"Single Family Homes",12/8/2020,,233040,,"7311 ACELA TRL",AUSTIN,TX,78744,"EASTON PARK",202,CONTRACTOR,,,,,,,,,,,"MERITAGE HOMES",,,,,"MERITAGE HOMES","8920 BUSINESS PARK DR STE 250",AUSTIN,TX,78759-7622,"(512) 610-4800",,,,
TX,TRAVIS,20-31475,"Single Family Homes",12/8/2020,,246240,,"7310 ACELA TRL",AUSTIN,TX,78744,"EASTON PARK",209,CONTRACTOR,,,,,,,,,,,"MERITAGE HOMES",,,,,"MERITAGE HOMES","8920 BUSINESS PARK DR STE 250",AUSTIN,TX,78759-7622,"(512) 610-4800",,,,
TX,TRAVIS,20-31476,"Single Family Homes",12/8/2020,,212520,,"7312 ACELA TRL",AUSTIN,TX,78744,"EASTON PARK",210,CONTRACTOR,,,,,,,,,,,"MERITAGE HOMES",,,,,"MERITAGE HOMES","8920 BUSINESS PARK DR STE 250",AUSTIN,TX,78759-7622,"(512) 610-4800",,,,
TX,TRAVIS,20-31478,"Single Family Homes",12/8/2020,,212520,,"7316 ACELA TRL",AUSTIN,TX,78744,"EASTON PARK",212,CONTRACTOR,,,,,,,,,,,"MERITAGE HOMES",,,,,"MERITAGE HOMES","8920 BUSINESS PARK DR STE 250",AUSTIN,TX,78759-7622,"(512) 610-4800",,,,
TX,TRAVIS,20-31479,"Single Family Homes",12/8/2020,,198000,,"7318 ACELA TRL",AUSTIN,TX,78744,"EASTON PARK",213,CONTRACTOR,,,,,,,,,,,"MERITAGE HOMES",,,,,"MERITAGE HOMES","8920 BUSINESS PARK DR STE 250",AUSTIN,TX,78759-7622,"(512) 610-4800",,,,
TX,TRAVIS,20-31480,"Single Family Homes",12/8/2020,,212520,,"7400 ACELA TRL",AUSTIN,TX,78744,"EASTON PARK",3,CONTRACTOR,,,,,,,,,,,"MERITAGE HOMES",,,,,"MERITAGE HOMES","8920 BUSINESS PARK DR STE 250",AUSTIN,TX,78759-7622,"(512) 610-4800",,,,
TX,TRAVIS,20-31481,"Single Family Homes",12/8/2020,,233040,,"7402 ACELA TRL",AUSTIN,TX,78744,"EASTON PARK",215,CONTRACTOR,,,,,,,,,,,"MERITAGE HOMES",,,,,"MERITAGE HOMES","8920 BUSINESS PARK DR STE 250",AUSTIN,TX,78759-7622,"(512) 610-4800",,,,
TX,TRAVIS,20-31482,"Single Family Homes",12/8/2020,,246240,,"7404 ACELA TRL",AUSTIN,TX,78744,"EASTON PARK",216,CONTRACTOR,,,,,,,,,,,"MERITAGE HOMES",,,,,"MERITAGE HOMES","8920 BUSINESS PARK DR STE 250",AUSTIN,TX,78759-7622,"(512) 610-4800",,,,
TX,TRAVIS,20-31428,"Single Family Homes",12/21/2020,,85136,,"17914 ORCHIDEA WAY UNIT 161",PFLUGERVILLE,TX,78660,SORENTO,,CONTRACTOR,,,,,,,,,,,"PACESETTER HOMES ",,,,,"PACESETTER HOMES ","7940 SHOAL CREEK BLVD STE 200",AUSTIN,TX,78757-7587,"(512) 323-5252",,,,
TX,TRAVIS,20-31429,"Single Family Homes",12/21/2020,,114172,,"17922 ORCHIDEA WAY UNIT 165",PFLUGERVILLE,TX,78660,SORENTO,,CONTRACTOR,,,,,,,,,,,"PACESETTER HOMES ",,,,,"PACESETTER HOMES ","7940 SHOAL CREEK BLVD STE 200",AUSTIN,TX,78757-7587,"(512) 323-5252",,,,
TX,TRAVIS,20-31430,"Single Family Homes",12/21/2020,,127024,,"17910 ORCHIDEA WAY UNIT 159",PFLUGERVILLE,TX,78660,SORENTO,,CONTRACTOR,,,,,,,,,,,"PACESETTER HOMES ",,,,,"PACESETTER HOMES ","7940 SHOAL CREEK BLVD STE 200",AUSTIN,TX,78757-7587,"(512) 323-5252",,,,
TX,TRAVIS,20-31431,"Single Family Homes",12/21/2020,,110160,,"5917 PRINCIPALE DR UNIT 122",PFLUGERVILLE,TX,78660,SORENTO,,CONTRACTOR,,,,,,,,,,,"PACESETTER HOMES ",,,,,"PACESETTER HOMES ","7940 SHOAL CREEK BLVD STE 200",AUSTIN,TX,78757-7587,"(512) 323-5252",,,,
TX,TRAVIS,20-31448,"Single Family Homes",12/23/2020,,221325,,"5912 BRAHMIN CV",AUSTIN,TX,78724,"GILBERT LANE",28,CONTRACTOR,,,,,,,,,,,"DR HORTON",,,,,"DR HORTON","10700 PECAN PARK BLVD STE 400",AUSTIN,TX,78750-1227,"(512) 345-4663",,,,
TX,TRAVIS,20-31177,"Single Family Homes",12/28/2020,,2000000,,"5617 LACEBACK TER",AUSTIN,TX,78738,"SPANISH OAKS",156,CONTRACTOR,,,,,,,,,,,"EPPRIGHT HOMES",,,,,"EPPRIGHT HOMES","13301 GALLERIA CIR # B175",AUSTIN,TX,78738-6434,"(512) 347-9956",http://epprighthomes.com/,"(512) 347-9966",,info@epprighthomes.com
TX,TRAVIS,20-31443,"Single Family Homes",12/8/2020,,200000,,"7620 ALOUETTE DR",AUSTIN,TX,78738,PROVENCE,6,CONTRACTOR,,,,,,,,,,,"ASHTON WOODS HOMES",,,,,"ASHTON WOODS HOMES","4201 W PARMER LN STE A150",AUSTIN,TX,78727-4118,"(512) 610-7000",,,,
TX,TRAVIS,20-31444,"Single Family Homes",12/8/2020,,233271,,"7621 ALOUETTE DR",AUSTIN,TX,78738,PROVENCE,14,CONTRACTOR,,,,,,,,,,,"ASHTON WOODS HOMES",,,,,"ASHTON WOODS HOMES","4201 W PARMER LN STE A150",AUSTIN,TX,78727-4118,"(512) 610-7000",,,,
TX,TRAVIS,20-31445,"Single Family Homes",12/22/2020,,200000,,"7632 ALOUOETTE DR",AUSTIN,TX,78738,PROVENCE,9,CONTRACTOR,,,,,,,,,,,"ASHTON WOODS HOMES",,,,,"ASHTON WOODS HOMES","4201 W PARMER LN STE A150",AUSTIN,TX,78727-4118,"(512) 610-7000",,,,
TX,TRAVIS,20-31446,"Single Family Homes",12/8/2020,,200000,,"7704 ALOUETTE DR",AUSTIN,TX,78738,PROVENCE,16,CONTRACTOR,,,,,,,,,,,"ASHTON WOODS HOMES",,,,,"ASHTON WOODS HOMES","4201 W PARMER LN STE A150",AUSTIN,TX,78727-4118,"(512) 610-7000",,,,
TX,TRAVIS,20-31447,"Single Family Homes",12/8/2020,,203000,,"7624 ALOUETTE DR",AUSTIN,TX,78738,PROVENCE,7,CONTRACTOR,,,,,,,,,,,"ASHTON WOODS HOMES",,,,,"ASHTON WOODS HOMES","4201 W PARMER LN STE A150",AUSTIN,TX,78727-4118,"(512) 610-7000",,,,
TX,TRAVIS,20-31450,"Single Family Homes",12/8/2020,,144711,,"20904 CARRIES RANCH RD",PFLUGERVILLE,TX,78660,"PARK AT BLACKHAWK",11,CONTRACTOR,,,,,,,,,,,"GFO HOME",,,,,"GFO HOME","6012 AVIATION DR # 200",PFLUGERVILLE,TX,78660-8960,"(512) 492-8640",https://www.gfohome.com,,,
TX,TRAVIS,20-31452,"Single Family Homes",12/23/2020,,168938,,"20921 CARRIES RANCH RD",PFLUGERVILLE,TX,78660,"PARK AT BLACKHAWK",2,CONTRACTOR,,,,,,,,,,,"GFO HOME",,,,,"GFO HOME","6012 AVIATION DR # 200",PFLUGERVILLE,TX,78660-8960,"(512) 492-8640",https://www.gfohome.com,,,
TX,TRAVIS,20-31453,"Single Family Homes",12/8/2020,,157500,,"21001 CARRIES RANCH RD",PFLUGERVILLE,TX,78660,"PARK AT BLACKHAWK",3,CONTRACTOR,,,,,,,,,,,"GFO HOME",,,,,"GFO HOME","6012 AVIATION DR # 200",PFLUGERVILLE,TX,78660-8960,"(512) 492-8640",https://www.gfohome.com,,,
TX,TRAVIS,20-31498,"Single Family Homes",12/8/2020,,408990,,"3024 LIONS TAIL ST",AUSTIN,TX,78728,"PRESTON PARK",13,CONTRACTOR,,,,,,,,,,,"PULTE HOMES",,,,,"PULTE HOMES","9401 AMBERGLEN BLVD STE I-150",AUSTIN,TX,78729-1154,"(512) 561-4344",,,,
TX,TRAVIS,20-31499,"Single Family Homes",12/23/2020,,269000,,"16517 FLUIR DR",AUSTIN,TX,78738,PROVENCE,12,CONTRACTOR,,,,,,,,,,,"ASHTON WOODS HOMES",,,,,"ASHTON WOODS HOMES","4201 W PARMER LN STE A150",AUSTIN,TX,78727-4118,"(512) 610-7000",,,,
TX,TRAVIS,20-31549,"Single Family Homes",12/8/2020,,183352,,"12901 WINDY GAP DR",MANCHACA,TX,78652,"BEAR CREEK CROSSING",20,CONTRACTOR,,,,,,,,,,,"M/I HOMES",,,,,"M/I HOMES","6801 N CAPITAL OF TEXAS HWY BLDG 2 STE 100",AUSTIN,TX,78731-1780,"(512) 770-8500",,,,
TX,TRAVIS,20-31550,"Single Family Homes",12/8/2020,,246200,,"7009 EMPRESA DR",AUSTIN,TX,78738,"SWEETWATER RANCH",15,CONTRACTOR,,,,,,,,,,,"M/I HOMES",,,,,"M/I HOMES","6801 N CAPITAL OF TEXAS HWY BLDG 2 STE 100",AUSTIN,TX,78731-1780,"(512) 770-8500",,,,
TX,TRAVIS,20-31553,"Single Family Homes",12/8/2020,,158240,,"12905 WINDY GAP DR",MANCHACA,TX,78652,"BEAR CREEK CROSSING",21,CONTRACTOR,,,,,,,,,,,"M/I HOMES",,,,,"M/I HOMES","6801 N CAPITAL OF TEXAS HWY BLDG 2 STE 100",AUSTIN,TX,78731-1780,"(512) 770-8500",,,,
TX,TRAVIS,20-31523,"Single Family Homes",12/23/2020,,186282,,"20709 SETHS DR",PFLUGERVILLE,TX,78660,"PARK AT BLACKHAWK",2,CONTRACTOR,,,,,,,,,,,"GFO HOME",,,,,"GFO HOME","6012 AVIATION DR # 200",PFLUGERVILLE,TX,78660-8960,"(512) 492-8640",https://www.gfohome.com,,,
TX,TRAVIS,20-31524,"Single Family Homes",12/8/2020,,220794,,"3720 FIELDFARE DR",PFLUGERVILLE,TX,78660,"PARK AT BLACKHAWK",77,CONTRACTOR,,,,,,,,,,,"MHI MCGUYER HOMEBUILDERS",,,,,"MHI MCGUYER HOMEBUILDERS","8200 N MO PAC EXPY STE 300",AUSTIN,TX,78759-8844,"(512) 502-2050",,"(512) 388-1836","FRANK MCGUYER",
TX,TRAVIS,20-31525,"Single Family Homes",12/8/2020,,211000,,"7604 PARULINE DR",AUSTIN,TX,78738,PROVENCE,3,CONTRACTOR,,,,,,,,,,,"ASHTON WOODS HOMES",,,,,"ASHTON WOODS HOMES","4201 W PARMER LN STE A150",AUSTIN,TX,78727-4118,"(512) 610-7000",,,,
TX,TRAVIS,20-31526,"Single Family Homes",12/21/2020,,248325,,"6000 RODERICK DR",AUSTIN,TX,78724,"GILBERT LANE",24,CONTRACTOR,,,,,,,,,,,"DR HORTON",,,,,"DR HORTON","10700 PECAN PARK BLVD STE 400",AUSTIN,TX,78750-1227,"(512) 345-4663",,,,
TX,TRAVIS,20-31530,"Single Family Homes",12/8/2020,,138225,,"12209 PERRITOS PL UNIT 331",AUSTIN,TX,78748,"ENCLAVE AT ESTANCIA",,CONTRACTOR,,,,,,,,,,,"LENNAR HOMES",,,,,"LENNAR HOMES","13620 FM 620 RD 150",AUSTIN,TX,78717,"(512) 506-4000",http://www.lennar.com/,,,
TX,TRAVIS,20-31534,"Single Family Homes",12/8/2020,,163200,,"12211 PERRITOS PL UNIT 332",AUSTIN,TX,78748,"ENCLAVE AT ESTANCIA",,CONTRACTOR,,,,,,,,,,,"LENNAR HOMES",,,,,"LENNAR HOMES","13620 FM 620 RD 150",AUSTIN,TX,78717,"(512) 506-4000",http://www.lennar.com/,,,
TX,TRAVIS,20-31536,"Single Family Homes",12/8/2020,,316920,,"9709 ELOQUENCE DR",AUSTIN,TX,78653,"WHISPER VALLEY VILLAGE",9,CONTRACTOR,,,,,,,,,,,"BUFFINGTON TEXAS CLASSIC HOMES",,,,,"BUFFINGTON TEXAS CLASSIC HOMES","8601 RANCH ROAD 2222 PARK CENTRE BLDG STE 150",AUSTIN,TX,78730,"(512) 579-4800",,,,
TX,TRAVIS,20-31542,"Single Family Homes",12/8/2020,,174838,,"13317 ARBOR HILL CV",MANOR,TX,78653,SHADOWGLEN,55,CONTRACTOR,,,,,,,,,,,"M/I HOMES",,,,,"M/I HOMES","6801 N CAPITAL OF TEXAS HWY BLDG 2 STE 100",AUSTIN,TX,78731-1780,"(512) 770-8500",,,,
TX,TRAVIS,20-31543,"Single Family Homes",12/8/2020,,160000,,"4209 BIRDWATCH LOOP UNIT 11",PFLUGERVILLE,TX,78660,"JAKES HILL CONDOMINIUM",,CONTRACTOR,,,,,,,,,,,"BLACKBURN COMMUNITIES",,,,,"BLACKBURN COMMUNITIES","301 BRUSHY CREEK RD STE 108",PFLUGERVILLE,TX,78613,"(512) 401-3205",https://www.blackburnhomes.com/,,,info@blackburnhomes.com
TX,TRAVIS,20-31544,"Single Family Homes",12/8/2020,,132870,,"17308 CROWNDALE DR",MANOR,TX,78653,SHADOWGLEN,4,CONTRACTOR,,,,,,,,,,,"M/I HOMES",,,,,"M/I HOMES","6801 N CAPITAL OF TEXAS HWY BLDG 2 STE 100",AUSTIN,TX,78731-1780,"(512) 770-8500",,,,
TX,TRAVIS,20-31545,"Single Family Homes",12/8/2020,,136875,,"5309 WATUSI BEND UNIT 60",AUSTIN,TX,78732,STEINER,,CONTRACTOR,,,,,,,,,,,"LENNAR HOMES",,,,,"LENNAR HOMES","13620 FM 620 RD 150",AUSTIN,TX,78717,"(512) 506-4000",http://www.lennar.com/,,,
TX,TRAVIS,20-31505,"Single Family Homes",12/18/2020,,266000,,"19419 SUMMIT GLORY TRL UNIT 88",SPICEWOOD,TX,79556,"SUMMIT OF LAKE TRAVIS",88,CONTRACTOR,,,,,,,,,,,"WESTIN HOMES",,,,,"WESTIN HOMES","1 SUGAR CREEK CENTER BLVD STE 600","SUGAR LAND",TX,77478-3787,"(281) 240-1551",http://www.westin-homes.com,,,
TX,TRAVIS,20-31506,"Single Family Homes",12/21/2020,,253000,,"19405 SUMMIT GLORY TRL",SPICEWOOD,TX,79556,"SUMMIT OF LAKE TRAVIS",82,CONTRACTOR,,,,,,,,,,,"WESTIN HOMES",,,,,"WESTIN HOMES","1 SUGAR CREEK CENTER BLVD STE 600","SUGAR LAND",TX,77478-3787,"(281) 240-1551",http://www.westin-homes.com,,,
TX,TRAVIS,20-31515,"Single Family Homes",12/23/2020,,150000,,"16709 CHRISTINA GARZA DR",MANOR,TX,78653,SHADOWGLEN,2,CONTRACTOR,,,,,,,,,,,"PERRY HOMES",,,,,"PERRY HOMES","6112 LLANO ST",AUSTIN,TX,78702,"(512) 810-8050",,,,
TX,TRAVIS,20-31562,"Single Family Homes",12/8/2020,,224180,,"3508 FINNY LN",PFLUGERVILLE,TX,78660,"LAKESIDE AT BLACKHAWK",11,CONTRACTOR,,,,,,,,,,,"SCOTT FELDER HOMES",,,,,"SCOTT FELDER HOMES","6414 RIVER PLACE BLVD STE 100",AUSTIN,TX,78730-1158,"(512) 418-5400",,,,
TX,TRAVIS,20-31565,"Single Family Homes",12/8/2020,,219975,,"5305 WATUSI BEND UNIT 58",AUSTIN,TX,78732,STEINER,,CONTRACTOR,,,,,,,,,,,"LENNAR HOMES",,,,,"LENNAR HOMES","13620 FM 620 RD 150",AUSTIN,TX,78717,"(512) 506-4000",http://www.lennar.com/,,,
TX,TRAVIS,20-31566,"Single Family Homes",12/8/2020,,192000,,"12510 AYRSHIRE WAY UNIT 73",AUSTIN,TX,78732,STEINER,,CONTRACTOR,,,,,,,,,,,"LENNAR HOMES",,,,,"LENNAR HOMES","13620 FM 620 RD 150",AUSTIN,TX,78717,"(512) 506-4000",http://www.lennar.com/,,,
TX,TRAVIS,20-31570,"Single Family Homes",12/21/2020,,535990,,"17900 LECCION DR",PFLUGERVILLE,TX,78660,SORENTO,30,CONTRACTOR,,,,,,,,,,,"GEHAN HOMES",,,,,"GEHAN HOMES","3815 S CAPITAL OF TEXAS HWY STE 275",AUSTIN,TX,78704-6652,"(512) 330-9366",http://www.gehanhomes.com,,"JANET PHILLIPS",
TX,TRAVIS,20-31603,"Single Family Homes",12/21/2020,,190575,,"19804 DENISON DR",PFLUGERVILLE,TX,78660,"LAKESIDE AT BLACKHAWK",28,CONTRACTOR,,,,,,,,,,,"SCOTT FELDER HOMES",,,,,"SCOTT FELDER HOMES","6414 RIVER PLACE BLVD STE 100",AUSTIN,TX,78730-1158,"(512) 418-5400",,,,
TX,TRAVIS,20-31604,"Single Family Homes",12/21/2020,,220110,,"19900 DENISON DR",PFLUGERVILLE,TX,78660,"LAKESIDE AT BLACKHAWK",31,CONTRACTOR,,,,,,,,,,,"SCOTT FELDER HOMES",,,,,"SCOTT FELDER HOMES","6414 RIVER PLACE BLVD STE 100",AUSTIN,TX,78730-1158,"(512) 418-5400",,,,
TX,TRAVIS,20-31605,"Single Family Homes",12/21/2020,,228690,,"3412 CLAFLIN ST",PFLUGERVILLE,TX,78660,"LAKESIDE AT BLACKHAWK",4,CONTRACTOR,,,,,,,,,,,"SCOTT FELDER HOMES",,,,,"SCOTT FELDER HOMES","6414 RIVER PLACE BLVD STE 100",AUSTIN,TX,78730-1158,"(512) 418-5400",,,,
TX,TRAVIS,20-31606,"Single Family Homes",12/21/2020,,229350,,"3408 FINNY LN",PFLUGERVILLE,TX,78660,"LAKESIDE AT BLACKHAWK",15,CONTRACTOR,,,,,,,,,,,"SCOTT FELDER HOMES",,,,,"SCOTT FELDER HOMES","6414 RIVER PLACE BLVD STE 100",AUSTIN,TX,78730-1158,"(512) 418-5400",,,,
TX,TRAVIS,20-31613,"Single Family Homes",12/21/2020,,192812,,"224 BUFFALO RIDGE DR",MANCHACA,TX,78652,"BEAR CREEK CROSSING",61,CONTRACTOR,,,,,,,,,,,"M/I HOMES",,,,,"M/I HOMES","6801 N CAPITAL OF TEXAS HWY BLDG 2 STE 100",AUSTIN,TX,78731-1780,"(512) 770-8500",,,,
TX,TRAVIS,20-31614,"Single Family Homes",1/21/2021,,196940,,"321 TANGLED BRUSH DR",MANCHACA,TX,78652,"BEAR CREEK CROSSING",29,CONTRACTOR,,,,,,,,,,,"M/I HOMES",,,,,"M/I HOMES","6801 N CAPITAL OF TEXAS HWY BLDG 2 STE 100",AUSTIN,TX,78731-1780,"(512) 770-8500",,,,
TX,TRAVIS,20-31621,"Single Family Homes",12/22/2020,,209391,,"20708 SETHS DR",PFLUGERVILLE,TX,78660,BLACKHAWK,28,CONTRACTOR,,,,,,,,,,,"GFO HOME",,,,,"GFO HOME","6012 AVIATION DR # 200",PFLUGERVILLE,TX,78660-8960,"(512) 492-8640",https://www.gfohome.com,,,
TX,TRAVIS,20-31622,"Single Family Homes",12/22/2020,,200000,,"16509 FLUIR DR",AUSTIN,TX,78738,PROVENCE,14,CONTRACTOR,,,,,,,,,,,"ASHTON WOODS HOMES",,,,,"ASHTON WOODS HOMES","4201 W PARMER LN STE A150",AUSTIN,TX,78727-4118,"(512) 610-7000",,,,
TX,TRAVIS,20-31623,"Single Family Homes",12/23/2020,,200000,,"16513 FLUIR DR",AUSTIN,TX,78738,PROVENCE,13,CONTRACTOR,,,,,,,,,,,"ASHTON WOODS HOMES",,,,,"ASHTON WOODS HOMES","4201 W PARMER LN STE A150",AUSTIN,TX,78727-4118,"(512) 610-7000",,,,
TX,TRAVIS,20-31624,"Single Family Homes",12/22/2020,,200000,,"7628 ALOUETTE DR",AUSTIN,TX,78738,PROVENCE,8,CONTRACTOR,,,,,,,,,,,"ASHTON WOODS HOMES",,,,,"ASHTON WOODS HOMES","4201 W PARMER LN STE A150",AUSTIN,TX,78727-4118,"(512) 610-7000",,,,
TX,TRAVIS,20-31625,"Single Family Homes",12/22/2020,,200000,,"7633 ALOUETTE DR",AUSTIN,TX,78738,PROVENCE,17,CONTRACTOR,,,,,,,,,,,"ASHTON WOODS HOMES",,,,,"ASHTON WOODS HOMES","4201 W PARMER LN STE A150",AUSTIN,TX,78727-4118,"(512) 610-7000",,,,
TX,TRAVIS,20-31626,"Single Family Homes",12/22/2020,,200000,,"7625 PARULINE",AUSTIN,TX,78738,PROVENCE,14,CONTRACTOR,,,,,,,,,,,"ASHTON WOODS HOMES",,,,,"ASHTON WOODS HOMES","4201 W PARMER LN STE A150",AUSTIN,TX,78727-4118,"(512) 610-7000",,,,
TX,TRAVIS,20-31585,"Single Family Homes",12/23/2020,,165000,,"11424 LAGO DE GARDA",AUSTIN,TX,78747,"BELLA FORTUNA",4,CONTRACTOR,,,,,,,,,,,"BROHN HOMES",,,,,"BROHN HOMES","6720 VAUGHT RANCH RD STE 200",AUSTIN,TX,78730-2354,"(512) 320-8833",http://brohnhomes.com/,,,
TX,TRAVIS,20-31579,"Single Family Homes",12/11/2020,,160000,,"16700 HORONDELLE DR",AUSTIN,TX,78738,PROVENCE,2,CONTRACTOR,,,,,,,,,,,"DAVID WEEKLEY HOMES",,,,,"DAVID WEEKLEY HOMES","9000 WATERFORD CENTRE BLVD",AUSTIN,TX,78758-7662,"(800) 390-6774",http://www.davidweekleyhomes.com/,,,
TX,TRAVIS,20-31580,"Single Family Homes",12/11/2020,,160000,,"7304 MOUCHEROLLE DR",AUSTIN,TX,78738,PROVENCE,11,CONTRACTOR,,,,,,,,,,,"DAVID WEEKLEY HOMES",,,,,"DAVID WEEKLEY HOMES","9000 WATERFORD CENTRE BLVD",AUSTIN,TX,78758-7662,"(800) 390-6774",http://www.davidweekleyhomes.com/,,,
TX,TRAVIS,20-31583,"Single Family Homes",12/10/2020,,160000,,"16704 HORONDELLE DR",AUSTIN,TX,78738,PROVENCE,3,CONTRACTOR,,,,,,,,,,,"DAVID WEEKLEY HOMES",,,,,"DAVID WEEKLEY HOMES","9000 WATERFORD CENTRE BLVD",AUSTIN,TX,78758-7662,"(800) 390-6774",http://www.davidweekleyhomes.com/,,,
TX,TRAVIS,20-31650,"Single Family Homes",12/21/2020,,300100,,"8208 HUBBLE WALK",AUSTIN,TX,78744,"MIRABEL PARK",1,CONTRACTOR,,,,,,,,,,,"BROOKFIELD RESIDENTIAL PROPERTIES",,,,,"BROOKFIELD RESIDENTIAL PROPERTIES","11501 ALTERRA PKWY STE 100",AUSTIN,TX,78758-3201,"(512) 391-1330",,,,
TX,TRAVIS,20-31651,"Single Family Homes",12/21/2020,,303800,,"9205 SPIRE VIEW",AUSTIN,TX,78744,"MIRABEL PARK",3,CONTRACTOR,,,,,,,,,,,"BROOKFIELD RESIDENTIAL PROPERTIES",,,,,"BROOKFIELD RESIDENTIAL PROPERTIES","11501 ALTERRA PKWY STE 100",AUSTIN,TX,78758-3201,"(512) 391-1330",,,,
TX,TRAVIS,20-31657,"Single Family Homes",12/21/2020,,257100,,"8209 ORIZZONTE ST",AUSTIN,TX,78744,"EASTON PARK",7,CONTRACTOR,,,,,,,,,,,"BROOKFIELD RESIDENTIAL PROPERTIES",,,,,"BROOKFIELD RESIDENTIAL PROPERTIES","11501 ALTERRA PKWY STE 100",AUSTIN,TX,78758-3201,"(512) 391-1330",,,,
TX,TRAVIS,20-31658,"Single Family Homes",12/21/2020,,241200,,"8213 ORIZZONTE ST",AUSTIN,TX,78744,"EASTON PARK",8,CONTRACTOR,,,,,,,,,,,"BROOKFIELD RESIDENTIAL PROPERTIES",,,,,"BROOKFIELD RESIDENTIAL PROPERTIES","11501 ALTERRA PKWY STE 100",AUSTIN,TX,78758-3201,"(512) 391-1330",,,,
TX,TRAVIS,20-31659,"Single Family Homes",12/21/2020,,269400,,"8208 AUSBLICK AVE",AUSTIN,TX,78744,"EASTON PARK",10,CONTRACTOR,,,,,,,,,,,"BROOKFIELD RESIDENTIAL PROPERTIES",,,,,"BROOKFIELD RESIDENTIAL PROPERTIES","11501 ALTERRA PKWY STE 100",AUSTIN,TX,78758-3201,"(512) 391-1330",,,,
TX,TRAVIS,20-31660,"Single Family Homes",12/21/2020,,260000,,"8212 AUSBLICK AVE",AUSTIN,TX,78744,"EASTON PARK",9,CONTRACTOR,,,,,,,,,,,"BROOKFIELD RESIDENTIAL PROPERTIES",,,,,"BROOKFIELD RESIDENTIAL PROPERTIES","11501 ALTERRA PKWY STE 100",AUSTIN,TX,78758-3201,"(512) 391-1330",,,,
TX,TRAVIS,20-31666,"Single Family Homes",12/8/2020,,600000,,"7308 DAVENPORT DIVIDE RD",AUSTIN,TX,78738,"SWEETWATER RANCH VILLAGE",16,CONTRACTOR,,,,,,,,,,,"NALLE CUSTOM HOMES",,,,,"NALLE CUSTOM HOMES","105 APPLEWOOD DR","CEDAR CREEK",TX,78612-3441,"(512) 947-8972",http://www.nallecustomhomes.com/,,,
TX,TRAVIS,20-31667,"Single Family Homes",12/21/2020,,224925,,"12102 MORIAH BEND",AUSTIN,TX,78732,STEINER,7,CONTRACTOR,,,,,,,,,,,"LENNAR HOMES",,,,,"LENNAR HOMES","13620 FM 620 RD 150",AUSTIN,TX,78717,"(512) 506-4000",http://www.lennar.com/,,,
TX,TRAVIS,20-31670,"Single Family Homes",12/22/2020,,243000,,"6117 FADDEN RD",SPICEWOOD,TX,79556,"SWEETWATER RANCH VILLAGE",15,CONTRACTOR,,,,,,,,,,,"WESTIN HOMES",,,,,"WESTIN HOMES","1 SUGAR CREEK CENTER BLVD STE 600","SUGAR LAND",TX,77478-3787,"(281) 240-1551",http://www.westin-homes.com,,,
TX,TRAVIS,20-31584,"Single Family Homes",12/23/2020,,165000,,"11705 LAGO DE GARDA",AUSTIN,TX,78747,"BELLA FORTUNA",9,CONTRACTOR,,,,,,,,,,,"BROHN HOMES",,,,,"BROHN HOMES","6720 VAUGHT RANCH RD STE 200",AUSTIN,TX,78730-2354,"(512) 320-8833",http://brohnhomes.com/,,,
TX,TRAVIS,20-31586,"Single Family Homes",12/8/2020,,297000,,"7613 ECUREIL DR",AUSTIN,TX,78738,PROVENCE,1,CONTRACTOR,,,,,,,,,,,"DREES CUSTOM HOMES",,,,,"DREES CUSTOM HOMES","7300 RANCH ROAD 2222 BLDG 2 STE 250",AUSTIN,TX,78730-3204,"(512) 241-7100",http://www.dreeshomes.com,,,
TX,TRAVIS,20-31588,"Single Family Homes",12/21/2020,,607800,,"6017 FADDEN RD",AUSTIN,TX,78738,"SWEETWATER RANCH VILLAGE",9,CONTRACTOR,,,,,,,,,,,"CHESMAR HOMES",,,,,"CHESMAR HOMES","2900 N QUINLAN PARK RD",AUSTIN,TX,78732-6083,"(512) 233-9016",http://chesmar.com,,,
TX,TRAVIS,20-31589,"Single Family Homes",12/21/2020,,158700,,"13300 BRANWELL DR",AUSTIN,TX,78724,"GILBERT LANE",48,CONTRACTOR,,,,,,,,,,,"DR HORTON",,,,,"DR HORTON","10700 PECAN PARK BLVD STE 400",AUSTIN,TX,78750-1227,"(512) 345-4663",,,,
TX,TRAVIS,20-31590,"Single Family Homes",12/21/2020,,249000,,"13308 BRANWELL DR",AUSTIN,TX,78724,"GILBERT LANE",,CONTRACTOR,,,,,,,,,,,"DR HORTON",,,,,"DR HORTON","10700 PECAN PARK BLVD STE 400",AUSTIN,TX,78750-1227,"(512) 345-4663",,,,
TX,TRAVIS,20-31591,"Single Family Homes",12/21/2020,,249000,,"6001 SHANJIA DR",AUSTIN,TX,78724,"GILBERT LANE",10,CONTRACTOR,,,,,,,,,,,"DR HORTON",,,,,"DR HORTON","10700 PECAN PARK BLVD STE 400",AUSTIN,TX,78750-1227,"(512) 345-4663",,,,
TX,TRAVIS,20-31694,"Single Family Homes",12/8/2020,,236000,,"7914 LENNON DR UNIT 153",AUSTIN,TX,78744,"EASTON PARK",,CONTRACTOR,,,,,,,,,,,"BROOKFIELD RESIDENTIAL PROPERTIES",,,,,"BROOKFIELD RESIDENTIAL PROPERTIES","11501 ALTERRA PKWY STE 100",AUSTIN,TX,78758-3201,"(512) 391-1330",,,,
TX,TRAVIS,20-31695,"Single Family Homes",12/8/2020,,239000,,"7916 LENNON DR UNIT 154",AUSTIN,TX,78744,"EASTON PARK",,CONTRACTOR,,,,,,,,,,,"BROOKFIELD RESIDENTIAL PROPERTIES",,,,,"BROOKFIELD RESIDENTIAL PROPERTIES","11501 ALTERRA PKWY STE 100",AUSTIN,TX,78758-3201,"(512) 391-1330",,,,
TX,TRAVIS,20-31697,"Single Family Homes",12/21/2020,,160000,,"4207 BIRDWATCH LOOP",PFLUGERVILLE,TX,78660,"JAKES HILL CONDOMINIUM",12,CONTRACTOR,,,,,,,,,,,"BLACKBURN COMMUNITIES",,,,,"BLACKBURN COMMUNITIES","301 BRUSHY CREEK RD STE 108",PFLUGERVILLE,TX,78613,"(512) 401-3205",https://www.blackburnhomes.com/,,,info@blackburnhomes.com
TX,TRAVIS,20-31701,"Single Family Homes",12/22/2020,,251000,,"6113 FADDEN RD",SPICEWOOD,TX,79556,"SWEETWATER RANCH VILLAGE",14,CONTRACTOR,,,,,,,,,,,"WESTIN HOMES",,,,,"WESTIN HOMES","1 SUGAR CREEK CENTER BLVD STE 600","SUGAR LAND",TX,77478-3787,"(281) 240-1551",http://www.westin-homes.com,,,
TX,TRAVIS,20-31702,"Single Family Homes",12/22/2020,,200000,,"7616 ALOUETTE DR",AUSTIN,TX,78738,PROVENCE,5,CONTRACTOR,,,,,,,,,,,"ASHTON WOODS HOMES",,,,,"ASHTON WOODS HOMES","4201 W PARMER LN STE A150",AUSTIN,TX,78727-4118,"(512) 610-7000",,,,
TX,TRAVIS,20-31706,"Single Family Homes",12/23/2020,,276564,,"9708 GRAPEVINE LEAF DR",AUSTIN,TX,78653,"WHISPER VALLEY VILLAGE",29,CONTRACTOR,,,,,,,,,,,"BUFFINGTON TEXAS CLASSIC HOMES",,,,,"BUFFINGTON TEXAS CLASSIC HOMES","8601 RANCH ROAD 2222 PARK CENTRE BLDG STE 150",AUSTIN,TX,78730,"(512) 579-4800",,,,
TX,TRAVIS,20-31593,"Single Family Homes",12/23/2020,,268470,,"9608 GRAPEVINE LEAF DR",AUSTIN,TX,78653,"WHISPER VALLEY VILLAGE",34,CONTRACTOR,,,,,,,,,,,"BUFFINGTON TEXAS CLASSIC HOMES",,,,,"BUFFINGTON TEXAS CLASSIC HOMES","8601 RANCH ROAD 2222 PARK CENTRE BLDG STE 150",AUSTIN,TX,78730,"(512) 579-4800",,,,
TX,TRAVIS,20-31594,"Single Family Homes",12/8/2020,,160000,,"4001 BIRDWATCH LOOP UNIT 33",PFLUGERVILLE,TX,78660,"JAKES HILL CONDOMINIUM",,CONTRACTOR,,,,,,,,,,,"BLACKBURN COMMUNITIES",,,,,"BLACKBURN COMMUNITIES","301 BRUSHY CREEK RD STE 108",PFLUGERVILLE,TX,78613,"(512) 401-3205",https://www.blackburnhomes.com/,,,info@blackburnhomes.com
TX,TRAVIS,20-31575,"Single Family Homes",12/8/2020,,157350,,"6009 CIMARRON RIDGE LN",AUSTIN,TX,78738,"SWEETWATER RANCH",12,CONTRACTOR,,,,,,,,,,,"LENNAR HOMES",,,,,"LENNAR HOMES","13620 FM 620 RD 150",AUSTIN,TX,78717,"(512) 506-4000",http://www.lennar.com/,,,
TX,TRAVIS,20-31576,"Single Family Homes",12/15/2020,,150000,,"16405 COURSIER DR",AUSTIN,TX,78738,PROVENCE,45,CONTRACTOR,,,,,,,,,,,"DAVID WEEKLEY HOMES",,,,,"DAVID WEEKLEY HOMES","9000 WATERFORD CENTRE BLVD",AUSTIN,TX,78758-7662,"(800) 390-6774",http://www.davidweekleyhomes.com/,,,
TX,TRAVIS,20-31577,"Single Family Homes",12/11/2020,,130000,,"7121 JUMENT DR",AUSTIN,TX,78738,PROVENCE,24,CONTRACTOR,,,,,,,,,,,"DAVID WEEKLEY HOMES",,,,,"DAVID WEEKLEY HOMES","9000 WATERFORD CENTRE BLVD",AUSTIN,TX,78758-7662,"(800) 390-6774",http://www.davidweekleyhomes.com/,,,
TX,TRAVIS,20-31642,"Single Family Homes",12/22/2020,,354664,,"316 BUFFALO RIDGE DR",MANCHACA,TX,78652,"BEAR CREEK CROSSING",55,CONTRACTOR,,,,,,,,,,,"M/I HOMES",,,,,"M/I HOMES","6801 N CAPITAL OF TEXAS HWY BLDG 2 STE 100",AUSTIN,TX,78731-1780,"(512) 770-8500",,,,
TX,TRAVIS,20-31691,"Single Family Homes",12/21/2020,,197250,,"408 MANTE CT",AUSTIN,TX,78748,"ENCLAVE AT ESTANCIA",311,CONTRACTOR,,,,,,,,,,,"LENNAR HOMES",,,,,"LENNAR HOMES","13620 FM 620 RD 150",AUSTIN,TX,78717,"(512) 506-4000",http://www.lennar.com/,,,
TX,TRAVIS,20-31692,"Single Family Homes",12/21/2020,,141150,,"12507 AYRSHIRE WAY",AUSTIN,TX,78732,"STEINER RANCH",69,CONTRACTOR,,,,,,,,,,,"LENNAR HOMES",,,,,"LENNAR HOMES","13620 FM 620 RD 150",AUSTIN,TX,78717,"(512) 506-4000",http://www.lennar.com/,,,
TX,TRAVIS,20-31633,"Single Family Homes",12/21/2020,,163200,,"405 MANTE CT",AUSTIN,TX,78748,"ENCLAVE AT ESTANCIA",318,CONTRACTOR,,,,,,,,,,,"LENNAR HOMES",,,,,"LENNAR HOMES","13620 FM 620 RD 150",AUSTIN,TX,78717,"(512) 506-4000",http://www.lennar.com/,,,
TX,TRAVIS,20-31743,"Single Family Homes",12/23/2020,,450990,,"22308 COYOTE CAVE",SPICEWOOD,TX,78669,"CYPRESS HILLS",20,CONTRACTOR,,,,,,,,,,,"PULTE HOMES",,,,,"PULTE HOMES","9401 AMBERGLEN BLVD STE I-150",AUSTIN,TX,78729-1154,"(512) 561-4344",,,,
TX,TRAVIS,20-31770,"Single Family Homes",12/22/2020,,19800000,,"7510 HARMONY SHOALS BEND",AUSTIN,TX,78744,"EASTON PARK",248,CONTRACTOR,,,,,,,,,,,"MERITAGE HOMES",,,,,"MERITAGE HOMES","8920 BUSINESS PARK DR STE 250",AUSTIN,TX,78759-7622,"(512) 610-4800",,,,
TX,TRAVIS,20-31771,"Single Family Homes",12/22/2020,,233040,,"7512 HARMONY SHOALS BEND",AUSTIN,TX,78744,"EASTON PARK",247,CONTRACTOR,,,,,,,,,,,"MERITAGE HOMES",,,,,"MERITAGE HOMES","8920 BUSINESS PARK DR STE 250",AUSTIN,TX,78759-7622,"(512) 610-4800",,,,
TX,TRAVIS,20-31772,"Single Family Homes",12/22/2020,,212520,,"7514 HARMONY SHOALS BEND",AUSTIN,TX,78744,"EASTON PARK",246,CONTRACTOR,,,,,,,,,,,"MERITAGE HOMES",,,,,"MERITAGE HOMES","8920 BUSINESS PARK DR STE 250",AUSTIN,TX,78759-7622,"(512) 610-4800",,,,
TX,TRAVIS,20-31774,"Single Family Homes",12/22/2020,,245640,,"7516 HARMONY SHOALS BEND",AUSTIN,TX,78744,"EASTON PARK",256,CONTRACTOR,,,,,,,,,,,"MERITAGE HOMES",,,,,"MERITAGE HOMES","8920 BUSINESS PARK DR STE 250",AUSTIN,TX,78759-7622,"(512) 610-4800",,,,
TX,TRAVIS,20-31748,"Single Family Homes",12/23/2020,,150000,,"7225 JUMENT DR",AUSTIN,TX,78738,PROVENCE,31,CONTRACTOR,,,,,,,,,,,"DAVID WEEKLEY HOMES",,,,,"DAVID WEEKLEY HOMES","9000 WATERFORD CENTRE BLVD",AUSTIN,TX,78758-7662,"(800) 390-6774",http://www.davidweekleyhomes.com/,,,
TX,TRAVIS,20-31750,"Single Family Homes",12/23/2020,,237594,,"4413 SHADY HILL LN",PFLUGERVILLE,TX,78660,"PARK AT BLACKHAWK",39,CONTRACTOR,,,,,,,,,,,"MHI MCGUYER HOMEBUILDERS",,,,,"MHI MCGUYER HOMEBUILDERS","8200 N MO PAC EXPY STE 300",AUSTIN,TX,78759-8844,"(512) 502-2050",,"(512) 388-1836","FRANK MCGUYER",
TX,TRAVIS,20-31751,"Single Family Homes",12/23/2020,,182700,,"6212 CUCHARA BEND",AUSTIN,TX,78738,"SWEETWATER RANCH VILLAGE",7,CONTRACTOR,,,,,,,,,,,"LENNAR HOMES",,,,,"LENNAR HOMES","13620 FM 620 RD 150",AUSTIN,TX,78717,"(512) 506-4000",http://www.lennar.com/,,,
TX,TRAVIS,20-31754,"Single Family Homes",12/23/2020,,314120,,"7901 CORRIGAN PASS",AUSTIN,TX,78744,"MIRABEL PARK",8,CONTRACTOR,,,,,,,,,,,"BROOKFIELD RESIDENTIAL PROPERTIES",,1223,,,"BROOKFIELD RESIDENTIAL PROPERTIES","11501 ALTERRA PKWY STE 100",AUSTIN,TX,78758-3201,"(512) 391-1330",,,,
TX,TRAVIS,20-31755,"Single Family Homes",12/30/2020,,329340,,"8420 HUBBLE WALK",AUSTIN,TX,78744,"MIRABEL PARK",14,CONTRACTOR,,,,,,,,,,,"BROOKFIELD RESIDENTIAL PROPERTIES",,,,,"BROOKFIELD RESIDENTIAL PROPERTIES","11501 ALTERRA PKWY STE 100",AUSTIN,TX,78758-3201,"(512) 391-1330",,,,
TX,TRAVIS,20-31756,"Single Family Homes",12/23/2020,,312920,,"9100 SPIRE VIEW",AUSTIN,TX,78744,"MIRABEL PARK",17,CONTRACTOR,,,,,,,,,,,"BROOKFIELD RESIDENTIAL PROPERTIES",,,,,"BROOKFIELD RESIDENTIAL PROPERTIES","11501 ALTERRA PKWY STE 100",AUSTIN,TX,78758-3201,"(512) 391-1330",,,,
TX,TRAVIS,20-31768,"Single Family Homes",12/22/2020,,212520,,"7506 HARMONY SHOALS BEND",AUSTIN,TX,78744,"EASTON PARK",250,CONTRACTOR,,,,,,,,,,,"MERITAGE HOMES",,,,,"MERITAGE HOMES","8920 BUSINESS PARK DR STE 250",AUSTIN,TX,78759-7622,"(512) 610-4800",,,,
TX,TRAVIS,20-31737,"Single Family Homes",12/23/2020,,551110,,"6317 EMPRESA DR",AUSTIN,TX,78738,"SWEETWATER RANCH VILLAGE",14,CONTRACTOR,,,,,,,,,,,"CHESMAR HOMES",,,,,"CHESMAR HOMES","2900 N QUINLAN PARK RD",AUSTIN,TX,78732-6083,"(512) 233-9016",http://chesmar.com,,,
TX,TRAVIS,20-31738,"Single Family Homes",12/23/2020,,512490,,"6629 EMPRESA DR",AUSTIN,TX,78738,"SWEETWATER RANCH VILLAGE",28,CONTRACTOR,,,,,,,,,,,"CHESMAR HOMES",,,,,"CHESMAR HOMES","2900 N QUINLAN PARK RD",AUSTIN,TX,78732-6083,"(512) 233-9016",http://chesmar.com,,,
TX,TRAVIS,20-31739,"Single Family Homes",12/23/2020,,172497,,"20705 SETHS DR",PFLUGERVILLE,TX,78660,"PARK AT BLACKHAWK",3,CONTRACTOR,,,,,,,,,,,"GFO HOME",,,,,"GFO HOME","6012 AVIATION DR # 200",PFLUGERVILLE,TX,78660-8960,"(512) 492-8640",https://www.gfohome.com,,,
TX,TRAVIS,20-31769,"Single Family Homes",12/22/2020,,233040,,"7508 HARMONY SHOALS BEND",AUSTIN,TX,78744,"EASTON PARK",249,CONTRACTOR,,,,,,,,,,,"MERITAGE HOMES",,,,,"MERITAGE HOMES","8920 BUSINESS PARK DR STE 250",AUSTIN,TX,78759-7622,"(512) 610-4800",,,,
TX,TRAVIS,20-31740,"Single Family Homes",12/23/2020,,146711,,"20925 CARRIES RANCH RD",PFLUGERVILLE,TX,78660,"PARK AT BLACKHAWK",1,CONTRACTOR,,,,,,,,,,,"GFO HOME",,,,,"GFO HOME","6012 AVIATION DR # 200",PFLUGERVILLE,TX,78660-8960,"(512) 492-8640",https://www.gfohome.com,,,
TX,TRAVIS,20-31741,"Single Family Homes",12/23/2020,,506370,,"6101 ALAMOSA CLEARING DR",AUSTIN,TX,78738,"SWEETWATER RANCH VILLAGE",2,CONTRACTOR,,,,,,,,,,,"CHESMAR HOMES",,,,,"CHESMAR HOMES","2900 N QUINLAN PARK RD",AUSTIN,TX,78732-6083,"(512) 233-9016",http://chesmar.com,,,
TX,TRAVIS,20-31742,"Single Family Homes",,,562490,,"18605 JAMES POWER CT",AUSTIN,TX,78738,"SWEETWATER RANCH VILLAGE",27,CONTRACTOR,,,,,,,,,,,"CHESMAR HOMES",,,,,"CHESMAR HOMES","2900 N QUINLAN PARK RD",AUSTIN,TX,78732-6083,"(512) 233-9016",http://chesmar.com,,,
TX,TRAVIS,20-31719,"Single Family Homes",12/23/2020,,183352,,"309 BUFFALO RIDGE DR",MANCHACA,TX,78652,"BEAR CREEK CROSSING",15,CONTRACTOR,,,,,,,,,,,"M/I HOMES",,,,,"M/I HOMES","6801 N CAPITAL OF TEXAS HWY BLDG 2 STE 100",AUSTIN,TX,78731-1780,"(512) 770-8500",,,,
TX,TRAVIS,20-31775,"Single Family Homes",12/22/2020,,202560,,"801 RUSSET ROCK DR",AUSTIN,TX,78748,COPPERSTONE,6,CONTRACTOR,,,,,,,,,,,"MERITAGE HOMES",,,,,"MERITAGE HOMES","8920 BUSINESS PARK DR STE 250",AUSTIN,TX,78759-7622,"(512) 610-4800",,,,
TX,TRAVIS,"2021-010417 BP","Warehouse & Manufacturing",1/25/2021,Addition,800000,2215,"5217 WINNEBAGO LN",AUSTIN,TX,78744,DELVALLE,,CONTRACTOR,,,,,,,,,,,"TG EDWARDS CONSTRUCTION",,,,,"TG EDWARDS CONSTRUCTION","1309 APPLING ST ",CHATANOOGA,TN,37406,"(423) 421-3304",,,,
TX,TRAVIS,"2020-071197 BP","Warehouse & Manufacturing",1/20/2021,Addition,100000,2000,"901 E ST JOHNS AVE",AUSTIN,TX,78752,"HENDRICKS COMMERCIAL PROPERTIES",4,CONTRACTOR,,,,,,,,,,,"ABNEY CONCRETE",,,,,"ABNEY CONCRETE","210 W ELM ST",HILLSBORO,TX,76645,"(254) 582-5069",,,,
TX,HAYS,2018-26955,"Warehouse & Manufacturing",12/3/2020,,95000,,"2601 S IH 35","SAN MARCOS",TX,78666,,,CONTRACTOR,,,,,,,,,,,"STEVE MAJOR CONSTRUCTION",,,,,"STEVE MAJOR CONSTRUCTION","2009 CASTLE GATE CIR","SAN MARCOS",TX,78666-2219,"(512) 353-7458",,,,
TX,HAYS,2019-29128,"Warehouse & Manufacturing",12/1/2020,,11113598,174515,"1551 CLOVIS BARKER RD","SAN MARCOS",TX,78666,,,CONTRACTOR,,,,,,,,,,,"RC PAGE CONSTRUCTION",,,,,"RC PAGE CONSTRUCTION","9901 W INTERSTATE 10 STE 800","SAN ANTONIO",TX,78230-2292,"(210) 477-8539",http://www.rcpageconstruction.com/,"(210) 477-8572",,
TX,HAYS,2020-34242,"Warehouse & Manufacturing",12/8/2020,,,174515,"1551 CLOVIS BARKER RD BLDG 2","SAN MARCOS",TX,78666,,,CONTRACTOR,,,,,,,,,,,"RC PAGE CONSTRUCTION",,,,,"RC PAGE CONSTRUCTION","9901 W INTERSTATE 10 STE 800","SAN ANTONIO",TX,78230-2292,"(210) 477-8539",http://www.rcpageconstruction.com/,"(210) 477-8572",,
TX,HAYS,2020-34243,"Warehouse & Manufacturing",12/8/2020,,,174515,"1551 CLOVIS BARKER RD BLDG 3","SAN MARCOS",TX,78666,,,CONTRACTOR,,,,,,,,,,,"RC PAGE CONSTRUCTION",,,,,"RC PAGE CONSTRUCTION","9901 W INTERSTATE 10 STE 800","SAN ANTONIO",TX,78230-2292,"(210) 477-8539",http://www.rcpageconstruction.com/,"(210) 477-8572",,
TX,WILLIAMSON,2012-0016,"Warehouse & Manufacturing",12/21/2020,,120000,,"2301 DOUBLE CREEK DR 160","ROUND ROCK",TX,78664,,,"RANGER PLATFORM","2301 DOUBLE CREEK DR 160","ROUND ROCK",TX,78664,,Owner,,,,,OWNER,,,,,OWNER,,,,,,,,,
TX,WILLIAMSON,2012-0019,"Warehouse & Manufacturing",12/22/2020,,975000,,"900 E OLD SETTLERS BLVD 300","ROUND ROCK",TX,78664,,,CONTRACTOR,,,,,,,,,,,"EASTGROUP PROPERTIES",,,,,"EASTGROUP PROPERTIES","4220 WORLD HOUSTON PKWY STE 170",HOUSTON,TX,77032-2492,"(281) 987-7200",http://www.eastgroup.net/,"(281) 987-7207",,
TX,WILLIAMSON,2012-0010,"Warehouse & Manufacturing",12/8/2020,,5296020,,"2700 LOUIS HENNA BLVD","ROUND ROCK",TX,78664,,,"ROUND ROCK 19","4131 SPICEWOOD SPRINGS RD #E4","ROUND ROCK",TX,76092,,Owner,,,,,OWNER,,,,,OWNER,,,,,,,,,
TX,WILLIAMSON,2012-0027,"Warehouse & Manufacturing",12/29/2020,,4426600,,"1974 STEAM WAY","ROUND ROCK",TX,78664,,,"ALTMAN DEVELOPMENT GROUP","1958 STEAM WAY","ROUND ROCK",TX,78664,,Owner,,,,,OWNER,,,,,OWNER,,,,,,,,,
TX,WILLIAMSON,2012-0028,"Warehouse & Manufacturing",12/29/2020,,4395100,,"1990 STEAM WAY","ROUND ROCK",TX,78664,,,"ALTMAN DEVELOPMENT GROUP","1958 STEAM WAY","ROUND ROCK",TX,78664,,Owner,,,,,OWNER,,,,,OWNER,,,,,,,,,
TX,WILLIAMSON,2012-0029,"Warehouse & Manufacturing",12/29/2020,,4050000,,"1992 STEAM WAY","ROUND ROCK",TX,78664,,,"ALTMAN DEVELOPMENT GROUP","1958 STEAM WAY","ROUND ROCK",TX,78664,,Owner,,,,,OWNER,,,,,OWNER,,,,,,,,,
TX,WILLIAMSON,2012-0030,"Warehouse & Manufacturing",12/30/2020,,300000,,"1606 CHISHOLM TRAIL RD","ROUND ROCK",TX,78664,,,"HENDRIX CAPITAL","1315 LEDBETTER ST","ROUND ROCK",TX,78664,,Owner,,,,,"CASTLE WORKS",,,,,"CASTLE WORKS","107 W MAIN ST","ROUND ROCK",TX,78664-5825,"(512) 255-7111",,,,
