state,county,permno,ptype,pdate,pdescription,jvalue,jsqfeet,jaddr,jcity,jstate,jzip,jsubdiv,jlotno,aname,aaddr,acity,astate,azip,aphone,atype,aurl,afax,aprimarycontact,aemail,bldcode,units,bldgs,ctype,legal,contractor,caddress,ccity,cstate,czip,cphone,curl,cfax,cprimarycontact,cemail
TX,TRAVIS,20-29359,"Auto Sales & Services",5/14/2021,,1450000,,"15949 STATE HWY 71","BEE CAVE",TX,78738,"BELLA COLINAS",,CONTRACTOR,,,,,,,,,,,"LIQUE ENGINEERS",,,,,"LIQUE ENGINEERS","816 CAMARON ST STE 123","SAN ANTONIO",TX,78212,"(210) 549-4207",,,,
TX,TRAVIS,"2021-084661 BP","Commercial Swimming Pool & Spas",6/4/2021,,48000,3820,"2400 SETON AVE",AUSTIN,TX,78705,"RAINEY FRANK",17,CONTRACTOR,,,,,,,,,,,"MILLENNIUM POOLS",,,,,"MILLENNIUM POOLS","2009 RANCH ROAD 620 N STE 710",LAKEWAY,TX,78734-2678,"(512) 266-9699",,,,
TX,TRAVIS,"2021-079898 BP","Commercial Swimming Pool & Spas",6/7/2021,,145000,2475,"2333 CASCADES AVE",AUSTIN,TX,78660,,,CONTRACTOR,,,,,,,,,,,"AQUA ARTISTS",,,,,"AQUA ARTISTS","1502 BRIGHTON BEND LN","CEDAR PARK",TX,78613-5942,"(512) 336-1942",,,,
TX,TRAVIS,20-28519,"Hospital & Other Medical",5/25/2021,,818952,,"10616 MENCHACA RD",AUSTIN,TX,78748,"MERCADO HEIGHTS",,CONTRACTOR,,,,,,,,,,,"PROFESSIONAL STRUCIVIL ENGINEERS ",,,,,"PROFESSIONAL STRUCIVIL ENGINEERS ","12710 RESEARCH BLVD STE 390",AUSTIN,TX,78759-4380,"(512) 238-6422",,,"DIANE BERNAL",
TX,WILLIAMSON,2020-29469,"Multi Family Apartments & Condos",5/26/2021,,800000,8058,"2208 LOCAL REBEL LOOP",LEANDER,TX,78641,,,CONTRACTOR,,,,,,,,,,,"PROMINENCE HOMES",,,,,"PROMINENCE HOMES","1120 CAPITAL OF TEXAS HWY",AUSTIN,TX,78746,"(512) 565-9395",http://prominencehomes.co/,,,
TX,WILLIAMSON,2020-30059,"Multi Family Apartments & Condos",5/18/2021,,750000,2936,"141 W METRO DR",LEANDER,TX,78641,,,CONTRACTOR,,,,,,,,,,,"LAY CONSTRUCTION",,,,,"LAY CONSTRUCTION","PO BOX 5300",TYLER,TX,75712-5300,"(903) 877-4128",http://www.layconstructionllc.com/,"(903) 877-4449","SCOTT LAY",scott.lay@layconstructionllc.com
TX,WILLIAMSON,2021-31529,"Multi Family Apartments & Condos",5/24/2021,,500000,5000,"607 LEANDER DR",LEANDER,TX,78641,,,CONTRACTOR,,,,,,,,,,,"D&R SIGNS",,,,,"D&R SIGNS","607 LEANDER DR #100",LEANDER,TX,78641,"(512) 259-9100",,,,
TX,TRAVIS,21-32946,"Multi Family Apartments & Condos",5/21/2021,,163200,,"12209 TAMPICO COVE",AUSTIN,TX,78748,,,CONTRACTOR,,,,,,,,,,,"LENNAR HOMES",,,,,"LENNAR HOMES","13620 FM 620 RD 150",AUSTIN,TX,78717,"(512) 506-4000",http://www.lennar.com/,,,
TX,TRAVIS,21-33636,"Multi Family Apartments & Condos",5/4/2021,,457341,,"2208 ESCAPE",SPICEWOOD,TX,78669,,,CONTRACTOR,,,,,,,,,,,"LEGACY DCS",,,,,"LEGACY DCS","205 WILD BASIN ROAD SOUTH, BLDG",AUSTIN,TX,78746,"(512) 726-0500",https://legacydcs.com/,"(512) 726-0527",,info@legacydcs.com
TX,TRAVIS,21-33638,"Multi Family Apartments & Condos",5/4/2021,,457341,,"19213 LOST TREE",SPICEWOOD,TX,78669,"THE RESERVE",,CONTRACTOR,,,,,,,,,,,"LEGACY DCS",,,,,"LEGACY DCS","205 WILD BASIN ROAD SOUTH, BLDG",AUSTIN,TX,78746,"(512) 726-0500",https://legacydcs.com/,"(512) 726-0527",,info@legacydcs.com
TX,TRAVIS,21-33944,"Multi Family Apartments & Condos",5/20/2021,,406990,,"2800 MARY ELIZABETH DR",AUSTIN,TX,78728,,,CONTRACTOR,,,,,,,,,,,"TAYLOR MORRISON OF TEXAS",,,,,"TAYLOR MORRISON OF TEXAS","11200 LAKELINE BLVD STE 150A",AUSTIN,TX,78717-5964,"(512) 328-8866",,"(512) 328-7988",,
TX,TRAVIS,21-33945,"Multi Family Apartments & Condos",5/20/2021,,397990,,"2802 MARY ELIZABETH DR",AUSTIN,TX,78728,,,CONTRACTOR,,,,,,,,,,,"TAYLOR MORRISON OF TEXAS",,,,,"TAYLOR MORRISON OF TEXAS","11200 LAKELINE BLVD STE 150A",AUSTIN,TX,78717-5964,"(512) 328-8866",,"(512) 328-7988",,
TX,TRAVIS,21-33910,"Multi Family Apartments & Condos",5/25/2021,,173775,,"12202 TAMPICO COVE",AUSTIN,TX,78748,"ESTANCIA HILL COUNTRY",,CONTRACTOR,,,,,,,,,,,"LENNAR HOMES",,,,,"LENNAR HOMES","13620 FM 620 RD 150",AUSTIN,TX,78717,"(512) 506-4000",http://www.lennar.com/,,,
TX,TRAVIS,"2021-082617 BP","Multi Family Apartments & Condos",6/2/2021,,164604,1914,"12725 BLOOMINGTON DR",AUSTIN,TX,78748,,,CONTRACTOR,,,,,,,,,,,"M/I HOMES",,,,,"M/I HOMES","6801 N CAPITAL OF TEXAS HWY BLDG 2 STE 100",AUSTIN,TX,78731-1780,"(512) 770-8500",,,,
TX,TRAVIS,"2021-082579 BP","Multi Family Apartments & Condos",6/2/2021,,164776,1916,"12703 BLOOMINGTON DR",AUSTIN,TX,78748,,,CONTRACTOR,,,,,,,,,,,"M/I HOMES",,,,,"M/I HOMES","6801 N CAPITAL OF TEXAS HWY BLDG 2 STE 100",AUSTIN,TX,78731-1780,"(512) 770-8500",,,,
TX,TRAVIS,"2021-082565 BP","Multi Family Apartments & Condos",6/2/2021,,165034,1919,"13023 BLOOMINGTON DR",AUSTIN,TX,78748,,,CONTRACTOR,,,,,,,,,,,"M/I HOMES",,,,,"M/I HOMES","6801 N CAPITAL OF TEXAS HWY BLDG 2 STE 100",AUSTIN,TX,78731-1780,"(512) 770-8500",,,,
TX,TRAVIS,"2021-083331 BP","Multi Family Apartments & Condos",6/3/2021,,170680,2008,"4709 LAVENDER FIELD PATH",AUSTIN,TX,78723,,,CONTRACTOR,,,,,,,,,,,"RSI COMMUNITIES",,,,,"RSI COMMUNITIES","810 HESTERS CROSSING RD STE 235","ROUND ROCK",TX,78681-7846,"(512) 953-4100",,,,
TX,TRAVIS,"2021-082811 BP","Multi Family Apartments & Condos",6/2/2021,,184298,2143,"13009 BLOOMINGTON DR",AUSTIN,TX,78748,,,CONTRACTOR,,,,,,,,,,,"M/I HOMES",,,,,"M/I HOMES","6801 N CAPITAL OF TEXAS HWY BLDG 2 STE 100",AUSTIN,TX,78731-1780,"(512) 770-8500",,,,
TX,TRAVIS,"2021-083368 BP","Multi Family Apartments & Condos",6/3/2021,,185385,2181,"5402 COBALT CANOPY BND",AUSTIN,TX,78723,,,CONTRACTOR,,,,,,,,,,,"RSI COMMUNITIES",,,,,"RSI COMMUNITIES","810 HESTERS CROSSING RD STE 235","ROUND ROCK",TX,78681-7846,"(512) 953-4100",,,,
TX,TRAVIS,"2021-083341 BP","Multi Family Apartments & Condos",6/3/2021,,185385,2181,"5302 COBALT CANOPY BND",AUSTIN,TX,78723,,,CONTRACTOR,,,,,,,,,,,"RSI COMMUNITIES",,,,,"RSI COMMUNITIES","810 HESTERS CROSSING RD STE 235","ROUND ROCK",TX,78681-7846,"(512) 953-4100",,,,
TX,TRAVIS,"2021-082777 BP","Multi Family Apartments & Condos",6/2/2021,,202355,2355,"12902 BLOOMINGTON DR",AUSTIN,TX,78748,,,CONTRACTOR,,,,,,,,,,,"M/I HOMES",,,,,"M/I HOMES","6801 N CAPITAL OF TEXAS HWY BLDG 2 STE 100",AUSTIN,TX,78731-1780,"(512) 770-8500",,,,
TX,TRAVIS,"2021-082757 BP","Multi Family Apartments & Condos",6/2/2021,,202530,2355,"12907 BLOOMINGTON DR",AUSTIN,TX,78748,,,CONTRACTOR,,,,,,,,,,,"M/I HOMES",,,,,"M/I HOMES","6801 N CAPITAL OF TEXAS HWY BLDG 2 STE 100",AUSTIN,TX,78731-1780,"(512) 770-8500",,,,
TX,TRAVIS,"2021-082830 BP","Multi Family Apartments & Condos",6/2/2021,,202530,2355,"13006 STANFORD DR",AUSTIN,TX,78652,,,CONTRACTOR,,,,,,,,,,,"M/I HOMES",,,,,"M/I HOMES","6801 N CAPITAL OF TEXAS HWY BLDG 2 STE 100",AUSTIN,TX,78731-1780,"(512) 770-8500",,,,
TX,TRAVIS,"2021-082849 BP","Multi Family Apartments & Condos",6/2/2021,,202530,2355,"906 PITTSBURGH DR",AUSTIN,TX,78752,,,CONTRACTOR,,,,,,,,,,,"M/I HOMES",,,,,"M/I HOMES","6801 N CAPITAL OF TEXAS HWY BLDG 2 STE 100",AUSTIN,TX,78731-1780,"(512) 770-8500",,,,
TX,TRAVIS,"2021-083354 BP","Multi Family Apartments & Condos",6/3/2021,,207145,2437,"5304 COBALT CANOPY BND",AUSTIN,TX,78723,,,CONTRACTOR,,,,,,,,,,,"RSI COMMUNITIES",,,,,"RSI COMMUNITIES","810 HESTERS CROSSING RD STE 235","ROUND ROCK",TX,78681-7846,"(512) 953-4100",,,,
TX,TRAVIS,"2021-079454 BP","Multi Family Apartments & Condos",6/2/2021,,226000,2074,"7901 LENNON DR",AUSTIN,TX,78744,,,CONTRACTOR,,,,,,,,,,,"BROOKFIELD RESIDENTIAL PROPERTIES",,,,,"BROOKFIELD RESIDENTIAL PROPERTIES","11501 ALTERRA PKWY STE 100",AUSTIN,TX,78758-3201,"(512) 391-1330",,,,
TX,TRAVIS,"2021-083322 BP","Multi Family Apartments & Condos",6/3/2021,,244545,2877,"4808 PLUM PEACH BND",AUSTIN,TX,78723,,,CONTRACTOR,,,,,,,,,,,"RSI COMMUNITIES",,,,,"RSI COMMUNITIES","810 HESTERS CROSSING RD STE 235","ROUND ROCK",TX,78681-7846,"(512) 953-4100",,,,
TX,TRAVIS,"2021-083298 BP","Multi Family Apartments & Condos",6/3/2021,,244545,2877,"4904 PLUM PEACH BND",AUSTIN,TX,78723,,,CONTRACTOR,,,,,,,,,,,"RSI COMMUNITIES",,,,,"RSI COMMUNITIES","810 HESTERS CROSSING RD STE 235","ROUND ROCK",TX,78681-7846,"(512) 953-4100",,,,
TX,TRAVIS,"2021-082595 BP","Multi Family Apartments & Condos",6/2/2021,,255850,2975,"12807 BLOOMINGTON DR",AUSTIN,TX,78748,,,CONTRACTOR,,,,,,,,,,,"M/I HOMES",,,,,"M/I HOMES","6801 N CAPITAL OF TEXAS HWY BLDG 2 STE 100",AUSTIN,TX,78731-1780,"(512) 770-8500",,,,
TX,TRAVIS,"2021-082269 BP","Multi Family Apartments & Condos",6/2/2021,,268990,2312,"5405 JASON DR",AUSTIN,TX,78723,,,CONTRACTOR,,,,,,,,,,,"RSI COMMUNITIES",,,,,"RSI COMMUNITIES","810 HESTERS CROSSING RD STE 235","ROUND ROCK",TX,78681-7846,"(512) 953-4100",,,,
TX,TRAVIS,"2021-083977 BP","Multi Family Apartments & Condos",6/3/2021,,496980,1969,"13602 DEFIANCE PASS",AUSTIN,TX,78717,"PRESIDIO CONDO",,CONTRACTOR,,,,,,,,,,,"DAVID WEEKLEY HOMES",,,,,"DAVID WEEKLEY HOMES","9000 WATERFORD CENTRE BLVD",AUSTIN,TX,78758-7662,"(800) 390-6774",http://www.davidweekleyhomes.com/,,,
TX,TRAVIS,21-33261,"Offices, R&D, & Professional",5/21/2021,,80000,,"2108 FERGUSON L",AUSTIN,TX,78754,,,"BEAR GOOLSBY","2108 FERGUSON L",AUSTIN,TX,78754,,Owner,,,,,OWNER,,,,,OWNER,,,,,,,,,
TX,WILLIAMSON,2020-30601,"Other Commercial",5/18/2021,,200000,2046,"10824 E CRYSTAL FALLS PKWY",LEANDER,TX,78641,"CRYSTAL SPRINGS",,CONTRACTOR,,,,,,,,,,,"TH DEVELOPMENT ",,,,,"TH DEVELOPMENT ","350 YOUNG SCHOOL",SMITHVILE,TX,78957,"(512) 736-2706",http://www.thdevelopmentatx.com,,,
TX,WILLIAMSON,2021-31229,"Other Commercial",5/25/2021,,2500000,25600,"1503 LEANDER DR",LEANDER,TX,78641,,,CONTRACTOR,,,,,,,,,,,"SPRING ARCHITECTS",,,,,"SPRING ARCHITECTS","2003 S LAMAR BLVD STE 9",AUSTIN,TX,78704-3373,"(512) 900-4425",http://springarchitects.com/,,,info@springarchitects.com
TX,TRAVIS,19-24611,"Residential Garages & Carports",5/28/2021,,50000,,"4001 MESQUITE",SPICEWOOD,TX,78669,,,CONTRACTOR,,,,,,,,,,,"WUKASCH DESIGNS",,,,,"WUKASCH DESIGNS","235 KELLY DR",BURNET,TX,78611-2831,"(512) 715-9093",,,,
TX,TRAVIS,21-32763,"Residential Garages & Carports",5/27/2021,,150000,,"305 S TUMBLEWEED TR",AUSTIN,TX,78733,,,"PAMELA  ALDEN","305 S TUMBLEWEED TR",AUSTIN,TX,78733,,Owner,,,,,"BOBAN CUSTOM BUILD",,,,,"BOBAN CUSTOM BUILD","2411 AUDUBON PL",AUSTIN,TX,78741-5504,"(512) 961-9926",,,,
TX,TRAVIS,21-34224,"Residential Garages & Carports",5/20/2021,,38000,,"1881 WESTLAKE",AUSTIN,TX,78746,,,CONTRACTOR,,,,,,,,,,,"PERMIT PARTNERS",,,,,"PERMIT PARTNERS","105 W RIVERSIDE DR STE 225",AUSTIN,TX,78704-1258,"(512) 593-5361",http://permit-partners.com,"(512) 213-0261",,info@permit-partners.com
TX,TRAVIS,"2021-079331 BP","Residential Garages & Carports",6/3/2021,,74000,572,"1309 BONHAM TER",AUSTIN,TX,78704,"TRAVIS HEIGHTS",18,"CHRISTOPHER & MELANIE BOYD","1309 BONHAM TER",AUSTIN,TX,78704,,Owner,,,,,"BLISS CONSTRUCTION",,,,,"BLISS CONSTRUCTION","3809 KANDY DR",AUSTIN,TX,78749-2551,"(512) 466-2402",,,,
TX,TRAVIS,21-32900,"Residential Renovations & Additions",5/25/2021,Renovations,255675,,"16501 SUMMERY ST",AUSTIN,TX,78744,,,CONTRACTOR,,,,,,,,,,,"PACESETTER HOMES ",,,,,"PACESETTER HOMES ","7940 SHOAL CREEK BLVD STE 200",AUSTIN,TX,78757-7587,"(512) 323-5252",,,,
TX,TRAVIS,21-32804,"Residential Renovations & Additions",5/12/2021,Renovations,425000,,"4202 SHADOW OAK LN",AUSTIN,TX,78746,,,"SHANTI MARSILLI","4202 SHADOW OAK LN",AUSTIN,TX,78746,,Owner,,,,,OWNER,,,,,OWNER,,,,,,,,,
TX,TRAVIS,20-28970,"Residential Renovations & Additions",5/24/2021,Renovations,550000,,"68 SUNDOWN PARKWAY",AUSTIN,TX,78746,"WESTLAKE OAKS",,"ROBERT BIARD","68 SUNDOWN PARKWAY",AUSTIN,TX,78746,,Owner,,,,,"CHANG'S STRUCTURAL CIVIL ENGINEERING",,,,,"CHANG'S STRUCTURAL CIVIL ENGINEERING","6512 CYPRESS PT N",AUSTIN,TX,78746-7154,"(512) 328-4223",,,"PETER CHANG",
TX,TRAVIS,20-29511,"Residential Renovations & Additions",5/21/2021,Renovations,590000,,"702 N COMMONS FORD ROAD",AUSTIN,TX,78733,,,CONTRACTOR,,,,,,,,,,,"SCHOENFELT ENGINEERING",,,,,"SCHOENFELT ENGINEERING","1715 S CAPITAL OF TEXAS HWY",AUSTIN,TX,78746,"(512) 328-0146",,,,
TX,TRAVIS,"2021-009531 BP","Residential Renovations & Additions",6/7/2021,Renovation,30000,334,"4003 PETES PATH",AUSTIN,TX,78731,RIDGELEA,94,"JESSE & TARA GREENDYK","4003 PETES PATH",AUSTIN,TX,78731,,Owner,,,,,"SWATCH COLLECTIVE",,,,,"SWATCH COLLECTIVE","2202 FALCON HILL DR ",AUSTIN,TX,78745,"(512) 897-2382",,,,
TX,TRAVIS,"2021-079330 BP","Residential Renovations & Additions",6/3/2021,Addition,40000,143,"1309 BONHAM TER",AUSTIN,TX,78704,"TRAVIS HEIGHTS",18,"CHRISTOPHER & MELANIE BOYD","1309 BONHAM TER",AUSTIN,TX,78704,,Owner,,,,,"BLISS CONSTRUCTION",,,,,"BLISS CONSTRUCTION","3809 KANDY DR",AUSTIN,TX,78749-2551,"(512) 466-2402",,,,
TX,TRAVIS,"2021-080839 BP","Residential Renovations & Additions",6/7/2021,Addition,100000,1148,"6200 BELFAST DR",AUSTIN,TX,78723,MEADOWBROOK,11,"MARY THOMPSON","6200 BELFAST DR",AUSTIN,TX,78723,,Owner,,,,,"RIVER CITY DESIGN & BUILD",,,,,"RIVER CITY DESIGN & BUILD","7907 HAVENWOOD DR",AUSTIN,TX,78759,"(512) 707-1103",,,,
TX,TRAVIS,"2021-078345 BP","Residential Renovations & Additions",6/2/2021,Renovation,127585,1400,"5901 HIGHLAND HILLS DR",AUSTIN,TX,78731,"HIGHLAND HILLS",4,CONTRACTOR,,,,,,,,,,,"HESTIA CONSTRUCTION & DESIGN",,,,,"HESTIA CONSTRUCTION & DESIGN","3303 NORTHLAND DRIVE 205",AUSTIN,TX,78731,"(832) 871-5582",,,,
TX,TRAVIS,"2021-083970 BP","Residential Renovations & Additions",6/3/2021,Addition,150000,353,"11100 FM 2244 RD",AUSTIN,TX,78733,COMMONS,,CONTRACTOR,,,,,,,,,,,"CLASSIC CONSTRUCTORS",,,,,"CLASSIC CONSTRUCTORS","2806 FLINTROCK TRCE STE 202",AUSTIN,TX,78738-1746,"(512) 402-1660",,,,
TX,TRAVIS,"2021-071060 BP","Residential Renovations & Additions",6/2/2021,Renovation,215000,1693,"1910 MAPLE AVE",AUSTIN,TX,78722,WASHINGTON,12,"ABEL JARAMILLO","284 KING ELDER ",LEANDER,TX,78641,"(512) 247-1276",Applicant,,,,,OWNER,,,,,OWNER,,,,,,,,,
TX,WILLIAMSON,2021-32754,"Residential Swimming Pools & Spas",5/13/2021,,,900,"1720 GILDED CREST DR",LEANDER,TX,78641,TRAVISSO,,CONTRACTOR,,,,,,,,,,,"EDGEWATER POOLS",,,,,"EDGEWATER POOLS","2800 E WHITESTONE BLVD STE 120","CEDAR PARK",TX,78613-7275,"(512) 569-9364",,,"SCOTT ASTON",
TX,WILLIAMSON,2021-33045,"Residential Swimming Pools & Spas",5/5/2021,,,1100,"2037 PORTOBELLO RD",LEANDER,TX,78641,TRAVISSO,,CONTRACTOR,,,,,,,,,,,"EDGEWATER POOLS",,,,,"EDGEWATER POOLS","2800 E WHITESTONE BLVD STE 120","CEDAR PARK",TX,78613-7275,"(512) 569-9364",,,"SCOTT ASTON",
TX,WILLIAMSON,2021-33136,"Residential Swimming Pools & Spas",5/3/2021,,,1110,"2417 HIGH LONESOME",LEANDER,TX,78641,"GRAND MESA",,CONTRACTOR,,,,,,,,,,,"LOY CUSTOM POOLS",,,,,"LOY CUSTOM POOLS","13201 LEGENDARY DR APT 15205",AUSTIN,TX,78727-4046,"(512) 904-0006",https://www.loycustompooldesigns.com,,"DENNIS LOY",info@loycustompools.com
TX,WILLIAMSON,2021-33196,"Residential Swimming Pools & Spas",5/5/2021,,,663,"1621 NOKOTA CT",LEANDER,TX,78641,,,CONTRACTOR,,,,,,,,,,,"SOUTHPAW POOLS INC",,,,,"SOUTHPAW POOLS INC","9900 SPECTRUM DR",AUSTIN,TX,78717-4555,"(512) 508-9683",http://www.southpawpools.com/,,"TODD KINGHORN",
TX,WILLIAMSON,2021-33197,"Residential Swimming Pools & Spas",5/11/2021,,,1164,"804 NICOSIA CT",LEANDER,TX,78641,MARBELLA,,CONTRACTOR,,,,,,,,,,,"DENALI POOLS",,,,,"DENALI POOLS","1904 BRUSHY BEND DR","ROUND ROCK",TX,78681-1451,"(512) 955-6564",,,,
TX,WILLIAMSON,2021-33269,"Residential Swimming Pools & Spas",5/4/2021,,,1603,"2209 MILAN MEADOWS DR",LEANDER,TX,78641,TRAVISSO,,CONTRACTOR,,,,,,,,,,,"PERMITS PLUS",,,,,"PERMITS PLUS","1107 E 52ND ST",ODESSA,TX,79762-4352,"(432) 550-4303",http://www.permitsplus-houston.com/,,,
TX,WILLIAMSON,2021-33459,"Residential Swimming Pools & Spas",5/12/2021,,,532,"506 AQUA BELL CV",LEANDER,TX,78641,"OLD TOWN VILLAGE",,"JOSE & MICHELE CALDERON","506 AQUA BELL CV",LEANDER,TX,78641,,Owner,,,,,"AQUAMARINE POOLS",,,,,"AQUAMARINE POOLS","8360 N INTERSTATE 35",GEORGETOWN,TX,78626-1766,"(800) 432-8994",,,,john@aquapools.com
TX,WILLIAMSON,2021-33461,"Residential Swimming Pools & Spas",5/12/2021,,,,"3713 DEEP POCKET DR",LEANDER,TX,78641,,,CONTRACTOR,,,,,,,,,,,"TROPICAL POOLS",,,,,"TROPICAL POOLS","16530 HUNTING GLEN ST","SAN ANTONIO",TX,78247-1130,"(210) 843-4653",http://www.tropicalpoolssa.com/,"(210) 653-3949",,tropicaltony1@yahoo.com
TX,WILLIAMSON,2021-33463,"Residential Swimming Pools & Spas",5/12/2021,,,770,"2412 GREAT PATH",LEANDER,TX,78641,,,"ANTHONY & MARY LUNA","2412 GREAT PATH",LEANDER,TX,78641,,Owner,,,,,"OP POOLS",,,,,"OP POOLS","2900 CORTES CT","ROUND ROCK",TX,78665,"(512) 897-8103",,,"ANAHI PAEZ",
TX,WILLIAMSON,2021-33515,"Residential Swimming Pools & Spas",5/12/2021,,,,"2817 WILD INDIGO WAY",LEANDER,TX,78641,,,CONTRACTOR,,,,,,,,,,,"CODY POOLS",,,,,"CODY POOLS","2300 W PARMER LN",AUSTIN,TX,78727-4332,"(512) 835-4966",http://www.codypools.com,,"COLE NAUMAN",
TX,WILLIAMSON,2021-33647,"Residential Swimming Pools & Spas",5/11/2021,,,304,"2006 FALL CREEK DR",LEANDER,TX,78641,,,"CALUETTE & JAMES SOLORZANO","2006 FALL CREEK DR",LEANDER,TX,78641,,Owner,,,,,"PERMITS PLUS",,,,,"PERMITS PLUS","1107 E 52ND ST",ODESSA,TX,79762-4352,"(432) 550-4303",http://www.permitsplus-houston.com/,,,
TX,WILLIAMSON,2021-33649,"Residential Swimming Pools & Spas",5/11/2021,,,751,"1905 CACTUS MOUND DR",LEANDER,TX,78641,,,"ARTHUR & MICHELLE CABALLERO","1905 CACTUS MOUND DR",LEANDER,TX,78641,,Owner,,,,,"DENALI POOLS",,,,,"DENALI POOLS","1904 BRUSHY BEND DR","ROUND ROCK",TX,78681-1451,"(512) 955-6564",,,,
TX,WILLIAMSON,2021-33667,"Residential Swimming Pools & Spas",5/12/2021,,,990,"1805 STINNETT DR",LEANDER,TX,78641,,,CONTRACTOR,,,,,,,,,,,"BLUE HAVEN POOLS",,,,,"BLUE HAVEN POOLS","260 ADDIE ROY RD STE 205",AUSTIN,TX,78746-4108,"(512) 345-2583",,,,
TX,WILLIAMSON,2021-33668,"Residential Swimming Pools & Spas",5/12/2021,,,1100,"2608 HOMECOMING",LEANDER,TX,78641,"THE HIGHLANDS",,"DEBORA WRIGHT","2608 HOMECOMING",LEANDER,TX,78641,,Owner,,,,,"AQUAMARINE POOLS",,,,,"AQUAMARINE POOLS","8360 N INTERSTATE 35",GEORGETOWN,TX,78626-1766,"(800) 432-8994",,,,john@aquapools.com
TX,WILLIAMSON,2021-33669,"Residential Swimming Pools & Spas",5/12/2021,,,660,"2701 BANTRY RD",LEANDER,TX,78641,,,CONTRACTOR,,,,,,,,,,,"AQUAMARINE POOLS",,,,,"AQUAMARINE POOLS","8360 N INTERSTATE 35",GEORGETOWN,TX,78626-1766,"(800) 432-8994",,,,john@aquapools.com
TX,WILLIAMSON,2021-33890,"Residential Swimming Pools & Spas",5/17/2021,,,1212,"2217 TRADITIONS CT",LEANDER,TX,78641,,,CONTRACTOR,,,,,,,,,,,"DENALI POOLS",,,,,"DENALI POOLS","1904 BRUSHY BEND DR","ROUND ROCK",TX,78681-1451,"(512) 955-6564",,,,
TX,WILLIAMSON,2021-33892,"Residential Swimming Pools & Spas",5/18/2021,,,974,"3917 MEDICINE HAT",LEANDER,TX,78641,,,CONTRACTOR,,,,,,,,,,,"PERMITS PLUS",,,,,"PERMITS PLUS","1107 E 52ND ST",ODESSA,TX,79762-4352,"(432) 550-4303",http://www.permitsplus-houston.com/,,,
TX,WILLIAMSON,2021-33903,"Residential Swimming Pools & Spas",5/26/2021,,,396,"2932 FALLCREST BND",LEANDER,TX,78641,,,CONTRACTOR,,,,,,,,,,,"NATIVE WATERSCAPES",,,,,"NATIVE WATERSCAPES","231 FROG POND LN",AUSTIN,TX,78735,"(512) 301-3474",,,,
TX,WILLIAMSON,2021-33931,"Residential Swimming Pools & Spas",5/26/2021,,,1228,"2005 COTTON FARM TRL",LEANDER,TX,78641,"MASON RANCH",,CONTRACTOR,,,,,,,,,,,"TRIROCK PERMITS",,,,,"TRIROCK PERMITS","12234 N INTERSTATE 35 STE 100 BLDG B",AUSTIN,TX,78753-0002,"(512) 658-1287",,,,trirockpermits@gmail.com
TX,WILLIAMSON,2021-34044,"Residential Swimming Pools & Spas",5/26/2021,,,1010,"2113 MILAN MEADOWS DR",LEANDER,TX,78641,,,"MICHAEL & CHRISTINA YAZALINA","2113 MILAN MEADOWS DR",LEANDER,TX,78641,,Owner,,,,,"TRIROCK PERMITS",,,,,"TRIROCK PERMITS","12234 N INTERSTATE 35 STE 100 BLDG B",AUSTIN,TX,78753-0002,"(512) 658-1287",,,,trirockpermits@gmail.com
TX,WILLIAMSON,2021-34280,"Residential Swimming Pools & Spas",5/26/2021,,,1000,"4145 NOVELLA CV",LEANDER,TX,78641,,,CONTRACTOR,,,,,,,,,,,"MATTOX EXTERIORS",,,,,"MATTOX EXTERIORS","605 SCENIC PATH",LEANDER,TX,78641,"(512) 657-3045",http://mattoxhomesolutions.com/,,,Mattoxexteriors@gmail.com
TX,TRAVIS,21-33748,"Residential Swimming Pools & Spas",5/19/2021,,25000,,"17004 HURST VIEW",AUSTIN,TX,78734,,,"DAVID SWANSON","17004 HURST VIEW",AUSTIN,TX,78734,,Owner,,,,,OWNER,,,,,OWNER,,,,,,,,,
TX,TRAVIS,21-33740,"Residential Swimming Pools & Spas",5/25/2021,,138000,,"1500 BUFFALO GAP RD",AUSTIN,TX,78734,,,CONTRACTOR,,,,,,,,,,,"PREMIER POOLS & SPAS",,,,,"PREMIER POOLS & SPAS","7703 N LAMAR BLVD STE 606",AUSTIN,TX,78752-1027,"(512) 470-3949",,,,
TX,TRAVIS,21-33395,"Residential Swimming Pools & Spas",5/25/2021,,75000,,"1000 PATTERSON RD 6",AUSTIN,TX,78733,"PATTERSON COURT",,CONTRACTOR,,,,,,,,,,,"ATHENA POOLS",,,,,"ATHENA POOLS","2209 PERSIMMON RIDGE CT",AUSTIN,TX,78732-2085,"(512) 914-0554",http://athenapools.com,"(512) 410-0363",,athenapools@austin.rr.com
TX,TRAVIS,"2021-077836 BP","Residential Swimming Pools & Spas",6/2/2021,,75000,1001,"1904 TREVINO DR",AUSTIN,TX,78746,"THE HILLS OF LOST CREEK",35,"FRANK & KELLEY EDWARDS","1904 TREVINO DR",AUSTIN,TX,78746,,Owner,,,,,"AVANTI POOLS",,,,,"AVANTI POOLS","12400 LONE MOUNTAIN PASS",LEANDER,TX,78641,"(512) 797-5380",,,,
TX,TRAVIS,"2021-083282 BP","Residential Swimming Pools & Spas",6/2/2021,,,420,"1009 BOB WHITE DR",AUSTIN,TX,78758,"QUAIL CREEK",2,"MARCELO & JENNIFER MENDEZ","1009 BOB WHITE DR",AUSTIN,TX,78758,,Owner,,,,,"BRIGHTEN POOLS",,,,,"BRIGHTEN POOLS","6215 MESA GRANDE DR ",AUSTIN,TX,78749,"(512) 217-8004",https://brightenpools.com/,,,brightenpools@yahoo.com
TX,TRAVIS,"2021-047704 BP","Residential Swimming Pools & Spas",6/2/2021,,,543,"8017 LONG CANYON DR",AUSTIN,TX,78730,"LONG CANYON",11,"MARK & SARAH OPPEL","8017 LONG CANYON DR",AUSTIN,TX,78730,,Owner,,,,,"JOHNSON CUSTOM POOLS",,,,,"JOHNSON CUSTOM POOLS","12133 PECAN ST",AUSTIN,TX,78727-6108,"(512) 346-3288",,,,
TX,TRAVIS,"2021-068036 BP","Residential Swimming Pools & Spas",6/2/2021,,,541,"1202 CLAIRE AVE",AUSTIN,TX,78703,"SHOAL TERRACE",5,"TARA & DANIEL TARABA","1202 CLAIRE AVE",AUSTIN,TX,78703,,Owner,,,,,"WATERVIEW POOLS",,,,,"WATERVIEW POOLS","13313 KINDER PASS",AUSTIN,TX,78727-3415,"(512) 289-7665",http://waterviewpools.com,,,
TX,TRAVIS,"2021-084629 BP","Residential Swimming Pools & Spas",6/4/2021,,,392,"3317 WINDSOR RD",AUSTIN,TX,78703,"TARRY TOWN",151,CONTRACTOR,,,,,,,,,,,"PARADISA HOMES",,,,,"PARADISA HOMES","7427 N LAMAR BLVD STE 101",AUSTIN,TX,78752-2358,"(512) 910-4505",http://www.paradisahomes.com/,,,
TX,TRAVIS,"2021-084896 BP","Residential Swimming Pools & Spas",6/4/2021,,,342,"2015 DE VERNE ST",AUSTIN,TX,78704,"RABB INWOOD HILLS",8,"EMILY CALVO","2015 DE VERNE ST",AUSTIN,TX,78704,,Owner,,,,,"PARADISA HOMES",,,,,"PARADISA HOMES","7427 N LAMAR BLVD STE 101",AUSTIN,TX,78752-2358,"(512) 910-4505",http://www.paradisahomes.com/,,,
TX,TRAVIS,"2021-066326 BP","Residential Swimming Pools & Spas",6/4/2021,,,420,"9500 IVALENES HOPE DR",AUSTIN,TX,78717,"PEARSON PLACE",,CONTRACTOR,,,,,,,,,,,"LEISURE POOLS & SPAS",,,,,"LEISURE POOLS & SPAS","2901 LEISURE ISLAND WAY ",KNOXVILLE,TN,37914,"(512) 960-4675",,,,
TX,TRAVIS,"2021-084400 BP","Residential Swimming Pools & Spas",6/7/2021,,,106,"1411 HASKELL ST",AUSTIN,TX,78702,,,CONTRACTOR,,,,,,,,,,,"TOUCH OF MODERN BUILDERS",,,,,"TOUCH OF MODERN BUILDERS","136907 HUNTERS PASS",AUSTIN,TX,78734,"(512) 909-4015",,,,
TX,TRAVIS,"2021-081305 BP","Residential Swimming Pools & Spas",6/7/2021,,,405,"3004 KINNEY AVE",AUSTIN,TX,78704,"LOW THEODORE HEIGHTS",,CONTRACTOR,,,,,,,,,,,"MOAZAMI HOMES",,,,,"MOAZAMI HOMES","3571 FAR WEST BLVD UNIT 220",AUSTIN,TX,78731-3064,"(512) 507-9675",,,,
TX,TRAVIS,"2021-084137 BP","Residential Swimming Pools & Spas",6/3/2021,,,463,"14216 CANYON TRL",AUSTIN,TX,78717,"AVERY RANCH",,CONTRACTOR,,,,,,,,,,,"CODY POOLS",,,,,"CODY POOLS","2300 W PARMER LN",AUSTIN,TX,78727-4332,"(512) 835-4966",http://www.codypools.com,,"COLE NAUMAN",
TX,TRAVIS,"2021-083990 BP","Residential Swimming Pools & Spas",6/7/2021,,30000,135,"702 WICKFORD CIR",AUSTIN,TX,78704,"SHERWOOD OAKS",14,CONTRACTOR,,,,,,,,,,,"JACK BOOTHE CONSTRUCTION",,,,,"JACK BOOTHE CONSTRUCTION","1611 EVA ST",AUSTIN,TX,78704-3012,"(210) 557-2792",,,,
TX,TRAVIS,"2021-081361 BP","Residential Swimming Pools & Spas",6/2/2021,,74000,202,"1900 DEXTER ST",AUSTIN,TX,78704,"SOUTH LUND PARK",12,"PAUL DETKE","1900 DEXTER ST",AUSTIN,TX,78704,,Owner,,,,,"JOHNSON CUSTOM POOLS",,,,,"JOHNSON CUSTOM POOLS","12133 PECAN ST",AUSTIN,TX,78727-6108,"(512) 346-3288",,,,
TX,TRAVIS,"2021-084322 BP",Retail,6/3/2021,Renovation,3800000,28858,"6214 E RIVERSIDE DR",AUSTIN,TX,78741,ANGELL,29,CONTRACTOR,,,,,,,,,,,"ACR BUILDING ENTERPRISES",,,,,"ACR BUILDING ENTERPRISES","1900 E ANDERSON LN STE 103",AUSTIN,TX,78752-1979,"(512) 999-1718",,,,
TX,WILLIAMSON,2020-28581,"Single Family Homes",5/27/2021,,,3083,"2621 SAN BAUTISTA WAY",LEANDER,TX,78641,"PALMERA RIDGE",,CONTRACTOR,,,,,,,,,,,"PERRY HOMES",,,,,"PERRY HOMES","6112 LLANO ST",AUSTIN,TX,78702,"(512) 810-8050",,,,
TX,WILLIAMSON,2020-29322,"Single Family Homes",5/11/2021,,,3834,"2720 GRIZZLY WAY",LEANDER,TX,78641,DEERBROOKE,,CONTRACTOR,,,,,,,,,,,"PERRY HOMES",,,,,"PERRY HOMES","6112 LLANO ST",AUSTIN,TX,78702,"(512) 810-8050",,,,
TX,WILLIAMSON,2020-29501,"Single Family Homes",5/26/2021,,,3565,"1600 DEVINE LAKE BND",LEANDER,TX,78641,"DEVINE LAKE",,CONTRACTOR,,,,,,,,,,,"LENNAR HOMES",,,,,"LENNAR HOMES","13620 FM 620 RD 150",AUSTIN,TX,78717,"(512) 506-4000",http://www.lennar.com/,,,
TX,WILLIAMSON,2021-31231,"Single Family Homes",5/19/2021,,,3186,"1709 DEVINE LAKE BND",LEANDER,TX,78641,DEVINE,,CONTRACTOR,,,,,,,,,,,"LENNAR HOMES",,,,,"LENNAR HOMES","13620 FM 620 RD 150",AUSTIN,TX,78717,"(512) 506-4000",http://www.lennar.com/,,,
TX,WILLIAMSON,2021-31250,"Single Family Homes",5/13/2021,,,2748,"1612 GLADEWATER WAY",LEANDER,TX,78641,"DEVINE LAKE",,CONTRACTOR,,,,,,,,,,,"LENNAR HOMES",,,,,"LENNAR HOMES","13620 FM 620 RD 150",AUSTIN,TX,78717,"(512) 506-4000",http://www.lennar.com/,,,
TX,WILLIAMSON,2021-31332,"Single Family Homes",5/4/2021,,,5687,"1516 HINTERWALD ST",LEANDER,TX,78641,BLUFFVIEW,,CONTRACTOR,,,,,,,,,,,"TAYLOR MORRISON OF TEXAS",,,,,"TAYLOR MORRISON OF TEXAS","11200 LAKELINE BLVD STE 150A",AUSTIN,TX,78717-5964,"(512) 328-8866",,"(512) 328-7988",,
TX,WILLIAMSON,2021-31398,"Single Family Homes",5/4/2021,,,3646,"3621 GABRIELS HORN RD",LEANDER,TX,78641,BLUFFVIEW,,CONTRACTOR,,,,,,,,,,,"TAYLOR MORRISON OF TEXAS",,,,,"TAYLOR MORRISON OF TEXAS","11200 LAKELINE BLVD STE 150A",AUSTIN,TX,78717-5964,"(512) 328-8866",,"(512) 328-7988",,
TX,WILLIAMSON,2021-31402,"Single Family Homes",5/17/2021,,,4836,"1005 ALMERIA BND",LEANDER,TX,78641,MARBELLA,,CONTRACTOR,,,,,,,,,,,"PACESETTER HOMES ",,,,,"PACESETTER HOMES ","7940 SHOAL CREEK BLVD STE 200",AUSTIN,TX,78757-7587,"(512) 323-5252",,,,
TX,WILLIAMSON,2021-31431,"Single Family Homes",5/13/2021,,,2636,"1641 CATAHOULA DR",LEANDER,TX,78641,"DEVINE LAKE",,CONTRACTOR,,,,,,,,,,,"LENNAR HOMES",,,,,"LENNAR HOMES","13620 FM 620 RD 150",AUSTIN,TX,78717,"(512) 506-4000",http://www.lennar.com/,,,
TX,WILLIAMSON,2021-31443,"Single Family Homes",5/10/2021,,,3582,"1224 VOLENTE LN",LEANDER,TX,78641,"MASON RANCH",,CONTRACTOR,,,,,,,,,,,"KB HOME",,,,,"KB HOME","10800 PECAN PARK BLVD STE 200",AUSTIN,TX,78750-1249,"(512) 651-8100",,,,
TX,WILLIAMSON,2021-31735,"Single Family Homes",5/19/2021,,,3526,"1700 CATAHOULA DR",LEANDER,TX,78641,"DEVINE LAKE",,CONTRACTOR,,,,,,,,,,,"LENNAR HOMES",,,,,"LENNAR HOMES","13620 FM 620 RD 150",AUSTIN,TX,78717,"(512) 506-4000",http://www.lennar.com/,,,
TX,WILLIAMSON,2021-31751,"Single Family Homes",5/12/2021,,,3834,"1004 BIRCHBROOKE DR",LEANDER,TX,78641,DEERBROOKE,,CONTRACTOR,,,,,,,,,,,"PERRY HOMES",,,,,"PERRY HOMES","6112 LLANO ST",AUSTIN,TX,78702,"(512) 810-8050",,,,
TX,WILLIAMSON,2021-31915,"Single Family Homes",5/6/2021,,,3630,"1525 LOW BRANCH LN",LEANDER,TX,78641,,,CONTRACTOR,,,,,,,,,,,"GEHAN HOMES",,,,,"GEHAN HOMES","3815 S CAPITAL OF TEXAS HWY STE 275",AUSTIN,TX,78704-6652,"(512) 330-9366",http://www.gehanhomes.com,,"JANET PHILLIPS",
TX,WILLIAMSON,2021-32122,"Single Family Homes",5/3/2021,,,3167,"1512 LOW BRANCH LN",LEANDER,TX,78641,,,CONTRACTOR,,,,,,,,,,,"GEHAN HOMES",,,,,"GEHAN HOMES","3815 S CAPITAL OF TEXAS HWY STE 275",AUSTIN,TX,78704-6652,"(512) 330-9366",http://www.gehanhomes.com,,"JANET PHILLIPS",
TX,WILLIAMSON,2021-32157,"Single Family Homes",5/21/2021,,,3379,"1520 LOW BRANCH LN",LEANDER,TX,78641,HOMESTEAD,,CONTRACTOR,,,,,,,,,,,"GEHAN HOMES",,,,,"GEHAN HOMES","3815 S CAPITAL OF TEXAS HWY STE 275",AUSTIN,TX,78704-6652,"(512) 330-9366",http://www.gehanhomes.com,,"JANET PHILLIPS",
TX,WILLIAMSON,2021-32166,"Single Family Homes",5/24/2021,,,4785,"705 PEREGRINE WAY",LEANDER,TX,78641,,,CONTRACTOR,,,,,,,,,,,"AGCI CONSTRUCTION SERVICES",,,,,"AGCI CONSTRUCTION SERVICES","PO BOX 862",PFLUGERVILLE,TX,78691,"(512) 826-1324",,,,
TX,WILLIAMSON,2021-32176,"Single Family Homes",5/22/2021,,,2933,"912 AZUL LAGOON DR",LEANDER,TX,78641,"PALMERA RIDGE",,CONTRACTOR,,,,,,,,,,,"PERRY HOMES",,,,,"PERRY HOMES","6112 LLANO ST",AUSTIN,TX,78702,"(512) 810-8050",,,,
TX,WILLIAMSON,2021-32178,"Single Family Homes",5/11/2021,,,2849,"816 AZUL LAGOON DR",LEANDER,TX,78641,"PALMERA RIDGE",,CONTRACTOR,,,,,,,,,,,"PERRY HOMES",,,,,"PERRY HOMES","6112 LLANO ST",AUSTIN,TX,78702,"(512) 810-8050",,,,
TX,WILLIAMSON,2021-32205,"Single Family Homes",5/5/2021,,,7141,"1909 PUCCINI PATH",LEANDER,TX,78641,TRAVISSO,,"BHUPEN BABARIA","1909 PUCCINI PATH",LEANDER,TX,78641,,Owner,,,,,OWNER,,,,,OWNER,,,,,,,,,
TX,WILLIAMSON,2021-32215,"Single Family Homes",5/17/2021,,,3265,"2204 MCCLENDON TRL",LEANDER,TX,78641,HOMESTEAD,,CONTRACTOR,,,,,,,,,,,"GEHAN HOMES",,,,,"GEHAN HOMES","3815 S CAPITAL OF TEXAS HWY STE 275",AUSTIN,TX,78704-6652,"(512) 330-9366",http://www.gehanhomes.com,,"JANET PHILLIPS",
TX,WILLIAMSON,2021-32236,"Single Family Homes",5/28/2021,,,5606,"3317 RETINTA ST",LEANDER,TX,78641,,,CONTRACTOR,,,,,,,,,,,"TAYLOR MORRISON OF TEXAS",,,,,"TAYLOR MORRISON OF TEXAS","11200 LAKELINE BLVD STE 150A",AUSTIN,TX,78717-5964,"(512) 328-8866",,"(512) 328-7988",,
TX,WILLIAMSON,2021-32241,"Single Family Homes",5/1/2021,,,4587,"1124 KERRWOOD WAY",LEANDER,TX,78641,DEERBROOKE,,CONTRACTOR,,,,,,,,,,,"GEHAN HOMES",,,,,"GEHAN HOMES","3815 S CAPITAL OF TEXAS HWY STE 275",AUSTIN,TX,78704-6652,"(512) 330-9366",http://www.gehanhomes.com,,"JANET PHILLIPS",
TX,WILLIAMSON,2021-32257,"Single Family Homes",5/6/2021,,,3057,"2108 CENTERLINE LN",LEANDER,TX,78628,"LIVELY TRACT",,CONTRACTOR,,,,,,,,,,,"DR HORTON",,,,,"DR HORTON","10700 PECAN PARK BLVD STE 400",AUSTIN,TX,78750-1227,"(512) 345-4663",,,,
TX,WILLIAMSON,2021-32259,"Single Family Homes",5/20/2021,,,2620,"2113 CENTERLINE LN",LEANDER,TX,78628,"LIVELY TRACT",,CONTRACTOR,,,,,,,,,,,"DR HORTON",,,,,"DR HORTON","10700 PECAN PARK BLVD STE 400",AUSTIN,TX,78750-1227,"(512) 345-4663",,,,
TX,WILLIAMSON,2021-32273,"Single Family Homes",5/3/2021,,,3256,"1529 HARRONGTON WAY",LEANDER,TX,78641,HOMESTEAD,,CONTRACTOR,,,,,,,,,,,"GEHAN HOMES",,,,,"GEHAN HOMES","3815 S CAPITAL OF TEXAS HWY STE 275",AUSTIN,TX,78704-6652,"(512) 330-9366",http://www.gehanhomes.com,,"JANET PHILLIPS",
TX,WILLIAMSON,2021-32280,"Single Family Homes",5/28/2021,,,4403,"1520 DONETTO DR",LEANDER,TX,78641,BLUFFVIEW,,CONTRACTOR,,,,,,,,,,,"TAYLOR MORRISON OF TEXAS",,,,,"TAYLOR MORRISON OF TEXAS","11200 LAKELINE BLVD STE 150A",AUSTIN,TX,78717-5964,"(512) 328-8866",,"(512) 328-7988",,
TX,WILLIAMSON,2021-32281,"Single Family Homes",5/4/2021,,,5010,"3428 ARRIETA DR",LEANDER,TX,78641,BLUFFVIEW,,CONTRACTOR,,,,,,,,,,,"TAYLOR MORRISON OF TEXAS",,,,,"TAYLOR MORRISON OF TEXAS","11200 LAKELINE BLVD STE 150A",AUSTIN,TX,78717-5964,"(512) 328-8866",,"(512) 328-7988",,
TX,WILLIAMSON,2021-32288,"Single Family Homes",5/28/2021,,,4358,"1428 HINTERWALD ST",LEANDER,TX,78641,BLUFFVIEW,,CONTRACTOR,,,,,,,,,,,"TAYLOR MORRISON OF TEXAS",,,,,"TAYLOR MORRISON OF TEXAS","11200 LAKELINE BLVD STE 150A",AUSTIN,TX,78717-5964,"(512) 328-8866",,"(512) 328-7988",,
TX,WILLIAMSON,2021-32312,"Single Family Homes",5/10/2021,,,3118,"705 MADALIN RUE CT",LEANDER,TX,78641,"HAVEN OAKS",,CONTRACTOR,,,,,,,,,,,"KB HOME",,,,,"KB HOME","10800 PECAN PARK BLVD STE 200",AUSTIN,TX,78750-1249,"(512) 651-8100",,,,
TX,WILLIAMSON,2021-32314,"Single Family Homes",5/3/2021,,,5191,"1608 ABBOT CV",LEANDER,TX,78641,"MASON RANCH",,CONTRACTOR,,,,,,,,,,,"KB HOME",,,,,"KB HOME","10800 PECAN PARK BLVD STE 200",AUSTIN,TX,78750-1249,"(512) 651-8100",,,,
TX,WILLIAMSON,2021-32315,"Single Family Homes",5/3/2021,,,3366,"1612 ABBOT CV",LEANDER,TX,78641,"MASON RANCH",,CONTRACTOR,,,,,,,,,,,"KB HOME",,,,,"KB HOME","10800 PECAN PARK BLVD STE 200",AUSTIN,TX,78750-1249,"(512) 651-8100",,,,
TX,WILLIAMSON,2021-32328,"Single Family Homes",5/21/2021,,,3276,"1836 TURTLE BAY LOOP",LEANDER,TX,78641,"CRYSTAL SPRINGS",,CONTRACTOR,,,,,,,,,,,"CENTURY COMMUNITIES",,,,,"CENTURY COMMUNITIES","6500 RIVER PLACE BLVD STE 200",AUSTIN,TX,78730-1156,"(512) 271-3825",https://www.centurycommunities.com/,,,
TX,WILLIAMSON,2021-32347,"Single Family Homes",5/26/2021,,,3526,"1016 BLUEWOOD BND",LEANDER,TX,78641,BRYSON,,CONTRACTOR,,,,,,,,,,,"LENNAR HOMES",,,,,"LENNAR HOMES","13620 FM 620 RD 150",AUSTIN,TX,78717,"(512) 506-4000",http://www.lennar.com/,,,
TX,WILLIAMSON,2021-32351,"Single Family Homes",5/11/2021,,,7425,"2349 BEL PAESE BND",LEANDER,TX,78641,,,CONTRACTOR,,,,,,,,,,,"TOLL BROTHERS",,,,,"TOLL BROTHERS","310 ARIA DR",AUSTIN,TX,78738-1740,"(512) 491-0378",,,,
TX,WILLIAMSON,2021-32355,"Single Family Homes",5/12/2021,,,3558,"2705 DANBURY LN",LEANDER,TX,78641,LEANDER,,CONTRACTOR,,,,,,,,,,,"ASHTON WOODS HOMES",,,,,"ASHTON WOODS HOMES","4201 W PARMER LN STE A150",AUSTIN,TX,78727-4118,"(512) 610-7000",,,,
TX,WILLIAMSON,2021-32358,"Single Family Homes",5/1/2021,,,2165,"2729 STONE BRANCH DR",LEANDER,TX,78641,DEERBROOKE,,CONTRACTOR,,,,,,,,,,,"CENTURY COMMUNITIES",,,,,"CENTURY COMMUNITIES","6500 RIVER PLACE BLVD STE 200",AUSTIN,TX,78730-1156,"(512) 271-3825",https://www.centurycommunities.com/,,,
TX,WILLIAMSON,2021-32362,"Single Family Homes",5/11/2021,,,3768,"3616 GABRIELS HORN RD",LEANDER,TX,78641,BLUFFVIEW,,CONTRACTOR,,,,,,,,,,,"PULTE HOMES",,,,,"PULTE HOMES","9401 AMBERGLEN BLVD STE I-150",AUSTIN,TX,78729-1154,"(512) 561-4344",,,,
TX,WILLIAMSON,2021-32363,"Single Family Homes",5/11/2021,,,3947,"1904 DONETTO DR",LEANDER,TX,78641,BLUFFVIEW,,CONTRACTOR,,,,,,,,,,,"PULTE HOMES",,,,,"PULTE HOMES","9401 AMBERGLEN BLVD STE I-150",AUSTIN,TX,78729-1154,"(512) 561-4344",,,,
TX,WILLIAMSON,2021-32364,"Single Family Homes",5/11/2021,,,3936,"3409 CHARADE DR",LEANDER,TX,78641,BLUFFVIEW,,CONTRACTOR,,,,,,,,,,,"PULTE HOMES",,,,,"PULTE HOMES","9401 AMBERGLEN BLVD STE I-150",AUSTIN,TX,78729-1154,"(512) 561-4344",,,,
TX,WILLIAMSON,2021-32366,"Single Family Homes",5/11/2021,,,4512,"1524 DONETTO DR",LEANDER,TX,78641,BLUFFVIEW,,CONTRACTOR,,,,,,,,,,,"PULTE HOMES",,,,,"PULTE HOMES","9401 AMBERGLEN BLVD STE I-150",AUSTIN,TX,78729-1154,"(512) 561-4344",,,,
TX,WILLIAMSON,2021-32383,"Single Family Homes",5/11/2021,,,4536,"1509 DONETTO DR",LEANDER,TX,78641,BLUFFVIEW,,CONTRACTOR,,,,,,,,,,,"PULTE HOMES",,,,,"PULTE HOMES","9401 AMBERGLEN BLVD STE I-150",AUSTIN,TX,78729-1154,"(512) 561-4344",,,,
TX,WILLIAMSON,2021-32415,"Single Family Homes",5/4/2021,,,3542,"1912 DONETTO DR",LEANDER,TX,78641,BLUFFVIEW,,CONTRACTOR,,,,,,,,,,,"TAYLOR MORRISON OF TEXAS",,,,,"TAYLOR MORRISON OF TEXAS","11200 LAKELINE BLVD STE 150A",AUSTIN,TX,78717-5964,"(512) 328-8866",,"(512) 328-7988",,
TX,WILLIAMSON,2021-32416,"Single Family Homes",5/22/2021,,,3256,"1521 HARRONGTON WAY",LEANDER,TX,78641,HOMESTEAD,,CONTRACTOR,,,,,,,,,,,"GEHAN HOMES",,,,,"GEHAN HOMES","3815 S CAPITAL OF TEXAS HWY STE 275",AUSTIN,TX,78704-6652,"(512) 330-9366",http://www.gehanhomes.com,,"JANET PHILLIPS",
TX,WILLIAMSON,2021-32427,"Single Family Homes",5/1/2021,,,2177,"2737 STONE BRANCH DR",LEANDER,TX,78641,DEERBROOKE,,CONTRACTOR,,,,,,,,,,,"CENTURY COMMUNITIES",,,,,"CENTURY COMMUNITIES","6500 RIVER PLACE BLVD STE 200",AUSTIN,TX,78730-1156,"(512) 271-3825",https://www.centurycommunities.com/,,,
TX,WILLIAMSON,2021-32433,"Single Family Homes",5/13/2021,,,3167,"1541 LOW BRANCH LN",LEANDER,TX,78641,,,CONTRACTOR,,,,,,,,,,,"GEHAN HOMES",,,,,"GEHAN HOMES","3815 S CAPITAL OF TEXAS HWY STE 275",AUSTIN,TX,78704-6652,"(512) 330-9366",http://www.gehanhomes.com,,"JANET PHILLIPS",
TX,WILLIAMSON,2021-32435,"Single Family Homes",5/5/2021,,,2364,"1532 BRUEGGERHOFF RD",LEANDER,TX,78641,BRYSON,,CONTRACTOR,,,,,,,,,,,"LENNAR HOMES",,,,,"LENNAR HOMES","13620 FM 620 RD 150",AUSTIN,TX,78717,"(512) 506-4000",http://www.lennar.com/,,,
TX,WILLIAMSON,2021-32438,"Single Family Homes",5/28/2021,,,6165,"4625 PORT GENOVA CT",LEANDER,TX,78641,TRAVISSO,,CONTRACTOR,,,,,,,,,,,"TOLL BROTHERS",,,,,"TOLL BROTHERS","310 ARIA DR",AUSTIN,TX,78738-1740,"(512) 491-0378",,,,
TX,WILLIAMSON,2021-32439,"Single Family Homes",5/17/2021,,,4076,"2620 GREAT OWL PASS",LEANDER,TX,78641,GREATWOOD,,CONTRACTOR,,,,,,,,,,,"CALEDONIA BUILDERS",,,,,"CALEDONIA BUILDERS","3804 PANTHER HALL",LEANDER,TX,78641-3698,"(512) 739-8338",,,"IAN BOYD",
TX,WILLIAMSON,2021-32451,"Single Family Homes",5/22/2021,,,2762,"1640 INDIAN APPLE WAY",LEANDER,TX,78641,BRYSON,,CONTRACTOR,,,,,,,,,,,"TRI POINTE HOMES",,,,,"TRI POINTE HOMES","4835 LBJ FREEWAY STE 700",DALLAS,TX,75244,"(972) 922-5731",https://investors.tripointehomes.com/,,,
TX,WILLIAMSON,2021-32464,"Single Family Homes",5/12/2021,,,2466,"2733 STONE BRANCH DR",LEANDER,TX,78641,DEERBROOKE,,CONTRACTOR,,,,,,,,,,,"CENTURY COMMUNITIES",,,,,"CENTURY COMMUNITIES","6500 RIVER PLACE BLVD STE 200",AUSTIN,TX,78730-1156,"(512) 271-3825",https://www.centurycommunities.com/,,,
TX,WILLIAMSON,2021-32467,"Single Family Homes",5/1/2021,,,2156,"2801 STONE BRANCH DR",LEANDER,TX,78641,DEERBROOKE,,CONTRACTOR,,,,,,,,,,,"CENTURY COMMUNITIES",,,,,"CENTURY COMMUNITIES","6500 RIVER PLACE BLVD STE 200",AUSTIN,TX,78730-1156,"(512) 271-3825",https://www.centurycommunities.com/,,,
TX,WILLIAMSON,2021-32500,"Single Family Homes",5/13/2021,,,4075,"2509 CARRETERA DR",LEANDER,TX,78641,"PALMERA RIDGE",,CONTRACTOR,,,,,,,,,,,"CHESMAR HOMES",,,,,"CHESMAR HOMES","2900 N QUINLAN PARK RD",AUSTIN,TX,78732-6083,"(512) 233-9016",http://chesmar.com,,,
TX,WILLIAMSON,2021-32525,"Single Family Homes",5/17/2021,,,2892,"2945 SAGE RANCH DR",LEANDER,TX,78641,DEERBROOKE,,CONTRACTOR,,,,,,,,,,,"CHESMAR HOMES",,,,,"CHESMAR HOMES","2900 N QUINLAN PARK RD",AUSTIN,TX,78732-6083,"(512) 233-9016",http://chesmar.com,,,
TX,WILLIAMSON,2021-32526,"Single Family Homes",5/17/2021,,,2699,"2941 SAGE RANCH DR",LEANDER,TX,78641,DEERBROOKE,,CONTRACTOR,,,,,,,,,,,"CHESMAR HOMES",,,,,"CHESMAR HOMES","2900 N QUINLAN PARK RD",AUSTIN,TX,78732-6083,"(512) 233-9016",http://chesmar.com,,,
TX,WILLIAMSON,2021-32527,"Single Family Homes",5/4/2021,,,2928,"3345 CHARADE DR",LEANDER,TX,78641,BLUFFVIEW,,CONTRACTOR,,,,,,,,,,,"TAYLOR MORRISON OF TEXAS",,,,,"TAYLOR MORRISON OF TEXAS","11200 LAKELINE BLVD STE 150A",AUSTIN,TX,78717-5964,"(512) 328-8866",,"(512) 328-7988",,
TX,WILLIAMSON,2021-32529,"Single Family Homes",5/19/2021,,,2680,"1428 LATOKA SPRINGS RD",LEANDER,TX,78641,"DEVINE LAKE",,CONTRACTOR,,,,,,,,,,,"LENNAR HOMES",,,,,"LENNAR HOMES","13620 FM 620 RD 150",AUSTIN,TX,78717,"(512) 506-4000",http://www.lennar.com/,,,
TX,WILLIAMSON,2021-32531,"Single Family Homes",5/13/2021,,,3939,"4640 MODENA BAY BND",LEANDER,TX,78641,TRAVISSO,,CONTRACTOR,,,,,,,,,,,"TAYLOR MORRISON OF TEXAS",,,,,"TAYLOR MORRISON OF TEXAS","11200 LAKELINE BLVD STE 150A",AUSTIN,TX,78717-5964,"(512) 328-8866",,"(512) 328-7988",,
TX,WILLIAMSON,2021-32550,"Single Family Homes",5/17/2021,,,2784,"1101 KERRWOOD WAY",LEANDER,TX,78641,DEERBROOKE,,CONTRACTOR,,,,,,,,,,,"CHESMAR HOMES",,,,,"CHESMAR HOMES","2900 N QUINLAN PARK RD",AUSTIN,TX,78732-6083,"(512) 233-9016",http://chesmar.com,,,
TX,WILLIAMSON,2021-32551,"Single Family Homes",5/17/2021,,,3697,"1109 KERRWOOD WAY",LEANDER,TX,78641,DEERBROOKE,,CONTRACTOR,,,,,,,,,,,"CHESMAR HOMES",,,,,"CHESMAR HOMES","2900 N QUINLAN PARK RD",AUSTIN,TX,78732-6083,"(512) 233-9016",http://chesmar.com,,,
TX,WILLIAMSON,2021-32561,"Single Family Homes",5/21/2021,,,3057,"4504 WILDER FARM LN",LEANDER,TX,78628,"LIVELY TRACT",,CONTRACTOR,,,,,,,,,,,"DR HORTON",,,,,"DR HORTON","10700 PECAN PARK BLVD STE 400",AUSTIN,TX,78750-1227,"(512) 345-4663",,,,
TX,WILLIAMSON,2021-32566,"Single Family Homes",5/6/2021,,,2559,"4512 WILDER FARM LN",LEANDER,TX,78628,"LIVELY TRACT",,CONTRACTOR,,,,,,,,,,,"DR HORTON",,,,,"DR HORTON","10700 PECAN PARK BLVD STE 400",AUSTIN,TX,78750-1227,"(512) 345-4663",,,,
TX,WILLIAMSON,2021-32571,"Single Family Homes",5/26/2021,,,5026,"724 LANDING LN",LEANDER,TX,78641,HAWKES,,CONTRACTOR,,,,,,,,,,,"GEHAN HOMES",,,,,"GEHAN HOMES","3815 S CAPITAL OF TEXAS HWY STE 275",AUSTIN,TX,78704-6652,"(512) 330-9366",http://www.gehanhomes.com,,"JANET PHILLIPS",
TX,WILLIAMSON,2021-32598,"Single Family Homes",5/18/2021,,,5984,"4533 VIA ROMA PASS",LEANDER,TX,78641,TRAVISSO,,CONTRACTOR,,,,,,,,,,,"TOLL BROTHERS",,,,,"TOLL BROTHERS","310 ARIA DR",AUSTIN,TX,78738-1740,"(512) 491-0378",,,,
TX,WILLIAMSON,2021-32599,"Single Family Homes",5/4/2021,,,7929,"2417 BEL PAESE BND",LEANDER,TX,78641,TRAVISSO,,CONTRACTOR,,,,,,,,,,,"TOLL BROTHERS",,,,,"TOLL BROTHERS","310 ARIA DR",AUSTIN,TX,78738-1740,"(512) 491-0378",,,,
TX,WILLIAMSON,2021-32600,"Single Family Homes",5/4/2021,,,6008,"2357 BEL PAESE BND",LEANDER,TX,78641,TRAVISSO,,CONTRACTOR,,,,,,,,,,,"TOLL BROTHERS",,,,,"TOLL BROTHERS","310 ARIA DR",AUSTIN,TX,78738-1740,"(512) 491-0378",,,,
TX,WILLIAMSON,2021-32602,"Single Family Homes",5/22/2021,,,2451,"1628 INDIAN APPLE WAY",LEANDER,TX,78641,BRYSON,,CONTRACTOR,,,,,,,,,,,"TRI POINTE HOMES",,,,,"TRI POINTE HOMES","4835 LBJ FREEWAY STE 700",DALLAS,TX,75244,"(972) 922-5731",https://investors.tripointehomes.com/,,,
TX,WILLIAMSON,2021-32603,"Single Family Homes",5/26/2021,,,2562,"1617 INDIAN APPLE WAY",LEANDER,TX,78641,BRYSON,,CONTRACTOR,,,,,,,,,,,"TRI POINTE HOMES",,,,,"TRI POINTE HOMES","4835 LBJ FREEWAY STE 700",DALLAS,TX,75244,"(972) 922-5731",https://investors.tripointehomes.com/,,,
TX,WILLIAMSON,2021-32604,"Single Family Homes",5/22/2021,,,2476,"1508 INDIAN APPLE WAY",LEANDER,TX,78641,BRYSON,,CONTRACTOR,,,,,,,,,,,"TRI POINTE HOMES",,,,,"TRI POINTE HOMES","4835 LBJ FREEWAY STE 700",DALLAS,TX,75244,"(972) 922-5731",https://investors.tripointehomes.com/,,,
TX,WILLIAMSON,2021-32611,"Single Family Homes",5/17/2021,,,4454,"3341 MONGOLIAN DR",LEANDER,TX,78641,BLUFFVIEW,,CONTRACTOR,,,,,,,,,,,"PULTE HOMES",,,,,"PULTE HOMES","9401 AMBERGLEN BLVD STE I-150",AUSTIN,TX,78729-1154,"(512) 561-4344",,,,
TX,WILLIAMSON,2021-32612,"Single Family Homes",5/17/2021,,,3916,"1917 DONETTO DR",LEANDER,TX,78641,BLUFFVIEW,,CONTRACTOR,,,,,,,,,,,"PULTE HOMES",,,,,"PULTE HOMES","9401 AMBERGLEN BLVD STE I-150",AUSTIN,TX,78729-1154,"(512) 561-4344",,,,
TX,WILLIAMSON,2021-32615,"Single Family Homes",5/17/2021,,,2414,"2917 SAGE RANCH DR",LEANDER,TX,78641,DEERBROOKE,,CONTRACTOR,,,,,,,,,,,"CHESMAR HOMES",,,,,"CHESMAR HOMES","2900 N QUINLAN PARK RD",AUSTIN,TX,78732-6083,"(512) 233-9016",http://chesmar.com,,,
TX,WILLIAMSON,2021-32617,"Single Family Homes",5/17/2021,,,3123,"2936 SAGE RANCH DR",LEANDER,TX,78641,DEERBROOKE,,CONTRACTOR,,,,,,,,,,,"CHESMAR HOMES",,,,,"CHESMAR HOMES","2900 N QUINLAN PARK RD",AUSTIN,TX,78732-6083,"(512) 233-9016",http://chesmar.com,,,
TX,WILLIAMSON,2021-32660,"Single Family Homes",5/27/2021,,,2691,"1520 INDIAN APPLE WAY",LEANDER,TX,78641,BRYSON,,CONTRACTOR,,,,,,,,,,,"TRI POINTE HOMES",,,,,"TRI POINTE HOMES","4835 LBJ FREEWAY STE 700",DALLAS,TX,75244,"(972) 922-5731",https://investors.tripointehomes.com/,,,
TX,WILLIAMSON,2021-32674,"Single Family Homes",5/6/2021,,,4664,"4421 APOLLONIA WAY",LEANDER,TX,78641,TRAVISSO,,CONTRACTOR,,,,,,,,,,,"TOLL BROTHERS",,,,,"TOLL BROTHERS","310 ARIA DR",AUSTIN,TX,78738-1740,"(512) 491-0378",,,,
TX,WILLIAMSON,2021-32675,"Single Family Homes",5/6/2021,,,4742,"1508 SUNSET VISTA BND",LEANDER,TX,78641,TRAVISSO,,CONTRACTOR,,,,,,,,,,,"TOLL BROTHERS",,,,,"TOLL BROTHERS","310 ARIA DR",AUSTIN,TX,78738-1740,"(512) 491-0378",,,,
TX,WILLIAMSON,2021-32681,"Single Family Homes",5/1/2021,,,1843,"1657 ARTESIAN SPRINGS XING",LEANDER,TX,78641,"CRYSTAL SPRINGS",,CONTRACTOR,,,,,,,,,,,"CENTURY COMMUNITIES",,,,,"CENTURY COMMUNITIES","6500 RIVER PLACE BLVD STE 200",AUSTIN,TX,78730-1156,"(512) 271-3825",https://www.centurycommunities.com/,,,
TX,WILLIAMSON,2021-32682,"Single Family Homes",5/1/2021,,,2004,"1661 ARTESIAN SPRINGS XING",LEANDER,TX,78641,"CRYSTAL SPRINGS",,CONTRACTOR,,,,,,,,,,,"CENTURY COMMUNITIES",,,,,"CENTURY COMMUNITIES","6500 RIVER PLACE BLVD STE 200",AUSTIN,TX,78730-1156,"(512) 271-3825",https://www.centurycommunities.com/,,,
TX,WILLIAMSON,2021-32683,"Single Family Homes",5/4/2021,,,2751,"1837 TURTLE BAY LOOP",LEANDER,TX,78641,"CRYSTAL SPRINGS",,CONTRACTOR,,,,,,,,,,,"CENTURY COMMUNITIES",,,,,"CENTURY COMMUNITIES","6500 RIVER PLACE BLVD STE 200",AUSTIN,TX,78730-1156,"(512) 271-3825",https://www.centurycommunities.com/,,,
TX,WILLIAMSON,2021-32684,"Single Family Homes",5/4/2021,,,2504,"1840 TURTLE BAY LOOP",LEANDER,TX,78641,"CRYSTAL SPRINGS",,CONTRACTOR,,,,,,,,,,,"CENTURY COMMUNITIES",,,,,"CENTURY COMMUNITIES","6500 RIVER PLACE BLVD STE 200",AUSTIN,TX,78730-1156,"(512) 271-3825",https://www.centurycommunities.com/,,,
TX,WILLIAMSON,2021-32685,"Single Family Homes",5/8/2021,,,2751,"1812 TURTLE BAY LOOP",LEANDER,TX,78641,"CRYSTAL SPRINGS",,CONTRACTOR,,,,,,,,,,,"CENTURY COMMUNITIES",,,,,"CENTURY COMMUNITIES","6500 RIVER PLACE BLVD STE 200",AUSTIN,TX,78730-1156,"(512) 271-3825",https://www.centurycommunities.com/,,,
TX,WILLIAMSON,2021-32686,"Single Family Homes",5/8/2021,,,2751,"1821 TURTLE BAY LOOP",LEANDER,TX,78641,"CRYSTAL SPRINGS",,CONTRACTOR,,,,,,,,,,,"CENTURY COMMUNITIES",,,,,"CENTURY COMMUNITIES","6500 RIVER PLACE BLVD STE 200",AUSTIN,TX,78730-1156,"(512) 271-3825",https://www.centurycommunities.com/,,,
TX,WILLIAMSON,2021-32687,"Single Family Homes",5/1/2021,,,4513,"1529 SIBLEY WAY",LEANDER,TX,78641,HOMESTEAD,,CONTRACTOR,,,,,,,,,,,"GEHAN HOMES",,,,,"GEHAN HOMES","3815 S CAPITAL OF TEXAS HWY STE 275",AUSTIN,TX,78704-6652,"(512) 330-9366",http://www.gehanhomes.com,,"JANET PHILLIPS",
TX,WILLIAMSON,2021-32689,"Single Family Homes",5/6/2021,,,4451,"1704 SUNSET VISTA BND",LEANDER,TX,78641,TRAVISSO,,CONTRACTOR,,,,,,,,,,,"TOLL BROTHERS",,,,,"TOLL BROTHERS","310 ARIA DR",AUSTIN,TX,78738-1740,"(512) 491-0378",,,,
TX,WILLIAMSON,2021-32691,"Single Family Homes",5/6/2021,,,2665,"1132 VILLA RIALTO VW",LEANDER,TX,78641,TRAVISSO,,CONTRACTOR,,,,,,,,,,,"TOLL BROTHERS",,,,,"TOLL BROTHERS","310 ARIA DR",AUSTIN,TX,78738-1740,"(512) 491-0378",,,,
TX,WILLIAMSON,2021-32693,"Single Family Homes",5/6/2021,,,4193,"1133 VILLA RIALTO VW",LEANDER,TX,78641,TRAVISSO,,CONTRACTOR,,,,,,,,,,,"TOLL BROTHERS",,,,,"TOLL BROTHERS","310 ARIA DR",AUSTIN,TX,78738-1740,"(512) 491-0378",,,,
TX,WILLIAMSON,2021-32697,"Single Family Homes",5/6/2021,,,2893,"1136 VILLA RIALTO VW",LEANDER,TX,78641,TRAVISSO,,CONTRACTOR,,,,,,,,,,,"TOLL BROTHERS",,,,,"TOLL BROTHERS","310 ARIA DR",AUSTIN,TX,78738-1740,"(512) 491-0378",,,,
TX,WILLIAMSON,2021-32715,"Single Family Homes",5/8/2021,,,1538,"2728 HOPI PATH",LEANDER,TX,78641,"VALLEY VISTA",,CONTRACTOR,,,,,,,,,,,"PACESETTER HOMES ",,,,,"PACESETTER HOMES ","7940 SHOAL CREEK BLVD STE 200",AUSTIN,TX,78757-7587,"(512) 323-5252",,,,
TX,WILLIAMSON,2021-32716,"Single Family Homes",5/11/2021,,,3209,"1824 PIERCING GAZE RD",LEANDER,TX,78641,BLUFFVIEW,,CONTRACTOR,,,,,,,,,,,"TAYLOR MORRISON OF TEXAS",,,,,"TAYLOR MORRISON OF TEXAS","11200 LAKELINE BLVD STE 150A",AUSTIN,TX,78717-5964,"(512) 328-8866",,"(512) 328-7988",,
TX,WILLIAMSON,2021-32717,"Single Family Homes",5/3/2021,,,4982,"1120 KERRWOOD WAY",LEANDER,TX,78641,DEERBROOKE,,CONTRACTOR,,,,,,,,,,,"GEHAN HOMES",,,,,"GEHAN HOMES","3815 S CAPITAL OF TEXAS HWY STE 275",AUSTIN,TX,78704-6652,"(512) 330-9366",http://www.gehanhomes.com,,"JANET PHILLIPS",
TX,WILLIAMSON,2021-32718,"Single Family Homes",5/3/2021,,,4484,"1116 KERRWOOD WAY",LEANDER,TX,78641,DEERBROOKE,,CONTRACTOR,,,,,,,,,,,"GEHAN HOMES",,,,,"GEHAN HOMES","3815 S CAPITAL OF TEXAS HWY STE 275",AUSTIN,TX,78704-6652,"(512) 330-9366",http://www.gehanhomes.com,,"JANET PHILLIPS",
TX,WILLIAMSON,2021-32721,"Single Family Homes",5/3/2021,,,3164,"1600 LONGHORN RANCH DR",LEANDER,TX,78641,DEERBROOKE,,CONTRACTOR,,,,,,,,,,,"MERITAGE HOMES",,,,,"MERITAGE HOMES","8920 BUSINESS PARK DR STE 250",AUSTIN,TX,78759-7622,"(512) 610-4800",,,,
TX,WILLIAMSON,2021-32722,"Single Family Homes",5/1/2021,,,2866,"908 AZUL LAGOON DR",LEANDER,TX,78641,"PALMERA RIDGE",,CONTRACTOR,,,,,,,,,,,"PERRY HOMES",,,,,"PERRY HOMES","6112 LLANO ST",AUSTIN,TX,78702,"(512) 810-8050",,,,
TX,WILLIAMSON,2021-32723,"Single Family Homes",5/7/2021,,,2001,"1740 FOUNTAIN BRIDGE DR",LEANDER,TX,78641,"CRYSTAL SPRINGS",,CONTRACTOR,,,,,,,,,,,"CENTURY COMMUNITIES",,,,,"CENTURY COMMUNITIES","6500 RIVER PLACE BLVD STE 200",AUSTIN,TX,78730-1156,"(512) 271-3825",https://www.centurycommunities.com/,,,
TX,WILLIAMSON,2021-32724,"Single Family Homes",5/3/2021,,,4029,"2109 MAR VISTA LN",LEANDER,TX,78641,,,CONTRACTOR,,,,,,,,,,,"MHI MCGUYER HOMEBUILDERS",,,,,"MHI MCGUYER HOMEBUILDERS","8200 N MO PAC EXPY STE 300",AUSTIN,TX,78759-8844,"(512) 502-2050",,"(512) 388-1836","FRANK MCGUYER",
TX,WILLIAMSON,2021-32742,"Single Family Homes",5/22/2021,,,2898,"1636 INDIAN APPLE WAY",LEANDER,TX,78641,BRYSON,,CONTRACTOR,,,,,,,,,,,"TRI POINTE HOMES",,,,,"TRI POINTE HOMES","4835 LBJ FREEWAY STE 700",DALLAS,TX,75244,"(972) 922-5731",https://investors.tripointehomes.com/,,,
TX,WILLIAMSON,2021-32758,"Single Family Homes",5/25/2021,,,3450,"1832 DONETTO DR",LEANDER,TX,78641,BLUFFVIEW,,CONTRACTOR,,,,,,,,,,,"TAYLOR MORRISON OF TEXAS",,,,,"TAYLOR MORRISON OF TEXAS","11200 LAKELINE BLVD STE 150A",AUSTIN,TX,78717-5964,"(512) 328-8866",,"(512) 328-7988",,
TX,WILLIAMSON,2021-32772,"Single Family Homes",5/7/2021,,,3383,"808 CRAVEN HILL LN",LEANDER,TX,78641,BRYSON,,CONTRACTOR,,,,,,,,,,,"CHESMAR HOMES",,,,,"CHESMAR HOMES","2900 N QUINLAN PARK RD",AUSTIN,TX,78732-6083,"(512) 233-9016",http://chesmar.com,,,
TX,WILLIAMSON,2021-32790,"Single Family Homes",5/10/2021,,,3751,"1920 STRINGER PASS",LEANDER,TX,78641,"HAVEN OAKS",,CONTRACTOR,,,,,,,,,,,"KB HOME",,,,,"KB HOME","10800 PECAN PARK BLVD STE 200",AUSTIN,TX,78750-1249,"(512) 651-8100",,,,
TX,WILLIAMSON,2021-32791,"Single Family Homes",5/25/2021,,,3193,"1916 TIGS TRL",LEANDER,TX,78641,"HAVEN OAKS",,CONTRACTOR,,,,,,,,,,,"KB HOME",,,,,"KB HOME","10800 PECAN PARK BLVD STE 200",AUSTIN,TX,78750-1249,"(512) 651-8100",,,,
TX,WILLIAMSON,2021-32794,"Single Family Homes",5/10/2021,,,3103,"700 ZELIA GLN",LEANDER,TX,78641,"HAVEN OAKS",,CONTRACTOR,,,,,,,,,,,"KB HOME",,,,,"KB HOME","10800 PECAN PARK BLVD STE 200",AUSTIN,TX,78750-1249,"(512) 651-8100",,,,
TX,WILLIAMSON,2021-32795,"Single Family Homes",5/10/2021,,,3571,"1933 STRINGER PASS",LEANDER,TX,78641,,,CONTRACTOR,,,,,,,,,,,"KB HOME",,,,,"KB HOME","10800 PECAN PARK BLVD STE 200",AUSTIN,TX,78750-1249,"(512) 651-8100",,,,
TX,WILLIAMSON,2021-32796,"Single Family Homes",5/25/2021,,,3356,"700 MADALIN RUE CT",LEANDER,TX,78641,"HAVEN OAKS",,CONTRACTOR,,,,,,,,,,,"KB HOME",,,,,"KB HOME","10800 PECAN PARK BLVD STE 200",AUSTIN,TX,78750-1249,"(512) 651-8100",,,,
TX,WILLIAMSON,2021-32797,"Single Family Homes",5/10/2021,,,3218,"1828 STRINGER PASS",LEANDER,TX,78641,"HAVEN OAKS",,CONTRACTOR,,,,,,,,,,,"KB HOME",,,,,"KB HOME","10800 PECAN PARK BLVD STE 200",AUSTIN,TX,78750-1249,"(512) 651-8100",,,,
TX,WILLIAMSON,2021-32798,"Single Family Homes",5/10/2021,,,3103,"1921 STRINGER PASS",LEANDER,TX,78641,"HAVEN OAKS",,CONTRACTOR,,,,,,,,,,,"KB HOME",,,,,"KB HOME","10800 PECAN PARK BLVD STE 200",AUSTIN,TX,78750-1249,"(512) 651-8100",,,,
TX,WILLIAMSON,2021-32799,"Single Family Homes",5/25/2021,,,5015,"3437 MONGOLIAN DR",LEANDER,TX,78641,BLUFFVIEW,,CONTRACTOR,,,,,,,,,,,"TAYLOR MORRISON OF TEXAS",,,,,"TAYLOR MORRISON OF TEXAS","11200 LAKELINE BLVD STE 150A",AUSTIN,TX,78717-5964,"(512) 328-8866",,"(512) 328-7988",,
TX,WILLIAMSON,2021-32801,"Single Family Homes",5/25/2021,,,2504,"1544 BRUEGGERHOFF RD",LEANDER,TX,78641,BRYSON,,CONTRACTOR,,,,,,,,,,,"LENNAR HOMES",,,,,"LENNAR HOMES","13620 FM 620 RD 150",AUSTIN,TX,78717,"(512) 506-4000",http://www.lennar.com/,,,
TX,WILLIAMSON,2021-32803,"Single Family Homes",5/7/2021,,,1973,"1608 BRUEGGERHOFF RD",LEANDER,TX,78641,BRYSON,,CONTRACTOR,,,,,,,,,,,"LENNAR HOMES",,,,,"LENNAR HOMES","13620 FM 620 RD 150",AUSTIN,TX,78717,"(512) 506-4000",http://www.lennar.com/,,,
TX,WILLIAMSON,2021-32804,"Single Family Homes",5/7/2021,,,2504,"1612 BRUEGGERHOFF RD",LEANDER,TX,78641,BRYSON,,CONTRACTOR,,,,,,,,,,,"LENNAR HOMES",,,,,"LENNAR HOMES","13620 FM 620 RD 150",AUSTIN,TX,78717,"(512) 506-4000",http://www.lennar.com/,,,
TX,WILLIAMSON,2021-32808,"Single Family Homes",5/12/2021,,,2504,"1509 BRUEGGERHOFF RD",LEANDER,TX,78641,BRYSON,,CONTRACTOR,,,,,,,,,,,"LENNAR HOMES",,,,,"LENNAR HOMES","13620 FM 620 RD 150",AUSTIN,TX,78717,"(512) 506-4000",http://www.lennar.com/,,,
TX,WILLIAMSON,2021-32837,"Single Family Homes",5/17/2021,,,4130,"1237 DEERING CREEK DR",LEANDER,TX,78641,DEERBROOKE,,CONTRACTOR,,,,,,,,,,,"SITTERLE HOMES",,,,,"SITTERLE HOMES","113 NAPLES LN",AUSTIN,TX,78737-4686,"(210) 494-9192",http://www.sitterlehomes.com,,,
TX,WILLIAMSON,2021-32840,"Single Family Homes",5/17/2021,,,3380,"1304 DEERING CREEK DR",LEANDER,TX,78641,DEERBROOKE,,CONTRACTOR,,,,,,,,,,,"SITTERLE HOMES",,,,,"SITTERLE HOMES","113 NAPLES LN",AUSTIN,TX,78737-4686,"(210) 494-9192",http://www.sitterlehomes.com,,,
TX,WILLIAMSON,2021-32842,"Single Family Homes",5/12/2021,,,2169,"1620 BRUEGGERHOFF RD",LEANDER,TX,78641,BRYSON,,CONTRACTOR,,,,,,,,,,,"LENNAR HOMES",,,,,"LENNAR HOMES","13620 FM 620 RD 150",AUSTIN,TX,78717,"(512) 506-4000",http://www.lennar.com/,,,
TX,WILLIAMSON,2021-32846,"Single Family Homes",5/12/2021,,,2519,"1513 BRUEGGERHOFF RD",LEANDER,TX,78641,BRYSON,,CONTRACTOR,,,,,,,,,,,"LENNAR HOMES",,,,,"LENNAR HOMES","13620 FM 620 RD 150",AUSTIN,TX,78717,"(512) 506-4000",http://www.lennar.com/,,,
TX,WILLIAMSON,2021-32849,"Single Family Homes",5/26/2021,,,2878,"949 MALLOW RD",LEANDER,TX,78641,BRYSON,,CONTRACTOR,,,,,,,,,,,"LENNAR HOMES",,,,,"LENNAR HOMES","13620 FM 620 RD 150",AUSTIN,TX,78717,"(512) 506-4000",http://www.lennar.com/,,,
TX,WILLIAMSON,2021-32855,"Single Family Homes",5/11/2021,,,4513,"1905 MARIANN DR",LEANDER,TX,78641,HAWKES,,CONTRACTOR,,,,,,,,,,,"GEHAN HOMES",,,,,"GEHAN HOMES","3815 S CAPITAL OF TEXAS HWY STE 275",AUSTIN,TX,78704-6652,"(512) 330-9366",http://www.gehanhomes.com,,"JANET PHILLIPS",
TX,WILLIAMSON,2021-32859,"Single Family Homes",5/13/2021,,,4003,"1128 VILLA RIALTO VW",LEANDER,TX,78641,,,CONTRACTOR,,,,,,,,,,,"TAYLOR MORRISON OF TEXAS",,,,,"TAYLOR MORRISON OF TEXAS","11200 LAKELINE BLVD STE 150A",AUSTIN,TX,78717-5964,"(512) 328-8866",,"(512) 328-7988",,
TX,WILLIAMSON,2021-32868,"Single Family Homes",5/14/2021,,,3090,"929 BIRCHBROOKE DR",LEANDER,TX,78641,DEERBROOKE,,CONTRACTOR,,,,,,,,,,,"PERRY HOMES",,,,,"PERRY HOMES","6112 LLANO ST",AUSTIN,TX,78702,"(512) 810-8050",,,,
TX,WILLIAMSON,2021-32869,"Single Family Homes",5/13/2021,,,3164,"1425 DEERING RUN",LEANDER,TX,78641,DEERBROOKE,,CONTRACTOR,,,,,,,,,,,"MERITAGE HOMES",,,,,"MERITAGE HOMES","8920 BUSINESS PARK DR STE 250",AUSTIN,TX,78759-7622,"(512) 610-4800",,,,
TX,WILLIAMSON,2021-32870,"Single Family Homes",5/13/2021,,,2912,"1505 DEERING RUN",LEANDER,TX,78641,DEERBROOKE,,CONTRACTOR,,,,,,,,,,,"MERITAGE HOMES",,,,,"MERITAGE HOMES","8920 BUSINESS PARK DR STE 250",AUSTIN,TX,78759-7622,"(512) 610-4800",,,,
TX,WILLIAMSON,2021-32871,"Single Family Homes",5/13/2021,,,3410,"1501 DEERING RUN",LEANDER,TX,78641,DEERBROOKE,,CONTRACTOR,,,,,,,,,,,"MERITAGE HOMES",,,,,"MERITAGE HOMES","8920 BUSINESS PARK DR STE 250",AUSTIN,TX,78759-7622,"(512) 610-4800",,,,
TX,WILLIAMSON,2021-32872,"Single Family Homes",5/11/2021,,,4875,"4733 MODENA BAY BND",LEANDER,TX,78641,TRAVISSO,,CONTRACTOR,,,,,,,,,,,"TOLL BROTHERS",,,,,"TOLL BROTHERS","310 ARIA DR",AUSTIN,TX,78738-1740,"(512) 491-0378",,,,
TX,WILLIAMSON,2021-32873,"Single Family Homes",5/16/2021,,,3705,"1509 DEERING RUN",LEANDER,TX,78641,DEERBROOKE,,CONTRACTOR,,,,,,,,,,,"MERITAGE HOMES",,,,,"MERITAGE HOMES","8920 BUSINESS PARK DR STE 250",AUSTIN,TX,78759-7622,"(512) 610-4800",,,,
TX,WILLIAMSON,2021-32874,"Single Family Homes",5/6/2021,,,3849,"2012 PALMERA RIDGE BLVD",LEANDER,TX,78641,"PALMERA RIDGE",,CONTRACTOR,,,,,,,,,,,"MHI MCGUYER HOMEBUILDERS",,,,,"MHI MCGUYER HOMEBUILDERS","8200 N MO PAC EXPY STE 300",AUSTIN,TX,78759-8844,"(512) 502-2050",,"(512) 388-1836","FRANK MCGUYER",
TX,WILLIAMSON,2021-32876,"Single Family Homes",5/19/2021,,,2278,"1800 ARAPAHO MOUNTAIN PASS",LEANDER,TX,78641,"VALLEY VISTA",,CONTRACTOR,,,,,,,,,,,"PACESETTER HOMES ",,,,,"PACESETTER HOMES ","7940 SHOAL CREEK BLVD STE 200",AUSTIN,TX,78757-7587,"(512) 323-5252",,,,
TX,WILLIAMSON,2021-32877,"Single Family Homes",5/13/2021,,,3021,"932 HEARTLEAF DR",LEANDER,TX,78641,BRYSON,,CONTRACTOR,,,,,,,,,,,"CHESMAR HOMES",,,,,"CHESMAR HOMES","2900 N QUINLAN PARK RD",AUSTIN,TX,78732-6083,"(512) 233-9016",http://chesmar.com,,,
TX,WILLIAMSON,2021-32878,"Single Family Homes",5/17/2021,,,3569,"925 HEARTLEAF DR",LEANDER,TX,78641,,,CONTRACTOR,,,,,,,,,,,"CHESMAR HOMES",,,,,"CHESMAR HOMES","2900 N QUINLAN PARK RD",AUSTIN,TX,78732-6083,"(512) 233-9016",http://chesmar.com,,,
TX,WILLIAMSON,2021-32880,"Single Family Homes",5/8/2021,,,3395,"1809 NAVAJO SONG LN",LEANDER,TX,78641,"VALLEY VISTA",,CONTRACTOR,,,,,,,,,,,"PACESETTER HOMES ",,,,,"PACESETTER HOMES ","7940 SHOAL CREEK BLVD STE 200",AUSTIN,TX,78757-7587,"(512) 323-5252",,,,
TX,WILLIAMSON,2021-32881,"Single Family Homes",5/8/2021,,,3563,"2425 CHOCTAW PL",LEANDER,TX,78641,"VALLEY VISTA",,CONTRACTOR,,,,,,,,,,,"PACESETTER HOMES ",,,,,"PACESETTER HOMES ","7940 SHOAL CREEK BLVD STE 200",AUSTIN,TX,78757-7587,"(512) 323-5252",,,,
TX,WILLIAMSON,2021-32882,"Single Family Homes",5/17/2021,,,3278,"937 HEARTLEAF DR",LEANDER,TX,78641,BRYSON,,CONTRACTOR,,,,,,,,,,,"CHESMAR HOMES",,,,,"CHESMAR HOMES","2900 N QUINLAN PARK RD",AUSTIN,TX,78732-6083,"(512) 233-9016",http://chesmar.com,,,
TX,WILLIAMSON,2021-32884,"Single Family Homes",5/14/2021,,,3293,"928 HEARTLEAF DR",LEANDER,TX,78641,BRYSON,,CONTRACTOR,,,,,,,,,,,"CHESMAR HOMES",,,,,"CHESMAR HOMES","2900 N QUINLAN PARK RD",AUSTIN,TX,78732-6083,"(512) 233-9016",http://chesmar.com,,,
TX,WILLIAMSON,2021-32885,"Single Family Homes",5/14/2021,,,3609,"625 ALTEA DR",LEANDER,TX,78641,"PALMERA RIDGE",,CONTRACTOR,,,,,,,,,,,"CHESMAR HOMES",,,,,"CHESMAR HOMES","2900 N QUINLAN PARK RD",AUSTIN,TX,78732-6083,"(512) 233-9016",http://chesmar.com,,,
TX,WILLIAMSON,2021-32887,"Single Family Homes",5/17/2021,,,3892,"633 LA TAMAR CT",LEANDER,TX,78641,"PALMERA RIDGE",,CONTRACTOR,,,,,,,,,,,"CHESMAR HOMES",,,,,"CHESMAR HOMES","2900 N QUINLAN PARK RD",AUSTIN,TX,78732-6083,"(512) 233-9016",http://chesmar.com,,,
TX,WILLIAMSON,2021-32924,"Single Family Homes",5/17/2021,,,4257,"2128 MAR VISTA LN",LEANDER,TX,78641,,,CONTRACTOR,,,,,,,,,,,"CHESMAR HOMES",,,,,"CHESMAR HOMES","2900 N QUINLAN PARK RD",AUSTIN,TX,78732-6083,"(512) 233-9016",http://chesmar.com,,,
TX,WILLIAMSON,2021-32925,"Single Family Homes",5/20/2021,,,5535,"4709 MODENA BAY BND",LEANDER,TX,78641,TRAVISSO,,CONTRACTOR,,,,,,,,,,,"TAYLOR MORRISON OF TEXAS",,,,,"TAYLOR MORRISON OF TEXAS","11200 LAKELINE BLVD STE 150A",AUSTIN,TX,78717-5964,"(512) 328-8866",,"(512) 328-7988",,
TX,WILLIAMSON,2021-32927,"Single Family Homes",5/13/2021,,,2703,"1508 LONGHORN RANCH DR",LEANDER,TX,78641,DEERBROOKE,,CONTRACTOR,,,,,,,,,,,"MERITAGE HOMES",,,,,"MERITAGE HOMES","8920 BUSINESS PARK DR STE 250",AUSTIN,TX,78759-7622,"(512) 610-4800",,,,
TX,WILLIAMSON,2021-32928,"Single Family Homes",5/13/2021,,,3705,"1512 LONGHORN RANCH DR",LEANDER,TX,78641,DEERBROOKE,,CONTRACTOR,,,,,,,,,,,"MERITAGE HOMES",,,,,"MERITAGE HOMES","8920 BUSINESS PARK DR STE 250",AUSTIN,TX,78759-7622,"(512) 610-4800",,,,
TX,WILLIAMSON,2021-32929,"Single Family Homes",5/18/2021,,,2912,"1516 LONGHORN RANCH DR",LEANDER,TX,78641,DEERBROOKE,,CONTRACTOR,,,,,,,,,,,"MERITAGE HOMES",,,,,"MERITAGE HOMES","8920 BUSINESS PARK DR STE 250",AUSTIN,TX,78759-7622,"(512) 610-4800",,,,
TX,WILLIAMSON,2021-32930,"Single Family Homes",5/14/2021,,,3407,"1436 LONGHORN RANCH DR",LEANDER,TX,78641,DEERBROOKE,,CONTRACTOR,,,,,,,,,,,"MERITAGE HOMES",,,,,"MERITAGE HOMES","8920 BUSINESS PARK DR STE 250",AUSTIN,TX,78759-7622,"(512) 610-4800",,,,
TX,WILLIAMSON,2021-32931,"Single Family Homes",5/16/2021,,,2912,"1504 LONGHORN RANCH DR",LEANDER,TX,78641,DEERBROOKE,,CONTRACTOR,,,,,,,,,,,"MERITAGE HOMES",,,,,"MERITAGE HOMES","8920 BUSINESS PARK DR STE 250",AUSTIN,TX,78759-7622,"(512) 610-4800",,,,
TX,WILLIAMSON,2021-32933,"Single Family Homes",5/17/2021,,,3356,"1924 STRINGER PASS",LEANDER,TX,78641,"HAVEN OAKS",,CONTRACTOR,,,,,,,,,,,"KB HOME",,,,,"KB HOME","10800 PECAN PARK BLVD STE 200",AUSTIN,TX,78750-1249,"(512) 651-8100",,,,
TX,WILLIAMSON,2021-32934,"Single Family Homes",5/17/2021,,,2245,"708 MADALIN RUE CT",LEANDER,TX,78641,"HAVEN OAKS",,CONTRACTOR,,,,,,,,,,,"KB HOME",,,,,"KB HOME","10800 PECAN PARK BLVD STE 200",AUSTIN,TX,78750-1249,"(512) 651-8100",,,,
TX,WILLIAMSON,2021-32942,"Single Family Homes",5/17/2021,,,3494,"1913 STRINGER PASS",LEANDER,TX,78641,"HAVEN OAKS",,CONTRACTOR,,,,,,,,,,,"KB HOME",,,,,"KB HOME","10800 PECAN PARK BLVD STE 200",AUSTIN,TX,78750-1249,"(512) 651-8100",,,,
TX,WILLIAMSON,2021-32943,"Single Family Homes",5/16/2021,,,4477,"621 LA TAMAR CT",LEANDER,TX,78641,"PALMERA RIDGE",,CONTRACTOR,,,,,,,,,,,"CHESMAR HOMES",,,,,"CHESMAR HOMES","2900 N QUINLAN PARK RD",AUSTIN,TX,78732-6083,"(512) 233-9016",http://chesmar.com,,,
TX,WILLIAMSON,2021-32944,"Single Family Homes",5/17/2021,,,3602,"625 JUD ALLEN WAY",LEANDER,TX,78641,"HAVEN OAKS",,CONTRACTOR,,,,,,,,,,,"KB HOME",,,,,"KB HOME","10800 PECAN PARK BLVD STE 200",AUSTIN,TX,78750-1249,"(512) 651-8100",,,,
TX,WILLIAMSON,2021-32945,"Single Family Homes",5/17/2021,,,3494,"716 ZELIA GLN",LEANDER,TX,78641,"HAVEN OAKS",,CONTRACTOR,,,,,,,,,,,"KB HOME",,,,,"KB HOME","10800 PECAN PARK BLVD STE 200",AUSTIN,TX,78750-1249,"(512) 651-8100",,,,
TX,WILLIAMSON,2021-32946,"Single Family Homes",5/17/2021,,,3571,"1905 STRINGER PASS",LEANDER,TX,78641,"HAVEN OAKS",,CONTRACTOR,,,,,,,,,,,"KB HOME",,,,,"KB HOME","10800 PECAN PARK BLVD STE 200",AUSTIN,TX,78750-1249,"(512) 651-8100",,,,
TX,WILLIAMSON,2021-32982,"Single Family Homes",5/17/2021,,,3103,"709 MADALIN RUE CT",LEANDER,TX,78641,"HAVEN OAKS",,CONTRACTOR,,,,,,,,,,,"KB HOME",,,,,"KB HOME","10800 PECAN PARK BLVD STE 200",AUSTIN,TX,78750-1249,"(512) 651-8100",,,,
TX,WILLIAMSON,2021-32983,"Single Family Homes",5/17/2021,,,3602,"1932 STRINGER PASS",LEANDER,TX,78641,"HAVEN OAKS",,CONTRACTOR,,,,,,,,,,,"KB HOME",,,,,"KB HOME","10800 PECAN PARK BLVD STE 200",AUSTIN,TX,78750-1249,"(512) 651-8100",,,,
TX,WILLIAMSON,2021-32984,"Single Family Homes",5/17/2021,,,3316,"2016 RHETTS PL",LEANDER,TX,78641,"HAVEN OAKS",,CONTRACTOR,,,,,,,,,,,"KB HOME",,,,,"KB HOME","10800 PECAN PARK BLVD STE 200",AUSTIN,TX,78750-1249,"(512) 651-8100",,,,
TX,WILLIAMSON,2021-32985,"Single Family Homes",5/17/2021,,,2231,"1908 TIGS TRL",LEANDER,TX,78641,"HAVEN OAKS",,CONTRACTOR,,,,,,,,,,,"KB HOME",,,,,"KB HOME","10800 PECAN PARK BLVD STE 200",AUSTIN,TX,78750-1249,"(512) 651-8100",,,,
TX,WILLIAMSON,2021-32998,"Single Family Homes",5/17/2021,,,2069,"844 AZUL LAGOON DR",LEANDER,TX,78641,"PALMERA RIDGE",,CONTRACTOR,,,,,,,,,,,"PERRY HOMES",,,,,"PERRY HOMES","6112 LLANO ST",AUSTIN,TX,78702,"(512) 810-8050",,,,
TX,WILLIAMSON,2021-33017,"Single Family Homes",5/20/2021,,,3928,"605 W SOUTH ST UNITS 331 & 332",LEANDER,TX,78641,,,CONTRACTOR,,,,,,,,,,,"MASONWOOD HOMES",,,,,"MASONWOOD HOMES","4301 WESTBANK DR BLDG A STE 110",AUSTIN,TX,78738,"(512) 306-8300",,,,
TX,WILLIAMSON,2021-33018,"Single Family Homes",5/18/2021,,,4975,"1908 MARIANN DR",LEANDER,TX,78641,HAWKES,,CONTRACTOR,,,,,,,,,,,"GEHAN HOMES",,,,,"GEHAN HOMES","3815 S CAPITAL OF TEXAS HWY STE 275",AUSTIN,TX,78704-6652,"(512) 330-9366",http://www.gehanhomes.com,,"JANET PHILLIPS",
TX,WILLIAMSON,2021-33019,"Single Family Homes",5/28/2021,,,3670,"3357 CHARADE DR",LEANDER,TX,78641,BLUFFVIEW,,CONTRACTOR,,,,,,,,,,,"TAYLOR MORRISON OF TEXAS",,,,,"TAYLOR MORRISON OF TEXAS","11200 LAKELINE BLVD STE 150A",AUSTIN,TX,78717-5964,"(512) 328-8866",,"(512) 328-7988",,
TX,WILLIAMSON,2021-33021,"Single Family Homes",5/28/2021,,,2993,"1849 DONETTO DR",LEANDER,TX,78641,BLUFFVIEW,,CONTRACTOR,,,,,,,,,,,"TAYLOR MORRISON OF TEXAS",,,,,"TAYLOR MORRISON OF TEXAS","11200 LAKELINE BLVD STE 150A",AUSTIN,TX,78717-5964,"(512) 328-8866",,"(512) 328-7988",,
TX,WILLIAMSON,2021-33054,"Single Family Homes",5/25/2021,,,3838,"1065 CREEKS EDGE VW",LEANDER,TX,78641,DEERBROOKE,,CONTRACTOR,,,,,,,,,,,"SITTERLE HOMES",,,,,"SITTERLE HOMES","113 NAPLES LN",AUSTIN,TX,78737-4686,"(210) 494-9192",http://www.sitterlehomes.com,,,
TX,WILLIAMSON,2021-33055,"Single Family Homes",5/25/2021,,,4228,"2413 ORCHARD WAY",LEANDER,TX,78641,DEERBROOKE,,CONTRACTOR,,,,,,,,,,,"SITTERLE HOMES",,,,,"SITTERLE HOMES","113 NAPLES LN",AUSTIN,TX,78737-4686,"(210) 494-9192",http://www.sitterlehomes.com,,,
TX,WILLIAMSON,2021-33081,"Single Family Homes",5/21/2021,,,3697,"2704 JUNIPER WOODS RD",LEANDER,TX,78641,DEERBROOKE,,CONTRACTOR,,,,,,,,,,,"CHESMAR HOMES",,,,,"CHESMAR HOMES","2900 N QUINLAN PARK RD",AUSTIN,TX,78732-6083,"(512) 233-9016",http://chesmar.com,,,
TX,WILLIAMSON,2021-33113,"Single Family Homes",5/25/2021,,,2231,"1928 TIGS TRL",LEANDER,TX,78641,"HAVEN OAKS",,CONTRACTOR,,,,,,,,,,,"KB HOME",,,,,"KB HOME","10800 PECAN PARK BLVD STE 200",AUSTIN,TX,78750-1249,"(512) 651-8100",,,,
TX,WILLIAMSON,2021-33115,"Single Family Homes",5/17/2021,,,3336,"713 MADALIN RUE CT",LEANDER,TX,78641,"HAVEN OAKS",,CONTRACTOR,,,,,,,,,,,"KB HOME",,,,,"KB HOME","10800 PECAN PARK BLVD STE 200",AUSTIN,TX,78750-1249,"(512) 651-8100",,,,
TX,WILLIAMSON,2021-33126,"Single Family Homes",5/21/2021,,,4168,"633 ASHER CT",LEANDER,TX,78641,"PALMERA RIDGE",,CONTRACTOR,,,,,,,,,,,"CHESMAR HOMES",,,,,"CHESMAR HOMES","2900 N QUINLAN PARK RD",AUSTIN,TX,78732-6083,"(512) 233-9016",http://chesmar.com,,,
TX,WILLIAMSON,2021-33127,"Single Family Homes",5/17/2021,,,3316,"708 JUD ALLEN WAY",LEANDER,TX,78641,"HAVEN OAKS",,CONTRACTOR,,,,,,,,,,,"KB HOME",,,,,"KB HOME","10800 PECAN PARK BLVD STE 200",AUSTIN,TX,78750-1249,"(512) 651-8100",,,,
TX,WILLIAMSON,2021-33129,"Single Family Homes",5/17/2021,,,3103,"617 JUD ALLEN WAY",LEANDER,TX,78641,"HAVEN OAKS",,CONTRACTOR,,,,,,,,,,,"KB HOME",,,,,"KB HOME","10800 PECAN PARK BLVD STE 200",AUSTIN,TX,78750-1249,"(512) 651-8100",,,,
TX,WILLIAMSON,2021-33130,"Single Family Homes",5/17/2021,,,3052,"700 JUD ALLEN WAY",LEANDER,TX,78641,"HAVEN OAKS",,CONTRACTOR,,,,,,,,,,,"KB HOME",,,,,"KB HOME","10800 PECAN PARK BLVD STE 200",AUSTIN,TX,78750-1249,"(512) 651-8100",,,,
TX,WILLIAMSON,2021-33132,"Single Family Homes",5/19/2021,,,4372,"1020 AZUL LAGOON DR",LEANDER,TX,78641,"PALMERA RIDGE",,CONTRACTOR,,,,,,,,,,,"MHI MCGUYER HOMEBUILDERS",,,,,"MHI MCGUYER HOMEBUILDERS","8200 N MO PAC EXPY STE 300",AUSTIN,TX,78759-8844,"(512) 502-2050",,"(512) 388-1836","FRANK MCGUYER",
TX,WILLIAMSON,2021-33149,"Single Family Homes",5/25/2021,,,3316,"1924 TIGS TRL",LEANDER,TX,78641,"HAVEN OAKS",,CONTRACTOR,,,,,,,,,,,"KB HOME",,,,,"KB HOME","10800 PECAN PARK BLVD STE 200",AUSTIN,TX,78750-1249,"(512) 651-8100",,,,
TX,WILLIAMSON,2021-33155,"Single Family Homes",5/21/2021,,,2892,"1200 OAK CHASE WAY",LEANDER,TX,78641,DEERBROOKE,,CONTRACTOR,,,,,,,,,,,"CHESMAR HOMES",,,,,"CHESMAR HOMES","2900 N QUINLAN PARK RD",AUSTIN,TX,78732-6083,"(512) 233-9016",http://chesmar.com,,,
TX,WILLIAMSON,2021-33156,"Single Family Homes",5/21/2021,,,2414,"1208 OAK CHASE WAY",LEANDER,TX,78641,DEERBROOKE,,CONTRACTOR,,,,,,,,,,,"CHESMAR HOMES",,,,,"CHESMAR HOMES","2900 N QUINLAN PARK RD",AUSTIN,TX,78732-6083,"(512) 233-9016",http://chesmar.com,,,
TX,WILLIAMSON,2021-33159,"Single Family Homes",5/19/2021,,,5856,"3409 ELM RIDGE DR",LEANDER,TX,78641,"REAGANS OVERLOOK",,CONTRACTOR,,,,,,,,,,,"CENTURY COMMUNITIES",,,,,"CENTURY COMMUNITIES","6500 RIVER PLACE BLVD STE 200",AUSTIN,TX,78730-1156,"(512) 271-3825",https://www.centurycommunities.com/,,,
TX,WILLIAMSON,2021-33165,"Single Family Homes",5/28/2021,,,3136,"1228 BRASANO PL",LEANDER,TX,78641,TRAVISSO,,CONTRACTOR,,,,,,,,,,,"TOLL BROTHERS",,,,,"TOLL BROTHERS","310 ARIA DR",AUSTIN,TX,78738-1740,"(512) 491-0378",,,,
TX,WILLIAMSON,2021-33167,"Single Family Homes",5/28/2021,,,3855,"1216 BRASANO PL",LEANDER,TX,78641,TRAVISSO,,CONTRACTOR,,,,,,,,,,,"TOLL BROTHERS",,,,,"TOLL BROTHERS","310 ARIA DR",AUSTIN,TX,78738-1740,"(512) 491-0378",,,,
TX,WILLIAMSON,2021-33201,"Single Family Homes",5/25/2021,,,1973,"1525 BRUEGGERHOFF RD",LEANDER,TX,78641,BRYSON,,CONTRACTOR,,,,,,,,,,,"LENNAR HOMES",,,,,"LENNAR HOMES","13620 FM 620 RD 150",AUSTIN,TX,78717,"(512) 506-4000",http://www.lennar.com/,,,
TX,WILLIAMSON,2021-33203,"Single Family Homes",5/22/2021,,,2684,"1629 INDIAN APPLE WAY",LEANDER,TX,78641,BRYSON,,CONTRACTOR,,,,,,,,,,,"TRI POINTE HOMES",,,,,"TRI POINTE HOMES","4835 LBJ FREEWAY STE 700",DALLAS,TX,75244,"(972) 922-5731",https://investors.tripointehomes.com/,,,
TX,WILLIAMSON,2021-33208,"Single Family Homes",5/21/2021,,,3527,"1512 INDIAN APPLE WAY",LEANDER,TX,78641,BRYSON,,CONTRACTOR,,,,,,,,,,,"TRI POINTE HOMES",,,,,"TRI POINTE HOMES","4835 LBJ FREEWAY STE 700",DALLAS,TX,75244,"(972) 922-5731",https://investors.tripointehomes.com/,,,
TX,WILLIAMSON,2021-33212,"Single Family Homes",5/22/2021,,,4748,"1912 MARIANN DR",LEANDER,TX,78641,HAWKES,,CONTRACTOR,,,,,,,,,,,"GEHAN HOMES",,,,,"GEHAN HOMES","3815 S CAPITAL OF TEXAS HWY STE 275",AUSTIN,TX,78704-6652,"(512) 330-9366",http://www.gehanhomes.com,,"JANET PHILLIPS",
TX,WILLIAMSON,2021-33217,"Single Family Homes",5/28/2021,,,4086,"3317 MONGOLIAN DR",LEANDER,TX,78641,BLUFFVIEW,,CONTRACTOR,,,,,,,,,,,"TAYLOR MORRISON OF TEXAS",,,,,"TAYLOR MORRISON OF TEXAS","11200 LAKELINE BLVD STE 150A",AUSTIN,TX,78717-5964,"(512) 328-8866",,"(512) 328-7988",,
TX,WILLIAMSON,2021-33218,"Single Family Homes",5/26/2021,,,3765,"220 CHARBONO ST",LEANDER,TX,78641,"CARNEROS RANCH",,CONTRACTOR,,,,,,,,,,,"MHI MCGUYER HOMEBUILDERS",,,,,"MHI MCGUYER HOMEBUILDERS","8200 N MO PAC EXPY STE 300",AUSTIN,TX,78759-8844,"(512) 502-2050",,"(512) 388-1836","FRANK MCGUYER",
TX,WILLIAMSON,2021-33221,"Single Family Homes",5/27/2021,,,3728,"1924 SEMILLON ST",LEANDER,TX,78641,"CARNEROS RANCH",,CONTRACTOR,,,,,,,,,,,"MHI MCGUYER HOMEBUILDERS",,,,,"MHI MCGUYER HOMEBUILDERS","8200 N MO PAC EXPY STE 300",AUSTIN,TX,78759-8844,"(512) 502-2050",,"(512) 388-1836","FRANK MCGUYER",
TX,WILLIAMSON,2021-33238,"Single Family Homes",5/28/2021,,,3780,"208 CHARBONO ST",LEANDER,TX,78641,"CARNEROS RANCH",,CONTRACTOR,,,,,,,,,,,"MHI MCGUYER HOMEBUILDERS",,,,,"MHI MCGUYER HOMEBUILDERS","8200 N MO PAC EXPY STE 300",AUSTIN,TX,78759-8844,"(512) 502-2050",,"(512) 388-1836","FRANK MCGUYER",
TX,WILLIAMSON,2021-33262,"Single Family Homes",5/28/2021,,,3347,"2028 PALMERA RIDGE BLVD",LEANDER,TX,78641,"PALMERA RIDGE",,CONTRACTOR,,,,,,,,,,,"MHI MCGUYER HOMEBUILDERS",,,,,"MHI MCGUYER HOMEBUILDERS","8200 N MO PAC EXPY STE 300",AUSTIN,TX,78759-8844,"(512) 502-2050",,"(512) 388-1836","FRANK MCGUYER",
TX,WILLIAMSON,2021-33282,"Single Family Homes",5/28/2021,,,4418,"2033 MAR VISTA LN",LEANDER,TX,78641,"PALMERA RIDGE",,CONTRACTOR,,,,,,,,,,,"MHI MCGUYER HOMEBUILDERS",,,,,"MHI MCGUYER HOMEBUILDERS","8200 N MO PAC EXPY STE 300",AUSTIN,TX,78759-8844,"(512) 502-2050",,"(512) 388-1836","FRANK MCGUYER",
TX,WILLIAMSON,2021-33283,"Single Family Homes",5/28/2021,,,4225,"2001 SEMILLON ST",LEANDER,TX,78641,"CARNEROS RANCH",,CONTRACTOR,,,,,,,,,,,"MHI MCGUYER HOMEBUILDERS",,,,,"MHI MCGUYER HOMEBUILDERS","8200 N MO PAC EXPY STE 300",AUSTIN,TX,78759-8844,"(512) 502-2050",,"(512) 388-1836","FRANK MCGUYER",
TX,WILLIAMSON,2021-33284,"Single Family Homes",5/17/2021,,,3528,"3624 ANDALUSIAN CT",LEANDER,TX,78641,,,CONTRACTOR,,,,,,,,,,,"MILESTONE COMMUNITY BUILDERS",,,,,"MILESTONE COMMUNITY BUILDERS","9111 JOLLYVILLE RD STE 111",AUSTIN,TX,78759-7406,"(512) 686-4986",http://www.mymilestone.com/,,,
TX,WILLIAMSON,2021-33285,"Single Family Homes",5/17/2021,,,3856,"3612 ANDALUSIAN CT",LEANDER,TX,78641,,,CONTRACTOR,,,,,,,,,,,"MILESTONE COMMUNITY BUILDERS",,,,,"MILESTONE COMMUNITY BUILDERS","9111 JOLLYVILLE RD STE 111",AUSTIN,TX,78759-7406,"(512) 686-4986",http://www.mymilestone.com/,,,
TX,WILLIAMSON,2021-33286,"Single Family Homes",5/17/2021,,,3539,"3409 TWINSPUR ST",LEANDER,TX,78641,,,CONTRACTOR,,,,,,,,,,,"MILESTONE COMMUNITY BUILDERS",,,,,"MILESTONE COMMUNITY BUILDERS","9111 JOLLYVILLE RD STE 111",AUSTIN,TX,78759-7406,"(512) 686-4986",http://www.mymilestone.com/,,,
TX,WILLIAMSON,2021-33289,"Single Family Homes",5/21/2021,,,3465,"3368 TWINSPUR ST",LEANDER,TX,78641,,,CONTRACTOR,,,,,,,,,,,"MILESTONE COMMUNITY BUILDERS",,,,,"MILESTONE COMMUNITY BUILDERS","9111 JOLLYVILLE RD STE 111",AUSTIN,TX,78759-7406,"(512) 686-4986",http://www.mymilestone.com/,,,
TX,WILLIAMSON,2021-33437,"Single Family Homes",5/22/2021,,,4591,"3553 TWINSPUR ST",LEANDER,TX,78641,,,CONTRACTOR,,,,,,,,,,,"MILESTONE COMMUNITY BUILDERS",,,,,"MILESTONE COMMUNITY BUILDERS","9111 JOLLYVILLE RD STE 111",AUSTIN,TX,78759-7406,"(512) 686-4986",http://www.mymilestone.com/,,,
TX,WILLIAMSON,2021-32447,"Single Family Homes",5/5/2021,,,1074,"2508 NUTTALL BLUFF CV",LEANDER,TX,78641,,,CONTRACTOR,,,,,,,,,,,"DENALI POOLS",,,,,"DENALI POOLS","1904 BRUSHY BEND DR","ROUND ROCK",TX,78681-1451,"(512) 955-6564",,,,
TX,WILLIAMSON,2021-33516,"Single Family Homes",5/26/2021,,,1671,"2216 SAN POLO PL",LEANDER,TX,78641,,,CONTRACTOR,,,,,,,,,,,"TRIROCK PERMITS",,,,,"TRIROCK PERMITS","12234 N INTERSTATE 35 STE 100 BLDG B",AUSTIN,TX,78753-0002,"(512) 658-1287",,,,trirockpermits@gmail.com
TX,WILLIAMSON,2021-33852,"Single Family Homes",5/25/2021,,,1287,"609 STERLING RIDGE DR",LEANDER,TX,78641,HAWKES,,CONTRACTOR,,,,,,,,,,,"DENALI POOLS",,,,,"DENALI POOLS","1904 BRUSHY BEND DR","ROUND ROCK",TX,78681-1451,"(512) 955-6564",,,,
TX,TRAVIS,21-54653,"Single Family Homes",5/2/2021,,322500,2629,"6520 COVINA LN",PFLUGERVILLE,TX,78860,,,CONTRACTOR,,,,,,,,,,,"ASHTON WOODS HOMES",,,,,"ASHTON WOODS HOMES","4201 W PARMER LN STE A150",AUSTIN,TX,78727-4118,"(512) 610-7000",,,,
TX,TRAVIS,21-54661,"Single Family Homes",5/2/2021,,388800,3309,"6704 COVINA LN",PFLUGERVILLE,TX,78860,,,CONTRACTOR,,,,,,,,,,,"ASHTON WOODS HOMES",,,,,"ASHTON WOODS HOMES","4201 W PARMER LN STE A150",AUSTIN,TX,78727-4118,"(512) 610-7000",,,,
TX,TRAVIS,21-54664,"Single Family Homes",5/2/2021,,268000,1985,"6508 COVINA LN",PFLUGERVILLE,TX,78860,,,CONTRACTOR,,,,,,,,,,,"ASHTON WOODS HOMES",,,,,"ASHTON WOODS HOMES","4201 W PARMER LN STE A150",AUSTIN,TX,78727-4118,"(512) 610-7000",,,,
TX,TRAVIS,21-54674,"Single Family Homes",5/2/2021,,383900,3060,"6805 COVINA LN",PFLUGERVILLE,TX,78860,,,CONTRACTOR,,,,,,,,,,,"ASHTON WOODS HOMES",,,,,"ASHTON WOODS HOMES","4201 W PARMER LN STE A150",AUSTIN,TX,78727-4118,"(512) 610-7000",,,,
TX,TRAVIS,21-54687,"Single Family Homes",5/2/2021,,438990,4280,"6905 COVINA LN",PFLUGERVILLE,TX,78860,,,CONTRACTOR,,,,,,,,,,,"PULTE HOMES",,,,,"PULTE HOMES","9401 AMBERGLEN BLVD STE I-150",AUSTIN,TX,78729-1154,"(512) 561-4344",,,,
TX,TRAVIS,21-54688,"Single Family Homes",5/2/2021,,401200,3297,"6605 COVINA LN",PFLUGERVILLE,TX,78860,,,CONTRACTOR,,,,,,,,,,,"ASHTON WOODS HOMES",,,,,"ASHTON WOODS HOMES","4201 W PARMER LN STE A150",AUSTIN,TX,78727-4118,"(512) 610-7000",,,,
TX,TRAVIS,21-54689,"Single Family Homes",5/2/2021,,401990,2252,"17216 PORTNOY LN",PFLUGERVILLE,TX,78860,,,CONTRACTOR,,,,,,,,,,,"PULTE HOMES",,,,,"PULTE HOMES","9401 AMBERGLEN BLVD STE I-150",AUSTIN,TX,78729-1154,"(512) 561-4344",,,,
TX,TRAVIS,21-54692,"Single Family Homes",5/2/2021,,436980,294,"6520 COALINGA LN",PFLUGERVILLE,TX,78860,,,CONTRACTOR,,,,,,,,,,,"PULTE HOMES",,,,,"PULTE HOMES","9401 AMBERGLEN BLVD STE I-150",AUSTIN,TX,78729-1154,"(512) 561-4344",,,,
TX,TRAVIS,21-54694,"Single Family Homes",5/2/2021,,430990,3119,"6801 COALINGA LN",PFLUGERVILLE,TX,78860,,,CONTRACTOR,,,,,,,,,,,"PULTE HOMES",,,,,"PULTE HOMES","9401 AMBERGLEN BLVD STE I-150",AUSTIN,TX,78729-1154,"(512) 561-4344",,,,
TX,TRAVIS,21-54696,"Single Family Homes",5/2/2021,,438990,3288,"17604 CIPREMONT LN",PFLUGERVILLE,TX,78860,,,CONTRACTOR,,,,,,,,,,,"PULTE HOMES",,,,,"PULTE HOMES","9401 AMBERGLEN BLVD STE I-150",AUSTIN,TX,78729-1154,"(512) 561-4344",,,,
TX,TRAVIS,21-54703,"Single Family Homes",5/14/2021,,170625,1997,"6812 PLEASANTON PKWY",PFLUGERVILLE,TX,78860,,,CONTRACTOR,,,,,,,,,,,"BROHN HOMES",,,,,"BROHN HOMES","6720 VAUGHT RANCH RD STE 200",AUSTIN,TX,78730-2354,"(512) 320-8833",http://brohnhomes.com/,,,
TX,TRAVIS,21-54707,"Single Family Homes",5/20/2021,,210145,2637,"6902 PLEASANTON PKWY",PFLUGERVILLE,TX,78860,CARMEL,,CONTRACTOR,,,,,,,,,,,"BROHN HOMES",,,,,"BROHN HOMES","6720 VAUGHT RANCH RD STE 200",AUSTIN,TX,78730-2354,"(512) 320-8833",http://brohnhomes.com/,,,
TX,TRAVIS,21-54708,"Single Family Homes",5/2/2021,,281100,2247,"6808 PLEASANTON PKWY",PFLUGERVILLE,TX,78860,,,CONTRACTOR,,,,,,,,,,,"ASHTON WOODS HOMES",,,,,"ASHTON WOODS HOMES","4201 W PARMER LN STE A150",AUSTIN,TX,78727-4118,"(512) 610-7000",,,,
TX,TRAVIS,21-54709,"Single Family Homes",5/6/2021,,191490,2259,"6906 PLEASANTON PKWY",PFLUGERVILLE,TX,78860,,,CONTRACTOR,,,,,,,,,,,"BROHN HOMES",,,,,"BROHN HOMES","6720 VAUGHT RANCH RD STE 200",AUSTIN,TX,78730-2354,"(512) 320-8833",http://brohnhomes.com/,,,
TX,TRAVIS,21-54713,"Single Family Homes",5/6/2021,,158600,1796,"6910 PLEASANTON PKWY",PFLUGERVILLE,TX,78860,,,CONTRACTOR,,,,,,,,,,,"BROHN HOMES",,,,,"BROHN HOMES","6720 VAUGHT RANCH RD STE 200",AUSTIN,TX,78730-2354,"(512) 320-8833",http://brohnhomes.com/,,,
TX,TRAVIS,21-54714,"Single Family Homes",5/14/2021,,210145,2637,"7004 PLEASANTON PKWY",PFLUGERVILLE,TX,78860,,,CONTRACTOR,,,,,,,,,,,"BROHN HOMES",,,,,"BROHN HOMES","6720 VAUGHT RANCH RD STE 200",AUSTIN,TX,78730-2354,"(512) 320-8833",http://brohnhomes.com/,,,
TX,TRAVIS,21-54717,"Single Family Homes",5/17/2021,,95445,1420,"19601 CAYMUS DR",PFLUGERVILLE,TX,78860,,,CONTRACTOR,,,,,,,,,,,"STARLIGHT HOMES",,,,,"STARLIGHT HOMES","1800 VALLEY VIEW LN STE 100",DALLAS,TX,75234-8944,"(972) 428-5408",,,,
TX,TRAVIS,21-54718,"Single Family Homes",5/2/2021,,430990,3139,"6612 COALINGA LN",PFLUGERVILLE,TX,78860,,,CONTRACTOR,,,,,,,,,,,"PULTE HOMES",,,,,"PULTE HOMES","9401 AMBERGLEN BLVD STE I-150",AUSTIN,TX,78729-1154,"(512) 561-4344",,,,
TX,TRAVIS,21-54723,"Single Family Homes",5/2/2021,,401990,2225,"6616 COALINGA LN",PFLUGERVILLE,TX,78860,,,CONTRACTOR,,,,,,,,,,,"PULTE HOMES",,,,,"PULTE HOMES","9401 AMBERGLEN BLVD STE I-150",AUSTIN,TX,78729-1154,"(512) 561-4344",,,,
TX,TRAVIS,21-54724,"Single Family Homes",5/2/2021,,438990,3659,"6500 COALINGA LN",PFLUGERVILLE,TX,78860,,,CONTRACTOR,,,,,,,,,,,"PULTE HOMES",,,,,"PULTE HOMES","9401 AMBERGLEN BLVD STE I-150",AUSTIN,TX,78729-1154,"(512) 561-4344",,,,
TX,TRAVIS,21-54725,"Single Family Homes",5/17/2021,,122200,2338,"19605 CAYMUS DR",PFLUGERVILLE,TX,78860,,,CONTRACTOR,,,,,,,,,,,"STARLIGHT HOMES",,,,,"STARLIGHT HOMES","1800 VALLEY VIEW LN STE 100",DALLAS,TX,75234-8944,"(972) 428-5408",,,,
TX,TRAVIS,21-54726,"Single Family Homes",5/17/2021,,102150,1662,"19609 CAYMUS DR",PFLUGERVILLE,TX,78860,,,CONTRACTOR,,,,,,,,,,,"STARLIGHT HOMES",,,,,"STARLIGHT HOMES","1800 VALLEY VIEW LN STE 100",DALLAS,TX,75234-8944,"(972) 428-5408",,,,
TX,TRAVIS,21-54727,"Single Family Homes",5/2/2021,,430990,3438,"6521 COALINGA LN",PFLUGERVILLE,TX,78860,,,CONTRACTOR,,,,,,,,,,,"PULTE HOMES",,,,,"PULTE HOMES","9401 AMBERGLEN BLVD STE I-150",AUSTIN,TX,78729-1154,"(512) 561-4344",,,,
TX,TRAVIS,21-54728,"Single Family Homes",5/17/2021,,102700,1761,"19613 CAYMUS DR",PFLUGERVILLE,TX,78860,,,CONTRACTOR,,,,,,,,,,,"STARLIGHT HOMES",,,,,"STARLIGHT HOMES","1800 VALLEY VIEW LN STE 100",DALLAS,TX,75234-8944,"(972) 428-5408",,,,
TX,TRAVIS,21-54730,"Single Family Homes",5/17/2021,,115210,1827,"19617 CAYMUS DR",PFLUGERVILLE,TX,78860,,,CONTRACTOR,,,,,,,,,,,"STARLIGHT HOMES",,,,,"STARLIGHT HOMES","1800 VALLEY VIEW LN STE 100",DALLAS,TX,75234-8944,"(972) 428-5408",,,,
TX,TRAVIS,21-54731,"Single Family Homes",5/2/2021,,438990,3657,"17009 PLEASANTON CV",PFLUGERVILLE,TX,78860,,,CONTRACTOR,,,,,,,,,,,"PULTE HOMES",,,,,"PULTE HOMES","9401 AMBERGLEN BLVD STE I-150",AUSTIN,TX,78729-1154,"(512) 561-4344",,,,
TX,TRAVIS,21-54732,"Single Family Homes",5/17/2021,,122200,2338,"19621 CAYMUS DR",PFLUGERVILLE,TX,78860,,,CONTRACTOR,,,,,,,,,,,"STARLIGHT HOMES",,,,,"STARLIGHT HOMES","1800 VALLEY VIEW LN STE 100",DALLAS,TX,75234-8944,"(972) 428-5408",,,,
TX,TRAVIS,21-54733,"Single Family Homes",5/17/2021,,128750,2722,"19625 CAYMUS DR",PFLUGERVILLE,TX,78860,,,CONTRACTOR,,,,,,,,,,,"STARLIGHT HOMES",,,,,"STARLIGHT HOMES","1800 VALLEY VIEW LN STE 100",DALLAS,TX,75234-8944,"(972) 428-5408",,,,
TX,TRAVIS,21-54734,"Single Family Homes",5/17/2021,,95445,1420,"19512 CAYMUS DR",PFLUGERVILLE,TX,78860,,,CONTRACTOR,,,,,,,,,,,"STARLIGHT HOMES",,,,,"STARLIGHT HOMES","1800 VALLEY VIEW LN STE 100",DALLAS,TX,75234-8944,"(972) 428-5408",,,,
TX,TRAVIS,21-54735,"Single Family Homes",5/2/2021,,430990,3139,"6701 COALINGA LN",PFLUGERVILLE,TX,78860,,,CONTRACTOR,,,,,,,,,,,"PULTE HOMES",,,,,"PULTE HOMES","9401 AMBERGLEN BLVD STE I-150",AUSTIN,TX,78729-1154,"(512) 561-4344",,,,
TX,TRAVIS,21-54736,"Single Family Homes",5/2/2021,,430990,3438,"17013 PLEASANTON CV",PFLUGERVILLE,TX,78860,,,CONTRACTOR,,,,,,,,,,,"PULTE HOMES",,,,,"PULTE HOMES","9401 AMBERGLEN BLVD STE I-150",AUSTIN,TX,78729-1154,"(512) 561-4344",,,,
TX,TRAVIS,21-54737,"Single Family Homes",5/6/2021,,265980,3501,"6601 COVINA LN",PFLUGERVILLE,TX,78860,,,CONTRACTOR,,,,,,,,,,,"BROHN HOMES",,,,,"BROHN HOMES","6720 VAUGHT RANCH RD STE 200",AUSTIN,TX,78730-2354,"(512) 320-8833",http://brohnhomes.com/,,,
TX,TRAVIS,21-54738,"Single Family Homes",5/6/2021,,246805,2984,"6525 COVINA LN",PFLUGERVILLE,TX,78860,,,CONTRACTOR,,,,,,,,,,,"BROHN HOMES",,,,,"BROHN HOMES","6720 VAUGHT RANCH RD STE 200",AUSTIN,TX,78730-2354,"(512) 320-8833",http://brohnhomes.com/,,,
TX,TRAVIS,21-54739,"Single Family Homes",5/2/2021,,436980,3194,"17521 CIPREMONT LN",PFLUGERVILLE,TX,78860,,,CONTRACTOR,,,,,,,,,,,"PULTE HOMES",,,,,"PULTE HOMES","9401 AMBERGLEN BLVD STE I-150",AUSTIN,TX,78729-1154,"(512) 561-4344",,,,
TX,TRAVIS,21-54740,"Single Family Homes",5/2/2021,,438990,3659,"6621 COALINGA LN",PFLUGERVILLE,TX,78860,,,CONTRACTOR,,,,,,,,,,,"PULTE HOMES",,,,,"PULTE HOMES","9401 AMBERGLEN BLVD STE I-150",AUSTIN,TX,78729-1154,"(512) 561-4344",,,,
TX,TRAVIS,21-54741,"Single Family Homes",5/2/2021,,438990,3659,"6809 COALINGA LN",PFLUGERVILLE,TX,78860,,,CONTRACTOR,,,,,,,,,,,"PULTE HOMES",,,,,"PULTE HOMES","9401 AMBERGLEN BLVD STE I-150",AUSTIN,TX,78729-1154,"(512) 561-4344",,,,
TX,TRAVIS,21-54743,"Single Family Homes",5/3/2021,,220800,1243,"6804 PLEASANTON PKWY",PFLUGERVILLE,TX,78860,,,CONTRACTOR,,,,,,,,,,,"MERITAGE HOMES",,,,,"MERITAGE HOMES","8920 BUSINESS PARK DR STE 250",AUSTIN,TX,78759-7622,"(512) 610-4800",,,,
TX,TRAVIS,21-54745,"Single Family Homes",5/17/2021,,370700,2983,"6608 COVINA LN",PFLUGERVILLE,TX,78860,,,CONTRACTOR,,,,,,,,,,,"ASHTON WOODS HOMES",,,,,"ASHTON WOODS HOMES","4201 W PARMER LN STE A150",AUSTIN,TX,78727-4118,"(512) 610-7000",,,,
TX,TRAVIS,21-54746,"Single Family Homes",5/3/2021,,436980,3155,"17008 PLEASANTON CV",PFLUGERVILLE,TX,78860,,,CONTRACTOR,,,,,,,,,,,"PULTE HOMES",,,,,"PULTE HOMES","9401 AMBERGLEN BLVD STE I-150",AUSTIN,TX,78729-1154,"(512) 561-4344",,,,
TX,TRAVIS,21-54754,"Single Family Homes",5/17/2021,,172260,3132,"6700 AVILA WAY",PFLUGERVILLE,TX,78860,,,CONTRACTOR,,,,,,,,,,,"SCOTT FELDER HOMES",,,,,"SCOTT FELDER HOMES","6414 RIVER PLACE BLVD STE 100",AUSTIN,TX,78730-1158,"(512) 418-5400",,,,
TX,TRAVIS,21-54763,"Single Family Homes",5/3/2021,,243000,1414,"6806 PLEASANTON PKWY",PFLUGERVILLE,TX,78860,,,CONTRACTOR,,,,,,,,,,,"MERITAGE HOMES",,,,,"MERITAGE HOMES","8920 BUSINESS PARK DR STE 250",AUSTIN,TX,78759-7622,"(512) 610-4800",,,,
TX,TRAVIS,21-54772,"Single Family Homes",5/17/2021,,342200,2582,"6500 COVINA LN",PFLUGERVILLE,TX,78860,,,CONTRACTOR,,,,,,,,,,,"ASHTON WOODS HOMES",,,,,"ASHTON WOODS HOMES","4201 W PARMER LN STE A150",AUSTIN,TX,78727-4118,"(512) 610-7000",,,,
TX,TRAVIS,21-54773,"Single Family Homes",5/17/2021,,264300,1960,"6616 COVINA LN",PFLUGERVILLE,TX,78860,,,CONTRACTOR,,,,,,,,,,,"ASHTON WOODS HOMES",,,,,"ASHTON WOODS HOMES","4201 W PARMER LN STE A150",AUSTIN,TX,78727-4118,"(512) 610-7000",,,,
TX,TRAVIS,21-54774,"Single Family Homes",5/17/2021,,402300,3291,"17017 PLEASANTON CV",PFLUGERVILLE,TX,78860,,,CONTRACTOR,,,,,,,,,,,"ASHTON WOODS HOMES",,,,,"ASHTON WOODS HOMES","4201 W PARMER LN STE A150",AUSTIN,TX,78727-4118,"(512) 610-7000",,,,
TX,TRAVIS,21-54775,"Single Family Homes",5/17/2021,,383900,3060,"17101 PLEASANTON CV",PFLUGERVILLE,TX,78860,,,CONTRACTOR,,,,,,,,,,,"ASHTON WOODS HOMES",,,,,"ASHTON WOODS HOMES","4201 W PARMER LN STE A150",AUSTIN,TX,78727-4118,"(512) 610-7000",,,,
TX,TRAVIS,21-54778,"Single Family Homes",5/17/2021,,407900,3275,"6901 COVINA LN",PFLUGERVILLE,TX,78860,,,CONTRACTOR,,,,,,,,,,,"ASHTON WOODS HOMES",,,,,"ASHTON WOODS HOMES","4201 W PARMER LN STE A150",AUSTIN,TX,78727-4118,"(512) 610-7000",,,,
TX,TRAVIS,21-54810,"Single Family Homes",5/17/2021,,172590,3138,"6612 COVINA LN",PFLUGERVILLE,TX,78860,,,CONTRACTOR,,,,,,,,,,,"SCOTT FELDER HOMES",,,,,"SCOTT FELDER HOMES","6414 RIVER PLACE BLVD STE 100",AUSTIN,TX,78730-1158,"(512) 418-5400",,,,
TX,TRAVIS,21-54817,"Single Family Homes",5/17/2021,,204300,1454,"19308 FORMAN DR",PFLUGERVILLE,TX,78860,,,CONTRACTOR,,,,,,,,,,,"ASHTON WOODS HOMES",,,,,"ASHTON WOODS HOMES","4201 W PARMER LN STE A150",AUSTIN,TX,78727-4118,"(512) 610-7000",,,,
TX,TRAVIS,21-54822,"Single Family Homes",5/17/2021,,122320,2224,"6700 COVINA LN",PFLUGERVILLE,TX,78860,,,CONTRACTOR,,,,,,,,,,,"SCOTT FELDER HOMES",,,,,"SCOTT FELDER HOMES","6414 RIVER PLACE BLVD STE 100",AUSTIN,TX,78730-1158,"(512) 418-5400",,,,
TX,TRAVIS,21-54835,"Single Family Homes",5/17/2021,,247200,1916,"19401 FORMAN DR",PFLUGERVILLE,TX,78860,,,CONTRACTOR,,,,,,,,,,,"ASHTON WOODS HOMES",,,,,"ASHTON WOODS HOMES","4201 W PARMER LN STE A150",AUSTIN,TX,78727-4118,"(512) 610-7000",,,,
TX,TRAVIS,21-54836,"Single Family Homes",5/20/2021,,325100,2613,"6801 COVINA LN",PFLUGERVILLE,TX,78860,,,CONTRACTOR,,,,,,,,,,,"ASHTON WOODS HOMES",,,,,"ASHTON WOODS HOMES","4201 W PARMER LN STE A150",AUSTIN,TX,78727-4118,"(512) 610-7000",,,,
TX,TRAVIS,21-54844,"Single Family Homes",5/17/2021,,337200,2243,"17016 PLEASANTON CV",PFLUGERVILLE,TX,78860,CARMEL,,CONTRACTOR,,,,,,,,,,,"MERITAGE HOMES",,,,,"MERITAGE HOMES","8920 BUSINESS PARK DR STE 250",AUSTIN,TX,78759-7622,"(512) 610-4800",,,,
TX,TRAVIS,21-54845,"Single Family Homes",5/17/2021,,337200,2243,"6604 COVINA LN",PFLUGERVILLE,TX,78860,CARMEL,,CONTRACTOR,,,,,,,,,,,"MERITAGE HOMES",,,,,"MERITAGE HOMES","8920 BUSINESS PARK DR STE 250",AUSTIN,TX,78759-7622,"(512) 610-4800",,,,
TX,TRAVIS,21-54850,"Single Family Homes",5/17/2021,,401990,2252,"6505 COALINGA LN",PFLUGERVILLE,TX,78860,,,CONTRACTOR,,,,,,,,,,,"PULTE HOMES",,,,,"PULTE HOMES","9401 AMBERGLEN BLVD STE I-150",AUSTIN,TX,78729-1154,"(512) 561-4344",,,,
TX,TRAVIS,21-54864,"Single Family Homes",5/17/2021,,235900,1755,"19304 FORMAN DR",PFLUGERVILLE,TX,78860,,,CONTRACTOR,,,,,,,,,,,"ASHTON WOODS HOMES",,,,,"ASHTON WOODS HOMES","4201 W PARMER LN STE A150",AUSTIN,TX,78727-4118,"(512) 610-7000",,,,
TX,TRAVIS,21-54865,"Single Family Homes",5/17/2021,,207000,1774,"19320 FORMAN DR",PFLUGERVILLE,TX,78860,,,CONTRACTOR,,,,,,,,,,,"ASHTON WOODS HOMES",,,,,"ASHTON WOODS HOMES","4201 W PARMER LN STE A150",AUSTIN,TX,78727-4118,"(512) 610-7000",,,,
TX,TRAVIS,21-54879,"Single Family Homes",5/14/2021,,264875,3501,"6509 COVINA LN",PFLUGERVILLE,TX,78860,CARMEL,,CONTRACTOR,,,,,,,,,,,"BROHN HOMES",,,,,"BROHN HOMES","6720 VAUGHT RANCH RD STE 200",AUSTIN,TX,78730-2354,"(512) 320-8833",http://brohnhomes.com/,,,
TX,TRAVIS,21-54880,"Single Family Homes",5/6/2021,,264810,3501,"6716 COALINGA LN",PFLUGERVILLE,TX,78860,,,CONTRACTOR,,,,,,,,,,,"BROHN HOMES",,,,,"BROHN HOMES","6720 VAUGHT RANCH RD STE 200",AUSTIN,TX,78730-2354,"(512) 320-8833",http://brohnhomes.com/,,,
TX,TRAVIS,21-54881,"Single Family Homes",5/17/2021,,440160,3016,"6909 COVINA LN",PFLUGERVILLE,TX,78860,,,CONTRACTOR,,,,,,,,,,,"MERITAGE HOMES",,,,,"MERITAGE HOMES","8920 BUSINESS PARK DR STE 250",AUSTIN,TX,78759-7622,"(512) 610-4800",,,,
TX,TRAVIS,21-54882,"Single Family Homes",5/17/2021,,440160,3016,"17104 PLEASANTON CV",PFLUGERVILLE,TX,78860,,,CONTRACTOR,,,,,,,,,,,"MERITAGE HOMES",,,,,"MERITAGE HOMES","8920 BUSINESS PARK DR STE 250",AUSTIN,TX,78759-7622,"(512) 610-4800",,,,
TX,TRAVIS,21-54883,"Single Family Homes",5/17/2021,,333000,2208,"6516 COVINA LN",PFLUGERVILLE,TX,78860,,,CONTRACTOR,,,,,,,,,,,"MERITAGE HOMES",,,,,"MERITAGE HOMES","8920 BUSINESS PARK DR STE 250",AUSTIN,TX,78759-7622,"(512) 610-4800",,,,
TX,TRAVIS,21-54901,"Single Family Homes",5/6/2021,,198315,2510,"6517 COVINA LN",PFLUGERVILLE,TX,78860,,,CONTRACTOR,,,,,,,,,,,"BROHN HOMES",,,,,"BROHN HOMES","6720 VAUGHT RANCH RD STE 200",AUSTIN,TX,78730-2354,"(512) 320-8833",http://brohnhomes.com/,,,
TX,TRAVIS,21-54903,"Single Family Homes",5/6/2021,,246805,2984,"6700 COALINGA LN",PFLUGERVILLE,TX,78860,,,CONTRACTOR,,,,,,,,,,,"BROHN HOMES",,,,,"BROHN HOMES","6720 VAUGHT RANCH RD STE 200",AUSTIN,TX,78730-2354,"(512) 320-8833",http://brohnhomes.com/,,,
TX,TRAVIS,21-54908,"Single Family Homes",5/6/2021,,273455,3501,"6500 AVILA WAY",PFLUGERVILLE,TX,78860,,,CONTRACTOR,,,,,,,,,,,"BROHN HOMES",,,,,"BROHN HOMES","6720 VAUGHT RANCH RD STE 200",AUSTIN,TX,78730-2354,"(512) 320-8833",http://brohnhomes.com/,,,
TX,TRAVIS,21-54937,"Single Family Homes",5/22/2021,,100000,1234,"1300 W BLACK LOCUST DR",PFLUGERVILLE,TX,78860,,,CONTRACTOR,,,,,,,,,,,"RIDGE HILL INVESTMENTS",,,,,"RIDGE HILL INVESTMENTS","PO BOX 789","ROUND ROCK",TX,78680-0789,"(512) 310-8830",http://www.ridgehillinvestments.com,"(512) 310-8828",,
TX,TRAVIS,21-54951,"Single Family Homes",5/17/2021,,430990,3436,"6521 AVILA WAY",PFLUGERVILLE,TX,78660,,,CONTRACTOR,,,,,,,,,,,"PULTE HOMES",,,,,"PULTE HOMES","9401 AMBERGLEN BLVD STE I-150",AUSTIN,TX,78729-1154,"(512) 561-4344",,,,
TX,TRAVIS,21-54971,"Single Family Homes",5/17/2021,,429000,3016,"6600 COVINA LN",PFLUGERVILLE,TX,78860,,,CONTRACTOR,,,,,,,,,,,"MERITAGE HOMES",,,,,"MERITAGE HOMES","8920 BUSINESS PARK DR STE 250",AUSTIN,TX,78759-7622,"(512) 610-4800",,,,
TX,TRAVIS,21-54973,"Single Family Homes",5/17/2021,,429000,3016,"6504 COVINA LN",PFLUGERVILLE,TX,78860,,,CONTRACTOR,,,,,,,,,,,"MERITAGE HOMES",,,,,"MERITAGE HOMES","8920 BUSINESS PARK DR STE 250",AUSTIN,TX,78759-7622,"(512) 610-4800",,,,
TX,TRAVIS,21-54974,"Single Family Homes",5/20/2021,,411120,2708,"17228 PORTNOY LN",PFLUGERVILLE,TX,78860,,,CONTRACTOR,,,,,,,,,,,"MERITAGE HOMES",,,,,"MERITAGE HOMES","8920 BUSINESS PARK DR STE 250",AUSTIN,TX,78759-7622,"(512) 610-4800",,,,
TX,TRAVIS,21-54978,"Single Family Homes",5/28/2021,,360600,2986,"19316 FORMAN DR",PFLUGERVILLE,TX,78860,,,CONTRACTOR,,,,,,,,,,,"ASHTON WOODS HOMES",,,,,"ASHTON WOODS HOMES","4201 W PARMER LN STE A150",AUSTIN,TX,78727-4118,"(512) 610-7000",,,,
TX,TRAVIS,21-54979,"Single Family Homes",5/28/2021,,573990,4192,"6908 COVINA LN",PFLUGERVILLE,TX,78860,CARMEL,,CONTRACTOR,,,,,,,,,,,"GEHAN HOMES",,,,,"GEHAN HOMES","3815 S CAPITAL OF TEXAS HWY STE 275",AUSTIN,TX,78704-6652,"(512) 330-9366",http://www.gehanhomes.com,,"JANET PHILLIPS",
TX,TRAVIS,21-54980,"Single Family Homes",5/23/2021,,424990,2864,"6613 AVILA WAY",PFLUGERVILLE,TX,78860,CARMEL,,CONTRACTOR,,,,,,,,,,,"GEHAN HOMES",,,,,"GEHAN HOMES","3815 S CAPITAL OF TEXAS HWY STE 275",AUSTIN,TX,78704-6652,"(512) 330-9366",http://www.gehanhomes.com,,"JANET PHILLIPS",
TX,TRAVIS,21-54981,"Single Family Homes",5/23/2021,,405990,2168,"6701 AVILA WAY",PFLUGERVILLE,TX,78860,,,CONTRACTOR,,,,,,,,,,,"GEHAN HOMES",,,,,"GEHAN HOMES","3815 S CAPITAL OF TEXAS HWY STE 275",AUSTIN,TX,78704-6652,"(512) 330-9366",http://www.gehanhomes.com,,"JANET PHILLIPS",
TX,TRAVIS,21-54982,"Single Family Homes",5/23/2021,,380100,3203,"17617 SHAFER DR",PFLUGERVILLE,TX,78860,,,CONTRACTOR,,,,,,,,,,,"ASHTON WOODS HOMES",,,,,"ASHTON WOODS HOMES","4201 W PARMER LN STE A150",AUSTIN,TX,78727-4118,"(512) 610-7000",,,,
TX,TRAVIS,21-54985,"Single Family Homes",5/17/2021,,246805,2984,"17301 PISMO LN",PFLUGERVILLE,TX,78860,,,CONTRACTOR,,,,,,,,,,,"BROHN HOMES",,,,,"BROHN HOMES","6720 VAUGHT RANCH RD STE 200",AUSTIN,TX,78730-2354,"(512) 320-8833",http://brohnhomes.com/,,,
TX,TRAVIS,21-54987,"Single Family Homes",5/28/2021,,215100,1589,"17605 SHAFER DR",PFLUGERVILLE,TX,78860,,,CONTRACTOR,,,,,,,,,,,"ASHTON WOODS HOMES",,,,,"ASHTON WOODS HOMES","4201 W PARMER LN STE A150",AUSTIN,TX,78727-4118,"(512) 610-7000",,,,
TX,TRAVIS,21-54988,"Single Family Homes",5/17/2021,,246805,2984,"6501 COALINGA LN",PFLUGERVILLE,TX,78860,,,CONTRACTOR,,,,,,,,,,,"BROHN HOMES",,,,,"BROHN HOMES","6720 VAUGHT RANCH RD STE 200",AUSTIN,TX,78730-2354,"(512) 320-8833",http://brohnhomes.com/,,,
TX,TRAVIS,21-54990,"Single Family Homes",5/20/2021,,205660,2510,"6720 COVINA LN",PFLUGERVILLE,TX,78860,,,CONTRACTOR,,,,,,,,,,,"BROHN HOMES",,,,,"BROHN HOMES","6720 VAUGHT RANCH RD STE 200",AUSTIN,TX,78730-2354,"(512) 320-8833",http://brohnhomes.com/,,,
TX,TRAVIS,21-54992,"Single Family Homes",5/17/2021,,160355,1805,"6804 COVINA LN",PFLUGERVILLE,TX,78860,,,CONTRACTOR,,,,,,,,,,,"BROHN HOMES",,,,,"BROHN HOMES","6720 VAUGHT RANCH RD STE 200",AUSTIN,TX,78730-2354,"(512) 320-8833",http://brohnhomes.com/,,,
TX,TRAVIS,21-54994,"Single Family Homes",5/17/2021,,214695,2512,"6517 COALINGA LN",PFLUGERVILLE,TX,78860,,,CONTRACTOR,,,,,,,,,,,"BROHN HOMES",,,,,"BROHN HOMES","6720 VAUGHT RANCH RD STE 200",AUSTIN,TX,78730-2354,"(512) 320-8833",http://brohnhomes.com/,,,
TX,TRAVIS,21-54995,"Single Family Homes",5/23/2021,,347400,2750,"17621 SHAFER DR",PFLUGERVILLE,TX,78860,,,CONTRACTOR,,,,,,,,,,,"ASHTON WOODS HOMES",,,,,"ASHTON WOODS HOMES","4201 W PARMER LN STE A150",AUSTIN,TX,78727-4118,"(512) 610-7000",,,,
TX,TRAVIS,21-55007,"Single Family Homes",5/23/2021,,245300,1900,"17609 SHAFER DR",PFLUGERVILLE,TX,78860,,,CONTRACTOR,,,,,,,,,,,"ASHTON WOODS HOMES",,,,,"ASHTON WOODS HOMES","4201 W PARMER LN STE A150",AUSTIN,TX,78727-4118,"(512) 610-7000",,,,
TX,TRAVIS,21-55012,"Single Family Homes",5/23/2021,,263100,1936,"19324 FORMAN DR",PFLUGERVILLE,TX,78860,,,CONTRACTOR,,,,,,,,,,,"ASHTON WOODS HOMES",,,,,"ASHTON WOODS HOMES","4201 W PARMER LN STE A150",AUSTIN,TX,78727-4118,"(512) 610-7000",,,,
TX,TRAVIS,21-55027,"Single Family Homes",5/21/2021,,228475,2817,"6504 AVILA WAY",PFLUGERVILLE,TX,78860,,,CONTRACTOR,,,,,,,,,,,"CASTLEROCK COMMUNITIES",,,,,"CASTLEROCK COMMUNITIES","7670 WOODWAY DR STE 300",HOUSTON,TX,77063-1520,"(713) 600-7000",http://c-rock.com,"(713) 600-0000",,
TX,TRAVIS,21-55030,"Single Family Homes",5/28/2021,,326500,2596,"17600 SHAFER DR",PFLUGERVILLE,TX,78860,,,CONTRACTOR,,,,,,,,,,,"ASHTON WOODS HOMES",,,,,"ASHTON WOODS HOMES","4201 W PARMER LN STE A150",AUSTIN,TX,78727-4118,"(512) 610-7000",,,,
TX,TRAVIS,21-55031,"Single Family Homes",5/30/2021,,398040,2708,"6709 COALINGA LN",PFLUGERVILLE,TX,78860,,,CONTRACTOR,,,,,,,,,,,"MERITAGE HOMES",,,,,"MERITAGE HOMES","8920 BUSINESS PARK DR STE 250",AUSTIN,TX,78759-7622,"(512) 610-4800",,,,
TX,TRAVIS,21-55032,"Single Family Homes",5/30/2021,,429000,3016,"17220 PORTNOY LN",PFLUGERVILLE,TX,78860,,,CONTRACTOR,,,,,,,,,,,"MERITAGE HOMES",,,,,"MERITAGE HOMES","8920 BUSINESS PARK DR STE 250",AUSTIN,TX,78759-7622,"(512) 610-4800",,,,
TX,TRAVIS,21-55034,"Single Family Homes",5/23/2021,,204300,1454,"17616 SHAFER DR",PFLUGERVILLE,TX,78860,,,CONTRACTOR,,,,,,,,,,,"ASHTON WOODS HOMES",,,,,"ASHTON WOODS HOMES","4201 W PARMER LN STE A150",AUSTIN,TX,78727-4118,"(512) 610-7000",,,,
TX,TRAVIS,21-55037,"Single Family Homes",5/23/2021,,757000,3052,"6913 COVINA LN",PFLUGERVILLE,TX,78860,,,CONTRACTOR,,,,,,,,,,,"GEHAN HOMES",,,,,"GEHAN HOMES","3815 S CAPITAL OF TEXAS HWY STE 275",AUSTIN,TX,78704-6652,"(512) 330-9366",http://www.gehanhomes.com,,"JANET PHILLIPS",
TX,TRAVIS,21-55038,"Single Family Homes",5/23/2021,,305600,2502,"19312 FORMAN DR",PFLUGERVILLE,TX,78860,,,CONTRACTOR,,,,,,,,,,,"ASHTON WOODS HOMES",,,,,"ASHTON WOODS HOMES","4201 W PARMER LN STE A150",AUSTIN,TX,78727-4118,"(512) 610-7000",,,,
TX,TRAVIS,21-55039,"Single Family Homes",5/23/2021,,355200,2866,"19328 FORMAN DR",PFLUGERVILLE,TX,78860,,,CONTRACTOR,,,,,,,,,,,"ASHTON WOODS HOMES",,,,,"ASHTON WOODS HOMES","4201 W PARMER LN STE A150",AUSTIN,TX,78727-4118,"(512) 610-7000",,,,
TX,TRAVIS,21-55047,"Single Family Homes",5/23/2021,,614990,4190,"6917 COVINA LN",PFLUGERVILLE,TX,78860,,,CONTRACTOR,,,,,,,,,,,"GEHAN HOMES",,,,,"GEHAN HOMES","3815 S CAPITAL OF TEXAS HWY STE 275",AUSTIN,TX,78704-6652,"(512) 330-9366",http://www.gehanhomes.com,,"JANET PHILLIPS",
TX,TRAVIS,21-55053,"Single Family Homes",5/17/2021,,246805,2984,"6713 COVINA LN",PFLUGERVILLE,TX,78860,,,CONTRACTOR,,,,,,,,,,,"BROHN HOMES",,,,,"BROHN HOMES","6720 VAUGHT RANCH RD STE 200",AUSTIN,TX,78730-2354,"(512) 320-8833",http://brohnhomes.com/,,,
TX,TRAVIS,21-55055,"Single Family Homes",5/23/2021,,436990,1848,"6717 COVINA LN",PFLUGERVILLE,TX,78860,,,CONTRACTOR,,,,,,,,,,,"GEHAN HOMES",,,,,"GEHAN HOMES","3815 S CAPITAL OF TEXAS HWY STE 275",AUSTIN,TX,78704-6652,"(512) 330-9366",http://www.gehanhomes.com,,"JANET PHILLIPS",
TX,TRAVIS,21-55066,"Single Family Homes",5/17/2021,,323150,2243,"6713 COALINGA LN",PFLUGERVILLE,TX,78860,,,CONTRACTOR,,,,,,,,,,,"MERITAGE HOMES",,,,,"MERITAGE HOMES","8920 BUSINESS PARK DR STE 250",AUSTIN,TX,78759-7622,"(512) 610-4800",,,,
TX,TRAVIS,21-55099,"Single Family Homes",5/21/2021,,219375,2817,"6813 COVINA LN",PFLUGERVILLE,TX,78860,,,CONTRACTOR,,,,,,,,,,,"CASTLEROCK COMMUNITIES",,,,,"CASTLEROCK COMMUNITIES","7670 WOODWAY DR STE 300",HOUSTON,TX,77063-1520,"(713) 600-7000",http://c-rock.com,"(713) 600-0000",,
TX,TRAVIS,21-55107,"Single Family Homes",5/21/2021,,200070,2513,"6809 COVINA LN",PFLUGERVILLE,TX,78860,,,CONTRACTOR,,,,,,,,,,,"CASTLEROCK COMMUNITIES",,,,,"CASTLEROCK COMMUNITIES","7670 WOODWAY DR STE 300",HOUSTON,TX,77063-1520,"(713) 600-7000",http://c-rock.com,"(713) 600-0000",,
TX,TRAVIS,21-55125,"Single Family Homes",5/23/2021,,212550,2513,"6713 AVILA WAY",PFLUGERVILLE,TX,78860,,,CONTRACTOR,,,,,,,,,,,"CASTLEROCK COMMUNITIES",,,,,"CASTLEROCK COMMUNITIES","7670 WOODWAY DR STE 300",HOUSTON,TX,77063-1520,"(713) 600-7000",http://c-rock.com,"(713) 600-0000",,
TX,TRAVIS,21-55126,"Single Family Homes",5/23/2021,,221260,2817,"6601 AVILA WAY",PFLUGERVILLE,TX,78860,,,CONTRACTOR,,,,,,,,,,,"CASTLEROCK COMMUNITIES",,,,,"CASTLEROCK COMMUNITIES","7670 WOODWAY DR STE 300",HOUSTON,TX,77063-1520,"(713) 600-7000",http://c-rock.com,"(713) 600-0000",,
TX,TRAVIS,21-55128,"Single Family Homes",5/23/2021,,221260,2817,"6605 COALINGA LN",PFLUGERVILLE,TX,78860,,,CONTRACTOR,,,,,,,,,,,"CASTLEROCK COMMUNITIES",,,,,"CASTLEROCK COMMUNITIES","7670 WOODWAY DR STE 300",HOUSTON,TX,77063-1520,"(713) 600-7000",http://c-rock.com,"(713) 600-0000",,
TX,TRAVIS,21-55139,"Single Family Homes",5/23/2021,,228410,2817,"6708 COVINA LN",PFLUGERVILLE,TX,78860,,,CONTRACTOR,,,,,,,,,,,"CASTLEROCK COMMUNITIES",,,,,"CASTLEROCK COMMUNITIES","7670 WOODWAY DR STE 300",HOUSTON,TX,77063-1520,"(713) 600-7000",http://c-rock.com,"(713) 600-0000",,
TX,TRAVIS,21-55141,"Single Family Homes",5/23/2021,,228475,2817,"6800 COVINA LN",PFLUGERVILLE,TX,78860,,,CONTRACTOR,,,,,,,,,,,"CASTLEROCK COMMUNITIES",,,,,"CASTLEROCK COMMUNITIES","7670 WOODWAY DR STE 300",HOUSTON,TX,77063-1520,"(713) 600-7000",http://c-rock.com,"(713) 600-0000",,
TX,TRAVIS,21-55156,"Single Family Homes",5/23/2021,,198640,2507,"6505 AVILA WAY",PFLUGERVILLE,TX,78860,CARMEL,,CONTRACTOR,,,,,,,,,,,"CASTLEROCK COMMUNITIES",,,,,"CASTLEROCK COMMUNITIES","7670 WOODWAY DR STE 300",HOUSTON,TX,77063-1520,"(713) 600-7000",http://c-rock.com,"(713) 600-0000",,
TX,TRAVIS,21-55159,"Single Family Homes",5/23/2021,,168805,1933,"6712 COALINGA LN",PFLUGERVILLE,TX,78860,,,CONTRACTOR,,,,,,,,,,,"BROHN HOMES",,,,,"BROHN HOMES","6720 VAUGHT RANCH RD STE 200",AUSTIN,TX,78730-2354,"(512) 320-8833",http://brohnhomes.com/,,,
TX,TRAVIS,21-55160,"Single Family Homes",5/23/2021,,168805,1933,"6609 COVINA LN",PFLUGERVILLE,TX,78860,,,CONTRACTOR,,,,,,,,,,,"BROHN HOMES",,,,,"BROHN HOMES","6720 VAUGHT RANCH RD STE 200",AUSTIN,TX,78730-2354,"(512) 320-8833",http://brohnhomes.com/,,,
TX,TRAVIS,21-55161,"Single Family Homes",5/23/2021,,227045,2694,"6501 COVINA LN",PFLUGERVILLE,TX,78860,,,CONTRACTOR,,,,,,,,,,,"BROHN HOMES",,,,,"BROHN HOMES","6720 VAUGHT RANCH RD STE 200",AUSTIN,TX,78730-2354,"(512) 320-8833",http://brohnhomes.com/,,,
TX,TRAVIS,21-55165,"Single Family Homes",5/23/2021,,221260,2817,"6513 AVILA WAY",PFLUGERVILLE,TX,78860,,,CONTRACTOR,,,,,,,,,,,"CASTLEROCK COMMUNITIES",,,,,"CASTLEROCK COMMUNITIES","7670 WOODWAY DR STE 300",HOUSTON,TX,77063-1520,"(713) 600-7000",http://c-rock.com,"(713) 600-0000",,
TX,TRAVIS,21-55167,"Single Family Homes",5/23/2021,,236600,2817,"6413 COALINGA LN",PFLUGERVILLE,TX,78860,,,CONTRACTOR,,,,,,,,,,,"CASTLEROCK COMMUNITIES",,,,,"CASTLEROCK COMMUNITIES","7670 WOODWAY DR STE 300",HOUSTON,TX,77063-1520,"(713) 600-7000",http://c-rock.com,"(713) 600-0000",,
TX,TRAVIS,21-55168,"Single Family Homes",5/23/2021,,160290,1915,"6608 COALINGA LN",PFLUGERVILLE,TX,78860,CARMEL,,CONTRACTOR,,,,,,,,,,,"CASTLEROCK COMMUNITIES",,,,,"CASTLEROCK COMMUNITIES","7670 WOODWAY DR STE 300",HOUSTON,TX,77063-1520,"(713) 600-7000",http://c-rock.com,"(713) 600-0000",,
TX,TRAVIS,21-55173,"Single Family Homes",5/30/2021,,440990,3673,"17200 PORTNOY LN",PFLUGERVILLE,TX,78860,,,CONTRACTOR,,,,,,,,,,,"PULTE HOMES",,,,,"PULTE HOMES","9401 AMBERGLEN BLVD STE I-150",AUSTIN,TX,78729-1154,"(512) 561-4344",,,,
TX,TRAVIS,21-55174,"Single Family Homes",5/30/2021,,432990,3438,"17600 CIPREMONT LN",PFLUGERVILLE,TX,78860,,,CONTRACTOR,,,,,,,,,,,"PULTE HOMES",,,,,"PULTE HOMES","9401 AMBERGLEN BLVD STE I-150",AUSTIN,TX,78729-1154,"(512) 561-4344",,,,
TX,TRAVIS,21-55191,"Single Family Homes",5/30/2021,,337200,2243,"6604 COALINGA LN",PFLUGERVILLE,TX,78860,,,CONTRACTOR,,,,,,,,,,,"MERITAGE HOMES",,,,,"MERITAGE HOMES","8920 BUSINESS PARK DR STE 250",AUSTIN,TX,78759-7622,"(512) 610-4800",,,,
TX,TRAVIS,21-55192,"Single Family Homes",5/30/2021,,398040,2708,"6600 COALINGA LN",PFLUGERVILLE,TX,78860,,,CONTRACTOR,,,,,,,,,,,"MERITAGE HOMES",,,,,"MERITAGE HOMES","8920 BUSINESS PARK DR STE 250",AUSTIN,TX,78759-7622,"(512) 610-4800",,,,
TX,TRAVIS,21-32875,"Single Family Homes",5/25/2021,,250000,,"9818 THAXTON ROAD",AUSTIN,TX,78749,,,CONTRACTOR,,,,,,,,,,,"PAUL SWOYER SEPTICS",,,,,"PAUL SWOYER SEPTICS","23011 FM306","CANYON LAKE",TX,78133,"(830) 935-4936",,,,
TX,TRAVIS,21-32874,"Single Family Homes",5/17/2021,,110000,,"12310 VON QUINTOS RD",AUSTIN,TX,78719,,,"ELIUD GARCIA JR","12310 VON QUINTOS RD",AUSTIN,TX,78719,,Owner,,,,,OWNER,,,,,OWNER,,,,,,,,,
TX,TRAVIS,21-32770,"Single Family Homes",5/21/2021,,212670,,"13821 ELEANOR ROOSEVELT ST",MANOR,TX,78653,,,CONTRACTOR,,,,,,,,,,,"KB HOME",,,,,"KB HOME","10800 PECAN PARK BLVD STE 200",AUSTIN,TX,78750-1249,"(512) 651-8100",,,,
TX,TRAVIS,21-32767,"Single Family Homes",5/3/2021,,700000,,"31 COUSTEAU LN",AUSTIN,TX,78746,,,CONTRACTOR,,,,,,,,,,,"MANGUM BUILDERS",,,,,"MANGUM BUILDERS","4407 BEE CAVES RD STE 622",AUSTIN,TX,78746,"(512) 264-9190",https://mangumbuilders.com/,,,
TX,TRAVIS,21-32803,"Single Family Homes",5/21/2021,,250000,,"1213 SHARPS ROAD",AUSTIN,TX,78734,,,CONTRACTOR,,,,,,,,,,,"PAUL SWOYER SEPTICS",,,,,"PAUL SWOYER SEPTICS","23011 FM306","CANYON LAKE",TX,78133,"(830) 935-4936",,,,
TX,TRAVIS,21-32796,"Single Family Homes",5/25/2021,,167000,,"8416 APOGEE BLVD",AUSTIN,TX,78744,,,CONTRACTOR,,,,,,,,,,,"PACESETTER HOMES ",,,,,"PACESETTER HOMES ","7940 SHOAL CREEK BLVD STE 200",AUSTIN,TX,78757-7587,"(512) 323-5252",,,,
TX,TRAVIS,21-32246,"Single Family Homes",5/3/2021,,330000,,"19922 OLD BURNET RD",LEANDER,TX,78645,,,"ALDO ALEX DURAN","19922 OLD BURNET RD",LEANDER,TX,78645,,Applicant,,,,,OWNER,,,,,OWNER,,,,,,,,,
TX,TRAVIS,21-32583,"Single Family Homes",5/4/2021,,418802.4,,"3608 FINNY LN",PFLUGERVILLE,TX,78660,,,CONTRACTOR,,,,,,,,,,,"MHI MCGUYER HOMEBUILDERS",,,,,"MHI MCGUYER HOMEBUILDERS","8200 N MO PAC EXPY STE 300",AUSTIN,TX,78759-8844,"(512) 502-2050",,"(512) 388-1836","FRANK MCGUYER",
TX,TRAVIS,20-31416,"Single Family Homes",5/21/2021,,350000,,"1103 CASTILE ROAD",AUSTIN,TX,78733,"AUSTIN LAKE",,CONTRACTOR,,,,,,,,,,,"WUKASCH DESIGNS",,,,,"WUKASCH DESIGNS","235 KELLY DR",BURNET,TX,78611-2831,"(512) 715-9093",,,,
TX,TRAVIS,21-33045,"Single Family Homes",5/3/2021,,384750,,"10001 TWIN LAKE LOOP","DRIPPING SPRINGS",TX,78620,"TWIN LAKE HILLS",,"KEVIN MOORE","10001 TWIN LAKE LOOP","DRIPPING SPRINGS",TX,78620,,Applicant,,,,,OWNER,,,,,OWNER,,,,,,,,,
TX,TRAVIS,21-32950,"Single Family Homes",5/3/2021,,355794,,"9608 ELOQUENCE DR",AUSTIN,TX,78653,"WHISPER VALLEY",,CONTRACTOR,,,,,,,,,,,"BUFFINGTON TEXAS CLASSIC HOMES",,,,,"BUFFINGTON TEXAS CLASSIC HOMES","8601 RANCH ROAD 2222 PARK CENTRE BLDG STE 150",AUSTIN,TX,78730,"(512) 579-4800",,,,
TX,TRAVIS,21-32361,"Single Family Homes",5/21/2021,,302700,,"16204 MARCELLO DR",PFLUGERVILLE,TX,78660,,,CONTRACTOR,,,,,,,,,,,"DR HORTON",,,,,"DR HORTON","10700 PECAN PARK BLVD STE 400",AUSTIN,TX,78750-1227,"(512) 345-4663",,,,
TX,TRAVIS,21-33207,"Single Family Homes",5/25/2021,,194100,,"8501 LOOKSEE LN",AUSTIN,TX,78744,"EASTON PARK",,CONTRACTOR,,,,,,,,,,,"PACESETTER HOMES ",,,,,"PACESETTER HOMES ","7940 SHOAL CREEK BLVD STE 200",AUSTIN,TX,78757-7587,"(512) 323-5252",,,,
TX,TRAVIS,21-33208,"Single Family Homes",5/3/2021,,254175,,"8613 LOOKSEE LN",AUSTIN,TX,78744,"EASTON PARK",,CONTRACTOR,,,,,,,,,,,"PACESETTER HOMES ",,,,,"PACESETTER HOMES ","7940 SHOAL CREEK BLVD STE 200",AUSTIN,TX,78757-7587,"(512) 323-5252",,,,
TX,TRAVIS,21-33103,"Single Family Homes",5/3/2021,,300000,,"2212 RED FOX ROAD",AUSTIN,TX,78734,,,CONTRACTOR,,,,,,,,,,,"SOUTHWEST SEPTIC DESIGN",,,,,"SOUTHWEST SEPTIC DESIGN","2573 DEER STAND LOOP","SAN MARCOS",TX,78666-5094,"(512) 392-5645",,,,
TX,TRAVIS,21-33101,"Single Family Homes",5/27/2021,,125000,,"3600 KELLYWOOD DR",AUSTIN,TX,78739,,,"PAT & JOHN CHADWELL","3600 KELLYWOOD DR",AUSTIN,TX,78739,,Owner,,,,,OWNER,,,,,OWNER,,,,,,,,,
TX,TRAVIS,20-30846,"Single Family Homes",5/10/2021,,90000,,"11502 JOY ST",AUSTIN,TX,78748,MOORELAND,,"ELAINE RAMIREZ","11502 JOY ST",AUSTIN,TX,78748,,Owner,,,,,OWNER,,,,,OWNER,,,,,,,,,
TX,TRAVIS,21-32936,"Single Family Homes",5/18/2021,,800000,,"4801 WILD HORSE COVE",SPICEWOOD,TX,78669,,,"DAN AND KIM BUMP","4801 WILD HORSE COVE",SPICEWOOD,TX,78669,,Owner,,,,,OWNER,,,,,OWNER,,,,,,,,,
TX,TRAVIS,21-32910,"Single Family Homes",5/11/2021,,800000,,"4407 THREE CREEK TR",SPICEWOOD,TX,78669,"LICK CREEK RANCH",,CONTRACTOR,,,,,,,,,,,"WUKASCH DESIGNS",,,,,"WUKASCH DESIGNS","235 KELLY DR",BURNET,TX,78611-2831,"(512) 715-9093",,,,
TX,TRAVIS,20-30334,"Single Family Homes",5/18/2021,,180000,,"17101 SAINT THERESE ROAD",MANOR,TX,78653,,,"JUAN CARLOS & SANDRA SOTELO","17101 SAINT THERESE ROAD",MANOR,TX,78653,,Owner,,,,,OWNER,,,,,OWNER,,,,,,,,,
TX,TRAVIS,21-33753,"Single Family Homes",5/24/2021,,275000,,"3500 LOHMANS FORD RD 19","LAGO VISTA",TX,78645,,,"KEVIN MOORE","3500 LOHMANS FORD RD 19","LAGO VISTA",TX,78645,,Applicant,,,,,OWNER,,,,,OWNER,,,,,,,,,
TX,TRAVIS,21-33209,"Single Family Homes",5/3/2021,,230250,,"8605 LOOKSEE LN",AUSTIN,TX,78744,,,CONTRACTOR,,,,,,,,,,,"PACESETTER HOMES ",,,,,"PACESETTER HOMES ","7940 SHOAL CREEK BLVD STE 200",AUSTIN,TX,78757-7587,"(512) 323-5252",,,,
TX,TRAVIS,21-33211,"Single Family Homes",5/3/2021,,231300,,"8209 PETRONAS PASS",AUSTIN,TX,78744,"EASTON PARK",,CONTRACTOR,,,,,,,,,,,"PACESETTER HOMES ",,,,,"PACESETTER HOMES ","7940 SHOAL CREEK BLVD STE 200",AUSTIN,TX,78757-7587,"(512) 323-5252",,,,
TX,TRAVIS,21-33501,"Single Family Homes",5/4/2021,,457341,,"2209 ESCAPE UNIT 11",SPICEWOOD,TX,78669,,,CONTRACTOR,,,,,,,,,,,"LEGACY DCS",,,,,"LEGACY DCS","205 WILD BASIN ROAD SOUTH, BLDG",AUSTIN,TX,78746,"(512) 726-0500",https://legacydcs.com/,"(512) 726-0527",,info@legacydcs.com
TX,TRAVIS,21-33363,"Single Family Homes",5/25/2021,,142650,,"19401 JAMES CARTER JR",MANOR,TX,78653,"PRESIDENTIAL MEADOWS",,CONTRACTOR,,,,,,,,,,,"KB HOME",,,,,"KB HOME","10800 PECAN PARK BLVD STE 200",AUSTIN,TX,78750-1249,"(512) 651-8100",,,,
TX,TRAVIS,21-33364,"Single Family Homes",5/25/2021,,183420,,"19413 JAMES CARTER JR",MANOR,TX,78753,"PRESIDENTIAL MEADOWS",,CONTRACTOR,,,,,,,,,,,"KB HOME",,,,,"KB HOME","10800 PECAN PARK BLVD STE 200",AUSTIN,TX,78750-1249,"(512) 651-8100",,,,
TX,TRAVIS,21-33374,"Single Family Homes",5/4/2021,,457341,,"19216 LOST TREE",SPICEWOOD,TX,78669,,,CONTRACTOR,,,,,,,,,,,"LEGACY DCS",,,,,"LEGACY DCS","205 WILD BASIN ROAD SOUTH, BLDG",AUSTIN,TX,78746,"(512) 726-0500",https://legacydcs.com/,"(512) 726-0527",,info@legacydcs.com
TX,TRAVIS,20-32075,"Single Family Homes",5/20/2021,,294000,,"10416 MARGRA LN",AUSTIN,TX,78748,"SOUTHWEST GATE",,"RYAN LANCIAL","10416 MARGRA LN",AUSTIN,TX,78748,,Owner,,,,,OWNER,,,,,OWNER,,,,,,,,,
TX,TRAVIS,21-34287,"Single Family Homes",5/26/2021,,457341,,"2301 ESCAPE",SPICEWOOD,TX,78669,"CYPRESS COVE",,CONTRACTOR,,,,,,,,,,,"LEGACY DCS",,,,,"LEGACY DCS","205 WILD BASIN ROAD SOUTH, BLDG",AUSTIN,TX,78746,"(512) 726-0500",https://legacydcs.com/,"(512) 726-0527",,info@legacydcs.com
TX,TRAVIS,21-33425,"Single Family Homes",5/24/2021,,238950,,"13829 ELEANOR ROOSEVELT",MANOR,TX,78653,"PRESIDENTIAL MEADOWS",,CONTRACTOR,,,,,,,,,,,"KB HOME",,,,,"KB HOME","10800 PECAN PARK BLVD STE 200",AUSTIN,TX,78750-1249,"(512) 651-8100",,,,
TX,TRAVIS,21-33427,"Single Family Homes",5/24/2021,,201510,,"14301 HONEY GEM",PFLUGERVILLE,TX,78660,"VILLAGE AT NORTHTOWN",,CONTRACTOR,,,,,,,,,,,"KB HOME",,,,,"KB HOME","10800 PECAN PARK BLVD STE 200",AUSTIN,TX,78750-1249,"(512) 651-8100",,,,
TX,TRAVIS,21-34286,"Single Family Homes",5/26/2021,,457341,,"2201 ESCAPE",SPICEWOOD,TX,78669,,,CONTRACTOR,,,,,,,,,,,"LEGACY DCS",,,,,"LEGACY DCS","205 WILD BASIN ROAD SOUTH, BLDG",AUSTIN,TX,78746,"(512) 726-0500",https://legacydcs.com/,"(512) 726-0527",,info@legacydcs.com
TX,TRAVIS,21-33464,"Single Family Homes",5/21/2021,,145875,,"5817 BROCADE DR",AUSTIN,TX,78724,"GILBERT LANE",,CONTRACTOR,,,,,,,,,,,"DR HORTON",,,,,"DR HORTON","10700 PECAN PARK BLVD STE 400",AUSTIN,TX,78750-1227,"(512) 345-4663",,,,
TX,TRAVIS,21-33424,"Single Family Homes",5/24/2021,,120600,,"13504 VIRTUE ST",MANOR,TX,78653,"PRESIDENTIAL MEADOWS",,CONTRACTOR,,,,,,,,,,,"KB HOME",,,,,"KB HOME","10800 PECAN PARK BLVD STE 200",AUSTIN,TX,78750-1249,"(512) 651-8100",,,,
TX,TRAVIS,21-33423,"Single Family Homes",5/24/2021,,121770,,"13508 MARTHA WASHINGTON",MANOR,TX,78653,"PRESIDENTIAL MEADOWS",,CONTRACTOR,,,,,,,,,,,"KB HOME",,,,,"KB HOME","10800 PECAN PARK BLVD STE 200",AUSTIN,TX,78750-1249,"(512) 651-8100",,,,
TX,TRAVIS,21-33500,"Single Family Homes",5/25/2021,,201510,,"13505 MARTHA WASHINGTON",MANOR,TX,78653,"PRESIDENTIAL MEADOWS",,CONTRACTOR,,,,,,,,,,,"KB HOME",,,,,"KB HOME","10800 PECAN PARK BLVD STE 200",AUSTIN,TX,78750-1249,"(512) 651-8100",,,,
TX,TRAVIS,21-33314,"Single Family Homes",5/19/2021,,125000,,"2202 GILA PASS",AUSTIN,TX,78734,"APACHE SHORES",,CONTRACTOR,,,,,,,,,,,"LANDMAN ENVIRONMENTAL",,,,,"LANDMAN ENVIRONMENTAL","5808 LAKESIDE TRL",AUSTIN,TX,78734-1440,"(512) 789-5048",http://www.landman-environmental.com/,,"JOHN FOX",jfox@landman-environmental.com
TX,TRAVIS,21-33355,"Single Family Homes",5/3/2021,,214380,,"19021 DUTY ST",MANOR,TX,78653,"PRESIDENTIAL MEADOWS",,CONTRACTOR,,,,,,,,,,,"KB HOME",,,,,"KB HOME","10800 PECAN PARK BLVD STE 200",AUSTIN,TX,78750-1249,"(512) 651-8100",,,,
TX,TRAVIS,21-33380,"Single Family Homes",5/3/2021,,238950,,"13824 ELEANOR ROOSEVELT",MANOR,TX,78653,"PRESIDENTIAL MEADOWS",,CONTRACTOR,,,,,,,,,,,"KB HOME",,,,,"KB HOME","10800 PECAN PARK BLVD STE 200",AUSTIN,TX,78750-1249,"(512) 651-8100",,,,
TX,TRAVIS,21-33381,"Single Family Homes",5/3/2021,,161280,,"13921 ABRAHAM LINCOLN",MANOR,TX,78653,"PRESIDENTIAL MEADOWS",,CONTRACTOR,,,,,,,,,,,"KB HOME",,,,,"KB HOME","10800 PECAN PARK BLVD STE 200",AUSTIN,TX,78750-1249,"(512) 651-8100",,,,
TX,TRAVIS,21-33422,"Single Family Homes",5/24/2021,,247950,,"13813 MONTPELIER",MANOR,TX,78653,"PRESIDENTIAL MEADOWS",,CONTRACTOR,,,,,,,,,,,"KB HOME",,,,,"KB HOME","10800 PECAN PARK BLVD STE 200",AUSTIN,TX,78750-1249,"(512) 651-8100",,,,
TX,TRAVIS,21-33382,"Single Family Homes",5/3/2021,,148230,,"12409 ACE IN THE HOLE LN","DEL VALLE",TX,78640,"ROSS ROAD",,CONTRACTOR,,,,,,,,,,,"KB HOME",,,,,"KB HOME","10800 PECAN PARK BLVD STE 200",AUSTIN,TX,78750-1249,"(512) 651-8100",,,,
TX,TRAVIS,21-33383,"Single Family Homes",5/3/2021,,183420,,"6405 CONESTOGA WAGON WAY","DEL VALLE",TX,78640,"ROSS ROAD",,CONTRACTOR,,,,,,,,,,,"KB HOME",,,,,"KB HOME","10800 PECAN PARK BLVD STE 200",AUSTIN,TX,78750-1249,"(512) 651-8100",,,,
TX,TRAVIS,21-33587,"Single Family Homes",5/25/2021,,590000,,"14603 ROUND MOUNTAIN ROAD",LEANDER,TX,78641,"BLUFFS OF SANDY CREEK",,CONTRACTOR,,,,,,,,,,,"WUKASCH DESIGNS",,,,,"WUKASCH DESIGNS","235 KELLY DR",BURNET,TX,78611-2831,"(512) 715-9093",,,,
TX,TRAVIS,21-33578,"Single Family Homes",5/27/2021,,810000,,"1900 LIPAN TR",AUSTIN,TX,78733,,,"DANIEL BALBOA","1900 LIPAN TR",AUSTIN,TX,78733,,Owner,,,,,OWNER,,,,,OWNER,,,,,,,,,
TX,TRAVIS,21-33421,"Single Family Homes",5/25/2021,,159390,,"19201 JAMES CARTER JR",MANOR,TX,78653,"PRESIDENTIAL MEADOWS",,CONTRACTOR,,,,,,,,,,,"KB HOME",,,,,"KB HOME","10800 PECAN PARK BLVD STE 200",AUSTIN,TX,78750-1249,"(512) 651-8100",,,,
TX,TRAVIS,21-32965,"Single Family Homes",5/7/2021,,1000000,,"18517 FLYING J",HOUSTON,TX,78669,,,CONTRACTOR,,,,,,,,,,,"SUNSET CONSTRUCTION & EXCAVATION",,,,,"SUNSET CONSTRUCTION & EXCAVATION","16910 HAMILTON POOL RD",AUSTIN,TX,78738-7201,"(512) 565-3793",,,"JAMES KUYKENDALL",
TX,TRAVIS,21-33486,"Single Family Homes",5/3/2021,,120600,,"13500 MARTHA WASHINGTON PL",MANOR,TX,78653,"PRESIDENTIAL MEADOWS",,CONTRACTOR,,,,,,,,,,,"KB HOME",,,,,"KB HOME","10800 PECAN PARK BLVD STE 200",AUSTIN,TX,78750-1249,"(512) 651-8100",,,,
TX,TRAVIS,21-33521,"Single Family Homes",5/7/2021,,189000,,"14601 PIMA TR",AUSTIN,TX,78734,"APACHE SHORES",,"KEVIN MOORE","14601 PIMA TR",AUSTIN,TX,78734,,Owner,,,,,OWNER,,,,,OWNER,,,,,,,,,
TX,TRAVIS,21-33565,"Single Family Homes",5/3/2021,,81640,,"13803 MUSSEL RUN",ELGIN,TX,78621,"ELM CREEK",,CONTRACTOR,,,,,,,,,,,"LENNAR HOMES",,,,,"LENNAR HOMES","13620 FM 620 RD 150",AUSTIN,TX,78717,"(512) 506-4000",http://www.lennar.com/,,,
TX,TRAVIS,21-33568,"Single Family Homes",5/21/2021,,400000,,"7808 SKYTREE DR",AUSTIN,TX,78744,"EASTON PARK",,CONTRACTOR,,,,,,,,,,,"PERRY HOMES",,,,,"PERRY HOMES","6112 LLANO ST",AUSTIN,TX,78702,"(512) 810-8050",,,,
TX,TRAVIS,21-33569,"Single Family Homes",5/21/2021,,400000,,"9212 SPIRE VIEW",AUSTIN,TX,78744,"MIRABEL PARK",,CONTRACTOR,,,,,,,,,,,"PERRY HOMES",,,,,"PERRY HOMES","6112 LLANO ST",AUSTIN,TX,78702,"(512) 810-8050",,,,
TX,TRAVIS,21-33571,"Single Family Homes",5/25/2021,,216990,,"13517 MARTHA WASHINGTON PL",MANOR,TX,78653,"PRESIDENTIAL MEADOWS",,CONTRACTOR,,,,,,,,,,,"KB HOME",,,,,"KB HOME","10800 PECAN PARK BLVD STE 200",AUSTIN,TX,78750-1249,"(512) 651-8100",,,,
TX,TRAVIS,21-33863,"Single Family Homes",5/5/2021,,500000,,"17400 LAKE WOOD CIRCLE","DRIPPING SPRINGS",TX,78620,"MOUNTAIN CREEK LAKES",,CONTRACTOR,,,,,,,,,,,"DELCON ENVIRONMENTAL SYSTEMS",,,,,"DELCON ENVIRONMENTAL SYSTEMS","12713 MAJESTIC OAKS DR",AUSTIN,TX,78732-2001,"(512) 583-1397",,,"DERRICK LORMAND",
TX,TRAVIS,21-33572,"Single Family Homes",5/24/2021,,251730,,"13932 ABRAHAM LINCOLN ST",MANOR,TX,78653,,,CONTRACTOR,,,,,,,,,,,"KB HOME",,,,,"KB HOME","10800 PECAN PARK BLVD STE 200",AUSTIN,TX,78750-1249,"(512) 651-8100",,,,
TX,TRAVIS,21-33573,"Single Family Homes",5/24/2021,,201510,,"14201 SILVER LACE LN",PFLUGERVILLE,TX,78660,"VILLAGE AT NORTHTOWN",,CONTRACTOR,,,,,,,,,,,"KB HOME",,,,,"KB HOME","10800 PECAN PARK BLVD STE 200",AUSTIN,TX,78750-1249,"(512) 651-8100",,,,
TX,TRAVIS,21-33886,"Single Family Homes",5/3/2021,,183675,,"5905 BERRIWEATHER",AUSTIN,TX,78724,"GILBERT LANE",,CONTRACTOR,,,,,,,,,,,"DR HORTON",,,,,"DR HORTON","10700 PECAN PARK BLVD STE 400",AUSTIN,TX,78750-1227,"(512) 345-4663",,,,
TX,TRAVIS,21-33887,"Single Family Homes",5/3/2021,,147600,,"5909 BERRIWEATHER",AUSTIN,TX,78724,"GILBERT LN",,CONTRACTOR,,,,,,,,,,,"DR HORTON",,,,,"DR HORTON","10700 PECAN PARK BLVD STE 400",AUSTIN,TX,78750-1227,"(512) 345-4663",,,,
TX,TRAVIS,21-33888,"Single Family Homes",5/3/2021,,157200,,"5913 BERRIWEATHER",AUSTIN,TX,78724,"GILBERT LANE",,CONTRACTOR,,,,,,,,,,,"DR HORTON",,,,,"DR HORTON","10700 PECAN PARK BLVD STE 400",AUSTIN,TX,78750-1227,"(512) 345-4663",,,,
TX,TRAVIS,21-33891,"Single Family Homes",5/3/2021,,318538.2,,"20112 CRESTED CARACARA LN",PFLUGERVILLE,TX,78660,"PARK AT BLACKHAWK",,CONTRACTOR,,,,,,,,,,,"MHI MCGUYER HOMEBUILDERS",,,,,"MHI MCGUYER HOMEBUILDERS","8200 N MO PAC EXPY STE 300",AUSTIN,TX,78759-8844,"(512) 502-2050",,"(512) 388-1836","FRANK MCGUYER",
TX,TRAVIS,21-33895,"Single Family Homes",5/3/2021,,305352.6,,"19816 HARRIER FLIGHT TR",PFLUGERVILLE,TX,78660,"PARK AT BLACKHAWK",,CONTRACTOR,,,,,,,,,,,"MHI MCGUYER HOMEBUILDERS",,,,,"MHI MCGUYER HOMEBUILDERS","8200 N MO PAC EXPY STE 300",AUSTIN,TX,78759-8844,"(512) 502-2050",,"(512) 388-1836","FRANK MCGUYER",
TX,TRAVIS,21-33900,"Single Family Homes",5/3/2021,,473990,,"19404 FERNANDO TRAIL","DRIPPING SPRINGS",TX,78620,"SWEETWATER RANCH",,CONTRACTOR,,,,,,,,,,,"TAYLOR MORRISON OF TEXAS",,,,,"TAYLOR MORRISON OF TEXAS","11200 LAKELINE BLVD STE 150A",AUSTIN,TX,78717-5964,"(512) 328-8866",,"(512) 328-7988",,
TX,TRAVIS,21-33901,"Single Family Homes",5/25/2021,,171810,,"14220 JAMES BUCHANAN",MANOR,TX,78653,"PRESIDENTIAL MEADOWS",,CONTRACTOR,,,,,,,,,,,"KB HOME",,,,,"KB HOME","10800 PECAN PARK BLVD STE 200",AUSTIN,TX,78750-1249,"(512) 651-8100",,,,
TX,TRAVIS,19-23741,"Single Family Homes",5/11/2021,,500000,,"5355 PETTICOAT LN",AUSTIN,TX,78746,,,CONTRACTOR,,,,,,,,,,,"DELCON ENVIRONMENTAL SYSTEMS",,,,,"DELCON ENVIRONMENTAL SYSTEMS","12713 MAJESTIC OAKS DR",AUSTIN,TX,78732-2001,"(512) 583-1397",,,"DERRICK LORMAND",
TX,TRAVIS,21-33780,"Single Family Homes",5/3/2021,,286026,,"9600 ELOQUENCE DR",AUSTIN,TX,78653,"WHISPER VALLEY",,CONTRACTOR,,,,,,,,,,,"BUFFINGTON TEXAS CLASSIC HOMES",,,,,"BUFFINGTON TEXAS CLASSIC HOMES","8601 RANCH ROAD 2222 PARK CENTRE BLDG STE 150",AUSTIN,TX,78730,"(512) 579-4800",,,,
TX,TRAVIS,21-33781,"Single Family Homes",5/3/2021,,326952,,"9824 ELOQUENCE DR",AUSTIN,TX,78653,"WHISPER VALLEY",,CONTRACTOR,,,,,,,,,,,"BUFFINGTON TEXAS CLASSIC HOMES",,,,,"BUFFINGTON TEXAS CLASSIC HOMES","8601 RANCH ROAD 2222 PARK CENTRE BLDG STE 150",AUSTIN,TX,78730,"(512) 579-4800",,,,
TX,TRAVIS,21-33786,"Single Family Homes",5/3/2021,,221450,,"9604 GRAPEVINE LEAF DR",AUSTIN,TX,78653,,,CONTRACTOR,,,,,,,,,,,"BUFFINGTON TEXAS CLASSIC HOMES",,,,,"BUFFINGTON TEXAS CLASSIC HOMES","8601 RANCH ROAD 2222 PARK CENTRE BLDG STE 150",AUSTIN,TX,78730,"(512) 579-4800",,,,
TX,TRAVIS,21-33819,"Single Family Homes",5/3/2021,,203550,,"5721 BERRIWEATHER DR",AUSTIN,TX,78724,"GILBERT LN",,CONTRACTOR,,,,,,,,,,,"DR HORTON",,,,,"DR HORTON","10700 PECAN PARK BLVD STE 400",AUSTIN,TX,78750-1227,"(512) 345-4663",,,,
TX,TRAVIS,21-33920,"Single Family Homes",5/25/2021,,183420,,"13608 MARTHA",AUSTIN,TX,78653,"PRESIDENTIAL MEADOWS",,CONTRACTOR,,,,,,,,,,,"KB HOME",,,,,"KB HOME","10800 PECAN PARK BLVD STE 200",AUSTIN,TX,78750-1249,"(512) 651-8100",,,,
TX,TRAVIS,21-33927,"Single Family Homes",5/3/2021,,245640,,"7109 TERRAZZO COTTAGE LN",AUSTIN,TX,78744,,,CONTRACTOR,,,,,,,,,,,"MERITAGE HOMES",,,,,"MERITAGE HOMES","8920 BUSINESS PARK DR STE 250",AUSTIN,TX,78759-7622,"(512) 610-4800",,,,
TX,TRAVIS,21-33930,"Single Family Homes",5/21/2021,,198000,,"7118 TERRAZZO COTTAGE LN",AUSTIN,TX,78744,,,CONTRACTOR,,,,,,,,,,,"MERITAGE HOMES",,,,,"MERITAGE HOMES","8920 BUSINESS PARK DR STE 250",AUSTIN,TX,78759-7622,"(512) 610-4800",,,,
TX,TRAVIS,21-33931,"Single Family Homes",5/21/2021,,212520,,"7110 TERRAZZO COTTAGE LN",AUSTIN,TX,78744,,,CONTRACTOR,,,,,,,,,,,"MERITAGE HOMES",,,,,"MERITAGE HOMES","8920 BUSINESS PARK DR STE 250",AUSTIN,TX,78759-7622,"(512) 610-4800",,,,
TX,TRAVIS,21-33932,"Single Family Homes",5/21/2021,,212520,,"7116 TERRAZZO COTTAGE LN",AUSTIN,TX,78744,,,CONTRACTOR,,,,,,,,,,,"MERITAGE HOMES",,,,,"MERITAGE HOMES","8920 BUSINESS PARK DR STE 250",AUSTIN,TX,78759-7622,"(512) 610-4800",,,,
TX,TRAVIS,21-33933,"Single Family Homes",5/21/2021,,233040,,"7114 TERRAZZO COTTAGE LN",AUSTIN,TX,78744,,,CONTRACTOR,,,,,,,,,,,"MERITAGE HOMES",,,,,"MERITAGE HOMES","8920 BUSINESS PARK DR STE 250",AUSTIN,TX,78759-7622,"(512) 610-4800",,,,
TX,TRAVIS,21-33946,"Single Family Homes",5/25/2021,,201510,,"13409 ABIGAIL ADAMS",MANOR,TX,78653,,,CONTRACTOR,,,,,,,,,,,"KB HOME",,,,,"KB HOME","10800 PECAN PARK BLVD STE 200",AUSTIN,TX,78750-1249,"(512) 651-8100",,,,
TX,TRAVIS,21-33884,"Single Family Homes",5/3/2021,,196200,,"5825 BERRIWEATHER",AUSTIN,TX,78724,"GILBERT LANE",,CONTRACTOR,,,,,,,,,,,"DR HORTON",,,,,"DR HORTON","10700 PECAN PARK BLVD STE 400",AUSTIN,TX,78750-1227,"(512) 345-4663",,,,
TX,TRAVIS,21-33885,"Single Family Homes",5/3/2021,,176850,,"5901 BERRIWEATHER",AUSTIN,TX,78724,"GILBERT LANE",,CONTRACTOR,,,,,,,,,,,"DR HORTON",,,,,"DR HORTON","10700 PECAN PARK BLVD STE 400",AUSTIN,TX,78750-1227,"(512) 345-4663",,,,
TX,TRAVIS,21-33607,"Single Family Homes",5/24/2021,,196470,,"13812 GREAT SOCIETY ST",MANOR,TX,78653,"PRESIDENTIAL MEADOWS",,CONTRACTOR,,,,,,,,,,,"KB HOME",,,,,"KB HOME","10800 PECAN PARK BLVD STE 200",AUSTIN,TX,78750-1249,"(512) 651-8100",,,,
TX,TRAVIS,21-33620,"Single Family Homes",5/25/2021,,159390,,"19417 JAMES CARTER JR ST",MANOR,TX,78653,"PRESIDENTIAL MEADOWS",,CONTRACTOR,,,,,,,,,,,"KB HOME",,,,,"KB HOME","10800 PECAN PARK BLVD STE 200",AUSTIN,TX,78750-1249,"(512) 651-8100",,,,
TX,TRAVIS,21-33779,"Single Family Homes",5/3/2021,,284658,,"9813 ELOQUENCE DR",AUSTIN,TX,78653,"WHISPER VALLEY",,CONTRACTOR,,,,,,,,,,,"BUFFINGTON TEXAS CLASSIC HOMES",,,,,"BUFFINGTON TEXAS CLASSIC HOMES","8601 RANCH ROAD 2222 PARK CENTRE BLDG STE 150",AUSTIN,TX,78730,"(512) 579-4800",,,,
TX,TRAVIS,"2021-063196 BP","Single Family Homes",6/2/2021,,133005,1563,"2600 SIMOND AVE UNIT B",AUSTIN,TX,78723,MUELLER,17,CONTRACTOR,,,,,,,,,,,"LENNAR HOMES",,,,,"LENNAR HOMES","13620 FM 620 RD 150",AUSTIN,TX,78717,"(512) 506-4000",http://www.lennar.com/,,,
TX,TRAVIS,"2021-063195 BP","Single Family Homes",6/3/2021,,133005,1866,"2600 SIMOND AVE UNIT A",AUSTIN,TX,78723,MUELLER,17,CONTRACTOR,,,,,,,,,,,"LENNAR HOMES",,,,,"LENNAR HOMES","13620 FM 620 RD 150",AUSTIN,TX,78717,"(512) 506-4000",http://www.lennar.com/,,,
TX,TRAVIS,"2021-063197 BP","Single Family Homes",6/3/2021,,133005,1559,"2600 SIMOND AVE UNIT C",AUSTIN,TX,78723,MUELLER,17,CONTRACTOR,,,,,,,,,,,"LENNAR HOMES",,,,,"LENNAR HOMES","13620 FM 620 RD 150",AUSTIN,TX,78717,"(512) 506-4000",http://www.lennar.com/,,,
TX,TRAVIS,"2021-063198 BP","Single Family Homes",6/3/2021,,133005,1602,"2600 SIMOND AVE UNIT D",AUSTIN,TX,78723,MUELLER,17,CONTRACTOR,,,,,,,,,,,"LENNAR HOMES",,,,,"LENNAR HOMES","13620 FM 620 RD 150",AUSTIN,TX,78717,"(512) 506-4000",http://www.lennar.com/,,,
TX,TRAVIS,"2021-063199 BP","Single Family Homes",6/3/2021,,133005,2277,"2600 SIMOND AVE UNIT E",AUSTIN,TX,78723,MUELLER,17,CONTRACTOR,,,,,,,,,,,"LENNAR HOMES",,,,,"LENNAR HOMES","13620 FM 620 RD 150",AUSTIN,TX,78717,"(512) 506-4000",http://www.lennar.com/,,,
TX,TRAVIS,"2021-062701 BP","Single Family Homes",6/3/2021,,133035,2279,"2509 SIMOND AVE UNIT E",AUSTIN,TX,78723,MUELLER,5,CONTRACTOR,,,,,,,,,,,"LENNAR HOMES",,,,,"LENNAR HOMES","13620 FM 620 RD 150",AUSTIN,TX,78717,"(512) 506-4000",http://www.lennar.com/,,,
TX,TRAVIS,"2021-049320 BP","Single Family Homes",6/2/2021,,133155,2279,"2601 SIMOND AVE UNIT A",AUSTIN,TX,78723,MUELLER,7,CONTRACTOR,,,,,,,,,,,"LENNAR HOMES",,,,,"LENNAR HOMES","13620 FM 620 RD 150",AUSTIN,TX,78717,"(512) 506-4000",http://www.lennar.com/,,,
TX,TRAVIS,"2021-049321 BP","Single Family Homes",6/2/2021,,133155,1595,"2601 SIMOND AVE UNIT B",AUSTIN,TX,78723,MUELLER,7,CONTRACTOR,,,,,,,,,,,"LENNAR HOMES",,,,,"LENNAR HOMES","13620 FM 620 RD 150",AUSTIN,TX,78717,"(512) 506-4000",http://www.lennar.com/,,,
TX,TRAVIS,"2021-049323 BP","Single Family Homes",6/2/2021,,133155,1571,"2601 SIMOND AVE UNIT D",AUSTIN,TX,78723,MUELLER,7,CONTRACTOR,,,,,,,,,,,"LENNAR HOMES",,,,,"LENNAR HOMES","13620 FM 620 RD 150",AUSTIN,TX,78717,"(512) 506-4000",http://www.lennar.com/,,,
TX,TRAVIS,"2021-049324 BP","Single Family Homes",6/2/2021,,133155,1866,"2601 SIMOND AVE UNIT E",AUSTIN,TX,78723,MUELLER,7,CONTRACTOR,,,,,,,,,,,"LENNAR HOMES",,,,,"LENNAR HOMES","13620 FM 620 RD 150",AUSTIN,TX,78717,"(512) 506-4000",http://www.lennar.com/,,,
TX,TRAVIS,"2021-049322 BP","Single Family Homes",6/3/2021,,133155,1566,"2601 SIMOND AVE UNIT C",AUSTIN,TX,78723,MUELLER,7,CONTRACTOR,,,,,,,,,,,"LENNAR HOMES",,,,,"LENNAR HOMES","13620 FM 620 RD 150",AUSTIN,TX,78717,"(512) 506-4000",http://www.lennar.com/,,,
TX,TRAVIS,"2021-062984 BP","Single Family Homes",6/2/2021,,135360,1929,"2516 SIMOND AVE UNIT A",AUSTIN,TX,78723,MUELLER,18,CONTRACTOR,,,,,,,,,,,"LENNAR HOMES",,,,,"LENNAR HOMES","13620 FM 620 RD 150",AUSTIN,TX,78717,"(512) 506-4000",http://www.lennar.com/,,,
TX,TRAVIS,"2021-062985 BP","Single Family Homes",6/2/2021,,135360,1583,"2516 SIMOND AVE UNIT B",AUSTIN,TX,78723,MUELLER,18,CONTRACTOR,,,,,,,,,,,"LENNAR HOMES",,,,,"LENNAR HOMES","13620 FM 620 RD 150",AUSTIN,TX,78717,"(512) 506-4000",http://www.lennar.com/,,,
TX,TRAVIS,"2021-062986 BP","Single Family Homes",6/2/2021,,135360,1579,"2516 SIMOND AVE UNIT C",AUSTIN,TX,78723,MUELLER,18,CONTRACTOR,,,,,,,,,,,"LENNAR HOMES",,,,,"LENNAR HOMES","13620 FM 620 RD 150",AUSTIN,TX,78717,"(512) 506-4000",http://www.lennar.com/,,,
TX,TRAVIS,"2021-062987 BP","Single Family Homes",6/2/2021,,135360,1612,"2516 SIMOND AVE UNIT D",AUSTIN,TX,78723,MUELLER,18,CONTRACTOR,,,,,,,,,,,"LENNAR HOMES",,,,,"LENNAR HOMES","13620 FM 620 RD 150",AUSTIN,TX,78717,"(512) 506-4000",http://www.lennar.com/,,,
TX,TRAVIS,"2021-062988 BP","Single Family Homes",6/2/2021,,135360,2321,"2516 SIMOND AVE UNIT E",AUSTIN,TX,78723,MUELLER,18,CONTRACTOR,,,,,,,,,,,"LENNAR HOMES",,,,,"LENNAR HOMES","13620 FM 620 RD 150",AUSTIN,TX,78717,"(512) 506-4000",http://www.lennar.com/,,,
TX,TRAVIS,"2021-084444 BP","Single Family Homes",6/4/2021,,200430,2227,"6300 CARRIAGE PINES DR",AUSTIN,TX,78617,"ROSS ROAD",19,CONTRACTOR,,,,,,,,,,,"KB HOME",,,,,"KB HOME","10800 PECAN PARK BLVD STE 200",AUSTIN,TX,78750-1249,"(512) 651-8100",,,,
TX,TRAVIS,"2021-083658 BP","Single Family Homes",6/3/2021,,224550,2495,"6413 WAGON SPRING ST",AUSTIN,TX,78617,"ROSS ROAD",9,CONTRACTOR,,,,,,,,,,,"KB HOME",,,,,"KB HOME","10800 PECAN PARK BLVD STE 200",AUSTIN,TX,78750-1249,"(512) 651-8100",,,,
TX,TRAVIS,"2021-083919 BP","Single Family Homes",6/3/2021,,229140,2546,"7801 SONG SPARROW DR",AUSTIN,TX,78640,,,CONTRACTOR,,,,,,,,,,,"KB HOME",,,,,"KB HOME","10800 PECAN PARK BLVD STE 200",AUSTIN,TX,78750-1249,"(512) 651-8100",,,,
TX,TRAVIS,"2021-080948 BP","Single Family Homes",6/2/2021,,232020,2578,"6317 WAGON SPRING ST",AUSTIN,TX,78617,"ROSS ROAD",14,CONTRACTOR,,,,,,,,,,,"KB HOME",,,,,"KB HOME","10800 PECAN PARK BLVD STE 200",AUSTIN,TX,78750-1249,"(512) 651-8100",,,,
TX,TRAVIS,"2021-084279 BP","Single Family Homes",6/3/2021,,261000,2265,"8411 LAUGHLIN LN",AUSTIN,TX,78747,"MIRABEL PARK",8,CONTRACTOR,,,,,,,,,,,"BROOKFIELD RESIDENTIAL PROPERTIES",,,,,"BROOKFIELD RESIDENTIAL PROPERTIES","11501 ALTERRA PKWY STE 100",AUSTIN,TX,78758-3201,"(512) 391-1330",,,,
TX,TRAVIS,"2021-080947 BP","Single Family Homes",6/2/2021,,266310,2959,"6304 WAGON SPRING ST",AUSTIN,TX,78617,"ROSS ROAD",2,CONTRACTOR,,,,,,,,,,,"KB HOME",,,,,"KB HOME","10800 PECAN PARK BLVD STE 200",AUSTIN,TX,78750-1249,"(512) 651-8100",,,,
TX,TRAVIS,"2021-083491 BP","Single Family Homes",6/3/2021,,273200,1936,"8413 LAUGHLIN LN",AUSTIN,TX,78747,"MIRABEL PARK",9,CONTRACTOR,,,,,,,,,,,"BROOKFIELD RESIDENTIAL PROPERTIES",,,,,"BROOKFIELD RESIDENTIAL PROPERTIES","11501 ALTERRA PKWY STE 100",AUSTIN,TX,78758-3201,"(512) 391-1330",,,,
TX,TRAVIS,"2021-083117 BP","Single Family Homes",6/2/2021,,292700,2265,"8301 LAUGHLIN LN",AUSTIN,TX,78747,"MIRABEL PARK",1,CONTRACTOR,,,,,,,,,,,"BROOKFIELD RESIDENTIAL PROPERTIES",,,,,"BROOKFIELD RESIDENTIAL PROPERTIES","11501 ALTERRA PKWY STE 100",AUSTIN,TX,78758-3201,"(512) 391-1330",,,,
TX,TRAVIS,"2021-083504 BP","Single Family Homes",6/3/2021,,304492,2707,"8415 LAUGHLIN LN",AUSTIN,TX,78747,"MIRABEL PARK",12,CONTRACTOR,,,,,,,,,,,"BROOKFIELD RESIDENTIAL PROPERTIES",,,,,"BROOKFIELD RESIDENTIAL PROPERTIES","11501 ALTERRA PKWY STE 100",AUSTIN,TX,78758-3201,"(512) 391-1330",,,,
TX,TRAVIS,"2021-083639 BP","Single Family Homes",6/3/2021,,317250,3525,"6301 WAGON SPRING ST",AUSTIN,TX,78617,"ROSS ROAD",18,CONTRACTOR,,,,,,,,,,,"KB HOME",,,,,"KB HOME","10800 PECAN PARK BLVD STE 200",AUSTIN,TX,78750-1249,"(512) 651-8100",,,,
TX,TRAVIS,"2021-082371 BP","Single Family Homes",6/2/2021,,324444,2846,"9700 EVENING CANOPY DR",AUSTIN,TX,78653,,,CONTRACTOR,,,,,,,,,,,"BUFFINGTON TEXAS CLASSIC HOMES",,,,,"BUFFINGTON TEXAS CLASSIC HOMES","8601 RANCH ROAD 2222 PARK CENTRE BLDG STE 150",AUSTIN,TX,78730,"(512) 579-4800",,,,
TX,TRAVIS,"2021-082867 BP","Single Family Homes",6/2/2021,,331170,2905,"9712 ELOQUENCE DR",AUSTIN,TX,78653,,,CONTRACTOR,,,,,,,,,,,"BUFFINGTON TEXAS CLASSIC HOMES",,,,,"BUFFINGTON TEXAS CLASSIC HOMES","8601 RANCH ROAD 2222 PARK CENTRE BLDG STE 150",AUSTIN,TX,78730,"(512) 579-4800",,,,
TX,TRAVIS,"2021-065056 BP","Single Family Homes",6/3/2021,,346350,2834,"11709 CAITHNESS WAY",AUSTIN,TX,78653,"BELLINGHAM MEADOWS",67,CONTRACTOR,,,,,,,,,,,"RSI COMMUNITIES",,,,,"RSI COMMUNITIES","810 HESTERS CROSSING RD STE 235","ROUND ROCK",TX,78681-7846,"(512) 953-4100",,,,
TX,TRAVIS,"2021-083232 BP","Single Family Homes",6/2/2021,,376100,3100,"8201 CORRIGAN PASS",AUSTIN,TX,78747,,,CONTRACTOR,,,,,,,,,,,"BROOKFIELD RESIDENTIAL PROPERTIES",,,,,"BROOKFIELD RESIDENTIAL PROPERTIES","11501 ALTERRA PKWY STE 100",AUSTIN,TX,78758-3201,"(512) 391-1330",,,,
TX,TRAVIS,"2021-083886 BP","Single Family Homes",6/3/2021,,401850,3525,"9800 ELOQUENCE DR",AUSTIN,TX,78653,,,CONTRACTOR,,,,,,,,,,,"BUFFINGTON TEXAS CLASSIC HOMES",,,,,"BUFFINGTON TEXAS CLASSIC HOMES","8601 RANCH ROAD 2222 PARK CENTRE BLDG STE 150",AUSTIN,TX,78730,"(512) 579-4800",,,,
TX,TRAVIS,"2021-083196 BP","Single Family Homes",6/2/2021,,475021,3416,"800 N CAPITAL OF TEXAS HWY UNIT 6809",AUSTIN,TX,78746,"ROB ROY",1,CONTRACTOR,,,,,,,,,,,"LEGACY DCS",,,,,"LEGACY DCS","205 WILD BASIN ROAD SOUTH, BLDG",AUSTIN,TX,78746,"(512) 726-0500",https://legacydcs.com/,"(512) 726-0527",,info@legacydcs.com
TX,TRAVIS,"2021-085167 BP","Single Family Homes",6/7/2021,,495990,3163,"6729 LEWISTON WAY",AUSTIN,TX,78724,"EAST PARKE",11,CONTRACTOR,,,,,,,,,,,"PULTE HOMES",,,,,"PULTE HOMES","9401 AMBERGLEN BLVD STE I-150",AUSTIN,TX,78729-1154,"(512) 561-4344",,,,
TX,TRAVIS,"2021-083623 BP","Single Family Homes",6/2/2021,,500500,2957,"2925 CHENNAULT ST",AUSTIN,TX,78723,MUELLER,17,CONTRACTOR,,,,,,,,,,,"DAVID WEEKLEY HOMES",,,,,"DAVID WEEKLEY HOMES","9000 WATERFORD CENTRE BLVD",AUSTIN,TX,78758-7662,"(800) 390-6774",http://www.davidweekleyhomes.com/,,,
TX,TRAVIS,"2021-083129 BP","Single Family Homes",6/2/2021,,582282,4463,"800 N CAPITAL OF TEXAS HWY UNIT 6807",AUSTIN,TX,78746,"ROB ROY",1,CONTRACTOR,,,,,,,,,,,"LEGACY DCS",,,,,"LEGACY DCS","205 WILD BASIN ROAD SOUTH, BLDG",AUSTIN,TX,78746,"(512) 726-0500",https://legacydcs.com/,"(512) 726-0527",,info@legacydcs.com
TX,TRAVIS,"2021-083093 BP","Single Family Homes",6/2/2021,,582282,4463,"800 N CAPITAL OF TEXAS HWY UNIT 6801",AUSTIN,TX,78746,"ROB ROY",1,CONTRACTOR,,,,,,,,,,,"LEGACY DCS",,,,,"LEGACY DCS","205 WILD BASIN ROAD SOUTH, BLDG",AUSTIN,TX,78746,"(512) 726-0500",https://legacydcs.com/,"(512) 726-0527",,info@legacydcs.com
TX,TRAVIS,"2021-083084 BP","Single Family Homes",6/2/2021,,582282,4463,"800 N CAPITAL OF TEXAS HWY UNIT 6707",AUSTIN,TX,78746,"ROB ROY",1,CONTRACTOR,,,,,,,,,,,"LEGACY DCS",,,,,"LEGACY DCS","205 WILD BASIN ROAD SOUTH, BLDG",AUSTIN,TX,78746,"(512) 726-0500",https://legacydcs.com/,"(512) 726-0527",,info@legacydcs.com
TX,TRAVIS,"2021-083649 BP","Single Family Homes",6/2/2021,,588000,2957,"2910 CHENNAULT ST",AUSTIN,TX,78723,MUELLER,29,CONTRACTOR,,,,,,,,,,,"DAVID WEEKLEY HOMES",,,,,"DAVID WEEKLEY HOMES","9000 WATERFORD CENTRE BLVD",AUSTIN,TX,78758-7662,"(800) 390-6774",http://www.davidweekleyhomes.com/,,,
TX,TRAVIS,"2021-083109 BP","Single Family Homes",6/2/2021,,588510,4491,"800 N CAPITAL OF TEXAS HWY UNIT 6805",AUSTIN,TX,78746,"ROB ROY",1,CONTRACTOR,,,,,,,,,,,"LEGACY DCS",,,,,"LEGACY DCS","205 WILD BASIN ROAD SOUTH, BLDG",AUSTIN,TX,78746,"(512) 726-0500",https://legacydcs.com/,"(512) 726-0527",,info@legacydcs.com
TX,TRAVIS,"2021-083105 BP","Single Family Homes",6/2/2021,,588510,4491,"800 N CAPITAL OF TEXAS HWY UNIT 6803",AUSTIN,TX,78746,"ROB ROY",1,CONTRACTOR,,,,,,,,,,,"LEGACY DCS",,,,,"LEGACY DCS","205 WILD BASIN ROAD SOUTH, BLDG",AUSTIN,TX,78746,"(512) 726-0500",https://legacydcs.com/,"(512) 726-0527",,info@legacydcs.com
TX,TRAVIS,"2021-083087 BP","Single Family Homes",6/2/2021,,588510,4491,"800 N CAPITAL OF TEXAS HWY UNIT 6709",AUSTIN,TX,78746,"ROB ROY",1,CONTRACTOR,,,,,,,,,,,"LEGACY DCS",,,,,"LEGACY DCS","205 WILD BASIN ROAD SOUTH, BLDG",AUSTIN,TX,78746,"(512) 726-0500",https://legacydcs.com/,"(512) 726-0527",,info@legacydcs.com
TX,TRAVIS,"2021-083418 BP","Single Family Homes",6/2/2021,,621100,3049,"2924 CHENNAULT ST",AUSTIN,TX,78723,MUELLER,22,CONTRACTOR,,,,,,,,,,,"DAVID WEEKLEY HOMES",,,,,"DAVID WEEKLEY HOMES","9000 WATERFORD CENTRE BLVD",AUSTIN,TX,78758-7662,"(800) 390-6774",http://www.davidweekleyhomes.com/,,,
TX,TRAVIS,"2021-083370 BP","Single Family Homes",6/2/2021,,642000,3545,"3316 TOM MILLER ST",AUSTIN,TX,78723,MUELLER,20,CONTRACTOR,,,,,,,,,,,"DAVID WEEKLEY HOMES",,,,,"DAVID WEEKLEY HOMES","9000 WATERFORD CENTRE BLVD",AUSTIN,TX,78758-7662,"(800) 390-6774",http://www.davidweekleyhomes.com/,,,
TX,TRAVIS,"2021-084067 BP","Warehouse & Manufacturing",6/3/2021,Addition,850000,30314,"301 W HOWARD LN",AUSTIN,TX,78753,PARMER,1,"CASA MARCO TEXAS","201 HOWARD LN ",AUSTIN,TX,78753,"(855) 713-1088",Applicant,,,,,OWNER,,,,,OWNER,,,,,,,,,
TX,TRAVIS,"2021-083071 BP","Warehouse & Manufacturing",6/3/2021,,67228423,724345,"9700 E US 290 HWY SVRD BLDG 37",AUSTIN,TX,78724,"APPLIED MATERIALS",1,CONTRACTOR,,,,,,,,,,,"THE HASKELL COMPANY",,,,,"THE HASKELL COMPANY","2591 N DALLAS PKWY #405",FRISCO,TX,75034,"(972) 731-0800",,"(972) 731-0496",,
