state,county,permno,ptype,pdate,pdescription,jvalue,jsqfeet,jaddr,jcity,jstate,jzip,jsubdiv,jlotno,aname,aaddr,acity,astate,azip,aphone,atype,aurl,afax,aprimarycontact,aemail,bldcode,units,bldgs,ctype,legal,contractor,caddress,ccity,cstate,czip,cphone,curl,cfax,cprimarycontact,cemail
TX,DALLAS,2008-0370,"Commercial Swimming Pool & Spas",9/3/2020,,59000,,"4323 NORTH SHORE",IRVING,TX,75093,,,CONTRACTOR,,,,,,,,,,,"G&B TILE AND PLASTER",,,,,"G&B TILE AND PLASTER","960 N. MILL ST",LEWISVILLE,TX,75057,"(972) 906-0142",,,,
TX,DALLAS,2009142008,"Duplex, Triplex, & Fourplex",9/14/2020,,,7258,"5633 SANTA FE AVE",DALLAS,TX,75214,,,CONTRACTOR,,,,,,,,,,,"NOW HOMES",,,,,"NOW HOMES","5080 SPECTRUM DR 510E",ADDISON,TX,75001,"(214) 802-9123",,,,
TX,DALLAS,2009141054,"Educational Institution",9/14/2020,Renovation,1011469,,"6012 EAST GRAND AVE",DALLAS,TX,75223,,,"JACOB & ASSOCIATES","701 CANYON DR, STE 110",COPPELL,TX,75019,"(972) 331-5699",Architect,https://www.jacobsonline.com/,,"BRENT KLINE",JACOBS@JACOBSONLINE.COM,OWNER,,,,,OWNER,,,,,,,,,
TX,DENTON,COM20-00885,"Hospital & Other Medical",9/3/2020,,,331631,"2651 WHYBURN DR BLDG 1","FLOWER MOUND",TX,75052,,,CONTRACTOR,,,,,,,,,,,"INTEGRATED CONSTRUCTION & DEVELOPMENT",,,,,"INTEGRATED CONSTRUCTION & DEVELOPMENT","3110 W SOUTHLAKE BLVD",SOUTHLAKE,TX,76092-6771,"(817) 742-1851",http://www.integratedreg.com/,"(817) 742-1852","RICHARD SIMMONS",information@integratedreg.com
TX,DALLAS,2009141020,"Hospital & Other Medical",9/14/2020,Renovation,1400000,1354,"7777 FOREST LN",DALLAS,TX,75230,,,CONTRACTOR,,,,,,,,,,,"HILL & WILKINSON GENERAL CONTRACTORS",,,,,"HILL & WILKINSON GENERAL CONTRACTORS","2703 TELECOM PKWY STE 120",RICHARDSON,TX,75082-3555,"(214) 299-4300",,"(214) 299-4444","JEFF SANDERS",jsanders@hill-wilkinson.com
TX,DALLAS,2009211114,"Hospital & Other Medical",9/22/2020,Renovation,38200,1260,"10300 N CENTRAL EXPY STE 250",DALLAS,TX,75231,,,CONTRACTOR,,,,,,,,,,,"ROGERS INTERIOR CONSTRUCTION",,,,,"ROGERS INTERIOR CONSTRUCTION","5704 GLENVIEW LN","THE COLONY",TX,75056-3724,"(972) 877-3485",,,,
TX,TARRANT,PB20-11378,"Multi Family Apartments & Condos",9/16/2020,,130473,2071,"213 ATHENIA DR","FORT WORTH",TX,76114,"SUNSET RIDGE",11,CONTRACTOR,,,,,,,,,,,"VILLAGE HOMES",,,,,"VILLAGE HOMES","2817 W 5TH ST STE B","FORT WORTH",TX,76107-2203,"(817) 737-3377",http://www.homesofcharacter.com/,,"MICHAEL DIKE",
TX,DALLAS,2003-0081,"Multi Family Apartments & Condos",9/14/2020,,12000000,149076,"5000 N STATE HIGHWAY 161",IRVING,TX,76063,,,CONTRACTOR,,,,,,,,,,,"MOSS & ASSOCIATES",,,,,"MOSS & ASSOCIATES","13111 VISTA DEL MUNDO","SAN ANTONIO",TX,78216-2246,"(210) 495-6606",,"(210) 495-6605",,mossdesigns@sbcglobal.net
TX,DALLAS,2008-0465,"Multi Family Apartments & Condos",9/9/2020,,1600000,,"310 GRAN VIA",IRVING,TX,75093,,,CONTRACTOR,,,,,,,,,,,"BUILDITECT SERVICES",,,,,"BUILDITECT SERVICES","750 E US HWY 80 200-408",FORNEY,TX,75126,"(972) 878-7111",https://www.builditect.com/,,,tom@builditect.com
TX,DALLAS,2009-0101,"Multi Family Apartments & Condos",9/9/2020,,200000,,"314 GRAN VIA",IRVING,TX,75093,,,CONTRACTOR,,,,,,,,,,,"BUILDITECT SERVICES",,,,,"BUILDITECT SERVICES","750 E US HWY 80 200-408",FORNEY,TX,75126,"(972) 878-7111",https://www.builditect.com/,,,tom@builditect.com
TX,DALLAS,2009-0102,"Multi Family Apartments & Condos",9/9/2020,,200000,,"330 GRAN VIA",IRVING,TX,75093,,,CONTRACTOR,,,,,,,,,,,"BUILDITECT SERVICES",,,,,"BUILDITECT SERVICES","750 E US HWY 80 200-408",FORNEY,TX,75126,"(972) 878-7111",https://www.builditect.com/,,,tom@builditect.com
TX,DALLAS,2009-0103,"Multi Family Apartments & Condos",9/9/2020,,1600000,,"350 GRAN VIA",IRVING,TX,75093,,,CONTRACTOR,,,,,,,,,,,"BUILDITECT SERVICES",,,,,"BUILDITECT SERVICES","750 E US HWY 80 200-408",FORNEY,TX,75126,"(972) 878-7111",https://www.builditect.com/,,,tom@builditect.com
TX,DALLAS,2009-0104,"Multi Family Apartments & Condos",9/9/2020,,200000,,"360 GRAN VIA",IRVING,TX,75093,,,CONTRACTOR,,,,,,,,,,,"BUILDITECT SERVICES",,,,,"BUILDITECT SERVICES","750 E US HWY 80 200-408",FORNEY,TX,75126,"(972) 878-7111",https://www.builditect.com/,,,tom@builditect.com
TX,DALLAS,2009-0105,"Multi Family Apartments & Condos",9/9/2020,,200000,,"370 GRAN VIA",IRVING,TX,75093,,,CONTRACTOR,,,,,,,,,,,"BUILDITECT SERVICES",,,,,"BUILDITECT SERVICES","750 E US HWY 80 200-408",FORNEY,TX,75126,"(972) 878-7111",https://www.builditect.com/,,,tom@builditect.com
TX,DALLAS,2009-0111,"Multi Family Apartments & Condos",9/10/2020,,510912,,"757 LAKE CAROLYN PK",IRVING,TX,75093,,,CONTRACTOR,,,,,,,,,,,"ARCHETYPE CONSTRUCTION SERVICES",,,,,"ARCHETYPE CONSTRUCTION SERVICES","640 COLUMBIA DR",PROSPER,TX,75078,"(214) 600-4334",,,,
TX,TARRANT,"20 - 3268","Multi Family Apartments & Condos",9/25/2020,,35600,,"3185 STARS & STRIPES WAY BUILDING # 2",GRAPEVINE,TX,76051,,,CONTRACTOR,,,,,,,,,,,"HYATT TECHNICAL SERVICES",,,,,"HYATT TECHNICAL SERVICES","3910 INDUSTRIAL ST",ROWLETT,TX,75088-4072,"(214) 607-9678",,,,
TX,DALLAS,2009211004,"Multi Family Renovations & Additions",9/21/2020,Renovation,500000,2437,"3310 FAIRMOUNT ST STE P1B",DALLAS,TX,75201,,,CONTRACTOR,,,,,,,,,,,"KEY RESIDENTIAL",,,,,"KEY RESIDENTIAL","14540 E BELTWOOD PKWY STE 500",DALLAS,TX,75244-3248,"(972) 755-3045",http://keyresidential.net/,"(877) 427-3536","KEVIN KEY",
TX,DENTON,COM20-04122,"Offices, R&D, & Professional",9/14/2020,,38350,,"2201 SPINKS RD","FLOWER MOUND",TX,75052,,,"CNW II FLOWER MOUND LLC","2201 SPINKS RD","FLOWER MOUND",TX,75052,,Owner,,,,,"BYRNE CONSTRUCTION SERVICES",,,,,"BYRNE CONSTRUCTION SERVICES","2601 SCOTT AVENUE","FORT WORTH",TX,76103,"(817) 335-3394",http://www.tsbyrne.com,,,
TX,DALLAS,2009071010,"Offices, R&D, & Professional",9/16/2020,Renovation,60000,1256,"2850 N HARWOOD ST STE 1700",DALLAS,TX,75201,,,CONTRACTOR,,,,,,,,,,,"SCOTT & REID GENERAL",,,,,"SCOTT & REID GENERAL","17300 DALLAS PKWY STE 2000",DALLAS,TX,75248-1192,"(469) 374-3400",http://www.scottandreid.com,"(469) 374-0060","PHIL VANDERHILL",email@scottandreid.com
TX,DALLAS,2009071014,"Offices, R&D, & Professional",9/7/2020,"Finish Out",668421,15035,"3401 OLYMPUS BLVD STE 100",DALLAS,TX,75019,,,CONTRACTOR,,,,,,,,,,,"PACIFIC BUILDERS",,,,,"PACIFIC BUILDERS","7950 LEGACY DR STE 150",PLANO,TX,75024-4135,"(972) 866-8080",,,,
TX,DALLAS,2009071015,"Offices, R&D, & Professional",9/7/2020,"Finish Out",668421,15035,"3401 OLYMPUS BLVD STE 110",DALLAS,TX,75019,,,CONTRACTOR,,,,,,,,,,,"PACIFIC BUILDERS",,,,,"PACIFIC BUILDERS","7950 LEGACY DR STE 150",PLANO,TX,75024-4135,"(972) 866-8080",,,,
TX,DALLAS,2009071006,"Offices, R&D, & Professional",9/29/2020,Renovation,850000,17062,"5728 L B J FWY STE 400",DALLAS,TX,75240,,,CONTRACTOR,,,,,,,,,,,"NORTHGATE CONSTRUCTION",,,,,"NORTHGATE CONSTRUCTION","9300 JOHN HICKMAN PKWY STE 801",FRISCO,TX,75035-5913,"(469) 353-8434",,,,
TX,DALLAS,2009071009,"Offices, R&D, & Professional",10/6/2020,"Finish Out",3500000,23404,"910 S PEARL EXPY",DALLAS,TX,75201,,,CONTRACTOR,,,,,,,,,,,"HRNCIR CONSTRUCTION",,,,,"HRNCIR CONSTRUCTION","3711 CRAGMONT AVE",DALLAS,TX,75205-4312,"(214) 535-2404",,,"3711 CRAGMONT",
TX,DALLAS,2009141133,"Offices, R&D, & Professional",9/16/2020,Renovation,37800,1838,"12700 HILLCREST RD",DALLAS,TX,75230,,,CONTRACTOR,,,,,,,,,,,"TWELVE GCS COMPANY",,,,,"TWELVE GCS COMPANY","4099 MCEWEN RD",DALLAS,TX,75244-5030,"(214) 912-6097",,,,
TX,DALLAS,2009141099,"Offices, R&D, & Professional",9/16/2020,Renovation,37658,1980,"12700 HILLCREST RD STE 220",DALLAS,TX,75230,,,CONTRACTOR,,,,,,,,,,,"TWELVE GCS COMPANY",,,,,"TWELVE GCS COMPANY","4099 MCEWEN RD",DALLAS,TX,75244-5030,"(214) 912-6097",,,,
TX,DALLAS,2009141097,"Offices, R&D, & Professional",9/28/2020,Renovation,75348,272,"8611 LEMMON AVE STE BLDG H",DALLAS,TX,75209,,,CONTRACTOR,,,,,,,,,,,"TURNER CONSTRUCTION",,,,,"TURNER CONSTRUCTION","10100 N CENTRAL EXPRESSWAY 600",DALLAS,TX,75231,"(214) 721-8400",,,,
TX,DALLAS,2009211138,"Offices, R&D, & Professional",9/21/2020,Renovation,45950,,"3006 COLE AVE",DALLAS,TX,75204,,,CONTRACTOR,,,,,,,,,,,"CORPORATE CONTRACTORS AND DESIGN",,,,,"CORPORATE CONTRACTORS AND DESIGN","1420 W. MOCKINGBIRD LANE, SUITE 210",DALLAS,TX,75247,"(214) 688-1116",,"(214) 630-5786",,mhennefer@corporateusa-dallas.com
TX,DALLAS,2009211002,"Offices, R&D, & Professional",10/13/2020,Renovation,58255,355,"4040 N CENTRAL EXPY",DALLAS,TX,75204,,,CONTRACTOR,,,,,,,,,,,"K2 CONSTRUCTION",,,,,"K2 CONSTRUCTION","6688 N CENTRAL EXPY STE 100",DALLAS,TX,75206-3925,"(214) 363-7870",,,,
TX,TARRANT,PB20-13027,"Offices, R&D, & Professional",9/16/2020,Renovation,448787,4185,"10900 FOUNDERS WAY UNIT 201","FORT WORTH",TX,76244,,,CONTRACTOR,,,,,,,,,,,"MILESTONE CONSTRUCTION",,,,,"MILESTONE CONSTRUCTION","1406 HALSEY WAY STE 124",CARROLLTON,TX,75007-6443,"(972) 446-0918",,,,
TX,TARRANT,PB20-12788,"Offices, R&D, & Professional",9/17/2020,Renovation,234000,3600,"801 CHERRY ST","FORT WORTH",TX,76102,,,CONTRACTOR,,,,,,,,,,,"SCOTT & REID GENERAL",,,,,"SCOTT & REID GENERAL","17300 DALLAS PKWY STE 2000",DALLAS,TX,75248-1192,"(469) 374-3400",http://www.scottandreid.com,"(469) 374-0060","PHIL VANDERHILL",email@scottandreid.com
TX,TARRANT,"20 - 0984","Offices, R&D, & Professional",9/11/2020,,700000,,"4325 MURRAY AVE","HALTOM CITY",TX,77340,,,CONTRACTOR,,,,,,,,,,,"CAVALRY CONSTRUCTION",,,,,"CAVALRY CONSTRUCTION","160 SOUTHWESTERN BLVD",COPPELL,TX,75019-4517,"(469) 630-0250",https://www.cavalryconstruction.com,"(469) 702-6172",,info@cavalryconstruction.com
TX,TARRANT,"20 - 2935","Offices, R&D, & Professional",9/25/2020,,33500,,"1726/1728E LAYTON AVE","HALTOM CITY",TX,77340,,,CONTRACTOR,,,,,,,,,,,"TROTTER ENTERPRISES",,,,,"TROTTER ENTERPRISES","346 BRIDLE PATH ROAD",SALUDA,SC,29138,"(864) 992-2539",,,,
TX,DALLAS,1911-0042,"Offices, R&D, & Professional",9/10/2020,,3000000,2288,"5101 N BELT LINE RD",IRVING,TX,75093,,,CONTRACTOR,,,,,,,,,,,"EXPERT CME INDUSTRY",,,,,"EXPERT CME INDUSTRY","11801 COUNTY ROAD 506",VENUS,TX,76084,"(214) 563-7168",,,,
TX,DALLAS,2007-0383,"Offices, R&D, & Professional",9/9/2020,,207684,,"219 S O'CONNOR RD",IRVING,TX,75093,,,CONTRACTOR,,,,,,,,,,,"CORNERSTONE COMMERCIAL SERVICES",,,,,"CORNERSTONE COMMERCIAL SERVICES","P O BOX 203568",MCKINNEY,TX,75370,"(682) 552-3339",,,"RUSSELL WILLBANKS",info@cornerstonecommercial.us
TX,DALLAS,2008-0040,"Offices, R&D, & Professional",9/1/2020,,31250,1249,"230 O'CONNOR RIDGE BLVD 100",IRVING,TX,75093,,,CONTRACTOR,,,,,,,,,,,"SAVANNAH DEVELOPERS",,,,,"SAVANNAH DEVELOPERS","500 W LOOKOUT DR",RICHARDSON,TX,75080-2122,"(214) 325-7960",http://savannahdevelopers.com,"(972) 713-6291","KEVIN MURPHREE",info@savannahdevelopers.com
TX,DALLAS,2008-0086,"Offices, R&D, & Professional",9/14/2020,,1200000,23627,"225 E JOHN W CARPENTER FWY 10TH FLR",IRVING,TX,75093,,,CONTRACTOR,,,,,,,,,,,"SCOTT & REID GENERAL",,,,,"SCOTT & REID GENERAL","17300 DALLAS PKWY STE 2000",DALLAS,TX,75248-1192,"(469) 374-3400",http://www.scottandreid.com,"(469) 374-0060","PHIL VANDERHILL",email@scottandreid.com
TX,DALLAS,2008-0125,"Offices, R&D, & Professional",9/3/2020,,137500,23175,"5205 N O'CONNOR BLVD 900",IRVING,TX,75093,,,CONTRACTOR,,,,,,,,,,,"SCOTT & REID GENERAL",,,,,"SCOTT & REID GENERAL","17300 DALLAS PKWY STE 2000",DALLAS,TX,75248-1192,"(469) 374-3400",http://www.scottandreid.com,"(469) 374-0060","PHIL VANDERHILL",email@scottandreid.com
TX,DALLAS,2008-0199,"Offices, R&D, & Professional",9/1/2020,,296542,20057,"6303 COMMERCE DR 180",IRVING,TX,75093,,,CONTRACTOR,,,,,,,,,,,"JOHN A ARNOLD",,,,,"JOHN A ARNOLD","3904 MAIN ST",DALLAS,TX,75226-1228,"(214) 515-9020",,,,
TX,DALLAS,2008-0233,"Offices, R&D, & Professional",9/1/2020,,40000,,"4040 W ROYAL LN 100",IRVING,TX,75093,,,CONTRACTOR,,,,,,,,,,,"CASTLE HILL BUILDERS",,,,,"CASTLE HILL BUILDERS","12065 NEW DAY DR","FORT WORTH",TX,76179-9168,"(972) 333-9682",,,"ANTHONY HANSARD",
TX,DALLAS,B2008-0251,"Offices, R&D, & Professional",9/8/2020,,200000,1980,"1193 W JOHN W CARPENTER FWY 104",IRVING,TX,75093,,,CONTRACTOR,,,,,,,,,,,"ALSAL CONSTRUCTION",,,,,"ALSAL CONSTRUCTION","1400 MEADOW DR",IRVING,TX,75063-5073,"(214) 837-7884",http://www.alsalconstruction.com/,,,
TX,DALLAS,2008-0284,"Offices, R&D, & Professional",9/10/2020,,45000,2350,"6601 N BELT LINE RD 140",IRVING,TX,75093,,,CONTRACTOR,,,,,,,,,,,"HAMM'S CONSTRUCTION",,,,,"HAMM'S CONSTRUCTION","2421 LACY LANE",CARROLLTON,TX,75006,"(972) 406-8178",http://www.hammsconstruction.com/,"(972) 241-4045","TIM HAMM",tim@hammsconstruction.com
TX,DALLAS,2008-0325,"Offices, R&D, & Professional",9/18/2020,,1100000,29380,"2800 VALLEY VIEW LN 180",IRVING,TX,75093,,,CONTRACTOR,,,,,,,,,,,"FAST TRAK CONSTRUCTION",,,,,"FAST TRAK CONSTRUCTION","1150 EMPIRE CENTRAL PL STE 124",DALLAS,TX,75247-4312,"(214) 638-0525",http://www.fasttrakconstruction.com/,"(214) 638-0528",,info@fasttrakconstruction.com
TX,DALLAS,2008-0326,"Offices, R&D, & Professional",9/9/2020,,145000,25202,"6191 N STATE HIGHWAY 161 700",IRVING,TX,75093,,,CONTRACTOR,,,,,,,,,,,"VISION CONSTRUCTION SERVICES",,,,,"VISION CONSTRUCTION SERVICES","14200 MIDWAY RD STE 129",DALLAS,TX,75244-3658,"(214) 751-6371",,,,
TX,DALLAS,B2008-0355,"Offices, R&D, & Professional",9/10/2020,,200000,2072,"6121 N STATE HIGHWAY 161 225",IRVING,TX,75093,,,CONTRACTOR,,,,,,,,,,,"BLITZ CONTRACTORS",,,,,"BLITZ CONTRACTORS","5729 LEBANON RD # 144-249",FRISCO,TX,75034-7260,"(903) 453-1100",,,,
TX,DALLAS,2008-0363,"Offices, R&D, & Professional",9/1/2020,,31250,1249,"230 O'CONNOR RIDGE BLVD 105",IRVING,TX,75093,,,CONTRACTOR,,,,,,,,,,,"SAVANNAH DEVELOPERS",,,,,"SAVANNAH DEVELOPERS","500 W LOOKOUT DR",RICHARDSON,TX,75080-2122,"(214) 325-7960",http://savannahdevelopers.com,"(972) 713-6291","KEVIN MURPHREE",info@savannahdevelopers.com
TX,DALLAS,2008-0364,"Offices, R&D, & Professional",9/1/2020,,31250,1249,"230 O'CONNOR RIDGE BLVD 110",IRVING,TX,75093,,,CONTRACTOR,,,,,,,,,,,"SAVANNAH DEVELOPERS",,,,,"SAVANNAH DEVELOPERS","500 W LOOKOUT DR",RICHARDSON,TX,75080-2122,"(214) 325-7960",http://savannahdevelopers.com,"(972) 713-6291","KEVIN MURPHREE",info@savannahdevelopers.com
TX,DALLAS,2008-0365,"Offices, R&D, & Professional",9/1/2020,,31250,,"230 O'CONNOR RIDGE BLVD 115",IRVING,TX,75093,,,CONTRACTOR,,,,,,,,,,,"SAVANNAH DEVELOPERS",,,,,"SAVANNAH DEVELOPERS","500 W LOOKOUT DR",RICHARDSON,TX,75080-2122,"(214) 325-7960",http://savannahdevelopers.com,"(972) 713-6291","KEVIN MURPHREE",info@savannahdevelopers.com
TX,DALLAS,2008-0416,"Offices, R&D, & Professional",9/9/2020,,171044,3948,"6565 N MACARTHUR BLVD 1070",IRVING,TX,75093,,,CONTRACTOR,,,,,,,,,,,"K CONSTRUCTION COMPANY",,,,,"K CONSTRUCTION COMPANY","7188 ENVOY CT",DALLAS,TX,75247-5102,"(214) 631-0831",,"(214) 631-0886",,
TX,DALLAS,2008-0425,"Offices, R&D, & Professional",9/1/2020,,100000,,"100 E ROYAL LN 320",IRVING,TX,75093,,,CONTRACTOR,,,,,,,,,,,"TURTLE CREEK CONSTRUCTION",,,,,"TURTLE CREEK CONSTRUCTION","4846 DON DR",DALLAS,TX,75247-6512,"(214) 556-6835",,,,
TX,DALLAS,2009-0022,"Offices, R&D, & Professional",9/2/2020,,120000,,"421 E ROYAL LN 100",IRVING,TX,75093,,,CONTRACTOR,,,,,,,,,,,"FOWLER CONSTRUCTION AND ROOFING",,,,,"FOWLER CONSTRUCTION AND ROOFING","633 W DAVIS ST",DALLAS,TX,75208,"(972) 815-5697",,,,
TX,DALLAS,2009-0063,"Offices, R&D, & Professional",9/18/2020,,45000,3648,"5605 N MACARTHUR BLVD 580",IRVING,TX,75093,,,CONTRACTOR,,,,,,,,,,,"LEWIS COMMERCIAL GENERAL CONTRACTOR",,,,,"LEWIS COMMERCIAL GENERAL CONTRACTOR","3213 MAIN ST",ROWLETT,TX,75088-7508,"(972) 463-7000",,,,
TX,DALLAS,2009-0147,"Offices, R&D, & Professional",9/29/2020,,550056,,"1921 GATEWAY DR",IRVING,TX,75093,,,CONTRACTOR,,,,,,,,,,,"STRUCTURETONE SOUTHWEST",,,,,"STRUCTURETONE SOUTHWEST","3333 WELBORN ST STE 200",DALLAS,TX,75219-5141,"(214) 525-5147",,,"JOE CRIBBIN",joseph.cribbin@structuretone.com
TX,DALLAS,2009-0256,"Offices, R&D, & Professional",9/25/2020,,2300000,82810,"4000 HORIZON WAY",IRVING,TX,75093,,,CONTRACTOR,,,,,,,,,,,"K2 CONSTRUCTION",,,,,"K2 CONSTRUCTION","6688 N CENTRAL EXPY STE 100",DALLAS,TX,75206-3925,"(214) 363-7870",,,,
TX,DALLAS,2009-0260,"Offices, R&D, & Professional",9/25/2020,,100000,3700,"105 DECKER DR 525",IRVING,TX,75093,,,CONTRACTOR,,,,,,,,,,,"ROSSER INTEREST",,,,,"ROSSER INTEREST","1401 DOUGLAS AVE",COLLEYVILLE,TX,76034-6260,"(817) 481-3389",http://www.rosserinterest.com/,"(817) 481-1977","RAY ROSSER",info@rosserinterest.com
TX,DALLAS,2009-0354,"Offices, R&D, & Professional",9/25/2020,,100000,2779,"105 DECKER DR 530",IRVING,TX,75093,,,CONTRACTOR,,,,,,,,,,,"ROSSER INTEREST",,,,,"ROSSER INTEREST","1401 DOUGLAS AVE",COLLEYVILLE,TX,76034-6260,"(817) 481-3389",http://www.rosserinterest.com/,"(817) 481-1977","RAY ROSSER",info@rosserinterest.com
TX,DALLAS,2009-0355,"Offices, R&D, & Professional",9/25/2020,,100000,3524,"105 DECKER DR 540",IRVING,TX,75093,,,CONTRACTOR,,,,,,,,,,,"ROSSER INTEREST",,,,,"ROSSER INTEREST","1401 DOUGLAS AVE",COLLEYVILLE,TX,76034-6260,"(817) 481-3389",http://www.rosserinterest.com/,"(817) 481-1977","RAY ROSSER",info@rosserinterest.com
TX,TARRANT,"20 - 3155","Offices, R&D, & Professional",9/17/2020,,40000,3792,"1301 MUNICIPAL WAY STE 250",GRAPEVINE,TX,76051,,,CONTRACTOR,,,,,,,,,,,"FAST TRAK CONSTRUCTION",,,,,"FAST TRAK CONSTRUCTION","1150 EMPIRE CENTRAL PL STE 124",DALLAS,TX,75247-4312,"(214) 638-0525",http://www.fasttrakconstruction.com/,"(214) 638-0528",,info@fasttrakconstruction.com
TX,DALLAS,2002-0257,"Parking Structures & Carports",9/2/2020,,65000,2889,"8550 FREEPORT PARKWAY SOUTH",IRVING,TX,75093,,,CONTRACTOR,,,,,,,,,,,"USA SHADE & FABRIC STRUCTURES",,,,,"USA SHADE & FABRIC STRUCTURES","2580 ESTERS BLVD STE 100",DALLAS,TX,75261,"(800) 966-5005",http://www.usa-shade.com/,,,
TX,DALLAS,2009141030,"Residential Renovations & Additions",9/30/2020,Addition,,735,"1420 TORONTO ST",DALLAS,TX,75212,,,"WILFREDO RODRIGUEZ","1420 TORONTO ST",DALLAS,TX,75212,,Owner,,,,,"RODRIGUEZ REMODELING ",,,,,"RODRIGUEZ REMODELING ","889 KEENELAND CT",DALLAS,TX,75211-6987,"(214) 697-5824",,,,
TX,DALLAS,2009141009,"Residential Renovations & Additions",9/17/2020,Renovation,,1573,"1705 STELLA AVE",DALLAS,TX,75203,,,"MARVA WHITLOW","1705 STELLA AVE",DALLAS,TX,75203,,Owner,,,,,"BT CONSTRUCTION",,,,,"BT CONSTRUCTION","2303 ELDEROAKS LN",DALLAS,TX,75232-3312,"(214) 796-2119",,,,
TX,DALLAS,2009141003,"Residential Renovations & Additions",9/16/2020,Renovation,,2775,"4565 CATHEDRAL DR",DALLAS,TX,75214,,,CONTRACTOR,,,,,,,,,,,"LARSON CONSTRUCTION",,,,,"LARSON CONSTRUCTION","6459 TRAMMEL DR",DALLAS,TX,75214,"(214) 991-8347",,,,
TX,DALLAS,2009146026,"Residential Renovations & Additions",9/14/2020,Addition,,1891,"5311 MONTROSE DR",DALLAS,TX,75209,,,"JAIME PALMER","5311 MONTROSE DR",DALLAS,TX,75209,,Owner,,,,,"COMPLETE RENOVATION SOLUTIONS",,,,,"COMPLETE RENOVATION SOLUTIONS","8210 LAKE BEND DR",ROWLETT,TX,75088,"(469) 407-4448",,,,ERIC@COMPLETERENOSOLUTIONS.COM
TX,DALLAS,2009141149,"Residential Renovations & Additions",10/12/2020,Addition,,1555,"5935 CLUB OAKS DR",DALLAS,TX,75248,,,"RICHARD & ELIZABETH LOPEZ","5935 CLUB OAKS DR",DALLAS,TX,75248,,Owner,,,,,"SUNFINITY RENEWABLE ENERGY LLC",,,,,"SUNFINITY RENEWABLE ENERGY LLC","17300 DALLAS PKWY STE 2020",DALLAS,TX,75248-1145,"(844) 786-3461",https://sunfinity.com,,,info@sunfinity.com
TX,DALLAS,2009141146,"Residential Renovations & Additions",10/1/2020,Addition,,1701,"6039 WAGGONER DR",DALLAS,TX,75230,,,"LARRY & DONNA OLSCHWANGER","6039 WAGGONER DR",DALLAS,TX,75230,,Owner,,,,,"KNOX BUILT CONSTRUCTION",,,,,"KNOX BUILT CONSTRUCTION","1528 SLOCUM ST",DALLAS,TX,75207,"(214) 232-4424",,,,
TX,DALLAS,2009141117,"Residential Renovations & Additions",9/24/2020,Renovation,,800,"6475 MEADOW RD",DALLAS,TX,75230,,,CONTRACTOR,,,,,,,,,,,"RICHARD WILLIAMS & ASSOCIATES",,,,,"RICHARD WILLIAMS & ASSOCIATES","1120 COMMERCE DR",RICHARDSON,TX,75081-2307,"(972) 907-2803",,"(972) 907-1224","RICHARD WILLIAMS",
TX,DALLAS,2009211085,"Residential Renovations & Additions",9/21/2020,Addition,,1734,"1315 DICEMAN AVE",DALLAS,TX,75203,,,"ARTEMIO IBARRA","1315 DICEMAN AVE",DALLAS,TX,75203,,Owner,,,,,"GONZALEZ CO",,,,,"GONZALEZ CO","4105 MARSHALL",DALLAS,TX,75210,"(972) 246-7577",,,,
TX,DALLAS,2009216006,"Residential Renovations & Additions",9/21/2020,Addition,,1529,"2007 W COLORADO BLVD",DALLAS,TX,75208,,,CONTRACTOR,,,,,,,,,,,"RHR CONSTRUCTION",,,,,"RHR CONSTRUCTION","1306 PIONEER DR",DALLAS,TX,75224-1259,"(214) 664-8862",,,,
TX,DALLAS,2009216026,"Residential Renovations & Additions",9/21/2020,Addition,,1300,"3116 SOUTH BLVD STE 101",DALLAS,TX,75215,,,CONTRACTOR,,,,,,,,,,,"SMARTPIPE SYSTEMS",,,,,"SMARTPIPE SYSTEMS","3208 COLE AVENUE APARTMENT 1301",DALLAS,TX,75204,"(610) 462-8488",,,,
TX,DALLAS,2009212009,"Residential Renovations & Additions",9/21/2020,Renovation,,848,"6006 YORKVILLE CT",DALLAS,TX,75248,,,CONTRACTOR,,,,,,,,,,,"GARY DEAN CONSTRUCTION",,,,,"GARY DEAN CONSTRUCTION","6308 WHITTIER DR",PLANO,TX,75093,"(972) 403-8108",https://www.garydeanconstruction.com/,,,
TX,DALLAS,2009211092,"Residential Renovations & Additions",9/21/2020,Addition,,1747,"6737 NORTH RIDGE DR",DALLAS,TX,75214,,,"COLEMAN CARTER","6737 NORTH RIDGE DR",DALLAS,TX,75214,,Owner,,,,,"FALLEN TREE CONSTRUCTION",,,,,"FALLEN TREE CONSTRUCTION","722 GAYLEWOOD DR",RICHARDSON,TX,75080-4104,"(469) 729-9326",http://www.ftcbuilds.com,,,info@ftcbuilds.com
TX,TARRANT,"20 - 2140","Residential Renovations & Additions",9/4/2020,Renovation,80900,,"2009 WOODS LN","HALTOM CITY",TX,77340,,,"CHRISTIE STEPHENS","2009 WOODS LN","HALTOM CITY",TX,77340,,Owner,,,,,"DEFINITIVE PROPERTIES",,,,,"DEFINITIVE PROPERTIES","PO BOX 161753","FORT WORTH",TX,76161-1753,"(817) 400-2200",,,,info@definitiveproperties.net
TX,DALLAS,2008-0430,"Residential Renovations & Additions",9/10/2020,Renovation,50000,,"1512 GREEN OAKS DR",IRVING,TX,75093,,,"WILLIAM PATTON","1512 GREEN OAKS DR",IRVING,TX,75093,,Owner,,,,,"SANDAL POOLS",,,,,"SANDAL POOLS","1100 JUPITER RD. #121","GRAND PRAIRIE",TX,75052,"(469) 974-4861",,,,
TX,DALLAS,2007-0392,"Residential Renovations & Additions",9/10/2020,Addition,36375,,"1313 SAVANNAH DR",IRVING,TX,75093,,,"TERRIE GRIJALVA","1313 SAVANNAH DR",IRVING,TX,75093,,Owner,,,,,"STATEWIDE REMODELING",,,,,"STATEWIDE REMODELING","2450 ESTERS BLVD 200",DALLAS,TX,75261,"(214) 446-1201",,,,
TX,DALLAS,2008-0333,"Residential Renovations & Additions",9/10/2020,Renovation,45000,,"602 ELWOOD RD",IRVING,TX,75093,,,"BERTHILIA CENAC","602 ELWOOD RD",IRVING,TX,75093,,Owner,,,,,"TURCIOS CONSTRUCTION",,,,,"TURCIOS CONSTRUCTION","2513 MELODY LANE",TYLER,TX,75701,"(903) 343-5834",,,,
TX,DALLAS,2008-0402,"Residential Renovations & Additions",9/17/2020,Addition,59000,,"1909 CREEKWOOD CT",IRVING,TX,75093,,,CONTRACTOR,,,,,,,,,,,"HUGOS REMODELING",,,,,"HUGOS REMODELING","3201 STRAIT ST",IRVING,TX,75062,"(214) 994-2232",,,,
TX,DALLAS,2008-0405,"Residential Renovations & Additions",9/3/2020,Renovation,353711,876,"7931 BANYAN WAY",IRVING,TX,75093,,,CONTRACTOR,,,,,,,,,,,"GRAND HOMES",,,,,"GRAND HOMES","15455 DALLAS PKWY STE 1000",ADDISON,TX,75001-6772,"(214) 750-6528",http://www.grandhomes.com/,"(214) 750-6849",,info@grandhomes.com
TX,DALLAS,2009-0042,"Residential Renovations & Additions",9/8/2020,Renovation,40000,,"1539 W SEVENTH ST",IRVING,TX,75093,,,"ALFARO DENIS CORALIA PINEDA","1539 W SEVENTH ST",IRVING,TX,75060,"(214) 277-2299",Applicant,,,,,OWNER,,,,,OWNER,,,,,,,,,
TX,DALLAS,2009-0177,"Residential Renovations & Additions",9/16/2020,Renovation,33000,,"220 CRANDALL RD",IRVING,TX,75063,,,"ROBERT GRAY","220 CRANDALL RD",IRVING,TX,75063,,Owner,,,,,"SALAZAR CUSTOM INTERIORS",,,,,"SALAZAR CUSTOM INTERIORS","404 OAK BRUSH","NEW BRAUNFELS",TX,78132,"(830) 626-8967",,,,
TX,DALLAS,2009-0210,"Residential Renovations & Additions",9/16/2020,Addition,60000,,"3913 W GREENHILLS CT",IRVING,TX,75063,,,"KEVIN W HADLEY","3913 GREENHILLS CT W",IRVING,TX,75038,,Owner,,,,,OWNER,,,,,OWNER,,,,,,,,,
TX,DALLAS,2009-0234,"Residential Renovations & Additions",9/25/2020,Renovation,45000,,"1737 GLENWICK LN",IRVING,TX,75063,,,CONTRACTOR,,,,,,,,,,,"ADALEX FLOORS",,,,,"ADALEX FLOORS","3017 SYLVAN AVENUE",DALLAS,TX,75212,"(214) 744-4500",,,,
TX,DALLAS,2009-0284,"Residential Renovations & Additions",9/30/2020,Renovation,60000,,"1305 S COTTONWOOD VALLEY CIR",IRVING,TX,75063,,,CONTRACTOR,,,,,,,,,,,"SUGARBAKER'S INSPIRED SPACES",,,,,"SUGARBAKER'S INSPIRED SPACES","850 S DOOLEY ST STE 10",GRAPEVINE,TX,76051-4128,"(817) 319-5303",http://sugarbakersinspiredspaces.com/,,,Suzannecanalizo@gmail.com
TX,DALLAS,2009-0337,"Residential Renovations & Additions",9/23/2020,Renovation,40000,,"3716 HIDALGO ST",IRVING,TX,75063,,,"JUSTIN HASSAN","3716 HIDALGO ST",IRVING,TX,75063,,Owner,,,,,"DALLAS PWD",,,,,"DALLAS PWD","801 HANOVER DR STE 600",GRAPEVINE,TX,76051-7684,"(972) 988-1555",,,"THOMAS SLAUGHTER",
TX,DALLAS,2009-0363,"Residential Renovations & Additions",9/25/2020,Renovation,40000,2823,"726 N IRVING HEIGHTS DR",IRVING,TX,75063,,,"TERRY & LINDA KINGSTON","726 N IRVING HEIGHTS DR",IRVING,TX,75063,,Owner,,,,,"KEY LIFE HOMES",,,,,"KEY LIFE HOMES","2410 JEFF ST",DALLAS,TX,75212,"(214) 637-6655",,,,
TX,TARRANT,"20 - 3426","Residential Renovations & Additions",10/16/2020,Renovation,80000,203,"3584 TWELVE OAKS LN",GRAPEVINE,TX,76051,,,"RICHARD CRAFT","3584 TWELVE OAKS LN",GRAPEVINE,TX,76051,,Owner,,,,,"KCI TEXAS",,,,,"KCI TEXAS","1017 SE PARKWAY",AZLE,TX,76020,"(817) 729-3550",,,,
TX,TARRANT,"20 - 3521","Residential Renovations & Additions",9/29/2020,Renovation,75000,1121,"2220 LAKERIDGE DR",GRAPEVINE,TX,76051,,,"JASON RICHARDSON","2220 LAKERIDGE DR",GRAPEVINE,TX,76051,"(817) 504-3563",Applicant,,,,,OWNER,,,,,OWNER,,,,,,,,,
TX,TARRANT,"20 - 3133","Residential Renovations & Additions",9/8/2020,Renovation,160000,1540,"1310 HILL ST",GRAPEVINE,TX,76051,,,"VERONICA NEWMAN","1310 HILL ST",GRAPEVINE,TX,76051,,Owner,,,,,"WARE BROTHERS REMODELING",,,,,"WARE BROTHERS REMODELING","443 HOLLY ST",GRAPEVINE,TX,76051-5135,"(817) 456-8448",,,"PHIL WARE",
TX,TARRANT,"20 - 3444","Residential Renovations & Additions",10/12/2020,Renovation,50000,1803,"1209 PINE ST",GRAPEVINE,TX,76051,,,"MELISSA PARKER","1209 PINE ST",GRAPEVINE,TX,76051,,Owner,,,,,"CLOWER DESIGN & BUILD",,,,,"CLOWER DESIGN & BUILD","6060 N CENTRAL EXPY STE 500",DALLAS,TX,75206-5249,"(940) 256-1429",,,,
TX,TARRANT,"20 - 3452","Residential Renovations & Additions",10/16/2020,Renovation,70000,,"922 WILDWOOD CIR",GRAPEVINE,TX,76051,,,"KISTI LANCASTER","922 WILDWOOD CIR",GRAPEVINE,TX,76051,,Owner,,,,,"BARRON CONTRACTING",,,,,"BARRON CONTRACTING","13700 CHEROKEE RANCH RD",ROANOKE,TX,76262-4515,"(817) 771-3001",,,,
TX,HUNT,"POO - 20 - 0665","Residential Swimming Pools & Spas",8/21/2020,,150000,,"4808 LAKESIDE DR",GREENVILLE,TX,75205,,,CONTRACTOR,,,,,,,,,,,"PARK LANE POOLS LLC",,,,,"PARK LANE POOLS LLC","539 PARK LN",RICHARDSON,TX,75081-4275,"(469) 999-1284",,,,
TX,HUNT,"POO - 20 - 0741","Residential Swimming Pools & Spas",8/7/2020,,19000,,"3637 MAPLEWOOD AVE",GREENVILLE,TX,75205,,,CONTRACTOR,,,,,,,,,,,"LIVING WATER CUSTOM POOLS",,,,,"LIVING WATER CUSTOM POOLS","1030 OAKBROOK DR",WYLIE,TX,75098-5427,"(469) 703-4800",http://www.livingwatercustompools.com/,,,info@livingwatercustompools.com
TX,HUNT,"POO - 20 - 0939","Residential Swimming Pools & Spas",8/7/2020,,91263,,"4565 RHEIMS PL",GREENVILLE,TX,75205,,,CONTRACTOR,,,,,,,,,,,"LIVING WATER CUSTOM POOLS",,,,,"LIVING WATER CUSTOM POOLS","1030 OAKBROOK DR",WYLIE,TX,75098-5427,"(469) 703-4800",http://www.livingwatercustompools.com/,,,info@livingwatercustompools.com
TX,HUNT,"POO - 20 - 1047","Residential Swimming Pools & Spas",9/21/2020,,35000,,"3715 MOCKINGBIRD LN",GREENVILLE,TX,75205,,,CONTRACTOR,,,,,,,,,,,"BOB BRUCE ENTERPRISES",,,,,"BOB BRUCE ENTERPRISES","2413 VIA DEL SUR",CARROLLTON,TX,75006-4510,"(972) 418-9190",,,,
TX,HUNT,"POO - 20 - 1060","Residential Swimming Pools & Spas",8/10/2020,,88500,,"3414 LINDENWOOD AVE",GREENVILLE,TX,75205,,,CONTRACTOR,,,,,,,,,,,"RIVERBEND SANDLER POOLS",,,,,"RIVERBEND SANDLER POOLS","4016 W PLANO PKWY",PLANO,TX,75093-5694,"(972) 596-7393",http://www.riverbendsandlerpools.com,"(972) 596-0322","JAMES GARDNER",wgardner@riverbendsandlerpools.com
TX,HUNT,"POO - 20 - 1070","Residential Swimming Pools & Spas",8/11/2020,,97000,,"4411 BELFORT AVE",GREENVILLE,TX,75205,,,CONTRACTOR,,,,,,,,,,,"ADVANCE POOLS ",,,,,"ADVANCE POOLS ","2202 FM 546",MCKINNEY,TX,75069-1275,"(972) 248-4360",https://www.advancepoolsinc.com/,,,advancepools@hughes.net
TX,HUNT,"POO - 20 - 1077","Residential Swimming Pools & Spas",8/10/2020,,77878,,"4324 WESTWAY AVE",GREENVILLE,TX,75205,,,CONTRACTOR,,,,,,,,,,,"CROWN POOLS",,,,,"CROWN POOLS","705 E MAIN ST",ALLEN,TX,75002,"(972) 396-4970",http://www.crownpools.com/,,,
TX,HUNT,"POO - 20 - 1080","Residential Swimming Pools & Spas",9/15/2020,,65000,,"3301 ST JOHNS DR",GREENVILLE,TX,75205,,,CONTRACTOR,,,,,,,,,,,WATERSCAPES,,,,,WATERSCAPES,"1156 CREST MEADOW DR",HASLET,TX,76052-6153,"(214) 502-9865",http://waterscapesdfw.com/,,,
TX,HUNT,"POO - 20 - 1152","Residential Swimming Pools & Spas",8/19/2020,,95000,,"4445 ARCADY AVE",GREENVILLE,TX,75205,,,CONTRACTOR,,,,,,,,,,,"DISTINCTIVE POOLS",,,,,"DISTINCTIVE POOLS","901 E STATE HIGHWAY 121",LEWISVILLE,TX,75057-4402,"(972) 980-0534",http://www.distinctivepools.net,"(972) 353-8189",,Info@distinctivepools.net
TX,HUNT,"POO - 20 - 1164","Residential Swimming Pools & Spas",8/24/2020,,7000,,"3616 HARVARD AVE",GREENVILLE,TX,75205,,,CONTRACTOR,,,,,,,,,,,"PHILLIP LOYD JONES AND ASSOC",,,,,"PHILLIP LOYD JONES AND ASSOC","PO BOX 191978",DALLAS,TX,75219,"(214) 207-4748",,,,
TX,HUNT,"POO - 20 - 1180","Residential Swimming Pools & Spas",10/5/2020,,40000,,"3219 ST JOHNS DR",GREENVILLE,TX,75205,,,CONTRACTOR,,,,,,,,,,,"OG POOLS",,,,,"OG POOLS","1160 MEGHANN LN",WAXAHACHIE,TX,75167,"(817) 937-9148",,,,
TX,HUNT,"POO - 20 - 1207","Residential Swimming Pools & Spas",9/9/2020,,150000,,"3808 POTOMAC AVE",GREENVILLE,TX,75205,,,CONTRACTOR,,,,,,,,,,,"GOLD MEDAL POOLS",,,,,"GOLD MEDAL POOLS","4326 PRESTON RD",FRISCO,TX,75034-8512,"(972) 712-4653",http://www.goldmedalpools.com/,"(972) 712-7665","STEVE SANDLER",
TX,HUNT,"POO - 20 - 1342","Residential Swimming Pools & Spas",10/16/2020,,120000,,"3300 PRINCETON AVE",GREENVILLE,TX,75205,,,CONTRACTOR,,,,,,,,,,,"PARK LANE POOLS LLC",,,,,"PARK LANE POOLS LLC","539 PARK LN",RICHARDSON,TX,75081-4275,"(469) 999-1284",,,,
TX,HUNT,"POO - 20 - 1343","Residential Swimming Pools & Spas",9/22/2020,,30000,,"3600 NORMANDY AVE",GREENVILLE,TX,75205,,,CONTRACTOR,,,,,,,,,,,"AQUAFOX POOLS",,,,,"AQUAFOX POOLS","99 TROPHY CLUB DR # 17","TROPHY CLUB",TX,76262-5422,"(817) 925-1009",http://www.aquafoxpools.com/,,,info@aquafoxpools.com
TX,HUNT,"POO - 20 - 1376","Residential Swimming Pools & Spas",10/9/2020,,140000,,"3637 MIRAMAR AVE",GREENVILLE,TX,75205,,,CONTRACTOR,,,,,,,,,,,"PARK LANE POOLS LLC",,,,,"PARK LANE POOLS LLC","539 PARK LN",RICHARDSON,TX,75081-4275,"(469) 999-1284",,,,
TX,TARRANT,20-1261,"Residential Swimming Pools & Spas",9/10/2020,,65000,,"305 TRAILWOODDR",EULESS,TX,76039,,,"NICK PAYNE","305 TRAILWOODDR",EULESS,TX,76039,,Owner,,,,,"MALIBU POOL SERVICE",,,,,"MALIBU POOL SERVICE","705 S FLOYD RD",RICHARDSON,TX,75080-7404,"(972) 231-7553",,,,
TX,TARRANT,20-1324,"Residential Swimming Pools & Spas",9/21/2020,,67000,,"905 CANYON OAK DR",EULESS,TX,76039,,,"DAVID REED","905 CANYON OAK DR",EULESS,TX,76039,,Owner,,,,,"COLLIN BRYAN CONSTRUCTION",,,,,"COLLIN BRYAN CONSTRUCTION","4552 SUNBELT DR",ADDISON,TX,75001-5131,"(214) 927-5263",,,,
TX,TARRANT,20-1360,"Residential Swimming Pools & Spas",9/16/2020,,40600,,"2302 BROWN BEAR CT",EULESS,TX,76039,,,"BRADLEY BONENBERGER","2302 BROWN BEAR CT",EULESS,TX,76039,,Owner,,,,,"BLUE HAVEN POOLS",,,,,"BLUE HAVEN POOLS","13349 N CENTRAL EXPY",DALLAS,TX,75243-1103,"(972) 644-0494",,,,
TX,DALLAS,2009211098,"Residential Swimming Pools & Spas",9/28/2020,,,328,"7527 MORTON ST",DALLAS,TX,75209,,,CONTRACTOR,,,,,,,,,,,"PURE DESIGN",,,,,"PURE DESIGN","5151 HEADQUARTERS DR SUITE 110",FRISCO,TX,75034,"(972) 256-8867",,,,
TX,TARRANT,PB20-12569,"Residential Swimming Pools & Spas",9/16/2020,,60000,,"7737 ANATOLIAN WAY","FORT WORTH",TX,76131,"PARR TRUST",9,"GREGORY KOLESAR","7737 ANATOLIAN WAY","FORT WORTH",TX,76131,,Owner,,,,,"SOUTHWEST POOLS & SPAS",,,,,"SOUTHWEST POOLS & SPAS","8233 BUFFALO GAP ROAD",ABILENE,TX,79606,"(325) 698-3054",https://southwestpools.com/,,,
TX,DALLAS,2008-0377,"Residential Swimming Pools & Spas",9/11/2020,,45000,,"3307 UNIVERSITY PARK LN",IRVING,TX,75093,,,"HUMBERTO NOVOA","3307 UNIVERSITY PARK LN",IRVING,TX,75093,,Owner,,,,,"TX POOL & CONSTRUCTION",,,,,"TX POOL & CONSTRUCTION","525 CARTGATE LN","GRAND PRAIRIE",TX,75052,"(682) 557-2905",,,,
TX,DALLAS,2008-0160,"Residential Swimming Pools & Spas",9/3/2020,,131700,,"4859 CLOUDCROFT LN",IRVING,TX,75093,,,"VINCENT MENARD","4859 CLOUDCROFT LN",IRVING,TX,75093,,Owner,,,,,"DOUBLE EAGLE POOLS",,,,,"DOUBLE EAGLE POOLS","1301 SOLANA BLVD SUITE 1480B",WESTLAKE,TX,76262,"(972) 961-7768",,,,
TX,DALLAS,2008-0430,"Residential Swimming Pools & Spas",9/10/2020,,50000,,"1512 GREEN OAKS DR",IRVING,TX,75093,,,"WILLIAM PATTON","1512 GREEN OAKS DR",IRVING,TX,75093,,Owner,,,,,"SANDAL POOLS",,,,,"SANDAL POOLS","1100 JUPITER RD. #121","GRAND PRAIRIE",TX,75052,"(469) 974-4861",,,,
TX,COLLIN,POOL2020-08-00303,"Residential Swimming Pools & Spas",9/2/2020,,20750,,"6304 FLAGSTONE DR",MCKINNEY,TX,75070,BROOKSTONE,,CONTRACTOR,,,,,,,,,,,"METROPLEX POOL",,,,,"METROPLEX POOL","1608 CHAPARRAL CT",GRAPEVINE,TX,76051-4824,"(651) 308-7469",,,,
TX,COLLIN,POOL2020-06-00186,"Residential Swimming Pools & Spas",9/2/2020,,28150,,"5201 ARBOR HOLLOW DR",MCKINNEY,TX,75072,"ARBOR HOLLOW",,"DAVID & JONI HOSKINS","5201 ARBOR HOLLOW DR",MCKINNEY,TX,75072,,Owner,,,,,"METROPLEX POOL",,,,,"METROPLEX POOL","1608 CHAPARRAL CT",GRAPEVINE,TX,76051-4824,"(651) 308-7469",,,,
TX,COLLIN,POOL2020-08-00305,"Residential Swimming Pools & Spas",9/2/2020,,45000,,"2625 LA PALOMA LN",MCKINNEY,TX,75072,"FAWN HOLLOW",,"JEREMY & AMY MILES","2625 LA PALOMA LN",MCKINNEY,TX,75072,,Owner,,,,,"TLC POOLS AND SPAS",,,,,"TLC POOLS AND SPAS","5631 TEXOMA PKWY",SHERMAN,TX,75090,"(903) 892-1111",,,,
TX,COLLIN,POOL2020-08-00302,"Residential Swimming Pools & Spas",9/3/2020,,60000,,"8504 AUTUMN LAKE TRL",MCKINNEY,TX,75071,"TRINITY FALLS",,"EDUARDO & DAWN POLCE","8504 AUTUMN LAKE TRL",MCKINNEY,TX,75071,,Owner,,,,,"GOLD MEDAL POOLS",,,,,"GOLD MEDAL POOLS","4326 PRESTON RD",FRISCO,TX,75034-8512,"(972) 712-4653",http://www.goldmedalpools.com/,"(972) 712-7665","STEVE SANDLER",
TX,COLLIN,POOL2020-08-00290,"Residential Swimming Pools & Spas",9/4/2020,,50000,,"2715 BORDEAUX DR",MCKINNEY,TX,75070,"VISTA OF ELDORADO",,CONTRACTOR,,,,,,,,,,,"BLUE ESCAPES POOL & SPA",,,,,"BLUE ESCAPES POOL & SPA","1406 CAPITAL AVE",PLANO,TX,75074-8100,"(972) 294-6950",http://www.blueescapespools.com/,"(972) 468-6996",,service@blue-escapes.com
TX,COLLIN,POOL2020-09-00310,"Residential Swimming Pools & Spas",9/9/2020,,75000,,"7204 LOS PADRES PL",MCKINNEY,TX,75070,"STONE HOLLOW",,"JOSE & PATRICIA FLORES","7204 LOS PADRES PL",MCKINNEY,TX,75070,,Owner,,,,,"AQUATERRA OUTDOOR ENVIRONMENT",,,,,"AQUATERRA OUTDOOR ENVIRONMENT","7111 ELM ST",FRISCO,TX,75034-4234,"(214) 387-8333",http://www.aquaterraoutdoors.com/,,,
TX,COLLIN,POOL2020-08-00266,"Residential Swimming Pools & Spas",9/9/2020,,50000,,"2809 REDBRIDGE LN",MCKINNEY,TX,75071,"AUBURN HILLS",,"ROY & SHEILIA HATTEN","2809 REDBRIDGE LN",MCKINNEY,TX,75071,,Owner,,,,,"HOBERT POOLS",,,,,"HOBERT POOLS","315 W FM 544",MURPHY,TX,75094-4577,"(972) 690-8118",http://www.hobertpools.com/,"(972) 422-6320",,contact@hobertpools.com
TX,COLLIN,POOL2020-08-00306,"Residential Swimming Pools & Spas",9/10/2020,,60000,,"7309 MIDCREST CT",MCKINNEY,TX,75072,"CANYON ESTATES",,CONTRACTOR,,,,,,,,,,,"T2 OUTDOORS",,,,,"T2 OUTDOORS","1155 HIGHLINE LN","LITTLE ELM",TX,75068,"(972) 415-4500",,,,
TX,COLLIN,POOL2020-09-00311,"Residential Swimming Pools & Spas",9/10/2020,,55000,,"3901 DEER LAKE DR",MCKINNEY,TX,75071,"INWOOD HILLS",,"MICHAEL & SHARRON BIGHAM","3901 DEER LAKE DR",MCKINNEY,TX,75071,,Owner,,,,,"PRESTIGE POOLS & PATIO",,,,,"PRESTIGE POOLS & PATIO","15550 PRESTON RD",FRISCO,TX,75033-8901,"(469) 644-7665",,,,
TX,COLLIN,POOL2020-09-00312,"Residential Swimming Pools & Spas",9/10/2020,,48000,,"6713 FALCON RIDGE LN",MCKINNEY,TX,75071,RIDGECREST,,"CHRISTOPHER MARSHALL","6713 FALCON RIDGE LN",MCKINNEY,TX,75071,,Owner,,,,,"ARTESIAN CUSTOM POOLS",,,,,"ARTESIAN CUSTOM POOLS","2770 MAIN ST STE 269",FRISCO,TX,75033-4512,"(214) 578-3395",http://www.artesiancustompools.com,,,info@artesiancustompools.com
TX,COLLIN,POOL2020-09-00317,"Residential Swimming Pools & Spas",9/11/2020,,45000,,"7913 THREE FORKS TRL",MCKINNEY,TX,75071,"TRINITY FALLS",,"MONICA & KENYACO WILCOX","7913 THREE FORKS TRL",MCKINNEY,TX,75071,,Owner,,,,,"GOLD MEDAL POOLS",,,,,"GOLD MEDAL POOLS","4326 PRESTON RD",FRISCO,TX,75034-8512,"(972) 712-4653",http://www.goldmedalpools.com/,"(972) 712-7665","STEVE SANDLER",
TX,COLLIN,POOL2020-09-00313,"Residential Swimming Pools & Spas",9/14/2020,,38000,,"8608 SAND HILLS DR",MCKINNEY,TX,75070,"SOUTHERN HILLS AT CRAIG RANCH",,"CHRISTOPHER & ALEXANDER ERNST","8608 SAND HILLS DR",MCKINNEY,TX,75070,,Owner,,,,,"VENTURE CUSTOM POOLS",,,,,"VENTURE CUSTOM POOLS","4568 STATE HIGHWAY 121 STE 101",PLANO,TX,75024-7007,"(972) 377-9002",,,,
TX,COLLIN,POOL2020-09-00314,"Residential Swimming Pools & Spas",9/14/2020,,50000,,"11501 WHITWORTH WAY",MCKINNEY,TX,75071,,,"COREY & MARGARET WEITZMAN","11501 WHITWORTH WAY",MCKINNEY,TX,75071,,Owner,,,,,"VENTURE CUSTOM POOLS",,,,,"VENTURE CUSTOM POOLS","4568 STATE HIGHWAY 121 STE 101",PLANO,TX,75024-7007,"(972) 377-9002",,,,
TX,COLLIN,POOL2020-08-00298,"Residential Swimming Pools & Spas",9/14/2020,,50000,,"5904 SILVERTON AVE",MCKINNEY,TX,75070,"VILLAGE PARK",,"FANNY & SUE WIJAYA","5904 SILVERTON AVE",MCKINNEY,TX,75070,,Owner,,,,,"HAUK CUSTOM POOLS",,,,,"HAUK CUSTOM POOLS","1060 N PRESTON RD",CELINA,TX,75009-3857,"(972) 382-1919",,,,
TX,COLLIN,POOL2020-08-00304,"Residential Swimming Pools & Spas",9/14/2020,,50000,,"1905 TEMPLEGATE DR",MCKINNEY,TX,75072,"HILLSIDE AT WINDING CREEK",,"CLINTON & TRACY HOWARD","1905 TEMPLEGATE DR",MCKINNEY,TX,75072,,Owner,,,,,"FOLEY POOLS",,,,,"FOLEY POOLS","6065 SPORTS VILLAGE RD STE 100",FRISCO,TX,75033-3526,"(972) 423-7178",https://foleypools.com/,,,sales@foleypools.com
TX,COLLIN,POOL2020-07-00233,"Residential Swimming Pools & Spas",9/15/2020,,70000,,"7400 NICOLET LN",MCKINNEY,TX,75070,"STONE HOLLOW",,"MICHAEL & CHRISTINA MULLIGAN","7400 NICOLET LN",MCKINNEY,TX,75070,,Owner,,,,,"OUTDOOR LIVING POOL & PATIO",,,,,"OUTDOOR LIVING POOL & PATIO","2340 JUSTIN RD STE 101","HIGHLAND VILLAGE",TX,75077-3073,"(972) 317-3500",,,,
TX,COLLIN,POOL2020-07-00256,"Residential Swimming Pools & Spas",9/16/2020,,60000,,"1300 PECAN VALLEY DR",MCKINNEY,TX,75072,"FAIRWAY VILLAGE",,"TIFFANI & TODD PETERSEN","1300 PECAN VALLEY DR",MCKINNEY,TX,75072,,Owner,,,,,"OUTDOOR LIVING POOL & PATIO",,,,,"OUTDOOR LIVING POOL & PATIO","2340 JUSTIN RD STE 101","HIGHLAND VILLAGE",TX,75077-3073,"(972) 317-3500",,,,
TX,COLLIN,POOL2020-08-00262,"Residential Swimming Pools & Spas",9/23/2020,,100000,,"2805 KIRKWOOD DR",MCKINNEY,TX,75071,"SUMMIT VIEW LAKE",,"BRYAN & ANGELA MCVAY","2805 KIRKWOOD DR",MCKINNEY,TX,75071,,Owner,,,,,"TROPIC ISLAND POOLS",,,,,"TROPIC ISLAND POOLS","550 RESERVE ST #190",SOUTHLAKE,TX,76092,"(972) 985-7665",,,,
TX,COLLIN,POOL2020-09-00320,"Residential Swimming Pools & Spas",9/23/2020,,55000,,"7905 CRAFTSBURY LN",MCKINNEY,TX,75071,"LACIMA HAVEN",,"CHRIS & CARINA REIDY","7905 CRAFTSBURY LN",MCKINNEY,TX,75071,,Owner,,,,,"PRESTIGE POOLS & PATIO",,,,,"PRESTIGE POOLS & PATIO","15550 PRESTON RD",FRISCO,TX,75033-8901,"(469) 644-7665",,,,
TX,COLLIN,POOL2020-09-00336,"Residential Swimming Pools & Spas",9/24/2020,,50000,,"7104 QUEEN ANNE DR",MCKINNEY,TX,75072,"REGENTS PARK",,"CHRISTOPHER & LORI NABORS","7104 QUEEN ANNE DR",MCKINNEY,TX,75072,,Owner,,,,,"AQUATECTURE DESIGN GROUP",,,,,"AQUATECTURE DESIGN GROUP","PO BOX 6017",MCKINNEY,TX,75071-5101,"(972) 569-7876",http://www.aquatecturedg.com,,,chris@adgpools.com
TX,COLLIN,POOL2020-09-00333,"Residential Swimming Pools & Spas",9/25/2020,,54351,,"10828 SEDALIA DR",MCKINNEY,TX,75072,"HEIGHTS AT WESTRIDGE",,"JORGE & COURTNEY MENENDEZ","10828 SEDALIA DR",MCKINNEY,TX,75072,,Owner,,,,,"AQUAMARINE POOLS",,,,,"AQUAMARINE POOLS","4701 S I-35W",ALVARADO,TX,76009,"(800) 432-8994",,,,don@aquapools.com
TX,COLLIN,POOL2020-09-00330,"Residential Swimming Pools & Spas",9/25/2020,,53000,,"1012 BULL CREEK DR",MCKINNEY,TX,75071,"TRINITY FALLS ",,"LEO & SHARANDA ELLIS","1012 BULL CREEK DR",MCKINNEY,TX,75071,,Owner,,,,,"DFW CUSTOM POOL",,,,,"DFW CUSTOM POOL","550 RESERVE ST SUITE 190",SOUTHLAKE,TX,76092,"(817) 304-3640",,,,
TX,COLLIN,POOL2020-09-00326,"Residential Swimming Pools & Spas",9/28/2020,,55000,,"3609 LLANO RIVER TRL",MCKINNEY,TX,75070,"CRAIG RANCH",,"ANH & MICHELE CHIEM","3609 LLANO RIVER TRL",MCKINNEY,TX,75070,,Owner,,,,,"FOLEY POOLS",,,,,"FOLEY POOLS","6065 SPORTS VILLAGE RD STE 100",FRISCO,TX,75033-3526,"(972) 423-7178",https://foleypools.com/,,,sales@foleypools.com
TX,COLLIN,POOL2020-09-00335,"Residential Swimming Pools & Spas",9/28/2020,,35000,,"1008 FARGO DR",MCKINNEY,TX,75071,"WILLOW WOOD",,CONTRACTOR,,,,,,,,,,,"GOLD MEDAL POOLS",,,,,"GOLD MEDAL POOLS","4326 PRESTON RD",FRISCO,TX,75034-8512,"(972) 712-4653",http://www.goldmedalpools.com/,"(972) 712-7665","STEVE SANDLER",
TX,COLLIN,POOL2020-08-00287,"Residential Swimming Pools & Spas",9/28/2020,,65000,,"4613 RUSTIC RIDGE DR",MCKINNEY,TX,75071,HIGHRIDGE,,CONTRACTOR,,,,,,,,,,,"LEISURESCAPE POOLS",,,,,"LEISURESCAPE POOLS","2150 S CENTRAL EXPY STE 200",MCKINNEY,TX,75070-4000,"(972) 439-9670",http://www.leisurescapepools.com/,,,info@leisurescapepools.com
TX,COLLIN,POOL2020-09-00324,"Residential Swimming Pools & Spas",9/28/2020,,70000,,"807 LAKE CREEK DR",MCKINNEY,TX,75072,WATERBURY,,"RICHARD STROCK","807 LAKE CREEK DR",MCKINNEY,TX,75072,,Owner,,,,,"MCGEE POOL AND PATIO",,,,,"MCGEE POOL AND PATIO","1512 WOODHAVEN DR",MCKINNEY,TX,75070-2746,"(972) 529-1712",http://www.mcgeepool.com,"(972) 548-0891",,sandy@mcgeepool.com
TX,COLLIN,POOL2020-09-00325,"Residential Swimming Pools & Spas",9/29/2020,,49000,,"8712 BROAD MEADOW LN",MCKINNEY,TX,75071,"LACIMA HAVEN MEADOWS",,"ROBERT CAREY","8712 BROAD MEADOW LN",MCKINNEY,TX,75071,,Owner,,,,,"HAUK CUSTOM POOLS",,,,,"HAUK CUSTOM POOLS","1060 N PRESTON RD",CELINA,TX,75009-3857,"(972) 382-1919",,,,
TX,COLLIN,POOL2020-09-00318,"Residential Swimming Pools & Spas",9/29/2020,,50000,,"2124 DUBLIN CT",MCKINNEY,TX,75071,"AUBURN HILLS",,"VINICIUS PINHEIRO","2124 DUBLIN CT",MCKINNEY,TX,75071,,Owner,,,,,"AZURE POOLS AND OUTDOOR LIVING",,,,,"AZURE POOLS AND OUTDOOR LIVING","1333 W MCDERMOTT DR STE 150",ALLEN,TX,75013-3088,"(214) 705-3638",,,,paula@azurepoolstx.com
TX,COLLIN,POOL2020-09-00322,"Residential Swimming Pools & Spas",9/30/2020,,49000,,"10016 WATERSTONE WAY",MCKINNEY,TX,75072,"RESERVE AT WESTRIDGE",,"TIFFANI & RONALD ALLEN","10016 WATERSTONE WAY",MCKINNEY,TX,75072,,Owner,,,,,"VENTURE CUSTOM POOLS",,,,,"VENTURE CUSTOM POOLS","4568 STATE HIGHWAY 121 STE 101",PLANO,TX,75024-7007,"(972) 377-9002",,,,
TX,COLLIN,POOL2020-09-00339,"Residential Swimming Pools & Spas",9/30/2020,,50000,,"8200 CHIEF SPOTTED TAIL DR",MCKINNEY,TX,75070,"SETTLEMENT AT CRAIG RANCH",,"ANGELA & DONALD HUDNALL","8200 CHIEF SPOTTED TAIL DR",MCKINNEY,TX,75070,,Owner,,,,,"HAUK CUSTOM POOLS",,,,,"HAUK CUSTOM POOLS","1060 N PRESTON RD",CELINA,TX,75009-3857,"(972) 382-1919",,,,
TX,COLLIN,POOL2020-09-00337,"Residential Swimming Pools & Spas",9/30/2020,,65000,,"8621 VATICAN DR",MCKINNEY,TX,75071,"ESTATES OF VERONA",,"JOHN THORNELL","8621 VATICAN DR",MCKINNEY,TX,75071,,Owner,,,,,"FOLEY POOLS",,,,,"FOLEY POOLS","6065 SPORTS VILLAGE RD STE 100",FRISCO,TX,75033-3526,"(972) 423-7178",https://foleypools.com/,,,sales@foleypools.com
TX,COLLIN,POOL2020-09-00340,"Residential Swimming Pools & Spas",9/30/2020,,51000,,"616 MAYBERRY DR",MCKINNEY,TX,75071,"MAYBERRY PARK",,"KEVIN & MARJORIE BAKKE","616 MAYBERRY DR",MCKINNEY,TX,75071,,Owner,,,,,"HAUK CUSTOM POOLS",,,,,"HAUK CUSTOM POOLS","1060 N PRESTON RD",CELINA,TX,75009-3857,"(972) 382-1919",,,,
TX,COLLIN,POOL2020-08-00300,"Residential Swimming Pools & Spas",9/4/2020,,39665,,"5816 AMPHORA AVE",MCKINNEY,TX,75070,VINEYARDS,,"ARMANDO GUZMAN","5816 AMPHORA AVE",MCKINNEY,TX,75070,,Owner,,,,,OWNER,,,,,OWNER,,,,,,,,,
TX,DALLAS,2009211076,Retail,9/21/2020,Renovation,788000,12517,"1551 S BUCKNER BLVD STE 261",DALLAS,TX,75217,,,CONTRACTOR,,,,,,,,,,,"PRESTON PIERCE CONSTRUCTION",,,,,"PRESTON PIERCE CONSTRUCTION","2100 MCKINNEY AVE STE 1225",DALLAS,TX,75201-1803,"(214) 468-9178",,,,
TX,DALLAS,2009211135,Retail,9/21/2020,Renovation,87715,565,"39739 L B J FWY S",DALLAS,TX,75237,,,CONTRACTOR,,,,,,,,,,,"POWERHOUSE RETAIL SERVICES",,,,,"POWERHOUSE RETAIL SERVICES","812 S CROWLEY RD STE A",CROWLEY,TX,76036-3714,"(817) 297-8575",http://www.powerhouseretailservices.com,"(682) 233-7050",,
TX,DALLAS,2009211099,Retail,10/19/2020,Renovation,49000,1000,"7995 L B J FWY STE 114",DALLAS,TX,75251,,,CONTRACTOR,,,,,,,,,,,"AVILA'S CUSTOM REMODELING",,,,,"AVILA'S CUSTOM REMODELING","160 FRANKFORD CT",LUBBOCK,TX,79416-1427,"(855) 633-0248",,,,
TX,DALLAS,2004-0248,Retail,9/30/2020,,150000,5420,"801 W ROYAL LN",IRVING,TX,75093,,,CONTRACTOR,,,,,,,,,,,"S & W CONSTRUCTION",,,,,"S & W CONSTRUCTION","352 N RUDD ST STE 100",BURLESON,TX,76028-3937,"(817) 426-4039",,,,
TX,DENTON,SFA20-05677,"Single Family Homes",9/4/2020,,,2648,"1158 LAKE CITY AVE","FLOWER MOUND",TX,75052,,,CONTRACTOR,,,,,,,,,,,"CB JENI ",,,,,"CB JENI ","2805 DALLAS PKWY STE 40",PLANO,TX,75093-8719,"(469) 418-2384",http://www.cbjenihomes.com,,,
TX,DENTON,SFA20-05678,"Single Family Homes",9/4/2020,,,2463,"1154 LAKE CITY AVE","FLOWER MOUND",TX,75052,,,CONTRACTOR,,,,,,,,,,,"CB JENI ",,,,,"CB JENI ","2805 DALLAS PKWY STE 40",PLANO,TX,75093-8719,"(469) 418-2384",http://www.cbjenihomes.com,,,
TX,DENTON,SFA20-05680,"Single Family Homes",9/4/2020,,,2648,"1150 LAKE CITY AVE","FLOWER MOUND",TX,75052,,,CONTRACTOR,,,,,,,,,,,"CB JENI ",,,,,"CB JENI ","2805 DALLAS PKWY STE 40",PLANO,TX,75093-8719,"(469) 418-2384",http://www.cbjenihomes.com,,,
TX,DENTON,SFA20-05440,"Single Family Homes",9/18/2020,,,2416,"325 BRIDGEWATER AVE","FLOWER MOUND",TX,75052,,,CONTRACTOR,,,,,,,,,,,"CB JENI ",,,,,"CB JENI ","2805 DALLAS PKWY STE 40",PLANO,TX,75093-8719,"(469) 418-2384",http://www.cbjenihomes.com,,,
TX,DENTON,SFA20-05441,"Single Family Homes",9/18/2020,,,2019,"329 BRIDGEWATER AVE","FLOWER MOUND",TX,75052,,,CONTRACTOR,,,,,,,,,,,"CB JENI ",,,,,"CB JENI ","2805 DALLAS PKWY STE 40",PLANO,TX,75093-8719,"(469) 418-2384",http://www.cbjenihomes.com,,,
TX,DENTON,SFA20-05442,"Single Family Homes",9/18/2020,,,2111,"333 BRIDGEWATER AVE","FLOWER MOUND",TX,75052,,,CONTRACTOR,,,,,,,,,,,"CB JENI ",,,,,"CB JENI ","2805 DALLAS PKWY STE 40",PLANO,TX,75093-8719,"(469) 418-2384",http://www.cbjenihomes.com,,,
TX,DENTON,SFA20-05444,"Single Family Homes",9/18/2020,,,2443,"337 BRIDGEWATER AVE","FLOWER MOUND",TX,75052,,,CONTRACTOR,,,,,,,,,,,"CB JENI ",,,,,"CB JENI ","2805 DALLAS PKWY STE 40",PLANO,TX,75093-8719,"(469) 418-2384",http://www.cbjenihomes.com,,,
TX,DENTON,SFD20-04794,"Single Family Homes",9/1/2020,,,5006,"6908 BASKET FLOWER RD","FLOWER MOUND",TX,75052,,,CONTRACTOR,,,,,,,,,,,"HIGHLAND HOMES",,,,,"HIGHLAND HOMES","5601 DEMOCRACY DR STE 300",PLANO,TX,75024-3674,"(972) 789-3500",,,,
TX,DENTON,SFD20-04762,"Single Family Homes",9/2/2020,,,3339,"1924 HELICONIA DR","FLOWER MOUND",TX,75052,,,CONTRACTOR,,,,,,,,,,,"GRENADIER FM",,,,,"GRENADIER FM","9603 WHITE ROCK TRL STE 204",DALLAS,TX,75238-5034,"(713) 234-6639",,,,
TX,DENTON,SFD20-05363,"Single Family Homes",9/2/2020,,,7614,"3904 DASHIELL DR","FLOWER MOUND",TX,75052,,,CONTRACTOR,,,,,,,,,,,"TOLL BROTHERS",,,,,"TOLL BROTHERS","9178 VITA DOLCE DR",FRISCO,TX,75035-2300,"(469) 525-0524",,,,
TX,DENTON,SFD20-04636,"Single Family Homes",9/4/2020,,,4582,"11200 BULL HEAD LN","FLOWER MOUND",TX,75052,,,CONTRACTOR,,,,,,,,,,,"K HOVNANIAN HOMES",,,,,"K HOVNANIAN HOMES","5808 W PLANO PKWY",PLANO,TX,75093-4636,"(469) 737-1400",,,,
TX,DENTON,SFD20-05931,"Single Family Homes",9/4/2020,,,3211,"4970 STORNOWAY DR","FLOWER MOUND",TX,75028,,,CONTRACTOR,,,,,,,,,,,"DAVID WEEKLEY HOMES",,,,,"DAVID WEEKLEY HOMES","2708 HILLSIDE DR","HIGHLAND VILLAGE",TX,75077-8653,"(972) 415-6059",http://www.davidweekleyhomes.com/,,,
TX,DENTON,SFD20-05951,"Single Family Homes",9/3/2020,,,3604,"5454 PARKSDALE DR","FLOWER MOUND",TX,75028,,,CONTRACTOR,,,,,,,,,,,"LENNAR HOMES",,,,,"LENNAR HOMES","1707 MARKET PL STE 250",IRVING,TX,75063-8050,"(469) 587-5200",http://www.lennar.com/,,,
TX,DENTON,SFD20-05952,"Single Family Homes",9/3/2020,,,2641,"5458 PARKSDALE DR","FLOWER MOUND",TX,77356,,,CONTRACTOR,,,,,,,,,,,"LENNAR HOMES",,,,,"LENNAR HOMES","1707 MARKET PL STE 250",IRVING,TX,75063-8050,"(469) 587-5200",http://www.lennar.com/,,,
TX,DENTON,SFD20-05954,"Single Family Homes",9/3/2020,,,4236,"5462 PARKSDALE DR","FLOWER MOUND",TX,75052,,,CONTRACTOR,,,,,,,,,,,"LENNAR HOMES",,,,,"LENNAR HOMES","1707 MARKET PL STE 250",IRVING,TX,75063-8050,"(469) 587-5200",http://www.lennar.com/,,,
TX,DENTON,SFD20-05958,"Single Family Homes",9/3/2020,,,4075,"5466 PARKSDALE DR","FLOWER MOUND",TX,75028,,,CONTRACTOR,,,,,,,,,,,"LENNAR HOMES",,,,,"LENNAR HOMES","1707 MARKET PL STE 250",IRVING,TX,75063-8050,"(469) 587-5200",http://www.lennar.com/,,,
TX,DENTON,SFD20-01363,"Single Family Homes",9/8/2020,,,4292,"9113 SHOSHONE TRL","FLOWER MOUND",TX,75028,,,CONTRACTOR,,,,,,,,,,,"LEMME-JOHNSON CONTRACTING",,,,,"LEMME-JOHNSON CONTRACTING","2701 WIND RIVER LN",DENTON,TX,76210,"(940) 390-1548",,,,
TX,DENTON,SFD20-03506,"Single Family Homes",9/8/2020,,,4374,"11624 SLUMBER FALLS DR","FLOWER MOUND",TX,75028,,,CONTRACTOR,,,,,,,,,,,"MHI MCGUYER HOMEBUILDERS",,,,,"MHI MCGUYER HOMEBUILDERS","1501 LYNDON B JOHNSON FWY STE 100",DALLAS,TX,75234-6029,"(972) 277-3811",,,,
TX,DENTON,SFD20-05516,"Single Family Homes",9/10/2020,,,3627,"11216 BULL HEAD LN","FLOWER MOUND",TX,75028,,,CONTRACTOR,,,,,,,,,,,"K HOVNANIAN HOMES",,,,,"K HOVNANIAN HOMES","5808 W PLANO PKWY",PLANO,TX,75093-4636,"(469) 737-1400",,,,
TX,DENTON,SFD20-05519,"Single Family Homes",9/10/2020,,,3560,"11309 DUSTY TRAIL CT","FLOWER MOUND",TX,75028,,,CONTRACTOR,,,,,,,,,,,"K HOVNANIAN HOMES",,,,,"K HOVNANIAN HOMES","5808 W PLANO PKWY",PLANO,TX,75093-4636,"(469) 737-1400",,,,
TX,DENTON,SFD20-05826,"Single Family Homes",9/9/2020,,,3259,"1920 HELICONIA DR","FLOWER MOUND",TX,75028,,,CONTRACTOR,,,,,,,,,,,"GRENADIER FM",,,,,"GRENADIER FM","9603 WHITE ROCK TRL STE 204",DALLAS,TX,75238-5034,"(713) 234-6639",,,,
TX,DENTON,SFD20-05907,"Single Family Homes",9/14/2020,,,3248,"3404 SPRING GROVE LN","FLOWER MOUND",TX,75028,,,CONTRACTOR,,,,,,,,,,,"LENNAR HOMES",,,,,"LENNAR HOMES","1707 MARKET PL STE 250",IRVING,TX,75063-8050,"(469) 587-5200",http://www.lennar.com/,,,
TX,DENTON,SFD20-05371,"Single Family Homes",9/18/2020,,,6448,"6713 PALERMO TRL","FLOWER MOUND",TX,75028,,,CONTRACTOR,,,,,,,,,,,"TOLL BROTHERS",,,,,"TOLL BROTHERS","9178 VITA DOLCE DR",FRISCO,TX,75035-2300,"(469) 525-0524",,,,
TX,DENTON,SFD20-05693,"Single Family Homes",9/24/2020,,,6061,"6716 SALERNO CT","FLOWER MOUND",TX,75028,,,CONTRACTOR,,,,,,,,,,,"PR DEVELOPMENT",,,,,"PR DEVELOPMENT","1060 W FRANKFORD RD # 20",CARROLLTON,TX,75007-4999,"(972) 466-2244",,,,
TX,DENTON,SFD20-05694,"Single Family Homes",9/24/2020,,,6061,"6709 CASERTA CT","FLOWER MOUND",TX,75028,,,CONTRACTOR,,,,,,,,,,,"PR DEVELOPMENT",,,,,"PR DEVELOPMENT","1060 W FRANKFORD RD # 20",CARROLLTON,TX,75007-4999,"(972) 466-2244",,,,
TX,DENTON,SFD20-05790,"Single Family Homes",9/24/2020,,,4260,"1812 ERIC METZGER WAY","FLOWER MOUND",TX,75028,,,CONTRACTOR,,,,,,,,,,,"DARLING HOMES",,,,,"DARLING HOMES","10255 RICHMOND AVE STE 150",HOUSTON,TX,77042-4382,"(713) 690-6902",http://www.darlinghomes.com/,,,
TX,DENTON,SFD20-05887,"Single Family Homes",9/25/2020,,,3871,"6908 BROOMSEDGE DR","FLOWER MOUND",TX,75028,,,CONTRACTOR,,,,,,,,,,,"HIGHLAND HOMES",,,,,"HIGHLAND HOMES","5601 DEMOCRACY DR STE 300",PLANO,TX,75024-3674,"(972) 789-3500",,,,
TX,DENTON,SFD20-05911,"Single Family Homes",9/17/2020,,,4075,"5408 BRADFORD GREEN TRL","FLOWER MOUND",TX,75028,,,CONTRACTOR,,,,,,,,,,,"LENNAR HOMES",,,,,"LENNAR HOMES","1707 MARKET PL STE 250",IRVING,TX,75063-8050,"(469) 587-5200",http://www.lennar.com/,,,
TX,DENTON,SFD20-05922,"Single Family Homes",9/15/2020,,,3248,"5412 BRADFORD GREEN TRL","FLOWER MOUND",TX,75028,,,CONTRACTOR,,,,,,,,,,,"LENNAR HOMES",,,,,"LENNAR HOMES","1707 MARKET PL STE 250",IRVING,TX,75063-8050,"(469) 587-5200",http://www.lennar.com/,,,
TX,DENTON,SFD20-06061,"Single Family Homes",9/25/2020,,,3791,"6933 BROOMSEDGE DR","FLOWER MOUND",TX,75028,,,CONTRACTOR,,,,,,,,,,,"HIGHLAND HOMES",,,,,"HIGHLAND HOMES","5601 DEMOCRACY DR STE 300",PLANO,TX,75024-3674,"(972) 789-3500",,,,
TX,DENTON,SFD20-06154,"Single Family Homes",9/25/2020,,,3018,"1913 PROTEA DR","FLOWER MOUND",TX,75028,,,CONTRACTOR,,,,,,,,,,,"GRENADIER FM",,,,,"GRENADIER FM","9603 WHITE ROCK TRL STE 204",DALLAS,TX,75238-5034,"(713) 234-6639",,,,
TX,DENTON,SFD20-06376,"Single Family Homes",9/24/2020,,,5950,"604 AVIGNON WAY","FLOWER MOUND",TX,75028,,,CONTRACTOR,,,,,,,,,,,"TOLL BROTHERS",,,,,"TOLL BROTHERS","9178 VITA DOLCE DR",FRISCO,TX,75035-2300,"(469) 525-0524",,,,
TX,DENTON,SFD20-01055,"Single Family Homes",9/30/2020,,,2374,"6893 MEADOW LN","FLOWER MOUND",TX,75028,,,CONTRACTOR,,,,,,,,,,,"LEGACY CLASSIC HOMES",,,,,"LEGACY CLASSIC HOMES","5751 KROGER DR STE 126","FORT WORTH",TX,76244-5633,"(817) 903-1527",,"(817) 898-1421","STEVE SAGERSON",
TX,DENTON,SFD20-04457,"Single Family Homes",9/28/2020,,,4127,"3601 GRANT CT","FLOWER MOUND",TX,75028,,,CONTRACTOR,,,,,,,,,,,"LINGENFELTER CUSTOM HOMES LLC",,,,,"LINGENFELTER CUSTOM HOMES LLC","PO BOX 270994","FLOWER MOUND",TX,75027-0994,"(972) 746-1803",http://lingenfeltercustomhomes.com/,,,info@lingenfeltercustomhomes.com
TX,DENTON,SFD20-04939,"Single Family Homes",9/29/2020,,,4135,"11204 BULL HEAD LN","FLOWER MOUND",TX,75028,,,CONTRACTOR,,,,,,,,,,,"K HOVNANIAN HOMES",,,,,"K HOVNANIAN HOMES","5808 W PLANO PKWY",PLANO,TX,75093-4636,"(469) 737-1400",,,,
TX,DENTON,SFD20-05793,"Single Family Homes",9/29/2020,,,2988,"245 EAGLEWOOD DR","FLOWER MOUND",TX,75028,,,CONTRACTOR,,,,,,,,,,,"NORMANDY HOMES",,,,,"NORMANDY HOMES","2805 DALLAS PKWY STE 400",PLANO,TX,75093-8722,"(972) 905-5001",http://normandyhomes.com/,,,
TX,DENTON,SFD20-05831,"Single Family Homes",9/29/2020,,,3359,"813 FOREST LAKE RD","FLOWER MOUND",TX,75028,,,CONTRACTOR,,,,,,,,,,,"NORMANDY HOMES",,,,,"NORMANDY HOMES","2805 DALLAS PKWY STE 400",PLANO,TX,75093-8722,"(972) 905-5001",http://normandyhomes.com/,,,
TX,DENTON,SFD20-05835,"Single Family Homes",9/29/2020,,,3578,"5228 RAVINE RIDGE CT","FLOWER MOUND",TX,75028,,,CONTRACTOR,,,,,,,,,,,"K HOVNANIAN HOMES",,,,,"K HOVNANIAN HOMES","5808 W PLANO PKWY",PLANO,TX,75093-4636,"(469) 737-1400",,,,
TX,DENTON,SFD20-05910,"Single Family Homes",9/30/2020,,,12297,"2016 LA SALLE","FLOWER MOUND",TX,75028,,,CONTRACTOR,,,,,,,,,,,"LEWIS & EARLEY CUSTOM HOMES",,,,,"LEWIS & EARLEY CUSTOM HOMES","201 LAURENCE DR # 216",HEATH,TX,75032-9900,"(214) 668-8321",http://www.lewisearley.com,,"SCOTT LEWIS",scottlewishomes@gmail.com
TX,DENTON,SFD20-06065,"Single Family Homes",9/29/2020,,,2988,"809 FOREST LAKE RD","FLOWER MOUND",TX,75028,,,CONTRACTOR,,,,,,,,,,,"NORMANDY HOMES",,,,,"NORMANDY HOMES","2805 DALLAS PKWY STE 400",PLANO,TX,75093-8722,"(972) 905-5001",http://normandyhomes.com/,,,
TX,DENTON,SFD20-06375,"Single Family Homes",9/30/2020,,,6852,"2232 SULLENBERGER WAY","FLOWER MOUND",TX,75028,,,CONTRACTOR,,,,,,,,,,,"TOLL BROTHERS",,,,,"TOLL BROTHERS","9178 VITA DOLCE DR",FRISCO,TX,75035-2300,"(469) 525-0524",,,,
TX,DALLAS,2009141120,"Single Family Homes",9/14/2020,,,5550,"10816 LARKGLEN CIR",DALLAS,TX,75230,,,CONTRACTOR,,,,,,,,,,,"THOMAS DRAKE CUSTOM HOMES",,,,,"THOMAS DRAKE CUSTOM HOMES","2605 NATIONAL PLACE SUITE D",GARLAND,TX,75238,"(972) 535-0151",,,,
TX,DALLAS,2009142004,"Single Family Homes",9/14/2020,,,2535,"1525 DOYLE AVE",DALLAS,TX,75203,,,CONTRACTOR,,,,,,,,,,,"ERGO CONSTRUCTION MANAGEMENT",,,,,"ERGO CONSTRUCTION MANAGEMENT","PO BOX 1164",DESOTO,TX,75123,"(682) 221-4859",,,,
TX,DALLAS,2009141122,"Single Family Homes",9/14/2020,,,1811,"2522 S EWING AVE",DALLAS,TX,75216,,,CONTRACTOR,,,,,,,,,,,"GUEL FAMILY BUILDERS",,,,,"GUEL FAMILY BUILDERS","718 E WOODIN BLVD",DALLAS,TX,75216-1937,"(214) 573-3077",,,,
TX,DALLAS,2009141049,"Single Family Homes",9/14/2020,,,2978,"3401 CROSSMAN AVE",DALLAS,TX,75212,,,CONTRACTOR,,,,,,,,,,,"EUGENIO LOMAS",,,,,"EUGENIO LOMAS","1330 SIERRA BLANCA DR",DUNCANVILLE,TX,75116-4120,"(972) 835-2385",,,,
TX,DALLAS,2009141073,"Single Family Homes",9/14/2020,,,4563,"3805 EATON DR",DALLAS,TX,75220,,,CONTRACTOR,,,,,,,,,,,"LARDNER GROUP",,,,,"LARDNER GROUP","3815 VAN NESS LN",DALLAS,TX,75220,"(214) 282-3144",,,,
TX,DALLAS,2009141070,"Single Family Homes",10/8/2020,,,4586,"3875 CLOVER LN",DALLAS,TX,75220,,,CONTRACTOR,,,,,,,,,,,"THE AVANT GROUP",,,,,"THE AVANT GROUP","2745 DALLAS PKWY STE 455",PLANO,TX,75093-8749,"(972) 955-7132",,,,
TX,DALLAS,2009142006,"Single Family Homes",9/14/2020,,,1625,"3917 SONORA AVE",DALLAS,TX,75216,,,CONTRACTOR,,,,,,,,,,,"CROSS CONSTRUCTION & CONSULTING",,,,,"CROSS CONSTRUCTION & CONSULTING","567 SUMMIT RIDGE DR",DUNCANVILLE,TX,75116-2429,"(214) 908-0066",,,,
TX,DALLAS,2009146016,"Single Family Homes",9/14/2020,,,5181,"3922 W KIEST BLVD",DALLAS,TX,75233,,,CONTRACTOR,,,,,,,,,,,"MISHLER BUILDERS",,,,,"MISHLER BUILDERS","PO BOX 38",ROCKWALL,TX,75087-0038,"(214) 502-3895",http://www.mishlerbuilders.com/,,"Mike Mishler",MishlerBuilders@sbcglobal.net
TX,DALLAS,2009141151,"Single Family Homes",10/12/2020,,,5426,"3946 N CRESTHAVEN RD",DALLAS,TX,75209,,,CONTRACTOR,,,,,,,,,,,"ROYAL SPHINX HOMES",,,,,"ROYAL SPHINX HOMES","2002 GREENHILL DR",ROWLETT,TX,75088,"(972) 940-2265",,,,
TX,DALLAS,2009142001,"Single Family Homes",9/14/2020,,,4843,"4430 MERRELL RD",DALLAS,TX,75229,,,CONTRACTOR,,,,,,,,,,,"CRUSADER GARAGE DOORS",,,,,"CRUSADER GARAGE DOORS","1411 LEMAY DRIVE # 308",CARROLLTON,TX,75007,"(214) 793-8977",,,,
TX,DALLAS,2009146031,"Single Family Homes",9/14/2020,,,2354,"4555 MEXICANA RD",DALLAS,TX,75212,,,CONTRACTOR,,,,,,,,,,,"J&D GROUND UP CONSTRUCTION",,,,,"J&D GROUND UP CONSTRUCTION","3851 MICAN DR",DALLAS,TX,75212,"(469) 831-0063",,,,
TX,DALLAS,2009141060,"Single Family Homes",10/13/2020,,,12088,"4824 SHADYWOOD LN",DALLAS,TX,75209,,,CONTRACTOR,,,,,,,,,,,"TATUM BROWN CUSTOM HOMES",,,,,"TATUM BROWN CUSTOM HOMES","5924 ROYAL LN STE 150",DALLAS,TX,75230-3897,"(214) 714-7034",http://www.tatumbrown.com,,,
TX,DALLAS,2009141110,"Single Family Homes",10/9/2020,,,2092,"6010 PLATA WAY",DALLAS,TX,75211,,,CONTRACTOR,,,,,,,,,,,"CROSS CONSTRUCTION & CONSULTING",,,,,"CROSS CONSTRUCTION & CONSULTING","567 SUMMIT RIDGE DR",DUNCANVILLE,TX,75116-2429,"(214) 908-0066",,,,
TX,DALLAS,2009141089,"Single Family Homes",9/14/2020,,,2015,"9475 TIMBERLEAF DR",DALLAS,TX,75243,,,CONTRACTOR,,,,,,,,,,,"OJOR CONSTRUCTION",,,,,"OJOR CONSTRUCTION","15235 REGAL OAK LN",FRISCO,TX,75035,"(972) 439-0695",https://ojorconstruction.com/,,,
TX,DALLAS,2009146032,"Single Family Homes",9/14/2020,,,2015,"9481 TIMBERLEAF DR",DALLAS,TX,75243,,,CONTRACTOR,,,,,,,,,,,"OJOR CONSTRUCTION",,,,,"OJOR CONSTRUCTION","15235 REGAL OAK LN",FRISCO,TX,75035,"(972) 439-0695",https://ojorconstruction.com/,,,
TX,DALLAS,2009211152,"Single Family Homes",9/21/2020,,,1755,"2177 ECHO LAKE DR",DALLAS,TX,75253,,,CONTRACTOR,,,,,,,,,,,"AGUILAR CONCRETE & HOMES",,,,,"AGUILAR CONCRETE & HOMES","4713 CRESTHILL LN",GARLAND,TX,75043-6508,"(214) 564-7980",,,,
TX,DALLAS,2009211151,"Single Family Homes",9/21/2020,,,1811,"2506 PALL MALL AVE",DALLAS,TX,75241,,,CONTRACTOR,,,,,,,,,,,"MORRIS DEVELOPERS",,,,,"MORRIS DEVELOPERS","104 E OVILLA RD","RED OAK",TX,75154-9201,"(972) 848-7638",,,,
TX,DALLAS,2009211094,"Single Family Homes",9/21/2020,,,2024,"2522 52ND ST",DALLAS,TX,75216,,,CONTRACTOR,,,,,,,,,,,"GUEL FAMILY BUILDERS",,,,,"GUEL FAMILY BUILDERS","718 E WOODIN BLVD",DALLAS,TX,75216-1937,"(214) 573-3077",,,,
TX,DALLAS,2009211130,"Single Family Homes",9/21/2020,,,1458,"3310 SPRING AVE",DALLAS,TX,75215,,,CONTRACTOR,,,,,,,,,,,"AMERITEX HOMES",,,,,"AMERITEX HOMES","4835 LYNDON B JOHNSON FWY",DALLAS,TX,75244-6005,"(214) 765-0596",,,,
TX,DALLAS,2009211142,"Single Family Homes",9/21/2020,,,2340,"3403 BICKERS ST",DALLAS,TX,75212,,,CONTRACTOR,,,,,,,,,,,"MORRIS DEVELOPERS",,,,,"MORRIS DEVELOPERS","104 E OVILLA RD","RED OAK",TX,75154-9201,"(972) 848-7638",,,,
TX,DALLAS,2009211083,"Single Family Homes",10/20/2020,,,2340,"3519 NOMAS ST",DALLAS,TX,75212,,,CONTRACTOR,,,,,,,,,,,"MORRIS DEVELOPERS",,,,,"MORRIS DEVELOPERS","104 E OVILLA RD","RED OAK",TX,75154-9201,"(972) 848-7638",,,,
TX,DALLAS,2009211125,"Single Family Homes",10/14/2020,,,1458,"3820 COLONIAL AVE",DALLAS,TX,75215,,,CONTRACTOR,,,,,,,,,,,"AMERITEX HOMES",,,,,"AMERITEX HOMES","4835 LYNDON B JOHNSON FWY",DALLAS,TX,75244-6005,"(214) 765-0596",,,,
TX,DALLAS,2009211162,"Single Family Homes",9/21/2020,,,3760,"5018 ALCOTT ST",DALLAS,TX,75206,,,CONTRACTOR,,,,,,,,,,,"LECOMTE HOMES",,,,,"LECOMTE HOMES","PO BOX 720549",DALLAS,TX,75372,"(214) 827-1431",,"(214) 292-9547",,
TX,DALLAS,2009211154,"Single Family Homes",9/21/2020,,,3662,"8011 SUNFLOWER LN",DALLAS,TX,75252,,,CONTRACTOR,,,,,,,,,,,"BEAZER HOMES ",,,,,"BEAZER HOMES ","1750 VALLEY VIEW LN STE 200",DALLAS,TX,75234-9010,"(972) 250-5517",http://www.beazer.com/,,,bret.kolbe@beazer.com
TX,DALLAS,2009212005,"Single Family Homes",10/19/2020,,,3047,"8110 AGARITO WAY",DALLAS,TX,75252,,,CONTRACTOR,,,,,,,,,,,"MEGATEL HOMES",,,,,"MEGATEL HOMES","5512 W PLANO PKWY STE 300",PLANO,TX,75093-4840,"(972) 339-0159",,,,
TX,TARRANT,PB20-11430,"Single Family Homes",9/16/2020,,2011430,2699,"15901 CHARING CROSS DR","FORT WORTH",TX,76247,"TRAILS OF ELIZABETH CREEK",4,CONTRACTOR,,,,,,,,,,,"DR HORTON",,,,,"DR HORTON","6751 NORTH FWY","FT WORTH",TX,76131-2802,"(817) 230-0800",,,,
TX,TARRANT,PB20-11516,"Single Family Homes",9/16/2020,,200000,2382,"6112 BROCKS LN","FORT WORTH",TX,76114,"GREENFIELD ACRES",4,CONTRACTOR,,,,,,,,,,,"MASTERCRAFT BUILDERS",,,,,"MASTERCRAFT BUILDERS","4950 KELLER SPRINGS RD STE 400",ADDISON,TX,75001-6279,"(214) 866-0030",,,,
TX,TARRANT,PB20-11504,"Single Family Homes",9/16/2020,,310970,2827,"15036 CHIPWOOD DR","FORT WORTH",TX,76087,MORNINGSTAR,16,CONTRACTOR,,,,,,,,,,,"HIGHLAND HOMES",,,,,"HIGHLAND HOMES","5601 DEMOCRACY DR STE 300",PLANO,TX,75024-3674,"(972) 789-3500",,,,
TX,TARRANT,PB20-11902,"Single Family Homes",9/16/2020,,115000,2168,"1025 NAPIER WAY","FORT WORTH",TX,76247,"TRAILS OF ELIZABETH CREEK",5,CONTRACTOR,,,,,,,,,,,"DR HORTON",,,,,"DR HORTON","6751 NORTH FWY","FT WORTH",TX,76131-2802,"(817) 230-0800",,,,
TX,TARRANT,PB20-11908,"Single Family Homes",9/16/2020,,132000,2733,"1021 NAPIER WAY","FORT WORTH",TX,76247,"TRAILS OF ELIZABETH CREEK",6,CONTRACTOR,,,,,,,,,,,"DR HORTON",,,,,"DR HORTON","6751 NORTH FWY","FT WORTH",TX,76131-2802,"(817) 230-0800",,,,
TX,TARRANT,PB20-11803,"Single Family Homes",9/16/2020,,122000,2387,"525 DUNMORE DR","FORT WORTH",TX,76052,,,CONTRACTOR,,,,,,,,,,,"DR HORTON",,,,,"DR HORTON","6751 NORTH FWY","FT WORTH",TX,76131-2802,"(817) 230-0800",,,,
TX,TARRANT,PB20-11912,"Single Family Homes",9/16/2020,,120000,2368,"1009 NAPIER WAY","FORT WORTH",TX,76247,"TRAILS OF ELIZABETH CREEK",8,CONTRACTOR,,,,,,,,,,,"DR HORTON",,,,,"DR HORTON","6751 NORTH FWY","FT WORTH",TX,76131-2802,"(817) 230-0800",,,,
TX,TARRANT,PB20-11914,"Single Family Homes",9/16/2020,,123000,2449,"1005 NAPIER WAY","FORT WORTH",TX,76247,"TRAILS OF ELIZABETH CREEK",9,CONTRACTOR,,,,,,,,,,,"DR HORTON",,,,,"DR HORTON","6751 NORTH FWY","FT WORTH",TX,76131-2802,"(817) 230-0800",,,,
TX,TARRANT,PB20-11933,"Single Family Homes",9/16/2020,,126000,2535,"1052 BLACKHORSE TRL","FORT WORTH",TX,76247,"TRAILS OF ELIZABETH CREEK",14,CONTRACTOR,,,,,,,,,,,"DR HORTON",,,,,"DR HORTON","6751 NORTH FWY","FT WORTH",TX,76131-2802,"(817) 230-0800",,,,
TX,TARRANT,PB20-12115,"Single Family Homes",9/16/2020,,328900,2748,"4920 CARMEL VALLEY DR","FORT WORTH",TX,76244,"WATSON CREEK ESTATES",26,CONTRACTOR,,,,,,,,,,,"K HOVNANIAN HOMES",,,,,"K HOVNANIAN HOMES","5808 W PLANO PKWY",PLANO,TX,75093-4636,"(469) 737-1400",,,,
TX,TARRANT,PB20-12621,"Single Family Homes",9/16/2020,,131292,2084,"6240 RED FALCON DR","FORT WORTH",TX,76179,"RED EAGLE PLACE",10,CONTRACTOR,,,,,,,,,,,"LILLIAN CUSTOM HOMES",,,,,"LILLIAN CUSTOM HOMES","509 FERRIS AVE",WAXAHACHIE,TX,75165-3343,"(972) 937-8990",http://lilliancustomhomes.com/,,,
TX,TARRANT,PB20-12613,"Single Family Homes",9/16/2020,,195993,3111,"2625 GOSLING WAY","FORT WORTH",TX,76118,"LAKES OF RIVER TRAILS",14,CONTRACTOR,,,,,,,,,,,"TRENDMAKER HOMES",,,,,"TRENDMAKER HOMES","4835 LBJ FREEWAY SUITE 700",DALLAS,TX,75068,"(214) 765-0573",,,,
TX,TARRANT,PB20-12614,"Single Family Homes",9/16/2020,,189000,3000,"4224 DUBLIN RIDGE DR","FORT WORTH",TX,76036,"ROSEMARY RIDGE",7,CONTRACTOR,,,,,,,,,,,"BLOOMFIELD HOMES",,,,,"BLOOMFIELD HOMES","1050 E STATE HIGHWAY 114 STE 210",SOUTHLAKE,TX,76092-5255,"(972) 971-2103",http://bloomfieldhomes.net/,"(972) 987-4342",,mattjennings@bloomfieldhomes.net
TX,TARRANT,PB20-12615,"Single Family Homes",9/16/2020,,188748,2996,"12233 PRUDENCE DR","FORT WORTH",TX,76052,WELLINGTON,9,CONTRACTOR,,,,,,,,,,,"AMERICAN LEGEND HOMES",,,,,"AMERICAN LEGEND HOMES","2540 KING ARTHUR BLVD STE 200",LEWISVILLE,TX,75056-5833,"(972) 410-5701",http://www.amlegendhomes.com/,"(972) 410-5750",,
TX,TARRANT,PB20-12667,"Single Family Homes",9/16/2020,,176652,2804,"7509 THUNDER RIVER RD","FORT WORTH",TX,76120,"OAK RIDGE",25,CONTRACTOR,,,,,,,,,,,"LGI HOMES",,,,,"LGI HOMES","1913 PIN OAK TRL",ANNA,TX,75409-4493,"(855) 668-2572",,,,
TX,TARRANT,PB20-12506,"Single Family Homes",9/16/2020,,146601,2327,"6220 THUNDERWING DR","FORT WORTH",TX,76179,"RED EAGLE PLACE",6,CONTRACTOR,,,,,,,,,,,"LILLIAN CUSTOM HOMES",,,,,"LILLIAN CUSTOM HOMES","509 FERRIS AVE",WAXAHACHIE,TX,75165-3343,"(972) 937-8990",http://lilliancustomhomes.com/,,,
TX,TARRANT,PB20-12550,"Single Family Homes",9/16/2020,,136080,2160,"7505 THUNDER RIVER RD","FORT WORTH",TX,76120,"OAK RIDGE",26,CONTRACTOR,,,,,,,,,,,"LGI HOMES",,,,,"LGI HOMES","1913 PIN OAK TRL",ANNA,TX,75409-4493,"(855) 668-2572",,,,
TX,TARRANT,PB20-12551,"Single Family Homes",9/16/2020,,144207,2289,"7501 THUNDER RIVER RD","FORT WORTH",TX,76120,,,CONTRACTOR,,,,,,,,,,,"LGI HOMES",,,,,"LGI HOMES","1913 PIN OAK TRL",ANNA,TX,75409-4493,"(855) 668-2572",,,,
TX,TARRANT,PB20-12555,"Single Family Homes",9/16/2020,,260505,4135,"15549 NIMBLE TRL","FORT WORTH",TX,76262,"CHADWICK FARMS",17,CONTRACTOR,,,,,,,,,,,"GRAND HOMES",,,,,"GRAND HOMES","15455 DALLAS PKWY STE 1000",ADDISON,TX,75001-6772,"(214) 750-6528",http://www.grandhomes.com/,"(214) 750-6849",,info@grandhomes.com
TX,TARRANT,PB20-12497,"Single Family Homes",9/16/2020,,127000,2563,"1465 ARCHWAY CT","FORT WORTH",TX,76016,"TRAILS OF ELIZABETH CREEK",24,CONTRACTOR,,,,,,,,,,,"DR HORTON",,,,,"DR HORTON","6751 NORTH FWY","FT WORTH",TX,76131-2802,"(817) 230-0800",,,,
TX,TARRANT,PB20-12522,"Single Family Homes",9/16/2020,,224595,3565,"7529 THUNDER RIVER RD","FORT WORTH",TX,76120,"OAK RIDGE",20,CONTRACTOR,,,,,,,,,,,"LGI HOMES",,,,,"LGI HOMES","1913 PIN OAK TRL",ANNA,TX,75409-4493,"(855) 668-2572",,,,
TX,TARRANT,PB20-12516,"Single Family Homes",9/16/2020,,176652,2804,"400 LOWERY OAKS TRL","FORT WORTH",TX,76120,"OAK RIDGE",1,CONTRACTOR,,,,,,,,,,,"LGI HOMES",,,,,"LGI HOMES","1913 PIN OAK TRL",ANNA,TX,75409-4493,"(855) 668-2572",,,,
TX,TARRANT,PB20-12517,"Single Family Homes",9/16/2020,,144207,2289,"7541 THUNDER RIVER RD","FORT WORTH",TX,76120,"OAK RIDGE",17,CONTRACTOR,,,,,,,,,,,"LGI HOMES",,,,,"LGI HOMES","1913 PIN OAK TRL",ANNA,TX,75409-4493,"(855) 668-2572",,,,
TX,TARRANT,PB20-12117,"Single Family Homes",9/16/2020,,473660,4306,"12148 WILLET RD","FORT WORTH",TX,76052,WELLINGTON,30,CONTRACTOR,,,,,,,,,,,"K HOVNANIAN HOMES",,,,,"K HOVNANIAN HOMES","5808 W PLANO PKWY",PLANO,TX,75093-4636,"(469) 737-1400",,,,
TX,TARRANT,PB20-12120,"Single Family Homes",9/16/2020,,303900,2300,"4965 MONTE VERDE DR","FORT WORTH",TX,76244,"WATSON CREEK ESTATES",16,CONTRACTOR,,,,,,,,,,,"K HOVNANIAN HOMES",,,,,"K HOVNANIAN HOMES","5808 W PLANO PKWY",PLANO,TX,75093-4636,"(469) 737-1400",,,,
TX,TARRANT,PB20-12129,"Single Family Homes",9/16/2020,,364868,3146,"2232 DRAKE ST","FORT WORTH",TX,76137,"WALSH RANCH QUAIL VALLEY",28,CONTRACTOR,,,,,,,,,,,"DAVID WEEKLEY HOMES",,,,,"DAVID WEEKLEY HOMES","2708 HILLSIDE DR","HIGHLAND VILLAGE",TX,75077-8653,"(972) 415-6059",http://www.davidweekleyhomes.com/,,,
TX,TARRANT,PB20-11965,"Single Family Homes",9/16/2020,,214401,2409,"857 E JESSAMINE ST","FORT WORTH",TX,76104,"HYDE PARK",304,CONTRACTOR,,,,,,,,,,,"LOCAL HOMES",,,,,"LOCAL HOMES","505 MAIN STREET FLOOR 5","FORT WORTH",TX,76102,"(817) 915-3568",,,,
TX,TARRANT,PB20-12713,"Single Family Homes",9/17/2020,,155000,3142,"1416 SILENT SPRINGS DR","FORT WORTH",TX,76052,"SPRING RANCH",11,CONTRACTOR,,,,,,,,,,,"STEVE HAWKINS CUSTOM HOMES",,,,,"STEVE HAWKINS CUSTOM HOMES","7201 HAWKINS VIEW DR STE 101","FORT WORTH",TX,76132-3935,"(817) 737-4446",http://stevehawkinshomes.com/,"(817) 737-4858",,Laura@stevehawkinshomes.com
TX,TARRANT,PB20-12744,"Single Family Homes",9/17/2020,,162162,2574,"8401 SMOKEY CREEK PASS","FORT WORTH",TX,76179,"QUARTER HORSE ESTATES",32,CONTRACTOR,,,,,,,,,,,"LGI HOMES",,,,,"LGI HOMES","1913 PIN OAK TRL",ANNA,TX,75409-4493,"(855) 668-2572",,,,
TX,TARRANT,PB20-12745,"Single Family Homes",9/17/2020,,132993,2111,"8325 SMOKEY CREEK PASS","FORT WORTH",TX,76179,"QUARTER HORSE ESTATES",16,CONTRACTOR,,,,,,,,,,,"LGI HOMES",,,,,"LGI HOMES","1913 PIN OAK TRL",ANNA,TX,75409-4493,"(855) 668-2572",,,,
TX,TARRANT,PB20-12447,"Single Family Homes",9/17/2020,,126000,2535,"1001 GILLESPIE DR","FORT WORTH",TX,76247,"TRAILS OF ELIZABETH CREEK",28,CONTRACTOR,,,,,,,,,,,"DR HORTON",,,,,"DR HORTON","6751 NORTH FWY","FT WORTH",TX,76131-2802,"(817) 230-0800",,,,
TX,TARRANT,PB20-12496,"Single Family Homes",9/17/2020,,122000,2412,"1013 GILLESPIE DR","FORT WORTH",TX,76247,"CHARLES TIDINGS",,CONTRACTOR,,,,,,,,,,,"DR HORTON",,,,,"DR HORTON","6751 NORTH FWY","FT WORTH",TX,76131-2802,"(817) 230-0800",,,,
TX,TARRANT,PB20-12490,"Single Family Homes",9/17/2020,,163000,4309,"800 SWEEPING BUTTE DR","FORT WORTH",TX,76052,"WILLOW RIDGE ESTATES",19,CONTRACTOR,,,,,,,,,,,"PULTE HOMES",,,,,"PULTE HOMES","4800 REGENT BLVD",IRVING,TX,75063-2439,"(972) 304-2800",,,,
TX,TARRANT,PB20-12491,"Single Family Homes",9/17/2020,,155000,3876,"813 SWEEPING BUTTE DR","FORT WORTH",TX,76052,,,CONTRACTOR,,,,,,,,,,,"DR HORTON",,,,,"DR HORTON","6751 NORTH FWY","FT WORTH",TX,76131-2802,"(817) 230-0800",,,,
TX,TARRANT,PB20-12494,"Single Family Homes",9/17/2020,,110000,2389,"933 CREST BREEZE DR","FORT WORTH",TX,76052,,,CONTRACTOR,,,,,,,,,,,"PULTE HOMES",,,,,"PULTE HOMES","4800 REGENT BLVD",IRVING,TX,75063-2439,"(972) 304-2800",,,,
TX,TARRANT,PB20-12457,"Single Family Homes",9/17/2020,,118000,2247,"1005 GILLESPIE DR","FORT WORTH",TX,76247,"TRAILS OF ELIZABETH CREEK",27,CONTRACTOR,,,,,,,,,,,"DR HORTON",,,,,"DR HORTON","6751 NORTH FWY","FT WORTH",TX,76131-2802,"(817) 230-0800",,,,
TX,TARRANT,PB20-12133,"Single Family Homes",9/17/2020,,127000,3550,"1045 BLACKHORSE TRL","FORT WORTH",TX,76247,"TRAILS OF ELIZABETH CREEK",31,CONTRACTOR,,,,,,,,,,,"DR HORTON",,,,,"DR HORTON","6751 NORTH FWY","FT WORTH",TX,76131-2802,"(817) 230-0800",,,,
TX,TARRANT,PB20-12134,"Single Family Homes",9/17/2020,,118000,2247,"1032 BLACKHORSE TRL","FORT WORTH",TX,76247,"TRAILS OF ELIZABETH CREEK",9,CONTRACTOR,,,,,,,,,,,"DR HORTON",,,,,"DR HORTON","6751 NORTH FWY","FT WORTH",TX,76131-2802,"(817) 230-0800",,,,
TX,TARRANT,PB20-12173,"Single Family Homes",9/17/2020,,126000,2535,"1052 GILLESPIE DR","FORT WORTH",TX,76247,"TRAILS OF ELIZABETH CREEK",8,CONTRACTOR,,,,,,,,,,,"DR HORTON",,,,,"DR HORTON","6751 NORTH FWY","FT WORTH",TX,76131-2802,"(817) 230-0800",,,,
TX,TARRANT,PB20-12175,"Single Family Homes",9/17/2020,,152000,3443,"1048 GILLESPIE DR","FORT WORTH",TX,76247,"TRAILS OF ELIZABETH CREEK",7,CONTRACTOR,,,,,,,,,,,"DR HORTON",,,,,"DR HORTON","6751 NORTH FWY","FT WORTH",TX,76131-2802,"(817) 230-0800",,,,
TX,TARRANT,PB20-12026,"Single Family Homes",9/17/2020,,151000,3393,"1016 BLACKHORSE TRL","FORT WORTH",TX,76247,"TRAILS OF ELIZABETH CREEK",5,CONTRACTOR,,,,,,,,,,,"DR HORTON",,,,,"DR HORTON","6751 NORTH FWY","FT WORTH",TX,76131-2802,"(817) 230-0800",,,,
TX,TARRANT,PB20-12248,"Single Family Homes",9/17/2020,,136000,2928,"15112 GLADSTONE DR","FORT WORTH",TX,76087,MORNINGSTAR,7,CONTRACTOR,,,,,,,,,,,"DR HORTON",,,,,"DR HORTON","6751 NORTH FWY","FT WORTH",TX,76131-2802,"(817) 230-0800",,,,
TX,TARRANT,PB20-12252,"Single Family Homes",9/17/2020,,137000,2958,"15125 GLADSTONE DR","FORT WORTH",TX,76087,MORNINGSTAR,4,CONTRACTOR,,,,,,,,,,,"DR HORTON",,,,,"DR HORTON","6751 NORTH FWY","FT WORTH",TX,76131-2802,"(817) 230-0800",,,,
TX,TARRANT,PB20-12246,"Single Family Homes",9/17/2020,,137000,2942,"15104 GLADSTONE DR","FORT WORTH",TX,76087,MORNINGSTAR,9,CONTRACTOR,,,,,,,,,,,"DR HORTON",,,,,"DR HORTON","6751 NORTH FWY","FT WORTH",TX,76131-2802,"(817) 230-0800",,,,
TX,TARRANT,PB20-12222,"Single Family Homes",9/17/2020,,126000,2535,"1041 GILLESPIE DR","FORT WORTH",TX,76247,"TRAILS OF ELIZABETH CREEK",18,CONTRACTOR,,,,,,,,,,,"DR HORTON",,,,,"DR HORTON","6751 NORTH FWY","FT WORTH",TX,76131-2802,"(817) 230-0800",,,,
TX,TARRANT,PB20-12223,"Single Family Homes",9/17/2020,,130000,2681,"1045 GILLESPIE DR","FORT WORTH",TX,76247,"TRAILS OF ELIZABETH CREEK",17,CONTRACTOR,,,,,,,,,,,"DR HORTON",,,,,"DR HORTON","6751 NORTH FWY","FT WORTH",TX,76131-2802,"(817) 230-0800",,,,
TX,TARRANT,PB20-12224,"Single Family Homes",9/17/2020,,122000,2405,"1049 GILLESPIE DR","FORT WORTH",TX,76247,"TRAILS OF ELIZABETH CREEK",16,CONTRACTOR,,,,,,,,,,,"DR HORTON",,,,,"DR HORTON","6751 NORTH FWY","FT WORTH",TX,76131-2802,"(817) 230-0800",,,,
TX,TARRANT,PB20-12225,"Single Family Homes",9/17/2020,,132000,2733,"1053 GILLESPIE DR","FORT WORTH",TX,76247,"TRAILS OF ELIZABETH CREEK",15,CONTRACTOR,,,,,,,,,,,"DR HORTON",,,,,"DR HORTON","6751 NORTH FWY","FT WORTH",TX,76131-2802,"(817) 230-0800",,,,
TX,TARRANT,PB20-12528,"Single Family Homes",9/17/2020,,118000,2247,"1028 GILLESPIE DR","FORT WORTH",TX,76247,"TRAILS OF ELIZABETH CREEK",2,CONTRACTOR,,,,,,,,,,,"DR HORTON",,,,,"DR HORTON","6751 NORTH FWY","FT WORTH",TX,76131-2802,"(817) 230-0800",,,,
TX,TARRANT,PB20-12531,"Single Family Homes",9/17/2020,,132000,2733,"1029 GILLESPIE DR","FORT WORTH",TX,76247,"TRAILS OF ELIZABETH CREEK",21,CONTRACTOR,,,,,,,,,,,"DR HORTON",,,,,"DR HORTON","6751 NORTH FWY","FT WORTH",TX,76131-2802,"(817) 230-0800",,,,
TX,TARRANT,PB20-12499,"Single Family Homes",9/17/2020,,149000,3350,"1024 GILLESPIE DR","FORT WORTH",TX,76247,,,CONTRACTOR,,,,,,,,,,,"DR HORTON",,,,,"DR HORTON","6751 NORTH FWY","FT WORTH",TX,76131-2802,"(817) 230-0800",,,,
TX,TARRANT,PB20-12535,"Single Family Homes",9/17/2020,,121000,2384,"1032 GILLESPIE DR","FORT WORTH",TX,76247,"TRAILS OF ELIZABETH CREEK",3,CONTRACTOR,,,,,,,,,,,"DR HORTON",,,,,"DR HORTON","6751 NORTH FWY","FT WORTH",TX,76131-2802,"(817) 230-0800",,,,
TX,TARRANT,PB20-12537,"Single Family Homes",9/17/2020,,126000,2535,"1033 GILLESPIE DR","FORT WORTH",TX,76247,"TRAILS OF ELIZABETH CREEK",20,CONTRACTOR,,,,,,,,,,,"DR HORTON",,,,,"DR HORTON","6751 NORTH FWY","FT WORTH",TX,76131-2802,"(817) 230-0800",,,,
TX,TARRANT,PB20-12540,"Single Family Homes",9/17/2020,,141000,3047,"1036 GILLESPIE DR","FORT WORTH",TX,76247,"TRAILS OF ELIZABETH CREEK",4,CONTRACTOR,,,,,,,,,,,"DR HORTON",,,,,"DR HORTON","6751 NORTH FWY","FT WORTH",TX,76131-2802,"(817) 230-0800",,,,
TX,TARRANT,PB20-12542,"Single Family Homes",9/17/2020,,149000,3350,"1037 GILLESPIE DR","FORT WORTH",TX,76247,"TRAILS OF ELIZABETH CREEK",19,CONTRACTOR,,,,,,,,,,,"DR HORTON",,,,,"DR HORTON","6751 NORTH FWY","FT WORTH",TX,76131-2802,"(817) 230-0800",,,,
TX,TARRANT,PB20-12545,"Single Family Homes",9/17/2020,,122000,2384,"1040 GILLESPIE DR","FORT WORTH",TX,76247,"TRAILS OF ELIZABETH CREEK",5,CONTRACTOR,,,,,,,,,,,"DR HORTON",,,,,"DR HORTON","6751 NORTH FWY","FT WORTH",TX,76131-2802,"(817) 230-0800",,,,
TX,TARRANT,PB20-12546,"Single Family Homes",9/17/2020,,126000,2535,"1104 NAPIER WAY","FORT WORTH",TX,76247,"TRAILS OF ELIZABETH CREEK",19,CONTRACTOR,,,,,,,,,,,"DR HORTON",,,,,"DR HORTON","6751 NORTH FWY","FT WORTH",TX,76131-2802,"(817) 230-0800",,,,
TX,TARRANT,PB20-12548,"Single Family Homes",9/17/2020,,122000,2387,"1100 NAPIER WAY","FORT WORTH",TX,76247,"TRAILS OF ELIZABETH CREEK",1,CONTRACTOR,,,,,,,,,,,"DR HORTON",,,,,"DR HORTON","6751 NORTH FWY","FT WORTH",TX,76131-2802,"(817) 230-0800",,,,
TX,TARRANT,PB20-12579,"Single Family Homes",9/17/2020,,123000,2449,"733 CHAPLIN DR","FORT WORTH",TX,76247,"CHARLES TIDINGS",,CONTRACTOR,,,,,,,,,,,"DR HORTON",,,,,"DR HORTON","6751 NORTH FWY","FT WORTH",TX,76131-2802,"(817) 230-0800",,,,
TX,TARRANT,PB20-12650,"Single Family Homes",9/17/2020,,126000,2535,"729 CHAPLIN DR","FORT WORTH",TX,76247,"TRAILS OF ELIZABETH CREEK",46,CONTRACTOR,,,,,,,,,,,"DR HORTON",,,,,"DR HORTON","6751 NORTH FWY","FT WORTH",TX,76131-2802,"(817) 230-0800",,,,
TX,TARRANT,PB20-12651,"Single Family Homes",9/17/2020,,152000,3443,"713 CHAPLIN DR","FORT WORTH",TX,76247,"TRAILS OF ELIZABETH CREEK",50,CONTRACTOR,,,,,,,,,,,"DR HORTON",,,,,"DR HORTON","6751 NORTH FWY","FT WORTH",TX,76131-2802,"(817) 230-0800",,,,
TX,TARRANT,PB20-12612,"Single Family Homes",9/17/2020,,132000,2733,"741 CHAPLIN DR","FORT WORTH",TX,76247,"TRAILS OF ELIZABETH CREEK",43,CONTRACTOR,,,,,,,,,,,"DR HORTON",,,,,"DR HORTON","6751 NORTH FWY","FT WORTH",TX,76131-2802,"(817) 230-0800",,,,
TX,TARRANT,PB20-12582,"Single Family Homes",9/17/2020,,130000,2680,"725 CHAPLIN DR","FORT WORTH",TX,76247,"CHARLES TIDINGS",,CONTRACTOR,,,,,,,,,,,"DR HORTON",,,,,"DR HORTON","6751 NORTH FWY","FT WORTH",TX,76131-2802,"(817) 230-0800",,,,
TX,TARRANT,PB20-12607,"Single Family Homes",9/17/2020,,114000,2516,"6012 COPPERMILL RD","FORT WORTH",TX,76137,"FOSSIL CREEK",,CONTRACTOR,,,,,,,,,,,"PULTE HOMES",,,,,"PULTE HOMES","4800 REGENT BLVD",IRVING,TX,75063-2439,"(972) 304-2800",,,,
TX,TARRANT,PB20-12141,"Single Family Homes",9/17/2020,,126000,2535,"1012 BLACKHORSE TRL","FORT WORTH",TX,76247,"TRAILS OF ELIZABETH CREEK",4,CONTRACTOR,,,,,,,,,,,"DR HORTON",,,,,"DR HORTON","6751 NORTH FWY","FT WORTH",TX,76131-2802,"(817) 230-0800",,,,
TX,TARRANT,PB20-12145,"Single Family Homes",9/17/2020,,122000,2387,"1009 BLACKHORSE TRL","FORT WORTH",TX,76247,"TRAILS OF ELIZABETH CREEK",40,CONTRACTOR,,,,,,,,,,,"DR HORTON",,,,,"DR HORTON","6751 NORTH FWY","FT WORTH",TX,76131-2802,"(817) 230-0800",,,,
TX,TARRANT,PB20-12147,"Single Family Homes",9/17/2020,,132000,2733,"1008 BLACKHORSE TRL","FORT WORTH",TX,76247,"TRAILS OF ELIZABETH CREEK",3,CONTRACTOR,,,,,,,,,,,"DR HORTON",,,,,"DR HORTON","6751 NORTH FWY","FT WORTH",TX,76131-2802,"(817) 230-0800",,,,
TX,TARRANT,PB20-12149,"Single Family Homes",9/17/2020,,126000,2535,"1004 BLACKHORSE TRL","FORT WORTH",TX,76247,"TRAILS OF ELIZABETH CREEK",2,CONTRACTOR,,,,,,,,,,,"DR HORTON",,,,,"DR HORTON","6751 NORTH FWY","FT WORTH",TX,76131-2802,"(817) 230-0800",,,,
TX,TARRANT,PB20-12151,"Single Family Homes",9/17/2020,,131000,3350,"1000 BLACKHORSE TRL","FORT WORTH",TX,76247,"TRAILS OF ELIZABETH CREEK",1,CONTRACTOR,,,,,,,,,,,"DR HORTON",,,,,"DR HORTON","6751 NORTH FWY","FT WORTH",TX,76131-2802,"(817) 230-0800",,,,
TX,TARRANT,PB20-11999,"Single Family Homes",9/17/2020,,118000,2247,"1048 BLACKHORSE TRL","FORT WORTH",TX,76247,"TRAILS OF ELIZABETH CREEK",13,CONTRACTOR,,,,,,,,,,,"DR HORTON",,,,,"DR HORTON","6751 NORTH FWY","FT WORTH",TX,76131-2802,"(817) 230-0800",,,,
TX,TARRANT,PB20-12003,"Single Family Homes",9/17/2020,,126000,2535,"1044 BLACKHORSE TRL","FORT WORTH",TX,76247,"TRAILS OF ELIZABETH CREEK",12,CONTRACTOR,,,,,,,,,,,"DR HORTON",,,,,"DR HORTON","6751 NORTH FWY","FT WORTH",TX,76131-2802,"(817) 230-0800",,,,
TX,TARRANT,PB20-12014,"Single Family Homes",9/17/2020,,126000,2535,"1028 BLACKHORSE TRL","FORT WORTH",TX,76247,"TRAILS OF ELIZABETH CREEK",8,CONTRACTOR,,,,,,,,,,,"DR HORTON",,,,,"DR HORTON","6751 NORTH FWY","FT WORTH",TX,76131-2802,"(817) 230-0800",,,,
TX,TARRANT,PB20-12015,"Single Family Homes",9/17/2020,,152000,3443,"1025 BLACKHORSE TRL","FORT WORTH",TX,76247,"TRAILS OF ELIZABETH CREEK",36,CONTRACTOR,,,,,,,,,,,"DR HORTON",,,,,"DR HORTON","6751 NORTH FWY","FT WORTH",TX,76131-2802,"(817) 230-0800",,,,
TX,TARRANT,PB20-12018,"Single Family Homes",9/17/2020,,141000,3383,"1024 BLACKHORSE TRL","FORT WORTH",TX,76247,"TRAILS OF ELIZABETH CREEK",7,CONTRACTOR,,,,,,,,,,,"DR HORTON",,,,,"DR HORTON","6751 NORTH FWY","FT WORTH",TX,76131-2802,"(817) 230-0800",,,,
TX,TARRANT,PB20-12021,"Single Family Homes",9/17/2020,,123000,2449,"1021 BLACKHORSE TRL","FORT WORTH",TX,76247,"TRAILS OF ELIZABETH CREEK",37,CONTRACTOR,,,,,,,,,,,"DR HORTON",,,,,"DR HORTON","6751 NORTH FWY","FT WORTH",TX,76131-2802,"(817) 230-0800",,,,
TX,TARRANT,"20 - 0318","Single Family Homes",9/2/2020,,74000,,"4324 JOY LEE ST","HALTOM CITY",TX,77340,,,CONTRACTOR,,,,,,,,,,,"HABITAT FOR HUMANITY-DALLAS",,,,,"HABITAT FOR HUMANITY-DALLAS","2800 N HAMPTON RD",DALLAS,TX,75212-5029,"(214) 678-2300",http://www.dallasareahabitat.org/web/guest/home,"(214) 678-2380",,
TX,TARRANT,"20 - 2412","Single Family Homes",9/2/2020,,287980,,"5421 HIGH POINTE DR","HALTOM CITY",TX,77340,,,CONTRACTOR,,,,,,,,,,,"DAVID WEEKLEY HOMES",,,,,"DAVID WEEKLEY HOMES","2708 HILLSIDE DR","HIGHLAND VILLAGE",TX,75077-8653,"(972) 415-6059",http://www.davidweekleyhomes.com/,,,
TX,TARRANT,"20 - 2413","Single Family Homes",9/2/2020,,293477,,"5404 HIGHVIEW CT","HALTOM CITY",TX,77340,,,CONTRACTOR,,,,,,,,,,,"DAVID WEEKLEY HOMES",,,,,"DAVID WEEKLEY HOMES","2708 HILLSIDE DR","HIGHLAND VILLAGE",TX,75077-8653,"(972) 415-6059",http://www.davidweekleyhomes.com/,,,
TX,TARRANT,"20 - 2455","Single Family Homes",9/8/2020,,253384,,"5436 WEDGE WOOD DR","HALTOM CITY",TX,77340,,,CONTRACTOR,,,,,,,,,,,"DAVID WEEKLEY HOMES",,,,,"DAVID WEEKLEY HOMES","2708 HILLSIDE DR","HIGHLAND VILLAGE",TX,75077-8653,"(972) 415-6059",http://www.davidweekleyhomes.com/,,,
TX,TARRANT,"20 - 2511","Single Family Homes",9/10/2020,,334900,,"5441 HIGH POINTE DR","HALTOM CITY",TX,77340,,,CONTRACTOR,,,,,,,,,,,"K HOVNANIAN HOMES",,,,,"K HOVNANIAN HOMES","5808 W PLANO PKWY",PLANO,TX,75093-4636,"(469) 737-1400",,,,
TX,TARRANT,"20 - 2512","Single Family Homes",9/1/2020,,328900,,"4732 BLUFFVIEW DR","HALTOM CITY",TX,77340,,,CONTRACTOR,,,,,,,,,,,"K HOVNANIAN HOMES",,,,,"K HOVNANIAN HOMES","5808 W PLANO PKWY",PLANO,TX,75093-4636,"(469) 737-1400",,,,
TX,TARRANT,"20 - 2628","Single Family Homes",9/16/2020,,258521,,"5444 HIGH POINTE DR","HALTOM CITY",TX,77340,,,CONTRACTOR,,,,,,,,,,,"DAVID WEEKLEY HOMES",,,,,"DAVID WEEKLEY HOMES","2708 HILLSIDE DR","HIGHLAND VILLAGE",TX,75077-8653,"(972) 415-6059",http://www.davidweekleyhomes.com/,,,
TX,TARRANT,"20 - 2662","Single Family Homes",9/15/2020,,333900,,"4727 BLUFFVIEW DR","HALTOM CITY",TX,77340,,,CONTRACTOR,,,,,,,,,,,"K HOVNANIAN HOMES",,,,,"K HOVNANIAN HOMES","5808 W PLANO PKWY",PLANO,TX,75093-4636,"(469) 737-1400",,,,
TX,TARRANT,"20 - 2663","Single Family Homes",9/15/2020,,327900,,"5454 RIDGEWAY DR","HALTOM CITY",TX,77340,,,CONTRACTOR,,,,,,,,,,,"K HOVNANIAN HOMES",,,,,"K HOVNANIAN HOMES","5808 W PLANO PKWY",PLANO,TX,75093-4636,"(469) 737-1400",,,,
TX,TARRANT,"20 - 2675","Single Family Homes",9/16/2020,,286935,,"5452 HIGH POINTE DR","HALTOM CITY",TX,77340,,,CONTRACTOR,,,,,,,,,,,"DAVID WEEKLEY HOMES",,,,,"DAVID WEEKLEY HOMES","2708 HILLSIDE DR","HIGHLAND VILLAGE",TX,75077-8653,"(972) 415-6059",http://www.davidweekleyhomes.com/,,,
TX,TARRANT,"20 - 2710","Single Family Homes",9/15/2020,,327900,,"4731 BLUFFVIEW DR","HALTOM CITY",TX,77340,,,CONTRACTOR,,,,,,,,,,,"K HOVNANIAN HOMES",,,,,"K HOVNANIAN HOMES","5808 W PLANO PKWY",PLANO,TX,75093-4636,"(469) 737-1400",,,,
TX,DALLAS,2008-0160,"Single Family Homes",9/3/2020,,131700,,"4859 CLOUDCROFT LN",IRVING,TX,75093,,,CONTRACTOR,,,,,,,,,,,"DOUBLE EAGLE POOLS",,,,,"DOUBLE EAGLE POOLS","1301 SOLANA BLVD SUITE 1480B",WESTLAKE,TX,76262,"(972) 961-7768",,,,
TX,DALLAS,2001-0067,"Single Family Homes",9/23/2020,,300000,3088,"431 W PIONEER DR",IRVING,TX,75093,,,CONTRACTOR,,,,,,,,,,,"BEAR CONSTRUCTION",,,,,"BEAR CONSTRUCTION","4825 PERSHING AVE","FORT WORTH",TX,76107-4929,"(817) 938-7885",,,"Adam Jordan",
TX,DALLAS,2001-0069,"Single Family Homes",9/23/2020,,300000,,"433 W PIONEER DR",IRVING,TX,75093,,,CONTRACTOR,,,,,,,,,,,"BEAR CONSTRUCTION",,,,,"BEAR CONSTRUCTION","4825 PERSHING AVE","FORT WORTH",TX,76107-4929,"(817) 938-7885",,,"Adam Jordan",
TX,DALLAS,2002-0255,"Single Family Homes",9/23/2020,,450000,3188,"6828 VERANDAH WAY",IRVING,TX,75093,,,CONTRACTOR,,,,,,,,,,,"DARLING HOMES",,,,,"DARLING HOMES","2500 LEGACY DR STE 100",FRISCO,TX,75034-5984,"(469) 252-2200",http://www.darlinghomes.com/,,,
TX,DALLAS,B2002-0362,"Single Family Homes",9/4/2020,,350000,,"520 S WILDWOOD DR",IRVING,TX,75093,,,CONTRACTOR,,,,,,,,,,,"PREMIUM HOME DESIGN",,,,,"PREMIUM HOME DESIGN","17630 DAVENPORT RD",DALLAS,TX,75252,"(972) 603-6794",https://www.premiumhomedesignllc.com,,,
TX,DALLAS,2003-0050,"Single Family Homes",9/23/2020,,400000,,"429 W PIONEER DR",IRVING,TX,75093,,,CONTRACTOR,,,,,,,,,,,"BEAR CONSTRUCTION",,,,,"BEAR CONSTRUCTION","4825 PERSHING AVE","FORT WORTH",TX,76107-4929,"(817) 938-7885",,,"Adam Jordan",
TX,DALLAS,2003-0270,"Single Family Homes",9/25/2020,,355194,4121,"4327 AUDUBON LN",IRVING,TX,75093,,,CONTRACTOR,,,,,,,,,,,"MHI MCGUYER HOMEBUILDERS",,,,,"MHI MCGUYER HOMEBUILDERS","1501 LYNDON B JOHNSON FWY STE 100",DALLAS,TX,75234-6029,"(972) 277-3811",,,,
TX,DALLAS,2007-0333,"Single Family Homes",9/11/2020,,425000,4738,"1326 BLUEGILL BAY RD",IRVING,TX,75093,,,CONTRACTOR,,,,,,,,,,,"AMERICAN LEGEND HOMES",,,,,"AMERICAN LEGEND HOMES","2540 KING ARTHUR BLVD STE 200",LEWISVILLE,TX,75056-5833,"(972) 410-5701",http://www.amlegendhomes.com/,"(972) 410-5750",,
TX,DALLAS,2007-0426,"Single Family Homes",9/2/2020,,383400,,"1312 ENGLISH ST",IRVING,TX,75093,,,CONTRACTOR,,,,,,,,,,,"CORNERSTONE BUILDERS & DESIGN",,,,,"CORNERSTONE BUILDERS & DESIGN","3504 BERKWOOD PL",FRISCO,TX,75034-0672,"(214) 950-0726",,,,
TX,DALLAS,2007-0487,"Single Family Homes",9/2/2020,,347394,3986,"4554 AUDUBON LN",IRVING,TX,75093,,,CONTRACTOR,,,,,,,,,,,"MHI MCGUYER HOMEBUILDERS",,,,,"MHI MCGUYER HOMEBUILDERS","1501 LYNDON B JOHNSON FWY STE 100",DALLAS,TX,75234-6029,"(972) 277-3811",,,,
TX,DALLAS,2008-0097,"Single Family Homes",9/10/2020,,365000,2229,"901 BOWMAN ST",IRVING,TX,75093,,,CONTRACTOR,,,,,,,,,,,"M K G HOMES",,,,,"M K G HOMES","6749 BENNETT LAWSON RD",MANSFIELD,TX,76063-4910,"(817) 504-7830",,,,
TX,DALLAS,2008-0222,"Single Family Homes",9/11/2020,,280000,,"2005 BETHLEHEM ST",IRVING,TX,75093,,,CONTRACTOR,,,,,,,,,,,"SERENE BUILDER",,,,,"SERENE BUILDER","811 S CENTRAL EXPY STE 600",RICHARDSON,TX,75080,"(972) 737-5001",,,,
TX,DALLAS,2008-0227,"Single Family Homes",9/11/2020,,280000,2520,"2009 BETHLEHEM ST",IRVING,TX,75093,,,CONTRACTOR,,,,,,,,,,,"SERENE BUILDER",,,,,"SERENE BUILDER","811 S CENTRAL EXPY STE 600",RICHARDSON,TX,75080,"(972) 737-5001",,,,
TX,DALLAS,2008-0228,"Single Family Homes",9/11/2020,,280000,,"2015 BETHLEHEM ST",IRVING,TX,75093,,,CONTRACTOR,,,,,,,,,,,"SERENE BUILDER",,,,,"SERENE BUILDER","811 S CENTRAL EXPY STE 600",RICHARDSON,TX,75080,"(972) 737-5001",,,,
TX,DALLAS,2008-0229,"Single Family Homes",9/11/2020,,280000,2687,"2019 BETHLEHEM ST",IRVING,TX,75093,,,CONTRACTOR,,,,,,,,,,,"SERENE BUILDER",,,,,"SERENE BUILDER","811 S CENTRAL EXPY STE 600",RICHARDSON,TX,75080,"(972) 737-5001",,,,
TX,DALLAS,2008-0238,"Single Family Homes",9/11/2020,,280000,,"2008 BETHLEHEM ST",IRVING,TX,75093,,,CONTRACTOR,,,,,,,,,,,"SERENE BUILDER",,,,,"SERENE BUILDER","811 S CENTRAL EXPY STE 600",RICHARDSON,TX,75080,"(972) 737-5001",,,,
TX,DALLAS,2008-0239,"Single Family Homes",9/11/2020,,280000,,"2012 BETHLEHEM ST",IRVING,TX,75093,,,CONTRACTOR,,,,,,,,,,,"SERENE BUILDER",,,,,"SERENE BUILDER","811 S CENTRAL EXPY STE 600",RICHARDSON,TX,75080,"(972) 737-5001",,,,
TX,DALLAS,2008-0240,"Single Family Homes",9/11/2020,,280000,2622,"2016 BETHLEHEM ST",IRVING,TX,75093,,,CONTRACTOR,,,,,,,,,,,"SERENE BUILDER",,,,,"SERENE BUILDER","811 S CENTRAL EXPY STE 600",RICHARDSON,TX,75080,"(972) 737-5001",,,,
TX,DALLAS,2008-0259,"Single Family Homes",9/24/2020,,380000,3524,"936 GILBERT RD",IRVING,TX,75093,,,CONTRACTOR,,,,,,,,,,,"DH2 HOMES",,,,,"DH2 HOMES","1016 CARVER LN",IRVING,TX,75061-3907,"(214) 228-9193",,,,
TX,DALLAS,2008-0283,"Single Family Homes",9/1/2020,,250000,2650,"637 DALTON LN",IRVING,TX,75093,,,CONTRACTOR,,,,,,,,,,,"INTOWN HOMES",,,,,"INTOWN HOMES","1520 OLIVER ST",HOUSTON,TX,77007,"(713) 961-3877",http://www.intown-homes.com/,,,
TX,DALLAS,2008-0285,"Single Family Homes",9/1/2020,,250000,2656,"641 DALTON LN",IRVING,TX,75093,,,CONTRACTOR,,,,,,,,,,,"INTOWN HOMES",,,,,"INTOWN HOMES","1520 OLIVER ST",HOUSTON,TX,77007,"(713) 961-3877",http://www.intown-homes.com/,,,
TX,DALLAS,2008-0296,"Single Family Homes",9/1/2020,,250000,2656,"645 DALTON LN",IRVING,TX,75093,,,CONTRACTOR,,,,,,,,,,,"INTOWN HOMES",,,,,"INTOWN HOMES","1520 OLIVER ST",HOUSTON,TX,77007,"(713) 961-3877",http://www.intown-homes.com/,,,
TX,DALLAS,2008-0297,"Single Family Homes",9/1/2020,,250000,2656,"649 DALTON LN",IRVING,TX,75093,,,CONTRACTOR,,,,,,,,,,,"INTOWN HOMES",,,,,"INTOWN HOMES","1520 OLIVER ST",HOUSTON,TX,77007,"(713) 961-3877",http://www.intown-homes.com/,,,
TX,DALLAS,2008-0298,"Single Family Homes",9/1/2020,,250000,,"653 DALTON LN",IRVING,TX,75093,,,CONTRACTOR,,,,,,,,,,,"INTOWN HOMES",,,,,"INTOWN HOMES","1520 OLIVER ST",HOUSTON,TX,77007,"(713) 961-3877",http://www.intown-homes.com/,,,
TX,DALLAS,2008-0436,"Single Family Homes",9/3/2020,,410000,4784,"10704 CANOE DR",IRVING,TX,75093,,,CONTRACTOR,,,,,,,,,,,"AMERICAN LEGEND HOMES",,,,,"AMERICAN LEGEND HOMES","2540 KING ARTHUR BLVD STE 200",LEWISVILLE,TX,75056-5833,"(972) 410-5701",http://www.amlegendhomes.com/,"(972) 410-5750",,
TX,DALLAS,2009-0005,"Single Family Homes",9/3/2020,,425000,4732,"1379 MINNOW RD",IRVING,TX,75093,,,CONTRACTOR,,,,,,,,,,,"AMERICAN LEGEND HOMES",,,,,"AMERICAN LEGEND HOMES","2540 KING ARTHUR BLVD STE 200",LEWISVILLE,TX,75056-5833,"(972) 410-5701",http://www.amlegendhomes.com/,"(972) 410-5750",,
TX,DALLAS,2009-0034,"Single Family Homes",9/14/2020,,275000,2934,"208 HARPER ST",IRVING,TX,75093,,,CONTRACTOR,,,,,,,,,,,"ASHTON WOODS HOMES",,,,,"ASHTON WOODS HOMES","1221 N INTERSTATE 35E STE 170",CARROLLTON,TX,75006-3806,"(972) 428-5404",,,,
TX,DALLAS,2009-0056,"Single Family Homes",9/8/2020,,380000,,"7664 SONIAN FOREST DR",IRVING,TX,75093,,,CONTRACTOR,,,,,,,,,,,"GEHAN HOMES",,,,,"GEHAN HOMES","14901 QUORUM DR STE 300",DALLAS,TX,75254-6735,"(972) 383-4300",http://www.gehanhomes.com,,,
TX,DALLAS,2009-0057,"Single Family Homes",9/8/2020,,350000,,"7847 UXBRIDGE DR",IRVING,TX,75093,,,CONTRACTOR,,,,,,,,,,,"GEHAN HOMES",,,,,"GEHAN HOMES","14901 QUORUM DR STE 300",DALLAS,TX,75254-6735,"(972) 383-4300",http://www.gehanhomes.com,,,
TX,DALLAS,2009-0058,"Single Family Homes",9/15/2020,,425000,,"307 CHANDAN WAY",IRVING,TX,75093,,,CONTRACTOR,,,,,,,,,,,"GRAND HOMES",,,,,"GRAND HOMES","15455 DALLAS PKWY STE 1000",ADDISON,TX,75001-6772,"(214) 750-6528",http://www.grandhomes.com/,"(214) 750-6849",,info@grandhomes.com
TX,DALLAS,2009-0059,"Single Family Homes",9/17/2020,,360000,3755,"4443 ZAHIR CT",IRVING,TX,75093,,,CONTRACTOR,,,,,,,,,,,"ALUX CONSTRUCTION & DEVELOPMENT",,,,,"ALUX CONSTRUCTION & DEVELOPMENT","2071 N COLLINS BLVD STE 200",RICHARDSON,TX,75080-2697,"(972) 423-2714",,,,
TX,DALLAS,2009-0069,"Single Family Homes",9/10/2020,,275000,3108,"9935 BATES ST",IRVING,TX,75063,,,CONTRACTOR,,,,,,,,,,,"PULTE HOMES",,,,,"PULTE HOMES","4800 REGENT BLVD",IRVING,TX,75063-2439,"(972) 304-2800",,,,
TX,DALLAS,2009-0070,"Single Family Homes",9/10/2020,,275000,,"9947 BATES ST",IRVING,TX,75093,,,CONTRACTOR,,,,,,,,,,,"PULTE HOMES",,,,,"PULTE HOMES","4800 REGENT BLVD",IRVING,TX,75063-2439,"(972) 304-2800",,,,
TX,DALLAS,2009-0098,"Single Family Homes",9/14/2020,,334900,2537,"841 OHIO ST",IRVING,TX,75063,,,CONTRACTOR,,,,,,,,,,,"K HOVNANIAN HOMES",,,,,"K HOVNANIAN HOMES","5808 W PLANO PKWY",PLANO,TX,75093-4636,"(469) 737-1400",,,,
TX,DALLAS,2009-0110,"Single Family Homes",9/15/2020,,634499,,"4562 AUDUBON LN",IRVING,TX,75063,,,CONTRACTOR,,,,,,,,,,,"LENNAR HOMES",,,,,"LENNAR HOMES","1707 MARKET PL STE 250",IRVING,TX,75063-8050,"(469) 587-5200",http://www.lennar.com/,,,
TX,DALLAS,2009-0121,"Single Family Homes",9/15/2020,,425000,,"1369 OTTER WAY",IRVING,TX,75093,,,CONTRACTOR,,,,,,,,,,,"AMERICAN LEGEND HOMES",,,,,"AMERICAN LEGEND HOMES","2540 KING ARTHUR BLVD STE 200",LEWISVILLE,TX,75056-5833,"(972) 410-5701",http://www.amlegendhomes.com/,"(972) 410-5750",,
TX,DALLAS,009-0122,"Single Family Homes",9/15/2020,,340000,3772,"10739 CANOE DR",IRVING,TX,75063,,,CONTRACTOR,,,,,,,,,,,"AMERICAN LEGEND HOMES",,,,,"AMERICAN LEGEND HOMES","2540 KING ARTHUR BLVD STE 200",LEWISVILLE,TX,75056-5833,"(972) 410-5701",http://www.amlegendhomes.com/,"(972) 410-5750",,
TX,DALLAS,2009-0143,"Single Family Homes",9/14/2020,,336900,2720,"622 PATRIOT LN",IRVING,TX,75093,,,CONTRACTOR,,,,,,,,,,,"K HOVNANIAN HOMES",,,,,"K HOVNANIAN HOMES","5808 W PLANO PKWY",PLANO,TX,75093-4636,"(469) 737-1400",,,,
TX,DALLAS,2009-0145,"Single Family Homes",9/14/2020,,345900,,"416 W SIXTH ST",IRVING,TX,75063,,,CONTRACTOR,,,,,,,,,,,"K HOVNANIAN HOMES",,,,,"K HOVNANIAN HOMES","5808 W PLANO PKWY",PLANO,TX,75093-4636,"(469) 737-1400",,,,
TX,DALLAS,2009-0150,"Single Family Homes",9/15/2020,,410000,,"7935 BANYAN WAY",IRVING,TX,75063,,,CONTRACTOR,,,,,,,,,,,"GRAND HOMES",,,,,"GRAND HOMES","15455 DALLAS PKWY STE 1000",ADDISON,TX,75001-6772,"(214) 750-6528",http://www.grandhomes.com/,"(214) 750-6849",,info@grandhomes.com
TX,DALLAS,2009-0156,"Single Family Homes",9/15/2020,,491880,4099,"4353 ARROYO DR",IRVING,TX,75093,,,CONTRACTOR,,,,,,,,,,,"LENNAR HOMES",,,,,"LENNAR HOMES","1707 MARKET PL STE 250",IRVING,TX,75063-8050,"(469) 587-5200",http://www.lennar.com/,,,
TX,DALLAS,2009-0158,"Single Family Homes",9/15/2020,,491880,,"4329 ARROYO DR",IRVING,TX,75063,,,CONTRACTOR,,,,,,,,,,,"LENNAR HOMES",,,,,"LENNAR HOMES","1707 MARKET PL STE 250",IRVING,TX,75063-8050,"(469) 587-5200",http://www.lennar.com/,,,
TX,DALLAS,2009-0179,"Single Family Homes",9/15/2020,,275000,3022,"220 HARPER ST",IRVING,TX,75063,,,CONTRACTOR,,,,,,,,,,,"ASHTON WOODS HOMES",,,,,"ASHTON WOODS HOMES","1221 N INTERSTATE 35E STE 170",CARROLLTON,TX,75006-3806,"(972) 428-5404",,,,
TX,DALLAS,2009-0201,"Single Family Homes",9/21/2020,,200000,,"216 HARPER ST",IRVING,TX,75093,,,CONTRACTOR,,,,,,,,,,,"ASHTON WOODS HOMES",,,,,"ASHTON WOODS HOMES","1221 N INTERSTATE 35E STE 170",CARROLLTON,TX,75006-3806,"(972) 428-5404",,,,
TX,DALLAS,2009-0203,"Single Family Homes",9/16/2020,,160000,1878,"212 HARPER ST",IRVING,TX,75063,,,CONTRACTOR,,,,,,,,,,,"ASHTON WOODS HOMES",,,,,"ASHTON WOODS HOMES","1221 N INTERSTATE 35E STE 170",CARROLLTON,TX,75006-3806,"(972) 428-5404",,,,
TX,DALLAS,2009-0206,"Single Family Homes",9/21/2020,,375000,,"10622 FLYCATCHER LN",IRVING,TX,75093,,,CONTRACTOR,,,,,,,,,,,"AMERICAN LEGEND HOMES",,,,,"AMERICAN LEGEND HOMES","2540 KING ARTHUR BLVD STE 200",LEWISVILLE,TX,75056-5833,"(972) 410-5701",http://www.amlegendhomes.com/,"(972) 410-5750",,
TX,DALLAS,2009-0214,"Single Family Homes",9/21/2020,,360072,,"6776 VERANDAH WAY",IRVING,TX,75093,,,CONTRACTOR,,,,,,,,,,,"DAVID WEEKLEY HOMES",,,,,"DAVID WEEKLEY HOMES","2708 HILLSIDE DR","HIGHLAND VILLAGE",TX,75077-8653,"(972) 415-6059",http://www.davidweekleyhomes.com/,,,
TX,DALLAS,2009-0215,"Single Family Homes",9/21/2020,,433800,3615,"4333 ARROYO DR",IRVING,TX,75093,,,CONTRACTOR,,,,,,,,,,,"LENNAR HOMES",,,,,"LENNAR HOMES","1707 MARKET PL STE 250",IRVING,TX,75063-8050,"(469) 587-5200",http://www.lennar.com/,,,
TX,DALLAS,2009-0216,"Single Family Homes",9/21/2020,,335436,,"6824 VERANDAH WAY",IRVING,TX,75093,,,CONTRACTOR,,,,,,,,,,,"DAVID WEEKLEY HOMES",,,,,"DAVID WEEKLEY HOMES","2708 HILLSIDE DR","HIGHLAND VILLAGE",TX,75077-8653,"(972) 415-6059",http://www.davidweekleyhomes.com/,,,
TX,DALLAS,2009-0221,"Single Family Homes",9/21/2020,,361931,,"6769 VERANDAH WAY",IRVING,TX,75093,,,CONTRACTOR,,,,,,,,,,,"DAVID WEEKLEY HOMES",,,,,"DAVID WEEKLEY HOMES","2708 HILLSIDE DR","HIGHLAND VILLAGE",TX,75077-8653,"(972) 415-6059",http://www.davidweekleyhomes.com/,,,
TX,DALLAS,2009-0223,"Single Family Homes",9/21/2020,,367242,3392,"6818 COLONNADE DR",IRVING,TX,75063,,,CONTRACTOR,,,,,,,,,,,"DAVID WEEKLEY HOMES",,,,,"DAVID WEEKLEY HOMES","2708 HILLSIDE DR","HIGHLAND VILLAGE",TX,75077-8653,"(972) 415-6059",http://www.davidweekleyhomes.com/,,,
TX,DALLAS,B2009-0225,"Single Family Homes",9/21/2020,,342361,3257,"633 COURTYARD LN",IRVING,TX,75093,,,CONTRACTOR,,,,,,,,,,,"DAVID WEEKLEY HOMES",,,,,"DAVID WEEKLEY HOMES","2708 HILLSIDE DR","HIGHLAND VILLAGE",TX,75077-8653,"(972) 415-6059",http://www.davidweekleyhomes.com/,,,
TX,DALLAS,2009-0228,"Single Family Homes",9/21/2020,,342507,,"6861 COLONNADE DR",IRVING,TX,75063,,,CONTRACTOR,,,,,,,,,,,"DAVID WEEKLEY HOMES",,,,,"DAVID WEEKLEY HOMES","2708 HILLSIDE DR","HIGHLAND VILLAGE",TX,75077-8653,"(972) 415-6059",http://www.davidweekleyhomes.com/,,,
TX,DALLAS,2009-0230,"Single Family Homes",9/30/2020,,244500,,"215 HARPER ST",IRVING,TX,75063,,,CONTRACTOR,,,,,,,,,,,"ASHTON WOODS HOMES",,,,,"ASHTON WOODS HOMES","1221 N INTERSTATE 35E STE 170",CARROLLTON,TX,75006-3806,"(972) 428-5404",,,,
TX,DALLAS,2009-0239,"Single Family Homes",9/21/2020,,375000,,"10707 KINGFISHER RD",IRVING,TX,75063,,,CONTRACTOR,,,,,,,,,,,"AMERICAN LEGEND HOMES",,,,,"AMERICAN LEGEND HOMES","2540 KING ARTHUR BLVD STE 200",LEWISVILLE,TX,75056-5833,"(972) 410-5701",http://www.amlegendhomes.com/,"(972) 410-5750",,
TX,DALLAS,2009-0240,"Single Family Homes",9/21/2020,,350000,,"10647 KINGFISHER RD",IRVING,TX,75063,,,CONTRACTOR,,,,,,,,,,,"AMERICAN LEGEND HOMES",,,,,"AMERICAN LEGEND HOMES","2540 KING ARTHUR BLVD STE 200",LEWISVILLE,TX,75056-5833,"(972) 410-5701",http://www.amlegendhomes.com/,"(972) 410-5750",,
TX,DALLAS,2009-0245,"Single Family Homes",9/21/2020,,348900,2931,"861 OHIO ST",IRVING,TX,75063,,,CONTRACTOR,,,,,,,,,,,"K HOVNANIAN HOMES",,,,,"K HOVNANIAN HOMES","5808 W PLANO PKWY",PLANO,TX,75093-4636,"(469) 737-1400",,,,
TX,DALLAS,2009-0264,"Single Family Homes",9/23/2020,,275000,2959,"9851 ROMO ST",IRVING,TX,75063,,,CONTRACTOR,,,,,,,,,,,"ASHTON WOODS HOMES",,,,,"ASHTON WOODS HOMES","1221 N INTERSTATE 35E STE 170",CARROLLTON,TX,75006-3806,"(972) 428-5404",,,,
TX,DALLAS,2009-0265,"Single Family Homes",9/30/2020,,210000,2371,"231 WOODSON ST",IRVING,TX,75063,,,CONTRACTOR,,,,,,,,,,,"ASHTON WOODS HOMES",,,,,"ASHTON WOODS HOMES","1221 N INTERSTATE 35E STE 170",CARROLLTON,TX,75006-3806,"(972) 428-5404",,,,
TX,DALLAS,2009-0266,"Single Family Homes",9/30/2020,,275000,3026,"238 WOODSON ST",IRVING,TX,75063,,,CONTRACTOR,,,,,,,,,,,"ASHTON WOODS HOMES",,,,,"ASHTON WOODS HOMES","1221 N INTERSTATE 35E STE 170",CARROLLTON,TX,75006-3806,"(972) 428-5404",,,,
TX,DALLAS,2009-0267,"Single Family Homes",9/23/2020,,275000,3022,"258 WOODSON ST",IRVING,TX,75063,,,CONTRACTOR,,,,,,,,,,,"ASHTON WOODS HOMES",,,,,"ASHTON WOODS HOMES","1221 N INTERSTATE 35E STE 170",CARROLLTON,TX,75006-3806,"(972) 428-5404",,,,
TX,DALLAS,2009-0283,"Single Family Homes",9/23/2020,,250000,,"10614 FLYCATCHER LN",IRVING,TX,75063,,,CONTRACTOR,,,,,,,,,,,"NORMANDY HOMES",,,,,"NORMANDY HOMES","2805 DALLAS PKWY STE 400",PLANO,TX,75093-8722,"(972) 905-5001",http://normandyhomes.com/,,,
TX,DALLAS,2009-0292,"Single Family Homes",9/23/2020,,561720,4681,"4311 AUDUBON LN",IRVING,TX,75063,,,CONTRACTOR,,,,,,,,,,,"LENNAR HOMES",,,,,"LENNAR HOMES","1707 MARKET PL STE 250",IRVING,TX,75063-8050,"(469) 587-5200",http://www.lennar.com/,,,
TX,DALLAS,2009-0323,"Single Family Homes",9/23/2020,,275000,2934,"219 HARPER ST",IRVING,TX,75063,,,CONTRACTOR,,,,,,,,,,,"ASHTON WOODS HOMES",,,,,"ASHTON WOODS HOMES","1221 N INTERSTATE 35E STE 170",CARROLLTON,TX,75006-3806,"(972) 428-5404",,,,
TX,DALLAS,2009-0326,"Single Family Homes",9/30/2020,,275000,3026,"211 HARPER ST",IRVING,TX,75063,,,CONTRACTOR,,,,,,,,,,,"ASHTON WOODS HOMES",,,,,"ASHTON WOODS HOMES","1221 N INTERSTATE 35E STE 170",CARROLLTON,TX,75006-3806,"(972) 428-5404",,,,
TX,DALLAS,2009-0328,"Single Family Homes",9/23/2020,,275000,,"9843 ROMO ST",IRVING,TX,75063,,,CONTRACTOR,,,,,,,,,,,"ASHTON WOODS HOMES",,,,,"ASHTON WOODS HOMES","1221 N INTERSTATE 35E STE 170",CARROLLTON,TX,75006-3806,"(972) 428-5404",,,,
TX,DALLAS,2009-0329,"Single Family Homes",9/23/2020,,275000,3022,"9822 ROMO ST",IRVING,TX,75063,,,CONTRACTOR,,,,,,,,,,,"ASHTON WOODS HOMES",,,,,"ASHTON WOODS HOMES","1221 N INTERSTATE 35E STE 170",CARROLLTON,TX,75006-3806,"(972) 428-5404",,,,
TX,DALLAS,2009-0330,"Single Family Homes",9/23/2020,,200000,,"9818 ROMO ST",IRVING,TX,75063,,,CONTRACTOR,,,,,,,,,,,"ASHTON WOODS HOMES",,,,,"ASHTON WOODS HOMES","1221 N INTERSTATE 35E STE 170",CARROLLTON,TX,75006-3806,"(972) 428-5404",,,,
TX,DALLAS,2009-0331,"Single Family Homes",9/30/2020,,275000,3026,"247 WOODSON ST",IRVING,TX,75063,,,CONTRACTOR,,,,,,,,,,,"ASHTON WOODS HOMES",,,,,"ASHTON WOODS HOMES","1221 N INTERSTATE 35E STE 170",CARROLLTON,TX,75006-3806,"(972) 428-5404",,,,
TX,DALLAS,2009-0332,"Single Family Homes",9/23/2020,,210000,2371,"219 WOODSON ST",IRVING,TX,75063,,,CONTRACTOR,,,,,,,,,,,"ASHTON WOODS HOMES",,,,,"ASHTON WOODS HOMES","1221 N INTERSTATE 35E STE 170",CARROLLTON,TX,75006-3806,"(972) 428-5404",,,,
TX,DALLAS,2009-0334,"Single Family Homes",9/23/2020,,200000,2337,"227 HARPER ST",IRVING,TX,75063,,,CONTRACTOR,,,,,,,,,,,"ASHTON WOODS HOMES",,,,,"ASHTON WOODS HOMES","1221 N INTERSTATE 35E STE 170",CARROLLTON,TX,75006-3806,"(972) 428-5404",,,,
TX,DALLAS,2009-0339,"Single Family Homes",9/23/2020,,163000,,"1901 COTTONWOOD VALLEY CIR S",IRVING,TX,75063,,,CONTRACTOR,,,,,,,,,,,"DALLAS PWD",,,,,"DALLAS PWD","801 HANOVER DR STE 600",GRAPEVINE,TX,76051-7684,"(972) 988-1555",,,"THOMAS SLAUGHTER",
TX,DALLAS,2009-0345,"Single Family Homes",9/25/2020,,480000,5250,"1301 OTTER WAY",IRVING,TX,75063,,,CONTRACTOR,,,,,,,,,,,"AMERICAN LEGEND HOMES",,,,,"AMERICAN LEGEND HOMES","2540 KING ARTHUR BLVD STE 200",LEWISVILLE,TX,75056-5833,"(972) 410-5701",http://www.amlegendhomes.com/,"(972) 410-5750",,
TX,DALLAS,2009-0352,"Single Family Homes",9/24/2020,,339900,2543,"420 W SIXTH ST",IRVING,TX,75063,,,CONTRACTOR,,,,,,,,,,,"K HOVNANIAN HOMES",,,,,"K HOVNANIAN HOMES","5808 W PLANO PKWY",PLANO,TX,75093-4636,"(469) 737-1400",,,,
TX,DALLAS,2009-0442,"Single Family Homes",9/30/2020,,210000,2371,"9831 ROMO ST",IRVING,TX,75063,,,CONTRACTOR,,,,,,,,,,,"ASHTON WOODS HOMES",,,,,"ASHTON WOODS HOMES","1221 N INTERSTATE 35E STE 170",CARROLLTON,TX,75006-3806,"(972) 428-5404",,,,
TX,ROCKWALL,,"Single Family Homes",10/6/2020,,452329,3746,"532 TAYLOR DR",FATE,TX,75087,,,CONTRACTOR,,,,,,,,,,,"TRENDMAKER HOMES",,,,,"TRENDMAKER HOMES","4835 LBJ FREEWAY SUITE 700",DALLAS,TX,75068,"(214) 765-0573",,,,
TX,ROCKWALL,,"Single Family Homes",10/5/2020,,405720,3360,"709 MILDREN LN",FATE,TX,75087,,,CONTRACTOR,,,,,,,,,,,"UNIONMAIN HOMES",,,,,"UNIONMAIN HOMES","5005 LBJ FREEWAY SUITE 350",DALLAS,TX,75244,"(972) 325-2770",https://unionmainhomes.com/,,,homes@unionmainhomes.com
TX,ROCKWALL,,"Single Family Homes",10/8/2020,,363336,3009,"210 MARBLE CREEK DR",FATE,TX,75063,WOODCREEK,,CONTRACTOR,,,,,,,,,,,"BLOOMFIELD HOMES",,,,,"BLOOMFIELD HOMES","1050 E STATE HIGHWAY 114 STE 210",SOUTHLAKE,TX,76092-5255,"(972) 971-2103",http://bloomfieldhomes.net/,"(972) 987-4342",,mattjennings@bloomfieldhomes.net
TX,ROCKWALL,,"Single Family Homes",10/8/2020,,493626,4088,"376 RED CEDAR DR",FATE,TX,75087,,,CONTRACTOR,,,,,,,,,,,"BLOOMFIELD HOMES",,,,,"BLOOMFIELD HOMES","1050 E STATE HIGHWAY 114 STE 210",SOUTHLAKE,TX,76092-5255,"(972) 971-2103",http://bloomfieldhomes.net/,"(972) 987-4342",,mattjennings@bloomfieldhomes.net
TX,ROCKWALL,,"Single Family Homes",10/8/2020,,362974,3006,"325 SWEETLEAF DR",FATE,TX,75063,,,CONTRACTOR,,,,,,,,,,,"BLOOMFIELD HOMES",,,,,"BLOOMFIELD HOMES","1050 E STATE HIGHWAY 114 STE 210",SOUTHLAKE,TX,76092-5255,"(972) 971-2103",http://bloomfieldhomes.net/,"(972) 987-4342",,mattjennings@bloomfieldhomes.net
TX,ROCKWALL,,"Single Family Homes",10/9/2020,,426247,3530,"218 HIGHEDGE DR",FATE,TX,75063,,,CONTRACTOR,,,,,,,,,,,"BEAZER HOMES ",,,,,"BEAZER HOMES ","1750 VALLEY VIEW LN STE 200",DALLAS,TX,75234-9010,"(972) 250-5517",http://www.beazer.com/,,,bret.kolbe@beazer.com
TX,ROCKWALL,,"Single Family Homes",10/12/2020,,305497,2530,"501 PEEL ST",FATE,TX,75063,,,CONTRACTOR,,,,,,,,,,,"LENNAR HOMES",,,,,"LENNAR HOMES","1707 MARKET PL STE 250",IRVING,TX,75063-8050,"(469) 587-5200",http://www.lennar.com/,,,
TX,ROCKWALL,,"Single Family Homes",10/12/2020,,305497,2530,"417 PETTY WAY",FATE,TX,75063,,,CONTRACTOR,,,,,,,,,,,"LENNAR HOMES",,,,,"LENNAR HOMES","1707 MARKET PL STE 250",IRVING,TX,75063-8050,"(469) 587-5200",http://www.lennar.com/,,,
TX,ROCKWALL,,"Single Family Homes",10/12/2020,,283762,2350,"421 PETTY WAY",FATE,TX,75063,,,CONTRACTOR,,,,,,,,,,,"LENNAR HOMES",,,,,"LENNAR HOMES","1707 MARKET PL STE 250",IRVING,TX,75063-8050,"(469) 587-5200",http://www.lennar.com/,,,
TX,ROCKWALL,,"Single Family Homes",10/12/2020,,283762,2350,"505 PEEL ST",FATE,TX,75063,,,CONTRACTOR,,,,,,,,,,,"LENNAR HOMES",,,,,"LENNAR HOMES","1707 MARKET PL STE 250",IRVING,TX,75063-8050,"(469) 587-5200",http://www.lennar.com/,,,
TX,ROCKWALL,,"Single Family Homes",10/16/2020,,402459,3333,"350 HEADWATER DR",FATE,TX,75063,,,CONTRACTOR,,,,,,,,,,,"DR HORTON",,,,,"DR HORTON","6751 NORTH FWY","FT WORTH",TX,76131-2802,"(817) 230-0800",,,,
TX,ROCKWALL,,"Single Family Homes",10/16/2020,,323610,2680,"444 BALTIMORE AVE",FATE,TX,75063,,,CONTRACTOR,,,,,,,,,,,"DR HORTON",,,,,"DR HORTON","6751 NORTH FWY","FT WORTH",TX,76131-2802,"(817) 230-0800",,,,
TX,ROCKWALL,,"Single Family Homes",10/16/2020,,298252,2470,"432 BALTIMORE AVE",FATE,TX,75063,,,CONTRACTOR,,,,,,,,,,,"DR HORTON",,,,,"DR HORTON","6751 NORTH FWY","FT WORTH",TX,76131-2802,"(817) 230-0800",,,,
TX,ROCKWALL,,"Single Family Homes",10/16/2020,,289075,2394,"436 BALTIMORE AVE",FATE,TX,75063,,,CONTRACTOR,,,,,,,,,,,"DR HORTON",,,,,"DR HORTON","6751 NORTH FWY","FT WORTH",TX,76131-2802,"(817) 230-0800",,,,
TX,ROCKWALL,,"Single Family Homes",10/16/2020,,302720,2507,"420 BALTIMORE AVE",FATE,TX,75063,,,CONTRACTOR,,,,,,,,,,,"DR HORTON",,,,,"DR HORTON","6751 NORTH FWY","FT WORTH",TX,76131-2802,"(817) 230-0800",,,,
TX,DENTON,"20- 000325","Single Family Homes",9/17/2020,,300000,9639,"1100 S WASHINGTON ST","PILOT POINT",TX,76258,,,"MCGEE FAMILY PARTNERS","1100 S WASHINGTON ST","PILOT POINT",TX,76258,,Owner,,,,,OWNER,,,,,OWNER,,,,,,,,,
TX,DENTON,"20- 000301","Single Family Homes",9/3/2020,,220000,2825,"105 DOROTHY CT","PILOT POINT",TX,76258,,,"ANDREW BLANCHARD","105 DOROTHY CT","PILOT POINT",TX,76258,,Owner,,,,,OWNER,,,,,OWNER,,,,,,,,,
TX,DENTON,"20- 000311","Single Family Homes",9/4/2020,,200000,3557,"639 E BURKS","PILOT POINT",TX,76258,,,"NATHAN BROWN","639 E BURKS","PILOT POINT",TX,76258,,Applicant,,,,,OWNER,,,,,OWNER,,,,,,,,,
TX,DENTON,20-000318,"Single Family Homes",9/16/2020,,223000,1769,"551 E CAROL ST","PILOT POINT",TX,76258,,,"BARRY BESTE JACOB TUDOR","551 E CAROL ST","PILOT POINT",TX,76258,,Owner,,,,,OWNER,,,,,OWNER,,,,,,,,,
TX,DENTON,"20- 000319","Single Family Homes",9/16/2020,,186067,1559,"557 E CAROL ST","PILOT POINT",TX,76248,,,"BARRY BESTE JACOB TUDOR","557 E CAROL ST","PILOT POINT",TX,76248,,Owner,,,,,OWNER,,,,,OWNER,,,,,,,,,
TX,TARRANT,"20 - 3295","Single Family Homes",9/17/2020,,800000,5537,"3207 FOXFIRE LN",GRAPEVINE,TX,76051,,,CONTRACTOR,,,,,,,,,,,"V PATRICK GRAY CUSTOM HOMES",,,,,"V PATRICK GRAY CUSTOM HOMES","PO BOX 92481",SOUTHLAKE,TX,76092-0481,"(817) 992-4950",http://www.vpghomes.com,,PATRICK,vpgray@msn.com
TX,TARRANT,"20 - 3350","Single Family Homes",10/6/2020,,157220,2974,"953 MEADOW BEND S LOOP",GRAPEVINE,TX,76051,,,CONTRACTOR,,,,,,,,,,,"K M PROPERTIES",,,,,"K M PROPERTIES","395 W STATE HIGHWAY 114 STE 400",SOUTHLAKE,TX,76092-3631,"(817) 329-3111",,,,
TX,TARRANT,20-3463,"Single Family Homes",9/30/2020,,2533000,3371,"448 JONES ST",GRAPEVINE,TX,76051,,,CONTRACTOR,,,,,,,,,,,"GRAHAM HART HOME BUILDER",,,,,"GRAHAM HART HOME BUILDER","1105 GLADE RD STE 100",COLLEYVILLE,TX,76034-4228,"(214) 626-8590",http://www.grahamhart.com/,,,info@grahamhart.com
TX,TARRANT,"20 - 3497","Single Family Homes",10/6/2020,,204190,3727,"976 MEADOW BEND S LOOP",GRAPEVINE,TX,76051,,,CONTRACTOR,,,,,,,,,,,"K M PROPERTIES",,,,,"K M PROPERTIES","395 W STATE HIGHWAY 114 STE 400",SOUTHLAKE,TX,76092-3631,"(817) 329-3111",,,,
TX,TARRANT,"20 - 3522","Single Family Homes",9/29/2020,,233940,4157,"1034 MEADOW BEND N LOOP",GRAPEVINE,TX,76051,,,CONTRACTOR,,,,,,,,,,,"K M PROPERTIES",,,,,"K M PROPERTIES","395 W STATE HIGHWAY 114 STE 400",SOUTHLAKE,TX,76092-3631,"(817) 329-3111",,,,
TX,COLLIN,2020-166,"Single Family Homes",9/3/2020,,,2262,"1725 KATELYNN LN",ANNA,TX,75409,"ANNA CROSSING",22,CONTRACTOR,,,,,,,,,,,"DR HORTON",,,,,"DR HORTON","6751 NORTH FWY","FT WORTH",TX,76131-2802,"(817) 230-0800",,,,
TX,COLLIN,2020-528,"Single Family Homes",9/15/2020,,,2619,"1128 SHARP STREET",ANNA,TX,75409,,,CONTRACTOR,,,,,,,,,,,"PULTE HOMES",,,,,"PULTE HOMES","4800 REGENT BLVD",IRVING,TX,75063-2439,"(972) 304-2800",,,,
TX,COLLIN,2020-533,"Single Family Homes",9/15/2020,,,2769,"1112 MAPLETON DR",ANNA,TX,75409,"WEST CROSSING",,CONTRACTOR,,,,,,,,,,,"HIGHLAND HOMES",,,,,"HIGHLAND HOMES","5601 DEMOCRACY DR STE 300",PLANO,TX,75024-3674,"(972) 789-3500",,,,
TX,COLLIN,2020-555,"Single Family Homes",9/4/2020,,,1772,"416 WEST PARK DR",ANNA,TX,75409,"AVERY POINTE",13,CONTRACTOR,,,,,,,,,,,"LENNAR HOMES",,,,,"LENNAR HOMES","1707 MARKET PL STE 250",IRVING,TX,75063-8050,"(469) 587-5200",http://www.lennar.com/,,,
TX,COLLIN,2020-556,"Single Family Homes",9/4/2020,,,2181,"412 WEST PARK DR",ANNA,TX,75409,"AVERY POINTE",12,CONTRACTOR,,,,,,,,,,,"LENNAR HOMES",,,,,"LENNAR HOMES","1707 MARKET PL STE 250",IRVING,TX,75063-8050,"(469) 587-5200",http://www.lennar.com/,,,
TX,COLLIN,2020-561,"Single Family Homes",9/18/2020,,,2181,"1524 DEERCHASE DR",ANNA,TX,75409,"AVERY POINTE",24,CONTRACTOR,,,,,,,,,,,"LENNAR HOMES",,,,,"LENNAR HOMES","1707 MARKET PL STE 250",IRVING,TX,75063-8050,"(469) 587-5200",http://www.lennar.com/,,,
TX,COLLIN,2020--564,"Single Family Homes",9/18/2020,,,1772,"1527 AVERY POINTE DR",ANNA,TX,75409,"AVERY POINTE",14,CONTRACTOR,,,,,,,,,,,"LENNAR HOMES",,,,,"LENNAR HOMES","1707 MARKET PL STE 250",IRVING,TX,75063-8050,"(469) 587-5200",http://www.lennar.com/,,,
TX,COLLIN,2020-566,"Single Family Homes",9/18/2020,,,2181,"1601 AVERY POINTE DR",ANNA,TX,75409,"AVERY POINTE",13,CONTRACTOR,,,,,,,,,,,"LENNAR HOMES",,,,,"LENNAR HOMES","1707 MARKET PL STE 250",IRVING,TX,75063-8050,"(469) 587-5200",http://www.lennar.com/,,,
TX,COLLIN,2020-567,"Single Family Homes",9/18/2020,,,1983,"1602 DEERCHASE DR",ANNA,TX,75409,"AVERY POINTE",26,CONTRACTOR,,,,,,,,,,,"LENNAR HOMES",,,,,"LENNAR HOMES","1707 MARKET PL STE 250",IRVING,TX,75063-8050,"(469) 587-5200",http://www.lennar.com/,,,
TX,COLLIN,2020-568,"Single Family Homes",9/18/2020,,,1983,"1602 AVERY POINTE DR",ANNA,TX,75409,"AVERY POINTE",25,CONTRACTOR,,,,,,,,,,,"LENNAR HOMES",,,,,"LENNAR HOMES","1707 MARKET PL STE 250",IRVING,TX,75063-8050,"(469) 587-5200",http://www.lennar.com/,,,
TX,COLLIN,2020-569,"Single Family Homes",9/18/2020,,,2181,"1507 AVERY POINTE DR",ANNA,TX,75409,"AVERY POINTE",19,CONTRACTOR,,,,,,,,,,,"LENNAR HOMES",,,,,"LENNAR HOMES","1707 MARKET PL STE 250",IRVING,TX,75063-8050,"(469) 587-5200",http://www.lennar.com/,,,
TX,COLLIN,2020-570,"Single Family Homes",9/18/2020,,,1772,"1512 AVERY POINTE DR",ANNA,TX,75407,"AVERY POINTE",20,CONTRACTOR,,,,,,,,,,,"LENNAR HOMES",,,,,"LENNAR HOMES","1707 MARKET PL STE 250",IRVING,TX,75063-8050,"(469) 587-5200",http://www.lennar.com/,,,
TX,COLLIN,2020-572,"Single Family Homes",9/18/2020,,,1772,"1512 DEERCHASE DR",ANNA,TX,75409,"AVERY POINTE",21,CONTRACTOR,,,,,,,,,,,"LENNAR HOMES",,,,,"LENNAR HOMES","1707 MARKET PL STE 250",IRVING,TX,75063-8050,"(469) 587-5200",http://www.lennar.com/,,,
TX,COLLIN,2020-574,"Single Family Homes",9/18/2020,,,1983,"1515 AVERY POINTE DR",ANNA,TX,75409,"AVERY POINTE",17,CONTRACTOR,,,,,,,,,,,"LENNAR HOMES",,,,,"LENNAR HOMES","1707 MARKET PL STE 250",IRVING,TX,75063-8050,"(469) 587-5200",http://www.lennar.com/,,,
TX,COLLIN,2020-575,"Single Family Homes",9/18/2020,,,2181,"1516 AVERY POINTE DR",ANNA,TX,75409,"AVERY POINTE",21,CONTRACTOR,,,,,,,,,,,"LENNAR HOMES",,,,,"LENNAR HOMES","1707 MARKET PL STE 250",IRVING,TX,75063-8050,"(469) 587-5200",http://www.lennar.com/,,,
TX,COLLIN,2020-577,"Single Family Homes",9/4/2020,,,2181,"500 WEST PARK",ANNA,TX,75409,"AVERY POINTE",15,CONTRACTOR,,,,,,,,,,,"LENNAR HOMES",,,,,"LENNAR HOMES","1707 MARKET PL STE 250",IRVING,TX,75063-8050,"(469) 587-5200",http://www.lennar.com/,,,
TX,COLLIN,2020-580,"Single Family Homes",9/30/2020,,,1983,"420 WEST PARK DR",ANNA,TX,75409,"AVERY POINTE",14,CONTRACTOR,,,,,,,,,,,"LENNAR HOMES",,,,,"LENNAR HOMES","1707 MARKET PL STE 250",IRVING,TX,75063-8050,"(469) 587-5200",http://www.lennar.com/,,,
TX,COLLIN,2020-581,"Single Family Homes",9/18/2020,,,1772,"1606 DEERCHASE DR",ANNA,TX,75409,"AVERY POINTE",21,CONTRACTOR,,,,,,,,,,,"LENNAR HOMES",,,,,"LENNAR HOMES","1707 MARKET PL STE 250",IRVING,TX,75063-8050,"(469) 587-5200",http://www.lennar.com/,,,
TX,COLLIN,2020-582,"Single Family Homes",9/18/2020,,,1772,"1519 AVERY POINTE DR",ANNA,TX,75409,"AVERY POINTE",16,CONTRACTOR,,,,,,,,,,,"LENNAR HOMES",,,,,"LENNAR HOMES","1707 MARKET PL STE 250",IRVING,TX,75063-8050,"(469) 587-5200",http://www.lennar.com/,,,
TX,COLLIN,2020-583,"Single Family Homes",9/18/2020,,,2181,"1516 DEERCHASE DR",ANNA,TX,75409,"AVERY POINTE",22,CONTRACTOR,,,,,,,,,,,"LENNAR HOMES",,,,,"LENNAR HOMES","1707 MARKET PL STE 250",IRVING,TX,75063-8050,"(469) 587-5200",http://www.lennar.com/,,,
TX,COLLIN,2020-589,"Single Family Homes",9/18/2020,,,2550,"1520 DEERCHASE DR",ANNA,TX,75409,"AVERY POINTE",23,CONTRACTOR,,,,,,,,,,,"LENNAR HOMES",,,,,"LENNAR HOMES","1707 MARKET PL STE 250",IRVING,TX,75063-8050,"(469) 587-5200",http://www.lennar.com/,,,
TX,COLLIN,2020-590,"Single Family Homes",9/18/2020,,,2350,"1520 AVERY POINTE DR",ANNA,TX,75409,"AVERY POINTE",22,CONTRACTOR,,,,,,,,,,,"LENNAR HOMES",,,,,"LENNAR HOMES","1707 MARKET PL STE 250",IRVING,TX,75063-8050,"(469) 587-5200",http://www.lennar.com/,,,
TX,COLLIN,2020-591,"Single Family Homes",9/18/2020,,,1958,"1511 AVERY POINTE DR",ANNA,TX,75409,"AVERY POINTE",18,CONTRACTOR,,,,,,,,,,,"LENNAR HOMES",,,,,"LENNAR HOMES","1707 MARKET PL STE 250",IRVING,TX,75063-8050,"(469) 587-5200",http://www.lennar.com/,,,
TX,COLLIN,2020-592,"Single Family Homes",9/18/2020,,,1958,"1528 DEERCHASE DR",ANNA,TX,75409,"AVERY POINTE",25,CONTRACTOR,,,,,,,,,,,"LENNAR HOMES",,,,,"LENNAR HOMES","1707 MARKET PL STE 250",IRVING,TX,75063-8050,"(469) 587-5200",http://www.lennar.com/,,,
TX,COLLIN,2020-593,"Single Family Homes",9/18/2020,,,1958,"1528 AVERY POINTE DR",ANNA,TX,75409,"AVERY POINTE",24,CONTRACTOR,,,,,,,,,,,"LENNAR HOMES",,,,,"LENNAR HOMES","1707 MARKET PL STE 250",IRVING,TX,75063-8050,"(469) 587-5200",http://www.lennar.com/,,,
TX,COLLIN,2020-594,"Single Family Homes",9/24/2020,,,2425,"1235 BROOKLYN DR",ANNA,TX,75409,"ANNA CROSSING",14,CONTRACTOR,,,,,,,,,,,"PULTE HOMES",,,,,"PULTE HOMES","4800 REGENT BLVD",IRVING,TX,75063-2439,"(972) 304-2800",,,,
TX,COLLIN,2020-599,"Single Family Homes",9/15/2020,,,2841,"900 HOLLY ST",ANNA,TX,75409,"PECAN GROVE",6,CONTRACTOR,,,,,,,,,,,"DR HORTON",,,,,"DR HORTON","6751 NORTH FWY","FT WORTH",TX,76131-2802,"(817) 230-0800",,,,
TX,COLLIN,2020-601,"Single Family Homes",9/18/2020,,,2530,"1508 AVERY POINTE DR",ANNA,TX,75409,"AVERY POINTE",19,CONTRACTOR,,,,,,,,,,,"LENNAR HOMES",,,,,"LENNAR HOMES","1707 MARKET PL STE 250",IRVING,TX,75063-8050,"(469) 587-5200",http://www.lennar.com/,,,
TX,COLLIN,2020-602,"Single Family Homes",9/18/2020,,,1958,"1605 AVERY POINTE DR",ANNA,TX,75409,"AVERY POINTE",12,CONTRACTOR,,,,,,,,,,,"LENNAR HOMES",,,,,"LENNAR HOMES","1707 MARKET PL STE 250",IRVING,TX,75063-8050,"(469) 587-5200",http://www.lennar.com/,,,
TX,COLLIN,2020-603,"Single Family Homes",9/15/2020,,,2657,"1012 HOLLY ST",ANNA,TX,75409,"PECAN GROVE",11,CONTRACTOR,,,,,,,,,,,"DR HORTON",,,,,"DR HORTON","6751 NORTH FWY","FT WORTH",TX,76131-2802,"(817) 230-0800",,,,
TX,COLLIN,2020-604,"Single Family Homes",9/4/2020,,,2409,"904 HOLLY ST",ANNA,TX,75409,"PECAN GROVE",5,CONTRACTOR,,,,,,,,,,,"DR HORTON",,,,,"DR HORTON","6751 NORTH FWY","FT WORTH",TX,76131-2802,"(817) 230-0800",,,,
TX,COLLIN,2020-606,"Single Family Homes",9/15/2020,,,2581,"920 HOLLY ST",ANNA,TX,75409,"PECAN GROVE",1,CONTRACTOR,,,,,,,,,,,"DR HORTON",,,,,"DR HORTON","6751 NORTH FWY","FT WORTH",TX,76131-2802,"(817) 230-0800",,,,
TX,COLLIN,2020-618,"Single Family Homes",9/15/2020,,,2680,"3001 TEAKWOOD ST",ANNA,TX,75409,"PECAN GROVE",10,CONTRACTOR,,,,,,,,,,,"DR HORTON",,,,,"DR HORTON","6751 NORTH FWY","FT WORTH",TX,76131-2802,"(817) 230-0800",,,,
TX,COLLIN,2020-620,"Single Family Homes",9/15/2020,,,2553,"3009 TEAKWOOD ST",ANNA,TX,75409,"PECAN GROVE",8,CONTRACTOR,,,,,,,,,,,"DR HORTON",,,,,"DR HORTON","6751 NORTH FWY","FT WORTH",TX,76131-2802,"(817) 230-0800",,,,
TX,COLLIN,2020-622,"Single Family Homes",9/18/2020,,,1772,"1701 AVERY POINTE DR",ANNA,TX,75409,"AVERY POINTE",8,CONTRACTOR,,,,,,,,,,,"LENNAR HOMES",,,,,"LENNAR HOMES","1707 MARKET PL STE 250",IRVING,TX,75063-8050,"(469) 587-5200",http://www.lennar.com/,,,
TX,COLLIN,2020-623,"Single Family Homes",9/18/2020,,,1772,"1709 AVERY POINTE DR",ANNA,TX,75409,"AVERY POINTE",6,CONTRACTOR,,,,,,,,,,,"LENNAR HOMES",,,,,"LENNAR HOMES","1707 MARKET PL STE 250",IRVING,TX,75063-8050,"(469) 587-5200",http://www.lennar.com/,,,
TX,COLLIN,2020-629,"Single Family Homes",9/18/2020,,,2181,"1618 AVERY POINTE DR",ANNA,TX,75409,"AVERY POINTE",29,CONTRACTOR,,,,,,,,,,,"LENNAR HOMES",,,,,"LENNAR HOMES","1707 MARKET PL STE 250",IRVING,TX,75063-8050,"(469) 587-5200",http://www.lennar.com/,,,
TX,COLLIN,2020-630,"Single Family Homes",9/18/2020,,,1983,"1809 AVERY POINTE DR",ANNA,TX,75409,"AVERY POINTE",1,CONTRACTOR,,,,,,,,,,,"LENNAR HOMES",,,,,"LENNAR HOMES","1707 MARKET PL STE 250",IRVING,TX,75063-8050,"(469) 587-5200",http://www.lennar.com/,,,
TX,COLLIN,2020-631,"Single Family Homes",9/4/2020,,,3399,"1207 TIANA ST",ANNA,TX,75409,"ANNA CROSSING",13,CONTRACTOR,,,,,,,,,,,"WINDSOR HOMES",,,,,"WINDSOR HOMES","8214 WESTCHESTER DR STE 710",DALLAS,TX,75225-6133,"(214) 522-4945",,"(214) 522-7244",,
TX,COLLIN,2020-632,"Single Family Homes",9/1/2020,,,2203,"318 GARRETT CT",ANNA,TX,75409,"NORTH POINTE",23,CONTRACTOR,,,,,,,,,,,"LGI HOMES",,,,,"LGI HOMES","1913 PIN OAK TRL",ANNA,TX,75409-4493,"(855) 668-2572",,,,
TX,COLLIN,2020-633,"Single Family Homes",9/24/2020,,,2183,"319 GARRETT CT",ANNA,TX,75409,"NORTH POINTE",17,CONTRACTOR,,,,,,,,,,,"LGI HOMES",,,,,"LGI HOMES","1913 PIN OAK TRL",ANNA,TX,75409-4493,"(855) 668-2572",,,,
TX,COLLIN,2020-634,"Single Family Homes",9/1/2020,,,2560,"307 GARRETT CT",ANNA,TX,75409,"NORTH POINTE",14,CONTRACTOR,,,,,,,,,,,"LGI HOMES",,,,,"LGI HOMES","1913 PIN OAK TRL",ANNA,TX,75409-4493,"(855) 668-2572",,,,
TX,COLLIN,2020-635,"Single Family Homes",9/1/2020,,,2183,"322 GARRETT CT",ANNA,TX,75409,"NORTH POINTE",22,CONTRACTOR,,,,,,,,,,,"LGI HOMES",,,,,"LGI HOMES","1913 PIN OAK TRL",ANNA,TX,75409-4493,"(855) 668-2572",,,,
TX,COLLIN,2020-636,"Single Family Homes",9/1/2020,,,3141,"310 GARRETT CT",ANNA,TX,75409,"NORTH POINTE",25,CONTRACTOR,,,,,,,,,,,"LGI HOMES",,,,,"LGI HOMES","1913 PIN OAK TRL",ANNA,TX,75409-4493,"(855) 668-2572",,,,
TX,COLLIN,2020-637,"Single Family Homes",9/1/2020,,,3141,"323 GARRETT CT",ANNA,TX,75409,"NORTH POINTE",18,CONTRACTOR,,,,,,,,,,,"LGI HOMES",,,,,"LGI HOMES","1913 PIN OAK TRL",ANNA,TX,75409-4493,"(855) 668-2572",,,,
TX,COLLIN,2020-638,"Single Family Homes",9/1/2020,,,2183,"311 GARRETT CT",ANNA,TX,75409,"NORTH POINTE",15,CONTRACTOR,,,,,,,,,,,"LGI HOMES",,,,,"LGI HOMES","1913 PIN OAK TRL",ANNA,TX,75409-4493,"(855) 668-2572",,,,
TX,COLLIN,2020-639,"Single Family Homes",9/1/2020,,,2672,"326 GARRETT CT",ANNA,TX,75409,"NORTH POINTE",21,CONTRACTOR,,,,,,,,,,,"LGI HOMES",,,,,"LGI HOMES","1913 PIN OAK TRL",ANNA,TX,75409-4493,"(855) 668-2572",,,,
TX,COLLIN,2020-640,"Single Family Homes",9/1/2020,,,2210,"314 GARRETT CT",ANNA,TX,75409,"NORTH POINTE",24,CONTRACTOR,,,,,,,,,,,"LGI HOMES",,,,,"LGI HOMES","1913 PIN OAK TRL",ANNA,TX,75409-4493,"(855) 668-2572",,,,
TX,COLLIN,2020-641,"Single Family Homes",9/1/2020,,,2672,"327 GARRETT CT",ANNA,TX,75409,"NORTH POINTE",19,CONTRACTOR,,,,,,,,,,,"LGI HOMES",,,,,"LGI HOMES","1913 PIN OAK TRL",ANNA,TX,75409-4493,"(855) 668-2572",,,,
TX,COLLIN,2020-642,"Single Family Homes",9/1/2020,,,2560,"330 GARRETT CT",ANNA,TX,75409,"NORTH POINTE",20,CONTRACTOR,,,,,,,,,,,"LGI HOMES",,,,,"LGI HOMES","1913 PIN OAK TRL",ANNA,TX,75409-4493,"(855) 668-2572",,,,
TX,COLLIN,2020-643,"Single Family Homes",9/1/2020,,,1658,"235 GARRETT ST",ANNA,TX,75409,"NORTH POINTE",17,CONTRACTOR,,,,,,,,,,,"LGI HOMES",,,,,"LGI HOMES","1913 PIN OAK TRL",ANNA,TX,75409-4493,"(855) 668-2572",,,,
TX,COLLIN,2020-644,"Single Family Homes",9/1/2020,,,2183,"239 GARRETT ST",ANNA,TX,75409,"NORTH POINTE",18,CONTRACTOR,,,,,,,,,,,"LGI HOMES",,,,,"LGI HOMES","1913 PIN OAK TRL",ANNA,TX,75409-4493,"(855) 668-2572",,,,
TX,COLLIN,2020-645,"Single Family Homes",9/1/2020,,,2203,"303 GARRETT CT",ANNA,TX,75409,"NORTH POINTE",13,CONTRACTOR,,,,,,,,,,,"LGI HOMES",,,,,"LGI HOMES","1913 PIN OAK TRL",ANNA,TX,75409-4493,"(855) 668-2572",,,,
TX,COLLIN,2020-646,"Single Family Homes",9/1/2020,,,2203,"315 GARRETT CT",ANNA,TX,75409,"NORTH POINTE",16,CONTRACTOR,,,,,,,,,,,"LGI HOMES",,,,,"LGI HOMES","1913 PIN OAK TRL",ANNA,TX,75409-4493,"(855) 668-2572",,,,
TX,COLLIN,2020-647,"Single Family Homes",9/8/2020,,,3333,"3015 TEAKWOOD ST",ANNA,TX,75409,"PECAN GROVE",6,CONTRACTOR,,,,,,,,,,,"DR HORTON",,,,,"DR HORTON","6751 NORTH FWY","FT WORTH",TX,76131-2802,"(817) 230-0800",,,,
TX,COLLIN,2020-648,"Single Family Homes",9/3/2020,,,2553,"913 HOLLY ST",ANNA,TX,75409,"PECAN GROVE",9,CONTRACTOR,,,,,,,,,,,"DR HORTON",,,,,"DR HORTON","6751 NORTH FWY","FT WORTH",TX,76131-2802,"(817) 230-0800",,,,
TX,COLLIN,2020-649,"Single Family Homes",9/3/2020,,,3440,"1713 KATELYNN LN",ANNA,TX,75409,"ANNA CROSSING",19,CONTRACTOR,,,,,,,,,,,"DR HORTON",,,,,"DR HORTON","6751 NORTH FWY","FT WORTH",TX,76131-2802,"(817) 230-0800",,,,
TX,COLLIN,2020-650,"Single Family Homes",9/15/2020,,,2173,"705 PEMBERTON DR",ANNA,TX,75409,"WEST CROSSING",2,CONTRACTOR,,,,,,,,,,,"BLOOMFIELD HOMES",,,,,"BLOOMFIELD HOMES","1050 E STATE HIGHWAY 114 STE 210",SOUTHLAKE,TX,76092-5255,"(972) 971-2103",http://bloomfieldhomes.net/,"(972) 987-4342",,mattjennings@bloomfieldhomes.net
TX,COLLIN,2020-656,"Single Family Homes",9/29/2020,,,2425,"1228 SHARP ST",ANNA,TX,75409,"ANNA CROSSING",10,CONTRACTOR,,,,,,,,,,,"PULTE HOMES",,,,,"PULTE HOMES","4800 REGENT BLVD",IRVING,TX,75063-2439,"(972) 304-2800",,,,
TX,COLLIN,2020-657,"Single Family Homes",9/4/2020,,,2507,"3011 TEAKWOOD ST",ANNA,TX,75409,"PECAN GROVE",7,CONTRACTOR,,,,,,,,,,,"DR HORTON",,,,,"DR HORTON","6751 NORTH FWY","FT WORTH",TX,76131-2802,"(817) 230-0800",,,,
TX,COLLIN,2020-662,"Single Family Homes",9/25/2020,,,2203,"207 GARRETT ST",ANNA,TX,75409,"NORTH POINTE",10,CONTRACTOR,,,,,,,,,,,"LGI HOMES",,,,,"LGI HOMES","1913 PIN OAK TRL",ANNA,TX,75409-4493,"(855) 668-2572",,,,
TX,COLLIN,2020-663,"Single Family Homes",9/15/2020,,,2183,"211 GARRETT ST",ANNA,TX,75409,"NORTH POINTE",11,CONTRACTOR,,,,,,,,,,,"LGI HOMES",,,,,"LGI HOMES","1913 PIN OAK TRL",ANNA,TX,75409-4493,"(855) 668-2572",,,,
TX,COLLIN,2020-664,"Single Family Homes",9/15/2020,,,2560,"215 GARRETT ST",ANNA,TX,75409,"NORTH POINTE",12,CONTRACTOR,,,,,,,,,,,"LGI HOMES",,,,,"LGI HOMES","1913 PIN OAK TRL",ANNA,TX,75409-4493,"(855) 668-2572",,,,
TX,COLLIN,2020-665,"Single Family Homes",9/15/2020,,,2672,"219 GARRETT ST",ANNA,TX,75409,"NORTH POINTE",13,CONTRACTOR,,,,,,,,,,,"LGI HOMES",,,,,"LGI HOMES","1913 PIN OAK TRL",ANNA,TX,75409-4493,"(855) 668-2572",,,,
TX,COLLIN,2020-666,"Single Family Homes",9/15/2020,,,2183,"223 GARRETT ST",ANNA,TX,75409,"NORTH POINTE",14,CONTRACTOR,,,,,,,,,,,"LGI HOMES",,,,,"LGI HOMES","1913 PIN OAK TRL",ANNA,TX,75409-4493,"(855) 668-2572",,,,
TX,COLLIN,2020-667,"Single Family Homes",9/15/2020,,,2203,"227 GARRETT ST",ANNA,TX,75409,"NORTH POINTE",15,CONTRACTOR,,,,,,,,,,,"LGI HOMES",,,,,"LGI HOMES","1913 PIN OAK TRL",ANNA,TX,75409-4493,"(855) 668-2572",,,,
TX,COLLIN,2020-668,"Single Family Homes",9/15/2020,,,2560,"231 GARRETT ST",ANNA,TX,75409,"NORTH POINTE",16,CONTRACTOR,,,,,,,,,,,"LGI HOMES",,,,,"LGI HOMES","1913 PIN OAK TRL",ANNA,TX,75409-4493,"(855) 668-2572",,,,
TX,COLLIN,2020-670,"Single Family Homes",9/15/2020,,,2183,"3201 BOWEN ST",ANNA,TX,75409,"NORTH POINTE",51,CONTRACTOR,,,,,,,,,,,"LGI HOMES",,,,,"LGI HOMES","1913 PIN OAK TRL",ANNA,TX,75409-4493,"(855) 668-2572",,,,
TX,COLLIN,2020-671,"Single Family Homes",9/15/2020,,,2672,"3205 BOWEN ST",ANNA,TX,75409,"NORTH POINTE",50,CONTRACTOR,,,,,,,,,,,"LGI HOMES",,,,,"LGI HOMES","1913 PIN OAK TRL",ANNA,TX,75409-4493,"(855) 668-2572",,,,
TX,COLLIN,2020-672,"Single Family Homes",9/15/2020,,,2203,"3209 BOWEN ST",ANNA,TX,75409,"NORTH POINTE",49,CONTRACTOR,,,,,,,,,,,"LGI HOMES",,,,,"LGI HOMES","1913 PIN OAK TRL",ANNA,TX,75409-4493,"(855) 668-2572",,,,
TX,COLLIN,2020-673,"Single Family Homes",9/15/2020,,,3141,"3213 BOWEN ST",ANNA,TX,75409,"NORTH POINTE",48,CONTRACTOR,,,,,,,,,,,"LGI HOMES",,,,,"LGI HOMES","1913 PIN OAK TRL",ANNA,TX,75409-4493,"(855) 668-2572",,,,
TX,COLLIN,2020-674,"Single Family Homes",9/15/2020,,,2560,"3217 BOWEN ST",ANNA,TX,75409,"NORTH POINTE",47,CONTRACTOR,,,,,,,,,,,"LGI HOMES",,,,,"LGI HOMES","1913 PIN OAK TRL",ANNA,TX,75409-4493,"(855) 668-2572",,,,
TX,COLLIN,2020-675,"Single Family Homes",9/15/2020,,,2672,"3221 BOWEN ST",ANNA,TX,75409,"NORTH POINTE",46,CONTRACTOR,,,,,,,,,,,"LGI HOMES",,,,,"LGI HOMES","1913 PIN OAK TRL",ANNA,TX,75409-4493,"(855) 668-2572",,,,
TX,COLLIN,2020-676,"Single Family Homes",9/15/2020,,,2203,"3225 BOWEN ST",ANNA,TX,75409,"NORTH POINTE",45,CONTRACTOR,,,,,,,,,,,"LGI HOMES",,,,,"LGI HOMES","1913 PIN OAK TRL",ANNA,TX,75409-4493,"(855) 668-2572",,,,
TX,COLLIN,2020-677,"Single Family Homes",9/18/2020,,,3365,"2312 ERROL ST",ANNA,TX,75409,"ANNA CROSSING",4,CONTRACTOR,,,,,,,,,,,"PACESETTER HOMES ",,,,,"PACESETTER HOMES ","14875 DANEWAY DR",FRISCO,TX,75035-4819,"(214) 298-8350",,,,
TX,COLLIN,2020-678,"Single Family Homes",9/18/2020,,,2243,"804 MATHEW DR",ANNA,TX,75409,"ANNA CROSSING",19,CONTRACTOR,,,,,,,,,,,"PACESETTER HOMES ",,,,,"PACESETTER HOMES ","14875 DANEWAY DR",FRISCO,TX,75035-4819,"(214) 298-8350",,,,
TX,COLLIN,2020-679,"Single Family Homes",9/17/2020,,,4094,"1206 ROCKRIDGE",ANNA,TX,75409,"LAKEVIEW ESTATES",10,CONTRACTOR,,,,,,,,,,,"BLOOMFIELD HOMES",,,,,"BLOOMFIELD HOMES","1050 E STATE HIGHWAY 114 STE 210",SOUTHLAKE,TX,76092-5255,"(972) 971-2103",http://bloomfieldhomes.net/,"(972) 987-4342",,mattjennings@bloomfieldhomes.net
TX,COLLIN,2020-680,"Single Family Homes",9/17/2020,,,2593,"1218 BRIDGEPORT",ANNA,TX,75409,"LAKEVIEW ESTATES",12,CONTRACTOR,,,,,,,,,,,"BLOOMFIELD HOMES",,,,,"BLOOMFIELD HOMES","1050 E STATE HIGHWAY 114 STE 210",SOUTHLAKE,TX,76092-5255,"(972) 971-2103",http://bloomfieldhomes.net/,"(972) 987-4342",,mattjennings@bloomfieldhomes.net
TX,COLLIN,2020-681,"Single Family Homes",9/17/2020,,,2600,"716 LYNDHURST DR",ANNA,TX,75409,"WEST CROSSING",22,CONTRACTOR,,,,,,,,,,,"BLOOMFIELD HOMES",,,,,"BLOOMFIELD HOMES","1050 E STATE HIGHWAY 114 STE 210",SOUTHLAKE,TX,76092-5255,"(972) 971-2103",http://bloomfieldhomes.net/,"(972) 987-4342",,mattjennings@bloomfieldhomes.net
TX,COLLIN,2020-682,"Single Family Homes",9/17/2020,,,3131,"712 HIGHBERRY DR",ANNA,TX,75409,,42,CONTRACTOR,,,,,,,,,,,"BLOOMFIELD HOMES",,,,,"BLOOMFIELD HOMES","1050 E STATE HIGHWAY 114 STE 210",SOUTHLAKE,TX,76092-5255,"(972) 971-2103",http://bloomfieldhomes.net/,"(972) 987-4342",,mattjennings@bloomfieldhomes.net
TX,COLLIN,2020-683,"Single Family Homes",9/17/2020,,,3010,"712 GLENDALE DR",ANNA,TX,75409,,21,CONTRACTOR,,,,,,,,,,,"BLOOMFIELD HOMES",,,,,"BLOOMFIELD HOMES","1050 E STATE HIGHWAY 114 STE 210",SOUTHLAKE,TX,76092-5255,"(972) 971-2103",http://bloomfieldhomes.net/,"(972) 987-4342",,mattjennings@bloomfieldhomes.net
TX,COLLIN,2020-684,"Single Family Homes",9/17/2020,,,2173,"1024 MAPLETON DR",ANNA,TX,75409,,4,CONTRACTOR,,,,,,,,,,,"BLOOMFIELD HOMES",,,,,"BLOOMFIELD HOMES","1050 E STATE HIGHWAY 114 STE 210",SOUTHLAKE,TX,76092-5255,"(972) 971-2103",http://bloomfieldhomes.net/,"(972) 987-4342",,mattjennings@bloomfieldhomes.net
TX,COLLIN,2020-685,"Single Family Homes",9/17/2020,,,3915,"713 PEMBERTON DR",ANNA,TX,75409,,4,CONTRACTOR,,,,,,,,,,,"HIGHLAND HOMES",,,,,"HIGHLAND HOMES","5601 DEMOCRACY DR STE 300",PLANO,TX,75024-3674,"(972) 789-3500",,,,
TX,COLLIN,2020-686,"Single Family Homes",9/17/2020,,,2173,"816 PEMBERTON DR",ANNA,TX,75409,,9,CONTRACTOR,,,,,,,,,,,"BLOOMFIELD HOMES",,,,,"BLOOMFIELD HOMES","1050 E STATE HIGHWAY 114 STE 210",SOUTHLAKE,TX,76092-5255,"(972) 971-2103",http://bloomfieldhomes.net/,"(972) 987-4342",,mattjennings@bloomfieldhomes.net
TX,COLLIN,2020-687,"Single Family Homes",9/24/2020,,,2590,"2112 ADRIANA DR",ANNA,TX,75409,"ANNA CROSSING",22,CONTRACTOR,,,,,,,,,,,"PULTE HOMES",,,,,"PULTE HOMES","4800 REGENT BLVD",IRVING,TX,75063-2439,"(972) 304-2800",,,,
TX,COLLIN,2020-688,"Single Family Homes",9/23/2020,,,2642,"725 GLENDALE DR",ANNA,TX,75409,,28,CONTRACTOR,,,,,,,,,,,"BLOOMFIELD HOMES",,,,,"BLOOMFIELD HOMES","1050 E STATE HIGHWAY 114 STE 210",SOUTHLAKE,TX,76092-5255,"(972) 971-2103",http://bloomfieldhomes.net/,"(972) 987-4342",,mattjennings@bloomfieldhomes.net
TX,COLLIN,2020-689,"Single Family Homes",9/24/2020,,,2590,"1230 BROOKLYN DR",ANNA,TX,75409,"ANNA CROSSING",6,CONTRACTOR,,,,,,,,,,,"PULTE HOMES",,,,,"PULTE HOMES","4800 REGENT BLVD",IRVING,TX,75063-2439,"(972) 304-2800",,,,
TX,COLLIN,2020-691,"Single Family Homes",9/24/2020,,,2523,"2409 CAROLINE ST",ANNA,TX,75409,"ANNA CROSSING",15,CONTRACTOR,,,,,,,,,,,"PULTE HOMES",,,,,"PULTE HOMES","4800 REGENT BLVD",IRVING,TX,75063-2439,"(972) 304-2800",,,,
TX,COLLIN,2020-692,"Single Family Homes",9/24/2020,,,3182,"805 CHERRY BLOSSOM ST",ANNA,TX,75409,"PECAN GROVE",11,CONTRACTOR,,,,,,,,,,,"STARLIGHT HOMES",,,,,"STARLIGHT HOMES","1800 VALLEY VIEW LN STE 100",DALLAS,TX,75234-8944,"(972) 428-5408",,,,
TX,COLLIN,2020-701,"Single Family Homes",9/24/2020,,,2301,"825 CHERRY BLOSSOM ST",ANNA,TX,75409,"PECAN GROVE",6,CONTRACTOR,,,,,,,,,,,"STARLIGHT HOMES",,,,,"STARLIGHT HOMES","1800 VALLEY VIEW LN STE 100",DALLAS,TX,75234-8944,"(972) 428-5408",,,,
TX,COLLIN,2020-702,"Single Family Homes",9/24/2020,,,2082,"821 CHERRY BLOSSOM ST",ANNA,TX,75409,"PECAN GROVE",7,CONTRACTOR,,,,,,,,,,,"STARLIGHT HOMES",,,,,"STARLIGHT HOMES","1800 VALLEY VIEW LN STE 100",DALLAS,TX,75234-8944,"(972) 428-5408",,,,
TX,COLLIN,2020-703,"Single Family Homes",9/24/2020,,,2577,"817 CHERRY BLOSSOM ST",ANNA,TX,75409,"PECAN GROVE",8,CONTRACTOR,,,,,,,,,,,"STARLIGHT HOMES",,,,,"STARLIGHT HOMES","1800 VALLEY VIEW LN STE 100",DALLAS,TX,75234-8944,"(972) 428-5408",,,,
TX,COLLIN,2020-704,"Single Family Homes",9/24/2020,,,2285,"809 CHERRY BLOSSOM ST",ANNA,TX,75409,"PECAN GROVE",10,CONTRACTOR,,,,,,,,,,,"STARLIGHT HOMES",,,,,"STARLIGHT HOMES","1800 VALLEY VIEW LN STE 100",DALLAS,TX,75234-8944,"(972) 428-5408",,,,
TX,COLLIN,2020-705,"Single Family Homes",9/24/2020,,,2353,"813 CHERRY BLOSSOM ST",ANNA,TX,75409,"PECAN GROVE",9,CONTRACTOR,,,,,,,,,,,"STARLIGHT HOMES",,,,,"STARLIGHT HOMES","1800 VALLEY VIEW LN STE 100",DALLAS,TX,75234-8944,"(972) 428-5408",,,,
TX,COLLIN,2020-706,"Single Family Homes",9/25/2020,,,2970,"808 MATHEW DR",ANNA,TX,75409,"ANNA CROSSING",18,CONTRACTOR,,,,,,,,,,,"PACESETTER HOMES ",,,,,"PACESETTER HOMES ","14875 DANEWAY DR",FRISCO,TX,75035-4819,"(214) 298-8350",,,,
TX,COLLIN,2020-707,"Single Family Homes",9/24/2020,,,2970,"1001 BOIS DARC LN",ANNA,TX,75409,"PECAN GROVE",15,CONTRACTOR,,,,,,,,,,,"DR HORTON",,,,,"DR HORTON","6751 NORTH FWY","FT WORTH",TX,76131-2802,"(817) 230-0800",,,,
TX,COLLIN,2020-708,"Single Family Homes",9/25/2020,,,2853,"913 MATHEW DR",ANNA,TX,75409,"ANNA CROSSING",4,CONTRACTOR,,,,,,,,,,,"PACESETTER HOMES ",,,,,"PACESETTER HOMES ","14875 DANEWAY DR",FRISCO,TX,75035-4819,"(214) 298-8350",,,,
TX,COLLIN,2020-709,"Single Family Homes",9/24/2020,,,2252,"308 STARS DR",ANNA,TX,75409,"ANNA CROSSING",23,CONTRACTOR,,,,,,,,,,,"DR HORTON",,,,,"DR HORTON","6751 NORTH FWY","FT WORTH",TX,76131-2802,"(817) 230-0800",,,,
TX,COLLIN,2020-710,"Single Family Homes",9/29/2020,,,2841,"1721 KATELYNN LN",ANNA,TX,75409,"ANNA CROSSING",21,CONTRACTOR,,,,,,,,,,,"DR HORTON",,,,,"DR HORTON","6751 NORTH FWY","FT WORTH",TX,76131-2802,"(817) 230-0800",,,,
TX,COLLIN,2020-711,"Single Family Homes",9/24/2020,,,2995,"917 HOLLY ST",ANNA,TX,75409,"PECAN GROVE",10,CONTRACTOR,,,,,,,,,,,"DR HORTON",,,,,"DR HORTON","6751 NORTH FWY","FT WORTH",TX,76131-2802,"(817) 230-0800",,,,
TX,COLLIN,2020-712,"Single Family Homes",9/29/2020,,,2392,"1220 TIANA ST",ANNA,TX,75409,"ANNA CROSSING",19,CONTRACTOR,,,,,,,,,,,"MEGATEL HOMES",,,,,"MEGATEL HOMES","5512 W PLANO PKWY STE 300",PLANO,TX,75093-4840,"(972) 339-0159",,,,
TX,COLLIN,2020-713,"Single Family Homes",9/29/2020,,,3340,"1253 SHARP ST",ANNA,TX,75409,"ANNA CROSSING",14,CONTRACTOR,,,,,,,,,,,"MEGATEL HOMES",,,,,"MEGATEL HOMES","5512 W PLANO PKWY STE 300",PLANO,TX,75093-4840,"(972) 339-0159",,,,
TX,COLLIN,2020-714,"Single Family Homes",9/29/2020,,,2856,"1249 SHARP ST",ANNA,TX,75409,"ANNA CROSSING",13,CONTRACTOR,,,,,,,,,,,"MEGATEL HOMES",,,,,"MEGATEL HOMES","5512 W PLANO PKWY STE 300",PLANO,TX,75093-4840,"(972) 339-0159",,,,
TX,COLLIN,2020-715,"Single Family Homes",9/29/2020,,,2551,"1257 SHARP ST",ANNA,TX,75409,"ANNA CROSSING",15,CONTRACTOR,,,,,,,,,,,"MEGATEL HOMES",,,,,"MEGATEL HOMES","5512 W PLANO PKWY STE 300",PLANO,TX,75093-4840,"(972) 339-0159",,,,
TX,COLLIN,2020-716,"Single Family Homes",9/29/2020,,,2426,"2401 CAROLINE ST",ANNA,TX,75409,"ANNA CROSSING",13,CONTRACTOR,,,,,,,,,,,"PULTE HOMES",,,,,"PULTE HOMES","4800 REGENT BLVD",IRVING,TX,75063-2439,"(972) 304-2800",,,,
TX,COLLIN,2020-717,"Single Family Homes",9/29/2020,,,3018,"1216 TIANA ST",ANNA,TX,75409,"ANNA CROSSING",,CONTRACTOR,,,,,,,,,,,"MEGATEL HOMES",,,,,"MEGATEL HOMES","5512 W PLANO PKWY STE 300",PLANO,TX,75093-4840,"(972) 339-0159",,,,
TX,COLLIN,2020-718,"Single Family Homes",9/29/2020,,,2691,"1717 KATELYNN LN",ANNA,TX,75409,"ANNA CROSSING",20,CONTRACTOR,,,,,,,,,,,"DR HORTON",,,,,"DR HORTON","6751 NORTH FWY","FT WORTH",TX,76131-2802,"(817) 230-0800",,,,
TX,COLLIN,RES2020-08-03540,"Single Family Homes",9/1/2020,,284160,,"2801 BLACK WALNUT ST",MCKINNEY,TX,75071,"TIMBER CREEK",,CONTRACTOR,,,,,,,,,,,"HIGHLAND HOMES",,,,,"HIGHLAND HOMES","5601 DEMOCRACY DR STE 300",PLANO,TX,75024-3674,"(972) 789-3500",,,,
TX,COLLIN,RES2020-07-03192,"Single Family Homes",9/1/2020,,349248,,"2809 BLACK WALNUT ST",MCKINNEY,TX,75071,"TIMBER CREEK",,CONTRACTOR,,,,,,,,,,,"HIGHLAND HOMES",,,,,"HIGHLAND HOMES","5601 DEMOCRACY DR STE 300",PLANO,TX,75024-3674,"(972) 789-3500",,,,
TX,COLLIN,RES2020-08-03543,"Single Family Homes",9/1/2020,,285504,,"4112 SWEET BIRCH DR",MCKINNEY,TX,75071,"TIMBER CREEK",,CONTRACTOR,,,,,,,,,,,"HIGHLAND HOMES",,,,,"HIGHLAND HOMES","5601 DEMOCRACY DR STE 300",PLANO,TX,75024-3674,"(972) 789-3500",,,,
TX,COLLIN,RES2020-08-03896,"Single Family Homes",9/1/2020,,248928,,"2408 JEANS MILL DR",MCKINNEY,TX,75071,"CHAPEL TRAILS",,CONTRACTOR,,,,,,,,,,,"M/I HOMES",,,,,"M/I HOMES","405 STATE HIGHWAY 121 BYP STE A210",LEWISVILLE,TX,75067-8214,"(210) 546-2129",,"(210) 546-2196",,
TX,COLLIN,RES2020-06-02579,"Single Family Homes",9/1/2020,,427968,,"8908 ROSEWAY TRL",MCKINNEY,TX,75071,"TRINITY FALLS",,CONTRACTOR,,,,,,,,,,,"DREES CUSTOM HOMES",,,,,"DREES CUSTOM HOMES","6225 N STATE HIGHWAY 161 STE 150",IRVING,TX,75038-2283,"(972) 953-4500",http://www.dreeshomes.com,,,
TX,COLLIN,RES2020-08-03541,"Single Family Homes",9/2/2020,,309120,,"2805 BLACK WALNUT ST",MCKINNEY,TX,75071,"TIMBER CREEK",,CONTRACTOR,,,,,,,,,,,"HIGHLAND HOMES",,,,,"HIGHLAND HOMES","5601 DEMOCRACY DR STE 300",PLANO,TX,75024-3674,"(972) 789-3500",,,,
TX,COLLIN,RES2020-08-03544,"Single Family Homes",9/2/2020,,274560,,"4108 MONTEREY PINE PL",MCKINNEY,TX,75071,"TIMBER CREEK",,CONTRACTOR,,,,,,,,,,,"HIGHLAND HOMES",,,,,"HIGHLAND HOMES","5601 DEMOCRACY DR STE 300",PLANO,TX,75024-3674,"(972) 789-3500",,,,
TX,COLLIN,RES2020-08-03906,"Single Family Homes",9/2/2020,,362592,,"8600 SAND HILLS DR",MCKINNEY,TX,75070,"SOUTHERN HILLS AT CRAIG RANCH",,CONTRACTOR,,,,,,,,,,,"ASHTON WOODS HOMES",,,,,"ASHTON WOODS HOMES","1221 N INTERSTATE 35E STE 170",CARROLLTON,TX,75006-3806,"(972) 428-5404",,,,
TX,COLLIN,RES2020-08-03892,"Single Family Homes",9/2/2020,,445728,,"4409 DORCHESTER DR",MCKINNEY,TX,75071,"WILLOW WOOD",,CONTRACTOR,,,,,,,,,,,"FIRST TEXAS HOMES",,,,,"FIRST TEXAS HOMES","500 CRESCENT CT STE 350",DALLAS,TX,75201-7854,"(214) 613-3400",,"(214) 432-0350",,
TX,COLLIN,RES2020-08-03902,"Single Family Homes",9/2/2020,,260064,,"8544 SAND HILLS DR",MCKINNEY,TX,75070,"SOUTHERN HILLS AT CRAIG RANCH",,CONTRACTOR,,,,,,,,,,,"ASHTON WOODS HOMES",,,,,"ASHTON WOODS HOMES","1221 N INTERSTATE 35E STE 170",CARROLLTON,TX,75006-3806,"(972) 428-5404",,,,
TX,COLLIN,RES2020-08-03890,"Single Family Homes",9/2/2020,,380640,,"1317 GRANGER DR",MCKINNEY,TX,75071,"WILLOW WOOD",,CONTRACTOR,,,,,,,,,,,"FIRST TEXAS HOMES",,,,,"FIRST TEXAS HOMES","500 CRESCENT CT STE 350",DALLAS,TX,75201-7854,"(214) 613-3400",,"(214) 432-0350",,
TX,COLLIN,RES2020-08-03893,"Single Family Homes",9/2/2020,,370080,,"4204 LINWOOD AVE",MCKINNEY,TX,75071,"WILLOW WOOD",,CONTRACTOR,,,,,,,,,,,"FIRST TEXAS HOMES",,,,,"FIRST TEXAS HOMES","500 CRESCENT CT STE 350",DALLAS,TX,75201-7854,"(214) 613-3400",,"(214) 432-0350",,
TX,COLLIN,RES2020-08-03931,"Single Family Homes",9/3/2020,,479808,,"6225 CRYSTAL COVE CT",MCKINNEY,TX,75071,"EMERALD HEIGHTS",,CONTRACTOR,,,,,,,,,,,"AMERICAN LEGEND HOMES",,,,,"AMERICAN LEGEND HOMES","2540 KING ARTHUR BLVD STE 200",LEWISVILLE,TX,75056-5833,"(972) 410-5701",http://www.amlegendhomes.com/,"(972) 410-5750",,
TX,COLLIN,RES2020-08-03998,"Single Family Homes",9/3/2020,,253344,,"4113 SWEET BIRCH DR",MCKINNEY,TX,75071,"TIMBER CREEK",,CONTRACTOR,,,,,,,,,,,"HIGHLAND HOMES",,,,,"HIGHLAND HOMES","5601 DEMOCRACY DR STE 300",PLANO,TX,75024-3674,"(972) 789-3500",,,,
TX,COLLIN,RES2020-08-03970,"Single Family Homes",9/3/2020,,240384,,"9109 SHADY SPRING LN",MCKINNEY,TX,75071,"TRINITY FALLS ",,CONTRACTOR,,,,,,,,,,,"PULTE HOMES",,,,,"PULTE HOMES","4800 REGENT BLVD",IRVING,TX,75063-2439,"(972) 304-2800",,,,
TX,COLLIN,RES2020-08-04000,"Single Family Homes",9/3/2020,,264000,,"2729 BLACK WALNUT ST",MCKINNEY,TX,75071,"TIMBER CREEK",,CONTRACTOR,,,,,,,,,,,"HIGHLAND HOMES",,,,,"HIGHLAND HOMES","5601 DEMOCRACY DR STE 300",PLANO,TX,75024-3674,"(972) 789-3500",,,,
TX,COLLIN,RES2020-08-03981,"Single Family Homes",9/3/2020,,443520,,"1204 PUTMAN DR",MCKINNEY,TX,75071,"WILLOW WOOD",,CONTRACTOR,,,,,,,,,,,"BLOOMFIELD HOMES",,,,,"BLOOMFIELD HOMES","1050 E STATE HIGHWAY 114 STE 210",SOUTHLAKE,TX,76092-5255,"(972) 971-2103",http://bloomfieldhomes.net/,"(972) 987-4342",,mattjennings@bloomfieldhomes.net
TX,COLLIN,RES2020-08-03983,"Single Family Homes",9/3/2020,,248928,,"4100 BIRD CT",MCKINNEY,TX,75071,"WILLOW WOOD",,CONTRACTOR,,,,,,,,,,,"BLOOMFIELD HOMES",,,,,"BLOOMFIELD HOMES","1050 E STATE HIGHWAY 114 STE 210",SOUTHLAKE,TX,76092-5255,"(972) 971-2103",http://bloomfieldhomes.net/,"(972) 987-4342",,mattjennings@bloomfieldhomes.net
TX,COLLIN,RES2020-08-03990,"Single Family Homes",9/3/2020,,425952,,"3710 ROTH DR",MCKINNEY,TX,75071,"ERWIN FARMS",,CONTRACTOR,,,,,,,,,,,"PULTE HOMES",,,,,"PULTE HOMES","4800 REGENT BLVD",IRVING,TX,75063-2439,"(972) 304-2800",,,,
TX,COLLIN,RES2020-08-04002,"Single Family Homes",9/3/2020,,258816,,"4104 SWEET BIRCH DR",MCKINNEY,TX,75071,"TIMBER CREEK",,CONTRACTOR,,,,,,,,,,,"HIGHLAND HOMES",,,,,"HIGHLAND HOMES","5601 DEMOCRACY DR STE 300",PLANO,TX,75024-3674,"(972) 789-3500",,,,
TX,COLLIN,RES2020-08-03971,"Single Family Homes",9/3/2020,,215808,,"805 HIDDEN EDDY DR",MCKINNEY,TX,75071,"TRINITY FALLS",,CONTRACTOR,,,,,,,,,,,"PULTE HOMES",,,,,"PULTE HOMES","4800 REGENT BLVD",IRVING,TX,75063-2439,"(972) 304-2800",,,,
TX,COLLIN,RES2020-08-03593,"Single Family Homes",9/3/2020,,319872,,"2404 JEANS MILL DR",MCKINNEY,TX,75071,"CHAPEL TRAILS",,CONTRACTOR,,,,,,,,,,,"M/I HOMES",,,,,"M/I HOMES","405 STATE HIGHWAY 121 BYP STE A210",LEWISVILLE,TX,75067-8214,"(210) 546-2129",,"(210) 546-2196",,
TX,COLLIN,RES2020-08-04008,"Single Family Homes",9/3/2020,,274560,,"4128 SWEET BIRCH DR",MCKINNEY,TX,75071,"TIMBER CREEK",,CONTRACTOR,,,,,,,,,,,"HIGHLAND HOMES",,,,,"HIGHLAND HOMES","5601 DEMOCRACY DR STE 300",PLANO,TX,75024-3674,"(972) 789-3500",,,,
TX,COLLIN,RES2020-08-03984,"Single Family Homes",9/3/2020,,370368,,"1228 FARGO DR",MCKINNEY,TX,75071,"WILLOW WOOD",,CONTRACTOR,,,,,,,,,,,"BLOOMFIELD HOMES",,,,,"BLOOMFIELD HOMES","1050 E STATE HIGHWAY 114 STE 210",SOUTHLAKE,TX,76092-5255,"(972) 971-2103",http://bloomfieldhomes.net/,"(972) 987-4342",,mattjennings@bloomfieldhomes.net
TX,COLLIN,RES2020-08-03985,"Single Family Homes",9/3/2020,,389856,,"4300 LINWOOD AVE",MCKINNEY,TX,75071,"WILLOW WOOD",,CONTRACTOR,,,,,,,,,,,"BLOOMFIELD HOMES",,,,,"BLOOMFIELD HOMES","1050 E STATE HIGHWAY 114 STE 210",SOUTHLAKE,TX,76092-5255,"(972) 971-2103",http://bloomfieldhomes.net/,"(972) 987-4342",,mattjennings@bloomfieldhomes.net
TX,COLLIN,RES2020-08-03977,"Single Family Homes",9/3/2020,,264000,,"4124 MONTEREY PINE PL",MCKINNEY,TX,75071,"TIMBER CREEK",,CONTRACTOR,,,,,,,,,,,"HIGHLAND HOMES",,,,,"HIGHLAND HOMES","5601 DEMOCRACY DR STE 300",PLANO,TX,75024-3674,"(972) 789-3500",,,,
TX,COLLIN,RES2020-08-03957,"Single Family Homes",9/3/2020,,324576,,"8913 CEDAR BASIN DR",MCKINNEY,TX,75071,"TRINITY FALLS",,CONTRACTOR,,,,,,,,,,,"CHESMAR HOMES",,,,,"CHESMAR HOMES","1600 N COLLINS BLVD STE 1400",RICHARDSON,TX,75080-3669,"(972) 982-2572",http://chesmar.com,"(972) 982-2572",,customerservice.dallas@chesmar.com
TX,COLLIN,RES2020-08-03982,"Single Family Homes",9/3/2020,,397152,,"1333 PUTMAN DR",MCKINNEY,TX,75071,"WILLOW WOOD",,CONTRACTOR,,,,,,,,,,,"BLOOMFIELD HOMES",,,,,"BLOOMFIELD HOMES","1050 E STATE HIGHWAY 114 STE 210",SOUTHLAKE,TX,76092-5255,"(972) 971-2103",http://bloomfieldhomes.net/,"(972) 987-4342",,mattjennings@bloomfieldhomes.net
TX,COLLIN,RES2020-08-03953,"Single Family Homes",9/3/2020,,338016,,"1025 CHAMBERS CREEK COVE",MCKINNEY,TX,75071,"TRINITY FALLS",,CONTRACTOR,,,,,,,,,,,"CHESMAR HOMES",,,,,"CHESMAR HOMES","1600 N COLLINS BLVD STE 1400",RICHARDSON,TX,75080-3669,"(972) 982-2572",http://chesmar.com,"(972) 982-2572",,customerservice.dallas@chesmar.com
TX,COLLIN,RES2020-08-04022,"Single Family Homes",9/3/2020,,244512,,"1229 FARGO DR",MCKINNEY,TX,75071,"WILLOW WOOD",,CONTRACTOR,,,,,,,,,,,"CHESMAR HOMES",,,,,"CHESMAR HOMES","1600 N COLLINS BLVD STE 1400",RICHARDSON,TX,75080-3669,"(972) 982-2572",http://chesmar.com,"(972) 982-2572",,customerservice.dallas@chesmar.com
TX,COLLIN,RES2020-08-03837,"Single Family Homes",9/3/2020,,256704,,"4116 MONTEREY PINE PL",MCKINNEY,TX,75071,"TIMBER CREEK",,CONTRACTOR,,,,,,,,,,,"HIGHLAND HOMES",,,,,"HIGHLAND HOMES","5601 DEMOCRACY DR STE 300",PLANO,TX,75024-3674,"(972) 789-3500",,,,
TX,COLLIN,RES2020-08-03949,"Single Family Homes",9/4/2020,,323808,,"1009 CHAMBERS CREEK COVE",MCKINNEY,TX,75071,"TRINITY FALLS",,CONTRACTOR,,,,,,,,,,,"CHESMAR HOMES",,,,,"CHESMAR HOMES","1600 N COLLINS BLVD STE 1400",RICHARDSON,TX,75080-3669,"(972) 982-2572",http://chesmar.com,"(972) 982-2572",,customerservice.dallas@chesmar.com
TX,COLLIN,RES2020-08-03911,"Single Family Homes",9/4/2020,,323424,,"5905 AUGUSTINE RD",MCKINNEY,TX,75071,"WILMETH RIDGE",,CONTRACTOR,,,,,,,,,,,"GRAND HOMES",,,,,"GRAND HOMES","15455 DALLAS PKWY STE 1000",ADDISON,TX,75001-6772,"(214) 750-6528",http://www.grandhomes.com/,"(214) 750-6849",,info@grandhomes.com
TX,COLLIN,RES2020-08-03909,"Single Family Homes",9/4/2020,,250272,,"4804 SAGUARO RDG",MCKINNEY,TX,75070,"LAKE FOREST",,CONTRACTOR,,,,,,,,,,,"GRAND HOMES",,,,,"GRAND HOMES","15455 DALLAS PKWY STE 1000",ADDISON,TX,75001-6772,"(214) 750-6528",http://www.grandhomes.com/,"(214) 750-6849",,info@grandhomes.com
TX,COLLIN,RES2020-07-03212,"Single Family Homes",9/4/2020,,288960,,"8504 ROYAL COUNTY DOWN DR",MCKINNEY,TX,75070,"SOUTHERN HILLS AT CRAIG RANCH",,CONTRACTOR,,,,,,,,,,,"ASHTON WOODS HOMES",,,,,"ASHTON WOODS HOMES","1221 N INTERSTATE 35E STE 170",CARROLLTON,TX,75006-3806,"(972) 428-5404",,,,
TX,COLLIN,RES2020-09-04037,"Single Family Homes",9/8/2020,,422112,,"1109 CHAMBERS CREEK COVE",MCKINNEY,TX,75071,"TRINITY FALLS",,CONTRACTOR,,,,,,,,,,,"CHESMAR HOMES",,,,,"CHESMAR HOMES","1600 N COLLINS BLVD STE 1400",RICHARDSON,TX,75080-3669,"(972) 982-2572",http://chesmar.com,"(972) 982-2572",,customerservice.dallas@chesmar.com
TX,COLLIN,RES2020-07-03236,"Single Family Homes",9/8/2020,,324768,,"3201 SARALA CT",MCKINNEY,TX,75069,"MERIDIAN AT SOUTHGATE",,CONTRACTOR,,,,,,,,,,,"ASHTON WOODS HOMES",,,,,"ASHTON WOODS HOMES","1221 N INTERSTATE 35E STE 170",CARROLLTON,TX,75006-3806,"(972) 428-5404",,,,
TX,COLLIN,RES2020-08-04020,"Single Family Homes",9/8/2020,,268704,,"2725 BLACK WALNUT ST",MCKINNEY,TX,75071,"TIMBER CREEK",,CONTRACTOR,,,,,,,,,,,"HIGHLAND HOMES",,,,,"HIGHLAND HOMES","5601 DEMOCRACY DR STE 300",PLANO,TX,75024-3674,"(972) 789-3500",,,,
TX,COLLIN,RES2020-08-03975,"Single Family Homes",9/8/2020,,354528,,"3205 SARALA CT",MCKINNEY,TX,75069,"MERIDIAN AT SOUTHGATE",,CONTRACTOR,,,,,,,,,,,"ASHTON WOODS HOMES",,,,,"ASHTON WOODS HOMES","1221 N INTERSTATE 35E STE 170",CARROLLTON,TX,75006-3806,"(972) 428-5404",,,,
TX,COLLIN,RES2020-08-03976,"Single Family Homes",9/8/2020,,302016,,"921 QUEENS LAKE TRL",MCKINNEY,TX,75071,"TRINITY FALLS",,CONTRACTOR,,,,,,,,,,,"PERRY HOMES",,,,,"PERRY HOMES","2004 VENTURA DR STE 200",PLANO,TX,75093-2003,"(972) 964-7700",,,,
TX,COLLIN,RES2020-08-03980,"Single Family Homes",9/8/2020,,370176,,"3209 SARALA CT",MCKINNEY,TX,75069,"MERIDIAN AT SOUTHGATE",,CONTRACTOR,,,,,,,,,,,"ASHTON WOODS HOMES",,,,,"ASHTON WOODS HOMES","1221 N INTERSTATE 35E STE 170",CARROLLTON,TX,75006-3806,"(972) 428-5404",,,,
TX,COLLIN,RES2019-06-03683,"Single Family Homes",9/8/2020,,404832,,"2429 CHAPEL OAKS DR",MCKINNEY,TX,75071,"CHAPEL TRAILS",,CONTRACTOR,,,,,,,,,,,"ADOLPHUS HOMES",,,,,"ADOLPHUS HOMES","15400 KNOLL TRAIL DR STE 107",DALLAS,TX,75248-7087,"(214) 901-5020",http://www.adolphushomes.com/,"(866) 884-2700",,
TX,COLLIN,RES2020-08-04025,"Single Family Homes",9/8/2020,,333120,,"813 LANCASTER DR",MCKINNEY,TX,75071,"WILLOW WOOD",,CONTRACTOR,,,,,,,,,,,"CHESMAR HOMES",,,,,"CHESMAR HOMES","1600 N COLLINS BLVD STE 1400",RICHARDSON,TX,75080-3669,"(972) 982-2572",http://chesmar.com,"(972) 982-2572",,customerservice.dallas@chesmar.com
TX,COLLIN,RES2020-07-03294,"Single Family Homes",9/8/2020,,283200,,"3301 SARALA CT",MCKINNEY,TX,75069,"MERIDIAN AT SOUTHGATE",,CONTRACTOR,,,,,,,,,,,"ASHTON WOODS HOMES",,,,,"ASHTON WOODS HOMES","1221 N INTERSTATE 35E STE 170",CARROLLTON,TX,75006-3806,"(972) 428-5404",,,,
TX,COLLIN,RES2020-08-03834,"Single Family Homes",9/8/2020,,271968,,"3212 TAUNTON WAY",MCKINNEY,TX,75069,"MERIDIAN AT SOUTHGATE",,CONTRACTOR,,,,,,,,,,,"ASHTON WOODS HOMES",,,,,"ASHTON WOODS HOMES","1221 N INTERSTATE 35E STE 170",CARROLLTON,TX,75006-3806,"(972) 428-5404",,,,
TX,COLLIN,RES2020-08-04024,"Single Family Homes",9/8/2020,,263712,,"721 LANCASTER DR",MCKINNEY,TX,75071,"WILLOW WOOD",,CONTRACTOR,,,,,,,,,,,"CHESMAR HOMES",,,,,"CHESMAR HOMES","1600 N COLLINS BLVD STE 1400",RICHARDSON,TX,75080-3669,"(972) 982-2572",http://chesmar.com,"(972) 982-2572",,customerservice.dallas@chesmar.com
TX,COLLIN,RES2020-08-04016,"Single Family Homes",9/9/2020,,325056,,"8213 SAN BERNARD TRL",MCKINNEY,TX,75071,"TRINITY FALLS",,CONTRACTOR,,,,,,,,,,,"HIGHLAND HOMES",,,,,"HIGHLAND HOMES","5601 DEMOCRACY DR STE 300",PLANO,TX,75024-3674,"(972) 789-3500",,,,
TX,COLLIN,RES2020-09-04039,"Single Family Homes",9/9/2020,,422112,,"8704 BRUSHY SPRINGS DR",MCKINNEY,TX,75071,"TRINITY FALLS",,CONTRACTOR,,,,,,,,,,,"CHESMAR HOMES",,,,,"CHESMAR HOMES","1600 N COLLINS BLVD STE 1400",RICHARDSON,TX,75080-3669,"(972) 982-2572",http://chesmar.com,"(972) 982-2572",,customerservice.dallas@chesmar.com
TX,COLLIN,RES2020-07-03292,"Single Family Homes",9/9/2020,,343008,,"517 AMISTAD COVE",MCKINNEY,TX,75071,"TRINITY FALLS",,CONTRACTOR,,,,,,,,,,,"DREES CUSTOM HOMES",,,,,"DREES CUSTOM HOMES","6225 N STATE HIGHWAY 161 STE 150",IRVING,TX,75038-2283,"(972) 953-4500",http://www.dreeshomes.com,,,
TX,COLLIN,RES2020-09-04047,"Single Family Homes",9/9/2020,,504768,,"5924 STOLTZ DR",MCKINNEY,TX,75071,"WILMETH RIDGE",,CONTRACTOR,,,,,,,,,,,"SHADDOCK HOMES",,,,,"SHADDOCK HOMES","2400 DALLAS PKWY",PLANO,TX,75093-4370,"(469) 241-9581",http://www.shaddockhomes.com,,,
TX,COLLIN,RES2020-08-03967,"Single Family Homes",9/9/2020,,379104,,"8508 AUTUMN LAKE TRL",MCKINNEY,TX,75071,"TRINITY FALLS",,CONTRACTOR,,,,,,,,,,,"HIGHLAND HOMES",,,,,"HIGHLAND HOMES","5601 DEMOCRACY DR STE 300",PLANO,TX,75024-3674,"(972) 789-3500",,,,
TX,COLLIN,RES2020-09-04038,"Single Family Homes",9/9/2020,,354720,,"3101 CALVIN RD",MCKINNEY,TX,75071,"WILMETH RIDGE",,CONTRACTOR,,,,,,,,,,,"SHADDOCK HOMES",,,,,"SHADDOCK HOMES","2400 DALLAS PKWY",PLANO,TX,75093-4370,"(469) 241-9581",http://www.shaddockhomes.com,,,
TX,COLLIN,RES2020-09-04040,"Single Family Homes",9/9/2020,,344544,,"1017 LANCASTER DR",MCKINNEY,TX,75071,"WILLOW WOOD",,CONTRACTOR,,,,,,,,,,,"CHESMAR HOMES",,,,,"CHESMAR HOMES","1600 N COLLINS BLVD STE 1400",RICHARDSON,TX,75080-3669,"(972) 982-2572",http://chesmar.com,"(972) 982-2572",,customerservice.dallas@chesmar.com
TX,COLLIN,RES2020-09-04091,"Single Family Homes",9/10/2020,,398016,,"8828 AUTUMN LAKE TRL",MCKINNEY,TX,75071,"TRINITY FALLS",,CONTRACTOR,,,,,,,,,,,"HIGHLAND HOMES",,,,,"HIGHLAND HOMES","5601 DEMOCRACY DR STE 300",PLANO,TX,75024-3674,"(972) 789-3500",,,,
TX,COLLIN,RES2020-08-03950,"Single Family Homes",9/11/2020,,379488,,"8701 ROSEWAY TRL",MCKINNEY,TX,75071,"TRINITY FALLS",,CONTRACTOR,,,,,,,,,,,"DREES CUSTOM HOMES",,,,,"DREES CUSTOM HOMES","6225 N STATE HIGHWAY 161 STE 150",IRVING,TX,75038-2283,"(972) 953-4500",http://www.dreeshomes.com,,,
TX,COLLIN,RES2020-08-03979,"Single Family Homes",9/11/2020,,592896,,"8713 VERONA DR",MCKINNEY,TX,75071,"ESTATES OF VERONA",,CONTRACTOR,,,,,,,,,,,"GRAND HOMES",,,,,"GRAND HOMES","15455 DALLAS PKWY STE 1000",ADDISON,TX,75001-6772,"(214) 750-6528",http://www.grandhomes.com/,"(214) 750-6849",,info@grandhomes.com
TX,COLLIN,RES2020-08-03814,"Single Family Homes",9/11/2020,,449376,,"8101 KICKAPOO DR",MCKINNEY,TX,75070,"SETTLEMENT AT CRAIG RANCH",,CONTRACTOR,,,,,,,,,,,"ACE DFW CONSTRUCTION",,,,,"ACE DFW CONSTRUCTION","3577 N BELT LINE RD # 320",IRVING,TX,75062-7804,"(469) 867-2419",,,"TARIQ JALIL",
TX,COLLIN,RES2020-09-04077,"Single Family Homes",9/11/2020,,310368,,"2629 DAVIS MEADOW DR",MCKINNEY,TX,75071,"TIMBER CREEK",,CONTRACTOR,,,,,,,,,,,"HIGHLAND HOMES",,,,,"HIGHLAND HOMES","5601 DEMOCRACY DR STE 300",PLANO,TX,75024-3674,"(972) 789-3500",,,,
TX,COLLIN,RES2020-07-03331,"Single Family Homes",9/11/2020,,342432,,"3809 BAMBOO TRL",MCKINNEY,TX,75071,"TIMBER CREEK",,CONTRACTOR,,,,,,,,,,,"DREES CUSTOM HOMES",,,,,"DREES CUSTOM HOMES","6225 N STATE HIGHWAY 161 STE 150",IRVING,TX,75038-2283,"(972) 953-4500",http://www.dreeshomes.com,,,
TX,COLLIN,RES2020-08-04015,"Single Family Homes",9/11/2020,,265536,,"4120 MONTEREY PINE PL",MCKINNEY,TX,75071,"TIMBER CREEK",,CONTRACTOR,,,,,,,,,,,"HIGHLAND HOMES",,,,,"HIGHLAND HOMES","5601 DEMOCRACY DR STE 300",PLANO,TX,75024-3674,"(972) 789-3500",,,,
TX,COLLIN,RES2020-09-04195,"Single Family Homes",9/14/2020,,265728,,"4120 SWEET BIRCH DR",MCKINNEY,TX,75071,"TIMBER CREEK",,CONTRACTOR,,,,,,,,,,,"HIGHLAND HOMES",,,,,"HIGHLAND HOMES","5601 DEMOCRACY DR STE 300",PLANO,TX,75024-3674,"(972) 789-3500",,,,
TX,COLLIN,RES2020-09-04104,"Single Family Homes",9/14/2020,,242976,,"909 FORGOTTEN FOREST WAY",MCKINNEY,TX,75071,"TRINITY FALLS",,CONTRACTOR,,,,,,,,,,,"PULTE HOMES",,,,,"PULTE HOMES","4800 REGENT BLVD",IRVING,TX,75063-2439,"(972) 304-2800",,,,
TX,COLLIN,RES2020-08-04009,"Single Family Homes",9/14/2020,,425952,,"2705 GILLINGHAM LN",MCKINNEY,TX,75071,"AUBURN HILLS",,CONTRACTOR,,,,,,,,,,,"PULTE HOMES",,,,,"PULTE HOMES","4800 REGENT BLVD",IRVING,TX,75063-2439,"(972) 304-2800",,,,
TX,COLLIN,RES2020-09-04126,"Single Family Homes",9/15/2020,,246336,,"1000 QUEENS LAKE TRL",MCKINNEY,TX,75071,"TRINITY FALLS",,CONTRACTOR,,,,,,,,,,,"PERRY HOMES",,,,,"PERRY HOMES","2004 VENTURA DR STE 200",PLANO,TX,75093-2003,"(972) 964-7700",,,,
TX,COLLIN,RES2020-09-04190,"Single Family Homes",9/15/2020,,264000,,"2940 GREENHIGH LN",MCKINNEY,TX,75071,"TIMBER CREEK",,CONTRACTOR,,,,,,,,,,,"HIGHLAND HOMES",,,,,"HIGHLAND HOMES","5601 DEMOCRACY DR STE 300",PLANO,TX,75024-3674,"(972) 789-3500",,,,
TX,COLLIN,RES2020-09-04151,"Single Family Homes",9/15/2020,,369984,,"8213 COTTAGE DR",MCKINNEY,TX,75070,"SOUTHERN HILLS AT CRAIG RANCH",,CONTRACTOR,,,,,,,,,,,"BLOOMFIELD HOMES",,,,,"BLOOMFIELD HOMES","1050 E STATE HIGHWAY 114 STE 210",SOUTHLAKE,TX,76092-5255,"(972) 971-2103",http://bloomfieldhomes.net/,"(972) 987-4342",,mattjennings@bloomfieldhomes.net
TX,COLLIN,RES2020-09-04131,"Single Family Homes",9/15/2020,,376416,,"1229 PORTER LN",MCKINNEY,TX,75071,"WILLOW WOOD",,CONTRACTOR,,,,,,,,,,,"BLOOMFIELD HOMES",,,,,"BLOOMFIELD HOMES","1050 E STATE HIGHWAY 114 STE 210",SOUTHLAKE,TX,76092-5255,"(972) 971-2103",http://bloomfieldhomes.net/,"(972) 987-4342",,mattjennings@bloomfieldhomes.net
TX,COLLIN,RES2020-09-04094,"Single Family Homes",9/15/2020,,358944,,"1205 GRANGER DR",MCKINNEY,TX,75071,"WILLOW WOOD",,CONTRACTOR,,,,,,,,,,,"BLOOMFIELD HOMES",,,,,"BLOOMFIELD HOMES","1050 E STATE HIGHWAY 114 STE 210",SOUTHLAKE,TX,76092-5255,"(972) 971-2103",http://bloomfieldhomes.net/,"(972) 987-4342",,mattjennings@bloomfieldhomes.net
TX,COLLIN,RES2020-09-04132,"Single Family Homes",9/15/2020,,376416,,"1005 GRANGER DR",MCKINNEY,TX,75071,"WILLOW WOOD",,CONTRACTOR,,,,,,,,,,,"BLOOMFIELD HOMES",,,,,"BLOOMFIELD HOMES","1050 E STATE HIGHWAY 114 STE 210",SOUTHLAKE,TX,76092-5255,"(972) 971-2103",http://bloomfieldhomes.net/,"(972) 987-4342",,mattjennings@bloomfieldhomes.net
TX,COLLIN,RES2020-09-04116,"Single Family Homes",9/15/2020,,533760,,"6113 CRYSTAL COVE CT",MCKINNEY,TX,75071,"EMERALD HEIGHTS",,CONTRACTOR,,,,,,,,,,,"M/I HOMES",,,,,"M/I HOMES","405 STATE HIGHWAY 121 BYP STE A210",LEWISVILLE,TX,75067-8214,"(210) 546-2129",,"(210) 546-2196",,
TX,COLLIN,RES2020-09-04062,"Single Family Homes",9/15/2020,,534048,,"8613 BANDON DUNES DR",MCKINNEY,TX,75070,"SOUTHERN HILLS AT CRAIG RANCH",,CONTRACTOR,,,,,,,,,,,"ASHTON WOODS HOMES",,,,,"ASHTON WOODS HOMES","1221 N INTERSTATE 35E STE 170",CARROLLTON,TX,75006-3806,"(972) 428-5404",,,,
TX,COLLIN,RES2020-09-04158,"Single Family Homes",9/15/2020,,248064,,"1217 PORTER LN",MCKINNEY,TX,75071,"WILLOW WOOD",,CONTRACTOR,,,,,,,,,,,"BLOOMFIELD HOMES",,,,,"BLOOMFIELD HOMES","1050 E STATE HIGHWAY 114 STE 210",SOUTHLAKE,TX,76092-5255,"(972) 971-2103",http://bloomfieldhomes.net/,"(972) 987-4342",,mattjennings@bloomfieldhomes.net
TX,COLLIN,RES2020-09-04161,"Single Family Homes",9/15/2020,,393120,,"8612 SAND HILLS DR",MCKINNEY,TX,75070,"SOUTHERN HILLS AT CRAIG RANCH",,CONTRACTOR,,,,,,,,,,,"ASHTON WOODS HOMES",,,,,"ASHTON WOODS HOMES","1221 N INTERSTATE 35E STE 170",CARROLLTON,TX,75006-3806,"(972) 428-5404",,,,
TX,COLLIN,RES2020-09-04196,"Single Family Homes",9/15/2020,,256704,,"2813 BLACK WALNUT ST",MCKINNEY,TX,75071,"TIMBER CREEK",,CONTRACTOR,,,,,,,,,,,"HIGHLAND HOMES",,,,,"HIGHLAND HOMES","5601 DEMOCRACY DR STE 300",PLANO,TX,75024-3674,"(972) 789-3500",,,,
TX,COLLIN,RES2020-08-03515,"Single Family Homes",9/15/2020,,406752,,"6613 CRISTO LN",MCKINNEY,TX,75070,BARCELONA,,CONTRACTOR,,,,,,,,,,,"DREES CUSTOM HOMES",,,,,"DREES CUSTOM HOMES","6225 N STATE HIGHWAY 161 STE 150",IRVING,TX,75038-2283,"(972) 953-4500",http://www.dreeshomes.com,,,
TX,COLLIN,RES2020-09-04127,"Single Family Homes",9/16/2020,,248256,,"1012 QUEENS LAKE TRL",MCKINNEY,TX,75071,"TRINITY FALLS",,CONTRACTOR,,,,,,,,,,,"PERRY HOMES",,,,,"PERRY HOMES","2004 VENTURA DR STE 200",PLANO,TX,75093-2003,"(972) 964-7700",,,,
TX,COLLIN,RES2020-09-04103,"Single Family Homes",9/16/2020,,430368,,"520 AMISTAD COVE",MCKINNEY,TX,75071,"TRINITY FALLS",,CONTRACTOR,,,,,,,,,,,"PERRY HOMES",,,,,"PERRY HOMES","2004 VENTURA DR STE 200",PLANO,TX,75093-2003,"(972) 964-7700",,,,
TX,COLLIN,RES2020-09-04125,"Single Family Homes",9/16/2020,,302016,,"1033 SAFFOLD TRL",MCKINNEY,TX,75071,"TRINITY FALLS",,CONTRACTOR,,,,,,,,,,,"PERRY HOMES",,,,,"PERRY HOMES","2004 VENTURA DR STE 200",PLANO,TX,75093-2003,"(972) 964-7700",,,,
TX,COLLIN,RES2020-06-02574,"Single Family Homes",9/17/2020,,370176,,"8613 BARNBOUGLE DUNES DR",MCKINNEY,TX,75070,"SOUTHERN HILLS AT CRAIG RANCH",,CONTRACTOR,,,,,,,,,,,"ASHTON WOODS HOMES",,,,,"ASHTON WOODS HOMES","1221 N INTERSTATE 35E STE 170",CARROLLTON,TX,75006-3806,"(972) 428-5404",,,,
TX,COLLIN,RES2020-09-04177,"Single Family Homes",9/17/2020,,242592,,"329 MUSTANG DRAW TRL",MCKINNEY,TX,75071,"TRINITY FALLS",,CONTRACTOR,,,,,,,,,,,"MHI MCGUYER HOMEBUILDERS",,,,,"MHI MCGUYER HOMEBUILDERS","1501 LYNDON B JOHNSON FWY STE 100",DALLAS,TX,75234-6029,"(972) 277-3811",,,,
TX,COLLIN,RES2020-09-04175,"Single Family Homes",9/17/2020,,266592,,"1017 SAFFOLD TRL",MCKINNEY,TX,75071,"TRINITY FALLS",,CONTRACTOR,,,,,,,,,,,"MHI MCGUYER HOMEBUILDERS",,,,,"MHI MCGUYER HOMEBUILDERS","1501 LYNDON B JOHNSON FWY STE 100",DALLAS,TX,75234-6029,"(972) 277-3811",,,,
TX,COLLIN,RES2020-09-04145,"Single Family Homes",9/17/2020,,244896,,"1008 QUEENS LAKE TRL",MCKINNEY,TX,75071,"TRINITY FALLS",,CONTRACTOR,,,,,,,,,,,"PERRY HOMES",,,,,"PERRY HOMES","2004 VENTURA DR STE 200",PLANO,TX,75093-2003,"(972) 964-7700",,,,
TX,COLLIN,RES2020-09-04119,"Single Family Homes",9/17/2020,,460320,,"2416 CORK HILL DR",MCKINNEY,TX,75071,"AUBURN HILLS",,CONTRACTOR,,,,,,,,,,,"MHI MCGUYER HOMEBUILDERS",,,,,"MHI MCGUYER HOMEBUILDERS","1501 LYNDON B JOHNSON FWY STE 100",DALLAS,TX,75234-6029,"(972) 277-3811",,,,
TX,COLLIN,RES2020-09-04223,"Single Family Homes",9/17/2020,,372864,,"4100 SWEET BIRCH DR",MCKINNEY,TX,75071,"TIMBER CREEK",,CONTRACTOR,,,,,,,,,,,"HIGHLAND HOMES",,,,,"HIGHLAND HOMES","5601 DEMOCRACY DR STE 300",PLANO,TX,75024-3674,"(972) 789-3500",,,,
TX,COLLIN,RES2020-09-04213,"Single Family Homes",9/17/2020,,365376,,"4816 SHORE CREST DR",MCKINNEY,TX,75070,"LAKE FOREST",,CONTRACTOR,,,,,,,,,,,"GRAND HOMES",,,,,"GRAND HOMES","15455 DALLAS PKWY STE 1000",ADDISON,TX,75001-6772,"(214) 750-6528",http://www.grandhomes.com/,"(214) 750-6849",,info@grandhomes.com
TX,COLLIN,RES2020-09-04185,"Single Family Homes",9/17/2020,,489216,,"5708 CRAWLEY LN",MCKINNEY,TX,75071,"AUBURN HILLS",,CONTRACTOR,,,,,,,,,,,"MHI MCGUYER HOMEBUILDERS",,,,,"MHI MCGUYER HOMEBUILDERS","1501 LYNDON B JOHNSON FWY STE 100",DALLAS,TX,75234-6029,"(972) 277-3811",,,,
TX,COLLIN,RES2020-09-04266,"Single Family Homes",9/18/2020,,444960,,"8844 AUTUMN LAKE TRL",MCKINNEY,TX,75071,"TRINITY FALLS",,CONTRACTOR,,,,,,,,,,,"HIGHLAND HOMES",,,,,"HIGHLAND HOMES","5601 DEMOCRACY DR STE 300",PLANO,TX,75024-3674,"(972) 789-3500",,,,
TX,COLLIN,RES2020-09-04272,"Single Family Homes",9/18/2020,,265536,,"2813 GILLINGHAM LN",MCKINNEY,TX,75071,"AUBURN HILLS",,CONTRACTOR,,,,,,,,,,,"PULTE HOMES",,,,,"PULTE HOMES","4800 REGENT BLVD",IRVING,TX,75063-2439,"(972) 304-2800",,,,
TX,COLLIN,RES2020-09-04212,"Single Family Homes",9/18/2020,,419712,,"4812 MCKINNEY HOLLOW DR",MCKINNEY,TX,75070,"LAKE FOREST",,CONTRACTOR,,,,,,,,,,,"GRAND HOMES",,,,,"GRAND HOMES","15455 DALLAS PKWY STE 1000",ADDISON,TX,75001-6772,"(214) 750-6528",http://www.grandhomes.com/,"(214) 750-6849",,info@grandhomes.com
TX,COLLIN,HTE-PERMIT-16-01181,"Single Family Homes",9/21/2020,,322481,3655,"3801 SILENT WATER ST",MCKINNEY,TX,75071,"TIMBER CREEK",,CONTRACTOR,,,,,,,,,,,"HIGHLAND HOMES",,,,,"HIGHLAND HOMES","5601 DEMOCRACY DR STE 300",PLANO,TX,75024-3674,"(972) 789-3500",,,,
TX,COLLIN,RES2020-09-04289,"Single Family Homes",9/21/2020,,237696,,"800 HABITAT TRL",MCKINNEY,TX,75071,"TRINITY FALLS",,CONTRACTOR,,,,,,,,,,,"PULTE HOMES",,,,,"PULTE HOMES","4800 REGENT BLVD",IRVING,TX,75063-2439,"(972) 304-2800",,,,
TX,COLLIN,RES2020-02-00762,"Single Family Homes",9/21/2020,,442080,,"7504 HANOVER ST",MCKINNEY,TX,75071,"TUCKER HILL",,CONTRACTOR,,,,,,,,,,,"DARLING HOMES",,,,,"DARLING HOMES","2500 LEGACY DR STE 100",FRISCO,TX,75034-5984,"(469) 252-2200",http://www.darlinghomes.com/,,,
TX,COLLIN,RES2020-09-04277,"Single Family Homes",9/21/2020,,253440,,"8112 PINE VALLEY DR",MCKINNEY,TX,75070,"SOUTHERN HILLS AT CRAIG RANCH",,CONTRACTOR,,,,,,,,,,,"ASHTON WOODS HOMES",,,,,"ASHTON WOODS HOMES","1221 N INTERSTATE 35E STE 170",CARROLLTON,TX,75006-3806,"(972) 428-5404",,,,
TX,COLLIN,RES2020-09-04097,"Single Family Homes",9/21/2020,,434112,,"408 TURKEY CREEK DR",MCKINNEY,TX,75071,"TRINITY FALLS",,CONTRACTOR,,,,,,,,,,,"DREES CUSTOM HOMES",,,,,"DREES CUSTOM HOMES","6225 N STATE HIGHWAY 161 STE 150",IRVING,TX,75038-2283,"(972) 953-4500",http://www.dreeshomes.com,,,
TX,COLLIN,RES2020-09-04281,"Single Family Homes",9/21/2020,,372288,,"8605 BARNBOUGLE DUNES DR",MCKINNEY,TX,75070,"SOUTHERN HILLS AT CRAIG RANCH",,CONTRACTOR,,,,,,,,,,,"ASHTON WOODS HOMES",,,,,"ASHTON WOODS HOMES","1221 N INTERSTATE 35E STE 170",CARROLLTON,TX,75006-3806,"(972) 428-5404",,,,
TX,COLLIN,RES2020-09-04278,"Single Family Homes",9/21/2020,,299232,,"8308 PINE VALLEY DR",MCKINNEY,TX,75070,"SOUTHERN HILLS AT CRAIG RANCH",,CONTRACTOR,,,,,,,,,,,"ASHTON WOODS HOMES",,,,,"ASHTON WOODS HOMES","1221 N INTERSTATE 35E STE 170",CARROLLTON,TX,75006-3806,"(972) 428-5404",,,,
TX,COLLIN,RES2020-08-03641,"Single Family Homes",9/23/2020,,412224,,"301 CALMWATER COVE",MCKINNEY,TX,75071,,,CONTRACTOR,,,,,,,,,,,"DREES CUSTOM HOMES",,,,,"DREES CUSTOM HOMES","6225 N STATE HIGHWAY 161 STE 150",IRVING,TX,75038-2283,"(972) 953-4500",http://www.dreeshomes.com,,,
TX,COLLIN,RES2020-09-04313,"Single Family Homes",9/23/2020,,253344,,"4105 SWEET BIRCH DR",MCKINNEY,TX,75071,"TIMBER CREEK",,CONTRACTOR,,,,,,,,,,,"HIGHLAND HOMES",,,,,"HIGHLAND HOMES","5601 DEMOCRACY DR STE 300",PLANO,TX,75024-3674,"(972) 789-3500",,,,
TX,COLLIN,RES2020-09-04295,"Single Family Homes",9/23/2020,,363936,,"1020 SAFFOLD TRL",MCKINNEY,TX,75071,"TRINITY FALLS",,CONTRACTOR,,,,,,,,,,,"HIGHLAND HOMES",,,,,"HIGHLAND HOMES","5601 DEMOCRACY DR STE 300",PLANO,TX,75024-3674,"(972) 789-3500",,,,
TX,COLLIN,RES2020-09-04267,"Single Family Homes",9/23/2020,,408672,,"8509 GRAND CASCADE COVE",MCKINNEY,TX,75071,"TRINITY FALLS",,CONTRACTOR,,,,,,,,,,,"HIGHLAND HOMES",,,,,"HIGHLAND HOMES","5601 DEMOCRACY DR STE 300",PLANO,TX,75024-3674,"(972) 789-3500",,,,
TX,COLLIN,RES2020-09-04304,"Single Family Homes",9/23/2020,,385056,,"3617 DIAMOND RDG",MCKINNEY,TX,75071,"WILMETH RIDGE",,CONTRACTOR,,,,,,,,,,,"SHADDOCK HOMES",,,,,"SHADDOCK HOMES","2400 DALLAS PKWY",PLANO,TX,75093-4370,"(469) 241-9581",http://www.shaddockhomes.com,,,
TX,COLLIN,RES2020-09-04240,"Single Family Homes",9/23/2020,,337344,,"1309 GRANGER DR",MCKINNEY,TX,75071,"WILLOW WOOD",,CONTRACTOR,,,,,,,,,,,"BLOOMFIELD HOMES",,,,,"BLOOMFIELD HOMES","1050 E STATE HIGHWAY 114 STE 210",SOUTHLAKE,TX,76092-5255,"(972) 971-2103",http://bloomfieldhomes.net/,"(972) 987-4342",,mattjennings@bloomfieldhomes.net
TX,COLLIN,RES2020-09-04292,"Single Family Homes",9/24/2020,,209568,,"800 HIDDEN EDDY DR",MCKINNEY,TX,75071,"TRINITY FALLS",,CONTRACTOR,,,,,,,,,,,"PULTE HOMES",,,,,"PULTE HOMES","4800 REGENT BLVD",IRVING,TX,75063-2439,"(972) 304-2800",,,,
TX,COLLIN,RES2020-09-04291,"Single Family Homes",9/24/2020,,209568,,"833 HIDDEN EDDY DR",MCKINNEY,TX,75071,"TRINITY FALLS",,CONTRACTOR,,,,,,,,,,,"PULTE HOMES",,,,,"PULTE HOMES","4800 REGENT BLVD",IRVING,TX,75063-2439,"(972) 304-2800",,,,
TX,COLLIN,RES2020-09-04372,"Single Family Homes",9/24/2020,,287904,,"1009 SAFFOLD TRL",MCKINNEY,TX,75071,"TRINITY FALLS",,CONTRACTOR,,,,,,,,,,,"HIGHLAND HOMES",,,,,"HIGHLAND HOMES","5601 DEMOCRACY DR STE 300",PLANO,TX,75024-3674,"(972) 789-3500",,,,
TX,DALLAS,2009141104,"Warehouse & Manufacturing",9/14/2020,Renovation,48400,1078,"625 W MOCKINGBIRD LN",DALLAS,TX,75247,,,CONTRACTOR,,,,,,,,,,,"SQUAREFOOT CONSTRUCTION",,,,,"SQUAREFOOT CONSTRUCTION","13111 N CENTRAL EXPY # 8025",DALLAS,TX,75243-1138,"(972) 865-5347",,,,
TX,DALLAS,2009211145,"Warehouse & Manufacturing",10/14/2020,Renovation,741353,3597,"4775 TINSLEY RD",DALLAS,TX,75212,,,CONTRACTOR,,,,,,,,,,,"FAST TRAK CONSTRUCTION",,,,,"FAST TRAK CONSTRUCTION","1150 EMPIRE CENTRAL PL STE 124",DALLAS,TX,75247-4312,"(214) 638-0525",http://www.fasttrakconstruction.com/,"(214) 638-0528",,info@fasttrakconstruction.com
TX,DALLAS,2009211015,"Warehouse & Manufacturing",9/21/2020,Renovation,73950,,"9890 BONNIE VIEW RD",DALLAS,TX,75241,,,CONTRACTOR,,,,,,,,,,,"SUPERIOR INSTALLATION SERVICES",,,,,"SUPERIOR INSTALLATION SERVICES","1230 CROWLEY CIR",CARROLLTON,TX,75006-1365,"(972) 446-1201",http://superiorinstallation.com/,"(972) 446-6370","CHRIS HANSON",chanson@superiorinstallation.com
TX,TARRANT,PB20-12580,"Warehouse & Manufacturing",9/16/2020,Renovation,48000,,"7865 WILL ROGERS BLVD","FORT WORTH",TX,76140,,,CONTRACTOR,,,,,,,,,,,"MALIN USA",,,,,"MALIN USA","15870 MIDWAY ROAD",ADDISON,TX,75001,"(800) 926-2546",https://www.malinusa.com/,,,
TX,DALLAS,1903-0008,"Warehouse & Manufacturing",9/9/2020,,3700000,14262,"3080 RECOGNITION POINT DR",IRVING,TX,75093,,,CONTRACTOR,,,,,,,,,,,"FRANK DALE CONSTRUCTION",,,,,"FRANK DALE CONSTRUCTION","250 BANK ST",SOUTHLAKE,TX,76092-9191,"(817) 329-6100",,"(817) 251-9195","FRANK DALE",fdale@fdc-ltd.com
TX,TARRANT,"20 - 3483","Warehouse & Manufacturing",10/16/2020,,650000,17762,"1060 TEXAN TRL",GRAPEVINE,TX,76051,,,CONTRACTOR,,,,,,,,,,,"WRIGHT CONSTRUCTION",,,,,"WRIGHT CONSTRUCTION","601 W WALL ST",GRAPEVINE,TX,76051-5205,"(817) 422-6799",http://www.wrightconst.com/,,,estimating@wrightconst.com
