state,county,permno,ptype,pdate,pdescription,jvalue,jsqfeet,jaddr,jcity,jstate,jzip,jsubdiv,jlotno,aname,aaddr,acity,astate,azip,aphone,atype,aurl,afax,aprimarycontact,aemail,bldcode,units,bldgs,ctype,legal,contractor,caddress,ccity,cstate,czip,cphone,curl,cfax,cprimarycontact,cemail
TX,COLLIN,BLD20-02611,"Auto Sales & Services",10/16/2020,"Finish Out",1000000,,"6800 DALLAS PKWY",PLANO,TX,75093,,,CONTRACTOR,,,,,,,,,,,"SCHWOB BUILDING COMPANY",,,,,"SCHWOB BUILDING COMPANY","2349 GLENDA LN",DALLAS,TX,75229-3318,"(972) 243-7674",http://www.schwob.com,"(972) 243-7710",,
TX,TARRANT,PB20-13219,"Duplex, Triplex, & Fourplex",10/5/2020,,78000,2517,"1204 LOWE ST STE 1204","FORT WORTH",TX,76110,,,CONTRACTOR,,,,,,,,,,,"KS REAL ESTATE HOLDING",,,,,"KS REAL ESTATE HOLDING","208 ADRIAN DR","FORT WORTH",TX,76107,"(214) 392-6611",,,,
TX,TARRANT,PB20-13220,"Duplex, Triplex, & Fourplex",10/5/2020,,68000,2517,"1208 LOWE ST STE 1208","FORT WORTH",TX,76110,,,CONTRACTOR,,,,,,,,,,,"KS REAL ESTATE HOLDING",,,,,"KS REAL ESTATE HOLDING","208 ADRIAN DR","FORT WORTH",TX,76107,"(214) 392-6611",,,,
TX,COLLIN,BLD20-11259,"Educational Institution",10/19/2020,Renovation,300000,,"6301 CHAPEL HILL BLVD ",PLANO,TX,75093,,,CONTRACTOR,,,,,,,,,,,"ICI CONSTRUCTION",,,,,"ICI CONSTRUCTION","12660 COIT ROAD SUITE 300",DALLAS,TX,75251,"(972) 387-8000",,,,
TX,TARRANT,PB20-13526,"Educational Institution",10/2/2020,Renovation,35314,,"3500 KELLER HICKS RD","FORT WORTH",TX,76244,,,CONTRACTOR,,,,,,,,,,,"NOUVEAU TECHNOLOGY SERVICES",,,,,"NOUVEAU TECHNOLOGY SERVICES","2270 SPRINGLAKE RD STE 400",DALLAS,TX,75234-5878,"(972) 484-5077",http://www.ntslp.com,"(972) 484-5072",,
TX,DALLAS,COM-001906-2020,"Educational Institution",9/25/2020,,235000,1148,"2701 FONDREN DR","UNIVERSITY PARK",TX,75205,,,CONTRACTOR,,,,,,,,,,,"HIGHLAND BUILDERS",,,,,"HIGHLAND BUILDERS","2342 FABENS RD STE 100",DALLAS,TX,75229-7803,"(972) 501-0330",http://www.highlandbuilders.net/,"(972) 501-9779","STEVE WESTBROOK",
TX,COLLIN,BLD20-06346,"Hospital & Other Medical",10/19/2020,"Finish Out",250000,,"901 W 15TH S# T A",PLANO,TX,75094,,,CONTRACTOR,,,,,,,,,,,"HORIZON RETAIL CONSTRUCTION",,,,,"HORIZON RETAIL CONSTRUCTION","1500 HORIZON DR",STURTEVANT,WI,53177,"(262) 865-6170",,,,
TX,COLLIN,"BLD20-08183 ","Hospital & Other Medical",10/1/2020,"Finish Out",47000,,"4888 DEXTER DR # 400",PLANO,TX,75093,,,CONTRACTOR,,,,,,,,,,,"TORRES DRYWALL",,,,,"TORRES DRYWALL","5250 GUN CLUB RD",TEMPLE,TX,76501-6766,"(254) 931-1307",,,,
TX,COLLIN,"BLD20-10036 ","Hospital & Other Medical",10/7/2020,"Finish Out",570000,,"6101 WINDHAVEN PKWY # 145",PLANO,TX,75093,,,CONTRACTOR,,,,,,,,,,,"SCOTT & REID GENERAL",,,,,"SCOTT & REID GENERAL","17300 DALLAS PKWY STE 2000",DALLAS,TX,75248-1192,"(469) 374-3400",http://www.scottandreid.com,"(469) 374-0060","PHIL VANDERHILL",email@scottandreid.com
TX,COLLIN,BLD20-10729,"Hospital & Other Medical",10/12/2020,"Finish Out",252000,,"4716 DEXTER DR # 200",PLANO,TX,75093,,,CONTRACTOR,,,,,,,,,,,"MED-TECH CONSTRUCTION",,,,,"MED-TECH CONSTRUCTION","4202 BOBTOWN RD",GARLAND,TX,75043-4003,"(972) 226-3332",,,"HEATH HILL",
TX,COLLIN,,"Hospital & Other Medical",9/30/2020,,14329065,30592,"1300 CHILDRENS WAY",PROSPER,TX,75078,,,"CHILDRENâ€™S HEALTH","7601 PRESTON RD",PLANO,TX,75024,"(469) 303-7000",Applicant,,,,,OWNER,,,,,OWNER,,,,,,,,,
TX,TARRANT,PB20-12427,"Hospital & Other Medical",10/2/2020,,662036,10838,"4925 GOLDEN TRIANGLE BLVD","FORT WORTH",TX,76244,"WATSON CREEK ESTATES",32,CONTRACTOR,,,,,,,,,,,"HUFFMAN BUILDERS",,,,,"HUFFMAN BUILDERS","5300 W PLANO PKWY STE 100",PLANO,TX,75093-4851,"(469) 333-1031",,,,jhuffman@huffmanusa.com
TX,DALLAS,202005379,"Hospital & Other Medical",9/22/2020,,64321,,"3412 E HEBRON PKWY ST 104",CARROLLTON,TX,75093,,,"MIKE VAUGHN","3412 E HEBRON PKWY ST 104",CARROLLTON,TX,7593,,Owner,,,,,OWNER,,,,,OWNER,,,,,,,,,
TX,DALLAS,009691-2020,"Hospital & Other Medical",9/22/2020,,49500,2800,"918 E PLEASANT RUN RD 110","CEDAR HILL",TX,75104,,,"GAIL LUX","918 E PLEASANT RUN RD 110","CEDAR HILL",TX,75104,,Owner,,,,,OWNER,,,,,OWNER,,,,,,,,,
TX,DALLAS,20-684,"Hotel, Motel & Assisted Living",9/10/2020,,14125000,76680,"2205 N GLENVILLE DR",RICHARDSON,TX,75081,,,CONTRACTOR,,,,,,,,,,,"MW BUILDERS",,,,,"MW BUILDERS","1701 N GENERAL BRUCE DR",TEMPLE,TX,76504-2474,"(713) 834-5669",,,,
TX,TARRANT,PB20-05651,"Multi Family Apartments & Condos",10/2/2020,,13102562,,"5232 TRINITY RIVER TRL","FORT WORTH",TX,76102,"CRYSTAL SPRINGS",1,CONTRACTOR,,,,,,,,,,,"STILLWATER GC LLC",,,,,"STILLWATER GC LLC","4145 TRAVIS ST STE 300",DALLAS,TX,75204-1830,"(713) 234-6639",,,,
TX,TARRANT,PB20-05653,"Multi Family Apartments & Condos",10/2/2020,,1007890,19197,"220 WESTERN SWING WAY","FORT WORTH",TX,76179,,,CONTRACTOR,,,,,,,,,,,"STILLWATER GC LLC",,,,,"STILLWATER GC LLC","4145 TRAVIS ST STE 300",DALLAS,TX,75204-1830,"(713) 234-6639",,,,
TX,DALLAS,20-4619,"Multi Family Apartments & Condos",9/30/2020,,127000,,"1330 W SPRING VALLEY RD",RICHARDSON,TX,75081,,,CONTRACTOR,,,,,,,,,,,"ESCOBAR ROOFING",,,,,"ESCOBAR ROOFING","4542 BRONZE WAY",DALLAS,TX,75236-2008,"(214) 357-8111",http://www.escobarroofing.com,,,
TX,DALLAS,20-001526,"Multi Family Apartments & Condos",9/24/2020,,111160,,"6509 BOONE DR",ROWLETT,TX,75089,,,CONTRACTOR,,,,,,,,,,,"MULLINS CONCRETE CONSTRUCTION",,,,,"MULLINS CONCRETE CONSTRUCTION","411 S BERRY ST",BURKBURNETT,TX,76354-2482,"(940) 569-3716",,,"CHRISTOPHER MULLINS",
TX,DALLAS,20-001525,"Multi Family Apartments & Condos",9/24/2020,,118720,,"6513-6441 BOONE DR",ROWLETT,TX,75089,,,CONTRACTOR,,,,,,,,,,,"MULLINS CONCRETE CONSTRUCTION",,,,,"MULLINS CONCRETE CONSTRUCTION","411 S BERRY ST",BURKBURNETT,TX,76354-2482,"(940) 569-3716",,,"CHRISTOPHER MULLINS",
TX,DALLAS,20-001524,"Multi Family Apartments & Condos",9/24/2020,,128130,,"6501 BOONE DR",ROWLETT,TX,75089,,,CONTRACTOR,,,,,,,,,,,"MULLINS CONCRETE CONSTRUCTION",,,,,"MULLINS CONCRETE CONSTRUCTION","411 S BERRY ST",BURKBURNETT,TX,76354-2482,"(940) 569-3716",,,"CHRISTOPHER MULLINS",
TX,DALLAS,20-001523,"Multi Family Apartments & Condos",9/24/2020,,129360,,"6441 BOONE DR",ROWLETT,TX,75089,,,CONTRACTOR,,,,,,,,,,,"MULLINS CONCRETE CONSTRUCTION",,,,,"MULLINS CONCRETE CONSTRUCTION","411 S BERRY ST",BURKBURNETT,TX,76354-2482,"(940) 569-3716",,,"CHRISTOPHER MULLINS",
TX,DALLAS,20-001527,"Multi Family Apartments & Condos",9/24/2020,,136220,,"6513 BOONE DR",ROWLETT,TX,75089,,,CONTRACTOR,,,,,,,,,,,"MULLINS CONCRETE CONSTRUCTION",,,,,"MULLINS CONCRETE CONSTRUCTION","411 S BERRY ST",BURKBURNETT,TX,76354-2482,"(940) 569-3716",,,"CHRISTOPHER MULLINS",
TX,COLLIN,BLD20-08002,"Offices, R&D, & Professional",10/19/2020,,6676000,,"8400 BELLEVIEW DR",PLANO,TX,75024,,,CONTRACTOR,,,,,,,,,,,"ROCKPORT CONSTRUCTION GROUP",,,,,"ROCKPORT CONSTRUCTION GROUP","1600 N COLLINS BLVD # 1725",RICHARDSON,TX,75080-3591,"(972) 363-0722",,,,
TX,COLLIN,"BLD20-08915 ","Offices, R&D, & Professional",10/5/2020,,18000000,,"3930 DALLAS PKWY",PLANO,TX,75093,,,CONTRACTOR,,,,,,,,,,,"RIDGEMONT COMMERCIAL CONSTRUCTION",,,,,"RIDGEMONT COMMERCIAL CONSTRUCTION","1520 W WALNUT HILL LN",IRVING,TX,75038-3701,"(214) 492-8900",http://www.ridgemont.com/,,,
TX,COLLIN,BLD20-04829,"Offices, R&D, & Professional",10/22/2020,"Finish Out",300000,,"5543 LEGACY DR 200-300",PLANO,TX,75024,,,CONTRACTOR,,,,,,,,,,,"TURNER CONSTRUCTION",,,,,"TURNER CONSTRUCTION","10100 N CENTRAL EXPRESSWAY 600",DALLAS,TX,75231,"(214) 721-8400",,,,
TX,COLLIN,"BLD20-07361 ","Offices, R&D, & Professional",10/12/2020,"Finish Out",120000,,"2401 PRESTON RD # F",PLANO,TX,75093,,,CONTRACTOR,,,,,,,,,,,"MED TECH CONSTRUCTION",,,,,"MED TECH CONSTRUCTION","1121 E YELLOWJACKET LN",ROCKWALL,TX,75087-4845,"(972) 226-3332",,,,
TX,COLLIN,BLD20-08715,"Offices, R&D, & Professional",10/8/2020,"Finish Out",945750,,"8383 DOMINION PKWY # 300",PLANO,TX,75024,,,CONTRACTOR,,,,,,,,,,,"BALFOUR BEATTY CONSTRUCTION",,,,,"BALFOUR BEATTY CONSTRUCTION","3100 MCKINNON ST FL 7",DALLAS,TX,75201-1081,"(214) 878-7309",,,,
TX,COLLIN,"BLD20-09128 ","Offices, R&D, & Professional",10/9/2020,Renovation,120000,,"1640 DALLAS PKWY",PLANO,TX,75093,,,CONTRACTOR,,,,,,,,,,,"TRI-TEX CONSTRUCTION ",,,,,"TRI-TEX CONSTRUCTION ","12002 FORESTGATE DR",DALLAS,TX,75243-5411,"(972) 644-1410",,,,
TX,COLLIN,BLD20-09619,"Offices, R&D, & Professional",10/5/2020,"Finish Out",275000,,"6600 CHASE OAKS BLVD # 170",PLANO,TX,75023,,,CONTRACTOR,,,,,,,,,,,"SCOTT & REID GENERAL",,,,,"SCOTT & REID GENERAL","17300 DALLAS PKWY STE 2000",DALLAS,TX,75248-1192,"(469) 374-3400",http://www.scottandreid.com,"(469) 374-0060","PHIL VANDERHILL",email@scottandreid.com
TX,COLLIN,BLD20-09985,"Offices, R&D, & Professional",10/5/2020,"Finish Out",49500,,"1200 COMMERCE DR # 100",PLANO,TX,75093,,,CONTRACTOR,,,,,,,,,,,"ARCADIAN HOMES",,,,,"ARCADIAN HOMES","PO BOX 173849",ARLINGTON,TX,76003-3849,"(817) 561-4369",,,"JOHN ROGAN",
TX,COLLIN,"BLD20-10733 ","Offices, R&D, & Professional",10/5/2020,"Finish Out",232102,,"5085 W PARK BLVD # 700",PLANO,TX,75093,,,CONTRACTOR,,,,,,,,,,,"ELLECO CONSTRUCTION",,,,,"ELLECO CONSTRUCTION","201 W COMMERCE ST STE 101",DALLAS,TX,75208-1916,"(214) 760-9241",,,,
TX,COLLIN,BLD20-10811,"Offices, R&D, & Professional",10/9/2020,"Finish Out",111411,,"6504 INTERNATIONAL PKWY # 1120",PLANO,TX,75093,,,CONTRACTOR,,,,,,,,,,,"OXFORD ASSOCIATES",,,,,"OXFORD ASSOCIATES","1860 CROWN DR STE 1402",DALLAS,TX,75234-9415,"(214) 522-4430",http://oxfordinc.net,"(214) 522-4478",,INFO@OXFORDINC.NET
TX,COLLIN,BLD20-10900,"Offices, R&D, & Professional",10/15/2020,Renovation,892922,,"7900 WINDROSE AVE L8-L9-L19 ",PLANO,TX,75024,,,CONTRACTOR,,,,,,,,,,,"BALFOUR BEATTY CONSTRUCTION",,,,,"BALFOUR BEATTY CONSTRUCTION","3100 MCKINNON ST FL 7",DALLAS,TX,75201-1081,"(214) 878-7309",,,,
TX,COLLIN,BLD20-10958,"Offices, R&D, & Professional",10/22/2020,"Finish Out",315800,,"7110 PRESTON RD # 100",PLANO,TX,75024,,,CONTRACTOR,,,,,,,,,,,"MED-TECH CONSTRUCTION",,,,,"MED-TECH CONSTRUCTION","4202 BOBTOWN RD",GARLAND,TX,75043-4003,"(972) 226-3332",,,"HEATH HILL",
TX,COLLIN,BLD20-11093,"Offices, R&D, & Professional",10/20/2020,"Finish Out",195000,,"7500 DALLAS PKWY # 500",PLANO,TX,75024,,,CONTRACTOR,,,,,,,,,,,"JAMES R THOMPSON",,,,,"JAMES R THOMPSON","8750 N CENTRAL EXPY STE 1800",DALLAS,TX,75231-6450,"(214) 871-2424",,,,
TX,COLLIN,"BLD20-11148 ","Offices, R&D, & Professional",10/6/2020,"Finish Out",58034,,"6100 TENNYSON PKWY # 120",PLANO,TX,75024,,,CONTRACTOR,,,,,,,,,,,"ROCKPORT CONSTRUCTION GROUP",,,,,"ROCKPORT CONSTRUCTION GROUP","1600 N COLLINS BLVD # 1725",RICHARDSON,TX,75080-3591,"(972) 363-0722",,,,
TX,COLLIN,"BLD20-11256 ","Offices, R&D, & Professional",10/6/2020,Renovation,44053,,"6900 DALLAS PKWY # 100",PLANO,TX,75024,,,CONTRACTOR,,,,,,,,,,,"GC CONSTRUCTION",,,,,"GC CONSTRUCTION","356 MURRAY FARM DR APT 6303",MCKINNEY,TX,75069-6963,"(972) 670-8595",,,,
TX,COLLIN,BLD20-12078,"Offices, R&D, & Professional",10/20/2020,"Finish Out",104000,,"5800 GRANITE PKWY # 750",PLANO,TX,75024,,,CONTRACTOR,,,,,,,,,,,"ABSTRACT CONSTRUCTION",,,,,"ABSTRACT CONSTRUCTION","2532 HIGHLANDER WAY STE 100",CARROLLTON,TX,75006-2388,"(469) 685-9700",http://www.abstractweb.com/,,,
TX,TARRANT,PB19-12792,"Offices, R&D, & Professional",10/1/2020,,250000,2926,"5890 E BERRY ST","FORT WORTH",TX,76119,,,CONTRACTOR,,,,,,,,,,,"SCOTT TUCKER CONSTRUCTION",,,,,"SCOTT TUCKER CONSTRUCTION","908 S SYLVANIA AVE","FORT WORTH",TX,76111-1044,"(817) 332-9008",http://www.scotttuckerconstruction.com/,"(817) 332-9009","WILL TUCKER",
TX,TARRANT,PB20-09151,"Offices, R&D, & Professional",10/1/2020,,132000,1315,"2625 RACE ST","FORT WORTH",TX,76111,,,CONTRACTOR,,,,,,,,,,,"KINGDOM FIRST HOME SOLUTIONS",,,,,"KINGDOM FIRST HOME SOLUTIONS","3004 BLUEBONNET LN",BEDFORD,TX,76021,"(817) 360-6997",,,,
TX,TARRANT,PB20-13425,"Offices, R&D, & Professional",10/5/2020,Renovation,750000,4710,"4501 CAMP BOWIE BLVD","FORT WORTH",TX,76107,,,CONTRACTOR,,,,,,,,,,,"TEINERT CONSTRUCTION",,,,,"TEINERT CONSTRUCTION","4009 CLOVIS RD",LUBBOCK,TX,79415-1315,"(806) 744-2801",http://teinert.com,,,info@teinert.com
TX,DALLAS,COM-001811-2020,"Offices, R&D, & Professional",9/18/2020,,450000,2879,"6632 SNIDER PLAZA","UNIVERSITY PARK",TX,75205,,,CONTRACTOR,,,,,,,,,,,"MOORING RECOVERY SERVICES",,,,,"MOORING RECOVERY SERVICES","15534 W HARDY RD",HOUSTON,TX,77060-3642,"(281) 999-5400",,,,
TX,DALLAS,PRRN202005641,"Offices, R&D, & Professional",9/17/2020,,39950,,"2244 LUNA RD SUITE 150",CARROLLTON,TX,75006,,,CONTRACTOR,,,,,,,,,,,"GREEN ARCH CONSTRUCTION",,,,,"GREEN ARCH CONSTRUCTION","16801 ADDISON RD STE 124",ADDISON,TX,75001-5696,"(214) 817-9447",http://greenarchconstructions.com,,,info@greenarchconstructions.com
TX,COLLIN,20201307,"Offices, R&D, & Professional",9/3/2020,,14000000,,"2000 E PRINCETON DR",PRINCETON,TX,75407,,,CONTRACTOR,,,,,,,,,,,"CROSSLAND CONSTRUCTION",,,,,"CROSSLAND CONSTRUCTION","861 N COLEMAN ST STE 100",PROSPER,TX,75078-2345,"(972) 347-5659",https://www.crossland.com,"(972) 347-5684",,
TX,DALLAS,20-328,"Offices, R&D, & Professional",9/11/2020,,250000,3500,"205 S PLANO RD",RICHARDSON,TX,75081,,,CONTRACTOR,,,,,,,,,,,"BANNON CONSTRUCTION COMPANY",,,,,"BANNON CONSTRUCTION COMPANY","3575 E LAWNDALE PLACE","QUEEN CREEK",AZ,85142,"(480) 677-5007",,,,
TX,DALLAS,20-1614,"Offices, R&D, & Professional",9/11/2020,,12200000,62960,"1210 INTEGRITY DR",RICHARDSON,TX,75081,,,CONTRACTOR,,,,,,,,,,,"DPR CONSTRUCTION",,,,,"DPR CONSTRUCTION","3131 MCKINNEY AVE STE 210",DALLAS,TX,75204-2475,"(214) 979-9900",,,,
TX,DALLAS,20-3770,"Offices, R&D, & Professional",9/1/2020,,35000,1999,"508 CENTENNIAL BLVD",RICHARDSON,TX,75081,,,CONTRACTOR,,,,,,,,,,,"QUALITY 1 ENERGY SYSTEMS",,,,,"QUALITY 1 ENERGY SYSTEMS","10870 PLANO RD STE A",DALLAS,TX,75238-5353,"(214) 348-9588",,"(214) 348-9589",,
TX,DALLAS,20-460,"Parking Structures & Carports",9/30/2020,,54545,,"2710 ROUTH CREEK PKWY",RICHARDSON,TX,75081,,,CONTRACTOR,,,,,,,,,,,"NATIONAL CARPORT INDUSTRIES",,,,,"NATIONAL CARPORT INDUSTRIES","P O BOX 2323",SHERMAN,TX,75091,"(903) 892-1896",,,,
TX,COLLIN,200922,"Residential Renovations & Additions",9/18/2020,Renovation,31000,296,"600 MOCKINGBIRD DR",MURPHY,TX,75094,,,"TRENTON & JAYMIE BRYSON","600 MOCKINGBIRD DR",MURPHY,TX,75094,,Owner,,,,,"FALLAS LANDSCAPE",,,,,"FALLAS LANDSCAPE","2255 SOUTHVIEW DR",WYLIE,TX,75098,"(972) 517-5296",,,,
TX,TARRANT,PB20-12524,"Residential Renovations & Additions",10/1/2020,Renovation,35000,,"5432 GEDDES AVE","FORT WORTH",TX,76107,"CHAMBERLAIN ARLINGTON HTS",25,CONTRACTOR,,,,,,,,,,,"BT3 RENOVATIONS",,,,,"BT3 RENOVATIONS","709 S HAMPTON",DALLAS,TX,75208,"(937) 988-0029",,,,
TX,TARRANT,PB20-11412,"Residential Renovations & Additions",10/2/2020,Addition,40000,1100,"3901 JAMES AVE","FORT WORTH",TX,76110,,,"HILARIO CALDERON","3901 JAMES AVE","FORT WORTH",TX,76110,,Owner,,,,,"TENANT BUILD",,,,,"TENANT BUILD","7604 BAKER BLVD","RICHLAND HILLS",TX,76118-5904,"(817) 717-2867",,,,
TX,TARRANT,PB20-13632,"Residential Renovations & Additions",10/2/2020,Renovation,45000,,"3415 MC LEAN ST","FORT WORTH",TX,76103,TANDY,8,CONTRACTOR,,,,,,,,,,,"TNJ FLYING PROPERTIES",,,,,"TNJ FLYING PROPERTIES","3824 CEDAR SPRINGS ROAD",DALLAS,TX,75219,"(601) 215-8779",https://tnjflyingproperties.com/,,,jolynndavila@gmail.com
TX,TARRANT,PB20-14059,"Residential Renovations & Additions",10/5/2020,Renovation,35000,,"7916 VISTA RIDGE DR N","FORT WORTH",TX,76132,"VISTA RIDGE",10,"MAURICE DEW","7916 VISTA RIDGE DR N","FORT WORTH",TX,76132,,Owner,,,,,"DALLAS PWD",,,,,"DALLAS PWD","801 HANOVER DR STE 600",GRAPEVINE,TX,76051-7684,"(972) 988-1555",,,"THOMAS SLAUGHTER",
TX,DALLAS,009623-2020,"Residential Renovations & Additions",9/17/2020,Renovation,50000,,"1116 WISHING WELL CT","CEDAR HILL",TX,75104,,,"ANDREW LIPSCOMB","1523 SPRING HILL DR","CEDAR HILL",TX,75104,,Applicant,,,,,OWNER,,,,,OWNER,,,,,,,,,
TX,DALLAS,20-3579,"Residential Renovations & Additions",9/28/2020,Renovation,242000,2024,"403 RIDGE CREST DR",RICHARDSON,TX,75080,,,"APRIL MILAM","403 RIDGE CREST DR",RICHARDSON,TX,75080,,Owner,,,,,"AXIOM BUILDERS",,,,,"AXIOM BUILDERS","1304 CHEROKEE DR",RICHARDSON,TX,75080-3703,"(469) 939-1616",,,,
TX,DALLAS,20-3629,"Residential Renovations & Additions",9/4/2020,Renovation,400000,1130,"319 MEADOWCREST DR",RICHARDSON,TX,75407,,,"MICHELE LIU","319 MEADOWCREST DR",RICHARDSON,TX,75407,,Owner,,,,,"CLOUSE CONSTRUCTION",,,,,"CLOUSE CONSTRUCTION","2122 KIDWELL ST STE 205",DALLAS,TX,75214-3914,"(214) 801-6326",,,"SCOTT CLOUSE",
TX,DALLAS,20-3663,"Residential Renovations & Additions",9/25/2020,Renovation,160000,1079,"2403 CUSTER PKWY",RICHARDSON,TX,75081,,,CONTRACTOR,,,,,,,,,,,"AXIOM BUILDERS",,,,,"AXIOM BUILDERS","1304 CHEROKEE DR",RICHARDSON,TX,75080-3703,"(469) 939-1616",,,,
TX,DALLAS,20-3688,"Residential Renovations & Additions",9/8/2020,Renovation,35000,,"1616 MARQUETTE DR",RICHARDSON,TX,75081,,,CONTRACTOR,,,,,,,,,,,"RICHARDSON RESIDENTIAL DESIGN ",,,,,"RICHARDSON RESIDENTIAL DESIGN ","1408 CHICKASAW DR",RICHARDSON,TX,75080-3723,"(214) 354-8661",http://renovatemine.moonfruit.com,"(214) 594-9949","JUSTIN MCMILLIN",justin@renovatemine.com
TX,DALLAS,20-3837,"Residential Renovations & Additions",9/17/2020,Renovation,131930,2489,"914 LAKEVIEW DR",RICHARDSON,TX,75081,,,"RICHARD BELL","914 LAKEVIEW DR",RICHARDSON,TX,75081,,Owner,,,,,"BUILDTX SOLUTIONS",,,,,"BUILDTX SOLUTIONS","1540 KELLER PKWY STE 108-185",KELLER,TX,76248-3686,"(832) 497-6152",,,,daniela.mendoza@buildtxsolutions.com
TX,DALLAS,20-3895,"Residential Renovations & Additions",9/16/2020,Renovation,35000,3041,"1108 OAKMONT DR",RICHARDSON,TX,75081,,,"ROBERT FOLSE","1108 OAKMONT DR",RICHARDSON,TX,75081,,Owner,,,,,"WHI REMODELING",,,,,"WHI REMODELING","9941 WHITEHURST DR",DALLAS,TX,75243,"(682) 216-9139",,,,
TX,DALLAS,20-4095,"Residential Renovations & Additions",9/17/2020,Renovation,129000,,"102 THOMPSON DR",RICHARDSON,TX,75081,,,"SUSAN RECORD","102 THOMPSON DR",RICHARDSON,TX,75081,,Owner,,,,,"SUMMEY INDUSTRIES",,,,,"SUMMEY INDUSTRIES","6903 ECHO BLUFF DR",DALLAS,TX,75248-2903,"(214) 300-8925",,,,
TX,DALLAS,20-4111,"Residential Renovations & Additions",9/22/2020,Renovation,75000,,"2607 SHERRILL PARK DR",RICHARDSON,TX,75081,,,CONTRACTOR,,,,,,,,,,,"BELACOOP HOMES",,,,,"BELACOOP HOMES","2116 MCKNIGHT RD",DALLAS,TX,75225,"(214) 354-4163",,,,
TX,DALLAS,20-4147,"Residential Renovations & Additions",9/21/2020,Renovation,136931,,"468 STILLMEADOW DR",RICHARDSON,TX,75081,,,"MICHAEL & MARY MOSEID","468 STILLMEADOW DR",RICHARDSON,TX,75081,,Owner,,,,,"TAILORED RESTORATION",,,,,"TAILORED RESTORATION","6713 VALLEY VIEW LN",SACHSE,TX,75048-5207,"(214) 934-4575",,,,
TX,DALLAS,20-4164,"Residential Renovations & Additions",9/9/2020,Renovation,100000,,"2402 SPRINGWOOD LN",RICHARDSON,TX,75081,,,"JOHN WILKINS","2402 SPRINGWOOD LN",RICHARDSON,TX,75081,,Owner,,,,,"STRADCO BUILDERS",,,,,"STRADCO BUILDERS","1312 VILLAGE CREEK DR",PLANO,TX,75093-4467,"(214) 478-5590",http://www.wchmasterbuilder.com/,,,
TX,DALLAS,20-4165,"Residential Renovations & Additions",9/4/2020,Renovation,30000,,"2115 BALTIMORE DR",RICHARDSON,TX,75081,,,"DOUGLAS DAVIS","2115 BALTIMORE DR",RICHARDSON,TX,75081,,Owner,,,,,"BRY-JO ROOFING AND REMODELING",,,,,"BRY-JO ROOFING AND REMODELING","681 N PLANO RD STE 119",RICHARDSON,TX,75081-2909,"(972) 669-7807",,,,
TX,DALLAS,20-4231,"Residential Renovations & Additions",9/22/2020,Renovation,70000,,"807 FONTANA AVE",RICHARDSON,TX,75080,,,CONTRACTOR,,,,,,,,,,,"RUFFIN REAL ESTATE INVESTMENTS",,,,,"RUFFIN REAL ESTATE INVESTMENTS","4006 BELTLINE. SUITE 227",ADDISON,TX,75001,"(469) 394-8661",,,,
TX,DALLAS,20-4240,"Residential Renovations & Additions",9/11/2020,Renovation,62000,2500,"518 STILLMEADOW DR",RICHARDSON,TX,75080,,,"SCOTT GEDDIE","518 STILLMEADOW DR",RICHARDSON,TX,75080,,Owner,,,,,"TEXAS PRIDE RESTORATION",,,,,"TEXAS PRIDE RESTORATION","900 KATY RD STE 430","FORT WORTH",TX,76244-4649,"(817) 900-2908",,,,
TX,DALLAS,20-4314,"Residential Renovations & Additions",9/28/2020,Renovation,75350,,"13 VICKSBURG LN",RICHARDSON,TX,75080,,,"EARL & SUSAN DANIELS","13 VICKSBURG LN",RICHARDSON,TX,75080,,Owner,,,,,"DIETRICHSON COMPANY",,,,,"DIETRICHSON COMPANY","2011 N COLLINS BLVD",RICHARDSON,TX,75080-2645,"(214) 238-8381",,,,
TX,DALLAS,20-001935,"Residential Renovations & Additions",9/3/2020,Renovation,115000,,"6618 PORTS O CALL DR",ROWLETT,TX,75088,,,"BETTY WOOD","6618 PORTS O CALL DR",ROWLETT,TX,75088,,Owner,,,,,"LEATHERMAN'S CUSTOM BUILDING",,,,,"LEATHERMAN'S CUSTOM BUILDING","907 USHER ST","FORT WORTH",TX,76126,"(817) 249-5210",,,"BLAKE LEATHERMAN",
TX,DENTON,20-5714,"Residential Swimming Pools & Spas",9/24/2020,,6000,,"129 CROOKED COVE",ARGYLE,TX,76226,,,"ROBERT PARKEY","129 CROOKED COVE",ARGYLE,TX,76226,,Owner,,,,,"ABSOLUTE POOLS",,,,,"ABSOLUTE POOLS","250 HILLSIDE DR",MUENSTER,TX,76252-2645,"(940) 759-4044",,,,
TX,COLLIN,200860,"Residential Swimming Pools & Spas",9/3/2020,,18230,800,"436 PARKSIDE CT",MURPHY,TX,75094,,,"ABEER SALIM","436 PARKSIDE CT",MURPHY,TX,75094,,Owner,,,,,"SUMMERTIME POOLS",,,,,"SUMMERTIME POOLS","13205 FLAGSTONE LN",DALLAS,TX,75240-5612,"(214) 642-2603",,,"JUAN VALAZQUEZ",
TX,COLLIN,200938,"Residential Swimming Pools & Spas",9/18/2020,,45000,905,"728 TWIN VALLEY DR",MURPHY,TX,75094,,,"MICHAEL & SARAH HARDY","728 TWIN VALLEY DR",MURPHY,TX,75094,,Owner,,,,,"AZURE POOLS AND OUTDOOR LIVING",,,,,"AZURE POOLS AND OUTDOOR LIVING","1333 W MCDERMOTT DR STE 150",ALLEN,TX,75013-3088,"(214) 705-3638",,,,paula@azurepoolstx.com
TX,COLLIN,201080,"Residential Swimming Pools & Spas",9/10/2020,,45000,,"239 GREEN ACRES DR",MURPHY,TX,75094,,,CONTRACTOR,,,,,,,,,,,"ORTUS EXTERIORS",,,,,"ORTUS EXTERIORS","1308 14TH ST",PLANO,TX,75074-6290,"(214) 701-9350",http://www.ortusexteriors.com,,,info@ortusexteriors.com
TX,COLLIN,201172,"Residential Swimming Pools & Spas",9/16/2020,,65384,,"645 MAIZE RD",MURPHY,TX,75094,,,"CORIN FOLKINS","645 MAIZE RD",MURPHY,TX,75094,,Owner,,,,,"AQUAMARINE POOLS",,,,,"AQUAMARINE POOLS","4701 S I-35W",ALVARADO,TX,76009,"(800) 432-8994",,,,don@aquapools.com
TX,COLLIN,201182,"Residential Swimming Pools & Spas",9/16/2020,,66000,,"316 POST OAK TRAIL",MURPHY,TX,75094,,,"RUBEN & MIREYA GALVAN","316 POST OAK TRAIL",MURPHY,TX,75091,,Owner,,,,,"BMR POOL & PATIO",,,,,"BMR POOL & PATIO","1706 JUSTIN RD",LEWISVILLE,TX,75077-2131,"(972) 221-3959",http://www.bmrpoolandpatio.com/,"(972) 317-3360",,sales@bmrpoolandpatio.com
TX,COLLIN,201183,"Residential Swimming Pools & Spas",9/16/2020,,71000,,"900 ST MARK DR",MURPHY,TX,75094,,,"DEENA ROUBAL","900 ST MARK DR",MURPHY,TX,75094,,Owner,,,,,"RIVERBEND SANDLER POOLS",,,,,"RIVERBEND SANDLER POOLS","4016 W PLANO PKWY",PLANO,TX,75093-5694,"(972) 596-7393",http://www.riverbendsandlerpools.com,"(972) 596-0322","JAMES GARDNER",wgardner@riverbendsandlerpools.com
TX,COLLIN,201184,"Residential Swimming Pools & Spas",9/9/2020,,65000,,"809 MEADOWLARK DR",MURPHY,TX,75094,,,"NACHIAPPAN CHIDAMBARAM","809 MEADOWLARK DR",MURPHY,TX,75094,,Owner,,,,,"HOBERT POOLS",,,,,"HOBERT POOLS","315 W FM 544",MURPHY,TX,75094-4577,"(972) 690-8118",http://www.hobertpools.com/,"(972) 422-6320",,contact@hobertpools.com
TX,COLLIN,201211,"Residential Swimming Pools & Spas",9/18/2020,,80000,,"147 MOONLIGHT DR",MURPHY,TX,75094,,,"MATTHEW GALBRAITH","147 MOONLIGHT DR",MURPHY,TX,75094,,Owner,,,,,"SUNSTONE POOLS & OUTDOOR LIVING",,,,,"SUNSTONE POOLS & OUTDOOR LIVING","2840 MARKET LOOP STE 106",SOUTHLAKE,TX,76092-9178,"(817) 988-4756",http://sunstonepools.com,,,
TX,COLLIN,201274,"Residential Swimming Pools & Spas",9/29/2020,,65000,,"506 HARVEST HILL",MURPHY,TX,75094,,,"SEAN & QUYEN DAILEY","506 HARVEST HILL",MURPHY,TX,75094,,Owner,,,,,"CUSTOM OUTDOOR TRENDS",,,,,"CUSTOM OUTDOOR TRENDS","5811 FM 3097",ROCKWALL,TX,75032-7788,"(972) 722-3111",http://www.customoutdoortrends.com/,,,craig@customoutdoortrends.com
TX,COLLIN,201277,"Residential Swimming Pools & Spas",9/29/2020,,65000,,"515 OAKHURST DR",MURPHY,TX,75094,,,"GABRIELA & ERNESTO ALFARO","515 OAKHURST DR",MURPHY,TX,75094,,Owner,,,,,"LIVING WATER CUSTOM POOLS",,,,,"LIVING WATER CUSTOM POOLS","1030 OAKBROOK DR",WYLIE,TX,75098-5427,"(469) 703-4800",http://www.livingwatercustompools.com/,,,info@livingwatercustompools.com
TX,COLLIN,201281,"Residential Swimming Pools & Spas",9/30/2020,,78000,,"434 WATERS EDGE WAY",MURPHY,TX,75094,,,"DAVID CASEY","434 WATERS EDGE WAY",MURPHY,TX,75094,,Owner,,,,,"BMR POOL & PATIO",,,,,"BMR POOL & PATIO","1706 JUSTIN RD",LEWISVILLE,TX,75077-2131,"(972) 221-3959",http://www.bmrpoolandpatio.com/,"(972) 317-3360",,sales@bmrpoolandpatio.com
TX,DALLAS,POOL-001632-2020,"Residential Swimming Pools & Spas",9/17/2020,,30000,,"2716 STANFORD AVE","UNIVERSITY PARK",TX,75225,,,"SORABH SAXENA","2716 STANFORD AVE","UNIVERSITY PARK",TX,75225,,Owner,,,,,"RIVERBEND SANDLER POOLS",,,,,"RIVERBEND SANDLER POOLS","4016 W PLANO PKWY",PLANO,TX,75093-5694,"(972) 596-7393",http://www.riverbendsandlerpools.com,"(972) 596-0322","JAMES GARDNER",wgardner@riverbendsandlerpools.com
TX,DALLAS,POOL-001842-2020,"Residential Swimming Pools & Spas",9/17/2020,,30000,,"3715 VILLANOVA","UNIVERSITY PARK",TX,75205,,,"JOHN ALEXANDER","3715 VILLANOVA","UNIVERSITY PARK",TX,75205,,Owner,,,,,"LAS COLINAS POOLS",,,,,"LAS COLINAS POOLS","4613 WINTER PARK DR",RICHARDSON,TX,75082-3856,"(972) 235-6723",,,,
TX,TARRANT,31082,"Residential Swimming Pools & Spas",9/15/2020,,30000,,"917 CLOUDLOCK DR",SAGINAW,TX,76131,,,"ARTURO GOMEZ","917 CLOUDLOCK DR",SAGINAW,TX,76131,,Owner,,,,,"SELAH POOLS",,,,,"SELAH POOLS","4843 COLLEYVILLE BVLD",COLLEYVILLE,TX,76034,"(817) 618-5731",,,,Info@SelahPools.com
TX,DALLAS,PRPO202005556,"Residential Swimming Pools & Spas",9/16/2020,,53000,,"2212 WIMBERLY WAY",CARROLLTON,TX,76131,,,"TONYA SHINNERS","2212 WIMBERLY WAY",CARROLLTON,TX,76131,,Owner,,,,,OWNER,,,,,OWNER,,,,,,,,,
TX,DALLAS,009680-2020,"Residential Swimming Pools & Spas",9/4/2020,,40050,,"2118 GRAND VIEW CT","CEDAR HILL",TX,75104,,,"GAIL LUX","2118 GRAND VIEW CT","CEDAR HILL",TX,75104,,Applicant,,,,,OWNER,,,,,OWNER,,,,,,,,,
TX,DALLAS,009333-2020,"Residential Swimming Pools & Spas",9/18/2020,,35000,,"1519 PINE TREE LN","CEDAR HILL",TX,75104,,,"GAIL LUX","1519 PINE TREE LN","CEDAR HILL",TX,75104,,Applicant,,,,,OWNER,,,,,OWNER,,,,,,,,,
TX,COLLIN,20201392,"Residential Swimming Pools & Spas",9/16/2020,,81000,,"260 HAILEE DR",HOUSTON,TX,77356,,,"KIP STOVALL","260 HAILEE DR",PRINCETON,TX,75407,,Owner,,,,,"LIQUID OASIS POOLS AND SPAS",,,,,"LIQUID OASIS POOLS AND SPAS","871 VZ COUNTY ROAD 1913",FRUITVALE,TX,75127-1816,"(214) 934-3099",https://www.liquidoasispoolsandspas.com,,,
TX,TARRANT,"20 - 03048","Residential Swimming Pools & Spas",9/11/2020,,,,"4424 EMERALD LEAF DR",MANSFIELD,TX,75407,"VILLAGES AT SPRING LAKE",34,CONTRACTOR,,,,,,,,,,,"TRUE POOL COMPANY",,,,,"TRUE POOL COMPANY","201 N RIDGE TRL",PROSPER,TX,75078-7060,"(972) 878-8306",https://www.truepoolcompany.com/,,,amcleod@truepoolcompany.com
TX,TARRANT,"20 - 03272","Residential Swimming Pools & Spas",9/18/2020,,,,"1218 PLATTE DR",MANSFIELD,TX,75407,"TWIN CREEKS",10,"PONCHAI REAINTHONG","1218 PLATTE DR",MANSFIELD,TX,75407,,Owner,,,,,"TROPHY OUTDOOR ENVIRONMENTS",,,,,"TROPHY OUTDOOR ENVIRONMENTS","208 E BROAD ST STE 109",MANSFIELD,TX,76063-1790,"(817) 235-1844",,,,
TX,TARRANT,"20 - 03375","Residential Swimming Pools & Spas",9/14/2020,,,,"3900 CICADA LN",MANSFIELD,TX,75407,,,CONTRACTOR,,,,,,,,,,,"ACCENT POOLS",,,,,"ACCENT POOLS","1028 W PIONEER PKWY",ARLINGTON,TX,76013-6331,"(817) 226-7665",http://www.accentpoolsinc.net/,"(817) 275-0647",,
TX,TARRANT,"20 - 03376","Residential Swimming Pools & Spas",9/15/2020,,,,"4701 FITZGERALD DR",MANSFIELD,TX,75407,"THE VILLAGES AT SPRING",2,"LESLIE PHARIS","4701 FITZGERALD DR",MANSFIELD,TX,75407,,Owner,,,,,"ACCENT POOLS",,,,,"ACCENT POOLS","1028 W PIONEER PKWY",ARLINGTON,TX,76013-6331,"(817) 226-7665",http://www.accentpoolsinc.net/,"(817) 275-0647",,
TX,TARRANT,"20 - 03378","Residential Swimming Pools & Spas",9/3/2020,,,,"1004 KILLIAN DR",MANSFIELD,TX,75407,WOODLAND,15,"MANUEL SANCHEZ","1004 KILLIAN DR",MANSFIELD,TX,75407,,Owner,,,,,"DOLCE POOLS",,,,,"DOLCE POOLS","10 CARROL PRICE CT",MANSFIELD,TX,76063-7013,"(817) 300-3606",,,"TYLER NEUFELDT",
TX,TARRANT,"20 - 03430","Residential Swimming Pools & Spas",9/10/2020,,,,"6 TIMS CT",MANSFIELD,TX,75407,"HERITAGE ESTATES",11,"KRIS DEARDEN","6 TIMS CT",MANSFIELD,TX,75407,,Owner,,,,,"SELAH POOLS",,,,,"SELAH POOLS","4843 COLLEYVILLE BVLD",COLLEYVILLE,TX,76034,"(817) 618-5731",,,,Info@SelahPools.com
TX,TARRANT,"20 - 03482","Residential Swimming Pools & Spas",9/28/2020,,,,"4800 COMSTOCK WAY",MANSFIELD,TX,75407,BOWER,1,"JAMES SPILLER","4800 COMSTOCK WAY",MANSFIELD,TX,75407,,Owner,,,,,"PREMIER POOLS & SPAS",,,,,"PREMIER POOLS & SPAS","1333 MCDERMOTT STE 200",ALLEN,TX,75013,"(214) 620-1044",,,,
TX,TARRANT,"20 - 03522","Residential Swimming Pools & Spas",9/15/2020,,,,"4809 ELLSWORTH ST",MANSFIELD,TX,75407,BOWER,6,"MARCUS DUNN","4809 ELLSWORTH ST",MANSFIELD,TX,75407,,Owner,,,,,"ACCENT POOLS",,,,,"ACCENT POOLS","1028 W PIONEER PKWY",ARLINGTON,TX,76013-6331,"(817) 226-7665",http://www.accentpoolsinc.net/,"(817) 275-0647",,
TX,TARRANT,"20 - 03523","Residential Swimming Pools & Spas",9/15/2020,,,,"3104 CHAMBLEY LN",MANSFIELD,TX,75407,SOMERSET,13,CONTRACTOR,,,,,,,,,,,"ACCENT POOLS",,,,,"ACCENT POOLS","1028 W PIONEER PKWY",ARLINGTON,TX,76013-6331,"(817) 226-7665",http://www.accentpoolsinc.net/,"(817) 275-0647",,
TX,TARRANT,"20 - 03524","Residential Swimming Pools & Spas",9/15/2020,,,,"3103 CARRINGTON DR",MANSFIELD,TX,75407,SOUTHPOINTE,2,CONTRACTOR,,,,,,,,,,,"ACCENT POOLS",,,,,"ACCENT POOLS","1028 W PIONEER PKWY",ARLINGTON,TX,76013-6331,"(817) 226-7665",http://www.accentpoolsinc.net/,"(817) 275-0647",,
TX,TARRANT,"20 - 03553","Residential Swimming Pools & Spas",9/14/2020,,,,"103 GREENVALE DR",MANSFIELD,TX,75407,"VILLAGES AT SPRING LAKE",2,"WESLEY DAVIS","103 GREENVALE DR",MANSFIELD,TX,75407,,Owner,,,,,"ACCENT POOLS",,,,,"ACCENT POOLS","1028 W PIONEER PKWY",ARLINGTON,TX,76013-6331,"(817) 226-7665",http://www.accentpoolsinc.net/,"(817) 275-0647",,
TX,TARRANT,"20 - 03576","Residential Swimming Pools & Spas",9/15/2020,,,,"406 WATERLANE DR",MANSFIELD,TX,75407,WATERFORD,5,"MARC CROKER","406 WATERLANE DR",MANSFIELD,TX,75407,,Owner,,,,,"TROPICAL DESIGNS",,,,,"TROPICAL DESIGNS","1049 GLEN OAK DR",BURLESON,TX,76028-6224,"(817) 320-0882",,,,
TX,TARRANT,"20 - 03597","Residential Swimming Pools & Spas",9/18/2020,,,,"4710 PERIWINKLE DR",MANSFIELD,TX,75407,"GARDEN HEIGHTS",6,"LEIGH STERN","4710 PERIWINKLE DR",MANSFIELD,TX,75407,,Owner,,,,,"AQUAMARINE POOLS",,,,,"AQUAMARINE POOLS","4701 S I-35W",ALVARADO,TX,76009,"(800) 432-8994",,,,don@aquapools.com
TX,TARRANT,20-03603,"Residential Swimming Pools & Spas",9/21/2020,,,,"4711 PERIWINKLE DR",MANSFIELD,TX,75407,,,"CARMEN YOUNG","4711 PERIWINKLE DR",MANSFIELD,TX,75407,,Owner,,,,,"AQUAMARINE POOLS",,,,,"AQUAMARINE POOLS","4701 S I-35W",ALVARADO,TX,76009,"(800) 432-8994",,,,don@aquapools.com
TX,TARRANT,"20 - 03664","Residential Swimming Pools & Spas",9/28/2020,,,,"3300 LAKEMONT DR",MANSFIELD,TX,75407,,,CONTRACTOR,,,,,,,,,,,"PREMIER POOLS & SPAS",,,,,"PREMIER POOLS & SPAS","1333 MCDERMOTT STE 200",ALLEN,TX,75013,"(214) 620-1044",,,,
TX,TARRANT,"20 - 03856","Residential Swimming Pools & Spas",9/29/2020,,,,"8 BAHAMA CT",MANSFIELD,TX,75407,,,"SUSAN POTTER","8 BAHAMA CT",MANSFIELD,TX,75407,,Owner,,,,,"WATERCREST POOLS",,,,,"WATERCREST POOLS","1103 KELLER PKWY STE 105",KELLER,TX,76248-3600,"(817) 431-8997",http://www.watercrestpools.com,,,
TX,DALLAS,20-3799,"Residential Swimming Pools & Spas",9/25/2020,,20000,,"409 RIDGEHAVEN PL",RICHARDSON,TX,75081,,,"TIM & STEFFANI SMITH","409 RIDGEHAVEN PL",RICHARDSON,TX,75081,,Owner,,,,,"RIDGEMONT COMMERCIAL CONSTRUCTION",,,,,"RIDGEMONT COMMERCIAL CONSTRUCTION","1520 W WALNUT HILL LN",IRVING,TX,75038-3701,"(214) 492-8900",http://www.ridgemont.com/,,,
TX,DALLAS,20-3877,"Residential Swimming Pools & Spas",9/29/2020,,40000,,"1139 WILDERNESS TRL",RICHARDSON,TX,75081,,,"TERRY & LOY LOVELESS","1139 WILDERNESS TRL",RICHARDSON,TX,75081,,Owner,,,,,"ROBERTSON POOLS",,,,,"ROBERTSON POOLS","569-A S COPPELL RD",COPPELL,TX,75019,"(972) 393-2152",http://www.robertsonpools.com/,"(972) 393-6244","MELISSA WEBBER",mwebber@robertsonpools.com
TX,DALLAS,20-3913,"Residential Swimming Pools & Spas",9/25/2020,,25000,,"1809 CENTENARY DR",RICHARDSON,TX,75081,,,"LESLIE NEIGHBORS","1809 CENTENARY DR",RICHARDSON,TX,75081,,Owner,,,,,"OPD CONSTRUCTION",,,,,"OPD CONSTRUCTION","1865 SHADY LN",ALLEN,TX,75002,"(972) 839-4375",,,,
TX,DALLAS,20-4026,"Residential Swimming Pools & Spas",9/30/2020,,35000,,"613 CARLETON DR",RICHARDSON,TX,75081,,,"GEORGE & ROSA LEMUS","613 CARLETON DR",RICHARDSON,TX,75081,,Owner,,,,,"TX POOL & CONSTRUCTION",,,,,"TX POOL & CONSTRUCTION","525 CARTGATE LN","GRAND PRAIRIE",TX,75052,"(682) 557-2905",,,,
TX,DALLAS,20-4158,"Residential Swimming Pools & Spas",9/2/2020,,82000,,"1113 NAVAHO TRL",RICHARDSON,TX,75081,,,"VICTOR & CHERI SCOTT","1113 NAVAHO TRL",RICHARDSON,TX,75081,,Owner,,,,,"SOUTHERN POOLS",,,,,"SOUTHERN POOLS","1062 ABEL RD","NEW ULM",TX,78950-5111,"(979) 992-3085",,,,
TX,DALLAS,20-4388,"Residential Swimming Pools & Spas",9/21/2020,,70000,,"3704 CANTERA LN",RICHARDSON,TX,75081,,,CONTRACTOR,,,,,,,,,,,"DALLAS CREATIVE POOLS",,,,,"DALLAS CREATIVE POOLS","5899 CEDAR RIDGE DR",MIDLOTHIAN,TX,76065,"(214) 236-3721",,,,
TX,DALLAS,20-4442,"Residential Swimming Pools & Spas",9/17/2020,,50000,,"24 CREEKWOOD CIR",RICHARDSON,TX,75081,,,CONTRACTOR,,,,,,,,,,,"PREMIER POOLS & SPAS",,,,,"PREMIER POOLS & SPAS","1333 MCDERMOTT STE 200",ALLEN,TX,75013,"(214) 620-1044",,,,
TX,COLLIN,"POOL - 20 - 2857","Residential Swimming Pools & Spas",10/7/2020,,,420,"3531 FIELDVIEW CT",CELINA,TX,75009,,,"STEVEN CHAVIRA","3531 FIELDVIEW CT",CELINA,TX,75009,,Owner,,,,,"MIRAGE CUSTOM POOLS ",,,,,"MIRAGE CUSTOM POOLS ","545 N COWAN AVE STE E",LEWISVILLE,TX,75057-3193,"(972) 221-7665",,,,
TX,COLLIN,"POOL - 20 - 2859","Residential Swimming Pools & Spas",10/7/2020,,,913,"1128 ELLICOTT DR",CELINA,TX,75009,"LIGHT FARMS MAYDELLE",15,"MARK & LESLIE LEMMON","1128 ELLICOTT DR",CELINA,TX,75009,,Owner,,,,,"MIRAGE CUSTOM POOLS ",,,,,"MIRAGE CUSTOM POOLS ","545 N COWAN AVE STE E",LEWISVILLE,TX,75057-3193,"(972) 221-7665",,,,
TX,COLLIN,"POOL - 20 - 3841","Residential Swimming Pools & Spas",10/8/2020,,,450,"3139 PRESTON HILLS CIR",CELINA,TX,75078,,,"SIDNEY & LEIGH PYE","3139 PRESTON HILLS CIR",CELINA,TX,75078,,Owner,,,,,"LONE STAR POOLS",,,,,"LONE STAR POOLS","1110 REDCLOUD DR","SAN ANTONIO",TX,78260-2030,"(210) 889-8052",,,,
TX,COLLIN,"POOL - 20 - 3897","Residential Swimming Pools & Spas",10/7/2020,,,4096,"6118 HERON DR",CELINA,TX,76227,"SUTTON FIELDS",8,CONTRACTOR,,,,,,,,,,,"TX POOL PRO",,,,,"TX POOL PRO","1901 FAIRWAY BEND DR",HASLET,TX,76052-2803,"(817) 822-1423",,,"KIRK NICHOLS",
TX,COLLIN,"POOL - 20 - 4080","Residential Swimming Pools & Spas",10/13/2020,,,3956,"3116 HICKORY LN",CELINA,TX,75009,BLUEWOOD,4,"CRYSTAL & JAMES REEVES","3116 HICKORY LN",CELINA,TX,75009,,Owner,,,,,"MED HAWK POOLS & PATIO",,,,,"MED HAWK POOLS & PATIO","3750 S PRESTON STE 116",CELINA,TX,75009,"(833) 633-4295",,,"MARK GILBAUGH",info@medhawkpools.com
TX,COLLIN,"POOL - 20 - 4101","Residential Swimming Pools & Spas",10/1/2020,,,338,"837 HARRINGTON LN",CELINA,TX,75009,"LIGHT FARMS",18,"LOUIS S & CHRISTINE HARMAN","837 HARRINGTON LN",CELINA,TX,75009,,Owner,,,,,"GOLD MEDAL POOLS",,,,,"GOLD MEDAL POOLS","4326 PRESTON RD",FRISCO,TX,75034-8512,"(972) 712-4653",http://www.goldmedalpools.com/,"(972) 712-7665","STEVE SANDLER",
TX,COLLIN,"POOL - 20 - 4137","Residential Swimming Pools & Spas",10/7/2020,,,3000,"825 HARRINGTON LN",CELINA,TX,75009,"LIGHT FARMS",15,"DANIELLE & ERIC OVERSTREET","825 HARRINGTON LN",CELINA,TX,75009,,Owner,,,,,"JUBILEE CUSTOM POOLS AND PATIO",,,,,"JUBILEE CUSTOM POOLS AND PATIO","2750 SOUTH PRESTON ROAD, SUITE 116-135",CELINA,TX,75009,"(469) 634-6704",,,,
TX,COLLIN,"POOL - 20 - 4142","Residential Swimming Pools & Spas",10/7/2020,,,446,"1605 POST OAK",CELINA,TX,75009,,,"JOSEPH & JULI TUTT","1605 POST OAK",CELINA,TX,75009,,Owner,,,,,"HAUK CUSTOM POOLS",,,,,"HAUK CUSTOM POOLS","1060 N PRESTON RD",CELINA,TX,75009-3857,"(972) 382-1919",,,,
TX,COLLIN,"POOL - 20 - 4143","Residential Swimming Pools & Spas",10/7/2020,,,375,"400 LAUGHLIN LN",CELINA,TX,75009,"LIGHT FARMS SAGE",1,"CARLOS & KATHI MARTINEZ","400 LAUGHLIN LN",CELINA,TX,75009,,Owner,,,,,"HAUK CUSTOM POOLS",,,,,"HAUK CUSTOM POOLS","1060 N PRESTON RD",CELINA,TX,75009-3857,"(972) 382-1919",,,,
TX,COLLIN,"POOL - 20 - 4152","Residential Swimming Pools & Spas",10/7/2020,,,733,"1221 BRISCOE DR",CELINA,TX,75009,,,"CHRIS & JULIE GOODMAN","1221 BRISCOE DR",CELINA,TX,75009,,Owner,,,,,"SOUTHERNWIND POOLS",,,,,"SOUTHERNWIND POOLS","2230 BUSH DR",MCKINNEY,TX,75070-7553,"(972) 783-4090",http://www.southernwindpools.com/,,,info@southernwindpools.com
TX,COLLIN,"POOL - 20 - 4184","Residential Swimming Pools & Spas",10/19/2020,,,4419,"2707 SEABISCUIT RD",CELINA,TX,75009,"MUSTANG LAKES",24,"WESLEY & STEPHANIE KNOWLES","2707 SEABISCUIT RD",CELINA,TX,75009,,Owner,,,,,"AQUATECTURE DESIGN GROUP",,,,,"AQUATECTURE DESIGN GROUP","PO BOX 6017",MCKINNEY,TX,75071-5101,"(972) 569-7876",http://www.aquatecturedg.com,,,chris@adgpools.com
TX,COLLIN,"POOL - 20 - 4206","Residential Swimming Pools & Spas",10/26/2020,,,531,"4106 KINGSTON LN",CELINA,TX,75009,"LIGHT FARMS CYPRESS",17,"JON FERLET","4106 KINGSTON LN",CELINA,TX,75009,,Owner,,,,,"GOLD MEDAL POOLS",,,,,"GOLD MEDAL POOLS","4326 PRESTON RD",FRISCO,TX,75034-8512,"(972) 712-4653",http://www.goldmedalpools.com/,"(972) 712-7665","STEVE SANDLER",
TX,COLLIN,"POOL - 20 - 4221","Residential Swimming Pools & Spas",10/14/2020,,,418,"421 CAMILLE CROSSING",CELINA,TX,75009,"THE HOMESTEAD AT OWNSBY FARMS",17,"DENISE & ALLEN KELLEY","421 CAMILLE CROSSING",CELINA,TX,75009,,Owner,,,,,"AQUAMARINE POOLS",,,,,"AQUAMARINE POOLS","4701 S I-35W",ALVARADO,TX,76009,"(800) 432-8994",,,,don@aquapools.com
TX,COLLIN,"POOL - 20 - 4223","Residential Swimming Pools & Spas",10/19/2020,,,650,"1420 CYPRESS CREEK",CELINA,TX,75009,"LIGHT FARMS",22,"JAMES & JANA BROWN","1420 CYPRESS CREEK",CELINA,TX,75009,,Owner,,,,,"MIRAGE CUSTOM POOLS ",,,,,"MIRAGE CUSTOM POOLS ","545 N COWAN AVE STE E",LEWISVILLE,TX,75057-3193,"(972) 221-7665",,,,
TX,COLLIN,"POOL - 20 - 4417","Residential Swimming Pools & Spas",10/27/2020,,,2677,"308 SHIRE LN",CELINA,TX,75009,,,"DAVID & KATHARINE BRUMBELOW","308 SHIRE LN",CELINA,TX,75009,,Owner,,,,,"AQUATECTURE DESIGN GROUP",,,,,"AQUATECTURE DESIGN GROUP","PO BOX 6017",MCKINNEY,TX,75071-5101,"(972) 569-7876",http://www.aquatecturedg.com,,,chris@adgpools.com
TX,DALLAS,20-002693,"Residential Swimming Pools & Spas",9/29/2020,,40000,,"7420 LAKEVIEW PKWY",ROWLETT,TX,75088,,,CONTRACTOR,,,,,,,,,,,"MG POOLS",,,,,"MG POOLS","1700 COMMERCE ST STE 1140",DALLAS,TX,75201-5390,"(214) 407-0671",,,,projectmanager@mgpools.com
TX,DALLAS,20-002976,"Residential Swimming Pools & Spas",9/23/2020,,42701,,"10406 PALMER DR",ROWLETT,TX,75089,,,"TROY CAPTAIN","10406 PALMER DR",ROWLETT,TX,75089,,Owner,,,,,"AQUAMARINE POOLS",,,,,"AQUAMARINE POOLS","4701 S I-35W",ALVARADO,TX,76009,"(800) 432-8994",,,,don@aquapools.com
TX,DALLAS,20-002552,"Residential Swimming Pools & Spas",9/4/2020,,50000,,"6420 TERESA LN",ROWLETT,TX,75089,,,"JAMES & JOCELYN BLOUNT","6420 TERESA LN",ROWLETT,TX,75089,,Owner,,,,,"SUN RAY POOLS",,,,,"SUN RAY POOLS","5314 NUECES BAY DR",ROWLETT,TX,75089-4145,"(972) 333-0714",,"(214) 607-1009",,info@sunraypoolstx.com
TX,DALLAS,20-002843,"Residential Swimming Pools & Spas",9/30/2020,,50000,,"9810 WATERVIEW PKWY",ROWLETT,TX,75089,,,"MICHAEL & YVONNE SAVATTERE","9810 WATERVIEW PKWY",ROWLETT,TX,75089,,Owner,,,,,"WEISZ SELECTION OUTDOOR LIVING SPEC",,,,,"WEISZ SELECTION OUTDOOR LIVING SPEC","PO BOX 176",WESTON,TX,75097,"(972) 838-4205",https://weiszselection.com/,,,
TX,DALLAS,20-003036,"Residential Swimming Pools & Spas",9/22/2020,,51000,,"7713 TULANE DR",ROWLETT,TX,75088,,,"ROBERT & CONNIE ROSS","7713 TULANE DR",ROWLETT,TX,75088,,Owner,,,,,"HOBERT POOLS",,,,,"HOBERT POOLS","315 W FM 544",MURPHY,TX,75094-4577,"(972) 690-8118",http://www.hobertpools.com/,"(972) 422-6320",,contact@hobertpools.com
TX,DALLAS,20-003138,"Residential Swimming Pools & Spas",9/23/2020,,51000,,"7917 STONEHAVEN LN",ROWLETT,TX,75089,,,"SETH & JODI PENDARVIS","7917 STONEHAVEN LN",ROWLETT,TX,75089,,Owner,,,,,"HOBERT POOLS",,,,,"HOBERT POOLS","315 W FM 544",MURPHY,TX,75094-4577,"(972) 690-8118",http://www.hobertpools.com/,"(972) 422-6320",,contact@hobertpools.com
TX,DALLAS,20-003139,"Residential Swimming Pools & Spas",9/23/2020,,51000,,"8705 LAKESIDE DR",ROWLETT,TX,75088,,,CONTRACTOR,,,,,,,,,,,"HOBERT POOLS",,,,,"HOBERT POOLS","315 W FM 544",MURPHY,TX,75094-4577,"(972) 690-8118",http://www.hobertpools.com/,"(972) 422-6320",,contact@hobertpools.com
TX,DALLAS,20-003214,"Residential Swimming Pools & Spas",9/29/2020,,57000,,"9804 EDGEWAY CIR",ROWLETT,TX,75089,,,CONTRACTOR,,,,,,,,,,,"TEXAS OUTDOOR OASIS",,,,,"TEXAS OUTDOOR OASIS","2621 ELM GROVE RD",WYLIE,TX,75098-6243,"(972) 771-1977",http://www.texasoutdooroasis.com/,,,info@texasoutdooroasis.com
TX,DALLAS,20-003050,"Residential Swimming Pools & Spas",9/22/2020,,65000,,"8106 LAKE VALLEY CT",ROWLETT,TX,75089,,,"TERRY & LISA WHATLEY","8106 LAKE VALLEY CT",ROWLETT,TX,75089,,Owner,,,,,"BMR POOL & PATIO",,,,,"BMR POOL & PATIO","1706 JUSTIN RD",LEWISVILLE,TX,75077-2131,"(972) 221-3959",http://www.bmrpoolandpatio.com/,"(972) 317-3360",,sales@bmrpoolandpatio.com
TX,DALLAS,20-003136,"Residential Swimming Pools & Spas",9/29/2020,,65000,,"2807 MERLOT CIR",ROWLETT,TX,75088,,,"IMELDA SILVA","2807 MERLOT CIR",ROWLETT,TX,75088,,Owner,,,,,"POOL STOP CUSTOM POOLS & SPAS",,,,,"POOL STOP CUSTOM POOLS & SPAS","838 STEGER TOWNE RD",ROCKWALL,TX,75032-5658,"(972) 772-4545",,,,
TX,DALLAS,COM-001998-2020,"Restaurant and Bar",9/24/2020,,161600,2395,"6565 HILLCREST 140","UNIVERSITY PARK",TX,75189,,,CONTRACTOR,,,,,,,,,,,"PRESTON PIERCE CONSTRUCTION",,,,,"PRESTON PIERCE CONSTRUCTION","2100 MCKINNEY AVE STE 1225",DALLAS,TX,75201-1803,"(214) 468-9178",,,,
TX,DALLAS,PRRN202005505,"Restaurant and Bar",9/28/2020,,300000,,"4070 SH 121",CARROLLTON,TX,75010,,,"DUNCAN KIM","4070 SH 121",CARROLLTON,TX,75010,,Applicant,,,,,OWNER,,,,,OWNER,,,,,,,,,
TX,COLLIN,"BLD20-08451 ",Retail,7/21/2020,Renovation,80736,,"6000 COIT RD",PLANO,TX,75023,,,CONTRACTOR,,,,,,,,,,,"PLACE SERVICES",,,,,"PLACE SERVICES","201 GATAEWAY DR",CANTON,GA,30115,"(678) 880-4777",http://www.placeservicesinc.com/,"(770) 479-6914",,
TX,COLLIN,BLD20-10268,Retail,10/22/2020,"Finish Out",450000,,"6917 INDEPENDENCE PKWY",PLANO,TX,75023,,,CONTRACTOR,,,,,,,,,,,"D4 CONSTRUCTION SERVICES",,,,,"D4 CONSTRUCTION SERVICES","4121 MAIN ST",ROWLETT,TX,75088-5154,"(972) 463-0390",http://www.d4cs.com/,"(972) 463-0328",,info@d4cs.com
TX,DALLAS,COM-002066-2020,Retail,9/30/2020,,35000,,"5801 BUSH AVE","UNIVERSITY PARK",TX,75205,,,CONTRACTOR,,,,,,,,,,,"CELERIS GROUP",,,,,"CELERIS GROUP","605 E. BORDER ST",ARLINGTON,TX,76010,"(817) 446-1700",,,,
TX,DALLAS,20-958,Retail,9/23/2020,,1000000,8175,"1450 E BELT LINE RD",RICHARDSON,TX,75081,,,CONTRACTOR,,,,,,,,,,,"MESSER GROUP",,,,,"MESSER GROUP","533 E SANDY LAKE RD",COPPELL,TX,75019-3046,"(972) 393-3284",,,,
TX,DALLAS,20-001027,Retail,9/14/2020,Renovation,36369,,"4701 LAKEVIEW PKWY",ROWLETT,TX,75088,,,CONTRACTOR,,,,,,,,,,,"POWERHOUSE CONSTRUCTION",,,,,"POWERHOUSE CONSTRUCTION","812 S. CROWLEY RD, SUITE A",CROWLEY,TX,76036,"(407) 408-7774",,,,
TX,DENTON,20-5717,"Single Family Homes",9/25/2020,,516058,,"406 TRIGGER TRL",ARGYLE,TX,76226,,,CONTRACTOR,,,,,,,,,,,"OUR COUNTRY HOMES",,,,,"OUR COUNTRY HOMES","700 W HARWOOD RD STE G2",HURST,TX,76054-3315,"(817) 281-3390",http://www.ourcountryhomes.com/,"(817) 796-1121","DUSTIN AUSTIN",
TX,DENTON,20-5681,"Single Family Homes",9/11/2020,,620000,,"402 TRAVELERS TERRACE",ARGYLE,TX,76226,,,CONTRACTOR,,,,,,,,,,,"OUR COUNTRY HOMES",,,,,"OUR COUNTRY HOMES","700 W HARWOOD RD STE G2",HURST,TX,76054-3315,"(817) 281-3390",http://www.ourcountryhomes.com/,"(817) 796-1121","DUSTIN AUSTIN",
TX,DENTON,20-5671,"Single Family Homes",9/3/2020,,534960,,"313 DOVE FALLS DR",ARGYLE,TX,76226,,,CONTRACTOR,,,,,,,,,,,"LENNAR HOMES",,,,,"LENNAR HOMES","1707 MARKET PL STE 250",IRVING,TX,75063-8050,"(469) 587-5200",http://www.lennar.com/,,,
TX,DENTON,20-5719,"Single Family Homes",9/28/2020,,342420,,"130 CRAIGMORE DR",ARGYLE,TX,76226,,,CONTRACTOR,,,,,,,,,,,"BRIAN ADAMS CONSTRUCTION",,,,,"BRIAN ADAMS CONSTRUCTION","1109 KELLER SMITHFIELD RD S",KELLER,TX,76248-5428,"(817) 994-6555",,,"APRIL ADAMS",
TX,DENTON,20-5720,"Single Family Homes",9/28/2020,,310505,,"175 STIRLING DR",ARGYLE,TX,76226,,,CONTRACTOR,,,,,,,,,,,"BRIAN ADAMS CONSTRUCTION",,,,,"BRIAN ADAMS CONSTRUCTION","1109 KELLER SMITHFIELD RD S",KELLER,TX,76248-5428,"(817) 994-6555",,,"APRIL ADAMS",
TX,DENTON,20-5677,"Single Family Homes",9/9/2020,,573321,,"807 BIG SKY WAY",ARGYLE,TX,76226,,,CONTRACTOR,,,,,,,,,,,"SOUTHGATE HOMES",,,,,"SOUTHGATE HOMES","3131 HARVARD AVE STE 103",DALLAS,TX,75205-3437,"(214) 453-0146",,,,
TX,TARRANT,PB20-13626,"Single Family Homes",10/1/2020,,137466,2182,"8304 SMOKEY CREEK PASS","FORT WORTH",TX,76179,"QUARTER HORSE ESTATES",10,CONTRACTOR,,,,,,,,,,,"LGI HOMES",,,,,"LGI HOMES","1913 PIN OAK TRL",ANNA,TX,75409-4493,"(855) 668-2572",,,,
TX,TARRANT,PB20-13627,"Single Family Homes",10/1/2020,,132000,2733,"1448 ARCHWAY CT","FORT WORTH",TX,76016,"TRAILS OF ELIZABETH CREEK",20,CONTRACTOR,,,,,,,,,,,"DR HORTON",,,,,"DR HORTON","6751 NORTH FWY","FT WORTH",TX,76131-2802,"(817) 230-0800",,,,
TX,TARRANT,PB20-13635,"Single Family Homes",10/1/2020,,127000,2563,"1444 ARCHWAY CT","FORT WORTH",TX,76016,"TRAILS OF ELIZABETH CREEK",19,CONTRACTOR,,,,,,,,,,,"DR HORTON",,,,,"DR HORTON","6751 NORTH FWY","FT WORTH",TX,76131-2802,"(817) 230-0800",,,,
TX,TARRANT,PB20-13636,"Single Family Homes",10/1/2020,,152000,3443,"1440 ARCHWAY CT","FORT WORTH",TX,76016,"TRAILS OF ELIZABETH CREEK",18,CONTRACTOR,,,,,,,,,,,"DR HORTON",,,,,"DR HORTON","6751 NORTH FWY","FT WORTH",TX,76131-2802,"(817) 230-0800",,,,
TX,TARRANT,PB20-13637,"Single Family Homes",10/1/2020,,119000,2326,"1437 ARCHWAY CT","FORT WORTH",TX,76016,"TRAILS OF ELIZABETH CREEK",31,CONTRACTOR,,,,,,,,,,,"DR HORTON",,,,,"DR HORTON","6751 NORTH FWY","FT WORTH",TX,76131-2802,"(817) 230-0800",,,,
TX,TARRANT,PB20-13640,"Single Family Homes",10/1/2020,,126000,2535,"1436 ARCHWAY CT","FORT WORTH",TX,76016,"TRAILS OF ELIZABETH CREEK",17,CONTRACTOR,,,,,,,,,,,"DR HORTON",,,,,"DR HORTON","6751 NORTH FWY","FT WORTH",TX,76131-2802,"(817) 230-0800",,,,
TX,TARRANT,PB20-13612,"Single Family Homes",10/1/2020,,124000,2497,"1453 ARCHWAY CT","FORT WORTH",TX,76016,"TRAILS OF ELIZABETH CREEK",27,CONTRACTOR,,,,,,,,,,,"DR HORTON",,,,,"DR HORTON","6751 NORTH FWY","FT WORTH",TX,76131-2802,"(817) 230-0800",,,,
TX,TARRANT,PB20-13594,"Single Family Homes",10/1/2020,,249228,3956,"15000 FLEET HILL RD","FORT WORTH",TX,76087,MORNINGSTAR,17,CONTRACTOR,,,,,,,,,,,"IMPRESSION HOMES",,,,,"IMPRESSION HOMES","430 N CARROLL AVE # 150",SOUTHLAKE,TX,76092-6452,"(817) 717-5103",https://www.impressionhomes.net/,,,
TX,TARRANT,PB20-13595,"Single Family Homes",10/1/2020,,175896,2792,"5749 BROAD BAY LN","FORT WORTH",TX,76179,"MARINE CREEK RANCH",26,CONTRACTOR,,,,,,,,,,,"IMPRESSION HOMES",,,,,"IMPRESSION HOMES","430 N CARROLL AVE # 150",SOUTHLAKE,TX,76092-6452,"(817) 717-5103",https://www.impressionhomes.net/,,,
TX,TARRANT,PB20-13580,"Single Family Homes",10/1/2020,,151000,3443,"1401 ARCHWAY CT","FORT WORTH",TX,76016,"TRAILS OF ELIZABETH CREEK",8,CONTRACTOR,,,,,,,,,,,"DR HORTON",,,,,"DR HORTON","6751 NORTH FWY","FT WORTH",TX,76131-2802,"(817) 230-0800",,,,
TX,TARRANT,PB20-13589,"Single Family Homes",10/1/2020,,155988,2476,"8732 COPPER MEADOW DR","FORT WORTH",TX,76131,"COPPER CREEK",6,CONTRACTOR,,,,,,,,,,,"M/I HOMES",,,,,"M/I HOMES","405 STATE HIGHWAY 121 BYP STE A210",LEWISVILLE,TX,75067-8214,"(210) 546-2129",,"(210) 546-2196",,
TX,TARRANT,PB20-13591,"Single Family Homes",10/1/2020,,136422,2594,"4201 SNOWBERRY LN","FORT WORTH",TX,76036,"ROSEMARY RIDGE",14,CONTRACTOR,,,,,,,,,,,"BLOOMFIELD HOMES",,,,,"BLOOMFIELD HOMES","1050 E STATE HIGHWAY 114 STE 210",SOUTHLAKE,TX,76092-5255,"(972) 971-2103",http://bloomfieldhomes.net/,"(972) 987-4342",,mattjennings@bloomfieldhomes.net
TX,TARRANT,PB20-13539,"Single Family Homes",10/1/2020,,126000,2535,"1405 ARCHWAY CT","FORT WORTH",TX,76016,"TRAILS OF ELIZABETH CREEK",7,CONTRACTOR,,,,,,,,,,,"DR HORTON",,,,,"DR HORTON","6751 NORTH FWY","FT WORTH",TX,76131-2802,"(817) 230-0800",,,,
TX,TARRANT,PB20-13540,"Single Family Homes",10/1/2020,,150000,3393,"1408 ARCHWAY CT","FORT WORTH",TX,76016,"TRAILS OF ELIZABETH CREEK",11,CONTRACTOR,,,,,,,,,,,"DR HORTON",,,,,"DR HORTON","6751 NORTH FWY","FT WORTH",TX,76131-2802,"(817) 230-0800",,,,
TX,TARRANT,PB20-13541,"Single Family Homes",10/1/2020,,127000,2555,"1425 ARCHWAY CT","FORT WORTH",TX,76016,"TRAILS OF ELIZABETH CREEK",2,CONTRACTOR,,,,,,,,,,,"DR HORTON",,,,,"DR HORTON","6751 NORTH FWY","FT WORTH",TX,76131-2802,"(817) 230-0800",,,,
TX,TARRANT,PB20-13542,"Single Family Homes",10/1/2020,,122000,2407,"1441 ARCHWAY CT","FORT WORTH",TX,76016,"TRAILS OF ELIZABETH CREEK",30,CONTRACTOR,,,,,,,,,,,"DR HORTON",,,,,"DR HORTON","6751 NORTH FWY","FT WORTH",TX,76131-2802,"(817) 230-0800",,,,
TX,TARRANT,PB20-13501,"Single Family Homes",10/1/2020,,169218,2686,"8720 HELIOTROPE LN","FORT WORTH",TX,76131,"COPPER CREEK",17,CONTRACTOR,,,,,,,,,,,"M/I HOMES",,,,,"M/I HOMES","405 STATE HIGHWAY 121 BYP STE A210",LEWISVILLE,TX,75067-8214,"(210) 546-2129",,"(210) 546-2196",,
TX,TARRANT,PB20-13354,"Single Family Homes",10/1/2020,,118000,2247,"321 ROUNDSTONE RD","FORT WORTH",TX,76052,"VANN TRACT",6,CONTRACTOR,,,,,,,,,,,"DR HORTON",,,,,"DR HORTON","6751 NORTH FWY","FT WORTH",TX,76131-2802,"(817) 230-0800",,,,
TX,TARRANT,PB20-13348,"Single Family Homes",10/1/2020,,300000,2910,"6008 LANTANA LN","FORT WORTH",TX,76112,"WOODHAVEN CNTRY CLUB ESTATES",12,CONTRACTOR,,,,,,,,,,,"NORWICH HOMES",,,,,"NORWICH HOMES","1665 FLORENCE RD",KELLER,TX,76262-8924,"(817) 354-7700",http://www.norwich-homes.com/,"(817) 358-0717",,john@norwich-homes.com
TX,TARRANT,PB20-13317,"Single Family Homes",10/1/2020,,324060,2946,"1913 ROUNDTREE CIR E","FORT WORTH",TX,76008,"WALSH RANCH QUAIL VALLEY",29,CONTRACTOR,,,,,,,,,,,"HORIZON HOMES",,,,,"HORIZON HOMES","5601 DEMOCRACY DR STE 300",PLANO,TX,75024-3674,"(469) 774-9207",http://www.hhomesltd.com/,,"STEVE DENNIS",cmckinney@hhomesltd.com
TX,TARRANT,PB20-13305,"Single Family Homes",10/1/2020,,316900,2704,"4925 MONTE VERDE DR","FORT WORTH",TX,76244,,,CONTRACTOR,,,,,,,,,,,"K HOVNANIAN HOMES",,,,,"K HOVNANIAN HOMES","5808 W PLANO PKWY",PLANO,TX,75093-4636,"(469) 737-1400",,,,
TX,TARRANT,PB20-12992,"Single Family Homes",10/1/2020,,181692,2884,"15148 FLEET HILL RD","FORT WORTH",TX,76087,MORNINGSTAR,40,CONTRACTOR,,,,,,,,,,,"IMPRESSION HOMES",,,,,"IMPRESSION HOMES","430 N CARROLL AVE # 150",SOUTHLAKE,TX,76092-6452,"(817) 717-5103",https://www.impressionhomes.net/,,,
TX,TARRANT,PB20-08633,"Single Family Homes",10/2/2020,,299628,5281,"4109 LA MILAGRO DR","FORT WORTH",TX,76179,,,CONTRACTOR,,,,,,,,,,,"FIRST TEXAS HOMES",,,,,"FIRST TEXAS HOMES","500 CRESCENT CT STE 350",DALLAS,TX,75201-7854,"(214) 613-3400",,"(214) 432-0350",,
TX,TARRANT,PB20-11789,"Single Family Homes",10/2/2020,,345730,3143,"5513 GEORGE CREEK RD","FORT WORTH",TX,76126,VENTANA,25,CONTRACTOR,,,,,,,,,,,"BRITTON HOMES",,,,,"BRITTON HOMES","5055 WEST PARK BLVD",PLANO,TX,75093,"(713) 948-4485",,,,
TX,TARRANT,PB20-13108,"Single Family Homes",10/2/2020,,349757,2491,"2312 ROMELLE ST","FORT WORTH",TX,76008,"WALSH RANCH QUAIL VALLEY",7,CONTRACTOR,,,,,,,,,,,"DAVID WEEKLEY HOMES",,,,,"DAVID WEEKLEY HOMES","2708 HILLSIDE DR","HIGHLAND VILLAGE",TX,75077-8653,"(972) 415-6059",http://www.davidweekleyhomes.com/,,,
TX,TARRANT,PB20-13319,"Single Family Homes",10/2/2020,,502480,4568,"2200 DOMINGO DR","FORT WORTH",TX,76008,,,CONTRACTOR,,,,,,,,,,,"HORIZON HOMES",,,,,"HORIZON HOMES","5601 DEMOCRACY DR STE 300",PLANO,TX,75024-3674,"(469) 774-9207",http://www.hhomesltd.com/,,"STEVE DENNIS",cmckinney@hhomesltd.com
TX,TARRANT,PB20-13324,"Single Family Homes",10/2/2020,,227619,3613,"1108 WHISPER WILLOWS DR","FORT WORTH",TX,76052,,,CONTRACTOR,,,,,,,,,,,"OUR COUNTRY HOMES",,,,,"OUR COUNTRY HOMES","700 W HARWOOD RD STE G2",HURST,TX,76054-3315,"(817) 281-3390",http://www.ourcountryhomes.com/,"(817) 796-1121","DUSTIN AUSTIN",
TX,TARRANT,PB20-13436,"Single Family Homes",10/2/2020,,119000,2326,"313 ROUNDSTONE RD","FORT WORTH",TX,76052,"VANN TRACT",4,CONTRACTOR,,,,,,,,,,,"DR HORTON",,,,,"DR HORTON","6751 NORTH FWY","FT WORTH",TX,76131-2802,"(817) 230-0800",,,,
TX,TARRANT,PB20-13437,"Single Family Homes",10/2/2020,,132000,2733,"309 ROUNDSTONE RD","FORT WORTH",TX,76052,"VANN TRACT",3,CONTRACTOR,,,,,,,,,,,"DR HORTON",,,,,"DR HORTON","6751 NORTH FWY","FT WORTH",TX,76131-2802,"(817) 230-0800",,,,
TX,TARRANT,PB20-13452,"Single Family Homes",10/2/2020,,126000,2535,"420 FRENCHPARK DR","FORT WORTH",TX,76052,"VANN TRACT",20,CONTRACTOR,,,,,,,,,,,"DR HORTON",,,,,"DR HORTON","6751 NORTH FWY","FT WORTH",TX,76131-2802,"(817) 230-0800",,,,
TX,TARRANT,PB20-13429,"Single Family Homes",10/2/2020,,120000,2387,"11433 LEESON ST","FORT WORTH",TX,76052,"VANN TRACT",16,CONTRACTOR,,,,,,,,,,,"DR HORTON",,,,,"DR HORTON","6751 NORTH FWY","FT WORTH",TX,76131-2802,"(817) 230-0800",,,,
TX,TARRANT,PB20-13503,"Single Family Homes",10/2/2020,,166950,2650,"8745 SLEEPY DAISY DR","FORT WORTH",TX,76131,"COPPER CREEK",25,CONTRACTOR,,,,,,,,,,,"M/I HOMES",,,,,"M/I HOMES","405 STATE HIGHWAY 121 BYP STE A210",LEWISVILLE,TX,75067-8214,"(210) 546-2129",,"(210) 546-2196",,
TX,TARRANT,PB20-13505,"Single Family Homes",10/2/2020,,174195,2765,"10253 HANKS CREEK RD","FORT WORTH",TX,76126,VENTANA,9,CONTRACTOR,,,,,,,,,,,"TROPHY SIGNATURE HOMES",,,,,"TROPHY SIGNATURE HOMES","2805 DALLAS PKWY STE 400",PLANO,TX,75093-8722,"(469) 969-7339",,,,
TX,TARRANT,PB20-13506,"Single Family Homes",10/2/2020,,173691,2757,"6140 COBBETTS POND LN","FORT WORTH",TX,76179,"MARINE CREEK RANCH",2,CONTRACTOR,,,,,,,,,,,"IMPRESSION HOMES",,,,,"IMPRESSION HOMES","430 N CARROLL AVE # 150",SOUTHLAKE,TX,76092-6452,"(817) 717-5103",https://www.impressionhomes.net/,,,
TX,TARRANT,PB20-13507,"Single Family Homes",10/2/2020,,235431,3737,"5717 SURRY MOUNTAIN TRL","FORT WORTH",TX,76179,"MARINE CREEK RANCH",21,CONTRACTOR,,,,,,,,,,,"IMPRESSION HOMES",,,,,"IMPRESSION HOMES","430 N CARROLL AVE # 150",SOUTHLAKE,TX,76092-6452,"(817) 717-5103",https://www.impressionhomes.net/,,,
TX,TARRANT,PB20-13508,"Single Family Homes",10/2/2020,,117369,1863,"2816 ANDESITE LN","FORT WORTH",TX,76108,"CHAPIN VILLAGE",12,CONTRACTOR,,,,,,,,,,,"HISTORY MAKER HOMES",,,,,"HISTORY MAKER HOMES","9001 AIRPORT FWY SUITE 400","NORTH RICHLAND HILLS",TX,76180-7769,"(817) 429-8008",http://www.historymaker.com/,"(817) 507-1102","JILL BARFIELD",
TX,TARRANT,PB20-13509,"Single Family Homes",10/2/2020,,164619,2613,"5508 MOUNTAIN ISLAND DR","FORT WORTH",TX,76179,"MARINE CREEK RANCH",5,CONTRACTOR,,,,,,,,,,,"IMPRESSION HOMES",,,,,"IMPRESSION HOMES","430 N CARROLL AVE # 150",SOUTHLAKE,TX,76092-6452,"(817) 717-5103",https://www.impressionhomes.net/,,,
TX,TARRANT,PB20-13489,"Single Family Homes",10/2/2020,,338900,3230,"4817 MONTE VERDE DR","FORT WORTH",TX,76244,,,CONTRACTOR,,,,,,,,,,,"K HOVNANIAN HOMES",,,,,"K HOVNANIAN HOMES","5808 W PLANO PKWY",PLANO,TX,75093-4636,"(469) 737-1400",,,,
TX,TARRANT,PB20-13497,"Single Family Homes",10/2/2020,,424397,3695,"2204 SANDRELLAN ST","FORT WORTH",TX,76008,"WALSH RANCH QUAIL VALLEY",10,CONTRACTOR,,,,,,,,,,,"DAVID WEEKLEY HOMES",,,,,"DAVID WEEKLEY HOMES","2708 HILLSIDE DR","HIGHLAND VILLAGE",TX,75077-8653,"(972) 415-6059",http://www.davidweekleyhomes.com/,,,
TX,TARRANT,PB20-13440,"Single Family Homes",10/2/2020,,126000,2535,"300 FRENCHPARK DR","FORT WORTH",TX,76052,"VANN TRACT",32,CONTRACTOR,,,,,,,,,,,"DR HORTON",,,,,"DR HORTON","6751 NORTH FWY","FT WORTH",TX,76131-2802,"(817) 230-0800",,,,
TX,TARRANT,PB20-13593,"Single Family Homes",10/2/2020,,185976,2952,"1729 VICTORIA DR","FORT WORTH",TX,76131,"LASATER RANCH",25,CONTRACTOR,,,,,,,,,,,"LENNAR HOMES",,,,,"LENNAR HOMES","1707 MARKET PL STE 250",IRVING,TX,75063-8050,"(469) 587-5200",http://www.lennar.com/,,,
TX,TARRANT,PB20-13598,"Single Family Homes",10/2/2020,,294021,4667,"1728 NARITA BND","FORT WORTH",TX,76008,"WALSH RANCH QUAIL VALLEY",9,CONTRACTOR,,,,,,,,,,,"DREES CUSTOM HOMES",,,,,"DREES CUSTOM HOMES","6225 N STATE HIGHWAY 161 STE 150",IRVING,TX,75038-2283,"(972) 953-4500",http://www.dreeshomes.com,,,
TX,TARRANT,PB20-13600,"Single Family Homes",10/2/2020,,170100,2700,"5113 CANTLE CT","FORT WORTH",TX,76036,"CHISHOLM TRAIL RANCH",27,CONTRACTOR,,,,,,,,,,,"TRENDMAKER HOMES",,,,,"TRENDMAKER HOMES","4835 LBJ FREEWAY SUITE 700",DALLAS,TX,75068,"(214) 765-0573",,,,
TX,TARRANT,PB20-13608,"Single Family Homes",10/2/2020,,137466,2182,"8421 SMOKEY CREEK PASS","FORT WORTH",TX,76179,"QUARTER HORSE ESTATES",27,CONTRACTOR,,,,,,,,,,,"LGI HOMES",,,,,"LGI HOMES","1913 PIN OAK TRL",ANNA,TX,75409-4493,"(855) 668-2572",,,,
TX,TARRANT,PB20-13609,"Single Family Homes",10/2/2020,,137466,2182,"8405 SMOKEY CREEK PASS","FORT WORTH",TX,76179,"QUARTER HORSE ESTATES",31,CONTRACTOR,,,,,,,,,,,"LGI HOMES",,,,,"LGI HOMES","1913 PIN OAK TRL",ANNA,TX,75409-4493,"(855) 668-2572",,,,
TX,TARRANT,PB20-13614,"Single Family Homes",10/2/2020,,137466,2182,"8309 SMOKEY CREEK PASS","FORT WORTH",TX,76179,"QUARTER HORSE ESTATES",20,CONTRACTOR,,,,,,,,,,,"LGI HOMES",,,,,"LGI HOMES","1913 PIN OAK TRL",ANNA,TX,75409-4493,"(855) 668-2572",,,,
TX,TARRANT,PB20-13615,"Single Family Homes",10/2/2020,,137466,2182,"8228 SMOKEY CREEK PASS","FORT WORTH",TX,76179,"QUARTER HORSE ESTATES",8,CONTRACTOR,,,,,,,,,,,"LGI HOMES",,,,,"LGI HOMES","1913 PIN OAK TRL",ANNA,TX,75409-4493,"(855) 668-2572",,,,
TX,TARRANT,PB20-13611,"Single Family Homes",10/2/2020,,137466,2182,"8320 SMOKEY CREEK PASS","FORT WORTH",TX,76179,"QUARTER HORSE ESTATES",14,CONTRACTOR,,,,,,,,,,,"LGI HOMES",,,,,"LGI HOMES","1913 PIN OAK TRL",ANNA,TX,75409-4493,"(855) 668-2572",,,,
TX,TARRANT,PB20-13686,"Single Family Homes",10/2/2020,,130000,2680,"1432 ARCHWAY CT","FORT WORTH",TX,76016,,,CONTRACTOR,,,,,,,,,,,"DR HORTON",,,,,"DR HORTON","6751 NORTH FWY","FT WORTH",TX,76131-2802,"(817) 230-0800",,,,
TX,TARRANT,PB20-13709,"Single Family Homes",10/2/2020,,168651,2677,"6021 DUNNLEVY DR","FORT WORTH",TX,76179,"INNISBROOK PLACE",8,CONTRACTOR,,,,,,,,,,,"RANG ONE HOLDINGS",,,,,"RANG ONE HOLDINGS","802 PENNSYLVANIA AVE","FORT WORTH",TX,76104-2223,"(817) 420-9629",,,,
TX,TARRANT,PB20-13710,"Single Family Homes",10/2/2020,,207522,3294,"413 HALWIN DR","FORT WORTH",TX,75243,,,CONTRACTOR,,,,,,,,,,,"M/I HOMES",,,,,"M/I HOMES","405 STATE HIGHWAY 121 BYP STE A210",LEWISVILLE,TX,75067-8214,"(210) 546-2129",,"(210) 546-2196",,
TX,TARRANT,PB20-13713,"Single Family Homes",10/2/2020,,244440,3880,"512 WILDRIVER TRL","FORT WORTH",TX,76131,,,CONTRACTOR,,,,,,,,,,,"BLOOMFIELD HOMES",,,,,"BLOOMFIELD HOMES","1050 E STATE HIGHWAY 114 STE 210",SOUTHLAKE,TX,76092-5255,"(972) 971-2103",http://bloomfieldhomes.net/,"(972) 987-4342",,mattjennings@bloomfieldhomes.net
TX,TARRANT,PB20-13715,"Single Family Homes",10/2/2020,,161343,2561,"2804 ARKOSE DR","FORT WORTH",TX,76108,,,CONTRACTOR,,,,,,,,,,,"HISTORY MAKER HOMES",,,,,"HISTORY MAKER HOMES","9001 AIRPORT FWY SUITE 400","NORTH RICHLAND HILLS",TX,76180-7769,"(817) 429-8008",http://www.historymaker.com/,"(817) 507-1102","JILL BARFIELD",
TX,TARRANT,PB20-13719,"Single Family Homes",10/2/2020,,192591,3057,"6644 TEXAS COWBOY DR","FORT WORTH",TX,76123,,,CONTRACTOR,,,,,,,,,,,"HISTORY MAKER HOMES",,,,,"HISTORY MAKER HOMES","9001 AIRPORT FWY SUITE 400","NORTH RICHLAND HILLS",TX,76180-7769,"(817) 429-8008",http://www.historymaker.com/,"(817) 507-1102","JILL BARFIELD",
TX,TARRANT,PB20-13727,"Single Family Homes",10/2/2020,,184338,2926,"14825 GREY FEATHER TRL","FORT WORTH",TX,76052,,,CONTRACTOR,,,,,,,,,,,"LENNAR HOMES",,,,,"LENNAR HOMES","1707 MARKET PL STE 250",IRVING,TX,75063-8050,"(469) 587-5200",http://www.lennar.com/,,,
TX,TARRANT,PB20-13701,"Single Family Homes",10/2/2020,,170793,2711,"1233 ROYAL MEADOWS TRL","FORT WORTH",TX,76140,,,CONTRACTOR,,,,,,,,,,,"ANTARES HOMES",,,,,"ANTARES HOMES","840 E INTERSTATE 20",ARLINGTON,TX,76018-1131,"(817) 701-3000",http://www.antareshomes.com,,,
TX,TARRANT,PB20-13702,"Single Family Homes",10/2/2020,,137466,2182,"1316 ROYAL MEADOWS TRL","FORT WORTH",TX,76140,,,CONTRACTOR,,,,,,,,,,,"ANTARES HOMES",,,,,"ANTARES HOMES","840 E INTERSTATE 20",ARLINGTON,TX,76018-1131,"(817) 701-3000",http://www.antareshomes.com,,,
TX,TARRANT,PB20-13705,"Single Family Homes",10/2/2020,,213192,3384,"2657 STADIUM VIEW DR","FORT WORTH",TX,76118,,,CONTRACTOR,,,,,,,,,,,"TRINITY CUSTOM HOMES",,,,,"TRINITY CUSTOM HOMES","8401 SNOW EGRET WAY","FORT WORTH",TX,76118-7616,"(817) 268-1110",,,,rnewton@trinitycustomhomes.com
TX,TARRANT,PB20-13706,"Single Family Homes",10/2/2020,,284319,4513,"609 WILDRIVER TRL","FORT WORTH",TX,76131,,,CONTRACTOR,,,,,,,,,,,"BLOOMFIELD HOMES",,,,,"BLOOMFIELD HOMES","1050 E STATE HIGHWAY 114 STE 210",SOUTHLAKE,TX,76092-5255,"(972) 971-2103",http://bloomfieldhomes.net/,"(972) 987-4342",,mattjennings@bloomfieldhomes.net
TX,TARRANT,PB20-13707,"Single Family Homes",10/2/2020,,201348,3196,"6360 SLOOP ST","FORT WORTH",TX,76179,,,CONTRACTOR,,,,,,,,,,,"HISTORY MAKER HOMES",,,,,"HISTORY MAKER HOMES","9001 AIRPORT FWY SUITE 400","NORTH RICHLAND HILLS",TX,76180-7769,"(817) 429-8008",http://www.historymaker.com/,"(817) 507-1102","JILL BARFIELD",
TX,TARRANT,PB20-13770,"Single Family Homes",10/2/2020,,445000,3352,"6016 STRADA CV","FORT WORTH",TX,76132,,,CONTRACTOR,,,,,,,,,,,"SHADDOCK HOMES",,,,,"SHADDOCK HOMES","2400 DALLAS PKWY",PLANO,TX,75093-4370,"(469) 241-9581",http://www.shaddockhomes.com,,,
TX,TARRANT,PB20-13771,"Single Family Homes",10/2/2020,,142947,2269,"416 BRONZE FOREST DR","FORT WORTH",TX,76131,,,CONTRACTOR,,,,,,,,,,,"M/I HOMES",,,,,"M/I HOMES","405 STATE HIGHWAY 121 BYP STE A210",LEWISVILLE,TX,75067-8214,"(210) 546-2129",,"(210) 546-2196",,
TX,TARRANT,PB20-10446,"Single Family Homes",10/5/2020,,119000,2339,"737 CROMANE RD","FORT WORTH",TX,76107,,,CONTRACTOR,,,,,,,,,,,"DR HORTON",,,,,"DR HORTON","6751 NORTH FWY","FT WORTH",TX,76131-2802,"(817) 230-0800",,,,
TX,TARRANT,PB20-12410,"Single Family Homes",10/5/2020,,135000,2253,"5933 GOODMAN AVE","FORT WORTH",TX,76107,"CHAMBERLAIN ARLINGTON HTS",15,CONTRACTOR,,,,,,,,,,,"TYBRION SERVICES",,,,,"TYBRION SERVICES","5920 LOVELL AVE","FORT WORTH",TX,76107,"(817) 891-8182",,,,
TX,TARRANT,PB20-12519,"Single Family Homes",10/5/2020,,90000,2136,"1410 LINCOLN AVE","FORT WORTH",TX,76164,,,CONTRACTOR,,,,,,,,,,,"CONTRERAS DANIEL AMADOR",,,,,"CONTRERAS DANIEL AMADOR","3203 COLUMBUS AVE","FORT WORTH",TX,76106-5545,"(817) 975-4664",,,,
TX,TARRANT,PB20-13153,"Single Family Homes",10/5/2020,,1480000,3729,"5901 SILVERHOLLOW DR","FORT WORTH",TX,76137,"FOSSIL CREEK",,CONTRACTOR,,,,,,,,,,,"PULTE HOMES",,,,,"PULTE HOMES","4800 REGENT BLVD",IRVING,TX,75063-2439,"(972) 304-2800",,,,
TX,TARRANT,PB20-13545,"Single Family Homes",10/5/2020,,250140,2274,"12309 PENSON ST","FORT WORTH",TX,76052,WELLINGTON,58,CONTRACTOR,,,,,,,,,,,"K HOVNANIAN HOMES",,,,,"K HOVNANIAN HOMES","5808 W PLANO PKWY",PLANO,TX,75093-4636,"(469) 737-1400",,,,
TX,TARRANT,PB20-13638,"Single Family Homes",10/5/2020,,135000,3575,"1433 ARCHWAY CT","FORT WORTH",TX,76016,"TRAILS OF ELIZABETH CREEK",32,CONTRACTOR,,,,,,,,,,,"DR HORTON",,,,,"DR HORTON","6751 NORTH FWY","FT WORTH",TX,76131-2802,"(817) 230-0800",,,,
TX,TARRANT,PB20-13696,"Single Family Homes",10/5/2020,,126000,2535,"1428 ARCHWAY CT","FORT WORTH",TX,76016,,,CONTRACTOR,,,,,,,,,,,"DR HORTON",,,,,"DR HORTON","6751 NORTH FWY","FT WORTH",TX,76131-2802,"(817) 230-0800",,,,
TX,TARRANT,PB20-13698,"Single Family Homes",10/5/2020,,125000,2535,"1009 GILLESPIE DR","FORT WORTH",TX,76132,"CHARLES TIDINGS",,CONTRACTOR,,,,,,,,,,,"DR HORTON",,,,,"DR HORTON","6751 NORTH FWY","FT WORTH",TX,76131-2802,"(817) 230-0800",,,,
TX,TARRANT,PB20-13714,"Single Family Homes",10/5/2020,,252819,4013,"101 KIRWIN DR","FORT WORTH",TX,76131,,,CONTRACTOR,,,,,,,,,,,"M/I HOMES",,,,,"M/I HOMES","405 STATE HIGHWAY 121 BYP STE A210",LEWISVILLE,TX,75067-8214,"(210) 546-2129",,"(210) 546-2196",,
TX,TARRANT,PB20-13721,"Single Family Homes",10/5/2020,,221886,3522,"9905 WEXLEY WAY","FORT WORTH",TX,76131,,,CONTRACTOR,,,,,,,,,,,"AMERICAN LEGEND HOMES",,,,,"AMERICAN LEGEND HOMES","2540 KING ARTHUR BLVD STE 200",LEWISVILLE,TX,75056-5833,"(972) 410-5701",http://www.amlegendhomes.com/,"(972) 410-5750",,
TX,TARRANT,PB20-13775,"Single Family Homes",10/5/2020,,230958,3666,"1617 WASSEL RD","FORT WORTH",TX,76052,,,CONTRACTOR,,,,,,,,,,,"GEHAN HOMES",,,,,"GEHAN HOMES","14901 QUORUM DR STE 300",DALLAS,TX,75254-6735,"(972) 383-4300",http://www.gehanhomes.com,,,
TX,TARRANT,PB20-13783,"Single Family Homes",10/5/2020,,196686,3122,"10241 LAKEMONT DR","FORT WORTH",TX,76131,,,CONTRACTOR,,,,,,,,,,,"MERITAGE HOMES",,,,,"MERITAGE HOMES","8840 CYPRESS WATERS BLVD #100",DALLAS,TX,75063,"(214) 869-8023",,,,
TX,TARRANT,PB20-13879,"Single Family Homes",10/6/2020,,196686,3122,"109 KIMMEL LN","FORT WORTH",TX,76131,,,CONTRACTOR,,,,,,,,,,,"MERITAGE HOMES",,,,,"MERITAGE HOMES","8840 CYPRESS WATERS BLVD #100",DALLAS,TX,75063,"(214) 869-8023",,,,
TX,TARRANT,PB20-13881,"Single Family Homes",10/6/2020,,247653,3931,"113 KIMMEL LN","FORT WORTH",TX,76131,,,CONTRACTOR,,,,,,,,,,,"MERITAGE HOMES",,,,,"MERITAGE HOMES","8840 CYPRESS WATERS BLVD #100",DALLAS,TX,75063,"(214) 869-8023",,,,
TX,COLLIN,20-000011,"Single Family Homes",9/1/2020,,146650,2095,"702 COTTONWOOD WAY",JOSEPHINE,TX,75189,,,CONTRACTOR,,,,,,,,,,,"DR HORTON",,,,,"DR HORTON","6751 NORTH FWY","FT WORTH",TX,76131-2802,"(817) 230-0800",,,,
TX,COLLIN,20-000012,"Single Family Homes",9/1/2020,,146650,2095,"713  COTTONWOOD WAY",JOSEPHINE,TX,75189,,,CONTRACTOR,,,,,,,,,,,"DR HORTON",,,,,"DR HORTON","6751 NORTH FWY","FT WORTH",TX,76131-2802,"(817) 230-0800",,,,
TX,COLLIN,20-000025,"Single Family Homes",9/10/2020,,149590,2137,"707  COTTONWOOD WAY",JOSEPHINE,TX,75189,,,CONTRACTOR,,,,,,,,,,,"DR HORTON",,,,,"DR HORTON","6751 NORTH FWY","FT WORTH",TX,76131-2802,"(817) 230-0800",,,,
TX,COLLIN,20-000027,"Single Family Homes",9/11/2020,,167300,2390,"804 COTTONWOOD WAY",JOSEPHINE,TX,75189,,,CONTRACTOR,,,,,,,,,,,"DR HORTON",,,,,"DR HORTON","6751 NORTH FWY","FT WORTH",TX,76131-2802,"(817) 230-0800",,,,
TX,COLLIN,20-000028,"Single Family Homes",9/23/2020,,167160,2388,"817 COTTONWOOD WAY",JOSEPHINE,TX,75189,,,CONTRACTOR,,,,,,,,,,,"DR HORTON",,,,,"DR HORTON","6751 NORTH FWY","FT WORTH",TX,76131-2802,"(817) 230-0800",,,,
TX,COLLIN,20-000031,"Single Family Homes",9/23/2020,,167160,2165,"809 COTTONWOOD WAY",JOSEPHINE,TX,75189,,,CONTRACTOR,,,,,,,,,,,"DR HORTON",,,,,"DR HORTON","6751 NORTH FWY","FT WORTH",TX,76131-2802,"(817) 230-0800",,,,
TX,COLLIN,20-000032,"Single Family Homes",9/25/2020,,167160,2165,"905 COTTONWOOD WAY",JOSEPHINE,TX,75189,,,CONTRACTOR,,,,,,,,,,,"DR HORTON",,,,,"DR HORTON","6751 NORTH FWY","FT WORTH",TX,76131-2802,"(817) 230-0800",,,,
TX,COLLIN,20-000033,"Single Family Homes",9/25/2020,,167160,2165,"815 COTTONWOOD WAY",JOSEPHINE,TX,75189,,,CONTRACTOR,,,,,,,,,,,"DR HORTON",,,,,"DR HORTON","6751 NORTH FWY","FT WORTH",TX,76131-2802,"(817) 230-0800",,,,
TX,COLLIN,20-000034,"Single Family Homes",9/25/2020,,167160,2165,"801 COTTONWOOD WAY",JOSEPHINE,TX,75189,,,CONTRACTOR,,,,,,,,,,,"DR HORTON",,,,,"DR HORTON","6751 NORTH FWY","FT WORTH",TX,76131-2802,"(817) 230-0800",,,,
TX,COLLIN,20-000041,"Single Family Homes",9/11/2020,,139230,1989,"802 COTTONWOOD WAY",JOSEPHINE,TX,75189,,,CONTRACTOR,,,,,,,,,,,"DR HORTON",,,,,"DR HORTON","6751 NORTH FWY","FT WORTH",TX,76131-2802,"(817) 230-0800",,,,
TX,COLLIN,20-000045,"Single Family Homes",9/17/2020,,146650,2095,"906 COTTONWOOD WAY",JOSEPHINE,TX,75189,,,CONTRACTOR,,,,,,,,,,,"DR HORTON",,,,,"DR HORTON","6751 NORTH FWY","FT WORTH",TX,76131-2802,"(817) 230-0800",,,,
TX,COLLIN,20-000046,"Single Family Homes",9/11/2020,,146650,2095,"808 COTTONWOOD WAY",JOSEPHINE,TX,75189,,,CONTRACTOR,,,,,,,,,,,"DR HORTON",,,,,"DR HORTON","6751 NORTH FWY","FT WORTH",TX,76131-2802,"(817) 230-0800",,,,
TX,COLLIN,20-000048,"Single Family Homes",9/11/2020,,187040,2672,"806 COTTONWOOD WAY",JOSEPHINE,TX,75189,,,CONTRACTOR,,,,,,,,,,,"DR HORTON",,,,,"DR HORTON","6751 NORTH FWY","FT WORTH",TX,76131-2802,"(817) 230-0800",,,,
TX,COLLIN,20-000051,"Single Family Homes",9/23/2020,,187040,2672,"907 COTTONWOOD WAY",JOSEPHINE,TX,75189,,,CONTRACTOR,,,,,,,,,,,"DR HORTON",,,,,"DR HORTON","6751 NORTH FWY","FT WORTH",TX,76131-2802,"(817) 230-0800",,,,
TX,COLLIN,20-000052,"Single Family Homes",9/11/2020,,126910,1813,"807 COTTONWOOD WAY",JOSEPHINE,TX,75189,,,CONTRACTOR,,,,,,,,,,,"DR HORTON",,,,,"DR HORTON","6751 NORTH FWY","FT WORTH",TX,76131-2802,"(817) 230-0800",,,,
TX,COLLIN,20-000053,"Single Family Homes",9/10/2020,,126910,1813,"715 COTTONWOOD WAY",JOSEPHINE,TX,75189,,,CONTRACTOR,,,,,,,,,,,"DR HORTON",,,,,"DR HORTON","6751 NORTH FWY","FT WORTH",TX,76131-2802,"(817) 230-0800",,,,
TX,COLLIN,20-000054,"Single Family Homes",9/10/2020,,126910,1813,"705 COTTONWOOD WAY",JOSEPHINE,TX,75189,,,CONTRACTOR,,,,,,,,,,,"DR HORTON",,,,,"DR HORTON","6751 NORTH FWY","FT WORTH",TX,76131-2802,"(817) 230-0800",,,,
TX,COLLIN,20-000055,"Single Family Homes",9/23/2020,,126910,1813,"903 COTTONWOOD WAY",JOSEPHINE,TX,75189,,,CONTRACTOR,,,,,,,,,,,"DR HORTON",,,,,"DR HORTON","6751 NORTH FWY","FT WORTH",TX,76131-2802,"(817) 230-0800",,,,
TX,COLLIN,20-000060,"Single Family Homes",9/17/2020,,156870,2241,"902 COTTONWOOD WAY",JOSEPHINE,TX,75189,,,CONTRACTOR,,,,,,,,,,,"DR HORTON",,,,,"DR HORTON","6751 NORTH FWY","FT WORTH",TX,76131-2802,"(817) 230-0800",,,,
TX,COLLIN,20-000061,"Single Family Homes",9/24/2020,,156870,2241,"812 COTTONWOOD WAY",JOSEPHINE,TX,75189,,,CONTRACTOR,,,,,,,,,,,"DR HORTON",,,,,"DR HORTON","6751 NORTH FWY","FT WORTH",TX,76131-2802,"(817) 230-0800",,,,
TX,COLLIN,20-000063,"Single Family Homes",9/17/2020,,169120,2416,"908 COTTONWOOD WAY",JOSEPHINE,TX,75189,,,CONTRACTOR,,,,,,,,,,,"DR HORTON",,,,,"DR HORTON","6751 NORTH FWY","FT WORTH",TX,76131-2802,"(817) 230-0800",,,,
TX,COLLIN,20-000064,"Single Family Homes",9/23/2020,,169120,2415,"901 COTTONWOOD WAY",JOSEPHINE,TX,75189,,,CONTRACTOR,,,,,,,,,,,"DR HORTON",,,,,"DR HORTON","6751 NORTH FWY","FT WORTH",TX,76131-2802,"(817) 230-0800",,,,
TX,COLLIN,20-000070,"Single Family Homes",9/11/2020,,167790,2394,"800 COTTONWOOD WAY",JOSEPHINE,TX,75189,,,CONTRACTOR,,,,,,,,,,,"DR HORTON",,,,,"DR HORTON","6751 NORTH FWY","FT WORTH",TX,76131-2802,"(817) 230-0800",,,,
TX,COLLIN,20-000071,"Single Family Homes",9/17/2020,,149590,2137,"814 COTTONWOOD WAY",JOSEPHINE,TX,75189,,,CONTRACTOR,,,,,,,,,,,"DR HORTON",,,,,"DR HORTON","6751 NORTH FWY","FT WORTH",TX,76131-2802,"(817) 230-0800",,,,
TX,COLLIN,20-000076,"Single Family Homes",9/17/2020,,175070,2501,"904 COTTONWOOD WAY",JOSEPHINE,TX,75189,,,CONTRACTOR,,,,,,,,,,,"DR HORTON",,,,,"DR HORTON","6751 NORTH FWY","FT WORTH",TX,76131-2802,"(817) 230-0800",,,,
TX,COLLIN,20-000077,"Single Family Homes",9/23/2020,,175070,2501,"811 COTTONWOOD WAY",JOSEPHINE,TX,75189,,,CONTRACTOR,,,,,,,,,,,"DR HORTON",,,,,"DR HORTON","6751 NORTH FWY","FT WORTH",TX,76131-2802,"(817) 230-0800",,,,
TX,COLLIN,20-000083,"Single Family Homes",9/23/2020,,192990,2757,"813 COTTONWOOD WAY",JOSEPHINE,TX,75189,,,CONTRACTOR,,,,,,,,,,,"DR HORTON",,,,,"DR HORTON","6751 NORTH FWY","FT WORTH",TX,76131-2802,"(817) 230-0800",,,,
TX,COLLIN,20-000084,"Single Family Homes",9/17/2020,,220360,3144,"816 COTTONWOOD WAY",JOSEPHINE,TX,75189,,,CONTRACTOR,,,,,,,,,,,"DR HORTON",,,,,"DR HORTON","6751 NORTH FWY","FT WORTH",TX,76131-2802,"(817) 230-0800",,,,
TX,COLLIN,20-000085,"Single Family Homes",9/11/2020,,220360,3148,"803 COTTONWOOD WAY",JOSEPHINE,TX,75189,,,CONTRACTOR,,,,,,,,,,,"DR HORTON",,,,,"DR HORTON","6751 NORTH FWY","FT WORTH",TX,76131-2802,"(817) 230-0800",,,,
TX,COLLIN,20-000092,"Single Family Homes",9/23/2020,,186620,2666,"909 COTTONWOOD WAY",JOSEPHINE,TX,75189,,,CONTRACTOR,,,,,,,,,,,"DR HORTON",,,,,"DR HORTON","6751 NORTH FWY","FT WORTH",TX,76131-2802,"(817) 230-0800",,,,
TX,COLLIN,20-000093,"Single Family Homes",9/10/2020,,186620,2666,"703 COTTONWOOD WAY",JOSEPHINE,TX,75189,,,CONTRACTOR,,,,,,,,,,,"DR HORTON",,,,,"DR HORTON","6751 NORTH FWY","FT WORTH",TX,76131-2802,"(817) 230-0800",,,,
TX,COLLIN,20-000095,"Single Family Homes",9/10/2020,,186620,2666,"717 COTTONWOOD WAY",JOSEPHINE,TX,75189,,,CONTRACTOR,,,,,,,,,,,"DR HORTON",,,,,"DR HORTON","6751 NORTH FWY","FT WORTH",TX,76131-2802,"(817) 230-0800",,,,
TX,COLLIN,20-000096,"Single Family Homes",9/24/2020,,186620,2666,"810 COTTONWOOD WAY",JOSEPHINE,TX,75189,,,CONTRACTOR,,,,,,,,,,,"DR HORTON",,,,,"DR HORTON","6751 NORTH FWY","FT WORTH",TX,76131-2802,"(817) 230-0800",,,,
TX,COLLIN,20-000099,"Single Family Homes",9/17/2020,,186620,2666,"900 COTTONWOOD WAY",JOSEPHINE,TX,75189,,,CONTRACTOR,,,,,,,,,,,"DR HORTON",,,,,"DR HORTON","6751 NORTH FWY","FT WORTH",TX,76131-2802,"(817) 230-0800",,,,
TX,COLLIN,20-000100,"Single Family Homes",9/11/2020,,186620,2666,"805 COTTONWOOD WAY",JOSEPHINE,TX,75189,,,CONTRACTOR,,,,,,,,,,,"DR HORTON",,,,,"DR HORTON","6751 NORTH FWY","FT WORTH",TX,76131-2802,"(817) 230-0800",,,,
TX,DALLAS,RES-001187-2020,"Single Family Homes",9/4/2020,,375000,3996,"3208 ROSEDALE AVE A","UNIVERSITY PARK",TX,75205,,,CONTRACTOR,,,,,,,,,,,"HUDSON CONSTRUCTION GROUP",,,,,"HUDSON CONSTRUCTION GROUP","1528 SLOCUM ST",DALLAS,TX,75207-3604,"(214) 926-5095",,"(214) 361-4854",,info@hudcg.com
TX,DALLAS,RES-001188-2020,"Single Family Homes",9/4/2020,,375000,,"3208 ROSEDALE AVE B","UNIVERSITY PARK",TX,75205,,,CONTRACTOR,,,,,,,,,,,"HUDSON CONSTRUCTION GROUP",,,,,"HUDSON CONSTRUCTION GROUP","1528 SLOCUM ST",DALLAS,TX,75207-3604,"(214) 926-5095",,"(214) 361-4854",,info@hudcg.com
TX,DALLAS,RES-001189-2020,"Single Family Homes",9/4/2020,,375000,3996,"3210 ROSEDALE AVE","UNIVERSITY PARK",TX,75205,,,CONTRACTOR,,,,,,,,,,,"HUDSON CONSTRUCTION GROUP",,,,,"HUDSON CONSTRUCTION GROUP","1528 SLOCUM ST",DALLAS,TX,75207-3604,"(214) 926-5095",,"(214) 361-4854",,info@hudcg.com
TX,DALLAS,RES-001190-2020,"Single Family Homes",9/4/2020,,375000,,"3212 ROSEDALE AVE","UNIVERSITY PARK",TX,75205,,,CONTRACTOR,,,,,,,,,,,"HUDSON CONSTRUCTION GROUP",,,,,"HUDSON CONSTRUCTION GROUP","1528 SLOCUM ST",DALLAS,TX,75207-3604,"(214) 926-5095",,"(214) 361-4854",,info@hudcg.com
TX,DALLAS,RES-001191-2020,"Single Family Homes",9/4/2020,,375000,3996,"3214 ROSEDALE AVE","UNIVERSITY PARK",TX,75205,,,CONTRACTOR,,,,,,,,,,,"HUDSON CONSTRUCTION GROUP",,,,,"HUDSON CONSTRUCTION GROUP","1528 SLOCUM ST",DALLAS,TX,75207-3604,"(214) 926-5095",,"(214) 361-4854",,info@hudcg.com
TX,DALLAS,RES-001192-2020,"Single Family Homes",9/4/2020,,375000,3996,"3216 ROSEDALE AVE","UNIVERSITY PARK",TX,75205,,,CONTRACTOR,,,,,,,,,,,"HUDSON CONSTRUCTION GROUP",,,,,"HUDSON CONSTRUCTION GROUP","1528 SLOCUM ST",DALLAS,TX,75207-3604,"(214) 926-5095",,"(214) 361-4854",,info@hudcg.com
TX,DALLAS,RES-001473-2020,"Single Family Homes",9/9/2020,,150000,5538,"3215 STANFORD AVE","UNIVERSITY PARK",TX,75225,,,CONTRACTOR,,,,,,,,,,,"KNOX BUILT CONSTRUCTION",,,,,"KNOX BUILT CONSTRUCTION","1528 SLOCUM ST",DALLAS,TX,75207,"(214) 232-4424",,,,
TX,DALLAS,RES-001481,"Single Family Homes",9/24/2020,,150000,4443,"4512 SHENANDOAH AVE","UNIVERSITY PARK",TX,75189,,,CONTRACTOR,,,,,,,,,,,"MARK MOLTHAN CONSTRUCTION",,,,,"MARK MOLTHAN CONSTRUCTION","4347 W NORTHWEST HWY 120-240",DALLAS,TX,75220,"(214) 363-6244",,,,
TX,DALLAS,RES-001527-2020,"Single Family Homes",9/24/2020,,800000,8247,"4212 LARCHMONT AVE","UNIVERSITY PARK",TX,75205,,,CONTRACTOR,,,,,,,,,,,"SLEEPY HOLLOW HOMES",,,,,"SLEEPY HOLLOW HOMES","4317 SOUTHWESTERN",DALLAS,TX,75201,"(972) 839-7748",http://www.sleepyhollowhomes.com/,,,
TX,DALLAS,RES-001622-2020,"Single Family Homes",9/23/2020,,700000,,"3012 MILTON AVE","UNIVERSITY PARK",TX,75205,,,CONTRACTOR,,,,,,,,,,,"BROOKE BAILEY CUSTOM HOMES",,,,,"BROOKE BAILEY CUSTOM HOMES","PO BOX 140307",DALLAS,TX,75214-0307,"(214) 325-4777",http://www.brookebaileyhomes.com/,,,
TX,TARRANT,31154,"Single Family Homes",9/24/2020,,395642,3230,"649 MCNEILL LN",SAGINAW,TX,75189,,,CONTRACTOR,,,,,,,,,,,"MCBEE HOMES",,,,,"MCBEE HOMES","5816 BOAT CLUB RD","FORT WORTH",TX,76179-7773,"(817) 626-2600",,,,
TX,TARRANT,31068,"Single Family Homes",9/11/2020,,392851,3208,"641 MCNEILL LN",SAGINAW,TX,76179,,,CONTRACTOR,,,,,,,,,,,"MCBEE HOMES",,,,,"MCBEE HOMES","5816 BOAT CLUB RD","FORT WORTH",TX,76179-7773,"(817) 626-2600",,,,
TX,TARRANT,31064,"Single Family Homes",9/11/2020,,364318,2975,"644 STEERMAN CT",SAGINAW,TX,76131,,,CONTRACTOR,,,,,,,,,,,"MCBEE HOMES",,,,,"MCBEE HOMES","5816 BOAT CLUB RD","FORT WORTH",TX,76179-7773,"(817) 626-2600",,,,
TX,TARRANT,31063,"Single Family Homes",9/11/2020,,359665,2937,"645 MCNEILL LN",SAGINAW,TX,76179,,,CONTRACTOR,,,,,,,,,,,"MCBEE HOMES",,,,,"MCBEE HOMES","5816 BOAT CLUB RD","FORT WORTH",TX,76179-7773,"(817) 626-2600",,,,
TX,TARRANT,31062,"Single Family Homes",9/18/2020,,277984,2270,"1036 MOCKINGBIRD DR",SAGINAW,TX,76131,,,CONTRACTOR,,,,,,,,,,,"DR HORTON",,,,,"DR HORTON","6751 NORTH FWY","FT WORTH",TX,76131-2802,"(817) 230-0800",,,,
TX,TARRANT,30654,"Single Family Homes",9/21/2020,,2000000,20000,"608 SAGINAW BLVD S",SAGINAW,TX,76131,,,CONTRACTOR,,,,,,,,,,,"CB CENTRAL BUILDERS",,,,,"CB CENTRAL BUILDERS","11800 NACOGDOCHES",HOUSTON,TX,78217,"(210) 590-0235",http://www.centralbuilders.net/,,,
TX,DALLAS,009193-2020,"Single Family Homes",9/1/2020,,540000,5426,"2446 HARDWICK DR","CEDAR HILL",TX,76065,,,"GAIL LUX","2446 HARDWICK DR","CEDAR HILL",TX,76065,,Applicant,,,,,OWNER,,,,,OWNER,,,,,,,,,
TX,DALLAS,009213-2020,"Single Family Homes",9/8/2020,,425000,4473,"2436 SWEEPING MEADOWS LN","CEDAR HILL",TX,75104,,,"GAIL LUX","2436 SWEEPING MEADOWS LN","CEDAR HILL",TX,75104,,Applicant,,,,,OWNER,,,,,OWNER,,,,,,,,,
TX,DALLAS,009453-2020,"Single Family Homes",9/10/2020,,250000,3778,"2501 ROLLING OAKS RIDGE","CEDAR HILL",TX,75104,,,"GAIL LUX","2501 ROLLING OAKS RIDGE","CEDAR PARK",TX,75104,,Applicant,,,,,OWNER,,,,,OWNER,,,,,,,,,
TX,DALLAS,006259-2019,"Single Family Homes",9/18/2020,,490000,5625,"2348 MYSTIC SHORES DR","CEDAR HILL",TX,75104,,,"GAIL LUX","2348 MYSTIC SHORES DR","CEDAR HILL",TX,75104,,Owner,,,,,OWNER,,,,,OWNER,,,,,,,,,
TX,DALLAS,009725-2020,"Single Family Homes",9/21/2020,,181665,4008,"1523 SPRING HILL DR","CEDAR HILL",TX,75104,,,"ANDREW LIPSCOMB","1523 SPRING HILL DR","CEDAR HILL",TX,75104,,Applicant,,,,,OWNER,,,,,OWNER,,,,,,,,,
TX,DALLAS,009724-2020,"Single Family Homes",9/21/2020,,225995,5185,"1541 SPRING HILL DR","CEDAR HILL",TX,75104,,,"ANDREW LIPSCOMB","1523 SPRING HILL DR","CEDAR HILL",TX,75104,,Applicant,,,,,OWNER,,,,,OWNER,,,,,,,,,
TX,DALLAS,007669-2020,"Single Family Homes",9/24/2020,,173420,2668,"705 LOVERN ST","CEDAR HILL",TX,75104,,,"GAIL LUX","705 LOVERN ST","CEDAR HILL",TX,75104,,Applicant,,,,,OWNER,,,,,OWNER,,,,,,,,,
TX,TARRANT,"20 - 00591","Single Family Homes",9/4/2020,,220030,2491,"212 COTTON DR",MANSFIELD,TX,76063,,,CONTRACTOR,,,,,,,,,,,"CHRISTARM CUSTOM HOME",,,,,"CHRISTARM CUSTOM HOME","750 LOWE DR","CEDAR HILL",TX,75104-9140,"(214) 315-0130",,,,
TX,TARRANT,"20 - 00602","Single Family Homes",9/4/2020,,220030,2491,"216 COTTON DR",MANSFIELD,TX,76062,,,CONTRACTOR,,,,,,,,,,,"CHRISTARM CUSTOM HOME",,,,,"CHRISTARM CUSTOM HOME","750 LOWE DR","CEDAR HILL",TX,75104-9140,"(214) 315-0130",,,,
TX,TARRANT,"20 - 00755","Single Family Homes",9/15/2020,,417624,4728,"5105 HAVANA DR",MANSFIELD,TX,76063,,,CONTRACTOR,,,,,,,,,,,"ALL AMERICAN HOMES",,,,,"ALL AMERICAN HOMES","9409 ALDRIDGE CT",CROWLEY,TX,76036-8524,"(817) 980-8543",,,,
TX,TARRANT,"20 - 01694","Single Family Homes",9/16/2020,,315161,3568,"2607 HALLSEY DR",MANSFIELD,TX,76063,,,CONTRACTOR,,,,,,,,,,,"BLOOMFIELD HOMES",,,,,"BLOOMFIELD HOMES","1050 E STATE HIGHWAY 114 STE 210",SOUTHLAKE,TX,76092-5255,"(972) 971-2103",http://bloomfieldhomes.net/,"(972) 987-4342",,mattjennings@bloomfieldhomes.net
TX,TARRANT,"20 - 02879","Single Family Homes",9/14/2020,,493323,5585,"1504 S MITCHELL RD",MANSFIELD,TX,76063,,,CONTRACTOR,,,,,,,,,,,"GRAND HOMES",,,,,"GRAND HOMES","15455 DALLAS PKWY STE 1000",ADDISON,TX,75001-6772,"(214) 750-6528",http://www.grandhomes.com/,"(214) 750-6849",,info@grandhomes.com
TX,TARRANT,"20 - 02940","Single Family Homes",9/2/2020,,380348,4306,"2701 ASHMONT WAY",MANSFIELD,TX,76063,,,CONTRACTOR,,,,,,,,,,,"J HOUSTON HOMES",,,,,"J HOUSTON HOMES","202 N INTERSTATE 35 RD STE C","RED OAK",TX,75154-4296,"(972) 937-4085",,"(972) 937-4697",,info@johnhoustoncustomhomes.com
TX,TARRANT,"20 - 03043","Single Family Homes",9/11/2020,,468502,5304,"2701 HARTMAN CIR",MANSFIELD,TX,76062,,,CONTRACTOR,,,,,,,,,,,"J HOUSTON HOMES",,,,,"J HOUSTON HOMES","202 N INTERSTATE 35 RD STE C","RED OAK",TX,75154-4296,"(972) 937-4085",,"(972) 937-4697",,info@johnhoustoncustomhomes.com
TX,TARRANT,"20 - 03217","Single Family Homes",9/1/2020,,468237,5301,"800 HERTFORDSHIRE LN",MANSFIELD,TX,76062,,,CONTRACTOR,,,,,,,,,,,"FIRST TEXAS HOMES",,,,,"FIRST TEXAS HOMES","500 CRESCENT CT STE 350",DALLAS,TX,75201-7854,"(214) 613-3400",,"(214) 432-0350",,
TX,TARRANT,"20 - 03218","Single Family Homes",9/2/2020,,261015,2955,"3004 CHESTERFIELD LN",MANSFIELD,TX,76063,,,CONTRACTOR,,,,,,,,,,,"J HOUSTON HOMES",,,,,"J HOUSTON HOMES","202 N INTERSTATE 35 RD STE C","RED OAK",TX,75154-4296,"(972) 937-4085",,"(972) 937-4697",,info@johnhoustoncustomhomes.com
TX,TARRANT,"20 - 03219","Single Family Homes",9/1/2020,,319401,3616,"1302 BRANDENBURG ST",MANSFIELD,TX,76063,,,CONTRACTOR,,,,,,,,,,,"DAVID WEEKLEY HOMES",,,,,"DAVID WEEKLEY HOMES","2708 HILLSIDE DR","HIGHLAND VILLAGE",TX,75077-8653,"(972) 415-6059",http://www.davidweekleyhomes.com/,,,
TX,TARRANT,"20 - 03236","Single Family Homes",9/21/2020,,301646,3415,"2708 GRAINGER DR",MANSFIELD,TX,76063,,,CONTRACTOR,,,,,,,,,,,"RENDITION HOMES",,,,,"RENDITION HOMES","9001 AIRPORT FWY STE 400","NORTH RICHLAND HILLS",TX,76180-9128,"(888) 899-8010",http://www.renditionhomes.com,"(817) 507-1101",,info@renditionhomes.com
TX,TARRANT,"20 - 03239","Single Family Homes",9/1/2020,,499682,5657,"2501 CARRINGTON DR",MANSFIELD,TX,76063,,,CONTRACTOR,,,,,,,,,,,"GRAND HOMES",,,,,"GRAND HOMES","15455 DALLAS PKWY STE 1000",ADDISON,TX,75001-6772,"(214) 750-6528",http://www.grandhomes.com/,"(214) 750-6849",,info@grandhomes.com
TX,TARRANT,"20 - 03243","Single Family Homes",9/4/2020,,482900,5467,"2800 CHANDLER CT",MANSFIELD,TX,76063,SOUTHPOINTE,,CONTRACTOR,,,,,,,,,,,"GRAND HOMES",,,,,"GRAND HOMES","15455 DALLAS PKWY STE 1000",ADDISON,TX,75001-6772,"(214) 750-6528",http://www.grandhomes.com/,"(214) 750-6849",,info@grandhomes.com
TX,TARRANT,"20 - 03274","Single Family Homes",9/1/2020,,442268,5007,"2804 CASSIE RD",MANSFIELD,TX,76063,,,CONTRACTOR,,,,,,,,,,,"GRAND HOMES",,,,,"GRAND HOMES","15455 DALLAS PKWY STE 1000",ADDISON,TX,75001-6772,"(214) 750-6528",http://www.grandhomes.com/,"(214) 750-6849",,info@grandhomes.com
TX,TARRANT,"20 - 03296","Single Family Homes",9/10/2020,,245557,2780,"3202 SAWMILL WAY",MANSFIELD,TX,76063,,,CONTRACTOR,,,,,,,,,,,"RENDITION HOMES",,,,,"RENDITION HOMES","9001 AIRPORT FWY STE 400","NORTH RICHLAND HILLS",TX,76180-9128,"(888) 899-8010",http://www.renditionhomes.com,"(817) 507-1101",,info@renditionhomes.com
TX,TARRANT,"20 - 03297","Single Family Homes",9/11/2020,,350051,3963,"1701 THRESH CT",MANSFIELD,TX,76063,,,CONTRACTOR,,,,,,,,,,,"J HOUSTON HOMES",,,,,"J HOUSTON HOMES","202 N INTERSTATE 35 RD STE C","RED OAK",TX,75154-4296,"(972) 937-4085",,"(972) 937-4697",,info@johnhoustoncustomhomes.com
TX,TARRANT,"20 - 03298","Single Family Homes",9/14/2020,,234339,2653,"2411 LINWOOD DR",MANSFIELD,TX,76063,,,CONTRACTOR,,,,,,,,,,,"CHESMAR HOMES",,,,,"CHESMAR HOMES","1600 N COLLINS BLVD STE 1400",RICHARDSON,TX,75080-3669,"(972) 982-2572",http://chesmar.com,"(972) 982-2572",,customerservice.dallas@chesmar.com
TX,TARRANT,"20 - 03299","Single Family Homes",9/3/2020,,406847,4606,"810 MERYTON CT",MANSFIELD,TX,76063,,,CONTRACTOR,,,,,,,,,,,"FIRST TEXAS HOMES",,,,,"FIRST TEXAS HOMES","500 CRESCENT CT STE 350",DALLAS,TX,75201-7854,"(214) 613-3400",,"(214) 432-0350",,
TX,TARRANT,"20 - 03300","Single Family Homes",9/3/2020,,412147,4666,"2421 RAWLINS LN",MANSFIELD,TX,76063,,,CONTRACTOR,,,,,,,,,,,"FIRST TEXAS HOMES",,,,,"FIRST TEXAS HOMES","500 CRESCENT CT STE 350",DALLAS,TX,75201-7854,"(214) 613-3400",,"(214) 432-0350",,
TX,TARRANT,"20 - 03301","Single Family Homes",9/3/2020,,439883,4980,"2904 CHESTERFIELD LN",MANSFIELD,TX,76063,,,CONTRACTOR,,,,,,,,,,,"FIRST TEXAS HOMES",,,,,"FIRST TEXAS HOMES","500 CRESCENT CT STE 350",DALLAS,TX,75201-7854,"(214) 613-3400",,"(214) 432-0350",,
TX,TARRANT,"20 - 03302","Single Family Homes",9/3/2020,,469562,5316,"2804 CRESWICK DR",MANSFIELD,TX,76063,,,CONTRACTOR,,,,,,,,,,,"FIRST TEXAS HOMES",,,,,"FIRST TEXAS HOMES","500 CRESCENT CT STE 350",DALLAS,TX,75201-7854,"(214) 613-3400",,"(214) 432-0350",,
TX,TARRANT,"20 - 03303","Single Family Homes",9/16/2020,,451366,5110,"2806 CRESWICK DR",MANSFIELD,TX,76063,,,CONTRACTOR,,,,,,,,,,,"FIRST TEXAS HOMES",,,,,"FIRST TEXAS HOMES","500 CRESCENT CT STE 350",DALLAS,TX,75201-7854,"(214) 613-3400",,"(214) 432-0350",,
TX,TARRANT,"20 - 03304","Single Family Homes",9/3/2020,,478306,5415,"2902 CHESTERFIELD LN",MANSFIELD,TX,76063,,,CONTRACTOR,,,,,,,,,,,"FIRST TEXAS HOMES",,,,,"FIRST TEXAS HOMES","500 CRESCENT CT STE 350",DALLAS,TX,75201-7854,"(214) 613-3400",,"(214) 432-0350",,
TX,TARRANT,"20 - 03325","Single Family Homes",9/2/2020,,364802,4130,"3301 WHEATBERRY",MANSFIELD,TX,76063,,,CONTRACTOR,,,,,,,,,,,"J HOUSTON HOMES",,,,,"J HOUSTON HOMES","202 N INTERSTATE 35 RD STE C","RED OAK",TX,75154-4296,"(972) 937-4085",,"(972) 937-4697",,info@johnhoustoncustomhomes.com
TX,TARRANT,"20 - 03326","Single Family Homes",9/15/2020,,301646,3415,"1907 MIDDLETON DR",MANSFIELD,TX,76063,"CYPRESS CROSSING",,CONTRACTOR,,,,,,,,,,,"WINDSOR HOMES",,,,,"WINDSOR HOMES","8214 WESTCHESTER DR STE 710",DALLAS,TX,75225-6133,"(214) 522-4945",,"(214) 522-7244",,
TX,COLLIN,20201278,"Single Family Homes",9/1/2020,,198380,,"471 DEER CANYON WAY",PRINCETON,TX,75407,,,CONTRACTOR,,,,,,,,,,,"MERITAGE HOMES",,,,,"MERITAGE HOMES","8840 CYPRESS WATERS BLVD #100",DALLAS,TX,75063,"(214) 869-8023",,,,
TX,COLLIN,20201282,"Single Family Homes",9/2/2020,,573720,,"1301 ORCHID DR",PRINCETON,TX,75407,,,CONTRACTOR,,,,,,,,,,,"SHAW DEVELOPMENT GROUP",,,,,"SHAW DEVELOPMENT GROUP","6515 BANDERA AVE",DALLAS,TX,75225-3966,"(214) 987-3881",,,"MOHAMMAD SHAHKARAMI",
TX,COLLIN,20201283,"Single Family Homes",9/2/2020,,573720,,"1302 ORCHID DR",PRINCETON,TX,75407,,,CONTRACTOR,,,,,,,,,,,"SHAW DEVELOPMENT GROUP",,,,,"SHAW DEVELOPMENT GROUP","6515 BANDERA AVE",DALLAS,TX,75225-3966,"(214) 987-3881",,,"MOHAMMAD SHAHKARAMI",
TX,COLLIN,20201286,"Single Family Homes",9/3/2020,,159390,,"1911 LILAC DR",PRINCETON,TX,75407,,,CONTRACTOR,,,,,,,,,,,"LGI HOMES",,,,,"LGI HOMES","1913 PIN OAK TRL",ANNA,TX,75409-4493,"(855) 668-2572",,,,
TX,COLLIN,20201287,"Single Family Homes",9/3/2020,,159390,,"308 CLEAR SPRINGS STREET",PRINCETON,TX,75407,,,CONTRACTOR,,,,,,,,,,,"LGI HOMES",,,,,"LGI HOMES","1913 PIN OAK TRL",ANNA,TX,75409-4493,"(855) 668-2572",,,,
TX,COLLIN,20201291,"Single Family Homes",9/3/2020,,159390,,"316 CLEAR SPRINGS STREET",PRINCETON,TX,75407,,,CONTRACTOR,,,,,,,,,,,"LGI HOMES",,,,,"LGI HOMES","1913 PIN OAK TRL",ANNA,TX,75409-4493,"(855) 668-2572",,,,
TX,COLLIN,20201292,"Single Family Homes",9/3/2020,,215320,,"218 GOLDEN SANDS LN",PRINCETON,TX,75407,,,CONTRACTOR,,,,,,,,,,,"LGI HOMES",,,,,"LGI HOMES","1913 PIN OAK TRL",ANNA,TX,75409-4493,"(855) 668-2572",,,,
TX,COLLIN,20201293,"Single Family Homes",9/3/2020,,159390,,"220 GOLDEN SANDS LN",PRINCETON,TX,75407,,,CONTRACTOR,,,,,,,,,,,"LGI HOMES",,,,,"LGI HOMES","1913 PIN OAK TRL",ANNA,TX,75409-4493,"(855) 668-2572",,,,
TX,COLLIN,20201294,"Single Family Homes",9/3/2020,,193340,,"222 GOLDEN SANDS LN",PRINCETON,TX,75407,,,CONTRACTOR,,,,,,,,,,,"LGI HOMES",,,,,"LGI HOMES","1913 PIN OAK TRL",ANNA,TX,75409-4493,"(855) 668-2572",,,,
TX,COLLIN,20201295,"Single Family Homes",9/3/2020,,184380,,"223 GOLDEN SANDS LN",PRINCETON,TX,75407,,,CONTRACTOR,,,,,,,,,,,"LGI HOMES",,,,,"LGI HOMES","1913 PIN OAK TRL",ANNA,TX,75409-4493,"(855) 668-2572",,,,
TX,COLLIN,20201296,"Single Family Homes",9/3/2020,,159390,,"224 GOLDEN SANDS LN",PRINCETON,TX,75407,,,CONTRACTOR,,,,,,,,,,,"LGI HOMES",,,,,"LGI HOMES","1913 PIN OAK TRL",ANNA,TX,75409-4493,"(855) 668-2572",,,,
TX,COLLIN,20201297,"Single Family Homes",9/3/2020,,193340,,"225 GOLDEN SANDS LN",PRINCETON,TX,75407,,,CONTRACTOR,,,,,,,,,,,"LGI HOMES",,,,,"LGI HOMES","1913 PIN OAK TRL",ANNA,TX,75409-4493,"(855) 668-2572",,,,
TX,COLLIN,20201298,"Single Family Homes",9/3/2020,,219310,,"226 GOLDEN SANDS LN",PRINCETON,TX,75407,,,CONTRACTOR,,,,,,,,,,,"LGI HOMES",,,,,"LGI HOMES","1913 PIN OAK TRL",ANNA,TX,75409-4493,"(855) 668-2572",,,,
TX,COLLIN,20201299,"Single Family Homes",9/3/2020,,159390,,"228 GOLDEN SANDS LN",PRINCETON,TX,75407,,,CONTRACTOR,,,,,,,,,,,"LGI HOMES",,,,,"LGI HOMES","1913 PIN OAK TRL",ANNA,TX,75409-4493,"(855) 668-2572",,,,
TX,COLLIN,20201300,"Single Family Homes",9/3/2020,,184380,,"300 GOLDEN SANDS LN",PRINCETON,TX,75407,,,CONTRACTOR,,,,,,,,,,,"LGI HOMES",,,,,"LGI HOMES","1913 PIN OAK TRL",ANNA,TX,75409-4493,"(855) 668-2572",,,,
TX,COLLIN,20201301,"Single Family Homes",9/3/2020,,159390,,"301 GOLDEN SANDS LN",PRINCETON,TX,75407,,,CONTRACTOR,,,,,,,,,,,"LGI HOMES",,,,,"LGI HOMES","1913 PIN OAK TRL",ANNA,TX,75409-4493,"(855) 668-2572",,,,
TX,COLLIN,20201302,"Single Family Homes",9/3/2020,,219870,,"303 GOLDEN SANDS LN",PRINCETON,TX,75407,,,CONTRACTOR,,,,,,,,,,,"LGI HOMES",,,,,"LGI HOMES","1450 LAKE ROBBINS SUITE 430",CONROE,TX,77380,"(210) 563-4648",,"(281) 210-2601",,
TX,COLLIN,20201303,"Single Family Homes",9/3/2020,,215320,,"305 GOLDEN SANDS LN",PRINCETON,TX,75407,,,CONTRACTOR,,,,,,,,,,,"LGI HOMES",,,,,"LGI HOMES","1913 PIN OAK TRL",ANNA,TX,75409-4493,"(855) 668-2572",,,,
TX,COLLIN,20201308,"Single Family Homes",9/3/2020,,184380,,"313 GOLDEN SANDS LN",PRINCETON,TX,75407,,,CONTRACTOR,,,,,,,,,,,"LGI HOMES",,,,,"LGI HOMES","1913 PIN OAK TRL",ANNA,TX,75409-4493,"(855) 668-2572",,,,
TX,COLLIN,20201309,"Single Family Homes",9/3/2020,,159390,,"315 GOLDEN SANDS LN",PRINCETON,TX,77356,,,CONTRACTOR,,,,,,,,,,,"LGI HOMES",,,,,"LGI HOMES","1913 PIN OAK TRL",ANNA,TX,75409-4493,"(855) 668-2572",,,,
TX,COLLIN,20201310,"Single Family Homes",9/3/2020,,219310,,"317 GOLDEN SANDS LN",PRINCETON,TX,75407,,,CONTRACTOR,,,,,,,,,,,"LGI HOMES",,,,,"LGI HOMES","1913 PIN OAK TRL",ANNA,TX,75409-4493,"(855) 668-2572",,,,
TX,COLLIN,20201327,"Single Family Homes",9/4/2020,,252140,,"106 NATHAN DR",PRINCETON,TX,75407,,,CONTRACTOR,,,,,,,,,,,"HARPER SPRINGS HOMES",,,,,"HARPER SPRINGS HOMES","2300 MATLOCK RD STE 5",MANSFIELD,TX,76063,"(817) 473-7800",,,,
TX,COLLIN,20201328,"Single Family Homes",9/4/2020,,207970,,"107 MICHAEL DR",PRINCETON,TX,75407,,,CONTRACTOR,,,,,,,,,,,"HARPER SPRINGS HOMES",,,,,"HARPER SPRINGS HOMES","2300 MATLOCK RD STE 5",MANSFIELD,TX,76063,"(817) 473-7800",,,,
TX,COLLIN,20201340,"Single Family Homes",9/9/2020,,219660,,"810 BLUEWOOD ST",PRINCETON,TX,75407,,,CONTRACTOR,,,,,,,,,,,"LENNAR HOMES",,,,,"LENNAR HOMES","1707 MARKET PL STE 250",IRVING,TX,75063-8050,"(469) 587-5200",http://www.lennar.com/,,,
TX,COLLIN,20201341,"Single Family Homes",9/9/2020,,186970,,"812 BLUEWOOD STREET",PRINCETON,TX,75407,,,CONTRACTOR,,,,,,,,,,,"LENNAR HOMES",,,,,"LENNAR HOMES","1707 MARKET PL STE 250",IRVING,TX,75063-8050,"(469) 587-5200",http://www.lennar.com/,,,
TX,COLLIN,20201342,"Single Family Homes",9/9/2020,,187180,,"814 BLUEWOOD STREET",PRINCETON,TX,75407,,,CONTRACTOR,,,,,,,,,,,"LENNAR HOMES",,,,,"LENNAR HOMES","1707 MARKET PL STE 250",IRVING,TX,75063-8050,"(469) 587-5200",http://www.lennar.com/,,,
TX,COLLIN,20201343,"Single Family Homes",9/9/2020,,234920,,"819 BLUEWOOD ST",PRINCETON,TX,75407,,,CONTRACTOR,,,,,,,,,,,"LENNAR HOMES",,,,,"LENNAR HOMES","1707 MARKET PL STE 250",IRVING,TX,75063-8050,"(469) 587-5200",http://www.lennar.com/,,,
TX,COLLIN,20201344,"Single Family Homes",9/9/2020,,186970,,"820 BLUEWOOD ST",PRINCETON,TX,75407,,,CONTRACTOR,,,,,,,,,,,"LENNAR HOMES",,,,,"LENNAR HOMES","1707 MARKET PL STE 250",IRVING,TX,75063-8050,"(469) 587-5200",http://www.lennar.com/,,,
TX,COLLIN,20201360,"Single Family Homes",9/14/2020,,226940,,"199 MARK LN",PRINCETON,TX,75407,,,CONTRACTOR,,,,,,,,,,,"STONEHOLLOW HOMES",,,,,"STONEHOLLOW HOMES","905 MARKET ST STE 250",ALLEN,TX,75013,"(817) 917-4472",,,,
TX,COLLIN,20201361,"Single Family Homes",9/14/2020,,182420,,"1503 ASHLEY PLACE",PRINCETON,TX,75407,,,CONTRACTOR,,,,,,,,,,,"STONEHOLLOW HOMES",,,,,"STONEHOLLOW HOMES","905 MARKET ST STE 250",ALLEN,TX,75013,"(817) 917-4472",,,,
TX,COLLIN,20201362,"Single Family Homes",9/14/2020,,243670,,"1510 ASHLEY PLACE",PRINCETON,TX,75407,,,CONTRACTOR,,,,,,,,,,,"STONEHOLLOW HOMES",,,,,"STONEHOLLOW HOMES","905 MARKET ST STE 250",ALLEN,TX,75013,"(817) 917-4472",,,,
TX,COLLIN,"243,670.00","Single Family Homes",9/14/2020,,213430,,"198 NICKOLAS DR",PRINCETON,TX,75407,,,CONTRACTOR,,,,,,,,,,,"STONEHOLLOW HOMES",,,,,"STONEHOLLOW HOMES","905 MARKET ST STE 250",ALLEN,TX,75013,"(817) 917-4472",,,,
TX,COLLIN,20201364,"Single Family Homes",9/14/2020,,212170,,"206 NICKOLAS DR",PRINCETON,TX,75407,,,CONTRACTOR,,,,,,,,,,,"STONEHOLLOW HOMES",,,,,"STONEHOLLOW HOMES","905 MARKET ST STE 250",ALLEN,TX,75013,"(817) 917-4472",,,,
TX,COLLIN,20201365,"Single Family Homes",9/14/2020,,176750,,"210 NICKOLAS DR",PRINCETON,TX,75407,,,CONTRACTOR,,,,,,,,,,,"STONEHOLLOW HOMES",,,,,"STONEHOLLOW HOMES","905 MARKET ST STE 250",ALLEN,TX,75013,"(817) 917-4472",,,,
TX,COLLIN,20201366,"Single Family Homes",9/14/2020,,262500,,"223 NICKOLAS DR",PRINCETON,TX,75407,,,CONTRACTOR,,,,,,,,,,,"STONEHOLLOW HOMES",,,,,"STONEHOLLOW HOMES","905 MARKET ST STE 250",ALLEN,TX,75013,"(817) 917-4472",,,,
TX,COLLIN,20201368,"Single Family Homes",9/14/2020,,184870,,"500 DEER CANYON WAY",PRINCETON,TX,75407,,,CONTRACTOR,,,,,,,,,,,"MERITAGE HOMES",,,,,"MERITAGE HOMES","8840 CYPRESS WATERS BLVD #100",DALLAS,TX,75063,"(214) 869-8023",,,,
TX,COLLIN,20201369,"Single Family Homes",9/14/2020,,266210,,"504 DEER CANYON WAY",PRINCETON,TX,75407,,,CONTRACTOR,,,,,,,,,,,"MERITAGE HOMES",,,,,"MERITAGE HOMES","8840 CYPRESS WATERS BLVD #100",DALLAS,TX,75063,"(214) 869-8023",,,,
TX,COLLIN,20201373,"Single Family Homes",9/14/2020,,206150,,"521 PEPPERBARK AVENUE",PRINCETON,TX,75407,,,CONTRACTOR,,,,,,,,,,,"GEHAN HOMES",,,,,"GEHAN HOMES","14901 QUORUM DR STE 300",DALLAS,TX,75254-6735,"(972) 383-4300",http://www.gehanhomes.com,,,
TX,COLLIN,20201382,"Single Family Homes",9/16/2020,,241920,,"511 DEER CANYON WAY",PRINCETON,TX,75407,,,CONTRACTOR,,,,,,,,,,,"MERITAGE HOMES",,,,,"MERITAGE HOMES","8840 CYPRESS WATERS BLVD #100",DALLAS,TX,75063,"(214) 869-8023",,,,
TX,COLLIN,20201384,"Single Family Homes",9/16/2020,,254450,,"515 DEER CANYON WAY",PRINCETON,TX,75407,,,CONTRACTOR,,,,,,,,,,,"MERITAGE HOMES",,,,,"MERITAGE HOMES","8840 CYPRESS WATERS BLVD #100",DALLAS,TX,75063,"(214) 869-8023",,,,
TX,COLLIN,20201385,"Single Family Homes",9/16/2020,,192500,,"519 DEER CANYON WAY",PRINCETON,TX,75407,,,CONTRACTOR,,,,,,,,,,,"MERITAGE HOMES",,,,,"MERITAGE HOMES","8840 CYPRESS WATERS BLVD #100",DALLAS,TX,75063,"(214) 869-8023",,,,
TX,COLLIN,20201386,"Single Family Homes",9/16/2020,,259980,,"520 DEER CANYON WAY",PRINCETON,TX,75407,,,CONTRACTOR,,,,,,,,,,,"MERITAGE HOMES",,,,,"MERITAGE HOMES","8840 CYPRESS WATERS BLVD #100",DALLAS,TX,75063,"(214) 869-8023",,,,
TX,COLLIN,20201387,"Single Family Homes",9/16/2020,,181930,,"523 DEER CANYON WAY",PRINCETON,TX,75407,,,CONTRACTOR,,,,,,,,,,,"MERITAGE HOMES",,,,,"MERITAGE HOMES","8840 CYPRESS WATERS BLVD #100",DALLAS,TX,75063,"(214) 869-8023",,,,
TX,COLLIN,20201391,"Single Family Homes",9/16/2020,,254450,,"527 DEER CANYON WAY",PRINCETON,TX,75407,,,CONTRACTOR,,,,,,,,,,,"MERITAGE HOMES",,,,,"MERITAGE HOMES","8840 CYPRESS WATERS BLVD #100",DALLAS,TX,75063,"(214) 869-8023",,,,
TX,COLLIN,20201393,"Single Family Homes",9/16/2020,,172970,,"456 DEER CANYON WAY",PRINCETON,TX,75407,,,CONTRACTOR,,,,,,,,,,,"TROPHY SIGNATURE HOMES",,,,,"TROPHY SIGNATURE HOMES","2805 DALLAS PKWY STE 400",PLANO,TX,75093-8722,"(469) 969-7339",,,,
TX,COLLIN,20201395,"Single Family Homes",9/17/2020,,226940,,"202 NICKOLAS DR",PRINCETON,TX,75407,,,CONTRACTOR,,,,,,,,,,,"STONEHOLLOW HOMES",,,,,"STONEHOLLOW HOMES","905 MARKET ST STE 250",ALLEN,TX,75013,"(817) 917-4472",,,,
TX,COLLIN,20201396,"Single Family Homes",9/17/2020,,226940,,"208 NICKOLAS DR",PRINCETON,TX,75407,,,CONTRACTOR,,,,,,,,,,,"STONEHOLLOW HOMES",,,,,"STONEHOLLOW HOMES","905 MARKET ST STE 250",ALLEN,TX,75013,"(817) 917-4472",,,,
TX,COLLIN,20201400,"Single Family Homes",9/17/2020,,172970,,"475 CRYSTAL CLEAR LN",PRINCETON,TX,75407,,,CONTRACTOR,,,,,,,,,,,"TROPHY SIGNATURE HOMES",,,,,"TROPHY SIGNATURE HOMES","2805 DALLAS PKWY STE 400",PLANO,TX,75093-8722,"(469) 969-7339",,,,
TX,COLLIN,20201401,"Single Family Homes",9/17/2020,,198030,,"520 CRYSTAL CLEAR LN",PRINCETON,TX,77356,,,CONTRACTOR,,,,,,,,,,,"TROPHY SIGNATURE HOMES",,,,,"TROPHY SIGNATURE HOMES","2805 DALLAS PKWY STE 400",PLANO,TX,75093-8722,"(469) 969-7339",,,,
TX,COLLIN,20201402,"Single Family Homes",9/17/2020,,198030,,"479 DEER CANYON WAY",PRINCETON,TX,75407,,,CONTRACTOR,,,,,,,,,,,"TROPHY SIGNATURE HOMES",,,,,"TROPHY SIGNATURE HOMES","2805 DALLAS PKWY STE 400",PLANO,TX,75093-8722,"(469) 969-7339",,,,
TX,COLLIN,20201423,"Single Family Homes",9/23/2020,,177100,,"1003 MESQUITE LN",PRINCETON,TX,75407,,,CONTRACTOR,,,,,,,,,,,"LENNAR HOMES",,,,,"LENNAR HOMES","1707 MARKET PL STE 250",IRVING,TX,75063-8050,"(469) 587-5200",http://www.lennar.com/,,,
TX,COLLIN,20201424,"Single Family Homes",9/23/2020,,164500,,"1005 MESQUITE LN",PRINCETON,TX,75407,,,CONTRACTOR,,,,,,,,,,,"LENNAR HOMES",,,,,"LENNAR HOMES","1707 MARKET PL STE 250",IRVING,TX,75063-8050,"(469) 587-5200",http://www.lennar.com/,,,
TX,COLLIN,20201425,"Single Family Homes",9/23/2020,,148960,,"1007 MESQUITE LN",PRINCETON,TX,75407,,,CONTRACTOR,,,,,,,,,,,"LENNAR HOMES",,,,,"LENNAR HOMES","1707 MARKET PL STE 250",IRVING,TX,75063-8050,"(469) 587-5200",http://www.lennar.com/,,,
TX,COLLIN,20201426,"Single Family Homes",9/23/2020,,137060,,"1009 MESQUITE LN",PRINCETON,TX,75407,,,CONTRACTOR,,,,,,,,,,,"LENNAR HOMES",,,,,"LENNAR HOMES","1707 MARKET PL STE 250",IRVING,TX,75063-8050,"(469) 587-5200",http://www.lennar.com/,,,
TX,COLLIN,20201427,"Single Family Homes",9/23/2020,,177100,,"1011 MESQUITE LN",PRINCETON,TX,75407,,,CONTRACTOR,,,,,,,,,,,"LENNAR HOMES",,,,,"LENNAR HOMES","1707 MARKET PL STE 250",IRVING,TX,75063-8050,"(469) 587-5200",http://www.lennar.com/,,,
TX,COLLIN,20201428,"Single Family Homes",9/23/2020,,164500,,"1013 MESQUITE LN",PRINCETON,TX,75407,,,CONTRACTOR,,,,,,,,,,,"LENNAR HOMES",,,,,"LENNAR HOMES","1707 MARKET PL STE 250",IRVING,TX,75063-8050,"(469) 587-5200",http://www.lennar.com/,,,
TX,COLLIN,20201449,"Single Family Homes",9/28/2020,,252140,,"107 NATHAN DR",PRINCETON,TX,75407,,,CONTRACTOR,,,,,,,,,,,"HARPER SPRINGS HOMES",,,,,"HARPER SPRINGS HOMES","2300 MATLOCK RD STE 5",MANSFIELD,TX,76063,"(817) 473-7800",,,,
TX,COLLIN,20201451,"Single Family Homes",9/28/2020,,143080,,"699 PRAIRIE CREEK DR",PRINCETON,TX,75407,,,CONTRACTOR,,,,,,,,,,,"KINGSBRIDGE CONSTRUCTION",,,,,"KINGSBRIDGE CONSTRUCTION","519 E INTERSTATE 30 # 723",ROCKWALL,TX,75087-5408,"(469) 267-9903",,,,
TX,COLLIN,20201455,"Single Family Homes",9/29/2020,,198380,,"376 SCENIC POINT DR",PRINCETON,TX,75407,,,CONTRACTOR,,,,,,,,,,,"MERITAGE HOMES",,,,,"MERITAGE HOMES","8840 CYPRESS WATERS BLVD #100",DALLAS,TX,75063,"(214) 869-8023",,,,
TX,COLLIN,20201456,"Single Family Homes",9/29/2020,,269010,,"380 SCENIC POINT DR",PRINCETON,TX,75407,,,CONTRACTOR,,,,,,,,,,,"MERITAGE HOMES",,,,,"MERITAGE HOMES","8840 CYPRESS WATERS BLVD #100",DALLAS,TX,75063,"(214) 869-8023",,,,
TX,COLLIN,20201457,"Single Family Homes",9/29/2020,,269010,,"531 DEER CANYON WAY",PRINCETON,TX,75407,,,CONTRACTOR,,,,,,,,,,,"MERITAGE HOMES",,,,,"MERITAGE HOMES","8840 CYPRESS WATERS BLVD #100",DALLAS,TX,75063,"(214) 869-8023",,,,
TX,COLLIN,20201458,"Single Family Homes",9/29/2020,,218450,,"535 DEER CANYON WAY",PRINCETON,TX,75407,,,CONTRACTOR,,,,,,,,,,,"MERITAGE HOMES",,,,,"MERITAGE HOMES","8840 CYPRESS WATERS BLVD #100",DALLAS,TX,75063,"(214) 869-8023",,,,
TX,COLLIN,20201459,"Single Family Homes",9/29/2020,,260190,,"539 DEER CANYON WAY",PRINCETON,TX,75407,,,CONTRACTOR,,,,,,,,,,,"MERITAGE HOMES",,,,,"MERITAGE HOMES","8840 CYPRESS WATERS BLVD #100",DALLAS,TX,75063,"(214) 869-8023",,,,
TX,COLLIN,20201460,"Single Family Homes",9/29/2020,,151480,,"501 N 4TH STREET",PRINCETON,TX,75407,,,CONTRACTOR,,,,,,,,,,,"COASTAL PLAINS ESTATES",,,,,"COASTAL PLAINS ESTATES","2011 SHIRELY ROAD",WILMINGTON,NC,25804,"(618) 218-5339",https://www.coastalplainsestates.com/,,,Casey@Coastalplainsestates.com
TX,TARRANT,"20 - 03370","Single Family Homes",9/21/2020,,352701,3993,"2801 ASHMONT WAY",MANSFIELD,TX,75407,,,CONTRACTOR,,,,,,,,,,,"J HOUSTON HOMES",,,,,"J HOUSTON HOMES","202 N INTERSTATE 35 RD STE C","RED OAK",TX,75154-4296,"(972) 937-4085",,"(972) 937-4697",,info@johnhoustoncustomhomes.com
TX,TARRANT,"20 - 03371","Single Family Homes",9/11/2020,,302353,3423,"2419 RAWLINS LN.",MANSFIELD,TX,75407,SOMERSET,,CONTRACTOR,,,,,,,,,,,"J HOUSTON HOMES",,,,,"J HOUSTON HOMES","202 N INTERSTATE 35 RD STE C","RED OAK",TX,75154-4296,"(972) 937-4085",,"(972) 937-4697",,info@johnhoustoncustomhomes.com
TX,TARRANT,"20 - 03372","Single Family Homes",9/11/2020,,309773,3507,"3002 CHESTERFIELD LN",MANSFIELD,TX,75407,,,CONTRACTOR,,,,,,,,,,,"J HOUSTON HOMES",,,,,"J HOUSTON HOMES","202 N INTERSTATE 35 RD STE C","RED OAK",TX,75154-4296,"(972) 937-4085",,"(972) 937-4697",,info@johnhoustoncustomhomes.com
TX,TARRANT,"20 - 03381","Single Family Homes",9/29/2020,,359679,4072,"5213 HAVANA DR",MANSFIELD,TX,75407,"SEETON ESTATES",,CONTRACTOR,,,,,,,,,,,"ALL AMERICAN HOMES",,,,,"ALL AMERICAN HOMES","9409 ALDRIDGE CT",CROWLEY,TX,76036-8524,"(817) 980-8543",,,,
TX,TARRANT,"20 - 03383","Single Family Homes",9/10/2020,,447391,5065,"2806 CASSIE RD",MANSFIELD,TX,75407,SOUTHPOINTE,12,CONTRACTOR,,,,,,,,,,,"DREES CUSTOM HOMES",,,,,"DREES CUSTOM HOMES","6225 N STATE HIGHWAY 161 STE 150",IRVING,TX,75038-2283,"(972) 953-4500",http://www.dreeshomes.com,,,
TX,TARRANT,"20 - 03385","Single Family Homes",9/21/2020,,303766,3439,"2609 ROSEBUD LN",MANSFIELD,TX,75047,SOMERSET,5,CONTRACTOR,,,,,,,,,,,"J HOUSTON HOMES",,,,,"J HOUSTON HOMES","202 N INTERSTATE 35 RD STE C","RED OAK",TX,75154-4296,"(972) 937-4085",,"(972) 937-4697",,info@johnhoustoncustomhomes.com
TX,TARRANT,"20 - 03388","Single Family Homes",9/21/2020,,515140,5832,"2710 HARTMAN CIR",MANSFIELD,TX,75407,SOUTHPOINTE,2,CONTRACTOR,,,,,,,,,,,"J HOUSTON HOMES",,,,,"J HOUSTON HOMES","202 N INTERSTATE 35 RD STE C","RED OAK",TX,75154-4296,"(972) 937-4085",,"(972) 937-4697",,info@johnhoustoncustomhomes.com
TX,TARRANT,"20 - 03409","Single Family Homes",9/18/2020,,322051,3646,"2603 MELROSE DR",MANSFIELD,TX,75407,,,CONTRACTOR,,,,,,,,,,,"PULTE HOMES",,,,,"PULTE HOMES","4800 REGENT BLVD",IRVING,TX,75063-2439,"(972) 304-2800",,,,
TX,TARRANT,"20 - 03440","Single Family Homes",9/14/2020,,272763,3088,"5012 LAKE PARK DR",MANSFIELD,TX,75407,"LAKE PARK",17,CONTRACTOR,,,,,,,,,,,"BLOOMFIELD HOMES",,,,,"BLOOMFIELD HOMES","1050 E STATE HIGHWAY 114 STE 210",SOUTHLAKE,TX,76092-5255,"(972) 971-2103",http://bloomfieldhomes.net/,"(972) 987-4342",,mattjennings@bloomfieldhomes.net
TX,TARRANT,"20 - 03441","Single Family Homes",9/14/2020,,265431,3005,"5013 LAKE PARK DR",MANSFIELD,TX,75407,"LAKE PARK",13,CONTRACTOR,,,,,,,,,,,"BLOOMFIELD HOMES",,,,,"BLOOMFIELD HOMES","1050 E STATE HIGHWAY 114 STE 210",SOUTHLAKE,TX,76092-5255,"(972) 971-2103",http://bloomfieldhomes.net/,"(972) 987-4342",,mattjennings@bloomfieldhomes.net
TX,TARRANT,"20 - 03442","Single Family Homes",9/14/2020,,358619,4060,"5011 LAKE PARK DR",MANSFIELD,TX,75047,,,CONTRACTOR,,,,,,,,,,,"BLOOMFIELD HOMES",,,,,"BLOOMFIELD HOMES","1050 E STATE HIGHWAY 114 STE 210",SOUTHLAKE,TX,76092-5255,"(972) 971-2103",http://bloomfieldhomes.net/,"(972) 987-4342",,mattjennings@bloomfieldhomes.net
TX,TARRANT,"20 - 03443","Single Family Homes",9/15/2020,,272851,3089,"5016 LAKE PARK DR",MANSFIELD,TX,75407,"LAKE PARK",15,CONTRACTOR,,,,,,,,,,,"BLOOMFIELD HOMES",,,,,"BLOOMFIELD HOMES","1050 E STATE HIGHWAY 114 STE 210",SOUTHLAKE,TX,76092-5255,"(972) 971-2103",http://bloomfieldhomes.net/,"(972) 987-4342",,mattjennings@bloomfieldhomes.net
TX,TARRANT,"20 - 03444","Single Family Homes",9/17/2020,,282214,3195,"4905 LAKE PARK DR",MANSFIELD,TX,75407,"LAKE PARK",3,CONTRACTOR,,,,,,,,,,,"BLOOMFIELD HOMES",,,,,"BLOOMFIELD HOMES","1050 E STATE HIGHWAY 114 STE 210",SOUTHLAKE,TX,76092-5255,"(972) 971-2103",http://bloomfieldhomes.net/,"(972) 987-4342",,mattjennings@bloomfieldhomes.net
TX,TARRANT,"20 - 03445","Single Family Homes",9/15/2020,,358619,4060,"5008 LAKE PARK DR",MANSFIELD,TX,75407,"LAKE PARK",19,CONTRACTOR,,,,,,,,,,,"BLOOMFIELD HOMES",,,,,"BLOOMFIELD HOMES","1050 E STATE HIGHWAY 114 STE 210",SOUTHLAKE,TX,76092-5255,"(972) 971-2103",http://bloomfieldhomes.net/,"(972) 987-4342",,mattjennings@bloomfieldhomes.net
TX,TARRANT,"20 - 03446","Single Family Homes",9/15/2020,,285482,3232,"5006 LAKE PARK DR",MANSFIELD,TX,75407,"LAKE PARK",20,CONTRACTOR,,,,,,,,,,,"BLOOMFIELD HOMES",,,,,"BLOOMFIELD HOMES","1050 E STATE HIGHWAY 114 STE 210",SOUTHLAKE,TX,76092-5255,"(972) 971-2103",http://bloomfieldhomes.net/,"(972) 987-4342",,mattjennings@bloomfieldhomes.net
TX,TARRANT,"20 - 03447","Single Family Homes",9/21/2020,,278327,3151,"3303 WHEATBERRY LN",MANSFIELD,TX,75407,,,CONTRACTOR,,,,,,,,,,,"J HOUSTON HOMES",,,,,"J HOUSTON HOMES","202 N INTERSTATE 35 RD STE C","RED OAK",TX,75154-4296,"(972) 937-4085",,"(972) 937-4697",,info@johnhoustoncustomhomes.com
TX,TARRANT,"20 - 03477","Single Family Homes",9/15/2020,,253418,2869,"1302 RAINIER CT",MANSFIELD,TX,75407,,,CONTRACTOR,,,,,,,,,,,"BLOOMFIELD HOMES",,,,,"BLOOMFIELD HOMES","1050 E STATE HIGHWAY 114 STE 210",SOUTHLAKE,TX,76092-5255,"(972) 971-2103",http://bloomfieldhomes.net/,"(972) 987-4342",,mattjennings@bloomfieldhomes.net
TX,TARRANT,"20 - 03479","Single Family Homes",9/14/2020,,304208,3444,"5014 LAKE PARK DR",MANSFIELD,TX,75407,,,CONTRACTOR,,,,,,,,,,,"BLOOMFIELD HOMES",,,,,"BLOOMFIELD HOMES","1050 E STATE HIGHWAY 114 STE 210",SOUTHLAKE,TX,76092-5255,"(972) 971-2103",http://bloomfieldhomes.net/,"(972) 987-4342",,mattjennings@bloomfieldhomes.net
TX,TARRANT,"20 - 03481","Single Family Homes",9/15/2020,,362947,4109,"1308 QUINCY DR",MANSFIELD,TX,75407,,,CONTRACTOR,,,,,,,,,,,"BLOOMFIELD HOMES",,,,,"BLOOMFIELD HOMES","1050 E STATE HIGHWAY 114 STE 210",SOUTHLAKE,TX,76092-5255,"(972) 971-2103",http://bloomfieldhomes.net/,"(972) 987-4342",,mattjennings@bloomfieldhomes.net
TX,TARRANT,"20 - 03483","Single Family Homes",9/16/2020,,337067,3816,"3207 TAIL WATER DR",MANSFIELD,TX,75407,"MILL VALLEY",11,CONTRACTOR,,,,,,,,,,,"J HOUSTON HOMES",,,,,"J HOUSTON HOMES","202 N INTERSTATE 35 RD STE C","RED OAK",TX,75154-4296,"(972) 937-4085",,"(972) 937-4697",,info@johnhoustoncustomhomes.com
TX,TARRANT,"20 - 03485","Single Family Homes",9/11/2020,,223121,2526,"1904 SHAILA DR",MANSFIELD,TX,75067,"MILL VALLEY",11,CONTRACTOR,,,,,,,,,,,"J HOUSTON HOMES",,,,,"J HOUSTON HOMES","202 N INTERSTATE 35 RD STE C","RED OAK",TX,75154-4296,"(972) 937-4085",,"(972) 937-4697",,info@johnhoustoncustomhomes.com
TX,TARRANT,"20 - 03487","Single Family Homes",9/11/2020,,243172,2753,"1908 SHAILA DR",MANSFIELD,TX,75407,,,CONTRACTOR,,,,,,,,,,,"J HOUSTON HOMES",,,,,"J HOUSTON HOMES","202 N INTERSTATE 35 RD STE C","RED OAK",TX,75154-4296,"(972) 937-4085",,"(972) 937-4697",,info@johnhoustoncustomhomes.com
TX,TARRANT,"20 - 03491","Single Family Homes",9/11/2020,,283450,3209,"1901 SHAILA DR.",MANSFIELD,TX,75407,,,CONTRACTOR,,,,,,,,,,,"J HOUSTON HOMES",,,,,"J HOUSTON HOMES","202 N INTERSTATE 35 RD STE C","RED OAK",TX,75154-4296,"(972) 937-4085",,"(972) 937-4697",,info@johnhoustoncustomhomes.com
TX,TARRANT,"20 - 03492","Single Family Homes",9/14/2020,,275412,3118,"2819 ASHMONT WAY",MANSFIELD,TX,75407,,,CONTRACTOR,,,,,,,,,,,"J HOUSTON HOMES",,,,,"J HOUSTON HOMES","202 N INTERSTATE 35 RD STE C","RED OAK",TX,75154-4296,"(972) 937-4085",,"(972) 937-4697",,info@johnhoustoncustomhomes.com
TX,TARRANT,"20 - 03505","Single Family Homes",9/14/2020,,287690,3257,"2815 ASHMONT WAY",MANSFIELD,TX,75047,SOMERSET,,CONTRACTOR,,,,,,,,,,,"J HOUSTON HOMES",,,,,"J HOUSTON HOMES","202 N INTERSTATE 35 RD STE C","RED OAK",TX,75154-4296,"(972) 937-4085",,"(972) 937-4697",,info@johnhoustoncustomhomes.com
TX,TARRANT,"20 - 03506","Single Family Homes",9/14/2020,,243084,2752,"2817 ASHMONT WAY",MANSFIELD,TX,75047,SOMERSET,2,CONTRACTOR,,,,,,,,,,,"J HOUSTON HOMES",,,,,"J HOUSTON HOMES","202 N INTERSTATE 35 RD STE C","RED OAK",TX,75154-4296,"(972) 937-4085",,"(972) 937-4697",,info@johnhoustoncustomhomes.com
TX,TARRANT,"20 - 03507","Single Family Homes",9/14/2020,,331502,3753,"2812 CRESWICK DR",MANSFIELD,TX,75407,SOMERSET,29,CONTRACTOR,,,,,,,,,,,"J HOUSTON HOMES",,,,,"J HOUSTON HOMES","202 N INTERSTATE 35 RD STE C","RED OAK",TX,75154-4296,"(972) 937-4085",,"(972) 937-4697",,info@johnhoustoncustomhomes.com
TX,TARRANT,"20 - 03509","Single Family Homes",9/21/2020,,395718,4480,"2605 COLLIER ST",MANSFIELD,TX,75407,SOUTHPOINTE,6,CONTRACTOR,,,,,,,,,,,"J HOUSTON HOMES",,,,,"J HOUSTON HOMES","202 N INTERSTATE 35 RD STE C","RED OAK",TX,75154-4296,"(972) 937-4085",,"(972) 937-4697",,info@johnhoustoncustomhomes.com
TX,TARRANT,"20 - 03510","Single Family Homes",9/21/2020,,339187,3840,"1506 BIRCH ST",MANSFIELD,TX,75407,SOUTHPOINTE,16,CONTRACTOR,,,,,,,,,,,"J HOUSTON HOMES",,,,,"J HOUSTON HOMES","202 N INTERSTATE 35 RD STE C","RED OAK",TX,75154-4296,"(972) 937-4085",,"(972) 937-4697",,info@johnhoustoncustomhomes.com
TX,TARRANT,"20 - 03512","Single Family Homes",9/14/2020,,299792,3394,"2816 CRESWICK DR",MANSFIELD,TX,75407,SOMERSET,31,CONTRACTOR,,,,,,,,,,,"J HOUSTON HOMES",,,,,"J HOUSTON HOMES","202 N INTERSTATE 35 RD STE C","RED OAK",TX,75154-4296,"(972) 937-4085",,"(972) 937-4697",,info@johnhoustoncustomhomes.com
TX,TARRANT,"20 - 03518","Single Family Homes",9/14/2020,,432905,4901,"4908 LAKE PARK DR",MANSFIELD,TX,75407,"LAKE PARK",24,CONTRACTOR,,,,,,,,,,,"BLOOMFIELD HOMES",,,,,"BLOOMFIELD HOMES","1050 E STATE HIGHWAY 114 STE 210",SOUTHLAKE,TX,76092-5255,"(972) 971-2103",http://bloomfieldhomes.net/,"(972) 987-4342",,mattjennings@bloomfieldhomes.net
TX,TARRANT,"20 - 03529","Single Family Homes",9/16/2020,,550207,6229,"1602 S MITCHELL RD",MANSFIELD,TX,75407,SOUTHPOINTE,3,CONTRACTOR,,,,,,,,,,,"DREES CUSTOM HOMES",,,,,"DREES CUSTOM HOMES","6225 N STATE HIGHWAY 161 STE 150",IRVING,TX,75038-2283,"(972) 953-4500",http://www.dreeshomes.com,,,
TX,TARRANT,"20 - 03569","Single Family Homes",9/23/2020,,369484,4183,"1305 RAINIER CT",MANSFIELD,TX,75407,"LONE STAR HEIGHTS",12,CONTRACTOR,,,,,,,,,,,"BLOOMFIELD HOMES",,,,,"BLOOMFIELD HOMES","1050 E STATE HIGHWAY 114 STE 210",SOUTHLAKE,TX,76092-5255,"(972) 971-2103",http://bloomfieldhomes.net/,"(972) 987-4342",,mattjennings@bloomfieldhomes.net
TX,TARRANT,"20 - 03574","Single Family Homes",9/23/2020,,330265,3739,"306 MOUNTAIN CREEK LN",MANSFIELD,TX,75407,"LAKE PARK",5,CONTRACTOR,,,,,,,,,,,"BLOOMFIELD HOMES",,,,,"BLOOMFIELD HOMES","1050 E STATE HIGHWAY 114 STE 210",SOUTHLAKE,TX,76092-5255,"(972) 971-2103",http://bloomfieldhomes.net/,"(972) 987-4342",,mattjennings@bloomfieldhomes.net
TX,TARRANT,"20 - 03577","Single Family Homes",9/21/2020,,342455,3877,"1914 LASSETER DR",MANSFIELD,TX,75407,"CYPRESS CROSSING",10,CONTRACTOR,,,,,,,,,,,"WINDSOR HOMES",,,,,"WINDSOR HOMES","8214 WESTCHESTER DR STE 710",DALLAS,TX,75225-6133,"(214) 522-4945",,"(214) 522-7244",,
TX,TARRANT,"20 - 03583","Single Family Homes",9/21/2020,,469208,5312,"4610 LYDIA LN",MANSFIELD,TX,75407,PEMBERLEY,2,CONTRACTOR,,,,,,,,,,,"FIRST TEXAS HOMES",,,,,"FIRST TEXAS HOMES","500 CRESCENT CT STE 350",DALLAS,TX,75201-7854,"(214) 613-3400",,"(214) 432-0350",,
TX,TARRANT,"20 - 03584","Single Family Homes",9/21/2020,,360739,4084,"811 MERYTON CT",MANSFIELD,TX,75407,PEMBERLEY,12,CONTRACTOR,,,,,,,,,,,"FIRST TEXAS HOMES",,,,,"FIRST TEXAS HOMES","500 CRESCENT CT STE 350",DALLAS,TX,75201-7854,"(214) 613-3400",,"(214) 432-0350",,
TX,TARRANT,"20 - 03585","Single Family Homes",9/21/2020,,362064,4099,"2813 CHESTERFIELD LN",MANSFIELD,TX,75407,SOMERSET,38,CONTRACTOR,,,,,,,,,,,"FIRST TEXAS HOMES",,,,,"FIRST TEXAS HOMES","500 CRESCENT CT STE 350",DALLAS,TX,75201-7854,"(214) 613-3400",,"(214) 432-0350",,
TX,TARRANT,"20 - 03592","Single Family Homes",9/21/2020,,357029,4042,"2411 RAWLINS LN",MANSFIELD,TX,75407,SOMERSET,46,CONTRACTOR,,,,,,,,,,,"FIRST TEXAS HOMES",,,,,"FIRST TEXAS HOMES","500 CRESCENT CT STE 350",DALLAS,TX,75201-7854,"(214) 613-3400",,"(214) 432-0350",,
TX,TARRANT,"20 - 03593","Single Family Homes",9/21/2020,,456577,5169,"2418 RAWLINS LN",MANSFIELD,TX,75407,SOMERSET,10,CONTRACTOR,,,,,,,,,,,"FIRST TEXAS HOMES",,,,,"FIRST TEXAS HOMES","500 CRESCENT CT STE 350",DALLAS,TX,75201-7854,"(214) 613-3400",,"(214) 432-0350",,
TX,TARRANT,"20 - 03595","Single Family Homes",9/21/2020,,369219,4180,"3003 CHESTERFIELD LN",MANSFIELD,TX,75407,SOMERSET,25,CONTRACTOR,,,,,,,,,,,"FIRST TEXAS HOMES",,,,,"FIRST TEXAS HOMES","500 CRESCENT CT STE 350",DALLAS,TX,75201-7854,"(214) 613-3400",,"(214) 432-0350",,
TX,TARRANT,"20 - 03596","Single Family Homes",9/21/2020,,473802,5364,"2420 RAWLINS LN",MANSFIELD,TX,75407,SOMERSET,11,CONTRACTOR,,,,,,,,,,,"FIRST TEXAS HOMES",,,,,"FIRST TEXAS HOMES","500 CRESCENT CT STE 350",DALLAS,TX,75201-7854,"(214) 613-3400",,"(214) 432-0350",,
TX,TARRANT,"20 - 03668","Single Family Homes",9/21/2020,,345193,3908,"1113 MAVERICK DR",MANSFIELD,TX,75407,SOUTHPOINTE,29,CONTRACTOR,,,,,,,,,,,"MHI MCGUYER HOMEBUILDERS",,,,,"MHI MCGUYER HOMEBUILDERS","1501 LYNDON B JOHNSON FWY STE 100",DALLAS,TX,75234-6029,"(972) 277-3811",,,,
TX,TARRANT,"20 - 03670","Single Family Homes",9/28/2020,,372399,4216,"3208 CHAMBLEY LN",MANSFIELD,TX,75407,SOMERSET,19,CONTRACTOR,,,,,,,,,,,"INNOVATION BUILDERS",,,,,"INNOVATION BUILDERS","17320 MARIANNE CR",DALLAS,TX,75252,"(214) 693-5775",http://www.innovationbuilders.com/,,,
TX,TARRANT,"20 - 03672","Single Family Homes",9/23/2020,,241582,2735,"2609 HIGH BLUFF DR",MANSFIELD,TX,75407,SOUTHPOINTE,7,CONTRACTOR,,,,,,,,,,,"MHI MCGUYER HOMEBUILDERS",,,,,"MHI MCGUYER HOMEBUILDERS","1501 LYNDON B JOHNSON FWY STE 100",DALLAS,TX,75234-6029,"(972) 277-3811",,,,
TX,TARRANT,"20 - 03678","Single Family Homes",9/22/2020,,330972,3747,"3204 JULIAN ST",MANSFIELD,TX,75407,SOUTHPOINTE,3,CONTRACTOR,,,,,,,,,,,"DAVID WEEKLEY HOMES",,,,,"DAVID WEEKLEY HOMES","2708 HILLSIDE DR","HIGHLAND VILLAGE",TX,75077-8653,"(972) 415-6059",http://www.davidweekleyhomes.com/,,,
TX,TARRANT,"20 - 03680","Single Family Homes",9/30/2020,,500301,5664,"3206 CHAMBLEY LN",MANSFIELD,TX,75407,SOMERSET,,CONTRACTOR,,,,,,,,,,,"INNOVATION BUILDERS",,,,,"INNOVATION BUILDERS","17320 MARIANNE CR",DALLAS,TX,75252,"(214) 693-5775",http://www.innovationbuilders.com/,,,
TX,TARRANT,"20 - 03686","Single Family Homes",9/16/2020,,418949,4743,"202 BLUE BAYOU CT",MANSFIELD,TX,75407,"SEETON ESTATES",22,CONTRACTOR,,,,,,,,,,,"SANDLIN HOMES",,,,,"SANDLIN HOMES","5137 DAVIS BLVD","FORT WORTH",TX,76180-6873,"(817) 281-3509",,,,
TX,TARRANT,"20 - 03710","Single Family Homes",9/29/2020,,360298,4079,"1502 BRANDENBURG ST",MANSFIELD,TX,75407,SOUTHPOINTE,2,CONTRACTOR,,,,,,,,,,,"DAVID WEEKLEY HOMES",,,,,"DAVID WEEKLEY HOMES","2708 HILLSIDE DR","HIGHLAND VILLAGE",TX,75077-8653,"(972) 415-6059",http://www.davidweekleyhomes.com/,,,
TX,TARRANT,"20 - 03735","Single Family Homes",9/29/2020,,252447,2858,"1301 THICKET DR",MANSFIELD,TX,75407,"LONE STAR HEIGHTS",5,CONTRACTOR,,,,,,,,,,,"BLOOMFIELD HOMES",,,,,"BLOOMFIELD HOMES","1050 E STATE HIGHWAY 114 STE 210",SOUTHLAKE,TX,76092-5255,"(972) 971-2103",http://bloomfieldhomes.net/,"(972) 987-4342",,mattjennings@bloomfieldhomes.net
TX,DALLAS,19-4023,"Single Family Homes",9/18/2020,,830000,6592,"326 MAPLE ST",RICHARDSON,TX,75081,,,CONTRACTOR,,,,,,,,,,,"UBS ENGINEERING",,,,,"UBS ENGINEERING","509 HAVENWOOD DRIVE",PLANO,TX,75094,"(773) 759-8175",,,,
TX,DALLAS,19-5010,"Single Family Homes",9/11/2020,,800000,5538,"2208 SUTTON PL",RICHARDSON,TX,75081,,,CONTRACTOR,,,,,,,,,,,"FAIRVIEW CUSTOM HOMES",,,,,"FAIRVIEW CUSTOM HOMES","110 SUMMER HILL LN",MCKINNEY,TX,75069-4167,"(972) 898-0477",,,,
TX,DALLAS,19-5284,"Single Family Homes",9/11/2020,,1360000,5523,"324 RIDGE CREST DR",RICHARDSON,TX,75081,,,CONTRACTOR,,,,,,,,,,,"SHADDOCK CALDWELL BUILDERS & DEVELOPERS",,,,,"SHADDOCK CALDWELL BUILDERS & DEVELOPERS","1224 ASHLAND DR",RICHARDSON,TX,75080-4815,"(469) 243-3466",,,"TODDY SHADDOCK",
TX,DALLAS,19-6051,"Single Family Homes",9/18/2020,,802747,4003,"1316 CHEYENNE DR",RICHARDSON,TX,75081,,,CONTRACTOR,,,,,,,,,,,"SUMMEY INDUSTRIES",,,,,"SUMMEY INDUSTRIES","6903 ECHO BLUFF DR",DALLAS,TX,75248-2903,"(214) 300-8925",,,,
TX,DALLAS,20-245,"Single Family Homes",9/17/2020,,1000000,4562,"15 MIMOSA PL",RICHARDSON,TX,75081,,,CONTRACTOR,,,,,,,,,,,"SHADDOCK CALDWELL BUILDERS & DEVELOPERS",,,,,"SHADDOCK CALDWELL BUILDERS & DEVELOPERS","1224 ASHLAND DR",RICHARDSON,TX,75080-4815,"(469) 243-3466",,,"TODDY SHADDOCK",
TX,DALLAS,20-765,"Single Family Homes",9/21/2020,,674000,4077,"13 VISTA CLIFF PL",RICHARDSON,TX,75081,,,CONTRACTOR,,,,,,,,,,,"EDWARD HEITMAN",,,,,"EDWARD HEITMAN","1018 CREEKWOOD DR.",GARLAND,TX,75044-2410,"(972) 530-6412",,,,
TX,DALLAS,20-937,"Single Family Homes",9/29/2020,,220000,2025,"602 ABRAMS RD",RICHARDSON,TX,75081,,,CONTRACTOR,,,,,,,,,,,"KLR & VICTORIA LLC",,,,,"KLR & VICTORIA LLC","202 TRENTON DR",WYLIE,TX,75098,"(972) 743-8725",,,,
TX,DALLAS,20-1479,"Single Family Homes",9/9/2020,,878000,4802,"1235 CHEYENNE DR",RICHARDSON,TX,75081,,,CONTRACTOR,,,,,,,,,,,"HW BUILDERS",,,,,"HW BUILDERS","17480 DALLAS PKWY STE 217",DALLAS,TX,75287-7304,"(972) 931-1006",http://hwhomes.com/,,,
TX,DALLAS,20-2097,"Single Family Homes",9/21/2020,,255000,2652,"416 TALL OAKS LN",RICHARDSON,TX,75081,,,CONTRACTOR,,,,,,,,,,,"HUNTINGTON REMODELING",,,,,"HUNTINGTON REMODELING","5601 DEMOCRACY DRIVE",PLANO,TX,75024,"(972) 430-2697",,,,
TX,DALLAS,20-2767,"Single Family Homes",9/21/2020,,250000,3095,"420 TALL OAKS LN",RICHARDSON,TX,75081,,,CONTRACTOR,,,,,,,,,,,"AXTELL DEVELOPMENT PARTNERS",,,,,"AXTELL DEVELOPMENT PARTNERS","550 S. WATTERS ROAD #125",ALLEN,TX,75013,"(972) 896-4654",https://axtelldp.com/,,,HELLO@AXTELLDP.COM
TX,DALLAS,20-3321,"Single Family Homes",9/10/2020,,690000,7036,"600 KILLARNEY",RICHARDSON,TX,75081,,,CONTRACTOR,,,,,,,,,,,"ZEROS INVESTMENTS",,,,,"ZEROS INVESTMENTS","10550 WALNUT ST",DALLAS,TX,75243-5346,"(972) 343-3222",,,,
TX,DALLAS,20-3982,"Single Family Homes",9/15/2020,,800000,4590,"1305 COMANCHE DR",RICHARDSON,TX,75081,,,CONTRACTOR,,,,,,,,,,,"FAIRVIEW CUSTOM HOMES",,,,,"FAIRVIEW CUSTOM HOMES","110 SUMMER HILL LN",MCKINNEY,TX,75069-4167,"(972) 898-0477",,,,
TX,KAUFMAN,,"Single Family Homes",9/14/2020,,150000,,"402 1ST ST",TERRELL,TX,75160,,,CONTRACTOR,,,,,,,,,,,"EBENEZER CONSTRUCTION SERVICES",,,,,"EBENEZER CONSTRUCTION SERVICES","E 121 S ZANG BLVD",DALLAS,TX,75208,"(214) 336-4957",,,,
TX,KAUFMAN,,"Single Family Homes",9/15/2020,,214990,,"125 CLEAR CREEK LN",TERRELL,TX,75160,,,CONTRACTOR,,,,,,,,,,,"HISTORY MAKER HOMES",,,,,"HISTORY MAKER HOMES","9001 AIRPORT FWY SUITE 400","NORTH RICHLAND HILLS",TX,76180-7769,"(817) 429-8008",http://www.historymaker.com/,"(817) 507-1102","JILL BARFIELD",
TX,KAUFMAN,,"Single Family Homes",9/16/2020,,147269,,"314 FRANK",TERRELL,TX,75160,,,CONTRACTOR,,,,,,,,,,,"RIVERSIDE EAST HOMEBUILDERS",,,,,"RIVERSIDE EAST HOMEBUILDERS","3045 LACKLAND RD","FORT WORTH",TX,76116-4121,"(817) 953-3308",,,,
TX,KAUFMAN,,"Single Family Homes",9/22/2020,,100000,,"304 RUNNELLS",TERRELL,TX,75160,,,"GREEN KEY INVESTMENTS GROUP LLC","304 RUNNELLS",TERRELL,TX,75160,,Owner,,,,,OWNER,,,,,OWNER,,,,,,,,,
TX,KAUFMAN,,"Single Family Homes",9/22/2020,,195990,,"109 WILLOW CREEK",TERRELL,TX,75160,,,CONTRACTOR,,,,,,,,,,,"HISTORY MAKER HOMES",,,,,"HISTORY MAKER HOMES","9001 AIRPORT FWY SUITE 400","NORTH RICHLAND HILLS",TX,76180-7769,"(817) 429-8008",http://www.historymaker.com/,"(817) 507-1102","JILL BARFIELD",
TX,KAUFMAN,,"Single Family Homes",9/25/2020,,201990,,"101 WILLOW CREEK LN",TERRELL,TX,75160,,,CONTRACTOR,,,,,,,,,,,"HISTORY MAKER HOMES",,,,,"HISTORY MAKER HOMES","9001 AIRPORT FWY SUITE 400","NORTH RICHLAND HILLS",TX,76180-7769,"(817) 429-8008",http://www.historymaker.com/,"(817) 507-1102","JILL BARFIELD",
TX,KAUFMAN,,"Single Family Homes",9/28/2020,,100000,,"600 SAINT LUKE",TERRELL,TX,75160,,,CONTRACTOR,,,,,,,,,,,"PETEâ€™S CONSTRUCTION",,,,,"PETEâ€™S CONSTRUCTION","1302 S MEDORA ST",TERRELL,TX,75160-4815,"(972) 524-3382",,,"PIRRE WILSON",
TX,KAUFMAN,,"Single Family Homes",9/29/2020,,195990,,"123 CLEAR CREEK LN",TERRELL,TX,75160,,,CONTRACTOR,,,,,,,,,,,"HISTORY MAKER HOMES",,,,,"HISTORY MAKER HOMES","9001 AIRPORT FWY SUITE 400","NORTH RICHLAND HILLS",TX,76180-7769,"(817) 429-8008",http://www.historymaker.com/,"(817) 507-1102","JILL BARFIELD",
TX,KAUFMAN,,"Single Family Homes",10/14/2020,,215990,,"126 CLEAR CREEK LN",TERRELL,TX,75160,,,CONTRACTOR,,,,,,,,,,,"HISTORY MAKER HOMES",,,,,"HISTORY MAKER HOMES","9001 AIRPORT FWY SUITE 400","NORTH RICHLAND HILLS",TX,76180-7769,"(817) 429-8008",http://www.historymaker.com/,"(817) 507-1102","JILL BARFIELD",
TX,KAUFMAN,,"Single Family Homes",10/14/2020,,205990,,"128 CLEAR CREEK LN",TERRELL,TX,75160,,,CONTRACTOR,,,,,,,,,,,"HISTORY MAKER HOMES",,,,,"HISTORY MAKER HOMES","9001 AIRPORT FWY SUITE 400","NORTH RICHLAND HILLS",TX,76180-7769,"(817) 429-8008",http://www.historymaker.com/,"(817) 507-1102","JILL BARFIELD",
TX,KAUFMAN,,"Single Family Homes",10/14/2020,,212990,,"119 CLEAR CREEK LN",TERRELL,TX,75160,,,CONTRACTOR,,,,,,,,,,,"HISTORY MAKER HOMES",,,,,"HISTORY MAKER HOMES","9001 AIRPORT FWY SUITE 400","NORTH RICHLAND HILLS",TX,76180-7769,"(817) 429-8008",http://www.historymaker.com/,"(817) 507-1102","JILL BARFIELD",
TX,KAUFMAN,,"Single Family Homes",10/14/2020,,217990,,"130 CLEAR CREEK LN",TERRELL,TX,75160,,,CONTRACTOR,,,,,,,,,,,"HISTORY MAKER HOMES",,,,,"HISTORY MAKER HOMES","9001 AIRPORT FWY SUITE 400","NORTH RICHLAND HILLS",TX,76180-7769,"(817) 429-8008",http://www.historymaker.com/,"(817) 507-1102","JILL BARFIELD",
TX,KAUFMAN,,"Single Family Homes",10/16/2020,,100000,,"132 JACKSON DR",TERRELL,TX,75160,,,"ROLANDO GUERRERO TORRES","132 JACKSON DR",TERRELL,TX,75160,,Owner,,,,,OWNER,,,,,OWNER,,,,,,,,,
TX,KAUFMAN,,"Single Family Homes",10/26/2020,,120000,,"112 SAN JACINTO ",TERRELL,TX,75160,,,CONTRACTOR,,,,,,,,,,,"MOY CONSTRUCTION & REMODELING",,,,,"MOY CONSTRUCTION & REMODELING","3427 IDALIA","EL PASO",TX,79930,"(915) 355-9900",,,,
TX,KAUFMAN,,"Single Family Homes",10/27/2020,,228990,,"122 CLEAR CREEK LN",TERRELL,TX,75160,,,CONTRACTOR,,,,,,,,,,,"HISTORY MAKER HOMES",,,,,"HISTORY MAKER HOMES","9001 AIRPORT FWY SUITE 400","NORTH RICHLAND HILLS",TX,76180-7769,"(817) 429-8008",http://www.historymaker.com/,"(817) 507-1102","JILL BARFIELD",
TX,COLLIN,"BLDSF - 20 - 3341","Single Family Homes",10/5/2020,,291210,2378,"3512 HIGHLAND BAYOU DR",CELINA,TX,75078,"CREEKS OF LEGACY",16,CONTRACTOR,,,,,,,,,,,"KB HOME",,,,,"KB HOME","5625 RIDGE LAKE DR","FORT WORTH",TX,76244-5148,"(800) 713-1170",,,,
TX,COLLIN,"BLDSF - 20 - 3456","Single Family Homes",10/12/2020,,599932,4899,"4016 SANDERS DR",CELINA,TX,75009,"LIGHT FARMS",9,CONTRACTOR,,,,,,,,,,,"TRADITION HOMES",,,,,"TRADITION HOMES","4004 MERLEMONT CT","COLLEGE STATION",TX,77845-4377,"(979) 204-6604",http://www.traditionhomesbcs.com/,,"JOHN COLVIN",
TX,COLLIN,"BLDSF - 20 - 3517","Single Family Homes",10/29/2020,,545927,4458,"3950 QUINN DR",CELINA,TX,75009,"LIGHT FARMS",10,CONTRACTOR,,,,,,,,,,,"DREES CUSTOM HOMES",,,,,"DREES CUSTOM HOMES","6225 N STATE HIGHWAY 161 STE 150",IRVING,TX,75038-2283,"(972) 953-4500",http://www.dreeshomes.com,,,
TX,COLLIN,"BLDSF - 20 - 3594","Single Family Homes",10/6/2020,,413547,3377,"1808 LITHGOW RD",CELINA,TX,75009,"GLEN CROSSING",5,CONTRACTOR,,,,,,,,,,,"HISTORY MAKER HOMES",,,,,"HISTORY MAKER HOMES","9001 AIRPORT FWY SUITE 400","NORTH RICHLAND HILLS",TX,76180-7769,"(817) 429-8008",http://www.historymaker.com/,"(817) 507-1102","JILL BARFIELD",
TX,COLLIN,"BLDSF - 20 - 3698","Single Family Homes",10/15/2020,,436447,3564,"5913 PENSBY DR",CELINA,TX,76227,"SUTTON FIELDS",68,CONTRACTOR,,,,,,,,,,,"M/I HOMES",,,,,"M/I HOMES","405 STATE HIGHWAY 121 BYP STE A210",LEWISVILLE,TX,75067-8214,"(210) 546-2129",,"(210) 546-2196",,
TX,COLLIN,"BLDSF - 20 - 3712","Single Family Homes",10/5/2020,,349011,2850,"1705 SNOWDROP DR",CELINA,TX,75078,LILYANA,28,CONTRACTOR,,,,,,,,,,,"AMERICAN LEGEND HOMES",,,,,"AMERICAN LEGEND HOMES","2540 KING ARTHUR BLVD STE 200",LEWISVILLE,TX,75056-5833,"(972) 410-5701",http://www.amlegendhomes.com/,"(972) 410-5750",,
TX,COLLIN,"BLDSF - 20 - 3789","Single Family Homes",10/5/2020,,291577,2381,"3508 HIGHLAND BAYOU DR",CELINA,TX,75078,"CREEKS OF LEGACY",15,CONTRACTOR,,,,,,,,,,,"KB HOME",,,,,"KB HOME","5625 RIDGE LAKE DR","FORT WORTH",TX,76244-5148,"(800) 713-1170",,,,
TX,COLLIN,"BLDSF - 20 - 3800","Single Family Homes",10/20/2020,,504535,4120,"2809 MAVERICK",CELINA,TX,75009,"MUSTANG LAKES",22,CONTRACTOR,,,,,,,,,,,"MHI MCGUYER HOMEBUILDERS",,,,,"MHI MCGUYER HOMEBUILDERS","1501 LYNDON B JOHNSON FWY STE 100",DALLAS,TX,75234-6029,"(972) 277-3811",,,,
TX,COLLIN,"BLDSF - 20 - 3808","Single Family Homes",10/6/2020,,325621,2659,"1517 WAYBACK DR",CELINA,TX,75009,"LIGHT FARMS",9,CONTRACTOR,,,,,,,,,,,"TROPHY SIGNATURE HOMES",,,,,"TROPHY SIGNATURE HOMES","2805 DALLAS PKWY STE 400",PLANO,TX,75093-8722,"(469) 969-7339",,,,
TX,COLLIN,"BLDSF - 20 - 3844","Single Family Homes",10/27/2020,,272106,2222,"5836 PRIORY DR",CELINA,TX,76227,"SUTTON FIELDS",14,CONTRACTOR,,,,,,,,,,,"LENNAR HOMES",,,,,"LENNAR HOMES","1707 MARKET PL STE 250",IRVING,TX,75063-8050,"(469) 587-5200",http://www.lennar.com/,,,
TX,COLLIN,"BLDSF - 20 - 3856","Single Family Homes",10/13/2020,,289495,2364,"2920 SUNNYSIDE DR",CELINA,TX,75009,"LIGHT FARMS",15,CONTRACTOR,,,,,,,,,,,"TROPHY SIGNATURE HOMES",,,,,"TROPHY SIGNATURE HOMES","2805 DALLAS PKWY STE 400",PLANO,TX,75093-8722,"(469) 969-7339",,,,
TX,COLLIN,"BLDSF - 20 - 3857","Single Family Homes",10/22/2020,,303088,2475,"2916 SUNNYSIDE DR",CELINA,TX,75009,"LIGHT FARMS",16,CONTRACTOR,,,,,,,,,,,"TROPHY SIGNATURE HOMES",,,,,"TROPHY SIGNATURE HOMES","2805 DALLAS PKWY STE 400",PLANO,TX,75093-8722,"(469) 969-7339",,,,
TX,COLLIN,"BLDSF - 20 - 3875","Single Family Homes",10/7/2020,,653079,5333,"1608 STERLING DR",CELINA,TX,75009,"LIGHT FARMS",29,CONTRACTOR,,,,,,,,,,,"SHADDOCK HOMES",,,,,"SHADDOCK HOMES","2400 DALLAS PKWY",PLANO,TX,75093-4370,"(469) 241-9581",http://www.shaddockhomes.com,,,
TX,COLLIN,"BLDSF - 20 - 3888","Single Family Homes",10/6/2020,,513842,4196,"2958 WOOD RIVER",CELINA,TX,75078,"CREEKS OF LEGACY",10,CONTRACTOR,,,,,,,,,,,"LENNAR HOMES",,,,,"LENNAR HOMES","1707 MARKET PL STE 250",IRVING,TX,75063-8050,"(469) 587-5200",http://www.lennar.com/,,,
TX,COLLIN,"BLDSF - 20 - 3920","Single Family Homes",10/6/2020,,482615,3941,"3946 QUINN DR",CELINA,TX,75009,"LIGHT FARMS",11,CONTRACTOR,,,,,,,,,,,"DREES CUSTOM HOMES",,,,,"DREES CUSTOM HOMES","6225 N STATE HIGHWAY 161 STE 150",IRVING,TX,75038-2283,"(972) 953-4500",http://www.dreeshomes.com,,,
TX,COLLIN,"BLDSF - 20 - 3925","Single Family Homes",10/14/2020,,380973,3111,"1925 EMILIA DR",CELINA,TX,75009,GREENWAY,22,CONTRACTOR,,,,,,,,,,,"M/I HOMES",,,,,"M/I HOMES","405 STATE HIGHWAY 121 BYP STE A210",LEWISVILLE,TX,75067-8214,"(210) 546-2129",,"(210) 546-2196",,
TX,COLLIN,"BLDSF - 20 - 3927","Single Family Homes",10/8/2020,,336398,2747,"801 FRANCIS AVE",CELINA,TX,75009,"LIGHT FARMS BRENHAM",26,CONTRACTOR,,,,,,,,,,,"M/I HOMES",,,,,"M/I HOMES","405 STATE HIGHWAY 121 BYP STE A210",LEWISVILLE,TX,75067-8214,"(210) 546-2129",,"(210) 546-2196",,
TX,COLLIN,"BLDSF - 20 - 3944","Single Family Homes",10/2/2020,,497433,4062,"4320 MILL POND DR",CELINA,TX,75009,"WELLSPRING ESTATES",3,CONTRACTOR,,,,,,,,,,,"GRAND HOMES",,,,,"GRAND HOMES","15455 DALLAS PKWY STE 1000",ADDISON,TX,75001-6772,"(214) 750-6528",http://www.grandhomes.com/,"(214) 750-6849",,info@grandhomes.com
TX,COLLIN,"BLDSF - 20 - 3954","Single Family Homes",10/13/2020,,553642,4521,"3429 PANEER CT",CELINA,TX,75248,"MUSTANG LAKES",11,CONTRACTOR,,,,,,,,,,,"MHI MCGUYER HOMEBUILDERS",,,,,"MHI MCGUYER HOMEBUILDERS","1501 LYNDON B JOHNSON FWY STE 100",DALLAS,TX,75234-6029,"(972) 277-3811",,,,
TX,COLLIN,"BLDSF - 20 - 3964","Single Family Homes",10/26/2020,,716391,5850,"4318 WELLSPRINGS PKWY",CELINA,TX,75009,"WELLSPRING ESTATES",14,CONTRACTOR,,,,,,,,,,,"GRAND HOMES",,,,,"GRAND HOMES","15455 DALLAS PKWY STE 1000",ADDISON,TX,75001-6772,"(214) 750-6528",http://www.grandhomes.com/,"(214) 750-6849",,info@grandhomes.com
TX,COLLIN,"BLDSF - 20 - 3984","Single Family Homes",10/22/2020,,324519,2650,"6025 PENSBY DR",CELINA,TX,76227,"SUTTON FIELDS",51,CONTRACTOR,,,,,,,,,,,"M/I HOMES",,,,,"M/I HOMES","405 STATE HIGHWAY 121 BYP STE A210",LEWISVILLE,TX,75067-8214,"(210) 546-2129",,"(210) 546-2196",,
TX,COLLIN,"BLDSF - 20 - 3988","Single Family Homes",10/19/2020,,328805,2685,"1001 ROUNTREE CT",CELINA,TX,75009,"CHALK HILL",1,CONTRACTOR,,,,,,,,,,,"BEAZER HOMES ",,,,,"BEAZER HOMES ","1750 VALLEY VIEW LN STE 200",DALLAS,TX,75234-9010,"(972) 250-5517",http://www.beazer.com/,,,bret.kolbe@beazer.com
TX,COLLIN,"BLDSF - 20 - 3990","Single Family Homes",10/22/2020,,385504,3148,"1005 ROUNTREE CT",CELINA,TX,75009,"CHALK HILL",2,CONTRACTOR,,,,,,,,,,,"BEAZER HOMES ",,,,,"BEAZER HOMES ","1750 VALLEY VIEW LN STE 200",DALLAS,TX,75234-9010,"(972) 250-5517",http://www.beazer.com/,,,bret.kolbe@beazer.com
TX,COLLIN,"BLDSF - 20 - 3994","Single Family Homes",10/2/2020,,523394,4274,"3220 SUNDAY SILENCE LN",CELINA,TX,75009,"MUSTANG LAKES",28,CONTRACTOR,,,,,,,,,,,"HIGHLAND HOMES",,,,,"HIGHLAND HOMES","5601 DEMOCRACY DR STE 300",PLANO,TX,75024-3674,"(972) 789-3500",,,,
TX,COLLIN,"BLDSF - 20 - 3995","Single Family Homes",10/8/2020,,545927,4458,"1754 ELLINGTON DR",CELINA,TX,75009,"LIGHT FARMS",38,CONTRACTOR,,,,,,,,,,,"DREES CUSTOM HOMES",,,,,"DREES CUSTOM HOMES","6225 N STATE HIGHWAY 161 STE 150",IRVING,TX,75038-2283,"(972) 953-4500",http://www.dreeshomes.com,,,
TX,COLLIN,"BLDSF - 20 - 3996","Single Family Homes",10/21/2020,,329295,2689,"3103 CULVER AVE",CELINA,TX,75009,SWEETWATER,1,CONTRACTOR,,,,,,,,,,,"M/I HOMES",,,,,"M/I HOMES","405 STATE HIGHWAY 121 BYP STE A210",LEWISVILLE,TX,75067-8214,"(210) 546-2129",,"(210) 546-2196",,
TX,COLLIN,"BLDSF - 20 - 3997","Single Family Homes",10/21/2020,,325131,2655,"1615 SEASHORE AVE",CELINA,TX,75009,SWEETWATER,6,CONTRACTOR,,,,,,,,,,,"M/I HOMES",,,,,"M/I HOMES","405 STATE HIGHWAY 121 BYP STE A210",LEWISVILLE,TX,75067-8214,"(210) 546-2129",,"(210) 546-2196",,
TX,COLLIN,"BLDSF - 20 - 4000","Single Family Homes",10/13/2020,,356481,2911,"3106 NORTHSHORE DR",CELINA,TX,75009,SWEETWATER,13,CONTRACTOR,,,,,,,,,,,"TROPHY SIGNATURE HOMES",,,,,"TROPHY SIGNATURE HOMES","2805 DALLAS PKWY STE 400",PLANO,TX,75093-8722,"(469) 969-7339",,,,
TX,COLLIN,"BLDSF - 20 - 4010","Single Family Homes",10/8/2020,,333214,2721,"3829 BENNETT TRL",CELINA,TX,75009,"THE HOMESTEAD AT OWNSBY FARMS",8,CONTRACTOR,,,,,,,,,,,"MEGATEL HOMES",,,,,"MEGATEL HOMES","5512 W PLANO PKWY STE 300",PLANO,TX,75093-4840,"(972) 339-0159",,,,
TX,COLLIN,"BLDSF - 20 - 4011","Single Family Homes",10/8/2020,,349746,2856,"442 CAMILLE CROSSING",CELINA,TX,75009,"THE HOMESTEAD AT OWNSBY FARMS",11,CONTRACTOR,,,,,,,,,,,"MEGATEL HOMES",,,,,"MEGATEL HOMES","5512 W PLANO PKWY STE 300",PLANO,TX,75093-4840,"(972) 339-0159",,,,
TX,COLLIN,"BLDSF - 20 - 4012","Single Family Homes",10/1/2020,,483962,3952,"3849 HEREFORD",CELINA,TX,75009,"THE HOMESTEAD AT OWNSBY FARMS",14,CONTRACTOR,,,,,,,,,,,"MEGATEL HOMES",,,,,"MEGATEL HOMES","5512 W PLANO PKWY STE 300",PLANO,TX,75093-4840,"(972) 339-0159",,,,
TX,COLLIN,"BLDSF - 20 - 4013","Single Family Homes",10/19/2020,,335173,2737,"624 CORNER POST PATH",CELINA,TX,75009,"THE HOMESTEAD AT OWNSBY FARMS",42,CONTRACTOR,,,,,,,,,,,"MEGATEL HOMES",,,,,"MEGATEL HOMES","5512 W PLANO PKWY STE 300",PLANO,TX,75093-4840,"(972) 339-0159",,,,
TX,COLLIN,"BLDSF - 20 - 4016","Single Family Homes",10/12/2020,,504780,4122,"3529 CHACON CREEK TRL",CELINA,TX,75078,"CREEKS OF LEGACY",31,CONTRACTOR,,,,,,,,,,,"TRENDMAKER HOMES",,,,,"TRENDMAKER HOMES","4835 LBJ FREEWAY SUITE 700",DALLAS,TX,75068,"(214) 765-0573",,,,
TX,COLLIN,"BLDSF - 20 - 4017","Single Family Homes",10/12/2020,,543967,4442,"3517 CHACON CREEK TRL",CELINA,TX,75078,"CREEKS OF LEGACY",28,CONTRACTOR,,,,,,,,,,,"TRENDMAKER HOMES",,,,,"TRENDMAKER HOMES","4835 LBJ FREEWAY SUITE 700",DALLAS,TX,75068,"(214) 765-0573",,,,
TX,COLLIN,"BLDSF - 20 - 4025","Single Family Homes",10/1/2020,,417221,3407,"1918 RENWICK DR",CELINA,TX,75009,"GLEN CROSSING",48,CONTRACTOR,,,,,,,,,,,"HIGHLAND HOMES",,,,,"HIGHLAND HOMES","5601 DEMOCRACY DR STE 300",PLANO,TX,75024-3674,"(972) 789-3500",,,,
TX,COLLIN,"BLDSF - 20 - 4029","Single Family Homes",10/12/2020,,571031,4663,"1428 ELLICOTT DR",CELINA,TX,75009,"LIGHT FARMS HAWTHORNE",3,CONTRACTOR,,,,,,,,,,,"TRADITION HOMES",,,,,"TRADITION HOMES","4004 MERLEMONT CT","COLLEGE STATION",TX,77845-4377,"(979) 204-6604",http://www.traditionhomesbcs.com/,,"JOHN COLVIN",
TX,COLLIN,"BLDSF - 20 - 4034","Single Family Homes",10/7/2020,,517026,4002,"4224 CANADIAN RIVER DR",CELINA,TX,75078,"CREEKS OF LEGACY",37,CONTRACTOR,,,,,,,,,,,"FIRST TEXAS HOMES",,,,,"FIRST TEXAS HOMES","500 CRESCENT CT STE 350",DALLAS,TX,75201-7854,"(214) 613-3400",,"(214) 432-0350",,
TX,COLLIN,"BLDSF - 20 - 4035","Single Family Homes",10/20/2020,,458858,3747,"4023 HEATHERTON DR",CELINA,TX,75009,"LIGHT FARMS",19,CONTRACTOR,,,,,,,,,,,"TRADITION HOMES",,,,,"TRADITION HOMES","4004 MERLEMONT CT","COLLEGE STATION",TX,77845-4377,"(979) 204-6604",http://www.traditionhomesbcs.com/,,"JOHN COLVIN",
TX,COLLIN,"BLDSF - 20 - 4036","Single Family Homes",10/8/2020,,537477,4389,"4104 REPUBLICAN BRANCH DR",CELINA,TX,75078,"CREEKS OF LEGACY",48,CONTRACTOR,,,,,,,,,,,"FIRST TEXAS HOMES",,,,,"FIRST TEXAS HOMES","500 CRESCENT CT STE 350",DALLAS,TX,75201-7854,"(214) 613-3400",,"(214) 432-0350",,
TX,COLLIN,"BLDSF - 20 - 4037","Single Family Homes",10/7/2020,,517026,4222,"4400 CANADIAN RIVER DR",CELINA,TX,75078,"CREEKS OF LEGACY",32,CONTRACTOR,,,,,,,,,,,"FIRST TEXAS HOMES",,,,,"FIRST TEXAS HOMES","500 CRESCENT CT STE 350",DALLAS,TX,75201-7854,"(214) 613-3400",,"(214) 432-0350",,
TX,COLLIN,"BLDSF - 20 - 4041","Single Family Homes",10/14/2020,,524006,4279,"1715 GARDENIA ST",CELINA,TX,75078,LILYANA,15,CONTRACTOR,,,,,,,,,,,"PERRY HOMES",,,,,"PERRY HOMES","2004 VENTURA DR STE 200",PLANO,TX,75093-2003,"(972) 964-7700",,,,
TX,COLLIN,"BLDSF - 20 - 4043","Single Family Homes",10/2/2020,,432161,3529,"1809 DALDORAN DR",CELINA,TX,75009,"GLEN CROSSING",13,CONTRACTOR,,,,,,,,,,,"HIGHLAND HOMES",,,,,"HIGHLAND HOMES","5601 DEMOCRACY DR STE 300",PLANO,TX,75024-3674,"(972) 789-3500",,,,
TX,COLLIN,"BLDSF - 20 - 4044","Single Family Homes",10/9/2020,,378034,3087,"2013 ST ANDREWS DR",CELINA,TX,75009,"GLEN CROSSING",4,CONTRACTOR,,,,,,,,,,,"HIGHLAND HOMES",,,,,"HIGHLAND HOMES","5601 DEMOCRACY DR STE 300",PLANO,TX,75024-3674,"(972) 789-3500",,,,
TX,COLLIN,"BLDSF - 20 - 4045","Single Family Homes",10/22/2020,,302599,2471,"1604 SEASHORE AVE",CELINA,TX,75009,SWEETWATER,10,CONTRACTOR,,,,,,,,,,,"TROPHY SIGNATURE HOMES",,,,,"TROPHY SIGNATURE HOMES","2805 DALLAS PKWY STE 400",PLANO,TX,75093-8722,"(469) 969-7339",,,,
TX,COLLIN,"BLDSF - 20 - 4046","Single Family Homes",10/12/2020,,572133,4672,"4808 WHARTON AVE",CELINA,TX,76227,"SUTTON FIELDS",3,CONTRACTOR,,,,,,,,,,,"FIRST TEXAS HOMES",,,,,"FIRST TEXAS HOMES","500 CRESCENT CT STE 350",DALLAS,TX,75201-7854,"(214) 613-3400",,"(214) 432-0350",,
TX,COLLIN,"BLDSF - 20 - 4047","Single Family Homes",10/7/2020,,340684,2782,"5932 LIVERPOOL ST",CELINA,TX,76227,"SUTTON FIELDS",4,CONTRACTOR,,,,,,,,,,,"FIRST TEXAS HOMES",,,,,"FIRST TEXAS HOMES","500 CRESCENT CT STE 350",DALLAS,TX,75201-7854,"(214) 613-3400",,"(214) 432-0350",,
TX,COLLIN,"BLDSF - 20 - 4048","Single Family Homes",10/1/2020,,471593,3851,"817 HARRINGTON LN",CELINA,TX,75009,"LIGHT FARMS",13,CONTRACTOR,,,,,,,,,,,"AMERICAN LEGEND HOMES",,,,,"AMERICAN LEGEND HOMES","2540 KING ARTHUR BLVD STE 200",LEWISVILLE,TX,75056-5833,"(972) 410-5701",http://www.amlegendhomes.com/,"(972) 410-5750",,
TX,COLLIN,"BLDSF - 20 - 4049","Single Family Homes",10/7/2020,,501351,4094,"5925 OAKMERE LN",CELINA,TX,76227,"SUTTON FIELDS",,CONTRACTOR,,,,,,,,,,,"FIRST TEXAS HOMES",,,,,"FIRST TEXAS HOMES","500 CRESCENT CT STE 350",DALLAS,TX,75201-7854,"(214) 613-3400",,"(214) 432-0350",,
TX,COLLIN,"BLDSF - 20 - 4050","Single Family Homes",10/7/2020,,340684,2782,"5831 LIVERPOOL ST",CELINA,TX,76227,"SUTTON FIELDS",24,CONTRACTOR,,,,,,,,,,,"FIRST TEXAS HOMES",,,,,"FIRST TEXAS HOMES","500 CRESCENT CT STE 350",DALLAS,TX,75201-7854,"(214) 613-3400",,"(214) 432-0350",,
TX,COLLIN,"BLDSF - 20 - 4052","Single Family Homes",10/14/2020,,453592,3704,"3812 BENNETT TRL",CELINA,TX,75009,"THE HOMESTEAD AT OWNSBY FARMS",28,CONTRACTOR,,,,,,,,,,,"MEGATEL HOMES",,,,,"MEGATEL HOMES","5512 W PLANO PKWY STE 300",PLANO,TX,75093-4840,"(972) 339-0159",,,,
TX,COLLIN,"BLDSF - 20 - 4055","Single Family Homes",10/8/2020,,354889,2898,"3108 CULVER AVE",CELINA,TX,75009,SWEETWATER,7,CONTRACTOR,,,,,,,,,,,"M/I HOMES",,,,,"M/I HOMES","405 STATE HIGHWAY 121 BYP STE A210",LEWISVILLE,TX,75067-8214,"(210) 546-2129",,"(210) 546-2196",,
TX,COLLIN,"BLDSF - 20 - 4056","Single Family Homes",10/21/2020,,338357,2763,"1628 SEASHORE AVE",CELINA,TX,75009,SWEETWATER,4,CONTRACTOR,,,,,,,,,,,"M/I HOMES",,,,,"M/I HOMES","405 STATE HIGHWAY 121 BYP STE A210",LEWISVILLE,TX,75067-8214,"(210) 546-2129",,"(210) 546-2196",,
TX,COLLIN,"BLDSF - 20 - 4057","Single Family Homes",10/19/2020,,464491,3793,"724 CORNER POST PATH",CELINA,TX,75009,"LIGHT FARMS",37,CONTRACTOR,,,,,,,,,,,"AMERICAN LEGEND HOMES",,,,,"AMERICAN LEGEND HOMES","2540 KING ARTHUR BLVD STE 200",LEWISVILLE,TX,75056-5833,"(972) 410-5701",http://www.amlegendhomes.com/,"(972) 410-5750",,
TX,COLLIN,"BLDSF - 20 - 4058","Single Family Homes",10/29/2020,,692389,5654,"3350 FULLER DR",CELINA,TX,75009,"LIGHT FARMS",18,CONTRACTOR,,,,,,,,,,,"SHADDOCK HOMES",,,,,"SHADDOCK HOMES","2400 DALLAS PKWY",PLANO,TX,75093-4370,"(469) 241-9581",http://www.shaddockhomes.com,,,
TX,COLLIN,"BLDSF - 20 - 4059","Single Family Homes",10/29/2020,,666060,5439,"3362 FULLER DR",CELINA,TX,75009,"LIGHT FARMS",15,CONTRACTOR,,,,,,,,,,,"SHADDOCK HOMES",,,,,"SHADDOCK HOMES","2400 DALLAS PKWY",PLANO,TX,75093-4370,"(469) 241-9581",http://www.shaddockhomes.com,,,
TX,COLLIN,"BLDSF - 20 - 4062","Single Family Homes",10/7/2020,,631281,5155,"2920 SERENITY WAY",CELINA,TX,75009,"WELLSPRING ESTATES",9,CONTRACTOR,,,,,,,,,,,"FIRST TEXAS HOMES",,,,,"FIRST TEXAS HOMES","500 CRESCENT CT STE 350",DALLAS,TX,75201-7854,"(214) 613-3400",,"(214) 432-0350",,
TX,COLLIN,"BLDSF - 20 - 4063","Single Family Homes",10/7/2020,,642425,5246,"2820 FOUNTAIN PARK DR",CELINA,TX,75009,"WELLSPRING ESTATES",9,CONTRACTOR,,,,,,,,,,,"FIRST TEXAS HOMES",,,,,"FIRST TEXAS HOMES","500 CRESCENT CT STE 350",DALLAS,TX,75201-7854,"(214) 613-3400",,"(214) 432-0350",,
TX,COLLIN,2009090140,"Single Family Homes",9/16/2020,,259000,3913,"19802 SOUTHERN STREAM DR",HOUSTON,TX,77356,MIRAMESA,,CONTRACTOR,,,,,,,,,,,"WESTIN HOMES",,,,,"WESTIN HOMES","1 SUGAR CREEK CENTER BLVD STE 600","SUGAR LAND",TX,77478-3787,"(281) 240-1551",http://www.westin-homes.com,,,
TX,COLLIN,"BLDSF - 20 - 4064","Single Family Homes",10/14/2020,,482982,3944,"2829 SERENITY WAY",CELINA,TX,75009,"WELLSPRING ESTATES",24,CONTRACTOR,,,,,,,,,,,"GRAND HOMES",,,,,"GRAND HOMES","15455 DALLAS PKWY STE 1000",ADDISON,TX,75001-6772,"(214) 750-6528",http://www.grandhomes.com/,"(214) 750-6849",,info@grandhomes.com
TX,COLLIN,"BLDSF - 20 - 4065","Single Family Homes",10/7/2020,,639119,5219,"2912 ADON SPRINGS LN",CELINA,TX,75009,"WELLSPRING ESTATES",2,CONTRACTOR,,,,,,,,,,,"GRAND HOMES",,,,,"GRAND HOMES","15455 DALLAS PKWY STE 1000",ADDISON,TX,75001-6772,"(214) 750-6528",http://www.grandhomes.com/,"(214) 750-6849",,info@grandhomes.com
TX,COLLIN,"BLDSF - 20 - 4070","Single Family Homes",10/7/2020,,594053,4851,"2820 RIVER BEND PL",CELINA,TX,75009,"WELLSPRING ESTATES",10,CONTRACTOR,,,,,,,,,,,"FIRST TEXAS HOMES",,,,,"FIRST TEXAS HOMES","500 CRESCENT CT STE 350",DALLAS,TX,75201-7854,"(214) 613-3400",,"(214) 432-0350",,
TX,COLLIN,"BLDSF - 20 - 4071","Single Family Homes",10/9/2020,,338969,2768,"805 CROMWELL DR",CELINA,TX,75009,"GLEN CROSSING",32,CONTRACTOR,,,,,,,,,,,"HIGHLAND HOMES",,,,,"HIGHLAND HOMES","5601 DEMOCRACY DR STE 300",PLANO,TX,75024-3674,"(972) 789-3500",,,,
TX,COLLIN,"BLDSF- 20 - 4086","Single Family Homes",10/14/2020,,1022540,8350,"4155 AMERICAN PHAROAH",CELINA,TX,75009,"MUSTANG LAKES",11,CONTRACTOR,,,,,,,,,,,"DAVE R WILLIAMS HOMES",,,,,"DAVE R WILLIAMS HOMES","2301 MEADOW VIEW DRIVE ",PROSPER,TX,75078,"(972) 346-2015",http://drwhomes.com/contact-us/,,"DAVE R WILLIAMS",davew@drwhomes.com
TX,COLLIN,"BLDSF - 20 - 4087","Single Family Homes",10/8/2020,,492167,4019,"4421 CANADIAN RIVER DR",CELINA,TX,75078,"CREEKS OF LEGACY",46,CONTRACTOR,,,,,,,,,,,"FIRST TEXAS HOMES",,,,,"FIRST TEXAS HOMES","500 CRESCENT CT STE 350",DALLAS,TX,75201-7854,"(214) 613-3400",,"(214) 432-0350",,
TX,COLLIN,"BLDSF - 20 - 4088","Single Family Homes",10/12/2020,,279576,2283,"3516 ALAMOSA RIVER DR",CELINA,TX,75078,"CREEKS OF LEGACY",4,CONTRACTOR,,,,,,,,,,,"KB HOME",,,,,"KB HOME","5625 RIDGE LAKE DR","FORT WORTH",TX,76244-5148,"(800) 713-1170",,,,
TX,COLLIN,"BLDSF - 20 - 4092","Single Family Homes",10/2/2020,,434488,3548,"1804 LITHGOW RD",CELINA,TX,75009,"GLEN CROSSING",4,CONTRACTOR,,,,,,,,,,,"HIGHLAND HOMES",,,,,"HIGHLAND HOMES","5601 DEMOCRACY DR STE 300",PLANO,TX,75024-3674,"(972) 789-3500",,,,
TX,COLLIN,"BLDSF - 20 - 4093","Single Family Homes",10/9/2020,,351705,2872,"801 CROMWELL DR",CELINA,TX,75009,"GLEN CROSSING",33,CONTRACTOR,,,,,,,,,,,"HIGHLAND HOMES",,,,,"HIGHLAND HOMES","5601 DEMOCRACY DR STE 300",PLANO,TX,75024-3674,"(972) 789-3500",,,,
TX,COLLIN,"BLDSF - 20 - 4094","Single Family Homes",10/9/2020,,406322,3318,"700 WYCLIFFE DR",CELINA,TX,75009,"GLEN CROSSING",17,CONTRACTOR,,,,,,,,,,,"HIGHLAND HOMES",,,,,"HIGHLAND HOMES","5601 DEMOCRACY DR STE 300",PLANO,TX,75024-3674,"(972) 789-3500",,,,
TX,COLLIN,"BLDSF - 20 - 4096","Single Family Homes",10/7/2020,,627975,5128,"2824 RIVER BEND PL",CELINA,TX,75009,"WELLSPRING ESTATES",9,CONTRACTOR,,,,,,,,,,,"FIRST TEXAS HOMES",,,,,"FIRST TEXAS HOMES","500 CRESCENT CT STE 350",DALLAS,TX,75201-7854,"(214) 613-3400",,"(214) 432-0350",,
TX,COLLIN,"BLDSF - 20 - 4099","Single Family Homes",10/19/2020,,449306,3669,"812 CROMWELL DR",CELINA,TX,75009,"GLEN CROSSING",4,CONTRACTOR,,,,,,,,,,,"HIGHLAND HOMES",,,,,"HIGHLAND HOMES","5601 DEMOCRACY DR STE 300",PLANO,TX,75024-3674,"(972) 789-3500",,,,
TX,COLLIN,"BLDSF - 20 - 4108","Single Family Homes",10/16/2020,,522782,4269,"4714 WHARTON AVE",CELINA,TX,76227,"SUTTON FIELDS",3,CONTRACTOR,,,,,,,,,,,"SANDLIN HOMES",,,,,"SANDLIN HOMES","5137 DAVIS BLVD","FORT WORTH",TX,76180-6873,"(817) 281-3509",,,,
TX,COLLIN,"BLDSF - 20 - 4110","Single Family Homes",10/19/2020,,292434,2388,"713 HALPIN AVE",CELINA,TX,75009,"LIGHT FARMS BRENHAM",,CONTRACTOR,,,,,,,,,,,"SHADDOCK HOMES",,,,,"SHADDOCK HOMES","2400 DALLAS PKWY",PLANO,TX,75093-4370,"(469) 241-9581",http://www.shaddockhomes.com,,,
TX,COLLIN,"BLDSF - 20 - 4111","Single Family Homes",10/12/2020,,503433,4111,"3313 IVYWOOD PL",CELINA,TX,75009,BLUEWOOD,3,CONTRACTOR,,,,,,,,,,,"FIRST TEXAS HOMES",,,,,"FIRST TEXAS HOMES","500 CRESCENT CT STE 350",DALLAS,TX,75201-7854,"(214) 613-3400",,"(214) 432-0350",,
TX,COLLIN,"BLDSF - 20 - 4122","Single Family Homes",10/16/2020,,713207,5824,"3358 BELLCREST",CELINA,TX,75009,"LIGHT FARMS",18,CONTRACTOR,,,,,,,,,,,"SHADDOCK HOMES",,,,,"SHADDOCK HOMES","2400 DALLAS PKWY",PLANO,TX,75093-4370,"(469) 241-9581",http://www.shaddockhomes.com,,,
TX,COLLIN,"BLDSF - 20 - 4129","Single Family Homes",10/15/2020,,352562,2879,"1914 RENWICK DR",CELINA,TX,75009,"GLEN CROSSING",47,CONTRACTOR,,,,,,,,,,,"HIGHLAND HOMES",,,,,"HIGHLAND HOMES","5601 DEMOCRACY DR STE 300",PLANO,TX,75024-3674,"(972) 789-3500",,,,
TX,COLLIN,"BLDSF - 20 - 4130","Single Family Homes",10/9/2020,,323172,2639,"728 CALVIN WAY",CELINA,TX,75009,"GLEN CROSSING",2,CONTRACTOR,,,,,,,,,,,"HIGHLAND HOMES",,,,,"HIGHLAND HOMES","5601 DEMOCRACY DR STE 300",PLANO,TX,75024-3674,"(972) 789-3500",,,,
TX,COLLIN,"BLDSF - 20 - 4131","Single Family Homes",10/29/2020,,744924,6083,"1525 LANGFORD LN",CELINA,TX,75009,"LIGHT FARMS",21,CONTRACTOR,,,,,,,,,,,"SHADDOCK HOMES",,,,,"SHADDOCK HOMES","2400 DALLAS PKWY",PLANO,TX,75093-4370,"(469) 241-9581",http://www.shaddockhomes.com,,,
TX,COLLIN,"BLDSF - 20 - 4132","Single Family Homes",10/9/2020,,429957,3511,"1708 RED ROSE TRL",CELINA,TX,75078,LILYANA,15,CONTRACTOR,,,,,,,,,,,"PERRY HOMES",,,,,"PERRY HOMES","2004 VENTURA DR STE 200",PLANO,TX,75093-2003,"(972) 964-7700",,,,
TX,COLLIN,"BLDSF - 20 - 4149","Single Family Homes",10/28/2020,,468042,3822,"17116 CLOVER DR",CELINA,TX,75009,"GREEN MEADOWS",8,CONTRACTOR,,,,,,,,,,,"PACESETTER HOMES ",,,,,"PACESETTER HOMES ","14875 DANEWAY DR",FRISCO,TX,75035-4819,"(214) 298-8350",,,,
TX,COLLIN,"BLDSF - 20 - 4150","Single Family Homes",10/13/2020,,351583,2871,"713 CORNER POST PATH",CELINA,TX,75009,"LIGHT FARMS",18,CONTRACTOR,,,,,,,,,,,"HIGHLAND HOMES",,,,,"HIGHLAND HOMES","5601 DEMOCRACY DR STE 300",PLANO,TX,75024-3674,"(972) 789-3500",,,,
TX,COLLIN,"BLDSF - 20 - 4160","Single Family Homes",10/30/2020,,539314,4404,"2817 YARMOUTH ST",CELINA,TX,75009,"CAMBRIDGE CROSSING",11,CONTRACTOR,,,,,,,,,,,"UNIONMAIN HOMES",,,,,"UNIONMAIN HOMES","5005 LBJ FREEWAY SUITE 350",DALLAS,TX,75244,"(972) 325-2770",https://unionmainhomes.com/,,,homes@unionmainhomes.com
TX,COLLIN,"BLDSF - 20 - 4162","Single Family Homes",10/22/2020,,302109,2467,"1521 WAYBACK DR",CELINA,TX,75009,SWEETWATER,8,CONTRACTOR,,,,,,,,,,,"TROPHY SIGNATURE HOMES",,,,,"TROPHY SIGNATURE HOMES","2805 DALLAS PKWY STE 400",PLANO,TX,75093-8722,"(469) 969-7339",,,,
TX,COLLIN,"BLDSF - 20 - 4163","Single Family Homes",10/16/2020,,347664,2839,"5921 PRIORY DR",CELINA,TX,76227,"SUTTON FIELDS",37,CONTRACTOR,,,,,,,,,,,"LENNAR HOMES",,,,,"LENNAR HOMES","1707 MARKET PL STE 250",IRVING,TX,75063-8050,"(469) 587-5200",http://www.lennar.com/,,,
TX,COLLIN,"BLDSF - 20 - 4170","Single Family Homes",10/22/2020,,328928,2686,"5909 PENSBY DR",CELINA,TX,76227,"SUTTON FIELDS",69,CONTRACTOR,,,,,,,,,,,"M/I HOMES",,,,,"M/I HOMES","405 STATE HIGHWAY 121 BYP STE A210",LEWISVILLE,TX,75067-8214,"(210) 546-2129",,"(210) 546-2196",,
TX,COLLIN,"BLDSF - 20 - 4173","Single Family Homes",10/16/2020,,412568,3369,"5908 HUMBER LN.",CELINA,TX,76227,"SUTTON FIELDS",6,CONTRACTOR,,,,,,,,,,,"SANDLIN HOMES",,,,,"SANDLIN HOMES","5137 DAVIS BLVD","FORT WORTH",TX,76180-6873,"(817) 281-3509",,,,
TX,COLLIN,"BLDSF - 20 - 4179","Single Family Homes",10/20/2020,,351583,2871,"2932 SALTWOOD CT",CELINA,TX,75009,"CAMBRIDGE CROSSING",16,CONTRACTOR,,,,,,,,,,,"HIGHLAND HOMES",,,,,"HIGHLAND HOMES","5601 DEMOCRACY DR STE 300",PLANO,TX,75024-3674,"(972) 789-3500",,,,
TX,COLLIN,"BLDSF - 20 - 4180","Single Family Homes",10/20/2020,,349991,2858,"3028 ECCLESTON ST",CELINA,TX,75009,"CAMBRIDGE CROSSING",6,CONTRACTOR,,,,,,,,,,,"HIGHLAND HOMES",,,,,"HIGHLAND HOMES","5601 DEMOCRACY DR STE 300",PLANO,TX,75024-3674,"(972) 789-3500",,,,
TX,COLLIN,"BLDSF - 20 - 4190","Single Family Homes",10/29/2020,,439509,3589,"3504 PRITCHARD RD",CELINA,TX,75009,"LIGHT FARMS BRENHAM",11,CONTRACTOR,,,,,,,,,,,"SHADDOCK HOMES",,,,,"SHADDOCK HOMES","2400 DALLAS PKWY",PLANO,TX,75093-4370,"(469) 241-9581",http://www.shaddockhomes.com,,,
TX,COLLIN,"BLDSF - 20 - 4191","Single Family Homes",10/19/2020,,429345,3506,"4104 INDIAN GRASS LN",CELINA,TX,75078,LILYANA,38,CONTRACTOR,,,,,,,,,,,"AMERICAN LEGEND HOMES",,,,,"AMERICAN LEGEND HOMES","2540 KING ARTHUR BLVD STE 200",LEWISVILLE,TX,75056-5833,"(972) 410-5701",http://www.amlegendhomes.com/,"(972) 410-5750",,
TX,COLLIN,"BLDSF - 20 - 4192","Single Family Homes",10/23/2020,,516291,4216,"3432 CHACON CREEK TRL",CELINA,TX,75078,"CREEKS OF LEGACY",9,CONTRACTOR,,,,,,,,,,,"TRENDMAKER HOMES",,,,,"TRENDMAKER HOMES","4835 LBJ FREEWAY SUITE 700",DALLAS,TX,75068,"(214) 765-0573",,,,
TX,COLLIN,"BLDSF - 20 - 4194","Single Family Homes",10/20/2020,,408037,3332,"3504 CHACON CREEK TRL",CELINA,TX,75078,"CREEKS OF LEGACY",8,CONTRACTOR,,,,,,,,,,,"TRENDMAKER HOMES",,,,,"TRENDMAKER HOMES","4835 LBJ FREEWAY SUITE 700",DALLAS,TX,75068,"(214) 765-0573",,,,
TX,COLLIN,"BLDSF - 20 - 4195","Single Family Homes",10/19/2020,,385504,2685,"1124 ROUNTREE CT",CELINA,TX,75009,"CHALK HILL",11,CONTRACTOR,,,,,,,,,,,"BEAZER HOMES ",,,,,"BEAZER HOMES ","1750 VALLEY VIEW LN STE 200",DALLAS,TX,75234-9010,"(972) 250-5517",http://www.beazer.com/,,,bret.kolbe@beazer.com
TX,COLLIN,"BLDSF - 20 - 4196","Single Family Homes",10/19/2020,,383790,3134,"1128 ROUNTREE CT.",CELINA,TX,75009,"CHALK HILL",12,CONTRACTOR,,,,,,,,,,,"BEAZER HOMES ",,,,,"BEAZER HOMES ","1750 VALLEY VIEW LN STE 200",DALLAS,TX,75234-9010,"(972) 250-5517",http://www.beazer.com/,,,bret.kolbe@beazer.com
TX,COLLIN,"BLDSF - 20 - 4197","Single Family Homes",10/22/2020,,241858,1975,"1301 JOHNSON DR",CELINA,TX,75009,"CHALK HILL",7,CONTRACTOR,,,,,,,,,,,"BEAZER HOMES ",,,,,"BEAZER HOMES ","1750 VALLEY VIEW LN STE 200",DALLAS,TX,75234-9010,"(972) 250-5517",http://www.beazer.com/,,,bret.kolbe@beazer.com
TX,COLLIN,"BLDSF - 20 - 4198","Single Family Homes",10/20/2020,,506739,4138,"3605 DICKINSON BAYOU CT",CELINA,TX,75078,"CREEKS OF LEGACY",29,CONTRACTOR,,,,,,,,,,,"TRENDMAKER HOMES",,,,,"TRENDMAKER HOMES","4835 LBJ FREEWAY SUITE 700",DALLAS,TX,75068,"(214) 765-0573",,,,
TX,COLLIN,"BLDSF - 20 - 4199","Single Family Homes",10/19/2020,,355256,2901,"1225 JOHNSON DR",CELINA,TX,75009,"CHALK HILL",6,CONTRACTOR,,,,,,,,,,,"BEAZER HOMES ",,,,,"BEAZER HOMES ","1750 VALLEY VIEW LN STE 200",DALLAS,TX,75234-9010,"(972) 250-5517",http://www.beazer.com/,,,bret.kolbe@beazer.com
TX,COLLIN,"BLDSF - 20 - 4200","Single Family Homes",10/22/2020,,326478,2666,"1304 HUTCHINGS CT",CELINA,TX,75009,"CHALK HILL",19,CONTRACTOR,,,,,,,,,,,"BEAZER HOMES ",,,,,"BEAZER HOMES ","1750 VALLEY VIEW LN STE 200",DALLAS,TX,75234-9010,"(972) 250-5517",http://www.beazer.com/,,,bret.kolbe@beazer.com
TX,COLLIN,"BLDSF - 20 - 4201","Single Family Homes",10/19/2020,,269902,2204,"1308 HUTCHINGS CT",CELINA,TX,75009,"CHALK HILL",18,CONTRACTOR,,,,,,,,,,,"BEAZER HOMES ",,,,,"BEAZER HOMES ","1750 VALLEY VIEW LN STE 200",DALLAS,TX,75234-9010,"(972) 250-5517",http://www.beazer.com/,,,bret.kolbe@beazer.com
TX,COLLIN,"BLDSF - 20 - 4218","Single Family Homes",10/23/2020,,327825,2677,"721 WYCLIFFE DR",CELINA,TX,75009,"GLEN CROSSING",13,CONTRACTOR,,,,,,,,,,,"HIGHLAND HOMES",,,,,"HIGHLAND HOMES","5601 DEMOCRACY DR STE 300",PLANO,TX,75024-3674,"(972) 789-3500",,,,
TX,COLLIN,"BLDSF - 20 - 4233","Single Family Homes",10/20/2020,,414894,3388,"6023 LIVERPOOL ST",CELINA,TX,76227,"SUTTON FIELDS",47,CONTRACTOR,,,,,,,,,,,"SANDLIN HOMES",,,,,"SANDLIN HOMES","5137 DAVIS BLVD","FORT WORTH",TX,76180-6873,"(817) 281-3509",,,,
TX,COLLIN,"BLDSF - 20 - 4234","Single Family Homes",10/23/2020,,340806,2783,"5937 PRIORY DR",CELINA,TX,76227,"SUTTON FIELDS",41,CONTRACTOR,,,,,,,,,,,"LENNAR HOMES",,,,,"LENNAR HOMES","1707 MARKET PL STE 250",IRVING,TX,75063-8050,"(469) 587-5200",http://www.lennar.com/,,,
TX,COLLIN,"BLDSF - 20 - 4240","Single Family Homes",10/26/2020,,455796,3722,"1509 PRINCETON DR",CELINA,TX,75009,"THE HOMEPLACE AT COLUMNS",18,CONTRACTOR,,,,,,,,,,,"DR HORTON",,,,,"DR HORTON","6751 NORTH FWY","FT WORTH",TX,76131-2802,"(817) 230-0800",,,,
TX,COLLIN,"BLDSF - 20 - 4241","Single Family Homes",10/27/2020,,325621,2659,"1533 WAYBACK DR",CELINA,TX,75009,SWEETWATER,5,CONTRACTOR,,,,,,,,,,,"TROPHY SIGNATURE HOMES",,,,,"TROPHY SIGNATURE HOMES","2805 DALLAS PKWY STE 400",PLANO,TX,75093-8722,"(469) 969-7339",,,,
TX,COLLIN,"BLDSF - 20 - 4243","Single Family Homes",10/22/2020,,311293,2542,"1545 WAYBACK DR",CELINA,TX,75009,SWEETWATER,2,CONTRACTOR,,,,,,,,,,,"TROPHY SIGNATURE HOMES",,,,,"TROPHY SIGNATURE HOMES","2805 DALLAS PKWY STE 400",PLANO,TX,75093-8722,"(469) 969-7339",,,,
TX,COLLIN,"BLDSF - 20 - 4245","Single Family Homes",10/22/2020,,320110,2614,"1618 WAYBACK DR",CELINA,TX,75009,SWEETWATER,21,CONTRACTOR,,,,,,,,,,,"TROPHY SIGNATURE HOMES",,,,,"TROPHY SIGNATURE HOMES","2805 DALLAS PKWY STE 400",PLANO,TX,75093-8722,"(469) 969-7339",,,,
TX,COLLIN,"BLDSF - 20 - 4246","Single Family Homes",10/23/2020,,570174,4656,"3301 AUSTIN BAYOU TRL",CELINA,TX,75078,"CREEKS OF LEGACY",7,CONTRACTOR,,,,,,,,,,,"FIRST TEXAS HOMES",,,,,"FIRST TEXAS HOMES","500 CRESCENT CT STE 350",DALLAS,TX,75201-7854,"(214) 613-3400",,"(214) 432-0350",,
TX,COLLIN,"BLDSF - 20 - 4247","Single Family Homes",10/23/2020,,634220,5179,"3024 BEDIAS CREEK DR",CELINA,TX,75078,"CREEKS OF LEGACY",2,CONTRACTOR,,,,,,,,,,,"FIRST TEXAS HOMES",,,,,"FIRST TEXAS HOMES","500 CRESCENT CT STE 350",DALLAS,TX,75201-7854,"(214) 613-3400",,"(214) 432-0350",,
TX,COLLIN,"BLDSF - 20 - 4248","Single Family Homes",10/23/2020,,553029,4516,"4416 CANADIAN RIVER DR",CELINA,TX,75078,"CREEKS OF LEGACY",36,CONTRACTOR,,,,,,,,,,,"FIRST TEXAS HOMES",,,,,"FIRST TEXAS HOMES","500 CRESCENT CT STE 350",DALLAS,TX,75201-7854,"(214) 613-3400",,"(214) 432-0350",,
TX,COLLIN,"BLDSF - 20 - 4249","Single Family Homes",10/26/2020,,602993,602993,"4412 MILL POND DR",CELINA,TX,75009,"WELLSPRING ESTATES",4,CONTRACTOR,,,,,,,,,,,"FIRST TEXAS HOMES",,,,,"FIRST TEXAS HOMES","500 CRESCENT CT STE 350",DALLAS,TX,75201-7854,"(214) 613-3400",,"(214) 432-0350",,
TX,COLLIN,"BLDSF - 20 - 4250","Single Family Homes",10/29/2020,,572623,4676,"6000 OAKMERE LN",CELINA,TX,76227,"SUTTON FIELDS",31,CONTRACTOR,,,,,,,,,,,"FIRST TEXAS HOMES",,,,,"FIRST TEXAS HOMES","500 CRESCENT CT STE 350",DALLAS,TX,75201-7854,"(214) 613-3400",,"(214) 432-0350",,
TX,COLLIN,"BLDSF - 20 - 4254","Single Family Homes",10/29/2020,,635567,5190,"6039 LIVERPOOL ST",CELINA,TX,76227,"SUTTON FIELDS",51,CONTRACTOR,,,,,,,,,,,"FIRST TEXAS HOMES",,,,,"FIRST TEXAS HOMES","500 CRESCENT CT STE 350",DALLAS,TX,75201-7854,"(214) 613-3400",,"(214) 432-0350",,
TX,COLLIN,"BLDSF - 20 - 4258","Single Family Homes",10/23/2020,,360522,2944,"5929 PRIORY DR",CELINA,TX,76227,"SUTTON FIELDS",39,CONTRACTOR,,,,,,,,,,,"LENNAR HOMES",,,,,"LENNAR HOMES","1707 MARKET PL STE 250",IRVING,TX,75063-8050,"(469) 587-5200",http://www.lennar.com/,,,
TX,COLLIN,"BLDSF - 20 - 4259","Single Family Homes",10/23/2020,,298190,2435,"5933 PRIORY DR",CELINA,TX,76227,"SUTTON FIELDS",40,CONTRACTOR,,,,,,,,,,,"LENNAR HOMES",,,,,"LENNAR HOMES","1707 MARKET PL STE 250",IRVING,TX,75063-8050,"(469) 587-5200",http://www.lennar.com/,,,
TX,COLLIN,"BLDSF - 20 - 4263","Single Family Homes",10/23/2020,,311661,2545,"5932 PRIORY DR",CELINA,TX,76227,"SUTTON FIELDS",5,CONTRACTOR,,,,,,,,,,,"LENNAR HOMES",,,,,"LENNAR HOMES","1707 MARKET PL STE 250",IRVING,TX,75063-8050,"(469) 587-5200",http://www.lennar.com/,,,
TX,COLLIN,"BLDSF - 20 - 4265","Single Family Homes",10/23/2020,,352685,2880,"5936 PRIORY DR",CELINA,TX,76227,"SUTTON FIELDS",4,CONTRACTOR,,,,,,,,,,,"LENNAR HOMES",,,,,"LENNAR HOMES","1707 MARKET PL STE 250",IRVING,TX,75063-8050,"(469) 587-5200",http://www.lennar.com/,,,
TX,COLLIN,"BLDSF - 20 - 4266","Single Family Homes",10/29/2020,,572623,4676,"5817 PAINSWICK DR",CELINA,TX,76227,"SUTTON FIELDS",11,CONTRACTOR,,,,,,,,,,,"FIRST TEXAS HOMES",,,,,"FIRST TEXAS HOMES","500 CRESCENT CT STE 350",DALLAS,TX,75201-7854,"(214) 613-3400",,"(214) 432-0350",,
TX,COLLIN,"BLDSF - 20 - 4267","Single Family Homes",10/28/2020,,289863,2367,"5940 PRIORY DR",CELINA,TX,76227,"SUTTON FIELDS",3,CONTRACTOR,,,,,,,,,,,"LENNAR HOMES",,,,,"LENNAR HOMES","1707 MARKET PL STE 250",IRVING,TX,75063-8050,"(469) 587-5200",http://www.lennar.com/,,,
TX,COLLIN,"BLDSF - 20 - 4268","Single Family Homes",10/27/2020,,351583,2871,"724 CALVIN WAY",CELINA,TX,75009,"GLEN CROSSING",3,CONTRACTOR,,,,,,,,,,,"HIGHLAND HOMES",,,,,"HIGHLAND HOMES","5601 DEMOCRACY DR STE 300",PLANO,TX,75024-3674,"(972) 789-3500",,,,
TX,COLLIN,"BLDSF - 20 - 4270","Single Family Homes",10/23/2020,,347664,2839,"5944 PRIORY DR",CELINA,TX,76227,"SUTTON FIELDS",2,CONTRACTOR,,,,,,,,,,,"LENNAR HOMES",,,,,"LENNAR HOMES","1707 MARKET PL STE 250",IRVING,TX,75063-8050,"(469) 587-5200",http://www.lennar.com/,,,
TX,COLLIN,"BLDSF - 20 - 4271","Single Family Homes",10/23/2020,,311661,2545,"5908 PENSBY DR",CELINA,TX,76227,"SUTTON FIELDS",11,CONTRACTOR,,,,,,,,,,,"LENNAR HOMES",,,,,"LENNAR HOMES","1707 MARKET PL STE 250",IRVING,TX,75063-8050,"(469) 587-5200",http://www.lennar.com/,,,
TX,COLLIN,"BLDSF - 20 - 4272","Single Family Homes",10/30/2020,,472573,3859,"2801 YARMOUTH ST",CELINA,TX,75009,"CAMBRIDGE CROSSING",7,CONTRACTOR,,,,,,,,,,,"UNIONMAIN HOMES",,,,,"UNIONMAIN HOMES","5005 LBJ FREEWAY SUITE 350",DALLAS,TX,75244,"(972) 325-2770",https://unionmainhomes.com/,,,homes@unionmainhomes.com
TX,COLLIN,"BLDSF - 20 - 4274","Single Family Homes",10/28/2020,,311661,2545,"5925 PRIORY DR",CELINA,TX,76227,"SUTTON FIELDS",38,CONTRACTOR,,,,,,,,,,,"LENNAR HOMES",,,,,"LENNAR HOMES","1707 MARKET PL STE 250",IRVING,TX,75063-8050,"(469) 587-5200",http://www.lennar.com/,,,
TX,COLLIN,"BLDSF - 20 - 4276","Single Family Homes",10/26/2020,,254594,2079,"2824 GREENE ST",CELINA,TX,75009,"THE HOMEPLACE AT COLUMNS",25,CONTRACTOR,,,,,,,,,,,"DR HORTON",,,,,"DR HORTON","6751 NORTH FWY","FT WORTH",TX,76131-2802,"(817) 230-0800",,,,
TX,COLLIN,"BLDSF - 20 - 4287","Single Family Homes",10/30/2020,,455919,3723,"3248 ALEXANDRA LN",CELINA,TX,75009,"MUSTANG LAKES",30,CONTRACTOR,,,,,,,,,,,"HIGHLAND HOMES",,,,,"HIGHLAND HOMES","5601 DEMOCRACY DR STE 300",PLANO,TX,75024-3674,"(972) 789-3500",,,,
TX,COLLIN,"BLDSF - 20 - 4289","Single Family Homes",10/30/2020,,301864,2465,"2926 CULVER AVE",CELINA,TX,75009,SWEETWATER,2,CONTRACTOR,,,,,,,,,,,"M/I HOMES",,,,,"M/I HOMES","405 STATE HIGHWAY 121 BYP STE A210",LEWISVILLE,TX,75067-8214,"(210) 546-2129",,"(210) 546-2196",,
TX,COLLIN,"BLDSF - 20 - 4290","Single Family Homes",10/30/2020,,427140,3488,"1821 PECOS DR",CELINA,TX,75009,GREENWAY,36,CONTRACTOR,,,,,,,,,,,"M/I HOMES",,,,,"M/I HOMES","405 STATE HIGHWAY 121 BYP STE A210",LEWISVILLE,TX,75067-8214,"(210) 546-2129",,"(210) 546-2196",,
TX,COLLIN,"BLDSF - 20 - 4291","Single Family Homes",10/30/2020,,475145,3880,"1812 PECOS DR",CELINA,TX,75009,GREENWAY,9,CONTRACTOR,,,,,,,,,,,"M/I HOMES",,,,,"M/I HOMES","405 STATE HIGHWAY 121 BYP STE A210",LEWISVILLE,TX,75067-8214,"(210) 546-2129",,"(210) 546-2196",,
TX,COLLIN,"BLDSF - 20 - 4294","Single Family Homes",10/30/2020,,429712,3509,"1308 ALAN DR",CELINA,TX,75009,GREENWAY,9,CONTRACTOR,,,,,,,,,,,"M/I HOMES",,,,,"M/I HOMES","405 STATE HIGHWAY 121 BYP STE A210",LEWISVILLE,TX,75067-8214,"(210) 546-2129",,"(210) 546-2196",,
TX,COLLIN,"BLDSF - 20 - 4319","Single Family Homes",10/23/2020,,555724,4538,"6020 LIVERPOOL ST",CELINA,TX,76227,"SUTTON FIELDS",8,CONTRACTOR,,,,,,,,,,,"SANDLIN HOMES",,,,,"SANDLIN HOMES","5137 DAVIS BLVD","FORT WORTH",TX,76180-6873,"(817) 281-3509",,,,
TX,COLLIN,"BLDSF - 20 - 4325","Single Family Homes",10/30/2020,,356971,2915,"2916 CULVER AVE",CELINA,TX,75009,SWEETWATER,4,CONTRACTOR,,,,,,,,,,,"M/I HOMES",,,,,"M/I HOMES","405 STATE HIGHWAY 121 BYP STE A210",LEWISVILLE,TX,75067-8214,"(210) 546-2129",,"(210) 546-2196",,
TX,KAUFMAN,2020-018582,"Single Family Homes",10/5/2020,,300000,,"105 NOB HILL CIR",COMBINE,TX,75159,,,CONTRACTOR,,,,,,,,,,,"PARKS CONSTRUCTION",,,,,"PARKS CONSTRUCTION","PO BOX 886",CRANDALL,TX,75114-0886,"(972) 427-6881",http://www.parksbuilder.com/,"(972) 472-3888",,
TX,DALLAS,20-002739,"Single Family Homes",9/21/2020,,140840,,"9325 LAMAR ST",ROWLETT,TX,75088,,,CONTRACTOR,,,,,,,,,,,"MULLINS CONCRETE CONSTRUCTION",,,,,"MULLINS CONCRETE CONSTRUCTION","411 S BERRY ST",BURKBURNETT,TX,76354-2482,"(940) 569-3716",,,"CHRISTOPHER MULLINS",
TX,DALLAS,20-002875,"Single Family Homes",9/11/2020,,150850,,"6312 TREZEVANT ST",ROWLETT,TX,75089,,,CONTRACTOR,,,,,,,,,,,"MULLINS CONCRETE CONSTRUCTION",,,,,"MULLINS CONCRETE CONSTRUCTION","411 S BERRY ST",BURKBURNETT,TX,76354-2482,"(940) 569-3716",,,"CHRISTOPHER MULLINS",
TX,DALLAS,20-002828,"Single Family Homes",9/10/2020,,165550,,"6709 MCDONOUGH DR",ROWLETT,TX,75089,,,CONTRACTOR,,,,,,,,,,,"MULLINS CONCRETE CONSTRUCTION",,,,,"MULLINS CONCRETE CONSTRUCTION","411 S BERRY ST",BURKBURNETT,TX,76354-2482,"(940) 569-3716",,,"CHRISTOPHER MULLINS",
TX,DALLAS,20-003004,"Single Family Homes",9/28/2020,,176750,,"7833 CHAPMAN CIR",ROWLETT,TX,75089,,,CONTRACTOR,,,,,,,,,,,"MERITAGE HOMES",,,,,"MERITAGE HOMES","8840 CYPRESS WATERS BLVD #100",DALLAS,TX,75063,"(214) 869-8023",,,,
TX,DALLAS,20-002656,"Single Family Homes",9/3/2020,,193550,,"7508 WOODSIDE RD",ROWLETT,TX,75088,,,CONTRACTOR,,,,,,,,,,,"ROBRYAN CONSTRUCTION",,,,,"ROBRYAN CONSTRUCTION","3500 E T C JESTER BLVD STE E",HOUSTON,TX,77018-6020,"(281) 477-0647",http://www.robryanconstruction.com/,,info@robryanconstruction.com,
TX,DALLAS,20-003003,"Single Family Homes",9/23/2020,,205800,,"7829 CHAPMAN CIR",ROWLETT,TX,75089,,,CONTRACTOR,,,,,,,,,,,"MERITAGE HOMES",,,,,"MERITAGE HOMES","8840 CYPRESS WATERS BLVD #100",DALLAS,TX,75063,"(214) 869-8023",,,,
TX,DALLAS,20-003002,"Single Family Homes",9/30/2020,,211400,2587,"7825 CHAPMAN CIR",ROWLETT,TX,75089,,,CONTRACTOR,,,,,,,,,,,"MERITAGE HOMES",,,,,"MERITAGE HOMES","8840 CYPRESS WATERS BLVD #100",DALLAS,TX,75063,"(214) 869-8023",,,,
TX,DALLAS,20-002657,"Single Family Homes",9/3/2020,,212590,,"6840 ELM ST",ROWLETT,TX,75089,,,CONTRACTOR,,,,,,,,,,,"ROBRYAN CONSTRUCTION",,,,,"ROBRYAN CONSTRUCTION","3500 E T C JESTER BLVD STE E",HOUSTON,TX,77018-6020,"(281) 477-0647",http://www.robryanconstruction.com/,,info@robryanconstruction.com,
TX,DALLAS,20-003015,"Single Family Homes",9/29/2020,,212938,,"7837 CHAPMAN CIR",ROWLETT,TX,75089,,,CONTRACTOR,,,,,,,,,,,"MERITAGE HOMES",,,,,"MERITAGE HOMES","8840 CYPRESS WATERS BLVD #100",DALLAS,TX,75063,"(214) 869-8023",,,,
TX,DALLAS,20-003014,"Single Family Homes",9/23/2020,,213150,,"7821 CHAPMAN CIR",ROWLETT,TX,75089,,,CONTRACTOR,,,,,,,,,,,"MERITAGE HOMES",,,,,"MERITAGE HOMES","8840 CYPRESS WATERS BLVD #100",DALLAS,TX,75063,"(214) 869-8023",,,,
TX,DALLAS,20-002813,"Single Family Homes",9/10/2020,,241220,,"7501 LARSON LN",ROWLETT,TX,75089,,,CONTRACTOR,,,,,,,,,,,"MERITAGE HOMES",,,,,"MERITAGE HOMES","8840 CYPRESS WATERS BLVD #100",DALLAS,TX,75063,"(214) 869-8023",,,,
TX,DALLAS,20-002978,"Single Family Homes",9/24/2020,,251370,,"7521 LARSON LN",ROWLETT,TX,75089,,,CONTRACTOR,,,,,,,,,,,"MERITAGE HOMES",,,,,"MERITAGE HOMES","8840 CYPRESS WATERS BLVD #100",DALLAS,TX,75063,"(214) 869-8023",,,,
TX,DALLAS,20-001792,"Single Family Homes",9/3/2020,,255000,,"8315 ROAN MEWS",ROWLETT,TX,75089,,,CONTRACTOR,,,,,,,,,,,"LANDON HOMES",,,,,"LANDON HOMES","4050 W PARK BLVD",PLANO,TX,75093-3839,"(214) 707-0347",,"(214) 619-1098","TANYA SMITH",
TX,DALLAS,20-002854,"Single Family Homes",9/18/2020,,265000,,"8327 ROAN MEWS",ROWLETT,TX,75089,,,CONTRACTOR,,,,,,,,,,,"LANDON HOMES",,,,,"LANDON HOMES","4050 W PARK BLVD",PLANO,TX,75093-3839,"(214) 707-0347",,"(214) 619-1098","TANYA SMITH",
TX,DALLAS,20-002701,"Single Family Homes",9/17/2020,,268000,,"8429 ROYAL STAR RD",ROWLETT,TX,75089,,,CONTRACTOR,,,,,,,,,,,"LANDON HOMES",,,,,"LANDON HOMES","4050 W PARK BLVD",PLANO,TX,75093-3839,"(214) 707-0347",,"(214) 619-1098","TANYA SMITH",
TX,DALLAS,20-002702,"Single Family Homes",9/3/2020,,268000,,"3508 BLANCHARD RD",ROWLETT,TX,75089,,,CONTRACTOR,,,,,,,,,,,"LANDON HOMES",,,,,"LANDON HOMES","4050 W PARK BLVD",PLANO,TX,75093-3839,"(214) 707-0347",,"(214) 619-1098","TANYA SMITH",
TX,DALLAS,20-002705,"Single Family Homes",9/3/2020,,283000,,"3548 BLANCHARD RD",ROWLETT,TX,75089,,,CONTRACTOR,,,,,,,,,,,"LANDON HOMES",,,,,"LANDON HOMES","4050 W PARK BLVD",PLANO,TX,75093-3839,"(214) 707-0347",,"(214) 619-1098","TANYA SMITH",
TX,DALLAS,20-003052,"Single Family Homes",9/25/2020,,288000,,"8317 ROYAL STAR RD",ROWLETT,TX,75089,,,CONTRACTOR,,,,,,,,,,,"LANDON HOMES",,,,,"LANDON HOMES","4050 W PARK BLVD",PLANO,TX,75093-3839,"(214) 707-0347",,"(214) 619-1098","TANYA SMITH",
TX,DALLAS,20-002814,"Single Family Homes",9/10/2020,,301070,,"7505 LARSON LN",ROWLETT,TX,75088,,,CONTRACTOR,,,,,,,,,,,"MERITAGE HOMES",,,,,"MERITAGE HOMES","8840 CYPRESS WATERS BLVD #100",DALLAS,TX,75063,"(214) 869-8023",,,,
TX,DALLAS,20-002609,"Single Family Homes",9/3/2020,,303000,,"8323 ROAN MEWS",ROWLETT,TX,75089,,,CONTRACTOR,,,,,,,,,,,"LANDON HOMES",,,,,"LANDON HOMES","4050 W PARK BLVD",PLANO,TX,75093-3839,"(214) 707-0347",,"(214) 619-1098","TANYA SMITH",
TX,DALLAS,20-002692,"Single Family Homes",9/2/2020,,325000,,"3532 BLANCHARD RD",ROWLETT,TX,75089,,,CONTRACTOR,,,,,,,,,,,"LANDON HOMES",,,,,"LANDON HOMES","4050 W PARK BLVD",PLANO,TX,75093-3839,"(214) 707-0347",,"(214) 619-1098","TANYA SMITH",
TX,DALLAS,20-002706,"Single Family Homes",9/3/2020,,330000,,"8406 PADDOCK PL",ROWLETT,TX,75089,,,CONTRACTOR,,,,,,,,,,,"LANDON HOMES",,,,,"LANDON HOMES","4050 W PARK BLVD",PLANO,TX,75093-3839,"(214) 707-0347",,"(214) 619-1098","TANYA SMITH",
TX,DALLAS,20-001595,"Single Family Homes",9/24/2020,,335000,,"8402 PADDOCK PL",ROWLETT,TX,75089,,,CONTRACTOR,,,,,,,,,,,"LANDON HOMES",,,,,"LANDON HOMES","4050 W PARK BLVD",PLANO,TX,75093-3839,"(214) 707-0347",,"(214) 619-1098","TANYA SMITH",
TX,DALLAS,20-001759,"Single Family Homes",9/25/2020,,347900,2587,"7623 CORONADO DR",ROWLETT,TX,75088,,,CONTRACTOR,,,,,,,,,,,"K HOVNANIAN HOMES",,,,,"K HOVNANIAN HOMES","5808 W PLANO PKWY",PLANO,TX,75093-4636,"(469) 737-1400",,,,
TX,DALLAS,20-002970,"Single Family Homes",9/25/2020,,399900,,"7615 CORONADO DR",ROWLETT,TX,75088,,,CONTRACTOR,,,,,,,,,,,"K HOVNANIAN HOMES",,,,,"K HOVNANIAN HOMES","5808 W PLANO PKWY",PLANO,TX,75093-4636,"(469) 737-1400",,,,
TX,DALLAS,20-003009,"Single Family Homes",9/25/2020,,399900,,"7601 REDONDO DR",ROWLETT,TX,75088,,,CONTRACTOR,,,,,,,,,,,"K HOVNANIAN HOMES",,,,,"K HOVNANIAN HOMES","5808 W PLANO PKWY",PLANO,TX,75093-4636,"(469) 737-1400",,,,
TX,COLLIN,"BLD20-08489 ","Warehouse & Manufacturing",10/15/2020,"Finish Out",49000,,"1701 10TH ST # 200",PLANO,TX,75074,,,CONTRACTOR,,,,,,,,,,,"SHAN DONG CONSTRUCTION",,,,,"SHAN DONG CONSTRUCTION","512 ROYAL CREST DR",RICHARDSON,TX,75081-3419,"(972) 680-8361",,,"GUANG-LIN FANG",
TX,TARRANT,PB20-12286,"Warehouse & Manufacturing",10/1/2020,Renovation,5333021,10790,"6201 SOUTH FWY","FORT WORTH",TX,76134,,,CONTRACTOR,,,,,,,,,,,"EWING COLE",,,,,"EWING COLE","100 NORTH 6TH STREET",PHILADELPHIA,PA,19106,"(215) 923-2020",,,,
TX,DALLAS,20-3290,"Warehouse & Manufacturing",9/10/2020,,13000000,136216,"2910 TELECOM PKWY",RICHARDSON,TX,75081,,,CONTRACTOR,,,,,,,,,,,"STRUCTURETONE SOUTHWEST",,,,,"STRUCTURETONE SOUTHWEST","3333 WELBORN ST STE 200",DALLAS,TX,75219-5141,"(214) 525-5147",,,"JOE CRIBBIN",joseph.cribbin@structuretone.com
TX,DALLAS,20-4632,"Warehouse & Manufacturing",9/30/2020,,77000,,"401 N BOWSER RD",RICHARDSON,TX,75081,,,CONTRACTOR,,,,,,,,,,,"VALLEY RIDGE ROOFING AND CONSTRUCTION",,,,,"VALLEY RIDGE ROOFING AND CONSTRUCTION","3305 LONG PRAIRIE RD STE 160","FLOWER MOUND",TX,75022-2775,"(972) 355-1400",http://www.valleyridgeroofingoftexas.com/,"(972) 355-1443",,
TX,DALLAS,20-2227,"Warehouse & Manufacturing",9/1/2020,,60000,1470,"1706 DUKE DR",RICHARDSON,TX,75081,,,CONTRACTOR,,,,,,,,,,,"BLACKMON MOORING",,,,,"BLACKMON MOORING","4808 PERRIN CRK STE 500","SAN ANTONIO",TX,78217-3746,"(210) 284-6174",,"(817) 334-3411",,
TX,DALLAS,20-2821,"Warehouse & Manufacturing",9/1/2020,,740000000,1024661,"300 W RENNER RD",RICHARDSON,TX,75081,,,CONTRACTOR,,,,,,,,,,,"AUSTIN COMMERCIAL",,,,,"AUSTIN COMMERCIAL","3535 TRAVIS ST",DALLAS,TX,75204-1448,"(214) 443-5700",,,,
