state,county,permno,ptype,pdate,pdescription,jvalue,jsqfeet,jaddr,jcity,jstate,jzip,jsubdiv,jlotno,aname,aaddr,acity,astate,azip,aphone,atype,aurl,afax,aprimarycontact,aemail,bldcode,units,bldgs,ctype,legal,contractor,caddress,ccity,cstate,czip,cphone,curl,cfax,cprimarycontact,cemail
TX,DALLAS,2101041015,"Auto Sales & Services",1/4/2021,Addition,35000,5000,"10720 N CENTRAL EXPY",DALLAS,TX,75231,,,CONTRACTOR,,,,,,,,,,,"EQUIPMENT SOLUTIONS",,,,,"EQUIPMENT SOLUTIONS","109 WATERFORD LN",GEORGETOWN,TX,78628,"(512) 244-1258",,,,
TX,TARRANT,"2020 123063 000 00 CP","Auto Sales & Services",12/11/2020,Renovation,48500,50,"1212 E DIVISION ST",ARLINGTON,TX,76011,,,CONTRACTOR,,,,,,,,,,,"NICOSIA CONTRACTING INTERNATIONAL",,,,,"NICOSIA CONTRACTING INTERNATIONAL","1706 NE 10TH TERRACE # A","CAPE CORAL",FL,33909,"(239) 458-8181",,,,
TX,TARRANT,"20 - 2152","Auto Sales & Services",12/1/2020,,413000,,"5160 BELKNAP ST","HALTOM CITY",TX,76036,,,CONTRACTOR,,,,,,,,,,,"RON SPARKS",,,,,"RON SPARKS","10345 WALNUT LN",FORNEY,TX,75126-7447,"(972) 552-9475",,,,
TX,TARRANT,21-1280,"Churches & Other Religious",12/17/2020,,,60000,"7561 BOULEVARD 26","NORTH RICHLAND HILLS",TX,76180,,,CONTRACTOR,,,,,,,,,,,"MCGILL JR ROOFING",,,,,"MCGILL JR ROOFING","21847 EAST 430 ROAD",CLAREMORE,OK,74017,"(918) 341-5692",,,,
TX,TARRANT,PB20-17286,"Duplex, Triplex, & Fourplex",11/23/2020,,270382,3038,"3159 FRANCIS DR","FORT WORTH",TX,76116,,,CONTRACTOR,,,,,,,,,,,"FIRST AMERICAN BUILDERS",,,,,"FIRST AMERICAN BUILDERS","221 BEDFORD RD STE 320",BEDFORD,TX,76022-6289,"(817) 229-8075",,,,
TX,TARRANT,20-0008,"Educational Institution",12/9/2020,,1800000,2566,"800 N WHITE CHAPEL BLVD",SOUTHLAKE,TX,76262,,,CONTRACTOR,,,,,,,,,,,"REEDER GENERAL CONTRACTORS",,,,,"REEDER GENERAL CONTRACTORS","3005 ALTA MERE DR","FORT WORTH",TX,76116-5202,"(817) 439-2022",,,,
TX,TARRANT,"2020 124767 000 00 CP","Hospital & Other Medical",12/29/2020,Renovation,44430,1481,"1900 BALLPARK WAY",ARLINGTON,TX,76006,,,CONTRACTOR,,,,,,,,,,,"OAKHOLLOW GROUP",,,,,"OAKHOLLOW GROUP","2500 NE GREEN OAKS BLVD",ARLINGTON,TX,76006-3000,"(817) 395-0111",,,,
TX,TARRANT,"2020 124284 000 00 CP","Hospital & Other Medical",12/28/2020,"Finish Out",65000,2160,"4224 PARK SPRINGS BOULEVARD",ARLINGTON,TX,76016,,,CONTRACTOR,,,,,,,,,,,"TAK ENTERPRISES",,,,,"TAK ENTERPRISES","4204 SW GREEN OAKS BLVD STE 120",ARLINGTON,TX,76017-4159,"(817) 399-8887",,,,
TX,TARRANT,"2020 043227 000 00 CP","Hospital & Other Medical",12/17/2020,Renovation,215000,9284,"5901 S COOPER ST",ARLINGTON,TX,76017,,,CONTRACTOR,,,,,,,,,,,"MADINA CONSTRUCTION",,,,,"MADINA CONSTRUCTION","9702, BROCKBANK, SUITE 130",DALLAS,TX,75220,"(214) 566-2460",https://madinaconstruction.com/,"(214) 774-2318",,madinaconstructionllc@yahoo.com
TX,TARRANT,"COMA - 20 - 3810","Hospital & Other Medical",12/18/2020,"Finish Out",400000,4104,"1000 W GLADE RD # 300",GRAPEVINE,TX,76051,,,CONTRACTOR,,,,,,,,,,,"HIGHLAND VILLAGE ELECTRIC",,,,,"HIGHLAND VILLAGE ELECTRIC","1622 RENO RUN",LEWISVILLE,TX,75077-7522,"(214) 560-6463",,,,
TX,TARRANT,"COMA - 20 - 3968","Hospital & Other Medical",12/1/2020,Renovation,1146100,7675,"2020 W STATE 114 HWY  # 100",GRAPEVINE,TX,76051,,,CONTRACTOR,,,,,,,,,,,"DPR CONSTRUCTION",,,,,"DPR CONSTRUCTION","3131 MCKINNEY AVE STE 210",DALLAS,TX,75204-2475,"(214) 979-9900",,,,
TX,TARRANT,"20 - 04350","Hospital & Other Medical",12/1/2020,,130000,,"620 N US 287 SUITE # 120",MANSFIELD,TX,76065,,,CONTRACTOR,,,,,,,,,,,"BY DESIGN CONSTRUCTION SERVICES",,,,,"BY DESIGN CONSTRUCTION SERVICES","1269 HIGHVIEW DR","CEDAR HILL",TX,75104,"(214) 909-7276",,,,
TX,DALLAS,"20 - 1046","Hospital & Other Medical",8/12/2020,,566000,,"4305 MACARTHUR AVE","HIGHLAND PARK",TX,75209,,,CONTRACTOR,,,,,,,,,,,"SCOTT & REID GENERAL",,,,,"SCOTT & REID GENERAL","17300 DALLAS PKWY STE 2000",DALLAS,TX,75248-1192,"(469) 374-3400",http://www.scottandreid.com,"(469) 374-0060","PHIL VANDERHILL",email@scottandreid.com
TX,DALLAS,"20 - 1821","Hospital & Other Medical",12/29/2020,,160000,,"4300 MACARTHUR PTNR LP","HIGHLAND PARK",TX,75209,,,CONTRACTOR,,,,,,,,,,,"ELLECO CONSTRUCTION",,,,,"ELLECO CONSTRUCTION","201 W COMMERCE ST STE 101",DALLAS,TX,75208-1916,"(214) 760-9241",,,,
TX,TARRANT,20-0117,"Hospital & Other Medical",12/29/2020,,444132,4664,"245 W SH 114 130",SOUTHLAKE,TX,76262,,,CONTRACTOR,,,,,,,,,,,"ESA CONSTRUCTION",,,,,"ESA CONSTRUCTION","17806 DAVENPORT RD STE 107",DALLAS,TX,75252-5849,"(972) 250-1170",,"(972) 250-0905",,info@esa-construction.com
TX,TARRANT,20-0082,"Hospital & Other Medical",12/15/2020,,42000,3926,"2320 W SOUTHLAKE BLVD",SOUTHLAKE,TX,76262,,,CONTRACTOR,,,,,,,,,,,"PARADIGM CONSULTANTS",,,,,"PARADIGM CONSULTANTS","2501 CENTRAL PKWY STE A3",HOUSTON,TX,77092-7726,"(713) 686-6771",http://www.paradigmconsultants.com/,"(713) 686-6795",,
TX,TARRANT,20-0114,"Hospital & Other Medical",12/11/2020,,175000,6315,"611 E SOUTHLAKE BLVD 140",SOUTHLAKE,TX,76092,,,CONTRACTOR,,,,,,,,,,,"DEVLEER CONSULTING SERVICES",,,,,"DEVLEER CONSULTING SERVICES","8420 KINGSTON LANE",FRISCO,TX,75036,"(972) 387-1200",,,,
TX,TARRANT,20-3375,"Hospital & Other Medical",12/21/2020,,62000,3948,"6901 DAVIS BLVD","NORTH RICHLAND HILLS",TX,76182,,,CONTRACTOR,,,,,,,,,,,"JPK BUILDERS",,,,,"JPK BUILDERS","1116 WILLIAMSBURG LN",KELLER,TX,76248-5239,"(817) 455-8100",,,"JOHN CAMPBELL",
TX,TARRANT,PB20-17154,"Multi Family Apartments & Condos",12/9/2020,,144963,2301,"6705 FARSIGHT DR","FORT WORTH",TX,76179,,,CONTRACTOR,,,,,,,,,,,"LILLIAN CUSTOM HOMES",,,,,"LILLIAN CUSTOM HOMES","509 FERRIS AVE",WAXAHACHIE,TX,75165-3343,"(972) 937-8990",http://lilliancustomhomes.com/,,,
TX,TARRANT,PB20-17156,"Multi Family Apartments & Condos",12/4/2020,,144081,2287,"6701 FARSIGHT DR","FORT WORTH",TX,76179,,,CONTRACTOR,,,,,,,,,,,"LILLIAN CUSTOM HOMES",,,,,"LILLIAN CUSTOM HOMES","509 FERRIS AVE",WAXAHACHIE,TX,75165-3343,"(972) 937-8990",http://lilliancustomhomes.com/,,,
TX,TARRANT,PB20-17204,"Multi Family Apartments & Condos",12/8/2020,,113274,1798,"6708 GLIMFEATHER DR","FORT WORTH",TX,76179,,,CONTRACTOR,,,,,,,,,,,"LILLIAN CUSTOM HOMES",,,,,"LILLIAN CUSTOM HOMES","509 FERRIS AVE",WAXAHACHIE,TX,75165-3343,"(972) 937-8990",http://lilliancustomhomes.com/,,,
TX,TARRANT,"20 - 3560","Multi Family Apartments & Condos",12/10/2020,,5000000,,"5100 OLD DENTON RD","HALTOM CITY",TX,76244,,,CONTRACTOR,,,,,,,,,,,"STEELE & FREEMAN",,,,,"STEELE & FREEMAN","1301 LAWSON RD",SAGINAW,TX,76131-2725,"(817) 232-4742",http://steelefreeman.com/,"(817) 232-9113",,
TX,TARRANT,PB20-17322,"Multi Family Apartments & Condos",11/23/2020,,155862,2474,"2808 ADDISON PARK LN","FORT WORTH",TX,76110,,,CONTRACTOR,,,,,,,,,,,"VILLAGE HOMES",,,,,"VILLAGE HOMES","2817 W 5TH ST STE B","FORT WORTH",TX,76107-2203,"(817) 737-3377",http://www.homesofcharacter.com/,,"MICHAEL DIKE",
TX,TARRANT,PB20-17324,"Multi Family Apartments & Condos",11/23/2020,,155862,2474,"2810 ADDISON PARK LN","FORT WORTH",TX,76110,,,CONTRACTOR,,,,,,,,,,,"VILLAGE HOMES",,,,,"VILLAGE HOMES","2817 W 5TH ST STE B","FORT WORTH",TX,76107-2203,"(817) 737-3377",http://www.homesofcharacter.com/,,"MICHAEL DIKE",
TX,TARRANT,PB20-17325,"Multi Family Apartments & Condos",11/23/2020,,155862,2474,"2812 ADDISON PARK LN","FORT WORTH",TX,76110,,,CONTRACTOR,,,,,,,,,,,"VILLAGE HOMES",,,,,"VILLAGE HOMES","2817 W 5TH ST STE B","FORT WORTH",TX,76107-2203,"(817) 737-3377",http://www.homesofcharacter.com/,,"MICHAEL DIKE",
TX,TARRANT,PB20-17326,"Multi Family Apartments & Condos",11/23/2020,,155862,2474,"2814 ADDISON PARK LN","FORT WORTH",TX,76110,,,CONTRACTOR,,,,,,,,,,,"VILLAGE HOMES",,,,,"VILLAGE HOMES","2817 W 5TH ST STE B","FORT WORTH",TX,76107-2203,"(817) 737-3377",http://www.homesofcharacter.com/,,"MICHAEL DIKE",
TX,TARRANT,PB20-17538,"Multi Family Apartments & Condos",12/11/2020,,146034,2318,"441 MILVERTON DR","FORT WORTH",TX,76036,,,CONTRACTOR,,,,,,,,,,,"IMPRESSION HOMES",,,,,"IMPRESSION HOMES","430 N CARROLL AVE # 150",SOUTHLAKE,TX,76092-6452,"(817) 717-5103",https://www.impressionhomes.net/,,,
TX,TARRANT,PB20-17539,"Multi Family Apartments & Condos",12/11/2020,,172053,2731,"443 MILVERTON DR","FORT WORTH",TX,76036,,,CONTRACTOR,,,,,,,,,,,"IMPRESSION HOMES",,,,,"IMPRESSION HOMES","430 N CARROLL AVE # 150",SOUTHLAKE,TX,76092-6452,"(817) 717-5103",https://www.impressionhomes.net/,,,
TX,TARRANT,PB20-17543,"Multi Family Apartments & Condos",12/11/2020,,142947,2269,"445 MILVERTON DR","FORT WORTH",TX,76036,,,CONTRACTOR,,,,,,,,,,,"IMPRESSION HOMES",,,,,"IMPRESSION HOMES","430 N CARROLL AVE # 150",SOUTHLAKE,TX,76092-6452,"(817) 717-5103",https://www.impressionhomes.net/,,,
TX,TARRANT,PB20-17544,"Multi Family Apartments & Condos",12/11/2020,,125370,1990,"447 MILVERTON DR","FORT WORTH",TX,76036,,,CONTRACTOR,,,,,,,,,,,"IMPRESSION HOMES",,,,,"IMPRESSION HOMES","430 N CARROLL AVE # 150",SOUTHLAKE,TX,76092-6452,"(817) 717-5103",https://www.impressionhomes.net/,,,
TX,TARRANT,PB20-17694,"Multi Family Apartments & Condos",12/3/2020,,127071,2017,"6700 GLIMFEATHER DR","FORT WORTH",TX,76179,,,CONTRACTOR,,,,,,,,,,,"LILLIAN CUSTOM HOMES",,,,,"LILLIAN CUSTOM HOMES","509 FERRIS AVE",WAXAHACHIE,TX,75165-3343,"(972) 937-8990",http://lilliancustomhomes.com/,,,
TX,TARRANT,21-0575,"Multi Family Apartments & Condos",12/3/2020,,,1921,"6468 NORTHERN DANCER DR","NORTH RICHLAND HILLS",TX,76181,,,CONTRACTOR,,,,,,,,,,,"CB JENI ",,,,,"CB JENI ","2805 DALLAS PKWY STE 40",PLANO,TX,75093-8719,"(469) 418-2384",http://www.cbjenihomes.com,,,
TX,TARRANT,21-0587,"Multi Family Apartments & Condos",12/3/2020,,,1483,"6480 NORTHERN DANCER DR","NORTH RICHLAND HILLS",TX,76182,,,CONTRACTOR,,,,,,,,,,,"CB JENI ",,,,,"CB JENI ","2805 DALLAS PKWY STE 40",PLANO,TX,75093-8719,"(469) 418-2384",http://www.cbjenihomes.com,,,
TX,TARRANT,21-0588,"Multi Family Apartments & Condos",12/17/2020,,,1638,"6476 NORTHERN DANCER DR","NORTH RICHLAND HILLS",TX,76182,,,CONTRACTOR,,,,,,,,,,,"CB JENI ",,,,,"CB JENI ","2805 DALLAS PKWY STE 40",PLANO,TX,75093-8719,"(469) 418-2384",http://www.cbjenihomes.com,,,
TX,TARRANT,21-0589,"Multi Family Apartments & Condos",12/3/2020,,,1638,"6484 NORTHERN DANCER DR","NORTH RICHLAND HILLS",TX,76182,,,CONTRACTOR,,,,,,,,,,,"CB JENI ",,,,,"CB JENI ","2805 DALLAS PKWY STE 40",PLANO,TX,75093-8719,"(469) 418-2384",http://www.cbjenihomes.com,,,
TX,TARRANT,21-0602,"Multi Family Apartments & Condos",12/3/2020,,,1957,"6488 NORTHERN DANCER DR","NORTH RICHLAND HILLS",TX,76182,,,CONTRACTOR,,,,,,,,,,,"CB JENI ",,,,,"CB JENI ","2805 DALLAS PKWY STE 40",PLANO,TX,75093-8719,"(469) 418-2384",http://www.cbjenihomes.com,,,
TX,DALLAS,2101041099,"Multi Family Renovations & Additions",1/4/2021,Renovation,35000,1117,"6211 W NORTHWEST HWY STE 2007",DALLAS,TX,75225,,,CONTRACTOR,,,,,,,,,,,"PURGATORY REMODELING AND CONSTRUCTION",,,,,"PURGATORY REMODELING AND CONSTRUCTION","6211 WEST NW HIGHWAY APARTMENT G715",DALLAS,TX,75225,"(214) 739-2753",,,,
TX,DALLAS,2101041043,"Multi Family Renovations & Additions",1/4/2021,Renovation,75000,2198,"6211 W NORTHWEST HWY STE 2305",DALLAS,TX,75225,,,CONTRACTOR,,,,,,,,,,,"PURGATORY REMODELING AND CONSTRUCTION",,,,,"PURGATORY REMODELING AND CONSTRUCTION","6211 WEST NW HIGHWAY APARTMENT G715",DALLAS,TX,75225,"(214) 739-2753",,,,
TX,KAUFMAN,20-000477,"Offices, R&D, & Professional",12/21/2020,,440000,4468,"2210 WALTON DR",KAUFMAN,TX,75142,,,CONTRACTOR,,,,,,,,,,,"COMMERCIAL CONSTRUCTION GROUP",,,,,"COMMERCIAL CONSTRUCTION GROUP","3435 STATE HIGHWAY 276",ROCKWALL,TX,75032-7189,"(972) 961-0444",http://www.ccgcommercialgroup.com,"(972) 961-0496",,
TX,DALLAS,2101041088,"Offices, R&D, & Professional",1/13/2021,"Finish Out",780000,6703,"1990 N STEMMONS FWY",DALLAS,TX,75207,,,CONTRACTOR,,,,,,,,,,,"DPR CONSTRUCTION",,,,,"DPR CONSTRUCTION","3131 MCKINNEY AVE STE 210",DALLAS,TX,75204-2475,"(214) 979-9900",,,,
TX,TARRANT,"2020 123941 000 00 CP","Offices, R&D, & Professional",12/15/2020,Renovation,57970,3891,"2221 E LAMAR BOULEVARD",ARLINGTON,TX,76006,,,CONTRACTOR,,,,,,,,,,,"TRAIL RIDGE CONSTRUCTION MANAGEMENT",,,,,"TRAIL RIDGE CONSTRUCTION MANAGEMENT","5301 ALPHA RD STE 80-217",DALLAS,TX,75240-4355,"(469) 766-6225",,,,
TX,TARRANT,"2020 123410 000 00 CP","Offices, R&D, & Professional",12/18/2020,Renovation,265000,14642,"101 S MESQUITE ST",ARLINGTON,TX,76010,,,CONTRACTOR,,,,,,,,,,,"SAWYERS CONSTRUCTION",,,,,"SAWYERS CONSTRUCTION","2307 OAK LN STE 210","GRAND PRAIRIE",TX,75051-8285,"(972) 642-3581",http://sawyersinc.com,,,
TX,TARRANT,"2020 119745 000 00 CP","Offices, R&D, & Professional",12/21/2020,Renovation,140000,3465,"2201 E LAMAR BOULEVARD",ARLINGTON,TX,76006,,,CONTRACTOR,,,,,,,,,,,"TRI-TEX CONSTRUCTION ",,,,,"TRI-TEX CONSTRUCTION ","12002 FORESTGATE DR",DALLAS,TX,75243-5411,"(972) 644-1410",,,,
TX,TARRANT,"2020 118809 000 00 CP","Offices, R&D, & Professional",12/18/2020,Renovation,89725,133033,"620 W DIVISION ST",ARLINGTON,TX,76011,,,CONTRACTOR,,,,,,,,,,,"SAWYERS CONSTRUCTION",,,,,"SAWYERS CONSTRUCTION","2307 OAK LN STE 210","GRAND PRAIRIE",TX,75051-8285,"(972) 642-3581",http://sawyersinc.com,,,
TX,TARRANT,"2020 116642 000 00 CP","Offices, R&D, & Professional",12/10/2020,"Finish Out",125000,2896,"4140 N COLLINS ST",ARLINGTON,TX,76005,,,CONTRACTOR,,,,,,,,,,,"SOUTHWESTERN CONSTRUCTION",,,,,"SOUTHWESTERN CONSTRUCTION","PO BOX 2995",GRAPEVINE,TX,76099,"(817) 946-2440",,,"DAN MALONEY",
TX,TARRANT,"2020 112273 000 00 CP","Offices, R&D, & Professional",12/8/2020,"Finish Out",48000,1200,"5335 W SUBLETT ROAD",ARLINGTON,TX,76017,,,CONTRACTOR,,,,,,,,,,,"THOMAS BERGER CONSTRUCTION",,,,,"THOMAS BERGER CONSTRUCTION","5402 OAK SPRINGS DR",ARLINGTON,TX,76016-4574,"(817) 478-1322",,,"TOM BERGER",
TX,TARRANT,"2020 107940 000 00 CP","Offices, R&D, & Professional",12/16/2020,Renovation,145000,800,"5840 W INTERSTATE 20 HIGHWAY",ARLINGTON,TX,76017,,,CONTRACTOR,,,,,,,,,,,"RJM CONTRACTORS",,,,,"RJM CONTRACTORS","3629 LOVELL AVE","FORT WORTH",TX,76107-5671,"(817) 377-0971",http://www.rj-miller.com/,"(817) 377-0973","R J MILLER",
TX,TARRANT,"20 - 3668","Offices, R&D, & Professional",12/11/2020,,150000,,"4113 DENTON HWY","HALTOM CITY",TX,76117,,,CONTRACTOR,,,,,,,,,,,"BAIRES CONSTRUCTION",,,,,"BAIRES CONSTRUCTION","4250 BROADWAY AVE","HALTOM CITY",TX,76117-3548,"(817) 222-0425",,,,
TX,DENTON,FO20-07325,"Offices, R&D, & Professional",10/12/2020,,,4561,"777 INTERNATIONAL PKWY SUITE 260","FLOWER MOUND",TX,75052,,,CONTRACTOR,,,,,,,,,,,"TAURUS COMMERCIAL",,,,,"TAURUS COMMERCIAL","12200 FORD RD STE 330",DALLAS,TX,75234-8104,"(972) 243-5444",http://www.tauruscommercial.com,"(972) 243-5449",,info@tauruscommercial.com
TX,DENTON,FO20-07533,"Offices, R&D, & Professional",10/12/2020,,,3977,"777 INTERNATIONAL PKWY SUITE 280","FLOWER MOUND",TX,75052,,,"FM 2499 OFFICE VENTURE LP","777 INTERNATIONAL PKWY SUITE 280",HOUSTON,TX,75052,,Owner,,,,,"MUCKLEROY & FALLS",,,,,"MUCKLEROY & FALLS","1635 ROGERS RD","FORT WORTH",TX,76107-6513,"(817) 877-3510",http://www.muckleroyfalls.com/,"(817) 877-5650","MAX FALLS",
TX,DENTON,FO20-07783,"Offices, R&D, & Professional",4/12/2020,,,3842,"600 PARKER SQUARE RD SUITE 270","FLOWER MOUND",TX,75052,,,"PARKER ASSETS","600 PARKER SQUARE RD SUITE 270","FLOWER MOUND",TX,75052,,Owner,,,,,"CAAM CONSTRUCTION",,,,,"CAAM CONSTRUCTION","8501 CROSS TIMBERS RD","FLOWER MOUND",TX,75022-6432,"(817) 382-2233",,,,
TX,TARRANT,"20 - 04516","Offices, R&D, & Professional",12/4/2020,,41500,,"2310 FM 157 SUITE # 102",MANSFIELD,TX,76063,,,CONTRACTOR,,,,,,,,,,,"MED-TECH CONSTRUCTION",,,,,"MED-TECH CONSTRUCTION","4202 BOBTOWN RD",GARLAND,TX,75043-4003,"(972) 226-3332",,,"HEATH HILL",
TX,TARRANT,20-0093,"Offices, R&D, & Professional",12/9/2020,,200000,1038,"540 MICHENER CT",SOUTHLAKE,TX,76092,,,CONTRACTOR,,,,,,,,,,,"SIERRA FINE CUSTOM HOMES",,,,,"SIERRA FINE CUSTOM HOMES","100 TROPHY CLUB DR STE E","TROPHY CLUB",TX,76262-3411,"(817) 733-9371",http://www.sierrafinecustomhomes.com/,"(866) 831-6044","KEVIN & DAWN",Admin@sierrafinecustomhomes.com
TX,DALLAS,200699,"Other Commercial",12/28/2020,,894000,3697,"382 E US HWY 80",SUNNYVALE,TX,75182,,,CONTRACTOR,,,,,,,,,,,"ATKINSON & ASSOCIATES BUILDERS",,,,,"ATKINSON & ASSOCIATES BUILDERS","307 E HOUSTON ST",EDNA,TX,77957-2644,"(361) 782-6027",http://www.atkinsonbuilders.com/,"(361) 782-6037","EDNA LUMBER",
TX,ROCKWALL,,"Other Commercial",1/22/2021,,6074620,64058,"5100 E I30",FATE,TX,75050,,,CONTRACTOR,,,,,,,,,,,"JOERIS GENERAL CONTRACTORS",,,,,"JOERIS GENERAL CONTRACTORS","1390 E BITTERS RD","SAN ANTONIO",TX,78216-2914,"(210) 478-8754",,,,
TX,DENTON,COM20-07362,"Other Commercial",9/12/2020,Addition,,2374,"6200 STONE HILL FARMS PKWY","FLOWER MOUND",TX,75052,,,"THE BROKERAGE INC","6200 STONE HILL FARMS PKWY","FLOWER MOUND",TX,75052,,Owner,,,,,"THE KOEHLER COMPANY",,,,,"THE KOEHLER COMPANY","1404 N CAMP ST",SEGUIN,TX,78155-2600,"(830) 303-6256",,,,
TX,TARRANT,20-0106,"Other Commercial",12/14/2020,,65000,70000,"1900 W KIRKWOOD BLVD 2100A",SOUTHLAKE,TX,76092,,,CONTRACTOR,,,,,,,,,,,"STRUCTURETONE SOUTHWEST",,,,,"STRUCTURETONE SOUTHWEST","3333 WELBORN ST STE 200",DALLAS,TX,75219-5141,"(214) 525-5147",,,"JOE CRIBBIN",joseph.cribbin@structuretone.com
TX,TARRANT,"COMA - 20 - 0947","Parking Structures & Carports",12/7/2020,Renovation,508000,,"1000 KUBOTA DR",GRAPEVINE,TX,76051,,,CONTRACTOR,,,,,,,,,,,"HOWARD RUDD CONSTRUCTION",,,,,"HOWARD RUDD CONSTRUCTION","6101 LONG PRAIRIE RD","FLOWER MOUND",TX,75028-6221,"(940) 455-7373",,,,
TX,TARRANT,"RMISC - 20 - 4012","Residential Garages & Carports",12/14/2020,Addition,53622,800,"420 E COLLEGE ST",GRAPEVINE,TX,76051,,,CONTRACTOR,,,,,,,,,,,"TRINITY CONSTRUCTION GROUP",,,,,"TRINITY CONSTRUCTION GROUP","1431 GREENWAY DR STE 800",IRVING,TX,75038-2574,"(972) 910-7401",http://www.trinityconstructiongrp.com/,,,
TX,TARRANT,"RMISC - 20 - 4293","Residential Garages & Carports",12/30/2020,Addition,32000,750,"3432 MARSH LN",GRAPEVINE,TX,76051,,,"JORDIN LEPORI","3432 MARSH LANE",GRAPEVINE,TX,76051,"(817) 845-7594",Applicant,,,,,OWNER,,,,,OWNER,,,,,,,,,
TX,DALLAS,200802,"Residential Renovations & Additions",12/29/2020,Renovation,40000,2036,"240 N TOWN EAST BLVD",SUNNYVALE,TX,75182,,,"TRAVIS PRESLEY","240 N TOWN EAST BLVD",SUNNYVALE,TX,75182,,Owner,,,,,"S&L IMPROVEMENTS/REMODELING",,,,,"S&L IMPROVEMENTS/REMODELING","113 S BLUE BONNET CIR",JUSTIN,TX,76247-5801,"(817) 658-8741",,,,
TX,DALLAS,2101046013,"Residential Renovations & Additions",1/4/2021,Addition,,775,"10411 LONGMEADOW DR",DALLAS,TX,75238,,,"JOSEPH & CRYSTAL YEHLE","10411 LONGMEADOW DR",DALLAS,TX,75238,"(817) 676-3471",Owner,,,,,OWNER,,,,,OWNER,,,,,,,,,
TX,DALLAS,2101041084,"Residential Renovations & Additions",1/12/2021,Renovation,,1323,"1426 S POLK ST",DALLAS,TX,75224,,,"MARGARET ELLIS","1426 S POLK ST",DALLAS,TX,75224,,Owner,,,,,"CASTLE GENERAL CONTRACTORS",,,,,"CASTLE GENERAL CONTRACTORS","2206 FOREST GROVE ESTATES RD",ALLEN,TX,75002,"(214) 478-9963",,,,
TX,DALLAS,2101046006,"Residential Renovations & Additions",1/4/2021,Addition,,840,"347 N PATTON AVE",DALLAS,TX,75203,,,"RICARDO REYES","347 N PATTON AVE",DALLAS,TX,75203,,Owner,,,,,"REYES LANDSCAPE AND LAWN MAINTENANCE",,,,,"REYES LANDSCAPE AND LAWN MAINTENANCE","334 S 4TH ST",WYLIE,TX,75098-3617,"(972) 429-0295",,,,
TX,DALLAS,2101041101,"Residential Renovations & Additions",1/7/2021,Renovation,,1000,"4097 DEEP VALLEY DR",DALLAS,TX,75244,,,"RUTH BURNECKE","4097 DEEP VALLEY DR",DALLAS,TX,75244,,Owner,,,,,"SPLENDOR BUILDERS",,,,,"SPLENDOR BUILDERS","13101 PRESTON RD STE 409",DALLAS,TX,75240-5230,"(972) 919-9700",,,,
TX,DALLAS,2101041105,"Residential Renovations & Additions",1/7/2021,Renovation,,2154,"7329 CLEARHAVEN DR",DALLAS,TX,75248,,,"THOMAS FULENWIDER","7329 CLEARHAVEN DR",DALLAS,TX,75248,,Owner,,,,,"HOME PERSPECTIVES",,,,,"HOME PERSPECTIVES","849 SNOWSHILL TRL",COPPELL,TX,75019,"(214) 998-2762",,,,
TX,DALLAS,2101046018,"Residential Renovations & Additions",1/4/2021,Renovation,,672,"739 ELWAYNE AVE",DALLAS,TX,75217,,,"JOSE MUNOZ & SANDRA ARELY RAMOS","739 ELWAYNE AVE",DALLAS,TX,75217,"(214) 524-3108",Owner,,,,,OWNER,,,,,OWNER,,,,,,,,,
TX,DALLAS,2101041045,"Residential Renovations & Additions",1/4/2021,Addition,,1064,"7820 POND ST",DALLAS,TX,75217,,,"BELINDA DELAGARZA","7820 POND ST",DALLAS,TX,75217,,Owner,,,,,"AJ DESIGN SOLUTIONS",,,,,"AJ DESIGN SOLUTIONS","2616 WESTERN PARK DR",DALLAS,TX,75211-7831,"(469) 328-3215",,,,
TX,TARRANT,2010-158,"Residential Renovations & Additions",12/8/2020,Renovation,45000,,"7600 WILDFLOWER WAY",COLLEYVILLE,TX,76036,,,"ISRAEL ZALDIVAR","7600 WILDFLOWER WAY",COLLEYVILLE,TX,76036,,Owner,,,,,"CLAFFEY POOLS ",,,,,"CLAFFEY POOLS ","1625 BRUMLOW AVE",SOUTHLAKE,TX,76092-9728,"(817) 488-5795",http://www.claffeypools.com,,,
TX,TARRANT,2011-019,"Residential Renovations & Additions",11/19/2020,Renovation,30000,,"6826 PROVIDENCE RD",COLLEYVILLE,TX,76036,,,"BLAKE HUGHES","6826 PROVIDENCE RD",COLLEYVILLE,TX,76036,,Owner,,,,,"LANDSCAPE SYSTEMS GARDEN CENTER",,,,,"LANDSCAPE SYSTEMS GARDEN CENTER","1823 KELLER PKWY",KELLER,TX,76248-3707,"(817) 431-9490",,,,
TX,TARRANT,"SFADD - 20 - 4300","Residential Renovations & Additions",12/22/2020,Addition,75000,557,"1943 CAMELOT DR",GRAPEVINE,TX,76051,,,"TRACEY JAYNES","1943 CAMELOT DR",GRAPEVINE,TX,76051,,Owner,,,,,"SWANSON RENOVATIONS",,,,,"SWANSON RENOVATIONS","315 CREEKSIDE DR",KELLER,TX,76248-5305,"(817) 343-6779",http://www.swansonrenovations.com,"(817) 423-7766",,info@swansonrenovations.com
TX,TARRANT,"SFRA - 20 - 4183","Residential Renovations & Additions",12/3/2020,Renovation,34484,,"529 DOVE CREEK CIR",GRAPEVINE,TX,76051,,,"LARRY RETA","529 DOVE CREEK CIR",GRAPEVINE,TX,76051,,Owner,,,,,"DALLAS PWD",,,,,"DALLAS PWD","801 HANOVER DR STE 600",GRAPEVINE,TX,76051-7684,"(972) 988-1555",,,"THOMAS SLAUGHTER",
TX,TARRANT,"SFRA - 20 - 4208","Residential Renovations & Additions",12/9/2020,Renovation,635833,79,"1031 MOCKINGBIRD DR",GRAPEVINE,TX,76051,,,"STEVEN STOCZ","1031 MOCKINGBIRD DR",GRAPEVINE,TX,76051,,Owner,,,,,"FREEDOM SOLAR POWER",,,,,"FREEDOM SOLAR POWER","4111 TODD LN # 100",AUSTIN,TX,78744-1149,"(800) 504-2337",http://www.freedomsolarpower.com/,,,
TX,TARRANT,"SFRA - 20 - 4436","Residential Renovations & Additions",12/30/2020,Renovation,100000,1000,"1935 SHEFFIELD ST",GRAPEVINE,TX,76051,,,"JEFFREY STEARNS","1935 SHEFFIELD ST",GRAPEVINE,TX,76051,,Owner,,,,,"BELLA BUILDERS",,,,,"BELLA BUILDERS","3930 GLADE RD STE 108 # 230",COLLEYVILLE,TX,76034-7923,"(817) 201-5321",https://www.bellabuildersdfw.com,,,todd@bellabuildersdfw.com
TX,TARRANT,"SFRA - 20 - 4195","Residential Renovations & Additions",12/3/2020,Renovation,31548,,"1920 NORTH PORT CT",GRAPEVINE,TX,76051,,,"JEFFREY MINCH","1920 NORTH PORT CT",GRAPEVINE,TX,76051,,Owner,,,,,"DALLAS PWD",,,,,"DALLAS PWD","801 HANOVER DR STE 600",GRAPEVINE,TX,76051-7684,"(972) 988-1555",,,"THOMAS SLAUGHTER",
TX,TARRANT,"SFRA - 20 - 4451","Residential Renovations & Additions",12/21/2020,Renovation,30000,,"815 SPRING CREEK DR",GRAPEVINE,TX,76051,,,"KATHERINE DURYEA","815 SPRING CREEK DR",GRAPEVINE,TX,76051,,Owner,,,,,"GOOD FAITH ENERGY",,,,,"GOOD FAITH ENERGY","1300 E ARAPAHO RD STE 201",RICHARDSON,TX,75081-2445,"(469) 778-4847",https://goodfaithenergy.com,,,info@goodfaithenergy.com
TX,DENTON,FO20-07282,"Residential Renovations & Additions",7/12/2020,Renovation,,971,"3615 GRANT CT","FLOWER MOUND",TX,75052,,,"TOWN OF FLOWER MOUND","3615 GRANT CT","FLOWER MOUND",TX,75052,,Owner,,,,,"PHOENIX 1 RESTORATION AND CONSTRUCTION",,,,,"PHOENIX 1 RESTORATION AND CONSTRUCTION","9411 HARGROVE DR",DALLAS,TX,75220-6034,"(214) 902-0111",http://www.phoenix1.org/,"(214) 904-9635",,dbellomy@phoenix1.org
TX,DENTON,RR20-06897,"Residential Renovations & Additions",3/12/2020,Addition,,350,"1751 HUNTERS LN","FLOWER MOUND",TX,75052,,,"SYED S & SARAH ALI","1751 HUNTERS LN","FLOWER MOUND",TX,75052,,Owner,,,,,"HAMDANCOM REMODELING & CONSTRUCTION",,,,,"HAMDANCOM REMODELING & CONSTRUCTION","PO BOX 16711",IRVING,TX,75016,"(469) 442-6046",,,,
TX,DENTON,RR20-08280,"Residential Renovations & Additions",10/12/2020,Addition,,900,"3905 SWEETGUM CT","FLOWER MOUND",TX,75052,,,"SARAH & DALLIN COMBS","3905 SWEETGUM CT","FLOWER MOUND",TX,75052,,Owner,,,,,OWNER,,,,,OWNER,,,,,,,,,
TX,DENTON,RR20-08428,"Residential Renovations & Additions",12/28/2020,Addition,,844,"4804 HOLLANDSWORTH CT","FLOWER MOUND",TX,75052,,,CONTRACTOR,,,,,,,,,,,"TOLL BROTHERS",,,,,"TOLL BROTHERS","9178 VITA DOLCE DR",FRISCO,TX,75035-2300,"(469) 525-0524",,,,
TX,TARRANT,20-0071,"Residential Renovations & Additions",12/30/2020,Renovation,80000,996,"3108 SOUTHLAKE PARK RD",SOUTHLAKE,TX,76092,,,"JEFFREY KOLBERG","3108 SOUTHLAKE PARK RD",SOUTHLAKE,TX,76092,"(214) 300-8986",Owner,,,,,OWNER,,,,,OWNER,,,,,,,,,
TX,TARRANT,21-1145,"Residential Renovations & Additions",12/31/2020,Renovation,48000,,"8404 LA FONTAINE DR","NORTH RICHLAND HILLS",TX,76182,,,"DAVID ETUX TERESA HAMACHER","8404 LA FONTAINE DR","NORTH RICHLAND HILLS",TX,76182,,Owner,,,,,"KMETZ CUSTOM HOMES",,,,,"KMETZ CUSTOM HOMES","3208 PECAN MEADOWS DR","FLOWER MOUND",TX,75028,"(972) 948-7958",https://www.kmetzcustomhomes.net/,,"BRIAN KMETZ",Brian@KmetzCustomHomes.net
TX,DENTON,20-5885,"Residential Swimming Pools & Spas",12/3/2020,,58000,,"420 TRIGGER TRAIL",ARGYLE,TX,76226,,,"BRYAN & LAUREN SMITS","420 TRIGGER TRAIL",ARGYLE,TX,76226,,Owner,,,,,"OUTDOOR LIVING POOL & PATIO",,,,,"OUTDOOR LIVING POOL & PATIO","2340 JUSTIN RD STE 101","HIGHLAND VILLAGE",TX,75077-3073,"(972) 317-3500",,,,
TX,DENTON,20-5913,"Residential Swimming Pools & Spas",12/16/2020,,58000,,"208 DENTON ST",ARGYLE,TX,76226,,,"RONNIE & TERESSA MORRIS","208 DENTON ST",ARGYLE,TX,76226,,Owner,,,,,"BMR POOL & PATIO",,,,,"BMR POOL & PATIO","1706 JUSTIN RD",LEWISVILLE,TX,75077-2131,"(972) 221-3959",http://www.bmrpoolandpatio.com/,"(972) 317-3360",,sales@bmrpoolandpatio.com
TX,DALLAS,200793,"Residential Swimming Pools & Spas",12/18/2020,,,575,"287 GRINDSTONE DR",SUNNYVALE,TX,75182,,,"DONNA & GARY CALDWELL","287 GRINDSTONE DR",SUNNYVALE,TX,75182,,Owner,,,,,"HOBERT POOLS",,,,,"HOBERT POOLS","315 W FM 544",MURPHY,TX,75094-4577,"(972) 690-8118",http://www.hobertpools.com/,"(972) 422-6320",,contact@hobertpools.com
TX,DALLAS,200767,"Residential Swimming Pools & Spas",12/8/2020,,,325,"308 OLD MILL RD",SUNNYVALE,TX,75182,,,"ROBIN WILLIAMS","308 OLD MILL RD",SUNNYVALE,TX,75182,,Owner,,,,,"POOL STOP CUSTOM POOLS & SPAS",,,,,"POOL STOP CUSTOM POOLS & SPAS","838 STEGER TOWNE RD",ROCKWALL,TX,75032-5658,"(972) 772-4545",,,,
TX,DALLAS,200759,"Residential Swimming Pools & Spas",12/18/2020,,,674,"498 BUFFLEHEAD CT",SUNNYVALE,TX,75182,,,"WILLIAM & VALERIE DARST","498 BUFFLEHEAD CT",SUNNYVALE,TX,75182,,Owner,,,,,"TEXAS OUTDOOR OASIS",,,,,"TEXAS OUTDOOR OASIS","2621 ELM GROVE RD",WYLIE,TX,75098-6243,"(972) 771-1977",http://www.texasoutdooroasis.com/,,,info@texasoutdooroasis.com
TX,COLLIN,,"Residential Swimming Pools & Spas",12/30/2020,,,,"303 SIKORSKY CT",WYLIE,TX,75098,,,"LACY & DAVID NEWKIRK","303 SIKORSKY CT",WYLIE,TX,75098,,Owner,,,,,"VENTURE CUSTOM POOLS",,,,,"VENTURE CUSTOM POOLS","4568 STATE HIGHWAY 121 STE 101",PLANO,TX,75024-7007,"(972) 377-9002",,,,
TX,COLLIN,,"Residential Swimming Pools & Spas",12/21/2020,,,,"7802 BRIANNA DR",WYLIE,TX,75098,,,"CASSANDRA BLAIR","7802 BRIANNA DR",WYLIE,TX,75098,,Owner,,,,,"HOBERT POOLS",,,,,"HOBERT POOLS","315 W FM 544",MURPHY,TX,75094-4577,"(972) 690-8118",http://www.hobertpools.com/,"(972) 422-6320",,contact@hobertpools.com
TX,COLLIN,,"Residential Swimming Pools & Spas",12/14/2020,,,,"1601 SADDLE RDG",WYLIE,TX,75098,,,"TROY & ANNE GUESSFORD","1601 SADDLE RDG",WYLIE,TX,75098,,Owner,,,,,"HOBERT POOLS",,,,,"HOBERT POOLS","315 W FM 544",MURPHY,TX,75094-4577,"(972) 690-8118",http://www.hobertpools.com/,"(972) 422-6320",,contact@hobertpools.com
TX,COLLIN,,"Residential Swimming Pools & Spas",12/21/2020,,,,"1619 BOXWOOD LN",WYLIE,TX,75098,,,"DALE PICKERING","1619 BOXWOOD LN",WYLIE,TX,75098,,Owner,,,,,"HOBERT POOLS",,,,,"HOBERT POOLS","315 W FM 544",MURPHY,TX,75094-4577,"(972) 690-8118",http://www.hobertpools.com/,"(972) 422-6320",,contact@hobertpools.com
TX,COLLIN,,"Residential Swimming Pools & Spas",12/4/2020,,,,"926 SPRINGWOOD LN",WYLIE,TX,75098,,,"CINDY & RYAN MEIER","926 SPRINGWOOD LN",WYLIE,TX,75098,,Owner,,,,,"CUSTOM OUTDOOR TRENDS",,,,,"CUSTOM OUTDOOR TRENDS","5811 FM 3097",ROCKWALL,TX,75032-7788,"(972) 722-3111",http://www.customoutdoortrends.com/,,,craig@customoutdoortrends.com
TX,COLLIN,,"Residential Swimming Pools & Spas",12/1/2020,,,,"1906 COUNTRY WALK LN",WYLIE,TX,75098,,,"TINA WALKER","1906 COUNTRY WALK LN",WYLIE,TX,75098,,Owner,,,,,"COLLIN BRYAN CONSTRUCTION",,,,,"COLLIN BRYAN CONSTRUCTION","4552 SUNBELT DR",ADDISON,TX,75001-5131,"(214) 927-5263",,,,
TX,COLLIN,,"Residential Swimming Pools & Spas",12/21/2020,,,,"2504 ELAINE DR",WYLIE,TX,75098,,,"MANUEL & ERIKA QUEVEDO","2504 ELAINE DR",WYLIE,TX,75098,,Owner,,,,,"SUNDOWN CUSTOM POOLS",,,,,"SUNDOWN CUSTOM POOLS","404 CREPE MYRTLE LANE",MURPHY,TX,75094,"(972) 249-6403",http://www.sundowncustompools.com,,,
TX,COLLIN,,"Residential Swimming Pools & Spas",12/30/2020,,,,"2309 RAY HUBBARD WAY",WYLIE,TX,75098,,,"MISTI & MATTHEW ACHILLES","2309 RAY HUBBARD WAY",WYLIE,TX,75098,,Owner,,,,,"HAUK CUSTOM POOLS",,,,,"HAUK CUSTOM POOLS","1060 N PRESTON RD",CELINA,TX,75009-3857,"(972) 382-1919",,,,
TX,COLLIN,,"Residential Swimming Pools & Spas",12/14/2020,,,,"228 RED BUD PASS",WYLIE,TX,75098,,,CONTRACTOR,,,,,,,,,,,"RIVERBEND SANDLER POOLS",,,,,"RIVERBEND SANDLER POOLS","4016 W PLANO PKWY",PLANO,TX,75093-5694,"(972) 596-7393",http://www.riverbendsandlerpools.com,"(972) 596-0322","JAMES GARDNER",wgardner@riverbendsandlerpools.com
TX,COLLIN,,"Residential Swimming Pools & Spas",12/9/2020,,,,"1236 RIVERWAY LN",WYLIE,TX,75098,,,"GEORGE JOHNSON","1236 RIVERWAY LN",WYLIE,TX,75098,,Owner,,,,,"EATON CUSTOM POOLS",,,,,"EATON CUSTOM POOLS","2024 W 15TH ST # F314",PLANO,TX,75075-7363,"(469) 810-6859",https://www.eatoncustompools.com/,,,
TX,TARRANT,20-1956,"Residential Swimming Pools & Spas",12/8/2020,,47700,,"502 BRASHER LN",EULESS,TX,76040,,,"LAURA REID","502 BRASHER LN",EULESS,TX,76040,,Owner,,,,,"PULLIAM POOL",,,,,"PULLIAM POOL","2725 ALTAMESA BLVD","FORT WORTH",TX,76133-5771,"(817) 346-4778",http://www.pulliam.com,,,
TX,TARRANT,"BSWP - 20 - 3427","Residential Swimming Pools & Spas",12/14/2020,,30000,,"3341 BURNINGLOG DR",GRAPEVINE,TX,76051,,,"MARK LUMPKIN","3341 BURNINGLOG DR",GRAPEVINE,TX,76051,,Owner,,,,,"MID CITY CUSTOM POOLS",,,,,"MID CITY CUSTOM POOLS","7700 PRECINCT LINE RD",HURST,TX,76054-2355,"(817) 605-7665",http://www.midcitypools.com/,"(817) 656-9479","DON PIERCE",
TX,TARRANT,"BSWP - 20 - 4005","Residential Swimming Pools & Spas",12/18/2020,,62000,650,"508 ARBOR OAK DR",GRAPEVINE,TX,76051,,,"DARRELL SANDERS","508 ARBOR OAK DR",GRAPEVINE,TX,76051,,Owner,,,,,"ALLIANCE POOLS AND PATIO",,,,,"ALLIANCE POOLS AND PATIO","US-81 N",HASLET,TX,76052,"(682) 213-1427",https://alliancepoolsandpatio.com/,,,office@alliancepoolsandpatio.com
TX,TARRANT,"BSWP - 20 - 4198","Residential Swimming Pools & Spas",12/9/2020,,61000,640,"824 SPRING CREEK DR",GRAPEVINE,TX,76051,,,"HENRY DAVIS","824 SPRING CREEK DR",GRAPEVINE,TX,76051,,Owner,,,,,"ROBERTSON POOLS",,,,,"ROBERTSON POOLS","569-A S COPPELL RD",COPPELL,TX,75019,"(972) 393-2152",http://www.robertsonpools.com/,"(972) 393-6244","MELISSA WEBBER",mwebber@robertsonpools.com
TX,TARRANT,"BSWP - 20 - 4265","Residential Swimming Pools & Spas",12/2/2020,,70565,,"4105 SOMERSET CT",GRAPEVINE,TX,76051,,,"MICHAEL DUDDING","4105 SOMERSET CT",GRAPEVINE,TX,76051,,Owner,,,,,"PULLIAM POOL",,,,,"PULLIAM POOL","2725 ALTAMESA BLVD","FORT WORTH",TX,76133-5771,"(817) 346-4778",http://www.pulliam.com,,,
TX,TARRANT,"BSWP - 20 - 4276","Residential Swimming Pools & Spas",12/7/2020,,89000,,"333 PARK HILL LN",GRAPEVINE,TX,76051,,,"KAREN JERNIGAN","333 PARK HILL LN",GRAPEVINE,TX,76051,,Owner,,,,,"BMR POOL & PATIO",,,,,"BMR POOL & PATIO","1706 JUSTIN RD",LEWISVILLE,TX,75077-2131,"(972) 221-3959",http://www.bmrpoolandpatio.com/,"(972) 317-3360",,sales@bmrpoolandpatio.com
TX,TARRANT,"BSWP - 20 - 4279","Residential Swimming Pools & Spas",12/16/2020,,55940,,"441 JONES ST",GRAPEVINE,TX,76051,,,CONTRACTOR,,,,,,,,,,,"TRIDENT SWIMMING POOLS",,,,,"TRIDENT SWIMMING POOLS","504 S DOOLEY ST",GRAPEVINE,TX,76051-5455,"(817) 825-2477",http://tridentswimmingpools.com/,,"TIM BOWLING",tim@tridentswimmingpools.com
TX,TARRANT,"BSWP - 20 - 4295","Residential Swimming Pools & Spas",12/8/2020,,70000,,"4165 HALLMONT DR",GRAPEVINE,TX,76051,,,"CHAD BARTON","4165 HALLMONT DR",GRAPEVINE,TX,76051,,Owner,,,,,"KLAPPRODTS POOLS",,,,,"KLAPPRODTS POOLS","181 N MAIN ST",KELLER,TX,76248-4432,"(817) 431-1847",http://www.klapprodtpools.com/,,,sales@klapprodtpools.com
TX,TARRANT,"BSWP - 20 - 4304","Residential Swimming Pools & Spas",12/8/2020,,38000,,"409 CRESTVIEW DR",GRAPEVINE,TX,76051,,,"JONATHAN BIRD","409 CRESTVIEW DR",GRAPEVINE,TX,76051,,Owner,,,,,"KLAPPRODTS POOLS",,,,,"KLAPPRODTS POOLS","181 N MAIN ST",KELLER,TX,76248-4432,"(817) 431-1847",http://www.klapprodtpools.com/,,,sales@klapprodtpools.com
TX,TARRANT,"BSWP - 20 - 4360","Residential Swimming Pools & Spas",12/29/2020,,55000,420,"518 ALAMO TRL",GRAPEVINE,TX,76051,,,"JONATHAN MATHEUS","518 ALAMO TRL",GRAPEVINE,TX,76051,,Owner,,,,,"LEGACY POOLS",,,,,"LEGACY POOLS","1580 MIRA LAGO BLVD APT 473",DALLAS,TX,75234-1402,"(214) 485-0599",,,"BILLY SMITH",
TX,TARRANT,"BSWP - 20 - 4472","Residential Swimming Pools & Spas",12/18/2020,,50000,,"924 E WORTH ST",GRAPEVINE,TX,76051,,,"DAT NGUYEN","924 E WORTH ST",GRAPEVINE,TX,76051,,Owner,,,,,"MM MOORE CONSTRUCTION",,,,,"MM MOORE CONSTRUCTION","4399 WESTGROVE DR",ADDISON,TX,75001-3246,"(972) 248-0123",,,,
TX,TARRANT,"20 - 04152","Residential Swimming Pools & Spas",12/1/2020,,,,"1605 HACKNEY DR",MANSFIELD,TX,76063,,10,CONTRACTOR,,,,,,,,,,,"SPLASHAWAY POOL & SPA",,,,,"SPLASHAWAY POOL & SPA","3231 CALEB CT E",MIDLOTHIAN,TX,76065-3725,"(817) 383-2119",https://www.splashawaypoolandspa.com,,,bill@splashawaypool.com
TX,TARRANT,"20 - 04351","Residential Swimming Pools & Spas",12/22/2020,,,,"908 RED OAK DR",MANSFIELD,TX,76063,"THE OAKS",3,"MICHAEL ROBERTS","908 RED OAK DR",MANSFIELD,TX,76063,,Owner,,,,,"LEMASTER CUSTOM POOLS",,,,,"LEMASTER CUSTOM POOLS","625 HENDERSON ST",JOSHUA,TX,76058,"(817) 999-1860",,,,
TX,TARRANT,"20 - 04772","Residential Swimming Pools & Spas",12/1/2020,,,,"3211 STANDRIDGE LN",MANSFIELD,TX,76063,SOMERSET,1,CONTRACTOR,,,,,,,,,,,"SPLASHAWAY POOL & SPA",,,,,"SPLASHAWAY POOL & SPA","3231 CALEB CT E",MIDLOTHIAN,TX,76065-3725,"(817) 383-2119",https://www.splashawaypoolandspa.com,,,bill@splashawaypool.com
TX,TARRANT,"20 - 04774","Residential Swimming Pools & Spas",12/1/2020,,,,"2505 BLOSSOM TRL",MANSFIELD,TX,76063,"THE TRAILS",15,"AMY BERRY","2505 BLOSSOM TRL",MANSFIELD,TX,76063,,Owner,,,,,"SPLASHAWAY POOL & SPA",,,,,"SPLASHAWAY POOL & SPA","3231 CALEB CT E",MIDLOTHIAN,TX,76065-3725,"(817) 383-2119",https://www.splashawaypoolandspa.com,,,bill@splashawaypool.com
TX,TARRANT,"20 - 04780","Residential Swimming Pools & Spas",12/2/2020,,,,"2803 CARRINGTON DR",MANSFIELD,TX,76063,SOUTHPOINTE,14,CONTRACTOR,,,,,,,,,,,"PREMIER POOLS & SPAS",,,,,"PREMIER POOLS & SPAS","1333 MCDERMOTT STE 200",ALLEN,TX,75013,"(214) 620-1044",,,,
TX,TARRANT,"20 - 04782","Residential Swimming Pools & Spas",12/16/2020,,,,"1104 STONEWALL DR",MANSFIELD,TX,76063,SOUTHPOINTE,3,CONTRACTOR,,,,,,,,,,,"RIVER MIST POOLS & SPA",,,,,"RIVER MIST POOLS & SPA","1000 E MAIN ST STE 104",MIDLOTHIAN,TX,76065-3334,"(972) 775-1444",http://rivermistpools.com/,,"JEREMY ATTERBERRY",jeremy@rivermistpools.com
TX,TARRANT,"20 - 04842","Residential Swimming Pools & Spas",12/16/2020,,,,"6 PAR CT",MANSFIELD,TX,76063,MANSFIELD,11,"BRANDON FLORES","6 PAR CT",MANSFIELD,TX,76063,,Owner,,,,,"PURYEAR CUSTOM POOLS",,,,,"PURYEAR CUSTOM POOLS","2200 CANTRELL SANSOM RD","FORT WORTH",TX,76131-1606,"(817) 306-5169",http://www.puryearpools.com,"(817) 306-3681",,
TX,TARRANT,"20 - 04905","Residential Swimming Pools & Spas",12/18/2020,,,,"4308 GLENEAGLES DR",MANSFIELD,TX,76063,"VISTA NATIONAL",5,CONTRACTOR,,,,,,,,,,,"TRUE POOL COMPANY",,,,,"TRUE POOL COMPANY","201 N RIDGE TRL",PROSPER,TX,75078-7060,"(972) 878-8306",https://www.truepoolcompany.com/,,,amcleod@truepoolcompany.com
TX,TARRANT,"20 - 04936","Residential Swimming Pools & Spas",12/14/2020,,,,"837 COLUMBIA CT",MANSFIELD,TX,76063,"TWIN CREEKS",7,"STEPHEN BUCKNER","837 COLUMBIA CT",MANSFIELD,TX,76063,,Owner,,,,,"ACCENT POOLS",,,,,"ACCENT POOLS","1028 W PIONEER PKWY",ARLINGTON,TX,76013-6331,"(817) 226-7665",http://www.accentpoolsinc.net/,"(817) 275-0647",,
TX,TARRANT,"20 - 04937","Residential Swimming Pools & Spas",12/17/2020,,,,"1105 MCKENZIE DR",MANSFIELD,TX,76063,"TWIN CREEKS",14,"DAVID DALTON","1105 MCKENZIE DR",MANSFIELD,TX,76063,,Owner,,,,,"ACCENT POOLS",,,,,"ACCENT POOLS","1028 W PIONEER PKWY",ARLINGTON,TX,76013-6331,"(817) 226-7665",http://www.accentpoolsinc.net/,"(817) 275-0647",,
TX,TARRANT,"20 - 04945","Residential Swimming Pools & Spas",12/18/2020,,,,"1703 FAIRHAVEN DR",MANSFIELD,TX,76063,"PLANTATION ESTATES",24,"JOE SEATON","1703 FAIRHAVEN DR",MANSFIELD,TX,76063,,Owner,,,,,"DOLCE POOLS",,,,,"DOLCE POOLS","10 CARROL PRICE CT",MANSFIELD,TX,76063-7013,"(817) 300-3606",,,"TYLER NEUFELDT",
TX,TARRANT,"20 - 05017","Residential Swimming Pools & Spas",12/22/2020,,,,"97 FOREST GLEN DR",MANSFIELD,TX,76063,"VILLAGES AT SPRING LAKE",10,"SEAN JAYNES","97 FOREST GLEN DR",MANSFIELD,TX,76063,,Owner,,,,,"LEMASTER CUSTOM POOLS",,,,,"LEMASTER CUSTOM POOLS","625 HENDERSON ST",JOSHUA,TX,76058,"(817) 999-1860",,,,
TX,TARRANT,"20 - 05103","Residential Swimming Pools & Spas",12/11/2020,,,,"1415 CONCHO TRL",MANSFIELD,TX,76063,,,CONTRACTOR,,,,,,,,,,,"PREMIER POOLS & SPAS",,,,,"PREMIER POOLS & SPAS","1333 MCDERMOTT STE 200",ALLEN,TX,75013,"(214) 620-1044",,,,
TX,TARRANT,"20 - 05149","Residential Swimming Pools & Spas",12/22/2020,,,,"902 ROYAL CT",MANSFIELD,TX,76063,QUEENSGATE,28,"ROBERT LEE","902 ROYAL CT",MANSFIELD,TX,76063,,Owner,,,,,"OASIS POOLS",,,,,"OASIS POOLS","2251 DOUBLE CREEK DR STE 501","ROUND ROCK",TX,78664-3832,"(512) 246-7665",http://oasispools.net/,"(512) 246-7693","ED KIRBY",
TX,TARRANT,"20 - 05171","Residential Swimming Pools & Spas",12/17/2020,,,,"1301 WESTRIDGE DR",MANSFIELD,TX,76063,"LOWES FARM",29,"EDWARD HUGHES","1301 WESTRIDGE DR",MANSFIELD,TX,76063,,Owner,,,,,"BLUE DIAMOND POOLS ",,,,,"BLUE DIAMOND POOLS ","661 E MAIN ST # 200-166",MIDLOTHIAN,TX,76065-3340,"(817) 821-1786",http://www.mybluediamondpools.com/,,,
TX,TARRANT,"20 - 05191","Residential Swimming Pools & Spas",12/18/2020,,,,"903 KILLIAN DR",MANSFIELD,TX,76063,WOODLAND,36,"RICHARD DILL","903 KILLIAN DR",MANSFIELD,TX,76063,,Owner,,,,,"ACCENT POOLS",,,,,"ACCENT POOLS","1028 W PIONEER PKWY",ARLINGTON,TX,76013-6331,"(817) 226-7665",http://www.accentpoolsinc.net/,"(817) 275-0647",,
TX,TARRANT,"20 - 05196","Residential Swimming Pools & Spas",12/29/2020,,,,"704 RIVERWOOD CT",MANSFIELD,TX,76063,,,"RODRICK WHITE","704 RIVERWOOD CT",MANSFIELD,TX,76063,,Owner,,,,,"AQUAMARINE POOLS",,,,,"AQUAMARINE POOLS","4701 S I-35W",ALVARADO,TX,76009,"(800) 432-8994",,,,don@aquapools.com
TX,TARRANT,"20 - 05223","Residential Swimming Pools & Spas",12/22/2020,,,,"3400 HUNTER GLEN DR",MANSFIELD,TX,76063,"HUNTER OAKS",15,"MICHAEL ORTIZ","3400 HUNTER GLEN DR",MANSFIELD,TX,76063,,Owner,,,,,"PURYEAR CUSTOM POOLS",,,,,"PURYEAR CUSTOM POOLS","2200 CANTRELL SANSOM RD","FORT WORTH",TX,76131-1606,"(817) 306-5169",http://www.puryearpools.com,"(817) 306-3681",,
TX,TARRANT,20-0103,"Residential Swimming Pools & Spas",12/3/2020,,40000,,"612 PARK PLACE CT",SOUTHLAKE,TX,76092,,,"JEFFREY WALTER","612 PARK PLACE CT",SOUTHLAKE,TX,76092,,Owner,,,,,"SUNSTONE POOLS & OUTDOOR LIVING",,,,,"SUNSTONE POOLS & OUTDOOR LIVING","2840 MARKET LOOP STE 106",SOUTHLAKE,TX,76092-9178,"(817) 988-4756",http://sunstonepools.com,,,
TX,TARRANT,20-0101,"Residential Swimming Pools & Spas",12/2/2020,,95900,,"1709 TORIAN LN",SOUTHLAKE,TX,76092,,,"PAUL HERCHMAN","1709 TORIAN LN",SOUTHLAKE,TX,76092,,Owner,,,,,"PRISTINE CUSTOM POOLS ",,,,,"PRISTINE CUSTOM POOLS ","1900 INDUSTRIAL BLVD STE 206",SOUTHLAKE,TX,76034,"(817) 416-7665",,"(817) 416-7070","BURTON BOECK",
TX,TARRANT,20-0109,"Residential Swimming Pools & Spas",12/17/2020,,35000,,"2313 PALMETTO WAY",SOUTHLAKE,TX,76092,,,"PABLO ALBORES","2313 PALMETTO WAY",SOUTHLAKE,TX,76092,,Owner,,,,,"MID CITY CUSTOM POOLS",,,,,"MID CITY CUSTOM POOLS","7700 PRECINCT LINE RD",HURST,TX,76054-2355,"(817) 605-7665",http://www.midcitypools.com/,"(817) 656-9479","DON PIERCE",
TX,TARRANT,20-0111,"Residential Swimming Pools & Spas",12/30/2020,,169400,,"2010 E HIGHLAND ST",SOUTHLAKE,TX,76092,,,CONTRACTOR,,,,,,,,,,,"CLAFFEY POOLS ",,,,,"CLAFFEY POOLS ","1625 BRUMLOW AVE",SOUTHLAKE,TX,76092-9728,"(817) 488-5795",http://www.claffeypools.com,,,
TX,TARRANT,20-0128,"Residential Swimming Pools & Spas",12/10/2020,,30000,,"1749 TUSCAN RIDGE CIR",SOUTHLAKE,TX,76092,,,"BRENTON MEURER","1749 TUSCAN RIDGE CIR",SOUTHLAKE,TX,76092,,Owner,,,,,"MATTHEWS CUSTOM POOLS",,,,,"MATTHEWS CUSTOM POOLS","PO BOX 2022",BURLESON,TX,76097-2022,"(817) 498-5145",,,,
TX,TARRANT,20-0134,"Residential Swimming Pools & Spas",12/4/2020,,65000,,"212 LEGACY CT",SOUTHLAKE,TX,76092,,,"SRIDHAR BADIREDDI","212 LEGACY CT",SOUTHLAKE,TX,76092,,Owner,,,,,"COMPLETE LANDSCULPTURE",,,,,"COMPLETE LANDSCULPTURE","2000 SANDY LN",DALLAS,TX,75220-4213,"(214) 358-5296",http://www.completelandsculpture.com/site.php,"(214) 357-5121","CHRIS STREMPEK",
TX,TARRANT,20-0135,"Residential Swimming Pools & Spas",12/28/2020,,104573,,"303 MONTPELIER DR",SOUTHLAKE,TX,76092,,,"BRITTON BARNES","303 MONTPELIER DR",SOUTHLAKE,TX,76092,,Owner,,,,,"CLAFFEY POOLS ",,,,,"CLAFFEY POOLS ","1625 BRUMLOW AVE",SOUTHLAKE,TX,76092-9728,"(817) 488-5795",http://www.claffeypools.com,,,
TX,TARRANT,20-0136,"Residential Swimming Pools & Spas",12/1/2020,,40000,,"4313 SADDLEBACK LN",SOUTHLAKE,TX,76092,,,CONTRACTOR,,,,,,,,,,,"J CALDWELL CUSTOM POOLS",,,,,"J CALDWELL CUSTOM POOLS","5744 BOAT CLUB RD STE 200","FORT WORTH",TX,76179-7759,"(817) 237-7662",,,,
TX,TARRANT,20-0137,"Residential Swimming Pools & Spas",12/1/2020,,275000,,"1205 COSTA AZUL CT",SOUTHLAKE,TX,76092,,,CONTRACTOR,,,,,,,,,,,"PURE DESIGN",,,,,"PURE DESIGN","5151 HEADQUARTERS DR SUITE 110",FRISCO,TX,75034,"(972) 256-8867",,,,
TX,TARRANT,20-0138,"Residential Swimming Pools & Spas",12/1/2020,,80500,,"2108 ESTES PARK DR",SOUTHLAKE,TX,76092,,,"STACY JETER","2108 ESTES PARK DR",SOUTHLAKE,TX,76092,,Owner,,,,,"CLAFFEY POOLS ",,,,,"CLAFFEY POOLS ","1625 BRUMLOW AVE",SOUTHLAKE,TX,76092-9728,"(817) 488-5795",http://www.claffeypools.com,,,
TX,TARRANT,20-0139,"Residential Swimming Pools & Spas",12/14/2020,,126000,,"921 LA SALLE LN",SOUTHLAKE,TX,76092,,,"MEGHNA SHARMA","921 LA SALLE LN",SOUTHLAKE,TX,76092,,Owner,,,,,"CLAFFEY POOLS ",,,,,"CLAFFEY POOLS ","1625 BRUMLOW AVE",SOUTHLAKE,TX,76092-9728,"(817) 488-5795",http://www.claffeypools.com,,,
TX,TARRANT,20-0142,"Residential Swimming Pools & Spas",12/29/2020,,70000,,"211 E HIGHLAND ST",SOUTHLAKE,TX,76092,,,"SHIVPRASAD SHENOY","211 E HIGHLAND ST",SOUTHLAKE,TX,76092,,Owner,,,,,"KLAPPRODTS POOLS",,,,,"KLAPPRODTS POOLS","181 N MAIN ST",KELLER,TX,76248-4432,"(817) 431-1847",http://www.klapprodtpools.com/,,,sales@klapprodtpools.com
TX,TARRANT,20-0145,"Residential Swimming Pools & Spas",12/22/2020,,35000,,"4613 SADDLEBACK LN",SOUTHLAKE,TX,76092,,,CONTRACTOR,,,,,,,,,,,"J CALDWELL CUSTOM POOLS",,,,,"J CALDWELL CUSTOM POOLS","5744 BOAT CLUB RD STE 200","FORT WORTH",TX,76179-7759,"(817) 237-7662",,,,
TX,TARRANT,20-0149,"Residential Swimming Pools & Spas",12/22/2020,,127000,,"804 PARK VISTA CIR",SOUTHLAKE,TX,76092,,,"BEVERLY BARR","804 PARK VISTA CIR",SOUTHLAKE,TX,76092,,Owner,,,,,"WATERCREST POOLS",,,,,"WATERCREST POOLS","1103 KELLER PKWY STE 105",KELLER,TX,76248-3600,"(817) 431-8997",http://www.watercrestpools.com,,,
TX,TARRANT,"2020 111070 000 00 CP","Restaurant and Bar",12/1/2020,Renovation,100000,1540,"5001 S COOPER ST",ARLINGTON,TX,76017,,,CONTRACTOR,,,,,,,,,,,"SUITE INTERIOR DESIGNS",,,,,"SUITE INTERIOR DESIGNS","605 ABELS WAY CANYON LAKE","CANYON LAKE",TX,78133,"(214) 929-1525",,,,
TX,TARRANT,"2020 110842 000 00 CP","Restaurant and Bar",12/10/2020,"Finish Out",47000,2555,"2356 E PIONEER PARKWAY",ARLINGTON,TX,76010,,,CONTRACTOR,,,,,,,,,,,"JL IMPORTS",,,,,"JL IMPORTS","414 SOUTH MARLBOROUGH AVENUE ",DALLAS,TX,75208,"(214) 680-0491",,,,
TX,TARRANT,"2020 109367 000 00 CP","Restaurant and Bar",12/15/2020,"Finish Out",68638,3800,"4638 S COOPER ST",ARLINGTON,TX,76017,,,CONTRACTOR,,,,,,,,,,,"JBNN DESIGN & CONSTRUCTION GROUP",,,,,"JBNN DESIGN & CONSTRUCTION GROUP","4303 S BOWEN RD STE 101",ARLINGTON,TX,76016-4960,"(972) 896-1816",http://www.jbnnarch.com/,"(817) 855-0056","BILL NGUYEN",bnguyen@jbnnarch.com
TX,DENTON,FO20-08197,"Restaurant and Bar",12/16/2020,,,1267,"3721 JUSTIN RD SUITE 150","FLOWER MOUND",TX,75052,,,"DUWEST REALTY","3721 JUSTIN RD SUITE 150","FLOWER MOUND",TX,75052,,Owner,,,,,OWNER,,,,,OWNER,,,,,,,,,
TX,TARRANT,20-0108,"Restaurant and Bar",12/15/2020,,260000,260000,"250 STATE ST",SOUTHLAKE,TX,76092,,,CONTRACTOR,,,,,,,,,,,"ELDER JONES",,,,,"ELDER JONES","1120 E 80TH ST STE 211",MINNEAPOLIS,MN,55420-1463,"(952) 345-6030",http://www.elderjones.com/,"(866) 404-6841","JOHN S. ELDER",jselder@elderjones.com
TX,TARRANT,20-0115,"Restaurant and Bar",12/29/2020,,300000,2000,"1276 MAIN ST",SOUTHLAKE,TX,76092,,,CONTRACTOR,,,,,,,,,,,"MAPLEWOOD GROUP",,,,,"MAPLEWOOD GROUP","25 HIGHLAND PARK VLG # 100-564",DALLAS,TX,75205-2789,"(214) 674-7217",,,,
TX,KAUFMAN,20-000475,Retail,12/21/2020,,420000,4200,"201 KINGS FORT PKWY",KAUFMAN,TX,75142,,,CONTRACTOR,,,,,,,,,,,"COMMERCIAL CONSTRUCTION GROUP",,,,,"COMMERCIAL CONSTRUCTION GROUP","3435 STATE HIGHWAY 276",ROCKWALL,TX,75032-7189,"(972) 961-0444",http://www.ccgcommercialgroup.com,"(972) 961-0496",,
TX,KAUFMAN,CNBC-20-0515,Retail,12/2/2020,,3500000,19097,"2705 TABOR PKWY",KAUFMAN,TX,75142,,,CONTRACTOR,,,,,,,,,,,"CUNNINGHAM CLARK CONSTRUCTION",,,,,"CUNNINGHAM CLARK CONSTRUCTION","2601 HARRISON ST #900","WICHITA FALLAS",TX,76308,"(940) 761-6070",,,,
TX,KAUFMAN,20-000476,Retail,12/21/2020,,369900,3696,"209 KINGS FORT PKWY",KAUFMAN,TX,75142,,,CONTRACTOR,,,,,,,,,,,"COMMERCIAL CONSTRUCTION GROUP",,,,,"COMMERCIAL CONSTRUCTION GROUP","3435 STATE HIGHWAY 276",ROCKWALL,TX,75032-7189,"(972) 961-0444",http://www.ccgcommercialgroup.com,"(972) 961-0496",,
TX,KAUFMAN,20-000474,Retail,12/21/2020,,280000,2800,"101 KINGS FORT PKWY",KAUFMAN,TX,75142,,,CONTRACTOR,,,,,,,,,,,"COMMERCIAL CONSTRUCTION GROUP",,,,,"COMMERCIAL CONSTRUCTION GROUP","3435 STATE HIGHWAY 276",ROCKWALL,TX,75032-7189,"(972) 961-0444",http://www.ccgcommercialgroup.com,"(972) 961-0496",,
TX,TARRANT,"2020 122723 000 00 CP",Retail,12/23/2020,Renovation,35000,8732,"2411 S COOPER ST",ARLINGTON,TX,76015,,,CONTRACTOR,,,,,,,,,,,"S L HAYDEN CONSTRUCTION",,,,,"S L HAYDEN CONSTRUCTION","3015 S I35 W",BURLESON,TX,76028,"(817) 783-7900",,,,
TX,TARRANT,"2020 068589 000 00 CP",Retail,12/10/2020,Renovation,1400000,22632,"4632 S COOPER ST",ARLINGTON,TX,76017,,,CONTRACTOR,,,,,,,,,,,"HOBBY LOBBY STORES",,,,,"HOBBY LOBBY STORES","7707 SW 44TH ST","OKLAHOMA CITY",OK,73179,"(405) 745-1557",,,,
TX,TARRANT,"2020 024376 000 00 CP",Retail,12/21/2020,Renovation,400000,55435,"2210 S FIELDER ROAD",ARLINGTON,TX,76013,,,CONTRACTOR,,,,,,,,,,,"D&O CONSTRUCTION",,,,,"D&O CONSTRUCTION","2401 ROCKBROOK CT",PLANO,TX,75074-4672,"(972) 850-8244",,,,
TX,TARRANT,"COMA - 20 - 4106",Retail,12/17/2020,Renovation,100000,13702,"3000 GRAPEVINE MILLS PKWY # 230",GRAPEVINE,TX,76051,,,CONTRACTOR,,,,,,,,,,,"LEVEL 5 RETAIL CONSTRUCTION",,,,,"LEVEL 5 RETAIL CONSTRUCTION","6406 HIGHWAY 78 STE 205",SACHSE,TX,75048-3205,"(469) 909-6121",http://www.level5retail.com,,,info@level5retail.com
TX,DENTON,FO20-07784,Retail,8/12/2020,,,2768,"600 PARKER SQUARE RD SUITE 250","FLOWER MOUND",TX,75052,,,"PARKER ASSETS I LLC","600 PARKER SQUARE RD SUITE 250",HOUSTON,TX,75052,,Owner,,,,,"CAAM CONSTRUCTION",,,,,"CAAM CONSTRUCTION","8501 CROSS TIMBERS RD","FLOWER MOUND",TX,75022-6432,"(817) 382-2233",,,,
TX,DENTON,FO20-07779,Retail,12/22/2020,,,2350,"709 ENTERPRISE RD SUITE 200","FLOWER MOUND",TX,75052,,,"STREAM REALTY","709 ENTERPRISE RD SUITE 200","FLOWER MOUND",TX,75052,,Owner,,,,,"ELLECO CONSTRUCTION",,,,,"ELLECO CONSTRUCTION","201 W COMMERCE ST STE 101",DALLAS,TX,75208-1916,"(214) 760-9241",,,,
TX,TARRANT,"20 - 04137",Retail,12/21/2020,,75000,,"1530 E DEBBIE LN SUITE # 128",MANSFIELD,TX,76063,,,CONTRACTOR,,,,,,,,,,,"RESERVE CONSTRUCTION",,,,,"RESERVE CONSTRUCTION","12404 PARK CENTRAL DR STE 255-S",DALLAS,TX,75251-1800,"(214) 983-1364",,,,
TX,TARRANT,"20 - 04706",Retail,12/2/2020,,49900,,"2200 FM 157 SUITE 208",MANSFIELD,TX,76065,"FOREST MILL",,CONTRACTOR,,,,,,,,,,,"FALLAH CONSTRUCTION",,,,,"FALLAH CONSTRUCTION","12771 HONEY LOCUST CIRCLE",EULESS,TX,76040,"(817) 896-0910",,,,
TX,DALLAS,"20 - 1596",Retail,12/30/2020,,170000,,"29 HPSV","HIGHLAND PARK",TX,75205,,,"HP VLG PARTNERS","29 HPSV","HIGHLAND PARK",TX,75205,,Owner,,,,,OWNER,,,,,OWNER,,,,,,,,,
TX,TARRANT,20-0013,Retail,12/16/2020,,195000,3311,"1625 BRUMLOW AVE",SOUTHLAKE,TX,76262,,,CONTRACTOR,,,,,,,,,,,"CLAFFEY POOLS ",,,,,"CLAFFEY POOLS ","1625 BRUMLOW AVE",SOUTHLAKE,TX,76092-9728,"(817) 488-5795",http://www.claffeypools.com,,,
TX,TARRANT,20-0091,Retail,12/11/2020,,337625,2701,"2600 E SOUTHLAKE BLVD 150",SOUTHLAKE,TX,76262,,,CONTRACTOR,,,,,,,,,,,INTERPLAN,,,,,INTERPLAN,"6815 MANHATTAN BLVD, SUITE 115","FORT WORTH",TX,76120,"(682) 747-5054",https://www.interplanllc.com/,,,
TX,TARRANT,20-0103,Retail,12/15/2020,,300000,2794,"241 W SOUTHLAKE BLVD 100",SOUTHLAKE,TX,76262,,,CONTRACTOR,,,,,,,,,,,"TRI-STAR CONSTRUCTION",,,,,"TRI-STAR CONSTRUCTION","3601 YUCCA DR","FLOWER MOUND",TX,75028-2747,"(972) 221-5558",http://www.tristarcorp.org/,"(972) 219-7099",,
TX,COLLIN,,Retail,12/7/2020,,2537000,105229,"4450 WEST UNIVERSITY DR",PROSPER,TX,75078,,,CONTRACTOR,,,,,,,,,,,"THE HOME DEPOT",,,,,"THE HOME DEPOT","200 UNION BOWER CT STE 218",IRVING,TX,75061-5836,"(936) 525-9517",http://www.homedepot.com,,,
TX,DENTON,20-5897,"Single Family Homes",12/9/2020,,441865,,"401 TRIGGER TRAIL",ARGYLE,TX,76226,,,CONTRACTOR,,,,,,,,,,,"OUR COUNTRY HOMES",,,,,"OUR COUNTRY HOMES","700 W HARWOOD RD STE G2",HURST,TX,76054-3315,"(817) 281-3390",http://www.ourcountryhomes.com/,"(817) 796-1121","DUSTIN AUSTIN",
TX,DENTON,20-5914,"Single Family Homes",12/16/2020,,563178,,"272 CARRINGTON DR",ARGYLE,TX,76226,,,CONTRACTOR,,,,,,,,,,,"SOUTHGATE HOMES",,,,,"SOUTHGATE HOMES","3131 HARVARD AVE STE 103",DALLAS,TX,75205-3437,"(214) 453-0146",,,,
TX,DENTON,20-5906,"Single Family Homes",12/14/2020,,314394,,"295 WATERS EDGE DR",ARGYLE,TX,76226,,,CONTRACTOR,,,,,,,,,,,"MHI MCGUYER HOMEBUILDERS",,,,,"MHI MCGUYER HOMEBUILDERS","1501 LYNDON B JOHNSON FWY STE 100",DALLAS,TX,75234-6029,"(972) 277-3811",,,,
TX,DENTON,20-5927,"Single Family Homes",12/23/2020,,167597,,"729 WATERBROOK PKWY",ARGYLE,TX,76226,,,CONTRACTOR,,,,,,,,,,,"GEHAN HOMES",,,,,"GEHAN HOMES","14901 QUORUM DR STE 300",DALLAS,TX,75254-6735,"(972) 383-4300",http://www.gehanhomes.com,,,
TX,DENTON,20-5928,"Single Family Homes",12/23/2020,,167899,,"719 WATERBROOK PKWY",ARGYLE,TX,76226,,,CONTRACTOR,,,,,,,,,,,"GEHAN HOMES",,,,,"GEHAN HOMES","14901 QUORUM DR STE 300",DALLAS,TX,75254-6735,"(972) 383-4300",http://www.gehanhomes.com,,,
TX,DENTON,20-5929,"Single Family Homes",12/23/2020,,143295,,"731 WATERBROOK PKWY",ARGYLE,TX,76226,,,CONTRACTOR,,,,,,,,,,,"GEHAN HOMES",,,,,"GEHAN HOMES","14901 QUORUM DR STE 300",DALLAS,TX,75254-6735,"(972) 383-4300",http://www.gehanhomes.com,,,
TX,KAUFMAN,SF-20-0582,"Single Family Homes",12/7/2020,,285000,2479,"4106 SPANGLER CT",KAUFMAN,TX,75142,"GEORGETOWN AT KINGS",8,CONTRACTOR,,,,,,,,,,,"BLOOMFIELD HOMES",,,,,"BLOOMFIELD HOMES","1050 E STATE HIGHWAY 114 STE 210",SOUTHLAKE,TX,76092-5255,"(972) 971-2103",http://bloomfieldhomes.net/,"(972) 987-4342",,mattjennings@bloomfieldhomes.net
TX,DALLAS,200754,"Single Family Homes",12/18/2020,,,9494,"650 E TRIPP ROAD",SUNNYVALE,TX,75182,,,CONTRACTOR,,,,,,,,,,,"ROC DESIGN ENGINEERS AND CONSTRUCTION",,,,,"ROC DESIGN ENGINEERS AND CONSTRUCTION","5032 LEMMON AVENUE B",DALLAS,TX,75209,"(214) 599-0000",,,,
TX,DALLAS,200734,"Single Family Homes",12/21/2020,,,6702,"223 CATULLUS DR",SUNNYVALE,TX,75182,,,CONTRACTOR,,,,,,,,,,,"WINDSOR HOMES",,,,,"WINDSOR HOMES","8214 WESTCHESTER DR STE 710",DALLAS,TX,75225-6133,"(214) 522-4945",,"(214) 522-7244",,
TX,DALLAS,200733,"Single Family Homes",12/28/2020,,580583,4741,"218 MADISON CT",SUNNYVALE,TX,75182,,,CONTRACTOR,,,,,,,,,,,"SOUTHGATE HOMES",,,,,"SOUTHGATE HOMES","3131 HARVARD AVE STE 103",DALLAS,TX,75205-3437,"(214) 453-0146",,,,
TX,TARRANT,"20- 000892","Single Family Homes",12/7/2020,,160045,,"233 ROCK MEADOW DR",CROWLEY,TX,76036,,,CONTRACTOR,,,,,,,,,,,"HARK HOMES",,,,,"HARK HOMES","2100 UNDERWOOD RD",ALEDO,TX,76008,"(817) 441-9543",https://www.harktx.com/,,,
TX,DALLAS,200673,"Single Family Homes",12/14/2020,,470670,4531,"341 COLLINS RD",SUNNYVALE,TX,75182,,,CONTRACTOR,,,,,,,,,,,"HAMILTON HOUSE BY DESIGN",,,,,"HAMILTON HOUSE BY DESIGN","433 HUNTERS CREEK DR",SUNNYVALE,TX,75182-4607,"(214) 693-5559",,,,
TX,TARRANT,"20- 000893","Single Family Homes",12/7/2020,,152942,,"237 ROCK MEADOW DR",CROWLEY,TX,76036,,,CONTRACTOR,,,,,,,,,,,"HARK HOMES",,,,,"HARK HOMES","2100 UNDERWOOD RD",ALEDO,TX,76008,"(817) 441-9543",https://www.harktx.com/,,,
TX,TARRANT,"20- 000895","Single Family Homes",12/7/2020,,162100,,"245 ROCK MEADOW DR",CROWLEY,TX,76036,,,CONTRACTOR,,,,,,,,,,,"HARK HOMES",,,,,"HARK HOMES","2100 UNDERWOOD RD",ALEDO,TX,76008,"(817) 441-9543",https://www.harktx.com/,,,
TX,TARRANT,20BEN-0910,"Single Family Homes",12/2/2020,,,2622,"4003 BENDALE RD",BENBROOK,TX,76116,,,CONTRACTOR,,,,,,,,,,,"SANDLIN HOMES",,,,,"SANDLIN HOMES","5137 DAVIS BLVD","FORT WORTH",TX,76180-6873,"(817) 281-3509",,,,
TX,TARRANT,20200459,"Single Family Homes",12/8/2020,,130000,5178,"7030 ALICE","LAKE WORTH",TX,76135,,,CONTRACTOR,,,,,,,,,,,"MAB TRUCKING",,,,,"MAB TRUCKING","3700 ANGLE AVE","FORT WORTH",TX,76106,"(817) 751-9668",,,,
TX,TARRANT,20BEN-0928,"Single Family Homes",12/2/2020,,,2365,"4005 BENDALE RD",BENBROOK,TX,76116,,,CONTRACTOR,,,,,,,,,,,"SANDLIN HOMES",,,,,"SANDLIN HOMES","5137 DAVIS BLVD","FORT WORTH",TX,76180-6873,"(817) 281-3509",,,,
TX,TARRANT,20BEN-0944,"Single Family Homes",12/9/2020,,,8117,"4925 ARBOL CT",BENBROOK,TX,76126,,,CONTRACTOR,,,,,,,,,,,"WINDMILLER CUSTOM HOMES",,,,,"WINDMILLER CUSTOM HOMES","1169 N BURLESON BLVD # 107-230",BURLESON,TX,76028-7011,"(817) 637-6001",,"(817) 294-4775","Jason Puryear ",jason@windmillerhomes.com
TX,TARRANT,20BEN-0974,"Single Family Homes",12/10/2020,,,2950,"11049 HAWKINS HOME BLVD",BENBROOK,TX,76126,,,CONTRACTOR,,,,,,,,,,,"STEVE HAWKINS CUSTOM HOMES",,,,,"STEVE HAWKINS CUSTOM HOMES","7201 HAWKINS VIEW DR STE 101","FORT WORTH",TX,76132-3935,"(817) 737-4446",http://stevehawkinshomes.com/,"(817) 737-4858",,Laura@stevehawkinshomes.com
TX,COLLIN,,"Single Family Homes",12/28/2020,,,1941,"2735 GARDEN GATE LN",WYLIE,TX,75098,,,CONTRACTOR,,,,,,,,,,,"GRENADIER HOMES",,,,,"GRENADIER HOMES","5000 QUORUM DR STE 555",DALLAS,TX,75254-7139,"(469) 619-6452",http://grenadierhomes.com,,,
TX,COLLIN,,"Single Family Homes",12/28/2020,,,2212,"2737 GARDEN GATE LN",WYLIE,TX,75098,,,CONTRACTOR,,,,,,,,,,,"GRENADIER HOMES",,,,,"GRENADIER HOMES","5000 QUORUM DR STE 555",DALLAS,TX,75254-7139,"(469) 619-6452",http://grenadierhomes.com,,,
TX,COLLIN,,"Single Family Homes",12/28/2020,,,1941,"2739 GARDEN GATE LN",WYLIE,TX,75098,,,CONTRACTOR,,,,,,,,,,,"GRENADIER HOMES",,,,,"GRENADIER HOMES","5000 QUORUM DR STE 555",DALLAS,TX,75254-7139,"(469) 619-6452",http://grenadierhomes.com,,,
TX,COLLIN,,"Single Family Homes",12/28/2020,,,1794,"2741 GARDEN GATE LN",WYLIE,TX,75098,,,CONTRACTOR,,,,,,,,,,,"GRENADIER HOMES",,,,,"GRENADIER HOMES","5000 QUORUM DR STE 555",DALLAS,TX,75254-7139,"(469) 619-6452",http://grenadierhomes.com,,,
TX,COLLIN,,"Single Family Homes",12/28/2020,,,1968,"2733 GARDEN GATE LN",WYLIE,TX,75098,,,CONTRACTOR,,,,,,,,,,,"GRENADIER HOMES",,,,,"GRENADIER HOMES","5000 QUORUM DR STE 555",DALLAS,TX,75254-7139,"(469) 619-6452",http://grenadierhomes.com,,,
TX,COLLIN,20-1005,"Single Family Homes",6/1/2021,,82535,,"414  GOLDEN ST",WYLIE,TX,75098,,,CONTRACTOR,,,,,,,,,,,SLSCO,,,,,SLSCO,"6702 6702 BROADWAY ST ST",HOUSTON,TX,77554,"(409) 515-9237",,,,
TX,COLLIN,,"Single Family Homes",12/23/2020,,,3952,"507 BIRCH GROVE DR",WYLIE,TX,75098,,,CONTRACTOR,,,,,,,,,,,"BLOOMFIELD HOMES",,,,,"BLOOMFIELD HOMES","1050 E STATE HIGHWAY 114 STE 210",SOUTHLAKE,TX,76092-5255,"(972) 971-2103",http://bloomfieldhomes.net/,"(972) 987-4342",,mattjennings@bloomfieldhomes.net
TX,COLLIN,,"Single Family Homes",12/14/2020,,,2846,"1502 LAURELCHERRY LN",WYLIE,TX,75098,,,CONTRACTOR,,,,,,,,,,,"CASTLEROCK COMMUNITIES",,,,,"CASTLEROCK COMMUNITIES","7670 WOODWAY DR STE 300",HOUSTON,TX,77063-1520,"(713) 600-7000",http://c-rock.com,"(713) 600-0000",,
TX,COLLIN,,"Single Family Homes",12/7/2020,,,2575,"1800 SHADY ROCK TER",WYLIE,TX,75098,,,CONTRACTOR,,,,,,,,,,,"CASTLEROCK COMMUNITIES",,,,,"CASTLEROCK COMMUNITIES","7670 WOODWAY DR STE 300",HOUSTON,TX,77063-1520,"(713) 600-7000",http://c-rock.com,"(713) 600-0000",,
TX,COLLIN,,"Single Family Homes",12/8/2020,,,3037,"1016 MANCHESTER DR",WYLIE,TX,75098,,,CONTRACTOR,,,,,,,,,,,"WINDSOR HOMES",,,,,"WINDSOR HOMES","8214 WESTCHESTER DR STE 710",DALLAS,TX,75225-6133,"(214) 522-4945",,"(214) 522-7244",,
TX,COLLIN,,"Single Family Homes",12/8/2020,,,4020,"1009 MANCHESTER DR",WYLIE,TX,75098,,,CONTRACTOR,,,,,,,,,,,"WINDSOR HOMES",,,,,"WINDSOR HOMES","8214 WESTCHESTER DR STE 710",DALLAS,TX,75225-6133,"(214) 522-4945",,"(214) 522-7244",,
TX,COLLIN,,"Single Family Homes",12/7/2020,,,2883,"365 ROSEMARY DR",WYLIE,TX,75098,,,CONTRACTOR,,,,,,,,,,,"PLANTATION HOMES PERMITS",,,,,"PLANTATION HOMES PERMITS","7676 WOODWAY DR STE 238",HOUSTON,TX,77063-1522,"(713) 952-6767",http://www.mhinc.com,"(713) 952-5637",,
TX,COLLIN,,"Single Family Homes",12/2/2020,,,2700,"1014 MANCHESTER DR",WYLIE,TX,75098,,,CONTRACTOR,,,,,,,,,,,"WINDSOR HOMES",,,,,"WINDSOR HOMES","8214 WESTCHESTER DR STE 710",DALLAS,TX,75225-6133,"(214) 522-4945",,"(214) 522-7244",,
TX,COLLIN,,"Single Family Homes",12/9/2020,,,2801,"131 CONEFLOWER DR",WYLIE,TX,75098,,,CONTRACTOR,,,,,,,,,,,"PLANTATION HOMES PERMITS",,,,,"PLANTATION HOMES PERMITS","7676 WOODWAY DR STE 238",HOUSTON,TX,77063-1522,"(713) 952-6767",http://www.mhinc.com,"(713) 952-5637",,
TX,COLLIN,,"Single Family Homes",12/15/2020,,,3126,"1803 SHADY ROCK TER",WYLIE,TX,75098,,,CONTRACTOR,,,,,,,,,,,"CASTLEROCK COMMUNITIES",,,,,"CASTLEROCK COMMUNITIES","7670 WOODWAY DR STE 300",HOUSTON,TX,77063-1520,"(713) 600-7000",http://c-rock.com,"(713) 600-0000",,
TX,COLLIN,,"Single Family Homes",12/15/2020,,,2697,"1526 LAURELCHERRY LN",WYLIE,TX,75098,,,CONTRACTOR,,,,,,,,,,,"CASTLEROCK COMMUNITIES",,,,,"CASTLEROCK COMMUNITIES","7670 WOODWAY DR STE 300",HOUSTON,TX,77063-1520,"(713) 600-7000",http://c-rock.com,"(713) 600-0000",,
TX,COLLIN,,"Single Family Homes",12/1/2020,,,1848,"1503 RAVENSWOOD LN",WYLIE,TX,75098,,,CONTRACTOR,,,,,,,,,,,"CASTLEROCK COMMUNITIES",,,,,"CASTLEROCK COMMUNITIES","7670 WOODWAY DR STE 300",HOUSTON,TX,77063-1520,"(713) 600-7000",http://c-rock.com,"(713) 600-0000",,
TX,COLLIN,,"Single Family Homes",12/2/2020,,,4238,"1033 MANCHESTER DR",WYLIE,TX,75098,,,CONTRACTOR,,,,,,,,,,,"WINDSOR HOMES",,,,,"WINDSOR HOMES","8214 WESTCHESTER DR STE 710",DALLAS,TX,75225-6133,"(214) 522-4945",,"(214) 522-7244",,
TX,COLLIN,,"Single Family Homes",12/3/2020,,,1801,"1409 GREEN MEADOWS WAY",WYLIE,TX,75098,,,CONTRACTOR,,,,,,,,,,,"CASTLEROCK COMMUNITIES",,,,,"CASTLEROCK COMMUNITIES","7670 WOODWAY DR STE 300",HOUSTON,TX,77063-1520,"(713) 600-7000",http://c-rock.com,"(713) 600-0000",,
TX,COLLIN,,"Single Family Homes",12/23/2020,,,4999,"515 BIRCH GROVE DR",WYLIE,TX,75098,,,CONTRACTOR,,,,,,,,,,,"BLOOMFIELD HOMES",,,,,"BLOOMFIELD HOMES","1050 E STATE HIGHWAY 114 STE 210",SOUTHLAKE,TX,76092-5255,"(972) 971-2103",http://bloomfieldhomes.net/,"(972) 987-4342",,mattjennings@bloomfieldhomes.net
TX,COLLIN,,"Single Family Homes",12/23/2020,,,3519,"509 SHADOW GLEN TRL",WYLIE,TX,75098,,,CONTRACTOR,,,,,,,,,,,"BLOOMFIELD HOMES",,,,,"BLOOMFIELD HOMES","1050 E STATE HIGHWAY 114 STE 210",SOUTHLAKE,TX,76092-5255,"(972) 971-2103",http://bloomfieldhomes.net/,"(972) 987-4342",,mattjennings@bloomfieldhomes.net
TX,COLLIN,,"Single Family Homes",12/14/2020,,,3743,"309 CORNERSTONE DR",WYLIE,TX,75098,,,CONTRACTOR,,,,,,,,,,,"MEGATEL HOMES",,,,,"MEGATEL HOMES","5512 W PLANO PKWY STE 300",PLANO,TX,75093-4840,"(972) 339-0159",,,,
TX,COLLIN,,"Single Family Homes",12/15/2020,,,4531,"140 IRIS",WYLIE,TX,75098,,,CONTRACTOR,,,,,,,,,,,"GRAND HOMES",,,,,"GRAND HOMES","15455 DALLAS PKWY STE 1000",ADDISON,TX,75001-6772,"(214) 750-6528",http://www.grandhomes.com/,"(214) 750-6849",,info@grandhomes.com
TX,COLLIN,,"Single Family Homes",12/23/2020,,,3468,"1031 MANCHESTER DR",WYLIE,TX,75098,,,CONTRACTOR,,,,,,,,,,,"WINDSOR HOMES",,,,,"WINDSOR HOMES","8214 WESTCHESTER DR STE 710",DALLAS,TX,75225-6133,"(214) 522-4945",,"(214) 522-7244",,
TX,COLLIN,,"Single Family Homes",12/22/2020,,,3712,"515 SHADOW GLEN TRL",WYLIE,TX,75098,,,CONTRACTOR,,,,,,,,,,,"BLOOMFIELD HOMES",,,,,"BLOOMFIELD HOMES","1050 E STATE HIGHWAY 114 STE 210",SOUTHLAKE,TX,76092-5255,"(972) 971-2103",http://bloomfieldhomes.net/,"(972) 987-4342",,mattjennings@bloomfieldhomes.net
TX,COLLIN,,"Single Family Homes",12/22/2020,,,5024,"516 SHADOW GLEN TRL",WYLIE,TX,75098,,,CONTRACTOR,,,,,,,,,,,"BLOOMFIELD HOMES",,,,,"BLOOMFIELD HOMES","1050 E STATE HIGHWAY 114 STE 210",SOUTHLAKE,TX,76092-5255,"(972) 971-2103",http://bloomfieldhomes.net/,"(972) 987-4342",,mattjennings@bloomfieldhomes.net
TX,COLLIN,,"Single Family Homes",12/23/2020,,,3116,"517 WINDCREST DR",WYLIE,TX,75098,,,CONTRACTOR,,,,,,,,,,,"BLOOMFIELD HOMES",,,,,"BLOOMFIELD HOMES","1050 E STATE HIGHWAY 114 STE 210",SOUTHLAKE,TX,76092-5255,"(972) 971-2103",http://bloomfieldhomes.net/,"(972) 987-4342",,mattjennings@bloomfieldhomes.net
TX,COLLIN,,"Single Family Homes",12/23/2020,,,3088,"525 BIRCH GROVE DR",WYLIE,TX,75098,,,CONTRACTOR,,,,,,,,,,,"BLOOMFIELD HOMES",,,,,"BLOOMFIELD HOMES","1050 E STATE HIGHWAY 114 STE 210",SOUTHLAKE,TX,76092-5255,"(972) 971-2103",http://bloomfieldhomes.net/,"(972) 987-4342",,mattjennings@bloomfieldhomes.net
TX,COLLIN,,"Single Family Homes",12/22/2020,,,2594,"513 BIRCH GROVE DR",WYLIE,TX,75098,,,CONTRACTOR,,,,,,,,,,,"BLOOMFIELD HOMES",,,,,"BLOOMFIELD HOMES","1050 E STATE HIGHWAY 114 STE 210",SOUTHLAKE,TX,76092-5255,"(972) 971-2103",http://bloomfieldhomes.net/,"(972) 987-4342",,mattjennings@bloomfieldhomes.net
TX,DALLAS,2101041114,"Single Family Homes",1/4/2021,,,2246,"10803 MANDALAY DR",DALLAS,TX,75228,,,CONTRACTOR,,,,,,,,,,,"HRS BUILD",,,,,"HRS BUILD","16202 RED CEDAR TRL",DALLAS,TX,75248,"(469) 441-4779",,,,
TX,DALLAS,2101041098,"Single Family Homes",1/4/2021,,,1982,"2906 DORRIS ST",SACHSE,TX,75215,,,CONTRACTOR,,,,,,,,,,,"FLORES FENCING",,,,,"FLORES FENCING","985 E STATE HIGHWAY 121 # 625",LEWSIVILLE,TX,75057-4402,"(469) 671-7082",http://floresfencingllc.com,,,
TX,DALLAS,2101041050,"Single Family Homes",1/4/2021,,,2478,"415 W MONTANA AVE",DALLAS,TX,75224,,,CONTRACTOR,,,,,,,,,,,"SPRINGFUL PROPERTIES",,,,,"SPRINGFUL PROPERTIES","1315 SIERRA BLANCA DR",DUNCANVILLE,TX,75116-4119,"(214) 356-0807",,,,
TX,DALLAS,2101041109,"Single Family Homes",1/4/2021,,,5858,"4331 NORTHCREST RD",DALLAS,TX,75229,,,CONTRACTOR,,,,,,,,,,,"OLERIO HOMES",,,,,"OLERIO HOMES","5956 SHERRY LN STE 1000",DALLAS,TX,75225-8021,"(469) 853-2039",,,,
TX,COLLIN,,"Single Family Homes",12/22/2020,,,3726,"809 CRESCENT WAY",WYLIE,TX,75098,,,CONTRACTOR,,,,,,,,,,,"BLOOMFIELD HOMES",,,,,"BLOOMFIELD HOMES","1050 E STATE HIGHWAY 114 STE 210",SOUTHLAKE,TX,76092-5255,"(972) 971-2103",http://bloomfieldhomes.net/,"(972) 987-4342",,mattjennings@bloomfieldhomes.net
TX,COLLIN,,"Single Family Homes",12/22/2020,,,3676,"800 STONEYBROOK DR",WYLIE,TX,75098,,,CONTRACTOR,,,,,,,,,,,"BLOOMFIELD HOMES",,,,,"BLOOMFIELD HOMES","1050 E STATE HIGHWAY 114 STE 210",SOUTHLAKE,TX,76092-5255,"(972) 971-2103",http://bloomfieldhomes.net/,"(972) 987-4342",,mattjennings@bloomfieldhomes.net
TX,COLLIN,,"Single Family Homes",12/10/2020,,,3420,"206 TORCH LILY LN",WYLIE,TX,75098,,,CONTRACTOR,,,,,,,,,,,"GRAND HOMES",,,,,"GRAND HOMES","15455 DALLAS PKWY STE 1000",ADDISON,TX,75001-6772,"(214) 750-6528",http://www.grandhomes.com/,"(214) 750-6849",,info@grandhomes.com
TX,COLLIN,,"Single Family Homes",12/16/2020,,,3189,"412 WORTHING WAY",WYLIE,TX,75098,,,CONTRACTOR,,,,,,,,,,,"PAUL TAYLOR HOMES",,,,,"PAUL TAYLOR HOMES","17950 PRESTON ROAD STE 700",DALLAS,TX,75252,"(972) 732-7800",http://www.paultaylorhomes.com/index2.html,"(972) 732-7827","PAUL TAYLOR",
TX,DALLAS,2101046010,"Single Family Homes",1/4/2021,,,1744,"4727 STOKES ST",DALLAS,TX,75216,,,CONTRACTOR,,,,,,,,,,,"NEXT WAY CONCEPTS",,,,,"NEXT WAY CONCEPTS","PO BOX 850514",MESQUITE,TX,75185,"(469) 879-9361",,,,
TX,COLLIN,,"Single Family Homes",12/1/2020,,,1801,"1501 RAVENSWOOD LN",WYLIE,TX,75098,,,CONTRACTOR,,,,,,,,,,,"CASTLEROCK COMMUNITIES",,,,,"CASTLEROCK COMMUNITIES","7670 WOODWAY DR STE 300",HOUSTON,TX,77063-1520,"(713) 600-7000",http://c-rock.com,"(713) 600-0000",,
TX,COLLIN,,"Single Family Homes",12/21/2020,,,4189,"209 MISTFLOWER LN",WYLIE,TX,75098,,,CONTRACTOR,,,,,,,,,,,"GRAND HOMES",,,,,"GRAND HOMES","15455 DALLAS PKWY STE 1000",ADDISON,TX,75001-6772,"(214) 750-6528",http://www.grandhomes.com/,"(214) 750-6849",,info@grandhomes.com
TX,COLLIN,,"Single Family Homes",12/22/2020,,,3636,"502 SHADOW GLEN TRL",WYLIE,TX,75098,,,CONTRACTOR,,,,,,,,,,,"BLOOMFIELD HOMES",,,,,"BLOOMFIELD HOMES","1050 E STATE HIGHWAY 114 STE 210",SOUTHLAKE,TX,76092-5255,"(972) 971-2103",http://bloomfieldhomes.net/,"(972) 987-4342",,mattjennings@bloomfieldhomes.net
TX,COLLIN,,"Single Family Homes",12/22/2020,,,3005,"813 STONEYBROOK DR",WYLIE,TX,75098,,,CONTRACTOR,,,,,,,,,,,"BLOOMFIELD HOMES",,,,,"BLOOMFIELD HOMES","1050 E STATE HIGHWAY 114 STE 210",SOUTHLAKE,TX,76092-5255,"(972) 971-2103",http://bloomfieldhomes.net/,"(972) 987-4342",,mattjennings@bloomfieldhomes.net
TX,COLLIN,,"Single Family Homes",12/22/2020,,,3105,"523 BIRCH GROVE DR",WYLIE,TX,75098,,,CONTRACTOR,,,,,,,,,,,"BLOOMFIELD HOMES",,,,,"BLOOMFIELD HOMES","1050 E STATE HIGHWAY 114 STE 210",SOUTHLAKE,TX,76092-5255,"(972) 971-2103",http://bloomfieldhomes.net/,"(972) 987-4342",,mattjennings@bloomfieldhomes.net
TX,COLLIN,,"Single Family Homes",12/22/2020,,,3519,"505 BIRCH GROVE DR",WYLIE,TX,75098,,,CONTRACTOR,,,,,,,,,,,"BLOOMFIELD HOMES",,,,,"BLOOMFIELD HOMES","1050 E STATE HIGHWAY 114 STE 210",SOUTHLAKE,TX,76092-5255,"(972) 971-2103",http://bloomfieldhomes.net/,"(972) 987-4342",,mattjennings@bloomfieldhomes.net
TX,COLLIN,,"Single Family Homes",12/16/2020,,,3561,"1045 MANCHESTER DR",WYLIE,TX,75098,,,CONTRACTOR,,,,,,,,,,,"PAUL TAYLOR HOMES",,,,,"PAUL TAYLOR HOMES","17950 PRESTON ROAD STE 700",DALLAS,TX,75252,"(972) 732-7800",http://www.paultaylorhomes.com/index2.html,"(972) 732-7827","PAUL TAYLOR",
TX,DALLAS,2101041111,"Single Family Homes",1/4/2021,,,4215,"7715 TAOS RD",SACHSE,TX,75209,,,CONTRACTOR,,,,,,,,,,,"OLERIO HOMES",,,,,"OLERIO HOMES","5956 SHERRY LN STE 1000",DALLAS,TX,75225-8021,"(469) 853-2039",,,,
TX,TARRANT,PB20-16992,"Single Family Homes",12/3/2020,,140049,2223,"6336 SWITCHBACK TRL","FORT WORTH",TX,76179,,,CONTRACTOR,,,,,,,,,,,"MERITAGE HOMES",,,,,"MERITAGE HOMES","8840 CYPRESS WATERS BLVD #100",DALLAS,TX,75063,"(214) 869-8023",,,,
TX,TARRANT,PB20-16994,"Single Family Homes",12/3/2020,,209160,3320,"6332 SWITCHBACK TRL","FORT WORTH",TX,76179,,,CONTRACTOR,,,,,,,,,,,"MERITAGE HOMES",,,,,"MERITAGE HOMES","8840 CYPRESS WATERS BLVD #100",DALLAS,TX,75063,"(214) 869-8023",,,,
TX,TARRANT,PB20-16996,"Single Family Homes",12/3/2020,,154665,2455,"6328 SWITCHBACK TRL","FORT WORTH",TX,76179,,,CONTRACTOR,,,,,,,,,,,"MERITAGE HOMES",,,,,"MERITAGE HOMES","8840 CYPRESS WATERS BLVD #100",DALLAS,TX,75063,"(214) 869-8023",,,,
TX,TARRANT,PB20-16997,"Single Family Homes",12/3/2020,,165249,2623,"6324 SWITCHBACK TRL",SACHSE,TX,76179,,,CONTRACTOR,,,,,,,,,,,"MERITAGE HOMES",,,,,"MERITAGE HOMES","8840 CYPRESS WATERS BLVD #100",DALLAS,TX,75063,"(214) 869-8023",,,,
TX,TARRANT,PB20-16998,"Single Family Homes",12/3/2020,,151578,2406,"6320 SWITCHBACK TRL","FORT WORTH",TX,76179,,,CONTRACTOR,,,,,,,,,,,"MERITAGE HOMES",,,,,"MERITAGE HOMES","8840 CYPRESS WATERS BLVD #100",DALLAS,TX,75063,"(214) 869-8023",,,,
TX,TARRANT,PB20-16999,"Single Family Homes",12/9/2020,,232470,3690,"9925 MI TIERRA DR","FORT WORTH",TX,76179,,,CONTRACTOR,,,,,,,,,,,"FIRST TEXAS HOMES",,,,,"FIRST TEXAS HOMES","500 CRESCENT CT STE 350",DALLAS,TX,75201-7854,"(214) 613-3400",,"(214) 432-0350",,
TX,TARRANT,PB20-17000,"Single Family Homes",12/4/2020,,202230,3210,"6044 FIRE WATER DR","FORT WORTH",TX,76179,,,CONTRACTOR,,,,,,,,,,,"MERITAGE HOMES",,,,,"MERITAGE HOMES","8840 CYPRESS WATERS BLVD #100",DALLAS,TX,75063,"(214) 869-8023",,,,
TX,TARRANT,PB20-17001,"Single Family Homes",12/4/2020,,141498,2246,"6052 FIRE WATER DR",SACHSE,TX,76179,,,CONTRACTOR,,,,,,,,,,,"MERITAGE HOMES",,,,,"MERITAGE HOMES","8840 CYPRESS WATERS BLVD #100",DALLAS,TX,75063,"(214) 869-8023",,,,
TX,TARRANT,PB20-17019,"Single Family Homes",12/8/2020,,171360,2720,"6048 FIRE WATER DR","FORT WORTH",TX,76179,,,CONTRACTOR,,,,,,,,,,,"MERITAGE HOMES",,,,,"MERITAGE HOMES","8840 CYPRESS WATERS BLVD #100",DALLAS,TX,75063,"(214) 869-8023",,,,
TX,TARRANT,PB20-17020,"Single Family Homes",12/4/2020,,154665,2455,"6040 FIRE WATER DR","FORT WORTH",TX,76179,,,CONTRACTOR,,,,,,,,,,,"MERITAGE HOMES",,,,,"MERITAGE HOMES","8840 CYPRESS WATERS BLVD #100",DALLAS,TX,75063,"(214) 869-8023",,,,
TX,TARRANT,PB20-17022,"Single Family Homes",12/4/2020,,166383,2641,"6036 FIRE WATER DR","FORT WORTH",TX,76179,,,CONTRACTOR,,,,,,,,,,,"MERITAGE HOMES",,,,,"MERITAGE HOMES","8840 CYPRESS WATERS BLVD #100",DALLAS,TX,75063,"(214) 869-8023",,,,
TX,TARRANT,PB20-17023,"Single Family Homes",12/7/2020,,153000,3596,"14000 LAPETUS DR","FORT WORTH",TX,76179,,,CONTRACTOR,,,,,,,,,,,"DR HORTON",,,,,"DR HORTON","6751 NORTH FWY","FT WORTH",TX,76131-2802,"(817) 230-0800",,,,
TX,TARRANT,PB20-17025,"Single Family Homes",11/18/2020,,182322,2894,"7568 WHISTERWHEEL WAY","FORT WORTH",TX,76131,,,CONTRACTOR,,,,,,,,,,,"HORIZON HOMES",,,,,"HORIZON HOMES","5601 DEMOCRACY DR STE 300",PLANO,TX,75024-3674,"(469) 774-9207",http://www.hhomesltd.com/,,"STEVE DENNIS",cmckinney@hhomesltd.com
TX,TARRANT,PB20-17049,"Single Family Homes",12/9/2020,,149000,3402,"7424 SOARING EAGLE DR","FORT WORTH",TX,76179,,,CONTRACTOR,,,,,,,,,,,"GRAHAM HART HOME BUILDER",,,,,"GRAHAM HART HOME BUILDER","1105 GLADE RD STE 100",COLLEYVILLE,TX,76034-4228,"(214) 626-8590",http://www.grahamhart.com/,,,info@grahamhart.com
TX,TARRANT,PB20-17051,"Single Family Homes",12/8/2020,,135000,2997,"7108 AVES ST","FORT WORTH",TX,76179,,,CONTRACTOR,,,,,,,,,,,"GRAHAM HART HOME BUILDER",,,,,"GRAHAM HART HOME BUILDER","1105 GLADE RD STE 100",COLLEYVILLE,TX,76034-4228,"(214) 626-8590",http://www.grahamhart.com/,,,info@grahamhart.com
TX,TARRANT,PB20-17053,"Single Family Homes",12/8/2020,,149000,3408,"7112 AVES ST","FORT WORTH",TX,76179,,,CONTRACTOR,,,,,,,,,,,"GRAHAM HART HOME BUILDER",,,,,"GRAHAM HART HOME BUILDER","1105 GLADE RD STE 100",COLLEYVILLE,TX,76034-4228,"(214) 626-8590",http://www.grahamhart.com/,,,info@grahamhart.com
TX,TARRANT,PB20-17077,"Single Family Homes",11/18/2020,,182322,2894,"6312 TAVOLO PKWY","FORT WORTH",TX,76132,,,CONTRACTOR,,,,,,,,,,,"HORIZON HOMES",,,,,"HORIZON HOMES","5601 DEMOCRACY DR STE 300",PLANO,TX,75024-3674,"(469) 774-9207",http://www.hhomesltd.com/,,"STEVE DENNIS",cmckinney@hhomesltd.com
TX,TARRANT,PB20-17079,"Single Family Homes",11/18/2020,,291123,4621,"7429 SWITCHWOOD LN","FORT WORTH",TX,76131,,,CONTRACTOR,,,,,,,,,,,"HORIZON HOMES",,,,,"HORIZON HOMES","5601 DEMOCRACY DR STE 300",PLANO,TX,75024-3674,"(469) 774-9207",http://www.hhomesltd.com/,,"STEVE DENNIS",cmckinney@hhomesltd.com
TX,TARRANT,PB20-17082,"Single Family Homes",12/4/2020,,226926,3602,"1657 STOWERS TRL","FORT WORTH",TX,76052,,,CONTRACTOR,,,,,,,,,,,"AMERICAN LEGEND HOMES",,,,,"AMERICAN LEGEND HOMES","2540 KING ARTHUR BLVD STE 200",LEWISVILLE,TX,75056-5833,"(972) 410-5701",http://www.amlegendhomes.com/,"(972) 410-5750",,
TX,TARRANT,PB20-17084,"Single Family Homes",12/3/2020,,134064,2128,"637 PUEBLO BONITO TRL","FORT WORTH",TX,76135,,,CONTRACTOR,,,,,,,,,,,"LENNAR HOMES",,,,,"LENNAR HOMES","1707 MARKET PL STE 250",IRVING,TX,75063-8050,"(469) 587-5200",http://www.lennar.com/,,,
TX,TARRANT,PB20-17087,"Single Family Homes",12/3/2020,,170100,2700,"5137 CANTLE CT","FORT WORTH",TX,76036,,,CONTRACTOR,,,,,,,,,,,"TRENDMAKER HOMES",,,,,"TRENDMAKER HOMES","4835 LBJ FREEWAY SUITE 700",DALLAS,TX,75068,"(214) 765-0573",,,,
TX,TARRANT,PB20-17088,"Single Family Homes",12/3/2020,,106533,1691,"14324 DESERT RAIN TRL","FORT WORTH",TX,76052,,,CONTRACTOR,,,,,,,,,,,"LENNAR HOMES",,,,,"LENNAR HOMES","1707 MARKET PL STE 250",IRVING,TX,75063-8050,"(469) 587-5200",http://www.lennar.com/,,,
TX,TARRANT,PB20-17090,"Single Family Homes",12/3/2020,,282177,4479,"6313 SCUD CT","FORT WORTH",TX,76179,,,CONTRACTOR,,,,,,,,,,,"HISTORY MAKER HOMES",,,,,"HISTORY MAKER HOMES","9001 AIRPORT FWY SUITE 400","NORTH RICHLAND HILLS",TX,76180-7769,"(817) 429-8008",http://www.historymaker.com/,"(817) 507-1102","JILL BARFIELD",
TX,TARRANT,PB20-17091,"Single Family Homes",12/3/2020,,219681,3487,"5760 BROAD BAY LN","FORT WORTH",TX,76179,,,CONTRACTOR,,,,,,,,,,,"IMPRESSION HOMES",,,,,"IMPRESSION HOMES","430 N CARROLL AVE # 150",SOUTHLAKE,TX,76092-6452,"(817) 717-5103",https://www.impressionhomes.net/,,,
TX,TARRANT,PB20-17092,"Single Family Homes",12/4/2020,,219618,3486,"636 ANTSWOOD DR","FORT WORTH",TX,76108,,,CONTRACTOR,,,,,,,,,,,"IMPRESSION HOMES",,,,,"IMPRESSION HOMES","430 N CARROLL AVE # 150",SOUTHLAKE,TX,76092-6452,"(817) 717-5103",https://www.impressionhomes.net/,,,
TX,TARRANT,PB20-17093,"Single Family Homes",12/4/2020,,173691,2757,"504 ANTSWOOD DR","FORT WORTH",TX,76108,,,CONTRACTOR,,,,,,,,,,,"IMPRESSION HOMES",,,,,"IMPRESSION HOMES","430 N CARROLL AVE # 150",SOUTHLAKE,TX,76092-6452,"(817) 717-5103",https://www.impressionhomes.net/,,,
TX,TARRANT,PB20-17094,"Single Family Homes",12/9/2020,,233919,3713,"652 ANTSWOOD DR","FORT WORTH",TX,76108,,,CONTRACTOR,,,,,,,,,,,"IMPRESSION HOMES",,,,,"IMPRESSION HOMES","430 N CARROLL AVE # 150",SOUTHLAKE,TX,76092-6452,"(817) 717-5103",https://www.impressionhomes.net/,,,
TX,TARRANT,PB20-17095,"Single Family Homes",11/18/2020,,184023,2921,"6513 BELHAVEN DR","FORT WORTH",TX,76123,,,CONTRACTOR,,,,,,,,,,,"FIRST TEXAS HOMES",,,,,"FIRST TEXAS HOMES","500 CRESCENT CT STE 350",DALLAS,TX,75201-7854,"(214) 613-3400",,"(214) 432-0350",,
TX,TARRANT,PB20-17096,"Single Family Homes",12/4/2020,,170604,2708,"629 ANTSWOOD DR","FORT WORTH",TX,76108,,,CONTRACTOR,,,,,,,,,,,"STONEHOLLOW HOMES",,,,,"STONEHOLLOW HOMES","905 MARKET ST STE 250",ALLEN,TX,75013,"(817) 917-4472",,,,
TX,TARRANT,PB20-17097,"Single Family Homes",12/9/2020,,230076,3652,"2052 BELLATRIX DR","FORT WORTH",TX,76052,,,CONTRACTOR,,,,,,,,,,,"RIVERSIDE HOMEBUILDERS",,,,,"RIVERSIDE HOMEBUILDERS","3045 LACKLAND RD","FORT WORTH",TX,76116-4121,"(817) 953-3308",http://www.rshomebuilders.com/,"(817) 737-1245",,info@rshomebuilders.com
TX,TARRANT,PB20-17098,"Single Family Homes",12/7/2020,,250362,3974,"11417 FALCON TRACE DR","FORT WORTH",TX,76244,,,CONTRACTOR,,,,,,,,,,,"BLOOMFIELD HOMES",,,,,"BLOOMFIELD HOMES","1050 E STATE HIGHWAY 114 STE 210",SOUTHLAKE,TX,76092-5255,"(972) 971-2103",http://bloomfieldhomes.net/,"(972) 987-4342",,mattjennings@bloomfieldhomes.net
TX,TARRANT,PB20-17099,"Single Family Homes",12/8/2020,,313030,2243,"4841 MONTE VERDE DR","FORT WORTH",TX,76244,,,CONTRACTOR,,,,,,,,,,,"K HOVNANIAN HOMES",,,,,"K HOVNANIAN HOMES","5808 W PLANO PKWY",PLANO,TX,75093-4636,"(469) 737-1400",,,,
TX,TARRANT,PB20-17100,"Single Family Homes",12/8/2020,,355900,3344,"4924 MONTE VERDE DR","FORT WORTH",TX,76244,,,CONTRACTOR,,,,,,,,,,,"K HOVNANIAN HOMES",,,,,"K HOVNANIAN HOMES","5808 W PLANO PKWY",PLANO,TX,75093-4636,"(469) 737-1400",,,,
TX,TARRANT,PB20-17101,"Single Family Homes",12/14/2020,,432190,3929,"13620 SWEETWALK PL","FORT WORTH",TX,76008,,,CONTRACTOR,,,,,,,,,,,"HORIZON HOMES",,,,,"HORIZON HOMES","5601 DEMOCRACY DR STE 300",PLANO,TX,75024-3674,"(469) 774-9207",http://www.hhomesltd.com/,,"STEVE DENNIS",cmckinney@hhomesltd.com
TX,TARRANT,PB20-17102,"Single Family Homes",12/14/2020,,333900,2643,"4900 MONTE VERDE DR","FORT WORTH",TX,76244,,,CONTRACTOR,,,,,,,,,,,"K HOVNANIAN HOMES",,,,,"K HOVNANIAN HOMES","5808 W PLANO PKWY",PLANO,TX,75093-4636,"(469) 737-1400",,,,
TX,TARRANT,PB20-17119,"Single Family Homes",12/8/2020,,107000,2279,"6008 COPPERMILL RD","FORT WORTH",TX,76137,,,CONTRACTOR,,,,,,,,,,,"PULTE HOMES",,,,,"PULTE HOMES","4800 REGENT BLVD",IRVING,TX,75063-2439,"(972) 304-2800",,,,
TX,TARRANT,PB20-17120,"Single Family Homes",12/9/2020,,123000,2810,"816 CREST BREEZE DR","FORT WORTH",TX,76052,,,CONTRACTOR,,,,,,,,,,,"PULTE HOMES",,,,,"PULTE HOMES","4800 REGENT BLVD",IRVING,TX,75063-2439,"(972) 304-2800",,,,
TX,TARRANT,PB20-17121,"Single Family Homes",11/19/2020,,260000,2454,"2300 MC CANDLESS ST","FORT WORTH",TX,76106,,,CONTRACTOR,,,,,,,,,,,"HRM CONSTRUCTION COMPANY",,,,,"HRM CONSTRUCTION COMPANY","2724 TWINFLOWER DR","FORT WORTH",TX,76244-5586,"(832) 977-1800",,,,
TX,TARRANT,PB20-17122,"Single Family Homes",12/9/2020,,165000,4437,"932 CREST BREEZE DR","FORT WORTH",TX,76052,,,CONTRACTOR,,,,,,,,,,,"PULTE HOMES",,,,,"PULTE HOMES","4800 REGENT BLVD",IRVING,TX,75063-2439,"(972) 304-2800",,,,
TX,TARRANT,PB20-17123,"Single Family Homes",12/7/2020,,115000,2559,"6004 COPPERMILL RD","FORT WORTH",TX,76137,,,CONTRACTOR,,,,,,,,,,,"PULTE HOMES",,,,,"PULTE HOMES","4800 REGENT BLVD",IRVING,TX,75063-2439,"(972) 304-2800",,,,
TX,TARRANT,PB20-17128,"Single Family Homes",12/8/2020,,193473,3071,"2029 BELLATRIX DR","FORT WORTH",TX,76052,,,CONTRACTOR,,,,,,,,,,,"HISTORY MAKER HOMES",,,,,"HISTORY MAKER HOMES","9001 AIRPORT FWY SUITE 400","NORTH RICHLAND HILLS",TX,76180-7769,"(817) 429-8008",http://www.historymaker.com/,"(817) 507-1102","JILL BARFIELD",
TX,TARRANT,PB20-17129,"Single Family Homes",12/4/2020,,247590,3930,"1528 ELEANOR DR","FORT WORTH",TX,76052,,,CONTRACTOR,,,,,,,,,,,"GEHAN HOMES",,,,,"GEHAN HOMES","14901 QUORUM DR STE 300",DALLAS,TX,75254-6735,"(972) 383-4300",http://www.gehanhomes.com,,,
TX,TARRANT,PB20-17131,"Single Family Homes",11/19/2020,,94563,1501,"5120 HELMICK AVE","FORT WORTH",TX,76107,,,CONTRACTOR,,,,,,,,,,,"WJH INVESTMENTS",,,,,"WJH INVESTMENTS","1910 PACIFIC AVE",DALLAS,TX,75201,"(214) 577-8481",,,,
TX,TARRANT,PB20-17133,"Single Family Homes",11/19/2020,,94563,1501,"5124 HELMICK AVE","FORT WORTH",TX,76107,,,CONTRACTOR,,,,,,,,,,,"WJH INVESTMENTS",,,,,"WJH INVESTMENTS","1910 PACIFIC AVE",DALLAS,TX,75201,"(214) 577-8481",,,,
TX,TARRANT,PB20-17136,"Single Family Homes",11/19/2020,,94563,1501,"5536 HOUGHTON AVE","FORT WORTH",TX,76107,,,CONTRACTOR,,,,,,,,,,,"WJH INVESTMENTS",,,,,"WJH INVESTMENTS","1910 PACIFIC AVE",DALLAS,TX,75201,"(214) 577-8481",,,,
TX,TARRANT,PB20-17138,"Single Family Homes",11/19/2020,,94563,1501,"5109 FARNSWORTH AVE","FORT WORTH",TX,76107,,,CONTRACTOR,,,,,,,,,,,"WJH INVESTMENTS",,,,,"WJH INVESTMENTS","1910 PACIFIC AVE",DALLAS,TX,75201,"(214) 577-8481",,,,
TX,TARRANT,PB20-17140,"Single Family Homes",11/19/2020,,94563,1501,"5225 HUMBERT AVE","FORT WORTH",TX,76107,,,CONTRACTOR,,,,,,,,,,,"WJH INVESTMENTS",,,,,"WJH INVESTMENTS","1910 PACIFIC AVE",DALLAS,TX,75201,"(214) 577-8481",,,,
TX,TARRANT,PB20-17144,"Single Family Homes",11/19/2020,,94563,1501,"5116 HELMICK AVE","FORT WORTH",TX,76107,,,CONTRACTOR,,,,,,,,,,,"WJH INVESTMENTS",,,,,"WJH INVESTMENTS","1910 PACIFIC AVE",DALLAS,TX,75201,"(214) 577-8481",,,,
TX,TARRANT,PB20-17145,"Single Family Homes",11/19/2020,,94563,1501,"5436 GEDDES AVE","FORT WORTH",TX,76107,,,CONTRACTOR,,,,,,,,,,,"WJH INVESTMENTS",,,,,"WJH INVESTMENTS","1910 PACIFIC AVE",DALLAS,TX,75201,"(214) 577-8481",,,,
TX,TARRANT,PB20-17146,"Single Family Homes",11/19/2020,,94563,1501,"5200 HELMICK AVE","FORT WORTH",TX,76107,,,CONTRACTOR,,,,,,,,,,,"WJH INVESTMENTS",,,,,"WJH INVESTMENTS","1910 PACIFIC AVE",DALLAS,TX,75201,"(214) 577-8481",,,,
TX,TARRANT,PB20-17147,"Single Family Homes",12/4/2020,,122535,1945,"14320 DESERT RAIN TRL","FORT WORTH",TX,76052,,,CONTRACTOR,,,,,,,,,,,"LENNAR HOMES",,,,,"LENNAR HOMES","1707 MARKET PL STE 250",IRVING,TX,75063-8050,"(469) 587-5200",http://www.lennar.com/,,,
TX,TARRANT,PB20-17148,"Single Family Homes",12/4/2020,,109431,1737,"14328 DESERT RAIN TRL","FORT WORTH",TX,76052,,,CONTRACTOR,,,,,,,,,,,"LENNAR HOMES",,,,,"LENNAR HOMES","1707 MARKET PL STE 250",IRVING,TX,75063-8050,"(469) 587-5200",http://www.lennar.com/,,,
TX,TARRANT,PB20-17150,"Single Family Homes",12/4/2020,,132048,2096,"14332 DESERT RAIN TRL","FORT WORTH",TX,76052,,,CONTRACTOR,,,,,,,,,,,"LENNAR HOMES",,,,,"LENNAR HOMES","1707 MARKET PL STE 250",IRVING,TX,75063-8050,"(469) 587-5200",http://www.lennar.com/,,,
TX,TARRANT,PB20-17152,"Single Family Homes",12/4/2020,,106533,1691,"14336 DESERT RAIN TRL",SACHSE,TX,76052,,,CONTRACTOR,,,,,,,,,,,"LENNAR HOMES",,,,,"LENNAR HOMES","1707 MARKET PL STE 250",IRVING,TX,75063-8050,"(469) 587-5200",http://www.lennar.com/,,,
TX,TARRANT,PB20-17155,"Single Family Homes",12/4/2020,,132048,2096,"14316 DESERT RAIN TRL","FORT WORTH",TX,76052,,,CONTRACTOR,,,,,,,,,,,"LENNAR HOMES",,,,,"LENNAR HOMES","1707 MARKET PL STE 250",IRVING,TX,75063-8050,"(469) 587-5200",http://www.lennar.com/,,,
TX,TARRANT,PB20-17157,"Single Family Homes",12/8/2020,,174195,2765,"14800 SILVER BLADES CT","FORT WORTH",TX,76126,,,CONTRACTOR,,,,,,,,,,,"LENNAR HOMES",,,,,"LENNAR HOMES","1707 MARKET PL STE 250",IRVING,TX,75063-8050,"(469) 587-5200",http://www.lennar.com/,,,
TX,TARRANT,PB20-17158,"Single Family Homes",12/8/2020,,255906,2092,"10621 SUMMER PLACE LN","FORT WORTH",TX,76140,,,CONTRACTOR,,,,,,,,,,,"SANDLIN HOMES",,,,,"SANDLIN HOMES","5137 DAVIS BLVD","FORT WORTH",TX,76180-6873,"(817) 281-3509",,,,
TX,TARRANT,PB20-17160,"Single Family Homes",12/3/2020,,120015,1905,"14317 DESERT RAIN TRL","FORT WORTH",TX,76052,,,CONTRACTOR,,,,,,,,,,,"LENNAR HOMES",,,,,"LENNAR HOMES","1707 MARKET PL STE 250",IRVING,TX,75063-8050,"(469) 587-5200",http://www.lennar.com/,,,
TX,TARRANT,PB20-17161,"Single Family Homes",12/3/2020,,109431,1737,"14341 DESERT RAIN TRL","FORT WORTH",TX,76052,,,CONTRACTOR,,,,,,,,,,,"LENNAR HOMES",,,,,"LENNAR HOMES","1707 MARKET PL STE 250",IRVING,TX,75063-8050,"(469) 587-5200",http://www.lennar.com/,,,
TX,TARRANT,PB20-17162,"Single Family Homes",11/19/2020,,314937,4999,"3212 DEEP CREST DR","FORT WORTH",TX,76244,,,CONTRACTOR,,,,,,,,,,,"BLOOMFIELD HOMES",,,,,"BLOOMFIELD HOMES","1050 E STATE HIGHWAY 114 STE 210",SOUTHLAKE,TX,76092-5255,"(972) 971-2103",http://bloomfieldhomes.net/,"(972) 987-4342",,mattjennings@bloomfieldhomes.net
TX,TARRANT,PB20-17163,"Single Family Homes",12/8/2020,,314811,4997,"3213 TOWNE MANOR LN","FORT WORTH",TX,76244,,,CONTRACTOR,,,,,,,,,,,"BLOOMFIELD HOMES",,,,,"BLOOMFIELD HOMES","1050 E STATE HIGHWAY 114 STE 210",SOUTHLAKE,TX,76092-5255,"(972) 971-2103",http://bloomfieldhomes.net/,"(972) 987-4342",,mattjennings@bloomfieldhomes.net
TX,TARRANT,PB20-17164,"Single Family Homes",12/8/2020,,202041,3207,"3212 TOWNE MANOR LN","FORT WORTH",TX,76244,,,CONTRACTOR,,,,,,,,,,,"BLOOMFIELD HOMES",,,,,"BLOOMFIELD HOMES","1050 E STATE HIGHWAY 114 STE 210",SOUTHLAKE,TX,76092-5255,"(972) 971-2103",http://bloomfieldhomes.net/,"(972) 987-4342",,mattjennings@bloomfieldhomes.net
TX,TARRANT,PB20-17165,"Single Family Homes",12/10/2020,,348900,2748,"4837 CARMEL VALLEY DR","FORT WORTH",TX,76244,,,CONTRACTOR,,,,,,,,,,,"K HOVNANIAN HOMES",,,,,"K HOVNANIAN HOMES","5808 W PLANO PKWY",PLANO,TX,75093-4636,"(469) 737-1400",,,,
TX,TARRANT,BLD2010-185,"Single Family Homes",12/22/2020,,50000,,"5203 BUGLE LN",COLLEYVILLE,TX,76036,,,"PATRICK VOSS","5203 BUGLE LN",COLLEYVILLE,TX,76036,,Owner,,,,,"LONE STAR OUTDOOR CREATIONS",,,,,"LONE STAR OUTDOOR CREATIONS","1401 BRIAR MEADOW DR",KELLER,TX,76248-3280,"(817) 992-7571",http://www.lonestaroutdoorcreations.com,,"JAMES SWANZY",
TX,TARRANT,2011-035,"Single Family Homes",12/2/2020,,58090,,"5000 MONTCLAIR DR",COLLEYVILLE,TX,76036,,,"ANTHONY F SERIS","5000 MONTCLAIR DR",COLLEYVILLE,TX,76036,,Owner,,,,,"ULRICH BARN BUILDERS",,,,,"ULRICH BARN BUILDERS","2000 MELISSA LN",CLEBURNE,TX,76031-8923,"(817) 506-4410",,"(817) 506-4481",,
TX,ROCKWALL,,"Single Family Homes",1/19/2021,,384709,3186,"236 CAROLINA TRACE",FATE,TX,75087,WILLIAMSBURG,64,CONTRACTOR,,,,,,,,,,,"DR HORTON",,,,,"DR HORTON","6751 NORTH FWY","FT WORTH",TX,76131-2802,"(817) 230-0800",,,,
TX,ROCKWALL,,"Single Family Homes",1/19/2021,,311776,2582,"864 HANCOCK CT",FATE,TX,75089,,,CONTRACTOR,,,,,,,,,,,"DR HORTON",,,,,"DR HORTON","6751 NORTH FWY","FT WORTH",TX,76131-2802,"(817) 230-0800",,,,
TX,ROCKWALL,,"Single Family Homes",1/5/2021,,327111,2709,"544 TAYLOR DR",FATE,TX,75089,,,CONTRACTOR,,,,,,,,,,,"TRENDMAKER HOMES",,,,,"TRENDMAKER HOMES","4835 LBJ FREEWAY SUITE 700",DALLAS,TX,75068,"(214) 765-0573",,,,
TX,ROCKWALL,,"Single Family Homes",1/11/2021,,406927,3370,"838 MILDREN LN",FATE,TX,75089,,,CONTRACTOR,,,,,,,,,,,"UNION MAIN HOMES",,,,,"UNION MAIN HOMES","5005 LYNDON B JOHNSON FWY STE 350",DALLAS,TX,75244-6147,"(832) 775-6367",,,,
TX,ROCKWALL,,"Single Family Homes",1/5/2021,,400286,3315,"732 FLETCHER DR",FATE,TX,75089,,,CONTRACTOR,,,,,,,,,,,"TRENDMAKER HOMES",,,,,"TRENDMAKER HOMES","4835 LBJ FREEWAY SUITE 700",DALLAS,TX,75068,"(214) 765-0573",,,,
TX,ROCKWALL,,"Single Family Homes",1/5/2021,,391109,3239,"736 FLETCHER DR",FATE,TX,75089,,,CONTRACTOR,,,,,,,,,,,"TRENDMAKER HOMES",,,,,"TRENDMAKER HOMES","4835 LBJ FREEWAY SUITE 700",DALLAS,TX,75068,"(214) 765-0573",,,,
TX,ROCKWALL,,"Single Family Homes",1/11/2021,,283762,2350,"644 FITZROY LN",FATE,TX,75089,,,CONTRACTOR,,,,,,,,,,,"LENNAR HOMES",,,,,"LENNAR HOMES","1707 MARKET PL STE 250",IRVING,TX,75063-8050,"(469) 587-5200",http://www.lennar.com/,,,
TX,ROCKWALL,,"Single Family Homes",1/5/2021,,283762,2350,"1085 N CHURCHILL DR",FATE,TX,75089,,,CONTRACTOR,,,,,,,,,,,"LENNAR HOMES",,,,,"LENNAR HOMES","1707 MARKET PL STE 250",IRVING,TX,75063-8050,"(469) 587-5200",http://www.lennar.com/,,,
TX,ROCKWALL,,"Single Family Homes",1/11/2021,,380000,3147,"245 VIRGINIA CT",FATE,TX,75089,,,CONTRACTOR,,,,,,,,,,,"DR HORTON",,,,,"DR HORTON","6751 NORTH FWY","FT WORTH",TX,76131-2802,"(817) 230-0800",,,,
TX,ROCKWALL,,"Single Family Homes",1/11/2021,,367683,3045,"251 CAROLINA TRACE",FATE,TX,75089,,,CONTRACTOR,,,,,,,,,,,"DR HORTON",,,,,"DR HORTON","6751 NORTH FWY","FT WORTH",TX,76131-2802,"(817) 230-0800",,,,
TX,ROCKWALL,,"Single Family Homes",1/19/2021,,320349,2653,"425 FORESTRIDGE DR",FATE,TX,75089,,,CONTRACTOR,,,,,,,,,,,"BEAZER HOMES ",,,,,"BEAZER HOMES ","1750 VALLEY VIEW LN STE 200",DALLAS,TX,75234-9010,"(972) 250-5517",http://www.beazer.com/,,,bret.kolbe@beazer.com
TX,ROCKWALL,,"Single Family Homes",1/19/2021,,342084,2833,"327 HEADWATER DR",FATE,TX,75089,,,CONTRACTOR,,,,,,,,,,,"BEAZER HOMES ",,,,,"BEAZER HOMES ","1750 VALLEY VIEW LN STE 200",DALLAS,TX,75234-9010,"(972) 250-5517",http://www.beazer.com/,,,bret.kolbe@beazer.com
TX,ROCKWALL,,"Single Family Homes",1/19/2021,,266616,2208,"318 RED OAK DR",FATE,TX,75089,WOODCREEK,12,CONTRACTOR,,,,,,,,,,,"BEAZER HOMES ",,,,,"BEAZER HOMES ","1750 VALLEY VIEW LN STE 200",DALLAS,TX,75234-9010,"(972) 250-5517",http://www.beazer.com/,,,bret.kolbe@beazer.com
TX,ROCKWALL,,"Single Family Homes",1/19/2021,,553518,4584,"429 FORESTRIDGE DR",FATE,TX,75089,WOODCREEK,6,CONTRACTOR,,,,,,,,,,,"BEAZER HOMES ",,,,,"BEAZER HOMES ","1750 VALLEY VIEW LN STE 200",DALLAS,TX,75234-9010,"(972) 250-5517",http://www.beazer.com/,,,bret.kolbe@beazer.com
TX,ROCKWALL,,"Single Family Homes",1/19/2021,,348122,2883,"211 RED OAK DR",FATE,TX,75089,WOODCREEK,3,CONTRACTOR,,,,,,,,,,,"BEAZER HOMES ",,,,,"BEAZER HOMES ","1750 VALLEY VIEW LN STE 200",DALLAS,TX,75234-9010,"(972) 250-5517",http://www.beazer.com/,,,bret.kolbe@beazer.com
TX,ROCKWALL,,"Single Family Homes",1/19/2021,,561012,4373,"219 HEADWATER DR",FATE,TX,75089,,,CONTRACTOR,,,,,,,,,,,"BEAZER HOMES ",,,,,"BEAZER HOMES ","1750 VALLEY VIEW LN STE 200",DALLAS,TX,75234-9010,"(972) 250-5517",http://www.beazer.com/,,,bret.kolbe@beazer.com
TX,ROCKWALL,,"Single Family Homes",1/13/2021,,325179,2693,"776 FLETCHER DR",FATE,TX,75089,,,CONTRACTOR,,,,,,,,,,,"UNION MAIN HOMES",,,,,"UNION MAIN HOMES","5005 LYNDON B JOHNSON FWY STE 350",DALLAS,TX,75244-6147,"(832) 775-6367",,,,
TX,ROCKWALL,,"Single Family Homes",1/14/2021,,464042,3843,"367 MEREDITH DR",FATE,TX,75089,WOODCREEK,,CONTRACTOR,,,,,,,,,,,"PULTE HOMES",,,,,"PULTE HOMES","4800 REGENT BLVD",IRVING,TX,75063-2439,"(972) 304-2800",,,,
TX,ROCKWALL,,"Single Family Homes",1/14/2021,,313467,2596,"358 MEREDITH DR",FATE,TX,75089,WOODCREEK,,CONTRACTOR,,,,,,,,,,,"PULTE HOMES",,,,,"PULTE HOMES","4800 REGENT BLVD",IRVING,TX,75063-2439,"(972) 304-2800",,,,
TX,ROCKWALL,,"Single Family Homes",1/14/2021,,368891,3055,"354 MEREDITH DR",FATE,TX,75089,,,CONTRACTOR,,,,,,,,,,,"PULTE HOMES",,,,,"PULTE HOMES","4800 REGENT BLVD",IRVING,TX,75063-2439,"(972) 304-2800",,,,
TX,ROCKWALL,,"Single Family Homes",1/19/2021,,290041,2402,"804 ROLAND DR",FATE,TX,75089,,,CONTRACTOR,,,,,,,,,,,"DR HORTON",,,,,"DR HORTON","6751 NORTH FWY","FT WORTH",TX,76131-2802,"(817) 230-0800",,,,
TX,ROCKWALL,,"Single Family Homes",1/19/2021,,367683,3045,"335 VIRGINIA CT",FATE,TX,75089,,,CONTRACTOR,,,,,,,,,,,"DR HORTON",,,,,"DR HORTON","6751 NORTH FWY","FT WORTH",TX,76131-2802,"(817) 230-0800",,,,
TX,ROCKWALL,,"Single Family Homes",1/19/2021,,326628,2705,"248 CAROLINA TRACE",FATE,TX,75089,WILLIAMSBURG,61,CONTRACTOR,,,,,,,,,,,"DR HORTON",,,,,"DR HORTON","6751 NORTH FWY","FT WORTH",TX,76131-2802,"(817) 230-0800",,,,
TX,ROCKWALL,,"Single Family Homes",1/14/2021,,438443.2,3631,"385 RED CEDAR DR",FATE,TX,75089,,,CONTRACTOR,,,,,,,,,,,"BLOOMFIELD HOMES",,,,,"BLOOMFIELD HOMES","1050 E STATE HIGHWAY 114 STE 210",SOUTHLAKE,TX,76092-5255,"(972) 971-2103",http://bloomfieldhomes.net/,"(972) 987-4342",,mattjennings@bloomfieldhomes.net
TX,ROCKWALL,,"Single Family Homes",1/14/2021,,362612,3003,"374 BLUEWOOD DR",FATE,TX,75089,,,CONTRACTOR,,,,,,,,,,,"BLOOMFIELD HOMES",,,,,"BLOOMFIELD HOMES","1050 E STATE HIGHWAY 114 STE 210",SOUTHLAKE,TX,76092-5255,"(972) 971-2103",http://bloomfieldhomes.net/,"(972) 987-4342",,mattjennings@bloomfieldhomes.net
TX,ROCKWALL,,"Single Family Homes",1/14/2021,,414293,3431,"355 BLUEWOOD DR",FATE,TX,75089,,,CONTRACTOR,,,,,,,,,,,"BLOOMFIELD HOMES",,,,,"BLOOMFIELD HOMES","1050 E STATE HIGHWAY 114 STE 210",SOUTHLAKE,TX,76092-5255,"(972) 971-2103",http://bloomfieldhomes.net/,"(972) 987-4342",,mattjennings@bloomfieldhomes.net
TX,ROCKWALL,,"Single Family Homes",1/14/2021,,519104,4299,"356 RED CEDAR DR",FATE,TX,75089,,,CONTRACTOR,,,,,,,,,,,"BLOOMFIELD HOMES",,,,,"BLOOMFIELD HOMES","1050 E STATE HIGHWAY 114 STE 210",SOUTHLAKE,TX,76092-5255,"(972) 971-2103",http://bloomfieldhomes.net/,"(972) 987-4342",,mattjennings@bloomfieldhomes.net
TX,ROCKWALL,,"Single Family Homes",1/14/2021,,326145,2701,"417 ROSEBAY DR",FATE,TX,75089,,,CONTRACTOR,,,,,,,,,,,"BLOOMFIELD HOMES",,,,,"BLOOMFIELD HOMES","1050 E STATE HIGHWAY 114 STE 210",SOUTHLAKE,TX,76092-5255,"(972) 971-2103",http://bloomfieldhomes.net/,"(972) 987-4342",,mattjennings@bloomfieldhomes.net
TX,ROCKWALL,,"Single Family Homes",1/13/2021,,283762,2350,"436 HOLT LN",FATE,TX,75089,WOODCREEK,9,CONTRACTOR,,,,,,,,,,,"LENNAR HOMES",,,,,"LENNAR HOMES","1707 MARKET PL STE 250",IRVING,TX,75063-8050,"(469) 587-5200",http://www.lennar.com/,,,
TX,ROCKWALL,,"Single Family Homes",1/13/2021,,283762,2350,"647 BELTRAND LN",FATE,TX,75089,,,CONTRACTOR,,,,,,,,,,,"LENNAR HOMES",,,,,"LENNAR HOMES","1707 MARKET PL STE 250",IRVING,TX,75063-8050,"(469) 587-5200",http://www.lennar.com/,,,
TX,ROCKWALL,,"Single Family Homes",1/13/2021,,283762,2350,"635 BELTRAND LN",FATE,TX,75089,,,CONTRACTOR,,,,,,,,,,,"LENNAR HOMES",,,,,"LENNAR HOMES","1707 MARKET PL STE 250",IRVING,TX,75063-8050,"(469) 587-5200",http://www.lennar.com/,,,
TX,ROCKWALL,,"Single Family Homes",1/13/2021,,305497,2530,"643 BELTRAND LN",FATE,TX,75089,,,CONTRACTOR,,,,,,,,,,,"LENNAR HOMES",,,,,"LENNAR HOMES","1707 MARKET PL STE 250",IRVING,TX,75063-8050,"(469) 587-5200",http://www.lennar.com/,,,
TX,ROCKWALL,,"Single Family Homes",1/13/2021,,256956,2128,"639 BELTRAND LN",FATE,TX,75089,,,CONTRACTOR,,,,,,,,,,,"LENNAR HOMES",,,,,"LENNAR HOMES","1707 MARKET PL STE 250",IRVING,TX,75063-8050,"(469) 587-5200",http://www.lennar.com/,,,
TX,ROCKWALL,,"Single Family Homes",1/13/2021,,305497,2530,"440 HOLT LN",FATE,TX,75089,WOODCREEK,10,CONTRACTOR,,,,,,,,,,,"LENNAR HOMES",,,,,"LENNAR HOMES","1707 MARKET PL STE 250",IRVING,TX,75063-8050,"(469) 587-5200",http://www.lennar.com/,,,
TX,ROCKWALL,,"Single Family Homes",1/13/2021,,301481,2350,"842 SITWELL DR",FATE,TX,75089,WOODCREEK,,CONTRACTOR,,,,,,,,,,,"LENNAR HOMES",,,,,"LENNAR HOMES","1707 MARKET PL STE 250",IRVING,TX,75063-8050,"(469) 587-5200",http://www.lennar.com/,,,
TX,ROCKWALL,,"Single Family Homes",1/13/2021,,283762,2350,"448 HOLT LN",FATE,TX,75089,WOODCREEK,12,CONTRACTOR,,,,,,,,,,,"LENNAR HOMES",,,,,"LENNAR HOMES","1707 MARKET PL STE 250",IRVING,TX,75063-8050,"(469) 587-5200",http://www.lennar.com/,,,
TX,ROCKWALL,,"Single Family Homes",1/20/2021,,311535,2580,"539 TAYLOR DR",FATE,TX,75089,WOODCREEK,28,CONTRACTOR,,,,,,,,,,,"TRENDMAKER HOMES",,,,,"TRENDMAKER HOMES","4835 LBJ FREEWAY SUITE 700",DALLAS,TX,75068,"(214) 765-0573",,,,
TX,ROCKWALL,,"Single Family Homes",1/20/2021,,324938,2691,"874 MILDREN LN",FATE,TX,75089,WOODCREEK,1,CONTRACTOR,,,,,,,,,,,"TRENDMAKER HOMES",,,,,"TRENDMAKER HOMES","4835 LBJ FREEWAY SUITE 700",DALLAS,TX,75068,"(214) 765-0573",,,,
TX,ROCKWALL,,"Single Family Homes",1/19/2021,,367683,3045,"468 DECLARATION WAY",FATE,TX,75089,WILLIAMSBURG,39,CONTRACTOR,,,,,,,,,,,"DR HORTON",,,,,"DR HORTON","6751 NORTH FWY","FT WORTH",TX,76131-2802,"(817) 230-0800",,,,
TX,ROCKWALL,,"Single Family Homes",1/19/2021,,308274,2553,"340 CAROLINA TRACE",FATE,TX,75089,WILLIAMSBURG,49,CONTRACTOR,,,,,,,,,,,"DR HORTON",,,,,"DR HORTON","6751 NORTH FWY","FT WORTH",TX,76131-2802,"(817) 230-0800",,,,
TX,ROCKWALL,,"Single Family Homes",1/19/2021,,308274,2553,"331 CAROLINA TRACE",FATE,TX,75089,,,CONTRACTOR,,,,,,,,,,,"DR HORTON",,,,,"DR HORTON","6751 NORTH FWY","FT WORTH",TX,76131-2802,"(817) 230-0800",,,,
TX,ROCKWALL,,"Single Family Homes",1/19/2021,,367683,3045,"339 CAROLINA TRACE",FATE,TX,75089,WILLIAMSBURG,8,CONTRACTOR,,,,,,,,,,,"DR HORTON",,,,,"DR HORTON","6751 NORTH FWY","FT WORTH",TX,76131-2802,"(817) 230-0800",,,,
TX,ROCKWALL,,"Single Family Homes",1/19/2021,,301271,2495,"868 HANCOCK CT",FATE,TX,75089,WILLIAMSBURG,60,CONTRACTOR,,,,,,,,,,,"DR HORTON",,,,,"DR HORTON","6751 NORTH FWY","FT WORTH",TX,76131-2802,"(817) 230-0800",,,,
TX,ROCKWALL,,"Single Family Homes",1/19/2021,,323610,2680,"840 HANCOCK CT",FATE,TX,75089,,,CONTRACTOR,,,,,,,,,,,"DR HORTON",,,,,"DR HORTON","6751 NORTH FWY","FT WORTH",TX,76131-2802,"(817) 230-0800",,,,
TX,TARRANT,"NSFR - 19 - 4801","Single Family Homes",12/15/2020,,475000,5035,"2089 HOLT WAY",GRAPEVINE,TX,76051,,,CONTRACTOR,,,,,,,,,,,"RENAISSANCE HOMES",,,,,"RENAISSANCE HOMES","300 W ASH LN",EULESS,TX,76039-2806,"(512) 659-5814",,,,
TX,TARRANT,"NSFR - 20 - 3831","Single Family Homes",12/7/2020,,3223400,20621,"3079 PARR LN",GRAPEVINE,TX,76051,,,CONTRACTOR,,,,,,,,,,,"MARTIN RAYMOND HOMES",,,,,"MARTIN RAYMOND HOMES","PO BOX 260118",PLANO,TX,75026-0118,"(972) 380-8882",http://www.martinraymondhomes.com/,"(972) 943-7709","MARTY RAYMOND",marty@martinraymondhomes.com
TX,TARRANT,"NSFR - 20 - 4137","Single Family Homes",12/10/2020,,218260,3924,"985 MEADOW BEND N LOOP",GRAPEVINE,TX,76051,,,CONTRACTOR,,,,,,,,,,,"MAYKUS CUSTOM HOMES",,,,,"MAYKUS CUSTOM HOMES","101 CLARIDEN RANCH RD",SOUTHLAKE,TX,76092-1947,"(817) 329-3111",http://www.maykus.com/,,,
TX,ROCKWALL,,"Single Family Homes",1/19/2021,,307671,2548,"836 HANCOCK CT",FATE,TX,75089,WILLIAMSBURG,67,CONTRACTOR,,,,,,,,,,,"DR HORTON",,,,,"DR HORTON","6751 NORTH FWY","FT WORTH",TX,76131-2802,"(817) 230-0800",,,,
TX,ROCKWALL,,"Single Family Homes",1/19/2021,,367683,3045,"844 HANCOCK CT",FATE,TX,75089,,,CONTRACTOR,,,,,,,,,,,"DR HORTON",,,,,"DR HORTON","6751 NORTH FWY","FT WORTH",TX,76131-2802,"(817) 230-0800",,,,
TX,ROCKWALL,,"Single Family Homes",1/19/2021,,367683,3045,"234 VIRGINIA CT",FATE,TX,75089,WILLIAMSBURG,85,CONTRACTOR,,,,,,,,,,,"DR HORTON",,,,,"DR HORTON","6751 NORTH FWY","FT WORTH",TX,76131-2802,"(817) 230-0800",,,,
TX,ROCKWALL,,"Single Family Homes",1/19/2021,,329406,2728,"819 HANCOCK CT",FATE,TX,75089,,,CONTRACTOR,,,,,,,,,,,"DR HORTON",,,,,"DR HORTON","6751 NORTH FWY","FT WORTH",TX,76131-2802,"(817) 230-0800",,,,
TX,ROCKWALL,,"Single Family Homes",1/19/2021,,321919,2666,"827 HANCOCK CT",FATE,TX,75089,WILLIAMSBURG,13,CONTRACTOR,,,,,,,,,,,"DR HORTON",,,,,"DR HORTON","6751 NORTH FWY","FT WORTH",TX,76131-2802,"(817) 230-0800",,,,
TX,TARRANT,PB20-17167,"Single Family Homes",12/15/2020,,359900,3344,"4860 MONTE VERDE DR","FORT WORTH",TX,76244,,,CONTRACTOR,,,,,,,,,,,"K HOVNANIAN HOMES",,,,,"K HOVNANIAN HOMES","5808 W PLANO PKWY",PLANO,TX,75093-4636,"(469) 737-1400",,,,
TX,TARRANT,PB20-17177,"Single Family Homes",12/18/2020,,195237,2489,"524 PHEASANT HILL LN","FORT WORTH",TX,76028,,,CONTRACTOR,,,,,,,,,,,"GEHAN HOMES",,,,,"GEHAN HOMES","14901 QUORUM DR STE 300",DALLAS,TX,75254-6735,"(972) 383-4300",http://www.gehanhomes.com,,,
TX,TARRANT,PB20-17187,"Single Family Homes",12/15/2020,,344850,3135,"10624 OATES BRANCH LN","FORT WORTH",TX,76126,,,CONTRACTOR,,,,,,,,,,,"BRITTON HOMES",,,,,"BRITTON HOMES","5055 WEST PARK BLVD",PLANO,TX,75093,"(713) 948-4485",,,,
TX,TARRANT,PB20-17189,"Single Family Homes",12/21/2020,,390710,3248,"4861 CARMEL VALLEY DR","FORT WORTH",TX,76244,,,CONTRACTOR,,,,,,,,,,,"K HOVNANIAN HOMES",,,,,"K HOVNANIAN HOMES","5808 W PLANO PKWY",PLANO,TX,75093-4636,"(469) 737-1400",,,,
TX,TARRANT,PB20-17193,"Single Family Homes",12/10/2020,,131000,2699,"1613 STAR FLEET DR","FORT WORTH",TX,76052,,,CONTRACTOR,,,,,,,,,,,"DR HORTON",,,,,"DR HORTON","6751 NORTH FWY","FT WORTH",TX,76131-2802,"(817) 230-0800",,,,
TX,TARRANT,PB20-17194,"Single Family Homes",12/9/2020,,131000,2699,"14112 BOREALIS DR","FORT WORTH",TX,76179,,,CONTRACTOR,,,,,,,,,,,"DR HORTON",,,,,"DR HORTON","6751 NORTH FWY","FT WORTH",TX,76131-2802,"(817) 230-0800",,,,
TX,TARRANT,PB20-17195,"Single Family Homes",12/15/2020,,131000,2699,"1916 GILL STAR DR","FORT WORTH",TX,76052,,,CONTRACTOR,,,,,,,,,,,"DR HORTON",,,,,"DR HORTON","6751 NORTH FWY","FT WORTH",TX,76131-2802,"(817) 230-0800",,,,
TX,TARRANT,PB20-17196,"Single Family Homes",12/9/2020,,133000,3297,"2045 SUN STAR DR","FORT WORTH",TX,76052,,,CONTRACTOR,,,,,,,,,,,"DR HORTON",,,,,"DR HORTON","6751 NORTH FWY","FT WORTH",TX,76131-2802,"(817) 230-0800",,,,
TX,TARRANT,PB20-17197,"Single Family Homes",12/9/2020,,122000,3388,"1728 STAR FLEET DR","FORT WORTH",TX,76052,,,CONTRACTOR,,,,,,,,,,,"DR HORTON",,,,,"DR HORTON","6751 NORTH FWY","FT WORTH",TX,76131-2802,"(817) 230-0800",,,,
TX,TARRANT,PB20-17198,"Single Family Homes",12/11/2020,,133000,3362,"1937 BELLATRIX DR","FORT WORTH",TX,76052,,,CONTRACTOR,,,,,,,,,,,"DR HORTON",,,,,"DR HORTON","6751 NORTH FWY","FT WORTH",TX,76131-2802,"(817) 230-0800",,,,
TX,TARRANT,PB20-17199,"Single Family Homes",12/11/2020,,133000,3362,"1901 ELARA DR","FORT WORTH",TX,76052,,,CONTRACTOR,,,,,,,,,,,"DR HORTON",,,,,"DR HORTON","6751 NORTH FWY","FT WORTH",TX,76131-2802,"(817) 230-0800",,,,
TX,TARRANT,PB20-17201,"Single Family Homes",12/22/2020,,122000,2501,"2812 SWIFT CREEK DR","FORT WORTH",TX,76123,,,CONTRACTOR,,,,,,,,,,,"DR HORTON",,,,,"DR HORTON","6751 NORTH FWY","FT WORTH",TX,76131-2802,"(817) 230-0800",,,,
TX,TARRANT,PB20-17202,"Single Family Homes",11/20/2020,,170000,2862,"3732 EARL ST","FORT WORTH",TX,76111,,,CONTRACTOR,,,,,,,,,,,"JULIAN LEYVA CONSTRUCTION",,,,,"JULIAN LEYVA CONSTRUCTION","802 NE 20TH ST","GRAND PRAIRIE",TX,75050-3943,"(972) 897-5730",,,,
TX,TARRANT,PB20-17205,"Single Family Homes",12/4/2020,,132930,2110,"1309 QUEENS BROOK LN","FORT WORTH",TX,76140,,,CONTRACTOR,,,,,,,,,,,"ANTARES HOMES",,,,,"ANTARES HOMES","840 E INTERSTATE 20",ARLINGTON,TX,76018-1131,"(817) 701-3000",http://www.antareshomes.com,,,
TX,TARRANT,PB20-17212,"Single Family Homes",11/20/2020,,311031,4937,"3928 BUNTING AVE","FORT WORTH",TX,76107,,,CONTRACTOR,,,,,,,,,,,"SUNSHINE CONSTRUCTION",,,,,"SUNSHINE CONSTRUCTION","5009 STATE HIGHWAY 361","PORT ARANSAS",TX,78373-4832,"(361) 808-4276",,,,
TX,TARRANT,PB20-17213,"Single Family Homes",12/7/2020,,259056,4112,"14400 CAPRIDGE RD","FORT WORTH",TX,76008,,,CONTRACTOR,,,,,,,,,,,"TOLL BROTHERS",,,,,"TOLL BROTHERS","9178 VITA DOLCE DR",FRISCO,TX,75035-2300,"(469) 525-0524",,,,
TX,TARRANT,PB20-17214,"Single Family Homes",12/7/2020,,186606,2962,"1548 JOCELYN DR","FORT WORTH",TX,76052,,,CONTRACTOR,,,,,,,,,,,"AMERICAN LEGEND HOMES",,,,,"AMERICAN LEGEND HOMES","2540 KING ARTHUR BLVD STE 200",LEWISVILLE,TX,75056-5833,"(972) 410-5701",http://www.amlegendhomes.com/,"(972) 410-5750",,
TX,TARRANT,PB20-17215,"Single Family Homes",12/4/2020,,187236,2972,"14501 SPITFIRE TRL","FORT WORTH",TX,76262,,,CONTRACTOR,,,,,,,,,,,"DREES CUSTOM HOMES",,,,,"DREES CUSTOM HOMES","6225 N STATE HIGHWAY 161 STE 150",IRVING,TX,75038-2283,"(972) 953-4500",http://www.dreeshomes.com,,,
TX,TARRANT,PB20-17217,"Single Family Homes",12/7/2020,,134946,2142,"621 ANTSWOOD DR","FORT WORTH",TX,76131,,,CONTRACTOR,,,,,,,,,,,"STONEHOLLOW HOMES",,,,,"STONEHOLLOW HOMES","905 MARKET ST STE 250",ALLEN,TX,75013,"(817) 917-4472",,,,
TX,ROCKWALL,,"Single Family Homes",1/19/2021,,291732,2416,"2117 BRISBON ST",FATE,TX,75089,WOODCREEK,14,CONTRACTOR,,,,,,,,,,,"DR HORTON",,,,,"DR HORTON","6751 NORTH FWY","FT WORTH",TX,76131-2802,"(817) 230-0800",,,,
TX,ROCKWALL,,"Single Family Homes",1/19/2021,,323610,2680,"2114 BRISBON ST",FATE,TX,75089,WOODCREEK,2,CONTRACTOR,,,,,,,,,,,"DR HORTON",,,,,"DR HORTON","6751 NORTH FWY","FT WORTH",TX,76131-2802,"(817) 230-0800",,,,
TX,TARRANT,PB20-17218,"Single Family Homes",12/8/2020,,289674,4598,"1605 NARITA BND","FORT WORTH",TX,76008,,,CONTRACTOR,,,,,,,,,,,"TOLL BROTHERS",,,,,"TOLL BROTHERS","9178 VITA DOLCE DR",FRISCO,TX,75035-2300,"(469) 525-0524",,,,
TX,ROCKWALL,,"Single Family Homes",1/19/2021,,250073,2071,"800 ROLAND DR",FATE,TX,75089,WOODCREEK,1,CONTRACTOR,,,,,,,,,,,"DR HORTON",,,,,"DR HORTON","6751 NORTH FWY","FT WORTH",TX,76131-2802,"(817) 230-0800",,,,
TX,ROCKWALL,,"Single Family Homes",1/19/2021,,284970,2360,"863 REVERE CT",FATE,TX,75089,,,CONTRACTOR,,,,,,,,,,,"DR HORTON",,,,,"DR HORTON","6751 NORTH FWY","FT WORTH",TX,76131-2802,"(817) 230-0800",,,,
TX,TARRANT,PB20-17219,"Single Family Homes",12/7/2020,,242613,3851,"8901 HORSE HERD DR","FORT WORTH",TX,76051,,,CONTRACTOR,,,,,,,,,,,"HISTORY MAKER HOMES",,,,,"HISTORY MAKER HOMES","9001 AIRPORT FWY SUITE 400","NORTH RICHLAND HILLS",TX,76180-7769,"(817) 429-8008",http://www.historymaker.com/,"(817) 507-1102","JILL BARFIELD",
TX,ROCKWALL,,"Single Family Homes",1/19/2021,,308274,2553,"859 REVERE CT",FATE,TX,75089,WILLIAMSBURG,70,CONTRACTOR,,,,,,,,,,,"DR HORTON",,,,,"DR HORTON","6751 NORTH FWY","FT WORTH",TX,76131-2802,"(817) 230-0800",,,,
TX,ROCKWALL,,"Single Family Homes",1/19/2021,,323610,2680,"851 REVERE CT",FATE,TX,75089,WILLIAMSBURG,68,CONTRACTOR,,,,,,,,,,,"DR HORTON",,,,,"DR HORTON","6751 NORTH FWY","FT WORTH",TX,76131-2802,"(817) 230-0800",,,,
TX,ROCKWALL,,"Single Family Homes",1/19/2021,,298373,2471,"953 PHILADELPHIA ST",FATE,TX,75089,WILLIAMSBURG,57,CONTRACTOR,,,,,,,,,,,"DR HORTON",,,,,"DR HORTON","6751 NORTH FWY","FT WORTH",TX,76131-2802,"(817) 230-0800",,,,
TX,ROCKWALL,,"Single Family Homes",1/19/2021,,323610,2680,"936 PHILADELPHIA ST",FATE,TX,75089,WILLIAMSBURG,9,CONTRACTOR,,,,,,,,,,,"DR HORTON",,,,,"DR HORTON","6751 NORTH FWY","FT WORTH",TX,76131-2802,"(817) 230-0800",,,,
TX,ROCKWALL,,"Single Family Homes",1/19/2021,,298373,2471,"848 HANCOCK CT",FATE,TX,75089,WILLIAMSBURG,64,CONTRACTOR,,,,,,,,,,,"DR HORTON",,,,,"DR HORTON","6751 NORTH FWY","FT WORTH",TX,76131-2802,"(817) 230-0800",,,,
TX,TARRANT,PB20-17220,"Single Family Homes",12/8/2020,,162099,2573,"5128 BEAUTYBERRY DR","FORT WORTH",TX,76036,,,CONTRACTOR,,,,,,,,,,,"TRENDMAKER HOMES",,,,,"TRENDMAKER HOMES","4835 LBJ FREEWAY SUITE 700",DALLAS,TX,75068,"(214) 765-0573",,,,
TX,ROCKWALL,,"Single Family Homes",1/19/2021,,298373,2471,"762 FORT LN",FATE,TX,75089,WILLIAMSBURG,85,CONTRACTOR,,,,,,,,,,,"DR HORTON",,,,,"DR HORTON","6751 NORTH FWY","FT WORTH",TX,76131-2802,"(817) 230-0800",,,,
TX,TARRANT,PB20-17221,"Single Family Homes",12/9/2020,,294777,4679,"15005 FLEET HILL RD","FORT WORTH",TX,76087,,,CONTRACTOR,,,,,,,,,,,"HISTORY MAKER HOMES",,,,,"HISTORY MAKER HOMES","9001 AIRPORT FWY SUITE 400","NORTH RICHLAND HILLS",TX,76180-7769,"(817) 429-8008",http://www.historymaker.com/,"(817) 507-1102","JILL BARFIELD",
TX,ROCKWALL,,"Single Family Homes",1/19/2021,,298373,2471,"783 FORT LN",FATE,TX,75089,,,CONTRACTOR,,,,,,,,,,,"DR HORTON",,,,,"DR HORTON","6751 NORTH FWY","FT WORTH",TX,76131-2802,"(817) 230-0800",,,,
TX,TARRANT,PB20-17223,"Single Family Homes",12/7/2020,,234801,3727,"15009 FLEET HILL RD","FORT WORTH",TX,76087,,,CONTRACTOR,,,,,,,,,,,"HISTORY MAKER HOMES",,,,,"HISTORY MAKER HOMES","9001 AIRPORT FWY SUITE 400","NORTH RICHLAND HILLS",TX,76180-7769,"(817) 429-8008",http://www.historymaker.com/,"(817) 507-1102","JILL BARFIELD",
TX,ROCKWALL,,"Single Family Homes",1/19/2021,,380000,3147,"871 REVERE CT",FATE,TX,75089,,,CONTRACTOR,,,,,,,,,,,"DR HORTON",,,,,"DR HORTON","6751 NORTH FWY","FT WORTH",TX,76131-2802,"(817) 230-0800",,,,
TX,TARRANT,PB20-17247,"Single Family Homes",12/7/2020,,140427,2229,"10525 ENCHANTED ROCK WAY","FORT WORTH",TX,76244,,,CONTRACTOR,,,,,,,,,,,"TROPHY SIGNATURE HOMES",,,,,"TROPHY SIGNATURE HOMES","2805 DALLAS PKWY STE 400",PLANO,TX,75093-8722,"(469) 969-7339",,,,
TX,ROCKWALL,,"Single Family Homes",1/19/2021,,308274,2553,"753 FORT LN",FATE,TX,75089,WILLIAMSBURG,11,CONTRACTOR,,,,,,,,,,,"DR HORTON",,,,,"DR HORTON","6751 NORTH FWY","FT WORTH",TX,76131-2802,"(817) 230-0800",,,,
TX,TARRANT,PB20-17248,"Single Family Homes",12/11/2020,,295659,6361,"9909 MI TIERRA DR","FORT WORTH",TX,76179,,,CONTRACTOR,,,,,,,,,,,"FIRST TEXAS HOMES",,,,,"FIRST TEXAS HOMES","500 CRESCENT CT STE 350",DALLAS,TX,75201-7854,"(214) 613-3400",,"(214) 432-0350",,
TX,TARRANT,PB20-17252,"Single Family Homes",12/16/2020,,217387,3449,"521 ANTSWOOD DR","FORT WORTH",TX,76108,,,CONTRACTOR,,,,,,,,,,,"STONEHOLLOW HOMES",,,,,"STONEHOLLOW HOMES","905 MARKET ST STE 250",ALLEN,TX,75013,"(817) 917-4472",,,,
TX,TARRANT,PB20-17257,"Single Family Homes",12/8/2020,,217387,3449,"524 ANTSWOOD DR","FORT WORTH",TX,76108,,,CONTRACTOR,,,,,,,,,,,"STONEHOLLOW HOMES",,,,,"STONEHOLLOW HOMES","905 MARKET ST STE 250",ALLEN,TX,75013,"(817) 917-4472",,,,
TX,TARRANT,PB20-17260,"Single Family Homes",12/7/2020,,133875,2125,"1352 ROYAL MEADOWS TRL","FORT WORTH",TX,76140,,,CONTRACTOR,,,,,,,,,,,"ANTARES HOMES",,,,,"ANTARES HOMES","840 E INTERSTATE 20",ARLINGTON,TX,76018-1131,"(817) 701-3000",http://www.antareshomes.com,,,
TX,TARRANT,PB20-17261,"Single Family Homes",12/14/2020,,157059,2493,"10121 CALLAN LN","FORT WORTH",TX,76131,,,CONTRACTOR,,,,,,,,,,,"M/I HOMES",,,,,"M/I HOMES","405 STATE HIGHWAY 121 BYP STE A210",LEWISVILLE,TX,75067-8214,"(210) 546-2129",,"(210) 546-2196",,
TX,TARRANT,PB20-17265,"Single Family Homes",11/23/2020,,158000,2881,"4412 SWALLOW DR","FORT WORTH",TX,76262,,,CONTRACTOR,,,,,,,,,,,"MHI MCGUYER HOMEBUILDERS",,,,,"MHI MCGUYER HOMEBUILDERS","1501 LYNDON B JOHNSON FWY STE 100",DALLAS,TX,75234-6029,"(972) 277-3811",,,,
TX,TARRANT,PB20-17266,"Single Family Homes",12/9/2020,,225477,3579,"9536 ABINGTON AVE","FORT WORTH",TX,76131,,,CONTRACTOR,,,,,,,,,,,"M/I HOMES",,,,,"M/I HOMES","405 STATE HIGHWAY 121 BYP STE A210",LEWISVILLE,TX,75067-8214,"(210) 546-2129",,"(210) 546-2196",,
TX,TARRANT,"20 - 1794","Single Family Homes",12/18/2020,,120000,,"4713 MCNUTT ST","HALTOM CITY",TX,76117,,,CONTRACTOR,,,,,,,,,,,"A&H MASONRY",,,,,"A&H MASONRY","6819 CANYON WAY DRIVE",HOUSTON,TX,77086,"(281) 405-9942",,,,
TX,TARRANT,"20 - 2994","Single Family Homes",12/14/2020,,347900,,"5475 RIDGEWAY DR","HALTOM CITY",TX,76117,,,CONTRACTOR,,,,,,,,,,,"K HOVNANIAN HOMES",,,,,"K HOVNANIAN HOMES","5808 W PLANO PKWY",PLANO,TX,75093-4636,"(469) 737-1400",,,,
TX,TARRANT,"20 - 3212","Single Family Homes",12/3/2020,,317900,,"5453 HIGH POINTE DR","HALTOM CITY",TX,76117,,,CONTRACTOR,,,,,,,,,,,"K HOVNANIAN HOMES",,,,,"K HOVNANIAN HOMES","5808 W PLANO PKWY",PLANO,TX,75093-4636,"(469) 737-1400",,,,
TX,TARRANT,"20 - 3512","Single Family Homes",12/14/2020,,294853,,"4713 TANGLEWOOD DR","HALTOM CITY",TX,76117,,,CONTRACTOR,,,,,,,,,,,"DAVID WEEKLEY HOMES",,,,,"DAVID WEEKLEY HOMES","2708 HILLSIDE DR","HIGHLAND VILLAGE",TX,75077-8653,"(972) 415-6059",http://www.davidweekleyhomes.com/,,,
TX,TARRANT,"20 - 3691","Single Family Homes",12/14/2020,,259110,,"5412 WEDGE WOOD DR","HALTOM CITY",TX,76117,,,CONTRACTOR,,,,,,,,,,,"DAVID WEEKLEY HOMES",,,,,"DAVID WEEKLEY HOMES","2708 HILLSIDE DR","HIGHLAND VILLAGE",TX,75077-8653,"(972) 415-6059",http://www.davidweekleyhomes.com/,,,
TX,TARRANT,"20 - 3708","Single Family Homes",12/14/2020,,298165,,"5368 WATERVIEW CT","HALTOM CITY",TX,76117,,,CONTRACTOR,,,,,,,,,,,"DAVID WEEKLEY HOMES",,,,,"DAVID WEEKLEY HOMES","2708 HILLSIDE DR","HIGHLAND VILLAGE",TX,75077-8653,"(972) 415-6059",http://www.davidweekleyhomes.com/,,,
TX,TARRANT,PB20-17267,"Single Family Homes",12/9/2020,,109000,1957,"3400 WINOAK DR","FORT WORTH",TX,76123,,,CONTRACTOR,,,,,,,,,,,"DR HORTON",,,,,"DR HORTON","6751 NORTH FWY","FT WORTH",TX,76131-2802,"(817) 230-0800",,,,
TX,TARRANT,PB20-17268,"Single Family Homes",12/8/2020,,210357,3339,"11744 WULSTONE RD","FORT WORTH",TX,76052,,,CONTRACTOR,,,,,,,,,,,"BEAZER HOMES ",,,,,"BEAZER HOMES ","1750 VALLEY VIEW LN STE 200",DALLAS,TX,75234-9010,"(972) 250-5517",http://www.beazer.com/,,,bret.kolbe@beazer.com
TX,TARRANT,PB20-17271,"Single Family Homes",12/8/2020,,273231,4337,"5660 MOUNTAIN ISLAND DR","FORT WORTH",TX,76179,,,CONTRACTOR,,,,,,,,,,,"IMPRESSION HOMES",,,,,"IMPRESSION HOMES","430 N CARROLL AVE # 150",SOUTHLAKE,TX,76092-6452,"(817) 717-5103",https://www.impressionhomes.net/,,,
TX,TARRANT,PB20-17273,"Single Family Homes",12/8/2020,,256536,4072,"5617 MOUNTAIN ISLAND DR","FORT WORTH",TX,76179,,,CONTRACTOR,,,,,,,,,,,"IMPRESSION HOMES",,,,,"IMPRESSION HOMES","430 N CARROLL AVE # 150",SOUTHLAKE,TX,76092-6452,"(817) 717-5103",https://www.impressionhomes.net/,,,
TX,TARRANT,PB20-17275,"Single Family Homes",12/22/2020,,342980,3121,"10520 OATES BRANCH LN","FORT WORTH",TX,76126,,,CONTRACTOR,,,,,,,,,,,"BRITTON HOMES",,,,,"BRITTON HOMES","5055 WEST PARK BLVD",PLANO,TX,75093,"(713) 948-4485",,,,
TX,TARRANT,PB20-17276,"Single Family Homes",12/8/2020,,235431,3737,"5621 MOUNTAIN ISLAND DR","FORT WORTH",TX,76179,,,CONTRACTOR,,,,,,,,,,,"IMPRESSION HOMES",,,,,"IMPRESSION HOMES","430 N CARROLL AVE # 150",SOUTHLAKE,TX,76092-6452,"(817) 717-5103",https://www.impressionhomes.net/,,,
TX,TARRANT,PB20-17278,"Single Family Homes",12/29/2020,,233793,3711,"632 ANTSWOOD DR","FORT WORTH",TX,76108,,,CONTRACTOR,,,,,,,,,,,"IMPRESSION HOMES",,,,,"IMPRESSION HOMES","430 N CARROLL AVE # 150",SOUTHLAKE,TX,76092-6452,"(817) 717-5103",https://www.impressionhomes.net/,,,
TX,TARRANT,PB20-17282,"Single Family Homes",12/11/2020,,221508,3516,"8729 HELIOTROPE LN","FORT WORTH",TX,76131,,,CONTRACTOR,,,,,,,,,,,"M/I HOMES",,,,,"M/I HOMES","405 STATE HIGHWAY 121 BYP STE A210",LEWISVILLE,TX,75067-8214,"(210) 546-2129",,"(210) 546-2196",,
TX,TARRANT,PB20-17302,"Single Family Homes",12/16/2020,,119000,2831,"15109 GLADSTONE DR","FORT WORTH",TX,76087,,,CONTRACTOR,,,,,,,,,,,"DR HORTON",,,,,"DR HORTON","6751 NORTH FWY","FT WORTH",TX,76131-2802,"(817) 230-0800",,,,
TX,TARRANT,PB20-17303,"Single Family Homes",12/11/2020,,,4257,"253 CROSS FOX LN","FORT WORTH",TX,76087,,,CONTRACTOR,,,,,,,,,,,"DR HORTON",,,,,"DR HORTON","6751 NORTH FWY","FT WORTH",TX,76131-2802,"(817) 230-0800",,,,
TX,TARRANT,PB20-17306,"Single Family Homes",12/11/2020,,,4009,"245 CROSS FOX LN","FORT WORTH",TX,76087,,,CONTRACTOR,,,,,,,,,,,"DR HORTON",,,,,"DR HORTON","6751 NORTH FWY","FT WORTH",TX,76131-2802,"(817) 230-0800",,,,
TX,TARRANT,"20 - 3793","Single Family Homes",12/17/2020,,290445,,"5429 HIGH POINTE DR","HALTOM CITY",TX,76117,,,CONTRACTOR,,,,,,,,,,,"DAVID WEEKLEY HOMES",,,,,"DAVID WEEKLEY HOMES","2708 HILLSIDE DR","HIGHLAND VILLAGE",TX,75077-8653,"(972) 415-6059",http://www.davidweekleyhomes.com/,,,
TX,TARRANT,PB20-17308,"Single Family Homes",12/11/2020,,149000,4084,"249 CROSS FOX LN","FORT WORTH",TX,76087,,,CONTRACTOR,,,,,,,,,,,"DR HORTON",,,,,"DR HORTON","6751 NORTH FWY","FT WORTH",TX,76131-2802,"(817) 230-0800",,,,
TX,TARRANT,"20 - 3807","Single Family Homes",12/18/2020,,290445,,"4724 BLUFFVIEW DR","HALTOM CITY",TX,76117,,,CONTRACTOR,,,,,,,,,,,"DAVID WEEKLEY HOMES",,,,,"DAVID WEEKLEY HOMES","2708 HILLSIDE DR","HIGHLAND VILLAGE",TX,75077-8653,"(972) 415-6059",http://www.davidweekleyhomes.com/,,,
TX,TARRANT,PB20-17312,"Single Family Homes",12/11/2020,,348900,3245,"1800 STOWERS TRL","FORT WORTH",TX,76052,,,CONTRACTOR,,,,,,,,,,,"K HOVNANIAN HOMES",,,,,"K HOVNANIAN HOMES","5808 W PLANO PKWY",PLANO,TX,75093-4636,"(469) 737-1400",,,,
TX,TARRANT,"20 - 3808","Single Family Homes",12/17/2020,,265495,,"5316 WATERVIEW CT","HALTOM CITY",TX,76117,,,CONTRACTOR,,,,,,,,,,,"DAVID WEEKLEY HOMES",,,,,"DAVID WEEKLEY HOMES","2708 HILLSIDE DR","HIGHLAND VILLAGE",TX,75077-8653,"(972) 415-6059",http://www.davidweekleyhomes.com/,,,
TX,TARRANT,PB20-17315,"Single Family Homes",12/30/2020,,110000,2541,"3213 HANGER AVE","FORT WORTH",TX,76105,,,CONTRACTOR,,,,,,,,,,,"DVESELE PROPERTIES",,,,,"DVESELE PROPERTIES","2809 COUNTY ROAD 206",ALVARADO,TX,76009-7274,"(817) 312-7178",,,,
TX,TARRANT,"20 - 3815","Single Family Homes",12/18/2020,,318887,,"5421 LAKE FRONT DR","HALTOM CITY",TX,76117,,,CONTRACTOR,,,,,,,,,,,"DAVID WEEKLEY HOMES",,,,,"DAVID WEEKLEY HOMES","2708 HILLSIDE DR","HIGHLAND VILLAGE",TX,75077-8653,"(972) 415-6059",http://www.davidweekleyhomes.com/,,,
TX,TARRANT,PB20-17318,"Single Family Homes",12/8/2020,,191457,3039,"600 SOARING STAR LN","FORT WORTH",TX,76087,,,CONTRACTOR,,,,,,,,,,,"HISTORY MAKER HOMES",,,,,"HISTORY MAKER HOMES","9001 AIRPORT FWY SUITE 400","NORTH RICHLAND HILLS",TX,76180-7769,"(817) 429-8008",http://www.historymaker.com/,"(817) 507-1102","JILL BARFIELD",
TX,TARRANT,"20 - 3848","Single Family Homes",12/31/2020,,264678,,"4718 CRESTWOOD DR","HALTOM CITY",TX,76117,,,CONTRACTOR,,,,,,,,,,,"DAVID WEEKLEY HOMES",,,,,"DAVID WEEKLEY HOMES","2708 HILLSIDE DR","HIGHLAND VILLAGE",TX,75077-8653,"(972) 415-6059",http://www.davidweekleyhomes.com/,,,
TX,TARRANT,PB20-17319,"Single Family Homes",12/8/2020,,137340,2180,"2033 BELLATRIX DR","FORT WORTH",TX,76052,,,CONTRACTOR,,,,,,,,,,,"HISTORY MAKER HOMES",,,,,"HISTORY MAKER HOMES","9001 AIRPORT FWY SUITE 400","NORTH RICHLAND HILLS",TX,76180-7769,"(817) 429-8008",http://www.historymaker.com/,"(817) 507-1102","JILL BARFIELD",
TX,TARRANT,PB20-17320,"Single Family Homes",12/8/2020,,166445,2642,"324 WILD ONION LN","FORT WORTH",TX,76131,,,CONTRACTOR,,,,,,,,,,,"M/I HOMES",,,,,"M/I HOMES","405 STATE HIGHWAY 121 BYP STE A210",LEWISVILLE,TX,75067-8214,"(210) 546-2129",,"(210) 546-2196",,
TX,TARRANT,"20 - 3849","Single Family Homes",12/31/2020,,296233,,"5324 WATERVIEW CT","HALTOM CITY",TX,76117,,,CONTRACTOR,,,,,,,,,,,"DAVID WEEKLEY HOMES",,,,,"DAVID WEEKLEY HOMES","2708 HILLSIDE DR","HIGHLAND VILLAGE",TX,75077-8653,"(972) 415-6059",http://www.davidweekleyhomes.com/,,,
TX,TARRANT,"20 - 3884","Single Family Homes",12/31/2020,,313812,,"5328 WATERVIEW CT","HALTOM CITY",TX,76117,,,CONTRACTOR,,,,,,,,,,,"DAVID WEEKLEY HOMES",,,,,"DAVID WEEKLEY HOMES","2708 HILLSIDE DR","HIGHLAND VILLAGE",TX,75077-8653,"(972) 415-6059",http://www.davidweekleyhomes.com/,,,
TX,TARRANT,PB20-17351,"Single Family Homes",12/8/2020,,133000,3362,"2029 SUN STAR DR","FORT WORTH",TX,76052,,,CONTRACTOR,,,,,,,,,,,"DR HORTON",,,,,"DR HORTON","6751 NORTH FWY","FT WORTH",TX,76131-2802,"(817) 230-0800",,,,
TX,TARRANT,PB20-17371,"Single Family Homes",12/9/2020,,158823,2521,"8417 SWEET FLAG LN","FORT WORTH",TX,76123,,,CONTRACTOR,,,,,,,,,,,"GEHAN HOMES",,,,,"GEHAN HOMES","14901 QUORUM DR STE 300",DALLAS,TX,75254-6735,"(972) 383-4300",http://www.gehanhomes.com,,,
TX,TARRANT,PB20-17372,"Single Family Homes",12/8/2020,,174888,2776,"624 RETAMA DR","FORT WORTH",TX,76108,,,CONTRACTOR,,,,,,,,,,,"IMPRESSION HOMES",,,,,"IMPRESSION HOMES","430 N CARROLL AVE # 150",SOUTHLAKE,TX,76092-6452,"(817) 717-5103",https://www.impressionhomes.net/,,,
TX,TARRANT,PB20-17373,"Single Family Homes",12/16/2020,,344900,2748,"4905 CARMEL VALLEY DR","FORT WORTH",TX,76244,,,CONTRACTOR,,,,,,,,,,,"K HOVNANIAN HOMES",,,,,"K HOVNANIAN HOMES","5808 W PLANO PKWY",PLANO,TX,75093-4636,"(469) 737-1400",,,,
TX,TARRANT,PB20-17375,"Single Family Homes",12/8/2020,,167706,2662,"612 RETAMA DR","FORT WORTH",TX,76108,,,CONTRACTOR,,,,,,,,,,,"IMPRESSION HOMES",,,,,"IMPRESSION HOMES","430 N CARROLL AVE # 150",SOUTHLAKE,TX,76092-6452,"(817) 717-5103",https://www.impressionhomes.net/,,,
TX,TARRANT,PB20-17377,"Single Family Homes",12/8/2020,,148680,2360,"608 RETAMA DR","FORT WORTH",TX,76108,,,CONTRACTOR,,,,,,,,,,,"IMPRESSION HOMES",,,,,"IMPRESSION HOMES","430 N CARROLL AVE # 150",SOUTHLAKE,TX,76092-6452,"(817) 717-5103",https://www.impressionhomes.net/,,,
TX,TARRANT,PB20-17378,"Single Family Homes",12/29/2020,,167706,2662,"628 ANTSWOOD DR","FORT WORTH",TX,76108,,,CONTRACTOR,,,,,,,,,,,"IMPRESSION HOMES",,,,,"IMPRESSION HOMES","430 N CARROLL AVE # 150",SOUTHLAKE,TX,76092-6452,"(817) 717-5103",https://www.impressionhomes.net/,,,
TX,TARRANT,PB20-17379,"Single Family Homes",12/8/2020,,167706,2662,"632 RETAMA DR","FORT WORTH",TX,76108,,,CONTRACTOR,,,,,,,,,,,"IMPRESSION HOMES",,,,,"IMPRESSION HOMES","430 N CARROLL AVE # 150",SOUTHLAKE,TX,76092-6452,"(817) 717-5103",https://www.impressionhomes.net/,,,
TX,TARRANT,PB20-17383,"Single Family Homes",12/9/2020,,173691,2757,"616 RETAMA DR","FORT WORTH",TX,76108,,,CONTRACTOR,,,,,,,,,,,"IMPRESSION HOMES",,,,,"IMPRESSION HOMES","430 N CARROLL AVE # 150",SOUTHLAKE,TX,76092-6452,"(817) 717-5103",https://www.impressionhomes.net/,,,
TX,TARRANT,PB20-17384,"Single Family Homes",12/9/2020,,293706,4662,"14356 WALSH AVE","FORT WORTH",TX,76008,,,CONTRACTOR,,,,,,,,,,,"DREES CUSTOM HOMES",,,,,"DREES CUSTOM HOMES","6225 N STATE HIGHWAY 161 STE 150",IRVING,TX,75038-2283,"(972) 953-4500",http://www.dreeshomes.com,,,
TX,TARRANT,PB20-17385,"Single Family Homes",12/16/2020,,334900,4045,"12437 PENSON ST","FORT WORTH",TX,76052,,,CONTRACTOR,,,,,,,,,,,"K HOVNANIAN HOMES",,,,,"K HOVNANIAN HOMES","5808 W PLANO PKWY",PLANO,TX,75093-4636,"(469) 737-1400",,,,
TX,TARRANT,PB20-17386,"Single Family Homes",12/9/2020,,195489,3103,"7400 BELLINGHAM RD","FORT WORTH",TX,76179,,,CONTRACTOR,,,,,,,,,,,"RIVERSIDE HOMEBUILDERS",,,,,"RIVERSIDE HOMEBUILDERS","3045 LACKLAND RD","FORT WORTH",TX,76116-4121,"(817) 953-3308",http://www.rshomebuilders.com/,"(817) 737-1245",,info@rshomebuilders.com
TX,TARRANT,PB20-17388,"Single Family Homes",12/8/2020,,243621,3867,"1925 DIONE PL","FORT WORTH",TX,76179,,,CONTRACTOR,,,,,,,,,,,"RIVERSIDE HOMEBUILDERS",,,,,"RIVERSIDE HOMEBUILDERS","3045 LACKLAND RD","FORT WORTH",TX,76116-4121,"(817) 953-3308",http://www.rshomebuilders.com/,"(817) 737-1245",,info@rshomebuilders.com
TX,TARRANT,PB20-17391,"Single Family Homes",12/8/2020,,165627,2629,"144 PLUMED THISTLE DR","FORT WORTH",TX,76131,,,CONTRACTOR,,,,,,,,,,,"M/I HOMES",,,,,"M/I HOMES","405 STATE HIGHWAY 121 BYP STE A210",LEWISVILLE,TX,75067-8214,"(210) 546-2129",,"(210) 546-2196",,
TX,TARRANT,PB20-17392,"Single Family Homes",12/8/2020,,175518,2786,"8713 SLEEPY DAISY DR","FORT WORTH",TX,76131,,,CONTRACTOR,,,,,,,,,,,"M/I HOMES",,,,,"M/I HOMES","405 STATE HIGHWAY 121 BYP STE A210",LEWISVILLE,TX,75067-8214,"(210) 546-2129",,"(210) 546-2196",,
TX,TARRANT,PB20-17393,"Single Family Homes",12/8/2020,,166446,2642,"8844 LANDERGIN MESA DR","FORT WORTH",TX,76131,,,CONTRACTOR,,,,,,,,,,,"M/I HOMES",,,,,"M/I HOMES","405 STATE HIGHWAY 121 BYP STE A210",LEWISVILLE,TX,75067-8214,"(210) 546-2129",,"(210) 546-2196",,
TX,TARRANT,PB20-17395,"Single Family Homes",12/8/2020,,189819,3013,"500 BRONZE FOREST DR","FORT WORTH",TX,76131,,,CONTRACTOR,,,,,,,,,,,"M/I HOMES",,,,,"M/I HOMES","405 STATE HIGHWAY 121 BYP STE A210",LEWISVILLE,TX,75067-8214,"(210) 546-2129",,"(210) 546-2196",,
TX,TARRANT,PB20-17396,"Single Family Homes",12/10/2020,,66446,2642,"101 LEMLEY DR","FORT WORTH",TX,76131,,,CONTRACTOR,,,,,,,,,,,"M/I HOMES",,,,,"M/I HOMES","405 STATE HIGHWAY 121 BYP STE A210",LEWISVILLE,TX,75067-8214,"(210) 546-2129",,"(210) 546-2196",,
TX,TARRANT,PB20-17397,"Single Family Homes",12/23/2020,,346500,5500,"613 HASTEN CT",SACHSE,TX,76120,,,CONTRACTOR,,,,,,,,,,,"ALDRIEDGE RJ COMPANIES",,,,,"ALDRIEDGE RJ COMPANIES","PO BOX 202494",ARLINGTON,TX,76006-8494,"(817) 633-6559",,,,
TX,TARRANT,PB20-17405,"Single Family Homes",12/11/2020,,284319,4513,"10024 WHITE PINE DR","FORT WORTH",TX,75068,,,CONTRACTOR,,,,,,,,,,,"BLOOMFIELD HOMES",,,,,"BLOOMFIELD HOMES","1050 E STATE HIGHWAY 114 STE 210",SOUTHLAKE,TX,76092-5255,"(972) 971-2103",http://bloomfieldhomes.net/,"(972) 987-4342",,mattjennings@bloomfieldhomes.net
TX,TARRANT,PB20-17406,"Single Family Homes",12/9/2020,,189693,3011,"10328 LAKEMONT DR","FORT WORTH",TX,76131,,,CONTRACTOR,,,,,,,,,,,"M/I HOMES",,,,,"M/I HOMES","405 STATE HIGHWAY 121 BYP STE A210",LEWISVILLE,TX,75067-8214,"(210) 546-2129",,"(210) 546-2196",,
TX,TARRANT,PB20-17407,"Single Family Homes",12/8/2020,,259119,4113,"6000 STRADA CV","FORT WORTH",TX,76132,,,CONTRACTOR,,,,,,,,,,,"SHADDOCK HOMES",,,,,"SHADDOCK HOMES","2400 DALLAS PKWY",PLANO,TX,75093-4370,"(469) 241-9581",http://www.shaddockhomes.com,,,
TX,TARRANT,PB20-17412,"Single Family Homes",11/25/2020,,335551,2956,"6324 WHITEBRUSH PL","FORT WORTH",TX,76132,,,CONTRACTOR,,,,,,,,,,,"DAVID WEEKLEY HOMES",,,,,"DAVID WEEKLEY HOMES","2708 HILLSIDE DR","HIGHLAND VILLAGE",TX,75077-8653,"(972) 415-6059",http://www.davidweekleyhomes.com/,,,
TX,TARRANT,PB20-17414,"Single Family Homes",11/25/2020,,359669,2973,"6332 WHITEBRUSH PL","FORT WORTH",TX,76132,,,CONTRACTOR,,,,,,,,,,,"DAVID WEEKLEY HOMES",,,,,"DAVID WEEKLEY HOMES","2708 HILLSIDE DR","HIGHLAND VILLAGE",TX,75077-8653,"(972) 415-6059",http://www.davidweekleyhomes.com/,,,
TX,TARRANT,PB20-17415,"Single Family Homes",12/22/2020,,260810,2371,"10516 OATES BRANCH LN","FORT WORTH",TX,76126,,,CONTRACTOR,,,,,,,,,,,"BRITTON HOMES",,,,,"BRITTON HOMES","5055 WEST PARK BLVD",PLANO,TX,75093,"(713) 948-4485",,,,
TX,TARRANT,PB20-17417,"Single Family Homes",12/22/2020,,344850,3135,"10524 OATES BRANCH LN","FORT WORTH",TX,76126,,,CONTRACTOR,,,,,,,,,,,"BRITTON HOMES",,,,,"BRITTON HOMES","5055 WEST PARK BLVD",PLANO,TX,75093,"(713) 948-4485",,,,
TX,TARRANT,PB20-17438,"Single Family Homes",12/11/2020,,153531,2437,"11849 TOPPELL TRL","FORT WORTH",TX,76052,,,CONTRACTOR,,,,,,,,,,,"BEAZER HOMES ",,,,,"BEAZER HOMES ","1750 VALLEY VIEW LN STE 200",DALLAS,TX,75234-9010,"(972) 250-5517",http://www.beazer.com/,,,bret.kolbe@beazer.com
TX,TARRANT,PB20-17439,"Single Family Homes",12/10/2020,,218421,3467,"405 HALWIN DR","FORT WORTH",TX,75243,,,CONTRACTOR,,,,,,,,,,,"M/I HOMES",,,,,"M/I HOMES","405 STATE HIGHWAY 121 BYP STE A210",LEWISVILLE,TX,75067-8214,"(210) 546-2129",,"(210) 546-2196",,
TX,TARRANT,PB20-17440,"Single Family Homes",12/11/2020,,199521,3167,"444 PHEASANT HILL LN","FORT WORTH",TX,76028,,,CONTRACTOR,,,,,,,,,,,"GEHAN HOMES",,,,,"GEHAN HOMES","14901 QUORUM DR STE 300",DALLAS,TX,75254-6735,"(972) 383-4300",http://www.gehanhomes.com,,,
TX,DENTON,SFA20-07794,"Single Family Homes",12/16/2020,,,2416,"1349 MADISON AVE","FLOWER MOUND",TX,75052,,,CONTRACTOR,,,,,,,,,,,"CB JENI ",,,,,"CB JENI ","2805 DALLAS PKWY STE 40",PLANO,TX,75093-8719,"(469) 418-2384",http://www.cbjenihomes.com,,,
TX,TARRANT,PB20-17441,"Single Family Homes",12/22/2020,,134946,2142,"613 ANTSWOOD DR","FORT WORTH",TX,76108,,,CONTRACTOR,,,,,,,,,,,"STONEHOLLOW HOMES",,,,,"STONEHOLLOW HOMES","905 MARKET ST STE 250",ALLEN,TX,75013,"(817) 917-4472",,,,
TX,TARRANT,PB20-17466,"Single Family Homes",12/11/2020,,248724,3948,"628 BRODY TRL","FORT WORTH",TX,76008,,,CONTRACTOR,,,,,,,,,,,"IMPRESSION HOMES",,,,,"IMPRESSION HOMES","430 N CARROLL AVE # 150",SOUTHLAKE,TX,76092-6452,"(817) 717-5103",https://www.impressionhomes.net/,,,
TX,TARRANT,PB20-17467,"Single Family Homes",12/9/2020,,156555,2485,"6313 BATTLE MOUNTAIN TRL","FORT WORTH",TX,76179,,,CONTRACTOR,,,,,,,,,,,"CLARITY HOMES",,,,,"CLARITY HOMES","3605 EL CAMPO AVE","FORT WORTH",TX,76107-4553,"(817) 569-9224",http://clarityhomes.com,"(817) 569-9215",,
TX,DENTON,SFA20-07795,"Single Family Homes",12/16/2020,,,1991,"1353 MADISON AVE","FLOWER MOUND",TX,75052,,,CONTRACTOR,,,,,,,,,,,"CB JENI ",,,,,"CB JENI ","2805 DALLAS PKWY STE 40",PLANO,TX,75093-8719,"(469) 418-2384",http://www.cbjenihomes.com,,,
TX,DENTON,SFA20-07796,"Single Family Homes",12/16/2020,,,2111,"1357 MADISON AVE","FLOWER MOUND",TX,75052,,,CONTRACTOR,,,,,,,,,,,"CB JENI ",,,,,"CB JENI ","2805 DALLAS PKWY STE 40",PLANO,TX,75093-8719,"(469) 418-2384",http://www.cbjenihomes.com,,,
TX,TARRANT,PB20-17468,"Single Family Homes",12/11/2020,,222390,3530,"1661 STOWERS TRL","FORT WORTH",TX,76052,,,CONTRACTOR,,,,,,,,,,,"AMERICAN LEGEND HOMES",,,,,"AMERICAN LEGEND HOMES","2540 KING ARTHUR BLVD STE 200",LEWISVILLE,TX,75056-5833,"(972) 410-5701",http://www.amlegendhomes.com/,"(972) 410-5750",,
TX,TARRANT,PB20-17471,"Single Family Homes",12/11/2020,,303282,4814,"5317 CENTER HILL DR","FORT WORTH",TX,76179,,,CONTRACTOR,,,,,,,,,,,"FIRST TEXAS HOMES",,,,,"FIRST TEXAS HOMES","500 CRESCENT CT STE 350",DALLAS,TX,75201-7854,"(214) 613-3400",,"(214) 432-0350",,
TX,DENTON,SFA20-07797,"Single Family Homes",12/16/2020,,,2014,"1361 MADISON AVE","FLOWER MOUND",TX,75052,,,CONTRACTOR,,,,,,,,,,,"CB JENI ",,,,,"CB JENI ","2805 DALLAS PKWY STE 40",PLANO,TX,75093-8719,"(469) 418-2384",http://www.cbjenihomes.com,,,
TX,TARRANT,PB20-17473,"Single Family Homes",12/9/2020,,314811,4997,"5224 CENTER HILL DR","FORT WORTH",TX,76179,,,CONTRACTOR,,,,,,,,,,,"FIRST TEXAS HOMES",,,,,"FIRST TEXAS HOMES","500 CRESCENT CT STE 350",DALLAS,TX,75201-7854,"(214) 613-3400",,"(214) 432-0350",,
TX,DENTON,SFA20-07798,"Single Family Homes",12/16/2020,,,2111,"1365 MADISON AVE","FLOWER MOUND",TX,75052,,,CONTRACTOR,,,,,,,,,,,"CB JENI ",,,,,"CB JENI ","2805 DALLAS PKWY STE 40",PLANO,TX,75093-8719,"(469) 418-2384",http://www.cbjenihomes.com,,,
TX,TARRANT,PB20-17475,"Single Family Homes",12/11/2020,,318654,5058,"5117 LAKE KONAWA DR","FORT WORTH",TX,76179,,,CONTRACTOR,,,,,,,,,,,"FIRST TEXAS HOMES",,,,,"FIRST TEXAS HOMES","500 CRESCENT CT STE 350",DALLAS,TX,75201-7854,"(214) 613-3400",,"(214) 432-0350",,
TX,TARRANT,PB20-17477,"Single Family Homes",12/11/2020,,218988,3476,"5316 CENTER HILL DR","FORT WORTH",TX,76179,,,CONTRACTOR,,,,,,,,,,,"FIRST TEXAS HOMES",,,,,"FIRST TEXAS HOMES","500 CRESCENT CT STE 350",DALLAS,TX,75201-7854,"(214) 613-3400",,"(214) 432-0350",,
TX,TARRANT,PB20-17489,"Single Family Homes",11/30/2020,,40000,1268,"1424 E MYRTLE ST","FORT WORTH",TX,76104,,,CONTRACTOR,,,,,,,,,,,"PAEZ REMODELING",,,,,"PAEZ REMODELING","839 W COLONY DR",ARLINGTON,TX,76001,"(817) 350-8967",,,,paezremodeling@yahoo.com
TX,TARRANT,PB20-17511,"Single Family Homes",12/11/2020,,242361,3847,"5213 CENTER HILL DR","FORT WORTH",TX,76179,,,CONTRACTOR,,,,,,,,,,,"FIRST TEXAS HOMES",,,,,"FIRST TEXAS HOMES","500 CRESCENT CT STE 350",DALLAS,TX,75201-7854,"(214) 613-3400",,"(214) 432-0350",,
TX,DENTON,SFA20-07799,"Single Family Homes",12/16/2020,,,2443,"1369 MADISON AVE","FLOWER MOUND",TX,75052,,,CONTRACTOR,,,,,,,,,,,"CB JENI ",,,,,"CB JENI ","2805 DALLAS PKWY STE 40",PLANO,TX,75093-8719,"(469) 418-2384",http://www.cbjenihomes.com,,,
TX,TARRANT,PB20-17528,"Single Family Homes",12/11/2020,,238329,3783,"5320 CENTER HILL DR","FORT WORTH",TX,76179,,,CONTRACTOR,,,,,,,,,,,"FIRST TEXAS HOMES",,,,,"FIRST TEXAS HOMES","500 CRESCENT CT STE 350",DALLAS,TX,75201-7854,"(214) 613-3400",,"(214) 432-0350",,
TX,DENTON,SFD20-07978,"Single Family Homes",4/12/2020,,,3259,"1956 VIBURNUM DR","FLOWER MOUND",TX,75052,,,"ORCHARD FLOWER","1956 VIBURNUM DR","FLOWER MOUND",TX,75052,,Owner,,,,,"GRENADIER FM",,,,,"GRENADIER FM","9603 WHITE ROCK TRL STE 204",DALLAS,TX,75238-5034,"(713) 234-6639",,,,
TX,TARRANT,PB20-17530,"Single Family Homes",12/11/2020,,311913,4951,"5324 CENTER HILL DR","FORT WORTH",TX,76179,,,CONTRACTOR,,,,,,,,,,,"FIRST TEXAS HOMES",,,,,"FIRST TEXAS HOMES","500 CRESCENT CT STE 350",DALLAS,TX,75201-7854,"(214) 613-3400",,"(214) 432-0350",,
TX,DENTON,SFD20-00783,"Single Family Homes",11/12/2020,,,5984,"4505 KIMBALL XING","FLOWER MOUND",TX,75052,,,CONTRACTOR,,,,,,,,,,,"VM CONTRACTING",,,,,"VM CONTRACTING","920 SHOW MASTER CT",BARTONVILLE,TX,76226-6385,"(832) 638-2222",,,,
TX,TARRANT,PB20-17533,"Single Family Homes",12/11/2020,,236754,3758,"5308 CENTER HILL DR","FORT WORTH",TX,76179,,,CONTRACTOR,,,,,,,,,,,"FIRST TEXAS HOMES",,,,,"FIRST TEXAS HOMES","500 CRESCENT CT STE 350",DALLAS,TX,75201-7854,"(214) 613-3400",,"(214) 432-0350",,
TX,DENTON,SFD20-07241,"Single Family Homes",7/12/2020,,,3007,"233 EAGLEWOOD DR","FLOWER MOUND",TX,75052,,,CONTRACTOR,,,,,,,,,,,"NORMANDY HOMES",,,,,"NORMANDY HOMES","2805 DALLAS PKWY STE 400",PLANO,TX,75093-8722,"(972) 905-5001",http://normandyhomes.com/,,,
TX,DENTON,SFD20-07538,"Single Family Homes",9/12/2020,,,4432,"141 HOPE TINLEY DR","FLOWER MOUND",TX,75052,,,CONTRACTOR,,,,,,,,,,,"DARLING HOMES",,,,,"DARLING HOMES","2500 LEGACY DR STE 100",FRISCO,TX,75034-5984,"(469) 252-2200",http://www.darlinghomes.com/,,,
TX,DENTON,SFD20-07642,"Single Family Homes",11/12/2020,,,6257,"3309 MARK TWAIN BLVD","FLOWER MOUND",TX,75052,,,CONTRACTOR,,,,,,,,,,,"TOLL BROTHERS",,,,,"TOLL BROTHERS","9178 VITA DOLCE DR",FRISCO,TX,75035-2300,"(469) 525-0524",,,,
TX,DENTON,SFD20-07670,"Single Family Homes",7/12/2020,,,3039,"229 EAGLEWOOD DR","FLOWER MOUND",TX,75052,,,CONTRACTOR,,,,,,,,,,,"NORMANDY HOMES",,,,,"NORMANDY HOMES","2805 DALLAS PKWY STE 400",PLANO,TX,75093-8722,"(972) 905-5001",http://normandyhomes.com/,,,
TX,DENTON,SFD20-07792,"Single Family Homes",9/12/2020,,,3039,"825 FOREST LAKE RD","FLOWER MOUND",TX,75052,,,CONTRACTOR,,,,,,,,,,,"NORMANDY HOMES",,,,,"NORMANDY HOMES","2805 DALLAS PKWY STE 400",PLANO,TX,75093-8722,"(972) 905-5001",http://normandyhomes.com/,,,
TX,DENTON,SFD20-07854,"Single Family Homes",8/12/2020,,,3140,"4408 RIVERSIDE DR","FLOWER MOUND",TX,75052,,,CONTRACTOR,,,,,,,,,,,"MEGATEL HOMES",,,,,"MEGATEL HOMES","5512 W PLANO PKWY STE 300",PLANO,TX,75093-4840,"(972) 339-0159",,,,
TX,DENTON,SFD20-07976,"Single Family Homes",8/12/2020,,,3258,"1952 VIBURNUM DR","FLOWER MOUND",TX,75052,,,"ORCHARD FLOWER","1952 VIBURNUM DR","FLOWER MOUND",TX,75052,,Owner,,,,,"GRENADIER FM",,,,,"GRENADIER FM","9603 WHITE ROCK TRL STE 204",DALLAS,TX,75238-5034,"(713) 234-6639",,,,
TX,DENTON,SFD20-08009,"Single Family Homes",7/12/2020,,,3140,"4440 RIVERSIDE DR","FLOWER MOUND",TX,75052,,,CONTRACTOR,,,,,,,,,,,"MEGATEL HOMES",,,,,"MEGATEL HOMES","5512 W PLANO PKWY STE 300",PLANO,TX,75093-4840,"(972) 339-0159",,,,
TX,DENTON,SFD20-08153,"Single Family Homes",10/12/2020,,,5095,"1200 MOURNING DOVE DR","FLOWER MOUND",TX,75052,,,CONTRACTOR,,,,,,,,,,,"DAVID WEEKLEY HOMES",,,,,"DAVID WEEKLEY HOMES","2708 HILLSIDE DR","HIGHLAND VILLAGE",TX,75077-8653,"(972) 415-6059",http://www.davidweekleyhomes.com/,,,
TX,DENTON,SFD20-08247,"Single Family Homes",9/12/2020,,,3939,"136 HOPE TINLEY DR","FLOWER MOUND",TX,75065,,,CONTRACTOR,,,,,,,,,,,"DARLING HOMES",,,,,"DARLING HOMES","2500 LEGACY DR STE 100",FRISCO,TX,75034-5984,"(469) 252-2200",http://www.darlinghomes.com/,,,
TX,DENTON,SFD20-08367,"Single Family Homes",11/12/2020,,,6270,"3901 DASHIELL DR","FLOWER MOUND",TX,75052,,,CONTRACTOR,,,,,,,,,,,"TOLL BROTHERS",,,,,"TOLL BROTHERS","9178 VITA DOLCE DR",FRISCO,TX,75035-2300,"(469) 525-0524",,,,
TX,DENTON,SFD20-08378,"Single Family Homes",11/12/2020,,,4539,"1201 RED TAILED DR","FLOWER MOUND",TX,75052,,,CONTRACTOR,,,,,,,,,,,"DAVID WEEKLEY HOMES",,,,,"DAVID WEEKLEY HOMES","2708 HILLSIDE DR","HIGHLAND VILLAGE",TX,75077-8653,"(972) 415-6059",http://www.davidweekleyhomes.com/,,,
TX,DENTON,SFD19-01370,"Single Family Homes",12/22/2020,,,12222,"4705 SUMMERHILL CT","FLOWER MOUND",TX,75052,,,"RYAN ANDERSON","4705 SUMMERHILL CT","FLOWER MOUND",TX,75052,,Owner,,,,,"LEWIS & EARLEY CUSTOM HOMES",,,,,"LEWIS & EARLEY CUSTOM HOMES","201 LAURENCE DR # 216",HEATH,TX,75032-9900,"(214) 668-8321",http://www.lewisearley.com,,"SCOTT LEWIS",scottlewishomes@gmail.com
TX,DENTON,SFD20-03552,"Single Family Homes",12/22/2020,,,11733,"4701 SUMMERHILL CT","FLOWER MOUND",TX,75052,,,"KACEY MAHONEY","4701 SUMMERHILL CT","FLOWER MOUND",TX,75052,,Owner,,,,,"LEWIS & EARLEY CUSTOM HOMES",,,,,"LEWIS & EARLEY CUSTOM HOMES","201 LAURENCE DR # 216",HEATH,TX,75032-9900,"(214) 668-8321",http://www.lewisearley.com,,"SCOTT LEWIS",scottlewishomes@gmail.com
TX,DENTON,SFD20-07234,"Single Family Homes",12/22/2020,,,5598,"11713 LITTLE ELM CREEK RD","FLOWER MOUND",TX,75052,,,CONTRACTOR,,,,,,,,,,,"DREES CUSTOM HOMES",,,,,"DREES CUSTOM HOMES","6225 N STATE HIGHWAY 161 STE 150",IRVING,TX,75038-2283,"(972) 953-4500",http://www.dreeshomes.com,,,
TX,DENTON,SFD20-07297,"Single Family Homes",12/15/2020,,,5682,"555 RICHWOODS DR","FLOWER MOUND",TX,75052,,,CONTRACTOR,,,,,,,,,,,"TOLL BROTHERS",,,,,"TOLL BROTHERS","9178 VITA DOLCE DR",FRISCO,TX,75035-2300,"(469) 525-0524",,,,
TX,DENTON,SFD20-07329,"Single Family Homes",12/21/2020,,,4178,"6941 BASKET FLOWER RD","FLOWER MOUND",TX,75052,,,CONTRACTOR,,,,,,,,,,,"HIGHLAND HOMES",,,,,"HIGHLAND HOMES","5601 DEMOCRACY DR STE 300",PLANO,TX,75024-3674,"(972) 789-3500",,,,
TX,DENTON,SFD20-07505,"Single Family Homes",12/23/2020,,,3868,"6961 BROOMSEDGE DR","FLOWER MOUND",TX,75052,,,CONTRACTOR,,,,,,,,,,,"HIGHLAND HOMES",,,,,"HIGHLAND HOMES","5601 DEMOCRACY DR STE 300",PLANO,TX,75024-3674,"(972) 789-3500",,,,
TX,DENTON,SFD20-07506,"Single Family Homes",12/21/2020,,,3809,"11304 DEEP WOODS LN","FLOWER MOUND",TX,75052,,,CONTRACTOR,,,,,,,,,,,"HIGHLAND HOMES",,,,,"HIGHLAND HOMES","5601 DEMOCRACY DR STE 300",PLANO,TX,75024-3674,"(972) 789-3500",,,,
TX,DENTON,SFD20-07539,"Single Family Homes",12/14/2020,,,4196,"1804 ERIC METZGER WAY","FLOWER MOUND",TX,75052,,,CONTRACTOR,,,,,,,,,,,"DARLING HOMES",,,,,"DARLING HOMES","2500 LEGACY DR STE 100",FRISCO,TX,75034-5984,"(469) 252-2200",http://www.darlinghomes.com/,,,
TX,DENTON,SFD20-07540,"Single Family Homes",12/17/2020,,,4488,"137 HOPE TINLEY DR","FLOWER MOUND",TX,75052,,,CONTRACTOR,,,,,,,,,,,"DARLING HOMES",,,,,"DARLING HOMES","2500 LEGACY DR STE 100",FRISCO,TX,75034-5984,"(469) 252-2200",http://www.darlinghomes.com/,,,
TX,DENTON,SFD20-07553,"Single Family Homes",12/17/2020,,,4075,"5200 SUMMER SHADE LN","FLOWER MOUND",TX,75052,,,CONTRACTOR,,,,,,,,,,,"LENNAR HOMES",,,,,"LENNAR HOMES","1707 MARKET PL STE 250",IRVING,TX,75063-8050,"(469) 587-5200",http://www.lennar.com/,,,
TX,DENTON,SFD20-07557,"Single Family Homes",12/17/2020,,,2744,"5204 SUMMER SHADE LN","FLOWER MOUND",TX,75052,,,CONTRACTOR,,,,,,,,,,,"LENNAR HOMES",,,,,"LENNAR HOMES","1707 MARKET PL STE 250",IRVING,TX,75063-8050,"(469) 587-5200",http://www.lennar.com/,,,
TX,DENTON,SFD20-07777,"Single Family Homes",12/23/2020,,,3813,"11305 DEEP WOODS LN","FLOWER MOUND",TX,75052,,,CONTRACTOR,,,,,,,,,,,"HIGHLAND HOMES",,,,,"HIGHLAND HOMES","5601 DEMOCRACY DR STE 300",PLANO,TX,75024-3674,"(972) 789-3500",,,,
TX,DENTON,SFD20-07947,"Single Family Homes",12/17/2020,,,3074,"145 HOPE TINLEY DR","FLOWER MOUND",TX,75052,,,CONTRACTOR,,,,,,,,,,,"DARLING HOMES",,,,,"DARLING HOMES","2500 LEGACY DR STE 100",FRISCO,TX,75034-5984,"(469) 252-2200",http://www.darlinghomes.com/,,,
TX,DENTON,SFD20-08070,"Single Family Homes",12/21/2020,,,5392,"7108 BASKET FLOWER RD","FLOWER MOUND",TX,75052,,,CONTRACTOR,,,,,,,,,,,"HIGHLAND HOMES",,,,,"HIGHLAND HOMES","5601 DEMOCRACY DR STE 300",PLANO,TX,75024-3674,"(972) 789-3500",,,,
TX,DENTON,SFD20-08099,"Single Family Homes",12/28/2020,,,6190,"3705 MELVILLE CIR","FLOWER MOUND",TX,75052,,,CONTRACTOR,,,,,,,,,,,"TOLL BROTHERS",,,,,"TOLL BROTHERS","9178 VITA DOLCE DR",FRISCO,TX,75035-2300,"(469) 525-0524",,,,
TX,DENTON,SFD20-08267,"Single Family Homes",12/23/2020,,,3010,"829 FOREST LAKE RD","FLOWER MOUND",TX,75052,,,CONTRACTOR,,,,,,,,,,,"NORMANDY HOMES",,,,,"NORMANDY HOMES","2805 DALLAS PKWY STE 400",PLANO,TX,75093-8722,"(972) 905-5001",http://normandyhomes.com/,,,
TX,DENTON,SFD20-08322,"Single Family Homes",12/22/2020,,,3514,"1967 HELICONIA DR","FLOWER MOUND",TX,75052,,,"ORCHARD FLOWER","1967 HELICONIA DR","FLOWER MOUND",TX,75052,,Owner,,,,,"GRENADIER FM",,,,,"GRENADIER FM","9603 WHITE ROCK TRL STE 204",DALLAS,TX,75238-5034,"(713) 234-6639",,,,
TX,DENTON,SFD20-08365,"Single Family Homes",12/17/2020,,,8719,"5101 STEINBECK CIR","FLOWER MOUND",TX,75052,,,CONTRACTOR,,,,,,,,,,,"TOLL BROTHERS",,,,,"TOLL BROTHERS","9178 VITA DOLCE DR",FRISCO,TX,75035-2300,"(469) 525-0524",,,,
TX,DENTON,SFD20-08546,"Single Family Homes",12/23/2020,,,4450,"1250 MOURNING DOVE DR","FLOWER MOUND",TX,75052,,,CONTRACTOR,,,,,,,,,,,"DAVID WEEKLEY HOMES",,,,,"DAVID WEEKLEY HOMES","2708 HILLSIDE DR","HIGHLAND VILLAGE",TX,75077-8653,"(972) 415-6059",http://www.davidweekleyhomes.com/,,,
TX,DENTON,SFD20-08548,"Single Family Homes",12/28/2020,,,3939,"1212 MOURNING DOVE DR","FLOWER MOUND",TX,75052,,,CONTRACTOR,,,,,,,,,,,"DAVID WEEKLEY HOMES",,,,,"DAVID WEEKLEY HOMES","2708 HILLSIDE DR","HIGHLAND VILLAGE",TX,75077-8653,"(972) 415-6059",http://www.davidweekleyhomes.com/,,,
TX,DENTON,SFD20-08052,"Single Family Homes",12/29/2020,,,5534,"5512 SANTA LUCIA CT","FLOWER MOUND",TX,75052,,,"CTMGT MONTALCINO LLC","5512 SANTA LUCIA CT","FLOWER MOUND",TX,75052,,Owner,,,,,"RANG ONE HOLDINGS",,,,,"RANG ONE HOLDINGS","802 PENNSYLVANIA AVE","FORT WORTH",TX,76104-2223,"(817) 420-9629",,,,
TX,TARRANT,"2020 126355 000 00 RP","Single Family Homes",12/22/2020,,337990,3193,"711 MCADOO DR",ARLINGTON,TX,76002,,,CONTRACTOR,,,,,,,,,,,"HISTORY MAKER HOMES",,,,,"HISTORY MAKER HOMES","9001 AIRPORT FWY SUITE 400","NORTH RICHLAND HILLS",TX,76180-7769,"(817) 429-8008",http://www.historymaker.com/,"(817) 507-1102","JILL BARFIELD",
TX,TARRANT,"2020 126175 000 00 RP","Single Family Homes",12/22/2020,,377475,6581,"1312 ISLE COVE DRIVE",ARLINGTON,TX,76005,VIRIDIAN,24,CONTRACTOR,,,,,,,,,,,"DREES CUSTOM HOMES",,,,,"DREES CUSTOM HOMES","6225 N STATE HIGHWAY 161 STE 150",IRVING,TX,75038-2283,"(972) 953-4500",http://www.dreeshomes.com,,,
TX,TARRANT,"2020 126162 000 00 RP","Single Family Homes",12/28/2020,,344158,3558,"7200 ROARING SPRINGS ROAD",ARLINGTON,TX,76002,,,CONTRACTOR,,,,,,,,,,,"SANDLIN HOMES",,,,,"SANDLIN HOMES","5137 DAVIS BLVD","FORT WORTH",TX,76180-6873,"(817) 281-3509",,,,
TX,TARRANT,"2020 126125 000 00 RP","Single Family Homes",12/22/2020,,341791,3332,"7328 ROARING SPRINGS ROAD",ARLINGTON,TX,76002,"MAYFIELD FARMS",20,CONTRACTOR,,,,,,,,,,,"SANDLIN HOMES",,,,,"SANDLIN HOMES","5137 DAVIS BLVD","FORT WORTH",TX,76180-6873,"(817) 281-3509",,,,
TX,TARRANT,"2020 124343 000 00 RP","Single Family Homes",12/15/2020,,300179,2737,"717 MCADOO DRIVE",ARLINGTON,TX,76002,"MAYFIELD FARMS",37,CONTRACTOR,,,,,,,,,,,"SANDLIN HOMES",,,,,"SANDLIN HOMES","5137 DAVIS BLVD","FORT WORTH",TX,76180-6873,"(817) 281-3509",,,,
TX,TARRANT,"2020 122328 000 00 RP","Single Family Homes",12/16/2020,,243990,2373,"5411 WINGED FOOT DR",ARLINGTON,TX,76017,"THE PRESERVE ON KELLY ELLIOTT",21,CONTRACTOR,,,,,,,,,,,"J HOUSTON HOMES",,,,,"J HOUSTON HOMES","202 N INTERSTATE 35 RD STE C","RED OAK",TX,75154-4296,"(972) 937-4085",,"(972) 937-4697",,info@johnhoustoncustomhomes.com
TX,TARRANT,"2020 122325 000 00 RP","Single Family Homes",12/16/2020,,255990,2850,"5409 WINGED FOOT DR",ARLINGTON,TX,76017,"THE PRESERVE ON KELLY ELLIOTT",20,CONTRACTOR,,,,,,,,,,,"J HOUSTON HOMES",,,,,"J HOUSTON HOMES","202 N INTERSTATE 35 RD STE C","RED OAK",TX,75154-4296,"(972) 937-4085",,"(972) 937-4697",,info@johnhoustoncustomhomes.com
TX,TARRANT,"2020 122319 000 00 RP","Single Family Homes",12/16/2020,,264990,2554,"5407 WINGED FOOT DR",ARLINGTON,TX,76017,"THE PRESERVE ON KELLY ELLIOTT",19,CONTRACTOR,,,,,,,,,,,"J HOUSTON HOMES",,,,,"J HOUSTON HOMES","202 N INTERSTATE 35 RD STE C","RED OAK",TX,75154-4296,"(972) 937-4085",,"(972) 937-4697",,info@johnhoustoncustomhomes.com
TX,TARRANT,"2020 122315 000 00 RP","Single Family Homes",12/16/2020,,243990,2373,"5315 WINGED FOOT DR",ARLINGTON,TX,76017,"THE PRESERVE ON KELLY ELLIOTT",11,CONTRACTOR,,,,,,,,,,,"J HOUSTON HOMES",,,,,"J HOUSTON HOMES","202 N INTERSTATE 35 RD STE C","RED OAK",TX,75154-4296,"(972) 937-4085",,"(972) 937-4697",,info@johnhoustoncustomhomes.com
TX,TARRANT,"2020 122309 000 00 RP","Single Family Homes",12/16/2020,,257990,3235,"5313 WINGED FOOT DR",ARLINGTON,TX,76017,"THE PRESERVE ON KELLY ELLIOTT",10,CONTRACTOR,,,,,,,,,,,"J HOUSTON HOMES",,,,,"J HOUSTON HOMES","202 N INTERSTATE 35 RD STE C","RED OAK",TX,75154-4296,"(972) 937-4085",,"(972) 937-4697",,info@johnhoustoncustomhomes.com
TX,TARRANT,"2020 122303 000 00 RP","Single Family Homes",12/16/2020,,255990,2850,"5311 WINGED FOOT DR",ARLINGTON,TX,76017,"THE PRESERVE ON KELLY ELLIOTT",9,CONTRACTOR,,,,,,,,,,,"J HOUSTON HOMES",,,,,"J HOUSTON HOMES","202 N INTERSTATE 35 RD STE C","RED OAK",TX,75154-4296,"(972) 937-4085",,"(972) 937-4697",,info@johnhoustoncustomhomes.com
TX,TARRANT,"2020 122287 000 00 RP","Single Family Homes",12/16/2020,,264990,2554,"5309 WINGED FOOT DR",ARLINGTON,TX,76017,"THE PRESERVE ON KELLY ELLIOTT",8,CONTRACTOR,,,,,,,,,,,"J HOUSTON HOMES",,,,,"J HOUSTON HOMES","202 N INTERSTATE 35 RD STE C","RED OAK",TX,75154-4296,"(972) 937-4085",,"(972) 937-4697",,info@johnhoustoncustomhomes.com
TX,TARRANT,"2020 121992 000 00 RP","Single Family Homes",12/17/2020,,213975,3750,"4605 BLACKWOOD CROSS LN",ARLINGTON,TX,76005,VIRIDIAN,20,CONTRACTOR,,,,,,,,,,,"DREES CUSTOM HOMES",,,,,"DREES CUSTOM HOMES","6225 N STATE HIGHWAY 161 STE 150",IRVING,TX,75038-2283,"(972) 953-4500",http://www.dreeshomes.com,,,
TX,TARRANT,"2020 121774 000 00 RP","Single Family Homes",12/8/2020,,329100,5607,"1324 ISLE COVE DR",ARLINGTON,TX,76005,VIRIDIAN,18,CONTRACTOR,,,,,,,,,,,"DREES CUSTOM HOMES",,,,,"DREES CUSTOM HOMES","6225 N STATE HIGHWAY 161 STE 150",IRVING,TX,75038-2283,"(972) 953-4500",http://www.dreeshomes.com,,,
TX,TARRANT,"2020 121693 000 00 RP","Single Family Homes",12/21/2020,,492990,4245,"4621 COPPER MOUNTAIN TRAIL",ARLINGTON,TX,76005,VIRIDIAN,15,CONTRACTOR,,,,,,,,,,,"DAVID WEEKLEY HOMES",,,,,"DAVID WEEKLEY HOMES","2708 HILLSIDE DR","HIGHLAND VILLAGE",TX,75077-8653,"(972) 415-6059",http://www.davidweekleyhomes.com/,,,
TX,TARRANT,"2020 121600 000 00 RP","Single Family Homes",12/8/2020,,360423,3963,"7226 CROWELL AVE",ARLINGTON,TX,76002,"MAYFIELD FARMS",32,CONTRACTOR,,,,,,,,,,,"SANDLIN HOMES",,,,,"SANDLIN HOMES","5137 DAVIS BLVD","FORT WORTH",TX,76180-6873,"(817) 281-3509",,,,
TX,TARRANT,"2020 120565 000 00 RP","Single Family Homes",12/8/2020,,309825,5313,"1304 ISLE COVE DR",ARLINGTON,TX,76005,VIRIDIAN,28,CONTRACTOR,,,,,,,,,,,"DREES CUSTOM HOMES",,,,,"DREES CUSTOM HOMES","6225 N STATE HIGHWAY 161 STE 150",IRVING,TX,75038-2283,"(972) 953-4500",http://www.dreeshomes.com,,,
TX,TARRANT,"2020 120346 000 00 RP","Single Family Homes",12/23/2020,,277780,4368,"4207 RUANO COURT",ARLINGTON,TX,76001,"BENBAR ESTATES",,CONTRACTOR,,,,,,,,,,,"BENSON DEVELOPMENT COMPANY",,,,,"BENSON DEVELOPMENT COMPANY","3712 KELLY PERKINS RD",ARLINGTON,TX,76016-3115,"(417) 291-8223",,,"DENNIS BENSON",
TX,TARRANT,"2020 120197 000 00 RP","Single Family Homes",12/3/2020,,348552,3558,"807 STAMFORD AVE",ARLINGTON,TX,76002,"MAYFIELD FARMS",4,CONTRACTOR,,,,,,,,,,,"SANDLIN HOMES",,,,,"SANDLIN HOMES","5137 DAVIS BLVD","FORT WORTH",TX,76180-6873,"(817) 281-3509",,,,
TX,TARRANT,"2020 119349 000 00 RP","Single Family Homes",12/8/2020,,382079,4062,"7307 SNYDER LANE",ARLINGTON,TX,76002,"MAYFIELD FARMS",1,CONTRACTOR,,,,,,,,,,,"SANDLIN HOMES",,,,,"SANDLIN HOMES","5137 DAVIS BLVD","FORT WORTH",TX,76180-6873,"(817) 281-3509",,,,
TX,TARRANT,"2020 119319 000 00 RP","Single Family Homes",12/1/2020,,299735,2663,"7302 ROARING SPRINGS ROAD",ARLINGTON,TX,76002,"MAYFIELD FARMS",7,CONTRACTOR,,,,,,,,,,,"SANDLIN HOMES",,,,,"SANDLIN HOMES","5137 DAVIS BLVD","FORT WORTH",TX,76180-6873,"(817) 281-3509",,,,
TX,TARRANT,"2020 119305 000 00 RP","Single Family Homes",12/4/2020,,389964,3974,"1455 EVERT COURT",ARLINGTON,TX,76002,"LYNN CREEK EST",14,CONTRACTOR,,,,,,,,,,,"SANDLIN HOMES",,,,,"SANDLIN HOMES","5137 DAVIS BLVD","FORT WORTH",TX,76180-6873,"(817) 281-3509",,,,
TX,TARRANT,"2020 119258 000 00 RP","Single Family Homes",12/9/2020,,403194,4918,"1410 LAUREL GREEN CT",ARLINGTON,TX,76005,VIRIDIAN,12,CONTRACTOR,,,,,,,,,,,"MHI MCGUYER HOMEBUILDERS",,,,,"MHI MCGUYER HOMEBUILDERS","1501 LYNDON B JOHNSON FWY STE 100",DALLAS,TX,75234-6029,"(972) 277-3811",,,,
TX,TARRANT,"2020 119034 000 00 RP","Single Family Homes",12/10/2020,,348975,5796,"1707 SYCAMORE PEAK TRAIL",ARLINGTON,TX,76005,VIRIDIAN,4,CONTRACTOR,,,,,,,,,,,"DREES CUSTOM HOMES",,,,,"DREES CUSTOM HOMES","6225 N STATE HIGHWAY 161 STE 150",IRVING,TX,75038-2283,"(972) 953-4500",http://www.dreeshomes.com,,,
TX,TARRANT,PB20-17535,"Single Family Homes",12/17/2020,,267372,4244,"12132 PRUDENCE DR","FORT WORTH",TX,76052,,,CONTRACTOR,,,,,,,,,,,"AMERICAN LEGEND HOMES",,,,,"AMERICAN LEGEND HOMES","2540 KING ARTHUR BLVD STE 200",LEWISVILLE,TX,75056-5833,"(972) 410-5701",http://www.amlegendhomes.com/,"(972) 410-5750",,
TX,TARRANT,PB20-17551,"Single Family Homes",12/15/2020,,164934,2618,"816 PEACEFUL BROOK DR","FORT WORTH",TX,76137,,,CONTRACTOR,,,,,,,,,,,"SANDLIN HOMES",,,,,"SANDLIN HOMES","5137 DAVIS BLVD","FORT WORTH",TX,76180-6873,"(817) 281-3509",,,,
TX,TARRANT,PB20-17552,"Single Family Homes",12/11/2020,,170793,2711,"1329 QUEENS BROOK LN","FORT WORTH",TX,76140,,,CONTRACTOR,,,,,,,,,,,"ANTARES HOMES",,,,,"ANTARES HOMES","840 E INTERSTATE 20",ARLINGTON,TX,76018-1131,"(817) 701-3000",http://www.antareshomes.com,,,
TX,TARRANT,PB20-17553,"Single Family Homes",12/15/2020,,134190,2130,"6233 THUNDERWING DR","FORT WORTH",TX,76179,,,CONTRACTOR,,,,,,,,,,,"LILLIAN CUSTOM HOMES",,,,,"LILLIAN CUSTOM HOMES","509 FERRIS AVE",WAXAHACHIE,TX,75165-3343,"(972) 937-8990",http://lilliancustomhomes.com/,,,
TX,TARRANT,PB20-17562,"Single Family Homes",12/1/2020,,110000,1981,"2217 CHESNEE RD","FORT WORTH",TX,76108,,,CONTRACTOR,,,,,,,,,,,"DR HORTON",,,,,"DR HORTON","6751 NORTH FWY","FT WORTH",TX,76131-2802,"(817) 230-0800",,,,
TX,TARRANT,PB20-17563,"Single Family Homes",12/15/2020,,186039,2953,"14216 BOREALIS DR","FORT WORTH",TX,76179,,,CONTRACTOR,,,,,,,,,,,"RIVERSIDE HOMEBUILDERS",,,,,"RIVERSIDE HOMEBUILDERS","3045 LACKLAND RD","FORT WORTH",TX,76116-4121,"(817) 953-3308",http://www.rshomebuilders.com/,"(817) 737-1245",,info@rshomebuilders.com
TX,TARRANT,PB20-17565,"Single Family Homes",12/1/2020,,120000,2344,"2213 CHESNEE RD","FORT WORTH",TX,76108,,,CONTRACTOR,,,,,,,,,,,"DR HORTON",,,,,"DR HORTON","6751 NORTH FWY","FT WORTH",TX,76131-2802,"(817) 230-0800",,,,
TX,TARRANT,PB20-17567,"Single Family Homes",12/15/2020,,183015,2905,"1717 STAR FLEET DR","FORT WORTH",TX,76179,,,CONTRACTOR,,,,,,,,,,,"RIVERSIDE HOMEBUILDERS",,,,,"RIVERSIDE HOMEBUILDERS","3045 LACKLAND RD","FORT WORTH",TX,76116-4121,"(817) 953-3308",http://www.rshomebuilders.com/,"(817) 737-1245",,info@rshomebuilders.com
TX,TARRANT,PB20-17571,"Single Family Homes",12/1/2020,,121000,2384,"2205 CHESNEE RD","FORT WORTH",TX,76108,,,CONTRACTOR,,,,,,,,,,,"DR HORTON",,,,,"DR HORTON","6751 NORTH FWY","FT WORTH",TX,76131-2802,"(817) 230-0800",,,,
TX,TARRANT,PB20-17573,"Single Family Homes",12/1/2020,,120000,2344,"2321 CHESNEE RD","FORT WORTH",TX,76108,,,CONTRACTOR,,,,,,,,,,,"DR HORTON",,,,,"DR HORTON","6751 NORTH FWY","FT WORTH",TX,76131-2802,"(817) 230-0800",,,,
TX,TARRANT,PB20-17575,"Single Family Homes",12/1/2020,,121000,2370,"2317 CHESNEE RD","FORT WORTH",TX,76108,,,CONTRACTOR,,,,,,,,,,,"DR HORTON",,,,,"DR HORTON","6751 NORTH FWY","FT WORTH",TX,76131-2802,"(817) 230-0800",,,,
TX,TARRANT,PB20-17576,"Single Family Homes",12/10/2020,,168903,2681,"14220 BOREALIS DR","FORT WORTH",TX,76179,,,CONTRACTOR,,,,,,,,,,,"RIVERSIDE HOMEBUILDERS",,,,,"RIVERSIDE HOMEBUILDERS","3045 LACKLAND RD","FORT WORTH",TX,76116-4121,"(817) 953-3308",http://www.rshomebuilders.com/,"(817) 737-1245",,info@rshomebuilders.com
TX,TARRANT,PB20-17577,"Single Family Homes",12/1/2020,,120000,2344,"2305 CHESNEE RD","FORT WORTH",TX,76108,,,CONTRACTOR,,,,,,,,,,,"DR HORTON",,,,,"DR HORTON","6751 NORTH FWY","FT WORTH",TX,76131-2802,"(817) 230-0800",,,,
TX,TARRANT,PB20-17578,"Single Family Homes",12/11/2020,,169407,2689,"1725 STAR FLEET DR",SACHSE,TX,76179,,,CONTRACTOR,,,,,,,,,,,"RIVERSIDE HOMEBUILDERS",,,,,"RIVERSIDE HOMEBUILDERS","3045 LACKLAND RD","FORT WORTH",TX,76116-4121,"(817) 953-3308",http://www.rshomebuilders.com/,"(817) 737-1245",,info@rshomebuilders.com
TX,TARRANT,PB20-17579,"Single Family Homes",12/1/2020,,140000,2699,"2105 CHESNEE RD","FORT WORTH",TX,76108,,,CONTRACTOR,,,,,,,,,,,"DR HORTON",,,,,"DR HORTON","6751 NORTH FWY","FT WORTH",TX,76131-2802,"(817) 230-0800",,,,
TX,TARRANT,PB20-17580,"Single Family Homes",12/10/2020,,194355,3085,"2040 BELLATRIX DR","FORT WORTH",TX,76052,,,CONTRACTOR,,,,,,,,,,,"RIVERSIDE HOMEBUILDERS",,,,,"RIVERSIDE HOMEBUILDERS","3045 LACKLAND RD","FORT WORTH",TX,76116-4121,"(817) 953-3308",http://www.rshomebuilders.com/,"(817) 737-1245",,info@rshomebuilders.com
TX,TARRANT,PB20-17581,"Single Family Homes",12/1/2020,,123700,1566,"1336 DRIESS ST","FORT WORTH",TX,76104,,,CONTRACTOR,,,,,,,,,,,"HABITAT FOR HUMANITY-DALLAS",,,,,"HABITAT FOR HUMANITY-DALLAS","2800 N HAMPTON RD",DALLAS,TX,75212-5029,"(214) 678-2300",http://www.dallasareahabitat.org/web/guest/home,"(214) 678-2380",,
TX,TARRANT,PB20-17582,"Single Family Homes",12/1/2020,,121000,2384,"2101 CHESNEE RD","FORT WORTH",TX,76108,,,CONTRACTOR,,,,,,,,,,,"DR HORTON",,,,,"DR HORTON","6751 NORTH FWY","FT WORTH",TX,76131-2802,"(817) 230-0800",,,,
TX,TARRANT,PB20-17583,"Single Family Homes",12/11/2020,,230076,3652,"14212 BOREALIS DR","FORT WORTH",TX,76179,,,CONTRACTOR,,,,,,,,,,,"RIVERSIDE HOMEBUILDERS",,,,,"RIVERSIDE HOMEBUILDERS","3045 LACKLAND RD","FORT WORTH",TX,76116-4121,"(817) 953-3308",http://www.rshomebuilders.com/,"(817) 737-1245",,info@rshomebuilders.com
TX,TARRANT,PB20-17585,"Single Family Homes",12/14/2020,,174006,2762,"7608 RHYNER WAY","FORT WORTH",TX,76137,,,CONTRACTOR,,,,,,,,,,,"GEHAN HOMES",,,,,"GEHAN HOMES","14901 QUORUM DR STE 300",DALLAS,TX,75254-6735,"(972) 383-4300",http://www.gehanhomes.com,,,
TX,TARRANT,PB20-17586,"Single Family Homes",12/1/2020,,121000,2350,"2100 CHESNEE RD","FORT WORTH",TX,76108,,,CONTRACTOR,,,,,,,,,,,"DR HORTON",,,,,"DR HORTON","6751 NORTH FWY","FT WORTH",TX,76131-2802,"(817) 230-0800",,,,
TX,TARRANT,PB20-17612,"Single Family Homes",12/2/2020,,112000,2384,"9741 WALNUT COVE DR","FORT WORTH",TX,76108,,,CONTRACTOR,,,,,,,,,,,"DR HORTON",,,,,"DR HORTON","6751 NORTH FWY","FT WORTH",TX,76131-2802,"(817) 230-0800",,,,
TX,TARRANT,PB20-17613,"Single Family Homes",12/2/2020,,112000,1981,"9740 WALNUT COVE DR","FORT WORTH",TX,76108,,,CONTRACTOR,,,,,,,,,,,"DR HORTON",,,,,"DR HORTON","6751 NORTH FWY","FT WORTH",TX,76131-2802,"(817) 230-0800",,,,
TX,TARRANT,PB20-17620,"Single Family Homes",12/2/2020,,127000,3027,"9737 WALNUT COVE DR","FORT WORTH",TX,76108,,,CONTRACTOR,,,,,,,,,,,"DR HORTON",,,,,"DR HORTON","6751 NORTH FWY","FT WORTH",TX,76131-2802,"(817) 230-0800",,,,
TX,TARRANT,PB20-17622,"Single Family Homes",12/2/2020,,112000,2350,"9736 WALNUT COVE DR","FORT WORTH",TX,76108,,,CONTRACTOR,,,,,,,,,,,"DR HORTON",,,,,"DR HORTON","6751 NORTH FWY","FT WORTH",TX,76131-2802,"(817) 230-0800",,,,
TX,TARRANT,PB20-17623,"Single Family Homes",12/2/2020,,112000,2077,"9732 WALNUT COVE DR","FORT WORTH",TX,76108,,,CONTRACTOR,,,,,,,,,,,"DR HORTON",,,,,"DR HORTON","6751 NORTH FWY","FT WORTH",TX,76131-2802,"(817) 230-0800",,,,
TX,TARRANT,PB20-17625,"Single Family Homes",12/2/2020,,112000,2344,"9728 WALNUT COVE DR","FORT WORTH",TX,76108,,,CONTRACTOR,,,,,,,,,,,"DR HORTON",,,,,"DR HORTON","6751 NORTH FWY","FT WORTH",TX,76131-2802,"(817) 230-0800",,,,
TX,TARRANT,PB20-17626,"Single Family Homes",12/2/2020,,112000,1981,"9724 WALNUT COVE DR","FORT WORTH",TX,76108,,,CONTRACTOR,,,,,,,,,,,"DR HORTON",,,,,"DR HORTON","6751 NORTH FWY","FT WORTH",TX,76131-2802,"(817) 230-0800",,,,
TX,TARRANT,PB20-17628,"Single Family Homes",12/2/2020,,112000,2344,"9720 WALNUT COVE DR","FORT WORTH",TX,76108,,,CONTRACTOR,,,,,,,,,,,"DR HORTON",,,,,"DR HORTON","6751 NORTH FWY","FT WORTH",TX,76131-2802,"(817) 230-0800",,,,
TX,TARRANT,PB20-17632,"Single Family Homes",12/18/2020,,100000,2318,"9600 SANTA CLARA DR","FORT WORTH",TX,76116,,,"JORGE SANTOS","9600 SANTA CLARA DR","FORT WORTH",TX,76116,"(817) 319-4828",Applicant,,,,,OWNER,,,,,OWNER,,,,,,,,,
TX,TARRANT,PB20-17641,"Single Family Homes",12/16/2020,,363980,2724,"2209 RUE CT","FORT WORTH",TX,76008,,,CONTRACTOR,,,,,,,,,,,"DAVID WEEKLEY HOMES",,,,,"DAVID WEEKLEY HOMES","2708 HILLSIDE DR","HIGHLAND VILLAGE",TX,75077-8653,"(972) 415-6059",http://www.davidweekleyhomes.com/,,,
TX,TARRANT,PB20-17648,"Single Family Homes",12/16/2020,,408870,3717,"5724 LAKE JACKSON DR","FORT WORTH",TX,76002,,,CONTRACTOR,,,,,,,,,,,"BRITTON HOMES",,,,,"BRITTON HOMES","5055 WEST PARK BLVD",PLANO,TX,75093,"(713) 948-4485",,,,
TX,TARRANT,PB20-17655,"Single Family Homes",12/11/2020,,177534,2818,"6304 DRY GULCH TRL","FORT WORTH",TX,76179,,,CONTRACTOR,,,,,,,,,,,"MERITAGE HOMES",,,,,"MERITAGE HOMES","8840 CYPRESS WATERS BLVD #100",DALLAS,TX,75063,"(214) 869-8023",,,,
TX,TARRANT,PB20-17656,"Single Family Homes",12/10/2020,,146034,2318,"6308 DRY GULCH TRL","FORT WORTH",TX,76179,,,CONTRACTOR,,,,,,,,,,,"MERITAGE HOMES",,,,,"MERITAGE HOMES","8840 CYPRESS WATERS BLVD #100",DALLAS,TX,75063,"(214) 869-8023",,,,
TX,TARRANT,PB20-17657,"Single Family Homes",12/10/2020,,227493,3611,"6312 DRY GULCH TRL","FORT WORTH",TX,76179,,,CONTRACTOR,,,,,,,,,,,"MERITAGE HOMES",,,,,"MERITAGE HOMES","8840 CYPRESS WATERS BLVD #100",DALLAS,TX,75063,"(214) 869-8023",,,,
TX,TARRANT,PB20-17658,"Single Family Homes",12/11/2020,,133749,2123,"6301 SPOOKY CAT TRL","FORT WORTH",TX,76179,,,CONTRACTOR,,,,,,,,,,,"MERITAGE HOMES",,,,,"MERITAGE HOMES","8840 CYPRESS WATERS BLVD #100",DALLAS,TX,75063,"(214) 869-8023",,,,
TX,TARRANT,PB20-17659,"Single Family Homes",12/11/2020,,191961,3047,"6305 SPOOKY CAT TRL","FORT WORTH",TX,76179,,,CONTRACTOR,,,,,,,,,,,"MERITAGE HOMES",,,,,"MERITAGE HOMES","8840 CYPRESS WATERS BLVD #100",DALLAS,TX,75063,"(214) 869-8023",,,,
TX,TARRANT,PB20-17660,"Single Family Homes",12/11/2020,,202041,3207,"6309 SPOOKY CAT TRL","FORT WORTH",TX,76179,,,CONTRACTOR,,,,,,,,,,,"MERITAGE HOMES",,,,,"MERITAGE HOMES","8840 CYPRESS WATERS BLVD #100",DALLAS,TX,75063,"(214) 869-8023",,,,
TX,TARRANT,PB20-17661,"Single Family Homes",12/14/2020,,144648,2296,"6313 SPOOKY CAT TRL","FORT WORTH",TX,76179,,,CONTRACTOR,,,,,,,,,,,"MERITAGE HOMES",,,,,"MERITAGE HOMES","8840 CYPRESS WATERS BLVD #100",DALLAS,TX,75063,"(214) 869-8023",,,,
TX,TARRANT,PB20-17676,"Single Family Homes",12/15/2020,,190953,3031,"11804 WAX MYRTLE TRL","FORT WORTH",TX,76108,,,CONTRACTOR,,,,,,,,,,,"STONEHOLLOW HOMES",,,,,"STONEHOLLOW HOMES","905 MARKET ST STE 250",ALLEN,TX,75013,"(817) 917-4472",,,,
TX,TARRANT,PB20-17685,"Single Family Homes",12/15/2020,,167391,2657,"1676 STOWERS TRL","FORT WORTH",TX,76052,,,CONTRACTOR,,,,,,,,,,,"AMERICAN LEGEND HOMES",,,,,"AMERICAN LEGEND HOMES","2540 KING ARTHUR BLVD STE 200",LEWISVILLE,TX,75056-5833,"(972) 410-5701",http://www.amlegendhomes.com/,"(972) 410-5750",,
TX,TARRANT,PB20-17687,"Single Family Homes",12/11/2020,,236502,3754,"6640 TEXAS COWBOY DR","FORT WORTH",TX,76123,,,CONTRACTOR,,,,,,,,,,,"HISTORY MAKER HOMES",,,,,"HISTORY MAKER HOMES","9001 AIRPORT FWY SUITE 400","NORTH RICHLAND HILLS",TX,76180-7769,"(817) 429-8008",http://www.historymaker.com/,"(817) 507-1102","JILL BARFIELD",
TX,TARRANT,PB20-17695,"Single Family Homes",12/18/2020,,136647,2169,"8552 GRAND OAK RD","FORT WORTH",TX,76123,,,CONTRACTOR,,,,,,,,,,,"GEHAN HOMES",,,,,"GEHAN HOMES","14901 QUORUM DR STE 300",DALLAS,TX,75254-6735,"(972) 383-4300",http://www.gehanhomes.com,,,
TX,TARRANT,PB20-17697,"Single Family Homes",12/18/2020,,156114,2478,"6216 THUNDERWING DR","FORT WORTH",TX,76179,,,CONTRACTOR,,,,,,,,,,,"LILLIAN CUSTOM HOMES",,,,,"LILLIAN CUSTOM HOMES","509 FERRIS AVE",WAXAHACHIE,TX,75165-3343,"(972) 937-8990",http://lilliancustomhomes.com/,,,
TX,TARRANT,PB20-17698,"Single Family Homes",12/15/2020,,186795,2965,"1808 AUSTRALE DR","FORT WORTH",TX,76179,,,CONTRACTOR,,,,,,,,,,,"RIVERSIDE HOMEBUILDERS",,,,,"RIVERSIDE HOMEBUILDERS","3045 LACKLAND RD","FORT WORTH",TX,76116-4121,"(817) 953-3308",http://www.rshomebuilders.com/,"(817) 737-1245",,info@rshomebuilders.com
TX,TARRANT,PB20-17700,"Single Family Homes",12/14/2020,,245007,3889,"1713 STAR FLEET DR","FORT WORTH",TX,76179,,,CONTRACTOR,,,,,,,,,,,"RIVERSIDE HOMEBUILDERS",,,,,"RIVERSIDE HOMEBUILDERS","3045 LACKLAND RD","FORT WORTH",TX,76116-4121,"(817) 953-3308",http://www.rshomebuilders.com/,"(817) 737-1245",,info@rshomebuilders.com
TX,TARRANT,PB20-17702,"Single Family Homes",12/15/2020,,109242,1734,"9813 DROVERS VIEW TRL","FORT WORTH",TX,76131,,,CONTRACTOR,,,,,,,,,,,"MERITAGE HOMES",,,,,"MERITAGE HOMES","8840 CYPRESS WATERS BLVD #100",DALLAS,TX,75063,"(214) 869-8023",,,,
TX,TARRANT,PB20-17703,"Single Family Homes",12/3/2020,,147105,2335,"6225 THUNDERWING DR","FORT WORTH",TX,76179,,,CONTRACTOR,,,,,,,,,,,"LILLIAN CUSTOM HOMES",,,,,"LILLIAN CUSTOM HOMES","509 FERRIS AVE",WAXAHACHIE,TX,75165-3343,"(972) 937-8990",http://lilliancustomhomes.com/,,,
TX,TARRANT,PB20-17704,"Single Family Homes",12/15/2020,,157626,2502,"5217 SONATA TRL","FORT WORTH",TX,76126,,,CONTRACTOR,,,,,,,,,,,"CLARITY HOMES",,,,,"CLARITY HOMES","3605 EL CAMPO AVE","FORT WORTH",TX,76107-4553,"(817) 569-9224",http://clarityhomes.com,"(817) 569-9215",,
TX,TARRANT,PB20-17705,"Single Family Homes",12/15/2020,,155988,2476,"6317 RED CLIFF DR","FORT WORTH",TX,76179,,,CONTRACTOR,,,,,,,,,,,"CLARITY HOMES",,,,,"CLARITY HOMES","3605 EL CAMPO AVE","FORT WORTH",TX,76107-4553,"(817) 569-9224",http://clarityhomes.com,"(817) 569-9215",,
TX,TARRANT,PB20-17706,"Single Family Homes",12/17/2020,,100000,2026,"4609 ERATH ST","FORT WORTH",TX,76119,,,"GERMAN WILLIAM BELTRAN","4609 ERATH ST","FORT WORTH",TX,76119,"(817) 726-4143",Applicant,,,,,OWNER,,,,,OWNER,,,,,,,,,
TX,TARRANT,PB20-17711,"Single Family Homes",12/22/2020,,430000,4011,"3908 CLARIDGE CT","FORT WORTH",TX,76109,,,"MAGEE ARCHITECTS","2824 W 7TH ST STE 100","FORT WORTH",TX,76107,"(817) 731-9397",Architect,https://www.magee-architects.com/,,,amagee@magee-architects.com,OWNER,,,,,OWNER,,,,,,,,,
TX,TARRANT,PB20-17714,"Single Family Homes",12/14/2020,,126000,2578,"5216 RANCHERO TRL","FORT WORTH",TX,76126,,,CONTRACTOR,,,,,,,,,,,"GHHB SKYLINE",,,,,"GHHB SKYLINE","1105 GLADE RD # 100",COLLEYVILLE,TX,76034-4228,"(817) 589-9603",,,,
TX,TARRANT,PB20-17716,"Single Family Homes",12/16/2020,,152000,3495,"7104 AVES ST","FORT WORTH",TX,76179,,,CONTRACTOR,,,,,,,,,,,"GRAHAM HART HOME BUILDER",,,,,"GRAHAM HART HOME BUILDER","1105 GLADE RD STE 100",COLLEYVILLE,TX,76034-4228,"(214) 626-8590",http://www.grahamhart.com/,,,info@grahamhart.com
TX,TARRANT,PB20-17720,"Single Family Homes",12/17/2020,,163000,3909,"7101 KETTLE TRL","FORT WORTH",TX,76179,,,CONTRACTOR,,,,,,,,,,,"GRAHAM HART HOME BUILDER",,,,,"GRAHAM HART HOME BUILDER","1105 GLADE RD STE 100",COLLEYVILLE,TX,76034-4228,"(214) 626-8590",http://www.grahamhart.com/,,,info@grahamhart.com
TX,TARRANT,PB20-17722,"Single Family Homes",12/15/2020,,,3494,"1433 SILENT SPRINGS DR","FORT WORTH",TX,76052,,,CONTRACTOR,,,,,,,,,,,"KENMARK HOMES ",,,,,"KENMARK HOMES ","519 PINE ST STE 100",ALEDO,TX,76008-4204,"(817) 441-7061",,,,
TX,TARRANT,PB20-17725,"Single Family Homes",12/15/2020,,224658,3566,"1125 ROCKY SPRINGS TRL","FORT WORTH",TX,76052,,,CONTRACTOR,,,,,,,,,,,"KENMARK HOMES ",,,,,"KENMARK HOMES ","519 PINE ST STE 100",ALEDO,TX,76008-4204,"(817) 441-7061",,,,
TX,TARRANT,PB20-17727,"Single Family Homes",12/15/2020,,167706,2662,"5608 SURRY MOUNTAIN TRL","FORT WORTH",TX,76179,,,CONTRACTOR,,,,,,,,,,,"IMPRESSION HOMES",,,,,"IMPRESSION HOMES","430 N CARROLL AVE # 150",SOUTHLAKE,TX,76092-6452,"(817) 717-5103",https://www.impressionhomes.net/,,,
TX,TARRANT,PB20-17730,"Single Family Homes",12/15/2020,,177408,2816,"604 ANTSWOOD DR","FORT WORTH",TX,76108,,,CONTRACTOR,,,,,,,,,,,"IMPRESSION HOMES",,,,,"IMPRESSION HOMES","430 N CARROLL AVE # 150",SOUTHLAKE,TX,76092-6452,"(817) 717-5103",https://www.impressionhomes.net/,,,
TX,TARRANT,PB20-17733,"Single Family Homes",12/15/2020,,218169,3463,"2009 GILL STAR DR","FORT WORTH",TX,76179,,,CONTRACTOR,,,,,,,,,,,"RIVERSIDE HOMEBUILDERS",,,,,"RIVERSIDE HOMEBUILDERS","3045 LACKLAND RD","FORT WORTH",TX,76116-4121,"(817) 953-3308",http://www.rshomebuilders.com/,"(817) 737-1245",,info@rshomebuilders.com
TX,TARRANT,PB20-17735,"Single Family Homes",12/15/2020,,165186,2622,"1632 RIO SECCO DR","FORT WORTH",TX,76131,,,CONTRACTOR,,,,,,,,,,,"RIVERSIDE HOMEBUILDERS",,,,,"RIVERSIDE HOMEBUILDERS","3045 LACKLAND RD","FORT WORTH",TX,76116-4121,"(817) 953-3308",http://www.rshomebuilders.com/,"(817) 737-1245",,info@rshomebuilders.com
TX,TARRANT,PB20-17736,"Single Family Homes",12/15/2020,,153594,2438,"1636 RIO SECCO DR","FORT WORTH",TX,76131,,,CONTRACTOR,,,,,,,,,,,"RIVERSIDE HOMEBUILDERS",,,,,"RIVERSIDE HOMEBUILDERS","3045 LACKLAND RD","FORT WORTH",TX,76116-4121,"(817) 953-3308",http://www.rshomebuilders.com/,"(817) 737-1245",,info@rshomebuilders.com
TX,TARRANT,PB20-17738,"Single Family Homes",12/15/2020,,271152,4304,"10100 WHITE PINE DR","FORT WORTH",TX,75068,,,CONTRACTOR,,,,,,,,,,,"BLOOMFIELD HOMES",,,,,"BLOOMFIELD HOMES","1050 E STATE HIGHWAY 114 STE 210",SOUTHLAKE,TX,76092-5255,"(972) 971-2103",http://bloomfieldhomes.net/,"(972) 987-4342",,mattjennings@bloomfieldhomes.net
TX,TARRANT,PB20-17741,"Single Family Homes",12/15/2020,,100000,2074,"1508 S EDGEWOOD TER","FORT WORTH",TX,76105,,,CONTRACTOR,,,,,,,,,,,"PEREZ FAMILY BUILDERS",,,,,"PEREZ FAMILY BUILDERS","2810 N. BEACH ST","HALTOM CITY",TX,76111,"(817) 279-2021",,,,
TX,TARRANT,PB20-17747,"Single Family Homes",12/14/2020,,180000,1847,"2919 NW 28TH ST","FORT WORTH",TX,76106,,,CONTRACTOR,,,,,,,,,,,"OLD TO NEW PROPERTIES",,,,,"OLD TO NEW PROPERTIES","2401 IRION AVE","FORT WORTH",TX,76106-7543,"(708) 743-9176",,,,
TX,TARRANT,PB20-17768,"Single Family Homes",12/18/2020,,386552,3270,"14436 BALMORAL PL","FORT WORTH",TX,76008,,,CONTRACTOR,,,,,,,,,,,"DAVID WEEKLEY HOMES",,,,,"DAVID WEEKLEY HOMES","2708 HILLSIDE DR","HIGHLAND VILLAGE",TX,75077-8653,"(972) 415-6059",http://www.davidweekleyhomes.com/,,,
TX,TARRANT,PB20-17776,"Single Family Homes",12/4/2020,,112000,2384,"9716 WALNUT COVE DR","FORT WORTH",TX,76108,,,CONTRACTOR,,,,,,,,,,,"DR HORTON",,,,,"DR HORTON","6751 NORTH FWY","FT WORTH",TX,76131-2802,"(817) 230-0800",,,,
TX,TARRANT,PB20-17777,"Single Family Homes",12/4/2020,,125000,2975,"9708 WALNUT COVE DR","FORT WORTH",TX,76108,,,CONTRACTOR,,,,,,,,,,,"DR HORTON",,,,,"DR HORTON","6751 NORTH FWY","FT WORTH",TX,76131-2802,"(817) 230-0800",,,,
TX,TARRANT,PB20-17778,"Single Family Homes",12/4/2020,,116000,2584,"9704 WALNUT COVE DR","FORT WORTH",TX,76108,,,CONTRACTOR,,,,,,,,,,,"DR HORTON",,,,,"DR HORTON","6751 NORTH FWY","FT WORTH",TX,76131-2802,"(817) 230-0800",,,,
TX,TARRANT,PB20-17779,"Single Family Homes",12/4/2020,,129000,3079,"9700 WALNUT COVE DR","FORT WORTH",TX,76108,,,CONTRACTOR,,,,,,,,,,,"DR HORTON",,,,,"DR HORTON","6751 NORTH FWY","FT WORTH",TX,76131-2802,"(817) 230-0800",,,,
TX,TARRANT,PB20-17780,"Single Family Homes",12/4/2020,,122000,2344,"2105 DENMARK LN","FORT WORTH",TX,76108,,,CONTRACTOR,,,,,,,,,,,"DR HORTON",,,,,"DR HORTON","6751 NORTH FWY","FT WORTH",TX,76131-2802,"(817) 230-0800",,,,
TX,TARRANT,PB20-17782,"Single Family Homes",12/4/2020,,127000,3064,"2101 DENMARK LN","FORT WORTH",TX,76108,,,CONTRACTOR,,,,,,,,,,,"DR HORTON",,,,,"DR HORTON","6751 NORTH FWY","FT WORTH",TX,76131-2802,"(817) 230-0800",,,,
TX,TARRANT,PB20-17786,"Single Family Homes",12/17/2020,,319914,5118,"4153 RANCHO MILAGRO DR",SACHSE,TX,76179,,,CONTRACTOR,,,,,,,,,,,"FIRST TEXAS HOMES",,,,,"FIRST TEXAS HOMES","500 CRESCENT CT STE 350",DALLAS,TX,75201-7854,"(214) 613-3400",,"(214) 432-0350",,
TX,TARRANT,PB20-17787,"Single Family Homes",12/17/2020,,367290,5830,"4165 RANCHO MILAGRO DR","FORT WORTH",TX,76179,,,CONTRACTOR,,,,,,,,,,,"FIRST TEXAS HOMES",,,,,"FIRST TEXAS HOMES","500 CRESCENT CT STE 350",DALLAS,TX,75201-7854,"(214) 613-3400",,"(214) 432-0350",,
TX,TARRANT,PB20-17788,"Single Family Homes",12/15/2020,,154665,2455,"6300 DRY GULCH TRL","FORT WORTH",TX,76179,,,CONTRACTOR,,,,,,,,,,,"MERITAGE HOMES",,,,,"MERITAGE HOMES","8840 CYPRESS WATERS BLVD #100",DALLAS,TX,75063,"(214) 869-8023",,,,
TX,TARRANT,PB20-17789,"Single Family Homes",12/31/2020,,225414,3578,"2516 AWENSA DR","FORT WORTH",TX,76179,,,CONTRACTOR,,,,,,,,,,,"TROPHY SIGNATURE HOMES",,,,,"TROPHY SIGNATURE HOMES","2805 DALLAS PKWY STE 400",PLANO,TX,75093-8722,"(469) 969-7339",,,,
TX,TARRANT,"20 - 03586","Single Family Homes",12/3/2020,,519733,5884,"2005 ROYAL CREST DR",MANSFIELD,TX,76063,,,CONTRACTOR,,,,,,,,,,,"ROSEWOOD CUSTOM HOMES",,,,,"ROSEWOOD CUSTOM HOMES","5207 PINEGLEN CT",ARLINGTON,TX,76016-2205,"(817) 308-9083",,,,Info@Rosewood4living.com
TX,TARRANT,"20 - 04124","Single Family Homes",12/1/2020,,349786,3960,"1804 MIDDLETON DR",MANSFIELD,TX,76065,,,CONTRACTOR,,,,,,,,,,,"PAUL TAYLOR HOMES",,,,,"PAUL TAYLOR HOMES","17950 PRESTON ROAD STE 700",DALLAS,TX,75252,"(972) 732-7800",http://www.paultaylorhomes.com/index2.html,"(972) 732-7827","PAUL TAYLOR",
TX,TARRANT,"20 - 04355","Single Family Homes",12/16/2020,,248118,2809,"2618 MELROSE DR",MANSFIELD,TX,76065,SOMERSET,15,CONTRACTOR,,,,,,,,,,,"PULTE HOMES",,,,,"PULTE HOMES","4800 REGENT BLVD",IRVING,TX,75063-2439,"(972) 304-2800",,,,
TX,TARRANT,"20 - 04431","Single Family Homes",12/3/2020,,354556,4014,"3206 MILLSTONE LN",MANSFIELD,TX,76063,SOMERSET,23,CONTRACTOR,,,,,,,,,,,"PULTE HOMES",,,,,"PULTE HOMES","4800 REGENT BLVD",IRVING,TX,75063-2439,"(972) 304-2800",,,,
TX,TARRANT,20-04534,"Single Family Homes",12/11/2020,,323464,3662,"2717 THORNHILL LN",MANSFIELD,TX,76063,,,CONTRACTOR,,,,,,,,,,,"PULTE HOMES",,,,,"PULTE HOMES","4800 REGENT BLVD",IRVING,TX,75063-2439,"(972) 304-2800",,,,
TX,TARRANT,"20 - 04535","Single Family Homes",12/11/2020,,244232,2765,"2801 DURHAM DR",MANSFIELD,TX,76063,,,CONTRACTOR,,,,,,,,,,,"PULTE HOMES",,,,,"PULTE HOMES","4800 REGENT BLVD",IRVING,TX,75063-2439,"(972) 304-2800",,,,
TX,TARRANT,"20 - 04545","Single Family Homes",12/17/2020,,276826,3134,"1504 BIRCH ST",MANSFIELD,TX,76063,SOUTHPOINTE,15,CONTRACTOR,,,,,,,,,,,"J HOUSTON HOMES",,,,,"J HOUSTON HOMES","202 N INTERSTATE 35 RD STE C","RED OAK",TX,75154-4296,"(972) 937-4085",,"(972) 937-4697",,info@johnhoustoncustomhomes.com
TX,TARRANT,"20 - 04546","Single Family Homes",12/8/2020,,423719,4797,"1710 CEDAR BLUFF PKWY",MANSFIELD,TX,76063,,,CONTRACTOR,,,,,,,,,,,"J HOUSTON HOMES",,,,,"J HOUSTON HOMES","202 N INTERSTATE 35 RD STE C","RED OAK",TX,75154-4296,"(972) 937-4085",,"(972) 937-4697",,info@johnhoustoncustomhomes.com
TX,TARRANT,"20 - 04566","Single Family Homes",12/4/2020,,515405,5835,"2701 BIRCH ST",MANSFIELD,TX,76063,SOUTHPOINTE,6,CONTRACTOR,,,,,,,,,,,"GRAND HOMES",,,,,"GRAND HOMES","15455 DALLAS PKWY STE 1000",ADDISON,TX,75001-6772,"(214) 750-6528",http://www.grandhomes.com/,"(214) 750-6849",,info@grandhomes.com
TX,TARRANT,"20 - 04602","Single Family Homes",12/2/2020,,264725,2997,"2603 PARKHURST LN",MANSFIELD,TX,76063,SOMERSET,4,CONTRACTOR,,,,,,,,,,,"BLOOMFIELD HOMES",,,,,"BLOOMFIELD HOMES","1050 E STATE HIGHWAY 114 STE 210",SOUTHLAKE,TX,76092-5255,"(972) 971-2103",http://bloomfieldhomes.net/,"(972) 987-4342",,mattjennings@bloomfieldhomes.net
TX,TARRANT,"20 - 04603","Single Family Homes",12/11/2020,,301558,3414,"2402 WALLINGFORD DR",MANSFIELD,TX,76063,SOMERSET,19,CONTRACTOR,,,,,,,,,,,"BLOOMFIELD HOMES",,,,,"BLOOMFIELD HOMES","1050 E STATE HIGHWAY 114 STE 210",SOUTHLAKE,TX,76092-5255,"(972) 971-2103",http://bloomfieldhomes.net/,"(972) 987-4342",,mattjennings@bloomfieldhomes.net
TX,TARRANT,"20 - 04620","Single Family Homes",12/28/2020,,263841,2987,"1907 GRAHAM WAY",MANSFIELD,TX,76065,"MILL VALLEY",17,CONTRACTOR,,,,,,,,,,,"J HOUSTON HOMES",,,,,"J HOUSTON HOMES","202 N INTERSTATE 35 RD STE C","RED OAK",TX,75154-4296,"(972) 937-4085",,"(972) 937-4697",,info@johnhoustoncustomhomes.com
TX,TARRANT,"20 - 04622","Single Family Homes",12/1/2020,,409232,4633,"2405 COLLIER ST",MANSFIELD,TX,76063,SOUTHPOINTE,2,CONTRACTOR,,,,,,,,,,,"J HOUSTON HOMES",,,,,"J HOUSTON HOMES","202 N INTERSTATE 35 RD STE C","RED OAK",TX,75154-4296,"(972) 937-4085",,"(972) 937-4697",,info@johnhoustoncustomhomes.com
TX,TARRANT,"20 - 04626","Single Family Homes",12/2/2020,,610890,6916,"4527 E BROAD ST",MANSFIELD,TX,76065,"LONG ESTATES",2,CONTRACTOR,,,,,,,,,,,"ELITE SERVICES INC",,,,,"ELITE SERVICES INC","3826 CAVALIER DR",GARLAND,TX,75042-7507,"(972) 487-8096",,,"WAYNE BROOKS",
TX,TARRANT,"20 - 04627","Single Family Homes",12/2/2020,,501272,5675,"4547 E BROAD ST",MANSFIELD,TX,76063,,,CONTRACTOR,,,,,,,,,,,"ELITE SERVICES INC",,,,,"ELITE SERVICES INC","3826 CAVALIER DR",GARLAND,TX,75042-7507,"(972) 487-8096",,,"WAYNE BROOKS",
TX,TARRANT,"20 - 04651","Single Family Homes",12/3/2020,,299262,3388,"2705 THORNHILL LN",MANSFIELD,TX,76065,SOMERSET,59,CONTRACTOR,,,,,,,,,,,"PULTE HOMES",,,,,"PULTE HOMES","4800 REGENT BLVD",IRVING,TX,75063-2439,"(972) 304-2800",,,,
TX,TARRANT,"20 - 04679","Single Family Homes",12/3/2020,,208900,2365,"3104 LINHAM DR",MANSFIELD,TX,76065,SOMERSET,7,CONTRACTOR,,,,,,,,,,,"PULTE HOMES",,,,,"PULTE HOMES","4800 REGENT BLVD",IRVING,TX,75063-2439,"(972) 304-2800",,,,
TX,TARRANT,"20 - 04680","Single Family Homes",12/11/2020,,234339,2653,"2617 MELROSE DR",MANSFIELD,TX,76065,SOMERSET,12,CONTRACTOR,,,,,,,,,,,"CHESMAR HOMES",,,,,"CHESMAR HOMES","1600 N COLLINS BLVD STE 1400",RICHARDSON,TX,75080-3669,"(972) 982-2572",http://chesmar.com,"(972) 982-2572",,customerservice.dallas@chesmar.com
TX,TARRANT,"20 - 04681","Single Family Homes",12/11/2020,,317899,3599,"2620 MELROSE DR",MANSFIELD,TX,76063,SOMERSET,16,CONTRACTOR,,,,,,,,,,,"CHESMAR HOMES",,,,,"CHESMAR HOMES","1600 N COLLINS BLVD STE 1400",RICHARDSON,TX,75080-3669,"(972) 982-2572",http://chesmar.com,"(972) 982-2572",,customerservice.dallas@chesmar.com
TX,TARRANT,"20 - 04691","Single Family Homes",12/11/2020,,286984,3249,"2721 THORNHILL LN",MANSFIELD,TX,76063,SOMERSET,51,CONTRACTOR,,,,,,,,,,,"CHESMAR HOMES",,,,,"CHESMAR HOMES","1600 N COLLINS BLVD STE 1400",RICHARDSON,TX,75080-3669,"(972) 982-2572",http://chesmar.com,"(972) 982-2572",,customerservice.dallas@chesmar.com
TX,TARRANT,"20 - 04692","Single Family Homes",12/11/2020,,234339,2653,"3102 MILLSTONE LN",MANSFIELD,TX,76063,SOMERSET,30,CONTRACTOR,,,,,,,,,,,"CHESMAR HOMES",,,,,"CHESMAR HOMES","1600 N COLLINS BLVD STE 1400",RICHARDSON,TX,75080-3669,"(972) 982-2572",http://chesmar.com,"(972) 982-2572",,customerservice.dallas@chesmar.com
TX,TARRANT,"20 - 04742","Single Family Homes",12/14/2020,,413472,4681,"5204 VISTA LAGO WAY",MANSFIELD,TX,76065,"SEETON ESTATES",13,CONTRACTOR,,,,,,,,,,,"SANDLIN HOMES",,,,,"SANDLIN HOMES","5137 DAVIS BLVD","FORT WORTH",TX,76180-6873,"(817) 281-3509",,,,
TX,TARRANT,"20 - 04743","Single Family Homes",12/3/2020,,380083,4303,"1802 SHAILA DR",MANSFIELD,TX,76063,"MILL VALLEY",2,CONTRACTOR,,,,,,,,,,,"WINDSOR HOMES",,,,,"WINDSOR HOMES","8214 WESTCHESTER DR STE 710",DALLAS,TX,75225-6133,"(214) 522-4945",,"(214) 522-7244",,
TX,TARRANT,"20 - 04745","Single Family Homes",12/1/2020,,499329,5653,"4712 ANTEBELLUM LN",MANSFIELD,TX,76063,"BOWER RANCH",7,CONTRACTOR,,,,,,,,,,,"GRAND HOMES",,,,,"GRAND HOMES","15455 DALLAS PKWY STE 1000",ADDISON,TX,75001-6772,"(214) 750-6528",http://www.grandhomes.com/,"(214) 750-6849",,info@grandhomes.com
TX,TARRANT,"20 - 04746","Single Family Homes",12/1/2020,,473007,5355,"4722 ANTEBELLUM LN",MANSFIELD,TX,76063,"BOWER RANCH",12,CONTRACTOR,,,,,,,,,,,"GRAND HOMES",,,,,"GRAND HOMES","15455 DALLAS PKWY STE 1000",ADDISON,TX,75001-6772,"(214) 750-6528",http://www.grandhomes.com/,"(214) 750-6849",,info@grandhomes.com
TX,TARRANT,"20 - 04747","Single Family Homes",12/4/2020,,496414,5620,"1503 HACKNEY DR",MANSFIELD,TX,76063,SOUTHPOINTE,2,CONTRACTOR,,,,,,,,,,,"GRAND HOMES",,,,,"GRAND HOMES","15455 DALLAS PKWY STE 1000",ADDISON,TX,75001-6772,"(214) 750-6528",http://www.grandhomes.com/,"(214) 750-6849",,info@grandhomes.com
TX,TARRANT,"20 - 04792","Single Family Homes",12/4/2020,,441208,4995,"2709 VISTA PKWY",MANSFIELD,TX,76063,SOUTHPOINTE,12,CONTRACTOR,,,,,,,,,,,"GRAND HOMES",,,,,"GRAND HOMES","15455 DALLAS PKWY STE 1000",ADDISON,TX,75001-6772,"(214) 750-6528",http://www.grandhomes.com/,"(214) 750-6849",,info@grandhomes.com
TX,TARRANT,20-04796,"Single Family Homes",12/1/2020,,428577,4852,"1602 FRIEDRICH DR",MANSFIELD,TX,76063,SOUTHPOINTE,30,CONTRACTOR,,,,,,,,,,,"GRAND HOMES",,,,,"GRAND HOMES","15455 DALLAS PKWY STE 1000",ADDISON,TX,75001-6772,"(214) 750-6528",http://www.grandhomes.com/,"(214) 750-6849",,info@grandhomes.com
TX,TARRANT,"20 - 04828","Single Family Homes",12/16/2020,,335300,3796,"4717 ANTEBELLUM LN",MANSFIELD,TX,76065,BOWER,13,CONTRACTOR,,,,,,,,,,,"GRAND HOMES",,,,,"GRAND HOMES","15455 DALLAS PKWY STE 1000",ADDISON,TX,75001-6772,"(214) 750-6528",http://www.grandhomes.com/,"(214) 750-6849",,info@grandhomes.com
TX,TARRANT,"20 - 04836","Single Family Homes",12/4/2020,,434583,4920,"1713 CEDAR BLUFF PKWY",MANSFIELD,TX,76065,SOUTHPOINTE,7,CONTRACTOR,,,,,,,,,,,"GRAND HOMES",,,,,"GRAND HOMES","15455 DALLAS PKWY STE 1000",ADDISON,TX,75001-6772,"(214) 750-6528",http://www.grandhomes.com/,"(214) 750-6849",,info@grandhomes.com
TX,TARRANT,"20 - 04838","Single Family Homes",12/10/2020,,244320,2766,"2602 MELROSE DR",MANSFIELD,TX,76063,SOMERSET,7,CONTRACTOR,,,,,,,,,,,"PULTE HOMES",,,,,"PULTE HOMES","4800 REGENT BLVD",IRVING,TX,75063-2439,"(972) 304-2800",,,,
TX,TARRANT,"20 - 04839","Single Family Homes",12/10/2020,,295817,3349,"2604 MELROSE DR",MANSFIELD,TX,76065,SOMERSET,8,CONTRACTOR,,,,,,,,,,,"PULTE HOMES",,,,,"PULTE HOMES","4800 REGENT BLVD",IRVING,TX,75063-2439,"(972) 304-2800",,,,
TX,TARRANT,"20 - 04840","Single Family Homes",12/11/2020,,345281,3909,"2616 MELROSE DR",MANSFIELD,TX,76063,,,CONTRACTOR,,,,,,,,,,,"PULTE HOMES",,,,,"PULTE HOMES","4800 REGENT BLVD",IRVING,TX,75063-2439,"(972) 304-2800",,,,
TX,TARRANT,"20 - 04889","Single Family Homes",12/3/2020,,356234,4033,"1811 FRIEDRICH DR",MANSFIELD,TX,76063,SOUTHPOINTE,1,CONTRACTOR,,,,,,,,,,,"DAVID WEEKLEY HOMES",,,,,"DAVID WEEKLEY HOMES","2708 HILLSIDE DR","HIGHLAND VILLAGE",TX,75077-8653,"(972) 415-6059",http://www.davidweekleyhomes.com/,,,
TX,TARRANT,"20 - 04900","Single Family Homes",12/10/2020,,285217,3229,"1804 FRIEDRICH DR",MANSFIELD,TX,76063,SOUTHPOINTE,5,CONTRACTOR,,,,,,,,,,,"DAVID WEEKLEY HOMES",,,,,"DAVID WEEKLEY HOMES","2708 HILLSIDE DR","HIGHLAND VILLAGE",TX,75077-8653,"(972) 415-6059",http://www.davidweekleyhomes.com/,,,
TX,TARRANT,"20 - 04901","Single Family Homes",12/14/2020,,349080,3952,"5003 LAKE PARK DR",MANSFIELD,TX,76063,"LAKE PARK",8,CONTRACTOR,,,,,,,,,,,"BLOOMFIELD HOMES",,,,,"BLOOMFIELD HOMES","1050 E STATE HIGHWAY 114 STE 210",SOUTHLAKE,TX,76092-5255,"(972) 971-2103",http://bloomfieldhomes.net/,"(972) 987-4342",,mattjennings@bloomfieldhomes.net
TX,TARRANT,"20 - 04902","Single Family Homes",12/16/2020,,289104,3273,"5206 VISTA LAGO WAY",MANSFIELD,TX,76065,"SEETON ESTATES",14,CONTRACTOR,,,,,,,,,,,"SANDLIN HOMES",,,,,"SANDLIN HOMES","5137 DAVIS BLVD","FORT WORTH",TX,76180-6873,"(817) 281-3509",,,,
TX,TARRANT,"20 - 04931","Single Family Homes",12/10/2020,,450483,5100,"2604 DYLAN LN",MANSFIELD,TX,76063,,,CONTRACTOR,,,,,,,,,,,"BLOOMFIELD HOMES",,,,,"BLOOMFIELD HOMES","1050 E STATE HIGHWAY 114 STE 210",SOUTHLAKE,TX,76092-5255,"(972) 971-2103",http://bloomfieldhomes.net/,"(972) 987-4342",,mattjennings@bloomfieldhomes.net
TX,TARRANT,"20 - 04932","Single Family Homes",12/10/2020,,434936,4924,"2615 JAXON WAY",MANSFIELD,TX,76063,,,CONTRACTOR,,,,,,,,,,,"BLOOMFIELD HOMES",,,,,"BLOOMFIELD HOMES","1050 E STATE HIGHWAY 114 STE 210",SOUTHLAKE,TX,76092-5255,"(972) 971-2103",http://bloomfieldhomes.net/,"(972) 987-4342",,mattjennings@bloomfieldhomes.net
TX,TARRANT,"20 - 04933","Single Family Homes",12/11/2020,,335124,3794,"2613 DYLAN LN",MANSFIELD,TX,76063,,,CONTRACTOR,,,,,,,,,,,"BLOOMFIELD HOMES",,,,,"BLOOMFIELD HOMES","1050 E STATE HIGHWAY 114 STE 210",SOUTHLAKE,TX,76092-5255,"(972) 971-2103",http://bloomfieldhomes.net/,"(972) 987-4342",,mattjennings@bloomfieldhomes.net
TX,TARRANT,"20 - 04947","Single Family Homes",12/16/2020,,453927,5139,"1709 CEDAR BLUFF PKWY",MANSFIELD,TX,76065,,,CONTRACTOR,,,,,,,,,,,"J HOUSTON HOMES",,,,,"J HOUSTON HOMES","202 N INTERSTATE 35 RD STE C","RED OAK",TX,75154-4296,"(972) 937-4085",,"(972) 937-4697",,info@johnhoustoncustomhomes.com
TX,TARRANT,"20 - 04948","Single Family Homes",12/14/2020,,239815,2715,"1814 MABRY CT",MANSFIELD,TX,76063,"MILL VALLEY",36,CONTRACTOR,,,,,,,,,,,"RENDITION HOMES",,,,,"RENDITION HOMES","9001 AIRPORT FWY STE 400","NORTH RICHLAND HILLS",TX,76180-9128,"(888) 899-8010",http://www.renditionhomes.com,"(817) 507-1101",,info@renditionhomes.com
TX,TARRANT,"20 - 05015","Single Family Homes",12/11/2020,,234339,2653,"2807 DURHAM DR",MANSFIELD,TX,76063,,18,CONTRACTOR,,,,,,,,,,,"CHESMAR HOMES",,,,,"CHESMAR HOMES","1600 N COLLINS BLVD STE 1400",RICHARDSON,TX,75080-3669,"(972) 982-2572",http://chesmar.com,"(972) 982-2572",,customerservice.dallas@chesmar.com
TX,TARRANT,"20 - 05016","Single Family Homes",12/11/2020,,317016,3589,"2729 THORNHILL LN",MANSFIELD,TX,76063,SOMERSET,47,CONTRACTOR,,,,,,,,,,,"CHESMAR HOMES",,,,,"CHESMAR HOMES","1600 N COLLINS BLVD STE 1400",RICHARDSON,TX,75080-3669,"(972) 982-2572",http://chesmar.com,"(972) 982-2572",,customerservice.dallas@chesmar.com
TX,TARRANT,"20 - 05038","Single Family Homes",12/18/2020,,464350,5257,"3205 CARRINGTON DR",MANSFIELD,TX,76063,,,CONTRACTOR,,,,,,,,,,,"DAVID WEEKLEY HOMES",,,,,"DAVID WEEKLEY HOMES","2708 HILLSIDE DR","HIGHLAND VILLAGE",TX,75077-8653,"(972) 415-6059",http://www.davidweekleyhomes.com/,,,
TX,TARRANT,"20 - 05040","Single Family Homes",12/14/2020,,302530,3425,"2611 HALLSEY DR",MANSFIELD,TX,76063,SOMERSET,38,CONTRACTOR,,,,,,,,,,,"BLOOMFIELD HOMES",,,,,"BLOOMFIELD HOMES","1050 E STATE HIGHWAY 114 STE 210",SOUTHLAKE,TX,76092-5255,"(972) 971-2103",http://bloomfieldhomes.net/,"(972) 987-4342",,mattjennings@bloomfieldhomes.net
TX,TARRANT,"20 - 05041","Single Family Homes",12/16/2020,,358973,4064,"810 COMAL DR",MANSFIELD,TX,76063,,,CONTRACTOR,,,,,,,,,,,"IMPRESSION HOMES",,,,,"IMPRESSION HOMES","430 N CARROLL AVE # 150",SOUTHLAKE,TX,76092-6452,"(817) 717-5103",https://www.impressionhomes.net/,,,
TX,TARRANT,"20 - 05076","Single Family Homes",12/10/2020,,329382,3729,"1700 FURROW LN",MANSFIELD,TX,76063,"MILL VALLEY",5,CONTRACTOR,,,,,,,,,,,"J HOUSTON HOMES",,,,,"J HOUSTON HOMES","202 N INTERSTATE 35 RD STE C","RED OAK",TX,75154-4296,"(972) 937-4085",,"(972) 937-4697",,info@johnhoustoncustomhomes.com
TX,TARRANT,"20 - 05077","Single Family Homes",12/28/2020,,339805,3487,"3203 TAIL WATER DR",MANSFIELD,TX,76063,,,CONTRACTOR,,,,,,,,,,,"J HOUSTON HOMES",,,,,"J HOUSTON HOMES","202 N INTERSTATE 35 RD STE C","RED OAK",TX,75154-4296,"(972) 937-4085",,"(972) 937-4697",,info@johnhoustoncustomhomes.com
TX,TARRANT,"20 - 05097","Single Family Homes",12/16/2020,,393598,4456,"4701 GEORGIANA LN",MANSFIELD,TX,76063,PEMBERLEY,38,CONTRACTOR,,,,,,,,,,,"FIRST TEXAS HOMES",,,,,"FIRST TEXAS HOMES","500 CRESCENT CT STE 350",DALLAS,TX,75201-7854,"(214) 613-3400",,"(214) 432-0350",,
TX,TARRANT,"20 - 05099","Single Family Homes",12/18/2020,,346783,3926,"1502 BIRCH ST",MANSFIELD,TX,76063,SOUTHPOINTE,14,CONTRACTOR,,,,,,,,,,,"J HOUSTON HOMES",,,,,"J HOUSTON HOMES","202 N INTERSTATE 35 RD STE C","RED OAK",TX,75154-4296,"(972) 937-4085",,"(972) 937-4697",,info@johnhoustoncustomhomes.com
TX,TARRANT,"20 - 05100","Single Family Homes",12/28/2020,,458256,5188,"1707 CEDAR BLUFF PKWY",MANSFIELD,TX,76063,SOUTHPOINTE,4,CONTRACTOR,,,,,,,,,,,"J HOUSTON HOMES",,,,,"J HOUSTON HOMES","202 N INTERSTATE 35 RD STE C","RED OAK",TX,75154-4296,"(972) 937-4085",,"(972) 937-4697",,info@johnhoustoncustomhomes.com
TX,TARRANT,"20 - 05123","Single Family Homes",12/15/2020,,349080,3952,"2610 DYLAN LN",MANSFIELD,TX,76063,"TRIPLE DIAMOND",14,CONTRACTOR,,,,,,,,,,,"BLOOMFIELD HOMES",,,,,"BLOOMFIELD HOMES","1050 E STATE HIGHWAY 114 STE 210",SOUTHLAKE,TX,76092-5255,"(972) 971-2103",http://bloomfieldhomes.net/,"(972) 987-4342",,mattjennings@bloomfieldhomes.net
TX,TARRANT,"20 - 05127","Single Family Homes",12/22/2020,,233102,2639,"1405 BLANCO TRL",MANSFIELD,TX,77356,RIVERWALK,3,CONTRACTOR,,,,,,,,,,,"IMPRESSION HOMES",,,,,"IMPRESSION HOMES","430 N CARROLL AVE # 150",SOUTHLAKE,TX,76092-6452,"(817) 717-5103",https://www.impressionhomes.net/,,,
TX,TARRANT,"20 - 05128","Single Family Homes",12/14/2020,,347225,3931,"1802 FRIEDRICH DR",MANSFIELD,TX,76063,SOUTHPOINTE,6,CONTRACTOR,,,,,,,,,,,"DAVID WEEKLEY HOMES",,,,,"DAVID WEEKLEY HOMES","2708 HILLSIDE DR","HIGHLAND VILLAGE",TX,75077-8653,"(972) 415-6059",http://www.davidweekleyhomes.com/,,,
TX,TARRANT,"20 - 05163","Single Family Homes",12/22/2020,,363389,4114,"4903 LAKE PARK DR",MANSFIELD,TX,76063,"LAKE PARK",2,CONTRACTOR,,,,,,,,,,,"BLOOMFIELD HOMES",,,,,"BLOOMFIELD HOMES","1050 E STATE HIGHWAY 114 STE 210",SOUTHLAKE,TX,76092-5255,"(972) 971-2103",http://bloomfieldhomes.net/,"(972) 987-4342",,mattjennings@bloomfieldhomes.net
TX,TARRANT,"20 - 05164","Single Family Homes",12/21/2020,,393951,4460,"5204 HAVANA DR",MANSFIELD,TX,76063,"SEETON ESTATES",6,CONTRACTOR,,,,,,,,,,,"SANDLIN HOMES",,,,,"SANDLIN HOMES","5137 DAVIS BLVD","FORT WORTH",TX,76180-6873,"(817) 281-3509",,,,
TX,TARRANT,"20 - 05165","Single Family Homes",12/22/2020,,351906,3984,"4901 LAKE PARK DR",MANSFIELD,TX,76063,,1,CONTRACTOR,,,,,,,,,,,"BLOOMFIELD HOMES",,,,,"BLOOMFIELD HOMES","1050 E STATE HIGHWAY 114 STE 210",SOUTHLAKE,TX,76092-5255,"(972) 971-2103",http://bloomfieldhomes.net/,"(972) 987-4342",,mattjennings@bloomfieldhomes.net
TX,TARRANT,"20 - 05177","Single Family Homes",12/17/2020,,323552,3663,"3205 JULIAN ST",MANSFIELD,TX,76063,,,CONTRACTOR,,,,,,,,,,,"DAVID WEEKLEY HOMES",,,,,"DAVID WEEKLEY HOMES","2708 HILLSIDE DR","HIGHLAND VILLAGE",TX,75077-8653,"(972) 415-6059",http://www.davidweekleyhomes.com/,,,
TX,TARRANT,"20 - 05224","Single Family Homes",12/21/2020,,315161,3568,"1912 GRAHAM WAY",MANSFIELD,TX,76063,"MILL VALLEY",15,CONTRACTOR,,,,,,,,,,,"WINDSOR HOMES",,,,,"WINDSOR HOMES","8214 WESTCHESTER DR STE 710",DALLAS,TX,75225-6133,"(214) 522-4945",,"(214) 522-7244",,
TX,TARRANT,"20 - 05270","Single Family Homes",12/31/2020,,309066,3499,"1804 SHAILA DR",MANSFIELD,TX,76063,"MILL VALLEY",1,CONTRACTOR,,,,,,,,,,,"WINDSOR HOMES",,,,,"WINDSOR HOMES","8214 WESTCHESTER DR STE 710",DALLAS,TX,75225-6133,"(214) 522-4945",,"(214) 522-7244",,
TX,TARRANT,"20 - 05293","Single Family Homes",12/31/2020,,366392.8,4148,"3200 JULIAN ST",MANSFIELD,TX,76063,SOUTHPOINTE,1,CONTRACTOR,,,,,,,,,,,"DAVID WEEKLEY HOMES",,,,,"DAVID WEEKLEY HOMES","2708 HILLSIDE DR","HIGHLAND VILLAGE",TX,75077-8653,"(972) 415-6059",http://www.davidweekleyhomes.com/,,,
TX,TARRANT,20-0055,"Single Family Homes",12/3/2020,,1500000,6670,"4304 SADDLEBACK LN",SOUTHLAKE,TX,76092,,,CONTRACTOR,,,,,,,,,,,POLARIS,,,,,POLARIS,"1732 JOHNSON RD",KELLER,TX,76248-4330,"(817) 431-3114",,,,
TX,TARRANT,20-0060,"Single Family Homes",12/2/2020,,1100000,7893,"4601 SADDLEBACK LN",SOUTHLAKE,TX,76092,,,CONTRACTOR,,,,,,,,,,,"CALAIS CUSTOM HOMES",,,,,"CALAIS CUSTOM HOMES","2825 EXCHANGE BLVD STE 101",SOUTHLAKE,TX,76092-9152,"(817) 481-6426",http://www.calaiscustomhomes.com,"(817) 421-0491","TODD HANDWERK",todd@calaiscustomhomes.com
TX,TARRANT,20-0061,"Single Family Homes",12/3/2020,,800000,8021,"1112 HIGH CT",SOUTHLAKE,TX,76092,,,CONTRACTOR,,,,,,,,,,,"ATWOOD CUSTOM HOMES",,,,,"ATWOOD CUSTOM HOMES","PO BOX 93615",SOUTHLAKE,TX,76092-0115,"(817) 505-8881",http://atwoodcustomhomes.com,"(817) 741-2504","JOHN ATWOOD",jon.atwood@verizon.net
TX,TARRANT,21-0030,"Single Family Homes",12/3/2020,,,1874,"6813 MCCLELLAND","NORTH RICHLAND HILLS",TX,76182,,,CONTRACTOR,,,,,,,,,,,"IMPRESSION HOMES",,,,,"IMPRESSION HOMES","430 N CARROLL AVE # 150",SOUTHLAKE,TX,76092-6452,"(817) 717-5103",https://www.impressionhomes.net/,,,
TX,TARRANT,21-0031,"Single Family Homes",12/3/2020,,,2261,"6809 MCCLELLAND DR","NORTH RICHLAND HILLS",TX,76182,,,CONTRACTOR,,,,,,,,,,,"IMPRESSION HOMES",,,,,"IMPRESSION HOMES","430 N CARROLL AVE # 150",SOUTHLAKE,TX,76092-6452,"(817) 717-5103",https://www.impressionhomes.net/,,,
TX,TARRANT,21-0032,"Single Family Homes",12/3/2020,,,2261,"6801 MCCLELLAND DR","NORTH RICHLAND HILLS",TX,76182,,,CONTRACTOR,,,,,,,,,,,"IMPRESSION HOMES",,,,,"IMPRESSION HOMES","430 N CARROLL AVE # 150",SOUTHLAKE,TX,76092-6452,"(817) 717-5103",https://www.impressionhomes.net/,,,
TX,TARRANT,21-0033,"Single Family Homes",12/3/2020,,,1773,"6805 MCCLELLAND DR","NORTH RICHLAND HILLS",TX,76182,,,CONTRACTOR,,,,,,,,,,,"IMPRESSION HOMES",,,,,"IMPRESSION HOMES","430 N CARROLL AVE # 150",SOUTHLAKE,TX,76092-6452,"(817) 717-5103",https://www.impressionhomes.net/,,,
TX,TARRANT,21-0049,"Single Family Homes",12/3/2020,,,2261,"6844 MEADOW CREST DR","NORTH RICHLAND HILLS",TX,76182,,,CONTRACTOR,,,,,,,,,,,"IMPRESSION HOMES",,,,,"IMPRESSION HOMES","430 N CARROLL AVE # 150",SOUTHLAKE,TX,76092-6452,"(817) 717-5103",https://www.impressionhomes.net/,,,
TX,TARRANT,21-0052,"Single Family Homes",12/3/2020,,,1874,"6848 MEADOW CREST DR","NORTH RICHLAND HILLS",TX,76182,,,CONTRACTOR,,,,,,,,,,,"IMPRESSION HOMES",,,,,"IMPRESSION HOMES","430 N CARROLL AVE # 150",SOUTHLAKE,TX,76092-6452,"(817) 717-5103",https://www.impressionhomes.net/,,,
TX,TARRANT,21-0053,"Single Family Homes",12/16/2020,,,1773,"6852 MEADOW CREST DR","NORTH RICHLAND HILLS",TX,76182,,,CONTRACTOR,,,,,,,,,,,"IMPRESSION HOMES",,,,,"IMPRESSION HOMES","430 N CARROLL AVE # 150",SOUTHLAKE,TX,76092-6452,"(817) 717-5103",https://www.impressionhomes.net/,,,
TX,TARRANT,21-0057,"Single Family Homes",12/3/2020,,,1874,"6840 MEADOW CREST DR","NORTH RICHLAND HILLS",TX,76182,,,CONTRACTOR,,,,,,,,,,,"IMPRESSION HOMES",,,,,"IMPRESSION HOMES","430 N CARROLL AVE # 150",SOUTHLAKE,TX,76092-6452,"(817) 717-5103",https://www.impressionhomes.net/,,,
TX,TARRANT,21-0205,"Single Family Homes",12/16/2020,,,2158,"6588 IRON HORSE BLVD","NORTH RICHLAND HILLS",TX,76181,,,CONTRACTOR,,,,,,,,,,,"OUR COUNTRY HOMES",,,,,"OUR COUNTRY HOMES","700 W HARWOOD RD STE G2",HURST,TX,76054-3315,"(817) 281-3390",http://www.ourcountryhomes.com/,"(817) 796-1121","DUSTIN AUSTIN",
TX,TARRANT,21-0208,"Single Family Homes",12/3/2020,,,1922,"6592 IRON HORSE BLVD","NORTH RICHLAND HILLS",TX,76181,,,CONTRACTOR,,,,,,,,,,,"OUR COUNTRY HOMES",,,,,"OUR COUNTRY HOMES","700 W HARWOOD RD STE G2",HURST,TX,76054-3315,"(817) 281-3390",http://www.ourcountryhomes.com/,"(817) 796-1121","DUSTIN AUSTIN",
TX,TARRANT,21-0314,"Single Family Homes",12/16/2020,,,2708,"8309 SAYERS LN","NORTH RICHLAND HILLS",TX,76181,,,CONTRACTOR,,,,,,,,,,,"GRAHAM HART HOME BUILDER",,,,,"GRAHAM HART HOME BUILDER","1105 GLADE RD STE 100",COLLEYVILLE,TX,76034-4228,"(214) 626-8590",http://www.grahamhart.com/,,,info@grahamhart.com
TX,TARRANT,21-0454,"Single Family Homes",12/3/2020,,,2114,"9300 WESTERN RIDGE TR","NORTH RICHLAND HILLS",TX,76181,,,CONTRACTOR,,,,,,,,,,,"ASHTON WOODS HOMES",,,,,"ASHTON WOODS HOMES","1221 N INTERSTATE 35E STE 170",CARROLLTON,TX,75006-3806,"(972) 428-5404",,,,
TX,TARRANT,"2020 122414 000 00 CP","Warehouse & Manufacturing",12/28/2020,Renovation,30000,,"1501 NOLAN RYAN EXPRESSWAY",ARLINGTON,TX,76011,,,CONTRACTOR,,,,,,,,,,,"PHOENIX GC SERVICES",,,,,"PHOENIX GC SERVICES","17103 PRESTON RD STE 130",DALLAS,TX,75248,"(469) 200-1440",,,,
TX,TARRANT,"2020 118715 000 00 CP","Warehouse & Manufacturing",12/30/2020,"Finish Out",47265,,"2247 E DIVISION ST",ARLINGTON,TX,76011,,,CONTRACTOR,,,,,,,,,,,"SUNRISE COMMERCIAL SERVICES",,,,,"SUNRISE COMMERCIAL SERVICES","1517 W CARRIER PKWY STE 104","GRAND PRAIRIE",TX,75050-1251,"(214) 677-0454",,,,
TX,TARRANT,"2020 103054 000 00 CP","Warehouse & Manufacturing",12/3/2020,,1000000,10542,"187 S WATSON ROAD",ARLINGTON,TX,76010,,,CONTRACTOR,,,,,,,,,,,"TRIAD RETAIL CONSTRUCTION",,,,,"TRIAD RETAIL CONSTRUCTION","10509 ROYAL SPRINGS DR",DALLAS,TX,75229-5247,"(214) 351-9213",,,,
TX,TARRANT,"2020 102865 000 00 CP","Warehouse & Manufacturing",12/3/2020,,5000000,80000,"181 S WATSON ROAD",ARLINGTON,TX,76010,,,CONTRACTOR,,,,,,,,,,,"TRIAD RETAIL CONSTRUCTION",,,,,"TRIAD RETAIL CONSTRUCTION","10509 ROYAL SPRINGS DR",DALLAS,TX,75229-5247,"(214) 351-9213",,,,
TX,TARRANT,"2020 099252 000 00 CP","Warehouse & Manufacturing",12/8/2020,Renovation,900000,15737,"1200 GAMBREL ROAD",ARLINGTON,TX,76014,,,CONTRACTOR,,,,,,,,,,,"ELLECO CONSTRUCTION",,,,,"ELLECO CONSTRUCTION","201 W COMMERCE ST STE 101",DALLAS,TX,75208-1916,"(214) 760-9241",,,,
TX,TARRANT,"IA - 20 - 4319","Warehouse & Manufacturing",12/17/2020,Renovation,1022894,65975,"801 INDUSTRIAL BLVD # 200",GRAPEVINE,TX,76051,,,CONTRACTOR,,,,,,,,,,,"TURNER & JACOBS CONSTRUCTION",,,,,"TURNER & JACOBS CONSTRUCTION","11167 ABLES LN",DALLAS,TX,75229-4532,"(972) 488-8868",,,"RAY TURNER",
TX,TARRANT,"20 - 05140","Warehouse & Manufacturing",12/11/2020,,64267,,"1441 HERITAGE PKWY",MANSFIELD,TX,76063,MCQUEEN,1,CONTRACTOR,,,,,,,,,,,"BINK'S CONSTRUCTION",,,,,"BINK'S CONSTRUCTION","3055 MEDLIN DR ",ARLINGTON,TX,76015-2369,"(817) 467-7809",http://www.binksconstruction.com/,"(817) 468-3752","LESLIE BINKLEY",airmail@binksconstruction.com
TX,TARRANT,"20 - 00170","Warehouse & Manufacturing",12/3/2020,,4100000,,"2201 HERITAGE PKWY",MANSFIELD,TX,76063,,,CONTRACTOR,,,,,,,,,,,"BINK'S CONSTRUCTION",,,,,"BINK'S CONSTRUCTION","3055 MEDLIN DR ",ARLINGTON,TX,76015-2369,"(817) 467-7809",http://www.binksconstruction.com/,"(817) 468-3752","LESLIE BINKLEY",airmail@binksconstruction.com
