state,county,permno,ptype,pdate,pdescription,jvalue,jsqfeet,jaddr,jcity,jstate,jzip,jsubdiv,jlotno,aname,aaddr,acity,astate,azip,aphone,atype,aurl,afax,aprimarycontact,aemail,bldcode,units,bldgs,ctype,legal,contractor,caddress,ccity,cstate,czip,cphone,curl,cfax,cprimarycontact,cemail
TX,DENTON,,"Auto Sales & Services",6/22/2021,,,3950,"8120 GASOLINE ALLEY",NORTHLAKE,TX,76262,,,"KATIE'S CAR WASH","8120 GASOLINE ALLEY",NORTHLAKE,TX,76262,,Owner,,,,,OWNER,,,,,OWNER,,,,,,,,,
TX,DALLAS,21-2583,"Educational Institution",6/29/2021,,375000,,"1600 N COIT RD",RICHARDSON,TX,75081,,,CONTRACTOR,,,,,,,,,,,"HILL & WILKINSON GENERAL CONTRACTORS",,,,,"HILL & WILKINSON GENERAL CONTRACTORS","800 KLEIN RD STE 100",PLANO,TX,75074-3717,"(512) 287-6295",,,,
TX,TARRANT,CADD21-0001,"Hospital & Other Medical",6/7/2021,Renovation,650000,4828,"771 E SOUTHLAKE BLVD",SOUTHLAKE,TX,76092,,,CONTRACTOR,,,,,,,,,,,"WARD ARCHITECTURE",,,,,"WARD ARCHITECTURE","5004 THOMPSON TERRACE - SUITE 107",COLLEYVILLE,TX,76034,"(817) 281-5600",,,,
TX,TARRANT,COMR21-0037,"Hospital & Other Medical",6/17/2021,Renovation,250000,2928,"480 W SOUTHLAKE BLVD # 111",SOUTHLAKE,TX,76092,,,CONTRACTOR,,,,,,,,,,,"JF JONES",,,,,"JF JONES","4835 LYNDON B JOHNSON FWY STE 400",DALLAS,TX,75244-6057,"(972) 701-0701",http://www.jfjonesinc.com/,"(972) 701-0709",,jeff@jfjonesinc.com
TX,TARRANT,COMR21-0049,"Hospital & Other Medical",6/10/2021,Renovation,458660,4890,"245 W SH 114 # 330",SOUTHLAKE,TX,76092,,,CONTRACTOR,,,,,,,,,,,IDGROUP,,,,,IDGROUP,"2641 IRVING BLVD",DALLAS,TX,75207-5915,"(214) 638-6800",http://www.idgroupdallas.com/,"(214) 689-0301","THERESA JOHNSON",tjohnson@idgroupdallas.com
TX,DALLAS,21-1422,"Hospital & Other Medical",6/30/2021,,50000,1000,"1112 RIDGEWAY CIR",RICHARDSON,TX,75081,,,CONTRACTOR,,,,,,,,,,,"INCEPTIVE GROUP",,,,,"INCEPTIVE GROUP","1410 K AVENUE",PLANO,TX,75074,"(972) 974-6699",,,,
TX,DALLAS,21-1566,"Hospital & Other Medical",6/9/2021,,36100,,"719 PARKVIEW CIR",RICHARDSON,TX,75081,,,CONTRACTOR,,,,,,,,,,,"MK GENERAL CONTRACTORS",,,,,"MK GENERAL CONTRACTORS","3501 N JUPITER RD",RICHARDSON,TX,75082,"(214) 760-3563",,,,
TX,DENTON,,"Hospital & Other Medical",6/21/2021,,,98857,"4100 DALE EARNHARDT WAY",NORTHLAKE,TX,76262,,,"HILLWOOD PROPERTIES","4100 DALE EARNHARDT WAY, SUITE 200",NORTHLAKE,TX,76262,,Owner,,,,,"LAYTON CONSTRUCTION",,,,,"LAYTON CONSTRUCTION","1602 ROCK PRAIRIE RD","COLLEGE STATION",TX,77845-8306,"(979) 694-7216",,,,
TX,DENTON,2104-0044,"Multi Family Apartments & Condos",6/8/2021,,337606,,"4917 BLAYNES VIEW RD","THE COLONY",TX,75056,,,CONTRACTOR,,,,,,,,,,,"P CUSTOM HOMES",,,,,"P CUSTOM HOMES","1680 PRINCE WILLIAM LN",FRISCO,TX,75034-6934,"(214) 837-2792",http://www.pcustomhomes.com/,,,
TX,DENTON,2104-0041,"Multi Family Apartments & Condos",6/8/2021,,337606,,"4929 BLAYNES VIEW RD","THE COLONY",TX,75056,,,CONTRACTOR,,,,,,,,,,,"P CUSTOM HOMES",,,,,"P CUSTOM HOMES","1680 PRINCE WILLIAM LN",FRISCO,TX,75034-6934,"(214) 837-2792",http://www.pcustomhomes.com/,,,
TX,DENTON,2104-0042,"Multi Family Apartments & Condos",6/8/2021,,337606,,"4925 BLAYNES VIEW RD","THE COLONY",TX,75056,,,CONTRACTOR,,,,,,,,,,,"P CUSTOM HOMES",,,,,"P CUSTOM HOMES","1680 PRINCE WILLIAM LN",FRISCO,TX,75034-6934,"(214) 837-2792",http://www.pcustomhomes.com/,,,
TX,DENTON,2104-0045,"Multi Family Apartments & Condos",6/8/2021,,337606,,"4913 BLAYNES VIEW RD","THE COLONY",TX,75056,,,CONTRACTOR,,,,,,,,,,,"P CUSTOM HOMES",,,,,"P CUSTOM HOMES","1680 PRINCE WILLIAM LN",FRISCO,TX,75034-6934,"(214) 837-2792",http://www.pcustomhomes.com/,,,
TX,DENTON,2104-0046,"Multi Family Apartments & Condos",6/8/2021,,337606,,"4909 BLAYNES VIEW RD","THE COLONY",TX,75056,,,CONTRACTOR,,,,,,,,,,,"P CUSTOM HOMES",,,,,"P CUSTOM HOMES","1680 PRINCE WILLIAM LN",FRISCO,TX,75034-6934,"(214) 837-2792",http://www.pcustomhomes.com/,,,
TX,DENTON,2104-0047,"Multi Family Apartments & Condos",6/8/2021,,337606,,"4905 BLAYNES VIEW RD","THE COLONY",TX,75056,,,CONTRACTOR,,,,,,,,,,,"P CUSTOM HOMES",,,,,"P CUSTOM HOMES","1680 PRINCE WILLIAM LN",FRISCO,TX,75034-6934,"(214) 837-2792",http://www.pcustomhomes.com/,,,
TX,DENTON,2104-0048,"Multi Family Apartments & Condos",6/8/2021,,337606,,"4901 BLAYNES VIEW RD","THE COLONY",TX,75056,,,CONTRACTOR,,,,,,,,,,,"P CUSTOM HOMES",,,,,"P CUSTOM HOMES","1680 PRINCE WILLIAM LN",FRISCO,TX,75034-6934,"(214) 837-2792",http://www.pcustomhomes.com/,,,
TX,DENTON,2104-0043,"Multi Family Apartments & Condos",6/8/2021,,337606,,"4921 BLAYNES VIEW RD","THE COLONY",TX,75056,,,CONTRACTOR,,,,,,,,,,,"P CUSTOM HOMES",,,,,"P CUSTOM HOMES","1680 PRINCE WILLIAM LN",FRISCO,TX,75034-6934,"(214) 837-2792",http://www.pcustomhomes.com/,,,
TX,COLLIN,"NMF - 21 - 3781","Multi Family Apartments & Condos",6/28/2021,,,32586,"4400 PRAIRIE CROSSING BLDG 1",CELINA,TX,75078,,,CONTRACTOR,,,,,,,,,,,"ALLIANCE RESIDENTIAL COMPANY",,,,,"ALLIANCE RESIDENTIAL COMPANY","820 GESSNER RD STE 1000",HOUSTON,TX,77024-4470,"(713) 599-0280",http://www.allresco.com/,,,
TX,COLLIN,"NMF - 21 - 3784","Multi Family Apartments & Condos",6/28/2021,,,32586,"4400 PRAIRIE CROSSING BLDG 2",CELINA,TX,75078,,,CONTRACTOR,,,,,,,,,,,"ALLIANCE RESIDENTIAL COMPANY",,,,,"ALLIANCE RESIDENTIAL COMPANY","820 GESSNER RD STE 1000",HOUSTON,TX,77024-4470,"(713) 599-0280",http://www.allresco.com/,,,
TX,COLLIN,"NMF - 21 - 3785","Multi Family Apartments & Condos",6/28/2021,,,45322,"4400 PRAIRIE CROSSING BLDG 3",CELINA,TX,75078,,,CONTRACTOR,,,,,,,,,,,"ALLIANCE RESIDENTIAL COMPANY",,,,,"ALLIANCE RESIDENTIAL COMPANY","820 GESSNER RD STE 1000",HOUSTON,TX,77024-4470,"(713) 599-0280",http://www.allresco.com/,,,
TX,COLLIN,"NMF - 21 - 3786","Multi Family Apartments & Condos",6/28/2021,,,32586,"4400 PRAIRIE CROSSING BLDG 4",CELINA,TX,75078,,,CONTRACTOR,,,,,,,,,,,"ALLIANCE RESIDENTIAL COMPANY",,,,,"ALLIANCE RESIDENTIAL COMPANY","820 GESSNER RD STE 1000",HOUSTON,TX,77024-4470,"(713) 599-0280",http://www.allresco.com/,,,
TX,COLLIN,"NMF - 21 - 3787","Multi Family Apartments & Condos",6/28/2021,,,32586,"4400 PRAIRIE CROSSING BLDG 5",CELINA,TX,75078,,,CONTRACTOR,,,,,,,,,,,"ALLIANCE RESIDENTIAL COMPANY",,,,,"ALLIANCE RESIDENTIAL COMPANY","820 GESSNER RD STE 1000",HOUSTON,TX,77024-4470,"(713) 599-0280",http://www.allresco.com/,,,
TX,COLLIN,"NMF - 21 - 3788","Multi Family Apartments & Condos",6/28/2021,,,32586,"4400 PRAIRIE CROSSING BLDG 6",CELINA,TX,75078,,,CONTRACTOR,,,,,,,,,,,"ALLIANCE RESIDENTIAL COMPANY",,,,,"ALLIANCE RESIDENTIAL COMPANY","820 GESSNER RD STE 1000",HOUSTON,TX,77024-4470,"(713) 599-0280",http://www.allresco.com/,,,
TX,COLLIN,"NMF - 21 - 3789","Multi Family Apartments & Condos",6/28/2021,,,32586,"4400 PRAIRIE CROSSING BLDG 7",CELINA,TX,75078,,,CONTRACTOR,,,,,,,,,,,"ALLIANCE RESIDENTIAL COMPANY",,,,,"ALLIANCE RESIDENTIAL COMPANY","820 GESSNER RD STE 1000",HOUSTON,TX,77024-4470,"(713) 599-0280",http://www.allresco.com/,,,
TX,COLLIN,"NMF - 21 - 3790","Multi Family Apartments & Condos",6/28/2021,,,45322,"4400 PRAIRIE CROSSING BLDG 8",CELINA,TX,75078,,,CONTRACTOR,,,,,,,,,,,"ALLIANCE RESIDENTIAL COMPANY",,,,,"ALLIANCE RESIDENTIAL COMPANY","820 GESSNER RD STE 1000",HOUSTON,TX,77024-4470,"(713) 599-0280",http://www.allresco.com/,,,
TX,COLLIN,"NMF - 21 - 3791","Multi Family Apartments & Condos",6/28/2021,,,32586,"4400 PRAIRIE CROSSING BLDG 9",CELINA,TX,75078,,,CONTRACTOR,,,,,,,,,,,"ALLIANCE RESIDENTIAL COMPANY",,,,,"ALLIANCE RESIDENTIAL COMPANY","820 GESSNER RD STE 1000",HOUSTON,TX,77024-4470,"(713) 599-0280",http://www.allresco.com/,,,
TX,COLLIN,"NMF - 21 - 3792","Multi Family Apartments & Condos",6/28/2021,,,32586,"4400 PRAIRIE CROSSING BLDG 10",CELINA,TX,75078,,,CONTRACTOR,,,,,,,,,,,"ALLIANCE RESIDENTIAL COMPANY",,,,,"ALLIANCE RESIDENTIAL COMPANY","820 GESSNER RD STE 1000",HOUSTON,TX,77024-4470,"(713) 599-0280",http://www.allresco.com/,,,
TX,DENTON,2020-6006,"Multi Family Apartments & Condos",6/14/2021,,10491718,98366,"1600 SUMMIT AVE BLDG 1",LEWISVILLE,TX,75077,,,CONTRACTOR,,,,,,,,,,,"JORDAN FOSTER CONSTRUCTION",,,,,"JORDAN FOSTER CONSTRUCTION","9639 GREENVILLE AVE",DALLAS,TX,75243-4118,"(915) 877-3333",http://www.cfjordan.com/busdev.html,"(214) 349-7910","JOE GOMEZ",jgomez@jordanfosterconstruction.com
TX,DENTON,2020-6007,"Multi Family Apartments & Condos",6/14/2021,,10491718,98366,"1600 SUMMIT AVE BLDG 2",LEWISVILLE,TX,75077,,,CONTRACTOR,,,,,,,,,,,"JORDAN FOSTER CONSTRUCTION",,,,,"JORDAN FOSTER CONSTRUCTION","9639 GREENVILLE AVE",DALLAS,TX,75243-4118,"(915) 877-3333",http://www.cfjordan.com/busdev.html,"(214) 349-7910","JOE GOMEZ",jgomez@jordanfosterconstruction.com
TX,DENTON,2020-6009,"Multi Family Apartments & Condos",6/15/2021,,10491718,98366,"1600 SUMMIT AVE BLDG 3",LEWISVILLE,TX,75077,,,CONTRACTOR,,,,,,,,,,,"JORDAN FOSTER CONSTRUCTION",,,,,"JORDAN FOSTER CONSTRUCTION","9639 GREENVILLE AVE",DALLAS,TX,75243-4118,"(915) 877-3333",http://www.cfjordan.com/busdev.html,"(214) 349-7910","JOE GOMEZ",jgomez@jordanfosterconstruction.com
TX,DALLAS,21-2598,"Multi Family Apartments & Condos",6/18/2021,,42500000,599660,"2323 PLAZA BLVD",RICHARDSON,TX,75081,,,CONTRACTOR,,,,,,,,,,,"PROVIDENT GENERAL CONTRACTORS LLC",,,,,"PROVIDENT GENERAL CONTRACTORS LLC","10210 N CENTRAL EXPY STE 212",DALLAS,TX,75231-3404,"(972) 385-4164",,,,
TX,ELLIS,001970-20-21,"Multi Family Renovations & Additions",6/3/2021,Renovation,,1825,"1554 HWY 77 HWY 1B",WAXAHACHIE,TX,75167,,,CONTRACTOR,,,,,,,,,,,"BRAVO HOMES",,,,,"BRAVO HOMES","617 SW 15TH ST","GRAND PRAIRIE",TX,75051-1418,"(817) 800-0446",,,,
TX,TARRANT,COMR21-0025,"Offices, R&D, & Professional",6/7/2021,Renovation,44000,2603,"601 E SOUTHLAKE BLVD # 500",SOUTHLAKE,TX,76092,,,CONTRACTOR,,,,,,,,,,,"DEVLEER CONSULTING SERVICES",,,,,"DEVLEER CONSULTING SERVICES","8420 KINGSTON LANE",FRISCO,TX,75036,"(972) 387-1200",,,,
TX,TARRANT,COMR21-0047,"Offices, R&D, & Professional",6/29/2021,Renovation,1700000,17193,"500 W DOVE RD",SOUTHLAKE,TX,76092,,,CONTRACTOR,,,,,,,,,,,"STRUCTURETONE SOUTHWEST",,,,,"STRUCTURETONE SOUTHWEST","3333 WELBORN ST STE 200",DALLAS,TX,75219-5141,"(214) 525-5147",,,"JOE CRIBBIN",joseph.cribbin@structuretone.com
TX,TARRANT,COMR21-0031,"Offices, R&D, & Professional",6/8/2021,Renovation,1191539,7274,"1540 E SOUTHLAKE BLVD",SOUTHLAKE,TX,76092,,,CONTRACTOR,,,,,,,,,,,"PACIFIC BUILDERS",,,,,"PACIFIC BUILDERS","7950 LEGACY DR STE 150",PLANO,TX,75024-4135,"(972) 866-8080",,,,
TX,TARRANT,COMR21-0045,"Offices, R&D, & Professional",6/18/2021,Renovation,538200,4288,"2225 W SOUTHLAKE BLVD # 459",SOUTHLAKE,TX,76092,,,CONTRACTOR,,,,,,,,,,,CESO,,,,,CESO,"3601 RIGBY RD",MIAMISBURG,OH,45342,"(937) 435-8584",https://www.cesoinc.com/,,"BENJAMIN C RIHA",
TX,TARRANT,COMR21-0057,"Offices, R&D, & Professional",6/8/2021,Renovation,225000,36972,"423 BANK ST # 140",SOUTHLAKE,TX,76092,,,CONTRACTOR,,,,,,,,,,,"VERITAS GENERAL CONTRACTORS",,,,,"VERITAS GENERAL CONTRACTORS","5402 HARBOR TOWN DR",DALLAS,TX,75287-7400,"(469) 878-0810",,,,
TX,DENTON,2105-0207,"Offices, R&D, & Professional",6/9/2021,"Finish Out",885720,,"7612 MAIN ST","THE COLONY",TX,75056,,,CONTRACTOR,,,,,,,,,,,"XS CONSTRUCTION",,,,,"XS CONSTRUCTION","8001 LYNDON B JOHNSON FWY STE 410",DALLAS,TX,75251-1443,"(214) 484-3641",http://xs-construction.com/,,,info@xs-construction.com
TX,ELLIS,"TFOP -21 - 1323","Offices, R&D, & Professional",6/1/2021,"Finish Out",400000,8225,"681 GEORGE HOPPER RD",MIDLOTHIAN,TX,76065,,,CONTRACTOR,,,,,,,,,,,"ACKER CONSTRUCTION",,,,,"ACKER CONSTRUCTION","130 CHIEFTAIN DR STE 103",WAXAHACHIE,TX,75165-1519,"(469) 383-5939",http://ackerbuilt.com,,,info@ackerbuilt.com
TX,DALLAS,21-721,"Offices, R&D, & Professional",6/8/2021,,760000,10140,"3309 MATRIX DR",RICHARDSON,TX,75081,,,CONTRACTOR,,,,,,,,,,,"NORTHWINDS CONSTRUCTION",,,,,"NORTHWINDS CONSTRUCTION","15400 VANTAGE PKWY W",HOUSTON,TX,77032-1924,"(713) 671-5300",http://www.northwindsconst.com/,"(713) 671-5340",,
TX,DALLAS,21-2699,"Offices, R&D, & Professional",6/28/2021,,65560,87852,"2930 TELECOM PKWY",RICHARDSON,TX,75081,,,CONTRACTOR,,,,,,,,,,,"RESOURCE COMMERCIAL",,,,,"RESOURCE COMMERCIAL","5323 SPRING VALLEY RD",DALLAS,TX,75254-2414,"(972) 980-0880",http://www.resource-commercial.com,"(972) 980-2442",,
TX,DALLAS,20-2780,"Offices, R&D, & Professional",6/1/2021,,960000,9200,"907 SECURITY ROW",RICHARDSON,TX,75081,,,CONTRACTOR,,,,,,,,,,,"FA PEINADO",,,,,"FA PEINADO","14800 LANDMARK BLVD STE 220",DALLAS,TX,75254-1434,"(214) 200-9140",,"(214) 200-9150","FRANK A TEDDY PEINADO",info@fapeinado.com
TX,DALLAS,21-2862,"Offices, R&D, & Professional",6/30/2021,,35000,2867,"740 E CAMPBELL RD",RICHARDSON,TX,75081,,,CONTRACTOR,,,,,,,,,,,"SHORT AND ASSOCIATES",,,,,"SHORT AND ASSOCIATES","1701 N GREENVILLE AVE STE 603",RICHARDSON,TX,75081-1846,"(972) 235-9200",,,,
TX,DALLAS,21-2112,"Offices, R&D, & Professional",6/4/2021,,1000000,4665,"400 S GREENVILLE AVE",RICHARDSON,TX,75081,,,CONTRACTOR,,,,,,,,,,,"CORE CONSTRUCTION",,,,,"CORE CONSTRUCTION","10625 N COUNTY RD",FRISCO,TX,75033-3827,"(972) 668-9340",http://www.coreconstruct.com/,"(972) 668-9351","TIM ERICKSON",
TX,DALLAS,21-731,"Offices, R&D, & Professional",6/17/2021,,48000,9507,"269 RENNER PKWY",RICHARDSON,TX,75081,,,CONTRACTOR,,,,,,,,,,,"TAURUS COMMERCIAL",,,,,"TAURUS COMMERCIAL","12200 FORD RD STE 330",DALLAS,TX,75234-8104,"(972) 243-5444",http://www.tauruscommercial.com,"(972) 243-5449",,info@tauruscommercial.com
TX,DALLAS,21-556,"Offices, R&D, & Professional",6/15/2021,,3719000,10500,"400 INTERNATIONAL PKWY",RICHARDSON,TX,75081,,,CONTRACTOR,,,,,,,,,,,"HUTCHERSON CONSTRUCTION",,,,,"HUTCHERSON CONSTRUCTION","1020 HARRISON AVE",ARLINGTON,TX,76011-7359,"(817) 226-1818",http://www.hutchersonconstruction.com/,"(817) 548-1111","J HUTCHERSON",jh@hutchersonconstruction.com
TX,DALLAS,21-2384,"Offices, R&D, & Professional",6/11/2021,,170000,2542,"3610 SHIRE BLVD",RICHARDSON,TX,75081,,,CONTRACTOR,,,,,,,,,,,"ESA CONSTRUCTION",,,,,"ESA CONSTRUCTION","17806 DAVENPORT RD STE 107",DALLAS,TX,75252-5849,"(972) 250-1170",,"(972) 250-0905",,info@esa-construction.com
TX,DALLAS,21-568,"Offices, R&D, & Professional",6/9/2021,,1500000,49665,"1500 INTERNATIONAL PKWY",RICHARDSON,TX,75081,,,CONTRACTOR,,,,,,,,,,,"SCOTT & REID GENERAL",,,,,"SCOTT & REID GENERAL","17300 DALLAS PKWY STE 2000",DALLAS,TX,75248-1192,"(469) 374-3400",http://www.scottandreid.com,"(469) 374-0060","PHIL VANDERHILL",email@scottandreid.com
TX,DALLAS,21-627,"Offices, R&D, & Professional",6/25/2021,,750000,30611,"2375 N BLD A GLENVILLE DR",RICHARDSON,TX,75081,,,CONTRACTOR,,,,,,,,,,,"SCOTT & REID GENERAL",,,,,"SCOTT & REID GENERAL","17300 DALLAS PKWY STE 2000",DALLAS,TX,75248-1192,"(469) 374-3400",http://www.scottandreid.com,"(469) 374-0060","PHIL VANDERHILL",email@scottandreid.com
TX,DALLAS,21-670,"Offices, R&D, & Professional",6/25/2021,,1200000,8164,"1150 STATE ST",RICHARDSON,TX,75081,,,CONTRACTOR,,,,,,,,,,,"SCOTT & REID GENERAL",,,,,"SCOTT & REID GENERAL","17300 DALLAS PKWY STE 2000",DALLAS,TX,75248-1192,"(469) 374-3400",http://www.scottandreid.com,"(469) 374-0060","PHIL VANDERHILL",email@scottandreid.com
TX,DALLAS,21-2341,"Offices, R&D, & Professional",6/24/2021,,30000,1248,"891 W B ARAPAHO RD",RICHARDSON,TX,75081,,,CONTRACTOR,,,,,,,,,,,"YATES CUSTOM BUILDERS",,,,,"YATES CUSTOM BUILDERS","2801 COUNTY ROAD 1102",GRANDVIEW,TX,76050-4010,"(817) 373-2359",,,,
TX,DALLAS,21-1901,"Offices, R&D, & Professional",6/9/2021,,400000,15344,"2280 CAMPBELL CREEK BLVD",RICHARDSON,TX,75081,,,CONTRACTOR,,,,,,,,,,,"TRI-TEX CONSTRUCTION ",,,,,"TRI-TEX CONSTRUCTION ","12002 FORESTGATE DR",DALLAS,TX,75243-5411,"(972) 644-1410",,,,
TX,DALLAS,21-1218,"Offices, R&D, & Professional",6/9/2021,,197000,13502,"3310 MATRIX DR",RICHARDSON,TX,75081,,,CONTRACTOR,,,,,,,,,,,"HAMM'S CONSTRUCTION",,,,,"HAMM'S CONSTRUCTION","2421 LACY LANE",CARROLLTON,TX,75006,"(972) 406-8178",http://www.hammsconstruction.com/,"(972) 241-4045","TIM HAMM",tim@hammsconstruction.com
TX,DALLAS,21-1822,"Offices, R&D, & Professional",6/25/2021,,207000,3580,"2040 E PRESIDENT GEORGE BUSH H",RICHARDSON,TX,75081,,,CONTRACTOR,,,,,,,,,,,"GORDON HIGHLANDER",,,,,"GORDON HIGHLANDER","4450 SIGMA RD STE 200",DALLAS,TX,75244-4518,"(214) 553-6170",http://www.gordonhighlander.com/,,"GREG GORDON",
TX,DALLAS,20-3090,"Offices, R&D, & Professional",6/1/2021,,320000,7000,"2270 LAKESIDE BLVD",RICHARDSON,TX,75081,,,CONTRACTOR,,,,,,,,,,,"HC BECK",,,,,"HC BECK","1807 ROSS AVE STE 500",DALLAS,TX,75201-8006,"(214) 303-6416",,,,
TX,DALLAS,21-1920,"Offices, R&D, & Professional",6/16/2021,,875000,9760,"2140 LAKE PARK BLVD",RICHARDSON,TX,75081,,,CONTRACTOR,,,,,,,,,,,"ARCO/MURRAY DESIGN BUILD",,,,,"ARCO/MURRAY DESIGN BUILD","4849 GREENVILLE AVE",DALLAS,TX,75206-4130,"(469) 999-6579",http://www.arcomurraydb.com/,,,
TX,DALLAS,21-1699,"Offices, R&D, & Professional",6/3/2021,,48643,18131,"650 INTERNATIONAL PKWY",RICHARDSON,TX,75081,,,CONTRACTOR,,,,,,,,,,,"COMSERV CONSTRUCTION",,,,,"COMSERV CONSTRUCTION","12001 N CENTRAL EXPY STE 875",DALLAS,TX,75243-3860,"(214) 546-4359",,,,
TX,DALLAS,21-2210,"Offices, R&D, & Professional",6/22/2021,,400000,42429,"2920 TELECOM PKWY",RICHARDSON,TX,75081,,,CONTRACTOR,,,,,,,,,,,"RESOURCE COMMERCIAL",,,,,"RESOURCE COMMERCIAL","5220 SPRING VALLEY RD STE 615",DALLAS,TX,75254-2416,"(972) 980-0880",,,,
TX,ROCKWALL,"21- 000599","Offices, R&D, & Professional",6/9/2021,,805000,9825,"2644 SONNIER CIR","ROYSE CITY",TX,75189,,,CONTRACTOR,,,,,,,,,,,HINES,,,,,HINES,"2800 POST OAK BLVD",HOUSTON,TX,77056-6100,"(713) 237-5645",https://www.hines.com,,,
TX,DENTON,,"Offices, R&D, & Professional",6/8/2021,,,1877,"101 PLAZA PLACE, SUITE 300",NORTHLAKE,TX,76226,,,"OFFICE EQUITY SOLUTIONS","101 PLAZA PLACE, SUITE 300",NORTHLAKE,TX,76226,,Owner,,,,,"RIVERWOOD BUILDING",,,,,"RIVERWOOD BUILDING","427 ELECTRA DR",HOUSTON,TX,77024-4710,"(281) 493-9389",https://www.riverwoodbuildingcompany.com,,,
TX,ELLIS,002376-2021,"Other Commercial",6/23/2021,,,6000,"1200 SYCAMORE ST",WAXAHACHIE,TX,75165,,,"JOSEPH HUNEKE","1200 SYCAMORE ST",WAXAHACHIE,TX,75165,,Owner,,,,,OWNER,,,,,OWNER,,,,,,,,,
TX,DENTON,,"Other Commercial",6/8/2021,,,1444,"100 PLAZA PLACE",NORTHLAKE,TX,76226,,,OES,"100 PLAZA PLACE",NORTHLAKE,TX,76226,,Owner,,,,,"RIVERWOOD BUILDING",,,,,"RIVERWOOD BUILDING","427 ELECTRA DR",HOUSTON,TX,77024-4710,"(281) 493-9389",https://www.riverwoodbuildingcompany.com,,,
TX,COLLIN,210786,"Other Residential",6/23/2021,"Acc Struct",40000,280,"935 BLUE JAY DR",MURPHY,TX,75094,,,"NANDU & SONAL PATEL","935 BLUE JAY DR",MURPHY,TX,75094,,Owner,,,,,"LONGACRE CONSTRUCTION",,,,,"LONGACRE CONSTRUCTION","411 HARN DR",LEWISVILLE,TX,75057-3015,"(972) 436-6200",http://www.longacreconstruction.com/,,"DANIEL LONGACRE",dan@longacreconstruction.com
TX,DENTON,,"Other Residential",6/14/2021,,,307,"1116 REDBRICK LN",NORTHLAKE,TX,76247,,,"EDDIE & DONNA KIRKWOOD","1116 REDBRICK LN",NORTHLAKE,TX,76247,,Owner,,,,,OWNER,,,,,OWNER,,,,,,,,,
TX,DENTON,,"Residential Garages & Carports",6/8/2021,,,252,"3309 BRIDGEGATE AVE",NORTHLAKE,TX,76247,,,"WALTER & CHRISTINA WETTSTEIN","3309 BRIDGEGATE AVE",NORTHLAKE,TX,76247,,Owner,,,,,"BMR POOL & PATIO",,,,,"BMR POOL & PATIO","1706 JUSTIN RD",LEWISVILLE,TX,75077-2131,"(972) 221-3959",http://www.bmrpoolandpatio.com/,"(972) 317-3360",,sales@bmrpoolandpatio.com
TX,ELLIS,"RALT - 21 - 1521","Residential Renovations & Additions",6/22/2021,Renovation,,862,"433 BROOK MEADOW DR",MIDLOTHIAN,TX,76065,,,"RODNEY & GAYLA JOHNSON","433 BROOK MEADOW DR",MIDLOTHIAN,TX,76065,,Owner,,,,,"SUNRUN INSTALLATION SERVICES",,,,,"SUNRUN INSTALLATION SERVICES","12560 REED RD","SUGAR LAND",TX,77478-3379,"(805) 235-2463",,,,
TX,ELLIS,"RALT - 21 - 1544","Residential Renovations & Additions",6/24/2021,Renovation,,1685,"302 N 3RD ST",MIDLOTHIAN,TX,76065,,,"BRENDA CONLEY","302 N 3RD ST",MIDLOTHIAN,TX,76065,,Owner,,,,,"TITAN SOLAR POWER",,,,,"TITAN SOLAR POWER","525 W BASELINE RD",MESA,AZ,85210-6013,"(855) 729-7652",https://titansolarpower.com/,,,info@titansolarpower.com
TX,ELLIS,"RALT - 21 - 1584","Residential Renovations & Additions",6/29/2021,Renovation,,694,"637 RUSTIC TRL",MIDLOTHIAN,TX,76065,,,"YOLANDA TURNER","637 RUSTIC TRL",MIDLOTHIAN,TX,76065,,Owner,,,,,"PURE ENERGY",,,,,"PURE ENERGY","18847 REDLAND RD. SUITE 100","SAN ANTONIO",TX,78259,"(833) 937-7873",http://www.pure.solar/,,,info@pure.solar
TX,ELLIS,"RALT - 21 - 1585","Residential Renovations & Additions",6/29/2021,Renovation,,790,"2401 TURNING LEAF LN",MIDLOTHIAN,TX,76065,,,CONTRACTOR,,,,,,,,,,,"PURE ENERGY",,,,,"PURE ENERGY","18847 REDLAND RD. SUITE 100","SAN ANTONIO",TX,78259,"(833) 937-7873",http://www.pure.solar/,,,info@pure.solar
TX,ELLIS,"RALT -21 - 1595","Residential Renovations & Additions",6/30/2021,Renovation,,509,"2401 MOON DANCE LN",MIDLOTHIAN,TX,76065,,,CONTRACTOR,,,,,,,,,,,"PURE ENERGY",,,,,"PURE ENERGY","18847 REDLAND RD. SUITE 100","SAN ANTONIO",TX,78259,"(833) 937-7873",http://www.pure.solar/,,,info@pure.solar
TX,ELLIS,"RALT - 21 - 1358","Residential Renovations & Additions",6/3/2021,Renovation,,731,"433 SHARI DR",MIDLOTHIAN,TX,76065,,,CONTRACTOR,,,,,,,,,,,"PURE ENERGY",,,,,"PURE ENERGY","18847 REDLAND RD. SUITE 100","SAN ANTONIO",TX,78259,"(833) 937-7873",http://www.pure.solar/,,,info@pure.solar
TX,COLLIN,"BLDRM - 21 - 3581","Residential Renovations & Additions",6/28/2021,Renovation,,2384,"319 CAMILLE CROSSING",CELINA,TX,75009,"THE HOMESTEAD AT OWNSBY FARMS",9,"CHENHUA & CHEN FU","319 CAMILLE CROSSING",CELINA,TX,75009,,Owner,,,,,"DC CONTRACTORS",,,,,"DC CONTRACTORS","6101 LONG PRAIRIE RD # 150-744","FLOWER MOUND",TX,75028-6221,"(940) 320-9520",,,,
TX,DALLAS,21-646,"Residential Renovations & Additions",6/2/2021,Renovations,45000,,"533 SHIRLEY CT",RICHARDSON,TX,75081,,,"MATTHEW EVERETT","2931 RIDGE RD STE 101",ROCKWALL,TX,75032,"(972) 689-0465",Applicant,,,,,OWNER,,,,,OWNER,,,,,,,,,
TX,DALLAS,21-841,"Residential Renovations & Additions",6/11/2021,Renovations,100000,1295,"2907 MADISON CT",RICHARDSON,TX,75081,,,"TORRES LUIS E","2907 MADISON CT",RICHARDSON,TX,75082,,Owner,,,,,OWNER,,,,,OWNER,,,,,,,,,
TX,DALLAS,21-1993,"Residential Renovations & Additions",6/9/2021,Renovations,40000,1468,"600 ROYAL CREST DR",RICHARDSON,TX,75081,,,"CHOJNACKI DEVOUS","600 ROYAL CREST DR",RICHARDSON,TX,75081,,Owner,,,,,"ALDEN SHORT",,,,,"ALDEN SHORT","4316 ELM ST",DALLAS,TX,75226-1133,"(214) 824-6885",,,,
TX,DALLAS,21-1994,"Residential Renovations & Additions",6/9/2021,Renovations,40000,1468,"602 ROYAL CREST DR",RICHARDSON,TX,75081,,,CONTRACTOR,,,,,,,,,,,"ALDEN SHORT",,,,,"ALDEN SHORT","4316 ELM ST",DALLAS,TX,75226-1133,"(214) 824-6885",,,,
TX,DALLAS,21-1691,"Residential Renovations & Additions",6/1/2021,Renovations,300000,1083,"2417 W PRAIRIE CREEK DR",RICHARDSON,TX,75081,,,"MICHAEL & BETH HOWARD","2417 W PRAIRIE CREEK DR",RICHARDSON,TX,75081,,Owner,,,,,"HALLAM CONSTRUCTION",,,,,"HALLAM CONSTRUCTION","233 TOLER DR",MESQUITE,TX,75149-5864,"(469) 855-3326",,"(972) 285-7934",,
TX,DALLAS,21-2277,"Residential Renovations & Additions",6/21/2021,Renovations,300000,3132,"1217 MOHAWK TRL",RICHARDSON,TX,75081,,,"THOMAS CALVERT","1217 MOHAWK TRL",RICHARDSON,TX,75081,,Owner,,,,,"ULRICH CONSTRUCTION COMPANY",,,,,"ULRICH CONSTRUCTION COMPANY","2801 LAWING LN STE C",ROWLETT,TX,75088-1301,"(214) 607-1482",,,,
TX,DALLAS,21-2287,"Residential Renovations & Additions",6/9/2021,Renovations,340000,2086,"1306 COMANCHE DR",RICHARDSON,TX,75081,,,"GABRIEL & MICHELLE STAGNER","1306 COMANCHE DR",RICHARDSON,TX,75081,,Owner,,,,,"LENDVAY HOMES",,,,,"LENDVAY HOMES","PO BOX 2084",ADDISON,TX,75001-2084,"(214) 770-6466",,,,
TX,DALLAS,20-6043,"Residential Renovations & Additions",6/25/2021,Renovations,175000,,"409 ARBORCREST DR",RICHARDSON,TX,75081,,,"DUSTIN & KATIE DARAKHSHAN","409 ARBORCREST DR",RICHARDSON,TX,75081,,Owner,,,,,"CONSTRUCTURE SERVICES",,,,,"CONSTRUCTURE SERVICES","4848 LEMMON AVE STE 100 # 402",DALLAS,TX,75219-1401,"(021) 452-2696",,,"Kevin Dillingham",
TX,DALLAS,21-651,"Residential Renovations & Additions",6/16/2021,Renovations,90000,1100,"921 E BERKELEY DR",RICHARDSON,TX,75081,,,"WILLIAM WILLIAMS","921 E BERKELEY DR",RICHARDSON,TX,75081,,Owner,,,,,"MASTERS TOUCH ROOFING & REMODELING",,,,,"MASTERS TOUCH ROOFING & REMODELING","2123 GREEN OAKS CIR","ROUND ROCK",TX,78665-3508,"(512) 264-4327",http://masterstouchroofing.com,,,
TX,DALLAS,20-3894,"Residential Renovations & Additions",6/7/2021,Renovations,133880,1382,"835 WESTWOOD DR",RICHARDSON,TX,75081,,,"SCOTT & SHANNON SMITH","835 WESTWOOD DR",RICHARDSON,TX,75081,,Owner,,,,,"ZIMMERMAN CARPENTRY",,,,,"ZIMMERMAN CARPENTRY","800 LORRIE DR",RICHARDSON,TX,75080-4514,"(972) 954-4726",,,,
TX,DALLAS,21-1017,"Residential Renovations & Additions",6/30/2021,Renovations,50000,,"2102 SCARLET OAK DR",RICHARDSON,TX,75081,,,"CHRISTOPHER LAVIN","2102 SCARLET OAK DR",RICHARDSON,TX,75081,,Owner,,,,,"ORNATA RESIDENTIAL SERVICES",,,,,"ORNATA RESIDENTIAL SERVICES","6734 SANTA MARIA LN",DALLAS,TX,75214-2844,"(972) 974-7887",,,,
TX,DALLAS,21-2018,"Residential Renovations & Additions",6/1/2021,Renovations,46000,2000,"419 FALL CREEK DR",RICHARDSON,TX,75081,,,"MARTIN CURRY","419 FALL CREEK DR",RICHARDSON,TX,75081,,Owner,,,,,"JM RECONSTRUCTION SERVICES LLC",,,,,"JM RECONSTRUCTION SERVICES LLC","30 LUCY LN",WYLIE,TX,75098-7216,"(214) 289-7985",,,,
TX,DALLAS,21-1653,"Residential Renovations & Additions",6/11/2021,Renovations,279000,3096,"2926 WHITEMARSH CIR",RICHARDSON,TX,75081,,,CONTRACTOR,,,,,,,,,,,"LAKELAND CUSTOM HOMES",,,,,"LAKELAND CUSTOM HOMES","752 N MAIN ST # 1513",MANSFIELD,TX,76063-3298,"(972) 679-6130",http://lakelandcustomhomes.com/,,,
TX,DALLAS,21-469,"Residential Renovations & Additions",6/29/2021,Renovations,102000,1600,"1236 MOHAWK TRL",RICHARDSON,TX,75081,,,"NELSON WILSON","1236 MOHAWK TRL",RICHARDSON,TX,75081,,Owner,,,,,"5E HOMES",,,,,"5E HOMES","101 S COIT RD STE 36300",RICHARDSON,TX,75080-5743,"(469) 209-5071",,,,
TX,DALLAS,21-1442,"Residential Renovations & Additions",6/2/2021,Renovations,100000,2084,"1323 CHEYENNE DR",RICHARDSON,TX,75081,,,"EVALYN HAYNES","1323 CHEYENNE DR",RICHARDSON,TX,75081,,Owner,,,,,"J BENNETT HOMES",,,,,"J BENNETT HOMES","1120 GRASSMERE DR",RICHARDSON,TX,75080-2909,"(214) 680-9311",,,,
TX,DALLAS,21-315,"Residential Renovations & Additions",6/9/2021,Renovations,60000,2092,"805 SCOTTSDALE DR",RICHARDSON,TX,75081,,,CONTRACTOR,,,,,,,,,,,"SEB BUILDERS",,,,,"SEB BUILDERS","7014 ROCKY TOP CIR",DALLAS,TX,75252-6114,"(972) 713-6981",,,,
TX,DALLAS,21-2482,"Residential Renovations & Additions",6/11/2021,Renovations,140000,3736,"3208 WESTBURY LN",RICHARDSON,TX,75081,,,CONTRACTOR,,,,,,,,,,,"WILLOW CREEK CUSTOM HOMES",,,,,"WILLOW CREEK CUSTOM HOMES","606 LAURENCE DR",HEATH,TX,75032-1948,"(469) 734-6055",https://willowcreekcustomhomes.com,,,office@willowwcreekcustomhomes.com
TX,DALLAS,21-950,"Residential Renovations & Additions",6/16/2021,Renovations,273497,2502,"1705 TIMBERWAY DR",RICHARDSON,TX,75081,,,"BRIAN COUTURIER","1705 TIMBERWAY DR",RICHARDSON,TX,75081,,Owner,,,,,"NORTH TEXAS CONTRACTORS GROUP",,,,,"NORTH TEXAS CONTRACTORS GROUP","12650 N BEACH ST STE 114 # 55","FORT WORTH",TX,76244-4245,"(469) 767-4846",,,,
TX,DALLAS,21-1539,"Residential Renovations & Additions",6/7/2021,Renovations,165000,3000,"1203 CHESTERTON DR",RICHARDSON,TX,75081,,,"JAMES HEROD","1203 CHESTERTON DR",RICHARDSON,TX,75081,,Owner,,,,,"TEXAS TRIAD HOMES",,,,,"TEXAS TRIAD HOMES","7222 AUTHON DR",DALLAS,TX,75201,"(972) 482-2480",,,,
TX,DALLAS,21-1326,"Residential Renovations & Additions",6/21/2021,Renovations,129235,1440,"1010 CARDINAL LN",RICHARDSON,TX,75081,,,"WAYNE ALBRECHT","1010 CARDINAL LN",RICHARDSON,TX,75081,,Owner,,,,,"FTC BUILDS",,,,,"FTC BUILDS","722 GAYLEWOOD DR",RICHARDSON,TX,75080,"(469) 729-9326",,,,
TX,DALLAS,20-725,"Residential Renovations & Additions",6/8/2021,Renovations,174368,2748,"610 TIFFANY TRL",RICHARDSON,TX,75081,,,"JON & KAREN ROBBINS","610 TIFFANY TRL",RICHARDSON,TX,75081,,Owner,,,,,"PEAK PERFORMANCE CONSTRUCTION",,,,,"PEAK PERFORMANCE CONSTRUCTION","14241 DALLAS PKWY SUITE 650",DALLAS,TX,75254,"(469) 338-6997",,,,
TX,DALLAS,21-940,"Residential Renovations & Additions",6/29/2021,Renovations,46500,,"606 ST LUKES DR",RICHARDSON,TX,75081,,,"MATTHEW & JACKLYN HOOVER","606 ST LUKES DR",RICHARDSON,TX,75081,,Owner,,,,,"CUTTING EDGE REMODELING",,,,,"CUTTING EDGE REMODELING","301 CAPEWOOD","LEAGUE CITY",TX,77573,"(972) 427-4101",https://www.cuttingedgedallas.com/,,,
TX,DALLAS,21-2562,"Residential Renovations & Additions",6/9/2021,Renovations,53200,,"2408 HONEYSUCKLE DR",RICHARDSON,TX,75081,,,CONTRACTOR,,,,,,,,,,,"BRY-JO ROOFING & CONSTRUCTION",,,,,"BRY-JO ROOFING & CONSTRUCTION","913 18TH ST",PLANO,TX,75074,"(972) 669-7807",https://www.bryjo.com/,,,
TX,DALLAS,21-2639,"Residential Renovations & Additions",6/14/2021,Renovations,105170,1000,"1613 TULANE DR",RICHARDSON,TX,75081,,," ANTHONY & CHRISTY GARZA","1613 TULANE DR",RICHARDSON,TX,75081,,Owner,,,,,"BRY-JO ROOFING & CONSTRUCTION",,,,,"BRY-JO ROOFING & CONSTRUCTION","913 18TH ST",PLANO,TX,75074,"(972) 669-7807",https://www.bryjo.com/,,,
TX,DALLAS,21-964,"Residential Renovations & Additions",6/9/2021,Renovations,400000,2854,"200 WEST SHORE DR",RICHARDSON,TX,75081,,,"MICHAEL & LOREE WESTBROOKS","200 WEST SHORE DR",RICHARDSON,TX,75081,,Owner,,,,,"BLACKSTONE CUSTOM HOMES",,,,,"BLACKSTONE CUSTOM HOMES","6516 TURNER WAY",DALLAS,TX,75230,"(214) 802-0241",,,,
TX,DALLAS,21-1588,"Residential Renovations & Additions",6/1/2021,Renovations,95000,,"1109 HUNTINGTON DR",RICHARDSON,TX,75081,,,"LEE COLE","1109 HUNTINGTON DR",RICHARDSON,TX,75081,,Owner,,,,,"CONCEPT REALTY",,,,,"CONCEPT REALTY","5901 VANDERBILT AVE",DALLAS,TX,75206,"(415) 969-0583",,,,
TX,DENTON,20-00274-01,"Residential Renovations & Additions",6/24/2021,Renovation,,2000,"1130 POST OAK RD","COPPER CANYON",TX,76226,,,"SCOTT & KRISTA  ANDERS","1130 POST OAK RD","COPPER CANYON",TX,76226,,Owner,,,,,"SYLVIE MEEHAN DESIGNS",,,,,"SYLVIE MEEHAN DESIGNS","1733 CANYON RIDGE ST","FORT WORTH",TX,76131,"(817) 913-5008",https://sylviemeehandesigns.com/,,,smeehan@sylviemeehandesigns.com
TX,DALLAS,21-1916,"Residential Renovations & Additions",6/14/2021,Renovations,30000,1538,"408 BROOK GLEN PL",RICHARDSON,TX,75081,,,CONTRACTOR,,,,,,,,,,,"WHITE ROCK REMODELING",,,,,"WHITE ROCK REMODELING","222 MUNICIPAL DR STE 138",RICHARDSON,TX,75080,"(469) 442-7261",,,,
TX,DALLAS,21-2171,"Residential Renovations & Additions",6/9/2021,Renovations,50000,1650,"603 WINCHESTER DR",RICHARDSON,TX,75081,,,"URSULA PETERS","603 WINCHESTER DR",RICHARDSON,TX,75081,,Owner,,,,,"FULL HOUSE SERVICES",,,,,"FULL HOUSE SERVICES","1031 MAZOURKA DR",ARLINGTON,TX,76001,"(682) 712-5920",https://www.fhsdfw.com/,,,FULLHOUSESERVICESDFW@GMAIL.COM
TX,DALLAS,21-2602,"Residential Renovations & Additions",6/29/2021,Renovations,50000,,"1206 NAVAHO TRL",RICHARDSON,TX,75081,,,"HEATH CARTER","1206 NAVAHO TRL",RICHARDSON,TX,75081,,Owner,,,,,"NORTH TEXAS RESIDENTIAL",,,,,"NORTH TEXAS RESIDENTIAL","PO BOX 8601",GREENVILLE,TX,75404,"(903) 883-8686",,,,
TX,DALLAS,21-2732,"Residential Renovations & Additions",6/29/2021,Renovations,50000,2171,"1622 AURORA DR",RICHARDSON,TX,75081,,,"JEFFREY & AMBERLY ELLISON","1622 AURORA DR",RICHARDSON,TX,75081,,Owner,,,,,"JAB PROPERTIES",,,,,"JAB PROPERTIES","1515 S CAPITAL OF TEXAS HWY, STE 412",AUSTIN,TX,78746-6951,"(512) 328-7774",,,,
TX,DENTON,,"Residential Renovations & Additions",6/4/2021,Renovations,,525,"1524 FLANAGAN FARM DR",NORTHLAKE,TX,76226,,,"BLAKE BASTIAN","1524 FLANAGAN FARM DR",NORTHLAKE,TX,76226,,Owner,,,,,OWNER,,,,,OWNER,,,,,,,,,
TX,ROCKWALL,"21- 000785","Residential Renovations & Additions",6/21/2021,Renovation,70590,,"2465 SAN MARCOS","ROYSE CITY",TX,75189,"STONE RIVER ESTATES",,"DAVID & GINGER ENGLISH","2465 SAN MARCOS","ROYSE CITY",TX,75189,,Owner,,,,,OWNER,,,,,OWNER,,,,,,,,,
TX,DENTON,,"Residential Renovations & Additions",6/29/2021,Renovations,,232,"2511 LITTLE WONDER LN",NORTHLAKE,TX,76247,,,"SAI TAKOOR","2511 LITTLE WONDER LN",NORTHLAKE,TX,76247,,Owner,,,,,"STATEWIDE REMODELING",,,,,"STATEWIDE REMODELING","2450 ESTERS BLVD 200",DALLAS,TX,75261,"(214) 446-1201",,,,
TX,COLLIN,"POOL - 21 - 3480","Residential Swimming Pools & Spas",6/29/2021,,,,"1404 CLAYTON LN",CELINA,TX,75009,HERITAGE,,"GARY & KRISTIN NEWBOLD","1404 CLAYTON LN",CELINA,TX,75009,,Owner,"         ",,,,"HAUK CUSTOM POOLS",,,,,"HAUK CUSTOM POOLS","1060 N PRESTON RD",CELINA,TX,75009-3857,"(972) 382-1919",,,,
TX,COLLIN,"POOL - 21 - 3813","Residential Swimming Pools & Spas",6/29/2021,,,,"2728 ECCLESTON ST",CELINA,TX,75009,"CAMBRIDGE CROSSING",29,CONTRACTOR,,,,,,,,,,,"MEDALLION POOLS",,,,,"MEDALLION POOLS","6405 EAGLESTONE DR",MCKINNEY,TX,75070-7976,"(469) 667-7426",http://www.medallionpooldesign.com/,"(469) 519-4849",,info@medallionpooldesign.com
TX,COLLIN,"POOL - 21 - 3467","Residential Swimming Pools & Spas",6/1/2021,,,,"4023 PARKVIEW BLVD",CELINA,TX,75009,"LIGHT FARMS",10,CONTRACTOR,,,,,,,,,,,"GOLD MEDAL POOLS",,,,,"GOLD MEDAL POOLS","4326 PRESTON RD",FRISCO,TX,75034-8512,"(972) 712-4653",http://www.goldmedalpools.com/,"(972) 712-7665","STEVE SANDLER",
TX,COLLIN,"POOL - 21 - 3333","Residential Swimming Pools & Spas",6/7/2021,,,,"2043 CANYON RD",CELINA,TX,75009,,,"SEAN & ANGELA  TERRY","2043 CANYON RD",CELINA,TX,75009,,Owner,,,,,"GOLD MEDAL POOLS",,,,,"GOLD MEDAL POOLS","4326 PRESTON RD",FRISCO,TX,75034-8512,"(972) 712-4653",http://www.goldmedalpools.com/,"(972) 712-7665","STEVE SANDLER",
TX,COLLIN,"POOL - 21 - 3702","Residential Swimming Pools & Spas",6/21/2021,,,,"3405 PANEER CT",CELINA,TX,75009,"MUSTANG LAKES",16,"DAVID & SARA SNELLINGS","3405 PANEER CT",CELINA,TX,75009,,Owner,,,,,"RIVERBEND SANDLER POOLS",,,,,"RIVERBEND SANDLER POOLS","4016 W PLANO PKWY",PLANO,TX,75093-5694,"(972) 596-7393",http://www.riverbendsandlerpools.com,"(972) 596-0322","JAMES GARDNER",wgardner@riverbendsandlerpools.com
TX,COLLIN,"POOL - 21 - 3501","Residential Swimming Pools & Spas",6/10/2021,,,,"2617 PENSHURST CT",CELINA,TX,75009,"CAMBRIDGE CROSSING",19,CONTRACTOR,,,,,,,,,,,"PREMIER POOLS & SPAS",,,,,"PREMIER POOLS & SPAS","1333 MCDERMOTT STE 200",ALLEN,TX,75013,"(214) 620-1044",,,,
TX,COLLIN,"POOL - 21 - 3724","Residential Swimming Pools & Spas",6/25/2021,,,,"2701 MAVERICK",CELINA,TX,75009,"MUSTANG LAKES",29,CONTRACTOR,,,,,,,,,,,"HOPKINS CUSTOM POOLS",,,,,"HOPKINS CUSTOM POOLS","519 E INTERSTATE 30 STE 235",ROCKWALL,TX,75087-5408,"(972) 771-1892",http://www.hopkinscustompools.com/,,,
TX,COLLIN,12380,"Residential Swimming Pools & Spas",6/10/2021,,145000,,"2315 VISTA RIDGE",MELISSA,TX,75454,,,CONTRACTOR,,,,,,,,,,,"ROBERTSON POOLS",,,,,"ROBERTSON POOLS","569-A S COPPELL RD",COPPELL,TX,75019,"(972) 393-2152",http://www.robertsonpools.com/,"(972) 393-6244","MELISSA WEBBER",mwebber@robertsonpools.com
TX,COLLIN,"POOL - 21 - 3639","Residential Swimming Pools & Spas",6/16/2021,,,,"5901 HUMBER LN",CELINA,TX,76227,"SUTTON FIELDS",,CONTRACTOR,,,,,,,,,,,"TEXAS TRADITIONS OUTDOORS",,,,,"TEXAS TRADITIONS OUTDOORS","762 E STATE HIGHWAY 121",LEWISVILLE,TX,75057-4113,"(469) 293-3656",http://www.texas-traditions.com/,"(972) 219-0379",,info@texas-traditions.com
TX,COLLIN,"POOL - 21 - 3213","Residential Swimming Pools & Spas",6/16/2021,,,,"5822 LIVERPOOL ST",CELINA,TX,76227,"SUTTON FIELDS",4,CONTRACTOR,,,,,,,,,,,"TEXAS TRADITIONS OUTDOORS",,,,,"TEXAS TRADITIONS OUTDOORS","762 E STATE HIGHWAY 121",LEWISVILLE,TX,75057-4113,"(469) 293-3656",http://www.texas-traditions.com/,"(972) 219-0379",,info@texas-traditions.com
TX,COLLIN,"POOL - 21 - 3682","Residential Swimming Pools & Spas",6/21/2021,,,,"303 PALOMINO LN",CELINA,TX,75009,,,"DAVID YUSTAT","303 PALOMINO LN",CELINA,TX,75009,,Owner,,,,,"FIBERGLASS POOL GUYZ",,,,,"FIBERGLASS POOL GUYZ","2241 S STATE HIGHWAY 121 APT 335",LEWISVILLE,TX,75067-3759,"(214) 710-5732",,,,
TX,COLLIN,12356,"Residential Swimming Pools & Spas",6/8/2021,,80000,,"2293 CR 362",MELISSA,TX,75454,,,CONTRACTOR,,,,,,,,,,,"LONE STAR POOLS",,,,,"LONE STAR POOLS","1110 REDCLOUD DR","SAN ANTONIO",TX,78260-2030,"(210) 889-8052",,,,
TX,COLLIN,"POOL - 21 - 3561","Residential Swimming Pools & Spas",6/8/2021,,,,"1900 DALDORAN DR",CELINA,TX,75009,"GLEN CROSSING",24,CONTRACTOR,,,,,,,,,,,"FOLEY POOLS",,,,,"FOLEY POOLS","6065 SPORTS VILLAGE RD STE 100",FRISCO,TX,75033-3526,"(972) 423-7178",https://foleypools.com/,,,sales@foleypools.com
TX,COLLIN,"POOL - 21 - 3376","Residential Swimming Pools & Spas",6/9/2021,,,,"2920 WHIRLAWAY CT",CELINA,TX,75009,"MUSTANG LAKES",56,"DANNY & CONSTANCE KANADY","2920 WHIRLAWAY CT",CELINA,TX,75009,,Owner,,,,,"FOLEY POOLS",,,,,"FOLEY POOLS","6065 SPORTS VILLAGE RD STE 100",FRISCO,TX,75033-3526,"(972) 423-7178",https://foleypools.com/,,,sales@foleypools.com
TX,COLLIN,"POOL - 21 - 3685","Residential Swimming Pools & Spas",6/16/2021,,,,"2904 WHIRLAWAY CT",CELINA,TX,75009,"MUSTANG LAKES",60,"SCOTT & AMEE SCIGLIANO","2904 WHIRLAWAY CT",CELINA,TX,75009,,Owner,,,,,"FOLEY POOLS",,,,,"FOLEY POOLS","6065 SPORTS VILLAGE RD STE 100",FRISCO,TX,75033-3526,"(972) 423-7178",https://foleypools.com/,,,sales@foleypools.com
TX,COLLIN,"POOL - 21 - 3710","Residential Swimming Pools & Spas",6/30/2021,,,,"2828 FOUNTAIN PARK DR",CELINA,TX,75009,"WELLSPRING ESTATES",7,CONTRACTOR,,,,,,,,,,,"CRYSTAL WATER POOLS",,,,,"CRYSTAL WATER POOLS","661 E MAIN ST # 135",MIDLOTHIAN,TX,76065-3340,"(469) 672-6699",,,,
TX,COLLIN,"POOL - 21 - 3408","Residential Swimming Pools & Spas",6/1/2021,,,,"3511 SPRINGBELL ST",CELINA,TX,75009,,,"MATT WOJCIECHOWSKI","3511 SPRINGBELL ST",CELINA,TX,75009,,Owner,,,,,"DFW CUSTOM POOL",,,,,"DFW CUSTOM POOL","550 RESERVE ST SUITE 190",SOUTHLAKE,TX,76092,"(817) 304-3640",,,,
TX,COLLIN,"POOL - 21 - 2952","Residential Swimming Pools & Spas",6/18/2021,,,,"3950 SANDERS DR",CELINA,TX,75009,"LIGHT FARMS",1,CONTRACTOR,,,,,,,,,,,POOLS123,,,,,POOLS123,"16393 N, I-35",BRUCEVILLE,TX,76630,"(855) 794-6123",https://www.pools123.com/,,,
TX,COLLIN,"POOL - 21 - 3441","Residential Swimming Pools & Spas",6/10/2021,,,,"2607 SEABISCUIT RD",CELINA,TX,75009,"MUSTANG LAKES",,"ERIC & KRISTY LOONEY","2607 SEABISCUIT RD",CELINA,TX,75009,,Owner,,,,,"MED HAWK POOLS & PATIO",,,,,"MED HAWK POOLS & PATIO","3750 S PRESTON STE 116",CELINA,TX,75009,"(833) 633-4295",,,"MARK GILBAUGH",info@medhawkpools.com
TX,COLLIN,"POOL - 21 - 3253","Residential Swimming Pools & Spas",6/4/2021,,,,"4116 ARBOR AVE",CELINA,TX,75009,,,"JEFFREY & KERI QUEEN","4116 ARBOR AVE",CELINA,TX,75009,,Owner,,,,,"MED HAWK POOLS & PATIO",,,,,"MED HAWK POOLS & PATIO","3750 S PRESTON STE 116",CELINA,TX,75009,"(833) 633-4295",,,"MARK GILBAUGH",info@medhawkpools.com
TX,COLLIN,"POOL - 21 - 2377","Residential Swimming Pools & Spas",6/30/2021,,,,"4424 MILL POND DR",CELINA,TX,75009,"WELLSPRING ESTATES",7,CONTRACTOR,,,,,,,,,,,"PRESTIGE POOL & PATIO",,,,,"PRESTIGE POOL & PATIO","15550 PRESTON RD",FRISCO,TX,75033,"(214) 673-3681",,,,
TX,ELLIS,002459-2021,"Residential Swimming Pools & Spas",6/28/2021,,,,"120 KATALINA LN",WAXAHACHIE,TX,75165,,,"TRAVIS MEREDITH","120 KATALINA LN",WAXAHACHIE,TX,75165,,Owner,,,,,OWNER,,,,,OWNER,,,,,,,,,
TX,ELLIS,002544-2021,"Residential Swimming Pools & Spas",6/10/2021,,,,"136 OCOTILLO DR",WAXAHACHIE,TX,75165,,,"COREY D NAVARRO","136 OCOTILLO DR",WAXAHACHIE,TX,75165,,Owner,,,,,OWNER,,,,,OWNER,,,,,,,,,
TX,ELLIS,002575-2021,"Residential Swimming Pools & Spas",6/15/2021,,,,"462 WINTERGREEN DR",WAXAHACHIE,TX,75165,,,"HEATHER M STYLES","462 WINTERGREEN DR",WAXAHACHIE,TX,75165,,Owner,,,,,OWNER,,,,,OWNER,,,,,,,,,
TX,ELLIS,002610-2021,"Residential Swimming Pools & Spas",6/14/2021,,,,"105 ARABIAN RD",WAXAHACHIE,TX,75165,,,"DONOVAN NARAS","105 ARABIAN RD",WAXAHACHIE,TX,75165,,Owner,,,,,OWNER,,,,,OWNER,,,,,,,,,
TX,ELLIS,002613-2021,"Residential Swimming Pools & Spas",6/14/2021,,,,"109 ABBEY RD",WAXAHACHIE,TX,75165,,,"DONOVAN NARAS","109 ABBEY RD",WAXAHACHIE,TX,75165,,Owner,,,,,OWNER,,,,,OWNER,,,,,,,,,
TX,COLLIN,POOL2021-05-00192,"Residential Swimming Pools & Spas",6/2/2021,,,,"830 PARKWOOD CT",MCKINNEY,TX,75072,,,"SHANE & HEATHER TOMSON","830 PARKWOOD CT",MCKINNEY,TX,75072,,Owner,,,,,"HAUK CUSTOM POOLS",,,,,"HAUK CUSTOM POOLS","1060 N PRESTON RD",CELINA,TX,75009-3857,"(972) 382-1919",,,,
TX,COLLIN,POOL2021-05-00194,"Residential Swimming Pools & Spas",6/3/2021,,32000,,"5500 STONE CLIFF CT",MCKINNEY,TX,75071,,,"ALEXANDER & REBECCA PEREZ","5500 STONE CLIFF CT",MCKINNEY,TX,75071,,Owner,,,,,"MEDALLION POOLS",,,,,"MEDALLION POOLS","6405 EAGLESTONE DR",MCKINNEY,TX,75070-7976,"(469) 667-7426",http://www.medallionpooldesign.com/,"(469) 519-4849",,info@medallionpooldesign.com
TX,COLLIN,12448,"Residential Swimming Pools & Spas",6/25/2021,,60095,,"3613 RED DEER LN",MELISSA,TX,75454,BROOKSIDE,,CONTRACTOR,,,,,,,,,,,"RIVERBEND SANDLER POOLS",,,,,"RIVERBEND SANDLER POOLS","4016 W PLANO PKWY",PLANO,TX,75093-5694,"(972) 596-7393",http://www.riverbendsandlerpools.com,"(972) 596-0322","JAMES GARDNER",wgardner@riverbendsandlerpools.com
TX,COLLIN,POOL2021-05-00190,"Residential Swimming Pools & Spas",6/8/2021,,71000,,"7613 DOLAN FLS",MCKINNEY,TX,75071,,,"AMANDA MARLING","7613 DOLAN FLS",MCKINNEY,TX,75071,,Owner,,,,,"RIVERBEND SANDLER POOLS",,,,,"RIVERBEND SANDLER POOLS","4016 W PLANO PKWY",PLANO,TX,75093-5694,"(972) 596-7393",http://www.riverbendsandlerpools.com,"(972) 596-0322","JAMES GARDNER",wgardner@riverbendsandlerpools.com
TX,COLLIN,,"Residential Swimming Pools & Spas",6/11/2021,,,,"401 FOXWOOD LN",WYLIE,TX,75098,,,"WILLIAM & LESLEY COBB","401 FOXWOOD LN",WYLIE,TX,75098,,Owner,,,,,"CULLEN POOLS",,,,,"CULLEN POOLS","1604 S LAKESHORE DR",ROCKWALL,TX,75087-5134,"(214) 908-5657",http://www.cullenpools.com,,"GREG JAKE",
TX,COLLIN,,"Residential Swimming Pools & Spas",6/9/2021,,,,"107 CARRIAGE RUN",WYLIE,TX,75098,,,"BRIAN & MARILYN MADRID","107 CARRIAGE RUN",WYLIE,TX,75098,,Owner,,,,,"HOPKINS CUSTOM POOLS",,,,,"HOPKINS CUSTOM POOLS","519 E INTERSTATE 30 STE 235",ROCKWALL,TX,75087-5408,"(972) 771-1892",http://www.hopkinscustompools.com/,,,
TX,COLLIN,,"Residential Swimming Pools & Spas",6/16/2021,,,,"1800 BERKLEY DR",WYLIE,TX,75098,,,"ROBERT & LYNN FLYNN","1800 BERKLEY DR",WYLIE,TX,75098,,Owner,,,,,"POOL STOP CUSTOM POOLS & SPAS",,,,,"POOL STOP CUSTOM POOLS & SPAS","838 STEGER TOWNE RD",ROCKWALL,TX,75032-5658,"(972) 772-4545",,,,
TX,COLLIN,,"Residential Swimming Pools & Spas",6/17/2021,,,,"1818 SHADY VISTA WAY",WYLIE,TX,75098,,,"MICHELLE CONNER","1818 SHADY VISTA WAY",WYLIE,TX,75098,,Owner,,,,,"SUN RAY POOLS",,,,,"SUN RAY POOLS","5314 NUECES BAY DR",ROWLETT,TX,75089-4145,"(972) 333-0714",,"(214) 607-1009",,info@sunraypoolstx.com
TX,COLLIN,POOL2021-05-00178,"Residential Swimming Pools & Spas",6/8/2021,,73000,,"3004 CANDIDE LN",MCKINNEY,TX,75070,,,"JASON & RITIKA HARTMAN","3004 CANDIDE LN",MCKINNEY,TX,75070,,Owner,,,,,"HOBERT POOLS",,,,,"HOBERT POOLS","315 W FM 544",MURPHY,TX,75094-4577,"(972) 690-8118",http://www.hobertpools.com/,"(972) 422-6320",,contact@hobertpools.com
TX,COLLIN,POOL2021-05-00179,"Residential Swimming Pools & Spas",6/2/2021,,67000,,"5913 WATERFORD LN",MCKINNEY,TX,75071,,,"ROBIN & CHRIS PORTER","5913 WATERFORD LN",MCKINNEY,TX,75071,,Owner,,,,,"HOBERT POOLS",,,,,"HOBERT POOLS","315 W FM 544",MURPHY,TX,75094-4577,"(972) 690-8118",http://www.hobertpools.com/,"(972) 422-6320",,contact@hobertpools.com
TX,COLLIN,12424,"Residential Swimming Pools & Spas",6/16/2021,,98500,,"1302 MOTLEY DR",MELISSA,TX,75454,"VILLAGES OF MELISSA",,"JASON & SARA GOODMAN","1302 MOTLEY DR",MELISSA,TX,75454,,Owner,,,,,"SOUTHERNWIND POOL INC",,,,,"SOUTHERNWIND POOL INC","2230 BUSH DR STE 1",MCKINNEY,TX,75070-7554,"(972) 783-4090",http://www.southernwindpools.com/,,,info@southernwindpools.com
TX,COLLIN,,"Residential Swimming Pools & Spas",6/16/2021,,,,"3027 REAGENEA DR",WYLIE,TX,75098,,,"ROBERT ROSE","3027 REAGENEA DR",WYLIE,TX,75098,,Owner,,,,,"LIVING WATER CUSTOM POOLS",,,,,"LIVING WATER CUSTOM POOLS","1030 OAKBROOK DR",WYLIE,TX,75098-5427,"(469) 703-4800",http://www.livingwatercustompools.com/,,,info@livingwatercustompools.com
TX,COLLIN,RES2021-05-02770,"Residential Swimming Pools & Spas",6/7/2021,,216768,,"908 HIDDEN EDDY DR",MCKINNEY,TX,75071,,,"JEANETTE LACKEY","908 HIDDEN EDDY DR",MCKINNEY,TX,75071,,Owner,,,,,"TURNER CONSTRUCTION",,,,,"TURNER CONSTRUCTION","10100 N CENTRAL EXPRESSWAY 600",DALLAS,TX,75231,"(214) 721-8400",,,,
TX,COLLIN,,"Residential Swimming Pools & Spas",6/23/2021,,,,"1319 HICKORY WOODS WAY",WYLIE,TX,75098,,,CONTRACTOR,,,,,,,,,,,"AQUATIC ARTS POOL N SPA",,,,,"AQUATIC ARTS POOL N SPA","5700 GRANITE PKWY STE 200",PLANO,TX,75024-6623,"(214) 304-3035",http://www.aquaticartspoolnspa.com/,,,Sales@AAPNS.com
TX,ELLIS,002114-2021,"Residential Swimming Pools & Spas",6/23/2021,,,,"414 FOXTAIL CT",WAXAHACHIE,TX,75165,,,"MARC & MEGAN WHEELER","414 FOXTAIL CT",WAXAHACHIE,TX,75165,,Owner,,,,,"SPLASH POOLS",,,,,"SPLASH POOLS","611 DENALI DR",ARLINGTON,TX,76002-3073,"(972) 670-0509",,,,
TX,COLLIN,POOL2021-06-00209,"Residential Swimming Pools & Spas",6/22/2021,,80000,,"2445 CHAPEL OAKS DR",MCKINNEY,TX,75071,,,"WILLIAM HIDELL","2445 CHAPEL OAKS DR",MCKINNEY,TX,75071,,Owner,,,,,"BLUE HAVEN POOLS",,,,,"BLUE HAVEN POOLS","13349 N CENTRAL EXPY",DALLAS,TX,75243-1103,"(972) 644-0494",,,,
TX,COLLIN,210782,"Residential Swimming Pools & Spas",6/29/2021,,28000,,"306 PRAIRIE CREEK",MURPHY,TX,75094,,,"YNHI & PHONG TRAN","306 PRAIRIE CREEK",MURPHY,TX,75094,,Owner,,,,,"AZURE POOLS AND OUTDOOR LIVING",,,,,"AZURE POOLS AND OUTDOOR LIVING","1333 W MCDERMOTT DR STE 150",ALLEN,TX,75013-3088,"(214) 705-3638",,,,paula@azurepoolstx.com
TX,COLLIN,POOL2021-05-00195,"Residential Swimming Pools & Spas",6/10/2021,,60000,,"1017 QUEENS LAKE TRL",MCKINNEY,TX,75071,,,"NADIA HASAN","1017 QUEENS LAKE TRL",MCKINNEY,TX,75071,,Owner,,,,,"FOLEY POOLS",,,,,"FOLEY POOLS","6065 SPORTS VILLAGE RD STE 100",FRISCO,TX,75033-3526,"(972) 423-7178",https://foleypools.com/,,,sales@foleypools.com
TX,COLLIN,POOL2021-05-00187,"Residential Swimming Pools & Spas",6/4/2021,,65000,,"7321 JOSHUA TREE TRL",MCKINNEY,TX,75070,,,"SAMUEL COMPTON","7321 JOSHUA TREE TRL",MCKINNEY,TX,75070,,Owner,,,,,"FOLEY POOLS",,,,,"FOLEY POOLS","6065 SPORTS VILLAGE RD STE 100",FRISCO,TX,75033-3526,"(972) 423-7178",https://foleypools.com/,,,sales@foleypools.com
TX,ELLIS,001097-2021,"Residential Swimming Pools & Spas",6/15/2021,,,,"1603 ALEXANDER DR",WAXAHACHIE,TX,75165,,,"SARAH & KEVIN WILLIAMS","1603 ALEXANDER DR",WAXAHACHIE,TX,75165,,Owner,,,,,"BRIGHT POOLS",,,,,"BRIGHT POOLS","610 RUSTIC TRAIL",MIDLOTHIAN,TX,76065,"(214) 762-5388",https://www.brightpoolsllc.com/,,,BRIGHTPOOLSLLC@GMAIL.COM
TX,ELLIS,001872-2021,"Residential Swimming Pools & Spas",6/15/2021,,,,"201 RANGE RD",WAXAHACHIE,TX,75165,,,"JOSEPH & TINA PEFUHL","201 RANGE RD",WAXAHACHIE,TX,75165,,Owner,,,,,"BRIGHT POOLS",,,,,"BRIGHT POOLS","610 RUSTIC TRAIL",MIDLOTHIAN,TX,76065,"(214) 762-5388",https://www.brightpoolsllc.com/,,,BRIGHTPOOLSLLC@GMAIL.COM
TX,COLLIN,12473,"Residential Swimming Pools & Spas",6/29/2021,,80000,,"2802 MESQUITE AVE",MELISSA,TX,75454,"NORTH CREEK ESTATES",,"KYLE & MARIE CANDICE","2802 MESQUITE AVE",MELISSA,TX,75454,,Owner,,,,,"JUBILEE CUSTOM POOLS AND PATIO",,,,,"JUBILEE CUSTOM POOLS AND PATIO","2750 SOUTH PRESTON ROAD, SUITE 116-135",CELINA,TX,75009,"(469) 634-6704",,,,
TX,COLLIN,POOL2021-06-00219,"Residential Swimming Pools & Spas",6/29/2021,,80000,,"312 BACHMAN CREEK DR",MCKINNEY,TX,75072,,,"GABRIELA OLIVERA","312 BACHMAN CREEK DR",MCKINNEY,TX,75072,,Owner,,,,,"COLLIN BRYAN CONSTRUCTION",,,,,"COLLIN BRYAN CONSTRUCTION","4552 SUNBELT DR",ADDISON,TX,75001-5131,"(214) 927-5263",,,,
TX,COLLIN,POOL2021-06-00203,"Residential Swimming Pools & Spas",6/28/2021,,100000,,"720 EXCALIBUR DR",MCKINNEY,TX,75071,,,"IRMA VELAZQUEZ","720 EXCALIBUR DR",MCKINNEY,TX,75071,,Owner,,,,,"COLLIN BRYAN CONSTRUCTION",,,,,"COLLIN BRYAN CONSTRUCTION","4552 SUNBELT DR",ADDISON,TX,75001-5131,"(214) 927-5263",,,,
TX,COLLIN,12395,"Residential Swimming Pools & Spas",6/11/2021,,90798,,"4309 MILRANY LN",MELISSA,TX,75454,"NORTH CREEK ESTATES",,"KARMANN & JUSTIN TESSEM","4309 MILRANY LN",MELISSA,TX,75454,,Owner,,,,,"FOUR RIVERS POOLS",,,,,"FOUR RIVERS POOLS","4261 E UNIVERSITY DRIVE #30-181",PROSPER,TX,75078,"(469) 323-4902",http://fourriverspools.com/,,,relax@fourriverspools.com
TX,COLLIN,210727,"Residential Swimming Pools & Spas",6/3/2021,,72000,,"1206 DARTMOUTH CIR",MURPHY,TX,75094,,,"JOSE & MARIA FRESQUEZ","1206 DARTMOUTH CIR",MURPHY,TX,75094,,Owner,,,,,"SUNDOWN CUSTOM POOLS",,,,,"SUNDOWN CUSTOM POOLS","404 CREPE MYRTLE LANE",MURPHY,TX,75094,"(972) 249-6403",http://www.sundowncustompools.com,,,
TX,COLLIN,POOL2021-06-00214,"Residential Swimming Pools & Spas",6/22/2021,,45000,,"3712 CAMEROON LN",MCKINNEY,TX,75071,,,"HETAL & NAYA PARMAR","3712 CAMEROON LN",MCKINNEY,TX,75071,,Owner,,,,,"PRESTIGE POOL & PATIO",,,,,"PRESTIGE POOL & PATIO","15550 PRESTON RD",FRISCO,TX,75033,"(214) 673-3681",,,,
TX,COLLIN,POOL2021-05-00176,"Residential Swimming Pools & Spas",6/11/2021,,55000,,"5404 DATEWOOD LN",MCKINNEY,TX,75071,,,"JOY & IVAN BASKIN","5404 DATEWOOD LN",MCKINNEY,TX,75071,,Owner,,,,,"PRESTIGE POOL & PATIO",,,,,"PRESTIGE POOL & PATIO","15550 PRESTON RD",FRISCO,TX,75033,"(214) 673-3681",,,,
TX,COLLIN,POOL2021-05-00184,"Residential Swimming Pools & Spas",6/11/2021,,45000,,"5309 STONE BROOKE CROSSING",MCKINNEY,TX,75072,,,"MARIE DECOUDREAUX","5309 STONE BROOKE CROSSING",MCKINNEY,TX,75072,,Owner,,,,,"PRESTIGE POOL & PATIO",,,,,"PRESTIGE POOL & PATIO","15550 PRESTON RD",FRISCO,TX,75033,"(214) 673-3681",,,,
TX,COLLIN,,"Residential Swimming Pools & Spas",6/18/2021,,,,"200 COVINGTON DR",WYLIE,TX,75098,,,"ERIC & AMY BROWN","200 COVINGTON DR",WYLIE,TX,75098,,Owner,,,,,"CHAMPION CUSTOM POOLS",,,,,"CHAMPION CUSTOM POOLS","521 J PLACE #627",PLANO,TX,75074,"(972) 442-1697",https://championcustompools.com/,,,sales@championpool.com
TX,COLLIN,POOL2021-05-00183,"Residential Swimming Pools & Spas",6/8/2021,,80000,,"100 ANTELOPE CT",MCKINNEY,TX,75071,,,"KATHERINE DORONI","100 ANTELOPE CT",MCKINNEY,TX,75071,,Owner,,,,,"KALOS CUSTOM POOLS",,,,,"KALOS CUSTOM POOLS","4500 MERCANTILE PLAZA SUITE 300-359","FORT WORTH",TX,76137,"(806) 773-5028",,,,
TX,DALLAS,21-2434,"Residential Swimming Pools & Spas",6/15/2021,,106871,,"42 DUNROBIN",RICHARDSON,TX,75081,,,"RICHARD W & SALLY CALABRESE","42 DUNROBIN",RICHARDSON,TX,75081,,Owner,,,,,OWNER,,,,,OWNER,,,,,,,,,
TX,ROCKWALL,"21- 001022","Residential Swimming Pools & Spas",6/28/2021,,64215,,"3217 SHADY RIVER TRL","ROYSE CITY",TX,75189,"UNION SQUARE",5,"JUANITA & JACOB BRAGG","3217 SHADY RIVER TRL","ROYSE CITY",TX,75189,,Owner,,,,,OWNER,,,,,OWNER,,,,,,,,,
TX,DENTON,21-RPOOL00053,"Residential Swimming Pools & Spas",6/17/2021,,,,"2901 WOODHILL WAY",NORTHLAKE,TX,76247,,,CONTRACTOR,,,,,,,,,,,"PURYEAR CUSTOM POOLS",,,,,"PURYEAR CUSTOM POOLS","2200 CANTRELL SANSOM RD","FORT WORTH",TX,76131-1606,"(817) 306-5169",http://www.puryearpools.com,"(817) 306-3681",,
TX,DALLAS,21-153,"Residential Swimming Pools & Spas",6/16/2021,,67000,,"2405 BRIARFIELD DR",RICHARDSON,TX,75081,,,"SCOTT & KELLI REID","2405 BRIARFIELD DR",RICHARDSON,TX,75081,,Owner,,,,,"RIVERBEND SANDLER POOLS",,,,,"RIVERBEND SANDLER POOLS","4016 W PLANO PKWY",PLANO,TX,75093-5694,"(972) 596-7393",http://www.riverbendsandlerpools.com,"(972) 596-0322","JAMES GARDNER",wgardner@riverbendsandlerpools.com
TX,DALLAS,20-4442,"Residential Swimming Pools & Spas",6/22/2021,,50000,,"24 CREEKWOOD CIR",RICHARDSON,TX,75081,,,CONTRACTOR,,,,,,,,,,,"PREMIER POOLS & SPAS",,,,,"PREMIER POOLS & SPAS","1333 MCDERMOTT STE 200",ALLEN,TX,75013,"(214) 620-1044",,,,
TX,TARRANT,34778,"Residential Swimming Pools & Spas",6/29/2021,,60000,,"1252 TOPEKA DR",SAGINAW,TX,78154,,,"ELISEO VELASQUEZ","1252 TOPEKA DR",SAGINAW,TX,78154,,Owner,,,,,"PREMIER POOLS & SPAS",,,,,"PREMIER POOLS & SPAS","1333 MCDERMOTT STE 200",ALLEN,TX,75013,"(214) 620-1044",,,,
TX,DALLAS,210554,"Residential Swimming Pools & Spas",6/24/2021,,,,"383 SANDY CREEK",SUNNYVALE,TX,75182,,,"SUSAN DERR","383 SANDY CREEK",SUNNYVALE,TX,75182,,Owner,,,,,"POOL STOP CUSTOM POOLS & SPAS",,,,,"POOL STOP CUSTOM POOLS & SPAS","838 STEGER TOWNE RD",ROCKWALL,TX,75032-5658,"(972) 772-4545",,,,
TX,DALLAS,210491,"Residential Swimming Pools & Spas",6/10/2021,,,,"211 ISLAND FALLS",SUNNYVALE,TX,75182,,,"LOUIS & PHYLLIS ZERMENO","211 ISLAND FALLS",SUNNYVALE,TX,75182,,Owner,,,,,"POOL STOP CUSTOM POOLS & SPAS",,,,,"POOL STOP CUSTOM POOLS & SPAS","838 STEGER TOWNE RD",ROCKWALL,TX,75032-5658,"(972) 772-4545",,,,
TX,DALLAS,21-278,"Residential Swimming Pools & Spas",6/24/2021,,35000,,"2512 BLUEBONNET DR",RICHARDSON,TX,75081,,,CONTRACTOR,,,,,,,,,,,ORTUS,,,,,ORTUS,"1308 14TH ST",PLANO,TX,75074-6290,"(214) 701-9350",,,,
TX,DENTON,21-RPOOL00049,"Residential Swimming Pools & Spas",6/8/2021,,,,"3608 RIDGE POINT DR",NORTHLAKE,TX,76247,,,CONTRACTOR,,,,,,,,,,,"SPLASH HAVENS",,,,,"SPLASH HAVENS","850 BLUE MOUND RD W",HASLET,TX,76052-3838,"(817) 439-1500",,,,
TX,DENTON,21-RPOOL00039,"Residential Swimming Pools & Spas",6/18/2021,,,,"1150 SUTHERLAND CRESCENT",NORTHLAKE,TX,76247,,,CONTRACTOR,,,,,,,,,,,"SYNERGY CUSTOM POOLS",,,,,"SYNERGY CUSTOM POOLS","7212 TUMBLEWEED CT",COLLEYVILLE,TX,76034-7014,"(817) 498-9113",http://www.synergycustompools.com/,,,info@synergycustompools.com
TX,DALLAS,21-103,"Residential Swimming Pools & Spas",6/9/2021,,60000,,"401 RIDGEVIEW DR",RICHARDSON,TX,75081,,,"MICHAEL & JILL TEAGARDEN","401 RIDGEVIEW DR",RICHARDSON,TX,75081,,Owner,,,,,"HOBERT POOLS",,,,,"HOBERT POOLS","315 W FM 544",MURPHY,TX,75094-4577,"(972) 690-8118",http://www.hobertpools.com/,"(972) 422-6320",,contact@hobertpools.com
TX,DALLAS,21-2365,"Residential Swimming Pools & Spas",6/3/2021,,85000,,"1110 CHAPEL CREEK CT",RICHARDSON,TX,75081,,,CONTRACTOR,,,,,,,,,,,"HOBERT POOLS",,,,,"HOBERT POOLS","315 W FM 544",MURPHY,TX,75094-4577,"(972) 690-8118",http://www.hobertpools.com/,"(972) 422-6320",,contact@hobertpools.com
TX,DENTON,21-RPOOL00050,"Residential Swimming Pools & Spas",6/18/2021,,,,"1013 WIMBERLY LN",NORTHLAKE,TX,76226,,,"DOLREEN GATOBU","1013 WIMBERLY LN",NORTHLAKE,TX,76226,,Owner,,,,,"ROBERTSON POOLS",,,,,"ROBERTSON POOLS","569-A S COPPELL RD",COPPELL,TX,75019,"(972) 393-2152",http://www.robertsonpools.com/,"(972) 393-6244","MELISSA WEBBER",mwebber@robertsonpools.com
TX,DALLAS,21-2739,"Residential Swimming Pools & Spas",6/21/2021,,100000,,"2609 CLIPPER CT",RICHARDSON,TX,75081,,,CONTRACTOR,,,,,,,,,,,"FIRST CLASS POOLS & SPAS",,,,,"FIRST CLASS POOLS & SPAS","1303 COLUMBIA DR STE 207",RICHARDSON,TX,75081-2957,"(214) 693-1213",http://www.firstclasspools.com/contact.php,"(214) 570-8579",,
TX,DALLAS,210358,"Residential Swimming Pools & Spas",6/1/2021,,,,"335 THE FALLS",SUNNYVALE,TX,75182,,,"PEYMAN REZAEIZADEH","335 THE FALLS",SUNNYVALE,TX,75182,,Owner,,,,,"SAMS OUTDOOR LIVING",,,,,"SAMS OUTDOOR LIVING","12017 LEWIS CIR",FORNEY,TX,75126-8338,"(214) 665-7269",http://samsoutdoorliving.com/,,,
TX,DENTON,21-RPOOL00055,"Residential Swimming Pools & Spas",6/28/2021,,,,"2800 WOODHILL WAY",NORTHLAKE,TX,76247,,,CONTRACTOR,,,,,,,,,,,"J CALDWELL CUSTOM POOLS",,,,,"J CALDWELL CUSTOM POOLS","5744 BOAT CLUB RD STE 200","FORT WORTH",TX,76179-7759,"(817) 237-7662",,,,
TX,DENTON,21-RPOOL00038,"Residential Swimming Pools & Spas",6/3/2021,,,,"3016 PEEKABOO LN",NORTHLAKE,TX,76247,,,CONTRACTOR,,,,,,,,,,,"OUTDOOR LIVING POOL & PATIO",,,,,"OUTDOOR LIVING POOL & PATIO","2340 JUSTIN RD STE 101","HIGHLAND VILLAGE",TX,75077-3073,"(972) 317-3500",,,,
TX,DENTON,21-RPOOL00033,"Residential Swimming Pools & Spas",6/7/2021,,,,"1105 DIAMOND LEAF ROAD",NORTHLAKE,TX,76226,,,CONTRACTOR,,,,,,,,,,,"HARDY POOLS",,,,,"HARDY POOLS","12956 HURRICANE LN","FORT WORTH",TX,76244,"(817) 614-4888",,,,
TX,DALLAS,21-1149,"Residential Swimming Pools & Spas",6/24/2021,,55000,,"1613 E COLLINS BLVD",RICHARDSON,TX,75081,,,"COLLEEN WOOTEN","1613 E COLLINS BLVD",RICHARDSON,TX,75081,,Owner,,,,,"TEXAS OUTDOOR OASIS",,,,,"TEXAS OUTDOOR OASIS","2621 ELM GROVE RD",WYLIE,TX,75098-6243,"(972) 771-1977",http://www.texasoutdooroasis.com/,,,info@texasoutdooroasis.com
TX,DALLAS,21-1271,"Residential Swimming Pools & Spas",6/15/2021,,45000,,"204 N WATERVIEW DR",RICHARDSON,TX,75081,,,"WILLIAM URAN","204 N WATERVIEW DR",RICHARDSON,TX,75081,,Owner,,,,,"VENTURE CUSTOM POOLS",,,,,"VENTURE CUSTOM POOLS","4568 STATE HIGHWAY 121 STE 101",PLANO,TX,75024-7007,"(972) 377-9002",,,,
TX,TARRANT,34679,"Residential Swimming Pools & Spas",6/3/2021,,42797,,"225 BAR WOOD DR",SAGINAW,TX,78154,,,"DOUGLAS MAILE","225 BAR WOOD DR",SAGINAW,TX,78154,,Owner,,,,,"AQUAMARINE POOLS",,,,,"AQUAMARINE POOLS","4701 S I-35W",ALVARADO,TX,76009,"(800) 432-8994",,,,don@aquapools.com
TX,TARRANT,34927,"Residential Swimming Pools & Spas",6/22/2021,,68866,,"728 CATALPA RD",SAGINAW,TX,78154,,,"KAREN BIRD","728 CATALPA RD",SAGINAW,TX,78154,,Owner,,,,,"BLUE HAVEN POOLS",,,,,"BLUE HAVEN POOLS","13349 N CENTRAL EXPY",DALLAS,TX,75243-1103,"(972) 644-0494",,,,
TX,DALLAS,21-2212,"Residential Swimming Pools & Spas",6/2/2021,,40000,,"611 LOCKWOOD DR",RICHARDSON,TX,75081,,,"SAMANTHA A & CHRISTIAN HERNANDEZ","611 LOCKWOOD DR",RICHARDSON,TX,75081,,Owner,,,,,"FIBERGLASS POOL GUYZ",,,,,"FIBERGLASS POOL GUYZ","2241 S STATE HIGHWAY 121 APT 335",LEWISVILLE,TX,75067-3759,"(214) 710-5732",,,,
TX,TARRANT,35178,"Residential Swimming Pools & Spas",6/30/2021,,,,"284 SPRING HOLLOW DR",SAGINAW,TX,78154,,,CONTRACTOR,,,,,,,,,,,"METROPLEX POOL",,,,,"METROPLEX POOL","1608 CHAPARRAL CT",GRAPEVINE,TX,76051-4824,"(651) 308-7469",,,,
TX,DALLAS,21-2672,"Residential Swimming Pools & Spas",6/17/2021,,88000,,"1204 LA MESA DR",RICHARDSON,TX,75081,,,CONTRACTOR,,,,,,,,,,,"STARFISH POOL SERVICE",,,,,"STARFISH POOL SERVICE","2020 G AVE",PLANO,TX,75074,"(972) 671-5011",,,,
TX,DALLAS,21-2555,"Residential Swimming Pools & Spas",6/24/2021,,43000,,"2107 PORTSMOUTH DR",RICHARDSON,TX,75081,,,"ADAM JEFFERSON","2107 PORTSMOUTH DR",RICHARDSON,TX,75081,,Owner,,,,,"DFW OCEANVIEW POOLS",,,,,"DFW OCEANVIEW POOLS","8301 LAKEVIEW PKWY",ROWLETT,TX,75088,"(469) 907-9374",,,,
TX,COLLIN,12444,"Restaurant and Bar",6/23/2021,"Finish Out",95000,1100,"2231 SAM RAYBURN HWY",MELISSA,TX,75454,,,"S-CUBED ARCHITECTS","420 JOHNSON ROAD SUITE 303",KELLER,TX,76248,"(817) 431-0741",Architect,,,,,OWNER,,,,,OWNER,,,,,,,,,
TX,DENTON,,"Restaurant and Bar",6/8/2021,,,1336,"1236 FM 407 SUITE 450",NORTHLAKE,TX,76226,,,"JACOBS & ASSOCIATES","1236 FM 407 SUITE 450",NORTHLAKE,TX,76226,,Owner,,,,,"RIVERWOOD BUILDING",,,,,"RIVERWOOD BUILDING","427 ELECTRA DR",HOUSTON,TX,77024-4710,"(281) 493-9389",https://www.riverwoodbuildingcompany.com,,,
TX,ROCKWALL,"19- 001052","Restaurant and Bar",6/7/2021,,768425,4456,"105 W MAIN ST","ROYSE CITY",TX,75189,,,CONTRACTOR,,,,,,,,,,,"C & G SANDERS CONSTRUCTION",,,,,"C & G SANDERS CONSTRUCTION","2104 CHAMPION CT",RICHARDSON,TX,75082,"(214) 579-9379",,,"GARY SANDERS",
TX,TARRANT,COMR21-0048,Retail,6/14/2021,Renovation,227400,2274,"2102 E SH 114 # 107",SOUTHLAKE,TX,76092,,,CONTRACTOR,,,,,,,,,,,"GHA ARCHITECTS",,,,,"GHA ARCHITECTS","14901 QUORUM DR STE 300",DALLAS,TX,75254-6735,"(214) 461-9651",http://www.gha-architects.com/,"(972) 239-5054",,khenrichson@gha-architects.com
TX,COLLIN,21-1968,Retail,6/16/2021,,38000,,"2811 FM 544 W 200",WYLIE,TX,75098,,,"TULSI MEAT MARKET","2811 FM 544 W 200",WYLIE,TX,75098,,Applicant,,,,,OWNER,,,,,OWNER,,,,,,,,,
TX,DALLAS,21-1749,Retail,6/24/2021,,175000,2909,"222 W CAMPBELL RD",RICHARDSON,TX,75081,,,CONTRACTOR,,,,,,,,,,,"EMBREE GROUP OF COMPANIES",,,,,"EMBREE GROUP OF COMPANIES","4747 WILLIAMS DR",GEORGETOWN,TX,78633-2017,"(512) 819-4700",http://www.embreegroup.com/,,,embree@embreegroup.com
TX,DALLAS,21-1900,Retail,6/17/2021,,120000,4538,"1310 W CAMPBELL RD",RICHARDSON,TX,75081,,,CONTRACTOR,,,,,,,,,,,"QUIET MIND CONSTRUCTION ",,,,,"QUIET MIND CONSTRUCTION ","762 COUNTY ROAD 4642",TRENTON,TX,75490-6438,"(214) 536-8819",,,,
TX,DALLAS,20-4148,Retail,6/3/2021,,400000,4875,"520 LOCKWOOD DR",RICHARDSON,TX,75081,,,CONTRACTOR,,,,,,,,,,,"HARRISON CONSTRUCTION",,,,,"HARRISON CONSTRUCTION","8553 NORTH BEACH 189","FORT WORTH",TX,76244,"(817) 715-0770",,,,
TX,DALLAS,20-5567,Retail,6/24/2021,,600000,,"850 E CAMPBELL RD",RICHARDSON,TX,75081,,,CONTRACTOR,,,,,,,,,,,"HUNTER BUILDING CORPORATION",,,,,"HUNTER BUILDING CORPORATION","14609 KIMBERLEY LN",HOUSTON,TX,77079-4513,"(281) 857-3814",,,,
TX,COLLIN,200660,Retail,6/22/2021,Renovation,1500000,50438,"150 E FM 544 # B",MURPHY,TX,75094,,,CONTRACTOR,,,,,,,,,,,"PLANET CONSTRUCTION",,,,,"PLANET CONSTRUCTION","6111 N DIXIE BLVD",ODESSA,TX,79762-3632,"(432) 367-7609",,,,
TX,DALLAS,18-4500,Retail,6/14/2021,,300000,2400,"1250 STATE ST",RICHARDSON,TX,75081,,,CONTRACTOR,,,,,,,,,,,"BUILT FOR LIFE",,,,,"BUILT FOR LIFE","1309 RIDGE RD STE 109",ROCKWALL,TX,75087-4219,"(903) 951-7409",,,,
TX,DALLAS,21-25,Retail,6/25/2021,,30000,2663,"300 TERRACE DR",RICHARDSON,TX,75081,,,CONTRACTOR,,,,,,,,,,,"ENGVEST GROUP",,,,,"ENGVEST GROUP","7005 CHASE OAKS BLVD, STE 200",PLANO,TX,75025,"(469) 916-8888",https://engvest.com/,"(469) 916-8889",,info@engvest.com
TX,COLLIN,210625,Retail,6/28/2021,Renovation,350000,9000,"104 N MURPHY # 200",MURPHY,TX,75094,,,CONTRACTOR,,,,,,,,,,,"TEN CONSTRUCTION",,,,,"TEN CONSTRUCTION","3007 WOODLAND HILLS #100",KINGWOOD,TX,77339,"(281) 705-7348",https://www.tenconstruction.net,,"Thomas E Nelson",
TX,DALLAS,20-4979,Retail,6/9/2021,,46500,4617,"1403 E CAMPBELL RD",RICHARDSON,TX,75081,,,CONTRACTOR,,,,,,,,,,,"JSW EASTRICH",,,,,"JSW EASTRICH","13636 VENTURA BLVD STE 677","SHERMAN OAKS",CA,91423,"(818) 206-4526",,,"RUPESH BHAKTA",
TX,DALLAS,21-367,Retail,6/17/2021,,153000,1893,"2701 CUSTER PKWY",RICHARDSON,TX,75081,,,CONTRACTOR,,,,,,,,,,,"MODERN VINTAGE CUSTOMS",,,,,"MODERN VINTAGE CUSTOMS","2674 LOMBARDY LN",DALLAS,TX,75220,"(469) 687-0000",,,,
TX,DALLAS,20-5865,Retail,6/9/2021,,800000,5690,"1415 STATE ST",RICHARDSON,TX,75081,,,CONTRACTOR,,,,,,,,,,,"ASHTON COMMERCIAL CONSTRUCTION",,,,,"ASHTON COMMERCIAL CONSTRUCTION","7850 COLLIN MCKINNEY PKWY STE 110",MCKINNEY,TX,75070-2511,"(214) 826-4955",https://ashtoncc.com/,"(214) 826-4969",,info@ashtoncc.com
TX,DALLAS,20-5902,Retail,6/15/2021,,500000,2434,"1250 RET STATE ST",RICHARDSON,TX,75081,,,CONTRACTOR,,,,,,,,,,,"20-TWENTY CONSTRUCTION",,,,,"20-TWENTY CONSTRUCTION","1806 PIN OAK TRAIL",ANNA,TX,75409,"(214) 460-7860",,,,
TX,DALLAS,21-1579,Retail,6/28/2021,,195000,1832,"1225 E BELT LINE RD",RICHARDSON,TX,75081,,,CONTRACTOR,,,,,,,,,,,"MITCHELL GENERAL CONTRACTORS",,,,,"MITCHELL GENERAL CONTRACTORS","52 TESLA",IRVINE,CA,92618,"(949) 387-4477",,,,
TX,ELLIS,"SFRD -21 - 1571","Single Family Homes",6/28/2021,,,4214,"518 VALLEY DR",MIDLOTHIAN,TX,76065,,,CONTRACTOR,,,,,,,,,,,"FIRST TEXAS HOMES",,,,,"FIRST TEXAS HOMES","500 CRESCENT CT STE 350",DALLAS,TX,75201-7854,"(214) 613-3400",,"(214) 432-0350",,
TX,ELLIS,"SFRD - 21 - 1572","Single Family Homes",6/28/2021,,,3470,"2622WHITE PLAINS DR",MIDLOTHIAN,TX,76065,,,CONTRACTOR,,,,,,,,,,,"FIRST TEXAS HOMES",,,,,"FIRST TEXAS HOMES","500 CRESCENT CT STE 350",DALLAS,TX,75201-7854,"(214) 613-3400",,"(214) 432-0350",,
TX,ELLIS,"SFRD - 21 - 1582","Single Family Homes",6/29/2021,,,2694,"2417 AMESBURY DR",MIDLOTHIAN,TX,76065,,,CONTRACTOR,,,,,,,,,,,"PERRY HOMES",,,,,"PERRY HOMES","2004 VENTURA DR STE 200",PLANO,TX,75093-2003,"(972) 964-7700",,,,
TX,ELLIS,"SFRD -21- 1574","Single Family Homes",6/28/2021,,,2760,"4605 MASSEY MEADOWS WAY",MIDLOTHIAN,TX,76065,,,CONTRACTOR,,,,,,,,,,,"BLOOMFIELD HOMES",,,,,"BLOOMFIELD HOMES","1050 E STATE HIGHWAY 114 STE 210",SOUTHLAKE,TX,76092-5255,"(972) 971-2103",http://bloomfieldhomes.net/,"(972) 987-4342",,mattjennings@bloomfieldhomes.net
TX,ELLIS,"SFRD -21 - 1576","Single Family Homes",6/29/2021,,,4517,"2215 SOMERFIELD DR",MIDLOTHIAN,TX,76065,,,CONTRACTOR,,,,,,,,,,,"CANYON CREEK CUSTOM HOMES",,,,,"CANYON CREEK CUSTOM HOMES","203 GEORGE HOPPER RD STE 400",MIDLOTHIAN,TX,76065-6529,"(214) 454-2064",,,,
TX,ELLIS,"SFRD - 21 - 1593","Single Family Homes",6/30/2021,,,3115,"5820 CONDOR CT",MIDLOTHIAN,TX,76065,,,CONTRACTOR,,,,,,,,,,,"MYSTIC OAK HOMES",,,,,"MYSTIC OAK HOMES","7 KEVIN CT",MANSFIELD,TX,76063-4861,"(817) 477-1207",,,,
TX,TARRANT,"SFRD - 21 - 1596","Single Family Homes",6/30/2021,,,2038,"4018 GROVE VALLEY RD",MANSFIELD,TX,76065,,,CONTRACTOR,,,,,,,,,,,"BLOOMFIELD HOMES",,,,,"BLOOMFIELD HOMES","1050 E STATE HIGHWAY 114 STE 210",SOUTHLAKE,TX,76092-5255,"(972) 971-2103",http://bloomfieldhomes.net/,"(972) 987-4342",,mattjennings@bloomfieldhomes.net
TX,COLLIN,"BLDSF - 21 - 3361","Single Family Homes",6/8/2021,,327364,2507,"6333 TUDOR PL",CELINA,TX,76227,"SUTTON FIELDS",59,CONTRACTOR,,,,,,,,,,,"DR HORTON",,,,,"DR HORTON","6751 NORTH FWY","FT WORTH",TX,76131-2802,"(817) 230-0800",,,,
TX,COLLIN,"BLDSF - 21 - 3358","Single Family Homes",6/23/2021,,565020,4327,"3363 WAVERLY DR",CELINA,TX,75009,"LIGHT FARMS",10,CONTRACTOR,,,,,,,,,,,"SHADDOCK HOMES",,,,,"SHADDOCK HOMES","2400 DALLAS PKWY",PLANO,TX,75093-4370,"(469) 241-9581",http://www.shaddockhomes.com,,,
TX,COLLIN,"BLDSF - 21 - 3347","Single Family Homes",6/11/2021,,491634,3765,"3600 HIGHLAND BAYOU DR",CELINA,TX,75078,"CREEKS OF LEGACY",18,CONTRACTOR,,,,,,,,,,,"KB HOME",,,,,"KB HOME","5625 RIDGE LAKE DR","FORT WORTH",TX,76244-5148,"(800) 713-1170",,,,
TX,COLLIN,"BLDSF - 21 - 3349","Single Family Homes",6/8/2021,,479229,3670,"5501 FAWN DR",CELINA,TX,75009,"GREEN MEADOWS",6,CONTRACTOR,,,,,,,,,,,"GEHAN HOMES",,,,,"GEHAN HOMES","14901 QUORUM DR STE 300",DALLAS,TX,75254-6735,"(972) 383-4300",http://www.gehanhomes.com,,,
TX,COLLIN,"BLDSF - 21 - 3346","Single Family Homes",6/8/2021,,567109,4343,"16809 CLOVER DR",CELINA,TX,75009,"GREEN MEADOWS",18,CONTRACTOR,,,,,,,,,,,"GEHAN HOMES",,,,,"GEHAN HOMES","14901 QUORUM DR STE 300",DALLAS,TX,75254-6735,"(972) 383-4300",http://www.gehanhomes.com,,,
TX,COLLIN,"BLDSF - 21 - 3355","Single Family Homes",6/14/2021,,474528,3634,"412 REMINGTON RD",CELINA,TX,75009,"LIGHT FARMS SAGE",14,CONTRACTOR,,,,,,,,,,,"K HOVNANIAN HOMES",,,,,"K HOVNANIAN HOMES","5808 W PLANO PKWY",PLANO,TX,75093-4636,"(469) 737-1400",,,,
TX,COLLIN,"BLDSF - 21 - 3366","Single Family Homes",6/14/2021,,490197,3754,"2009 ADLEIGH RD",CELINA,TX,75009,"CAMBRIDGE CROSSING",24,CONTRACTOR,,,,,,,,,,,"MHI MCGUYER HOMEBUILDERS",,,,,"MHI MCGUYER HOMEBUILDERS","1501 LYNDON B JOHNSON FWY STE 100",DALLAS,TX,75234-6029,"(972) 277-3811",,,,
TX,COLLIN,"BLDSF - 21 - 3368","Single Family Homes",6/14/2021,,449848,3445,"2209 ESSEX CT",CELINA,TX,75009,"CAMBRIDGE CROSSING",30,CONTRACTOR,,,,,,,,,,,"MHI MCGUYER HOMEBUILDERS",,,,,"MHI MCGUYER HOMEBUILDERS","1501 LYNDON B JOHNSON FWY STE 100",DALLAS,TX,75234-6029,"(972) 277-3811",,,,
TX,COLLIN,"BLDSF - 21 - 3367","Single Family Homes",6/17/2021,,490850,3759,"1600 BLUEBONNET LN",CELINA,TX,75078,LILYANA,13,CONTRACTOR,,,,,,,,,,,"AMERICAN LEGEND HOMES",,,,,"AMERICAN LEGEND HOMES","2540 KING ARTHUR BLVD STE 200",LEWISVILLE,TX,75056-5833,"(972) 410-5701",http://www.amlegendhomes.com/,"(972) 410-5750",,
TX,COLLIN,"BLDSF - 21 - 3364","Single Family Homes",6/17/2021,,394221,3019,"1700 DAISY CORNER DR",CELINA,TX,75078,LILYANA,17,CONTRACTOR,,,,,,,,,,,"AMERICAN LEGEND HOMES",,,,,"AMERICAN LEGEND HOMES","2540 KING ARTHUR BLVD STE 200",LEWISVILLE,TX,75056-5833,"(972) 410-5701",http://www.amlegendhomes.com/,"(972) 410-5750",,
TX,DENTON,2106-0264,"Single Family Homes",6/30/2021,,441320,,"3013 WARRINGTON","THE COLONY",TX,75056,,,CONTRACTOR,,,,,,,,,,,"AMERICAN LEGEND HOMES",,,,,"AMERICAN LEGEND HOMES","2540 KING ARTHUR BLVD STE 200",LEWISVILLE,TX,75056-5833,"(972) 410-5701",http://www.amlegendhomes.com/,"(972) 410-5750",,
TX,DENTON,2106-0037,"Single Family Homes",6/10/2021,,499450,,"3012 PRESCOTT","THE COLONY",TX,75056,,,CONTRACTOR,,,,,,,,,,,"AMERICAN LEGEND HOMES",,,,,"AMERICAN LEGEND HOMES","2540 KING ARTHUR BLVD STE 200",LEWISVILLE,TX,75056-5833,"(972) 410-5701",http://www.amlegendhomes.com/,"(972) 410-5750",,
TX,DENTON,2106-0034,"Single Family Homes",6/10/2021,,506577,,"3029 WARRINGTON","THE COLONY",TX,75056,,,CONTRACTOR,,,,,,,,,,,"AMERICAN LEGEND HOMES",,,,,"AMERICAN LEGEND HOMES","2540 KING ARTHUR BLVD STE 200",LEWISVILLE,TX,75056-5833,"(972) 410-5701",http://www.amlegendhomes.com/,"(972) 410-5750",,
TX,DENTON,2106-0035,"Single Family Homes",6/10/2021,,347666,,"3017 WARRINGTON","THE COLONY",TX,75056,,,CONTRACTOR,,,,,,,,,,,"AMERICAN LEGEND HOMES",,,,,"AMERICAN LEGEND HOMES","2540 KING ARTHUR BLVD STE 200",LEWISVILLE,TX,75056-5833,"(972) 410-5701",http://www.amlegendhomes.com/,"(972) 410-5750",,
TX,DENTON,2106-0036,"Single Family Homes",6/10/2021,,453236,,"3016 PRESCOTT","THE COLONY",TX,75056,,,CONTRACTOR,,,,,,,,,,,"AMERICAN LEGEND HOMES",,,,,"AMERICAN LEGEND HOMES","2540 KING ARTHUR BLVD STE 200",LEWISVILLE,TX,75056-5833,"(972) 410-5701",http://www.amlegendhomes.com/,"(972) 410-5750",,
TX,DENTON,2106-0038,"Single Family Homes",6/10/2021,,349782,,"3000 PRESCOTT","THE COLONY",TX,75056,,,CONTRACTOR,,,,,,,,,,,"AMERICAN LEGEND HOMES",,,,,"AMERICAN LEGEND HOMES","2540 KING ARTHUR BLVD STE 200",LEWISVILLE,TX,75056-5833,"(972) 410-5701",http://www.amlegendhomes.com/,"(972) 410-5750",,
TX,COLLIN,"BLDSF - 21 - 3348","Single Family Homes",6/28/2021,,448673,3436,"3015 CULVER AVE",CELINA,TX,75009,SWEETWATER,4,CONTRACTOR,,,,,,,,,,,"M/I HOMES",,,,,"M/I HOMES","405 STATE HIGHWAY 121 BYP STE A210",LEWISVILLE,TX,75067-8214,"(210) 546-2129",,"(210) 546-2196",,
TX,COLLIN,"BLDSF - 21 - 3357","Single Family Homes",6/18/2021,,437051,3347,"912 ROBIN RD",CELINA,TX,75009,BLUEWOOD,16,CONTRACTOR,,,,,,,,,,,"M/I HOMES",,,,,"M/I HOMES","405 STATE HIGHWAY 121 BYP STE A210",LEWISVILLE,TX,75067-8214,"(210) 546-2129",,"(210) 546-2196",,
TX,COLLIN,"BLDSF - 21 - 3351","Single Family Homes",6/10/2021,,490328,3755,"3316 SUNDAY SILENCE LN",CELINA,TX,75009,"MUSTANG LAKES",22,CONTRACTOR,,,,,,,,,,,"PERRY HOMES",,,,,"PERRY HOMES","2004 VENTURA DR STE 200",PLANO,TX,75093-2003,"(972) 964-7700",,,,
TX,COLLIN,"BLDSF - 21 - 3352","Single Family Homes",6/10/2021,,487586,3734,"3216 SUNDAY SILENCE LN",CELINA,TX,75009,"MUSTANG LAKES",29,CONTRACTOR,,,,,,,,,,,"PERRY HOMES",,,,,"PERRY HOMES","2004 VENTURA DR STE 200",PLANO,TX,75093-2003,"(972) 964-7700",,,,
TX,DENTON,2106-0159,"Single Family Homes",6/23/2021,,426621,,"2720 CASTLEBRIDGE","THE COLONY",TX,75056,,,CONTRACTOR,,,,,,,,,,,"TAYLOR MORRISON OF TEXAS",,,,,"TAYLOR MORRISON OF TEXAS","2500 LEGACY DR STE 100",FRISCO,TX,75034-5984,"(469) 252-2200",,,,
TX,DENTON,2106-0156,"Single Family Homes",6/18/2021,,474505,,"2728 CASTLEBRIDGE","THE COLONY",TX,75056,,,CONTRACTOR,,,,,,,,,,,"TAYLOR MORRISON OF TEXAS",,,,,"TAYLOR MORRISON OF TEXAS","2500 LEGACY DR STE 100",FRISCO,TX,75034-5984,"(469) 252-2200",,,,
TX,DENTON,2106-0157,"Single Family Homes",6/18/2021,,387645,,"2717 CUMBERLAND","THE COLONY",TX,75056,,,CONTRACTOR,,,,,,,,,,,"TAYLOR MORRISON OF TEXAS",,,,,"TAYLOR MORRISON OF TEXAS","2500 LEGACY DR STE 100",FRISCO,TX,75034-5984,"(469) 252-2200",,,,
TX,DENTON,2106-0158,"Single Family Homes",6/18/2021,,369716,,"2613 FAIRWAY","THE COLONY",TX,75056,,,CONTRACTOR,,,,,,,,,,,"TAYLOR MORRISON OF TEXAS",,,,,"TAYLOR MORRISON OF TEXAS","2500 LEGACY DR STE 100",FRISCO,TX,75034-5984,"(469) 252-2200",,,,
TX,DENTON,2106-0085,"Single Family Homes",6/22/2021,,385083,,"3008 PRESCOTT","THE COLONY",TX,75056,,,CONTRACTOR,,,,,,,,,,,"BRITTON HOMES",,,,,"BRITTON HOMES","5055 WEST PARK BLVD",PLANO,TX,75093,"(713) 948-4485",,,,
TX,DENTON,2106-0086,"Single Family Homes",6/22/2021,,275728,,"3020 WARRINGTON","THE COLONY",TX,75056,,,CONTRACTOR,,,,,,,,,,,"BRITTON HOMES",,,,,"BRITTON HOMES","5055 WEST PARK BLVD",PLANO,TX,75093,"(713) 948-4485",,,,
TX,DENTON,2106-0087,"Single Family Homes",6/24/2021,,350116,,"3021 WARRINGTON","THE COLONY",TX,75056,,,CONTRACTOR,,,,,,,,,,,"BRITTON HOMES",,,,,"BRITTON HOMES","5055 WEST PARK BLVD",PLANO,TX,75093,"(713) 948-4485",,,,
TX,DENTON,2106-0089,"Single Family Homes",6/24/2021,,426732,,"3009 WARRINGTON","THE COLONY",TX,75056,,,CONTRACTOR,,,,,,,,,,,"BRITTON HOMES",,,,,"BRITTON HOMES","5055 WEST PARK BLVD",PLANO,TX,75093,"(713) 948-4485",,,,
TX,DENTON,2106-0088,"Single Family Homes",6/22/2021,,258356,,"3005 WARRINGTON","THE COLONY",TX,75056,,,CONTRACTOR,,,,,,,,,,,"BRITTON HOMES",,,,,"BRITTON HOMES","5055 WEST PARK BLVD",PLANO,TX,75093,"(713) 948-4485",,,,
TX,COLLIN,"BLDSF - 21 - 3412","Single Family Homes",6/15/2021,,508609,3895,"1917 RENWICK DR",CELINA,TX,75009,"GLEN CROSSING",16,CONTRACTOR,,,,,,,,,,,"HISTORY MAKER HOMES",,,,,"HISTORY MAKER HOMES","9001 AIRPORT FWY SUITE 400","NORTH RICHLAND HILLS",TX,76180-7769,"(817) 429-8008",http://www.historymaker.com/,"(817) 507-1102","JILL BARFIELD",
TX,COLLIN,"BLDSF - 21 - 3413","Single Family Homes",6/15/2021,,352566,2700,"2024 RHEA CT",CELINA,TX,75009,"GLEN CROSSING",6,CONTRACTOR,,,,,,,,,,,"HISTORY MAKER HOMES",,,,,"HISTORY MAKER HOMES","9001 AIRPORT FWY SUITE 400","NORTH RICHLAND HILLS",TX,76180-7769,"(817) 429-8008",http://www.historymaker.com/,"(817) 507-1102","JILL BARFIELD",
TX,COLLIN,"BLDSF - 21 - 3414","Single Family Homes",6/15/2021,,430653,3298,"1904 DALDORAN DR",CELINA,TX,75009,"GLEN CROSSING",23,CONTRACTOR,,,,,,,,,,,"HISTORY MAKER HOMES",,,,,"HISTORY MAKER HOMES","9001 AIRPORT FWY SUITE 400","NORTH RICHLAND HILLS",TX,76180-7769,"(817) 429-8008",http://www.historymaker.com/,"(817) 507-1102","JILL BARFIELD",
TX,COLLIN,"BLDSF - 21 - 3415","Single Family Homes",6/15/2021,,333893,2557,"1818 RHEA CT",CELINA,TX,75009,"GLEN CROSSING",5,CONTRACTOR,,,,,,,,,,,"HISTORY MAKER HOMES",,,,,"HISTORY MAKER HOMES","9001 AIRPORT FWY SUITE 400","NORTH RICHLAND HILLS",TX,76180-7769,"(817) 429-8008",http://www.historymaker.com/,"(817) 507-1102","JILL BARFIELD",
TX,COLLIN,"BLDSF - 21 - 3416","Single Family Homes",6/22/2021,,500644,3834,"1801 LITHGOW RD",CELINA,TX,75009,"GLEN CROSSING",11,CONTRACTOR,,,,,,,,,,,"HISTORY MAKER HOMES",,,,,"HISTORY MAKER HOMES","9001 AIRPORT FWY SUITE 400","NORTH RICHLAND HILLS",TX,76180-7769,"(817) 429-8008",http://www.historymaker.com/,"(817) 507-1102","JILL BARFIELD",
TX,COLLIN,"BLDSF - 21 - 3475","Single Family Homes",6/22/2021,,474789,3636,"1812 DALDORAN DR",CELINA,TX,75009,"GLEN CROSSING",1,CONTRACTOR,,,,,,,,,,,"HISTORY MAKER HOMES",,,,,"HISTORY MAKER HOMES","9001 AIRPORT FWY SUITE 400","NORTH RICHLAND HILLS",TX,76180-7769,"(817) 429-8008",http://www.historymaker.com/,"(817) 507-1102","JILL BARFIELD",
TX,COLLIN,"BLDSF - 21 - 3477","Single Family Homes",6/22/2021,,475181,3639,"1920 ST. ANDREWS DR",CELINA,TX,75009,"GLEN CROSSING",6,CONTRACTOR,,,,,,,,,,,"HISTORY MAKER HOMES",,,,,"HISTORY MAKER HOMES","9001 AIRPORT FWY SUITE 400","NORTH RICHLAND HILLS",TX,76180-7769,"(817) 429-8008",http://www.historymaker.com/,"(817) 507-1102","JILL BARFIELD",
TX,COLLIN,"BLDSF - 21 - 3384","Single Family Homes",6/21/2021,,624434,4782,"4314 WELLSPRING PKWY",CELINA,TX,75009,"WELLSPRING ESTATES",15,CONTRACTOR,,,,,,,,,,,"GRAND HOMES",,,,,"GRAND HOMES","15455 DALLAS PKWY STE 1000",ADDISON,TX,75001-6772,"(214) 750-6528",http://www.grandhomes.com/,"(214) 750-6849",,info@grandhomes.com
TX,COLLIN,"BLDSF - 21 - 3371","Single Family Homes",6/28/2021,,428564,3282,"3541 WEST CHENEY",CELINA,TX,75009,"LIGHT FARMS BRENHAM",28,CONTRACTOR,,,,,,,,,,,"SHADDOCK HOMES",,,,,"SHADDOCK HOMES","2400 DALLAS PKWY",PLANO,TX,75093-4370,"(469) 241-9581",http://www.shaddockhomes.com,,,
TX,COLLIN,"BLDSF - 21 - 3445","Single Family Homes",6/28/2021,,411980,3155,"3544 EAST CHENEY",CELINA,TX,75009,"LIGHT FARMS BRENHAM",32,CONTRACTOR,,,,,,,,,,,"SHADDOCK HOMES",,,,,"SHADDOCK HOMES","2400 DALLAS PKWY",PLANO,TX,75093-4370,"(469) 241-9581",http://www.shaddockhomes.com,,,
TX,COLLIN,"BLDSF - 21 - 3405","Single Family Homes",6/16/2021,,323838,2480,"3610 KEECHI CREEK DR",CELINA,TX,75078,"CREEKS OF LEGACY",17,CONTRACTOR,,,,,,,,,,,"KB HOME",,,,,"KB HOME","5625 RIDGE LAKE DR","FORT WORTH",TX,76244-5148,"(800) 713-1170",,,,
TX,COLLIN,"BLDSF - 21 - 3485","Single Family Homes",6/30/2021,,407148,3118,"3601 KEECHI CREEK DR",CELINA,TX,75078,"CREEKS OF LEGACY",42,CONTRACTOR,,,,,,,,,,,"KB HOME",,,,,"KB HOME","5625 RIDGE LAKE DR","FORT WORTH",TX,76244-5148,"(800) 713-1170",,,,
TX,COLLIN,"BLDSF - 21 - 3486","Single Family Homes",6/25/2021,,407148,3118,"3609 KEECHI CREEK DR",CELINA,TX,75078,"CREEKS OF LEGACY",40,CONTRACTOR,,,,,,,,,,,"KB HOME",,,,,"KB HOME","5625 RIDGE LAKE DR","FORT WORTH",TX,76244-5148,"(800) 713-1170",,,,
TX,COLLIN,"BLDSF - 21 - 3502","Single Family Homes",6/15/2021,,364057,2788,"5512 BREEZY DR",CELINA,TX,75009,"GREEN MEADOWS",13,CONTRACTOR,,,,,,,,,,,"GEHAN HOMES",,,,,"GEHAN HOMES","14901 QUORUM DR STE 300",DALLAS,TX,75254-6735,"(972) 383-4300",http://www.gehanhomes.com,,,
TX,COLLIN,"BLDSF - 21 - 3396","Single Family Homes",6/10/2021,,490850,3759,"16401 HIGHLAND DR",CELINA,TX,75009,"GREEN MEADOWS",3,CONTRACTOR,,,,,,,,,,,"GEHAN HOMES",,,,,"GEHAN HOMES","14901 QUORUM DR STE 300",DALLAS,TX,75254-6735,"(972) 383-4300",http://www.gehanhomes.com,,,
TX,COLLIN,"BLDSF - 21 - 3383","Single Family Homes",6/10/2021,,478706,3666,"16608 HIDDEN COVE DR",CELINA,TX,75009,"GREEN MEADOWS",17,CONTRACTOR,,,,,,,,,,,"GEHAN HOMES",,,,,"GEHAN HOMES","14901 QUORUM DR STE 300",DALLAS,TX,75254-6735,"(972) 383-4300",http://www.gehanhomes.com,,,
TX,COLLIN,"BLDSF - 21 - 3391","Single Family Homes",6/10/2021,,655903,5023,"16509 SUNNYLAND DR",CELINA,TX,75009,"GREEN MEADOWS",22,CONTRACTOR,,,,,,,,,,,"GEHAN HOMES",,,,,"GEHAN HOMES","14901 QUORUM DR STE 300",DALLAS,TX,75254-6735,"(972) 383-4300",http://www.gehanhomes.com,,,
TX,COLLIN,"BLDSF - 21 - 3393","Single Family Homes",6/18/2021,,415897,3185,"5604 PEBBLE DR",CELINA,TX,75009,"GREEN MEADOWS",36,CONTRACTOR,,,,,,,,,,,"GEHAN HOMES",,,,,"GEHAN HOMES","14901 QUORUM DR STE 300",DALLAS,TX,75254-6735,"(972) 383-4300",http://www.gehanhomes.com,,,
TX,COLLIN,"BLDSF - 21 - 3394","Single Family Homes",6/18/2021,,438488,3358,"16709 GARDEN DR",CELINA,TX,75009,"GREEN MEADOWS",4,CONTRACTOR,,,,,,,,,,,"GEHAN HOMES",,,,,"GEHAN HOMES","14901 QUORUM DR STE 300",DALLAS,TX,75254-6735,"(972) 383-4300",http://www.gehanhomes.com,,,
TX,COLLIN,"BLDSF - 21 - 3495","Single Family Homes",6/23/2021,,392262,3004,"3805 CHALK HILL AVE",CELINA,TX,75009,"CHALK HILL",29,CONTRACTOR,,,,,,,,,,,"BEAZER HOMES ",,,,,"BEAZER HOMES ","1750 VALLEY VIEW LN STE 200",DALLAS,TX,75234-9010,"(972) 250-5517",http://www.beazer.com/,,,bret.kolbe@beazer.com
TX,COLLIN,"BLDSF - 21 - 3496","Single Family Homes",6/23/2021,,348126,2666,"1309 JOHNSON DR",CELINA,TX,75009,"CHALK HILL",9,CONTRACTOR,,,,,,,,,,,"BEAZER HOMES ",,,,,"BEAZER HOMES ","1750 VALLEY VIEW LN STE 200",DALLAS,TX,75234-9010,"(972) 250-5517",http://www.beazer.com/,,,bret.kolbe@beazer.com
TX,COLLIN,"BLDSF - 21 - 3498","Single Family Homes",6/23/2021,,405320,3104,"1213 KADE AVE",CELINA,TX,75009,"CHALK HILL",3,CONTRACTOR,,,,,,,,,,,"BEAZER HOMES ",,,,,"BEAZER HOMES ","1750 VALLEY VIEW LN STE 200",DALLAS,TX,75234-9010,"(972) 250-5517",http://www.beazer.com/,,,bret.kolbe@beazer.com
TX,COLLIN,"BLDSF - 21 - 3397","Single Family Homes",6/18/2021,,515530,3948,"3409 LILLIAN CT",CELINA,TX,75009,"THE HOMESTEAD AT OWNSBY FARMS",3,CONTRACTOR,,,,,,,,,,,"PULTE HOMES",,,,,"PULTE HOMES","4800 REGENT BLVD",IRVING,TX,75063-2439,"(972) 304-2800",,,,
TX,COLLIN,"BLDSF - 21 - 3465","Single Family Homes",6/18/2021,,366277,2805,"3500 LILLIAN CT",CELINA,TX,75009,"THE HOMESTEAD AT OWNSBY FARMS",7,CONTRACTOR,,,,,,,,,,,"PULTE HOMES",,,,,"PULTE HOMES","4800 REGENT BLVD",IRVING,TX,75063-2439,"(972) 304-2800",,,,
TX,COLLIN,"BLDSF - 21 - 3466","Single Family Homes",6/21/2021,,485888,3721,"409 CHRISTIE CROSSING",CELINA,TX,75009,"THE HOMESTEAD AT OWNSBY FARMS",13,CONTRACTOR,,,,,,,,,,,"PULTE HOMES",,,,,"PULTE HOMES","4800 REGENT BLVD",IRVING,TX,75063-2439,"(972) 304-2800",,,,
TX,COLLIN,"BLDSF - 21 - 3400","Single Family Homes",6/18/2021,,328409,,"3424 LILLIAN CT",CELINA,TX,75009,"THE HOMESTEAD AT OWNSBY FARMS",6,CONTRACTOR,,,,,,,,,,,"PULTE HOMES",,,,,"PULTE HOMES","4800 REGENT BLVD",IRVING,TX,75063-2439,"(972) 304-2800",,,,
TX,COLLIN,"BLDSF - 21 - 3448","Single Family Homes",6/30/2021,,420206,3218,"16500 SUNNYLAND DR",CELINA,TX,75009,"GREEN MEADOWS",8,CONTRACTOR,,,,,,,,,,,"PACESETTER HOMES ",,,,,"PACESETTER HOMES ","14875 DANEWAY DR",FRISCO,TX,75035-4819,"(214) 298-8350",,,,
TX,COLLIN,"BLDSF - 21 - 3449","Single Family Homes",6/16/2021,,427911,3277,"16605 GARDEN DR",CELINA,TX,75009,"GREEN MEADOWS",13,CONTRACTOR,,,,,,,,,,,"PACESETTER HOMES ",,,,,"PACESETTER HOMES ","14875 DANEWAY DR",FRISCO,TX,75035-4819,"(214) 298-8350",,,,
TX,COLLIN,"BLDSF - 21 - 3450","Single Family Homes",6/29/2021,,400750,3069,"16613 HIGHLAND DR",CELINA,TX,75009,"GREEN MEADOWS",3,CONTRACTOR,,,,,,,,,,,"PACESETTER HOMES ",,,,,"PACESETTER HOMES ","14875 DANEWAY DR",FRISCO,TX,75035-4819,"(214) 298-8350",,,,
TX,COLLIN,"BLDSF - 21 - 3451","Single Family Homes",6/29/2021,,510829,3912,"5109 BRIDGE DR",CELINA,TX,75009,"GREEN MEADOWS",20,CONTRACTOR,,,,,,,,,,,"PACESETTER HOMES ",,,,,"PACESETTER HOMES ","14875 DANEWAY DR",FRISCO,TX,75035-4819,"(214) 298-8350",,,,
TX,COLLIN,"BLDSF - 21 - 3452","Single Family Homes",6/16/2021,,430392,3296,"5501 DEER RUN DR",CELINA,TX,75009,"GREEN MEADOWS",7,CONTRACTOR,,,,,,,,,,,"PACESETTER HOMES ",,,,,"PACESETTER HOMES ","14875 DANEWAY DR",FRISCO,TX,75035-4819,"(214) 298-8350",,,,
TX,COLLIN,"BLDSF - 21 - 3453","Single Family Homes",6/29/2021,,515530,3948,"16416 SUNNYLAND DR",CELINA,TX,75009,"GREEN MEADOWS",10,CONTRACTOR,,,,,,,,,,,"PACESETTER HOMES ",,,,,"PACESETTER HOMES ","14875 DANEWAY DR",FRISCO,TX,75035-4819,"(214) 298-8350",,,,
TX,COLLIN,"BLDSF - 21 - 3455","Single Family Homes",6/14/2021,,510829,3912,"17016 CLOVER DR",CELINA,TX,75009,"GREEN MEADOWS",13,CONTRACTOR,,,,,,,,,,,"PACESETTER HOMES ",,,,,"PACESETTER HOMES ","14875 DANEWAY DR",FRISCO,TX,75035-4819,"(214) 298-8350",,,,
TX,COLLIN,"BLDSF - 21 - 3406","Single Family Homes",6/23/2021,,574944,4403,"3316 ZENYATTA CT",CELINA,TX,75009,"MUSTANG LAKES",16,CONTRACTOR,,,,,,,,,,,"MHI MCGUYER HOMEBUILDERS",,,,,"MHI MCGUYER HOMEBUILDERS","1501 LYNDON B JOHNSON FWY STE 100",DALLAS,TX,75234-6029,"(972) 277-3811",,,,
TX,COLLIN,"BLDSF - 21 - 3369","Single Family Homes",6/14/2021,,437443,3350,"2818 CARISBROOKE ST",CELINA,TX,75009,"CAMBRIDGE CROSSING",8,CONTRACTOR,,,,,,,,,,,"MHI MCGUYER HOMEBUILDERS",,,,,"MHI MCGUYER HOMEBUILDERS","1501 LYNDON B JOHNSON FWY STE 100",DALLAS,TX,75234-6029,"(972) 277-3811",,,,
TX,COLLIN,"BLDSF - 21 - 3370","Single Family Homes",6/14/2021,,475181,3639,"1809 SCOTNEY CT",CELINA,TX,75009,"CAMBRIDGE CROSSING",67,CONTRACTOR,,,,,,,,,,,"MHI MCGUYER HOMEBUILDERS",,,,,"MHI MCGUYER HOMEBUILDERS","1501 LYNDON B JOHNSON FWY STE 100",DALLAS,TX,75234-6029,"(972) 277-3811",,,,
TX,COLLIN,"BLDSF - 21 - 3456","Single Family Homes",6/28/2021,,451154,3455,"1708 ANN ST",CELINA,TX,75009,GREENWAY,9,CONTRACTOR,,,,,,,,,,,"M/I HOMES",,,,,"M/I HOMES","405 STATE HIGHWAY 121 BYP STE A210",LEWISVILLE,TX,75067-8214,"(210) 546-2129",,"(210) 546-2196",,
TX,COLLIN,"BLDSF - 21 - 3457","Single Family Homes",6/28/2021,,430131,3294,"3321 AZURE LN",CELINA,TX,75009,BLUEWOOD,14,CONTRACTOR,,,,,,,,,,,"M/I HOMES",,,,,"M/I HOMES","405 STATE HIGHWAY 121 BYP STE A210",LEWISVILLE,TX,75067-8214,"(210) 546-2129",,"(210) 546-2196",,
TX,COLLIN,"BLDSF - 21 - 3436","Single Family Homes",6/18/2021,,604194,4627,"1620 DAISY CORNER DR",CELINA,TX,75078,LILYANA,21,CONTRACTOR,,,,,,,,,,,"M/I HOMES",,,,,"M/I HOMES","405 STATE HIGHWAY 121 BYP STE A210",LEWISVILLE,TX,75067-8214,"(210) 546-2129",,"(210) 546-2196",,
TX,COLLIN,"BLDSF - 21 - 3440","Single Family Homes",6/28/2021,,615946,4717,"1717 PECOS DR",CELINA,TX,75009,GREENWAY,32,CONTRACTOR,,,,,,,,,,,"M/I HOMES",,,,,"M/I HOMES","405 STATE HIGHWAY 121 BYP STE A210",LEWISVILLE,TX,75067-8214,"(210) 546-2129",,"(210) 546-2196",,
TX,COLLIN,"BLDSF - 21 - 3443","Single Family Homes",6/18/2021,,661388,5065,"1400 BUCKLEY ST",CELINA,TX,75009,GREENWAY,12,CONTRACTOR,,,,,,,,,,,"M/I HOMES",,,,,"M/I HOMES","405 STATE HIGHWAY 121 BYP STE A210",LEWISVILLE,TX,75067-8214,"(210) 546-2129",,"(210) 546-2196",,
TX,COLLIN,"BLDSF - 21 - 3444","Single Family Homes",6/28/2021,,691421,5295,"1707 EMILIA DR",CELINA,TX,75009,GREENWAY,12,CONTRACTOR,,,,,,,,,,,"M/I HOMES",,,,,"M/I HOMES","405 STATE HIGHWAY 121 BYP STE A210",LEWISVILLE,TX,75067-8214,"(210) 546-2129",,"(210) 546-2196",,
TX,COLLIN,"BLDSF - 21 - 3472","Single Family Homes",6/28/2021,,614118,4703,"1624 DAISY CORNER DR",CELINA,TX,75078,LILYANA,20,CONTRACTOR,,,,,,,,,,,"M/I HOMES",,,,,"M/I HOMES","405 STATE HIGHWAY 121 BYP STE A210",LEWISVILLE,TX,75067-8214,"(210) 546-2129",,"(210) 546-2196",,
TX,COLLIN,"BLDSF - 21 - 3478","Single Family Homes",6/28/2021,,461470,3534,"917 VIOLET WAY",CELINA,TX,75009,BLUEWOOD,5,CONTRACTOR,,,,,,,,,,,"M/I HOMES",,,,,"M/I HOMES","405 STATE HIGHWAY 121 BYP STE A210",LEWISVILLE,TX,75067-8214,"(210) 546-2129",,"(210) 546-2196",,
TX,COLLIN,"BLDSF - 21 - 3511","Single Family Homes",6/28/2021,,389651,2984,"3213 AZURE LN",CELINA,TX,75009,BLUEWOOD,22,CONTRACTOR,,,,,,,,,,,"M/I HOMES",,,,,"M/I HOMES","405 STATE HIGHWAY 121 BYP STE A210",LEWISVILLE,TX,75067-8214,"(210) 546-2129",,"(210) 546-2196",,
TX,COLLIN,"BLDSF - 21 - 3513","Single Family Homes",6/28/2021,,609547,4668,"1632 BLUEBONNET LN",CELINA,TX,75078,LILYANA,5,CONTRACTOR,,,,,,,,,,,"M/I HOMES",,,,,"M/I HOMES","405 STATE HIGHWAY 121 BYP STE A210",LEWISVILLE,TX,75067-8214,"(210) 546-2129",,"(210) 546-2196",,
TX,COLLIN,"BLDSF - 21 - 3514","Single Family Homes",6/28/2021,,609547,4668,"1608 BLUEBONNET LN",CELINA,TX,75078,LILYANA,11,CONTRACTOR,,,,,,,,,,,"M/I HOMES",,,,,"M/I HOMES","405 STATE HIGHWAY 121 BYP STE A210",LEWISVILLE,TX,75067-8214,"(210) 546-2129",,"(210) 546-2196",,
TX,COLLIN,"BLDSF - 21 - 3473","Single Family Homes",6/28/2021,,496987,3806,"17217 EASTBROOK DR",CELINA,TX,75009,"GREEN MEADOWS",40,CONTRACTOR,,,,,,,,,,,"CASTLEROCK COMMUNITIES",,,,,"CASTLEROCK COMMUNITIES","7670 WOODWAY DR STE 300",HOUSTON,TX,77063-1520,"(713) 600-7000",http://c-rock.com,"(713) 600-0000",,
TX,COLLIN,"BLDSF - 21 - 3398","Single Family Homes",6/10/2021,,395396,3028,"2520 PREAKNESS PL",CELINA,TX,75009,"MUSTANG LAKES",11,CONTRACTOR,,,,,,,,,,,"PERRY HOMES",,,,,"PERRY HOMES","2004 VENTURA DR STE 200",PLANO,TX,75093-2003,"(972) 964-7700",,,,
TX,COLLIN,"BLDSF - 21 - 3515","Single Family Homes",6/16/2021,,373067,2857,"2432 PREAKNESS PL",CELINA,TX,75009,"MUSTANG LAKES",4,CONTRACTOR,,,,,,,,,,,"PERRY HOMES",,,,,"PERRY HOMES","2004 VENTURA DR STE 200",PLANO,TX,75093-2003,"(972) 964-7700",,,,
TX,COLLIN,"BLDSF - 21 - 3516","Single Family Homes",6/16/2021,,409629,3137,"2612 PREAKNESS PL",CELINA,TX,75009,"MUSTANG LAKES",4,CONTRACTOR,,,,,,,,,,,"PERRY HOMES",,,,,"PERRY HOMES","2004 VENTURA DR STE 200",PLANO,TX,75093-2003,"(972) 964-7700",,,,
TX,COLLIN,"BLDSF - 21 - 3395","Single Family Homes",6/10/2021,,538381,4123,"2525 WAR ADMIRAL ST",CELINA,TX,75009,"MUSTANG LAKES",13,CONTRACTOR,,,,,,,,,,,"PERRY HOMES",,,,,"PERRY HOMES","2004 VENTURA DR STE 200",PLANO,TX,75093-2003,"(972) 964-7700",,,,
TX,COLLIN,"BLDSF - 21 - 3392","Single Family Homes",6/10/2021,,414200,3172,"2600 WAR ADMIRAL ST",CELINA,TX,75009,"MUSTANG LAKES",15,CONTRACTOR,,,,,,,,,,,"PERRY HOMES",,,,,"PERRY HOMES","2004 VENTURA DR STE 200",PLANO,TX,75093-2003,"(972) 964-7700",,,,
TX,COLLIN,"BLDSF - 21 - 3401","Single Family Homes",6/10/2021,,440055,3370,"2431 WAR ADMIRAL ST",CELINA,TX,75009,"MUSTANG LAKES",21,CONTRACTOR,,,,,,,,,,,"PERRY HOMES",,,,,"PERRY HOMES","2004 VENTURA DR STE 200",PLANO,TX,75093-2003,"(972) 964-7700",,,,
TX,COLLIN,"BLDSF - 21 - 3402","Single Family Homes",6/11/2021,,536945,4112,"2936 SALTWOOD CT",CELINA,TX,75009,"CAMBRIDGE CROSSING",15,CONTRACTOR,,,,,,,,,,,"PERRY HOMES",,,,,"PERRY HOMES","2004 VENTURA DR STE 200",PLANO,TX,75093-2003,"(972) 964-7700",,,,
TX,COLLIN,"BLDSF - 21 - 3461","Single Family Homes",6/29/2021,,361445,2768,"2717 SALTWOOD CT",CELINA,TX,75009,"CAMBRIDGE CROSSING",52,CONTRACTOR,,,,,,,,,,,"HIGHLAND HOMES",,,,,"HIGHLAND HOMES","5601 DEMOCRACY DR STE 300",PLANO,TX,75024-3674,"(972) 789-3500",,,,
TX,COLLIN,"BLDSF - 21 - 3474","Single Family Homes",6/30/2021,,699909,5360,"2628 CAMDEN CT",CELINA,TX,75009,"CAMBRIDGE CROSSING",3,CONTRACTOR,,,,,,,,,,,"HIGHLAND HOMES",,,,,"HIGHLAND HOMES","5601 DEMOCRACY DR STE 300",PLANO,TX,75024-3674,"(972) 789-3500",,,,
TX,COLLIN,"BLDSF - 21 - 3425","Single Family Homes",6/18/2021,,482363,3694,"2829 YARMOUTH ST",CELINA,TX,75009,"CAMBRIDGE CROSSING",14,CONTRACTOR,,,,,,,,,,,"UNION MAIN HOMES",,,,,"UNION MAIN HOMES","5005 LYNDON B JOHNSON FWY STE 350",DALLAS,TX,75244-6147,"(832) 775-6367",,,,
TX,COLLIN,"BLDSF - 21 - 3410","Single Family Homes",6/18/2021,,482101,3692,"2029 ADLEIGH RD",CELINA,TX,75009,"CAMBRIDGE CROSSING",29,CONTRACTOR,,,,,,,,,,,"UNION MAIN HOMES",,,,,"UNION MAIN HOMES","5005 LYNDON B JOHNSON FWY STE 350",DALLAS,TX,75244-6147,"(832) 775-6367",,,,
TX,COLLIN,"BLDSF - 21 - 3411","Single Family Homes",6/21/2021,,649113,4971,"1825 SCOTNEY CT",CELINA,TX,75009,"CAMBRIDGE CROSSING",63,CONTRACTOR,,,,,,,,,,,"UNION MAIN HOMES",,,,,"UNION MAIN HOMES","5005 LYNDON B JOHNSON FWY STE 350",DALLAS,TX,75244-6147,"(832) 775-6367",,,,
TX,COLLIN,"BLDSF - 21 - 3403","Single Family Homes",6/16/2021,,380902,2917,"3505 CIMARRON RIVER DR",CELINA,TX,75078,"CREEKS OF LEGACY",13,CONTRACTOR,,,,,,,,,,,"TRI POINTE HOMES",,,,,"TRI POINTE HOMES","4835 LBJ FREEWAY STE 700",DALLAS,TX,75244,"(972) 922-5731",https://investors.tripointehomes.com/,,,
TX,COLLIN,"BLDSF - 21 - 3490","Single Family Homes",6/22/2021,,549220,4206,"3421 CIMARRON RIVER DR",CELINA,TX,75078,"CREEKS OF LEGACY",8,CONTRACTOR,,,,,,,,,,,"TRI POINTE HOMES",,,,,"TRI POINTE HOMES","4835 LBJ FREEWAY STE 700",DALLAS,TX,75244,"(972) 922-5731",https://investors.tripointehomes.com/,,,
TX,COLLIN,"BLDSF - 21 - 3491","Single Family Homes",6/22/2021,,436790,3345,"3631 ALAMOSA RIVER DR",CELINA,TX,75078,"CREEKS OF LEGACY",14,CONTRACTOR,,,,,,,,,,,"TRI POINTE HOMES",,,,,"TRI POINTE HOMES","4835 LBJ FREEWAY STE 700",DALLAS,TX,75244,"(972) 922-5731",https://investors.tripointehomes.com/,,,
TX,COLLIN,"BLDSF - 21 - 3492","Single Family Homes",6/22/2021,,396571,3037,"3417 CIMARRON RIVER DR",CELINA,TX,75078,"CREEKS OF LEGACY",7,CONTRACTOR,,,,,,,,,,,"TRI POINTE HOMES",,,,,"TRI POINTE HOMES","4835 LBJ FREEWAY STE 700",DALLAS,TX,75244,"(972) 922-5731",https://investors.tripointehomes.com/,,,
TX,COLLIN,"BLDSF - 21 - 3544","Single Family Homes",6/29/2021,,632007,4840,"3309 AUSTIN BAYOU TRL",CELINA,TX,75078,"CREEKS OF LEGACY",9,CONTRACTOR,,,,,,,,,,,"FIRST TEXAS HOMES",,,,,"FIRST TEXAS HOMES","500 CRESCENT CT STE 350",DALLAS,TX,75201-7854,"(214) 613-3400",,"(214) 432-0350",,
TX,COLLIN,"BLDSF - 21 - 3644","Single Family Homes",6/24/2021,,323186,2475,"4029 AGATHA CT",CELINA,TX,76227,"SUTTON FIELDS",1,CONTRACTOR,,,,,,,,,,,"DR HORTON",,,,,"DR HORTON","6751 NORTH FWY","FT WORTH",TX,76131-2802,"(817) 230-0800",,,,
TX,COLLIN,"BLDSF - 21 - 3648","Single Family Homes",6/23/2021,,357267,2736,"4017 AGATHA CT",CELINA,TX,76227,"SUTTON FIELDS",4,CONTRACTOR,,,,,,,,,,,"DR HORTON",,,,,"DR HORTON","6751 NORTH FWY","FT WORTH",TX,76131-2802,"(817) 230-0800",,,,
TX,COLLIN,"BLDSF - 21 - 3649","Single Family Homes",6/23/2021,,313653,2402,"4025 AGATHA CT",CELINA,TX,76227,"SUTTON FIELDS",2,CONTRACTOR,,,,,,,,,,,"DR HORTON",,,,,"DR HORTON","6751 NORTH FWY","FT WORTH",TX,76131-2802,"(817) 230-0800",,,,
TX,COLLIN,"BLDSF - 21 - 3650","Single Family Homes",6/23/2021,,294066,2252,"4021 AGATHA CT",CELINA,TX,76227,"SUTTON FIELDS",3,CONTRACTOR,,,,,,,,,,,"DR HORTON",,,,,"DR HORTON","6751 NORTH FWY","FT WORTH",TX,76131-2802,"(817) 230-0800",,,,
TX,COLLIN,"BLDSF - 21 - 3653","Single Family Homes",6/24/2021,,325667,2494,"4013 AGATHA CT",CELINA,TX,76227,"SUTTON FIELDS",5,CONTRACTOR,,,,,,,,,,,"DR HORTON",,,,,"DR HORTON","6751 NORTH FWY","FT WORTH",TX,76131-2802,"(817) 230-0800",,,,
TX,COLLIN,"BLDSF - 21 - 3654","Single Family Homes",6/24/2021,,294066,2252,"4009 AGATHA CT",CELINA,TX,76227,"SUTTON FIELDS",6,CONTRACTOR,,,,,,,,,,,"DR HORTON",,,,,"DR HORTON","6751 NORTH FWY","FT WORTH",TX,76131-2802,"(817) 230-0800",,,,
TX,COLLIN,"BLDSF - 21 - 3655","Single Family Homes",6/24/2021,,313653,2402,"4005 AGATHA CT.",CELINA,TX,76227,"SUTTON FIELDS",7,CONTRACTOR,,,,,,,,,,,"DR HORTON",,,,,"DR HORTON","6751 NORTH FWY","FT WORTH",TX,76131-2802,"(817) 230-0800",,,,
TX,COLLIN,"BLDSF - 21 - 3668","Single Family Homes",6/25/2021,,355830,2725,"4008 AGATHA CT",CELINA,TX,76227,"SUTTON FIELDS",9,CONTRACTOR,,,,,,,,,,,"DR HORTON",,,,,"DR HORTON","6751 NORTH FWY","FT WORTH",TX,76131-2802,"(817) 230-0800",,,,
TX,COLLIN,"BLDSF - 21 - 3669","Single Family Homes",6/24/2021,,357267,2736,"4001 AGATHA CT",CELINA,TX,76227,"SUTTON FIELDS",8,CONTRACTOR,,,,,,,,,,,"DR HORTON",,,,,"DR HORTON","6751 NORTH FWY","FT WORTH",TX,76131-2802,"(817) 230-0800",,,,
TX,COLLIN,"BLDSF - 21 - 3670","Single Family Homes",6/25/2021,,313653,2402,"4012 AGATHA CT",CELINA,TX,76227,"SUTTON FIELDS",10,CONTRACTOR,,,,,,,,,,,"DR HORTON",,,,,"DR HORTON","6751 NORTH FWY","FT WORTH",TX,76131-2802,"(817) 230-0800",,,,
TX,COLLIN,"BLDSF - 21 - 3672","Single Family Homes",6/24/2021,,294066,2252,"4016 AGATHA CT",CELINA,TX,76227,"SUTTON FIELDS",11,CONTRACTOR,,,,,,,,,,,"DR HORTON",,,,,"DR HORTON","6751 NORTH FWY","FT WORTH",TX,76131-2802,"(817) 230-0800",,,,
TX,COLLIN,"BLDSF - 21 - 3674","Single Family Homes",6/24/2021,,313653,2402,"4028 AGATHA CT",CELINA,TX,76227,"SUTTON FIELDS",14,CONTRACTOR,,,,,,,,,,,"DR HORTON",,,,,"DR HORTON","6751 NORTH FWY","FT WORTH",TX,76131-2802,"(817) 230-0800",,,,
TX,COLLIN,"BLDSF - 21 - 3675","Single Family Homes",6/24/2021,,362882,2779,"4029 ALCOTT CT",CELINA,TX,76227,"SUTTON FIELDS",15,CONTRACTOR,,,,,,,,,,,"DR HORTON",,,,,"DR HORTON","6751 NORTH FWY","FT WORTH",TX,76131-2802,"(817) 230-0800",,,,
TX,COLLIN,"BLDSF - 21 - 3678","Single Family Homes",6/24/2021,,418248,3203,"4025 ALCOTT CT",CELINA,TX,76227,"SUTTON FIELDS",16,CONTRACTOR,,,,,,,,,,,"DR HORTON",,,,,"DR HORTON","6751 NORTH FWY","FT WORTH",TX,76131-2802,"(817) 230-0800",,,,
TX,COLLIN,"BLDSF - 21 - 3729","Single Family Homes",6/29/2021,,391087,2995,"3925 WHITE ROCK RD",CELINA,TX,75009,"CHALK HILL",3,CONTRACTOR,,,,,,,,,,,"DR HORTON",,,,,"DR HORTON","6751 NORTH FWY","FT WORTH",TX,76131-2802,"(817) 230-0800",,,,
TX,COLLIN,"BLDSF - 21 - 3707","Single Family Homes",6/30/2021,,663999,5085,"2917 SERENITY WAY",CELINA,TX,75009,"WELLSPRING ESTATES",29,CONTRACTOR,,,,,,,,,,,"GRAND HOMES",,,,,"GRAND HOMES","15455 DALLAS PKWY STE 1000",ADDISON,TX,75001-6772,"(214) 750-6528",http://www.grandhomes.com/,"(214) 750-6849",,info@grandhomes.com
TX,COLLIN,"BLDSF - 21 - 3549","Single Family Homes",6/21/2021,,612290,4689,"2821 SERENITY WAY",CELINA,TX,75009,"WELLSPRING ESTATES",22,CONTRACTOR,,,,,,,,,,,"GRAND HOMES",,,,,"GRAND HOMES","15455 DALLAS PKWY STE 1000",ADDISON,TX,75001-6772,"(214) 750-6528",http://www.grandhomes.com/,"(214) 750-6849",,info@grandhomes.com
TX,COLLIN,"BLDSF - 21 - 3719","Single Family Homes",6/29/2021,,441360,3380,"6002 PRIORY DR",CELINA,TX,76227,"SUTTON FIELDS",11,CONTRACTOR,,,,,,,,,,,"LENNAR HOMES",,,,,"LENNAR HOMES","1707 MARKET PL STE 250",IRVING,TX,75063-8050,"(469) 587-5200",http://www.lennar.com/,,,
TX,COLLIN,"BLDSF - 21 - 3631","Single Family Homes",6/30/2021,,490850,3759,"3602 KEECHI CREEK DR",CELINA,TX,75078,"CREEKS OF LEGACY",19,CONTRACTOR,,,,,,,,,,,"KB HOME",,,,,"KB HOME","5625 RIDGE LAKE DR","FORT WORTH",TX,76244-5148,"(800) 713-1170",,,,
TX,COLLIN,"BLDSF - 21 - 3526","Single Family Homes",6/25/2021,,491634,3765,"3608 HIGHLAND BAYOU DR",CELINA,TX,75078,"CREEKS OF LEGACY",20,CONTRACTOR,,,,,,,,,,,"KB HOME",,,,,"KB HOME","5625 RIDGE LAKE DR","FORT WORTH",TX,76244-5148,"(800) 713-1170",,,,
TX,COLLIN,"BLDSF - 21 - 3534","Single Family Homes",6/30/2021,,435093,3332,"3604 HIGHLAND BAYOU DR",CELINA,TX,75078,"CREEKS OF LEGACY",19,CONTRACTOR,,,,,,,,,,,"KB HOME",,,,,"KB HOME","5625 RIDGE LAKE DR","FORT WORTH",TX,76244-5148,"(800) 713-1170",,,,
TX,COLLIN,"BLDSF - 21 - 3608","Single Family Homes",6/30/2021,,432481,3312,"3613 KEECHI CREEK DR",CELINA,TX,75078,"CREEKS OF LEGACY",39,CONTRACTOR,,,,,,,,,,,"KB HOME",,,,,"KB HOME","5625 RIDGE LAKE DR","FORT WORTH",TX,76244-5148,"(800) 713-1170",,,,
TX,COLLIN,"BLDSF - 21 - 3609","Single Family Homes",6/25/2021,,533680,4087,"3620 KEECHI CREEK DR",CELINA,TX,75078,"CREEKS OF LEGACY",15,CONTRACTOR,,,,,,,,,,,"KB HOME",,,,,"KB HOME","5625 RIDGE LAKE DR","FORT WORTH",TX,76244-5148,"(800) 713-1170",,,,
TX,COLLIN,"BLDSF - 21 - 3629","Single Family Homes",6/25/2021,,398922,3055,"3605 KEECHI CREEK DR",CELINA,TX,75078,"CREEKS OF LEGACY",41,CONTRACTOR,,,,,,,,,,,"KB HOME",,,,,"KB HOME","5625 RIDGE LAKE DR","FORT WORTH",TX,76244-5148,"(800) 713-1170",,,,
TX,COLLIN,"BLDSF - 21 - 3591","Single Family Homes",6/18/2021,,496073,3799,"5101 STONEYVIEW DR",CELINA,TX,75009,"GREEN MEADOWS",8,CONTRACTOR,,,,,,,,,,,"GEHAN HOMES",,,,,"GEHAN HOMES","14901 QUORUM DR STE 300",DALLAS,TX,75254-6735,"(972) 383-4300",http://www.gehanhomes.com,,,
TX,COLLIN,"BLDSF - 21 - 3625","Single Family Homes",6/18/2021,,471263,3609,"5604 CRESTVIEW DR",CELINA,TX,75009,"GREEN MEADOWS",13,CONTRACTOR,,,,,,,,,,,"GEHAN HOMES",,,,,"GEHAN HOMES","14901 QUORUM DR STE 300",DALLAS,TX,75254-6735,"(972) 383-4300",http://www.gehanhomes.com,,,
TX,COLLIN,"BLDSF - 21 - 3542","Single Family Homes",6/18/2021,,649505,4974,"16516 SUNNYLAND DR",CELINA,TX,75009,"GREEN MEADOWS",4,CONTRACTOR,,,,,,,,,,,"GEHAN HOMES",,,,,"GEHAN HOMES","14901 QUORUM DR STE 300",DALLAS,TX,75254-6735,"(972) 383-4300",http://www.gehanhomes.com,,,
TX,COLLIN,"BLDSF - 21 - 3661","Single Family Homes",6/25/2021,,549089,4205,"16805 CLOVER DR",CELINA,TX,75009,"GREEN MEADOWS",19,CONTRACTOR,,,,,,,,,,,"GEHAN HOMES",,,,,"GEHAN HOMES","14901 QUORUM DR STE 300",DALLAS,TX,75254-6735,"(972) 383-4300",http://www.gehanhomes.com,,,
TX,COLLIN,12329,"Single Family Homes",6/3/2021,,,2477,"4007 MOCKINGBIRD LN",MELISSA,TX,75454,"MAGNOLIA RIDGE",,CONTRACTOR,,,,,,,,,,,"LILLIAN CUSTOM HOMES",,,,,"LILLIAN CUSTOM HOMES","509 FERRIS AVE",WAXAHACHIE,TX,75165-3343,"(972) 937-8990",http://lilliancustomhomes.com/,,,
TX,COLLIN,12365,"Single Family Homes",6/8/2021,,,2181,"4042 SPARROW TRL",MELISSA,TX,75454,"MAGNOLIA RIDGE",,CONTRACTOR,,,,,,,,,,,"LILLIAN CUSTOM HOMES",,,,,"LILLIAN CUSTOM HOMES","509 FERRIS AVE",WAXAHACHIE,TX,75165-3343,"(972) 937-8990",http://lilliancustomhomes.com/,,,
TX,COLLIN,"BLDSF - 21 - 3667","Single Family Homes",6/30/2021,,413547,3167,"1229 ROUNTREE CT",CELINA,TX,75009,"CHALK HILL",23,CONTRACTOR,,,,,,,,,,,"BEAZER HOMES ",,,,,"BEAZER HOMES ","1750 VALLEY VIEW LN STE 200",DALLAS,TX,75234-9010,"(972) 250-5517",http://www.beazer.com/,,,bret.kolbe@beazer.com
TX,COLLIN,"BLDSF - 21 - 3554","Single Family Homes",6/23/2021,,297984,2282,"1316 HUTCHINGS CT",CELINA,TX,75009,"CHALK HILL",16,CONTRACTOR,,,,,,,,,,,"BEAZER HOMES ",,,,,"BEAZER HOMES ","1750 VALLEY VIEW LN STE 200",DALLAS,TX,75234-9010,"(972) 250-5517",http://www.beazer.com/,,,bret.kolbe@beazer.com
TX,COLLIN,"BLDSF - 21 - 3555","Single Family Homes",6/23/2021,,392262,3004,"1320 HUTCHINGS CT",CELINA,TX,75009,"CHALK HILL",15,CONTRACTOR,,,,,,,,,,,"BEAZER HOMES ",,,,,"BEAZER HOMES ","1750 VALLEY VIEW LN STE 200",DALLAS,TX,75234-9010,"(972) 250-5517",http://www.beazer.com/,,,bret.kolbe@beazer.com
TX,COLLIN,"BLDSF - 21 - 3657","Single Family Homes",6/30/2021,,350607,2685,"3904 BURKS CT",CELINA,TX,75009,"CHALK HILL",16,CONTRACTOR,,,,,,,,,,,"BEAZER HOMES ",,,,,"BEAZER HOMES ","1750 VALLEY VIEW LN STE 200",DALLAS,TX,75234-9010,"(972) 250-5517",http://www.beazer.com/,,,bret.kolbe@beazer.com
TX,COLLIN,"BLDSF - 21 - 3630","Single Family Homes",6/25/2021,,464473,3557,"405 CHRISTIE CROSSING",CELINA,TX,75009,"THE HOMESTEAD AT OWNSBY FARMS",12,CONTRACTOR,,,,,,,,,,,"PULTE HOMES",,,,,"PULTE HOMES","4800 REGENT BLVD",IRVING,TX,75063-2439,"(972) 304-2800",,,,
TX,COLLIN,"BLDSF - 21 - 3539","Single Family Homes",6/25/2021,,328409,2515,"413 CHRISTIE CROSSING",CELINA,TX,75009,"THE HOMESTEAD AT OWNSBY FARMS",14,CONTRACTOR,,,,,,,,,,,"PULTE HOMES",,,,,"PULTE HOMES","4800 REGENT BLVD",IRVING,TX,75063-2439,"(972) 304-2800",,,,
TX,COLLIN,"BLDSF - 21 - 3540","Single Family Homes",6/25/2021,,328409,2515,"3508 ETTA TERR",CELINA,TX,75009,"THE HOMESTEAD AT OWNSBY FARMS",15,CONTRACTOR,,,,,,,,,,,"PULTE HOMES",,,,,"PULTE HOMES","4800 REGENT BLVD",IRVING,TX,75063-2439,"(972) 304-2800",,,,
TX,COLLIN,12369,"Single Family Homes",6/8/2021,,,2703,"2302 POPPY VALLEY LN",MELISSA,TX,75454,"MEADOW RUN",,CONTRACTOR,,,,,,,,,,,"PACESETTER HOMES ",,,,,"PACESETTER HOMES ","14875 DANEWAY DR",FRISCO,TX,75035-4819,"(214) 298-8350",,,,
TX,COLLIN,12375,"Single Family Homes",6/9/2021,,,2703,"2224 POPPY VALLEY LN",MELISSA,TX,75454,"MEADOW RUN",,CONTRACTOR,,,,,,,,,,,"PACESETTER HOMES ",,,,,"PACESETTER HOMES ","14875 DANEWAY DR",FRISCO,TX,75035-4819,"(214) 298-8350",,,,
TX,COLLIN,12377,"Single Family Homes",6/9/2021,,,3277,"4015 BLUE STEM BLVD",MELISSA,TX,75454,"MEADOW RUN",,CONTRACTOR,,,,,,,,,,,"PACESETTER HOMES ",,,,,"PACESETTER HOMES ","14875 DANEWAY DR",FRISCO,TX,75035-4819,"(214) 298-8350",,,,
TX,COLLIN,,"Single Family Homes",6/28/2021,,,1965,"3101 ETHAN LN",WYLIE,TX,75098,,,CONTRACTOR,,,,,,,,,,,"PACESETTER HOMES ",,,,,"PACESETTER HOMES ","14875 DANEWAY DR",FRISCO,TX,75035-4819,"(214) 298-8350",,,,
TX,COLLIN,,"Single Family Homes",6/28/2021,,,1965,"3039 ETHAN LN",WYLIE,TX,75098,,,CONTRACTOR,,,,,,,,,,,"PACESETTER HOMES ",,,,,"PACESETTER HOMES ","14875 DANEWAY DR",FRISCO,TX,75035-4819,"(214) 298-8350",,,,
TX,COLLIN,12384,"Single Family Homes",6/10/2021,,,3820,"3010 ARMSTRONG AVE",MELISSA,TX,75454,LIBERTY,,CONTRACTOR,,,,,,,,,,,"K HOVNANIAN HOMES",,,,,"K HOVNANIAN HOMES","5808 W PLANO PKWY",PLANO,TX,75093-4636,"(469) 737-1400",,,,
TX,COLLIN,12385,"Single Family Homes",6/10/2021,,,4649,"2807 GARRISON DR",MELISSA,TX,75454,LIBERTY,,CONTRACTOR,,,,,,,,,,,"K HOVNANIAN HOMES",,,,,"K HOVNANIAN HOMES","5808 W PLANO PKWY",PLANO,TX,75093-4636,"(469) 737-1400",,,,
TX,COLLIN,12386,"Single Family Homes",6/10/2021,,,3633,"3006 COLUMBIA DR",MELISSA,TX,75454,LIBERTY,,CONTRACTOR,,,,,,,,,,,"K HOVNANIAN HOMES",,,,,"K HOVNANIAN HOMES","5808 W PLANO PKWY",PLANO,TX,75093-4636,"(469) 737-1400",,,,
TX,COLLIN,12372,"Single Family Homes",6/9/2021,,,3789,"3106 ARMSTRONG AVE",MELISSA,TX,75454,LIBERTY,,CONTRACTOR,,,,,,,,,,,"K HOVNANIAN HOMES",,,,,"K HOVNANIAN HOMES","5808 W PLANO PKWY",PLANO,TX,75093-4636,"(469) 737-1400",,,,
TX,COLLIN,12321,"Single Family Homes",6/3/2021,,,3813,"3007 COLUMBIA DR",MELISSA,TX,75454,LIBERTY,,CONTRACTOR,,,,,,,,,,,"K HOVNANIAN HOMES",,,,,"K HOVNANIAN HOMES","5808 W PLANO PKWY",PLANO,TX,75093-4636,"(469) 737-1400",,,,
TX,COLLIN,12319,"Single Family Homes",6/3/2021,,,3134,"2824 DIAMONDBACK DR",MELISSA,TX,75454,"CREEK CROSSING",,CONTRACTOR,,,,,,,,,,,"ALTURA HOMES",,,,,"ALTURA HOMES","5763 S STATE HIGHWAY 205 # 100",ROCKWALL,TX,75032-2601,"(888) 972-1979",http://www.alturahomes.com/,"(214) 771-0899",,
TX,COLLIN,12320,"Single Family Homes",6/3/2021,,,2865,"2900 DIAMONDBACK DR",MELISSA,TX,75454,"CREEK CROSSING",,CONTRACTOR,,,,,,,,,,,"ALTURA HOMES",,,,,"ALTURA HOMES","5763 S STATE HIGHWAY 205 # 100",ROCKWALL,TX,75032-2601,"(888) 972-1979",http://www.alturahomes.com/,"(214) 771-0899",,
TX,COLLIN,12330,"Single Family Homes",6/3/2021,,,2568,"4009 COTTONTAIL DR",MELISSA,TX,75454,"CREEK CROSSING",,CONTRACTOR,,,,,,,,,,,"ALTURA HOMES",,,,,"ALTURA HOMES","5763 S STATE HIGHWAY 205 # 100",ROCKWALL,TX,75032-2601,"(888) 972-1979",http://www.alturahomes.com/,"(214) 771-0899",,
TX,COLLIN,12317,"Single Family Homes",6/3/2021,,,2497,"2810 DIAMONDBACK DR",MELISSA,TX,75454,"CREEK CROSSING",,CONTRACTOR,,,,,,,,,,,"ALTURA HOMES",,,,,"ALTURA HOMES","5763 S STATE HIGHWAY 205 # 100",ROCKWALL,TX,75032-2601,"(888) 972-1979",http://www.alturahomes.com/,"(214) 771-0899",,
TX,COLLIN,12327,"Single Family Homes",6/3/2021,,,2101,"4003 COTTONTAIL DR",MELISSA,TX,75454,"CREEK CROSSING",,CONTRACTOR,,,,,,,,,,,"ALTURA HOMES",,,,,"ALTURA HOMES","5763 S STATE HIGHWAY 205 # 100",ROCKWALL,TX,75032-2601,"(888) 972-1979",http://www.alturahomes.com/,"(214) 771-0899",,
TX,COLLIN,12328,"Single Family Homes",6/3/2021,,,3221,"4007 COTTONTAIL DR",MELISSA,TX,75454,"CREEK CROSSING",,CONTRACTOR,,,,,,,,,,,"ALTURA HOMES",,,,,"ALTURA HOMES","5763 S STATE HIGHWAY 205 # 100",ROCKWALL,TX,75032-2601,"(888) 972-1979",http://www.alturahomes.com/,"(214) 771-0899",,
TX,COLLIN,12364,"Single Family Homes",6/8/2021,,,2552,"4002 HONEYCOMB HOLLOW",MELISSA,TX,75454,"MEADOW RUN",,CONTRACTOR,,,,,,,,,,,"ASHTON WOODS HOMES",,,,,"ASHTON WOODS HOMES","1221 N INTERSTATE 35E STE 170",CARROLLTON,TX,75006-3806,"(972) 428-5404",,,,
TX,COLLIN,12353,"Single Family Homes",6/8/2021,,,3996,"2214 SWITCHGRASS ST",MELISSA,TX,75454,"MEADOW RUN",,CONTRACTOR,,,,,,,,,,,"ASHTON WOODS HOMES",,,,,"ASHTON WOODS HOMES","1221 N INTERSTATE 35E STE 170",CARROLLTON,TX,75006-3806,"(972) 428-5404",,,,
TX,COLLIN,12354,"Single Family Homes",6/8/2021,,,2552,"2217 POPPY VALLEY LN",MELISSA,TX,75454,"MEADOW RUN",,CONTRACTOR,,,,,,,,,,,"ASHTON WOODS HOMES",,,,,"ASHTON WOODS HOMES","1221 N INTERSTATE 35E STE 170",CARROLLTON,TX,75006-3806,"(972) 428-5404",,,,
TX,COLLIN,12355,"Single Family Homes",6/8/2021,,,3996,"2239 LANTANA DR",MELISSA,TX,75454,"MEADOW RUN",,CONTRACTOR,,,,,,,,,,,"ASHTON WOODS HOMES",,,,,"ASHTON WOODS HOMES","1221 N INTERSTATE 35E STE 170",CARROLLTON,TX,75006-3806,"(972) 428-5404",,,,
TX,COLLIN,"BLDSF - 21 - 3589","Single Family Homes",6/30/2021,,401925,3078,"1504 LADYS MANTLE WAY",CELINA,TX,75009,LILYANA,4,CONTRACTOR,,,,,,,,,,,"AMERICAN LEGEND HOMES",,,,,"AMERICAN LEGEND HOMES","2540 KING ARTHUR BLVD STE 200",LEWISVILLE,TX,75056-5833,"(972) 410-5701",http://www.amlegendhomes.com/,"(972) 410-5750",,
TX,COLLIN,"BLDSF - 21 - 3590","Single Family Homes",6/30/2021,,564628,4324,"1712 DAISY CORNER DR",CELINA,TX,75078,LILYANA,14,CONTRACTOR,,,,,,,,,,,"AMERICAN LEGEND HOMES",,,,,"AMERICAN LEGEND HOMES","2540 KING ARTHUR BLVD STE 200",LEWISVILLE,TX,75056-5833,"(972) 410-5701",http://www.amlegendhomes.com/,"(972) 410-5750",,
TX,COLLIN,"BLDSF - 21 - 3626","Single Family Homes",6/30/2021,,564628,4324,"1704 BLUEBONNET LN",CELINA,TX,75078,LILYANA,3,CONTRACTOR,,,,,,,,,,,"AMERICAN LEGEND HOMES",,,,,"AMERICAN LEGEND HOMES","2540 KING ARTHUR BLVD STE 200",LEWISVILLE,TX,75056-5833,"(972) 410-5701",http://www.amlegendhomes.com/,"(972) 410-5750",,
TX,COLLIN,"BLDSF - 21 - 3586","Single Family Homes",6/28/2021,,461470,3534,"937 VIOLET WAY",CELINA,TX,75009,BLUEWOOD,10,CONTRACTOR,,,,,,,,,,,"M/I HOMES",,,,,"M/I HOMES","405 STATE HIGHWAY 121 BYP STE A210",LEWISVILLE,TX,75067-8214,"(210) 546-2129",,"(210) 546-2196",,
TX,COLLIN,"BLDSF - 21 - 3545","Single Family Homes",6/28/2021,,475181,3639,"16909 FLAGSTONE DR",CELINA,TX,75009,"GREEN MEADOWS",17,CONTRACTOR,,,,,,,,,,,"CASTLEROCK COMMUNITIES",,,,,"CASTLEROCK COMMUNITIES","7670 WOODWAY DR STE 300",HOUSTON,TX,77063-1520,"(713) 600-7000",http://c-rock.com,"(713) 600-0000",,
TX,COLLIN,"BLDSF - 21 - 3585","Single Family Homes",6/23/2021,,421643,3229,"3009 ECCLESTON ST",CELINA,TX,75009,"CAMBRIDGE CROSSING",38,CONTRACTOR,,,,,,,,,,,"PERRY HOMES",,,,,"PERRY HOMES","2004 VENTURA DR STE 200",PLANO,TX,75093-2003,"(972) 964-7700",,,,
TX,COLLIN,12314,"Single Family Homes",6/3/2021,,,5721,"2604 CAPITOL PLACE",MELISSA,TX,75454,LIBERTY,,CONTRACTOR,,,,,,,,,,,"PERRY HOMES",,,,,"PERRY HOMES","2004 VENTURA DR STE 200",PLANO,TX,75093-2003,"(972) 964-7700",,,,
TX,COLLIN,12379,"Single Family Homes",6/10/2021,,,4184,"2706 CAPITOL PLACE",MELISSA,TX,75454,LIBERTY,,CONTRACTOR,,,,,,,,,,,"PERRY HOMES",,,,,"PERRY HOMES","2004 VENTURA DR STE 200",PLANO,TX,75093-2003,"(972) 964-7700",,,,
TX,COLLIN,12357,"Single Family Homes",6/8/2021,,,4133,"2705 CAPITOL PLACE",MELISSA,TX,75454,LIBERTY,,CONTRACTOR,,,,,,,,,,,"PERRY HOMES",,,,,"PERRY HOMES","2004 VENTURA DR STE 200",PLANO,TX,75093-2003,"(972) 964-7700",,,,
TX,COLLIN,12360,"Single Family Homes",6/8/2021,,,3511,"2908 HOBBS LN",MELISSA,TX,75454,LIBERTY,,CONTRACTOR,,,,,,,,,,,"PERRY HOMES",,,,,"PERRY HOMES","2004 VENTURA DR STE 200",PLANO,TX,75093-2003,"(972) 964-7700",,,,
TX,COLLIN,,"Single Family Homes",6/16/2021,,,2116,"3028 CONCORD DR",WYLIE,TX,75098,,,CONTRACTOR,,,,,,,,,,,"GRENADIER HOMES",,,,,"GRENADIER HOMES","5000 QUORUM DR STE 555",DALLAS,TX,75254-7139,"(469) 619-6452",http://grenadierhomes.com,,,
TX,COLLIN,,"Single Family Homes",6/16/2021,,,1968,"2711 APPLEWOOD WAY",WYLIE,TX,75098,,,CONTRACTOR,,,,,,,,,,,"GRENADIER HOMES",,,,,"GRENADIER HOMES","5000 QUORUM DR STE 555",DALLAS,TX,75254-7139,"(469) 619-6452",http://grenadierhomes.com,,,
TX,COLLIN,,"Single Family Homes",6/16/2021,,,2265,"3026 CONCORD DR",WYLIE,TX,75098,,,CONTRACTOR,,,,,,,,,,,"GRENADIER HOMES",,,,,"GRENADIER HOMES","5000 QUORUM DR STE 555",DALLAS,TX,75254-7139,"(469) 619-6452",http://grenadierhomes.com,,,
TX,COLLIN,,"Single Family Homes",6/16/2021,,,1941,"2713 APPLEWOOD WAY",WYLIE,TX,75098,,,CONTRACTOR,,,,,,,,,,,"GRENADIER HOMES",,,,,"GRENADIER HOMES","5000 QUORUM DR STE 555",DALLAS,TX,75254-7139,"(469) 619-6452",http://grenadierhomes.com,,,
TX,COLLIN,,"Single Family Homes",6/16/2021,,,2265,"3030 CONCORD DR",WYLIE,TX,75098,,,CONTRACTOR,,,,,,,,,,,"GRENADIER HOMES",,,,,"GRENADIER HOMES","5000 QUORUM DR STE 555",DALLAS,TX,75254-7139,"(469) 619-6452",http://grenadierhomes.com,,,
TX,COLLIN,12325,"Single Family Homes",6/3/2021,,,3841,"3516 ABINGDON AVE",MELISSA,TX,75454,LIBERTY,,CONTRACTOR,,,,,,,,,,,"HIGHLAND HOMES",,,,,"HIGHLAND HOMES","5601 DEMOCRACY DR STE 300",PLANO,TX,75024-3674,"(972) 789-3500",,,,
TX,COLLIN,12318,"Single Family Homes",6/3/2021,,,4486,"2813 GARRISON DR",MELISSA,TX,75454,LIBERTY,,CONTRACTOR,,,,,,,,,,,"HIGHLAND HOMES",,,,,"HIGHLAND HOMES","5601 DEMOCRACY DR STE 300",PLANO,TX,75024-3674,"(972) 789-3500",,,,
TX,COLLIN,12361,"Single Family Homes",6/8/2021,,,3507,"3013 EAGLE LN",MELISSA,TX,75454,LIBERTY,,CONTRACTOR,,,,,,,,,,,"HIGHLAND HOMES",,,,,"HIGHLAND HOMES","5601 DEMOCRACY DR STE 300",PLANO,TX,75024-3674,"(972) 789-3500",,,,
TX,COLLIN,12362,"Single Family Homes",6/8/2021,,,3834,"3509 ABINGDON DR",MELISSA,TX,75454,LIBERTY,,CONTRACTOR,,,,,,,,,,,"HIGHLAND HOMES",,,,,"HIGHLAND HOMES","5601 DEMOCRACY DR STE 300",PLANO,TX,75024-3674,"(972) 789-3500",,,,
TX,COLLIN,12363,"Single Family Homes",6/8/2021,,,3856,"3511 ABINGDON DR",MELISSA,TX,75454,LIBERTY,,CONTRACTOR,,,,,,,,,,,"HIGHLAND HOMES",,,,,"HIGHLAND HOMES","5601 DEMOCRACY DR STE 300",PLANO,TX,75024-3674,"(972) 789-3500",,,,
TX,COLLIN,12358,"Single Family Homes",6/8/2021,,,3834,"2708 DELTA DR",MELISSA,TX,75454,LIBERTY,,CONTRACTOR,,,,,,,,,,,"HIGHLAND HOMES",,,,,"HIGHLAND HOMES","5601 DEMOCRACY DR STE 300",PLANO,TX,75024-3674,"(972) 789-3500",,,,
TX,COLLIN,12359,"Single Family Homes",6/8/2021,,,4083,"2710 DELTA DR",MELISSA,TX,75454,LIBERTY,,CONTRACTOR,,,,,,,,,,,"HIGHLAND HOMES",,,,,"HIGHLAND HOMES","5601 DEMOCRACY DR STE 300",PLANO,TX,75024-3674,"(972) 789-3500",,,,
TX,COLLIN,12371,"Single Family Homes",6/9/2021,,,2885,"3007 EAGLE LN",MELISSA,TX,75454,LIBERTY,,CONTRACTOR,,,,,,,,,,,"HIGHLAND HOMES",,,,,"HIGHLAND HOMES","5601 DEMOCRACY DR STE 300",PLANO,TX,75024-3674,"(972) 789-3500",,,,
TX,COLLIN,"BLDSF - 21 - 3567","Single Family Homes",6/29/2021,,467738,3582,"2833 ECCLESTON ST.",CELINA,TX,75009,"CAMBRIDGE CROSSING",18,CONTRACTOR,,,,,,,,,,,"HIGHLAND HOMES",,,,,"HIGHLAND HOMES","5601 DEMOCRACY DR STE 300",PLANO,TX,75024-3674,"(972) 789-3500",,,,
TX,COLLIN,"BLDSF - 21 - 3569","Single Family Homes",6/29/2021,,513049,3929,"3021 ECCLESTON ST",CELINA,TX,75009,"CAMBRIDGE CROSSING",41,CONTRACTOR,,,,,,,,,,,"HIGHLAND HOMES",,,,,"HIGHLAND HOMES","5601 DEMOCRACY DR STE 300",PLANO,TX,75024-3674,"(972) 789-3500",,,,
TX,COLLIN,"BLDSF - 21 - 3570","Single Family Homes",6/29/2021,,373589,2861,"3101 SALTWOOD CT",CELINA,TX,75009,"CAMBRIDGE CROSSING",22,CONTRACTOR,,,,,,,,,,,"HIGHLAND HOMES",,,,,"HIGHLAND HOMES","5601 DEMOCRACY DR STE 300",PLANO,TX,75024-3674,"(972) 789-3500",,,,
TX,COLLIN,"BLDSF - 21 - 3572","Single Family Homes",6/29/2021,,518011,3967,"3105 SALTWOOD CT",CELINA,TX,75009,"CAMBRIDGE CROSSING",23,CONTRACTOR,,,,,,,,,,,"HIGHLAND HOMES",,,,,"HIGHLAND HOMES","5601 DEMOCRACY DR STE 300",PLANO,TX,75024-3674,"(972) 789-3500",,,,
TX,COLLIN,"BLDSF - 21 - 3575","Single Family Homes",6/29/2021,,359748,2755,"3101 ECCLESTON ST",CELINA,TX,75009,"CAMBRIDGE CROSSING",46,CONTRACTOR,,,,,,,,,,,"HIGHLAND HOMES",,,,,"HIGHLAND HOMES","5601 DEMOCRACY DR STE 300",PLANO,TX,75024-3674,"(972) 789-3500",,,,
TX,COLLIN,"BLDSF - 21 - 3552","Single Family Homes",6/29/2021,,574160,4397,"3312 CANONERO ST",CELINA,TX,75009,"MUSTANG LAKES",22,CONTRACTOR,,,,,,,,,,,"HIGHLAND HOMES",,,,,"HIGHLAND HOMES","5601 DEMOCRACY DR STE 300",PLANO,TX,75024-3674,"(972) 789-3500",,,,
TX,COLLIN,"BLDSF - 21 - 3553","Single Family Homes",6/18/2021,,440577,3374,"2816 ECCLESTON ST",CELINA,TX,75009,"CAMBRIDGE CROSSING",24,CONTRACTOR,,,,,,,,,,,"HIGHLAND HOMES",,,,,"HIGHLAND HOMES","5601 DEMOCRACY DR STE 300",PLANO,TX,75024-3674,"(972) 789-3500",,,,
TX,COLLIN,12373,"Single Family Homes",6/9/2021,,,2929,"4119 MOCKINGBIRD LN",MELISSA,TX,75454,"MAGNOLIA RIDGE",,CONTRACTOR,,,,,,,,,,,"KINDRED HOMES",,,,,"KINDRED HOMES","2005 NE GREEN OAKS BLVD STE 150",ARLINGTON,TX,76006-3289,"(817) 276-3400",https://www.kindredhomes.com/,,"LEA MOODY",lea.moody@kindredhomes.com
TX,COLLIN,12381,"Single Family Homes",6/10/2021,,,4010,"3504 THOMAS EARL WAY",MELISSA,TX,75454,"MILRANY RANCH",,CONTRACTOR,,,,,,,,,,,"UNION MAIN HOMES",,,,,"UNION MAIN HOMES","5005 LYNDON B JOHNSON FWY STE 350",DALLAS,TX,75244-6147,"(832) 775-6367",,,,
TX,COLLIN,12387,"Single Family Homes",6/10/2021,,,2965,"3206 MATTIE GREY LN",MELISSA,TX,75454,"MILRANY RANCH",,CONTRACTOR,,,,,,,,,,,"UNION MAIN HOMES",,,,,"UNION MAIN HOMES","5005 LYNDON B JOHNSON FWY STE 350",DALLAS,TX,75244-6147,"(832) 775-6367",,,,
TX,COLLIN,12388,"Single Family Homes",6/10/2021,,,2845,"3202 MATTIE GREY LN",MELISSA,TX,75454,"MILRANY RANCH",,CONTRACTOR,,,,,,,,,,,"UNION MAIN HOMES",,,,,"UNION MAIN HOMES","5005 LYNDON B JOHNSON FWY STE 350",DALLAS,TX,75244-6147,"(832) 775-6367",,,,
TX,COLLIN,,"Single Family Homes",6/23/2021,,,1863,"829 EAGLESCLIFFE LANDING",WYLIE,TX,75098,,,CONTRACTOR,,,,,,,,,,,"SIGNATURE DESIGNER HOMES",,,,,"SIGNATURE DESIGNER HOMES","305 BARRANCA TR",WYLIE,TX,75098,"(972) 839-0046",,,"LAURENCE DEBERRY",lardebtx@msn.com
TX,COLLIN,,"Single Family Homes",6/23/2021,,,2223,"835 EAGLESCLIFFE LANDING",WYLIE,TX,75098,,,CONTRACTOR,,,,,,,,,,,"SIGNATURE DESIGNER HOMES",,,,,"SIGNATURE DESIGNER HOMES","305 BARRANCA TR",WYLIE,TX,75098,"(972) 839-0046",,,"LAURENCE DEBERRY",lardebtx@msn.com
TX,COLLIN,"BLDSF - 21 - 3599","Single Family Homes",6/29/2021,,397224,3042,"3635 ALAMOSA RIVER DR",CELINA,TX,75078,"CREEKS OF LEGACY",15,CONTRACTOR,,,,,,,,,,,"TRI POINTE HOMES",,,,,"TRI POINTE HOMES","4835 LBJ FREEWAY STE 700",DALLAS,TX,75244,"(972) 922-5731",https://investors.tripointehomes.com/,,,
TX,ELLIS,002405-2021,"Single Family Homes",6/3/2021,,,2722,"107 AUCUBA LN",WAXAHACHIE,TX,75165,,,"GEORGE SALVADOR","107 AUCUBA LN",WAXAHACHIE,TX,75165,,Owner,,,,,OWNER,,,,,OWNER,,,,,,,,,
TX,ELLIS,002406-2021,"Single Family Homes",6/3/2021,,,3151,"234 HEDGEWOOD DR",WAXAHACHIE,TX,75165,,,"GEORGE SALVADOR","234 HEDGEWOOD DR",WAXAHACHIE,TX,75165,,Owner,,,,,OWNER,,,,,OWNER,,,,,,,,,
TX,ELLIS,002463-2021,"Single Family Homes",6/7/2021,,,3567,"1681 CREEK BLUFF CT",WAXAHACHIE,TX,75165,,,"ANTHONY VERDIER","1681 CREEK BLUFF CT",WAXAHACHIE,TX,75165,,Owner,,,,,OWNER,,,,,OWNER,,,,,,,,,
TX,ELLIS,002466-2021,"Single Family Homes",6/7/2021,,,2884,"521 LOWLAND LN",WAXAHACHIE,TX,75165,,,"ANTHONY VERDIER","521 LOWLAND LN",WAXAHACHIE,TX,75165,,Owner,,,,,OWNER,,,,,OWNER,,,,,,,,,
TX,ELLIS,002467-2021,"Single Family Homes",6/7/2021,,,3533,"472 BRUSHWOOD LN",WAXAHACHIE,TX,75165,,,"ANTHONY VERDIER","472 BRUSHWOOD LN",WAXAHACHIE,TX,75165,,Owner,,,,,OWNER,,,,,OWNER,,,,,,,,,
TX,ELLIS,002470-2021,"Single Family Homes",6/7/2021,,,4582,"2248 WINDY HILL LN",WAXAHACHIE,TX,75167,,,"GRAYSON WALES","2248 WINDY HILL LN",WAXAHACHIE,TX,75167,,Owner,,,,,OWNER,,,,,OWNER,,,,,,,,,
TX,ELLIS,002476-2021,"Single Family Homes",6/21/2021,,,3999,"175 HALF MOON DR",WAXAHACHIE,TX,75165,,,"JENNA BADO","175 HALF MOON DR",WAXAHACHIE,TX,75165,,Owner,,,,,OWNER,,,,,OWNER,,,,,,,,,
TX,ELLIS,002477-2021,"Single Family Homes",6/30/2021,,,2791,"1669 VISTA WAY",WAXAHACHIE,TX,75165,,,"JENNA BADO","1669 VISTA WAY",WAXAHACHIE,TX,75165,,Owner,,,,,OWNER,,,,,OWNER,,,,,,,,,
TX,ELLIS,002479-2021,"Single Family Homes",6/14/2021,,,3225,"441 BRUSHWOOD LN",WAXAHACHIE,TX,75165,,,"JENNA BADO","441 BRUSHWOOD LN",WAXAHACHIE,TX,75165,,Owner,,,,,OWNER,,,,,OWNER,,,,,,,,,
TX,ELLIS,002486-2021,"Single Family Homes",6/9/2021,,,3086,"1689 CREEK BLUFF CT",WAXAHACHIE,TX,75165,,,"ANTHONY VERDIER","1689 CREEK BLUFF CT",WAXAHACHIE,TX,75165,,Owner,,,,,OWNER,,,,,OWNER,,,,,,,,,
TX,ELLIS,002506-2021,"Single Family Homes",6/8/2021,,,3379,"159 AUCUBA LN",WAXAHACHIE,TX,75165,,,"GEORGE SALVADOR","159 AUCUBA LN",WAXAHACHIE,TX,75165,,Owner,,,,,OWNER,,,,,OWNER,,,,,,,,,
TX,ELLIS,002478-2021,"Single Family Homes",6/30/2021,,,2354,"1673 VISTA WAY",WAXAHACHIE,TX,75165,,,"JENNA BADO","1673 VISTA WAY",WAXAHACHIE,TX,75165,,Owner,,,,,OWNER,,,,,OWNER,,,,,,,,,
TX,ELLIS,002507-2021,"Single Family Homes",6/8/2021,,,3607,"210 HEDGEWOOD DR",WAXAHACHIE,TX,75165,,,"GEORGE SALVADOR","210 HEDGEWOOD DR",WAXAHACHIE,TX,75165,,Owner,,,,,OWNER,,,,,OWNER,,,,,,,,,
TX,ELLIS,002513-2021,"Single Family Homes",6/10/2021,,,2555,"636 XAVIER CT",WAXAHACHIE,TX,75165,,,"JUAN C FLORES","636 XAVIER CT",WAXAHACHIE,TX,75165,,Owner,,,,,OWNER,,,,,OWNER,,,,,,,,,
TX,ELLIS,002533-2021,"Single Family Homes",6/9/2021,,,3726,"417 SOUTH HILL DR",WAXAHACHIE,TX,75165,,,"ANTHONY VERDIER","417 SOUTH HILL DR",WAXAHACHIE,TX,75165,,Owner,,,,,OWNER,,,,,OWNER,,,,,,,,,
TX,ELLIS,002547-2021,"Single Family Homes",6/21/2021,,,2569,"120 TRAIL DR",WAXAHACHIE,TX,75165,,,"JENNA BADO","120 TRAIL DR",WAXAHACHIE,TX,75165,,Owner,,,,,OWNER,,,,,OWNER,,,,,,,,,
TX,ELLIS,002600-2021,"Single Family Homes",6/16/2021,,,2886,"516 LOWLAND LN",WAXAHACHIE,TX,75165,,,"ANTHONY VERDIER","516 LOWLAND LN",WAXAHACHIE,TX,75165,,Owner,,,,,OWNER,,,,,OWNER,,,,,,,,,
TX,ELLIS,002605-2021,"Single Family Homes",6/21/2021,,,3101,"178 WESTERN WAY",WAXAHACHIE,TX,75165,,,"JENNA BADO","178 WESTERN WAY",WAXAHACHIE,TX,75165,,Owner,,,,,OWNER,,,,,OWNER,,,,,,,,,
TX,ELLIS,002621-2021,"Single Family Homes",6/15/2021,,,2969,"284 PRAIRIE LN",WAXAHACHIE,TX,75165,,,"ANA GUTIERREZ","284 PRAIRIE LN",WAXAHACHIE,TX,75165,,Owner,,,,,OWNER,,,,,OWNER,,,,,,,,,
TX,ELLIS,002661-2021,"Single Family Homes",6/21/2021,,,3018,"499 WASHINGTON AVE",WAXAHACHIE,TX,75165,,,"JENNA BADO","499 WASHINGTON AVE",WAXAHACHIE,TX,75165,,Owner,,,,,OWNER,,,,,OWNER,,,,,,,,,
TX,ELLIS,002662-2021,"Single Family Homes",6/16/2021,,,3397,"445 BRUSHWOOD LN",WAXAHACHIE,TX,75165,,,"JENNA BADO","445 BRUSHWOOD LN",WAXAHACHIE,TX,75165,,Owner,,,,,OWNER,,,,,OWNER,,,,,,,,,
TX,ELLIS,002666-2021,"Single Family Homes",6/16/2021,,,3822,"2253 BURNING BUSH LN",WAXAHACHIE,TX,75167,,,"GRAYSON WALES","2253 BURNING BUSH LN",WAXAHACHIE,TX,75167,,Owner,,,,,OWNER,,,,,OWNER,,,,,,,,,
TX,ELLIS,002695-2021,"Single Family Homes",6/21/2021,,,2798,"136 AUCUBA LN",WAXAHACHIE,TX,75165,,,"GEORGE SALVADOR","136 AUCUBA LN",WAXAHACHIE,TX,75165,,Owner,,,,,OWNER,,,,,OWNER,,,,,,,,,
TX,ELLIS,002696-2021,"Single Family Homes",6/21/2021,,,2813,"152 AUCUBA LN",WAXAHACHIE,TX,75165,,,"GEORGE SALVADOR","152 AUCUBA LN",WAXAHACHIE,TX,75165,,Owner,,,,,OWNER,,,,,OWNER,,,,,,,,,
TX,ELLIS,002731-2021,"Single Family Homes",6/21/2021,,,2780,"2228 SHEPPARDS LN",WAXAHACHIE,TX,75167,,,"GRAYSON WALES","2228 SHEPPARDS LN",WAXAHACHIE,TX,75167,,Owner,,,,,OWNER,,,,,OWNER,,,,,,,,,
TX,ELLIS,002732-2021,"Single Family Homes",6/21/2021,,,3710,"2260 HIGH PLAIN LN",WAXAHACHIE,TX,75167,,,"GRAYSON WALES","2260 HIGH PLAIN LN",WAXAHACHIE,TX,75167,,Owner,,,,,OWNER,,,,,OWNER,,,,,,,,,
TX,ELLIS,002771-2021,"Single Family Homes",6/24/2021,,,2533,"668 AVALON DR",WAXAHACHIE,TX,75165,,,"GEORGE SALVADOR","668 AVALON DR",WAXAHACHIE,TX,75165,,Owner,,,,,OWNER,,,,,OWNER,,,,,,,,,
TX,ELLIS,002772-2021,"Single Family Homes",6/24/2021,,,2884,"2132 LIRIOPE LN",WAXAHACHIE,TX,75165,,,"GEORGE SALVADOR","2132 LIRIOPE LN",WAXAHACHIE,TX,75165,,Owner,,,,,OWNER,,,,,OWNER,,,,,,,,,
TX,ELLIS,002862-2021,"Single Family Homes",6/30/2021,,,2879,"111 AUCUBA LN",WAXAHACHIE,TX,75165,,,"GEORGE SALVADOR","111 AUCUBA LN",WAXAHACHIE,TX,75165,,Owner,,,,,OWNER,,,,,OWNER,,,,,,,,,
TX,ELLIS,002863-2021,"Single Family Homes",6/30/2021,,,2884,"123 AUCUBA LN",WAXAHACHIE,TX,75165,,,"GEORGE SALVADOR","123 AUCUBA LN",WAXAHACHIE,TX,75165,,Owner,,,,,OWNER,,,,,OWNER,,,,,,,,,
TX,ELLIS,002659-2021,"Single Family Homes",6/28/2021,,,2931,"116 TRAIL DR",WAXAHACHIE,TX,75165,,,"JENNA BADO","116 TRAIL DR",WAXAHACHIE,TX,75165,,Owner,,,,,OWNER,,,,,OWNER,,,,,,,,,
TX,COLLIN,RES2021-06-02819,"Single Family Homes",6/8/2021,,313920,,"4125 MONTEREY PINE PL",MCKINNEY,TX,75071,,,CONTRACTOR,,,,,,,,,,,"FIRST TEXAS HOMES",,,,,"FIRST TEXAS HOMES","500 CRESCENT CT STE 350",DALLAS,TX,75201-7854,"(214) 613-3400",,"(214) 432-0350",,
TX,COLLIN,,"Single Family Homes",6/30/2021,,,4642,"3113 GRANDVIEW DR",WYLIE,TX,75098,,,CONTRACTOR,,,,,,,,,,,"FIRST TEXAS HOMES",,,,,"FIRST TEXAS HOMES","500 CRESCENT CT STE 350",DALLAS,TX,75201-7854,"(214) 613-3400",,"(214) 432-0350",,
TX,COLLIN,,"Single Family Homes",6/28/2021,,,4876,"3111 GRANDVIEW DR",WYLIE,TX,75098,,,CONTRACTOR,,,,,,,,,,,"FIRST TEXAS HOMES",,,,,"FIRST TEXAS HOMES","500 CRESCENT CT STE 350",DALLAS,TX,75201-7854,"(214) 613-3400",,"(214) 432-0350",,
TX,COLLIN,POOL2021-05-00200,"Single Family Homes",6/4/2021,,53000,,"913 SPRING FALLS DR",MCKINNEY,TX,75071,,,CONTRACTOR,,,,,,,,,,,"HAUK CUSTOM POOLS",,,,,"HAUK CUSTOM POOLS","1060 N PRESTON RD",CELINA,TX,75009-3857,"(972) 382-1919",,,,
TX,COLLIN,,"Single Family Homes",6/15/2021,,,3287,"1601 AUBURNDALE RD",WYLIE,TX,75098,,,CONTRACTOR,,,,,,,,,,,"HISTORY MAKER HOMES",,,,,"HISTORY MAKER HOMES","9001 AIRPORT FWY SUITE 400","NORTH RICHLAND HILLS",TX,76180-7769,"(817) 429-8008",http://www.historymaker.com/,"(817) 507-1102","JILL BARFIELD",
TX,COLLIN,,"Single Family Homes",6/2/2021,,,3372,"1808 PRAIRIE HAVEN WAY",WYLIE,TX,75098,,,CONTRACTOR,,,,,,,,,,,"HISTORY MAKER HOMES",,,,,"HISTORY MAKER HOMES","9001 AIRPORT FWY SUITE 400","NORTH RICHLAND HILLS",TX,76180-7769,"(817) 429-8008",http://www.historymaker.com/,"(817) 507-1102","JILL BARFIELD",
TX,COLLIN,,"Single Family Homes",6/30/2021,,,2849,"1701 VINE BROOK RD",WYLIE,TX,75098,,,CONTRACTOR,,,,,,,,,,,"HISTORY MAKER HOMES",,,,,"HISTORY MAKER HOMES","9001 AIRPORT FWY SUITE 400","NORTH RICHLAND HILLS",TX,76180-7769,"(817) 429-8008",http://www.historymaker.com/,"(817) 507-1102","JILL BARFIELD",
TX,COLLIN,,"Single Family Homes",6/2/2021,,,4427,"1405 HICKORY WOODS WAY",WYLIE,TX,75098,,,CONTRACTOR,,,,,,,,,,,"HISTORY MAKER HOMES",,,,,"HISTORY MAKER HOMES","9001 AIRPORT FWY SUITE 400","NORTH RICHLAND HILLS",TX,76180-7769,"(817) 429-8008",http://www.historymaker.com/,"(817) 507-1102","JILL BARFIELD",
TX,COLLIN,,"Single Family Homes",6/15/2021,,,3399,"1807 GOLDEN EAGLE PL",WYLIE,TX,75098,,,CONTRACTOR,,,,,,,,,,,"HISTORY MAKER HOMES",,,,,"HISTORY MAKER HOMES","9001 AIRPORT FWY SUITE 400","NORTH RICHLAND HILLS",TX,76180-7769,"(817) 429-8008",http://www.historymaker.com/,"(817) 507-1102","JILL BARFIELD",
TX,COLLIN,,"Single Family Homes",6/15/2021,,,2484,"1806 LONE LYNX WAY",WYLIE,TX,75098,,,CONTRACTOR,,,,,,,,,,,"HISTORY MAKER HOMES",,,,,"HISTORY MAKER HOMES","9001 AIRPORT FWY SUITE 400","NORTH RICHLAND HILLS",TX,76180-7769,"(817) 429-8008",http://www.historymaker.com/,"(817) 507-1102","JILL BARFIELD",
TX,COLLIN,,"Single Family Homes",6/15/2021,,,4854,"1403 HICKORY WOODS WAY",WYLIE,TX,75098,,,CONTRACTOR,,,,,,,,,,,"HISTORY MAKER HOMES",,,,,"HISTORY MAKER HOMES","9001 AIRPORT FWY SUITE 400","NORTH RICHLAND HILLS",TX,76180-7769,"(817) 429-8008",http://www.historymaker.com/,"(817) 507-1102","JILL BARFIELD",
TX,COLLIN,,"Single Family Homes",6/17/2021,,,4698,"366 ROSEMARY DR",WYLIE,TX,75098,,,CONTRACTOR,,,,,,,,,,,"GRAND HOMES",,,,,"GRAND HOMES","15455 DALLAS PKWY STE 1000",ADDISON,TX,75001-6772,"(214) 750-6528",http://www.grandhomes.com/,"(214) 750-6849",,info@grandhomes.com
TX,COLLIN,RES2021-06-02882,"Single Family Homes",6/10/2021,,357984,,"5205 SQUEEZEPENNY LN",MCKINNEY,TX,75070,,,CONTRACTOR,,,,,,,,,,,"GRAND HOMES",,,,,"GRAND HOMES","15455 DALLAS PKWY STE 1000",ADDISON,TX,75001-6772,"(214) 750-6528",http://www.grandhomes.com/,"(214) 750-6849",,info@grandhomes.com
TX,COLLIN,RES2021-06-02883,"Single Family Homes",6/14/2021,,483936,,"5909 NOYON DR",MCKINNEY,TX,75071,,,CONTRACTOR,,,,,,,,,,,"GRAND HOMES",,,,,"GRAND HOMES","15455 DALLAS PKWY STE 1000",ADDISON,TX,75001-6772,"(214) 750-6528",http://www.grandhomes.com/,"(214) 750-6849",,info@grandhomes.com
TX,COLLIN,RES2021-05-02718,"Single Family Homes",6/7/2021,,364416,,"1404 PORTICO PL",MCKINNEY,TX,75069,,,CONTRACTOR,,,,,,,,,,,"GRAND HOMES",,,,,"GRAND HOMES","15455 DALLAS PKWY STE 1000",ADDISON,TX,75001-6772,"(214) 750-6528",http://www.grandhomes.com/,"(214) 750-6849",,info@grandhomes.com
TX,COLLIN,RES2021-05-02743,"Single Family Homes",6/3/2021,,348000,,"4817 MCKINNEY HOLLOW DR",MCKINNEY,TX,75070,,,CONTRACTOR,,,,,,,,,,,"GRAND HOMES",,,,,"GRAND HOMES","15455 DALLAS PKWY STE 1000",ADDISON,TX,75001-6772,"(214) 750-6528",http://www.grandhomes.com/,"(214) 750-6849",,info@grandhomes.com
TX,COLLIN,RES2021-05-02745,"Single Family Homes",6/7/2021,,410880,,"825 VERANDA VIEW",MCKINNEY,TX,75069,,,CONTRACTOR,,,,,,,,,,,"GRAND HOMES",,,,,"GRAND HOMES","15455 DALLAS PKWY STE 1000",ADDISON,TX,75001-6772,"(214) 750-6528",http://www.grandhomes.com/,"(214) 750-6849",,info@grandhomes.com
TX,COLLIN,RES2021-06-03014,"Single Family Homes",6/16/2021,,412704,,"5937 OWEN RD",MCKINNEY,TX,75071,,,CONTRACTOR,,,,,,,,,,,"GRAND HOMES",,,,,"GRAND HOMES","15455 DALLAS PKWY STE 1000",ADDISON,TX,75001-6772,"(214) 750-6528",http://www.grandhomes.com/,"(214) 750-6849",,info@grandhomes.com
TX,COLLIN,RES2021-06-03009,"Single Family Homes",6/15/2021,,576384,,"501 BASILICA LN",MCKINNEY,TX,75071,,,CONTRACTOR,,,,,,,,,,,"GRAND HOMES",,,,,"GRAND HOMES","15455 DALLAS PKWY STE 1000",ADDISON,TX,75001-6772,"(214) 750-6528",http://www.grandhomes.com/,"(214) 750-6849",,info@grandhomes.com
TX,COLLIN,,"Single Family Homes",6/24/2021,,,3585,"1043 MANCHESTER DR",WYLIE,TX,75098,,,CONTRACTOR,,,,,,,,,,,"PAUL TAYLOR HOMES",,,,,"PAUL TAYLOR HOMES","17950 PRESTON ROAD STE 700",DALLAS,TX,75252,"(972) 732-7800",http://www.paultaylorhomes.com/index2.html,"(972) 732-7827","PAUL TAYLOR",
TX,COLLIN,,"Single Family Homes",6/1/2021,,,4204,"403 RIDGEWAY ST",WYLIE,TX,75098,,,CONTRACTOR,,,,,,,,,,,"PAUL TAYLOR HOMES",,,,,"PAUL TAYLOR HOMES","17950 PRESTON ROAD STE 700",DALLAS,TX,75252,"(972) 732-7800",http://www.paultaylorhomes.com/index2.html,"(972) 732-7827","PAUL TAYLOR",
TX,COLLIN,,"Single Family Homes",6/24/2021,,,3541,"1005 MANCHESTER DR",WYLIE,TX,75098,,,CONTRACTOR,,,,,,,,,,,"PAUL TAYLOR HOMES",,,,,"PAUL TAYLOR HOMES","17950 PRESTON ROAD STE 700",DALLAS,TX,75252,"(972) 732-7800",http://www.paultaylorhomes.com/index2.html,"(972) 732-7827","PAUL TAYLOR",
TX,COLLIN,,"Single Family Homes",6/7/2021,,,2988,"1017 MANCHESTER DR",WYLIE,TX,75098,,,CONTRACTOR,,,,,,,,,,,"PAUL TAYLOR HOMES",,,,,"PAUL TAYLOR HOMES","17950 PRESTON ROAD STE 700",DALLAS,TX,75252,"(972) 732-7800",http://www.paultaylorhomes.com/index2.html,"(972) 732-7827","PAUL TAYLOR",
TX,COLLIN,12400,"Single Family Homes",6/15/2021,,,2425,"4018 SPARROW TRL",MELISSA,TX,75454,"MAGNOLIA RIDGE",,CONTRACTOR,,,,,,,,,,,"LILLIAN CUSTOM HOMES",,,,,"LILLIAN CUSTOM HOMES","509 FERRIS AVE",WAXAHACHIE,TX,75165-3343,"(972) 937-8990",http://lilliancustomhomes.com/,,,
TX,COLLIN,12401,"Single Family Homes",6/15/2021,,,2155,"4121 MOCKINGBIRD LN",MELISSA,TX,75454,"MAGNOLIA RIDGE",,CONTRACTOR,,,,,,,,,,,"LILLIAN CUSTOM HOMES",,,,,"LILLIAN CUSTOM HOMES","509 FERRIS AVE",WAXAHACHIE,TX,75165-3343,"(972) 937-8990",http://lilliancustomhomes.com/,,,
TX,DENTON,21-00167-01,"Single Family Homes",6/18/2021,,885000,4006,"3101 ELIZABETH LN","COPPER CANYON",TX,75077,,,CONTRACTOR,,,,,,,,,,,"LANDON HOMES",,,,,"LANDON HOMES","4050 W PARK BLVD",PLANO,TX,75093-3839,"(214) 707-0347",,"(214) 619-1098","TANYA SMITH",
TX,COLLIN,RES2021-05-02393,"Single Family Homes",6/2/2021,,349248,,"4109 SPANNER DR",MCKINNEY,TX,75071,,,CONTRACTOR,,,,,,,,,,,"BEAZER HOMES ",,,,,"BEAZER HOMES ","1750 VALLEY VIEW LN STE 200",DALLAS,TX,75234-9010,"(972) 250-5517",http://www.beazer.com/,,,bret.kolbe@beazer.com
TX,COLLIN,,"Single Family Homes",6/15/2021,,,4026,"3308 STILLWATER DR",WYLIE,TX,75098,,,CONTRACTOR,,,,,,,,,,,"MEGATEL HOMES",,,,,"MEGATEL HOMES","5512 W PLANO PKWY STE 300",PLANO,TX,75093-4840,"(972) 339-0159",,,,
TX,COLLIN,,"Single Family Homes",6/14/2021,,,2516,"3208 AMBER WAVES LN",WYLIE,TX,75098,,,CONTRACTOR,,,,,,,,,,,"MEGATEL HOMES",,,,,"MEGATEL HOMES","5512 W PLANO PKWY STE 300",PLANO,TX,75093-4840,"(972) 339-0159",,,,
TX,COLLIN,,"Single Family Homes",6/15/2021,,,4332,"3304 GRANDVIEW DR",WYLIE,TX,75098,,,CONTRACTOR,,,,,,,,,,,"MEGATEL HOMES",,,,,"MEGATEL HOMES","5512 W PLANO PKWY STE 300",PLANO,TX,75093-4840,"(972) 339-0159",,,,
TX,COLLIN,,"Single Family Homes",6/15/2021,,,4312,"3404 GRANDVIEW DR",WYLIE,TX,75098,,,CONTRACTOR,,,,,,,,,,,"MEGATEL HOMES",,,,,"MEGATEL HOMES","5512 W PLANO PKWY STE 300",PLANO,TX,75093-4840,"(972) 339-0159",,,,
TX,COLLIN,,"Single Family Homes",6/15/2021,,,4438,"3312 AMBER WAVES LN",WYLIE,TX,75098,,,CONTRACTOR,,,,,,,,,,,"MEGATEL HOMES",,,,,"MEGATEL HOMES","5512 W PLANO PKWY STE 300",PLANO,TX,75093-4840,"(972) 339-0159",,,,
TX,COLLIN,RES2021-02-00850,"Single Family Homes",6/23/2021,,447168,,"507 W DAVIS ST",MCKINNEY,TX,75069,,,CONTRACTOR,,,,,,,,,,,"THE BRITISH BUILDER",,,,,"THE BRITISH BUILDER","210 OAK ST",MCKINNEY,TX,75069-3746,"(972) 924-0407",http://thebritishbuilder.com/,,,
TX,COLLIN,12458,"Single Family Homes",6/28/2021,,,3296,"2302 GRASSLAND AVE",MELISSA,TX,75454,"MEADOW RUN",,CONTRACTOR,,,,,,,,,,,"PACESETTER HOMES ",,,,,"PACESETTER HOMES ","14875 DANEWAY DR",FRISCO,TX,75035-4819,"(214) 298-8350",,,,
TX,COLLIN,12460,"Single Family Homes",6/29/2021,,,2824,"2204 LANTANA DR",MELISSA,TX,75454,"MEADOW RUN",,CONTRACTOR,,,,,,,,,,,"PACESETTER HOMES ",,,,,"PACESETTER HOMES ","14875 DANEWAY DR",FRISCO,TX,75035-4819,"(214) 298-8350",,,,
TX,COLLIN,12461,"Single Family Homes",6/29/2021,,,3111,"2206 LANTANA DR",MELISSA,TX,75454,"MEADOW RUN",,CONTRACTOR,,,,,,,,,,,"PACESETTER HOMES ",,,,,"PACESETTER HOMES ","14875 DANEWAY DR",FRISCO,TX,75035-4819,"(214) 298-8350",,,,
TX,COLLIN,12463,"Single Family Homes",6/29/2021,,,3681,"3810 BLUE STEM BLVD",MELISSA,TX,75454,"MEADOW RUN",,CONTRACTOR,,,,,,,,,,,"PACESETTER HOMES ",,,,,"PACESETTER HOMES ","14875 DANEWAY DR",FRISCO,TX,75035-4819,"(214) 298-8350",,,,
TX,COLLIN,12469,"Single Family Homes",6/29/2021,,,2534,"2206 SWITCHGRASS ST",MELISSA,TX,75454,"MEADOW RUN",,CONTRACTOR,,,,,,,,,,,"PACESETTER HOMES ",,,,,"PACESETTER HOMES ","14875 DANEWAY DR",FRISCO,TX,75035-4819,"(214) 298-8350",,,,
TX,COLLIN,12470,"Single Family Homes",6/29/2021,,,3661,"2307 POPPY VALLEY LN",MELISSA,TX,75454,"MEADOW RUN",,CONTRACTOR,,,,,,,,,,,"PACESETTER HOMES ",,,,,"PACESETTER HOMES ","14875 DANEWAY DR",FRISCO,TX,75035-4819,"(214) 298-8350",,,,
TX,DENTON,20-00194-01,"Single Family Homes",6/10/2021,,500000,3996,"224 KATE COURT","COPPER CANYON",TX,76226,,,CONTRACTOR,,,,,,,,,,,"PRECISION BUILDERS",,,,,"PRECISION BUILDERS","4931 LONG PRAIRIE RD # 200","FLOWER MOUND",TX,75028-2782,"(972) 899-8440",http://precisionbuilderstx.com/,"(972) 899-8439","MICHAEL CANNADAY",michael@michaelcannaday.com
TX,DENTON,21-00188-01,"Single Family Homes",6/28/2021,,650000,3554,"517 CAMERAN TRL","COPPER CANYON",TX,75454,,,CONTRACTOR,,,,,,,,,,,"PRECISION BUILDERS",,,,,"PRECISION BUILDERS","4931 LONG PRAIRIE RD # 200","FLOWER MOUND",TX,75028-2782,"(972) 899-8440",http://precisionbuilderstx.com/,"(972) 899-8439","MICHAEL CANNADAY",michael@michaelcannaday.com
TX,COLLIN,RES2021-05-02706,"Single Family Homes",6/4/2021,,252960,,"3208 RENOIR LN",MCKINNEY,TX,75070,,,CONTRACTOR,,,,,,,,,,,"NAIL BUILDERS",,,,,"NAIL BUILDERS","5000 WHITESTONE LN APT 1033",PLANO,TX,75024-3037,"(214) 554-1006",,,"GARY NAIL",
TX,COLLIN,RES2021-05-02707,"Single Family Homes",6/10/2021,,237216,,"3213 RENOIR LN",MCKINNEY,TX,75070,,,CONTRACTOR,,,,,,,,,,,"NAIL BUILDERS",,,,,"NAIL BUILDERS","5000 WHITESTONE LN APT 1033",PLANO,TX,75024-3037,"(214) 554-1006",,,"GARY NAIL",
TX,COLLIN,RES2021-05-02711,"Single Family Homes",6/7/2021,,261312,,"3204 RENOIR LN",MCKINNEY,TX,75070,,,CONTRACTOR,,,,,,,,,,,"NAIL BUILDERS",,,,,"NAIL BUILDERS","5000 WHITESTONE LN APT 1033",PLANO,TX,75024-3037,"(214) 554-1006",,,"GARY NAIL",
TX,COLLIN,RES2021-06-03022,"Single Family Homes",6/17/2021,,276000,,"3205 MATISSE LN",MCKINNEY,TX,75070,,,CONTRACTOR,,,,,,,,,,,"NAIL BUILDERS",,,,,"NAIL BUILDERS","5000 WHITESTONE LN APT 1033",PLANO,TX,75024-3037,"(214) 554-1006",,,"GARY NAIL",
TX,COLLIN,12440,"Single Family Homes",6/22/2021,,,3632,"3103 ARMSTRONG AVE",MELISSA,TX,75454,LIBERTY,,CONTRACTOR,,,,,,,,,,,"K HOVNANIAN HOMES",,,,,"K HOVNANIAN HOMES","5808 W PLANO PKWY",PLANO,TX,75093-4636,"(469) 737-1400",,,,
TX,COLLIN,12468,"Single Family Homes",6/29/2021,,,3834,"3110 EAGLE LN",MELISSA,TX,75454,LIBERTY,,CONTRACTOR,,,,,,,,,,,"K HOVNANIAN HOMES",,,,,"K HOVNANIAN HOMES","5808 W PLANO PKWY",PLANO,TX,75093-4636,"(469) 737-1400",,,,
TX,COLLIN,12459,"Single Family Homes",6/29/2021,,,3911,"3001 ARMSTRONG AVE",MELISSA,TX,75454,LIBERTY,,CONTRACTOR,,,,,,,,,,,"K HOVNANIAN HOMES",,,,,"K HOVNANIAN HOMES","5808 W PLANO PKWY",PLANO,TX,75093-4636,"(469) 737-1400",,,,
TX,COLLIN,12406,"Single Family Homes",6/15/2021,,,4399,"2905 GARRISON DR",MELISSA,TX,75454,LIBERTY,,CONTRACTOR,,,,,,,,,,,"K HOVNANIAN HOMES",,,,,"K HOVNANIAN HOMES","5808 W PLANO PKWY",PLANO,TX,75093-4636,"(469) 737-1400",,,,
TX,COLLIN,,"Single Family Homes",6/4/2021,,,4116,"801 LAKE RANCH LN",WYLIE,TX,75098,,,CONTRACTOR,,,,,,,,,,,"OUR COUNTRY HOMES",,,,,"OUR COUNTRY HOMES","700 W HARWOOD RD STE G2",HURST,TX,76054-3315,"(817) 281-3390",http://www.ourcountryhomes.com/,"(817) 796-1121","DUSTIN AUSTIN",
TX,DENTON,21-00162-01,"Single Family Homes",6/9/2021,,940995,5710,"2241 ELLESWORTH AVE","COPPER CANYON",TX,75077,,,CONTRACTOR,,,,,,,,,,,"TOLL BROTHERS",,,,,"TOLL BROTHERS","9178 VITA DOLCE DR",FRISCO,TX,75035-2300,"(469) 525-0524",,,,
TX,DENTON,21-00171-01,"Single Family Homes",6/17/2021,,939995,4544,"2224 ELLESWORTH AVE","COPPER CANYON",TX,75077,,,CONTRACTOR,,,,,,,,,,,"TOLL BROTHERS",,,,,"TOLL BROTHERS","9178 VITA DOLCE DR",FRISCO,TX,75035-2300,"(469) 525-0524",,,,
TX,DENTON,21-00172-01,"Single Family Homes",6/17/2021,,767995,4027,"1125 ROCHESTER PLACE","COPPER CANYON",TX,75454,,,CONTRACTOR,,,,,,,,,,,"TOLL BROTHERS",,,,,"TOLL BROTHERS","9178 VITA DOLCE DR",FRISCO,TX,75035-2300,"(469) 525-0524",,,,
TX,DENTON,21-00173-01,"Single Family Homes",6/17/2021,,853995,,"5209 CROMWELL DR","COPPER CANYON",TX,75454,,,CONTRACTOR,,,,,,,,,,,"TOLL BROTHERS",,,,,"TOLL BROTHERS","9178 VITA DOLCE DR",FRISCO,TX,75035-2300,"(469) 525-0524",,,,
TX,DENTON,21-00174-01,"Single Family Homes",6/17/2021,,1027995,6146,"5217 CROMWELL DR","COPPER CANYON",TX,75454,,,CONTRACTOR,,,,,,,,,,,"TOLL BROTHERS",,,,,"TOLL BROTHERS","9178 VITA DOLCE DR",FRISCO,TX,75035-2300,"(469) 525-0524",,,,
TX,DENTON,21-00175-01,"Single Family Homes",6/17/2021,,717995,,"3120 ELIZABETH LN","COPPER CANYON",TX,75454,,,CONTRACTOR,,,,,,,,,,,"TOLL BROTHERS",,,,,"TOLL BROTHERS","9178 VITA DOLCE DR",FRISCO,TX,75035-2300,"(469) 525-0524",,,,
TX,DENTON,21-00184-01,"Single Family Homes",6/29/2021,,765995,3905,"3129 ELIZABETH LN","COPPER CANYON",TX,75454,,,CONTRACTOR,,,,,,,,,,,"TOLL BROTHERS",,,,,"TOLL BROTHERS","9178 VITA DOLCE DR",FRISCO,TX,75035-2300,"(469) 525-0524",,,,
TX,DENTON,21-00185-01,"Single Family Homes",6/28/2021,,729995,4162,"1124 BERKSHIRE WAY","COPPER CANYON",TX,75454,,,CONTRACTOR,,,,,,,,,,,"TOLL BROTHERS",,,,,"TOLL BROTHERS","9178 VITA DOLCE DR",FRISCO,TX,75035-2300,"(469) 525-0524",,,,
TX,DENTON,21-00186-01,"Single Family Homes",6/28/2021,,1016995,4697,"5208 WINDSOR LN","COPPER CANYON",TX,75454,,,CONTRACTOR,,,,,,,,,,,"TOLL BROTHERS",,,,,"TOLL BROTHERS","9178 VITA DOLCE DR",FRISCO,TX,75035-2300,"(469) 525-0524",,,,
TX,COLLIN,12480,"Single Family Homes",6/29/2021,,,2756,"3905 BLUE STEM BLVD",MELISSA,TX,75454,"MEADOW RUN",,CONTRACTOR,,,,,,,,,,,"ASHTON WOODS HOMES",,,,,"ASHTON WOODS HOMES","1221 N INTERSTATE 35E STE 170",CARROLLTON,TX,75006-3806,"(972) 428-5404",,,,
TX,COLLIN,12419,"Single Family Homes",6/16/2021,,,2472,"3910 BLUE STEM BLVD",MELISSA,TX,75454,"MEADOW RUN",,CONTRACTOR,,,,,,,,,,,"ASHTON WOODS HOMES",,,,,"ASHTON WOODS HOMES","1221 N INTERSTATE 35E STE 170",CARROLLTON,TX,75006-3806,"(972) 428-5404",,,,
TX,COLLIN,12420,"Single Family Homes",6/16/2021,,,2560,"4004 BLUE STEM BLVD",MELISSA,TX,75454,"MEADOW RUN",,CONTRACTOR,,,,,,,,,,,"ASHTON WOODS HOMES",,,,,"ASHTON WOODS HOMES","1221 N INTERSTATE 35E STE 170",CARROLLTON,TX,75006-3806,"(972) 428-5404",,,,
TX,COLLIN,12421,"Single Family Homes",6/16/2021,,,2881,"4008 BLUE STEM BLVD",MELISSA,TX,75454,"MEADOW RUN",,CONTRACTOR,,,,,,,,,,,"ASHTON WOODS HOMES",,,,,"ASHTON WOODS HOMES","1221 N INTERSTATE 35E STE 170",CARROLLTON,TX,75006-3806,"(972) 428-5404",,,,
TX,COLLIN,12422,"Single Family Homes",6/16/2021,,,3337,"4018 BLUE STEM BLVD",MELISSA,TX,75454,"MEADOW RUN",,CONTRACTOR,,,,,,,,,,,"ASHTON WOODS HOMES",,,,,"ASHTON WOODS HOMES","1221 N INTERSTATE 35E STE 170",CARROLLTON,TX,75006-3806,"(972) 428-5404",,,,
TX,COLLIN,12423,"Single Family Homes",6/16/2021,,,2776,"4021 BLUE STEM BLVD",MELISSA,TX,75454,"MEADOW RUN",,CONTRACTOR,,,,,,,,,,,"ASHTON WOODS HOMES",,,,,"ASHTON WOODS HOMES","1221 N INTERSTATE 35E STE 170",CARROLLTON,TX,75006-3806,"(972) 428-5404",,,,
TX,COLLIN,12464,"Single Family Homes",6/29/2021,,,3622,"4017 BLUE STEM BLVD",MELISSA,TX,75454,"MEADOW RUN",,CONTRACTOR,,,,,,,,,,,"ASHTON WOODS HOMES",,,,,"ASHTON WOODS HOMES","1221 N INTERSTATE 35E STE 170",CARROLLTON,TX,75006-3806,"(972) 428-5404",,,,
TX,COLLIN,12465,"Single Family Homes",6/29/2021,,,3006,"4019 BLUE STEM BLVD",MELISSA,TX,75454,"MEADOW RUN",,CONTRACTOR,,,,,,,,,,,"ASHTON WOODS HOMES",,,,,"ASHTON WOODS HOMES","1221 N INTERSTATE 35E STE 170",CARROLLTON,TX,75006-3806,"(972) 428-5404",,,,
TX,COLLIN,12466,"Single Family Homes",6/29/2021,,,2472,"3917 HONEYCOMB HOLLOW",MELISSA,TX,75454,"MEADOW RUN",,CONTRACTOR,,,,,,,,,,,"ASHTON WOODS HOMES",,,,,"ASHTON WOODS HOMES","1221 N INTERSTATE 35E STE 170",CARROLLTON,TX,75006-3806,"(972) 428-5404",,,,
TX,COLLIN,12412,"Single Family Homes",6/16/2021,,249900,3075,"2212 SWITCHGRASS ST",MELISSA,TX,75454,"MEADOW RUN",,CONTRACTOR,,,,,,,,,,,"ASHTON WOODS HOMES",,,,,"ASHTON WOODS HOMES","1221 N INTERSTATE 35E STE 170",CARROLLTON,TX,75006-3806,"(972) 428-5404",,,,
TX,COLLIN,12413,"Single Family Homes",6/16/2021,,,3959,"2221 SWITCHGRASS ST",MELISSA,TX,75454,"MEADOW RUN",,CONTRACTOR,,,,,,,,,,,"ASHTON WOODS HOMES",,,,,"ASHTON WOODS HOMES","1221 N INTERSTATE 35E STE 170",CARROLLTON,TX,75006-3806,"(972) 428-5404",,,,
TX,COLLIN,12414,"Single Family Homes",6/16/2021,,,2560,"2225 LANTANA DR",MELISSA,TX,75454,"MEADOW RUN",,CONTRACTOR,,,,,,,,,,,"ASHTON WOODS HOMES",,,,,"ASHTON WOODS HOMES","1221 N INTERSTATE 35E STE 170",CARROLLTON,TX,75006-3806,"(972) 428-5404",,,,
TX,COLLIN,12415,"Single Family Homes",6/16/2021,,,2560,"2303 POPPY VALLEY LN",MELISSA,TX,75454,"MEADOW RUN",,CONTRACTOR,,,,,,,,,,,"ASHTON WOODS HOMES",,,,,"ASHTON WOODS HOMES","1221 N INTERSTATE 35E STE 170",CARROLLTON,TX,75006-3806,"(972) 428-5404",,,,
TX,COLLIN,12416,"Single Family Homes",6/16/2021,,,3685,"2310 POPPY VALLEY LN",MELISSA,TX,75454,"MEADOW RUN",,CONTRACTOR,,,,,,,,,,,"ASHTON WOODS HOMES",,,,,"ASHTON WOODS HOMES","1221 N INTERSTATE 35E STE 170",CARROLLTON,TX,75006-3806,"(972) 428-5404",,,,
TX,COLLIN,12417,"Single Family Homes",6/16/2021,,347500,4179,"2301 POPPY VALLEY LN",MELISSA,TX,75454,"MEADOW RUN",,CONTRACTOR,,,,,,,,,,,"ASHTON WOODS HOMES",,,,,"ASHTON WOODS HOMES","1221 N INTERSTATE 35E STE 170",CARROLLTON,TX,75006-3806,"(972) 428-5404",,,,
TX,COLLIN,RES2021-06-02871,"Single Family Homes",6/15/2021,,319392,,"3398 DOVER DR",MCKINNEY,TX,75069,,,CONTRACTOR,,,,,,,,,,,"ASHTON WOODS HOMES",,,,,"ASHTON WOODS HOMES","1221 N INTERSTATE 35E STE 170",CARROLLTON,TX,75006-3806,"(972) 428-5404",,,,
TX,COLLIN,RES2021-06-02874,"Single Family Homes",6/15/2021,,311328,,"1004 OBERLIN CT",MCKINNEY,TX,75069,,,CONTRACTOR,,,,,,,,,,,"ASHTON WOODS HOMES",,,,,"ASHTON WOODS HOMES","1221 N INTERSTATE 35E STE 170",CARROLLTON,TX,75006-3806,"(972) 428-5404",,,,
TX,COLLIN,,"Single Family Homes",6/15/2021,,,4070,"202 DOMINION DR",WYLIE,TX,75098,,,CONTRACTOR,,,,,,,,,,,"MHI MCGUYER HOMEBUILDERS",,,,,"MHI MCGUYER HOMEBUILDERS","1501 LYNDON B JOHNSON FWY STE 100",DALLAS,TX,75234-6029,"(972) 277-3811",,,,
TX,COLLIN,12403,"Single Family Homes",6/15/2021,,,2686,"206 LINDENWOOD AVE",MELISSA,TX,75454,AUBURNDALE,,CONTRACTOR,,,,,,,,,,,"M/I HOMES",,,,,"M/I HOMES","405 STATE HIGHWAY 121 BYP STE A210",LEWISVILLE,TX,75067-8214,"(210) 546-2129",,"(210) 546-2196",,
TX,COLLIN,12404,"Single Family Homes",6/15/2021,,,3712,"318 MIRAMAR AVE",MELISSA,TX,75454,AUBURNDALE,,CONTRACTOR,,,,,,,,,,,"M/I HOMES",,,,,"M/I HOMES","405 STATE HIGHWAY 121 BYP STE A210",LEWISVILLE,TX,75067-8214,"(210) 546-2129",,"(210) 546-2196",,
TX,COLLIN,12409,"Single Family Homes",6/15/2021,,,3564,"201 LEXINGTON AVE",MELISSA,TX,75454,,,CONTRACTOR,,,,,,,,,,,"M/I HOMES",,,,,"M/I HOMES","405 STATE HIGHWAY 121 BYP STE A210",LEWISVILLE,TX,75067-8214,"(210) 546-2129",,"(210) 546-2196",,
TX,COLLIN,RES2021-05-02768,"Single Family Homes",6/7/2021,,209568,,"932 HIDDEN EDDY DR",MCKINNEY,TX,75071,,,CONTRACTOR,,,,,,,,,,,"TURNER CONSTRUCTION",,,,,"TURNER CONSTRUCTION","10100 N CENTRAL EXPRESSWAY 600",DALLAS,TX,75231,"(214) 721-8400",,,,
TX,COLLIN,RES2021-05-02770,"Single Family Homes",6/7/2021,,216768,,"908 HIDDEN EDDY DR",MCKINNEY,TX,75071,,,CONTRACTOR,,,,,,,,,,,"TURNER CONSTRUCTION",,,,,"TURNER CONSTRUCTION","10100 N CENTRAL EXPRESSWAY 600",DALLAS,TX,75231,"(214) 721-8400",,,,
TX,COLLIN,RES2021-05-02263,"Single Family Homes",6/18/2021,,242976,,"901 HABITAT TRL",MCKINNEY,TX,75071,,,CONTRACTOR,,,,,,,,,,,"TURNER CONSTRUCTION",,,,,"TURNER CONSTRUCTION","10100 N CENTRAL EXPRESSWAY 600",DALLAS,TX,75231,"(214) 721-8400",,,,
TX,COLLIN,RES2021-05-02638,"Single Family Homes",6/18/2021,,430272,,"5716 KILDARE CT",MCKINNEY,TX,75071,,,CONTRACTOR,,,,,,,,,,,"DARLING HOMES",,,,,"DARLING HOMES","2500 LEGACY DR STE 100",FRISCO,TX,75034-5984,"(469) 252-2200",http://www.darlinghomes.com/,,,
TX,COLLIN,12441,"Single Family Homes",6/22/2021,,,3746,"3518 ABINGDON AVE",MELISSA,TX,75454,LIBERTY,,CONTRACTOR,,,,,,,,,,,"PERRY HOMES",,,,,"PERRY HOMES","2004 VENTURA DR STE 200",PLANO,TX,75093-2003,"(972) 964-7700",,,,
TX,COLLIN,12472,"Single Family Homes",6/29/2021,,,4131,"2606 CAPITOL PL",MELISSA,TX,75454,LIBERTY,,CONTRACTOR,,,,,,,,,,,"PERRY HOMES",,,,,"PERRY HOMES","2004 VENTURA DR STE 200",PLANO,TX,75093-2003,"(972) 964-7700",,,,
TX,COLLIN,12467,"Single Family Homes",6/29/2021,,,3746,"3710 MACARTHUR DR",MELISSA,TX,75454,LIBERTY,,CONTRACTOR,,,,,,,,,,,"PERRY HOMES",,,,,"PERRY HOMES","2004 VENTURA DR STE 200",PLANO,TX,75093-2003,"(972) 964-7700",,,,
TX,COLLIN,RES2021-04-01864,"Single Family Homes",6/18/2021,,367584,,"501 TURKEY CREEK DR",MCKINNEY,TX,75071,,,CONTRACTOR,,,,,,,,,,,"DREES CUSTOM HOMES",,,,,"DREES CUSTOM HOMES","6225 N STATE HIGHWAY 161 STE 150",IRVING,TX,75038-2283,"(972) 953-4500",http://www.dreeshomes.com,,,
TX,COLLIN,RES2021-05-02671,"Single Family Homes",6/1/2021,,414624,,"4141 RED SPRUCE WAY",MCKINNEY,TX,75071,,,CONTRACTOR,,,,,,,,,,,"DREES CUSTOM HOMES",,,,,"DREES CUSTOM HOMES","6225 N STATE HIGHWAY 161 STE 150",IRVING,TX,75038-2283,"(972) 953-4500",http://www.dreeshomes.com,,,
TX,COLLIN,RES2021-05-02680,"Single Family Homes",6/18/2021,,284352,,"3900 BAMBOO TRL",MCKINNEY,TX,75071,,,CONTRACTOR,,,,,,,,,,,"DREES CUSTOM HOMES",,,,,"DREES CUSTOM HOMES","6225 N STATE HIGHWAY 161 STE 150",IRVING,TX,75038-2283,"(972) 953-4500",http://www.dreeshomes.com,,,
TX,COLLIN,RES2021-06-02825,"Single Family Homes",6/9/2021,,416640,,"8808 AUTUMN LAKE TRL",MCKINNEY,TX,75071,,,CONTRACTOR,,,,,,,,,,,"DREES CUSTOM HOMES",,,,,"DREES CUSTOM HOMES","6225 N STATE HIGHWAY 161 STE 150",IRVING,TX,75038-2283,"(972) 953-4500",http://www.dreeshomes.com,,,
TX,COLLIN,RES2021-06-02848,"Single Family Homes",6/10/2021,,374976,,"3912 SILVER BIRCH DR",MCKINNEY,TX,75071,,,CONTRACTOR,,,,,,,,,,,"DREES CUSTOM HOMES",,,,,"DREES CUSTOM HOMES","6225 N STATE HIGHWAY 161 STE 150",IRVING,TX,75038-2283,"(972) 953-4500",http://www.dreeshomes.com,,,
TX,DENTON,21-00187-01,"Single Family Homes",6/28/2021,,1000000,6494,"50 CAMERON CT","COPPER CANYON",TX,75454,,,CONTRACTOR,,,,,,,,,,,"LINGENFELTER CUSTOM HOMES LLC",,,,,"LINGENFELTER CUSTOM HOMES LLC","PO BOX 270994","FLOWER MOUND",TX,75027-0994,"(972) 746-1803",http://lingenfeltercustomhomes.com/,,,info@lingenfeltercustomhomes.com
TX,DENTON,21-00060-01,"Single Family Homes",6/28/2021,,1275000,4757,"22 BRADFORD LN","COPPER CANYON",TX,76226,,,CONTRACTOR,,,,,,,,,,,"LINGENFELTER CUSTOM HOMES LLC",,,,,"LINGENFELTER CUSTOM HOMES LLC","PO BOX 270994","FLOWER MOUND",TX,75027-0994,"(972) 746-1803",http://lingenfeltercustomhomes.com/,,,info@lingenfeltercustomhomes.com
TX,COLLIN,,"Single Family Homes",6/16/2021,,,2116,"3024 CONCORD DR",WYLIE,TX,75098,,,CONTRACTOR,,,,,,,,,,,"GRENADIER HOMES",,,,,"GRENADIER HOMES","5000 QUORUM DR STE 555",DALLAS,TX,75254-7139,"(469) 619-6452",http://grenadierhomes.com,,,
TX,COLLIN,,"Single Family Homes",6/16/2021,,,2107,"3032 CONCORD DR",WYLIE,TX,75098,,,CONTRACTOR,,,,,,,,,,,"GRENADIER HOMES",,,,,"GRENADIER HOMES","5000 QUORUM DR STE 555",DALLAS,TX,75254-7139,"(469) 619-6452",http://grenadierhomes.com,,,
TX,COLLIN,,"Single Family Homes",6/16/2021,,,1785,"3034 CONCORD DR",WYLIE,TX,75098,,,CONTRACTOR,,,,,,,,,,,"GRENADIER HOMES",,,,,"GRENADIER HOMES","5000 QUORUM DR STE 555",DALLAS,TX,75254-7139,"(469) 619-6452",http://grenadierhomes.com,,,
TX,COLLIN,,"Single Family Homes",6/16/2021,,,2212,"2715 APPLEWOOD WAY",WYLIE,TX,75098,,,CONTRACTOR,,,,,,,,,,,"GRENADIER HOMES",,,,,"GRENADIER HOMES","5000 QUORUM DR STE 555",DALLAS,TX,75254-7139,"(469) 619-6452",http://grenadierhomes.com,,,
TX,COLLIN,,"Single Family Homes",6/16/2021,,,2212,"2717 APPLEWOOD WAY",WYLIE,TX,75098,,,CONTRACTOR,,,,,,,,,,,"GRENADIER HOMES",,,,,"GRENADIER HOMES","5000 QUORUM DR STE 555",DALLAS,TX,75254-7139,"(469) 619-6452",http://grenadierhomes.com,,,
TX,COLLIN,,"Single Family Homes",6/16/2021,,,1941,"2719 APPLEWOOD WAY",WYLIE,TX,75098,,,CONTRACTOR,,,,,,,,,,,"GRENADIER HOMES",,,,,"GRENADIER HOMES","5000 QUORUM DR STE 555",DALLAS,TX,75254-7139,"(469) 619-6452",http://grenadierhomes.com,,,
TX,COLLIN,,"Single Family Homes",6/16/2021,,,1794,"2721 APPLEWOOD WAY",WYLIE,TX,75098,,,CONTRACTOR,,,,,,,,,,,"GRENADIER HOMES",,,,,"GRENADIER HOMES","5000 QUORUM DR STE 555",DALLAS,TX,75254-7139,"(469) 619-6452",http://grenadierhomes.com,,,
TX,COLLIN,,"Single Family Homes",6/16/2021,,,2326,"3022 CONCORD DR",WYLIE,TX,75098,,,CONTRACTOR,,,,,,,,,,,"GRENADIER HOMES",,,,,"GRENADIER HOMES","5000 QUORUM DR STE 555",DALLAS,TX,75254-7139,"(469) 619-6452",http://grenadierhomes.com,,,
TX,ELLIS,002744-2021,"Single Family Homes",6/23/2021,,,2915,"2236 BURNING BUSH LN",WAXAHACHIE,TX,75165,,,CONTRACTOR,,,,,,,,,,,"SANDLIN HOMES",,,,,"SANDLIN HOMES","5137 DAVIS BLVD","FORT WORTH",TX,76180-6873,"(817) 281-3509",,,,
TX,ELLIS,002769-2021,"Single Family Homes",6/23/2021,,,3256,"2261 HIGH PLAIN LN",WAXAHACHIE,TX,75167,,,CONTRACTOR,,,,,,,,,,,"SANDLIN HOMES",,,,,"SANDLIN HOMES","5137 DAVIS BLVD","FORT WORTH",TX,76180-6873,"(817) 281-3509",,,,
TX,ELLIS,002711-2021,"Single Family Homes",6/21/2021,,,2626,"2249 SHEPPARDS LN",WAXAHACHIE,TX,75167,,,CONTRACTOR,,,,,,,,,,,"SANDLIN HOMES",,,,,"SANDLIN HOMES","5137 DAVIS BLVD","FORT WORTH",TX,76180-6873,"(817) 281-3509",,,,
TX,ELLIS,002713-2021,"Single Family Homes",6/21/2021,,,2773,"2237 SHEPPARDS LN",WAXAHACHIE,TX,75167,,,CONTRACTOR,,,,,,,,,,,"SANDLIN HOMES",,,,,"SANDLIN HOMES","5137 DAVIS BLVD","FORT WORTH",TX,76180-6873,"(817) 281-3509",,,,
TX,ELLIS,002628-2021,"Single Family Homes",6/15/2021,,,3256,"2241 SHEPPARDS LN",WAXAHACHIE,TX,75167,,,CONTRACTOR,,,,,,,,,,,"SANDLIN HOMES",,,,,"SANDLIN HOMES","5137 DAVIS BLVD","FORT WORTH",TX,76180-6873,"(817) 281-3509",,,,
TX,ELLIS,002629-2021,"Single Family Homes",6/15/2021,,,3196,"2224 BURNING BUSH LN",WAXAHACHIE,TX,75167,,,CONTRACTOR,,,,,,,,,,,"SANDLIN HOMES",,,,,"SANDLIN HOMES","5137 DAVIS BLVD","FORT WORTH",TX,76180-6873,"(817) 281-3509",,,,
TX,COLLIN,RES2021-06-02978,"Single Family Homes",6/11/2021,,298368,,"8913 BRANDY BRANCH WAY",MCKINNEY,TX,75071,,,CONTRACTOR,,,,,,,,,,,"HIGHLAND HOMES",,,,,"HIGHLAND HOMES","5601 DEMOCRACY DR STE 300",PLANO,TX,75024-3674,"(972) 789-3500",,,,
TX,COLLIN,12407,"Single Family Homes",6/15/2021,,,3841,"2906 HOBBS LN",MELISSA,TX,75454,LIBERTY,,CONTRACTOR,,,,,,,,,,,"HIGHLAND HOMES",,,,,"HIGHLAND HOMES","5601 DEMOCRACY DR STE 300",PLANO,TX,75024-3674,"(972) 789-3500",,,,
TX,COLLIN,12408,"Single Family Homes",6/15/2021,,,3834,"3523 ABINGDON AVE",MELISSA,TX,75454,LIBERTY,,CONTRACTOR,,,,,,,,,,,"HIGHLAND HOMES",,,,,"HIGHLAND HOMES","5601 DEMOCRACY DR STE 300",PLANO,TX,75024-3674,"(972) 789-3500",,,,
TX,COLLIN,12405,"Single Family Homes",6/15/2021,,,4050,"2603 PATTON DR",MELISSA,TX,75454,LIBERTY,,CONTRACTOR,,,,,,,,,,,"HIGHLAND HOMES",,,,,"HIGHLAND HOMES","5601 DEMOCRACY DR STE 300",PLANO,TX,75024-3674,"(972) 789-3500",,,,
TX,COLLIN,12418,"Single Family Homes",6/16/2021,,,2881,"3011 ARMSTRONG AVE",MELISSA,TX,75454,LIBERTY,,CONTRACTOR,,,,,,,,,,,"HIGHLAND HOMES",,,,,"HIGHLAND HOMES","5601 DEMOCRACY DR STE 300",PLANO,TX,75024-3674,"(972) 789-3500",,,,
TX,COLLIN,,"Single Family Homes",6/15/2021,,,3542,"367 ROSEMARY DR",WYLIE,TX,75098,,,CONTRACTOR,,,,,,,,,,,"COVENTRY HOMES",,,,,"COVENTRY HOMES","16980 DALLAS PKWY STE 100",DALLAS,TX,75248-1910,"(472) 484-6665",,,,
TX,COLLIN,POOL2021-06-00201,"Single Family Homes",6/10/2021,,65000,,"10613 BROKEN SPOKE LN",MCKINNEY,TX,75072,,,CONTRACTOR,,,,,,,,,,,"FOLEY POOLS",,,,,"FOLEY POOLS","6065 SPORTS VILLAGE RD STE 100",FRISCO,TX,75033-3526,"(972) 423-7178",https://foleypools.com/,,,sales@foleypools.com
TX,COLLIN,12389,"Single Family Homes",6/10/2021,,,4010,"3204 MATTIE GREY LN",MELISSA,TX,75454,"MILRANY RANCH",,CONTRACTOR,,,,,,,,,,,"UNION MAIN HOMES",,,,,"UNION MAIN HOMES","5005 LYNDON B JOHNSON FWY STE 350",DALLAS,TX,75244-6147,"(832) 775-6367",,,,
TX,COLLIN,,"Single Family Homes",6/23/2021,,,2222,"827 EAGLESCLIFFE LANDING",WYLIE,TX,75098,,,CONTRACTOR,,,,,,,,,,,"SIGNATURE DESIGNER HOMES",,,,,"SIGNATURE DESIGNER HOMES","305 BARRANCA TR",WYLIE,TX,75098,"(972) 839-0046",,,"LAURENCE DEBERRY",lardebtx@msn.com
TX,COLLIN,,"Single Family Homes",6/23/2021,,,1863,"833 EAGLESCLIFFE LANDING",WYLIE,TX,75098,,,CONTRACTOR,,,,,,,,,,,"SIGNATURE DESIGNER HOMES",,,,,"SIGNATURE DESIGNER HOMES","305 BARRANCA TR",WYLIE,TX,75098,"(972) 839-0046",,,"LAURENCE DEBERRY",lardebtx@msn.com
TX,COLLIN,,"Single Family Homes",6/23/2021,,,2127,"831 EAGLESCLIFFE LANDING",WYLIE,TX,75098,,,CONTRACTOR,,,,,,,,,,,"SIGNATURE DESIGNER HOMES",,,,,"SIGNATURE DESIGNER HOMES","305 BARRANCA TR",WYLIE,TX,75098,"(972) 839-0046",,,"LAURENCE DEBERRY",lardebtx@msn.com
TX,COLLIN,,"Single Family Homes",6/28/2021,,,4528,"2511 ELAINE DR",WYLIE,TX,75098,,,CONTRACTOR,,,,,,,,,,,"LEXIS CONSTRUCTION",,,,,"LEXIS CONSTRUCTION","900 HAWTHORNE DR",PROPSER,TX,75078,"(214) 287-6355",,,"MARIBEL GOODRUM",
TX,ROCKWALL,"20- 001989","Single Family Homes",6/22/2021,,251465,2647,"391 E LAMAR ST","ROYSE CITY",TX,75189,,,"EDGAR & SONIA MAZARIEGOS","391 E LAMAR ST","ROYSE CITY",TX,75189,,Owner,,,,,OWNER,,,,,OWNER,,,,,,,,,
TX,COLLIN,21-55129,"Single Family Homes",6/7/2021,,459950,3343,"20636 CHRISTIE MARIE LN",PLANO,TX,78660,"PARK AT BLACKHAWK",,CONTRACTOR,,,,,,,,,,,"SARATOGA HOMES",,,,,"SARATOGA HOMES","8105 PORTO CV","ROUND ROCK",TX,78665-2101,"(512) 861-0550",https://saratogahomestexas.com,,,
TX,COLLIN,RES2021-06-03332,"Single Family Homes",6/28/2021,,304320,,"10144 KINGSLAND TRL",MCKINNEY,TX,75072,,,CONTRACTOR,,,,,,,,,,,"DR HORTON",,,,,"DR HORTON","6751 NORTH FWY","FT WORTH",TX,76131-2802,"(817) 230-0800",,,,
TX,ROCKWALL,"21- 001085","Single Family Homes",6/21/2021,,238450,2510,"116 CREEK PLUM DR","ROYSE CITY",TX,75189,,,CONTRACTOR,,,,,,,,,,,"DR HORTON",,,,,"DR HORTON","6751 NORTH FWY","FT WORTH",TX,76131-2802,"(817) 230-0800",,,,
TX,ROCKWALL,"21- 001086","Single Family Homes",6/21/2021,,254695,2681,"108 CREEK PLUM DR","ROYSE CITY",TX,75189,,,CONTRACTOR,,,,,,,,,,,"DR HORTON",,,,,"DR HORTON","6751 NORTH FWY","FT WORTH",TX,76131-2802,"(817) 230-0800",,,,
TX,ROCKWALL,"21- 001052","Single Family Homes",6/11/2021,,259920,2736,"128 CREEK PLUM DR","ROYSE CITY",TX,75189,,,CONTRACTOR,,,,,,,,,,,"DR HORTON",,,,,"DR HORTON","6751 NORTH FWY","FT WORTH",TX,76131-2802,"(817) 230-0800",,,,
TX,ROCKWALL,"21- 000629","Single Family Homes",6/1/2021,,365275,3845,"3075 AQUEDUCT AVE","ROYSE CITY",TX,75189,,,CONTRACTOR,,,,,,,,,,,"HISTORY MAKER HOMES",,,,,"HISTORY MAKER HOMES","9001 AIRPORT FWY SUITE 400","NORTH RICHLAND HILLS",TX,76180-7769,"(817) 429-8008",http://www.historymaker.com/,"(817) 507-1102","JILL BARFIELD",
TX,COLLIN,RES2021-06-03227,"Single Family Homes",6/30/2021,,343200,,"8708 FAIRWAY LN",MCKINNEY,TX,75070,,,CONTRACTOR,,,,,,,,,,,"GRAND HOMES",,,,,"GRAND HOMES","15455 DALLAS PKWY STE 1000",ADDISON,TX,75001-6772,"(214) 750-6528",http://www.grandhomes.com/,"(214) 750-6849",,info@grandhomes.com
TX,COLLIN,RES2021-06-03228,"Single Family Homes",6/29/2021,,508704,,"2612 BUCER CT",MCKINNEY,TX,75071,,,CONTRACTOR,,,,,,,,,,,"GRAND HOMES",,,,,"GRAND HOMES","15455 DALLAS PKWY STE 1000",ADDISON,TX,75001-6772,"(214) 750-6528",http://www.grandhomes.com/,"(214) 750-6849",,info@grandhomes.com
TX,COLLIN,RES2021-06-03349,"Single Family Homes",6/30/2021,,664704,,"820 VERANDA VIEW",MCKINNEY,TX,75069,,,CONTRACTOR,,,,,,,,,,,"GRAND HOMES",,,,,"GRAND HOMES","15455 DALLAS PKWY STE 1000",ADDISON,TX,75001-6772,"(214) 750-6528",http://www.grandhomes.com/,"(214) 750-6849",,info@grandhomes.com
TX,COLLIN,RES2021-06-03375,"Single Family Homes",6/30/2021,,438624,,"4844 DUNSTER DR",MCKINNEY,TX,75070,,,CONTRACTOR,,,,,,,,,,,"GRAND HOMES",,,,,"GRAND HOMES","15455 DALLAS PKWY STE 1000",ADDISON,TX,75001-6772,"(214) 750-6528",http://www.grandhomes.com/,"(214) 750-6849",,info@grandhomes.com
TX,DALLAS,20-4668,"Single Family Homes",6/11/2021,,600000,4530,"1104 SEMINOLE DR",RICHARDSON,TX,75081,,,CONTRACTOR,,,,,,,,,,,"3RD STREET CUSTOM HOMES",,,,,"3RD STREET CUSTOM HOMES","6 ROUNDROCK CIR",RICHARDSON,TX,75080-2633,"(214) 394-6919",,"(972) 248-9276","JEFF STEGICH",ff@jeffstegich.com
TX,DALLAS,20-4818,"Single Family Homes",6/23/2021,,600000,4979,"1221 MOHAWK TRL",RICHARDSON,TX,75081,,,CONTRACTOR,,,,,,,,,,,"3RD STREET CUSTOM HOMES",,,,,"3RD STREET CUSTOM HOMES","6 ROUNDROCK CIR",RICHARDSON,TX,75080-2633,"(214) 394-6919",,"(972) 248-9276","JEFF STEGICH",ff@jeffstegich.com
TX,DALLAS,21-1185,"Single Family Homes",6/21/2021,,1500000,6058,"414 FALL CREEK DR",RICHARDSON,TX,75081,,,CONTRACTOR,,,,,,,,,,,"3RD STREET CUSTOM HOMES",,,,,"3RD STREET CUSTOM HOMES","6 ROUNDROCK CIR",RICHARDSON,TX,75080-2633,"(214) 394-6919",,"(972) 248-9276","JEFF STEGICH",ff@jeffstegich.com
TX,ROCKWALL,"21- 001058","Single Family Homes",6/10/2021,,465000,4074,"4624 GREENWAY LN","ROYSE CITY",TX,75189,,,CONTRACTOR,,,,,,,,,,,"DALROCK HOMES",,,,,"DALROCK HOMES","10 GREENHOLLOW",ROCKWALL,TX,75032-2628,"(214) 502-1021",,"(972) 771-5580","JAY WEBB",jamesbwebb@sbcglobal.net
TX,DALLAS,210532,"Single Family Homes",6/30/2021,,466990,10400,"312 SILVER CREEK TR",SUNNYVALE,TX,76140,,,CONTRACTOR,,,,,,,,,,,"BEAZER HOMES ",,,,,"BEAZER HOMES ","1750 VALLEY VIEW LN STE 200",DALLAS,TX,75234-9010,"(972) 250-5517",http://www.beazer.com/,,,bret.kolbe@beazer.com
TX,DALLAS,210530,"Single Family Homes",6/30/2021,,512990,11642,"511 TWILIGHT DR",SUNNYVALE,TX,76140,,,CONTRACTOR,,,,,,,,,,,"BEAZER HOMES ",,,,,"BEAZER HOMES ","1750 VALLEY VIEW LN STE 200",DALLAS,TX,75234-9010,"(972) 250-5517",http://www.beazer.com/,,,bret.kolbe@beazer.com
TX,DALLAS,19-6051,"Single Family Homes",6/7/2021,,802747,4003,"1316 CHEYENNE DR",RICHARDSON,TX,75081,,,CONTRACTOR,,,,,,,,,,,"SUMMEY INDUSTRIES",,,,,"SUMMEY INDUSTRIES","6903 ECHO BLUFF DR",DALLAS,TX,75248-2903,"(214) 300-8925",,,,
TX,DALLAS,20-5755,"Single Family Homes",6/18/2021,,757476,8342,"1 FOREST PARK DR",RICHARDSON,TX,75081,,,CONTRACTOR,,,,,,,,,,,"CANTERBURY CUSTOM HOMES",,,,,"CANTERBURY CUSTOM HOMES","P O BOX 12638",DALLAS,TX,75225,"(972) 658-9206",http://canterburycustomhomesdfw.com/,,,sales@canterburycustomhomesdfw.com
TX,DENTON,,"Single Family Homes",6/8/2021,,,1937,"2508 JACK RABBIT WAY",NORTHLAKE,TX,76247,,,CONTRACTOR,,,,,,,,,,,"PULTE HOMES",,,,,"PULTE HOMES","4800 REGENT BLVD",IRVING,TX,75063-2439,"(972) 304-2800",,,,
TX,DENTON,21-SFR00371,"Single Family Homes",6/2/2021,,,3034,"1305 MEADOWLARK LN",NORTHLAKE,TX,76226,,,CONTRACTOR,,,,,,,,,,,"K HOVNANIAN HOMES",,,,,"K HOVNANIAN HOMES","5808 W PLANO PKWY",PLANO,TX,75093-4636,"(469) 737-1400",,,,
TX,DENTON,21-SFR00421,"Single Family Homes",6/8/2021,,,3045,"4013 SILVER LACE LN",NORTHLAKE,TX,76226,,,CONTRACTOR,,,,,,,,,,,"K HOVNANIAN HOMES",,,,,"K HOVNANIAN HOMES","5808 W PLANO PKWY",PLANO,TX,75093-4636,"(469) 737-1400",,,,
TX,DENTON,21-SFR00422,"Single Family Homes",6/10/2021,,,2125,"3319 IRONSTONE ROAD",NORTHLAKE,TX,76226,,,CONTRACTOR,,,,,,,,,,,"K HOVNANIAN HOMES",,,,,"K HOVNANIAN HOMES","5808 W PLANO PKWY",PLANO,TX,75093-4636,"(469) 737-1400",,,,
TX,DENTON,21-SFR00426,"Single Family Homes",6/8/2021,,,3045,"1201 MEADOWLARK LN",NORTHLAKE,TX,76226,,,CONTRACTOR,,,,,,,,,,,"K HOVNANIAN HOMES",,,,,"K HOVNANIAN HOMES","5808 W PLANO PKWY",PLANO,TX,75093-4636,"(469) 737-1400",,,,
TX,DENTON,21-SFR00469,"Single Family Homes",6/21/2021,,,3084,"3309 IRONSTONE ROAD",NORTHLAKE,TX,76226,,,CONTRACTOR,,,,,,,,,,,"K HOVNANIAN HOMES",,,,,"K HOVNANIAN HOMES","5808 W PLANO PKWY",PLANO,TX,75093-4636,"(469) 737-1400",,,,
TX,DENTON,21-SFR00475,"Single Family Homes",6/21/2021,,,2022,"3200 IRONSTONE ROAD",NORTHLAKE,TX,76226,,,CONTRACTOR,,,,,,,,,,,"K HOVNANIAN HOMES",,,,,"K HOVNANIAN HOMES","5808 W PLANO PKWY",PLANO,TX,75093-4636,"(469) 737-1400",,,,
TX,DENTON,21-SFR00476,"Single Family Homes",6/21/2021,,,3589,"1208 ARCADIA LN",NORTHLAKE,TX,76226,,,CONTRACTOR,,,,,,,,,,,"K HOVNANIAN HOMES",,,,,"K HOVNANIAN HOMES","5808 W PLANO PKWY",PLANO,TX,75093-4636,"(469) 737-1400",,,,
TX,DENTON,21-SFR00427,"Single Family Homes",6/8/2021,,,3045,"1200 ARCADIA LN",NORTHLAKE,TX,76226,,,CONTRACTOR,,,,,,,,,,,"K HOVNANIAN HOMES",,,,,"K HOVNANIAN HOMES","5808 W PLANO PKWY",PLANO,TX,75093-4636,"(469) 737-1400",,,,
TX,DENTON,21-SFR00446,"Single Family Homes",6/14/2021,,,2235,"3204 GLENDALE DR",NORTHLAKE,TX,76226,,,CONTRACTOR,,,,,,,,,,,"K HOVNANIAN HOMES",,,,,"K HOVNANIAN HOMES","5808 W PLANO PKWY",PLANO,TX,75093-4636,"(469) 737-1400",,,,
TX,ROCKWALL,"21- 001139","Single Family Homes",6/28/2021,,313803,3090,"532 REDBUD DR","ROYSE CITY",TX,75189,,,CONTRACTOR,,,,,,,,,,,"ALTURA HOMES",,,,,"ALTURA HOMES","5763 S STATE HIGHWAY 205 # 100",ROCKWALL,TX,75032-2601,"(888) 972-1979",http://www.alturahomes.com/,"(214) 771-0899",,
TX,ROCKWALL,"21- 001140","Single Family Homes",6/28/2021,,225720,2376,"541 REDBUD DR","ROYSE CITY",TX,75189,,,CONTRACTOR,,,,,,,,,,,"ALTURA HOMES",,,,,"ALTURA HOMES","5763 S STATE HIGHWAY 205 # 100",ROCKWALL,TX,75032-2601,"(888) 972-1979",http://www.alturahomes.com/,"(214) 771-0899",,
TX,ROCKWALL,"21- 001131","Single Family Homes",6/28/2021,,290727,2773,"536 REDBUD DR","ROYSE CITY",TX,75189,,,CONTRACTOR,,,,,,,,,,,"ALTURA HOMES",,,,,"ALTURA HOMES","5763 S STATE HIGHWAY 205 # 100",ROCKWALL,TX,75032-2601,"(888) 972-1979",http://www.alturahomes.com/,"(214) 771-0899",,
TX,ROCKWALL,"21- 001132","Single Family Homes",6/28/2021,,245385,2583,"533 REDBUD DR","ROYSE CITY",TX,75189,,,CONTRACTOR,,,,,,,,,,,"ALTURA HOMES",,,,,"ALTURA HOMES","5763 S STATE HIGHWAY 205 # 100",ROCKWALL,TX,75032-2601,"(888) 972-1979",http://www.alturahomes.com/,"(214) 771-0899",,
TX,ROCKWALL,"21- 001134","Single Family Homes",6/28/2021,,295498,2895,"540 REDBUD DR","ROYSE CITY",TX,75189,,,CONTRACTOR,,,,,,,,,,,"ALTURA HOMES",,,,,"ALTURA HOMES","5763 S STATE HIGHWAY 205 # 100",ROCKWALL,TX,75032-2601,"(888) 972-1979",http://www.alturahomes.com/,"(214) 771-0899",,
TX,ROCKWALL,"21- 001024","Single Family Homes",6/28/2021,,294828,2885,"512 REDBUD DR","ROYSE CITY",TX,75189,,,CONTRACTOR,,,,,,,,,,,"ALTURA HOMES",,,,,"ALTURA HOMES","5763 S STATE HIGHWAY 205 # 100",ROCKWALL,TX,75032-2601,"(888) 972-1979",http://www.alturahomes.com/,"(214) 771-0899",,
TX,ROCKWALL,"21- 001025","Single Family Homes",6/28/2021,,217075,2285,"513 REDBUD DR","ROYSE CITY",TX,75189,,,CONTRACTOR,,,,,,,,,,,"ALTURA HOMES",,,,,"ALTURA HOMES","5763 S STATE HIGHWAY 205 # 100",ROCKWALL,TX,75032-2601,"(888) 972-1979",http://www.alturahomes.com/,"(214) 771-0899",,
TX,ROCKWALL,"21- 001033","Single Family Homes",6/28/2021,,293550,3090,"521 REDBUD DR","ROYSE CITY",TX,75189,,,CONTRACTOR,,,,,,,,,,,"ALTURA HOMES",,,,,"ALTURA HOMES","5763 S STATE HIGHWAY 205 # 100",ROCKWALL,TX,75032-2601,"(888) 972-1979",http://www.alturahomes.com/,"(214) 771-0899",,
TX,ROCKWALL,"21- 001034","Single Family Homes",6/28/2021,,302426,2868,"520 REDBUD DR","ROYSE CITY",TX,75189,,,CONTRACTOR,,,,,,,,,,,"ALTURA HOMES",,,,,"ALTURA HOMES","5763 S STATE HIGHWAY 205 # 100",ROCKWALL,TX,75032-2601,"(888) 972-1979",http://www.alturahomes.com/,"(214) 771-0899",,
TX,DENTON,21-SFR00494,"Single Family Homes",6/30/2021,,,2032,"2208 LAZY DOG LN",NORTHLAKE,TX,76247,,,CONTRACTOR,,,,,,,,,,,"DAVID WEEKLEY HOMES",,,,,"DAVID WEEKLEY HOMES","2708 HILLSIDE DR","HIGHLAND VILLAGE",TX,75077-8653,"(972) 415-6059",http://www.davidweekleyhomes.com/,,,
TX,DENTON,21-SFR00478,"Single Family Homes",6/15/2021,,,2346,"2317 LAZY DOG LN",NORTHLAKE,TX,76247,,,CONTRACTOR,,,,,,,,,,,"DAVID WEEKLEY HOMES",,,,,"DAVID WEEKLEY HOMES","2708 HILLSIDE DR","HIGHLAND VILLAGE",TX,75077-8653,"(972) 415-6059",http://www.davidweekleyhomes.com/,,,
TX,DENTON,21-SFR00480,"Single Family Homes",6/21/2021,,,2777,"2216 ROBIN WAY",NORTHLAKE,TX,76247,,,CONTRACTOR,,,,,,,,,,,"DAVID WEEKLEY HOMES",,,,,"DAVID WEEKLEY HOMES","2708 HILLSIDE DR","HIGHLAND VILLAGE",TX,75077-8653,"(972) 415-6059",http://www.davidweekleyhomes.com/,,,
TX,DENTON,21-SFR00425,"Single Family Homes",6/7/2021,,,2346,"2221 CLANCY DR",NORTHLAKE,TX,76247,,,CONTRACTOR,,,,,,,,,,,"DAVID WEEKLEY HOMES",,,,,"DAVID WEEKLEY HOMES","2708 HILLSIDE DR","HIGHLAND VILLAGE",TX,75077-8653,"(972) 415-6059",http://www.davidweekleyhomes.com/,,,
TX,DENTON,,"Single Family Homes",6/23/2021,,,2908,"2231 AUTRY LN",NORTHLAKE,TX,76247,,,CONTRACTOR,,,,,,,,,,,"DAVID WEEKLEY HOMES",,,,,"DAVID WEEKLEY HOMES","2708 HILLSIDE DR","HIGHLAND VILLAGE",TX,75077-8653,"(972) 415-6059",http://www.davidweekleyhomes.com/,,,
TX,DENTON,,"Single Family Homes",6/24/2021,,,2477,"605 FIELDING ST",NORTHLAKE,TX,76247,,,CONTRACTOR,,,,,,,,,,,"DAVID WEEKLEY HOMES",,,,,"DAVID WEEKLEY HOMES","2708 HILLSIDE DR","HIGHLAND VILLAGE",TX,75077-8653,"(972) 415-6059",http://www.davidweekleyhomes.com/,,,
TX,DENTON,,"Single Family Homes",6/24/2021,,,2018,"2217 LAZY DOG LN",NORTHLAKE,TX,76247,,,CONTRACTOR,,,,,,,,,,,"DAVID WEEKLEY HOMES",,,,,"DAVID WEEKLEY HOMES","2708 HILLSIDE DR","HIGHLAND VILLAGE",TX,75077-8653,"(972) 415-6059",http://www.davidweekleyhomes.com/,,,
TX,DENTON,,"Single Family Homes",6/24/2021,,,2043,"2208 CLANCY DR",NORTHLAKE,TX,76247,,,CONTRACTOR,,,,,,,,,,,"DAVID WEEKLEY HOMES",,,,,"DAVID WEEKLEY HOMES","2708 HILLSIDE DR","HIGHLAND VILLAGE",TX,75077-8653,"(972) 415-6059",http://www.davidweekleyhomes.com/,,,
TX,COLLIN,RES2021-06-03136,"Single Family Homes",6/22/2021,,457920,,"6213 MONTAGE DR",MCKINNEY,TX,75071,,,CONTRACTOR,,,,,,,,,,,"TOLL BROTHERS",,,,,"TOLL BROTHERS","9178 VITA DOLCE DR",FRISCO,TX,75035-2300,"(469) 525-0524",,,,
TX,DENTON,21-SFR00487,"Single Family Homes",6/29/2021,,,3360,"2912 JACK RABBIT WAY",NORTHLAKE,TX,76247,,,CONTRACTOR,,,,,,,,,,,"TOLL BROTHERS",,,,,"TOLL BROTHERS","9178 VITA DOLCE DR",FRISCO,TX,75035-2300,"(469) 525-0524",,,,
TX,DENTON,21-SFR00488,"Single Family Homes",6/29/2021,,,2985,"1408 REDBRICK LN",NORTHLAKE,TX,76247,,,CONTRACTOR,,,,,,,,,,,"TOLL BROTHERS",,,,,"TOLL BROTHERS","9178 VITA DOLCE DR",FRISCO,TX,75035-2300,"(469) 525-0524",,,,
TX,DENTON,21-SFR00489,"Single Family Homes",6/29/2021,,,2423,"2901 JACK RABBIT WAY",NORTHLAKE,TX,76247,,,CONTRACTOR,,,,,,,,,,,"TOLL BROTHERS",,,,,"TOLL BROTHERS","9178 VITA DOLCE DR",FRISCO,TX,75035-2300,"(469) 525-0524",,,,
TX,COLLIN,RES2021-06-03322,"Single Family Homes",6/29/2021,,372096,,"6208 MONTAGE DR",MCKINNEY,TX,75071,,,CONTRACTOR,,,,,,,,,,,"TOLL BROTHERS",,,,,"TOLL BROTHERS","9178 VITA DOLCE DR",FRISCO,TX,75035-2300,"(469) 525-0524",,,,
TX,DENTON,21-SFR00431,"Single Family Homes",6/14/2021,,,2481,"2340 ELM PLACE",NORTHLAKE,TX,76247,,,CONTRACTOR,,,,,,,,,,,"ASHTON WOODS HOMES",,,,,"ASHTON WOODS HOMES","1221 N INTERSTATE 35E STE 170",CARROLLTON,TX,75006-3806,"(972) 428-5404",,,,
TX,DENTON,21-SFR00436,"Single Family Homes",6/14/2021,,,2490,"2332 ELM PLACE",NORTHLAKE,TX,76247,,,CONTRACTOR,,,,,,,,,,,"ASHTON WOODS HOMES",,,,,"ASHTON WOODS HOMES","1221 N INTERSTATE 35E STE 170",CARROLLTON,TX,75006-3806,"(972) 428-5404",,,,
TX,DENTON,21-SFR00437,"Single Family Homes",6/14/2021,,,1611,"2325 ELM PLACE",NORTHLAKE,TX,76247,,,CONTRACTOR,,,,,,,,,,,"ASHTON WOODS HOMES",,,,,"ASHTON WOODS HOMES","1221 N INTERSTATE 35E STE 170",CARROLLTON,TX,75006-3806,"(972) 428-5404",,,,
TX,DENTON,21-SFR00438,"Single Family Homes",6/14/2021,,,2362,"2232 ELM PLACE",NORTHLAKE,TX,76247,,,CONTRACTOR,,,,,,,,,,,"ASHTON WOODS HOMES",,,,,"ASHTON WOODS HOMES","1221 N INTERSTATE 35E STE 170",CARROLLTON,TX,75006-3806,"(972) 428-5404",,,,
TX,DENTON,21-SFR00447,"Single Family Homes",6/14/2021,,,2393,"2321 ELM PLACE",NORTHLAKE,TX,76247,,,CONTRACTOR,,,,,,,,,,,"ASHTON WOODS HOMES",,,,,"ASHTON WOODS HOMES","1221 N INTERSTATE 35E STE 170",CARROLLTON,TX,75006-3806,"(972) 428-5404",,,,
TX,DENTON,21-SFR00414,"Single Family Homes",6/9/2021,,,1611,"2308 ELM PLACE",NORTHLAKE,TX,76247,,,CONTRACTOR,,,,,,,,,,,"ASHTON WOODS HOMES",,,,,"ASHTON WOODS HOMES","1221 N INTERSTATE 35E STE 170",CARROLLTON,TX,75006-3806,"(972) 428-5404",,,,
TX,DENTON,21-SFR00327,"Single Family Homes",6/4/2021,,,2145,"2304 ELM PLACE",NORTHLAKE,TX,76247,,,CONTRACTOR,,,,,,,,,,,"ASHTON WOODS HOMES",,,,,"ASHTON WOODS HOMES","1221 N INTERSTATE 35E STE 170",CARROLLTON,TX,75006-3806,"(972) 428-5404",,,,
TX,DENTON,21-SFR00418,"Single Family Homes",6/2/2021,,,2573,"2815 SILVER LEAF DR",NORTHLAKE,TX,76226,,,CONTRACTOR,,,,,,,,,,,"MHI MCGUYER HOMEBUILDERS",,,,,"MHI MCGUYER HOMEBUILDERS","1501 LYNDON B JOHNSON FWY STE 100",DALLAS,TX,75234-6029,"(972) 277-3811",,,,
TX,DENTON,21-SFR00419,"Single Family Homes",6/2/2021,,,3461,"1017 WARNER RIDGE",NORTHLAKE,TX,76226,,,CONTRACTOR,,,,,,,,,,,"MHI MCGUYER HOMEBUILDERS",,,,,"MHI MCGUYER HOMEBUILDERS","1501 LYNDON B JOHNSON FWY STE 100",DALLAS,TX,75234-6029,"(972) 277-3811",,,,
TX,DENTON,21-SFR00420,"Single Family Homes",6/11/2021,,,3386,"1004 WARNER RIDGE",NORTHLAKE,TX,76226,,,CONTRACTOR,,,,,,,,,,,"MHI MCGUYER HOMEBUILDERS",,,,,"MHI MCGUYER HOMEBUILDERS","1501 LYNDON B JOHNSON FWY STE 100",DALLAS,TX,75234-6029,"(972) 277-3811",,,,
TX,DENTON,21-SFR00316,"Single Family Homes",6/11/2021,,,3008,"2811 SILVER LEAF DR",NORTHLAKE,TX,76247,,,CONTRACTOR,,,,,,,,,,,"MHI MCGUYER HOMEBUILDERS",,,,,"MHI MCGUYER HOMEBUILDERS","1501 LYNDON B JOHNSON FWY STE 100",DALLAS,TX,75234-6029,"(972) 277-3811",,,,
TX,DENTON,21-SFR00470,"Single Family Homes",6/18/2021,,,3466,"2901 LITTLE WONDER LN",NORTHLAKE,TX,76247,,,CONTRACTOR,,,,,,,,,,,"MHI MCGUYER HOMEBUILDERS",,,,,"MHI MCGUYER HOMEBUILDERS","1501 LYNDON B JOHNSON FWY STE 100",DALLAS,TX,75234-6029,"(972) 277-3811",,,,
TX,DENTON,21-SFR00464,"Single Family Homes",6/18/2021,,,2898,"1316 REDBRICK LN",NORTHLAKE,TX,76247,,,CONTRACTOR,,,,,,,,,,,"MHI MCGUYER HOMEBUILDERS",,,,,"MHI MCGUYER HOMEBUILDERS","1501 LYNDON B JOHNSON FWY STE 100",DALLAS,TX,75234-6029,"(972) 277-3811",,,,
TX,DENTON,21-SFR00466,"Single Family Homes",6/18/2021,,,2614,"1012 WARNER RIDGE",NORTHLAKE,TX,76226,,,CONTRACTOR,,,,,,,,,,,"MHI MCGUYER HOMEBUILDERS",,,,,"MHI MCGUYER HOMEBUILDERS","1501 LYNDON B JOHNSON FWY STE 100",DALLAS,TX,75234-6029,"(972) 277-3811",,,,
TX,DENTON,21-SFR00467,"Single Family Homes",6/24/2021,,,2940,"2704 BUCKTHORN ROAD",NORTHLAKE,TX,76226,,,CONTRACTOR,,,,,,,,,,,"MHI MCGUYER HOMEBUILDERS",,,,,"MHI MCGUYER HOMEBUILDERS","1501 LYNDON B JOHNSON FWY STE 100",DALLAS,TX,75234-6029,"(972) 277-3811",,,,
TX,TARRANT,33883,"Single Family Homes",6/10/2021,,11250000,26415,"700 MCLEROY BLCD W",SAGINAW,TX,78154,,,CONTRACTOR,,,,,,,,,,,"STEELE & FREEMAN",,,,,"STEELE & FREEMAN","1301 LAWSON RD",SAGINAW,TX,76131-2725,"(817) 232-4742",http://steelefreeman.com/,"(817) 232-9113",,
TX,DENTON,21-SFR00462,"Single Family Homes",6/18/2021,,,3880,"1316 HUCKLEBERRY ST",NORTHLAKE,TX,76226,,,CONTRACTOR,,,,,,,,,,,"MERITAGE HOMES",,,,,"MERITAGE HOMES","8840 CYPRESS WATERS BLVD #100",DALLAS,TX,75063,"(214) 869-8023",,,,
TX,DENTON,21-SFR00459,"Single Family Homes",6/18/2021,,,3584,"1312 HUCKLEBERRY ST",NORTHLAKE,TX,76226,,,CONTRACTOR,,,,,,,,,,,"MERITAGE HOMES",,,,,"MERITAGE HOMES","8840 CYPRESS WATERS BLVD #100",DALLAS,TX,75063,"(214) 869-8023",,,,
TX,DENTON,21-SFR00460,"Single Family Homes",6/18/2021,,,3505,"1308 HUCKLEBERRY ST",NORTHLAKE,TX,76226,,,CONTRACTOR,,,,,,,,,,,"MERITAGE HOMES",,,,,"MERITAGE HOMES","8840 CYPRESS WATERS BLVD #100",DALLAS,TX,75063,"(214) 869-8023",,,,
TX,DENTON,21-SFR00433,"Single Family Homes",6/9/2021,,,3871,"2505 CANDLEBERRY DR",NORTHLAKE,TX,76226,,,CONTRACTOR,,,,,,,,,,,"MERITAGE HOMES",,,,,"MERITAGE HOMES","8840 CYPRESS WATERS BLVD #100",DALLAS,TX,75063,"(214) 869-8023",,,,
TX,DENTON,21-SFR00430,"Single Family Homes",6/9/2021,,,3880,"2821 BEDFORD ROAD",NORTHLAKE,TX,76226,,,CONTRACTOR,,,,,,,,,,,"MERITAGE HOMES",,,,,"MERITAGE HOMES","8840 CYPRESS WATERS BLVD #100",DALLAS,TX,75063,"(214) 869-8023",,,,
TX,ROCKWALL,"21- 000618","Single Family Homes",6/21/2021,,343045,3611,"3222 BURKE DR","ROYSE CITY",TX,75189,,,CONTRACTOR,,,,,,,,,,,"MERITAGE HOMES",,,,,"MERITAGE HOMES","8840 CYPRESS WATERS BLVD #100",DALLAS,TX,75063,"(214) 869-8023",,,,
TX,ROCKWALL,"21- 000696","Single Family Homes",6/10/2021,,245100,2580,"3331 FLATIRON DR","ROYSE CITY",TX,75189,,,CONTRACTOR,,,,,,,,,,,"MERITAGE HOMES",,,,,"MERITAGE HOMES","8840 CYPRESS WATERS BLVD #100",DALLAS,TX,75063,"(214) 869-8023",,,,
TX,ROCKWALL,"21- 000697","Single Family Homes",6/10/2021,,304950,3210,"3335 FLATIRON DR","ROYSE CITY",TX,75189,,,CONTRACTOR,,,,,,,,,,,"MERITAGE HOMES",,,,,"MERITAGE HOMES","8840 CYPRESS WATERS BLVD #100",DALLAS,TX,75063,"(214) 869-8023",,,,
TX,ROCKWALL,"21- 000699","Single Family Homes",6/10/2021,,283955,2989,"3327 FLATIRON DR","ROYSE CITY",TX,75189,,,CONTRACTOR,,,,,,,,,,,"MERITAGE HOMES",,,,,"MERITAGE HOMES","8840 CYPRESS WATERS BLVD #100",DALLAS,TX,75063,"(214) 869-8023",,,,
TX,ROCKWALL,"21- 000702","Single Family Homes",6/29/2021,,315970,3326,"1128 BLUE RIDGE PLACE","ROYSE CITY",TX,75189,,,CONTRACTOR,,,,,,,,,,,"MERITAGE HOMES",,,,,"MERITAGE HOMES","8840 CYPRESS WATERS BLVD #100",DALLAS,TX,75063,"(214) 869-8023",,,,
TX,ROCKWALL,"21- 000704","Single Family Homes",6/21/2021,,315400,3320,"3323 FLATIRON DR","ROYSE CITY",TX,75189,,,CONTRACTOR,,,,,,,,,,,"MERITAGE HOMES",,,,,"MERITAGE HOMES","8840 CYPRESS WATERS BLVD #100",DALLAS,TX,75063,"(214) 869-8023",,,,
TX,ROCKWALL,"21- 000705","Single Family Homes",6/29/2021,,315400,3320,"1116 BLUE RIDGE PL","ROYSE CITY",TX,75189,,,CONTRACTOR,,,,,,,,,,,"MERITAGE HOMES",,,,,"MERITAGE HOMES","8840 CYPRESS WATERS BLVD #100",DALLAS,TX,75063,"(214) 869-8023",,,,
TX,ROCKWALL,"21- 000706","Single Family Homes",6/29/2021,,292315,3077,"1120 BLUE RIDGE PL","ROYSE CITY",TX,75189,,,CONTRACTOR,,,,,,,,,,,"MERITAGE HOMES",,,,,"MERITAGE HOMES","8840 CYPRESS WATERS BLVD #100",DALLAS,TX,75063,"(214) 869-8023",,,,
TX,ROCKWALL,"21- 000816","Single Family Homes",6/29/2021,,245100,2580,"1124 BLUE RIDGE PL","ROYSE CITY",TX,75189,,,CONTRACTOR,,,,,,,,,,,"MERITAGE HOMES",,,,,"MERITAGE HOMES","8840 CYPRESS WATERS BLVD #100",DALLAS,TX,75063,"(214) 869-8023",,,,
TX,DENTON,21-SFR00485,"Single Family Homes",6/30/2021,,,2643,"3324 IRONSTONE ROAD",NORTHLAKE,TX,76226,,,CONTRACTOR,,,,,,,,,,,"AMERICAN LEGEND HOMES",,,,,"AMERICAN LEGEND HOMES","2540 KING ARTHUR BLVD STE 200",LEWISVILLE,TX,75056-5833,"(972) 410-5701",http://www.amlegendhomes.com/,"(972) 410-5750",,
TX,DENTON,21-SFR00486,"Single Family Homes",6/30/2021,,,2723,"1316 ARCADIA LN",NORTHLAKE,TX,76226,,,CONTRACTOR,,,,,,,,,,,"AMERICAN LEGEND HOMES",,,,,"AMERICAN LEGEND HOMES","2540 KING ARTHUR BLVD STE 200",LEWISVILLE,TX,75056-5833,"(972) 410-5701",http://www.amlegendhomes.com/,"(972) 410-5750",,
TX,DALLAS,210507,"Single Family Homes",6/29/2021,,219466,11105,"238 LONGWOOD",SUNNYVALE,TX,76140,,,CONTRACTOR,,,,,,,,,,,"M/I HOMES",,,,,"M/I HOMES","405 STATE HIGHWAY 121 BYP STE A210",LEWISVILLE,TX,75067-8214,"(210) 546-2129",,"(210) 546-2196",,
TX,DALLAS,210479,"Single Family Homes",6/29/2021,,249876,11092,"227 LONGWOOD DR",SUNNYVALE,TX,76140,,,CONTRACTOR,,,,,,,,,,,"M/I HOMES",,,,,"M/I HOMES","405 STATE HIGHWAY 121 BYP STE A210",LEWISVILLE,TX,75067-8214,"(210) 546-2129",,"(210) 546-2196",,
TX,DALLAS,210408,"Single Family Homes",6/21/2021,,220094,10909,"236 LONGWOOD DR",SUNNYVALE,TX,75010,,,CONTRACTOR,,,,,,,,,,,"M/I HOMES",,,,,"M/I HOMES","405 STATE HIGHWAY 121 BYP STE A210",LEWISVILLE,TX,75067-8214,"(210) 546-2129",,"(210) 546-2196",,
TX,DALLAS,210278,"Single Family Homes",6/21/2021,,263215,11692,"226 LONGWOOD DR",SUNNYVALE,TX,75182,,,CONTRACTOR,,,,,,,,,,,"M/I HOMES",,,,,"M/I HOMES","405 STATE HIGHWAY 121 BYP STE A210",LEWISVILLE,TX,75067-8214,"(210) 546-2129",,"(210) 546-2196",,
TX,ROCKWALL,"21- 000968","Single Family Homes",6/28/2021,,338580,3564,"1924 BLACKBRUSH DR","ROYSE CITY",TX,75189,,,CONTRACTOR,,,,,,,,,,,"M/I HOMES",,,,,"M/I HOMES","405 STATE HIGHWAY 121 BYP STE A210",LEWISVILLE,TX,75067-8214,"(210) 546-2129",,"(210) 546-2196",,
TX,ROCKWALL,"21- 000969","Single Family Homes",6/28/2021,,245670,2586,"1905 DAMIANITA DR","ROYSE CITY",TX,75189,,,CONTRACTOR,,,,,,,,,,,"M/I HOMES",,,,,"M/I HOMES","405 STATE HIGHWAY 121 BYP STE A210",LEWISVILLE,TX,75067-8214,"(210) 546-2129",,"(210) 546-2196",,
TX,ROCKWALL,"21- 000970","Single Family Homes",6/28/2021,,338580,3564,"1913 DAMIANITA DR","ROYSE CITY",TX,75189,,,CONTRACTOR,,,,,,,,,,,"M/I HOMES",,,,,"M/I HOMES","405 STATE HIGHWAY 121 BYP STE A210",LEWISVILLE,TX,75067-8214,"(210) 546-2129",,"(210) 546-2196",,
TX,ROCKWALL,"21- 001074","Single Family Homes",6/21/2021,,242251,2550,"1941 BLACKBRUSH DR","ROYSE CITY",TX,75189,,,CONTRACTOR,,,,,,,,,,,"M/I HOMES",,,,,"M/I HOMES","405 STATE HIGHWAY 121 BYP STE A210",LEWISVILLE,TX,75067-8214,"(210) 546-2129",,"(210) 546-2196",,
TX,ROCKWALL,"21- 001135","Single Family Homes",6/28/2021,,269800,2840,"1928 BLACKBRUSH DR","ROYSE CITY",TX,75189,,,CONTRACTOR,,,,,,,,,,,"M/I HOMES",,,,,"M/I HOMES","405 STATE HIGHWAY 121 BYP STE A210",LEWISVILLE,TX,75067-8214,"(210) 546-2129",,"(210) 546-2196",,
TX,COLLIN,RES2021-06-03034,"Single Family Homes",6/15/2021,,223392,,"9209 TWILIGHT TRL",MCKINNEY,TX,75071,,,CONTRACTOR,,,,,,,,,,,"TURNER CONSTRUCTION",,,,,"TURNER CONSTRUCTION","10100 N CENTRAL EXPRESSWAY 600",DALLAS,TX,75231,"(214) 721-8400",,,,
TX,COLLIN,RES2021-06-03184,"Single Family Homes",6/22/2021,,333312,,"4109 SEQUOIA ST",MCKINNEY,TX,75071,,,CONTRACTOR,,,,,,,,,,,"TEGRITY HOMES",,,,,"TEGRITY HOMES","5601 DEMOCRACY DR STE 190",PLANO,TX,75024-3677,"(972) 535-0131",,,,
TX,COLLIN,RES2021-06-03286,"Single Family Homes",6/30/2021,,532320,,"7409 CORMAC ST",MCKINNEY,TX,75071,,,CONTRACTOR,,,,,,,,,,,"DARLING HOMES",,,,,"DARLING HOMES","2500 LEGACY DR STE 100",FRISCO,TX,75034-5984,"(469) 252-2200",http://www.darlinghomes.com/,,,
TX,DENTON,21-SFR00423,"Single Family Homes",6/1/2021,,,3451,"3200 WINDCREST DR",NORTHLAKE,TX,76247,,,CONTRACTOR,,,,,,,,,,,"ROYAL CREST CUSTOM HOMES",,,,,"ROYAL CREST CUSTOM HOMES","12101 BELLA ITALIA DR STE A","FT WORTH",TX,76126-6139,"(817) 822-5760",http://www.royalcrestcustomhomes.com/,,,
TX,DENTON,21-SFR00429,"Single Family Homes",6/1/2021,,,4018,"3605 RIDGEPOINT DR",NORTHLAKE,TX,76247,,,CONTRACTOR,,,,,,,,,,,"ROYAL CREST CUSTOM HOMES",,,,,"ROYAL CREST CUSTOM HOMES","12101 BELLA ITALIA DR STE A","FT WORTH",TX,76126-6139,"(817) 822-5760",http://www.royalcrestcustomhomes.com/,,,
TX,DENTON,21-SFR00495,"Single Family Homes",6/24/2021,,,3913,"3801 RIDGEPOINT DR",NORTHLAKE,TX,76247,,,CONTRACTOR,,,,,,,,,,,"ROYAL CREST CUSTOM HOMES",,,,,"ROYAL CREST CUSTOM HOMES","12101 BELLA ITALIA DR STE A","FT WORTH",TX,76126-6139,"(817) 822-5760",http://www.royalcrestcustomhomes.com/,,,
TX,TARRANT,34791,"Single Family Homes",6/2/2021,,3237213,2672,"633 AERONCA DR",SAGINAW,TX,76179,,,CONTRACTOR,,,,,,,,,,,"MCBEE HOMES",,,,,"MCBEE HOMES","5816 BOAT CLUB RD","FORT WORTH",TX,76179-7773,"(817) 626-2600",,,,
TX,TARRANT,34790,"Single Family Homes",6/2/2021,,327213,,"628 STEERMAN CT",SAGINAW,TX,76179,,,CONTRACTOR,,,,,,,,,,,"MCBEE HOMES",,,,,"MCBEE HOMES","5816 BOAT CLUB RD","FORT WORTH",TX,76179-7773,"(817) 626-2600",,,,
TX,DENTON,21-SFR00432,"Single Family Homes",6/14/2021,,,2567,"2220 ROBIN WAY",NORTHLAKE,TX,76247,,,CONTRACTOR,,,,,,,,,,,"PERRY HOMES",,,,,"PERRY HOMES","2004 VENTURA DR STE 200",PLANO,TX,75093-2003,"(972) 964-7700",,,,
TX,DENTON,21-SFR00443,"Single Family Homes",6/14/2021,,,2504,"2224 ROBIN WAY",NORTHLAKE,TX,76247,,,CONTRACTOR,,,,,,,,,,,"PERRY HOMES",,,,,"PERRY HOMES","2004 VENTURA DR STE 200",PLANO,TX,75093-2003,"(972) 964-7700",,,,
TX,DENTON,21-SFR00444,"Single Family Homes",6/14/2021,,,2504,"2300 COBBLER ST",NORTHLAKE,TX,76247,,,CONTRACTOR,,,,,,,,,,,"PERRY HOMES",,,,,"PERRY HOMES","2004 VENTURA DR STE 200",PLANO,TX,75093-2003,"(972) 964-7700",,,,
TX,DENTON,21-SFR00445,"Single Family Homes",6/14/2021,,,2545,"2220 CLANCY DR",NORTHLAKE,TX,76247,,,CONTRACTOR,,,,,,,,,,,"PERRY HOMES",,,,,"PERRY HOMES","2004 VENTURA DR STE 200",PLANO,TX,75093-2003,"(972) 964-7700",,,,
TX,DENTON,21-SFR00449,"Single Family Homes",6/14/2021,,,2513,"2229 CLANCY DR",NORTHLAKE,TX,76247,,,CONTRACTOR,,,,,,,,,,,"PERRY HOMES",,,,,"PERRY HOMES","2004 VENTURA DR STE 200",PLANO,TX,75093-2003,"(972) 964-7700",,,,
TX,ROCKWALL,"21- 000919","Single Family Homes",6/1/2021,,484690,5102,"2606 PERDENALES DR","ROYSE CITY",TX,75189,,,CONTRACTOR,,,,,,,,,,,"BLOOMFIELD HOMES",,,,,"BLOOMFIELD HOMES","1050 E STATE HIGHWAY 114 STE 210",SOUTHLAKE,TX,76092-5255,"(972) 971-2103",http://bloomfieldhomes.net/,"(972) 987-4342",,mattjennings@bloomfieldhomes.net
TX,ROCKWALL,"21- 000926","Single Family Homes",6/1/2021,,346370,3646,"2942 LAMPASAS DR","ROYSE CITY",TX,75189,,,CONTRACTOR,,,,,,,,,,,"BLOOMFIELD HOMES",,,,,"BLOOMFIELD HOMES","1050 E STATE HIGHWAY 114 STE 210",SOUTHLAKE,TX,76092-5255,"(972) 971-2103",http://bloomfieldhomes.net/,"(972) 987-4342",,mattjennings@bloomfieldhomes.net
TX,ROCKWALL,"21- 000958","Single Family Homes",6/15/2021,,256500,2700,"2846 LAMPASAS DR","ROYSE CITY",TX,75189,,,CONTRACTOR,,,,,,,,,,,"BLOOMFIELD HOMES",,,,,"BLOOMFIELD HOMES","1050 E STATE HIGHWAY 114 STE 210",SOUTHLAKE,TX,76092-5255,"(972) 971-2103",http://bloomfieldhomes.net/,"(972) 987-4342",,mattjennings@bloomfieldhomes.net
TX,DENTON,21-SFR00461,"Single Family Homes",6/16/2021,,,3545,"1304 HUCKLEBERRY ST",NORTHLAKE,TX,76226,,,CONTRACTOR,,,,,,,,,,,"TAYLOR MORRISON OF TEXAS",,,,,"TAYLOR MORRISON OF TEXAS","2500 LEGACY DR STE 100",FRISCO,TX,75034-5984,"(469) 252-2200",,,,
TX,DENTON,21-SFR00439,"Single Family Homes",6/9/2021,,,2857,"2708 BUCKTHORN ROAD",NORTHLAKE,TX,76226,,,CONTRACTOR,,,,,,,,,,,"TAYLOR MORRISON OF TEXAS",,,,,"TAYLOR MORRISON OF TEXAS","2500 LEGACY DR STE 100",FRISCO,TX,75034-5984,"(469) 252-2200",,,,
TX,DENTON,21-SFR00440,"Single Family Homes",6/11/2021,,,2343,"2716 BUCKTHORN ROAD",NORTHLAKE,TX,76226,,,CONTRACTOR,,,,,,,,,,,"TAYLOR MORRISON OF TEXAS",,,,,"TAYLOR MORRISON OF TEXAS","2500 LEGACY DR STE 100",FRISCO,TX,75034-5984,"(469) 252-2200",,,,
TX,DENTON,21-SFR00441,"Single Family Homes",6/16/2021,,,3497,"1128 MEADOW BEND",NORTHLAKE,TX,76226,,,CONTRACTOR,,,,,,,,,,,"TAYLOR MORRISON OF TEXAS",,,,,"TAYLOR MORRISON OF TEXAS","2500 LEGACY DR STE 100",FRISCO,TX,75034-5984,"(469) 252-2200",,,,
TX,DENTON,21-SFR00442,"Single Family Homes",6/11/2021,,,3476,"2824 BEDFORD ROAD",NORTHLAKE,TX,76226,,,CONTRACTOR,,,,,,,,,,,"TAYLOR MORRISON OF TEXAS",,,,,"TAYLOR MORRISON OF TEXAS","2500 LEGACY DR STE 100",FRISCO,TX,75034-5984,"(469) 252-2200",,,,
TX,DENTON,21-SFR00496,"Single Family Homes",6/30/2021,,,2361,"2804 SILVER LEAF DR",NORTHLAKE,TX,76226,,,CONTRACTOR,,,,,,,,,,,"TAYLOR MORRISON OF TEXAS",,,,,"TAYLOR MORRISON OF TEXAS","2500 LEGACY DR STE 100",FRISCO,TX,75034-5984,"(469) 252-2200",,,,
TX,DENTON,21-SFR00477,"Single Family Homes",6/18/2021,,,3245,"2834 SILVER LEAF DR",NORTHLAKE,TX,76226,,,CONTRACTOR,,,,,,,,,,,"TAYLOR MORRISON OF TEXAS",,,,,"TAYLOR MORRISON OF TEXAS","2500 LEGACY DR STE 100",FRISCO,TX,75034-5984,"(469) 252-2200",,,,
TX,DENTON,21-SFR00483,"Single Family Homes",6/25/2021,,,4383,"1126 DIAMOND LEAF ROAD",NORTHLAKE,TX,76226,,,CONTRACTOR,,,,,,,,,,,"TAYLOR MORRISON OF TEXAS",,,,,"TAYLOR MORRISON OF TEXAS","2500 LEGACY DR STE 100",FRISCO,TX,75034-5984,"(469) 252-2200",,,,
TX,DENTON,21-SFR00484,"Single Family Homes",6/25/2021,,,3606,"2612 BEDFORD ROAD",NORTHLAKE,TX,76226,,,CONTRACTOR,,,,,,,,,,,"TAYLOR MORRISON OF TEXAS",,,,,"TAYLOR MORRISON OF TEXAS","2500 LEGACY DR STE 100",FRISCO,TX,75034-5984,"(469) 252-2200",,,,
TX,DENTON,21-SFR00463,"Single Family Homes",6/16/2021,,,2742,"2830 SILVER LEAF DR",NORTHLAKE,TX,76226,,,CONTRACTOR,,,,,,,,,,,"TAYLOR MORRISON OF TEXAS",,,,,"TAYLOR MORRISON OF TEXAS","2500 LEGACY DR STE 100",FRISCO,TX,75034-5984,"(469) 252-2200",,,,
TX,DENTON,21-SFR00473,"Single Family Homes",6/18/2021,,,4576,"1130 DIAMOND LEAF ROAD",NORTHLAKE,TX,76226,,,CONTRACTOR,,,,,,,,,,,"TAYLOR MORRISON OF TEXAS",,,,,"TAYLOR MORRISON OF TEXAS","2500 LEGACY DR STE 100",FRISCO,TX,75034-5984,"(469) 252-2200",,,,
TX,DENTON,21-SFR00474,"Single Family Homes",6/18/2021,,,4347,"1120 HUCKLEBERRY ST",NORTHLAKE,TX,76226,,,CONTRACTOR,,,,,,,,,,,"TAYLOR MORRISON OF TEXAS",,,,,"TAYLOR MORRISON OF TEXAS","2500 LEGACY DR STE 100",FRISCO,TX,75034-5984,"(469) 252-2200",,,,
TX,DENTON,21-SFR00424,"Single Family Homes",6/24/2021,,,2814,"2812 ROSEWOOD WAY",NORTHLAKE,TX,76226,,,CONTRACTOR,,,,,,,,,,,"TAYLOR MORRISON OF TEXAS",,,,,"TAYLOR MORRISON OF TEXAS","2500 LEGACY DR STE 100",FRISCO,TX,75034-5984,"(469) 252-2200",,,,
TX,DENTON,,"Single Family Homes",6/3/2021,,,2975,"1124 MEADOW BEND",NORTHLAKE,TX,76226,,,CONTRACTOR,,,,,,,,,,,"TAYLOR MORRISON OF TEXAS",,,,,"TAYLOR MORRISON OF TEXAS","2500 LEGACY DR STE 100",FRISCO,TX,75034-5984,"(469) 252-2200",,,,
TX,DENTON,21-SFR00351,"Single Family Homes",6/22/2021,,,3563,"1100 SUTHERLAND CRESCENT",NORTHLAKE,TX,76247,,,CONTRACTOR,,,,,,,,,,,"WYNN CONSTRUCTION",,,,,"WYNN CONSTRUCTION","PO BOX 726",PALMER,TX,75152-0726,"(866) 356-6831",,,,
TX,DENTON,21-SFR00352,"Single Family Homes",6/11/2021,,,2993,"500 NORTH PECAN PARKWAY",NORTHLAKE,TX,76247,,,CONTRACTOR,,,,,,,,,,,"DREES CUSTOM HOMES",,,,,"DREES CUSTOM HOMES","6225 N STATE HIGHWAY 161 STE 150",IRVING,TX,75038-2283,"(972) 953-4500",http://www.dreeshomes.com,,,
TX,DENTON,21-SFR00370,"Single Family Homes",6/11/2021,,,4308,"612 NORTH PECAN PARKWAY",NORTHLAKE,TX,76247,,,CONTRACTOR,,,,,,,,,,,"DREES CUSTOM HOMES",,,,,"DREES CUSTOM HOMES","6225 N STATE HIGHWAY 161 STE 150",IRVING,TX,75038-2283,"(972) 953-4500",http://www.dreeshomes.com,,,
TX,COLLIN,RES2021-06-03159,"Single Family Homes",6/24/2021,,264672,,"4844 WOODRUFF LN",MCKINNEY,TX,75071,,,CONTRACTOR,,,,,,,,,,,"DREES CUSTOM HOMES",,,,,"DREES CUSTOM HOMES","6225 N STATE HIGHWAY 161 STE 150",IRVING,TX,75038-2283,"(972) 953-4500",http://www.dreeshomes.com,,,
TX,COLLIN,RES2021-06-03044,"Single Family Homes",6/21/2021,,300192,,"1209 MOLLY LN",MCKINNEY,TX,75071,,,CONTRACTOR,,,,,,,,,,,"DREES CUSTOM HOMES",,,,,"DREES CUSTOM HOMES","6225 N STATE HIGHWAY 161 STE 150",IRVING,TX,75038-2283,"(972) 953-4500",http://www.dreeshomes.com,,,
TX,COLLIN,RES2021-06-03060,"Single Family Homes",6/23/2021,,501024,,"4133 RED SPRUCE WAY",MCKINNEY,TX,75071,,,CONTRACTOR,,,,,,,,,,,"DREES CUSTOM HOMES",,,,,"DREES CUSTOM HOMES","6225 N STATE HIGHWAY 161 STE 150",IRVING,TX,75038-2283,"(972) 953-4500",http://www.dreeshomes.com,,,
TX,DENTON,21-SFR00322,"Single Family Homes",6/11/2021,,,3311,"304 NORTH PECAN PARKWAY",NORTHLAKE,TX,76247,,,CONTRACTOR,,,,,,,,,,,"DREES CUSTOM HOMES",,,,,"DREES CUSTOM HOMES","6225 N STATE HIGHWAY 161 STE 150",IRVING,TX,75038-2283,"(972) 953-4500",http://www.dreeshomes.com,,,
TX,DENTON,21-SFR00434,"Single Family Homes",6/11/2021,,,4283,"307 NORTH PECAN PARKWAY",NORTHLAKE,TX,76247,,,CONTRACTOR,,,,,,,,,,,"DREES CUSTOM HOMES",,,,,"DREES CUSTOM HOMES","6225 N STATE HIGHWAY 161 STE 150",IRVING,TX,75038-2283,"(972) 953-4500",http://www.dreeshomes.com,,,
TX,DENTON,21-SFR00450,"Single Family Homes",6/22/2021,,,3630,"204 NORTH PECAN PARKWAY",NORTHLAKE,TX,76247,,,CONTRACTOR,,,,,,,,,,,"DREES CUSTOM HOMES",,,,,"DREES CUSTOM HOMES","6225 N STATE HIGHWAY 161 STE 150",IRVING,TX,75038-2283,"(972) 953-4500",http://www.dreeshomes.com,,,
TX,DENTON,,"Single Family Homes",6/18/2021,,,5941,"3325 CASTLEHILL CT",NORTHLAKE,TX,76247,,,CONTRACTOR,,,,,,,,,,,"LINGENFELTER CUSTOM HOMES LLC",,,,,"LINGENFELTER CUSTOM HOMES LLC","PO BOX 270994","FLOWER MOUND",TX,75027-0994,"(972) 746-1803",http://lingenfeltercustomhomes.com/,,,info@lingenfeltercustomhomes.com
TX,DALLAS,21-766,"Single Family Homes",6/28/2021,,685975,5217,"2208 E PRAIRIE CREEK DR",RICHARDSON,TX,75081,,,CONTRACTOR,,,,,,,,,,,"DIETRICHSON COMPANY",,,,,"DIETRICHSON COMPANY","2011 N COLLINS BLVD",RICHARDSON,TX,75080-2645,"(214) 238-8381",,,,
TX,ROCKWALL,"21- 000818","Single Family Homes",6/14/2021,,240160,2528,"1937 GREEN TERRACE DR","ROYSE CITY",TX,75189,,,CONTRACTOR,,,,,,,,,,,"SHEPHERD PLACE HOMES",,,,,"SHEPHERD PLACE HOMES","620 ROWLETT RD",GARLAND,TX,75043-3703,"(972) 475-1100",,,,
TX,DENTON,21-SFR00448,"Single Family Homes",6/21/2021,,,3395,"3325 DOVEHILL DR",NORTHLAKE,TX,76247,,,CONTRACTOR,,,,,,,,,,,"NOBLE CLASSIC HOMES",,,,,"NOBLE CLASSIC HOMES","9998 HILLTOP RD",ARGYLE,TX,76226-5022,"(214) 802-0719",,,,
TX,DENTON,21-SFR00451,"Single Family Homes",6/16/2021,,,2273,"2313 COBBLER ST",NORTHLAKE,TX,76247,,,CONTRACTOR,,,,,,,,,,,"HIGHLAND HOMES",,,,,"HIGHLAND HOMES","5601 DEMOCRACY DR STE 300",PLANO,TX,75024-3674,"(972) 789-3500",,,,
TX,DENTON,21-SFR00452,"Single Family Homes",6/17/2021,,,1610,"2333 COBBLER ST",NORTHLAKE,TX,76247,,,CONTRACTOR,,,,,,,,,,,"HIGHLAND HOMES",,,,,"HIGHLAND HOMES","5601 DEMOCRACY DR STE 300",PLANO,TX,75024-3674,"(972) 789-3500",,,,
TX,DENTON,21-SFR00453,"Single Family Homes",6/17/2021,,,1597,"2329 COBBLER ST",NORTHLAKE,TX,76247,,,CONTRACTOR,,,,,,,,,,,"HIGHLAND HOMES",,,,,"HIGHLAND HOMES","5601 DEMOCRACY DR STE 300",PLANO,TX,75024-3674,"(972) 789-3500",,,,
TX,DENTON,21-SFR00454,"Single Family Homes",6/16/2021,,,2454,"2340 STELLA LN",NORTHLAKE,TX,76247,,,CONTRACTOR,,,,,,,,,,,"HIGHLAND HOMES",,,,,"HIGHLAND HOMES","5601 DEMOCRACY DR STE 300",PLANO,TX,75024-3674,"(972) 789-3500",,,,
TX,DENTON,21-SFR00455,"Single Family Homes",6/17/2021,,,2273,"2333 STELLA LN",NORTHLAKE,TX,76247,,,CONTRACTOR,,,,,,,,,,,"HIGHLAND HOMES",,,,,"HIGHLAND HOMES","5601 DEMOCRACY DR STE 300",PLANO,TX,75024-3674,"(972) 789-3500",,,,
TX,DENTON,21-SFR00456,"Single Family Homes",6/17/2021,,,1597,"2232 SHORTHORN DR",NORTHLAKE,TX,76247,,,CONTRACTOR,,,,,,,,,,,"HIGHLAND HOMES",,,,,"HIGHLAND HOMES","5601 DEMOCRACY DR STE 300",PLANO,TX,75024-3674,"(972) 789-3500",,,,
TX,DENTON,21-SFR00457,"Single Family Homes",6/17/2021,,,2513,"2244 SHORTHORN DR",NORTHLAKE,TX,76247,,,CONTRACTOR,,,,,,,,,,,"HIGHLAND HOMES",,,,,"HIGHLAND HOMES","5601 DEMOCRACY DR STE 300",PLANO,TX,75024-3674,"(972) 789-3500",,,,
TX,DENTON,21-SFR00458,"Single Family Homes",6/17/2021,,,2513,"2337 STELLA LN",NORTHLAKE,TX,76247,,,CONTRACTOR,,,,,,,,,,,"HIGHLAND HOMES",,,,,"HIGHLAND HOMES","5601 DEMOCRACY DR STE 300",PLANO,TX,75024-3674,"(972) 789-3500",,,,
TX,ROCKWALL,"21- 000899","Single Family Homes",6/2/2021,,305045,3211,"3035 AQUEDUCT AVE","ROYSE CITY",TX,75189,,,CONTRACTOR,,,,,,,,,,,"HIGHLAND HOMES",,,,,"HIGHLAND HOMES","5601 DEMOCRACY DR STE 300",PLANO,TX,75024-3674,"(972) 789-3500",,,,
TX,ROCKWALL,"21- 000953","Single Family Homes",6/2/2021,,261250,2750,"4127 DOWN RUSH DR","ROYSE CITY",TX,75189,,,CONTRACTOR,,,,,,,,,,,"HIGHLAND HOMES",,,,,"HIGHLAND HOMES","5601 DEMOCRACY DR STE 300",PLANO,TX,75024-3674,"(972) 789-3500",,,,
TX,ROCKWALL,"21- 000954","Single Family Homes",6/2/2021,,333830,3514,"3007 AQUEDUCT AVE","ROYSE CITY",TX,75189,,,CONTRACTOR,,,,,,,,,,,"HIGHLAND HOMES",,,,,"HIGHLAND HOMES","5601 DEMOCRACY DR STE 300",PLANO,TX,75024-3674,"(972) 789-3500",,,,
TX,ROCKWALL,"21- 000955","Single Family Homes",6/2/2021,,305045,3211,"3011 AQUEDUCT AVE","ROYSE CITY",TX,75189,,,CONTRACTOR,,,,,,,,,,,"HIGHLAND HOMES",,,,,"HIGHLAND HOMES","5601 DEMOCRACY DR STE 300",PLANO,TX,75024-3674,"(972) 789-3500",,,,
TX,ROCKWALL,"21- 000956","Single Family Homes",6/2/2021,,261915,2757,"3063 AQUEDUCT AVE","ROYSE CITY",TX,75189,,,CONTRACTOR,,,,,,,,,,,"HIGHLAND HOMES",,,,,"HIGHLAND HOMES","5601 DEMOCRACY DR STE 300",PLANO,TX,75024-3674,"(972) 789-3500",,,,
TX,ROCKWALL,"21- 000957","Single Family Homes",6/1/2021,,305900,3220,"3082 AQUEDUCT AVE","ROYSE CITY",TX,75189,,,CONTRACTOR,,,,,,,,,,,"HIGHLAND HOMES",,,,,"HIGHLAND HOMES","5601 DEMOCRACY DR STE 300",PLANO,TX,75024-3674,"(972) 789-3500",,,,
TX,ROCKWALL,"21- 000985","Single Family Homes",6/23/2021,,266570,2806,"3205 DECKARD DR","ROYSE CITY",TX,75189,,,CONTRACTOR,,,,,,,,,,,"TROPHY SIGNATURE HOMES",,,,,"TROPHY SIGNATURE HOMES","2805 DALLAS PKWY STE 400",PLANO,TX,75093-8722,"(469) 969-7339",,,,
TX,ROCKWALL,"21- 000992","Single Family Homes",6/18/2021,,332025,3495,"3213 DECKARD DR","ROYSE CITY",TX,75189,,,CONTRACTOR,,,,,,,,,,,"TROPHY SIGNATURE HOMES",,,,,"TROPHY SIGNATURE HOMES","2805 DALLAS PKWY STE 400",PLANO,TX,75093-8722,"(469) 969-7339",,,,
TX,ROCKWALL,"21- 000351","Single Family Homes",6/18/2021,,341525,3595,"1108 BLUE RIDGE PL","ROYSE CITY",TX,75189,,,CONTRACTOR,,,,,,,,,,,"TROPHY SIGNATURE HOMES",,,,,"TROPHY SIGNATURE HOMES","2805 DALLAS PKWY STE 400",PLANO,TX,75093-8722,"(469) 969-7339",,,,
TX,ROCKWALL,"21- 000397","Single Family Homes",6/15/2021,,404130,4254,"3351 FLATIRON DR","ROYSE CITY",TX,75189,,,CONTRACTOR,,,,,,,,,,,"TROPHY SIGNATURE HOMES",,,,,"TROPHY SIGNATURE HOMES","2805 DALLAS PKWY STE 400",PLANO,TX,75093-8722,"(469) 969-7339",,,,
TX,ROCKWALL,"21- 000405","Single Family Homes",6/15/2021,,228665,2407,"3339 FLATIRON DR","ROYSE CITY",TX,75189,,,CONTRACTOR,,,,,,,,,,,"TROPHY SIGNATURE HOMES",,,,,"TROPHY SIGNATURE HOMES","2805 DALLAS PKWY STE 400",PLANO,TX,75093-8722,"(469) 969-7339",,,,
TX,ROCKWALL,"21- 000409","Single Family Homes",6/15/2021,,233795,2461,"3347 FLATIRON DR","ROYSE CITY",TX,75189,,,CONTRACTOR,,,,,,,,,,,"TROPHY SIGNATURE HOMES",,,,,"TROPHY SIGNATURE HOMES","2805 DALLAS PKWY STE 400",PLANO,TX,75093-8722,"(469) 969-7339",,,,
TX,ROCKWALL,"21- 000414","Single Family Homes",6/15/2021,,397860,4188,"3315 FLATIRON DR","ROYSE CITY",TX,75189,,,CONTRACTOR,,,,,,,,,,,"TROPHY SIGNATURE HOMES",,,,,"TROPHY SIGNATURE HOMES","2805 DALLAS PKWY STE 400",PLANO,TX,75093-8722,"(469) 969-7339",,,,
TX,ROCKWALL,"20- 001887","Single Family Homes",6/15/2021,,256405,2699,"3319 FLATIRON DR","ROYSE CITY",TX,75189,,,CONTRACTOR,,,,,,,,,,,"TROPHY SIGNATURE HOMES",,,,,"TROPHY SIGNATURE HOMES","2805 DALLAS PKWY STE 400",PLANO,TX,75093-8722,"(469) 969-7339",,,,
TX,ROCKWALL,"20- 001930","Single Family Homes",6/15/2021,,268755,2829,"1100 BLUE RIDGE PL","ROYSE CITY",TX,75189,,,CONTRACTOR,,,,,,,,,,,"TROPHY SIGNATURE HOMES",,,,,"TROPHY SIGNATURE HOMES","2805 DALLAS PKWY STE 400",PLANO,TX,75093-8722,"(469) 969-7339",,,,
TX,ROCKWALL,"20- 001977","Single Family Homes",6/18/2021,,247665,2607,"1104 BLUE RIDGE PL","ROYSE CITY",TX,75189,,,CONTRACTOR,,,,,,,,,,,"TROPHY SIGNATURE HOMES",,,,,"TROPHY SIGNATURE HOMES","2805 DALLAS PKWY STE 400",PLANO,TX,75093-8722,"(469) 969-7339",,,,
TX,ROCKWALL,"21- 001068","Single Family Homes",6/18/2021,,235125,2475,"3008 DEBERRY LN","ROYSE CITY",TX,75189,,,CONTRACTOR,,,,,,,,,,,"TROPHY SIGNATURE HOMES",,,,,"TROPHY SIGNATURE HOMES","2805 DALLAS PKWY STE 400",PLANO,TX,75093-8722,"(469) 969-7339",,,,
TX,ROCKWALL,"21- 001036","Single Family Homes",6/28/2021,,256120,2696,"2641 SONNIER CIR","ROYSE CITY",TX,75189,,,CONTRACTOR,,,,,,,,,,,"TROPHY SIGNATURE HOMES",,,,,"TROPHY SIGNATURE HOMES","2805 DALLAS PKWY STE 400",PLANO,TX,75093-8722,"(469) 969-7339",,,,
TX,ROCKWALL,"21- 001046","Single Family Homes",6/28/2021,,282720,2976,"2637 SONNIER CIR","ROYSE CITY",TX,75189,,,CONTRACTOR,,,,,,,,,,,"TROPHY SIGNATURE HOMES",,,,,"TROPHY SIGNATURE HOMES","2805 DALLAS PKWY STE 400",PLANO,TX,75093-8722,"(469) 969-7339",,,,
TX,ROCKWALL,"21- 000674","Single Family Homes",6/15/2021,,308085,3243,"3343 FLATIRON DR","ROYSE CITY",TX,75189,,,CONTRACTOR,,,,,,,,,,,"TROPHY SIGNATURE HOMES",,,,,"TROPHY SIGNATURE HOMES","2805 DALLAS PKWY STE 400",PLANO,TX,75093-8722,"(469) 969-7339",,,,
TX,ROCKWALL,"21- 001087","Single Family Homes",6/23/2021,,266570,2806,"3012 DEBERRY LN","ROYSE CITY",TX,75189,,,CONTRACTOR,,,,,,,,,,,"TROPHY SIGNATURE HOMES",,,,,"TROPHY SIGNATURE HOMES","2805 DALLAS PKWY STE 400",PLANO,TX,75093-8722,"(469) 969-7339",,,,
TX,ROCKWALL,"21- 001075","Single Family Homes",6/21/2021,,291840,3072,"3616 SPRUCE ST","ROYSE CITY",TX,75189,,,CONTRACTOR,,,,,,,,,,,"UNION MAIN HOMES",,,,,"UNION MAIN HOMES","5005 LYNDON B JOHNSON FWY STE 350",DALLAS,TX,75244-6147,"(832) 775-6367",,,,
TX,ROCKWALL,"21- 001076","Single Family Homes",6/21/2021,,281675,2965,"3400 OAK LN","ROYSE CITY",TX,75189,,,CONTRACTOR,,,,,,,,,,,"UNION MAIN HOMES",,,,,"UNION MAIN HOMES","5005 LYNDON B JOHNSON FWY STE 350",DALLAS,TX,75244-6147,"(832) 775-6367",,,,
TX,ROCKWALL,"21- 001077","Single Family Homes",6/21/2021,,281675,2965,"717 HUTSON DR","ROYSE CITY",TX,75189,,,CONTRACTOR,,,,,,,,,,,"UNION MAIN HOMES",,,,,"UNION MAIN HOMES","5005 LYNDON B JOHNSON FWY STE 350",DALLAS,TX,75244-6147,"(832) 775-6367",,,,
TX,ROCKWALL,"21- 000912","Single Family Homes",6/7/2021,,369265,3887,"3209 WOODLAND DR","ROYSE CITY",TX,75189,,,CONTRACTOR,,,,,,,,,,,"UNION MAIN HOMES",,,,,"UNION MAIN HOMES","5005 LYNDON B JOHNSON FWY STE 350",DALLAS,TX,75244-6147,"(832) 775-6367",,,,
TX,ROCKWALL,"21- 000918","Single Family Homes",6/7/2021,,290985,3063,"3213 WOODLAND DR","ROYSE CITY",TX,75189,,,CONTRACTOR,,,,,,,,,,,"UNION MAIN HOMES",,,,,"UNION MAIN HOMES","5005 LYNDON B JOHNSON FWY STE 350",DALLAS,TX,75244-6147,"(832) 775-6367",,,,
TX,DALLAS,19-4023,"Single Family Homes",6/24/2021,,830000,6592,"326 MAPLE ST",RICHARDSON,TX,75081,,,CONTRACTOR,,,,,,,,,,,"UBS ENGINEERING",,,,,"UBS ENGINEERING","509 HAVENWOOD DRIVE",PLANO,TX,75094,"(773) 759-8175",,,,
TX,DENTON,21-SFR00349,"Single Family Homes",6/2/2021,,,3245,"3301 DOVEHILL DR",NORTHLAKE,TX,76247,,,CONTRACTOR,,,,,,,,,,,"GLACIER CUSTOM HOMES",,,,,"GLACIER CUSTOM HOMES","2109 E S H 114 STE 301",SOUTHLAKE,TX,76092,"(877) 301-9255",https://glaciercustomhomes.com/,,,info@glacierhomes.net
TX,DENTON,21-SFR00428,"Single Family Homes",6/21/2021,,,3753,"3401 CROSSHILL CT",NORTHLAKE,TX,76247,,,CONTRACTOR,,,,,,,,,,,"GLACIER CUSTOM HOMES",,,,,"GLACIER CUSTOM HOMES","2109 E S H 114 STE 301",SOUTHLAKE,TX,76092,"(877) 301-9255",https://glaciercustomhomes.com/,,,info@glacierhomes.net
TX,DENTON,,"Single Family Homes",6/24/2021,,,3403,"3324 DOVEHILL DR",NORTHLAKE,TX,76247,,,CONTRACTOR,,,,,,,,,,,"JB REI",,,,,"JB REI","1656 BIRCHMONT LN",KELLER,TX,76248-8221,"(817) 471-4286",,,,
TX,DALLAS,20-6026,"Single Family Homes",6/28/2021,,715000,4790,"3205 CANYON CREEK DR",RICHARDSON,TX,75081,,,CONTRACTOR,,,,,,,,,,,"FLORENCE JACKSON HOMES",,,,,"FLORENCE JACKSON HOMES","9934 KIRKHAVEN DR",DALLAS,TX,75238,"(214) 708-9668",,,,
TX,ROCKWALL,"21- 000928","Single Family Homes",6/15/2021,,339055,3569,"3234 BURKE DR","ROYSE CITY",TX,75189,,,CONTRACTOR,,,,,,,,,,,"BLACK IRON CONSTRUCTION",,,,,"BLACK IRON CONSTRUCTION","1712 MORNING GLORY DR",CORINTH,TX,76210-0055,"(940) 300-0554",,,,
TX,ROCKWALL,"21- 000941","Single Family Homes",6/16/2021,,325990,3185,"3253 BURKE DR","ROYSE CITY",TX,75189,,,CONTRACTOR,,,,,,,,,,,"BLACK IRON CONSTRUCTION",,,,,"BLACK IRON CONSTRUCTION","1712 MORNING GLORY DR",CORINTH,TX,76210-0055,"(940) 300-0554",,,,
TX,ROCKWALL,"21- 000943","Single Family Homes",6/7/2021,,320990,2913,"3230 BURKE DR","ROYSE CITY",TX,75189,,,CONTRACTOR,,,,,,,,,,,"BLACK IRON CONSTRUCTION",,,,,"BLACK IRON CONSTRUCTION","1712 MORNING GLORY DR",CORINTH,TX,76210-0055,"(940) 300-0554",,,,
TX,ROCKWALL,"21- 001019","Single Family Homes",6/16/2021,,401660,4228,"3257 BURKE DR","ROYSE CITY",TX,75189,,,CONTRACTOR,,,,,,,,,,,"BLACK IRON CONSTRUCTION",,,,,"BLACK IRON CONSTRUCTION","1712 MORNING GLORY DR",CORINTH,TX,76210-0055,"(940) 300-0554",,,,
TX,ROCKWALL,"21- 001020","Single Family Homes",6/16/2021,,321195,3381,"3249 BURKE DR","ROYSE CITY",TX,75189,,,CONTRACTOR,,,,,,,,,,,"BLACK IRON CONSTRUCTION",,,,,"BLACK IRON CONSTRUCTION","1712 MORNING GLORY DR",CORINTH,TX,76210-0055,"(940) 300-0554",,,,
TX,ROCKWALL,"21- 001055","Single Family Homes",6/16/2021,,333590,2806,"3210 RIBISL LN","ROYSE CITY",TX,75189,,,CONTRACTOR,,,,,,,,,,,"BLACK IRON CONSTRUCTION",,,,,"BLACK IRON CONSTRUCTION","1712 MORNING GLORY DR",CORINTH,TX,76210-0055,"(940) 300-0554",,,,
TX,DALLAS,21-1811,"Single Family Homes",6/18/2021,,724200,6402,"2224 FLAT CREEK DR",RICHARDSON,TX,75081,,,CONTRACTOR,,,,,,,,,,,"SOLO DESIGN ",,,,,"SOLO DESIGN ","224 W CAMPBELL RD #171",RICHARDSON,TX,75080,"(214) 412-6122",,,,
TX,DALLAS,210529,"Single Family Homes",6/30/2021,,300000,12880,"495 BUFFLEHEAD CT",SUNNYVALE,TX,75281,,,CONTRACTOR,,,,,,,,,,,"OLARICHE CONSTRUCTION",,,,,"OLARICHE CONSTRUCTION","744 BRICK ROW APT # 2207",RICHARDSON,TX,75081,"(855) 713-1088",,,,
TX,ELLIS,"TFOP - 21 - 1409","Warehouse & Manufacturing",6/9/2021,"Finish Out",1500000,,"4200 RAILPORT PKWY",MIDLOTHIAN,TX,76065,,,CONTRACTOR,,,,,,,,,,,HASKELL,,,,,HASKELL,"111 RIVERSIDE AVE",JACKSONVILLE,FL,32202-4905,"(904) 791-4500",http://haskell.com/,,info@haskell.com,
TX,DALLAS,21-2455,"Warehouse & Manufacturing",6/28/2021,,602500,258280,"2800 TELECOM PKWY",RICHARDSON,TX,75081,,,CONTRACTOR,,,,,,,,,,,"MCFADDEN & MILLER",,,,,"MCFADDEN & MILLER","11350 LUNA RD",DALLAS,TX,75229-3114,"(972) 401-2356",http://mcfaddenandmiller.com/,,,
TX,DALLAS,21-512,"Warehouse & Manufacturing",6/4/2021,,10456310,35525,"300 W RENNER RD",RICHARDSON,TX,75081,,,CONTRACTOR,,,,,,,,,,,"AUSTIN COMMERCIAL",,,,,"AUSTIN COMMERCIAL","3535 TRAVIS ST",DALLAS,TX,75204-1448,"(214) 443-5700",,,,
